prefecture,city,number,address,name,lat,long,note
愛媛県,伊予市,1-1,平岡,masked,33.7092698,132.7211267,
愛媛県,伊予市,1-2,馬場,県道大平砥部線 キウイ畑西側(徳森重夫氏所有の畑),33.7201576,132.7182513,
愛媛県,伊予市,1-3,四ツ松,県道大平砥部線 大唐橋付近の畑 (福本守氏所有の畑),33.7140178,132.70881,
愛媛県,伊予市,1-4,大地蔵,倉庫前のフェンス (高石信昭氏所有のフェンス),33.7188195,132.7075686,
愛媛県,伊予市,1-5,四ツ松,masked,33.7159918,132.7059494,
愛媛県,伊予市,1-6,石原,「国道56号線沿い (石村和彦氏所有の畑),33.7200871,132.7076555,
愛媛県,伊予市,1-7,下片山,高田勤氏住宅東側にある空き家ブロック塀 (松岡清榮氏管理),33.7304559,132.6989007,
愛媛県,伊予市,2-8,鵜崎,砥部町境界付近県道ガードレール (県道大平砥部線),33.7143556,132.7608985,
愛媛県,伊予市,2-9,両澤,両沢バス停付近県道ガードレール (県道大平砥部線),33.7198082,132.7520043,
愛媛県,伊予市,2-10,下寺,本谷口バス停付近県道ガードパイプ (県道大平砥部線),33.7220302,132.7396071,
愛媛県,伊予市,2-11,東野,唐川コミュニティセンター生垣,33.7224585,132.737161,
愛媛県,伊予市,2-12,中台,中台集会所付近県道ガードパイプ (県道大平砥部線),33.7231546,132.7301228,
愛媛県,伊予市,2-13,中村,北山崎幼稚園国道側フェンス,33.7425813,132.6944691,
愛媛県,伊予市,2-14,中村,鹿島団地敷地内ガードパイプ,33.7405947,132.6936549,
愛媛県,伊予市,3-15,本郡,本郡、長尾博文氏所有の田,33.7444086,132.6884943,
愛媛県,伊予市,3-16,中村,masked,33.7370661,132.696895,
愛媛県,伊予市,3-17,三栄,伊予市総合保健福祉センター正面のフェンス,33.7520159,132.6965356,
愛媛県,伊予市,3-18,尾崎,県営伊予団地入口向側街路樹壇(市道尾崎中村線),33.7493665,132.6916727,
愛媛県,伊予市,3-19,三島町,三島天神社,33.7488268,132.6982227,
愛媛県,伊予市,3-20,三島町,市道三島尾崎線と市道三島町線の交差点付近ガードパイプ(三島町線),33.7451156,132.6992312,
愛媛県,伊予市,4-21,三秋,masked,33.7203729,132.6847895,
愛媛県,伊予市,4-22,三秋,三秋バス停前付近ガードレール (市道三秋線),33.7264944,132.684768,
愛媛県,伊予市,4-23,三秋,三秋消防詰め所前ガードレール,33.722954,132.6846403,
愛媛県,伊予市,4-24,三秋,国道378号線付近市道ガードレール (市道城ケ端線),33.7294991,132.6894307,
愛媛県,伊予市,5-25,森,森川天神橋付近市道ガードレール (市道森川線),33.7414995,132.6821887,
愛媛県,伊予市,5-26,森,扶桑会館前フェンス,33.7378862,132.6782834,
愛媛県,伊予市,5-27,森,三日市橋付近市道ガードレール (市道森川線),33.739965,132.6851606,
愛媛県,伊予市,5-28,森浜,masked,33.7467987,132.6846564,
愛媛県,伊予市,6-29,稲荷東,日本キリスト教団郡中南教会付近のイチヂク畑 (市道西町谷上線沿い),33.7485026,132.7123582,
愛媛県,伊予市,6-30,稲荷東,稲荷東集会所敷地内,33.7467363,132.7098155,
愛媛県,伊予市,6-31,稲荷西,稲荷西集会所敷地内,33.7420169,132.7030563,
愛媛県,伊予市,6-32,稲荷西,masked,33.7429894,132.700181,
愛媛県,伊予市,7-33,松本,郡中小学校屋内運動場西側フェンス,33.7569369,132.7079058,
愛媛県,伊予市,7-34,市ノ坪,西岡総合建設資材置場ブロック塀,33.7547604,132.7155769,
愛媛県,伊予市,7-35,向井原,上吾川消防詰所前フェンス,33.7520553,132.7169475,
愛媛県,伊予市,7-36,白水,白水住宅敷地内,33.7617255,132.7193245,
愛媛県,伊予市,7-37,下吾川,八反地池北西側交差点市道ガードレール (市道下吾川上野線),33.7616273,132.7146065,
愛媛県,伊予市,7-38,池田,バリュー伊予店駐車場西側市道ガードパイプ (市道池田線),33.7632195,132.706871,
愛媛県,伊予市,8-39,米湊,「町家」国道側駐車場フェンス,33.7563486,132.7026299,
愛媛県,伊予市,8-40,灘町,シティーハイツ灘町南側駐車場の南側花壇,33.7551064,132.6995967,
愛媛県,伊予市,8-41,灘町,伊予銀行第2駐車場フェンス,33.7581335,132.7003019,
愛媛県,伊予市,8-42,灘町,郡中地区公民館 (旧ふるさと創生館)前の花壇,33.7582383,132.6991593,
愛媛県,伊予市,8-43,灘町,海岸通り、梢川ポンプ場東側ブロック塀,33.7606645,132.7005594,
愛媛県,伊予市,8-44,灘町,伊予港内港駐車場前ガードパイプ,33.7565832,132.6992659,
愛媛県,伊予市,9-45,本郷,月極駐車場北方市道フェンス(市道三島安広線),33.754309,132.7011599,
愛媛県,伊予市,9-46,米湊,「フジ駐車場フェンス(店舗側),33.7569146,132.7046378,
愛媛県,伊予市,9-47,西野,児童館「あすなろ」 北西側フェンス,33.7553201,132.7060567,
愛媛県,伊予市,10-48,米湊,市役所敷地内国旗掲揚台東側芝生,33.7574163,132.7035703,
愛媛県,伊予市,10-49,下吾川,伊予商工会議所北側フェンス,33.7608995,132.7036923,
愛媛県,伊予市,11-50,米湊,米湊安広住宅敷地内ゴミステーション南フェンス,33.7582704,132.70491,
愛媛県,伊予市,11-51,中浜,湊町多目的広場フェンス,33.7623634,132.7006882,
愛媛県,伊予市,11-52,中浜,大西月極駐車場フェンス,33.7619219,132.7017906,
愛媛県,伊予市,11-53,南新町,大師堂前コンクリート塀,33.7632999,132.7030191,
愛媛県,伊予市,11-54,南新川,川児童公園の南側フェンス,33.7656368,132.701627,
愛媛県,伊予市,11-55,南新川,DCM伊予店南側入り口フェンス,33.76664,132.70683,
愛媛県,伊予市,11-56,北新川,伊予鉄新川駅横ガードレール (県道伊予松山港線),33.7719511,132.7040078,
愛媛県,伊予市,11-57,北新川,北新川市営住宅敷地内フェンス,33.7727393,132.7022496,
愛媛県,伊予市,11-58,中新川,JAえひめ中央伊予工場入口踏切手前横ガードレール (県道伊予松山港線),33.7685353,132.7039394,
愛媛県,伊予市,12-59,鳥ノ木,鳥ノ木団地北側公園市道沿いフェンス,33.7679279,132.7115738,
愛媛県,伊予市,12-60,鳥ノ木,鳥ノ木団地集会所前,33.7672635,132.7122175,
愛媛県,伊予市,12-61,鳥ノ木,鳥ノ木団地東集会所前,33.7693237,132.7137035,
愛媛県,伊予市,12-62,鳥ノ木,鳥ノ木団地南側市道沿い自転車置場,33.7665812,132.7115631,
愛媛県,伊予市,12-63,鳥ノ木,鳥ノ木北団地入口公園用地,33.7711565,132.7160584,
愛媛県,伊予市,12-64,鳥ノ木,市道鳥ノ木団地外環状線ガードレール (稲田内科東側市道ガードレール),33.7692735,132.7110561,
愛媛県,伊予市,13-65,町永,masked,33.7635499,132.72237,
愛媛県,伊予市,13-66,近江,栗林公民館,33.7660896,132.7254277,
愛媛県,伊予市,13-67,北組,masked,33.7696371,132.7217155,
愛媛県,伊予市,13-68,近江,近江 「ふれあい ゆうき広場,33.7690975,132.7259105,
愛媛県,伊予市,13-69,下三谷原,masked,33.7577521,132.7267259,
愛媛県,伊予市,14-70,大替地,上三谷集会所敷地内 北側端,33.7680875,132.7323103,
愛媛県,伊予市,14-71,旗屋,masked,33.7703082,132.7334636,
愛媛県,伊予市,14-72,平松,masked,33.7731353,132.7372294,
愛媛県,伊予市,14-73,客,masked,33.7623078,132.7367064,
愛媛県,伊予市,14-74,上三谷原,masked,33.7642433,132.7396997,
愛媛県,伊予市,15-75,松本,masked,33.7747808,132.7482956,
愛媛県,伊予市,15-76,上野団地,野団地B-5班前緑地帯 看板 東側,33.7770282,132.7418234,
愛媛県,伊予市,15-77,本村,集会所横、玉井照良氏所有の畑,33.7718333,132.7498969,
愛媛県,伊予市,15-78,上郷,郷集会所敷地内,33.7673138,132.7458736,
愛媛県,伊予市,15-79,上野,小学校前市道ガードレール (市道下吾川上野線),33.7714632,132.7411368,
愛媛県,伊予市,15-80,八倉,東公民館前果樹園地フェンス,33.786228,132.7732402,
愛媛県,伊予市,15-81,八倉,JAえひめ中央南伊予園芸八倉倉庫の北側市道ガードレール (市道宝寿西出口線),33.7858134,132.7695468,
愛媛県,伊予市,16-82,八倉,「市道宝寿西出口線と市道八倉一丁地線の交差点付近のガードレール (市道宝寿西出口線),33.784955,132.7655128,
愛媛県,伊予市,16-83,宮下,masked,33.7828555,132.7612096,
愛媛県,伊予市,16-84,宮下,「宮下集会所東側の市道ガードレール (市道宮下本谷線),33.7805905,132.7589995,
愛媛県,伊予市,16-85,宮下,masked,33.7776878,132.7543619,
愛媛県,伊予市,17-86,東町,中山地域事務所前,33.642711,132.7107111,
愛媛県,伊予市,17-87,豊岡一,豊岡一集会所前ガードパイプ,33.6398521,132.7098819,
愛媛県,伊予市,17-88,泉町四,masked,33.6413571,132.7087715,
愛媛県,伊予市,17-89,東町,神社石柱裏,33.6410177,132.710531,
愛媛県,伊予市,17-90,栃谷,集会所横グラウンドネット前,33.6409239,132.7285152,位置怪しめ
愛媛県,伊予市,17-91,泉町一,宮島神社南側石柱,33.6471491,132.7109788,
愛媛県,伊予市,17-92,平沢,沢口バス停南 (伊予鉄南予バス転回場),33.6209696,132.6954195,
愛媛県,伊予市,17-93,重藤,集会所東県道ガードレール (県道串中山線),33.6405979,132.6815525,
愛媛県,伊予市,17-94,永木,旧永木集会所前県道ガードレール (県道串中山線),33.6369267,132.6639169,
愛媛県,伊予市,18-95,永木,旧永木小学校前ガードレール,33.6366777,132.6684834,
愛媛県,伊予市,18-96,永木,永木構造改善センター 金網フェンス,33.6334352,132.6679577,
愛媛県,伊予市,18-97,福住,峰岡商店LPガス容器置場前(県道石畳中山線),33.6296445,132.6681699,
愛媛県,伊予市,18-98,野中,masked,33.6487952,132.7417697,
愛媛県,伊予市,19-99,影之浦,旧亀岡酒店横県道ガードレール (県道中山砥部線),33.6515459,132.7450313,
愛媛県,伊予市,19-100,影之浦,旧野中小学校前県道ガードパイプ (県道中山砥部線),33.6551406,132.7477296,
愛媛県,伊予市,19-101,影之浦,masked,33.6562792,132.7492477,
愛媛県,伊予市,19-102,栗田三元,仁川登バス停横県道ガードレール (県道中山砥部線),33.6599942,132.7535124,
愛媛県,伊予市,20-103,榎峠,masked,33.668209,132.7008928,
愛媛県,伊予市,20-104,竹之内,倉庫前農道ガードレール,33.676361,132.7079738,
愛媛県,伊予市,20-105,日浦,佐礼谷郵便局横三叉路民家入口左ブロック塀,33.6812491,132.7137996,
愛媛県,伊予市,20-106,坪ノ内,佐礼谷支所横駐車場フェンス,33.6823606,132.7186061,
愛媛県,伊予市,20-107,村中,村中集会所横駐車場フェンス,33.6828833,132.727047,
愛媛県,伊予市,20-108,源氏,源氏集会所ブロック塀,33.6912091,132.7136387,
愛媛県,伊予市,21-109,高野川,中川和邦氏所有地内ゴミステーション南側 (市道高野川駅線),33.7042171,132.6599724,
愛媛県,伊予市,21-110,小網,小網公民館横ガードレール (市道灘町小網線),33.6913066,132.6450298,
愛媛県,伊予市,21-111,城ノ下,上灘共栄網裏駐車場入口,33.6903693,132.6429162,
愛媛県,伊予市,21-112,灘町,双海地域事務所前駐車場,33.6875528,132.6386998,
愛媛県,伊予市,21-113,両谷,双海中学校前県道ガードパイプ (県道広田双海線),33.686178,132.6476048,
愛媛県,伊予市,21-114,本郷,由並小学校入口前県道ガードパイプ (県道内子双海線),33.6854363,132.6353173,
愛媛県,伊予市,21-115,本郷,伊予市消防団第9分団第2部詰所南側フェンス,33.684048,132.6332573,
愛媛県,伊予市,21-116,本郷,潮風ふれあい公園入口ガードレール(市道潮風公園線),33.6829946,132.633429,
愛媛県,伊予市,21-117,塩屋,双葉集会所フェンス,33.6782539,132.6233193,位置怪しめ
愛媛県,伊予市,22-118,久保,翠小学校前県道ガードレール(県道中山双海線),33.6801294,132.668427,
愛媛県,伊予市,22-119,岡,masked,33.6824819,132.6799176,
愛媛県,伊予市,22-120,柆野,柆野集会所横多目的広場フェンス,33.6881553,132.6949862,
愛媛県,伊予市,22-121,高見,masked,33.6716638,132.6892937,
愛媛県,伊予市,22-122,大栄,大栄公民館前フェンス,33.6707783,132.6711085,
愛媛県,伊予市,22-123,石久保,大崎商店裏附近ガードレール (市道本谷閏住線),33.6704256,132.6108076,
愛媛県,伊予市,22-124,閏住,閏住入口フェンス(市道本谷閏住線),33.6627557,132.6013015,
愛媛県,伊予市,22-125,日喰,JR下灘駅前ガードレール (市道日喰上浜線),33.655087,132.589304,
愛媛県,伊予市,22-126,上浜,下灘コミュニティセンター入口付近ガードパイプ,33.6520167,132.5792642,
愛媛県,伊予市,23-127,下浜,下灘公園フェンス,33.6504232,132.574665,
愛媛県,伊予市,23-128,奥東,奥西・奥東分岐点県道ガードレール(県道串内子線),33.6414187,132.5897221,
愛媛県,伊予市,23-129,本村,本村みかん集荷場北ガードレール (市道下浜富貴線),33.6459311,132.5612765,
愛媛県,伊予市,23-130,松尾,松尾入口ガードレール (市道本村松尾線),33.629363,132.5568022,
愛媛県,伊予市,23-131,富貴,旧富貴公民館下ガードレール (市道満野法師線),33.6375387,132.5495208,
愛媛県,伊予市,23-132,満野空,満野空公民館手前ガードレール (市道満野法師線),33.6355597,132.5409595,
愛媛県,伊予市,23-133,満野浜,倉根橋横空地,33.6374247,132.5311517,
