prefecture,city,number,address,name,lat,long,note
愛媛県,伊方町,1-1,伊方町湊浦,二宮製材(有第2工場付近,33.4864645,132.3534401,
愛媛県,伊方町,1-2,伊方町湊浦,masked,33.4887794,132.3559284,
愛媛県,伊方町,1-3,伊方町湊浦,梶田電器店付近,33.4906626,132.355738,
愛媛県,伊方町,1-4,伊方町湊浦,伊方町役場付近,33.4884103,132.3540186,
愛媛県,伊方町,1-5,伊方町湊浦,湊浦1113番地付近,33.4883823,132.3521219,
愛媛県,伊方町,1-6,伊方町小中浦,大通自動車整備工場付近,33.4880215,132.34938,
愛媛県,伊方町,1-7,伊方町伊方越,伊方越434番地付近,33.5011666,132.3419536,
愛媛県,伊方町,1-8,伊方町伊方越,伊方越集会所付近,33.5016796,132.3426995,
愛媛県,伊方町,1-9,伊方町亀浦,旧亀浦消防詰所付近,33.4991303,132.3302942,
愛媛県,伊方町,1-10,伊方町亀浦,金比羅神社付近,33.5002397,132.3305088,
愛媛県,伊方町,2-11,伊方町仁田之浜,仁田之浜923番地付近,33.4836207,132.359663,
愛媛県,伊方町,2-12,伊方町仁田之浜,仁田之浜集会所付近,33.4820793,132.3587633,位置怪しめ
愛媛県,伊方町,2-13,伊方町仁田之浜,朝日産業付近,33.4826532,132.3577926,
愛媛県,伊方町,3-14,伊方町大浜,大黒建設備付近,33.4754643,132.3705745,
愛媛県,伊方町,3-15,伊方町大浜,寺山線入口付近,33.4730993,132.3728488,
愛媛県,伊方町,3-16,伊方町大浜,大浜老人憩の家付近,33.474602,132.3699958,
愛媛県,伊方町,4-17,伊方町中之浜,中之浜児童遊園付近,33.4794248,132.3648272,
愛媛県,伊方町,4-18,伊方町中之浜,町巡回バス中之浜停留所付近,33.4801854,132.3648808,
愛媛県,伊方町,4-19,伊方町河内,河内18番地付近,33.4936326,132.3633256,
愛媛県,伊方町,4-20,伊方町河内,河内児童遊園付近,33.4926149,132.3658149,
愛媛県,伊方町,4-21,伊方町河内,河内786番地付近,33.4941074,132.3683779,位置怪しめ
愛媛県,伊方町,6-22,伊方町中浦,中浦集会所付近,33.4878474,132.3471573,
愛媛県,伊方町,6-23,伊方町中浦,福田酒店付近,33.4871305,132.3460576,
愛媛県,伊方町,6-24,伊方町川永田,川永田甲24番地付近,33.4859102,132.341963,
愛媛県,伊方町,6-25,伊方町川永田,川永田甲1129-1番地付近,33.4834539,132.3370626,
愛媛県,伊方町,6-26,伊方町川永田,一里塚付近,33.4847433,132.3394352,
愛媛県,伊方町,6-27,伊方町川永田,長畑団地付近,33.4836326,132.3383998,
愛媛県,伊方町,7-28,伊方町豊之浦,南予バス豊之浦停留所付近,33.4728769,132.3196669,
愛媛県,伊方町,7-29,伊方町豊之浦,豊之浦児童待合所付近,33.4731366,132.3225536,位置怪しめ
愛媛県,伊方町,7-30,伊方町豊之浦,豊之浦627番地付近,33.4697242,132.3223366,
愛媛県,伊方町,8-31,伊方町奥,天徳寺駐車場付近,33.4783568,132.3147072,
愛媛県,伊方町,8-32,伊方町向,向水源地付近,33.4766741,132.312077,
愛媛県,伊方町,8-33,伊方町畑,九町1-1780番地付近,33.4761346,132.3088583,
愛媛県,伊方町,8-34,伊方町畑,九町1-1447-1番地付近,33.4756558,132.307265,
愛媛県,伊方町,9-35,伊方町久保,八幡神社付近,33.4750491,132.3059306,
愛媛県,伊方町,9-36,伊方町須賀,JA西宇和町見事業所付近,33.4739072,132.3057282,
愛媛県,伊方町,9-37,伊方町西,九町1-153番地付近,33.4752134,132.302336,
愛媛県,伊方町,10-38,伊方町二見,南予バス二見停留所付近,33.4707527,132.2956218,
愛媛県,伊方町,10-39,伊方町二見,旧町見中学校付近,33.469795,132.2955258,
愛媛県,伊方町,10-40,伊方町加周,町見公民館二見分館付近,33.4649905,132.2882517,
愛媛県,伊方町,11-41,伊方町田之浦,二見甲3034番地付近,33.4609836,132.2852641,
愛媛県,伊方町,11-42,伊方町田之浦,田之浦集会所付近,33.463834,132.286953,
愛媛県,伊方町,11-43,伊方町古屋敷,二見甲2100番地付近,33.467184,132.285119,位置怪しめ
愛媛県,伊方町,12-44,伊方町大成,大成消防ポンプ格納庫付近,33.4730453,132.2757657,
愛媛県,伊方町,12-45,伊方町大成,スクールバス待合所付近,33.4724307,132.2775355,
愛媛県,伊方町,13-46,伊方町鳥津,鳥津集会所付近,33.4765969,132.2848845,
愛媛県,伊方町,13-47,伊方町島津,津消防詰所付近,33.4780357,132.2849652,
愛媛県,伊方町,14-48,伊方町三机,船揚場付近,33.4563333,132.2465917,
愛媛県,伊方町,14-49,伊方町三机,masked,33.4603791,132.2450548,
愛媛県,伊方町,14-50,伊方町三机,天理教付近,33.4581325,132.243424,
愛媛県,伊方町,14-51,伊方町三机,みんなの広場付近,33.4568939,132.244576,
愛媛県,伊方町,14-52,伊方町三机,masked,33.455493,132.238486,
愛媛県,伊方町,14-53,伊方町三机,松之浜集会所付近,33.4587825,132.2390332,
愛媛県,伊方町,14-54,伊方町三机,三机乙3673-3番地付近,33.4526017,132.2632617,
愛媛県,伊方町,15-55,伊方町小島,小島児童待合所付近,33.4464909,132.1996113,位置怪しめ
愛媛県,伊方町,15-56,伊方町小島,小島集会所付近,33.4447426,132.1976742,
愛媛県,伊方町,15-57,伊方町小島,小島消防詰所付近,33.4456804,132.1996524,
愛媛県,伊方町,15-58,伊方町塩成,塩成集会所付近,33.4442307,132.2564853,
愛媛県,伊方町,15-59,伊方町塩成,愛光産業倉庫付近,33.4424943,132.2597787,
愛媛県,伊方町,15-60,伊方町塩成,中網代バス停付近,33.4413617,132.2541029,
愛媛県,伊方町,15-61,伊方町塩成,塩成933-1番地付近,33.4392801,132.2524829,
愛媛県,伊方町,16-62,伊方町三机,佐市三叉路バス停付近,33.4604694,132.267129,
愛媛県,伊方町,16-63,伊方町足成,masked,33.4700921,132.2674053,
愛媛県,伊方町,16-64,伊方町足成,足成集会所付近,33.4729649,132.2678961,
愛媛県,伊方町,17-65,伊方町大江,JA西宇和大江集荷所付近,33.4484738,132.228336,
愛媛県,伊方町,17-66,伊方町大江,大江みんなの広場付近,33.4468065,132.2277486,
愛媛県,伊方町,17-67,伊方町志津,JA西宇和志津集荷所付近,33.44234,132.2157066,
愛媛県,伊方町,17-68,伊方町志津,志津児童待合所付近,33.4440009,132.2167745,
愛媛県,伊方町,19-69,伊方町大久,大久保育所付近,33.4143589,132.1928251,
愛媛県,伊方町,19-70,伊方町大久,大久集会所付近,33.4148112,132.1895957,
愛媛県,伊方町,19-71,伊方町大久,大久1533番地付近,33.4143589,132.1947026,
愛媛県,伊方町,19-72,伊方町大久,大久農道入口三叉路付近,33.4159177,132.1952508,
愛媛県,伊方町,19-73,伊方町大久,佐田岬リゾート大久3069番地付近,33.4238364,132.2034008,
愛媛県,伊方町,20-74,伊方町川之浜,川之浜コミュニティ広場付近,33.4254771,132.2217291,
愛媛県,伊方町,20-75,伊方町川之浜,瀬戸社会教育会館付近,33.4252657,132.220035,
愛媛県,伊方町,20-76,伊方町川之浜,川之浜1888-2番地付近,33.4275647,132.218997,
愛媛県,伊方町,21-77,伊方町田部,田部千代田橋付近,33.429369,132.1768379,
愛媛県,伊方町,21-78,伊方町田部,田部消防詰所付近,33.4286527,132.1772375,
愛媛県,伊方町,21-79,伊方町田部,町道田部中央線フナクボ付近,33.4267862,132.1760893,
愛媛県,伊方町,21-80,伊方町高茂,高茂消防倉庫付近,33.4294499,132.1965774,
愛媛県,伊方町,21-81,伊方町高茂,高茂下バス停付近,33.4310173,132.1874022,
愛媛県,伊方町,22-82,伊方町神崎,釈迦寺付近,33.4314749,132.1597782,
愛媛県,伊方町,22-83,伊方町神崎,神崎445-1番地付近,33.4317681,132.1603227,
愛媛県,伊方町,22-84,伊方町神崎,旧ブリーズハウス付近,33.4332946,132.1605964,
愛媛県,伊方町,23-85,伊方町三崎,三崎支所駐車場付近,33.3880819,132.12277,位置怪しめ
愛媛県,伊方町,23-86,伊方町三崎,傳宗寺付近,33.3896518,132.122829,
愛媛県,伊方町,23-87,伊方町三崎,三崎駐在所付近,33.3917111,132.117605,位置怪しめ
愛媛県,伊方町,23-88,伊方町三崎,三崎公園付近,33.391748,132.1136769,
愛媛県,伊方町,23-89,伊方町三崎,サザエバヤ集会所付近,33.383251,132.0858329,
愛媛県,伊方町,23-90,伊方町三崎,masked,33.3863566,132.1266476,
愛媛県,伊方町,23-91,伊方町高浦,高浦公園付近,33.3809648,132.1204607,
愛媛県,伊方町,24-92,伊方町串,半田農道入口付近,33.3792311,132.0658815,
愛媛県,伊方町,24-93,伊方町串,串消防詰所付近,33.3719953,132.053097,
愛媛県,伊方町,24-94,伊方町串,串集会所付近,33.3716213,132.0518189,
愛媛県,伊方町,24-95,伊方町串,串新農道終点付近,33.3709443,132.0504067,
愛媛県,伊方町,24-96,伊方町串,masked,33.3653263,132.0469655,
愛媛県,伊方町,25-97,伊方町佐田,佐田集会所付近,33.3757435,132.1158708,
愛媛県,伊方町,25-98,伊方町大佐田,大佐田消防詰所付近,33.3718917,132.1170265,
愛媛県,伊方町,25-99,伊方町大佐田,大佐田集会所付近,33.3720126,132.1158544,
愛媛県,伊方町,25-100,伊方町井野浦,井野浦集会所付近,33.3701965,132.1127755,
愛媛県,伊方町,25-101,伊方町井野浦,井野浦埋立地西側付近,33.3721262,132.1112373,
愛媛県,伊方町,26-102,伊方町与侈,よぼこりばし付近,33.3864787,132.0793471,
愛媛県,伊方町,26-103,伊方町与侈,与侈集会所付近,33.3893965,132.0813709,
愛媛県,伊方町,26-104,伊方町与侈,防火水槽付近,33.3911233,132.0818484,
愛媛県,伊方町,26-105,伊方町与侈,三崎漁協与侈支所付近,33.3885027,132.0795303,
愛媛県,伊方町,27-106,伊方町正野,野坂神社付近,33.362365,132.0481022,
愛媛県,伊方町,27-107,伊方町正野,正野集会所付近,33.3544679,132.0391223,
愛媛県,伊方町,27-108,伊方町正野,正野2458-2番地付近,33.3488744,132.0278366,
愛媛県,伊方町,27-109,伊方町正野,長浜漁港入口付近,33.3477354,132.0250413,
愛媛県,伊方町,28-110,伊方町二名津,旧二名津保育所付近,33.4018558,132.1407995,
愛媛県,伊方町,28-111,伊方町二名津,二名津消防詰所付近,33.4017351,132.1386005,
愛媛県,伊方町,28-112,伊方町二名津,旧二名津診療所付近,33.4019009,132.1370247,
愛媛県,伊方町,28-113,伊方町二名津,田村菓子舗付近,33.4028704,132.1369711,
愛媛県,伊方町,28-114,伊方町二名津,二名津公園付近,33.4032399,132.1360216,
愛媛県,伊方町,29-115,伊方町名取,町巡回バス名取停留所付近,33.3843528,132.1492628,位置怪しめ
愛媛県,伊方町,29-116,伊方町名取,岡の川水汲み場付近,33.3859384,132.1505878,
愛媛県,伊方町,29-117,伊方町名取,名取56番地付近,33.3831048,132.1492714,位置怪しめ
愛媛県,伊方町,29-118,伊方町名取,名取集会所付近,33.3830629,132.1501718,
愛媛県,伊方町,30-119,伊方町松,集落入口ごみステーション付近,33.4139869,132.1178478,
愛媛県,伊方町,30-120,伊方町松,松集会所付近,33.4121533,132.1171744,
愛媛県,伊方町,30-121,伊方町松,農道ごみステーション付近,33.4107723,132.1163733,
愛媛県,伊方町,30-122,伊方町松,町巡回バス松停留所付近,33.4126548,132.1165023,
愛媛県,伊方町,31-123,伊方町釜木,県道沿い掲示板付近,33.4057102,132.1576329,
愛媛県,伊方町,31-124,伊方町釜木,MISAKIBASE倉庫付近,33.4066465,132.1571195,
愛媛県,伊方町,31-125,伊方町釜木,釜木漁港付近,33.4069242,132.1561002,
愛媛県,伊方町,31-126,伊方町釜木,釜木集会所付近,33.4058158,132.1558025,
愛媛県,伊方町,32-127,伊方町平磯,県道沿い掲示板付近,33.4123311,132.1463361,
愛媛県,伊方町,32-128,伊方町平磯,JA西宇和平磯集荷場付近,33.4111645,132.1460786,
愛媛県,伊方町,32-129,伊方町明神,明神集会所付近,33.4063249,132.1278423,
愛媛県,伊方町,32-130,伊方町明神,明神集会所上消火栓ボックス付近,33.4059116,132.1263075,
愛媛県,伊方町,32-131,伊方町明神,三崎漁協明神支所付近,33.4112873,132.1272972,
