prefecture,city,number,address,name,lat,long,note
愛媛県,八幡浜市,1,本町一丁目60番地1,八幡浜市民図書館前,33.4584479,132.426252,
愛媛県,八幡浜市,2,1182番地1,三瀬病院前,33.4628782,132.4233981,
愛媛県,八幡浜市,3,江戸岡一丁目1番5号,ひかり5駐車場フェンス,33.4576763,132.4316543,
愛媛県,八幡浜市,4,江戸岡一丁目7番1号,江戸岡小学校前花壇,33.4574045,132.4337733,
愛媛県,八幡浜市,5,松柏乙1101番地1,保健福祉総合センター,33.4602838,132.4383112,
愛媛県,八幡浜市,6,産業通255－1地先,出合橋ガードパイプ,33.4543489,132.4322411,
愛媛県,八幡浜市,7,北浜一丁目1番1号,市役所前,33.4628935,132.4233856,
愛媛県,八幡浜市,8,幸町1557番地2,梅美人酒造前,33.4653929,132.425824,
愛媛県,八幡浜市,9,大平1番耕地827番地2,市立八幡浜総合病院医師住宅,33.4672053,132.4270006,
愛媛県,八幡浜市,10,大平1番耕地759番地2,浜っ子共同作業所前,33.4672053,132.4270006,
愛媛県,八幡浜市,11,向灘3063番地,白浜小学校裏ブロック塀,33.4633697,132.4073587,緯度経度は怪しい
愛媛県,八幡浜市,12,向灘860－2地先,向灘ＪＡ跡地駐車場前,33.4633697,132.4073587,緯度経度は怪しい
愛媛県,八幡浜市,13,大平2番耕地1046－3地先,津羽井警鐘台上,33.4672317,132.426924,緯度経度は怪しい
愛媛県,八幡浜市,14,大平2番耕地985番地3,緑ヶ丘公営住宅前ガードレール,33.4672317,132.426924,緯度経度は怪しい
愛媛県,八幡浜市,15,182番地1及び182番地3,中央駐車場金網,33.4628782,132.4233981,
愛媛県,八幡浜市,16,北浜一丁目1590番地24,北浜立体駐車場植え込み,33.4625052,132.4224124,
愛媛県,八幡浜市,17,旭町一丁目1510番地29,大黒山裏ブロック塀,33.4587306,132.4201086,
愛媛県,八幡浜市,18,新川1510番地59,新川遊園地金網,33.4577955,132.419619,
愛媛県,八幡浜市,19,大谷口二丁目1番29号,大谷口市営住宅前金網,33.4559419,132.4221735,
愛媛県,八幡浜市,20,広瀬三丁目4番3号,松藤小学校前 生け垣,33.4546536,132.427055,
愛媛県,八幡浜市,21,古町二丁目656－3地先,八幡浜工業高校入口前ガードレール,33.4525659,132.4310126,
愛媛県,八幡浜市,22,元城町48番地,神山地区公民館前ガードパイプ,33.4628782,132.4233981,緯度経度は怪しい
愛媛県,八幡浜市,23,五反田1番耕地6番地9,王子の森公園,33.4476322,132.4385945,緯度経度は怪しい
愛媛県,八幡浜市,24,五反田1番耕地173番地1,旧神山幼稚園前生垣,33.4476322,132.4385945,
愛媛県,八幡浜市,25,五反田1番耕地106番地,くじら病院寮ライム前金網,33.4476322,132.4385945,緯度経度は怪しい
愛媛県,八幡浜市,26,五反田1番耕地881－2地先,神山こども園前ガードレール,33.4476322,132.4385945,緯度経度は怪しい
愛媛県,八幡浜市,27,五反田2番耕地36番地1,川舞バス停横ガードパイプ,33.4362572,132.4455509,緯度経度は怪しい
愛媛県,八幡浜市,28,八代218－1先,国道378号擁壁,33.4373417,132.4282484,緯度経度は怪しい
愛媛県,八幡浜市,29,布喜川835－1地先,布喜川バス停横ガードレール,33.4252782,132.4405325,
愛媛県,八幡浜市,30,横平乙308－5地先,横平集会所横,33.4156074,132.4307055,緯度経度は怪しい
愛媛県,八幡浜市,31,松柏丙654番地1,八幡浜高校校門横ブロック塀,33.46069960000001,132.4414841,緯度経度は怪しい
愛媛県,八幡浜市,32,松柏丙539－1地先,柏木宅横（北国屋モータープール横）ガードレール,33.4688,132.4491297,
愛媛県,八幡浜市,33,松柏丙99－5地先,197号線ガードパイプ,33.4688,132.4491297,
愛媛県,八幡浜市,34,郷4番耕地1番地,千丈小学校前フェンス,33.4626295,132.4493259,緯度経度は怪しい
愛媛県,八幡浜市,35,松柏甲54番地2,木多町市営住宅金網,33.465176,132.4547164,
愛媛県,八幡浜市,36,郷3番耕地85－4地先,新開町住宅前ガードパイプ,33.4656511,132.4574205,緯度経度は怪しい
愛媛県,八幡浜市,37,郷1番耕地119番地,上郷集会所上,33.474203,132.4739926,緯度経度は怪しい
愛媛県,八幡浜市,38,舌間2番耕地493番地1地先,旧舌田小学校沿ガードレール,33.4442045,132.4165717,
愛媛県,八幡浜市,39,合田2140番地1,旧舌田保育所ブロック塀,33.4417835,132.4159127,
愛媛県,八幡浜市,40,合田2147番地39,合田遊園地金網,33.4385094,132.4116737,
愛媛県,八幡浜市,41,川之内1番耕地182番地1,旧川之内小学校金網,33.4702061,132.4837645,緯度経度は怪しい
愛媛県,八幡浜市,42,川之内1番耕地440番地3,柏木盈宅上ガードレール向側,33.4702061,132.4837645,緯度経度は怪しい
愛媛県,八幡浜市,43,高野地714－1地先,旧長谷小学校旧バス停横,33.4787464,132.4494743,
愛媛県,八幡浜市,44,高野地441番地,高野地集荷場旧バス停横,33.4758634,132.4481991,緯度経度は怪しい
愛媛県,八幡浜市,45,中津川4番耕地640番地1,中津川旧バス停横,33.4314039,132.4544371,緯度経度は怪しい
愛媛県,八幡浜市,46,若山2番耕地33－4地先,八幡浜市役所双岩出張所横ガードパイプ,33.4250897,132.4586378,緯度経度は怪しい
愛媛県,八幡浜市,47,若山1番耕地184－1地先,釜倉口旧バス停北側,33.4224174,132.4606224,
愛媛県,八幡浜市,48,谷5番耕地304地先,谷集会所前ガードレール,33.4102454,132.443599,
愛媛県,八幡浜市,49,川上町白石乙410番地,中口統治様倉庫,33.4296317,132.4068081,緯度経度は怪しい
愛媛県,八幡浜市,50,川上町川名津甲305番地,川上小学校横北側コンクリート塀,33.4226465,132.4078871,緯度経度は怪しい
愛媛県,八幡浜市,51,川上町川名津甲305番地,川上小学校裏公民館側ブロック塀,33.4226465,132.4078871,緯度経度は怪しい
愛媛県,八幡浜市,52,川上町上泊甲812－1地先,延命庵下壁面,33.4256195,132.4007811,
愛媛県,八幡浜市,53,真網代乙354番地1,二宮直之宅前ブロック塀,33.4145249,132.3928711,
愛媛県,八幡浜市,54,真網代丙588番地3,西宇和農協真穴事業所選果場,33.4123925,132.3942222,
愛媛県,八幡浜市,55,真網代丙655番地3地先,小網代バス停横ガードレール,33.4162526,132.3962962,緯度経度は怪しい
愛媛県,八幡浜市,56,穴井3番耕地796番地23,穴井遊園地金網,33.3987915,132.3980197,
愛媛県,八幡浜市,57,大島2番耕地80番地,大島神社下,33.3845956,132.3410618,
愛媛県,八幡浜市,58,大島3番耕地221番地,旧大島小学校教職員住宅第10棟A,33.3882497,132.3419269,緯度経度は怪しい
愛媛県,八幡浜市,59,日土町2番耕地11－6地先,日土橋横ガードレール,33.495211,132.4208843,緯度経度は怪しい
愛媛県,八幡浜市,60,日土町2番耕地262－2地先,西宇和農協日土出張所前ガードレール,33.495211,132.4208843,緯度経度は怪しい
愛媛県,八幡浜市,61,日土町2番耕地845－1地先,日土小学校沿ガードレール,33.495211,132.4208843,緯度経度は怪しい
愛媛県,八幡浜市,62,日土町7番耕地520地先,小坂部落入口前ガードレール,33.5131895,132.4398786,緯度経度は怪しい
愛媛県,八幡浜市,63,日土町7番耕地2470－3地先,森山集会所前,33.5131895,132.4398786,緯度経度は怪しい
愛媛県,八幡浜市,64,日土町7番耕地3097－3地先,榎野集会所前ガードレール,33.5131895,132.4398786,緯度経度は怪しい
愛媛県,八幡浜市,65,日土町6番耕地819－3地先,新道橋旧バス停,33.5105355,132.4574133,緯度経度は怪しい
愛媛県,八幡浜市,66,日土町5番耕地3697－1地先,尾の花旧バス停,33.5043444,132.4552929,緯度経度は怪しい
愛媛県,八幡浜市,67,日土町6番耕地1373－1地先,筵田集会所横ガードレール,33.5105355,132.4574133,緯度経度は怪しい
愛媛県,八幡浜市,68,日土町6番耕地2389－1地先,野地旧バス停石垣,33.5105355,132.4574133,緯度経度は怪しい
愛媛県,八幡浜市,69,保内町須川376番地1,新田神社横ガードパイプ,33.4818305,132.4214058,
愛媛県,八幡浜市,70,保内町須川78番地1,喜須来地区公民館金網,33.4837284,132.4142333,
愛媛県,八幡浜市,71,保内町喜木1番耕地223番地1,神越下集会所金網,33.4834565,132.4073179,
愛媛県,八幡浜市,72,保内町須川606－8地先,Aコープ喜須来店前道路壁面,33.4849919,132.4141513,
愛媛県,八幡浜市,73,保内町喜木2番耕地132番地1,旧喜須来保育所金網,33.4861508,132.4117179,緯度経度は怪しい
愛媛県,八幡浜市,74,保内町川之石3番耕地297－9地先,川之石橋バス停横ガードレール,33.4767888,132.3948851,
愛媛県,八幡浜市,75,保内町川之石6番耕地190番地3,内之浦公園フェンス,33.475724,132.3857377,緯度経度は怪しい
愛媛県,八幡浜市,76,保内町川之石1番耕地150番地1,和田町教職員住宅金網,33.4740797,132.3992023,緯度経度は怪しい
愛媛県,八幡浜市,77,保内町川之石6番耕地455番地1,雨井公民館前,33.475724,132.3857377,緯度経度は怪しい
愛媛県,八幡浜市,78,保内町川之石8番耕地5番地2,宮岡商店横畑,33.4695562,132.3790902,緯度経度は怪しい
愛媛県,八幡浜市,79,保内町川之石13番耕地43－2地先,黒田利人宅前石垣,33.4737717,132.4016944,
愛媛県,八幡浜市,80,保内町川之石1番耕地237番地120,新楠町公民館フェンス,33.4740797,132.3992023,緯度経度は怪しい
愛媛県,八幡浜市,81,保内町宮内2番耕地46番地,新清水町公園フェンス,33.4852369,132.3969807,緯度経度は怪しい
愛媛県,八幡浜市,82,保内町宮内1番耕地5－1地先,保内ボウル前ガードパイプ,33.4833532,132.4076468,緯度経度は怪しい
愛媛県,八幡浜市,83,保内町宮内1番耕地658番地1,西宇和農協宮内連絡所駐車場前畑,33.4833532,132.4076468,緯度経度は怪しい
愛媛県,八幡浜市,84,保内町宮内4番耕地13−1地先,二宮英明宅前空地,33.4926082,132.3946709,緯度経度は怪しい
愛媛県,八幡浜市,85,保内町宮内1番耕地465番地3,NTT保内電話交換所金網,33.4833532,132.4076468,緯度経度は怪しい
愛媛県,八幡浜市,86,保内町宮内1番耕地454−1地先,大竹集会所ガードパイプ,33.4833532,132.4076468,緯度経度は怪しい
愛媛県,八幡浜市,87,保内町宮内6番耕地11−3地先,二宮酒店横ガードパイプ,33.5028873,132.3983642,
愛媛県,八幡浜市,88,保内町宮内6番耕地447−1地先,両家公民館横ガードレール,33.5028873,132.3983642,
愛媛県,八幡浜市,89,保内町宮内10番耕地46−1地先,鼓尾バス停横金網,33.4980384,132.3781086,緯度経度は怪しい
愛媛県,八幡浜市,90,保内町宮内10番耕地674−3地先,田上稔宅上側ガードレール,33.4980384,132.3781086,緯度経度は怪しい
愛媛県,八幡浜市,91,保内町磯崎1337番地2,敬作公園横ガードレール,33.5334386,132.418419,緯度経度は怪しい
愛媛県,八幡浜市,92,保内町磯崎1368番地2,NTT磯津電話交換所フェンス,33.5424907,132.415563,
愛媛県,八幡浜市,93,保内町喜木津2番耕地330−2地先,喜木津集会所西側ガードレール,33.527078,132.386317,緯度経度は怪しい
愛媛県,八幡浜市,94,保内町喜木津2番耕地377番地,喜木津神社横道路壁面,33.527078,132.386317,緯度経度は怪しい
愛媛県,八幡浜市,95,保内町広早460番地2,守田弘美宅前ガードパイプ,33.5204718,132.3768303,緯度経度は怪しい
愛媛県,八幡浜市,96,保内町広早100番地先,広早地区上り口壁面,33.524247,132.3790985,緯度経度は怪しい
