prefecture,city,number,address,name,lat,long,note
愛媛県,四国中央市,1-1,川之江町余木688-3付近,masked,34.036655,133.594478,
愛媛県,四国中央市,1-2,川之江町余木1238-1,二名ふれあい館前ガードパイプ,34.033233,133.589975,
愛媛県,四国中央市,1-3,川之江町長須329-3付近,長須集会所横ガードレール,34.031142,133.58709,
愛媛県,四国中央市,1-4,川之江町3959-2付近,masked,34.029181,133.583467,
愛媛県,四国中央市,2-1,川之江町3815付近,宮ノ谷長須線ガードレール,34.024275,133.581335,
愛媛県,四国中央市,2-2,川之江町3575-1付近,篠原芳通横西ガードレール,34.019614,133.578758,
愛媛県,四国中央市,2-3,川之江町1516-1,消防署東分署西側ブロック塀,34.017084,133.573516,
愛媛県,四国中央市,2-4,川之江町2379-3,masked,34.01493,133.577978,
愛媛県,四国中央市,2-5,川之江町2233付近,四国中央病院駐車場フェンス,34.011708,133.580104,
愛媛県,四国中央市,2-6,川之江町2962-5付近,バリュー前ガードパイプ（大門ハイツ南）,34.011013,133.585894,
愛媛県,四国中央市,2-7,川之江町3132-2,天生津集会所フェンス,34.009884,133.586978,
愛媛県,四国中央市,3-1,川之江町2524-1付近,㈱マサノ本社工場付近ガードバイプ,34.017199,133.576102,
愛媛県,四国中央市,3-2,川之江町1706-1,川之江信用金庫本店 擁壁,34.014951,133.572301,
愛媛県,四国中央市,3-3,川之江町1918-3,フジ川之江店南側駐車場フェンス,34.012034,133.572886,
愛媛県,四国中央市,3-4,川之江町1819付近,にぎわい広場駐輪場ガードパーブ,34.012778,133.57519,
愛媛県,四国中央市,3-5,川之江町1961,山下公園入口柵,34.011149,133.572936,
愛媛県,四国中央市,3-6,川之江町2093-1付近,川之江ふれあい交流センター付帯駐車場ガードパイブ,34.008813,133.574589,
愛媛県,四国中央市,3-7,川之江町2255,川之江高等学校コンクリート塀,34.011054,133.576359,
愛媛県,四国中央市,3-8,川之江町826番地付近,丸住製紙㈱駐車場前ガードパイブ,34.003445,133.569338,
愛媛県,四国中央市,3-9,川之江町193番地,ハローズ川之江店入口ガードパイブ,34.000696,133.567408,
愛媛県,四国中央市,3-10,川之江町5-1,masked,34.000925,133.571365,
愛媛県,四国中央市,4-1,川之江町599-23付近,川之江運動公園前フェンス,34.010639,133.566473,
愛媛県,四国中央市,4-2,川之江町1027-21,川之江こども園フェンス,34.010937,133.569423,
愛媛県,四国中央市,4-3,川之江町1143-3,仏法寺駐車場フェンス,34.01319,133.570551,
愛媛県,四国中央市,4-4,川之江町1275-2,masked,34.016661,133.570946,
愛媛県,四国中央市,4-5,川之江町1345,masked,34.015892,133.569466,
愛媛県,四国中央市,4-6,川之江町4058-12,今治ヤンマー西三角緑地ガードレール,34.016229,133.571584,
愛媛県,四国中央市,4-7,川之江町1012付近,川之江体育館前表示板西側,34.009735,133.571148,
愛媛県,四国中央市,4-8,川之江町4017-2,浜公園多目的グラウンド東側フェンス,34.0194792,133.5666262,
愛媛県,四国中央市,5-1,金生町下分254,masked,34.006922,133.577007,
愛媛県,四国中央市,5-2,金生町下分285,寺尾製紙前ガードパイプ,34.00621,133.578765,
愛媛県,四国中央市,5-3,金生町下分1665,金生第一小学校フェンス,34.002304,133.582639,
愛媛県,四国中央市,5-4,金生町下分791-2,川之江窓口センター駐車場フェンス,34.0022223,133.5779705,
愛媛県,四国中央市,5-5,金生町下分1234,イトマン㈱住吉倉庫フェンス,33.997815,133.57903,
愛媛県,四国中央市,5-6,金生町下分987,建設会館コンクリート塀,33.999343,133.57574,
愛媛県,四国中央市,5-7,金生町下分1405,masked,34.00146,133.581062,
愛媛県,四国中央市,5-8,金生町下分1550,高尾酒店向ブロック塀,33.998813,133.583819,
愛媛県,四国中央市,5-9,金生町下分2010-2付近,川原田橋北側欄干,33.997779,133.584837,
愛媛県,四国中央市,5-10,金生町下分2205付近,市営川原田住宅内三角緑地,33.999288,133.589495,
愛媛県,四国中央市,6-1,金生町下分2516-1,山田井橋北側ガードレール,34.004954,133.585398,
愛媛県,四国中央市,6-2,金生町山田井34-1付近,金生川ガードレール,34.006112,133.5897,
愛媛県,四国中央市,6-3,金生町山田井361-1,井原鉄工所駐車場向かいガードパイプ,34.002541,133.592145,
愛媛県,四国中央市,6-4,金生町山田井982,masked,34.007781,133.593094,
愛媛県,四国中央市,6-5,金生町山田井882,生きがい研修センターフェンス,34.011135,133.594737,
愛媛県,四国中央市,6-6,金生町山田井657,城ヶ谷団地入口荒神橋上流側欄干,34.015263,133.599087,
愛媛県,四国中央市,6-7,金生町山田井1498,かわのえテニスセンター入口西ガードレール,34.019173,133.604608,
愛媛県,四国中央市,7-1,金生町山田井乙261-4付近,切山集会所付近ガードレール,34.021437,133.6363278,
愛媛県,四国中央市,7-2,金生町山田井2050付近,真鍋家住宅看板付近ガードレール,34.0174,133.6344,緯度経度は怪しい
愛媛県,四国中央市,8-1,上分町1208-5付近,本町金沢線川沿いガードレール(金沢橋付近),33.992577,133.590801,
愛媛県,四国中央市,8-2,上分町837-32付近,平尾山付近ガードレール,33.989347,133.586512,
愛媛県,四国中央市,8-3,上分町626付近,金生川ダム放流注意看板付近ガードレール,33.994044,133.589552,
愛媛県,四国中央市,8-4,上分町795-1,上分小学校体育館東フェンス,33.992697,133.586787,
愛媛県,四国中央市,8-5,上分町337-6,井川自動車工業前ゴミステーション付近ガードレール,33.992076,133.582742,
愛媛県,四国中央市,8-6,上分町819-2,クックババ前ガードパイプ,33.991067,133.584455,
愛媛県,四国中央市,8-7,上分町585-1付近,安藤薬品前ガードレール,33.9945747,133.5876041,
愛媛県,四国中央市,8-8,上分町455-1,石丸製紙前交差点ガードパイプ,33.996216,133.58318,
愛媛県,四国中央市,8-9,上分町231付近,西川原公園南側フェンス,33.99534,133.579089,
愛媛県,四国中央市,9-1,妻鳥町2097,さおの森歯科東側ガードレール,33.985763,133.575379,
愛媛県,四国中央市,9-2,妻鳥町上樋ノ上1795-1,イオンタウン川之江ガードレール,33.985888,133.572076,
愛媛県,四国中央市,9-3,妻鳥町2047-1サンハイツ付近,土居橋西側欄干,33.987398,133.578181,
愛媛県,四国中央市,9-4,妻鳥町1375付近,妻鳥バス停県道ガードレール,33.99039,133.574022,
愛媛県,四国中央市,9-5,妻鳥町1121-1,川之江育苗センター前フェンス,33.991372,133.577439,
愛媛県,四国中央市,9-6,妻鳥町1379,中上集会所フェンス,33.9896377,133.5746696,
愛媛県,四国中央市,9-7,妻鳥町1480-2,妻鳥公民館北側フェンス,33.992258,133.571199,
愛媛県,四国中央市,9-8,妻鳥町1083,松木児童公園前フェンス,33.995082,133.575308,
愛媛県,四国中央市,10-1,妻鳥町794,自治会 中之町公会堂,33.999009,133.572333,
愛媛県,四国中央市,10-2,妻鳥町976-1,市道 綿市交差点ガードパイプ,33.995892,133.571868,
愛媛県,四国中央市,10-3,妻鳥町947,自治会 綿市集会所横フェンス,33.9954,133.570046,
愛媛県,四国中央市,10-4,妻鳥町1656付近,県道 はるやま前交差点ガードパイプ,33.990893,133.567018,
愛媛県,四国中央市,10-5,妻鳥町312-1,masked,33.995889,133.565161,
愛媛県,四国中央市,10-6,妻鳥町185-1,法人 ㈱四国眞永フェンス,33.9988837,133.5620843,
愛媛県,四国中央市,10-7,妻鳥町41,市道 大王製紙パルプヤード東ガードレール,33.999815,133.56071,
愛媛県,四国中央市,10-8,川之江町414,自治会 浜田公会堂ブロック塀,34.004097,133.560628,
愛媛県,四国中央市,11-1,金田町三角寺42-3,三角寺入口ガードレール,33.967728,133.587282,
愛媛県,四国中央市,11-2,金田町半田丙92付近,JR平山バス停前ガードレール,33.9789,133.612448,
愛媛県,四国中央市,11-3,金田町金川1115付近,三角寺川橋南ガードレール,33.978391,133.592517,
愛媛県,四国中央市,11-4,金田町金川1592-1付近,東金川バス停横ガードレール,33.981122,133.596057,
愛媛県,四国中央市,11-5,金田町金川924-2,東金川集会所フェンス,33.978733,133.601092,
愛媛県,四国中央市,11-6,金田町金川330,金田公民館フェンス,33.986082,133.596699,
愛媛県,四国中央市,11-7,金田町金川44付近,市道本町金沢線西側ガードレール,33.990385,133.594784,
愛媛県,四国中央市,11-8,金田町金川1-5付近,轡橋ガードレール,33.989683,133.593413,
愛媛県,四国中央市,11-9,金田町金川174-1,市営南部団地3棟前フェンス,33.989299,133.597648,
愛媛県,四国中央市,12-1,金田町半田甲479,飼谷入口ガードレール,33.99275,133.602645,
愛媛県,四国中央市,12-2,金田町半田乙362-3,熊野神社コンクリート塀,33.991503,133.602921,
愛媛県,四国中央市,12-3,金田町半田282-1付近,県道5号川之江大豊線起点ガードパイプ,33.992173,133.606918,
愛媛県,四国中央市,12-4,金田町半田丙254-1付近,masked,33.982645,133.621272,
愛媛県,四国中央市,13-1,柴生町664付近,高速高架下ガードレール,33.996054,133.62084,
愛媛県,四国中央市,13-2,柴生町442-1付近,市道柴生下川線ガードレール,33.994234,133.612548,
愛媛県,四国中央市,13-3,川滝町下山2110-5,石川自治会館フェンス,33.991368,133.626296,
愛媛県,四国中央市,13-4,川滝町下山2302付近,喜井酒店西側ガードパイプ,33.9918406,133.623869,
愛媛県,四国中央市,13-5,川滝町下山1882-1付近,川滝公民館前ガードレール,33.990681,133.635046,
愛媛県,四国中央市,13-6,川滝町領家1153-5,古下田ゴミ収集所前ガードレール,33.985651,133.627056,
愛媛県,四国中央市,14-1,川滝町下山1536-6付近,R192平木バス停ガードパイプ,33.993291,133.644634,
愛媛県,四国中央市,14-2,川滝町下山1074-3付近,masked,33.992817,133.656707,
愛媛県,四国中央市,14-3,川滝町下山1351-7,masked,33.996679,133.654302,
愛媛県,四国中央市,14-4,川滝町下山836-4付近,上惣尾バス停（徳島方面）ガードパイプ,33.996724,133.658466,
愛媛県,四国中央市,14-5,川滝町下山355付近,七田バス停（徳島方面）付近フェンス,33.9970009,133.6721717,
愛媛県,四国中央市,14-6,川滝町下山74付近,泉中尾集落入口,33.99510911,133.6769907,緯度経度は怪しい
愛媛県,四国中央市,15-1,下川町615-1,masked,34.003433,133.644473,
愛媛県,四国中央市,15-2,下川町883-5,大西酒店前ガードレール,33.998942,133.631906,
愛媛県,四国中央市,15-3,下川町776,下川集会所奥ガードレール,34.000581,133.637461,
愛媛県,四国中央市,15-4,下川町487-1付近,吉祥寺手前ガードレール,34.005222,133.654917,
愛媛県,四国中央市,16-1,上柏町6-1付近,上柏6-1矢野静男前交差点ガードパイプ,33.983037,133.556706,
愛媛県,四国中央市,16-2,上柏町235,岩本伸二横方ブロック塀,33.981638,133.560831,
愛媛県,四国中央市,16-3,中曽根町204-10,井垣第2橋先東中敷地フェンス,33.978892,133.557546,
愛媛県,四国中央市,16-4,上柏町940-2付近,富郷清水井東側フェンス,33.97563,133.564389,
愛媛県,四国中央市,16-5,上柏町1584付近,山上集会所東側フェンス,33.972336,133.570318,
愛媛県,四国中央市,16-6,上柏町998-1付近,御所橋ガードレール,33.97964,133.563581,
愛媛県,四国中央市,16-7,下柏町459-1,松柏小学校南側フェンス,33.983865,133.564537,
愛媛県,四国中央市,16-8,下柏町545付近,平田橋欄干,33.984298,133.567303,
愛媛県,四国中央市,16-9,下柏町1154,市道村松一貫田線ガードレール,33.983218,133.571191,
愛媛県,四国中央市,16-10,下柏町387-1,松柏公民館前,33.984801,133.562808,
愛媛県,四国中央市,16-11,下柏町215,本郷集会所西側フェンス,33.983903,133.561298,
愛媛県,四国中央市,16-12,下柏町289-1付近,auショップ三島前交差点ガードパイプ,33.985769,133.559944,
愛媛県,四国中央市,16-13,下柏町688,本郷平木線ガードパイプ(夕仏南側),33.988184,133.563618,
愛媛県,四国中央市,16-14,下柏町871付近,masked,33.986249,133.5681,
愛媛県,四国中央市,17-1,村松町544-3,㈱丸和入口フェンス,33.988045,133.560381,
愛媛県,四国中央市,17-2,村松町510,大富士製紙 東側ガードレール,33.989829,133.561749,
愛媛県,四国中央市,17-3,村松町601-1,masked,33.989442,133.558199,
愛媛県,四国中央市,17-4,村松町158,川之江造機㈱三島工場前,33.992497,133.560524,
愛媛県,四国中央市,17-5,村松町625地先,赤之井川 松島橋付近ガードパイプ,33.989981,133.556795,
愛媛県,四国中央市,17-6,村松町370付近,八網浦橋 北側ガードレール,33.997154,133.555482,
愛媛県,四国中央市,17-7,村松町181-1,天満宮（村松旧大師）ブロック塀,33.994502,133.558254,
愛媛県,四国中央市,17-8,村松町236,旧水道局前,33.994291,133.56268,
愛媛県,四国中央市,17-9,村松町882,大王製紙第2グラウンドフェンス,33.994391,133.555467,
愛媛県,四国中央市,18-1,三島中央2丁目8,NTT西局前フェンス,33.979532,133.545174,
愛媛県,四国中央市,18-2,三島中央5丁目8-74,JAえひめエネルギー㈱うま店,33.978569,133.542336,
愛媛県,四国中央市,18-3,三島金子2丁目1,井関橋西側柵下,33.98032,133.539621,
愛媛県,四国中央市,18-4,三島中央4丁目3-5,駅前モータープールフェンス,33.979989,133.541143,
愛媛県,四国中央市,18-5,三島中央5丁目11-30付近,三島高校東側ガードパイプ,33.979461,133.546111,
愛媛県,四国中央市,18-6,三島中央1丁目1-27,フジ三島店ガードパイプ（ほかほか弁当前）,33.982958,133.540982,
愛媛県,四国中央市,18-7,三島中央1丁目1番15号,浜集会所前ガードレール,33.98468,133.540718,
愛媛県,四国中央市,18-8,三島中央1丁目5-16,伊予銀行駐車場フェンス,33.983951,133.542869,
愛媛県,四国中央市,18-9,三島金子2丁目7-22,メディカルフィットネスピタ・シオカフェンス,33.979063,133.537615,
愛媛県,四国中央市,18-10,三島中央3丁目2-23,三島小学校公民館前フェンス,33.981094,133.544236,
愛媛県,四国中央市,18-11,三島中央2丁目1-18,児童センター前フェンス,33.981228,133.545387,
愛媛県,四国中央市,19-1,三島朝日2丁目10,朝日児童公園西側フェンス,33.987978,133.557872,
愛媛県,四国中央市,19-2,三島朝日1丁目11,立石児童公園前大王製紙ブロック塀,33.987494,133.556032,
愛媛県,四国中央市,19-3,三島宮川1丁目8番25号,三島工業㈱東側ブロック塀,33.987155,133.547022,
愛媛県,四国中央市,19-4,三島朝日1丁目9-2地先,エリエール平和寮北側駐車場ブロック塀,33.987564,133.553604,
愛媛県,四国中央市,19-5,三島朝日1丁目3-5,大塚団地2棟西側緑地,33.985696,133.551941,
愛媛県,四国中央市,19-6,三島宮川1丁目6-4,三島神社東ガードパイプ,33.985854,133.545127,
愛媛県,四国中央市,19-7,三島宮川3丁目12-11,中通り橋南側欄干,33.983171,133.545665,
愛媛県,四国中央市,19-8,三島宮川3丁目4-14,上町公民館緑地,33.981478,133.547605,
愛媛県,四国中央市,19-9,三島宮川4丁目6-55,四国中央市役所東駐車場フェンス,33.981866,133.550518,
愛媛県,四国中央市,19-10,三島宮川4丁目6-55,四国中央市役所北駐車場フェンス,33.9802,133.5494,緯度経度は怪しい
愛媛県,四国中央市,19-11,三島宮川4丁目9-53,カクケイ（株）前ブロック塀,33.981584,133.55132,
愛媛県,四国中央市,20-1,中曽根町5010-2付近,下秋別交差点ガードパイプ,33.978617,133.550886,
愛媛県,四国中央市,20-2,中曽根町238-5付近,masked,33.977861,133.555101,
愛媛県,四国中央市,20-3,中曽根町392地先,コロンボ交差点付近ガードパイプ,33.98013,133.55309,
愛媛県,四国中央市,20-4,中曽根町1523,中曽根公民館前入口付近,33.97541,133.548719,
愛媛県,四国中央市,20-5,中曽根町858付近,野々首集会所前ガードレール,33.971767,133.553409,
愛媛県,四国中央市,20-6,中曽根町1141,（有）石井自動車北側ガードパイプ,33.971069,133.546738,
愛媛県,四国中央市,20-7,中曽根町1432-1,masked,33.975127,133.546228,
愛媛県,四国中央市,20-8,中曽根町1632-7,西村英夫南ガードレール,33.976345,133.545636,
愛媛県,四国中央市,20-9,中曽根町1814-3,masked,33.972568,133.543609,
愛媛県,四国中央市,20-10,中曽根町1720-4,りょう花前交差点ガードパイプ,33.974815,133.542737,
愛媛県,四国中央市,20-11,中曽根町2543-2,石床集会所西側フェンス,33.974463,133.538235,
愛媛県,四国中央市,20-12,中曽根町2630,みずまる産業（株）前ガードレール,33.976326,133.53905,
愛媛県,四国中央市,21-1,中之庄町542,みしま乳児保育園東フェンス,33.977039,133.535011,
愛媛県,四国中央市,21-2,中之庄町221付近,中之庄青空すいは歩道橋下ガードパイプ,33.973475,133.533583,
愛媛県,四国中央市,21-3,中之庄町134,中之庄公民館市道側ガードパイプ,33.973027,133.530338,
愛媛県,四国中央市,21-4,中之庄町1411-2付近,大谷橋西側付近北側ガードレール,33.969212,133.532095,
愛媛県,四国中央市,21-5,具定町336-3付近,masked,33.968685,133.52917,
愛媛県,四国中央市,21-6,中之庄町1380,山田団地入口東,33.966195,133.532367,
愛媛県,四国中央市,21-7,中之庄町757-1,高橋マイカーセンター南,33.97299,133.537072,
愛媛県,四国中央市,21-8,具定町387付近,幸橋北ガードレール,33.970673,133.529538,
愛媛県,四国中央市,21-9,中之庄町86地先,コーナン前ガードパイプ,33.973397,133.527909,
愛媛県,四国中央市,21-10,中之庄町303-2,公園通り3丁目市役所住宅管理作業所東,33.975948,133.529188,
愛媛県,四国中央市,21-11,中之庄町506-2,キャッスル三島前R11進入路ガードレール,33.979078,133.534366,
愛媛県,四国中央市,21-12,中之庄町1684-2付近,（旧）三島病院南ガードパイプ,33.98066,133.534363,
愛媛県,四国中央市,22-1,寒川町677,樋之尾谷川県道南側欄干,33.966025,133.521327,
愛媛県,四国中央市,22-2,寒川町426-1地先,ドン・キホーテ前北側ガードパイプ,33.970667,133.522907,
愛媛県,四国中央市,22-3,寒川町1388-3付近,寒川公民館入口ガードパイプ,33.9661,133.51627,
愛媛県,四国中央市,22-4,寒川町1179,江之元信号南歩道ガードフェンス,33.967592,133.515347,
愛媛県,四国中央市,22-5,寒川町1836付近,寒川高井電機付近ガードフェンス,33.96444,133.514635,
愛媛県,四国中央市,22-6,寒川町2519付近,天地親神神社東側ガードレール,33.9666582,133.5111345,
愛媛県,四国中央市,22-7,寒川町3517付近,西寒川集会所前よう壁,33.963732,133.503631,
愛媛県,四国中央市,22-8,寒川町3752-3付近,masked,33.967124,133.504994,
愛媛県,四国中央市,22-9,寒川町4089,栗田電機四国中央市店前市道ガードレール,33.9667659,133.5019147,
愛媛県,四国中央市,22-10,寒川町4775-14,江之元大橋東交差点北側フェンス,33.971028,133.513375,
愛媛県,四国中央市,22-11,寒川町980,北寒川江之元踏切東ガードレール,33.969145,133.516217,
愛媛県,四国中央市,23-1,豊岡町大町136-1,NTT豊岡電話交換所,33.966087,133.494659,
愛媛県,四国中央市,23-2,豊岡町大町577,masked,33.965207,133.49289,
愛媛県,四国中央市,23-3,豊岡町長田603-1付近,丸福豊岡倉庫北病院側ガードパイプ,33.971137,133.475222,
愛媛県,四国中央市,23-4,豊岡町大町2043-5地先,市道大町西通り線高塚入口三叉路ガードレール,33.962832,133.484681,
愛媛県,四国中央市,23-5,豊岡町大町2091-1付近,豊岡町大町2091-1付近ガードレール,33.965281,133.486925,
愛媛県,四国中央市,23-6,豊岡町五良野1-3付近,五良野豊岡上橋南側橋千,33.964052,133.481647,
愛媛県,四国中央市,23-7,豊岡町豊田5,豊岡小学校プール北側（公民館東側）,33.966062,133.481036,
愛媛県,四国中央市,23-8,豊岡町大町1753-1付近,とよた薬局前交差点ガードパイプ,33.967505,133.483117,
愛媛県,四国中央市,23-9,豊岡町長田1079,雅前ガードレール,33.965576,133.476102,
愛媛県,四国中央市,23-10,豊岡町長田1657,豊岡マンション・コンクリート塀,33.964463,133.47125,
愛媛県,四国中央市,23-11,豊岡町長田1626-8付近,楠木団地児童遊園フェンス,33.961385,133.469669,
愛媛県,四国中央市,23-12,豊岡町大町2540-175,恵之久保団地公園フェンス,33.95858,133.491921,
愛媛県,四国中央市,24-1,富郷町寒川山226,自治会寒川山集会所前,33.915499,133.511954,
愛媛県,四国中央市,24-2,富郷町寒川山439,杉成橋南側欄干,33.913303,133.510398,
愛媛県,四国中央市,24-3,富郷町寒川山665,自治会猿田集会所前（旧26-1）,33.887669,133.498285,緯度経度は怪しい
愛媛県,四国中央市,24-4,富郷町寒川山1010-2,自治会上猿田集会所前（旧26-2）前回改選（令和3年）と場所が変更,33.8742151,133.5061568,緯度経度は怪しい
愛媛県,四国中央市,25-1,富郷町豊坂299-1付近,富郷橋欄干,33.907559,133.499457,
愛媛県,四国中央市,25-2,富郷町豊坂179-2,自治会 豊坂公民館前,33.91202,133.497478,
愛媛県,四国中央市,27-1,富郷町津根山,藤原大橋前渓流亭前ガードレール,33.891967,133.48195,
愛媛県,四国中央市,27-2,富郷町津根山137,藤原公会堂前,33.887296,133.483256,
愛媛県,四国中央市,27-3,富郷町津根山352-9,保存民家細川家横,33.873337,133.470967,
愛媛県,四国中央市,27-4,富郷町津根山乙286-21,masked,33.866988,133.460897,
愛媛県,四国中央市,28-1,金砂町小川山2263-1,上小川集会所前 ガードレール,33.92318,133.54391,
愛媛県,四国中央市,29-1,金沙町平野山乙610,長野集会所西市道東長野線入口,33.932799,133.531484,
愛媛県,四国中央市,29-2,金沙町平野山232付近,嶺南公民館駐車場,33.928191,133.523731,
愛媛県,四国中央市,29-3,金沙町平野山乙201付近,金沙郵便局前ガードレール,33.924748,133.525816,
愛媛県,四国中央市,30-1,土居町上野72,木の川集会所前,33.950454,133.404385,
愛媛県,四国中央市,30-2,土居町上野911-1,関川公民館,33.94519,133.391125,
愛媛県,四国中央市,30-3,土居町上野1697-1,masked,33.943295,133.386413,
愛媛県,四国中央市,30-4,土居町上野2090-2,亀井商店,33.942138,133.381042,
愛媛県,四国中央市,30-5,土居町上野3190,井上精米所前,33.93935,133.374178,
愛媛県,四国中央市,30-6,土居町上野1467-1,市道名西内東本郷線入口ガードパイプ 前回改選（令和3年）と場所が変更,33.945452,133.386459,
愛媛県,四国中央市,30-7,土居町上野659,深川横方西ガードレール,33.948241,133.393629,
愛媛県,四国中央市,31-1,土居町北野2812,自治会 大境入口,33.960879,133.378867,
愛媛県,四国中央市,31-2,土居町北野2465,市道 三吉末一郎前ガードレール,33.950897,133.384457,
愛媛県,四国中央市,31-3,土居町北野2208-2,市道 ディプロ事務所前ガードレール,33.952232,133.388936,
愛媛県,四国中央市,31-4,土居町北野1094-1地先,市道 旧うま農協北野出張所前市道添,33.954583,133.400071,
愛媛県,四国中央市,31-5,土居町北野449-1付近,masked,33.956975,133.404844,
愛媛県,四国中央市,31-6,土居町北野1783,masked,33.954975,133.393569,
愛媛県,四国中央市,31-7,土居町北野21付近,市道 大谷橋 西ガードレール,33.961828,133.412593,
愛媛県,四国中央市,32-1,土居町中村892,土居高校正門フェンス,33.963936,133.4304917,
愛媛県,四国中央市,32-2,土居町土居1837,土居総合体育館入口,33.965777,133.426641,
愛媛県,四国中央市,32-3,土居町土居83-2,土居駅前広場フェンス,33.959061,133.428449,
愛媛県,四国中央市,32-4,土居町入野859-4,ケーオー醸酵㈱,33.957176,133.42491,
愛媛県,四国中央市,32-5,土居町入野943,土居文化会館駐車場ガードパイプ,33.955802,133.423705,
愛媛県,四国中央市,32-6,土居町土居892付近,土居公民館駐車場入口ガードレール,33.956988,133.42068,
愛媛県,四国中央市,32-7,土居町土居521-1,土居小学校前橋南添谷川ガードレール,33.959596,133.421603,
愛媛県,四国中央市,32-8,土居町土居171-1付近,土居中学校付近（三好克彦邸前）,33.96096,133.427181,
愛媛県,四国中央市,33-1,土居町土居1173,常盤橋南ガードレール（ひらく焼肉店前）,33.955324,133.41374,
愛媛県,四国中央市,33-2,土居町入野86-2,土居西幼稚園,33.955632,133.417787,
愛媛県,四国中央市,33-3,土居町入野993-5,ハローズ土居店入口ガードパイプ,33.95495,133.42187,
愛媛県,四国中央市,33-4,土居町入野174-2,土居老人憩いの家,33.950094,133.415976,
愛媛県,四国中央市,33-5,土居町入野841-1,ドラッグストアモリ土居店北側フェンス,33.955391,133.425474,
愛媛県,四国中央市,33-6,土居町入野668-1,コープ土居店,33.956639,133.428794,
愛媛県,四国中央市,33-7,土居町畑野899,masked,33.950223,133.4093,
愛媛県,四国中央市,33-8,土居町入野178-1,土居窓口センター入口,33.952171,133.418039,
愛媛県,四国中央市,34-1,土居町中村1111,飯武踏切北県道ガードバイブ,33.959738,133.430179,
愛媛県,四国中央市,34-2,土居町小林932,masked,33.958212,133.43362,
愛媛県,四国中央市,34-3,土居町小林667,小富士小学校,33.962152,133.436015,
愛媛県,四国中央市,34-4,土居町小林518,小林集会所,33.959188,133.437805,
愛媛県,四国中央市,34-5,土居町中村1869,masked,33.959823,133.445525,
愛媛県,四国中央市,34-6,土居町中村1325-2付近,エリエールプロダクト㈱,33.956978,133.432517,
愛媛県,四国中央市,34-7,土居町小林1325-2,梅ヶ町集会所,33.966774,133.437312,
愛媛県,四国中央市,35-1,土居町藤原4-390,masked,33.968694,133.440828,
愛媛県,四国中央市,35-2,土居町藤原4-135,masked,33.969666,133.440775,
愛媛県,四国中央市,35-3,土居町藤原2-122,masked,33.966907,133.446727,
愛媛県,四国中央市,35-4,土居町藤原6-10,masked,33.974249,133.441681,
愛媛県,四国中央市,36-1,土居町津根1656,土居東こども園フェンス,33.963873,133.45335,
愛媛県,四国中央市,36-2,土居町津根2215-2,旧長津保育園,33.963188,133.460297,
愛媛県,四国中央市,36-3,土居町津根3464,樋の口住宅ガードパイプ,33.964757,133.447143,
愛媛県,四国中央市,36-4,土居町津根2441-4付近,グリーンハイツ公園フェンス,33.96595,133.45969,
愛媛県,四国中央市,36-5,土居町津根2773-1,八日市集合所前広場,33.97118285,133.456768,緯度経度は怪しい
愛媛県,四国中央市,36-6,土居町津根3668,ファミリーマート土居町津根店前交差点ガードパイプ,33.973992,133.452382,
愛媛県,四国中央市,36-7,土居町津根25-2,合田製材所,33.96134,133.46023,
愛媛県,四国中央市,36-8,土居町津根454,村山神社南側玉垣,33.959702,133.455713,
愛媛県,四国中央市,36-9,土居町津根2974,トキワ工業東側ガードパイプ,33.9669458,133.4559149,
愛媛県,四国中央市,37-1,土居町野田乙8,上市集会所南ガードレール,33.971204,133.460833,
愛媛県,四国中央市,37-2,土居町野田乙744-2付近,大和国道線ガードパイプ（福助工場前）,33.963492,133.462842,
愛媛県,四国中央市,37-3,土居町野田956,馬場集会所,33.971025,133.465218,
愛媛県,四国中央市,37-4,土居町野田甲1244-1,野田中央会館,33.966201,133.466302,
愛媛県,四国中央市,37-5,土居町野田甲,三英商会敷地フェンス（県道南側）,33.962942,133.467586,
愛媛県,四国中央市,37-6,土居町野田352付近,ファミリーマート土居中央野田店前交差点,33.972858,133.469022,
愛媛県,四国中央市,38-1,土居町天満433-1,旧出店集会所フェンス,33.970298,133.422138,
愛媛県,四国中央市,38-2,土居町天満1537,山中横方前交差点ガードレール,33.976944,133.418155,緯度経度は怪しい
愛媛県,四国中央市,38-3,土居町天満2011-1付近,天満公民館,33.978124,133.41997,
愛媛県,四国中央市,38-4,土居町土居天王橋北川付近,天王橋北側ガードレール,33.966847,133.420833,緯度経度は怪しい
愛媛県,四国中央市,38-5,土居町天満2730-2,天満神社東側千歳橋南側欄干,33.981296,133.418929,
愛媛県,四国中央市,38-6,土居町薮崎638-4付近,天満駐在所西ガードレール,33.976623,133.424672,
愛媛県,四国中央市,39-1,土居町蕪崎805-1,西法寺東塁,33.976902,133.429165,
愛媛県,四国中央市,39-2,土居町蕪崎920-2,masked,33.979571,133.430308,
愛媛県,四国中央市,39-3,土居町蕪崎2507-1,蕪崎公民館,33.978777,133.431209,
愛媛県,四国中央市,39-4,土居町蕪崎253-1付近,恵康病院北側ガードバイブ,33.97204,133.428564,
愛媛県,四国中央市,39-5,土居町蕪崎644-1付近,高石組北側ガードバイブ,33.976187,133.431999,
愛媛県,四国中央市,40-1,新宮町新瀬川794,林道山王線入口,33.913707,133.663045,
愛媛県,四国中央市,40-2,新宮町新瀬川500付近,少年自然の家入口,33.916491,133.650737,
愛媛県,四国中央市,40-3,新宮町馬立4491-1,霧の森駐車場前,33.923222,133.641382,
愛媛県,四国中央市,40-4,新宮町馬立277付近,四社神社入口,33.918937,133.640222,
愛媛県,四国中央市,41-1,新宮町馬立83,県道大谷口,33.935223,133.634167,
愛媛県,四国中央市,41-2,新宮町新宮470付近,新宮停留所横,33.946507,133.640448,
愛媛県,四国中央市,41-3,新宮町新宮1040付近,清水橋横,33.951184,133.643238,
愛媛県,四国中央市,41-4,新宮町新宮1147-4,銅山川端中西側,33.947397,133.638995,
愛媛県,四国中央市,42-1,新宮町馬立,堀切トンネル口手前,33.963976,133.623348,
愛媛県,四国中央市,42-2,新宮町馬立990,福祉バス市仲停留所,33.955344,133.613572,
愛媛県,四国中央市,42-3,新宮町馬立1474,福祉バス日浦停留所,33.946331,133.601061,
愛媛県,四国中央市,43-1,新宮町上山,旧西庄小学校プールフェンス,33.949791,133.652762,
愛媛県,四国中央市,43-2,新宮町上山163,市道新宮中央線、大窪農道入口,33.950726,133.646132,
愛媛県,四国中央市,43-3,新宮町上山3175付近,市道嶽峠野線、新宮中央線分岐点,33.950027,133.665557,
愛媛県,四国中央市,44-1,新宮町上山1672,中村集会所,33.956437,133.660235,
愛媛県,四国中央市,44-2,新宮町上山2703,市道新宮中央線、中野線分岐点,33.952792,133.660471,
愛媛県,四国中央市,44-3,新宮町上山3321-1,消防第五分団詰所横,33.957304,133.670611,
愛媛県,四国中央市,45-1,新宮町上山6194,少年自然の家寺内分館駐車場フェンス,33.949153,133.68215,
愛媛県,四国中央市,45-2,新宮町上山7043付近,天日橋,33.960623,133.683261,
愛媛県,四国中央市,45-3,新宮町上山6590,応神橋横,33.951066,133.678693,
