prefecture,city,number,address,name,lat,long,note
愛媛県,宇和島市,01-01,堀端町1番25号,中央公民館,33.217,132.56734,
愛媛県,宇和島市,01-02,丸之内1丁目3番,宇和島自動車（株）第２車庫,33.21945,132.56696,
愛媛県,宇和島市,01-03,丸之内5丁目3番,宇和島信用金庫駐車場,33.22214,132.56506,
愛媛県,宇和島市,01-04,中央町1丁目5番1号,masked,33.21985,132.56891,
愛媛県,宇和島市,01-05,中央町2丁目1番,中央町児童公園,33.22155,132.5691,
愛媛県,宇和島市,01-06,新町1丁目2番21号,元ＮＴＴ宇和島支店（東側鉄柵）,33.22302,132.56768,
愛媛県,宇和島市,01-07,新町1丁目2番21号,元ＮＴＴ宇和島支店（西側鉄柵）,33.22293,132.5671,
愛媛県,宇和島市,02-01,桝形町3丁目1番24号,桝形町排水ポンプ場,33.22055,132.56028,
愛媛県,宇和島市,02-02,明倫町1丁目1番16号,四国ガス（株）宇和島支店,33.21997,132.55815,
愛媛県,宇和島市,02-03,明倫町5丁目1番13号,ヨコイ株式会社,33.21806,132.55712,
愛媛県,宇和島市,02-04,坂下津甲347番地7,坂下津児童遊園東側,33.22082,132.54649,
愛媛県,宇和島市,02-05,佐伯町2丁目3番35号,市立宇和島病院佐伯町医師住宅,33.21495,132.56075,
愛媛県,宇和島市,02-06,桜町1番50号,宇和島市医師会,33.21513,132.56495,
愛媛県,宇和島市,02-07,御殿町1番1号,市立宇和島病院駐車場（院内道路側）,33.21582,132.56579,
愛媛県,宇和島市,02-08,御殿町1番1号,市立宇和島病院駐車場（表通り側）,33.21673,132.56541,
愛媛県,宇和島市,02-09,丸之内2丁目3番5号,元ＪＴ宇和島営業所,33.21788,132.565,
愛媛県,宇和島市,02-10,天赦公園,天赦公園東側,33.2159,132.56204,
愛媛県,宇和島市,02-11,文京町2番1号,市立鶴島小学校東側角,33.21883,132.56056,
愛媛県,宇和島市,03-01,神田川原83番地2（神田川原2区）,御通橋横,33.21396,132.56401,
愛媛県,宇和島市,03-02,賀古町2丁目1番37号,JCHO宇和島病院南側,33.2152,132.5691,
愛媛県,宇和島市,03-03,京町1番24号,鶴城幼稚園,33.21614,132.56832,
愛媛県,宇和島市,03-04,賀古町2丁目1番37号,JCHO宇和島病院入口横駐車場,33.21613,132.57045,
愛媛県,宇和島市,03-05,妙典寺前乙640番地,市立宇和津小学校正門横,33.21293,132.56868,
愛媛県,宇和島市,03-06,京町3番7号先,神田橋横,33.21428,132.5667,
愛媛県,宇和島市,03-07,野川甲1157番地先,龍華橋横,33.21674,132.57333,
愛媛県,宇和島市,03-08,野川甲1243番地（3区）,徳岡月極駐車場,33.21768,132.57777,
愛媛県,宇和島市,04-01,弁天町1丁目3番19号,宇和島倉庫株式会社,33.22393,132.55833,
愛媛県,宇和島市,04-02,弁天町3丁目6番,弁天町児童遊園,33.22478,132.55589,
愛媛県,宇和島市,04-03,寿町1丁目2番,モータープール,33.22541,132.56205,
愛媛県,宇和島市,04-04,寿町2丁目2番,寿町二児童遊園,33.22338,132.55947,
愛媛県,宇和島市,04-05,栄町港1丁目5番1号,小林魚網店前,33.22273,132.56411,
愛媛県,宇和島市,04-06,弁天町1丁目きさいや広場前,きさいや広場前,33.22189,132.55863,
愛媛県,宇和島市,04-07,栄町港3丁目3番,ＪＡえひめ南農協駐車場（国道側）,33.22491,132.56341,
愛媛県,宇和島市,04-08,曙町1番地,市役所北東角,33.22396,132.56092,
愛媛県,宇和島市,05-01,丸穂町4丁目1番24号先,古川橋元,33.22317,132.569,
愛媛県,宇和島市,05-02,大宮町3丁目4番10号,天神小学校登り口,33.22252,132.57183,
愛媛県,宇和島市,05-03,丸穂町3丁目2番30号,済美保育園付近,33.22402,132.56859,
愛媛県,宇和島市,05-04,錦町10番,ＪＲ宇和島運転区東側,33.22967,132.57149,
愛媛県,宇和島市,05-05,天神町4番43号,宇和島年金事務所,33.22715,132.56975,
愛媛県,宇和島市,06-01,和霊元町1丁目7番,ＪＲ駐車場（犬飼自転車商会前）,33.22656,132.56706,
愛媛県,宇和島市,06-02,和霊中町1丁目3番,片山酒店前JRモータープール,33.229,132.56968,
愛媛県,宇和島市,06-03,和霊東町3丁目1番1号,和霊公民館,33.23124,132.57307,
愛媛県,宇和島市,06-04,和霊公園,和霊公園国道筋西角,33.22783,132.56564,
愛媛県,宇和島市,06-05,和霊公園,和霊公園国道筋東角,33.22849,132.56646,
愛媛県,宇和島市,06-06,和霊町1344番地1（西通1区）,市立城北中学校正門横,33.22985,132.56629,
愛媛県,宇和島市,06-07,伊吹町1565番地1（北宇和島町）,東洋車両株式会社,33.23491,132.56811,
愛媛県,宇和島市,06-08,伊吹町甲1179番地1先（北宇和島町）,福山通運㈱宇和島営業所前,33.23713,132.56977,
愛媛県,宇和島市,07-01,泉町2丁目2番830－1,ヤマト運輸㈱宇和島営業所,33.23363,132.5717,
愛媛県,宇和島市,07-02,伊吹町421番（東通2区）,旧環太平洋大学短期大学部正門横,33.23542,132.57277,
愛媛県,宇和島市,07-03,伊吹町466番地14（東通4区）,中畑第２マンション,33.23477,132.57659,
愛媛県,宇和島市,07-04,柿原1290番地（1区）,四国電力柿原アパート前,33.23727,132.58281,
愛媛県,宇和島市,07-05,柿原1741番地先（1区）,柿原バス終点手前（国道320号三叉路）,33.24013,132.58577,
愛媛県,宇和島市,07-06,柿原237番地（2区）,メゾン・ド・エスペランス前,33.23847,132.57947,
愛媛県,宇和島市,07-07,柿原1059番地（2区）,前田ドライあんこ本舗,33.23726,132.58068,
愛媛県,宇和島市,07-08,伊吹町1008番地2（北通2区）,伊吹団地前,33.2368,132.57492,
愛媛県,宇和島市,08-01,朝日町4丁目5番25号,認定こども園いぶき幼稚園,33.22705,132.55974,
愛媛県,宇和島市,08-02,朝日町3丁目1番,三原産業㈱モータープール,33.22538,132.5601,
愛媛県,宇和島市,08-03,住吉町1丁目6番16号,宇和島市総合福祉センター,33.22624,132.55827,
愛媛県,宇和島市,08-04,住吉町1丁目5番26号,宇和島市住吉ポンプ場,33.22791,132.55772,
愛媛県,宇和島市,08-05,住吉町1丁目5番,灘公園南側入り口,33.22709,132.55746,
愛媛県,宇和島市,08-06,住吉町3丁目1番17号横,南予通運宇和島支店横駐車場前,33.2265,132.55385,
愛媛県,宇和島市,09-01,大浦甲46番地2（1区）,masked,33.23474,132.55374,
愛媛県,宇和島市,09-02,大浦甲252番地5（2区）,旧大浦保育園跡地,33.23937,132.55304,
愛媛県,宇和島市,09-03,大浦甲1668番地4先（3区）,スーパーせいけ前,33.24168,132.54992,
愛媛県,宇和島市,09-04,大浦甲208番地58（3区）,大浦自治会館,33.23689,132.55175,
愛媛県,宇和島市,09-05,大浦甲2238番地先（赤松）,赤松公民館横,33.23828,132.53686,
愛媛県,宇和島市,10-01,新田町1丁目1番34号先,コーポ阿武前（陸橋横ガードフェンス）,33.21299,132.55929,
愛媛県,宇和島市,10-02,新田町1丁目2番30号,沖循環器科・内科ブロック塀,33.21222,132.55889,
愛媛県,宇和島市,10-03,新田町3丁目3番1号,市立城東中学校正門右横,33.21289,132.5575,
愛媛県,宇和島市,10-04,山際4丁目4番14号,山際集会所,33.20897,132.55876,
愛媛県,宇和島市,10-05,川内甲670番地1先（本川内）,本川内集会所前,33.20226,132.56219,
愛媛県,宇和島市,10-06,長堀1丁目8番2号,宇和島市水道局第１集水場,33.20867,132.55299,
愛媛県,宇和島市,10-07,長堀1丁目1番50号,借家,33.21024,132.55596,
愛媛県,宇和島市,10-08,長堀3丁目5番12号先,こばやし小児科前,33.20823,132.55058,
愛媛県,宇和島市,10-09,保手2丁目5番31号先,内平川第２橋近く,33.21181,132.55089,
愛媛県,宇和島市,10-10,保手2丁目2番1号先,保手橋近く来村川,33.21239,132.55327,
愛媛県,宇和島市,10-11,別当2丁目5番（別当団地）,別当公営住宅団地前,33.21039,132.54759,
愛媛県,宇和島市,10-12,中沢町2丁目4番2号,オートパルえひめ南本社工場,33.20561,132.55546,
愛媛県,宇和島市,11-01,高串2番耕地134番地1（家藤）,高光公民館前,33.2545,132.57304,
愛媛県,宇和島市,11-02,光満甲13番地3先（江ノ組）,（有）四国サービスバッテリー事業部横,33.25521,132.57667,
愛媛県,宇和島市,11-03,光満甲146番地先（日ノ組）,梅林口バス停横,33.25916,132.57942,
愛媛県,宇和島市,11-04,高串1番耕地508番地1先（下高串）,根無川バス停横,33.24336,132.57095,
愛媛県,宇和島市,12-01,本九島1234番地4,九島開発総合センター（裏側）,33.22214,132.52304,
愛媛県,宇和島市,12-02,百之浦1262番地6,旧九島小学校,33.22307,132.52601,
愛媛県,宇和島市,12-03,蛤319番地先（1区）,畑,33.22408,132.53141,
愛媛県,宇和島市,13-01,白浜245番地先,白浜バス停横,33.21361,132.52572,
愛媛県,宇和島市,13-02,石応1151番地（1区）,石応公民館,33.21338,132.5203,
愛媛県,宇和島市,13-03,石応1336番地（2区）,masked,33.21376,132.51688,
愛媛県,宇和島市,14-01,小浜2192番地14先（大小浜）,大小浜集会所横（大小浜児童遊園）,33.20535,132.50651,
愛媛県,宇和島市,14-02,小池1679番地（小池）,旧宇和島市立小池小学校正門横,33.19963,132.50499,
愛媛県,宇和島市,14-03,蕨802番地2先,平浦口バス停横,33.19571,132.50717,
愛媛県,宇和島市,15-01,三浦東1353番地1（船隠）,三浦分団第１部消防車庫向い,33.18337,132.50967,
愛媛県,宇和島市,15-02,三浦東2249番地先（天満）,三浦分団第２部消防詰所前付近,33.17321,132.51427,
愛媛県,宇和島市,15-03,三浦西3566番地2（豊浦）,三浦公民館（三浦農村婦人の家）,33.17099,132.50057,
愛媛県,宇和島市,16-01,三浦西1301番地先（大内）,堀切バス停横,33.16666,132.48242,
愛媛県,宇和島市,16-02,三浦西986番地（安米）,安米児童遊園,33.16995,132.47695,
愛媛県,宇和島市,17-01,夏目町1丁目1番28号,宇和島市水道局宮下浄水場,33.20791,132.55482,
愛媛県,宇和島市,17-02,川内甲1470番地1先（川内1区）,愛媛トヨタTOPTown宇和島横,33.20451,132.55542,
愛媛県,宇和島市,17-03,川内甲1782番地9先（薬師谷団地）,薬師谷団地前バス停（寄光橋横）,33.19612,132.55226,
愛媛県,宇和島市,17-04,川内甲1829番地先（薬師谷）,薬師谷バス停横（集会所横）,33.19482,132.5617,
愛媛県,宇和島市,17-05,保田甲997-1（保田）,コーナンホームストック宇和島店（北側入口）,33.19334,132.54693,
愛媛県,宇和島市,17-06,寄松甲206番地（寄松）,エースワン宇和島店,33.20341,132.55352,
愛媛県,宇和島市,17-07,宮下甲201番地（宮下）,市立番城小学校正門横,33.20101,132.55086,
愛媛県,宇和島市,17-08,宮下甲942番地先（宮下）,宮下橋近く若宮太陽線,33.20535,132.55011,
愛媛県,宇和島市,18-01,祝森1735番地3,豊田冷機工業（株）,33.17517,132.55228,
愛媛県,宇和島市,18-02,祝森甲3000番地3,祝森公民館,33.17423,132.55169,
愛媛県,宇和島市,18-03,祝森977番地1横,ジョイフル宇和島祝森店横,33.18245,132.54887,
愛媛県,宇和島市,19-01,遊子4433番地先（矢の浦）,矢の浦集会所横（ゲートボール場）,33.18851,132.45785,
愛媛県,宇和島市,19-02,遊子3832番地先（甘崎）,masked,33.19193,132.45432,
愛媛県,宇和島市,19-03,遊子3624番地（番匠）,市立遊子小学校,33.19433,132.45481,
愛媛県,宇和島市,19-04,遊子3043番地先（魚泊）,魚泊バス停横,33.19764,132.45709,
愛媛県,宇和島市,19-05,遊子2323番地2（水ヶ浦）,水ヶ浦集会所（水荷浦集会所）左横公園,33.20566,132.45583,
愛媛県,宇和島市,20-01,遊子1105番地（津の浦）,津の浦集会所,33.20138,132.44315,
愛媛県,宇和島市,21-01,下波1016番地（柿の浦）,市役所宇和海支所,33.19163,132.44502,
愛媛県,宇和島市,22-01,下波2952番地1（東）,旧市立宇和海中学校,33.17124,132.46467,
愛媛県,宇和島市,22-02,下波3740番地（結出）,市立結出小学校正門横,33.16775,132.45745,
愛媛県,宇和島市,22-03,下波4487番地（島津）,島津集会所前公園,33.17158,132.45198,
愛媛県,宇和島市,22-04,下波5409番地（狩津）,狩津集会所,33.1678,132.44227,
愛媛県,宇和島市,23-01,蒋淵1639番地（宮市）,宇和島市役所蒋淵出張所右横空き地,33.19569,132.40701,
愛媛県,宇和島市,23-02,蒋淵763番地先（高助）,高助集会所前,33.20014,132.40334,
愛媛県,宇和島市,24-01,蒋淵2633番地先（大島）,JAえひめ南農協大島委託店前,33.18641,132.40249,
愛媛県,宇和島市,25-01,蒋淵3345番地先（矢ヶ浜）,駐車場,33.20129,132.39402,
愛媛県,宇和島市,26-01,戸島2051番地（本浦）,市立戸島保育所,33.19804,132.3597,
愛媛県,宇和島市,26-02,戸島2497番地（小内浦）,小内浦集会所,33.20407,132.36549,
愛媛県,宇和島市,27-01,戸島3978番地先（嘉島）,masked,33.2272,132.36318,
愛媛県,宇和島市,28-01,日振島1712番地（明海）,市立日振島保育所,33.17228,132.29316,
愛媛県,宇和島市,29-01,日振島3242番地（喜路）,JAえひめ南農協喜路出張所,33.15169,132.30662,
愛媛県,宇和島市,30-01,日振島2番耕地1072番地（能登）,能登児童遊園,33.17253,132.26901,
愛媛県,宇和島市,31-01,吉田町裡町19番地5地先横（本町1区）,1-3消防詰所横花壇,33.27755,132.54138,
愛媛県,宇和島市,31-02,吉田町本町84番地（本町3区）,裏,33.27387,132.54276,
愛媛県,宇和島市,31-03,吉田町魚棚35番地1（魚棚2区）,"魚棚1,2集会所",33.27565,132.54112,
愛媛県,宇和島市,31-04,吉田町魚棚67番地（魚棚3区）,住吉神社,33.27404,132.54092,
愛媛県,宇和島市,31-05,吉田町北小路甲217（北小路3区）,市立吉田病院,33.2822,132.54059,
愛媛県,宇和島市,31-06,吉田町東小路甲70番地（東小路2区）,吉田支所跡地銅像前,33.27971,132.54062,
愛媛県,宇和島市,31-07,吉田町東小路甲170番地2横（桜丁）,桜橋横（市有地）+大栄ビル隣地,33.27757,132.54079,
愛媛県,宇和島市,31-08,吉田町東小路甲106番地（西小路）,宇和島市役所吉田支所花壇,33.27983,132.53969,
愛媛県,宇和島市,31-09,吉田町立間尻甲1887番地（煙硝蔵）,煙硝蔵集会所,33.27986,132.53764,
愛媛県,宇和島市,32-01,吉田町立間尻甲2023番地1（新田）,市立吉田小学校体育館前,33.27304,132.54007,
愛媛県,宇和島市,32-02,吉田町鶴間541番地2-1（鶴間団地1）,鶴間団地集会所,33.27256,132.53612,
愛媛県,宇和島市,32-03,吉田町鶴間294番地2先（鶴間）,鶴間大橋 浅川より,33.27005,132.53838,
愛媛県,宇和島市,32-04,吉田町浅川182番地8横（浅川）,浅川みんなの広場,33.26399,132.52801,
愛媛県,宇和島市,33-01,吉田町知永4番耕地1278横（知永）,知永橋欄干+ガードレール,33.26196,132.54276,
愛媛県,宇和島市,34-01,吉田町奥浦甲65番地1（板ノ浦）,市立奥南小学校,33.27215,132.48768,
愛媛県,宇和島市,34-02,吉田町奥浦甲210番地5（中浦）,中浦集会所,33.27412,132.48623,
愛媛県,宇和島市,34-03,吉田町奥浦甲2919番地1-1横（古浦）,古浦集会所横公園,33.27506,132.48314,
愛媛県,宇和島市,34-04,吉田町奥浦甲3380番地1横（船間1区）,船間公園入口+緑地帯,33.27418,132.48047,
愛媛県,宇和島市,34-05,吉田町奥浦乙211番地2先（船間2区）,楠ヶ浦埋立,33.2714,132.47732,
愛媛県,宇和島市,35-01,吉田町南君281番地（南君西）,南君西集会所（ブロック塀）,33.27039,132.49828,
愛媛県,宇和島市,35-02,吉田町南君970番地2（南君東）,南君東集会所（ブロック塀）,33.26873,132.50277,
愛媛県,宇和島市,36-01,吉田町奥浦乙736番地横（大良）,大良集会所横公園,33.25772,132.4746,
愛媛県,宇和島市,37-01,吉田町南君1562番地（立目）,立目老人憩いの家,33.26533,132.51267,
愛媛県,宇和島市,37-02,吉田町南君2903番地先（牛川）,牛川地区埋立,33.26541,132.51777,
愛媛県,宇和島市,38-01,吉田町沖村甲1882番地3（鳥首）,鳥首集会所,33.29354,132.52894,
愛媛県,宇和島市,38-02,吉田町沖村甲2336番地（沖村上）,沖村コミセン,33.29455,132.51799,
愛媛県,宇和島市,38-03,吉田町沖村甲3270番地（川平）,川平集会所,33.28203,132.51983,
愛媛県,宇和島市,38-04,吉田町沖村甲2325番地1（東蓮寺）,市立喜佐方小学校前（歩道橋）付近,33.29247,132.52114,
愛媛県,宇和島市,39-01,吉田町河内甲495番地1（検校谷）,検校谷入口,33.29174,132.50826,
愛媛県,宇和島市,39-02,吉田町河内甲1686番地（河内中）,河内中住レク駐車場側,33.28962,132.50472,
愛媛県,宇和島市,39-03,吉田町河内甲1641番地1（河内上）,河内上集会所横,33.28747,132.50002,
愛媛県,宇和島市,39-04,吉田町奥浦甲1752番地前（惣代）,惣代住レク,33.29078,132.49279,
愛媛県,宇和島市,39-05,吉田町白浦外647番地,倉庫前,33.29955,132.50291,
愛媛県,宇和島市,40-01,吉田町立間1番耕地3900番地1（寺家郷蔵,立間小学校校門横歩道,33.2914,132.54275,
愛媛県,宇和島市,40-02,吉田町立間1番耕地338番地（寺家郷蔵）,青野プレス工場前歩道,33.29262,132.54863,
愛媛県,宇和島市,40-03,吉田町立間1番耕地1056番地（白井谷）,白井谷集会所,33.29695,132.55061,
愛媛県,宇和島市,40-04,吉田町立間２番耕地2649番地（医王寺下,上池田商店前花壇,33.28926,132.54207,
愛媛県,宇和島市,40-05,吉田町立間２番耕地2222番地（蒋竹城下）,宇和青果味楽共選前,33.2947,132.54033,
愛媛県,宇和島市,41-01,吉田町立間１番耕地621番地（中組）,ブロック塀,33.2972,132.55296,
愛媛県,宇和島市,41-02,吉田町立間１番耕地2617番地2先（柏木）,旧丸二集荷所前（久枝橋横）,33.2984,132.55579,
愛媛県,宇和島市,41-03,吉田町立間１番耕地1976番地前（大河内,下浄水場フェンス,33.30876,132.56076,
愛媛県,宇和島市,42-01,吉田町立間2番耕地485番地先（屋敷）,長谷住レク,33.29819,132.53897,
愛媛県,宇和島市,42-02,吉田町立間2番耕地548番地（中之谷）,中之谷集会所前,33.3006,132.53875,
愛媛県,宇和島市,42-03,吉田町立間２番耕地1594番地先（小名）,小名バス停横,33.30688,132.53625,
愛媛県,宇和島市,43-01,吉田町深浦3番耕地166番地4（池の浦）,池の浦集会所（ブロック塀）,33.31396,132.50096,
愛媛県,宇和島市,43-02,吉田町深浦1番耕地407番地4（深浦上）,深浦集会所（ブロック塀）,33.31782,132.50584,
愛媛県,宇和島市,44-01,吉田町法花津1番耕地外8-1（宮の浦東）,宮の浦住レク,33.31899,132.51405,
愛媛県,宇和島市,44-02,吉田町法花津6番耕地55番地3（浜）,JAえひめ南 玉津共選場左横ブロック塀,33.31901,132.5184,
愛媛県,宇和島市,44-03,吉田町法花津7番耕地360番地1（与村井西,玉津公民館,33.31804,132.52014,
愛媛県,宇和島市,45-01,吉田町白浦2362番地先（畦屋三つ尾）,白浦2362番地先ガードレール,33.30588,132.52627,
愛媛県,宇和島市,45-02,吉田町白浦2031番地3（先新浜）,白浦コミセン前三叉路,33.30976,132.52825,
愛媛県,宇和島市,45-03,吉田町白浦2762番地4横（三つ尾）,国道378・県道273三叉路,33.3039,132.52397,
愛媛県,宇和島市,45-04,吉田町白浦2904番地（花組）,花組集会所前駐車場,33.30449,132.52,
愛媛県,宇和島市,46-01,吉田町立間尻甲1802番地2（御殿内1区）,吉田町図書館駐車場,33.28257,132.53841,
愛媛県,宇和島市,46-02,吉田町立間尻甲2083番地2（御殿内2区）,御殿内集会所,33.28387,132.53578,
愛媛県,宇和島市,46-03,吉田町沖村甲522番地（御殿内3区）,愛生寮跡地フェンス,33.28828,132.53599,
愛媛県,宇和島市,46-04,吉田町鶴間新13番地4（御殿内4区）,御殿内保育園跡地,33.28276,132.5358,
愛媛県,宇和島市,47-01,吉田町立間尻甲424番地横（元町）,丸い出荷場斜め前駐車場,33.27272,132.54194,
愛媛県,宇和島市,47-02,吉田町立間尻甲497番地（元町）,JR吉田駅駐車場,33.27343,132.54401,
愛媛県,宇和島市,47-03,吉田町立間尻甲100番地7（君ヶ浦）,君ヶ浦集会所（フェンス）,33.26767,132.54254,
愛媛県,宇和島市,48-01,三間町宮野下772番地先,三間駐在所横交差点付近,33.28995,132.61123,
愛媛県,宇和島市,48-02,三間町宮野下137番地1,コスモスホール三間駐車場,33.2869,132.60563,
愛媛県,宇和島市,48-03,三間町務田180番地1,道の駅みま,33.28616,132.59535,
愛媛県,宇和島市,48-04,三間町元宗571番地2,増田口,33.2911,132.61739,
愛媛県,宇和島市,48-05,三間町土居中733番地1,澁田商店付近,33.28074,132.61558,
愛媛県,宇和島市,48-06,三間町迫目1051番地先,迫目バス停付近,33.28221,132.6044,
愛媛県,宇和島市,48-07,三間町迫目1131番地9,JR務田駅前,33.28283,132.60041,
愛媛県,宇和島市,49-01,三間町北増穂677番地1地先,第２分団第1部消防詰所付近,33.29984,132.61395,
愛媛県,宇和島市,49-02,三間町北増穂32番地先,北増穂集会所付近,33.3032,132.61317,
愛媛県,宇和島市,49-03,三間町小沢川733番地,小沢川集会所前,33.30053,132.62278,
愛媛県,宇和島市,49-04,三間町川之内37番地1先,川之内集会所付近,33.3095,132.62829,
愛媛県,宇和島市,50-01,三間町戸雁458番地1,JAえひめ南農協成妙支所（東側）,33.28898,132.59946,
愛媛県,宇和島市,50-02,三間町戸雁771番地,市立三間中学校付近（東門付近）,33.28974,132.60366,
愛媛県,宇和島市,50-03,三間町黒井地2309番地先,黒井地橋,33.30312,132.60216,
愛媛県,宇和島市,50-04,三間町成家951番地1,石ヶ鼻交差点付近,33.29213,132.59445,
愛媛県,宇和島市,50-05,三間町成家673番地1,成妙小学校付近,33.29837,132.59295,
愛媛県,宇和島市,51-01,三間町曽根668番地先,内田バス停付近,33.28612,132.59002,
愛媛県,宇和島市,51-02,三間町曽根588番地,兵頭商店前,33.28988,132.58961,
愛媛県,宇和島市,51-03,三間町是能226番地3,コスモス団地公園横,33.2883,132.58659,
愛媛県,宇和島市,51-04,三間町是能391番地先,三叉路,33.28542,132.58121,
愛媛県,宇和島市,52-01,三間町大藤793番地先,大藤集会所裏側畑,33.30986,132.59007,
愛媛県,宇和島市,52-02,三間町大藤393番地,大藤三叉路,33.30283,132.59024,
愛媛県,宇和島市,52-03,三間町則1687番地,則集会所前,33.30968,132.58168,
愛媛県,宇和島市,52-04,三間町則6番地2,県道（ゴルフ場入口付近）,33.3063,132.58498,
愛媛県,宇和島市,53-01,三間町古藤田195番地5先,県道,33.2892,132.64075,
愛媛県,宇和島市,53-02,三間町大内64番地,市立二名小学校（東側）,33.28669,132.64392,
愛媛県,宇和島市,53-03,三間町兼近714番地先,兼近集会所付近（是延入口）,33.28001,132.64924,
愛媛県,宇和島市,53-04,三間町是延739番地先,是延集会所付近,33.27645,132.64346,
愛媛県,宇和島市,54-01,三間町中野中182番地2,JR二名駅前広場,33.29157,132.6291,
愛媛県,宇和島市,54-02,三間町波岡831番地,妙光寺（壁）,33.29598,132.62728,
愛媛県,宇和島市,54-03,三間町田川222番地先,masked,33.29992,132.63394,
愛媛県,宇和島市,54-04,三間町金銅312番地1先,付近,33.29235,132.63369,
愛媛県,宇和島市,55-01,三間町中間474番地1先,三間中間集会所付近,33.28474,132.66588,
愛媛県,宇和島市,55-02,三間町黒川390番地先,グループホーム・コスモス付近,33.29102,132.66088,
愛媛県,宇和島市,55-03,三間町黒川127番地先,黒川集会所付近,33.29401,132.65832,
愛媛県,宇和島市,55-04,三間町音地239番地,音地集会所,33.30653,132.65887,
愛媛県,宇和島市,56-01,津島町岩松甲471番地,岩松公民館,33.12591,132.52166,
愛媛県,宇和島市,56-02,津島町高田甲386番地2（保木）,保木集会所付近,33.12985,132.52063,
愛媛県,宇和島市,56-03,津島町岩松甲1420番地（寿町）,岩松保育園,33.1174,132.52055,
愛媛県,宇和島市,56-04,津島町岩松甲753番地（新川岸）,大畑旅館前護岸,33.12523,132.52268,
愛媛県,宇和島市,56-05,津島町岩松芳原石柱付近,倉庫付近,33.11036,132.51837,
愛媛県,宇和島市,56-06,津島町近家甲1607番地,ダイキアクシス津島工場前県道,33.11829,132.51212,
愛媛県,宇和島市,56-07,津島町岩松甲242番地1（三島拝高）,宇和島自動車車庫付近,33.12896,132.52915,
愛媛県,宇和島市,56-08,津島町高田丙556番地1（礒）,津島中学校北側付近,33.12234,132.51679,
愛媛県,宇和島市,57-01,津島町高田甲723番地3（久保津）,つしま亭前空地,33.13583,132.5247,
愛媛県,宇和島市,57-02,津島町高田乙234番地2（稲中）,稲中集会所付近,33.12877,132.53781,
愛媛県,宇和島市,57-03,津島町高田甲2054番地4,喫茶礒付近,33.14216,132.5259,
愛媛県,宇和島市,58-01,津島町近家甲212番地10（蔵座）,近家集会所付近,33.1304,132.50399,
愛媛県,宇和島市,58-02,津島町近家甲127番地（胼之江）,付近,33.12293,132.51092,
愛媛県,宇和島市,58-03,津島町近家佐近谷1,南楽園前バス停付近,33.13372,132.50302,
愛媛県,宇和島市,59-01,津島町岩渕丙560番地（新開）,清満公民館,33.12423,132.55306,
愛媛県,宇和島市,59-02,津島町岩渕野井,野井口大町橋付近,33.12423,132.55306,
愛媛県,宇和島市,59-03,津島町岩渕甲1289番地1（後二）,JAえひめ南農協清満支所付近,33.12393,132.54982,
愛媛県,宇和島市,59-04,津島町岩渕甲1640番地1（前一）,付近,33.1216,132.55091,
愛媛県,宇和島市,60-01,津島町増穂903番地（吉井）,増穂橋付近,33.11433,132.54618,
愛媛県,宇和島市,60-02,津島町増穂乙964番地（音地）,音地バス停付近,33.09909,132.53476,
愛媛県,宇和島市,60-03,津島町増穂乙1194番地（本俵）,付近,33.0892,132.53093,
愛媛県,宇和島市,60-04,津島町増穂丙485番地3（追ノ川沖）,増穂集会所付近,33.10796,132.5428,
愛媛県,宇和島市,61-01,津島町山財4895番地（清重）,山財集会所付近,33.11663,132.56852,
愛媛県,宇和島市,61-02,津島町山財6520番地（颪部）,付近,33.12388,132.5616,
愛媛県,宇和島市,61-03,津島町山財4764番地（馬ノ渕）,馬ノ渕集会所付近,33.10781,132.57538,
愛媛県,宇和島市,61-04,津島町山財御代ノ川,御代ノ川分校跡地付近,33.14476,132.59267,
愛媛県,宇和島市,62-01,津島町御内809番地（4区）,御槇地区自然休養村管理センター付近,33.09843,132.62632,
愛媛県,宇和島市,62-02,津島町御内353番地（2区）,県有林御槇事務所付近,33.09725,132.62081,
愛媛県,宇和島市,62-03,津島町御内1213番地（6区）,御槇小学校前バス停付近,33.09803,132.63431,
愛媛県,宇和島市,62-04,津島町御内1241番地（7区）,渡辺商店付近,33.09116,132.64615,
愛媛県,宇和島市,62-05,津島町御内2422番地（8区）,篠山橋付近,33.08961,132.64914,
愛媛県,宇和島市,62-06,津島町槇川1296番地（10区）,槇川バス停付近,33.09106,132.63047,
愛媛県,宇和島市,62-07,津島町槇川1132番地（11区）,谷郷バス停付近,33.08854,132.62533,
愛媛県,宇和島市,63-01,津島町下畑地（内田）,金剛橋付近,33.09923,132.51052,
愛媛県,宇和島市,63-02,津島町下畑地甲37番地（於泥下）,於泥バス停付近,33.10605,132.51161,
愛媛県,宇和島市,63-03,津島町下畑地丁36番地3（於泥下）,柿内橋付近,33.10557,132.50751,
愛媛県,宇和島市,63-04,津島町下畑地甲1533番地（鴨田）,JAえひめ南農協畑地支所付近,33.09587,132.51566,
愛媛県,宇和島市,63-05,津島町上畑地甲568番地（西組）,畑地コミュニティセンター付近,33.08877,132.51324,
愛媛県,宇和島市,63-06,津島町上畑地甲6番地1（三島）,三島集会所付近,33.08351,132.50613,
愛媛県,宇和島市,63-07,津島町下畑地甲1782番地（保場川）,付近,33.0887,132.51962,
愛媛県,宇和島市,63-08,津島町上畑地上畑地甲474番地（東組）,付近,33.08743,132.516,
愛媛県,宇和島市,63-09,津島町上畑地甲1201番地1（大門）,大門バス停付近,33.08525,132.50497,
愛媛県,宇和島市,64-01,津島町下畑地乙735番地4（上槙上）,上槙集会所付近,33.05581,132.55536,
愛媛県,宇和島市,64-02,津島町下畑地乙265番地3（上槙下）,付近,33.05849,132.56693,
愛媛県,宇和島市,65-01,津島町嵐627番地ノ8,嵐保育園付近,33.07742,132.48714,
愛媛県,宇和島市,66-01,津島町須下181番地,旧須下分校付近,33.06241,132.41657,
愛媛県,宇和島市,67-01,津島町成361番地1付近,NTT北由良電話交換所,33.05719,132.42748,
愛媛県,宇和島市,68-01,津島町平井127番地17,平井浄化センター付近,33.05559,132.45014,
愛媛県,宇和島市,68-02,津島町曲烏121番地24,曲鳥集会所付近,33.060417,132.465322,
愛媛県,宇和島市,69-01,津島町浦知414番地1,浦知集会所付近,33.06436,132.48833,
愛媛県,宇和島市,69-02,津島町柿之浦196番地6,柿之浦旧グラウンド付近,33.05571,132.48347,
愛媛県,宇和島市,70-01,津島町鼡鳴番外3番地5,鼡鳴集会所右横,33.08444,132.47844,
愛媛県,宇和島市,70-02,津島町横浦番外7地先,横浦集会所付近,33.08188,132.47917,
愛媛県,宇和島市,70-03,津島町坪井265番地,坪井集会所付近,33.08115,132.47239,
愛媛県,宇和島市,70-04,津島町田颪119番地,田颪公園付近,33.08972,132.46714,
愛媛県,宇和島市,71-01,津島町脇531番地3,脇集会所付近,33.09858,132.48109,
愛媛県,宇和島市,71-02,津島町田之浜1771番地2,田之浜集会所,33.10733,132.47529,
愛媛県,宇和島市,72-01,津島町竹ヶ島263番地,竹ケ島集会所付近,33.10747,132.41533,
愛媛県,宇和島市,73-01,津島町北灘鵜之浜,鵜之浜集会所付近,33.13806,132.49779,
愛媛県,宇和島市,73-02,津島町北灘甲2142番地3（網代）,北灘公民館,33.14268,132.47712,
愛媛県,宇和島市,74-01,津島町北灘乙153番地（家次）,北灘小学校付近,33.14114,132.46836,
愛媛県,宇和島市,74-02,津島町北灘乙1334番地2（尻貝）,尻貝集会所付近,33.14255,132.45354,
愛媛県,宇和島市,74-03,津島町北灘乙1996番地（掛網代）,付近,33.13729,132.45541,
愛媛県,宇和島市,75-01,津島町北灘丙140番地（福浦）,旧福浦分校校庭,33.15376,132.435,
愛媛県,宇和島市,76-01,津島町北灘丁930番地1,旧南部小学校付近,33.1201,132.47359,
愛媛県,宇和島市,76-02,津島町北灘丁1207番地3（小日提浜）,小日提集会所付近,33.11495,132.4711,
愛媛県,宇和島市,76-03,津島町北灘丁473番地3（大日提）,大日提集会所付近,33.1195,132.48279,
