prefecture,city,number,address,name,lat,long,note
愛媛県,愛南町,1-1,柏404-1,旧内海支所前フェンス,33.0194775,132.4980324,
愛媛県,愛南町,1-2,柏693,梶屋敷集会所,33.020692,132.501673,
愛媛県,愛南町,1-3,柏2015,浜田雅浩様 宅地前ガードレール,33.0174211,132.4993343,緯度経度は怪しい
愛媛県,愛南町,1-4,柏1584,柏AB団地公営住宅,33.0230342,132.5041127,緯度経度は怪しい
愛媛県,愛南町,2-5,柏崎665-2,柏崎集会所,33.0168909,132.4915462,緯度経度は怪しい
愛媛県,愛南町,3-6,須ノ川262-2,えひめ南農協旧須ノ川事業所前,33.0390282,132.4896483,緯度経度は怪しい
愛媛県,愛南町,3-7,須ノ川780,(株)末廣組事務所前ガードレール,33.0375798,132.4876631,
愛媛県,愛南町,4-8,平滝254,平滝公民館,32.9623239,132.5835016,緯度経度は怪しい
愛媛県,愛南町,4-9,平滝717-10,天白浩司様 宅,32.9623239,132.5835016,緯度経度は怪しい
愛媛県,愛南町,5-10,家串907-2,家串公民館,33.0492845,132.4709828,
愛媛県,愛南町,5-11,家串1154,家串公営住宅,33.0469962,132.471197,
愛媛県,愛南町,6-12,油袋425-2,油袋漁民センター横ガードレール,33.0484596,132.4501669,緯度経度は怪しい
愛媛県,愛南町,6-13,油袋630-8,那須英雄様 畑前ガードレール,33.0453823,132.4454454,
愛媛県,愛南町,7-14,魚神山1658-1,山下コマヱ様 所有地前,33.0562904,132.4221052,緯度経度は怪しい
愛媛県,愛南町,7-15,魚神山732,小島義己様 宅,33.0559076,132.4085221,緯度経度は怪しい
愛媛県,愛南町,7-16,魚神山229,魚神山老人福祉センター,33.0517424,132.4070924,緯度経度は怪しい
愛媛県,愛南町,8-17,網代340,網代集会所,33.037218,132.4047662,緯度経度は怪しい
愛媛県,愛南町,8-18,網代576-1,荒樫集会所,33.0417434,132.4078388,緯度経度は怪しい
愛媛県,愛南町,1-1,御荘平城820-4,鎌田理容店横ガードパイプ,32.9612186,132.5583138,緯度経度は怪しい
愛媛県,愛南町,1-2,御荘平城2310,旧児童館,32.9633076,132.5618399,
愛媛県,愛南町,1-3,御荘平城2332,平城小学校フェンス,32.9644709,132.5627107,
愛媛県,愛南町,2-4,御荘平城2510-2,御荘保育所前ガードレール,32.9658446,132.5657297,緯度経度は怪しい
愛媛県,愛南町,2-5,御荘平城2110-1,山泉自動車駐車場,32.963092,132.5657321,緯度経度は怪しい
愛媛県,愛南町,2-6,御荘平城2139,愛南町老人福祉センター,32.96484179999999,132.5676567,
愛媛県,愛南町,2-7,御荘平城3063,愛南町役場御荘支所,32.9637419,132.5694462,
愛媛県,愛南町,2-8,御荘平城3269,南宇和高校裏門,32.9632126,132.5710714,
愛媛県,愛南町,3-9,御荘平城3843-2,JA選果場入口ガードパイプ,32.9612435,132.5633225,
愛媛県,愛南町,3-10,御荘平城3601-3,南高第2グラウンド横ガードレール,32.9607717,132.5680765,緯度経度は怪しい
愛媛県,愛南町,3-11,御荘平城3955-1,ダイレックス(株)前　ガードパイプ,32.9600386,132.5582279,緯度経度は怪しい
愛媛県,愛南町,3-12,御荘平城4287-2,御荘中央浄水場,32.9587903,132.5599462,緯度経度は怪しい
愛媛県,愛南町,4-13,御荘菊川3632-2,町道舟ノ川松岡線国道接点ガードレール,33.0040593,132.51663,緯度経度は怪しい
愛媛県,愛南町,4-14,御荘菊川1157,旧菊川小学校,32.9913722,132.5172904,
愛媛県,愛南町,4-15,御荘菊川1548-1,NTT菊川交換所,32.9857002,132.5219271,緯度経度は怪しい
愛媛県,愛南町,4-16,御荘菊川1955,菊川水源地,33.0040593,132.51663,緯度経度は怪しい
愛媛県,愛南町,4-17,御荘菊川2278,向田様　宅前,33.0040593,132.51663,緯度経度は怪しい
愛媛県,愛南町,5-18,御荘長洲357-2,藤田勝直様 宅前ガードパイプ,32.9825029,132.5460573,緯度経度は怪しい
愛媛県,愛南町,5-19,御荘平城360,旧長崎保育所,32.9678267,132.546863,
愛媛県,愛南町,5-20,御荘平城110-1,長崎集会所,32.9660343,132.5461257,緯度経度は怪しい
愛媛県,愛南町,6-21,御荘平城4347,金井達文様 宅,32.9612186,132.5583138,緯度経度は怪しい
愛媛県,愛南町,6-22,御荘平城5182-1,岸田忠己様 宅前,32.9573676,132.5624359,緯度経度は怪しい
愛媛県,愛南町,6-23,御荘平城3945-1,メゾン桂下横ガードパイプ,32.9594844,132.5573181,緯度経度は怪しい
愛媛県,愛南町,6-24,御荘平城5514,馬瀬旧集会所前ガードレール,32.9568746,132.5549913,
愛媛県,愛南町,6-25,御荘深泥679-1,深泥集会所前ガードレール,32.9572223,132.542364,緯度経度は怪しい
愛媛県,愛南町,7-26,御荘和口10,愛南警察住宅前ガードレール,32.9674881,132.5697422,
愛媛県,愛南町,7-27,御荘和口174,旧御荘学校給食センター,32.9716944,132.570376,
愛媛県,愛南町,7-28,御荘和口339-2,早川幸治様 宅前ガードレール,32.9968434,132.5558627,緯度経度は怪しい
愛媛県,愛南町,8-29,御荘長月3564,桑原松子様 宅前ガードレール,32.9694341,132.5793393,緯度経度は怪しい
愛媛県,愛南町,8-30,御荘長月525-3,尾崎重喜様 宅横ガードパイプ,32.9886195,132.5754681,緯度経度は怪しい
愛媛県,愛南町,8-31,御荘長月853,旧長月小学校,32.9783988,132.5836397,
愛媛県,愛南町,8-32,御荘長月2805,長月塩屋田橋付近ガードレール,32.9886195,132.5754681,緯度経度は怪しい
愛媛県,愛南町,9-33,御荘平山932-1,町道平山線水門付近ガードレール,32.9761053,132.5337979,
愛媛県,愛南町,9-34,御荘平山526,愛南漁協御荘支所倉庫,32.9688391,132.5372443,緯度経度は怪しい
愛媛県,愛南町,10-35,猿鳴230-7,県道フェンス,32.9710927,132.4847912,緯度経度は怪しい
愛媛県,愛南町,10-36,中浦2065-2,町道左右水線交差点付近県道ガードレール,32.9694583,132.4945486,緯度経度は怪しい
愛媛県,愛南町,10-37,中浦1677,中浦団地,32.9697592,132.5005107,緯度経度は怪しい
愛媛県,愛南町,10-38,中浦833,漁村振興センター駐車場ガードパイプ,32.9694583,132.4945486,緯度経度は怪しい
愛媛県,愛南町,10-39,中浦502,旧中浦小学校前,32.9636093,132.5024209,緯度経度は怪しい
愛媛県,愛南町,10-40,中浦96,尻貝集会所,32.9622866,132.5047961,緯度経度は怪しい
愛媛県,愛南町,11-41,防城成川45-3,防城停留所横ガードレール,32.9629292,132.539564,緯度経度は怪しい
愛媛県,愛南町,11-42,赤水581,旧赤水小学校体育館,32.9600592,132.5242627,緯度経度は怪しい
愛媛県,愛南町,11-43,高畑189-5,高畑バス停付近ガードパイプ,32.961246,132.514177,
愛媛県,愛南町,11-44,高畑,猿越停留所横ガードレール,32.961246,132.514177,
愛媛県,愛南町,1-1,城辺甲2420,愛南町役場本庁,32.9606702,132.5926166,緯度経度は怪しい
愛媛県,愛南町,1-2,城辺甲2487,城辺保健福祉センター前,32.9629089,132.5853062,
愛媛県,愛南町,1-3,蓮乗寺109-3,大西敬二様 宅前,32.9549546,132.5860583,
愛媛県,愛南町,1-4,城辺甲2962-1,大森文化会館,32.9577954,132.5870237,
愛媛県,愛南町,1-5,城辺甲2260-1,徳田節音様 宅車庫横,32.9609997,132.5782473,
愛媛県,愛南町,1-6,城辺甲1988,城辺総合事務所(旧城辺商工会館),32.9606702,132.5926166,緯度経度は怪しい
愛媛県,愛南町,1-7,城辺甲1943,城の辺学習館前,32.959961,132.5791049,
愛媛県,愛南町,1-8,城辺甲177-1,スモールジム愛南付近ガードパイプ,32.9598092,132.5725921,
愛媛県,愛南町,1-9,城辺乙544,フジ南宇和店,32.9629656,132.5755194,
愛媛県,愛南町,2-10,緑甲1843-5,梶郷集会所前,32.9984515,132.6147743,緯度経度は怪しい
愛媛県,愛南町,2-11,緑乙1383-1,出口浩子様 宅横,32.9727422,132.5976423,緯度経度は怪しい
愛媛県,愛南町,2-12,緑乙3231,緑小学校前,32.9756859,132.6031278,緯度経度は怪しい
愛媛県,愛南町,2-13,緑乙2632-1,西柳集会所前,32.9865049,132.5987252,緯度経度は怪しい
愛媛県,愛南町,2-14,緑甲866-1,大道集会所,32.9784969,132.6106925,緯度経度は怪しい
愛媛県,愛南町,2-15,緑乙3408-1,樋口集会所前ガードレール,32.989616,132.595066,緯度経度は怪しい
愛媛県,愛南町,3-16,僧都279,僧都ふれあい交流館,33.019365,132.5797175,緯度経度は怪しい
愛媛県,愛南町,3-17,僧都1091-1,大僧都集会所前,33.0245999,132.5622745,緯度経度は怪しい
愛媛県,愛南町,4-18,中玉193,中玉集会所,32.9230224,132.6234105,緯度経度は怪しい
愛媛県,愛南町,4-19,中玉497,井上 一様 宅前,32.925768,132.6276713,緯度経度は怪しい
愛媛県,愛南町,5-20,敷盛9-1,敷盛集会所前,32.9623239,132.5835016,
愛媛県,愛南町,5-21,岩水115,吉村酒店(東海公民館横),32.9443289,132.6035288,緯度経度は怪しい
愛媛県,愛南町,5-22,垣内507-2,愛南漁協東海加工場,32.9477645,132.6019249,緯度経度は怪しい
愛媛県,愛南町,6-23,深浦260,深浦公民館,32.9459941,132.5910092,緯度経度は怪しい
愛媛県,愛南町,6-24,深浦3-1,南楽荘入口付近,32.9516433,132.588511,
愛媛県,愛南町,6-25,深浦216-1,深浦団地前ガードパイプ,32.9461371,132.5908128,緯度経度は怪しい
愛媛県,愛南町,7-26,鯨越279,コンクリート壁(立花様),32.9476475,132.5396956,緯度経度は怪しい
愛媛県,愛南町,7-27,古月290-2,古月集会所,32.9467058,132.5743994,緯度経度は怪しい
愛媛県,愛南町,8-28,久良237-1,浜見陽計様 宅前,32.9462307,132.5623289,緯度経度は怪しい
愛媛県,愛南町,8-29,久良422,小屋ノ浦集会所,32.9476555,132.55795,緯度経度は怪しい
愛媛県,愛南町,9-30,久良824,旧久良保育所前,32.9473938,132.5527908,緯度経度は怪しい
愛媛県,愛南町,9-31,久良1187,大寿浦集会所,32.9462752,132.5491403,緯度経度は怪しい
愛媛県,愛南町,9-32,久良2095-2,久良ふるさとセンター前,32.9429932,132.5486421,緯度経度は怪しい
愛媛県,愛南町,10-33,脇本653,脇本集会所前,32.9278014,132.6541359,緯度経度は怪しい
愛媛県,愛南町,10-34,脇本266-1,石崎様 宅前,32.9268199,132.6406772,緯度経度は怪しい
愛媛県,愛南町,11-35,城辺乙669,三島団地集会所,32.9678652,132.5828392,緯度経度は怪しい
愛媛県,愛南町,11-36,城辺乙394,瀬戸谷用水場前,32.966699,132.5864928,緯度経度は怪しい
愛媛県,愛南町,12-37,城辺甲5490,浄水場ガードレール,32.9606702,132.5926166,緯度経度は怪しい
愛媛県,愛南町,12-38,城辺甲5005-2,惣五郎神社前,32.9606702,132.5926166,緯度経度は怪しい
愛媛県,愛南町,12-39,城辺甲4055,長野集会所,32.963837,132.5941284,緯度経度は怪しい
愛媛県,愛南町,12-40,城辺甲3980,青果市場横,32.9646158,132.5924083,緯度経度は怪しい
愛媛県,愛南町,13-41,久良2340-1,本多(千鶴)様 宅前,32.9474025,132.5484227,緯度経度は怪しい
愛媛県,愛南町,13-42,久良3859-1,新浦集会所横,32.9376024,132.5549914,緯度経度は怪しい
愛媛県,愛南町,14-43,緑丙212,山出集会所前,33.0155951,132.5975159,緯度経度は怪しい
愛媛県,愛南町,14-44,緑丙108,山出憩いの里温泉バス停前,33.0315972,132.6048622,
愛媛県,愛南町,1-1,一本松5056-2,光井鮮魚店前,32.9625711,132.6484195,
愛媛県,愛南町,1-2,一本松3520,一本松山村開発センター,32.9631734,132.6474544,
愛媛県,愛南町,1-3,一本松5048-2,一本松支所(一本松保健センター),32.962918,132.6484961,
愛媛県,愛南町,2-4,正木456-2,正木下集会所前ガードレール,33.0227683,132.6587082,緯度経度は怪しい
愛媛県,愛南町,2-5,正木1223,正木公民館(旧正木保育所),32.9966138,132.6842515,緯度経度は怪しい
愛媛県,愛南町,2-6,正木1442-3,県道ガードレール,33.0227683,132.6587082,緯度経度は怪しい
愛媛県,愛南町,2-7,正木2569-2,山本修身様 宅前ガードレール,33.0227683,132.6587082,緯度経度は怪しい
愛媛県,愛南町,3-8,増田3437-1,増田駐輪場前,32.9833618,132.6538154,緯度経度は怪しい
愛媛県,愛南町,3-9,増田3887-1,清水新吾様 宅横ガードパイプ,32.9743965,132.6633326,緯度経度は怪しい
愛媛県,愛南町,3-10,増田3149,増田コミュニティセンターフェンス,32.9833618,132.6538154,緯度経度は怪しい
愛媛県,愛南町,3-11,増田1829-3,中屋八人組集会所前,32.9833618,132.6538154,緯度経度は怪しい
愛媛県,愛南町,4-12,小山779-1,小山橋付近ガードレール,32.9515936,132.6636005,緯度経度は怪しい
愛媛県,愛南町,4-13,小山1101-1,東小山集会所横,32.9614825,132.6809422,緯度経度は怪しい
愛媛県,愛南町,5-14,中川1202,吉村智生様 宅裏,32.9587397,132.6448496,緯度経度は怪しい
愛媛県,愛南町,5-15,中川1027-2,中川集会所横ガードレール,32.9454977,132.6342397,
愛媛県,愛南町,5-16,中川677-1,中尾千保様 宅横畑,32.9454977,132.6342397,
愛媛県,愛南町,6-17,広見2812-2,松岡信幸様 宅付近ガードレール,32.966789,132.6423274,緯度経度は怪しい
愛媛県,愛南町,6-18,広見1648-1,広見コミュニティセンター,32.9724988,132.6398544,緯度経度は怪しい
愛媛県,愛南町,6-19,広見1102-3,広見第3集会所付近ガードパイプ,32.9731584,132.6342397,緯度経度は怪しい
愛媛県,愛南町,6-20,広見1809-1,町道ガードパイプ,32.9731584,132.6342397,緯度経度は怪しい
愛媛県,愛南町,6-21,広見2174-2,県道ガードレール,32.9731584,132.6342397,緯度経度は怪しい
愛媛県,愛南町,7-22,上大道158-2,水野博文様 宅付近フェンス,32.9694723,132.6118151,緯度経度は怪しい
愛媛県,愛南町,7-23,上大道643,徳岡 朗様 宅付近ガードレール,32.9667766,132.6220011,緯度経度は怪しい
愛媛県,愛南町,8-24,満倉2380,町道ガードレール,32.9524461,132.6122081,緯度経度は怪しい
愛媛県,愛南町,8-25,満倉2686,満倉集会所前,32.9509104,132.6091457,緯度経度は怪しい
愛媛県,愛南町,1-1,越田116,越田集会所,32.9468938,132.5386953,
愛媛県,愛南町,1-2,弓立72,弓立集会所,32.9487157,132.5307805,
愛媛県,愛南町,2-3,小浦69,中田文子様 宅前ガードフェンス,32.9508565,132.5252147,
愛媛県,愛南町,2-4,樫月127,町道と水路接点のガードパイプ,32.9506018,132.5203093,
愛媛県,愛南町,3-5,船越470-1,船越東第2団地前ガードレール,32.9476241,132.5063785,緯度経度は怪しい
愛媛県,愛南町,3-6,船越755,船越集会所,32.9475081,132.504172,緯度経度は怪しい
愛媛県,愛南町,3-7,船越651,観光船案内板横ガードレール,32.9508625,132.5031369,緯度経度は怪しい
愛媛県,愛南町,3-8,船越1289-1,愛南町役場西海支所,32.945075,132.5040424,緯度経度は怪しい
愛媛県,愛南町,4-9,久家738,久家集会所,32.9409313,132.5050716,緯度経度は怪しい
愛媛県,愛南町,4-10,久家1,長田幸雄様 宅のコンクリート塀,32.9435129,132.5041347,緯度経度は怪しい
愛媛県,愛南町,4-11,下久家365,教員住宅フェンス,32.9395484,132.5103354,緯度経度は怪しい
愛媛県,愛南町,5-12,樽見329,樽見地区所有地の塀,32.9329073,132.5129504,
愛媛県,愛南町,5-13,樽見300,古本将文様 宅前ガードレール,32.9329073,132.5129504,
愛媛県,愛南町,6-14,大成川221-1,大成川集会所,32.9290598,132.5055904,
愛媛県,愛南町,6-15,小成川359,小成川子供広場防護柵,32.9268148,132.5012967,
愛媛県,愛南町,7-16,福浦628,県道と里道接点のガードレール,32.9148166,132.487186,緯度経度は怪しい
愛媛県,愛南町,7-17,福浦981-4,福浦漁港道路フェンス,32.9173863,132.4975891,緯度経度は怪しい
愛媛県,愛南町,7-18,福浦991,福浦公民館付近ガードパイプ,32.9165421,132.4982103,緯度経度は怪しい
愛媛県,愛南町,7-19,福浦1493-3,西海災害救済備蓄倉庫前ガードパイプ,32.9148166,132.487186,緯度経度は怪しい
愛媛県,愛南町,7-20,福浦1863-2,河野政義様 宅前コンクリートブロック塀,32.9154888,132.5082485,緯度経度は怪しい
愛媛県,愛南町,7-21,麦ヶ浦145,麦ヶ浦集会所,32.9161602,132.5119879,緯度経度は怪しい
愛媛県,愛南町,8-22,武者泊616,旧武者泊小学校,32.9100776,132.5178564,緯度経度は怪しい
愛媛県,愛南町,8-23,武者泊443,武者泊バス停横ガードレール,32.9100776,132.5178564,緯度経度は怪しい
愛媛県,愛南町,9-24,外泊489,県道と町道接点のガードパイプ,32.9361097,132.4749128,緯度経度は怪しい
愛媛県,愛南町,9-25,中泊10,中泊集会所,32.9380336,132.4808005,緯度経度は怪しい
愛媛県,愛南町,9-26,中泊763,中泊公衆トイレ付近ガードレール,32.9359836,132.4835044,
愛媛県,愛南町,10-27,内泊1153,空地前ガードパイプ,32.9371397,132.4945486,緯度経度は怪しい
愛媛県,愛南町,10-28,内泊551,空地前ガードパイプ,32.9371397,132.4945486,緯度経度は怪しい
