prefecture,city,number,address,name,lat,long
愛媛県,東温市,1-1,山之内2092番地,藤之内バス停横,33.86277201,132.9187882
愛媛県,東温市,1-2,山之内1778番地,神子野バス停前,33.86159602,132.9092717
愛媛県,東温市,1-3,山之内581番地,旧荒木谷ポンプ蔵置所前,33.84396314,132.8982961
愛媛県,東温市,1-4,山之内2番地7,井口集会所前道路沿,33.82072032,132.90034
愛媛県,東温市,1-5,樋口500番地,石丸商店西側道路沿,33.80639093,132.8886455
愛媛県,東温市,1-6,樋口764番地,樋口集会所東側,33.80944421,132.8878891
愛媛県,東温市,1-7,横河原185番地1,伊予鉄道横河原駅舎東側,33.80338658,132.8844291
愛媛県,東温市,1-8,横河原181番地,双葉保育所入口東側,33.804287,132.8824818
愛媛県,東温市,1-9,志津川695番地4,志津川集会所西側,33.80331526,132.8739578
愛媛県,東温市,1-10,志津川170番地,masked,33.80418894,132.8795528
愛媛県,東温市,2-11,西岡131番地,西岡バス停東側,33.80340887,132.8659219
愛媛県,東温市,2-12,西岡880番地,ハリマ塚バス停東側,33.80274469,132.8578913
愛媛県,東温市,2-13,西岡102番地,JAえひめ中央北吉井経済センター集荷場前,33.80494672,132.8702778
愛媛県,東温市,3-14,見奈良997番地,見奈良公民館東側,33.79109617,132.8749663
愛媛県,東温市,3-15,見奈良530番地1,市役所前,33.79126558,132.871694
愛媛県,東温市,3-16,田窪2277番地,田窪団地公園南側,33.79565234,132.8656805
愛媛県,東温市,3-17,志津川1659番地1,八反地集会所南側,33.79763612,132.8673917
愛媛県,東温市,3-18,志津川972番地,旧重信町役場跡地東側,33.79640574,132.8748322
愛媛県,東温市,3-19,志津川991番地,重信中学校北門前,33.7961338,132.8721178
愛媛県,東温市,3-20,志津川454番地,重信歯科医院東側,33.80302997,132.8771013
愛媛県,東温市,4-21,田窪1347番地,田窪集荷場南側,33.79024911,132.8603911
愛媛県,東温市,4-22,田窪1410番地,宇氣洲神社南側,33.79154645,132.8608364
愛媛県,東温市,4-23,田窪3007番地1,田窪水木公園南側,33.79399396,132.8641999
愛媛県,東温市,4-24,牛渕1395番地,JAえひめ中央重信支所農業倉庫南側,33.79429711,132.8547102
愛媛県,東温市,4-25,牛渕718番地,浮嶋神社前交差点北側,33.79056564,132.8507245
愛媛県,東温市,4-26,牛渕630番地,牛渕集会所東側,33.79259858,132.8500807
愛媛県,東温市,5-27,西岡599番地22,播磨台団地公民館西側,33.79955298,132.8495979
愛媛県,東温市,5-28,牛渕1957番地1,県営牛渕団地第3棟南側,33.79692286,132.8453761
愛媛県,東温市,5-29,牛渕1855番地2,上樋集会所北側道路,33.79790359,132.8491259
愛媛県,東温市,5-30,野田1丁目988番地14,県営牛渕団地第13棟西側,33.79619176,132.8431499
愛媛県,東温市,5-31,野田1丁目19番地,ゆるぎ公園北側,33.79413216,132.8400815
愛媛県,東温市,6-32,北野田72番地5,御旅所前,33.79136366,132.8397489
愛媛県,東温市,6-33,南野田234番地2,南野田中組集会所北側,33.7893842,132.8395933
愛媛県,東温市,6-34,南野田375番地15,カトーレック株式会社松山支店西側道路,33.78653084,132.8359991
愛媛県,東温市,6-35,北野田825番地1,アヴァンセY東側,33.79771636,132.8302646
愛媛県,東温市,6-36,野田3丁目3番地,てんじん公園南側,33.79487219,132.8343791
愛媛県,東温市,7-37,下林甲2809番地3,宮ノ段バス停東側,33.77541967,132.8574085
愛媛県,東温市,7-38,下林甲2755番地,西ノ谷公民館北側,33.77558465,132.8536963
愛媛県,東温市,7-39,上村甲298番地,上村バス停横,33.7748935,132.8482944
愛媛県,東温市,7-40,上村甲537番地,上村集会所北側,33.7745011,132.8465402
愛媛県,東温市,8-41,下林甲243番地,masked,33.77220465,132.8839463
愛媛県,東温市,8-42,下林甲553番地,横根集会所北側,33.77893777,132.8818542
愛媛県,東温市,8-43,下林甲1066番地,旧助兼集会所前,33.78263853,132.8783083
愛媛県,東温市,8-44,下林甲1345番地,拝志農協前バス停横,33.78202769,132.8756529
愛媛県,東温市,8-45,下林甲1585番地,拝志小学校南側県道沿,33.77868807,132.8710395
愛媛県,東温市,8-46,下林甲2329番地,仙幸寺バス停前,33.77679749,132.8639853
愛媛県,東温市,8-47,下林甲2200番地1,JAえひめ中央拝志経済センター前,33.77974927,132.86825
愛媛県,東温市,9-48,上林甲565番地2,中筋警鐘台北側,33.74685929,132.8880286
愛媛県,東温市,9-49,上林甲1648番地,菅野商店前,33.74940621,132.8869128
愛媛県,東温市,9-50,上林甲2565番地,上林小学校体育館西側道路,33.75592258,132.8873581
愛媛県,東温市,9-51,上林甲2886番地,友清常夜灯前,33.75912929,132.8880072
愛媛県,東温市,9-52,上林甲3074番地,二ノ瀬バス停前,33.76387,132.8858399
愛媛県,東温市,10-53,南方286番地,川内支所前バス停横,33.79778769,132.9141158
愛媛県,東温市,10-54,南方264番地,川内公民館前,33.79681587,132.9155374
愛媛県,東温市,10-55,松瀬川488番地,吹上池,33.80069416,132.919625
愛媛県,東温市,10-56,北方2081番地1,東温市ふるさと交流館東側,33.8029007,132.9149902
愛媛県,東温市,10-57,北方2277番地,町西公民館前,33.79985165,132.9091591
愛媛県,東温市,10-58,南方623番地1,宝泉川橋北,33.79950395,132.905345
愛媛県,東温市,10-59,則之内乙2506番地3,西谷口バス停東側,33.79416337,132.9188955
愛媛県,東温市,10-60,則之内甲2302番地1,永野集会所,33.79370419,132.9308796
愛媛県,東温市,10-61,則之内甲1535番地3,則之内集会所,33.79365515,132.9406482
愛媛県,東温市,10-62,則之内乙2482番地2,保免集会所,33.79312018,132.9188526
愛媛県,東温市,10-63,則之内乙1605番地,和田丸集会所,33.78467611,132.9199308
愛媛県,東温市,11-64,北方2655番地,川上小学校,33.80053814,132.9035103
愛媛県,東温市,11-65,北方2532番地1,川上小学校西側市道沿,33.80498238,132.9035318
愛媛県,東温市,11-66,北方甲3316番地1,(有)さくら前市道沿,33.80574906,132.8942782
愛媛県,東温市,11-67,南方2131番地,茶堂バス停留所横,33.80229447,132.8914404
愛媛県,東温市,11-68,北方2897番地第1,JA松山市川上支所第3倉庫前県道沿,33.80057826,132.8977972
愛媛県,東温市,11-69,南方2628番地,masked,33.79217505,132.8912741
愛媛県,東温市,11-70,南方1514番地,国道交差点南側県道沿,33.79761383,132.9030114
愛媛県,東温市,12-71,松瀬川1081番地,県道湯谷口川内線河崎橋沿,33.79653502,132.927677
愛媛県,東温市,12-72,松瀬川1389番地,松瀬川音田口県道沿,33.80582484,132.9396987
愛媛県,東温市,12-73,松瀬川1867番地,奥松瀬川公民館,33.81066994,132.9469836
愛媛県,東温市,12-74,松瀬川3500番地,五柱神社前県道沿,33.82200383,132.9519081
愛媛県,東温市,13-75,則之内乙1186番地1,西谷小学校入口県道沿,33.77255692,132.917093
愛媛県,東温市,13-76,井内1977番地,井内公民館,33.76082402,132.9191905
愛媛県,東温市,13-77,井内1019番地8,川東公民館前県道沿,33.75472728,132.927103
愛媛県,東温市,14-78,則之内甲296番地,東谷幼稚園,33.79324946,132.9528093
愛媛県,東温市,14-79,河之内甲4875番地2,惣河内神社前国道沿,33.78520221,132.9593807
愛媛県,東温市,14-80,河之内甲4476番地2,狩場公民館前国道沿,33.77923205,132.9570901
愛媛県,東温市,14-81,河之内甲3305番地,白猪屋商店前高知谷川橋沿,33.76838303,132.967996
愛媛県,東温市,14-82,河之内甲2283番地,日浦天神池土手,33.77838933,132.9636133
愛媛県,東温市,14-83,河之内甲1441番地,masked,33.80293636,132.9684198
愛媛県,東温市,14-84,河之内甲1187番地,masked,33.80895391,132.9735267
愛媛県,東温市,14-85,河之内甲1137番地1,masked,33.80883802,132.9691386
愛媛県,東温市,14-86,滑川甲1680番地4,郷の下バス停前県道沿,33.80215182,132.9952955
愛媛県,東温市,14-87,滑川甲1363番地1,下仲屋バス停前県道沿,33.79738202,132.9987127
愛媛県,東温市,14-88,滑川甲101番地,九騎林道入口,33.78461815,133.0027306
