prefecture,city,number,address,name,lat,long,note
愛媛県,松山市,1-1,二番町4丁目6-1,番町小学校正門横,33.8399392,132.7667193,
愛媛県,松山市,1-2,柳井町1丁目6-1,石手川緑地北側市道鉄柵,33.8325425,132.7695014,
愛媛県,松山市,1-3,堀之内城山公園,市民会館前鉄柵,33.842175,132.761261,緯度経度は怪しい
愛媛県,松山市,1-4,二番町4丁目5-1,番町パーキング東側金網,33.8404079,132.767415,
愛媛県,松山市,1-5,二番町4丁目7-2,松山市役所北側公用車駐車場の西側フェンス,33.8392451,132.7655459,
愛媛県,松山市,1-6,萱町5丁目市内電停松山市駅前,市駅前電停北側鉄柵,33.8503238,132.7561616,
愛媛県,松山市,1-7,三番町4丁目10-1,松山市役所三番町駐車場南側金網,33.8385976,132.7656428,
愛媛県,松山市,1-8,二番町4丁目7-2,松山市役所別館北側駐輪場の東側金網,33.8392451,132.7655459,
愛媛県,松山市,2-1,湯渡町4,八坂小学校正門南側フェンス,33.8396663,132.7824029,
愛媛県,松山市,2-2,新立町5-7,かいそう会館新立専用駐車場北側市道鉄柵,33.8372613,132.7789995,
愛媛県,松山市,2-3,三番町1丁目3-2,八坂公園北側,33.8373275,132.7725468,
愛媛県,松山市,2-4,築山町12-33,青少年センター本館南側ブロック,33.8395326,132.7799121,
愛媛県,松山市,2-5,永木町1丁目,石手川公園北側市道鉄柵,33.8363087,132.7769116,
愛媛県,松山市,2-6,永木町2丁目,石手川公園中村橋北,33.8353795,132.7750811,
愛媛県,松山市,2-7,新立町1-11,ライオンズマンション石手川公園北側市道鉄柵,33.8382699,132.7825449,
愛媛県,松山市,2-8,湯渡町11-22,有限会社城東タクシー横市道鉄柵,33.8406785,132.7849711,
愛媛県,松山市,3-1,小坂1丁目4,素鵞小学校正門横,33.8349256,132.7798099,
愛媛県,松山市,3-2,小坂1丁目4-48,素鵞小学校南側金網,33.834964,132.779991,
愛媛県,松山市,3-3,中村1丁目4,永木橋南東市道鉄柵,33.8348042,132.7767591,
愛媛県,松山市,3-4,枝松3丁目6-32,masked,33.8336186,132.7853324,
愛媛県,松山市,3-5,枝松2丁目3-38,masked,33.8351494,132.7837598,
愛媛県,松山市,3-6,日の出町9,日の出町公園側の日の出町バス停横,33.8374872,132.7823266,
愛媛県,松山市,3-7,中村1丁目4,石手川緑地南側植込み,33.8348042,132.7767591,
愛媛県,松山市,3-8,枝松1丁目9-20,masked,33.836434,132.786683,
愛媛県,松山市,4-1,中村3丁目2-34,素鵞公民館金網,33.8314753,132.7775582,
愛媛県,松山市,4-2,立花1丁目10-10,masked,33.8323727,132.772707,
愛媛県,松山市,4-3,立花4丁目6,石手川公園緑地,33.8304479,132.7689295,
愛媛県,松山市,4-4,立花5丁目1番48号,重松倉庫株式会社西側ブロック,33.8278697,132.7715728,
愛媛県,松山市,4-5,立花3丁目10-55,重松倉庫株式会社ソーコ南側ブロック,33.8272371,132.7730979,
愛媛県,松山市,4-6,祇園町5-18,愛媛信用金庫立花支店西側金網,33.8299693,132.7737526,
愛媛県,松山市,4-7,拓川町4,拓川市民運動場西側金網,33.8263733,132.7657748,
愛媛県,松山市,4-8,中村3丁目7-26,中村公園北側金網,33.8314345,132.7754624,
愛媛県,松山市,4-9,立花1丁目3-49,masked,33.8304344,132.7709621,
愛媛県,松山市,5-1,枝松5丁目4-39,拓南中学校正門ブロック,33.8296454,132.7834165,
愛媛県,松山市,5-2,枝松5丁目1-19,愛媛銀行卓球部専用練習場北側フェンス,33.8272169,132.7855677,
愛媛県,松山市,5-3,枝松5丁目4-39,拓南中学校東側ブロック,33.8296454,132.7834165,
愛媛県,松山市,5-4,小坂5丁目13-10,グランドハイム小坂前公園鉄柵,33.8255697,132.7812067,
愛媛県,松山市,5-5,小坂3丁目6番14号,二神工務店西側ブロック,33.8310647,132.7821386,
愛媛県,松山市,5-6,中村4丁目11-19,黒河駐車場東側ブロック,33.8277695,132.7765432,
愛媛県,松山市,5-7,枝松４丁目７−２７,枝松公園北側フェンス,33.8316483,132.7863207,
愛媛県,松山市,5-8,松末２丁目１１−２,市営松末南団地西側鉄柵,33.8257019,132.7869403,
愛媛県,松山市,6-1,旭町71,松山商業高等学校正門南側フェンス,33.8397604,132.7764442,
愛媛県,松山市,6-2,旭町71,松山商業高等学校南側ブロック,33.8397604,132.7764442,
愛媛県,松山市,6-3,御宝町126,県道松山・川内線グリーンベルト,33.8407533,132.7779117,
愛媛県,松山市,6-4,北持田町102,松山地方気象台西側フェンス,33.8437041,132.7777395,
愛媛県,松山市,6-5,此花町2-12,松山市青少年センター体育館東側フェンス,33.8400467,132.7803474,
愛媛県,松山市,6-6,一番町2丁目4-14,明楽寺南側ブロック,33.8407167,132.7720615,
愛媛県,松山市,6-7,歩行町2丁目7-4,えびたホール愛媛西側フェンス,33.8424465,132.7715724,
愛媛県,松山市,7-1,文京町2-1,東雲小学校正門横金網,33.8490567,132.7736319,
愛媛県,松山市,7-2,勝山2丁目13-2,松山東警察署南側鉄柵,33.839085,132.77536,緯度経度は怪しい
愛媛県,松山市,7-3,道後樋又3-34,村上ビル南側市道鉄柵,33.8516971,132.7734221,
愛媛県,松山市,7-4,喜与町2丁2-2,城東モータープール北側フェンス,33.8430888,132.7720788,
愛媛県,松山市,7-5,喜与町1丁7-1,松山まどんな病院南側金網,33.843777,132.7736319,
愛媛県,松山市,7-6,持田町1丁目5-22,愛媛大学教育学部附属小学校体育館西側フェンス,33.8429538,132.7833535,
愛媛県,松山市,7-7,昭和町47,愛媛県生活文化センター駐車場東側鉄柵,33.8463217,132.7775218,
愛媛県,松山市,7-8,平和通1丁目5-33,須之内歯科前市道鉄柵,33.847619,132.7740323,
愛媛県,松山市,8-1,清水町3丁目15,清水小学校北門金網,33.8520204,132.767075,
愛媛県,松山市,8-2,清水町2丁目7-9,清水公園南側金網,33.8499764,132.7635162,
愛媛県,松山市,8-3,文京町3丁目,愛媛大学西側フェンス,33.849716,132.770508,緯度経度は怪しい
愛媛県,松山市,8-4,御幸1丁目476,みゆき会館前市道鉄柵,33.857037,132.76709,緯度経度は怪しい
愛媛県,松山市,8-5,御幸1丁目320,松山大学御幸グラウンド南側市道鉄柵,33.857037,132.76709,緯度経度は怪しい
愛媛県,松山市,8-6,平和通4丁目1-21,ダイキ城北店前鉄柵,33.8468883,132.762045,
愛媛県,松山市,8-7,文京町4-10,松山大学西側フェンス,33.851158,132.767639,緯度経度は怪しい
愛媛県,松山市,9-1,清水町3丁目148-2,勝山中学校正門横ブロック,33.8521633,132.7643921,
愛媛県,松山市,9-2,清水町3丁目148-2,勝山中学校北側ブロック,33.8521633,132.7643921,
愛媛県,松山市,9-3,高砂町2丁目2-5,伊予銀行事務センター西側ブロック,33.8497195,132.7616106,
愛媛県,松山市,9-4,本町7丁目1-3,本町郵政宿舎B棟南側ブロック,33.8547104,132.7596873,
愛媛県,松山市,9-5,高砂町3丁目2-5,景徳寺北側ブロック,33.8517483,132.7613595,
愛媛県,松山市,9-6,高砂町4丁目102-5,和光橋と桜橋の間の市道鉄柵,33.8562605,132.7621956,
愛媛県,松山市,9-7,高砂町2丁目3-1,順風会健診センター東側鉄柵,33.8508146,132.7616094,
愛媛県,松山市,10-1,山越町460-3,市営本町団地3号棟東側金網,33.8554934,132.7562946,
愛媛県,松山市,10-2,御幸2丁目12-15,還熊八幡宮前バス停東側市道鉄柵,33.8587277,132.7594262,
愛媛県,松山市,10-3,山越6丁目13-20,高崎公園東側金網,33.856939,132.7505783,
愛媛県,松山市,10-4,山越5丁目3,山越公園東側金網,33.8603999,132.7529568,
愛媛県,松山市,10-5,山越5丁目8-3,白鳳会館北西市道鉄柵,33.8592491,132.7509213,
愛媛県,松山市,10-6,山越1丁目1-6,日分公園西側金網,33.8566412,132.7583194,
愛媛県,松山市,10-7,山越1丁目3-9,市立山越保育園にこにこひろば南側金網,33.8563968,132.7559759,
愛媛県,松山市,10-8,山越2丁目3-37,Ａコープハトマート山越北側金網,33.8607224,132.7583743,
愛媛県,松山市,11-1,宮西2丁目2-21,味酒小学校西門南側フェンス,33.8474661,132.7530618,
愛媛県,松山市,11-2,衣山1丁目255-3,BanBang衣山店南側市道鉄柵,33.8525326,132.7449058,
愛媛県,松山市,11-3,衣山4丁目22,近藤自転車店向かい側鉄柵,33.8507752,132.7392079,
愛媛県,松山市,11-4,味酒町3丁目5-1,若草幼稚園西側フェンス,33.8465043,132.7560619,
愛媛県,松山市,11-5,朝日ヶ丘2丁目3-13,朝日ヶ丘集会所前市道鉄柵,33.8481908,132.7433027,
愛媛県,松山市,11-6,朝美1丁目11-23,朝日橋西の市道鉄柵,33.8450567,132.7468794,
愛媛県,松山市,11-7,朝日ヶ丘2丁目1-3,朝日ヶ丘公園南側,33.847183,132.7438711,
愛媛県,松山市,11-8,衣山4丁目7621,愛媛県埋蔵文化財センター南側市道鉄柵,33.8528134,132.7363193,
愛媛県,松山市,11-9,辻町5丁目2-35,ハートガーデンつじまち北側鉄柵,33.8426052,132.750515,
愛媛県,松山市,11-10,朝美1丁目4,松山総合公園入口北側駐車場植込,33.8430866,132.744715,
愛媛県,松山市,13-1,松前町5丁目2-4,味酒公民館向かい側妙有寺東側ブロック,33.8495297,132.7575158,
愛媛県,松山市,13-2,平和通6丁目、宮西3丁目1-1,伊予鉄道古町車コ北側鉄柵,33.8490933,132.755626,
愛媛県,松山市,13-3,萱町5丁目7-3,菅町公園前,33.85031204,132.7569405,
愛媛県,松山市,13-4,平和通6丁目98,伊予鉄道古町駅北側鉄柵,33.8483014,132.7555512,
愛媛県,松山市,13-5,若草町4-3,堀之内北側市道フェンス,33.8452909,132.7601761,
愛媛県,松山市,13-6,若草町8-8,松山市総合福祉センター駐車場,33.8462127,132.7604344,
愛媛県,松山市,13-7,本町5丁目4-1,大法寺南側市道鉄柵,33.8505601,132.7580116,
愛媛県,松山市,14-1,千舟町8丁目69,新玉小学校正門西側,33.8370887,132.7537519,
愛媛県,松山市,14-2,千舟町7丁目1,済美高等学校北東側植込,33.8369321,132.756772,
愛媛県,松山市,14-3,千舟町7丁目3-12,松山市総合コミュニティセンター東側生垣,33.8369321,132.756772,
愛媛県,松山市,14-4,大手町1丁目13-5,妙円寺南側ブロック,33.8406176,132.7565813,
愛媛県,松山市,14-5,三番町6丁目6-1,松山市役所第四別館北側駐車場の北側金網,33.8378209,132.7608692,
愛媛県,松山市,14-6,味酒町1丁目11-4,南味酒公園北側金網,33.8414507,132.7555512,
愛媛県,松山市,14-7,宮田町,JR松山駅前電停西側鉄柵,33.8420789,132.7534147,
愛媛県,松山市,15-1,真砂町1-1,松山工業高等学校北側ブロック,33.83369983,132.7616175,
愛媛県,松山市,15-2,室町1丁目1,末広橋西側市道鉄柵,33.8286571,132.7657748,
愛媛県,松山市,15-3,春日町83、室町71、末広町1,愛媛県立中央病院西立体駐車場西側鉄柵,33.8313269,132.7650118,
愛媛県,松山市,15-4,室町1丁目2,伊予鉄室町車コ北側鉄柵,33.8293585,132.7654696,
愛媛県,松山市,15-5,小栗1丁目6-26,室町ビル前市道鉄柵,33.8284793,132.7639908,
愛媛県,松山市,15-6,室町1丁目2-1,松山市清掃事務所と石手川公園の間の市道沿い,33.8292026,132.7653786,
愛媛県,松山市,15-7,末広町11-1,松山南高等学校北側ブロック,33.8340003,132.7629782,
愛媛県,松山市,15-8,湊町6丁目1-1,伊予鉄市駅西駐車場南側市道鉄柵,33.83541282,132.7612112,
愛媛県,松山市,16-1,土橋85,土橋町,33.8314016,132.7565622,
愛媛県,松山市,16-2,藤原町1,藤原町,33.8316305,132.7573727,
愛媛県,松山市,16-3,竹原2丁目2-15,竹原2丁目,33.8300203,132.7519668,
愛媛県,松山市,16-4,竹原2丁目7-30,竹原2丁目,33.8328524,132.7544533,
愛媛県,松山市,16-5,雄郡2丁目9-33,雄郡2丁目,33.8301032,132.7539892,
愛媛県,松山市,16-6,小栗5丁目1-39,小栗5丁目,33.828965,132.760995,
愛媛県,松山市,16-7,小栗3丁目3-19,雄郡神社前,33.8265418,132.7577108,
愛媛県,松山市,16-8,空港通1丁目1-32,空港通1・2公園北側金網,33.8276487,132.7508584,
愛媛県,松山市,16-9,湊町7丁目1-29,スターバックスコーヒー松山湊町店南側市道鉄柵,33.8354393,132.7583941,
愛媛県,松山市,17-1,土居田町123-3-1,双葉小学校西側正門横,33.8235444,132.7520457,
愛媛県,松山市,17-2,土居田町1,雄新中学校体育館北側フェンス,33.8220608,132.7454782,
愛媛県,松山市,17-3,土居田町557,伊予鉄道土居田駅前県道鉄柵,33.823277,132.74649,緯度経度は怪しい
愛媛県,松山市,17-4,土居田町123-3、42-4,双葉小学校北側金網,33.8235444,132.7520457,
愛媛県,松山市,17-5,和泉北1丁目2-3,松山南環状線高架下和泉バス停前県道鉄柵,33.8220843,132.7592613,
愛媛県,松山市,17-6,小栗6丁目9-29,友沢モータープール北側ブロック,33.8285662,132.7560622,
愛媛県,松山市,17-7,土居田町582-1,土居田本村公園東側金網,33.8201988,132.7437801,
愛媛県,松山市,17-8,和泉北1丁目20-18,和泉保育園西側道路鉄柵,33.8253143,132.761584,
愛媛県,松山市,17-9,土居町202-1,松山市西部環状線高架下の東側市道鉄柵,33.798271,132.790756,緯度経度は怪しい
愛媛県,松山市,18-1,針田町131-3,たちばな小学校東側フェンス,33.823301,132.7347449,
愛媛県,松山市,18-2,空港通5丁目6-3,済美平成中等教育学校北側県道鉄柵,33.8277176,132.7327936,
愛媛県,松山市,18-3,空港通四丁目5番5号,四国名鉄運輸株式会社東側金網,33.8270173,132.7353915,
愛媛県,松山市,18-4,土居田町739,田中ダンボール株式会社南側金網,33.823277,132.74649,緯度経度は怪しい
愛媛県,松山市,18-5,土居田町841,勝愛幼稚園東側金網,33.823277,132.74649,緯度経度は怪しい
愛媛県,松山市,18-6,空港通5丁目3-12富久町70-2,masked,33.8253728,132.7324027,
愛媛県,松山市,18-7,空港通2丁目11-12,ヘアーサロン白石北側県道鉄柵,33.8289708,132.7433063,
愛媛県,松山市,18-8,針田町107,針田公園南側金網,33.823488,132.7368345,
愛媛県,松山市,18-9,空港通7丁目6、空港通6丁目5-12,松山電線株式会社西側市道鉄柵,33.827914,132.7277694,
愛媛県,松山市,19-1,菅沢町265,菅沢集会所前,33.90388234,132.8119065,
愛媛県,松山市,19-2,神次郎町338,美津気神社前,33.903801,132.836624,緯度経度は怪しい
愛媛県,松山市,19-3,城山町160,産王権現神社向かいの市道鉄柵,33.9096145,132.8234976,
愛媛県,松山市,20-1,下伊台町1438-2,伊台小学校西側金網,33.8770503,132.7984538,
愛媛県,松山市,20-2,下伊台町1438-1,伊台小学校正門横鉄柵,33.8774081,132.7984363,
愛媛県,松山市,20-3,下伊台町269,伊予鉄バス梅組バス停横,33.87085958,132.8079782,
愛媛県,松山市,20-4,下伊台町1309-121,瀬戸風ハイツ前バス停前,33.8739525,132.788332,
愛媛県,松山市,20-5,下伊台町981,仁王門橋前県道鉄柵,33.8743689,132.8041016,
愛媛県,松山市,20-6,上伊台町868,masked,33.88956065,132.8041693,
愛媛県,松山市,20-7,上伊台町212,本村地区ソーコ前市道鉄柵,33.88543884,132.7951142,
愛媛県,松山市,20-8,下伊台町526-40,向陽ハイツ内向陽中央公園前バス停横,33.8751452,132.8077446,
愛媛県,松山市,21-1,溝辺町528,湯山中学校西側ブロック,33.8530085,132.8063675,
愛媛県,松山市,21-2,溝辺町388,溝辺バス停前鉄柵,33.8501467,132.8058407,
愛媛県,松山市,21-3,溝辺町乙7,溝辺団地No.15の東側道沿い土手,33.849125,132.810333,緯度経度は怪しい
愛媛県,松山市,21-4,溝辺町65,松山市上水道市之井手浄水場西側金網,33.8491389,132.8073543,
愛媛県,松山市,21-5,溝辺町592,masked,33.8517928,132.8046193,
愛媛県,松山市,21-6,溝辺町322,中道後ハイツ北側鉄柵,33.8501597,132.803409,
愛媛県,松山市,21-7,末町2-5,末滝見橋バス停横県道鉄柵,33.86332416,132.8175263,
愛媛県,松山市,21-8,食場町120,湯山小学校前バス停近くの鉄柵,33.860416,132.814148,緯度経度は怪しい
愛媛県,松山市,21-9,高野町29,市之井手橋横市道鉄柵,33.852791,132.814056,緯度経度は怪しい
愛媛県,松山市,22-1,河中町218,日浦中学校前バス停県道鉄柵,33.90106684,132.870713,
愛媛県,松山市,22-2,藤野町368,天童橋欄干,33.8975896,132.8594434,
愛媛県,松山市,22-3,福見川町162,福見川公民館前県道鉄柵,33.8900879,132.8726182,
愛媛県,松山市,22-4,東川町201,諏訪神社下の緑地,33.90545591,132.8753722,
愛媛県,松山市,23-1,上市1丁目3-57,道後中学校東側金網,33.8459749,132.7894197,
愛媛県,松山市,23-2,持田町1丁目5-22,愛媛大学教育学部附属中学校東側市道金網,33.8429538,132.7833535,
愛媛県,松山市,23-3,紅葉町60,市営湯渡団地北側鉄柵,33.8416786,132.7863684,
愛媛県,松山市,23-4,岩崎町1丁目8-29,アーブルドゥベの向かい側鉄柵,33.8471772,132.7853824,
愛媛県,松山市,23-5,石手4丁目3-10,アイビーコート石手専用駐車場南側県道鉄柵,33.8441754,132.7932315,
愛媛県,松山市,23-6,持田町1丁目5-22,愛媛大学教育学部附属中学校南側金網,33.8429538,132.7833535,
愛媛県,松山市,23-7,新石手57-8,新石手公園緑地,33.844633,132.7982727,
愛媛県,松山市,23-8,道後姫塚114,義安寺前県道鉄柵,33.8491272,132.7890278,
愛媛県,松山市,23-9,上市1丁目3-57,松山市道後分団道後ポンプ蔵置所北側フェンス,33.8459749,132.7894197,
愛媛県,松山市,23-10,岩崎町2丁目10-11,宇佐八幡神社南駐車場横鉄柵,33.8470336,132.7840731,
愛媛県,松山市,24-1,道後湯之町4-22,松山市役所道後支所向かい側県道鉄柵,33.8510884,132.7860359,
愛媛県,松山市,24-2,道後湯之町4-22,湯神社下金網,33.8510884,132.7860359,
愛媛県,松山市,24-3,道後喜多町3-18,にきたつ庵北側市道鉄柵,33.851253,132.7820421,
愛媛県,松山市,24-4,祝谷1丁目9,常信寺東側の下側市道鉄柵,33.855782,132.780457,緯度経度は怪しい
愛媛県,松山市,24-5,道後喜多町4-26,松風寺東側金網,33.8509654,132.7806839,
愛媛県,松山市,24-6,南町1丁目6-21,愛媛県南町P西側,33.8472553,132.7805601,
愛媛県,松山市,24-7,道後一万1-2,愛媛県県民文化会館P南側金網,33.8477788,132.7785579,
愛媛県,松山市,25-1,道後北代10-47,湯築小学校北側金網,33.8543854,132.7779697,
愛媛県,松山市,25-2,祝谷4丁目1-2-4,祝谷公園南側フェンス,33.8566535,132.7778802,
愛媛県,松山市,25-3,道後樋又10-13-1,愛媛大学本部南側鉄柵,33.8524153,132.7750409,
愛媛県,松山市,25-4,道後北代,今市北郵政宿舎北側市道鉄柵,33.8533253,132.7778269,
愛媛県,松山市,25-5,道後北代5-27,masked,33.8527362,132.775923,
愛媛県,松山市,25-6,祝谷4丁目9-26,祝谷ビル北の県道鉄柵,33.8600722,132.7770642,
愛媛県,松山市,25-7,道後北代10-41,湯築小学校東側フェンス,33.8542062,132.7776648,
愛媛県,松山市,25-8,祝谷5丁目2-1,祝谷5丁目バス停横鉄柵,33.8568305,132.78047,
愛媛県,松山市,25-9,祝谷6丁目1271,コーポ祝谷の西側鉄柵,33.8633073,132.7751779,
愛媛県,松山市,26-1,桑原3丁目7-27,桑原小学校北側ブロック,33.8352346,132.7934108,
愛媛県,松山市,26-2,正円寺3丁目9,正円寺公園フェンス,33.8382004,132.8003216,
愛媛県,松山市,26-3,正円寺3丁目3-32,T.S東野向かい側県道鉄柵,33.83621702,132.7989656,
愛媛県,松山市,26-4,桑原2丁目6-35,松山市役所桑原支所北側金網,33.8355331,132.7920965,
愛媛県,松山市,26-5,東野1丁目2-35,あじ彩とゆめさら壱番館の間の市道鉄柵,33.8427068,132.796438,
愛媛県,松山市,26-6,正円寺4丁目3,masked,33.8366726,132.795061,
愛媛県,松山市,26-7,樽味3丁目1,愛媛大学附属高等学校の東側畑,33.8383847,132.795061,
愛媛県,松山市,26-8,樽味1丁目6,湯渡橋欄干,33.8397971,132.7865972,
愛媛県,松山市,26-9,桑原5丁目4-18,松本京子氏所有の田,33.8310824,132.7903718,
愛媛県,松山市,26-10,東野2丁目3-17,masked,33.8414185,132.7991703,
愛媛県,松山市,27-1,東本2丁目13-41,愛媛慈恵会南側金網,33.847065,132.777115,緯度経度は怪しい
愛媛県,松山市,27-2,松末2丁目12-7,市営松末南団地第7棟　西側フェンス,33.82558523,132.7878549,
愛媛県,松山市,27-3,松末1丁目7-32,協立設備(株)前市道鉄柵,33.8276494,132.791058,
愛媛県,松山市,27-4,束本1丁目3-19,masked,33.83101343,132.7878327,
愛媛県,松山市,27-5,三町3丁目11-32,県営三町団地南側ブロック,33.8257868,132.7923079,
愛媛県,松山市,27-6,松末2丁目31-32,masked,33.825794,132.7888086,
愛媛県,松山市,27-7,三町2丁目2-7,masked,33.8250296,132.7986366,
愛媛県,松山市,27-8,桑原6丁目4-33,こうのうえクリニックの北側　田,33.8326315,132.7899426,
愛媛県,松山市,28-1,畑寺4丁目8-6,松山市畑寺福祉センター西側グラウンドの西側フェンス,33.8253354,132.8042095,
愛媛県,松山市,28-2,畑寺3丁目9-30,畑寺バス停横県道鉄柵,33.8290298,132.7975697,
愛媛県,松山市,28-3,桑原3丁目8-10,masked,33.8353764,132.794756,
愛媛県,松山市,28-4,畑寺4丁目4-27,松山栄光教会教育館北側フェンス,33.825644,132.7998401,
愛媛県,松山市,28-5,畑寺2丁目6-17,東雲女子大入口交差点東側市道空き地,33.8312368,132.7978438,
愛媛県,松山市,28-6,畑寺2丁目4-11,砂川浩康氏所有駐車場金網,33.8298171,132.7965352,
愛媛県,松山市,28-7,畑寺1丁目14-15,masked,33.8351195,132.8026849,
愛媛県,松山市,28-8,畑寺町742,JAえひめ中央アグリセンター松山東の南側フェンス,33.838116,132.803467,緯度経度は怪しい
愛媛県,松山市,29-1,南久米町639,久米公民館　北側フェンス,33.8137453,132.8055332,
愛媛県,松山市,29-2,鷹子町749-5,鷹の子温泉前バス停の横の欄干,33.8146995,132.8089346,
愛媛県,松山市,29-3,鷹子町256,正岡産婦人科北東側県道鉄柵,33.8107766,132.8139447,
愛媛県,松山市,29-4,南久米町166,グランフィル久米東の北側県道鉄柵,33.8179019,132.801677,
愛媛県,松山市,29-5,南久米町629,南久米公園のテニスコート南側鉄柵,33.8124273,132.8040409,
愛媛県,松山市,29-6,鷹子町676-1,高橋（橋の名前）の横市道鉄柵,33.8150598,132.8115603,
愛媛県,松山市,29-7,鷹子町624,グリーンピア鷹の子南側県道鉄柵,33.8139515,132.8119706,
愛媛県,松山市,29-8,鷹子町770,NTT新久米電話交換所南側金網,33.8121778,132.807609,
愛媛県,松山市,29-9,南久米町431,東山神社玉垣,33.8151999,132.8017126,
愛媛県,松山市,30-1,鷹子町15-1,久米小学校西側正門の南側,33.8106277,132.8066443,
愛媛県,松山市,30-2,来住町984,来住公園東側の金網,33.8051535,132.799468,
愛媛県,松山市,30-3,来住町1439-1,masked,33.806831,132.800644,緯度経度は怪しい
愛媛県,松山市,30-4,来住町365,久米中学校東側市道鉄柵,33.8035411,132.8026165,
愛媛県,松山市,30-5,来住町1413-1,（有）カーメイトチームファイブ前の市道鉄柵,33.8029662,132.7951652,
愛媛県,松山市,30-6,来住町1208,松山リハビリテーション病院西側県道鉄柵,33.80432,132.7969931,
愛媛県,松山市,30-7,来住町226,軍ヶ森神社東側ブロック,33.8074923,132.8064966,
愛媛県,松山市,31-1,北梅本町761,小野小学校体育館前ブロック,33.8064777,132.837989,
愛媛県,松山市,31-2,北梅本町2578-1,新明神橋近くの県道鉄柵,33.824486,132.860565,緯度経度は怪しい
愛媛県,松山市,31-3,南梅本町1147,悪社川欄干,33.7990031,132.8345102,
愛媛県,松山市,31-4,南梅本町228,南梅本公園東側市道鉄柵,33.7996887,132.8392418,
愛媛県,松山市,31-5,北梅本町2070,正観寺前,33.809626,132.8437391,
愛媛県,松山市,31-6,南梅本町915,masked,33.800613,132.840057,緯度経度は怪しい
愛媛県,松山市,31-7,北梅本町字572,ローソン松山北梅本店前の県道鉄柵,33.805099,132.842468,緯度経度は怪しい
愛媛県,松山市,31-8,南梅本町182-2,自衛隊自動車練習場前,33.803705,132.8502704,
愛媛県,松山市,31-9,南梅本町833,伊予鉄梅本駅北側鉄柵,33.8016844,132.8385078,
愛媛県,松山市,32-1,東方町955,松山市役所久谷支所前金網,33.7682529,132.815486,
愛媛県,松山市,32-2,西野町264,masked,33.7668285,132.8050671,
愛媛県,松山市,32-3,東方町1493-3,荏原小学校の西側金網,33.7687931,132.8167092,
愛媛県,松山市,32-4,中野町533,masked,33.7787649,132.825001,
愛媛県,松山市,32-5,上野町650,愛媛県生涯学習センター西側市道鉄柵,33.774487,132.8025397,
愛媛県,松山市,32-6,恵原町465,恵原集会所前金網,33.7654083,132.810193,
愛媛県,松山市,32-7,津吉６９４,津吉分館向かい側の畑,33.768356,132.836029,緯度経度は怪しい
愛媛県,松山市,32-8,上野町１１６０,道旧寺南側市道鉄柵,33.7710754,132.8050671,
愛媛県,松山市,32-9,小村字１４-１,小村橋の南側県道鉄柵,33.778913,132.8156429,
愛媛県,松山市,32-10,大橋町１３４,県森連松山木材市売場の西側県道鉄柵,33.7824687,132.8149615,
愛媛県,松山市,33-1,久谷町870,松山市役所久谷支所出口出張所金網,33.719231,132.837509,緯度経度は怪しい
愛媛県,松山市,33-2,浄瑠璃町168,坂本駐在所前バス停横県道鉄柵,33.7516807,132.8215301,
愛媛県,松山市,33-3,久谷町30,坂本小学校正門横の金網,33.719231,132.837509,緯度経度は怪しい
愛媛県,松山市,33-4,久谷町521-2,相原商店北側市道鉄柵,33.719231,132.837509,緯度経度は怪しい
愛媛県,松山市,33-5,久谷町1743,奥久谷集会所前市道鉄柵,33.7209476,132.8377404,
愛媛県,松山市,33-6,浄瑠璃町512,八坂寺前向かい側の県道鉄柵,33.749283,132.815247,緯度経度は怪しい
愛媛県,松山市,33-7,窪野町104,上関屋中之坂バス停前,33.733212,132.856674,緯度経度は怪しい
愛媛県,松山市,34-1,窪野町248,窪野公園西側県道鉄柵,33.733212,132.856674,緯度経度は怪しい
愛媛県,松山市,34-2,窪野町427,丹波バス停横鉄柵,33.733212,132.856674,緯度経度は怪しい
愛媛県,松山市,34-3,窪野町1795,masked,33.733212,132.856674,緯度経度は怪しい
愛媛県,松山市,34-4,窪野町2094,桜公民館前,33.733212,132.856674,緯度経度は怪しい
愛媛県,松山市,35-1,久谷町2622,つづら川集会所東市道鉄柵,33.719231,132.837509,緯度経度は怪しい
愛媛県,松山市,36-1,森松町832,浮穴小学校西側正門金網,33.7927586,132.7974298,
愛媛県,松山市,36-2,森松町658,浮穴診療所西側金網,33.7911643,132.7881772,
愛媛県,松山市,36-3,森松町645,浮穴公民館森松分館の金網,33.7906451,132.7923875,
愛媛県,松山市,36-4,森松町324,県営森松団地17号棟北側フェンス,33.7889501,132.7951651,
愛媛県,松山市,36-5,井門町330,白山神社南側の畑,33.7976759,132.7823613,
愛媛県,松山市,36-6,井門町1461-1,松山市上水道かきつばた浄水場フェンス,33.796879,132.777222,緯度経度は怪しい
愛媛県,松山市,36-7,森松町946,南第二中学校南側金網,33.795106,132.7941569,
愛媛県,松山市,36-8,南高井町1337,杖ノ淵公園東側県道鉄柵,33.791303,132.811671,
愛媛県,松山市,36-9,南高井町1326-3,JA松山市浮穴支所高井出張所東側鉄柵,33.7920299,132.8132335,
愛媛県,松山市,37-1,東石井6丁目8-52,石井小学校西門横の金網,33.8108327,132.7768837,
愛媛県,松山市,37-2,東石井4丁目4,県営東石井団地北側市道鉄柵,33.8130693,132.7828604,
愛媛県,松山市,37-3,東石井6丁目8-52,石井小学校東側金網,33.8108327,132.7768837,
愛媛県,松山市,37-4,西石井6丁目1-40,石井幼稚園あそび場南側金網,33.8121469,132.7746941,
愛媛県,松山市,37-5,天山1丁目3-5,四国電力石井変電所西側金網,33.8208178,132.7768615,
愛媛県,松山市,37-6,東石井5丁目12-1,masked,33.8168897,132.7762779,
愛媛県,松山市,37-7,天山1丁目3-5,四国電力石井変電所北側金網,33.8208178,132.7768615,
愛媛県,松山市,37-8,東石井2丁目,スーパーセブンスター駐車場北側市道鉄柵,33.816793,132.7778269,
愛媛県,松山市,37-9,西石井6丁目6-28,西石井土地改良協議会事務所西側金網,33.813405,132.7733024,
愛媛県,松山市,38-1,東石井7丁目2−52,南中学校東側金網,33.8078718,132.7759296,
愛媛県,松山市,38-2,居相5丁目10−25,ドゥエル椿参道向かいの畑,33.8091095,132.7746933,
愛媛県,松山市,38-3,居相3丁目1−5,NTT石井電話交換所南側鉄柵,33.8088688,132.7700017,
愛媛県,松山市,38-4,居相2丁目7−4,しげまつ内科クリニック北西側畑,33.8112627,132.7722779,
愛媛県,松山市,38-5,北井門4丁目25−20,masked,33.804578,132.7769712,
愛媛県,松山市,38-6,北井門5丁目20−5,立石橋北側ガードレール,33.8037661,132.7725544,
愛媛県,松山市,38-7,東石井7丁目2-52,南中学校西側金網,33.807739,132.776184,緯度経度は怪しい
愛媛県,松山市,38-8,東石井7丁目3-29,松山農協石井センター（株）東側金網,33.807484,132.777405,緯度経度は怪しい
愛媛県,松山市,39-1,越智1丁目3-35,石井東小学校東側門の南ブロック,33.8077133,132.7876701,
愛媛県,松山市,39-2,北土居5丁目16-30,JA松山市石井支所の北側柵,33.8089477,132.7796749,
愛媛県,松山市,39-3,越智2丁目3-25,石井公民館越智分館の北側,33.8089872,132.7844102,
愛媛県,松山市,39-4,星岡3丁目2-19,星ヶ丘公園西側の金網,33.8141194,132.7849066,
愛媛県,松山市,39-5,土居町776-4,後藤設備工業㈱ 向かいの田,33.797712,132.7876145,
愛媛県,松山市,39-6,土居町1019,土居町改良区集会所前の畑,33.7991912,132.7906867,
愛媛県,松山市,39-7,星岡4丁目12-20,星岡橋の南側市道の北側鉄柵,33.8128621,132.7847189,
愛媛県,松山市,39-8,今在家3丁目4-28,今在家公園北側金網,33.8047425,132.7914831,
愛媛県,松山市,39-9,北土井2丁目2-22,株式会社YOSHIKEI北側フェンス,33.806293,132.787582,緯度経度は怪しい
愛媛県,松山市,39-10,北土居1丁目4-21,北土居分館西側金網,33.8054169,132.7859453,
愛媛県,松山市,40-1,和泉南6丁目1-47,椿小学校北側金網,33.8113407,132.7597859,
愛媛県,松山市,40-2,和泉南4丁目1-25,松山地区警察官東和泉寮の北側市道鉄柵,33.8145296,132.7599346,
愛媛県,松山市,40-3,古川北3丁目8-15,松山市保健センター南部分室北側,33.8110545,132.7644687,
愛媛県,松山市,40-4,和泉南3丁目12-26,月見橋の西側欄干,33.8165943,132.7568158,
愛媛県,松山市,40-5,和泉南6丁目1-47,椿小学校東側金網,33.8113407,132.7597859,
愛媛県,松山市,40-6,古川南3丁目17-39,古川南公園南側フェンス,33.8049063,132.7641918,
愛媛県,松山市,40-7,古川北2丁目18-30,つばき保育園南側金網,33.8130817,132.7629035,
愛媛県,松山市,40-8,和泉南5丁目12,市営第一和泉団地 駐車場フェンス,33.8135252,132.7550934,
愛媛県,松山市,40-9,古川北4丁目7-8,masked,33.8089131,132.7646522,
愛媛県,松山市,41-1,余戸東1丁目14-17,余土小学校北側金網,33.8148391,132.735971,
愛媛県,松山市,41-2,余戸東1丁目14-17,余土小学校西側,33.8148391,132.735971,
愛媛県,松山市,41-3,余戸東5丁目11-16,masked,33.8183508,132.7385547,
愛媛県,松山市,41-4,保免中3丁目,石手川水管橋横市道鉄柵,33.8135214,132.7472498,
愛媛県,松山市,41-5,余戸南3丁目3-30,ひかるの公園の北側鉄柵,33.8082468,132.7290155,
愛媛県,松山市,41-6,保免西4丁目石手川河川敷,松山中央公園橋の北側市道の交差点鉄柵,33.81134942,132.7415101,
愛媛県,松山市,41-7,余戸東4丁目6-31,余戸東竹の宮公園西側フェンス,33.8169236,132.7370384,
愛媛県,松山市,41-8,保免西1丁目3-10,masked,33.8166303,132.7445812,
愛媛県,松山市,41-9,余戸東3丁目1-6,余戸東すみれ公園南側金網,33.8120076,132.7329028,
愛媛県,松山市,42-1,西垣生町730-1,垣生小学校内の調理場跡地の北側金網,33.8139169,132.704441,
愛媛県,松山市,42-2,西垣生町1226,松山市役所垣生支所向かいの三嶋大明神社玉垣,33.81453853,132.703297,
愛媛県,松山市,42-3,西垣生町372-1,セブンイレブン駐車場の東側県道鉄柵,33.8089236,132.702627,
愛媛県,松山市,42-4,西垣生町192-1,垣生中学校の南側フェンス,33.8083741,132.7054191,
愛媛県,松山市,42-5,西垣生町1365-5,今出港口バス停の向かい側鉄柵,33.8100536,132.7007068,
愛媛県,松山市,42-6,西垣生町1375,住吉公園北側金網,33.81068608,132.699283,
愛媛県,松山市,42-7,西垣生町2184,雇用・能力開発機構愛媛センターの向かい側,33.81827579,132.7056902,
愛媛県,松山市,42-8,東垣生町949,空港東公園南側金網,33.8164465,132.7119581,
愛媛県,松山市,42-9,東垣生町52,東垣生南公園北側フェンス,33.8100566,132.7150297,
愛媛県,松山市,42-10,東垣生町700,松山市東垣生健康増進センター駐車場東側鉄柵,33.8146834,132.7158014,
愛媛県,松山市,43-1,南吉田町1800-1,生石小学校正門西側生垣,33.8307229,132.7158011,
愛媛県,松山市,43-2,南吉田町1760,成瀬製材所西側農地の南側県道鉄柵,33.829063,132.71611,緯度経度は怪しい
愛媛県,松山市,43-3,高岡町679,高岡中央公園北側金網,33.8323366,132.7213198,
愛媛県,松山市,43-4,高岡町383,フジ高岡店東側県道鉄柵,33.8285397,132.7194466,
愛媛県,松山市,43-5,久保田町337,masked,33.82519326,132.7215953,
愛媛県,松山市,43-6,久保田町061-22,久保田団地市道鉄柵,33.82040383,132.7215353,
愛媛県,松山市,43-7,高岡町728-2,市営高岡団地西側金網,33.83465134,132.7193847,
愛媛県,松山市,43-8,高岡町125-1,道後さや温泉ゆらら北側県道鉄柵,33.8314711,132.7244111,
愛媛県,松山市,43-9,高岡町614-3,生石小学校の東側生垣,33.8315027,132.7169847,
愛媛県,松山市,44-1,南吉田町2772-2,桃山幼稚園南側フェンス,33.8293425,132.7079543,
愛媛県,松山市,44-2,南吉田町1407-7,県道伊予松山港線第一新堂之元橋欄干,33.8263052,132.7126562,
愛媛県,松山市,44-3,南吉田町2651,南吉田第三公園南側植込み,33.827938,132.703964,緯度経度は怪しい
愛媛県,松山市,44-4,南吉田町1499,南吉田口バス停横県道鉄柵,33.8279402,132.709413,
愛媛県,松山市,44-5,南吉田町1676-1,せいき橋と帝人橋の間市道鉄柵,33.8307784,132.707267,
愛媛県,松山市,44-6,南吉田町2843-1,生石忠魂碑前,33.8300172,132.7082775,
愛媛県,松山市,44-7,北吉田町1214,北吉田公園東側金網,33.8388693,132.708685,
愛媛県,松山市,44-8,南吉田町382-1,ローソン松山空港東店 西側県道ガードパイプ,33.8215275,132.7125267,
愛媛県,松山市,45-1,別府町166,味生小学校前金網,33.8445248,132.7259403,
愛媛県,松山市,45-2,北斎院町778,masked,33.84112517,132.7234865,
愛媛県,松山市,45-3,北斎院町,JA松山市味生支所 東側フェンス,33.8420737,132.7269893,
愛媛県,松山市,45-4,北斎院町154,大正寺公民館の北側,33.83573795,132.7330792,
愛媛県,松山市,45-5,北斎院町32,丸山集会所南側金網,33.83719982,132.7378377,
愛媛県,松山市,45-6,北斎院町1147,中津公園東側金網,33.8372214,132.7249409,
愛媛県,松山市,45-7,北斎院町1193-19,津田中学校東側の金網,33.83680326,132.7230766,
愛媛県,松山市,45-8,別府町634-2,別府市民運動広場の北側フェンス,33.8482007,132.7176719,
愛媛県,松山市,45-9,別府町491,別府集会所南側,33.8458919,132.7206839,
愛媛県,松山市,46-1,山西町663,新田高校北側門の横ブロック,33.850952,132.727615,緯度経度は怪しい
愛媛県,松山市,46-2,大可賀3丁目670-11,ホームセンターコーナン東側金網,33.8514257,132.712531,
愛媛県,松山市,46-3,清住2丁目1018-5,三本柳橋の南側鉄柵,33.852973,132.7195416,
愛媛県,松山市,46-4,山西町127-65,新田高校の東、伊予鉄道の線路沿い市道鉄柵,33.8518168,132.7274099,
愛媛県,松山市,46-5,大可賀1丁目5,三津大可賀公園北側フェンス,33.8546794,132.7152475,
愛媛県,松山市,46-6,山西町169-2,市営山西団地南側鉄柵,33.8517579,132.7300215,
愛媛県,松山市,46-7,山西町1636,新田高校硬式テニス場西側金網,33.8509693,132.7259371,
愛媛県,松山市,46-8,山西町865-1,ヤマト運輸（株）松山山西センター東側県道鉄柵,33.8496031,132.7219189,
愛媛県,松山市,47-1,安城寺586-1,久枝小学校東側植込,33.879402,132.740021,緯度経度は怪しい
愛媛県,松山市,47-2,安城寺町174-1,ユートピアハイツの南側市道鉄柵,33.8721946,132.7449822,
愛媛県,松山市,47-3,安城寺町335,松山市若宮集会所北の県道鉄柵,33.879402,132.740021,緯度経度は怪しい
愛媛県,松山市,47-4,安城寺町1076-5,安城寺クリニック向かい側畑,33.8784914,132.7415019,
愛媛県,松山市,47-5,西長戸町636-1,松山市久枝・城北学校給食共同調理場南側金網,33.8691476,132.7370062,
愛媛県,松山市,47-6,西長戸町160,西長戸東公園南側金網,33.867813,132.741943,緯度経度は怪しい
愛媛県,松山市,47-7,鴨川2丁目7-19,鴨川中学校西側金網,33.8730445,132.7501211,
愛媛県,松山市,47-8,高木町111-14,高木バス停横県道鉄柵,33.8841918,132.7415321,
愛媛県,松山市,47-9,安城寺町1-94,若駒公園東側鉄柵,33.8705064,132.7463874,
愛媛県,松山市,48-1,久万ノ台347,松山市中央卸売市場中央市場の南側金網,33.8607785,132.7451956,
愛媛県,松山市,48-2,久万ノ台712,masked,33.8603847,132.7423375,
愛媛県,松山市,48-3,東長戸4丁目3-1,愛媛大学東長戸宿舎南側金網,33.8696273,132.7530051,
愛媛県,松山市,48-4,久万ノ台1061,枡池南側金網,33.859432,132.742569,緯度経度は怪しい
愛媛県,松山市,48-5,久万ノ台417-1,松山市中央卸売市場中央市場北東側金網,33.8629673,132.7491643,
愛媛県,松山市,48-6,久万ノ台251-1,松山信望愛の家南側フェンス,33.8589306,132.7463668,
愛媛県,松山市,48-7,東長戸1丁目4-25,ゴルフパートナー松山北店の南側の畑,33.8677914,132.7511534,
愛媛県,松山市,48-8,久万ノ台531-4,Papainベーカリー向かいの県道ガードパイプ,33.8639046,132.7416117,
愛媛県,松山市,49-1,太山寺町671-3,和気小学校南側駐車場の南側,33.8894848,132.733145,
愛媛県,松山市,49-2,和気町1丁目,カシヤ橋欄干,33.8937017,132.7381512,
愛媛県,松山市,49-3,太山寺町2364,市営太山寺団地児童遊園地南側金網,33.887047,132.724304,緯度経度は怪しい
愛媛県,松山市,49-4,太山寺町1549,太山寺集会所金網,33.887047,132.724304,緯度経度は怪しい
愛媛県,松山市,49-5,太山寺町989,昭和橋バス停の金網,33.887047,132.724304,緯度経度は怪しい
愛媛県,松山市,49-6,勝岡町70,内新田公園の東側市道鉄柵,33.900906,132.722488,緯度経度は怪しい
愛媛県,松山市,49-7,和気町1丁目97,松山市和気公園北側金網,33.893719,132.73819,緯度経度は怪しい
愛媛県,松山市,49-8,馬木町2304,市営住宅馬木団地一号棟の東側金網,33.893108,132.74469,緯度経度は怪しい
愛媛県,松山市,49-9,太山寺333-1,市営三光団地内公園東側フェンス,33.887047,132.724304,緯度経度は怪しい
愛媛県,松山市,50-1,吉藤4丁目7-13,潮見小学校西側金網,33.8750209,132.7547929,
愛媛県,松山市,50-2,吉藤2丁目15-3,吉藤公園南側金網,33.869828,132.7586032,
愛媛県,松山市,50-3,吉藤4丁目3-27,松山市役所潮見支所前市道金網,33.8726725,132.754998,
愛媛県,松山市,50-4,鴨川1丁目7-2,ナップス松山店南側市道鉄柵,33.8747033,132.7524608,
愛媛県,松山市,50-5,志津川町153,潮見94号線鉄柵,33.8797843,132.7503814,
愛媛県,松山市,50-6,吉藤4丁目3-41,県営潮見団地南側金網,33.8721702,132.7553575,
愛媛県,松山市,50-7,吉藤5丁目20-11,masked,33.8731434,132.7623902,
愛媛県,松山市,50-8,谷町34,蓮華寺南側みかん山,33.87641509,132.7546152,
愛媛県,松山市,50-9,吉藤1丁目3-26,野本建設作業場の南側空地,33.8714535,132.7623847,
愛媛県,松山市,50-10,谷町445,masked,33.88114049,132.7530794,
愛媛県,松山市,51-1,福角町1409,堀江小学校正門横金網,33.9025992,132.7589776,
愛媛県,松山市,51-2,権現町15,masked,33.898045,132.771164,緯度経度は怪しい
愛媛県,松山市,51-3,内宮町569-1,内宮中学校西側金網,33.8929464,132.7496415,
愛媛県,松山市,51-4,福角町55,三浦工業(株)社員専用駐車場北側市道鉄柵,33.8967943,132.7510064,
愛媛県,松山市,51-5,福角町557,(株)七五三の西横の農地南側市道鉄柵,33.8992526,132.7586207,
愛媛県,松山市,51-6,福角町336,masked,33.897923,132.759735,緯度経度は怪しい
愛媛県,松山市,51-7,堀江町615,ダイレックス堀江店の南側市道鉄柵,33.908886,132.75914,緯度経度は怪しい
愛媛県,松山市,51-8,福角町1756,日吉下池の北側県道鉄柵,33.9043559,132.764986,
愛媛県,松山市,51-9,堀江町378,花見橋の南側市道の東方向河川沿い鉄柵,33.908886,132.75914,緯度経度は怪しい
愛媛県,松山市,51-10,堀江町1878,県道長井方堀江線の東横、市道堀江44号線鉄柵,33.908886,132.75914,緯度経度は怪しい
愛媛県,松山市,52-1,東大栗町775,松山市東大栗集会所北側金網,33.90657522,132.7831096,
愛媛県,松山市,52-2,東大栗町643,masked,33.90616677,132.7851333,
愛媛県,松山市,53-1,梅田町2-41,三津浜小学校正門西側フェンス,33.8595864,132.7147893,
愛媛県,松山市,53-2,三津2丁目7-16,小富士保育園東側金網,33.8636976,132.7114256,
愛媛県,松山市,53-3,石井町8-48,松山西郵便局西側市道鉄柵,33.849308,132.800385,緯度経度は怪しい
愛媛県,松山市,53-4,須賀町1-21,西須賀公園西側金網,33.8578214,132.7178292,
愛媛県,松山市,53-5,神田町1-7,厳島神社南側の玉垣,33.8607474,132.7185084,
愛媛県,松山市,53-6,三津1丁目6-11,三津浜港ターミナル東側国道鉄柵,33.8649416,132.7101264,
愛媛県,松山市,53-7,三杉町9-15,住吉橋南のITTO個別指導学院向かい側県道鉄柵,33.8635732,132.7194031,
愛媛県,松山市,53-8,須賀町1-19,ハウスドゥ三津店の東側市道鉄柵,33.8577232,132.7187424,
愛媛県,松山市,54-1,祓川1丁目3-39,宮前小学校正門横金網,33.85975789,132.7201681,
愛媛県,松山市,54-2,ひばりヶ丘3-28,masked,33.8615334,132.7297353,
愛媛県,松山市,54-3,古三津3丁目1-3,青葉台団地進入路市道鉄柵,33.8564252,132.7344143,
愛媛県,松山市,54-4,中須賀1丁目11,中須賀公園東側金網,33.8646263,132.7238757,
愛媛県,松山市,54-5,辰巳町4,四国明治（株）松山工場正門向かいの金網,33.8664941,132.7188364,
愛媛県,松山市,54-6,古三津1丁目1-21,国道437号線高架下の宮前公園金網,33.8571692,132.7243581,
愛媛県,松山市,54-7,会津町16-28,すみれ公園の南側金網,33.863494,132.727903,
愛媛県,松山市,54-8,古三津3丁目26-6,市営古三津団地北側鉄柵,33.8601273,132.7322855,
愛媛県,松山市,54-9,内浜町12-3,内浜公園西側鉄柵,33.8658871,132.7282185,
愛媛県,松山市,54-10,中須賀1丁目14-20,本州製罐(株)東側金網,33.8657546,132.7245641,
愛媛県,松山市,55-1,梅津寺町1367,高浜小学校正門前の県道西側フェンス,33.8757726,132.7078293,
愛媛県,松山市,55-2,石風呂町820-1,やまと動物病院南側県道緑地,33.8727281,132.7195595,
愛媛県,松山市,55-3,石風呂町3-25,日本たばこ産業(株)松山営業所の西側鉄柵,33.8713879,132.7161734,
愛媛県,松山市,55-4,港山町8-20,伊予鉄道港山駅の東側県道鉄柵,33.8694942,132.71309,
愛媛県,松山市,55-5,新浜町10-22,旧育英第二幼稚園跡の北側金網,33.8728138,132.7123933,
愛媛県,松山市,55-6,石風呂町577,すみれ野北公園の北側フェンス,33.875988,132.717072,緯度経度は怪しい
愛媛県,松山市,55-7,松ノ木1丁目5-48,松ノ木集会所北側フェンス,33.8700847,132.7196342,
愛媛県,松山市,56-1,高浜町5丁目2259-1,松山観光港ターミナルビル前,33.8886279,132.704253,
愛媛県,松山市,56-2,高浜町1丁目60-1,昭和橋北側県道鉄柵,33.879814,132.700714,緯度経度は怪しい
愛媛県,松山市,56-3,高浜町3丁目1479,masked,33.8854629,132.7012903,
愛媛県,松山市,56-4,高浜町1丁目1389-3,高浜町1丁目集会所北側金網,33.87992321,132.702221,
愛媛県,松山市,56-5,高浜町6丁目1620,高浜漁港東側鉄柵,33.89542,132.712082,緯度経度は怪しい
愛媛県,松山市,56-6,高浜町1丁目2232,伊予鉄高浜第五極駐車場西側鉄柵,33.882295,132.7018239,
愛媛県,松山市,56-7,高浜町6丁目1777,高浜公園北側フェンス,33.89542,132.712082,緯度経度は怪しい
愛媛県,松山市,57-1,由良町1041-1,理容みついしの東隣りの畑の南側,33.905502,132.671936,緯度経度は怪しい
愛媛県,松山市,57-2,由良町1033,由良公園フェンス,33.905502,132.671936,緯度経度は怪しい
愛媛県,松山市,57-3,由良町155,石田六一郎畑前ブロック,33.905502,132.671936,緯度経度は怪しい
愛媛県,松山市,57-4,由良町1234,由良港の乗入口の東側鉄柵,33.905502,132.671936,緯度経度は怪しい
愛媛県,松山市,58-1,泊町618-1,泊小学校跡の東側ブロック,33.885777,132.673126,緯度経度は怪しい
愛媛県,松山市,58-2,泊町97,御手洗公園西側フェンス,33.885777,132.673126,緯度経度は怪しい
愛媛県,松山市,58-3,泊町1361,船越緑地公園西側の緑地帯,33.885777,132.673126,緯度経度は怪しい
愛媛県,松山市,58-4,泊町743,泊桟橋前,33.885777,132.673126,緯度経度は怪しい
愛媛県,松山市,59-1,由良町316,JA松山市興居島支所旧鷺ヶ巣店舗前,33.905502,132.671936,緯度経度は怪しい
愛媛県,松山市,59-2,由良町392,masked,33.9052918,132.6709382,
愛媛県,松山市,60-1,門田町92,門田集会所前,33.915104,132.687561,緯度経度は怪しい
愛媛県,松山市,60-2,門田町723,masked,33.921387,132.69249,緯度経度は怪しい
愛媛県,松山市,61-1,北久米町250,北久米小学校西側フェンス,33.8197058,132.7979992,
愛媛県,松山市,61-2,福音寺町148,上池の北側市道鉄柵,33.8225385,132.7993427,
愛媛県,松山市,61-3,北久米町206,久米ゴルフセンター東側金網,33.8194823,132.8004544,
愛媛県,松山市,61-4,北久米町662,北久米七区公園西側鉄柵,33.8175138,132.7951569,
愛媛県,松山市,61-5,北久米町442,masked,33.8168434,132.7997545,
愛媛県,松山市,61-6,福音寺町384,パチンコ天国福音寺店南側の市道沿い鉄柵,33.8224797,132.7924389,
愛媛県,松山市,62-1,和泉南1丁目3-32,石井北小学校西側金網,33.8190827,132.7682827,
愛媛県,松山市,62-2,朝生田1丁目15-1,ナーシングホーム朝生田南側フェンス,33.8238062,132.77185,
愛媛県,松山市,62-3,朝生田町6丁目2-24,朝生田グラウンド東側金網,33.8207767,132.7668451,
愛媛県,松山市,62-4,西石井4丁目11-16,市営住宅椿野団地の西側市道鉄柵,33.8161807,132.7683304,
愛媛県,松山市,62-5,西石井5丁目12-10,石井公民館西石井分館南側植込み,33.8147931,132.7704908,
愛媛県,松山市,62-6,和泉南1丁目16-32,ホームランドーム松山店東側県道鉄柵,33.8179957,132.7616541,
愛媛県,松山市,62-7,古川北1丁目20-6,北古川公園南側金網,33.8138308,132.7625734,
愛媛県,松山市,62-8,和泉南1丁目9-38,愛YOUはなみずきビルの東向かい側の鉄柵,33.8182042,132.76537,
愛媛県,松山市,62-9,和泉南1丁目4-27,石井北小学校北側市道沿いの精農橋東側鉄柵,33.8191788,132.7665658,
愛媛県,松山市,62-10,朝生田町5丁目8-32,上吉木橋北の下り坂市道鉄柵,33.8200389,132.7724217,
愛媛県,松山市,63-1,市坪南1丁目1-20,椿中学校南側体育館前金網(南門西側),33.8078751,132.755494,
愛媛県,松山市,63-2,市坪南1丁目1-20,椿中学校西側金網,33.8078751,132.755494,
愛媛県,松山市,63-3,市坪北2丁目16-1,市営市坪西団地南側金網,33.8132407,132.7513811,
愛媛県,松山市,63-4,市坪北2丁目19-24,市坪橋南の県道沿い鉄柵,33.8144433,132.752338,
愛媛県,松山市,63-5,古川西2丁目6-7,古川公園南側金網,33.8077967,132.7586938,
愛媛県,松山市,63-6,古川西3丁目1368,市道石井393号線(松山外環状線側道)ガードパイプ,33.804283,132.756516,緯度経度は怪しい
愛媛県,松山市,63-7,市坪北1丁目19-1,市営市坪団地南側空地,33.8145581,132.7545974,
愛媛県,松山市,63-8,古川西2丁目3-30,ダイドービバレッジサービス株式会社東側フェンス,33.8089723,132.7596459,
愛媛県,松山市,64-1,余戸4丁目11-1-1,さくら小学校西側金網,33.813538,132.725128,緯度経度は怪しい
愛媛県,松山市,64-2,余戸中1丁目7-27,masked,33.8149155,132.7326082,
愛媛県,松山市,64-3,余戸西1丁目1-30,こもれび診療所東側県道鉄柵,33.811759,132.7262688,
愛媛県,松山市,64-4,余戸南4丁目12-14,市営鎌田団地北側,33.8104078,132.7289979,
愛媛県,松山市,64-5,余戸中3丁目9-18,ハタダ余戸店東向かいの県道鉄柵,33.815507,132.7265105,
愛媛県,松山市,64-6,余戸中5丁目3,余戸中新開公園北側金網,33.8164045,132.7318155,
愛媛県,松山市,64-7,富久町515,市営富久団地内の集会所東側,33.82352487,132.7251399,
愛媛県,松山市,64-8,余戸西2丁目6-38,余戸西さくら公園北側フェンス,33.8143533,132.722578,
愛媛県,松山市,64-9,富久町301,富久公園の西側金網,33.82344198,132.7276117,
愛媛県,松山市,65-1,山越3丁目800,姫山小学校北側市道金網,33.862095,132.764191,緯度経度は怪しい
愛媛県,松山市,65-2,山越3丁目15-53,masked,33.8634853,132.7605079,
愛媛県,松山市,65-3,姫原3丁目9-26,角田池南側フェンス,33.8666684,132.7559122,
愛媛県,松山市,65-4,山越4丁目11-35,愛媛大学山越運動場の南側市道鉄柵,33.8612741,132.7522892,
愛媛県,松山市,65-5,山越4丁目11-41,愛媛大学山越運動場の西側市道鉄柵,33.8618806,132.7522892,
愛媛県,松山市,65-6,山越5丁目10-8,丁地公園南側金網,33.860193,132.7505343,
愛媛県,松山市,65-7,山越3丁目13-18,イオンザビッグ松山山越店南側市道鉄柵,33.86193,132.7596424,
愛媛県,松山市,65-8,姫原3丁目1-20,姫原月極駐車場北側鉄柵,33.8650562,132.7580376,
愛媛県,松山市,65-9,姫原3丁目1-6,生活協同組合コープえひめ松山北支所北側の市道鉄柵,33.8645042,132.7582611,
愛媛県,松山市,66-1,平井町3690,小野中学校正門横金網,33.8070601,132.8370059,
愛媛県,松山市,66-2,平井町852,総合福祉施設ひらい園の南方の丁字路近く市道鉄柵,33.814037,132.83021,
愛媛県,松山市,66-3,平井町1420-1,JAえひめ中央小野集荷場南側金網,33.8090185,132.8308062,
愛媛県,松山市,66-4,平井町1402,JA松山市小野支所の向かい側徳阿弥池の土手,33.8084009,132.8286648,
愛媛県,松山市,66-5,水泥町1191,平水橋欄干,33.8062877,132.8289763,
愛媛県,松山市,66-6,平井町2273-1,パルティフジ平井の東側市道鉄柵,33.8115989,132.8221207,
愛媛県,松山市,66-7,水泥町778,宮天満宮前,33.80541378,132.8317281,
愛媛県,松山市,66-8,水泥町961,デイサービス梅本の里・小梅向かい側県道鉄柵,33.80331,132.826477,緯度経度は怪しい
愛媛県,松山市,66-9,平井町2518,平井公園東側金網,33.8099854,132.8265441,
愛媛県,松山市,66-10,水泥町22-43,masked,33.8002823,132.8311872,
愛媛県,松山市,67-1,湯の山2丁目5-10,湯の山運動公園南側鉄柵,33.8699363,132.8144552,
愛媛県,松山市,67-2,食場町350,グリーンヒルズ湯の山エレベータの向かい側県道鉄柵,33.86761548,132.8119629,
愛媛県,松山市,67-3,湯の山8丁目5-4,湯の山コミュニティホールの西側金網,33.8714228,132.8175292,
愛媛県,松山市,67-4,湯の山6丁目4-8,ともの家湯の山西側市道鉄柵,33.86790772,132.8158702,
愛媛県,松山市,68-1,竹原3丁目19-35,城西中学校正門北側金網,33.8343939,132.7481788,
愛媛県,松山市,68-2,山越5丁目15-2,カフェラインローズ南江戸店南側鉄柵,33.8621367,132.7516431,
愛媛県,松山市,68-3,生石町534,生石集会所西側フェンス,33.8343108,132.7420204,
愛媛県,松山市,68-4,生石町130-1,積水ハウス愛媛支店南側フェンス,33.8307302,132.7445139,
愛媛県,松山市,68-5,南江戸6丁目3-7,くじゅめ橋の北側市道鉄柵,33.8396294,132.7389428,
愛媛県,松山市,68-6,南江戸6丁目3-5,市営南江戸団地東側鉄柵,33.8389853,132.7388667,
愛媛県,松山市,68-7,南江戸4丁目1-1,南江戸公園南ゲート鉄柵,33.8360451,132.7437924,
愛媛県,松山市,68-8,南江戸1丁目4-30,労住協サクラメントアベニューの北側市道鉄柵,33.836598,132.7504817,
愛媛県,松山市,68-9,南江戸2丁目4-10,（株）田窪工業所松山営業所の南側市道鉄柵,33.8355592,132.746778,
愛媛県,松山市,69-1,白水台4丁目8-6,白水台集合所の東側鉄柵,33.8767085,132.7806578,
愛媛県,松山市,69-2,白水台2丁目12-2,白水台公園の北側金網,33.8746728,132.7805577,
愛媛県,松山市,69-3,白水台5丁目2-10,白水台南公園の北側金網,33.871761,132.778905,
愛媛県,松山市,69-4,白水台1丁目2-1,ガソリンスタンド南の道路向かい側緑地帯,33.871555,132.779648,緯度経度は怪しい
愛媛県,松山市,70-1,久米窪田町307,窪田小学校西側正門の南側植込み,33.8023233,132.8152332,
愛媛県,松山市,70-2,久米窪田町833,コスモ石油松山東SSの南県道鉄柵,33.8083862,132.8143341,
愛媛県,松山市,70-3,平井町3157-153,東鷹の子公園南側金網,33.8055676,132.8164538,
愛媛県,松山市,70-4,水泥町333-50,日尾グリーンハイツ内の中央公園西側ブロック,33.8013959,132.8189628,
愛媛県,松山市,70-5,高井町1079-1,今治ヤンマー(株)松山営業所の南、県道鉄柵,33.7956991,132.8136522,
愛媛県,松山市,70-6,久米窪田町945-1,北窪田公園西側金網,33.8065254,132.8109544,
愛媛県,松山市,70-7,南土居町235,南土居公園北側金網,33.7965283,132.8031068,
愛媛県,松山市,71-1,別府町3-1,味生第二小学校の西側正門横の生垣,33.8443462,132.7294258,
愛媛県,松山市,71-2,南斎院町1002-1,岡行政書士・土地家屋調査士事務所の東側の畑,33.83248618,132.7380652,
愛媛県,松山市,71-3,南斎院町1188,日吉神社東側の玉垣,33.83386669,132.7321627,
愛媛県,松山市,71-4,南斎院町1200,桑木橋の南の市道鉄柵,33.83403395,132.7346005,
愛媛県,松山市,71-5,南斎院町,伊予鉄道(株)北斎院営業所北側の鉄柵,33.83020502,132.7322665,
愛媛県,松山市,71-6,南斎院町,masked,33.83264119,132.7287413,
愛媛県,松山市,71-7,別府町36-5,masked,33.8440775,132.7303987,
愛媛県,松山市,101-1,北条辻6,松山市役所北条支所南側フェンス,33.96838,132.777847,緯度経度は怪しい
愛媛県,松山市,101-2,北条337-3,伊予鉄バス北条詰め所西側県道鉄柵,33.979317,132.777206,緯度経度は怪しい
愛媛県,松山市,101-3,北条1058-1,クラボウ専用駐車場の北側フェンス,33.9792367,132.7744793,
愛媛県,松山市,101-4,北条20-1,風早タウンの緑地西側フェンス,33.976364,132.779617,緯度経度は怪しい
愛媛県,松山市,101-5,北条住1381,伊予銀行北条支店北側鉄柵,33.978985,132.779617,緯度経度は怪しい
愛媛県,松山市,102-1,北条辻64,北条小学校西側フェンス,33.96838,132.777847,緯度経度は怪しい
愛媛県,松山市,102-2,北条辻225-3,フジ北条店の東側JRフェンス,33.9747081,132.7759201,
愛媛県,松山市,102-3,北条辻435-3,JR伊予北条駅の西側駐輪場フェンス,33.97306,132.7749857,
愛媛県,松山市,102-4,北条辻449-5,masked,33.9713721,132.7768295,
愛媛県,松山市,102-5,北条辻1398-8,東町浦児童公園の南側入り口の西側,33.975654,132.773779,
愛媛県,松山市,103-1,土手内222-1,土手内公民館の北側車庫横鉄柵,33.9712146,132.7718997,
愛媛県,松山市,103-2,北条辻1169-24,楢村建設北側の畑,33.967148,132.772537,緯度経度は怪しい
愛媛県,松山市,103-3,土手内110-1,株式会社レディ薬局北条店西側フェンス,33.9684088,132.7733267,
愛媛県,松山市,103-4,北条辻827-1,井上縫製配送センターの南側コンクリート壁,33.9653688,132.7760973,
愛媛県,松山市,103-5,北条辻988-17,新開児童公園の南側金網,33.9638303,132.77449,
愛媛県,松山市,104-1,中通801-1,新池の南側土手,33.9830334,132.7936934,
愛媛県,松山市,104-2,庄358,北条農家高齢者創作館庄公会堂の西側空地,33.978924,132.813263,緯度経度は怪しい
愛媛県,松山市,104-3,下難波653,下難波公民館の北側フェンス,33.989059,132.782745,緯度経度は怪しい
愛媛県,松山市,104-4,下難波37,株式会社キクノ松山工場東側,33.989059,132.782745,緯度経度は怪しい
愛媛県,松山市,104-5,上難波764,上難波老人倶楽部クロッケー会場の西側金網,33.9825855,132.7964672,
愛媛県,松山市,105-1,大浦403,大浦集会所の北にある公園の北側フェンス,34.000095,132.77919,緯度経度は怪しい
愛媛県,松山市,105-2,大浦119,道の駅風和里の建物前駐車場の西側フェンス,34.000095,132.77919,緯度経度は怪しい
愛媛県,松山市,106-1,八反地90,正岡公民館北側の正門西側フェンス,33.965263,132.791641,緯度経度は怪しい
愛媛県,松山市,106-2,中西外270,小山集会所の東側の阿弥陀堂・地蔵堂敷地内の東側,33.963882,132.78418,緯度経度は怪しい
愛媛県,松山市,106-3,中西外687-2,正岡松尾公園北入口の横、西側フェンス,33.9621774,132.7871462,
愛媛県,松山市,106-4,八反地160,正岡小学校 北西フェンス,33.965263,132.791641,緯度経度は怪しい
愛媛県,松山市,106-5,八反地605,鳥熊池の東側市道鉄柵,33.965263,132.791641,緯度経度は怪しい
愛媛県,松山市,107-1,高田429,masked,33.963852,132.805573,緯度経度は怪しい
愛媛県,松山市,107-2,正岡神田332,横山商店の向かい側の県道鉄柵,33.968254,132.810959,緯度経度は怪しい
愛媛県,松山市,107-3,院内1045,masked,33.958252,132.81488,緯度経度は怪しい
愛媛県,松山市,108-1,浅海原603-1,浅海公民館の入り口横鉄柵,34.001846,132.795319,緯度経度は怪しい
愛媛県,松山市,108-2,浅海本谷601,masked,34.008903,132.8125942,
愛媛県,松山市,108-3,浅海原327,masked,34.0032784,132.7960731,
愛媛県,松山市,108-4,浅海本谷318-3,浅海本谷集会所前,34.007847,132.812286,緯度経度は怪しい
愛媛県,松山市,108-5,浅海原561-1,旧浅海支所跡地前,34.001846,132.795319,緯度経度は怪しい
愛媛県,松山市,109-1,萩原集会所,市道萩原スベリ線 ガードレール,33.996208,132.819153,緯度経度は怪しい
愛媛県,松山市,110-1,猿川758-7,立岩警察官連絡所北側市道鉄柵,33.97501747,132.839686,
愛媛県,松山市,110-2,猿川原49,立岩小学校東側,33.97842,132.839249,緯度経度は怪しい
愛媛県,松山市,110-3,猿川945,篠原明俊住宅の南、市道鉄柵,33.965874,132.843582,緯度経度は怪しい
愛媛県,松山市,111-1,才之原745-6,才之原集会所西側ゲートボール場前フェンス,33.970795,132.820862,緯度経度は怪しい
愛媛県,松山市,111-2,才之原472,山田輪店西側県道鉄柵,33.970795,132.820862,緯度経度は怪しい
愛媛県,松山市,111-3,尾儀原46,尾儀原公園東側金網,33.981911,132.828094,緯度経度は怪しい
愛媛県,松山市,112-1,小山田1059-2,masked,33.98779872,132.8421213,
愛媛県,松山市,112-2,小山田872-3,masked,33.98954481,132.8423769,
愛媛県,松山市,113-1,儀式137-1,儀式集会所前フェンス,33.97913907,132.8583183,
愛媛県,松山市,113-2,立岩中村89,masked,33.97474585,132.8515545,
愛媛県,松山市,113-3,masked,masked,33.960873,132.874924,緯度経度は怪しい
愛媛県,松山市,114-1,河野別府182-1,松山市役所河野出張所西側県道鉄柵,33.9498536,132.7814496,
愛媛県,松山市,114-2,河野別府217,JAえひめ中央河野集荷場北側金網,33.9524621,132.7820978,
愛媛県,松山市,114-3,masked,masked,33.9476298,132.7859299,
愛媛県,松山市,114-4,河野別府19,北条南中学校西側金網,33.952381,132.781754,緯度経度は怪しい
愛媛県,松山市,114-5,宮内9-1,河野小学校東側市道鉄柵,33.9505974,132.7850339,
愛媛県,松山市,115-1,柳原395,有限会社山本金物建材の向かい側県道鉄柵,33.9557612,132.7726975,
愛媛県,松山市,115-2,柳原718,グループホーム憩いの郷南側空地,33.956669,132.770889,緯度経度は怪しい
愛媛県,松山市,115-3,柳原495,株式会社ヤマトの向かい側の椿団地緑地西側フェンス,33.9555986,132.7706206,
愛媛県,松山市,115-4,府中336,府中集会所北の公園の西側,33.9560022,132.7742477,
愛媛県,松山市,116-1,河野中須賀278,masked,33.9485527,132.7701421,
愛媛県,松山市,116-2,河野中須賀465-1,河野中須賀南第二公園の南側,33.947128,132.770981,緯度経度は怪しい
愛媛県,松山市,116-3,河野中須賀336,県営中須賀団地駐車場前,33.947128,132.770981,緯度経度は怪しい
愛媛県,松山市,117-1,善応寺375,善応寺集会所東側の畑,33.950874,132.79808,緯度経度は怪しい
愛媛県,松山市,117-2,横谷90,masked,33.94917117,132.8145875,
愛媛県,松山市,117-3,善応寺1225-4,masked,33.950874,132.79808,緯度経度は怪しい
愛媛県,松山市,117-4,河野高山202,masked,33.94366685,132.7973051,
愛媛県,松山市,118-1,常竹100,粟井小学校体育館南側金網,33.935986,132.780487,緯度経度は怪しい
愛媛県,松山市,118-2,常竹368-5,masked,33.936069,132.779663,緯度経度は怪しい
愛媛県,松山市,118-3,粟井河原324番地内,粟井橋バス停南の県道鉄柵,33.937354,132.7657078,
愛媛県,松山市,118-4,和田373,和田下水中継ポンプ場前県道鉄柵,33.9344159,132.7630182,
愛媛県,松山市,119-1,久保445-2,市営住宅鹿峰団地1号棟の東側植込み,33.9421139,132.7673208,
愛媛県,松山市,119-2,鹿峰287,JR粟井駅の西側,33.9427079,132.7702067,
愛媛県,松山市,119-3,久保88,粟井農村環境改善センター北側駐車場金網,33.938515,132.76796,緯度経度は怪しい
愛媛県,松山市,119-4,鹿峰136-9,鹿峰泉団地北側公園の西側フェンス,33.9391637,132.7725068,
愛媛県,松山市,120-1,小川241-3,masked,33.92548249,132.7632885,
愛媛県,松山市,120-2,小川21-1,masked,33.9267399,132.7596523,
愛媛県,松山市,120-3,磯河内199-1,masked,33.9304923,132.7662897,
愛媛県,松山市,121-1,光洋台8-74,光洋台風早緑地西側フェンス,33.921532,132.762695,緯度経度は怪しい
愛媛県,松山市,121-2,光洋台8-30,光洋台柳池の北側フェンス,33.9230394,132.7638071,
愛媛県,松山市,122-1,西谷386-1,西谷集会所北の市道鉄柵,33.922161,132.783463,緯度経度は怪しい
愛媛県,松山市,122-2,本谷210-3,仙波商店の東の三角空地,33.931168,132.78392,緯度経度は怪しい
愛媛県,松山市,122-3,西谷227-1,中野商店の南の西谷橋東側鉄柵,33.922161,132.783463,緯度経度は怪しい
愛媛県,松山市,123-1,客355-1,客集会所フェンス,33.91893081,132.7923126,
愛媛県,松山市,123-2,麓428-1,麓橋の南側県道沿い,33.9242356,132.7909648,
愛媛県,松山市,201-1,小浜256,小浜集会所東側県道沿い護岸,33.963528,132.635818,緯度経度は怪しい
愛媛県,松山市,201-2,中島大浦1626-1,松山西警察署中島駐在所の南側金網,33.97821,132.623932,緯度経度は怪しい
愛媛県,松山市,201-3,長師1411-1,masked,33.961098,132.624619,緯度経度は怪しい
愛媛県,松山市,201-4,宮野1651,旧中島南小学校の南側金網,33.963139,132.608902,緯度経度は怪しい
愛媛県,松山市,201-5,神浦2164,神浦桟橋バス停横,33.953075,132.600525,緯度経度は怪しい
愛媛県,松山市,201-6,饒390,饒バス停の向かい側中富亭所有の畑,33.98701027,132.6084757,
愛媛県,松山市,201-7,中島粟井1235,粟井地区集会所前花壇,34.001694,132.63858,緯度経度は怪しい
愛媛県,松山市,201-8,畑里1044,畑里地区所有地ブロック塀,34.001644,132.633881,緯度経度は怪しい
愛媛県,松山市,201-9,吉木573,吉木集会所西隣駐車場前フェンス,33.977261,132.604095,緯度経度は怪しい
愛媛県,松山市,201-10,熊田713-3,大河橋北側地区所有地,33.968128,132.597305,緯度経度は怪しい
愛媛県,松山市,201-11,宇和間1361,石碑の東側空地,33.96328,132.59024,緯度経度は怪しい
愛媛県,松山市,202-1,上怒和388,県漁協中島三和支所上怒和事業所横のグラウンド北側,33.9855,132.552872,緯度経度は怪しい
愛媛県,松山市,202-2,元怒和1809-1,元怒和集会所前,33.976788,132.544189,緯度経度は怪しい
愛媛県,松山市,203-1,津和地197,中島汽船待合所・津和地海の駅の向かい側漁港埋立地,33.977623,132.506546,緯度経度は怪しい
愛媛県,松山市,203-2,津和地737-1,masked,33.977623,132.506546,緯度経度は怪しい
愛媛県,松山市,204-1,二神640,中島汽船待合所：二神海の駅北側,33.932137,132.529221,緯度経度は怪しい
愛媛県,松山市,204-2,二神495,masked,33.932137,132.529221,緯度経度は怪しい
愛媛県,松山市,205-1,睦月232-1,masked,33.962891,132.660934,緯度経度は怪しい
愛媛県,松山市,205-2,睦月2192-1,睦月老人クラブ憩の家前,33.962891,132.660934,緯度経度は怪しい
愛媛県,松山市,206-1,野忽那1503-2,野忽那保育所フェンス,33.97113,132.688766,緯度経度は怪しい
愛媛県,松山市,206-2,野忽那1540,野忽那小学校南側植込み,33.97113,132.688766,緯度経度は怪しい
