prefecture,city,number,address,name,lat,long,note
愛媛県,砥部町,1,伊予郡砥部町 宮内900,向南台区入口ガードレール,33.747564,132.789228,緯度経度は怪しい
愛媛県,砥部町,2,伊予郡砥部町 千足54,富士区入口ガードレール,33.745228,132.7903581,緯度経度は怪しい
愛媛県,砥部町,3,伊予郡砥部町 北川毛586,北川毛遊園地フェンス,33.7376664,132.7772167,緯度経度は怪しい
愛媛県,砥部町,4,伊予郡砥部町 岩谷口207,平成館前ガードレール,33.7366335,132.7946912,緯度経度は怪しい
愛媛県,砥部町,5,伊予郡砥部町 大南1219,天神区集中浄化槽前,33.7331501,132.7905815,緯度経度は怪しい
愛媛県,砥部町,6,伊予郡砥部町 五本松59,masked,33.73671600000001,132.7878606,緯度経度は怪しい
愛媛県,砥部町,7,伊予郡砥部町 外山250,消防団第7分団旧車庫前ガードレール,33.7302741,132.7693502,緯度経度は怪しい
愛媛県,砥部町,8,伊予郡砥部町 大南1375,masked,33.7226885,132.7881985,緯度経度は怪しい
愛媛県,砥部町,9,伊予郡砥部町 大南330,Aマートとべ店駐車場フェンス,33.7391697,132.7929134,緯度経度は怪しい
愛媛県,砥部町,10,伊予郡砥部町 大南709,砥部幼稚園前フェンス,33.7376814,132.7928855,緯度経度は怪しい
愛媛県,砥部町,11,伊予郡砥部町 大南1935,長生地橋付近ガードレール,33.7319254,132.7936668,緯度経度は怪しい
愛媛県,砥部町,12,伊予郡砥部町 川登333,川下集会所付近ガードレール,33.6923322,132.8003978,緯度経度は怪しい
愛媛県,砥部町,13,伊予郡砥部町 川登540,余毛橋付近フェンス,33.7172913,132.8036873,緯度経度は怪しい
愛媛県,砥部町,14,伊予郡砥部町 万年497,万年集会所付近ガードレール,33.7064885,132.783318,緯度経度は怪しい
愛媛県,砥部町,15,伊予郡砥部町 八倉320,矢取橋付近ガードレール,33.7867988,132.7771259,緯度経度は怪しい
愛媛県,砥部町,16,伊予郡砥部町 重光223,荒倉橋付近ガードレール,33.7823208,132.7796573,緯度経度は怪しい
愛媛県,砥部町,17,伊予郡砥部町 高尾田71,Aコープ城南フェンス,33.7822515,132.7930024,緯度経度は怪しい
愛媛県,砥部町,18,伊予郡砥部町 麻生216,麻生保育所フェンス,33.7770032,132.7881524,緯度経度は怪しい
愛媛県,砥部町,19,伊予郡砥部町 原町249,総合福祉センターはちまち前ガードパイプ,33.7722945,132.7926599,緯度経度は怪しい
愛媛県,砥部町,20,伊予郡砥部町 原町166,消防団第3分団詰所横,33.7701673,132.7900896,緯度経度は怪しい
愛媛県,砥部町,21,伊予郡砥部町 高尾田890,消防団第2分団詰所横,33.7786267,132.7926116,緯度経度は怪しい
愛媛県,砥部町,22,伊予郡砥部町 高尾田1252-20,上野団地入口ガードパイプ,33.7738958,132.7963928,緯度経度は怪しい
愛媛県,砥部町,23,伊予郡砥部町 拾町115-1,老人生きがいの家前,33.7842105,132.7864968,緯度経度は怪しい
愛媛県,砥部町,24,伊予郡砥部町 宮内227,宮川大橋付近ガードレール,33.7525933,132.7930786,緯度経度は怪しい
愛媛県,砥部町,25,伊予郡砥部町 川井1212,masked,33.7505832,132.7794842,緯度経度は怪しい
愛媛県,砥部町,26,伊予郡砥部町 七折128,七折遊園地フェンス,33.746431,132.7540251,緯度経度は怪しい
愛媛県,砥部町,27,伊予郡砥部町 宮内640,宮内小学校塀,33.7540344,132.7865781,緯度経度は怪しい
愛媛県,砥部町,28,伊予郡砥部町 宮内1651,宮内幼稚園フェンス,33.7525933,132.7930786,緯度経度は怪しい
愛媛県,砥部町,29,伊予郡砥部町 宮内129,山並北入口ガードレール,33.7580797,132.7889506,緯度経度は怪しい
愛媛県,砥部町,30,伊予郡砥部町 宮内792,幸田口バス停横ガードレール,33.7502287,132.7883606,緯度経度は怪しい
愛媛県,砥部町,31,伊予郡砥部町 宮内1369,中央公民館前,33.7505253,132.7916251,
愛媛県,砥部町,32,伊予郡砥部町 宮内1392,砥部町役場前,33.7491679,132.7922399,
愛媛県,砥部町,33,伊予郡砥部町 千足359,砥部焼観光センター前ガードレール,33.742336,132.7955242,緯度経度は怪しい
愛媛県,砥部町,34,伊予郡砥部町 宮内1886,さかえ団地入口ガードレール,33.749056,132.7932288,
愛媛県,砥部町,35,伊予郡砥部町 高尾田128,八瀬集会所フェンス,33.7840869,132.7923732,緯度経度は怪しい
愛媛県,砥部町,36,伊予郡砥部町 高尾田26－2,masked,33.7842077,132.7917252,緯度経度は怪しい
愛媛県,砥部町,37,伊予郡砥部町 高尾田323,上水道第2水源地フェンス,33.7845321,132.7958044,緯度経度は怪しい
愛媛県,砥部町,38,伊予郡砥部町 総津387,砥部町広田老人憩いの家前,33.63072510000001,132.7980823,緯度経度は怪しい
愛媛県,砥部町,39,伊予郡砥部町 総津679－1,広田郵便局前ガードパイプ,33.6290402,132.7987554,緯度経度は怪しい
愛媛県,砥部町,40,伊予郡砥部町 中野川477,黒木集会所前ガードレール,33.6536955,132.778437,緯度経度は怪しい
愛媛県,砥部町,41,伊予郡砥部町 仙波465,仙波分校跡地,33.653231,132.8223493,緯度経度は怪しい
愛媛県,砥部町,42,伊予郡砥部町 多居谷15,三島神社前,33.6349401,132.8223493,緯度経度は怪しい
愛媛県,砥部町,43,伊予郡砥部町 高市236,鴨滝集会所前,33.6381846,132.7725137,緯度経度は怪しい
愛媛県,砥部町,44,伊予郡砥部町 高市1151,出渡瀬町営住宅前,33.6307301,132.7631969,緯度経度は怪しい
愛媛県,砥部町,45,伊予郡砥部町 玉谷741,広田出荷組合前ガードパイプ,33.6626883,132.7964143,緯度経度は怪しい
愛媛県,砥部町,46,伊予郡砥部町 玉谷145,玉谷集会所フェンス,33.6720009,132.7872599,緯度経度は怪しい
愛媛県,砥部町,47,伊予郡砥部町 満穂129地先,masked,33.6698741,132.8101552,緯度経度は怪しい
愛媛県,砥部町,48,伊予郡砥部町 満穂1379－1地先,篠谷集会所付近ガードレール,33.6698741,132.8101552,緯度経度は怪しい
