prefecture,city,number,address,name,lat,long,note
愛媛県,西予市,1-1,明浜町田之浜481,旧田之浜小学校教員住宅前,33.3183978,132.3956028,緯度経度は怪しい
愛媛県,西予市,1-2,明浜町田之浜1097,田之浜停留所前護岸,33.3196656,132.3935283,緯度経度は怪しい
愛媛県,西予市,1-3,明浜町田之浜1134-3,米屋カネ子氏倉庫前,33.3200828,132.391446,緯度経度は怪しい
愛媛県,西予市,1-4,明浜町高山1365,旧伊予銀行前ちびっこ広場フェンス,33.3199525,132.4339275,緯度経度は怪しい
愛媛県,西予市,1-5,明浜町高山3630,西予市明浜支所ガードパイプ,33.3224549,132.4324985,緯度経度は怪しい
愛媛県,西予市,1-6,明浜町高山3678,高山・宮野浦地域づくり活動センター前,33.3202133,132.4321009,緯度経度は怪しい
愛媛県,西予市,1-7,明浜町高山2889-4,masked,33.3186456,132.4294283,緯度経度は怪しい
愛媛県,西予市,1-8,明浜町宮野浦2,旧明浜西中学校前バス停横護岸,33.3160821,132.4267195,緯度経度は怪しい
愛媛県,西予市,1-9,明浜町宮野浦313,旧高山保育園フェンス,33.3145423,132.4251354,緯度経度は怪しい
愛媛県,西予市,1-10,明浜町宮野浦1474-2,町営住宅跡地（宮の串）,33.3078332,132.4226079,緯度経度は怪しい
愛媛県,西予市,1-11,明浜町宮野浦1693-4,masked,33.3079024,132.4117993,緯度経度は怪しい
愛媛県,西予市,1-12,明浜町狩浜2-40-1,門之脇集会所フェンス,33.3194858,132.4687789,緯度経度は怪しい
愛媛県,西予市,1-13,明浜町狩浜2-1970,旧狩江小学校プールフェンス,33.3195873,132.4653638,緯度経度は怪しい
愛媛県,西予市,1-14,明浜町狩浜3-2-1,旧狩江診療所医師住宅塀,33.3179144,132.4665858,緯度経度は怪しい
愛媛県,西予市,1-15,明浜町狩浜3-195-1,狩江地域づくり活動センター前,33.3164365,132.4640213,緯度経度は怪しい
愛媛県,西予市,1-16,明浜町渡江123-1,masked,33.3194767,132.4822482,緯度経度は怪しい
愛媛県,西予市,1-17,明浜町渡江1055,masked,33.3184381,132.4803869,緯度経度は怪しい
愛媛県,西予市,1-18,明浜町俵津1-264-1,俵津大浦団地フェンス,33.3203831,132.4951333,緯度経度は怪しい
愛媛県,西予市,1-19,明浜町俵津2-465,俵津東川付近護岸ガードパイプ,33.32306,132.4954374,緯度経度は怪しい
愛媛県,西予市,1-20,明浜町俵津3-6,旧東宇和農協明浜支店前ガードパイプ,33.3257825,132.4931201,緯度経度は怪しい
愛媛県,西予市,1-21,明浜町俵津3-287-1,俵津地域づくり活動センターフェンス,33.3274306,132.4896576,緯度経度は怪しい
愛媛県,西予市,1-22,明浜町俵津5-265,masked,33.3325976,132.4862212,緯度経度は怪しい
愛媛県,西予市,1-23,明浜町俵津3-166,masked,33.3246312,132.4894762,緯度経度は怪しい
愛媛県,西予市,2-1,宇和町久保1−93−1,久保公会堂前ガードレール,33.4432361,132.5177147,緯度経度は怪しい
愛媛県,西予市,2-2,宇和町瀬戸671,瀬戸公会堂横畑,33.4181082,132.5124536,緯度経度は怪しい
愛媛県,西予市,2-3,宇和町東多田340,多田センター前ガードレール,33.4257844,132.5117082,
愛媛県,西予市,2-4,宇和町信里852,信里集会所付近,33.4332915,132.5165488,緯度経度は怪しい
愛媛県,西予市,2-5,宇和町河内91-1,多田地域づくり活動センター記念碑前,33.4271186,132.5055522,
愛媛県,西予市,2-6,宇和町河内494,河内公会堂前,33.4326691,132.5029616,緯度経度は怪しい
愛媛県,西予市,2-7,宇和町岡山248,岡山公会堂前ガードレール,33.4232039,132.5001737,
愛媛県,西予市,2-8,宇和町伊延566,伊延東集会所付近ガードレール,33.4263109,132.4986235,緯度経度は怪しい
愛媛県,西予市,2-9,宇和町伊延西626,伊延西公会堂前,33.4171949,132.4891878,緯度経度は怪しい
愛媛県,西予市,2-10,宇和町大江749,大江集会所横黒田直紀氏畑,33.4089003,132.5122892,
愛媛県,西予市,2-11,宇和町加茂766,加茂公会堂横農事用倉庫,33.4017153,132.5130175,緯度経度は怪しい
愛媛県,西予市,2-12,宇和町田苗真土1553-2,真土公会堂前,33.401318,132.5057913,
愛媛県,西予市,2-13,宇和町田苗真土2032,中川地域づくり活動センター前,33.398568,132.50765,緯度経度は怪しい
愛媛県,西予市,2-14,宇和町田苗真土806,田苗公会堂,33.4044999,132.4988813,
愛媛県,西予市,2-15,宇和町杢所558-1,杢所公会堂前部落倉庫横ガードレール,33.3998791,132.4974828,
愛媛県,西予市,2-16,宇和町坂戸922,坂戸公会堂前,33.392122,132.5083122,
愛媛県,西予市,2-17,宇和町清沢851-1,清沢集会所前,33.3914402,132.493197,緯度経度は怪しい
愛媛県,西予市,2-18,宇和町小原282,小原集会所前ガードレール,33.3904068,132.4824048,緯度経度は怪しい
愛媛県,西予市,2-19,宇和町岩木1501,旧東宇和農協岩木取次店,33.3964099,132.4745661,
愛媛県,西予市,2-20,宇和町岩木333-2,JR伊予石城駅トイレ付近,33.3913958,132.4733325,緯度経度は怪しい
愛媛県,西予市,2-21,宇和町郷内411,郷内公会堂横畑,33.3894273,132.4624505,
愛媛県,西予市,2-22,宇和町西山田2408,狭間コミュニティセンター前ガードパイプ,33.3821763,132.4653432,緯度経度は怪しい
愛媛県,西予市,2-23,宇和町西山田1332,東宇和農協山田取次店前,33.3756174,132.470559,
愛媛県,西予市,2-24,宇和町西山田423,石城地域づくり活動センター前ガードパイプ,33.3845015,132.4737045,
愛媛県,西予市,2-25,宇和町山田1726,山田集会所前,33.3737619,132.4730908,
愛媛県,西予市,2-26,宇和町仁土5044,仁土公会堂前フェンス,33.3324351,132.447241,緯度経度は怪しい
愛媛県,西予市,2-27,宇和町れんげ101-65,れんげ集会所前,33.3852878,132.4987734,
愛媛県,西予市,2-28,宇和町永長751,永長公会堂前,33.3792917,132.4974435,緯度経度は怪しい
愛媛県,西予市,2-29,宇和町下松葉140-85,若宮ゲートボール場フェンス,33.3776217,132.4995728,緯度経度は怪しい
愛媛県,西予市,2-30,宇和町上松葉547,上松葉公会堂下石柱,33.3825173,132.5054346,
愛媛県,西予市,2-31,宇和町下松葉629-1,宇和中学校(国道側),33.3704748,132.5074469,緯度経度は怪しい
愛媛県,西予市,2-32,宇和町久枝甲258,別所公会堂前フェンス,33.3629848,132.4980559,緯度経度は怪しい
愛媛県,西予市,2-33,宇和町野田239-3,部落倉庫前ガードレール,33.3556926,132.4866458,
愛媛県,西予市,2-34,宇和町小野田544,小野田公会堂前,33.3664406,132.4900721,緯度経度は怪しい
愛媛県,西予市,2-35,宇和町卯之町三丁目329,西予市役所前（国道側）,33.363451,132.5110636,
愛媛県,西予市,2-36,宇和町卯之町四丁目428,消防宇和分団第2部詰所横防火水槽フェンス,33.360795,132.5172241,
愛媛県,西予市,2-37,宇和町伊賀上351,みどり団地入口ガードパイプ,33.3580921,132.5208267,緯度経度は怪しい
愛媛県,西予市,2-38,宇和町伊賀上403,消防ポンプ倉庫付近,33.3521872,132.5152023,緯度経度は怪しい
愛媛県,西予市,2-39,宇和町明石711,明石集会所前,33.3637347,132.5275456,緯度経度は怪しい
愛媛県,西予市,2-40,宇和町明石1707,消防詰所前畑,33.3715075,132.5281995,緯度経度は怪しい
愛媛県,西予市,2-41,宇和町新城909,新城公会堂付近(佐藤一廣氏畑),33.3801179,132.5319013,緯度経度は怪しい
愛媛県,西予市,2-42,宇和町新城979,田之筋地域づくり活動センター前,33.38375380000001,132.5318289,
愛媛県,西予市,2-43,宇和町伊崎408-1,北原弘章氏倉庫前ガードレール,33.3958322,132.5302888,
愛媛県,西予市,2-44,宇和町窪295-2,窪集会所前フェンス,33.39530010000001,132.5358678,緯度経度は怪しい
愛媛県,西予市,2-45,宇和町田野中188-1,田野中公会堂横ガードパイプ,33.4023512,132.5372952,緯度経度は怪しい
愛媛県,西予市,2-46,宇和町稲生59-2,西予IC愛媛高速道路敷地フェンス,33.3583153,132.5260346,緯度経度は怪しい
愛媛県,西予市,2-47,宇和町稲生118,どんぶり館入口横ガードパイプ,33.3549991,132.5273146,緯度経度は怪しい
愛媛県,西予市,2-48,宇和町皆田1824,JR下宇和駅裏市道沿いガードレール,33.34796900000001,132.5315131,
愛媛県,西予市,2-49,宇和町皆田1234,下宇和地域づくり活動センター前,33.3457268,132.5365704,
愛媛県,西予市,2-50,宇和町下川841,下川公会堂前,33.3426436,132.5522051,
愛媛県,西予市,2-51,宇和町明間1222-2,昭和公会堂前ガードパイプ,33.3454595,132.5801355,
愛媛県,西予市,2-52,宇和町明間3071-3,明間地域づくり活動センター前,33.3463995,132.5835205,
愛媛県,西予市,2-53,宇和町明間1842,宇和島バス四道停留所付近倉庫,33.3476145,132.5896983,
愛媛県,西予市,2-54,宇和町明間5512,倉谷公会堂前ガードレール,33.3548408,132.5914371,緯度経度は怪しい
愛媛県,西予市,2-55,宇和町明間6157,文治ヶ駄場入口付近畑,33.3570044,132.615762,緯度経度は怪しい
愛媛県,西予市,2-56,宇和町明間6802-1,板ヶ谷公会堂前ガードレール,33.3381804,132.6171022,緯度経度は怪しい
愛媛県,西予市,3-1,野村12号619,野村地域づくり活動センター横,33.3765219,132.6431256,緯度経度は怪しい
愛媛県,西予市,3-2,野村13号315,masked,33.3785045,132.6400193,緯度経度は怪しい
愛媛県,西予市,3-3,野村12号361,乙亥の里駐車場前,33.37844,132.6439545,緯度経度は怪しい
愛媛県,西予市,3-4,野村1号565,氏宮橋ガードレール,33.3789891,132.6469065,緯度経度は怪しい
愛媛県,西予市,3-5,野村11号426,宇都宮内科横ガードレール,33.3729739,132.645737,緯度経度は怪しい
愛媛県,西予市,3-6,野村11号23-3,野村小学校国道側フェンス,33.3719028,132.6445662,緯度経度は怪しい
愛媛県,西予市,3-7,野村7号,新天神橋左岸側付近ガードレール,33.36882026872499, 132.63931214446382,緯度経度は怪しい
愛媛県,西予市,3-8,野村1号29,井関吉博氏倉庫横ガードパイプ,33.3804668,132.6457323,緯度経度は怪しい
愛媛県,西予市,3-9,阿下7号,（株）ＯＡＫ前花壇,33.3832951554171, 132.65087113410252,緯度経度は怪しい
愛媛県,西予市,3-10,阿下8号,久保谷停留所付近ガードパイプ,33.37368845911061, 132.6577011057183,緯度経度は怪しい
愛媛県,西予市,3-11,阿下2号,市道前石線起点ガードパイプ,33.386291496494, 132.6695519006595,緯度経度は怪しい
愛媛県,西予市,3-12,阿下2号435,大和田地域づくり活動センター前ガードレール,33.396517,132.6719902,緯度経度は怪しい
愛媛県,西予市,3-13,釜川2号115,釜川集落センター前,33.4032599,132.7876531,緯度経度は怪しい
愛媛県,西予市,3-14,蔵良16,コインランドリーにさし前ガードレール,,,削除
愛媛県,西予市,3-15,中通川263,中通川消防詰所手前ガードレール,33.3932322,132.5215201,緯度経度は怪しい
愛媛県,西予市,3-16,大西30,大西バス停横ガードパイプ,33.3814335,132.4617644,緯度経度は怪しい
愛媛県,西予市,3-17,鎌田641,貝吹分団第３部前ガードフェンス,33.401968,132.686437,緯度経度は怪しい
愛媛県,西予市,3-18,栗木988-2,栗木本村集会所横ガードレール,,,削除
愛媛県,西予市,3-19,西,西集会所手前ガードレール,33.421227941427546, 132.68531539340785,
愛媛県,西予市,3-20,河西1318,出合大橋元ガードパイプ,,,削除
愛媛県,西予市,3-21,四郎谷1号643,masked,33.3863095,132.6046427,緯度経度は怪しい
愛媛県,西予市,3-22,長谷562,長谷集会所手前ガードレール,,,削除
愛媛県,西予市,3-23,旭220,旭消防詰所横ガードレール,33.3907891,132.5915092,緯度経度は怪しい
愛媛県,西予市,3-24,鳥鹿野748,渓筋駐在所前ガードパイプ,33.4032749,132.5876836,緯度経度は怪しい
愛媛県,西予市,3-25,松渓1号846,松渓停留所前ガードパイプ,33.415648,132.592466,緯度経度は怪しい
愛媛県,西予市,3-26,白髭2号,白髭集会所横ガードパイプ,33.43783731538523, 132.57747676486872,緯度経度は怪しい
愛媛県,西予市,3-27,平野,平野集会所前,33.40405755054335, 132.64399108703165,
愛媛県,西予市,3-28,高瀬757,中筋地域づくり活動センター横ガードパイプ,,,削除
愛媛県,西予市,3-29,富野川,成穂バス停留所横ガードレール,33.41304236496028, 132.6293405949207,緯度経度は怪しい
愛媛県,西予市,3-30,富野川,中筋分団第１部詰所前ガードレール,33.4142894864826, 132.6190318691029,緯度経度は怪しい
愛媛県,西予市,3-31,富野川726,榎バス停留所横,33.4139065,132.6146565,緯度経度は怪しい
愛媛県,西予市,3-32,高瀬2430,小滝集会所前ガードレール,,,削除
愛媛県,西予市,3-33,高瀬,舟坂集会所前ガードレール,,,削除
愛媛県,西予市,3-34,坂石,横林地域づくり活動センター横ガードレール,33.41531148727105, 132.7167068377799,緯度経度は怪しい
愛媛県,西予市,3-35,坂石,高丸集会所手前ガードレール,33.413695990412755, 132.71012762204134,緯度経度は怪しい
愛媛県,西予市,3-36,坂石752,坂石消防詰所前ガードレール,33.4122692,132.7117796,緯度経度は怪しい
愛媛県,西予市,3-37,予子林1355,松尾消防用水前ガードレール,33.4325177,132.6947371,緯度経度は怪しい
愛媛県,西予市,3-38,予子林3230,堂野窪集会所前,33.4325177,132.6947371,緯度経度は怪しい
愛媛県,西予市,3-39,予子林,奈良野集会所前ガードレール,33.4274715027766, 132.71920239588013,緯度経度は怪しい
愛媛県,西予市,3-40,予子林,旧川野商店前ガードレール,33.44610113873736, 132.72326379878191,緯度経度は怪しい
愛媛県,西予市,3-41,舟戸305,大窪西、大窪停留所横ガードレール,33.4349563,132.7224731,緯度経度は怪しい
愛媛県,西予市,3-42,舟戸2215,知野お堂前ガードレール,33.4349563,132.7224731,緯度経度は怪しい
愛媛県,西予市,3-43,惣川1039,天神消防１部詰所前ガードレール,33.478913,132.7854791,緯度経度は怪しい
愛媛県,西予市,3-44,惣川435,masked,33.4755162,132.7887617,緯度経度は怪しい
愛媛県,西予市,3-45,惣川288,惣川地域づくり活動センター前,33.4728458,132.7888384,緯度経度は怪しい
愛媛県,西予市,3-46,惣川243,川戸停留所横ガードレール,33.4748442,132.7900953,緯度経度は怪しい
愛媛県,西予市,3-47,小松425,浮穴橋停留所上ガードレール,33.3964031,132.5075196,緯度経度は怪しい
愛媛県,西予市,3-48,小松1007,色納ごみステーション横,33.3964031,132.5075196,緯度経度は怪しい
愛媛県,西予市,3-49,大野ヶ原,大野ヶ原集会所前,33.479972896039904, 132.8701221776037,緯度経度は怪しい
愛媛県,西予市,3-50,大野ヶ原,寺山公園フェンス,33.47705060522978, 132.88509325702938,緯度経度は怪しい
愛媛県,西予市,4-1,遊子谷209,南平区入口ガードレール,33.415673, 132.745807,緯度経度は怪しい
愛媛県,西予市,4-2,遊子谷2394,遊子川地域づくり活動センター前ガードレール,33.425791, 132.762151,緯度経度は怪しい
愛媛県,西予市,4-3,遊子谷2757,平岩橋付近県道ガードレール,33.4333212,132.7710612,緯度経度は怪しい
愛媛県,西予市,4-4,野井川287,河内神社前ガードレール,,,削除
愛媛県,西予市,4-5,野井川820,泉田バス停横,,,削除
愛媛県,西予市,4-6,土居1299,委託店土居店舗前,33.3743436,132.6449014,緯度経度は怪しい
愛媛県,西予市,4-7,土居149-5,下土居バス停付近ガードパイプ,33.3743436,132.6449014,緯度経度は怪しい
愛媛県,西予市,4-8,窪野1178,串屋集会所前ガードレール,,,削除
愛媛県,西予市,4-9,窪野2578-2,城川自然牧場横ガードレール,,,削除
愛媛県,西予市,4-10,古市270-4,伏越集会所前ガードパイプ,,,削除
愛媛県,西予市,4-11,古市2038-1,古市消防詰所横ガードレール,,,削除
愛媛県,西予市,4-12,高野子123,高川地域づくり活動センター前ガードパイプ,33.354093,132.79557,緯度経度は怪しい
愛媛県,西予市,4-13,高野子451,菊之谷集会所前ガードパイプ,33.354093,132.79557,緯度経度は怪しい
愛媛県,西予市,4-14,高野子2677,八幡橋横ガードレール,33.354093,132.79557,緯度経度は怪しい
愛媛県,西予市,4-15,川津南3817,masked,,,削除
愛媛県,西予市,4-16,川津南3625,東宇和農協川津南委託店前擁壁,,,削除
愛媛県,西予市,4-17,嘉喜尾4825-2,魚成橋付近ガードパイプ,,,削除
愛媛県,西予市,4-18,嘉喜尾2725,吉之沢入口国道ガードパイプ,,,削除
愛媛県,西予市,4-19,嘉喜尾4235-1,杭集会所前擁壁,,,削除
愛媛県,西予市,4-20,魚成950,中津川神田橋横ガードレール,33.38645794348607,132.7189102206548,緯度経度は怪しい
愛媛県,西予市,4-21,魚成3672,魚成地域づくり活動センター入口ガードレール,33.38645794348607,132.7189102206548,緯度経度は怪しい
愛媛県,西予市,4-22,魚成5837,今田集会所横ガードレール,33.38645794348607,132.7189102206548,緯度経度は怪しい
愛媛県,西予市,4-23,魚成7473,成穂集会所前ガードレール,33.38645794348607,132.7189102206548,緯度経度は怪しい
愛媛県,西予市,4-24,下相2320,下相安家谷分岐ガードレール,33.3763487,132.7408513,緯度経度は怪しい
愛媛県,西予市,4-25,下相1012,城川支所前バス停横ガードパイプ,,,削除
愛媛県,西予市,4-26,田穂658,田穂消防詰所前ガードパイプ,33.37135612377797,132.6885113396899,緯度経度は怪しい
愛媛県,西予市,4-27,男河内1812,男河内集会所前ガードレール,33.3963096,132.7249637,緯度経度は怪しい
愛媛県,西予市,5-1,津布理3450-7,旧宇和高等学校三瓶分校フェンス,33.376309321680836, 132.42367525846976,
愛媛県,西予市,5-2,津布理151-3,谷道川沿いガードレール,33.37539324032097, 132.4279333382844,
愛媛県,西予市,5-3,安土536,masked,,,削除
愛媛県,西予市,5-4,有網代78,masked,33.3756769,132.4144683,緯度経度は怪しい
愛媛県,西予市,5-5,朝立7-286-52,旧西予市三瓶支所前公園フェンス,33.3933945119007,132.4208750905565,緯度経度は怪しい
愛媛県,西予市,5-6,朝立6-153-20,masked,33.3933945119007,132.4208750905565,緯度経度は怪しい
愛媛県,西予市,5-7,朝立2-1-7,三瓶病院前ガードレール,33.3933945119007,132.4208750905565,緯度経度は怪しい
愛媛県,西予市,5-8,朝立1-438-21,西宇和農協柑橘選果場フェンス,33.3933945119007,132.4208750905565,緯度経度は怪しい
愛媛県,西予市,5-9,垣生1450,masked,33.38442,132.4109051,緯度経度は怪しい
愛媛県,西予市,5-10,垣生364-1,丸山英児氏所有ブロック塀,33.38442,132.4109051,緯度経度は怪しい
愛媛県,西予市,5-11,和泉486-1,下和泉バス停前ガードパイプ,33.3762185,132.4047311,緯度経度は怪しい
愛媛県,西予市,5-12,鴫山丙176,西宇和農協鴫山事業所跡板壁,33.4094298,132.4197253,緯度経度は怪しい
愛媛県,西予市,5-13,有太刀715-3,masked,33.3619842,132.4163086,緯度経度は怪しい
愛媛県,西予市,5-14,蔵貫浦787,masked,33.3562822,132.4212357,緯度経度は怪しい
愛媛県,西予市,5-15,蔵貫514-2,井上建設（株）資材置場支柱,33.3503845,132.4380759,緯度経度は怪しい
愛媛県,西予市,5-16,皆江1882-1,masked,33.343329,132.4112887,緯度経度は怪しい
愛媛県,西予市,5-17,皆江1025,皆江大橋前ブロック塀,33.343329,132.4112887,緯度経度は怪しい
愛媛県,西予市,5-18,皆江68,枯井野積場,33.343329,132.4112887,緯度経度は怪しい
愛媛県,西予市,5-19,二及1-10,masked,33.377145,132.4064946,緯度経度は怪しい
愛媛県,西予市,5-20,二及1-354,masked,33.3771919,132.405114,緯度経度は怪しい
愛媛県,西予市,5-21,長早3-24-1,長早児童遊園地ブロック塀,,,削除
愛媛県,西予市,5-22,長早3-722-1,西中水産有限会社鉄柱,,,削除
愛媛県,西予市,5-23,周木1-321,周木老人憩いの家ブロック塀,33.3725501,132.3889518,緯度経度は怪しい
愛媛県,西予市,5-24,周木6-192-1,周木診療所前フェンス,33.3753717,132.3892848,緯度経度は怪しい
愛媛県,西予市,5-25,下泊292,神子の浦バス停横ガードレール,33.337466,132.38819,緯度経度は怪しい
愛媛県,西予市,5-26,下泊690-2,旧西宇和農協下泊出張所前ガードレール,33.337466,132.38819,緯度経度は怪しい
