prefecture,city,number,address,name,lat,long
愛媛県,西条市,1,西条市下島山乙101-4,オレンジハイツ北入口駐車場,33.92718047,133.2350352
愛媛県,西条市,2,西条市飯岡1241-135,オレンジハイツ南入口東側,33.92226596,133.2352762
愛媛県,西条市,3,西条市飯岡1392,野田児童遊園,33.91868326,133.2308381
愛媛県,西条市,4,西条市飯岡2163-14,カットスタジオJBOY南側,33.9183705,133.2275393
愛媛県,西条市,5,西条市飯岡366,東予ファミリーハイツ進入路,33.9194588,133.2434344
愛媛県,西条市,6,西条市飯岡2617-1,西原①,33.91708653,133.224205
愛媛県,西条市,7,西条市飯岡2509地先,グリーンハイツ①,33.91324436,133.2284235
愛媛県,西条市,8,西条市飯岡1798-1,池の内①,33.92203722,133.2203674
愛媛県,西条市,9,西条市飯岡4073-3,浪多川橋西,33.92080141,133.2130984
愛媛県,西条市,10,西条市飯岡3574-6地先,(株)愛翔北側,33.9154664,133.2089772
愛媛県,西条市,11,西条市飯岡3112,長屋敷①,33.91380953,133.2159217
愛媛県,西条市,12,西条市飯岡3120-5,山本児童遊園東側,33.91273759,133.2163932
愛媛県,西条市,13,西条市飯岡2565-1,松本橋西,33.91392409,133.2231926
愛媛県,西条市,14,西条市飯岡2680,四国電力送配電㈱西条変電所前,33.91268425,133.2250539
愛媛県,西条市,15,西条市飯岡3702-2地先,戻川みんなの広場グラウンド北,33.918427,133.2129053
愛媛県,西条市,16,飯岡3563,コマツ教習所㈱愛媛センタ東側,33.91445402,133.2109825
愛媛県,西条市,17,下島山2659,大谷東①,33.92866936,133.2348837
愛媛県,西条市,18,下島山2228,大谷西①,33.92851993,133.2278881
愛媛県,西条市,19,下島山甲193,川北①,33.92682648,133.2128155
愛媛県,西条市,20,西条市下島山甲1-205,生涯学習の館西側,33.93076203,133.2103122
愛媛県,西条市,21,下島山甲902-4,川南①,33.92489034,133.209685
愛媛県,西条市,22,下島山771,川南②,33.92616937,133.2118149
愛媛県,西条市,23,下島山甲688,中土居①,33.92521202,133.2160298
愛媛県,西条市,24,西条市下島山甲2055-88地先,下島山児童遊園（グラウンド）北側,33.92704829,133.2185468
愛媛県,西条市,25,西条市玉津406,玉津①,33.9241355,133.2015671
愛媛県,西条市,26,西条市玉津200-1,玉津小学校西側,33.92194528,133.2005973
愛媛県,西条市,27,西条市明神木182-37,伊藤理容室東側,33.92087156,133.1964753
愛媛県,西条市,28,西条市朔日市147-1,森島建設北側待避所,33.92380856,133.1963671
愛媛県,西条市,29,西条市新田41,鉄工団地南海工業住宅西側,33.92982732,133.1953001
愛媛県,西条市,30,西条市新田61-5地先,渦井川大橋下待避所,33.93133481,133.1964313
愛媛県,西条市,31,西条市玉津278-4,玉津橋南交差点南西,33.92241262,133.1977635
愛媛県,西条市,32,西条市玉津591,玉津団地入口,33.93215827,133.1978784
愛媛県,西条市,33,西条市玉津591,玉津団地南入口西側,33.93112312,133.1992003
愛媛県,西条市,34,西条市船屋甲567-2,船屋西南①,33.9358701,133.2047709
愛媛県,西条市,35,西条市船屋甲433-5,船屋東北①,33.9386183,133.206404
愛媛県,西条市,36,西条市船屋甲519-3,川上汽缶倉庫,33.93262724,133.2037123
愛媛県,西条市,37,西条市船屋甲609,船屋東北②,33.93755554,133.2054167
愛媛県,西条市,38,船屋甲1400地先,渡辺マンション南西側待避所,33.93393203,133.2037593
愛媛県,西条市,39,西条市玉津741-2,市塚新街①,33.93433589,133.1927734
愛媛県,西条市,40,西条市朔日市895-2,西条運動公園駐車場南側,33.93462803,133.1891407
愛媛県,西条市,41,西条市朔日市833-3地先,ケーアイ(株)西条工場東側,33.93135822,133.1852435
愛媛県,西条市,42,西条市大町620,せんい服地のマツケ南側駐車場,33.92037754,133.188464
愛媛県,西条市,43,西条市朔日市584,朔日市四区①,33.92340084,133.1841246
愛媛県,西条市,44,朔日市400-1,西条北中学校東側,33.92120778,133.1879419
愛媛県,西条市,45,西条市大町617,山元眼科東側,33.91922356,133.18856
愛媛県,西条市,46,朔日市400-1,西条北中学校北側,33.92146796,133.1860155
愛媛県,西条市,47,西条市大町829-1,駅二区南①,33.91537203,133.1855078
愛媛県,西条市,48,西条市大町681-1,伊予銀行西条支店南側,33.91836134,133.1859574
愛媛県,西条市,49,西条市明屋敷131-2,SAIJO BASE西入口,33.92262553,133.180044
愛媛県,西条市,50,西条市明屋敷131-2,SAIJO BASE東側,33.92280281,133.1809547
愛媛県,西条市,51,西条市神拝乙117,(株)銅元北側,33.9256132,133.17905
愛媛県,西条市,52,西条市朔日市796,DCM西条店西側,33.9286689,133.1778821
愛媛県,西条市,53,西条市朔日市892,クラレ所有地バス停西側,33.92973035,133.1781476
愛媛県,西条市,54,西条市新田218-21,西条公民館前,33.9261288,133.1811402
愛媛県,西条市,55,西条市朔日市804地先,西条中央病院前,33.92942037,133.1798716
愛媛県,西条市,56,港新地325,港新地真空ポンプ場,33.92840959,133.1577205
愛媛県,西条市,57,港新地497,藤田養魚場北側,33.93065661,133.1640426
愛媛県,西条市,58,港1-1,栗田鋳造東側,33.9256059,133.1673376
愛媛県,西条市,59,西条市朔日市46,横黒西①,33.92107157,133.1908137
愛媛県,西条市,60,西条市大町393-3,ビレッジハウス大町宿舎南東,33.91728882,133.195011
愛媛県,西条市,61,西条市大町410-1,西条児童館入口西側,33.91837743,133.1929057
愛媛県,西条市,62,西条市大町755-1,朝日町①,33.91422031,133.1906409
愛媛県,西条市,63,西条市大町582-12,米田外科所有地,33.91728433,133.1895443
愛媛県,西条市,64,西条市大町776-2,エクストールイン前ルミエール駐車場,33.91379108,133.1892877
愛媛県,西条市,65,西条市大町410-1,西条市民公園南駐車場入口北側,33.91622876,133.1920796
愛媛県,西条市,66,西条市明屋敷60,市役所庁舎別館駐車場東側,33.92002611,133.1822473
愛媛県,西条市,67,西条市明屋敷162-3,市役所庁舎駐輪場,33.920137,133.1812823
愛媛県,西条市,68,西条市明屋敷238-2,五百亀記念館東側歩道,33.91919139,133.1794368
愛媛県,西条市,69,西条市明屋敷282-1,八千代巷①,33.91865793,133.1773528
愛媛県,西条市,70,西条市明屋敷438-2,滋巷①,33.92130433,133.1782389
愛媛県,西条市,71,西条市神拝甲559,ＪＡ水都市南側歩道沿,33.91764282,133.1778518
愛媛県,西条市,72,西条市大町1623-1,新町上①,33.91512267,133.1832881
愛媛県,西条市,73,西条市神拝甲324-2,総合福祉センター北側,33.91547092,133.1819588
愛媛県,西条市,74,西条市神拝甲427,神拝小学校南入口東側,33.91446534,133.1771115
愛媛県,西条市,75,西条市神拝甲150-1,（旧）産業情報支援センター正面道路,33.91179018,133.180983
愛媛県,西条市,76,喜多川372-1地先,伊予銀行喜多川支店東側,33.91512535,133.1720027
愛媛県,西条市,77,西条市喜多川155-1,上喜多川①,33.91109671,133.1771372
愛媛県,西条市,78,西条市喜多川253-2,上川原児童公園北側入口,33.91276269,133.1749688
愛媛県,西条市,79,西条市神拝甲466-1,四電神拝アパート,33.9166559,133.1770764
愛媛県,西条市,80,西条市神拝甲321,アクアトピア（理容塩崎東側）,33.91371352,133.1826314
愛媛県,西条市,81,西条市古川甲242地先,古川団地西側,33.91360838,133.1633606
愛媛県,西条市,82,西条市古川甲252,古川住宅集会所東側,33.91421968,133.1644492
愛媛県,西条市,83,西条市古川甲252,古川住宅北入口,33.91512511,133.1641519
愛媛県,西条市,84,西条市古川甲371,北団地東入口南側,33.91652778,133.1670186
愛媛県,西条市,85,西条市古川甲381,北団地南入口東側,33.91654477,133.1659722
愛媛県,西条市,86,西条市古川甲148-71,古川児童遊園東側,33.91630267,133.1573685
愛媛県,西条市,87,西条市古川甲311-1,砂盛公園西側,33.91391699,133.166879
愛媛県,西条市,88,西条市大町810-1,駅一区①,33.91401783,133.1868398
愛媛県,西条市,89,西条市大町1543,西条第一駐車場,33.91324789,133.1851362
愛媛県,西条市,90,西条市大町845-2,丹モータープール北側,33.91389777,133.1860019
愛媛県,西条市,91,西条市大町1228,中南①,33.90604044,133.1877422
愛媛県,西条市,92,西条市大町1183地先,加茂町①,33.90622477,133.1836896
愛媛県,西条市,93,西条市大町1315-1,矢野製材場西側,33.90722896,133.1851684
愛媛県,西条市,94,大町1281,中南②,33.90766031,133.1868833
愛媛県,西条市,95,西条市大町225-10,大町公民館西側,33.91066324,133.1922559
愛媛県,西条市,96,西条市大町257-2,新玉通①,33.91381954,133.1925242
愛媛県,西条市,97,西条市大町764,市営住宅内水路,33.91218469,133.1900666
愛媛県,西条市,98,西条市大町200-1,JAえひめ未来（旧）大町支所北側,33.90952094,133.1920806
愛媛県,西条市,99,西条市福武甲1007,沢①,33.9137508,133.1986765
愛媛県,西条市,100,西条市福武甲1643,上小川児童遊園,33.90755328,133.1944646
愛媛県,西条市,101,西条市福武甲907-4,沢②,33.91304159,133.2018253
愛媛県,西条市,102,西条市福武甲139,地蔵原児童遊園入口前,33.91035846,133.2090495
愛媛県,西条市,103,西条市福武甲1361地先,新田遊園地南側,33.90460283,133.1999567
愛媛県,西条市,104,西条市福武甲2052,西の川原①,33.90124606,133.1943896
愛媛県,西条市,105,西条市大町68-6,東部ｳｲﾝｸﾞｻﾎﾟｰﾄｾﾝﾀｰ駐車場南側,33.90596514,133.1922467
愛媛県,西条市,106,西条市福武甲180-1,(株)レクザム西条工場駐車場,33.91303772,133.2070902
愛媛県,西条市,107,西条市大町11-4,大南上①,33.90340524,133.1901365
愛媛県,西条市,108,西条市福武甲717-1,若葉町西①,33.90785669,133.2036669
愛媛県,西条市,109,中野甲481-8地先,愛媛県西条水防資材倉庫北側,33.90277582,133.1824644
愛媛県,西条市,110,中西399-1,中西①,33.90242815,133.1761805
愛媛県,西条市,111,西条市安知生235,河原町①,33.89747166,133.1702522
愛媛県,西条市,112,西条市洲之内甲520,新出①,33.89997074,133.1753525
愛媛県,西条市,113,洲之内甲200,神戸小学校体育館北側,33.9006189,133.1781319
愛媛県,西条市,114,西条市洲之内甲432地先,原①,33.89714548,133.1753049
愛媛県,西条市,115,西条市中野甲614-4,楠①,33.89956723,133.1818629
愛媛県,西条市,116,西条市洲之内甲1020,奥の内①,33.894864,133.1673448
愛媛県,西条市,117,中野乙180,舟形①,33.88705947,133.1869704
愛媛県,西条市,118,中野甲1548,伊曽乃神社鳥居前,33.89580243,133.1880493
愛媛県,西条市,119,西条市中野甲1273,釜の口①,33.89075539,133.1901428
愛媛県,西条市,120,西条市中野甲913-2,宮前橋北,33.89786234,133.1887043
愛媛県,西条市,121,西条市中野甲977,宵の原①,33.89592848,133.1916538
愛媛県,西条市,122,西条市禎瑞640,禎瑞中①,33.91346368,133.1517735
愛媛県,西条市,123,西条市禎瑞949,禎瑞下①,33.91580333,133.1503407
愛媛県,西条市,3,西条市古川乙162,市道禎瑞3号線西条スクラップ前,33.91153938,133.1558508
愛媛県,西条市,125,西条市禎瑞993,禎瑞下②,33.91750181,133.1487375
愛媛県,西条市,126,西条市禎瑞1829,禎瑞公民館南側,33.91473413,133.1403372
愛媛県,西条市,127,西条市禎瑞1776-1,八幡集会所西側,33.91392731,133.1356313
愛媛県,西条市,128,西条市禎瑞1930,高丸みんなの広場,33.91634704,133.1356335
愛媛県,西条市,129,西条市禎瑞1398地先,難波集会所南側,33.92517057,133.1324504
愛媛県,西条市,130,西条市西田甲600地先,佐伯塗装北西,33.89324683,133.1528405
愛媛県,西条市,131,樽木53-1,西条市青少年育成センター西側,33.89386606,133.1470921
愛媛県,西条市,132,樽木331-1,樽木西①,33.89383609,133.142578
愛媛県,西条市,133,西条市野々市129,野々市西①,33.89369018,133.1387231
愛媛県,西条市,134,西条市野々市51,ＮＴＴ氷見電話交換所,33.89511943,133.1385087
愛媛県,西条市,135,西条市西泉乙417,橘小学校東側,33.89229605,133.1471307
愛媛県,西条市,136,西条市坂元甲1-5,北山①,33.89033406,133.1382852
愛媛県,西条市,137,西条市西田甲419-4,はやま電機北側,33.89425252,133.1585301
愛媛県,西条市,138,西条市氷見乙270地先,安藤建設北側,33.90722796,133.1291735
愛媛県,西条市,139,西条市氷見甲147地先,蛭子①,33.91472094,133.1261865
愛媛県,西条市,140,西条市氷見乙215地先,新兵衛集会所北側,33.90733334,133.1305961
愛媛県,西条市,141,西条市氷見丙447-1,新御堂公園北西,33.89430988,133.1340385
愛媛県,西条市,142,西条市氷見乙780,新御堂①,33.89491893,133.1323243
愛媛県,西条市,143,西条市氷見丙1251-2,西町①,33.89369998,133.1206856
愛媛県,西条市,144,西条市氷見乙914,西条西部公園駐車場入口西側,33.89846303,133.1325454
愛媛県,西条市,145,西条市氷見乙1143-2,氷見小学校南側,33.8941478,133.1273215
愛媛県,西条市,146,西条市氷見乙1143-2,氷見小学校北入口西側,33.89517186,133.1277962
愛媛県,西条市,147,西条市氷見乙977-5,末長①,33.89715655,133.1305189
愛媛県,西条市,148,氷見乙1741-6,西の原公園東側,33.89445964,133.1261254
愛媛県,西条市,149,市之川6678-1,市之川公民館,33.89023961,133.2144502
愛媛県,西条市,150,荒川2号219-1地先,（旧）加茂地区公民館駐車場前,33.8679941,133.1805818
愛媛県,西条市,151,荒川2号185地先,加茂公民館駐車場,33.86512735,133.184627
愛媛県,西条市,152,藤之石7号181地先,下津池バス停西側,33.84706038,133.2157981
愛媛県,西条市,153,兎之山61,兎之山集会所駐車場南,33.87673549,133.1626904
愛媛県,西条市,154,黒瀬乙354,上の原瀬戸内バス待合所東側,33.8697941,133.1366656
愛媛県,西条市,155,中奥45,大保木公民館駐車場,33.83758094,133.1488392
愛媛県,西条市,156,西之川丙1,西之川集会所駐車場,33.80202066,133.1548132
愛媛県,西条市,201,西条市周布349-1,東予201＿西部支所西,33.92495392,133.083463
愛媛県,西条市,202,西条市周布349-1,東予202＿西部支所南トイレ横,33.92537372,133.0846251
愛媛県,西条市,203,西条市周布154-3,東予203＿平塚マンション南,33.92166683,133.0866894
愛媛県,西条市,204,西条市周布160,東予204＿東予東中学校西,33.91981902,133.0841644
愛媛県,西条市,205,西条市周布727-5,東予205＿(旧)コインランドリー抗菌王東予インター店北,33.91910097,133.0774893
愛媛県,西条市,206,西条市周布1462-1,東予206＿周布小学校東,33.91189867,133.0771093
愛媛県,西条市,207,西条市周布1411,東予207＿豊榮神社東,33.91358175,133.0779519
愛媛県,西条市,208,西条市吉田1106-1,東予208＿吉田①,33.90814993,133.0841376
愛媛県,西条市,209,西条市吉田211-1,東予209＿徳威神社南,33.90745453,133.0853438
愛媛県,西条市,210,西条市吉田431,東予210＿吉田②,33.90474186,133.0823384
愛媛県,西条市,211,西条市吉田305-1,東予211＿吉田③,33.90524892,133.0871304
愛媛県,西条市,212,西条市吉田601-2,東予212＿吉田④,33.90014515,133.077565
愛媛県,西条市,213,西条市玉之江230,東予213＿東宮神社東,33.91260288,133.1004951
愛媛県,西条市,214,西条市玉之江235-1,東予214＿吉井小学校北,33.91347741,133.1006176
愛媛県,西条市,215,西条市石田171-1,東予215＿石田①,33.91701513,133.1053639
愛媛県,西条市,216,西条市今在家89-2,東予216＿今在家集会所子供広場北,33.91712783,133.1111387
愛媛県,西条市,217,西条市今在家1-1,東予217＿三保神社北,33.9183891,133.1096611
愛媛県,西条市,218,西条市広江324-1,東予218＿広江公園西,33.92098116,133.1079671
愛媛県,西条市,219,西条市石田209-3,東予219＿石田②,33.91873169,133.1063527
愛媛県,西条市,220,西条市広江207-1,東予220＿広江①,33.9228252,133.1063466
愛媛県,西条市,221,西条市石田670-4,東予221＿石田③,33.90931318,133.0953015
愛媛県,西条市,222,西条市石田684-1,東予222＿石田ふれあい公園西,33.91033436,133.0942584
愛媛県,西条市,223,西条市石田615-1,東予223＿石田④,33.9126975,133.0921842
愛媛県,西条市,224,西条市吉田1210-1,東予224＿四国開発フェリー株式会社所有地東,33.91295128,133.0899658
愛媛県,西条市,225,西条市壬生川124-1,東予225＿防災ひろば南,33.93109867,133.0797157
愛媛県,西条市,226,西条市壬生川131,東予226＿周桑病院南,33.9317691,133.0787722
愛媛県,西条市,227,西条市壬生川104-5,東予227＿壬生川①,33.93367672,133.0815527
愛媛県,西条市,228,西条市壬生川425-2,東予228＿壬生川小学校西,33.93598981,133.0812071
愛媛県,西条市,229,西条市壬生川425-2,東予229＿壬生川小学校南,33.93544462,133.0819561
愛媛県,西条市,230,西条市壬生川92-8,東予230＿壬生川②,33.93414622,133.0822768
愛媛県,西条市,231,西条市壬生川323-1,東予231＿壬生川③,33.9364543,133.0841208
愛媛県,西条市,232,西条市壬生川494-1,東予232＿壬生川④,33.93774147,133.0859146
愛媛県,西条市,233,西条市大新田200-1,東予233＿大新田①,33.93865123,133.0878444
愛媛県,西条市,234,西条市壬生川554-3,東予234＿壬生川⑤,33.93979233,133.0864554
愛媛県,西条市,235,西条市壬生川631-1,東予235＿日立建機日本㈱南,33.94080151,133.0835688
愛媛県,西条市,236,西条市壬生川682-1,東予236＿北星会館南,33.94010007,133.0811481
愛媛県,西条市,237,西条市喜多台235,東予237＿喜多台永久庵西,33.93948196,133.0696075
愛媛県,西条市,238,西条市新市98-2,東予238＿市営当田団地西,33.93214317,133.069305
愛媛県,西条市,239,西条市喜多台68-1,東予239＿喜多台児童遊園地南,33.93703465,133.0714581
愛媛県,西条市,240,西条市円海寺90-4,東予240＿円海寺①,33.93125021,133.0766502
愛媛県,西条市,241,西条市円海寺190-2,東予241＿円海寺②,33.93315087,133.0746509
愛媛県,西条市,242,西条市円海寺312-4,東予242＿円海寺③,33.93106363,133.0708701
愛媛県,西条市,243,西条市明理川285-1,東予243＿明理川➀,33.92940017,133.0699619
愛媛県,西条市,244,西条市三津屋150-2,東予244＿パールボタン店駐車場東,33.93441779,133.08439
愛媛県,西条市,245,西条市三津屋143-1,東予245＿厳島神社（三津屋）西,33.93352171,133.0852755
愛媛県,西条市,246,西条市三津屋135,東予246＿三蔵院墓地北,33.9335139,133.0843713
愛媛県,西条市,247,西条市三津屋南7-46,東予247＿三津屋南①,33.9329787,133.0912201
愛媛県,西条市,248,西条市三津屋南9-10,東予248＿共立病院北,33.93199443,133.0888944
愛媛県,西条市,249,西条市三津屋東17-6,東予249＿三津屋東①,33.93614842,133.0928416
愛媛県,西条市,250,西条市三津屋南3-33,東予250＿三津屋南②,33.92853335,133.0886734
愛媛県,西条市,251,西条市北条372-1,東予251＿北条①,33.91974571,133.0962168
愛媛県,西条市,252,西条市北条259-1,東予252＿北条②,33.92488498,133.0928117
愛媛県,西条市,253,西条市北条544,東予253＿鶴岡八幡神社北,33.92707057,133.0921499
愛媛県,西条市,254,西条市北条654-1,東予254＿多賀公民館西,33.92662762,133.0949991
愛媛県,西条市,255,西条市北条797-4,東予255＿北条③,33.92984355,133.1048016
愛媛県,西条市,256,西条市北条1021-1,東予256＿北条④,33.93219339,133.106154
愛媛県,西条市,257,西条市北条1300-1,東予257＿北条新田公園東,33.93224935,133.102827
愛媛県,西条市,258,西条市北条1397-13,東予258＿北条新田会館東,33.9348991,133.0980386
愛媛県,西条市,259,西条市桑村131,東予259＿国安小学校北,33.9414644,133.0633966
愛媛県,西条市,260,西条市桑村127-1,東予260＿国安公民館東,33.94151731,133.0641648
愛媛県,西条市,261,西条市国安158-1,東予261＿国安市営住宅東,33.93877542,133.0648384
愛媛県,西条市,262,西条市新市362-1,東予262＿市消防団国安分団第６部詰所北,33.93538366,133.0613084
愛媛県,西条市,263,西条市国安902,東予263＿国安①,33.93775712,133.0585426
愛媛県,西条市,264,西条市国安625-6,東予264＿国安②,33.94472817,133.0631495
愛媛県,西条市,265,桑村184-8,東予265＿桑村①,33.9426769,133.0586528
愛媛県,西条市,266,西条市国安504-1,東予266＿国安③,33.94785874,133.0718799
愛媛県,西条市,267,西条市高田775-2,東予267＿高田①,33.95031101,133.0743739
愛媛県,西条市,268,西条市高田694-1,東予268＿高田防火水槽北,33.9517158,133.0769108
愛媛県,西条市,269,西条市上市甲8-1,東予269＿中村医院東,33.93172227,133.0575402
愛媛県,西条市,270,西条市安用甲662-1,東予270＿大影遊園地東,33.93018743,133.0572698
愛媛県,西条市,271,西条市安用甲311-1,東予271＿安用①,33.92542269,133.0448501
愛媛県,西条市,272,西条市広岡甲229-1,東予272＿広岡①,33.92912447,133.0471664
愛媛県,西条市,273,西条市石延168-3,東予273＿西条市広岡ポンプ場北,33.93092025,133.0459554
愛媛県,西条市,274,西条市広岡甲117-1,東予274＿吉岡小学校北,33.93275463,133.0488692
愛媛県,西条市,275,西条市新町268-1,東予275＿東予北保育所西,33.93547224,133.0538458
愛媛県,西条市,276,西条市上市甲622-1,東予276＿上市①,33.93712572,133.0424475
愛媛県,西条市,277,西条市三芳2026-9,東予277＿三芳①,33.95217016,133.0724986
愛媛県,西条市,278,西条市三芳1839-1,東予278＿日泉ポリテック㈱西条工場北,33.952329,133.0648453
愛媛県,西条市,279,西条市三芳1027-2,東予279＿三芳公民館西,33.95330778,133.0632803
愛媛県,西条市,280,西条市三芳1791-2,東予280＿三芳集会所西,33.95208717,133.0627732
愛媛県,西条市,281,西条市三芳1591-1,東予281＿（旧）杉野カメラ南,33.94810504,133.0598572
愛媛県,西条市,282,西条市三芳1211地先,東予282＿三芳小学校プール北,33.9520954,133.0598217
愛媛県,西条市,283,西条市三芳1273-5,東予283＿三芳②,33.95139842,133.0581942
愛媛県,西条市,284,西条市楠甲49地先,東予284＿臼井大師堂西,33.9571933,133.0578608
愛媛県,西条市,285,西条市楠甲348-18,東予285＿楠①,33.95976876,133.0579953
愛媛県,西条市,286,西条市楠甲123-2,東予286＿楠②,33.95925859,133.0604742
愛媛県,西条市,287,西条市楠甲1295-1,東予287＿河北会館北,33.96311459,133.0570424
愛媛県,西条市,288,西条市楠甲1491-3,東予288＿楠③,33.96510735,133.0536597
愛媛県,西条市,289,西条市河原津甲877-1,東予289＿河原津➀,33.969533,133.0544195
愛媛県,西条市,290,西条市河原津甲464-1,東予290＿楠河小学校北,33.964,133.06132
愛媛県,西条市,291,西条市楠甲223-44,東予291＿楠浜集会所東,33.96241657,133.0720614
愛媛県,西条市,292,西条市河原津甲109-1,東予292＿磯邊神社南西,33.96521484,133.0687507
愛媛県,西条市,293,西条市河原津甲123,東予293＿道場寺東,33.966644,133.0669708
愛媛県,西条市,294,西条市河原津甲386-5,東予294＿あすなろ歯科南,33.96721874,133.065044
愛媛県,西条市,295,西条市河原津甲238-58,東予295＿川又商店西,33.96893502,133.0665282
愛媛県,西条市,296,西条市河原津甲251地先,東予296＿河原津集会所北,33.97018334,133.0649147
愛媛県,西条市,297,西条市河原津甲290-4,東予297＿河原津②,33.97182939,133.0627101
愛媛県,西条市,298,西条市河原津甲1111-1,東予298＿河原津③,33.97368676,133.0625197
愛媛県,西条市,299,西条市宮之内42-1,東予299＿宮内神社北,33.94609487,133.0537818
愛媛県,西条市,300,西条市大野348-6,東予300＿大野①,33.94425743,133.0488942
愛媛県,西条市,301,西条市福成寺甲355-1,東予301＿ＪＡ周桑北部センター給油所前駐車場東,33.95036359,133.0490413
愛媛県,西条市,302,西条市福成寺甲144-1,東予302＿福成寺①,33.94835245,133.0419938
愛媛県,西条市,303,西条市旦之上甲757-1,東予303＿（ 旧）庄内保育所駐車場西,33.94568092,133.0374765
愛媛県,西条市,304,西条市旦之上甲292-1,東予304＿庄内公民館東,33.94407608,133.0387892
愛媛県,西条市,305,西条市旦之上甲618,東予305＿庄内小学校南,33.94314093,133.0352975
愛媛県,西条市,306,西条市旦之上甲510-1,東予306＿旦之上➀,33.9406702,133.0324121
愛媛県,西条市,307,西条市黒谷甲434-1,東予307＿黒谷集会所前生活道,33.95129947,133.0043267
愛媛県,西条市,308,西条市河之内甲486-2,東予308＿本谷温泉館駐車場,33.92861568,133.0219347
愛媛県,西条市,309,西条市河之内甲679-1,東予309＿市消防団庄内分団第２部詰所南,33.93695693,133.028816
愛媛県,西条市,310,西条市旦之上甲809-2,東予310＿旦之上②,33.94000427,133.0304267
愛媛県,西条市,311,西条市実報寺甲130-2,東予311＿実報寺①,33.95387807,133.0512319
愛媛県,西条市,312,西条市実報寺甲822-1,東予312＿実報寺②,33.9570974,133.0436346
愛媛県,西条市,313,西条市実報寺甲792-1,東予313＿実報寺青年会堂北,33.95632092,133.0447829
愛媛県,西条市,401,西条市丹原町池田1778-1,丹原401＿丹原小学校,33.90624534,133.0624259
愛媛県,西条市,402,西条市丹原町願連寺163,丹原402＿丹原高等学校,33.90902838,133.0676406
愛媛県,西条市,403,西条市丹原町願連寺245,丹原403＿ルミエール周桑西側　（旧）くろ～ば～,33.90806513,133.0641405
愛媛県,西条市,404,西条市丹原町今井83-4地先,丹原404＿今井①,33.89869888,133.0566292
愛媛県,西条市,405,西条市丹原町池田978-78地先,丹原405＿白金団地東入り口,33.91025831,133.0577517
愛媛県,西条市,406,西条市丹原町池田777地先,丹原406＿池田①,33.91186216,133.058662
愛媛県,西条市,407,西条市丹原町願連寺20-8,丹原407＿願連寺①,33.89986708,133.060141
愛媛県,西条市,408,西条市丹原町願連寺529-1,丹原408＿農協営農管理センター（カントリーエレベーター入口）,33.91554841,133.069606
愛媛県,西条市,409,西条市丹原町願連寺344-1,丹原409＿願連寺消防ポンプ蔵置所北（田）,33.9127965,133.0663559
愛媛県,西条市,410,西条市丹原町願連寺442ー1,丹原410＿（旧）西消防署,33.91230809,133.067858
愛媛県,西条市,411,西条市丹原町池田438-1,丹原411＿願連寺②,33.9184559,133.0694185
愛媛県,西条市,412,西条市丹原町池田501-1,丹原412＿古田新出住宅,33.92128052,133.0664605
愛媛県,西条市,413,西条市丹原町徳能出作125-1,丹原413＿徳能出作集会所南駐車場,33.92342029,133.0624186
愛媛県,西条市,414,西条市丹原町古田甲18-2,丹原414＿古田①,33.92300965,133.0678341
愛媛県,西条市,415,高知724-4地先,丹原415＿高知集会所前,33.91992181,133.0444969
愛媛県,西条市,416,西条市丹原町高知甲640-4,丹原416＿高知①,33.92046247,133.0465196
愛媛県,西条市,417,西条市丹原町徳能甲557,丹原417＿徳能①,33.91259425,133.0429449
愛媛県,西条市,418,西条市丹原町徳能甲428-3地先,丹原418＿徳能②,33.9116621,133.0452913
愛媛県,西条市,419,西条市丹原町古田甲819-1,丹原419＿古田②,33.90780565,133.0425354
愛媛県,西条市,420,西条市丹原町久妙寺甲568-1地先,丹原420＿今井鉄工所前北側,33.90635255,133.0502575
愛媛県,西条市,421,西条市丹原町久妙寺甲171-5,丹原421＿久妙寺①,33.90329934,133.0478594
愛媛県,西条市,422,久妙寺甲671,丹原422＿久妙寺プール,33.90453525,133.0504199
愛媛県,西条市,423,西条市丹原町田野上方698-4,丹原423＿（旧）農協光下田出張所,33.89339451,133.0643268
愛媛県,西条市,424,西条市丹原町北田野224,丹原424＿(有)越智建装　南側,33.89642523,133.0640724
愛媛県,西条市,425,西条市丹原町田野上方276-1,丹原425＿南部児童遊園,33.89532279,133.0668663
愛媛県,西条市,426,西条市丹原町北田野338,丹原426＿北田野①,33.89772936,133.0605512
愛媛県,西条市,427,西条市丹原町北田野133,丹原427＿北田野②,33.89895546,133.0664629
愛媛県,西条市,428,西条市丹原町北田野958,丹原428＿土居庵北東,33.8885047,133.052251
愛媛県,西条市,429,西条市丹原町田野上方1268-1地先,丹原429＿田野上方①,33.88427163,133.0577332
愛媛県,西条市,430,西条市丹原町田野上方1563,丹原430＿宮下集会所,33.88399196,133.0551054
愛媛県,西条市,431,田野上方2098-1,丹原431＿田野小学校,33.87994417,133.0453444
愛媛県,西条市,432,西条市丹原町高松甲1517-3,丹原432＿周桑農協西部センター,33.88031184,133.0371019
愛媛県,西条市,433,西条市丹原町長野665,丹原433＿本願寺前,33.87347199,133.0421588
愛媛県,西条市,434,高松甲1214地先,丹原434＿林地区西側入口,33.88496095,133.036714
愛媛県,西条市,435,高松２２０８-6地先,丹原435＿高松児童遊園,33.88180393,133.0306696
愛媛県,西条市,436,西条市丹原町高松甲458-2,丹原436＿高松①,33.89177081,133.0468908
愛媛県,西条市,437,西条市丹原町川根甲779,丹原437＿川根①,33.88971707,133.0322136
愛媛県,西条市,438,西条市丹原町川根409地先,丹原438＿東川根集会所南西,33.89646579,133.0345064
愛媛県,西条市,439,高松甲2279-7,丹原439＿田滝①,33.88048663,133.0179075
愛媛県,西条市,440,高松甲2266-1,丹原440＿田滝小学校,33.88054293,133.0202504
愛媛県,西条市,441,西条市丹原町関屋甲410-1,丹原441＿関屋①,33.87236204,133.0201465
愛媛県,西条市,442,関屋甲369-3,丹原442＿関屋集会所横広場,33.87413983,133.0100975
愛媛県,西条市,443,西条市丹原町石経1079地先,丹原443＿石経橋西,33.86805616,133.0376018
愛媛県,西条市,444,西条市丹原町石経591-3,丹原444＿石経①,33.86450796,133.0295676
愛媛県,西条市,445,石経548,丹原445＿石経②,33.86481671,133.0319034
愛媛県,西条市,446,西条市丹原町来見1-122,丹原446＿中川小学校,33.8642875,133.0271582
愛媛県,西条市,447,西条市丹原町来見714,丹原447＿来見児童遊園地,33.86385464,133.021866
愛媛県,西条市,448,来見149-1,丹原448＿来見集会所,33.86190333,133.0215195
愛媛県,西条市,449,来見331地先,丹原449＿臼坂入口バス停,33.85709328,133.0128485
愛媛県,西条市,450,西条市丹原町寺尾甲405-3,丹原450＿寺尾児童遊園地,33.86119473,133.0427228
愛媛県,西条市,451,西条市丹原町湯谷口甲230-1,丹原451＿湯谷口バス停（空地）,33.85684595,133.0180226
愛媛県,西条市,452,志川223-2,丹原452＿志川①,33.85744461,133.0264089
愛媛県,西条市,453,志川甲354,丹原453＿志川②,33.85865095,133.033024
愛媛県,西条市,454,明穂乙184-1,丹原454＿明穂集会所,33.86635816,133.0486977
愛媛県,西条市,455,西条市丹原町来見乙26-2,丹原455＿高齢者生活福祉センター,33.85736812,133.0097108
愛媛県,西条市,456,西条市丹原町臼坂丙34,丹原456＿臼坂集会所前,33.85507319,133.0034776
愛媛県,西条市,457,千原甲268,丹原457＿千原集会所,33.82406636,132.9876601
愛媛県,西条市,458,西条市丹原町鞍瀬甲340,丹原458＿鞍瀬①,33.84252843,133.007354
愛媛県,西条市,459,鞍瀬甲792,丹原459＿磐根神社前（高座）,33.83619429,133.0120904
愛媛県,西条市,460,西条市丹原町明河乙613,丹原460＿下影地区入口市道,33.79689652,133.0382126
愛媛県,西条市,461,西条市丹原町楠窪癸463,丹原461＿楠窪集会所 敷地,33.83422873,133.0442293
愛媛県,西条市,501,西条市小松町新屋敷甲2696-1,小松501＿新屋敷①,33.89064885,133.1155075
愛媛県,西条市,502,西条市小松町新屋敷甲3062-30,小松502＿小松公民館第2駐車場,33.89262148,133.1167129
愛媛県,西条市,503,西条市小松町新屋敷甲2878,小松503＿小松キリスト教会前,33.89390168,133.1179507
愛媛県,西条市,504,西条市小松町新屋敷甲3008,小松504＿本善寺墓地西,33.89319156,133.1160779
愛媛県,西条市,505,西条市小松町新屋敷甲496,小松505＿小松サービスセンター東駐車場,33.89673106,133.1129223
愛媛県,西条市,506,西条市小松町新屋敷甲261-1,小松506＿小松小学校プール東,33.8960891,133.1117312
愛媛県,西条市,507,西条市小松町新屋敷甲1323-7,小松507＿新宮踏切南,33.89820576,133.1057748
愛媛県,西条市,508,西条市小松町新屋敷甲2210-2,小松508＿小松学校給食センター,33.89616094,133.1082426
愛媛県,西条市,509,西条市小松町新屋敷甲2422-1,小松509＿藍刈県営住宅公園前,33.89155755,133.1113021
愛媛県,西条市,510,西条市小松町新屋敷甲158-2,小松510＿新屋敷②,33.89635199,133.1186929
愛媛県,西条市,511,西条市小松町新屋敷甲97-1,小松511＿新屋敷③,33.89976785,133.1187477
愛媛県,西条市,512,西条市小松町新屋敷甲128-1,小松512＿一之宮団地遊休地,33.89896334,133.1160364
愛媛県,西条市,513,西条市小松町新屋敷甲535-4,小松513＿新屋敷④,33.89897111,133.1117091
愛媛県,西条市,514,西条市小松町新屋敷甲566-5,小松514＿新屋敷⑤,33.90069813,133.1130136
愛媛県,西条市,515,西条市小松町新屋敷甲2272-4,小松515＿新屋敷⑥,33.8950787,133.1048763
愛媛県,西条市,516,西条市小松町南川甲76-2,小松516＿（旧）ヤマサンセンター駐車場西,33.89562686,133.1016625
愛媛県,西条市,517,西条市小松町南川甲208,小松517＿小松中学校プール東,33.89307816,133.097351
愛媛県,西条市,518,西条市小松町南川甲302-2,小松518＿小松西保育所北角市道,33.8978585,133.0991386
愛媛県,西条市,519,西条市小松町南川甲341-1,小松519＿南川揚水機場前,33.89626815,133.0975132
愛媛県,西条市,520,西条市小松町北川138-1,小松520＿北川自治会駐車場,33.89979527,133.0911533
愛媛県,西条市,521,西条市小松町北川249地先,小松521＿小松町北川249地先市道,33.899057,133.08792
愛媛県,西条市,522,西条市小松町北川62-4,小松522＿大開第２団地公園前,33.8967347,133.0933304
愛媛県,西条市,523,西条市小松町大頭甲1045,小松523＿石根公民館前,33.88409826,133.0742699
愛媛県,西条市,524,西条市小松町大頭甲451-6地先,小松524＿西大頭自治会ｺﾞﾐｽﾃｰｼｮﾝ東側市道,33.88117238,133.0705587
愛媛県,西条市,525,西条市小松町大頭甲98-1,小松525＿大頭①,33.88081467,133.0746479
愛媛県,西条市,526,西条市小松町大頭甲484,小松526＿大頭②,33.87963355,133.0717636
愛媛県,西条市,527,西条市小松町大頭甲611-5,小松527＿石根ふれあい公園前,33.87798676,133.0704922
愛媛県,西条市,528,西条市小松町妙口甲498ー1,小松528＿妙口①,33.88136793,133.0808296
愛媛県,西条市,529,西条市小松町妙口甲981ー1,小松529＿妙口②,33.88495328,133.0793661
愛媛県,西条市,530,西条市小松町妙口甲1250-4,小松530＿妙口長田線国道１１号線バイパス前,33.89220892,133.0843424
愛媛県,西条市,531,西条市小松町妙口甲78-1地先,小松531＿コカ・コーラ小松第１工場南側市道,33.88977095,133.0899129
愛媛県,西条市,532,西条市小松町妙口甲29-2,小松532＿小松武道館,33.89186509,133.0921601
愛媛県,西条市,533,西条市小松町妙口甲1556-3,小松533＿妙口③,33.89414389,133.0918983
愛媛県,西条市,534,西条市小松町大郷甲239-1,小松534＿大郷①,33.86802456,133.0790105
愛媛県,西条市,535,西条市小松町大郷甲406-1,小松535＿ｺｶ･ｺｰﾗﾎﾞﾄﾗｰｽﾞｼﾞｬﾊﾟﾝ㈱小松機材センター,33.86399908,133.0796889
愛媛県,西条市,536,西条市小松町明穂甲193,小松536＿明穂①,33.87432264,133.0621563
愛媛県,西条市,537,西条市小松町安井甲474-6地先,小松537＿小松町安井甲474－6地先市道,33.87189018,133.0543175
愛媛県,西条市,538,西条市小松町安井甲117,小松538＿安井①,33.86845134,133.0562603
