prefecture,city,number,address,name,lat,long,note
北海道,むかわ町,1-1,豊城146番地1,masked,42.5887673,141.9440026,
北海道,むかわ町,1-2,青葉2丁目91番地1,masked,42.58018,141.9270733,
北海道,むかわ町,1-3,福住2丁目61番地,福住たこ公園前福住,42.581179,141.9243768,
北海道,むかわ町,1-4,松風2丁目4番地,ボヌール松風前松風,42.57391639999999,141.932843,
北海道,むかわ町,1-5,美幸2丁目88番地,むかわ町役場前美幸,42.5748049,141.9267718,
北海道,むかわ町,1-6,末広2丁目124番地,ツルハドラッグむかわ店前末広,42.5768267,141.9268654,
北海道,むかわ町,1-7,末広2丁目7番,JR鵡川駅前末広,42.5779964,141.9252476,
北海道,むかわ町,1-8,文京3丁目4番地1,鵡川町民体育館前文京,42.5768737,141.9186905,
北海道,むかわ町,1-9,洋光51番地,洋光団地前洋光,42.57171530000001,141.9308928,
北海道,むかわ町,1-10,若草4番地2,若草団地前若草,42.5723898,141.9256735,
北海道,むかわ町,1-11,駒場126番地,若草町民会館前駒場,42.5735266,141.9201529,
北海道,むかわ町,2-12,二宮41番地1,masked,42.614531,141.9251385,
北海道,むかわ町,2-13,二宮321番地3,生涯学習センター「報徳館」前二宮,42.6298223,141.9554402,
北海道,むかわ町,2-14,豊城421番地4,masked,42.6055011,141.9456356,緯度経度は怪しい
北海道,むかわ町,3-15,豊城324番地6,masked,42.5978235,141.9529074,
北海道,むかわ町,3-16,田浦74番地3,masked,42.6005968,141.9068321,緯度経度は怪しい
北海道,むかわ町,3-17,田浦209番地2,熊野神社前田浦,42.6011207,141.8976741,緯度経度は怪しい
北海道,むかわ町,3-18,田浦187番地4,明星会館前田浦,42.5896355,141.9201379,緯度経度は怪しい
北海道,むかわ町,3-19,田浦199番地17,川西第１集落センター前田浦,42.5979201,141.9093153,緯度経度は怪しい
北海道,むかわ町,3-20,田浦268番地9,あつまバス田浦停留所前田浦,42.5942177,141.9237416,
北海道,むかわ町,3-21,田浦732番地1,開拓記念碑前田浦,42.6005968,141.9068321,緯度経度は怪しい
北海道,むかわ町,3-22,田浦658番地,masked,42.6035543,141.9245621,
北海道,むかわ町,4-23,宮戸829番地2,masked,42.5797567,141.9584889,緯度経度は怪しい
北海道,むかわ町,4-24,宮戸715番地8,川東第１集落センター前宮戸,42.5750988,141.9722551,緯度経度は怪しい
北海道,むかわ町,4-25,宮戸1088番地2,旧宮戸小学校前宮戸,42.5748088,141.9604662,緯度経度は怪しい
北海道,むかわ町,4-26,宮戸576番地4,masked,42.578122,141.9550368,緯度経度は怪しい
北海道,むかわ町,4-27,米原396番地3,道南バス汐見入口停留所前汐見,42.56525269999999,142.0001223,
北海道,むかわ町,4-28,汐見416番地2,汐見生活館前汐見,42.5669323,141.9489601,緯度経度は怪しい
北海道,むかわ町,4-29,宮戸76番,イモッペ生活館前宮戸,42.5749413,141.9477039,緯度経度は怪しい
北海道,むかわ町,4-30,米原921番地2,道南バス米原停留所前米原,42.56525269999999,142.0001223,
北海道,むかわ町,4-31,米原364番地7,米原会館前米原,42.5667483,141.9911522,緯度経度は怪しい
北海道,むかわ町,5-32,汐見42番地3,masked,42.5524665,141.954159,緯度経度は怪しい
北海道,むかわ町,5-33,汐見751番地,鵡川漁業協同組合集荷場前汐見,42.5484806,141.9397757,緯度経度は怪しい
北海道,むかわ町,5-34,汐見18番地4,元小野育成牧場前汐見,42.5524665,141.954159,緯度経度は怪しい
北海道,むかわ町,6-35,春日342番地,masked,42.5925498,142.0044822,緯度経度は怪しい
北海道,むかわ町,6-36,春日165番地5,萠別生活館前春日,42.58935899999999,141.9950295,緯度経度は怪しい
北海道,むかわ町,6-37,春日190番地2,春日生活館前春日,42.5833664,141.9987228,緯度経度は怪しい
北海道,むかわ町,7-38,花岡310番地1,旧たんぽぽ保育所前花岡,42.5747889,142.0169783,緯度経度は怪しい
北海道,むかわ町,7-39,花岡710番地2,道南バス花岡二区停留所前花岡,42.5725602,142.0452297,緯度経度は怪しい
北海道,むかわ町,7-40,生田626番地2,masked,42.5875213,142.0525357,
北海道,むかわ町,7-41,生田442番地,川東第２集落センター前生田,42.5925844,142.070428,緯度経度は怪しい
北海道,むかわ町,7-42,生田182番地11,masked,42.5923697,142.0629238,緯度経度は怪しい
北海道,むかわ町,7-43,旭岡58番地3,旭岡生活館前旭岡,42.6070755,142.0773011,緯度経度は怪しい
北海道,むかわ町,7-44,有明38番地1,有明集会所前有明,42.61375109999999,142.0910669,緯度経度は怪しい
北海道,むかわ町,8-45,穂別栄57番地1,旧仁湾郵便局跡地前穂別栄,42.659583,142.0680162,緯度経度は怪しい
北海道,むかわ町,8-46,穂別栄106番地7,旧栄第２会館跡地前穂別栄,42.6670011,142.0527041,緯度経度は怪しい
北海道,むかわ町,8-47,穂別仁和198番地3,仁和下生活館前駐車場穂別仁和,42.6563425,142.1027304,
北海道,むかわ町,8-48,穂別仁和291番地5,栄入口バス停留所横穂別仁和,42.657239,142.0786389,緯度経度は怪しい
北海道,むかわ町,8-49,穂別仁和339番地1,仁和会館横穂別仁和,42.66070390000001,142.0800468,緯度経度は怪しい
北海道,むかわ町,8-50,穂別仁和378番地3,masked,42.6682578,142.0851815,緯度経度は怪しい
北海道,むかわ町,9-51,穂別豊田441番地1,masked,42.7512651,142.096072,緯度経度は怪しい
北海道,むかわ町,9-52,穂別豊田294番地21,masked,42.7138415,142.1152671,緯度経度は怪しい
北海道,むかわ町,9-53,穂別豊田287番地1,masked,42.7134092,142.1143241,緯度経度は怪しい
北海道,むかわ町,9-54,穂別泉226番地16,和泉上生活館前穂別和泉,42.7823396,142.1231808,緯度経度は怪しい
北海道,むかわ町,9-55,穂別和泉80番地1,中央生活館駐車場穂別和泉,42.7202691,142.1300314,緯度経度は怪しい
北海道,むかわ町,9-56,穂別仁和816番地1,豊泉会館横穂別和泉,42.6563425,142.1027304,
北海道,むかわ町,10-57,穂別15番地6,穂別石油販売横広場穂別,42.7612511,142.1358527,緯度経度は怪しい
北海道,むかわ町,10-58,穂別2番地1,穂別町民センター前穂別,42.7616112,142.1338811,緯度経度は怪しい
北海道,むかわ町,10-59,穂別37番地1,旧樹海温泉ほべつ道路向穂別,42.7823396,142.1231808,緯度経度は怪しい
北海道,むかわ町,10-60,穂別76番地6,旧地球体験館駐車場（道路側）,42.7645511,142.1370324,緯度経度は怪しい
北海道,むかわ町,10-61,穂別81番地8,国保診療所前穂別,42.7660858,142.1380582,緯度経度は怪しい
北海道,むかわ町,10-62,穂別105番地25,梅渓寺駐車場横穂別,42.7682194,142.1409076,緯度経度は怪しい
北海道,むかわ町,10-63,穂別69番地4,柏南団地（町道市街東2条通線）,42.7651768,142.141098,緯度経度は怪しい
北海道,むかわ町,10-64,穂別107番地2,masked,42.7683494,142.1360349,緯度経度は怪しい
北海道,むかわ町,10-65,穂別441番地43,ニサナイ団地入口穂別,42.7459804,142.1336619,緯度経度は怪しい
北海道,むかわ町,10-66,穂別467番地32,ニサナイ会館付属建物前穂別,42.7574,142.1539002,緯度経度は怪しい
北海道,むかわ町,10-67,穂別907番地,キウス会館前穂別,42.7823396,142.1231808,緯度経度は怪しい
北海道,むかわ町,10-68,穂別749番地,茂別会館前穂別,42.7823396,142.1231808,緯度経度は怪しい
北海道,むかわ町,11-69,穂別富内81番地15,富内銀河会館前穂別富内,42.78348039999999,142.2188877,緯度経度は怪しい
北海道,むかわ町,11-70,穂別富内64番地,masked,42.7821506,142.2190864,緯度経度は怪しい
北海道,むかわ町,11-71,穂別富内90番地5,masked,42.7845905,142.2190822,緯度経度は怪しい
北海道,むかわ町,11-72,穂別平丘64番地15,平丘入口穂別平丘,42.7711867,142.2024129,緯度経度は怪しい
北海道,むかわ町,11-73,穂別安住35番地12,masked,42.7784771,142.2263375,緯度経度は怪しい
北海道,むかわ町,11-74,穂別安住79番地,安住生活館前穂別安住,42.80225129999999,142.2809985,緯度経度は怪しい
北海道,むかわ町,12-75,穂別稲里38番地3,masked,42.82255139999999,142.1680864,緯度経度は怪しい
北海道,むかわ町,12-76,穂別稲里243番地2,稲里生活館前穂別稲里,42.8490855,142.1703834,緯度経度は怪しい
北海道,むかわ町,12-77,穂別稲里417番地,樹海温泉はくあ駐車場前穂別稲里,42.8678045,142.1587051,緯度経度は怪しい
