prefecture,city,number,address,name,lat,long,note
北海道,七飯町,1-1,本町5丁目 旧七飯町森林組合前,旧七飯町森林組合前,41.8957189,140.6943934,緯度経度は怪しい
北海道,七飯町,1-2,本町7丁目 七飯ほんちょう保育園前,七飯ほんちょう保育園前,41.8929627,140.6992866,緯度経度は怪しい
北海道,七飯町,1-3,本町5丁目 七飯町役場向,七飯町役場向,41.895711,140.694405,緯度経度は怪しい
北海道,七飯町,1-4,本町6丁目 七重小学校グラウンド前,七重小学校グラウンド前,41.89669869999999,140.6924474,緯度経度は怪しい
北海道,七飯町,1-5,本町7丁目 前田商店向(本町8丁目8－1),前田商店向（本町8丁目8－1）,41.8962988,140.6993874,緯度経度は怪しい
北海道,七飯町,2-6,本町3丁目 放課後等デイサ-ビスにじのもり駐車場前,放課後等デイサービスにじのもり駐車場前,41.8901718,140.6920692,緯度経度は怪しい
北海道,七飯町,2-7,本町3丁目 新函館農業協同組合七飯支店向,新函館農業協同組合七飯支店向,41.889367,140.691389,緯度経度は怪しい
北海道,七飯町,2-8,本町1丁目 七飯駅駐車場前,七飯駅駐車場前,41.887716,140.6881779,緯度経度は怪しい
北海道,七飯町,2-9,本町3丁目 かみむら精肉店向,かみむら精肉店向,41.8889009,140.6884865,緯度経度は怪しい
北海道,七飯町,2-10,本町3丁目 本町振興会館前,本町振興会館前,41.889787,140.690256,緯度経度は怪しい
北海道,七飯町,2-11,本町1丁目 七飯中通バス停横(セブンイレブン駐車場横),七飯中通バス停横（セブンイレブン駐車場横）,41.893399,140.687358,緯度経度は怪しい
北海道,七飯町,3-12,本町6丁目 本町地域センタ-向バス停横,本町地域センター向バス停横,41.8974594,140.6901975,緯度経度は怪しい
北海道,七飯町,3-13,桜町1丁目 七飯消防署向三ツ股バス停横,七飯消防署向三ツ股バス停横,41.902738,140.68752,緯度経度は怪しい
北海道,七飯町,3-14,本町2丁目 営林署七飯森林事務所前,営林署七飯森林事務所前,41.8947418,140.6845407,緯度経度は怪しい
北海道,七飯町,3-15,本町4丁目 寿公園前(本町中通り沿い),寿公園前（本町中通り沿い）,41.893665,140.688367,緯度経度は怪しい
北海道,七飯町,3-16,本町2丁目 中須田道路踏切付近,中須田道路踏切付近,41.8947418,140.6845407,緯度経度は怪しい
北海道,七飯町,4-17,鳴川5丁目 七飯高等学校付近,七飯高等学校付近,41.892112,140.69976,緯度経度は怪しい
北海道,七飯町,4-18,鳴川5丁目 向井クリニック付近,向井クリニック付近,41.8873476,140.6972995,緯度経度は怪しい
北海道,七飯町,4-19,鳴川4丁目 大川果樹園横,大川果樹園横,41.88361880000001,140.7004381,緯度経度は怪しい
北海道,七飯町,4-20,鳴川4丁目 桜岡バス停向,桜岡バス停向,41.8812726,140.7024628,緯度経度は怪しい
北海道,七飯町,4-21,鳴川2丁目 鳴川通り交差点付近(点滅信号交差点付近),鳴川通り交差点付近（点滅信号交差点付近）,41.8854712,140.69146,緯度経度は怪しい
北海道,七飯町,5-22,緑町3丁目 日乃出食品付近,日乃出食品付近,41.8853996,140.6887443,緯度経度は怪しい
北海道,七飯町,5-23,緑町2丁目 緑町会館前,緑町会館前,41.883385,140.687909,緯度経度は怪しい
北海道,七飯町,5-24,緑町2丁目 緑町児童公園前(2条通り),緑町児童公園前（2条通り）,41.8808613,140.6895095,緯度経度は怪しい
北海道,七飯町,5-25,緑町2丁目 緑町中央3条通り案内図付近,緑町中央3条通り案内図付近,41.8808613,140.6895095,緯度経度は怪しい
北海道,七飯町,6-26,大中山1丁目 「日本の道百選」石碑横(国道5号線沿い),「日本の道百選」石碑横（国道5号線沿い）,41.875751,140.705082,緯度経度は怪しい
北海道,七飯町,6-27,大中山4丁目 (有)大塚自販入口付近(国道5号線と湯出川の交差地点),（有）大塚自販入口付近（国道５号線と湯出川の交差地点）,41.873136,140.708744,緯度経度は怪しい
北海道,七飯町,6-28,大中山5丁目 湯出川2号橋バス停付近(大中山5丁目142付近),湯出川2号橋バス停付近（大中山5丁目142付近）,41.8777912,140.7111193,緯度経度は怪しい
北海道,七飯町,6-29,大中山6丁目 武佐川橋バス停横,武佐川橋バス停横,41.875161,140.71663,緯度経度は怪しい
北海道,七飯町,6-30,大中山6丁目 町民センタ-コモン前バス停付近,町民センターコモン前バス停付近,41.87390389999999,140.7224287,緯度経度は怪しい
北海道,七飯町,6-31,大川11丁目 七飯消防署大中山分遣所横,七飯消防署大中山分遣所横,41.8680578,140.7246179,緯度経度は怪しい
北海道,七飯町,6-32,大中山3丁目 大中山保育所前,大中山保育所前,41.868954,140.717488,緯度経度は怪しい
北海道,七飯町,6-33,大中山2丁目 大中山神社バス停横,大中山神社バス停横,41.8684536,140.7137644,緯度経度は怪しい
北海道,七飯町,7-34,中野 アップル温泉横,アップル温泉横,41.859911,140.708177,緯度経度は怪しい
北海道,七飯町,7-35,大中山2丁目 大中山小学校入口(国道5号線沿い),大中山小学校入口（国道5号線沿い）,41.86510699999999,140.717079,緯度経度は怪しい
北海道,七飯町,7-36,大中山1丁目 大中山駅前,大中山駅前,41.875751,140.705082,緯度経度は怪しい
北海道,七飯町,7-37,大川5丁目 国道5号線・大川新通丁字路付近,国道5号線・大川新通丁字路付近,41.8621882,140.7242756,緯度経度は怪しい
北海道,七飯町,7-38,中島 (株)アムコ-・テクノロジ-・ジャパン駐車場向,（株）アムコー・テクノロジー・ジャパン駐車場向,41.86894849999999,140.705551,緯度経度は怪しい
北海道,七飯町,7-39,中島 ロバパン函館営業所向,ロバパン函館営業所向,41.864225,140.710425,緯度経度は怪しい
北海道,七飯町,8-40,大川4丁目 くるみ通入口,くるみ通入口,41.8583782,140.7217582,緯度経度は怪しい
北海道,七飯町,8-41,大川4丁目 大川美園振興会館前,大川美園振興会館前,41.859114,140.722204,緯度経度は怪しい
北海道,七飯町,9-42,大川9丁目 東大川振興会館前,東大川振興会館前,41.860161,140.729176,緯度経度は怪しい
北海道,七飯町,9-43,大川8丁目 南大川バス停横,南大川バス停横,41.8556702,140.7279016,緯度経度は怪しい
北海道,七飯町,9-44,大川8丁目 旧道営住宅梅の木団地前,旧道営住宅梅の木団地前,41.857073,140.7310541,緯度経度は怪しい
北海道,七飯町,10-45,大川4丁目 旧ドラックナナエ前(大川4丁目1-12),旧ドラックナナエ前（大川4丁目1-12）,41.856053,140.720038,緯度経度は怪しい
北海道,七飯町,10-46,大川1丁目 七飯町大川コミュニティセンタ-前,七飯町大川コミュニティセンター前,41.854067,140.719843,緯度経度は怪しい
北海道,七飯町,10-47,中野 字中野50－5付近(中野一番通),字中野50－5付近（中野一番通）,41.8528455,140.7189669,緯度経度は怪しい
北海道,七飯町,11-48,豊田 豊田会館横,豊田会館横,41.85914100000001,140.694631,緯度経度は怪しい
北海道,七飯町,11-49,豊田 字豊田312付近(町道豊田1号),字豊田312付近（町道豊田1号）,41.8530981,140.6933929,緯度経度は怪しい
北海道,七飯町,12-50,鶴野 旧鶴野会館前,旧鶴野会館前,41.88099690000001,140.6821297,緯度経度は怪しい
北海道,七飯町,12-51,鶴野 七飯消防団第3分団向,七飯消防団第3分団向,41.87880579999999,140.6797722,緯度経度は怪しい
北海道,七飯町,12-52,上藤城 字鶴野405－3付近(町道鶴野2号と3号の交差点付近),字鶴野405－3付近（町道鶴野2号と3号の交差点付近）,41.8761512,140.6841622,緯度経度は怪しい
北海道,七飯町,13-53,上藤城 上藤城会館前,上藤城会館前,41.9091563,140.6817522,緯度経度は怪しい
北海道,七飯町,13-54,藤城 藤城温水洗車場横,藤城温水洗車場横,41.9146537,140.6773376,緯度経度は怪しい
北海道,七飯町,13-55,藤城 藤城公民館前,藤城公民館前,41.9332731,140.6759843,緯度経度は怪しい
北海道,七飯町,13-56,藤城 (有)函館仮設付近,(有)函館仮設付近,41.9206502,140.6698964,緯度経度は怪しい
北海道,七飯町,14-57,峠下 北海道電力㈱七飯発電所入り口付近,北海道電力㈱七飯発電所入り口付近,41.9373997,140.6548405,緯度経度は怪しい
北海道,七飯町,14-58,峠下 峠下小学校バス停横,峠下小学校バス停横,41.9373997,140.6548405,緯度経度は怪しい
北海道,七飯町,14-59,峠下 峠下公民館前,峠下公民館前,41.9373997,140.6548405,緯度経度は怪しい
北海道,七飯町,14-60,峠下 峠下バス停横交差点付近,峠下バス停横交差点付近,41.9373997,140.6548405,緯度経度は怪しい
北海道,七飯町,14-61,仁山 仁山高原スキ-場入口前,仁山高原スキー場入口前,41.95568859999999,140.6246663,緯度経度は怪しい
北海道,七飯町,14-62,仁山 仁山バス停横,仁山バス停横,41.95568859999999,140.6246663,緯度経度は怪しい
北海道,七飯町,15-63,大沼町 七飯消防署大沼分遣所付近,七飯消防署大沼分遣所付近,41.9693396,140.6691649,緯度経度は怪しい
北海道,七飯町,15-64,大沼町 大沼駅前バス停横,大沼駅前バス停横,41.9724001,140.671099,緯度経度は怪しい
北海道,七飯町,15-65,大沼町 旧大沼公民館前,旧大沼公民館前,41.9785638,140.6760365,緯度経度は怪しい
北海道,七飯町,15-66,西大沼 大沼学園前バス停横,大沼学園前バス停横,41.9613687,140.6461557,緯度経度は怪しい
北海道,七飯町,16-67,大沼町 大沼跨線橋登り口(旧大沼小学校入口側),大沼跨線橋登り口（旧大沼小学校入口側）,41.9770773,140.6758349,緯度経度は怪しい
北海道,七飯町,16-68,大沼町 南北海道大沼婦人会館前,南北海道大沼婦人会館前,41.9812379,140.6715932,緯度経度は怪しい
北海道,七飯町,16-69,大沼町 大沼郵便局向,大沼郵便局向,41.9809685,140.6744262,緯度経度は怪しい
北海道,七飯町,16-70,上軍川 大信寺踏切付近(道道大沼公園線338号線沿い),大信寺踏切付近（道道大沼公園線338号線沿い）,41.9748364,140.7037848,緯度経度は怪しい
北海道,七飯町,17-71,大沼町 ＪＡ新函館準低温倉庫前,ＪＡ新函館準低温倉庫前,41.9682506,140.6805077,緯度経度は怪しい
北海道,七飯町,17-72,大沼町 吉野山バス停付近(道道大沼公園鹿部線),吉野山バス停付近(道道大沼公園鹿部線),41.97348789999999,140.6907004,緯度経度は怪しい
北海道,七飯町,17-73,大沼町 白石鉄工入口付近,白石鉄工入口付近,41.9682506,140.6805077,緯度経度は怪しい
北海道,七飯町,17-74,上軍川 川尻会館横,川尻会館横,41.955317,140.7113632,緯度経度は怪しい
北海道,七飯町,18-75,上軍川 大信寺前,大信寺前,41.9752079,140.7032334,緯度経度は怪しい
北海道,七飯町,18-76,上軍川 旧軍川小学校入口付近(道道大沼公園鹿部線沿い),旧軍川小学校入口付近（道道大沼公園鹿部線沿い）,41.9766123,140.7157601,緯度経度は怪しい
北海道,七飯町,18-77,軍川 池田園通りバス停付近,池田園通りバス停付近,41.99063779999999,140.7004777,緯度経度は怪しい
北海道,七飯町,18-78,上軍川 俄路会館下交差路付近,俄路会館下交差路付近,41.955317,140.7113632,緯度経度は怪しい
北海道,七飯町,18-79,軍川稲荷神社前,軍川稲荷神社前,41.9697663,140.7090359,緯度経度は怪しい
北海道,七飯町,18-80,上軍川 源雄寺前,源雄寺前,41.9769474,140.7146477,緯度経度は怪しい
北海道,七飯町,19-81,上軍川 字上軍川224付近十字路,字上軍川224付近十字路,41.955317,140.7113632,緯度経度は怪しい
北海道,七飯町,19-82,軍川 池田園駅前会館向,池田園駅前会館向,41.99063779999999,140.7004777,緯度経度は怪しい
北海道,七飯町,20-83,東大沼 東大沼農免農道交差点付近,東大沼農免農道交差点付近,41.9962095,140.7492432,緯度経度は怪しい
北海道,七飯町,20-84,東大沼 東大沼地区生活館前,東大沼地区生活館前,41.9962095,140.7492432,緯度経度は怪しい
北海道,七飯町,20-85,東大沼 旧流山温泉付近(町道東大沼3号線沿),旧流山温泉付近（町道東大沼3号線沿）,42.001854,140.7182643,緯度経度は怪しい
北海道,七飯町,20-86,東大沼 東大沼駅前会館跡地前,東大沼駅前会館跡地前,42.0148095,140.7207148,緯度経度は怪しい
北海道,七飯町,20-87,東大沼 松風園団地入口付近(字東大沼125-33付近),松風園団地入口付近（字東大沼125-33付近）,42.0127716,140.729256,緯度経度は怪しい
北海道,七飯町,21-88,西大沼 函館大沼プリンスホテル入り口付近,函館大沼プリンスホテル入り口付近,41.9940263,140.6420337,緯度経度は怪しい
北海道,七飯町,21-89,西大沼 西大沼会館前,西大沼会館前,41.9941033,140.6357831,緯度経度は怪しい
北海道,七飯町,21-90,西大沼 字西大沼394付近(町道西大沼3号と4号の交差点付近),字西大沼394付近（町道西大沼3号と4号の交差点付近）,41.9937374,140.6220815,緯度経度は怪しい
北海道,七飯町,,,,41.895745,140.6944896,緯度経度は怪しい
