prefecture,city,number,address,name,lat,long,note
北海道,八雲町,1-1,住初町 役場前庭,役場前庭,42.255776590674,140.26586294174,緯度経度は怪しい
北海道,八雲町,1-2,末広町 公民館前庭,公民館前庭,42.254426614452,140.26906013489,緯度経度は怪しい
北海道,八雲町,1-3,住初町 さらんべ公園入口,さらんべ公園入口,42.253791321525,140.25697946548,緯度経度は怪しい
北海道,八雲町,1-4,栄町 シルバ-プラザ裏,シルバープラザ裏,42.257015366958,140.25931835175,緯度経度は怪しい
北海道,八雲町,1-5,上八雲 上八雲会館向,上八雲会館向,42.287429217155,140.15628933907,緯度経度は怪しい
北海道,八雲町,1-6,春日 春日中央会館前,春日中央会館前,42.252361889042,140.24494171143,緯度経度は怪しい
北海道,八雲町,2-1,出雲町 町民センタ-前,町民センター前,42.249201139988,140.27075529099,緯度経度は怪しい
北海道,八雲町,2-2,相生町 町立図書館前,町立図書館前,42.250606819299,140.27529358864,緯度経度は怪しい
北海道,八雲町,2-3,出雲町 旧国立病院前,旧国立病院前,42.250932424163,140.26521921158,緯度経度は怪しい
北海道,八雲町,3-1,本町 はぴあ八雲前,はぴあ八雲前,42.255162,140.2712793,緯度経度は怪しい
北海道,八雲町,3-2,東町 東部生活館横,東部生活館横,42.256475390544,140.27260065079,緯度経度は怪しい
北海道,八雲町,3-3,豊河町 遊楽部パ-ク前,遊楽部パーク前,42.261291340423,140.27437627316,緯度経度は怪しい
北海道,八雲町,4-1,富士見町 東部児童会館前,東部児童会館前,42.2564591,140.2772835,緯度経度は怪しい
北海道,八雲町,4-2,東雲町 ぽぷら児童公園前,ぽぷら児童公園前,42.25425800000001,140.278271,緯度経度は怪しい
北海道,八雲町,4-3,東雲町 総合病院裏駐車場前,総合病院裏駐車場前,42.2525898,140.2793266,緯度経度は怪しい
北海道,八雲町,5-1,内浦町 内浦町1区会館前,内浦町1区会館前,42.262637199649,140.27895212173,緯度経度は怪しい
北海道,八雲町,6-1,内浦町 八雲ハイヤ-車庫前,八雲ハイヤー車庫前,42.2568883141,140.2819776535,緯度経度は怪しい
北海道,八雲町,6-2,内浦町 給食センタ-前,給食センター前,42.246421455914,140.28702020645,緯度経度は怪しい
北海道,八雲町,7-1,黒岩 第2分団格納所横,第2分団格納所横,42.3680807,140.2890102,緯度経度は怪しい
北海道,八雲町,8-1,山崎 山崎1区会館前,山崎1区会館前,42.313888,140.2732652,緯度経度は怪しい
北海道,八雲町,8-2,山崎 山崎2区会館前,山崎2区会館前,42.322851,140.256342,緯度経度は怪しい
北海道,八雲町,9-1,花浦 花浦1区会館前,花浦1区会館前,42.283484422149,140.27360916138,緯度経度は怪しい
北海道,八雲町,10-1,立岩 立岩会館前,立岩会館前,42.26627089999999,140.2564132,緯度経度は怪しい
北海道,八雲町,10-2,立岩 函館建設管理部八雲出張所向,函館建設管理部八雲出張所向,42.263574123034,140.26528358459,緯度経度は怪しい
北海道,八雲町,11-1,大新 大新会館前,大新会館前,42.232811149237,140.25547206402,緯度経度は怪しい
北海道,八雲町,12-1,熱田 熱田会館前,熱田会館前,42.2240815,140.2711375,緯度経度は怪しい
北海道,八雲町,13-1,浜松 浜松地区生活改善センタ-前,浜松地区生活改善センター前,42.236111729577,140.30364990234,緯度経度は怪しい
北海道,八雲町,14-1,山越 山越中央会館前,山越中央会館前,42.230229347553,140.32902359962,緯度経度は怪しい
北海道,八雲町,15-1,野田生 野田生会館前,野田生会館前,42.217426023177,140.37898778915,緯度経度は怪しい
北海道,八雲町,15-2,野田生 野田生小学校向,野田生小学校向,42.216313604345,140.37652015686,緯度経度は怪しい
北海道,八雲町,16-1,東野 東野ふれあいプラザ前,東野ふれあいプラザ前,42.208144671569,140.38943767548,緯度経度は怪しい
北海道,八雲町,16-2,東野 東野1区会館横,東野1区会館横,42.2135009,140.3937845,緯度経度は怪しい
北海道,八雲町,17-1,落部 落部レクリエ-ションセンタ-前,落部レクリエーションセンター前,42.1885184,140.4275064,緯度経度は怪しい
北海道,八雲町,17-2,落部 落部町民センタ-前,落部町民センター前,42.184585530661,140.42368412018,緯度経度は怪しい
北海道,八雲町,17-3,落部 落部駅前,落部駅前,42.187670020355,140.42132377625,緯度経度は怪しい
北海道,八雲町,17-4,落部 川向会館前,川向会館前,42.196095951813,140.42029380798,緯度経度は怪しい
北海道,八雲町,17-5,落部 下の湯会館前,下の湯会館前,42.1686633,140.3962351,緯度経度は怪しい
北海道,八雲町,17-6,落部 上の湯会館向,上の湯会館向,42.1246009,140.3748488,緯度経度は怪しい
北海道,八雲町,18-1,栄浜 栄浜観光案内ステ-ション,栄浜観光案内ステーション,42.174742776473,140.45327425003,緯度経度は怪しい
北海道,八雲町,18-2,栄浜 栄浜会館横,栄浜会館横,42.17626937831,140.45284509659,緯度経度は怪しい
北海道,八雲町,19-1,熊石折戸 折戸教員住宅倉庫前,折戸教員住宅倉庫前,42.070401414764,140.07332324982,緯度経度は怪しい
北海道,八雲町,19-2,masked,masked,42.071424812883,140.06641924381,緯度経度は怪しい
北海道,八雲町,20-1,masked,masked,42.073905588869,140.06320595741,緯度経度は怪しい
北海道,八雲町,21-1,masked,masked,42.084289550403,140.0559425354,緯度経度は怪しい
北海道,八雲町,21-2,masked,masked,42.090707008177,140.05250930786,緯度経度は怪しい
北海道,八雲町,22-1,熊石鮎川 鮎川町営住宅前,鮎川町営住宅前,42.12090651933,140.01268386841,緯度経度は怪しい
北海道,八雲町,23-1,熊石平 平町営住宅入口,平町営住宅入口,42.125346878647,140.00049591064,緯度経度は怪しい
北海道,八雲町,23-2,masked,masked,42.126222181578,139.99408006668,緯度経度は怪しい
北海道,八雲町,24-1,熊石根崎 総合支所前広場,総合支所前広場,42.129253,139.982873,緯度経度は怪しい
北海道,八雲町,24-2,熊石雲石 くまいし館前,くまいし館前,42.1298486,139.9802318,緯度経度は怪しい
北海道,八雲町,25-1,masked,masked,42.131139567757,139.96367454529,緯度経度は怪しい
北海道,八雲町,25-2,熊石西浜 町道丸山線入口花壇横,町道丸山線入口花壇横,42.129977889602,139.94869709015,緯度経度は怪しい
北海道,八雲町,26-1,熊石関内 大須田住宅横空き地,大須田住宅横空き地,42.133590161382,139.93371963501,緯度経度は怪しい
