prefecture,city,number,address,name,lat,long
北海道,函館市,1,函館市入舟町6,入舟児童公園（魚見坂面）,41.7729215,140.7032122
北海道,函館市,2,函館市弥生町22,弥生第1号公園(15番向かい面),41.7707028,140.7042378
北海道,函館市,3,函館市弥生町4,弥生小学校正門前,41.7707028,140.7042378
北海道,函館市,4,函館市弥生町4,弥生小学校東坂面,41.7707028,140.7042378
北海道,函館市,5,函館市弥生町19,弥生幼児公園,41.7707028,140.7042378
北海道,函館市,6,函館市弥生町2,元町観光バス駐車場（弁天末広通面）,41.7707028,140.7042378
北海道,函館市,7,函館市元町12,元町公園（ペリー広場向かい面）,41.7655867,140.7092697
北海道,函館市,8,函館市元町16,二十間坂通道路敷（東本願寺函館別院横）,41.763074,140.7140783
北海道,函館市,9,函館市末広町7,十字街商盛会月極駐車場,41.76304760000001,140.7194724
北海道,函館市,10,函館市元町1,元町配水場前,41.7609892,140.7124577
北海道,函館市,11,函館市青柳町22,青柳小学校グラウンド下,41.7575718,140.7180848
北海道,函館市,12,函館市青柳町22,青柳小学校（21番向かい面）,41.7575718,140.7180848
北海道,函館市,13,函館市青柳町17,函館公園入口横（19番向かい面）,41.7574345,140.7162117
北海道,函館市,14,函館市宝来町20,宝来幼児公園,41.7607598,140.7208611
北海道,函館市,15,函館市青柳町35,住吉公園(12番向かい面),41.75516220000001,140.7187829
北海道,函館市,16,函館市谷地頭町9,谷地頭児童館入口横市道道路敷,41.7540315,140.711799
北海道,函館市,17,函館市谷地頭町20,谷地頭温泉西側（14番向かい面）,41.7517529,140.7142919
北海道,函館市,18,函館市谷地頭町20,谷地頭温泉北側（スロープ手前）,41.7517529,140.7142919
北海道,函館市,19,函館市谷地頭町2,函館八幡宮研修道場下,41.7533655,140.7105119
北海道,函館市,20,函館市東川町11,女性センター（高砂通面）,41.7632016,140.7221912
北海道,函館市,21,函館市東川町18,東川広路（大森浜通面）,41.76196849999999,140.7265108
北海道,函館市,22,函館市豊川町16,豊川広路（電車通面）,41.7657015,140.7221664
北海道,函館市,23,函館市東川町11,高田屋通(東川町会館並び),41.7632016,140.7221912
北海道,函館市,24,函館市旭町4,さかえ通,41.7664217,140.7269965
北海道,函館市,25,函館市東雲町2,旭広路道路敷（放射2号線面）,41.7677241,140.7302028
北海道,函館市,26,函館市松風町18,若松広路道路敷（広小路面）,41.7728439,140.731883
北海道,函館市,27,函館市大手町22,大手町22番内緑地（東雲広路面）,41.7711035,140.7226985
北海道,函館市,28,函館市東雲町4,函館市役所前庭（市役所前バス停）,41.7689859,140.7290178
北海道,函館市,29,函館市大森町33,大森公園（慰霊堂側）,41.7699803,140.7392694
北海道,函館市,30,函館市千歳町7,若松広路道路敷（放射4-1号線面）,41.772527,140.7365655
北海道,函館市,31,函館市松風町9,若松広路道路敷（電車通面）,41.77236449999999,140.731483
北海道,函館市,32,函館市千歳町14番内,千歳公園（放射4-1号線面）,41.7735469,140.7377109
北海道,函館市,33,函館市千歳町14番内,千歳公園（NHK函館放送会館向かい面）,41.7735469,140.7377109
北海道,函館市,34,函館市新川町30,中部小学校正門横,41.7782854,140.7363052
北海道,函館市,35,函館市若松町33,若松緑地,41.7772859,140.7311129
北海道,函館市,36,函館市上新川町18,新川公園（17番向かい面）,41.780126,140.7392032
北海道,函館市,37,函館市新川町25,新川広路道路敷（電車通面）,41.77693250000001,140.7388281
北海道,函館市,38,函館市大縄町24,北星小学校（20番向い面）,41.7830313,140.7335502
北海道,函館市,39,函館市海岸町9,海岸児童公園（10番向かい面）,41.7813031,140.7316371
北海道,函館市,40,函館市松川町27,松川幼児公園（28番向かい面）,41.786146,140.7386821
北海道,函館市,41,函館市松川町39,松川第2号幼児公園（38番向かい面）,41.78735440000001,140.7358022
北海道,函館市,42,函館市海岸町7,新川広路道路敷,41.78037800000001,140.7303352
北海道,函館市,43,函館市大縄町10,新川広路道路敷（高砂通面）,41.7803235,140.7348841
北海道,函館市,44,函館市万代町20,モロオ函館支店（万代埠頭向かい面）,41.7874112,140.7287215
北海道,函館市,45,函館市万代町6,深瀬病院職員駐車場,41.7878093,140.7328238
北海道,函館市,46,函館市八幡町15,八幡小学校（八幡通向かい面）,41.7937553,140.7373133
北海道,函館市,47,函館市八幡町1-2,北海道教育大学駐車場横,41.7926258,140.7432315
北海道,函館市,48,函館市八幡町1-2,北海道教育大学グラウンド側（教育大通面）,41.7926258,140.7432315
北海道,函館市,49,函館市八幡町19-8,北海道教育大学桐花寮,41.7948175,140.7398578
北海道,函館市,50,函館市八幡町21,八幡幼児公園,41.7951175,140.7371537
北海道,函館市,51,函館市八幡町3,八幡公園,41.7917686,140.7367163
北海道,函館市,52,函館市八幡町4,北海道電力ネットワーク道南統括支店倉庫裏,41.7905356,140.7351293
北海道,函館市,53,函館市吉川町6,万年橋小学校（追分町1番向かい面）,41.7958601,140.731174
北海道,函館市,54,函館市北浜町1,万年橋公園（2番向かい面）,41.7972903,140.7300102
北海道,函館市,55,函館市北浜町1,万年橋公園（6番向かい面）,41.7972903,140.7300102
北海道,函館市,56,函館市吉川町5,極楽寺前,41.7942308,140.7302862
北海道,函館市,57,函館市北浜町9,NCアグロ函館株式会社（国道227号線面）,41.7998612,140.7269693
北海道,函館市,58,函館市北浜町9,NCアグロ函館株式会社（道道347号線面）,41.7998612,140.7269693
北海道,函館市,59,函館市大川町11,大川公園,41.7984075,140.7409596
北海道,函館市,60,函館市田家町10,道営住宅田家町団地内田家団地集合所横,41.7988138,140.7474274
北海道,函館市,61,函館市大川町1,函館開発建設部駐車場前,41.7962758,140.7400058
北海道,函館市,62,函館市田家町14,市営田家住宅A団地18号棟前,41.796895,140.7458259
北海道,函館市,63,函館市大川町１,道営住宅大川町団地（新興通面）,41.7962758,140.7400058
北海道,函館市,64,函館市田家町20,道職員住宅地共8（教育大通り面）,41.799824,140.7424953
北海道,函館市,65,函館市富岡町１丁目18,五稜郭中学校入口横,41.8022141,140.7421325
北海道,函館市,66,函館市富岡町１丁目18,亀田小学校（道道赤川函館線面）,41.8022141,140.7421325
北海道,函館市,67,函館市亀田本町8,亀田本町第2号街区公園,41.8035679,140.7396083
北海道,函館市,68,函館市亀田本町60-14,NTT東日本亀田ビル前,41.8022123,140.7384182
北海道,函館市,69,函館市富岡町１丁目39,富岡第1号街区公園,41.8067337,140.745256
北海道,函館市,70,函館市港町１丁目22,港小学校（25番向い面）,41.8047318,140.7249032
北海道,函館市,71,函館市港町１丁目12-6,警察港町公宅ＫＤ棟前,41.8027419,140.7288594
北海道,函館市,72,函館市港町１丁目18,港公園（16番向かい面）,41.8025409,140.7273188
北海道,函館市,73,函館市港町１丁目18,港公園（19番向かい面）,41.8025409,140.7273188
北海道,函館市,74,函館市港町１丁目10,市立函館病院外来駐車場（12番向かい面）,41.8047727,140.7292981
北海道,函館市,75,函館市港町１丁目10,市立函館病院外来駐車場（精神科病棟横）,41.8047727,140.7292981
北海道,函館市,76,函館市港町１丁目11,JRアパート706号棟前,41.8035323,140.7301493
北海道,函館市,77,函館市港町２丁目8,港中学校グラウンド,41.8089775,140.7211509
北海道,函館市,78,函館市港町３丁目1,北海道大学水産学部（国道227号面）,41.8099195,140.7181499
北海道,函館市,79,函館市港町３丁目1,北海道大学水産学部（くろしお通面）,41.8099195,140.7181499
北海道,函館市,80,函館市港町３丁目3,港幼児公園掲示板横,41.8110376,140.7166069
北海道,函館市,81,函館市港町２丁目1,港町公園,41.8061849,140.7234042
北海道,函館市,82,函館市昭和町20,昭和公園駐車場,41.81482829999999,140.7255439
北海道,函館市,83,函館市昭和町20,昭和公園多目的広場駐車場,41.81482829999999,140.7255439
北海道,函館市,84,函館市亀田港町52,亀田港第2号児童公園,41.8108209,140.7223198
北海道,函館市,85,函館市亀田港町6,亀田港緑地,41.8065835,140.7275083
北海道,函館市,86,函館市亀田港町8,亀田港児童公園（19番向かい面）,41.8072083,140.7282651
北海道,函館市,87,函館市富岡町１丁目64,富岡中央公園（市道富岡美原通面）,41.811329,140.746026
北海道,函館市,88,函館市富岡町２丁目45,富岡第3児童公園（46番向かい面）,41.80996760000001,140.7499003
北海道,函館市,89,函館市富岡町１丁目49,富岡児童館公園（52番向かい面）,41.8088346,140.7441801
北海道,函館市,90,函館市富岡町２丁目60,清尚学院高等学校グラウンド,41.80641869999999,140.7474097
北海道,函館市,91,函館市富岡町２丁目49,富岡町第4公園,41.81064050000001,140.7474556
北海道,函館市,92,函館市富岡町２丁目10,医師会病院採光板前,41.80687,140.7532092
北海道,函館市,93,函館市富岡町２丁目７,富岡第4号児童公園,41.8046243,140.753928
北海道,函館市,94,函館市富岡町３丁目21,NHK広場（八木原整形外科クリニック向かい面）,41.8118044,140.7552065
北海道,函館市,95,函館市富岡町３丁目41,富岡町第1公園,41.8137738,140.7473591
北海道,函館市,96,函館市美原１丁目25,地方職員共済住宅11B棟横,41.8144681,140.7508273
北海道,函館市,97,函館市美原１丁目25,地方職員共済住宅10号棟,41.8144681,140.7508273
北海道,函館市,98,函館市昭和１丁目5,昭和小学校（桐花通面）,41.8126449,140.742821
北海道,函館市,99,函館市昭和２丁目37,昭和児童公園,41.81533940000001,140.7404714
北海道,函館市,100,函館市昭和２丁目43,昭和第3公園,41.8171056,140.7393512
北海道,函館市,101,函館市昭和１丁目5,昭和小学校（商業高校向かい）,41.8126449,140.742821
北海道,函館市,102,函館市昭和１丁目33,函館バス㈱昭和営業所前（桐花通面）,41.8204114,140.7404588
北海道,函館市,103,函館市昭和１丁目17,函館商業高校裏（18番向かい面）,41.8146553,140.7430839
北海道,函館市,104,函館市昭和４丁目38,北昭和小学校グラウンド,41.8212364,140.7307707
北海道,函館市,105,函館市昭和３丁目13,昭和第3街区公園（11番向かい面）,41.8184826,140.7364912
北海道,函館市,106,函館市昭和３丁目24,昭和第2号児童公園（6番向かい面）,41.8189537,140.7345261
北海道,函館市,107,函館市昭和４丁目35,昭和第7街区公園,41.8187998,140.7318039
北海道,函館市,108,函館市昭和４丁目41,国道5号道路敷（昭和バス停横）,41.8235824,140.7310768
北海道,函館市,109,函館市昭和４丁目23,日糧製パン函館工場裏,41.8138277,140.7328436
北海道,函館市,110,函館市桔梗２丁目30,桔梗第1号児童公園,41.8420572,140.7304467
北海道,函館市,111,函館市桔梗２丁目21,桔梗第二号街区公園,41.83895100000001,140.7288586
北海道,函館市,112,函館市桔梗町379,桔梗中央線道路敷,41.838714,140.7327004
北海道,函館市,113,函館市桔梗町418,桔梗第13街区公園,41.8364911,140.7347023
北海道,函館市,114,函館市桔梗町417,桔梗第12街区公園,41.8340105,140.7349324
北海道,函館市,115,函館市桔梗１丁目13,国道5号道路敷（桔梗小学校前）,41.8317088,140.7284208
北海道,函館市,116,函館市西桔梗町589-25,青果物卸売市場,41.8314054,140.7210535
北海道,函館市,117,函館市西桔梗町587,西桔梗公園,41.8240811,140.7268118
北海道,函館市,118,函館市西桔梗町822,西桔梗南緑地,41.8219704,140.7214836
北海道,函館市,119,函館市西桔梗町730,西桔梗町第2公園,41.8444364,140.7167829
北海道,函館市,120,函館市桔梗町64,桔梗第20街区公園,41.848356,140.7195374
北海道,函館市,121,函館市西桔梗町740,西桔梗七飯線道路敷,41.845616,140.7114986
北海道,函館市,122,函館市西桔梗町731,西桔梗第1街区公園,41.8447059,140.7178708
北海道,函館市,123,函館市桔梗４丁目2,桔梗児童遊園（桔梗駅前通面）,41.84798490000001,140.7278402
北海道,函館市,124,函館市桔梗３丁目29,桔梗第5街区公園（30番向かい面）,41.84510239999999,140.7254364
北海道,函館市,125,函館市桔梗５丁目6,桔梗第7街区公園（8番向かい面）,41.84814799999999,140.7329315
北海道,函館市,126,函館市桔梗５丁目28,桔梗第8街区公園（31番向かい面）,41.8511212,140.7339957
北海道,函館市,127,函館市桔梗５丁目36,桔梗第9街区公園（37番向かい面）,41.8505136,140.7379726
北海道,函館市,128,函館市桔梗３丁目19,桔梗町第１公園,41.8469674,140.7278765
北海道,函館市,129,函館市石川町,石川第8街区公園,41.8338504,140.744243
北海道,函館市,130,函館市石川町162-1,コープさっぽろ石川店前,41.8326277,140.7409889
北海道,函館市,131,函館市石川町122,石川第1街区公園,41.8322681,140.7467024
北海道,函館市,132,函館市石川町128,石川第4街区公園,41.8324895,140.7493657
北海道,函館市,133,函館市石川町39,NTT東日本桔梗電話交換局前,41.8289053,140.741417
北海道,函館市,134,函館市石川町52,石川第2号街区公園,41.82556460000001,140.7353437
北海道,函館市,135,函館市石川町5,石川公園,41.8254871,140.7400405
北海道,函館市,136,函館市北美原１丁目14,亀田中野第4号児童公園（23番向かい面）,41.8282484,140.7470577
北海道,函館市,137,函館市北美原１丁目32,亀田中野第3号児童公園,41.8301488,140.7464617
北海道,函館市,138,函館市北美原２丁目11,亀田中野第2号児童公園,41.8283534,140.7529837
北海道,函館市,139,函館市北美原３丁目13,北美原3丁目13番内公園,41.830376,140.7530797
北海道,函館市,140,函館市美原５丁目33,赤川通町第4公園,41.8254661,140.7519298
北海道,函館市,141,函館市美原３丁目30,亀田中学校（道道函館上磯線面）,41.81878450000001,140.7470016
北海道,函館市,142,函館市美原３丁目30,亀田中学校（市道赤川中央通面）,41.81878450000001,140.7470016
北海道,函館市,143,函館市美原３丁目48,美原学園通道路敷（美原5丁目15番向かい面）,41.8217552,140.7480659
北海道,函館市,144,函館市美原３丁目48,北海道教育大学付属特別支援学校（亀田外郭通面）,41.8217552,140.7480659
北海道,函館市,145,函館市美原４丁目23,道営住宅サニータウンみはら団地,41.8229081,140.7559862
北海道,函館市,146,函館市美原３丁目1,美原3丁目公宅（道道赤川函館線面）,41.8155428,140.75367
北海道,函館市,147,函館市美原４丁目6,渡島合同庁舎横公園（美原）学園通面,41.8200511,140.7532473
北海道,函館市,148,函館市美原４丁目16,赤川通町第5公園,41.8208063,140.7570618
北海道,函館市,149,函館市美原２丁目28,中央小学校（美原学園通面）,41.81632159999999,140.7608647
北海道,函館市,150,函館市美原２丁目46,赤川通幼児公園（あおい幼稚園横）,41.8209593,140.7597842
北海道,函館市,151,函館市赤川町125,赤川中学校体育館前,41.8302276,140.761812
北海道,函館市,152,函館市赤川１丁目30,赤川児童館,41.8269528,140.7561785
北海道,函館市,153,函館市赤川町212(102番地1地先),道道赤川函館線道路敷（浄水場下バス停前）,41.8304791,140.7648967
北海道,函館市,154,函館市赤川１丁目19,赤川第1街区公園,41.8264283,140.7601636
北海道,函館市,155,函館市赤川町538-5,道道赤川函館線道路敷地(下赤川バス停横）,41.8496461,140.7769478
北海道,函館市,156,函館市赤川町419,道道赤川函館線道路敷(赤川貯水池バス停前),41.8348939,140.7687077
北海道,函館市,157,函館市亀田中野町116,公立はこだて未来大学バス待合所横,41.8418626,140.7670137
北海道,函館市,158,函館市神山町233-77,神山第9街区公園,41.8202832,140.7622638
北海道,函館市,159,函館市陣川２丁目10,陣川第1幼児公園,41.8209237,140.7739663
北海道,函館市,160,函館市神山町257,神山町第1公園,41.8220479,140.7656273
北海道,函館市,161,函館市神山町241-80,神山第10街区公園,41.8214595,140.763549
北海道,函館市,162,函館市陣川町85,陣川あさひ町会広場,41.8344417,140.7854412
北海道,函館市,163,函館市陣川町79,陣川あさひ町会館前,41.8366516,140.7901478
北海道,函館市,164,函館市陣川１丁目7,陣川第3号児童公園（9番向かい面）,41.8177099,140.7752325
北海道,函館市,165,函館市陣川１丁目7,陣川第3号児童公園（6番向かい面）,41.8177099,140.7752325
北海道,函館市,166,函館市陣川１丁目16番地先,東山陣川線道路敷（陣川団地前バス停横）,41.8184792,140.776347
北海道,函館市,167,函館市陣川１丁目13,東山墓園通道路敷（陣川１丁目バス停付近）,41.8171046,140.7766728
北海道,函館市,168,函館市神山３丁目4,大圓寺,41.8143274,140.7653314
北海道,函館市,169,函館市鍛治２丁目46,鍛神小学校（市道東山墓園線面）,41.8110989,140.765583
北海道,函館市,170,函館市鍛治２丁目28,鍛神小学校（道道函館上磯線面）,41.8095383,140.7674042
北海道,函館市,171,函館市鍛治２丁目21,鍛治児童公園,41.807482,140.7640951
北海道,函館市,172,函館市鍛治２丁目38,鍛治第2号児童公園,41.810414,140.7681946
北海道,函館市,173,函館市中道２丁目23,中道2丁目23番市営住宅3号棟（東山墓園線面）,41.8094384,140.7626634
北海道,函館市,174,函館市鍛治２丁目35,鍛治町第3公園,41.80960719999999,140.7701148
北海道,函館市,175,函館市中道２丁目,亀田川河川敷,41.8084479,140.759832
北海道,函館市,176,函館市中道２丁目33,中道幼児公園,41.8064183,140.757371
北海道,函館市,177,函館市中道２丁目27,中道町公園,41.8098449,140.759171
北海道,函館市,178,函館市中道１丁目24,中道第1幼児公園,41.8044507,140.7589701
北海道,函館市,179,函館市中道１丁目1,中道子供遊園地（富岡中道線面）,41.7998326,140.7548196
北海道,函館市,180,函館市中道１丁目14,中道１丁目緑地,41.8024697,140.7533081
北海道,函館市,181,函館市梁川町23,千代田小学校グラウンド前,41.79229160000001,140.7489369
北海道,函館市,182,函館市梁川町23,千代田小学校体育館横,41.79229160000001,140.7489369
北海道,函館市,183,函館市梁川町25,梁川公園（27番向かい面）,41.7936382,140.7477629
北海道,函館市,184,函館市五稜郭町17,市営五稜郭改良住宅内公園,41.7971561,140.7519369
北海道,函館市,185,函館市五稜郭町13,地方職員共済住宅61地共（函館中央警察署向かい面）,41.79604070000001,140.7509469
北海道,函館市,186,函館市五稜郭町37,道立函館美術館駐車場（五稜郭タワー向かい面）,41.7935571,140.7551789
北海道,函館市,187,函館市時任町28,時任幼児公園（35番向かい面）,41.7843573,140.756336
北海道,函館市,188,函館市時任町2,内環状線道路敷（日の出広路公園）,41.7822325,140.7503203
北海道,函館市,189,函館市千代台町9,JRアパート601号棟前（時任町7番向かい面）,41.7812736,140.7495198
北海道,函館市,190,函館市千代台町9,JRアパート602号棟前（鈴かけ通面）,41.7812736,140.7495198
北海道,函館市,191,函館市時任町11,函館中部高校,41.7836028,140.7525247
北海道,函館市,192,函館市中島町30,中島小学校（市道教育大通面）,41.7838808,140.7434486
北海道,函館市,193,函館市中島町30,中島小学校（29番向かい面）,41.7838808,140.7434486
北海道,函館市,194,函館市中島町8,中島幼児公園,41.7846865,140.7415289
北海道,函館市,195,函館市堀川町19,堀川広路道路敷（電車通面）,41.779628,140.7439049
北海道,函館市,196,函館市的場町20,道営住宅的場町団地3号棟,41.7777073,140.7547896
北海道,函館市,197,函館市堀川町30,堀川広路（30番31番間）,41.7792564,140.7468935
北海道,函館市,198,函館市的場町10,日ノ出広路（巴中学校向かい）,41.7777897,140.7510885
北海道,函館市,199,函館市的場町12,巴中学校校門横,41.7792961,140.7512857
北海道,函館市,200,函館市的場町17,的場公園（16番向かい面）,41.7794946,140.7533365
北海道,函館市,201,函館市的場町17,的場公園（的場公園前バス停横）,41.7794946,140.7533365
北海道,函館市,202,函館市高盛町17,高盛公園（市道放射4-1号線面）,41.774014,140.7445205
北海道,函館市,203,函館市高盛町17,高盛公園（27番向い面）,41.774014,140.7445205
北海道,函館市,204,函館市高盛町10,函館バス㈱バスセンター駐車場（9番向かい面）,41.7724539,140.7426294
北海道,函館市,205,函館市宇賀浦町1,宇賀浦中継ポンプ場,41.7697607,140.7413743
北海道,函館市,206,函館市日乃出町17,放射4-1号線道路敷（日乃出児童遊園地）,41.77626069999999,140.7512257
北海道,函館市,207,函館市人見町8,コープさっぽろひとみ店,41.7823113,140.7591052
北海道,函館市,208,函館市金堀町10,南部下水終末処理場入口横（国道278号面）,41.7764239,140.7637323
北海道,函館市,209,函館市人見町15,人見児童遊園,41.7797323,140.7597795
北海道,函館市,210,函館市松陰町5,柏野小学校校門横,41.7915644,140.7596436
北海道,函館市,211,函館市松陰町5,柏野小学校（8番向かい面）,41.7915644,140.7596436
北海道,函館市,212,函館市柳町10,函館高校第二グラウンド（市道ときわ通面）,41.7945556,140.7603734
北海道,函館市,213,函館市柳町5,道営住宅柳町団地,41.7945019,140.7586785
北海道,函館市,214,函館市杉並町23,遺愛女子中学高等学校（道道函館南茅部線面）,41.7866782,140.7569777
北海道,函館市,215,函館市松陰町11,松陰町会ふれあい広場（ゲートボール場）,41.7868084,140.7600325
北海道,函館市,216,函館市本通１丁目45,本通第4号幼児公園,41.7973502,140.7664791
北海道,函館市,217,函館市本通１丁目54,本通町第8公園,41.8016363,140.7663514
北海道,函館市,218,函館市本通２丁目24,本通第4児童公園（23番向かい面）,41.7993028,140.7675796
北海道,函館市,219,函館市本通１丁目6,檜山森林管理署管理地（本通富岡線面）,41.7955383,140.7645533
北海道,函館市,220,函館市本通１丁目26,本通町会遊園地,41.8002864,140.7580865
北海道,函館市,221,函館市鍛治１丁目25,鍛治町第１公園,41.8037443,140.7642655
北海道,函館市,222,函館市鍛治１丁目44,鍛治第2公園,41.8032778,140.7665456
北海道,函館市,223,函館市本通２丁目56,本通中学校（鍛治1丁目49番向かい面）,41.803166,140.7679181
北海道,函館市,224,函館市鍛治２丁目10,市営住宅鍛治2丁目団地4号棟前,41.8064019,140.7700314
北海道,函館市,225,函館市本通２丁目43,本通第1号児童公園,41.8019561,140.7707979
北海道,函館市,226,函館市本通４丁目35,本通第1幼児公園（市道本通見晴線面）,41.8021884,140.7723478
北海道,函館市,227,函館市本通４丁目24,本通4-5号線道路敷（本通多目的広場）,41.799764,140.7732108
北海道,函館市,228,函館市東山２丁目3,東山小学校（道道函館上磯線面）,41.8058617,140.7729994
北海道,函館市,229,函館市東山２丁目3,東山小学校入口ガードレール,41.8058617,140.7729994
北海道,函館市,230,函館市東山町,東山墓園（松見通面）,41.8272685,140.8049359
北海道,函館市,231,函館市東山１丁目4,東山第7街区公園,41.8109552,140.7726559
北海道,函館市,232,函館市東山１丁目13,東山第5街区公園,41.8118382,140.7702391
北海道,函館市,233,函館市東山２丁目9,東山第2号幼児公園,41.8089451,140.7723917
北海道,函館市,234,函館市東山２丁目34,東山児童公園,41.8085191,140.7774009
北海道,函館市,235,函館市東山３丁目16,東山第3号幼児公園,41.8112488,140.7782666
北海道,函館市,236,函館市東山３丁目27,東山第4号幼児公園,41.8113669,140.7814903
北海道,函館市,237,函館市東山３丁目30,東山第8街区公園,41.8094481,140.7798869
北海道,函館市,238,函館市山の手３丁目9,本通町第2公園,41.805805,140.7812646
北海道,函館市,239,函館市山の手３丁目4,山の手児童館（本通見晴線面）,41.80461349999999,140.7789131
北海道,函館市,240,函館市山の手２丁目6,函館白百合学園（函館上磯線面）,41.8022382,140.7765747
北海道,函館市,241,函館市山の手２丁目7,函館白百合学園（東山日吉線面）,41.8029843,140.7780234
北海道,函館市,242,函館市山の手１丁目36,東山幼児公園,41.8092844,140.7847618
北海道,函館市,243,函館市山の手１丁目31,山の手1-16号線道路敷（23番向かい面）,41.80782250000001,140.783894
北海道,函館市,244,函館市山の手３丁目26,本通町第3公園,41.8073161,140.7863598
北海道,函館市,245,函館市山の手３丁目58,北中学校（29番向かい面）,41.8059076,140.7871872
北海道,函館市,246,函館市山の手２丁目26,本通町公園,41.8014277,140.7810261
北海道,函館市,247,函館市山の手３丁目15,本通第3号幼児公園（30番向かい面）,41.8069279,140.7846203
北海道,函館市,248,函館市日吉町４丁目8,日吉公園,41.8047573,140.7941263
北海道,函館市,249,函館市日吉町４丁目19,函館フットボールパーク（臨空工業団地線沿い）,41.8026643,140.7901362
北海道,函館市,250,函館市日吉町４丁目22,日吉町第3公園,41.8000002,140.7870841
北海道,函館市,251,函館市日吉町４丁目５,北日吉小学校（２番向かい面）,41.8017115,140.7923318
北海道,函館市,252,函館市日吉町４丁目19,函館フットボールパーク（16番向い面）,41.8026643,140.7901362
北海道,函館市,253,函館市日吉町４丁目13,日吉第17街区公園,41.8052336,140.7896308
北海道,函館市,254,函館市日吉町４丁目10,日吉第16街区公園,41.8054199,140.7918501
北海道,函館市,255,函館市日吉町２丁目34,日吉が丘小学校（4番向かい面）,41.7941697,140.7883413
北海道,函館市,256,函館市日吉町２丁目34,日吉が丘小学校グラウンド（32番向かい面）,41.7941697,140.7883413
北海道,函館市,257,函館市日吉町２丁目9,日吉児童公園（日吉中央通面）,41.7929822,140.7908853
北海道,函館市,258,函館市日吉町１丁目12,函館ラ・サール学園グラウンド（21番向かい面）,41.7894663,140.7904217
北海道,函館市,259,函館市日吉町１丁目12,函館ラ・サール学園グラウンド（文教通面）,41.7894663,140.7904217
北海道,函館市,260,函館市日吉町１丁目12,函館ラ・サール学園正面,41.7894663,140.7904217
北海道,函館市,261,函館市日吉町３丁目25,日吉第2号児童公園,41.7979832,140.7844551
北海道,函館市,262,函館市山の手２丁目22,山の手第5街区公園,41.7996959,140.7816422
北海道,函館市,263,函館市山の手２丁目56,本通第4公園,41.8009175,140.7860233
北海道,函館市,264,函館市日吉町３丁目23,ポリテクセンター函館入口横,41.7975797,140.7854148
北海道,函館市,265,函館市山の手２丁目18,コープさっぽろ山の手店（道道函館上磯線面）,41.7986378,140.7798149
北海道,函館市,266,函館市日吉町３丁目37,市営住宅日吉3丁目団地2号棟前,41.7958863,140.7829974
北海道,函館市,267,函館市日吉町３丁目36,市営住宅日吉3丁目団地9号棟前,41.7953497,140.7834331
北海道,函館市,268,函館市花園町31,市営住宅花園団地5号棟前駐車場,41.7935231,140.7804921
北海道,函館市,269,函館市花園町35,市営住宅花園団地2号棟前駐車場,41.7948854,140.7803338
北海道,函館市,270,函館市花園町35,市営住宅花園団地運動広場横,41.7948854,140.7803338
北海道,函館市,271,函館市花園町22,国家公務員住宅内公園,41.7914226,140.7815658
北海道,函館市,272,函館市本通２丁目3,本通第3号児童公園（3番向かい面）,41.7954934,140.768936
北海道,函館市,273,函館市本通３丁目10,南本通小学校（児童公園向かい面）,41.7945501,140.772863
北海道,函館市,274,函館市本通３丁目25,本通町第５公園,41.795418,140.7750026
北海道,函館市,275,函館市本通３丁目17,せせらぎ公園,41.7923662,140.7776394
北海道,函館市,276,函館市川原町18,国立函館病院（日吉が丘通面）,41.7892686,140.773519
北海道,函館市,277,函館市本通３丁目2,川原緑道入り口,41.7915138,140.7765146
北海道,函館市,278,函館市川原町5,函館工業高等学校グラウンド（交差点面）,41.7922665,140.7691873
北海道,函館市,279,函館市柏木町13,函館工業高校柔剣道場（柏葉通面）,41.7913302,140.7680517
北海道,函館市,280,函館市柏木町13,函館工業高校職員駐車場（函工通面）,41.7913302,140.7680517
北海道,函館市,281,函館市柏木町5,函館工業高校公宅63共,41.791132,140.7660003
北海道,函館市,282,函館市駒場町1,駒場小学校（市道駒場通面）,41.782511,140.768581
北海道,函館市,283,函館市駒場町1,駒場小学校（2番向かい面）,41.782511,140.768581
北海道,函館市,284,函館市駒場町10,道営住宅駒場町団地,41.7842463,140.7728589
北海道,函館市,285,函館市乃木町9,乃木公務員アパート９０５号前,41.77931470000001,140.7634368
北海道,函館市,286,函館市乃木町9,乃木町公務員アパート内公園,41.77931470000001,140.7634368
北海道,函館市,287,函館市湯浜町16,湯浜幼児公園,41.7774982,140.7777085
北海道,函館市,288,函館市湯浜町14,市営住宅湯浜団地3号棟（漁火通面）,41.7764256,140.7785797
北海道,函館市,289,函館市湯浜町14,市営住宅湯浜団地内公園（湯浜保育園右）,41.7764256,140.7785797
北海道,函館市,290,函館市湯川町１丁目35,鮫川公園（36番向かい面）,41.7804273,140.781806
北海道,函館市,291,函館市湯川町１丁目7,湯川老人福祉センター,41.7761518,140.7825929
北海道,函館市,292,函館市湯川町１丁目32,函館市民会館横（市営住宅深堀団地向かい面）,41.7824663,140.7840992
北海道,函館市,293,函館市湯川町１丁目21,函館競馬場湯浜寮,41.7778406,140.7801157
北海道,函館市,294,函館市湯川町１丁目7,湯川黒松林,41.7761518,140.7825929
北海道,函館市,295,函館市深堀町28,深堀中学校（深堀通面）,41.7863773,140.7812392
北海道,函館市,296,函館市深堀町14,深堀小学校（学園通面）,41.7881883,140.7794525
北海道,函館市,297,函館市深堀町31,市営住宅深堀団地,41.7842563,140.78231
北海道,函館市,298,函館市深堀町19,函館競馬場北駐車場,41.7853177,140.7746148
北海道,函館市,299,函館市深堀町21,函館競馬場公園駐車場,41.7854337,140.77774
北海道,函館市,300,函館市深堀町26,深堀第１街区公園,41.7847489,140.7803499
北海道,函館市,301,函館市湯川町２丁目41,湯川中学校（はこだて療育・自立支援センター向かい面）,41.7845813,140.7877527
北海道,函館市,302,函館市湯川町２丁目41,湯川中学校（道道函館上磯線面）,41.7845813,140.7877527
北海道,函館市,303,函館市湯川町２丁目43,学園通道路敷（有斗高校裏）,41.7860119,140.7865912
北海道,函館市,304,函館市湯川町２丁目13,湯川児童館,41.7792096,140.7897445
北海道,函館市,305,函館市花園町7,花園幼児公園,41.7868642,140.7840034
北海道,函館市,306,函館市湯川町３丁目42,湯川小学校前歩道橋下,41.7797564,140.7965657
北海道,函館市,307,函館市湯川町３丁目6,根崎公園ラグビー場駐車場,41.7763791,140.7940955
北海道,函館市,308,函館市戸倉町154,戸倉第5街区公園,41.78238839999999,140.8065311
北海道,函館市,309,函館市戸倉町5-5,NTT東日本湯ノ川電話交換所前,41.7829209,140.7972108
北海道,函館市,310,函館市湯川町３丁目42,湯川幼児公園（15番向かい面）,41.7797564,140.7965657
北海道,函館市,311,函館市榎本町18,榎本幼児公園,41.7863116,140.7945621
北海道,函館市,312,函館市榎本町9,見晴公園通り歩道橋下,41.7846075,140.7923124
北海道,函館市,313,函館市高丘町3,高丘小学校（1番向かい面）,41.7876837,140.8016622
北海道,函館市,314,函館市高丘町3,高丘小学校（26番向かい面）,41.7876837,140.8016622
北海道,函館市,315,函館市高丘町3,高丘小学校グラウンド（上野町32番向かい面）,41.7876837,140.8016622
北海道,函館市,316,函館市戸倉町26,戸倉中学校（市道文教通3号面）,41.7860007,140.8065025
北海道,函館市,317,函館市高丘町33,高丘児童公園（34番向かい面）,41.79043009999999,140.8047253
北海道,函館市,318,函館市高丘町43,高丘第2号児童公園,41.7915137,140.8074001
北海道,函館市,319,函館市見晴町59,香雪園バス停横,41.7994314,140.8126672
北海道,函館市,320,函館市上湯川町10,市営住宅湯川団地中央公園（湯川団地中央バス停横）,41.7811832,140.8102526
北海道,函館市,321,函館市上湯川町15,市営住宅湯川団地内公園（14番向かい面）,41.7824236,140.8094043
北海道,函館市,322,函館市上湯川町28,市営住宅湯川団地内公園（29番向かい面）,41.7847212,140.8103832
北海道,函館市,323,函館市上湯川町38,市営住宅湯川団地内公園（37番向かい面）,41.7831114,140.8116889
北海道,函館市,324,函館市上湯川町8,上湯川児童館,41.7800413,140.8121263
北海道,函館市,325,函館市高松町29,根崎公園（国道278号面）,41.7745184,140.7945786
北海道,函館市,326,函館市高松町575,高松町公園,41.7798587,140.8188072
北海道,函館市,327,函館市瀬戸川町38,瀬戸川町公園,41.778178,140.822045
北海道,函館市,328,函館市高松町105,空港緑地高松ふれあい広場,41.7770145,140.8014153
北海道,函館市,329,函館市上湯川町374,上湯川第2号児童公園（道道函館南茅部線面）,41.790304,140.8201301
北海道,函館市,330,函館市西旭岡町１丁目14,西旭岡第1幼児公園（かえで通り面）,41.7947695,140.8215021
北海道,函館市,331,函館市西旭岡町１丁目21,西旭岡第3幼児公園,41.7947695,140.8215021
北海道,函館市,332,函館市西旭岡町２丁目38,旭岡公園（37番向かい面）,41.79842,140.8273874
北海道,函館市,333,函館市西旭岡町１丁目33,かえで通道路敷（旭岡小学校下）,41.7947695,140.8215021
北海道,函館市,334,函館市西旭岡町１丁目33,旭岡公園(西旭岡町2丁目7番向かい),41.7947695,140.8215021
北海道,函館市,335,函館市西旭岡町３丁目5,旭岡中学校（市道マロニエ通面）,41.8060898,140.8338075
北海道,函館市,336,函館市西旭岡町３丁目21,西旭岡第4号児童公園（マロニエ通面）,41.8060898,140.8338075
北海道,函館市,337,函館市西旭岡町２丁目50,市営住宅旭岡団地内公園（旭岡公園前バス停横）,41.79842,140.8273874
北海道,函館市,338,函館市西旭岡町３丁目2,コープさっぽろ旭岡店駐車場（駐在所向かい面）,41.8060898,140.8338075
北海道,函館市,339,函館市鱒川町91,鱒川小中学校,41.8253289,140.8503528
北海道,函館市,340,函館市亀尾町32,亀尾地区総合福祉センター駐車場,41.7935995,140.8580767
北海道,函館市,341,函館市米原町137,道道米原古川線（米原町137先）,41.7831407,140.8559368
北海道,函館市,342,函館市蛾眉野町44,蛾眉野林産協同組合,41.7974966,140.9363421
北海道,函館市,343,函館市高松町337,国道278号道路敷（ローソン駐車場前）,41.7715125,140.801345
北海道,函館市,344,函館市根崎町556,国道278号道路敷（根崎生活館前）,41.76882639999999,140.810045
北海道,函館市,345,函館市赤坂町13,高松新湊線道路敷地(志海苔ふれあい広場テニスコート入口横),41.7659192,140.8254816
北海道,函館市,346,函館市瀬戸川町12-2,高松新湊線道路敷(志海苔ふれあいﾊﾟｰｸｺﾞﾙﾌ場入口横),41.7683773,140.8196509
北海道,函館市,347,函館市中野町20,高松新湊線道路敷（銭亀中野線交差点付近）,41.7751937,140.8424173
北海道,函館市,348,函館市銭亀町113,吉田宅向かい空地,41.7620898,140.8281609
北海道,函館市,349,函館市銭亀町,銭亀児童公園,41.7616248,140.8319521
北海道,函館市,350,函館市新湊町143,国道278号道路敷,41.7609996,140.8390688
北海道,函館市,351,函館市新湊町230,国道278号道路敷（福井純一宅下）,41.7604613,140.8520353
北海道,函館市,352,函館市古川町13,田中歯科クリニック駐車場,41.76076339999999,140.8584222
北海道,函館市,353,函館市古川町350-4,古川町会館前,41.758919,140.8664128
北海道,函館市,354,函館市豊原町140,銭亀沢中学校,41.7674436,140.8622746
北海道,函館市,355,函館市豊原町10,ゴルフ場入口バス停横,41.7726444,140.8608091
北海道,函館市,356,函館市石崎町490,石崎町会館横,41.7539677,140.8802199
北海道,函館市,357,函館市石崎町277,村田宅前,41.75291000000001,140.8831682
北海道,函館市,358,函館市小安町13-1,大山勝美宅向かい,41.7472263,140.9030035
北海道,函館市,359,函館市小安町56,関谷武彦宅前,41.74419,140.9121025
北海道,函館市,360,函館市小安町711-6,国道278号道路敷（市営住宅小安西団地前）,41.7436857,140.9171626
北海道,函館市,361,函館市小安町174,旧小安診療所前,41.7406605,140.9217122
北海道,函館市,362,函館市釜谷町13,後藤良人宅前,41.7370104,140.9317569
北海道,函館市,363,函館市汐首町29-1，36間,国道278号道路敷（原，境宅あいだ敷地前）,41.7187566,140.9512119
北海道,函館市,364,函館市汐首町113,巽巌宅横の小屋前,41.7123306,140.9591208
北海道,函館市,365,函館市瀬田来町824-10,後藤誠吾宅横,41.7136551,140.9775083
北海道,函館市,366,函館市瀬田来町104,国道278号道路敷（瀬田来支所バス停横）,41.7156574,140.984848
北海道,函館市,367,函館市弁才町333-2,旧教員住宅前空き地,41.7191833,140.9903436
北海道,函館市,368,函館市弁才町62,国道278号道路敷（松澤孝幸宅前）,41.716466,140.9967312
北海道,函館市,369,函館市泊町20,国道278号道路敷（池田秋二宅前）,41.7150614,141.0007013
北海道,函館市,370,函館市館町3-1,国道278号道路敷（戸井支所前バス停横）,41.7165506,141.0048665
北海道,函館市,371,函館市浜町355-5,戸井生涯学習センター前,41.7225965,141.0121126
北海道,函館市,372,函館市浜町2104,国道278号道路敷（東部浜町バス停横）,41.7345844,141.0063385
北海道,函館市,373,函館市浜町119-2地先,国道278号道路敷（ドライブインとい東側,41.7205971,141.0241492
北海道,函館市,374,函館市浜町762,市営住宅浜町西団地前,41.7251659,141.0085438
北海道,函館市,375,函館市新二見町117-5,国道278号道路敷（松本英雄宅横）,41.7265199,141.0327571
北海道,函館市,376,函館市原木町285-1,温泉保養センター前,41.7298257,141.0318285
北海道,函館市,377,函館市日浦町125,携帯電話アンテナ鉄塔出入口横,41.733594,141.0505286
北海道,函館市,378,函館市大澗町51-4,大澗漁港敷地,41.7444137,141.0754264
北海道,函館市,379,函館市大澗町72-1,松本一隆宅横干場,41.7491564,141.0756767
北海道,函館市,380,函館市大澗町146-2,尻岸内会館駐車場,41.7474028,141.0739674
北海道,函館市,381,函館市中浜町99-4,斉藤ヒサ宅横空き地,41.7529546,141.0760768
北海道,函館市,382,函館市女那川町171,旧恵山町立国保病院跡地,41.758735,141.0771541
北海道,函館市,383,函館市川上町478,尻岸内郵便局横,41.8060937,141.0647388
北海道,函館市,384,函館市女那川町64,赤井ふみ宅横,41.7600409,141.0848078
北海道,函館市,385,函館市女那川町426,国道278号道路敷（寄貝歌バス停横）,41.7693682,141.0866538
北海道,函館市,386,函館市日ノ浜町127,恵山支所前,41.7878869,141.1079131
北海道,函館市,387,函館市日ノ浜町22-3隣,国道278号道路敷（海浜公園横）,41.7761471,141.0983884
北海道,函館市,388,函館市古武井町39,道道元村恵山線道路敷（古武井漁組バス停横）,41.7884597,141.1177079
北海道,函館市,389,函館市古武井町150-4,古武井会館前,41.7895244,141.1258076
北海道,函館市,390,函館市古武井町409,恵山漁業協同組合山背泊支所前,41.7875896,141.1337405
北海道,函館市,391,函館市恵山町305-2,恵山中学校教員住宅前,41.7863414,141.1413249
北海道,函館市,392,函館市柏野町31,柏野会館前,41.7885201,141.146393
北海道,函館市,393,函館市恵山町119,旧恵山漁組事務所跡地,41.7848567,141.1464395
北海道,函館市,394,函館市柏野町99-2,恵山第3団地上空地,41.7910941,141.150212
北海道,函館市,395,函館市御崎町10-2,旧大西宅あと干場,41.7941511,141.165446
北海道,函館市,396,函館市新浜町156-1,椴法華支所入口横,41.8328854,141.1411949
北海道,函館市,397,函館市新浜町135,国道278号道路敷（井戸向巌宅前）,41.8358498,141.1421045
北海道,函館市,398,函館市銚子町95-10,国道278号道路敷（湊幸吉宅前）,41.8418005,141.1417642
北海道,函館市,399,函館市新八幡町22-2,旧新八幡町市有住宅前,41.8299315,141.1458183
北海道,函館市,400,函館市島泊町111-1,もと島泊会館横,41.8290087,141.1463327
北海道,函館市,401,函館市富浦町132-1,川口亘宅横,41.8276042,141.1520144
北海道,函館市,402,函館市元村町91-3,玉村宅横市有地,41.8191234,141.1717175
北海道,函館市,403,函館市古部町422,国道278号道路敷（潮見橋山側欄干横）,41.8654874,141.1161823
北海道,函館市,404,函館市木直町377,木直漁港入口,41.8868415,141.068103
北海道,函館市,405,函館市木直町578,旧ポン木直川橋横,41.8862654,141.0551444
北海道,函館市,406,函館市木直町131,国道278号道路敷（白井川バス停横）,41.8761915,141.0690167
北海道,函館市,407,函館市木直町240,国道278号道路敷（割石バス停横）,41.8761915,141.0690167
北海道,函館市,408,函館市尾札部町186-1,千葉宏宅前,41.8922637,141.028795
北海道,函館市,409,函館市尾札部町469-1,尾札部漁港中央入口横（神社向かい）,41.8929881,141.0153876
北海道,函館市,410,函館市尾札部町824,尾札部保育園跡地前,41.8981809,140.9990935
北海道,函館市,411,函館市尾札部町573,尾札部会館横,41.8930379,141.0098906
北海道,函館市,412,函館市川汲町21-1,小板克己宅向かい,41.9009491,140.9935578
北海道,函館市,413,函館市川汲町100,沢中商店向かい（浜側）,41.90300510000001,140.9897202
北海道,函館市,414,函館市川汲町198-1,川汲漁港入口,41.9045457,140.9832679
北海道,函館市,415,函館市川汲町341,菊池商店向かい三角地,41.8945473,140.9633034
北海道,函館市,416,函館市川汲町1520-7,国道278号道路敷（南茅部総合センター前）,41.90560199999999,140.970156
北海道,函館市,417,函館市安浦町54-1,小板商店向かい（浜側）,41.9150262,140.9614284
北海道,函館市,418,函館市安浦町90-5,砂田鉄也宅横,41.9170653,140.9585325
北海道,函館市,419,函館市安浦町138-2,称念寺横,41.9203619,140.9547723
北海道,函館市,420,函館市臼尻町235-4,臼尻会館,41.9332663,140.9427215
北海道,函館市,421,函館市豊崎町159,国道278号道路敷（田中清光宅横）,41.9498383,140.9307618
北海道,函館市,422,函館市臼尻町119-1,旧東商工会南茅部支所前,41.9317389,140.948825
北海道,函館市,423,函館市大船町17,国道278号道路敷（大船小学校前）,41.95781969999999,140.9122749
北海道,函館市,424,函館市大船町150,金澤正利宅向かい（浜側）,41.95781969999999,140.9122749
北海道,函館市,425,函館市大船町347-4,大船漁港入口ガードレール横,41.9675707,140.9157062
北海道,函館市,426,函館市双見町25番地先,国道278号道路敷（消防団器具置場前）,41.9772401,140.9078555
北海道,函館市,427,函館市岩戸町21-1,山田太一宅前空地,41.9940104,140.8935057
北海道,函館市,428,函館市岩戸町81-1,下岩戸バス停横,42.0014287,140.8793878
北海道,函館市,429,函館市岩戸町140-1,国道278号道路敷（岩戸バス停前）,42.0069001,140.8675982
