prefecture,city,number,address,name,lat,long,note
北海道,北見市,北見第1,北6条東1丁目3,小公園,43.8091094,143.8938962,
北海道,北見市,北見第1,北4条西1丁目1番,中央公園,43.806248,143.893661,緯度経度は怪しい
北海道,北見市,北見第1,北4条東4丁目12番,4条公園,43.8098687,143.8968713,
北海道,北見市,北見第1,北9条東1丁目8番地3,中央地区住民センター駐車場,43.808811,143.891068,緯度経度は怪しい
北海道,北見市,北見第2,清見町70番3,コーポラス清見（緑園通側）,43.8158115,143.8832078,
北海道,北見市,北見第2,中央町31番,中央小学校（学園通側）,43.810359,143.8888626,
北海道,北見市,北見第2,三楽町70番地の10,三楽町やなぎ公園,43.8134378,143.8945349,
北海道,北見市,北見第2,幸町4丁目5番,アカシヤ公園,43.8076562,143.8847868,
北海道,北見市,北見第3,東陵町27番,東陵公園（青葉通側）,43.8185048,143.8965162,
北海道,北見市,北見第3,東陵町27番,東陵公園前バス停「テニスコート」横,43.8185048,143.8965162,
北海道,北見市,北見第3,公園町1番38,野付牛公園（旧東地区トレーニングセンター側）,43.8172743,143.9030531,
北海道,北見市,北見第3,桜町4丁目38番,桜町公園,43.8079773,143.9061593,
北海道,北見市,北見第4,山下町5丁目2番,山下公園,43.8026342,143.8857033,
北海道,北見市,北見第4,本町5丁目3番,本町第2公園,43.8003224,143.8804743,
北海道,北見市,北見第4,常盤町2丁目1番,とん田公園,43.7987008,143.8907182,
北海道,北見市,北見第4,常盤町4丁目11番,常盤こぶし公園,43.795643,143.887253,緯度経度は怪しい
北海道,北見市,北見第5,とん田東町617番199,しらかば公園,43.799029,143.8830424,
北海道,北見市,北見第5,とん田東町469番,とん田第2公園,43.79513,143.8794675,
北海道,北見市,北見第5,常盤町6丁目12番地,常盤はんの木公園,43.7897915,143.8903132,
北海道,北見市,北見第5,とん田東町698番,常盤公園（西小学校側）,43.7910582,143.8853284,
北海道,北見市,北見第5,常盤町5丁目14番,常盤くりの木公園,43.7928878,143.8881246,
北海道,北見市,北見第6,栄町4丁目6番付近,石北大通（栄町側）,43.8018558,143.8744415,
北海道,北見市,北見第6,とん田西町315番,とん田どんぐり公園,43.7954572,143.8765329,
北海道,北見市,北見第6,光西町187番7,コーポラス光西（とん田2号団地集会所側）,43.793964,143.8702875,
北海道,北見市,北見第6,西富町3丁目11番地先,石北大通（西富町側）,43.8031909,143.8651954,
北海道,北見市,北見第6,東三輪1丁目,三輪公園（国道側）,43.8014152,143.8616623,
北海道,北見市,北見第7,泉町4丁目6番,泉第1公園,43.80315419999999,143.9036101,
北海道,北見市,北見第7,南仲町2丁目15番,南仲町公園,43.8004967,143.8974285,
北海道,北見市,北見第7,南町2丁目20番,南町第2公園,43.7969606,143.9037565,
北海道,北見市,北見第7,中ノ島町2丁目9番,コーポラス中ノ島（南大通側）,43.7932374,143.8966537,
北海道,北見市,北見第8,寿町6丁目5番14,北地区公民館,43.8140565,143.8763496,
北海道,北見市,北見第8,高栄東町4丁目170番2,つつじ公園（美山通側）,43.8182198,143.8721274,
北海道,北見市,北見第8,高栄東町1丁目144番76,高栄さわやか公園,43.8109137,143.8734629,
北海道,北見市,北見第8,美芳町4丁目1番,美芳公園（美芳児童センター前）,43.807415,143.8794497,
北海道,北見市,北見第8,美芳町9丁目7番,美芳第3公園,43.8028058,143.8823896,
北海道,北見市,北見第9,高栄西町9丁目127番,高栄南公園,43.81152489999999,143.8608945,
北海道,北見市,北見第9,高栄西町4丁目98番,高栄地区住民センター（美山通側）,43.8174004,143.8663189,
北海道,北見市,北見第9,高栄西町7丁目98番,高栄どんぐり公園,43.8160249,143.8589873,
北海道,北見市,北見第10,若葉5丁目7番,若葉くるみ公園,43.8124287,143.8540264,
北海道,北見市,北見第10,若葉7丁目2番2地先,バス停「若葉7丁目」横,43.8091456,143.8448994,
北海道,北見市,北見第10,桂町5丁目,桂町すずらん公園,43.8054314,143.8575424,
北海道,北見市,北見第10,双葉町4丁目3番,双葉公園（西7号線側）,43.805736,143.8512587,
北海道,北見市,北見第10,緑町6丁目605番地6,双葉緑道（西8号線側）,43.8039492,143.8410258,
北海道,北見市,北見第11,緑ヶ丘3丁目45番67,緑ヶ丘もみじ公園,43.8269305,143.8710768,
北海道,北見市,北見第11,美山町西1丁目,美山北公園,43.8260544,143.8793632,
北海道,北見市,北見第11,花月町,美山公園（美山通側）,43.81678840000001,143.8788886,
北海道,北見市,北見第11,美山町東4丁目,美山わかくさ公園,43.8314485,143.8825771,
北海道,北見市,北見第11,昭和44番地先,道道北見常呂線　バス停「昭和橋」横,43.8357198,143.8753426,
北海道,北見市,北見第12,公園町142番,野付牛公園（トリム施設横駐車場右側出入口右横）,43.8197188,143.9076942,
北海道,北見市,北見第12,柏陽町592番地13,ハイテクパーク（案内看板横）,43.8236479,143.9075923,
北海道,北見市,北見第12,柏陽町29番,東部緑道柏陽公園（国道側）,43.8237118,143.9154089,
北海道,北見市,北見第13,春光町4丁目133番,小泉団地（東7号線側）,43.8250228,143.9228842,
北海道,北見市,北見第13,春光町6丁目976番,春光わかば公園,43.82277149999999,143.9238345,
北海道,北見市,北見第13,ひかり野2丁目9,ふれあい公園,43.8294933,143.9280306,
北海道,北見市,北見第13,春光町5丁目971番21,春光むつみ公園,43.8200551,143.9190477,
北海道,北見市,北見第13,田端町32番26,小泉中学校(東6号線側),43.81800155223885, 143.9151051179673,緯度経度は怪しい
北海道,北見市,北見第14,川東320番,川東住民センター,43.802234532328626, 143.92035783741565,住所と名前が食い違っている（施設名でググって緯度経度入手）
北海道,北見市,北見第14,川東56番62,川東ほがらか公園,43.80438163803313, 143.917799157268,緯度経度は怪しい
北海道,北見市,北見第14,川東39番30地先,無加川サイクリングロード沿い,43.8001273,143.9136098,
北海道,北見市,北見第15,若松41番地先,フラワーパラダイス,43.788682, 143.926097,緯度経度は怪しい
北海道,北見市,北見第16,開成384番地,開成ふるさと工芸館,43.74061058108749, 143.88220149021512,緯度経度は怪しい
北海道,北見市,北見第17,常川50番地1,西9号三原橋付近,43.733400, 143.824551,緯度経度は怪しい
北海道,北見市,北見第17,常川714番地1,常川第2会館,43.74289516632795, 143.82699296867455,緯度経度は怪しい
北海道,北見市,北見第17,北上338番17地先,銀河ふれあい道路,43.76205090000001,143.8498007,
北海道,北見市,北見第17,北上739番地先,道道北見置戸線 バス停「北上」横,43.7701962,143.8668125,
北海道,北見市,北見第17,上ところ96番地4,上ところ高齢者福祉会館,43.7590745,143.8417158,
北海道,北見市,北見第17,上ところ682番1,上常呂出張所,43.757888,143.8374241,
北海道,北見市,北見第18,北央町120番,北央町よつば公園,43.78376204889931, 143.8851669176964,緯度経度は怪しい
北海道,北見市,北見第18,錦町181番3,masked,43.7851728,143.8787442,
北海道,北見市,北見第18,広明町227番1,広明公園,43.781115375970096, 143.87890828650856,緯度経度は怪しい
北海道,北見市,北見第18,花園町29番52,北光東高齢者福祉会館,43.7864248,143.8915852,
北海道,北見市,北見第19,豊地26番24地先,道道北見環状線 バス停「豊地7号線」横,43.78741533572537, 143.85035085380656,緯度経度は怪しい
北海道,北見市,北見第19,豊地285番1,豊地小学校,43.7876646,143.8335214,
北海道,北見市,北見第20,西三輪2丁目662番地5,三輪西高齢者福祉会館前,43.799772449756475, 143.8365509911039,住所と名前が食い違っている（施設名でググって緯度経度入手）
北海道,北見市,北見第20,西三輪5丁目,三輪開生公園,43.7941921,143.8418693,
北海道,北見市,北見第20,中央三輪4丁目,三輪なかよし公園付近,43.7986639,143.8470049,
北海道,北見市,北見第20,中央三輪2丁目,三輪のぞみ公園,43.800331,143.8515726,
北海道,北見市,北見第21,大正358番12地先,大正住民センター前バス停「大正福祉会館」横,43.823261, 143.839923,緯度経度は怪しい
北海道,北見市,北見第21,大正64番地2,大正小学校,43.810036, 143.839682,緯度経度は怪しい
北海道,北見市,北見第22,仁頃町254番地1,masked,43.899330, 143.899478,緯度経度は怪しい
北海道,北見市,北見第23,北陽182番,北陽会館,43.906391852319516, 143.87601211343514,緯度経度は怪しい
北海道,北見市,北見第24,上仁頃130番1,やすらぎ苑,43.87076368959457, 143.85224134232766,緯度経度は怪しい
北海道,北見市,北見第25,美里290番地,美里開拓資料館,43.88340541043404, 143.83218663256054,緯度経度は怪しい
北海道,北見市,北見第26,東相内町23番地先,サザンクロス・ビル前,43.8015445,143.8234377,
北海道,北見市,北見第26,東相内町597番地5,東相内地区住民センター向かい駐車場,43.80442920444784, 143.80776650935303,緯度経度は怪しい
北海道,北見市,北見第27,美園541番1地先,美園会館向かい側,43.802352, 143.772888,美園会館がどこかわからず位置情報に自信なし
北海道,北見市,北見第28,相内町51番1地先,相内公園駐車場横,43.8005462,143.7646612,
北海道,北見市,北見第28,相内町109番地3,相内支所,43.7978826,143.7531741,
北海道,北見市,北見第28,相内町287番,相内小学校(バス停横),43.79746660000001,143.7486615,
北海道,北見市,北見第29,豊田535番,豊田住民センター,43.795897995378056, 143.7312880251296,緯度経度は怪しい
北海道,北見市,北見第30,西相内207番地14,西相内多目的地域会館前,43.790034, 143.678669,緯度経度は怪しい
北海道,北見市,北見第31,北進町1丁目,第2夕陽ヶ丘団地,43.80810839999999,143.8728925,
北海道,北見市,北見第31,北進町1丁目6番35,北地区住民センター,43.8076315,143.873128,
北海道,北見市,北見第31,北進町1丁目,北進団地,43.80810839999999,143.8728925,
北海道,北見市,北見第31,北進町6丁目,北進町北新ふれあい公園,43.8059595,143.8661103,
北海道,北見市,北見第31,北進町6丁目88番24地先,バス停「北進橋」付近,43.8059595,143.8661103,
北海道,北見市,北見第32,末広町366番,北光平和公園,43.7870545,143.8701182,
北海道,北見市,北見第32,無加川町636番1,北光さくら公園,43.7863251,143.8612504,
北海道,北見市,北見第32,北光293番43,特別養護老人ホームこもれびの里前広場,43.779202,143.866669,緯度経度は怪しい
北海道,北見市,端野第1,端野町端野103番地1,白かば団地,43.8505383163091, 143.9461342,緯度経度は怪しい
北海道,北見市,端野第1,端野町端野147番地1,端野町高齢者コミュニティーセンター,43.85426192169141, 143.94647032792938,緯度経度は怪しい
北海道,北見市,端野第2,端野町二区471番地1,端野総合支所,43.8609739222861, 143.9469128981467,緯度経度は怪しい
北海道,北見市,端野第2,端野町二区471番地13,中央団地,43.85982146938387, 143.94445275767237,緯度経度は怪しい
北海道,北見市,端野第2,端野町二区,市道こもれび道路二区生活センター付近,43.86482585185185, 143.94518745581905,緯度経度は怪しい
北海道,北見市,端野第3,端野町三区104番地1,屯田農村生活センター,43.84801381036389, 143.93056488836186,緯度経度は怪しい
北海道,北見市,端野第3,端野町三区331番地地先,道道川向端野線 東11号交差点付近,43.839490, 143.935166,緯度経度は怪しい
北海道,北見市,端野第3,端野町三区564番地1,国道39号線東11号交差点付近,43.841370, 143.931317,緯度経度は怪しい
北海道,北見市,端野第3,端野町三区464番地4,いなだ屋端野店横,43.851257, 143.941084,緯度経度は怪しい
北海道,北見市,端野第4,端野町川向167番地,川向文化センター,43.8310672097358, 143.95270704232766,緯度経度は怪しい
北海道,北見市,端野第5,端野町協和239番地1,協和文化センター,43.85392523329146, 143.97741194232762,緯度経度は怪しい
北海道,北見市,端野第6,端野町緋牛内325番地1,緋牛内農村生活センター,43.88239972855815, 144.00115267116382,緯度経度は怪しい
北海道,北見市,端野第7,端野町一区107番地1,一区生活センター,43.886121974741364, 143.96899299999998,緯度経度は怪しい
北海道,北見市,端野第7,端野町忠志156番地1地先,市道端野町42号線忠志旧3班付近,43.917952523793986, 143.97528219999998,緯度経度は怪しい
北海道,北見市,端野第8,端野町豊実259番地1,豊北農村生活センター,43.91969917208961, 143.92063783254275,緯度経度は怪しい
北海道,北見市,端野第8,端野町北登18番地1地先,道道仁倉端野線 北登入口,43.924396, 143.909783,緯度経度は怪しい
北海道,北見市,常呂第1,常呂町字常呂1番地2,道道常呂港線 常呂漁協前,44.124676231985504, 144.10077397116382,緯度経度は怪しい
北海道,北見市,常呂第1,常呂町字東浜44番地1地先,道道土佐東浜線 特別養護老人ホームところ入口,44.122214, 144.067882,住所、施設名、道道のいずれも離れており位置特定が極めて難しい
北海道,北見市,常呂第1,常呂町字常呂25番地4地先,道道常呂港線 漁村センター前,44.12622351747409, 144.08794406745722,緯度経度は怪しい
北海道,北見市,常呂第2,常呂町字常呂639番地3,北見市交通ターミナル前,44.12328212120453, 144.0716188730171,緯度経度は怪しい
北海道,北見市,常呂第2,常呂町字常呂333番地4,道道北見常呂線 常呂総合支所前,44.12085413902304, 144.0711659441809,緯度経度は怪しい
北海道,北見市,常呂第2,常呂町字常呂643番地1,農協付近,44.12226503712224, 144.06813684232765,緯度経度は怪しい
北海道,北見市,常呂第3,常呂町字土佐33番地1,常呂町西町生活改善センター付近,44.1178852397233, 144.0602950711638,緯度経度は怪しい
北海道,北見市,常呂第3,常呂町字土佐2番地1地先,道道土佐東浜線 常呂町スポーツセンター前,44.121953, 144.057675,緯度経度は怪しい
北海道,北見市,常呂第3,常呂町字土佐56番地3,道道北見常呂線 南町会館入口,44.112862, 144.065221,緯度経度は怪しい
北海道,北見市,常呂第3,常呂町字土佐100番地2,旧土佐公民館前,44.109914364155976, 144.05458858465528,緯度経度は怪しい
北海道,北見市,常呂第4,常呂町字岐阜310番地3,一般国道238号 岐阜地区集落センター前,44.1115517442499, 144.01451931534476,緯度経度は怪しい
北海道,北見市,常呂第5,常呂町字栄浦169番地1地先,道道サロマ湖公園線 栄浦児童公園前,44.128238, 143.973158,緯度経度は怪しい
北海道,北見市,常呂第6,常呂町字共立115番地3地先,道道北見常呂線 共立会館前,44.082514, 144.035038,緯度経度は怪しい
北海道,北見市,常呂第6,常呂町字豊川63番地1,道道北見常呂線 川沿小学校前,44.0632018513737, 144.02816415581907,緯度経度は怪しい
北海道,北見市,常呂第6,常呂町字富丘287番地2,富丘地区高齢者コミュニティセンター前,44.06976953768837, 143.99533550185333,緯度経度は怪しい
北海道,北見市,常呂第6,常呂町字福山219番地,福山地区高齢者コミュニティセンター前,44.022814664949095, 143.99874697116383,緯度経度は怪しい
北海道,北見市,常呂第7,常呂町字日吉218番地,日吉会館前,43.98087040353144, 143.94546374232763,緯度経度は怪しい
北海道,北見市,留辺蘂第1,留辺蘂町上町61番地,留辺蘂町公民館,43.7884689,143.6147882,
北海道,北見市,留辺蘂第1,留辺蘂町仲町97番地4,留辺蘂図書館,43.7866062,143.6191884,
北海道,北見市,留辺蘂第1,留辺蘂町仲町87番地13,杉本寝装向かい,43.78767269999999,143.6187798,
北海道,北見市,留辺蘂第2,留辺蘂町旭中央24番地50,留辺蘂住民交流センター,43.780684292363006, 143.62340434418093,緯度経度は怪しい
北海道,北見市,留辺蘂第2,留辺蘂町旭北41番地13,さかえ保育園,43.7822518708149, 143.61358845767234,緯度経度は怪しい
北海道,北見市,留辺蘂第2,留辺蘂町旭中央31番地6,旭東町児童遊園地,43.784012,143.6256164,
北海道,北見市,留辺蘂第3,留辺蘂町東町7番地,信ちゃん公園,43.7869269,143.6226001,
北海道,北見市,留辺蘂第3,留辺蘂町宮下町39番地,木田印刷向かい,43.7903627,143.6239838,
北海道,北見市,留辺蘂第3,留辺蘂町宮下町114番地4,宮下町会館,43.789041511371444, 143.62088174047432,緯度経度は怪しい
北海道,北見市,留辺蘂第4,留辺蘂栄町18番地1,留辺蘂小学校（グランド側）,43.784600309788466, 143.6074876405874,緯度経度は怪しい
北海道,北見市,留辺蘂第4,留辺蘂町栄町92番地5,さかえ会館,43.7845747,143.6121623,
北海道,北見市,留辺蘂第5,留辺蘂町旭公園87番地,留辺蘂町体育館,43.77598397572147, 143.60980011349142,緯度経度は怪しい
北海道,北見市,留辺蘂第5,留辺蘂町旭公園91番地211,旭橋横,43.7787092,143.6102949,
北海道,北見市,留辺蘂第6,留辺蘂町旭3区197番地6,旭3区会館,43.78604085479673, 143.6032169,緯度経度は怪しい
北海道,北見市,留辺蘂第6,留辺蘂町旭西193番地1,留辺蘂中学校(正門側),43.784322, 143.602485,緯度経度は怪しい
北海道,北見市,留辺蘂第6,留辺蘂町旭1区171番地3,西区住民センター,43.78090156106819, 143.59935849814667,緯度経度は怪しい
北海道,北見市,留辺蘂第7,留辺蘂町温根湯温泉410番地6,温根湯地区防災備蓄倉庫,43.75854296868827, 143.5092959783042,緯度経度は怪しい
北海道,北見市,留辺蘂第7,留辺蘂町温根湯温泉75番地1,温根湯温泉多目的センター,43.75353440000001,143.5101406,
北海道,北見市,留辺蘂第7,留辺蘂町温根湯温泉1番地3,旧温根湯温泉スポーツセンター,43.75624378918175, 143.51517188094866,緯度経度は怪しい
北海道,北見市,留辺蘂第7,留辺蘂町温根湯温泉104番地8、105番地6,おんねゆ診療所,43.7578, 143.50538,緯度経度は怪しい
北海道,北見市,留辺蘂第7,留辺蘂町温根湯温泉104番3,温根湯温泉福祉センター前,43.75586, 143.50565,緯度経度は怪しい
北海道,北見市,留辺蘂第7,留辺蘂町温根湯温泉96番地4,中沢ミルクプラント,43.7529145,143.5038236,
北海道,北見市,留辺蘂第8,留辺蘂町大和355番地2,大和地区住民センター,43.741226395916684, 143.450809751312,緯度経度は怪しい
北海道,北見市,留辺蘂第8,留辺蘂町滝の湯126番地3地先,滝の湯会館前,43.73198, 143.42453,緯度経度は怪しい
北海道,北見市,留辺蘂第9,留辺蘂町瑞穂163番地3,瑞穂地区農村環境改善センター,43.89395, 143.6369,緯度経度は怪しい
