prefecture,city,number,address,name,lat,long,note
北海道,厚岸町,1-1,湾月,masked,43.034556,144.843607,
北海道,厚岸町,1-2,湾月,湾月橋フェンス,43.033402,144.841499,
北海道,厚岸町,1-3,湾月,湾月生活館前,43.034349,144.841246,
北海道,厚岸町,1-4,湾月,masked,43.03519,144.840536,
北海道,厚岸町,1-5,湾月,旧菊地造船所跡地,43.036858,144.844393,
北海道,厚岸町,2-1,梅香・松葉・若竹・有明,有明公住フェンス前,43.028369,144.851128,
北海道,厚岸町,2-2,梅香・松葉・若竹・有明,梅香公園フェンス,43.03578,144.849344,
北海道,厚岸町,2-3,梅香・松葉・若竹・有明,社会福祉センター前,43.037871,144.847994,
北海道,厚岸町,2-4,梅香・松葉・若竹・有明,松葉まちなか団地道路沿い,43.037719,144.845892,
北海道,厚岸町,2-5,梅香・松葉・若竹・有明,松葉憩いの広場道路沿い,43.040471,144.848286,
北海道,厚岸町,3-1,松葉・若竹・奔渡,masked,43.040956,144.847673,
北海道,厚岸町,3-2,松葉・若竹・奔渡,旧消防職員駐車場フェンス,43.044186,144.850336,
北海道,厚岸町,3-3,松葉・若竹・奔渡,厚岸漁港看板横,43.042602,144.847567,
北海道,厚岸町,3-4,松葉・若竹・奔渡,個人W氏所有地,43.042348,144.853138,
北海道,厚岸町,4-1,奔渡,漁協倉庫横道路沿い,43.040337,144.855408,
北海道,厚岸町,4-2,奔渡,masked,43.035205,144.858121,
北海道,厚岸町,5-1,奔渡,個人E氏所有干場前フェンス,43.03477,144.85831,
北海道,厚岸町,5-2,奔渡,個人F氏所有土肥商店横,43.032476,144.85933,
北海道,厚岸町,5-3,奔渡,子野日公園駐車場道路沿い,43.028611,144.861669,
北海道,厚岸町,5-4,奔渡,お供え橋フェンス,43.0286,144.86323,
北海道,厚岸町,5-5,奔渡,第1分団前,43.031529,144.856419,
北海道,厚岸町,6-1,筑紫恋,水産種苗センター入口横,43.017513,144.850679,
北海道,厚岸町,6-2,筑紫恋,公民館筑紫恋分館前,43.014306,144.853108,
北海道,厚岸町,7-1,床潭,床潭漁村センターフェンス,43.000004,144.86956,
北海道,厚岸町,7-2,床潭,masked,43.000688,144.863285,
北海道,厚岸町,7-3,床潭,金毘羅院向フェンス,42.992107,144.875726,
北海道,厚岸町,7-4,床潭,masked,42.996719,144.871475,
北海道,厚岸町,8-1,末広,旧生活館横フェンス,42.990767,144.895703,
北海道,厚岸町,8-2,末広,masked,42.990223,144.902639,
北海道,厚岸町,9-1,トライベツ,トライベツ地区集会所入口道路沿い,43.214808,144.92574,
北海道,厚岸町,10-1,若松,若松地区集会所横道路沿い,43.156185,144.90958,
北海道,厚岸町,11-1,糸魚沢,masked,43.104303,144.926666,
北海道,厚岸町,11-2,糸魚沢,糸魚沢地区集会所前,43.104742,144.930644,
北海道,厚岸町,11-3,糸魚沢,つくし保育所前,43.108839,144.925218,
北海道,厚岸町,12-1,港町,港町1号公園フェンス,43.054143,144.849307,
北海道,厚岸町,12-2,港町,個人K氏所有空地,43.052151,144.849988,
北海道,厚岸町,12-3,港町,港町2号公園フェンス,43.052166,144.852549,
北海道,厚岸町,12-4,港町,masked,43.050405,144.852496,
北海道,厚岸町,12-5,港町,中村漁網資材置場フェンス,43.051787,144.854361,
北海道,厚岸町,1-13,真栄,役場庁舎職員玄関側道路沿い,43.052332,144.847135,
北海道,厚岸町,2-13,真栄,旧北洋銀行跡町有地,43.053429,144.844409,
北海道,厚岸町,3-13,真栄,真心横個人X氏所有空地,43.055159,144.843671,
北海道,厚岸町,4-13,真栄,masked,43.054054,144.843195,
北海道,厚岸町,1-14,住の江・山の手,山の手会館やまびこ’05前,43.058989,144.84243,
北海道,厚岸町,2-14,住の江・山の手,あみか21前道路沿い,43.056344,144.845805,
北海道,厚岸町,3-14,住の江・山の手,住の江通りフェンス,43.063191,144.841947,
北海道,厚岸町,4-14,住の江・山の手,masked,43.059842,144.847761,
北海道,厚岸町,5-14,住の江・山の手,住の江公園フェンス前,43.057111,144.847352,
北海道,厚岸町,1-15,宮園,情報館前公園フェンス,43.055217,144.839875,
北海道,厚岸町,2-15,宮園,宮園丘陵団地避難場所看板横,43.058182,144.83763,
北海道,厚岸町,3-15,宮園,masked,43.056694,144.834601,
北海道,厚岸町,4-15,宮園,masked,43.058438,144.828182,
北海道,厚岸町,1-16,宮園・白浜・光栄,個人Y氏所有地フェンス,43.0591,144.824073,
北海道,厚岸町,2-16,宮園・白浜・光栄,白浜地区集会所前,43.060223,144.821005,
北海道,厚岸町,3-16,宮園・白浜・光栄,宮園職員住宅前,43.064159,144.822931,
北海道,厚岸町,4-16,宮園・白浜・光栄,宮園公住M4号棟緑地,43.064387,144.825956,
北海道,厚岸町,5-16,宮園・白浜・光栄,旧宮園保育所跡地,43.064849,144.8240463,
北海道,厚岸町,6-16,宮園・白浜・光栄,心和園入口日吉橋フェンス横,43.069183,144.820186,
北海道,厚岸町,7-16,宮園・白浜・光栄,光栄コミセン前フェンス,43.076391,144.813343,
北海道,厚岸町,1-17,門静,偕楽園入口向フェンス,43.059267,144.799617,
北海道,厚岸町,2-17,門静,masked,43.057958,144.787702,
北海道,厚岸町,3-17,門静,第2分団格納庫前右横,43.058762,144.780605,
北海道,厚岸町,4-17,門静,旧門静へき地保育所フェンス前,43.056175,144.778519,
北海道,厚岸町,5-17,門静,masked,43.056459,144.783244,
北海道,厚岸町,1-18,苫多,masked,43.048427,144.774013,
北海道,厚岸町,2-18,苫多,公民館苫多分館前道路沿い,43.040894,144.765529,
北海道,厚岸町,1-19,尾幌,尾幌酪農ふれあい館入口フェンス,43.016585,144.705919,
北海道,厚岸町,2-19,尾幌,旧尾幌駐在所横倉庫跡地,43.017436,144.704003,
北海道,厚岸町,3-19,尾幌,尾幌へき地保育所フェンス,43.013795,144.703077,
北海道,厚岸町,4-19,尾幌,農業研修センター跡地,43.015341,144.701787,
北海道,厚岸町,1-20,上尾幌,町営住宅前,43.034178,144.615922,
北海道,厚岸町,2-20,上尾幌,きのこ菌床センター裏入口,43.033336,144.611817,
北海道,厚岸町,3-20,上尾幌,masked,43.031752,144.609018,
北海道,厚岸町,4-20,上尾幌,上尾幌郵便局前,43.032281,144.61309,
北海道,厚岸町,5-20,上尾幌,旧上尾幌へき地保育所正面,43.032467,144.615526,
北海道,厚岸町,1-21,太田・大別,masked,43.090003,144.796769,
北海道,厚岸町,2-21,太田・大別,太田へき地保育所フェンス,43.093508,144.787024,
北海道,厚岸町,3-21,太田・大別,太田中学校グランドフェンス,43.094865,144.788515,
北海道,厚岸町,4-21,太田・大別,1番・2号道路交差点,43.079346,144.775626,
北海道,厚岸町,5-21,太田・大別,2番・5号道路交差点,43.093617,144.761067,
北海道,厚岸町,6-21,太田・大別,町営牧場入口横,43.118723,144.76931,
北海道,厚岸町,7-21,太田・大別,大別地区集会所前,43.140973,144.751159,
北海道,厚岸町,1-22,片無去,片無去地区集会所フェンス,43.079744,144.678326,
北海道,厚岸町,2-22,片無去,masked,43.081891,144.644917,
