prefecture,city,number,address,name,lat,long,note
北海道,名寄市,1-1,大通北1,旧市民会館前大通側,44.35701640035425, 142.4635962914388,
北海道,名寄市,1-2,東1条北3丁目,交通会館南側,44.3593508,142.4654706,
北海道,名寄市,1-3,東1条北4丁目,旧雪印跡地北側,44.3604197,142.4656539,
北海道,名寄市,1-4,東3条北5丁目,SERENO北側,44.3615957,142.4687163,
北海道,名寄市,1-5,大通北3,masked,44.35915019999999,142.4636484,
北海道,名寄市,1-6,大通北6,ノースタウン団地北西角,44.363417335206385, 142.46401438074616,
北海道,名寄市,1-7,西3条北2丁目,名寄児童公園東角,44.35871961120092, 142.4585212644178,
北海道,名寄市,1-8,大通南2丁目,図書館入口北側,44.35465574962664, 142.46336326811667,
北海道,名寄市,1-9,西1条南1丁目,名小体育館横,44.3557119,142.4616288,
北海道,名寄市,2-1,大通南3,masked,44.3533564,142.4637277,
北海道,名寄市,2-2,西3条南3丁目,MOMO西側,44.3534359,142.4587361,
北海道,名寄市,2-3,西3条南4丁目,カトリック幼稚園東側柵,44.352158,142.4588747,
北海道,名寄市,2-4,西4条南3丁目,かめや旅館向側空地,44.3534134,142.4569446,
北海道,名寄市,2-5,西4条南5丁目,有楽センター東側,44.3508574,142.4572219,
北海道,名寄市,3-1,西5条南11丁目,三浦自動車北東角,44.3439426,142.4556801,
北海道,名寄市,3-2,西6条南10丁目,合同宿舎西側,44.3455228,142.4541635,
北海道,名寄市,3-3,西7条南12丁目,名寄スポーツセンター東側,44.3427977,142.4522672,
北海道,名寄市,3-4,西11条南11丁目,ライラック公園北側,44.3434957,142.4484548,
北海道,名寄市,3-5,西8条南12丁目,箭原橋北側東側柵,44.3416755,142.4506454,
北海道,名寄市,3-6,西12条南10丁目,masked,44.3454009,142.4473509,
北海道,名寄市,3-7,西11条南8丁目,アカシヤ公園東側,44.3483975,142.448221,
北海道,名寄市,3-8,西7条南7丁目,市病敷地西側,44.3492176,142.4512212,
北海道,名寄市,3-9,西6条南9丁目,花園公園西側,44.3473659,142.4537641,
北海道,名寄市,3-10,西5条南7丁目,masked,44.34921629999999,142.4553321,
北海道,名寄市,4-1,西4条南7丁目,西條駐車場北側,44.3492389,142.4571234,
北海道,名寄市,4-2,西4条南9丁目,法弘寺西側,44.3471172,142.4565813,
北海道,名寄市,4-3,西2条南11丁目,道住サンピラー南側,44.3438944,142.4603186,
北海道,名寄市,4-4,西2条南9丁目,子育て支援センター南側,44.3471623,142.4601637,
北海道,名寄市,4-5,東1条南7丁目,駅前交差点南東側角,44.3491041,142.4647862,
北海道,名寄市,4-6,大通南12,深名線跡地東側,44.3420963,142.4642996,
北海道,名寄市,4-7,西1条南11丁目,道住マーガレットD棟北東角,44.3437388,142.4620791,
北海道,名寄市,4-8,西2条南10丁目,光名幼稚園西向側,44.3453191,142.4605627,
北海道,名寄市,5-1,東3条北1丁目,masked,44.3569016,142.4686261,
北海道,名寄市,5-2,東5条北4丁目,宗谷線アンダパス東側,44.3605403,142.4724685,
北海道,名寄市,5-3,東6条北1丁目,旭栄団地入口北側,44.3570219,142.4754401,
北海道,名寄市,5-4,東5条南3丁目,東保育所北側,44.3533213,142.4723021,
北海道,名寄市,5-5,東6条南4丁目,masked,44.3520344,142.4745837,
北海道,名寄市,5-6,東2条南10丁目41-8,名寄公園入口西側,44.34573280000001,142.4684083,
北海道,名寄市,5-7,東4条南6丁目,えんれい公園西側,44.3498837,142.4702822,
北海道,名寄市,5-8,東3条南3丁目,東小学校舎南東,44.3532767,142.4687193,
北海道,名寄市,5-9,東1条南3丁目,有山木工所前,44.3532008,142.4654886,
北海道,名寄市,6-1,西6条北1丁目,イマダハイツ北側グリーンベルト,44.3569308,142.4539717,
北海道,名寄市,6-2,西5条南3丁目,法華寺南東角,44.3533596,142.4555054,
北海道,名寄市,6-3,西7条南1丁目,西小学校北西角,44.35521128364391, 142.45188454886744,
北海道,名寄市,6-4,西7条南3丁目,第2老人クラブ北側,44.35363950000001,142.4523356,
北海道,名寄市,6-5,西9条北1丁目,旧市営プール跡地,44.3572547,142.4502925,
北海道,名寄市,6-6,西7条南5丁目,なかよし公園西北角,44.3508744,142.4529348,
北海道,名寄市,6-7,西5条北2丁目,福鶴公園西側,44.3585354,142.4551991,
北海道,名寄市,6-8,西4条北3丁目,消防署物置西側,44.35984768553724, 142.4567990525666,
北海道,名寄市,6-9,西7条北2丁目,栄町公園北側,44.358124,142.4527457,
北海道,名寄市,7-1,西13条北1丁目,masked,44.3576228,142.4440785,
北海道,名寄市,7-2,西11条北1丁目,栄町団地集会所南側,44.3573432,142.4472487,
北海道,名寄市,7-3,西11条北2丁目,児童センター西側,44.35891549999999,142.4478753,
北海道,名寄市,7-4,西10条南2丁目,市住アカゲラ団地南側,44.3546007,142.4496399,
北海道,名寄市,7-5,西10条南5丁目,西町公園西側,44.350829,142.449352,
北海道,名寄市,7-6,西13条南2丁目,浅江島公園東入口横,44.3539358,142.4448782,
北海道,名寄市,7-7,西13条南4丁目,旧豊西小向東側,44.3517982,142.4445127,
北海道,名寄市,8-1,西10条北8丁目,masked,44.3647949,142.4488812,
北海道,名寄市,8-2,西2条北5丁目,保健センター西側,44.36199655036834, 142.46108351578593,
北海道,名寄市,8-3,西4条北8丁目,東中前バス停横,44.36499310000001,142.4589284,
北海道,名寄市,8-4,西2条北8丁目1-3,東中テニスコート北側,44.36640519249521, 142.46369701359723,
北海道,名寄市,8-5,東2条北7丁目,masked,44.3637269,142.4671151,
北海道,名寄市,8-6,西4条北8丁目,市立大学南西角,44.36499310000001,142.4589284,
北海道,名寄市,8-7,西8条北8丁目,こでまり公園南側,44.36451510000001,142.4520519,
北海道,名寄市,8-8,西8条北4丁目,大町公園東側,44.3605955,142.4513809,
北海道,名寄市,8-9,西5条北4丁目,産業高校正面ローソン西側,44.3606097,142.4553167,
北海道,名寄市,8-10,西4条北10丁目,西4北10交差点,44.367434,142.4579161,
北海道,名寄市,9-1,日進,研修センター入口,44.37243644914246, 142.46410488704743,
北海道,名寄市,9-2,字日進267,健康の森陸上競技場西側,44.37689967813081, 142.4712932071901,
北海道,名寄市,9-3,日進,8線・道道交差点北東角,44.38169995357973, 142.46438383677378,
北海道,名寄市,10-1,字砺波628-3,砺波会館,44.36339529038842, 142.43696356116274,
北海道,名寄市,10-2,砺波,砥波12線6号交差点南西角,44.36125537341754, 142.43615327451147,
北海道,名寄市,11-1,瑞穂350,瑞穂研修センター前,44.363327892035684, 142.3939674644178,
北海道,名寄市,11-2,瑞穂,弥生迂回路取付南西角,44.361030603203865, 142.377589896446,
北海道,名寄市,12-1,字弥生,masked,44.346175471326504, 142.3733658093508,
北海道,名寄市,12-2,字弥生241番地,弥生会館前,44.33619129049664, 142.38011102557917,
北海道,名寄市,13-1,曙,17線2号南西角,44.33611393626148, 142.40812809195685,
北海道,名寄市,13-2,曙,西部地区集落センター前,44.34308135581085, 142.42237598639383,
北海道,名寄市,13-3,曙1,15線6号山形神社西側,44.34681410944883, 142.43646831208648,
北海道,名寄市,13-4,曙,16線5号信号機付近東側,44.34180763833685, 142.42947847558028,
北海道,名寄市,14-1,豊栄,名寄中学校前,44.3314185,142.4460317,
北海道,名寄市,14-2,豊栄,17線k'sデンキ前グリーンベルト,44.3314185,142.4460317,
北海道,名寄市,15-1,徳田,19線ベストホーム南角,44.32647344328466, 142.45708318674832,
北海道,名寄市,15-2,徳田,徳田会館前,44.336266036673535, 142.4638208955768,
北海道,名寄市,15-3,徳田,南ケ丘団地入口,44.33629673188721, 142.46875615996618,
北海道,名寄市,15-4,徳田,名寄高校北側,44.33003457554269, 142.4635848611611,
北海道,名寄市,16-1,中名寄,R239号1線北東角,44.32992539394294, 142.48680083326897,
北海道,名寄市,16-2,中名寄,東部地区集落センター前,44.331982160098676, 142.51057593302315,
北海道,名寄市,16-3,中名寄,R239号・9線南西角,44.32271079315242, 142.53602473277107,
北海道,名寄市,17-1,内淵,R40号6号取付西側,44.37662115906202, 142.43598226140222,
北海道,名寄市,17-2,字内淵90番地1,内淵会館前歩道・用水路間,44.38304768766663, 142.43581540674657,
北海道,名寄市,17-3,内淵,8線7号交差点南東角,44.381321774685915, 142.44295600462445,
北海道,名寄市,18-1,字共和95番地,共和会館前,44.328656942007186, 142.42968821023626,
北海道,名寄市,18-2,共和,18線6号バス停横,44.33143899143353, 142.43706428473126,
北海道,名寄市,19-1,緑丘3番地3,名農キャンパス正門北向側,44.346539929951206, 142.4733102308104,
北海道,名寄市,19-2,緑丘11-15,そよかぜ館前バス停南横,44.343912053224486, 142.4783581479739,
北海道,名寄市,19-3,緑丘5,高見区福祉会館横,44.346474713998106, 142.476995585849,
北海道,名寄市,19-4,緑丘,R239号16線南東角,44.341287895221534, 142.4753004298148,
北海道,名寄市,19-5,緑丘,R239号17線北西角,44.33641524356906, 142.4751931414585,
北海道,名寄市,20-1,智恵文11,智恵文支所前,44.43803203155031, 142.4074336031429,
北海道,名寄市,20-2,智恵文,旧智恵文小前バス停西,44.43895128142562, 142.39606103680782,
北海道,名寄市,20-3,智恵文,道々9線交差点南西角,44.43377265187128, 142.41640290916067,
北海道,名寄市,20-4,智恵文,15線南1号交差点,44.438307808049814, 142.37468919623458,
北海道,名寄市,20-5,智恵文,道々南1号交差点南角,44.42493114974333, 142.43509254145854,
北海道,名寄市,20-6,智恵文,12線北1号交差点北東角,44.44350135511367, 142.3993869764848,
北海道,名寄市,20-7,智恵文,R40大沢道路交点北角,44.39508695514952, 142.39357194714165,
北海道,名寄市,20-8,智恵文,南地区研修センター前,44.40342708178114, 142.39000997360773,
北海道,名寄市,20-9,智恵文,masked,44.40296717930808, 142.38099775167927,
北海道,名寄市,20-10,智恵文,道々18線交点南西角,44.447055375097, 142.35793075513178,
北海道,名寄市,21-1,智恵文,旧北星駅向側,44.4411727423296, 142.42934188518953,
北海道,名寄市,21-2,字智恵文11線北23番地,八幡会館前,44.454652899302815, 142.41208991749787,
北海道,名寄市,21-3,智恵文,智北会館前,44.46335207585555, 142.39363632021573,
北海道,名寄市,22-1,風連町本町63,地域交流センター前,44.2929248,142.4198039,
北海道,名寄市,22-2,風連町北栄町,25線東4号公住敷地,44.2962332,142.4214454,
北海道,名寄市,22-3,風連町南町77,旧福祉センター東角,44.2905679,142.4176291,
北海道,名寄市,22-4,風連町本町85,母と子と老人の家跡地,44.2948843,142.4208674,
北海道,名寄市,22-5,風連町中央,国道40号28線北西角五十嵐敷地,44.2811744,142.408064,
北海道,名寄市,23-1,風連町西町195,西町公園市道敷地,44.2928236,142.415425,
北海道,名寄市,23-2,風連町西町76番地2,西町コミュニティセンター南東角,44.29587316332854, 142.41439982208905,
北海道,名寄市,23-3,風連町豊里,24線東3号北西角橋本地先,44.30139800836461, 142.4151240185163,
北海道,名寄市,23-4,風連町豊里,21線東3号南東角朝賀地先,44.31604650495726, 142.41551025661275,
北海道,名寄市,24-1,風連町新生町,旧風連中学校東側,44.295473254926016, 142.4291882125717,
北海道,名寄市,24-2,風連町緑町,27線東6号南西角角山地先,44.28634204544125, 142.43662329566268,
北海道,名寄市,24-3,風連町中央,25線東8号南西角妙覚寺前,44.296056866831904, 142.45017381583443,
北海道,名寄市,24-4,風連町緑町,道々206号東大通岡田敷地,44.288081615655784, 142.4184432834941,
北海道,名寄市,24-5,風連町豊里,21線東5号会館前,44.31684041811294, 142.4295315354525,
北海道,名寄市,25-1,風連町旭,31線東9号西側嶋村地先,44.26604009515394, 142.4566274583041,
北海道,名寄市,25-2,風連町旭,30線東10号旧旭小学校跡前,44.27200179290144, 142.46469554269723,
北海道,名寄市,26-1,風連町日進,御料2線北西角横田敷地,44.25648559412875, 142.48861860569627,
北海道,名寄市,26-2,風連町日進,御料6線旧日進小中学,44.24901603990733, 142.51617025686085,
北海道,名寄市,26-3,風連町日進,15線東生福祉会館前,44.240953697193206, 142.57836531882796,
北海道,名寄市,26-4,風連町日進,御料3番通10線南西角会館前,44.23676453205937, 142.54099678433167,
北海道,名寄市,27-1,風連町東風連,25線東10号南東角阿部敷地,44.295742362649136, 142.46454006717283,
北海道,名寄市,27-2,風連町東風連3395番地,子供と老人福祉会館前,44.304630255837644, 142.46471709296074,
北海道,名寄市,27-3,風連町東風連,21線東10号西側日野敷地,44.316380173462825, 142.46411091374767,
北海道,名寄市,27-4,風連町東風連,忠烈布1線前沢地先,44.30738273433262, 142.4777150773254,
北海道,名寄市,28-1,風連町瑞生,23線基線北西角橋本地先,44.306653494284646, 142.393964382184,
北海道,名寄市,28-2,風連町瑞生,25線基線北西角新井田敷地,44.29639521805571, 142.39387855149897,
北海道,名寄市,28-3,風連町瑞生,25線西3号橋本地先,44.29645665019382, 142.37302169503593,
北海道,名寄市,28-4,風連町瑞生,27線西3号南東角寺田地先,44.28545927360608, 142.37413749394136,
北海道,名寄市,29-1,風連町西風連,24線西4号南西角松沢敷地,44.30161672035428, 142.36452445721767,
北海道,名寄市,29-2,風連町字西風連2500番地,25線西5号コミセン敷地,44.295055213529245, 142.35867187715294,
