prefecture,city,number,address,name,lat,long,note
北海道,夕張市,1-1,社光 旧市立診療所駐車場前付近,旧市立診療所駐車場前付近,43.050125,142.00235,緯度経度は怪しい
北海道,夕張市,1-2,本町1丁目 「栄」アパート前バス停付近,「栄」アパート前バス停付近,43.0577154,141.9834444,
北海道,夕張市,1-3,本町3丁目本町3丁目市街,本町３丁目市街,43.053684,141.9814128,
北海道,夕張市,1-4,本町4丁目 ふれあい公園道路付近,ふれあい公園道路付近,43.0566683,141.974946,
北海道,夕張市,1-5,本町6丁目 旧夕張中学校向付近道路沿,旧夕張中学校向付近道路沿,43.0535755,141.9709334,
北海道,夕張市,1-6,昭和 除雪センター上道道沿付近,除雪センター上道道沿付近,43.057728,141.967163,緯度経度は怪しい
北海道,夕張市,2-1,末広1丁目 末広生活館跡地付近,末広生活館跡地付近,43.0488249,141.9653132,
北海道,夕張市,2-2,末広1丁目 バス停付近(旧みのわ歯科横),バス停付近(旧みのわ歯科横),43.0466595,141.9633991,
北海道,夕張市,2-3,末広2丁目 恵1号棟横道路付近,恵1号棟横道路付近,43.047028,141.976303,緯度経度は怪しい
北海道,夕張市,2-4,末広2丁目 旧新夕張保育園前付近,旧新夕張保育園前付近,43.044577,141.964223,
北海道,夕張市,3-1,鹿の谷1丁目 消防分団詰所横道路沿付近,消防分団詰所横道路沿付近,43.0420577,141.9628562,
北海道,夕張市,3-2,鹿の谷3丁目 鹿の谷生活館前道路沿空地付近,鹿の谷生活館前道路沿空地付近,43.03513,141.964569,緯度経度は怪しい
北海道,夕張市,3-3,鹿の谷3丁目鹿の谷3丁目本町方面バス停付近,鹿の谷3丁目本町方面バス停付近,43.03513,141.964569,緯度経度は怪しい
北海道,夕張市,4-1,若菜2番地 老人福祉会館前付近,老人福祉会館前付近,43.030319,141.964188,緯度経度は怪しい
北海道,夕張市,4-2,千代田 H54下道路沿付近,H54下道路沿付近,43.022221,141.965942,緯度経度は怪しい
北海道,夕張市,4-3,千代田 ビレッジハウス新千代田前付近,ビレッジハウス新千代田前付近,43.022221,141.965942,緯度経度は怪しい
北海道,夕張市,4-4,富野 富野生活館入口道路沿付近,富野生活館入口道路沿付近,43.045746,141.932663,緯度経度は怪しい
北海道,夕張市,4-5,富野 二岐橋夕張方面バス停付近,二岐橋夕張方面バス停付近,43.045746,141.932663,緯度経度は怪しい
北海道,夕張市,5-1,常盤7番地 小野寺の沢入口付近,小野寺の沢入口付近,43.031345,141.967407,緯度経度は怪しい
北海道,夕張市,5-2,若菜8番地 市立診療所横道路沿付近,市立診療所横道路沿付近,43.0263001,141.9704511,
北海道,夕張市,5-3,平和1番地 はまなす会館道路沿付近,はまなす会館道路沿付近,43.0220278,141.9750657,
北海道,夕張市,5-4,平和1番地 夢2号棟横道路沿付近,夢2号棟横道路沿付近,43.023891,141.971344,緯度経度は怪しい
北海道,夕張市,6-1,清水沢1丁目 道新夕張きむら販売所前付近,道新夕張きむら販売所前付近,43.004688,141.985413,緯度経度は怪しい
北海道,夕張市,6-2,清水沢3丁目清水沢3丁目夕張方面バス停付近,清水沢3丁目夕張方面バス停付近,42.9975837,142.0085256,
北海道,夕張市,6-3,清水沢3丁目 清水沢生活館横道路沿付近,清水沢生活館横道路沿付近,42.9975837,142.0085256,
北海道,夕張市,6-4,清水沢清栄町 清水沢道路センター車庫前付近,清水沢道路センター車庫前付近,43.007263,142.020615,緯度経度は怪しい
北海道,夕張市,6-5,清水沢清栄町 新よ28住宅前道路付近,新よ28住宅前道路付近,43.007263,142.020615,緯度経度は怪しい
北海道,夕張市,6-6,清水沢宮前町 宮前町浴場前付近,宮前町浴場前付近,42.992599,142.010559,緯度経度は怪しい
北海道,夕張市,6-7,清水沢宮前町 旧南支所前道路沿付近,旧南支所前道路沿付近,42.992599,142.010559,緯度経度は怪しい
北海道,夕張市,6-8,清水沢2丁目 清水沢交番向道路沿付近,清水沢交番向道路沿付近,43.01231,142.008911,緯度経度は怪しい
北海道,夕張市,7-1,清水沢清陵町 厚生企業組合横道路沿付近,厚生企業組合横道路沿付近,42.984108,142.016724,緯度経度は怪しい
北海道,夕張市,7-2,清水沢清陵町 改良50-23AP横道路沿付近,改良50-23AP横道路沿付近,42.984108,142.016724,緯度経度は怪しい
北海道,夕張市,7-3,清水沢清陵町 改良54C-1横道路沿付近,改良54C-1横道路沿付近,42.984108,142.016724,緯度経度は怪しい
北海道,夕張市,7-4,清水沢清陵町 リフレッシュセンター清陵前付近,リフレッシュセンター清陵前付近,42.984108,142.016724,緯度経度は怪しい
北海道,夕張市,7-5,清水沢清陵町 旧生協前付近,旧生協前付近,42.984108,142.016724,緯度経度は怪しい
北海道,夕張市,8-1,南清水沢1丁目 旧南清水沢駅前道路沿付近,旧南清水沢駅前道路沿付近,42.992321,141.996277,緯度経度は怪しい
北海道,夕張市,8-2,南清水沢3丁目 バスまちスポット前道路沿付近,バスまちスポット前道路沿付近,42.981644,141.978241,緯度経度は怪しい
北海道,夕張市,8-3,南清水沢4丁目 南清水沢生活館駐車場付近,南清水沢生活館駐車場付近,42.978001,142.010666,緯度経度は怪しい
北海道,夕張市,8-4,南清水沢4丁目 ビジネスホテル付近(道道),ビジネスホテル付近(道道),42.978001,142.010666,緯度経度は怪しい
北海道,夕張市,8-5,南清水沢4丁目 道営住宅D-51-3横公園前,道営住宅D-51-3横公園前,42.978001,142.010666,緯度経度は怪しい
北海道,夕張市,8-6,南清水沢3丁目 国道熊の沢入口付近,国道熊の沢入口付近,42.9771448,142.0060496,
北海道,夕張市,9-1,南部住の江町 泉町三叉路付近,泉町三叉路付近,43.018696,142.031693,緯度経度は怪しい
北海道,夕張市,9-2,南部岳見町 遠幌郵便局国道沿付近,遠幌郵便局国道沿付近,43.010021,142.05072,緯度経度は怪しい
北海道,夕張市,9-3,南部岳見町 岳見町集会所付近,岳見町集会所付近,43.010021,142.05072,緯度経度は怪しい
北海道,夕張市,9-4,南部幌南町 幌南町バス停付近,幌南町バス停付近,43.013641,142.059082,緯度経度は怪しい
北海道,夕張市,9-5,南部夕南町 改良住宅入口バス停付近,改良住宅入口バス停付近,43.027229,142.05661,緯度経度は怪しい
北海道,夕張市,9-6,南部夕南町 改良住宅旧集会所付近,改良住宅旧集会所付近,43.027229,142.05661,緯度経度は怪しい
北海道,夕張市,10-1,南部新光町 北夕町入口三叉路付近,北夕町入口三叉路付近,43.018284,142.069016,緯度経度は怪しい
北海道,夕張市,10-2,南部新光町 旧南部市民体育館前道路付近,旧南部市民体育館前道路付近,43.018284,142.069016,緯度経度は怪しい
北海道,夕張市,10-3,南部新光町 東町入口交差点付近,東町入口交差点付近,43.018284,142.069016,緯度経度は怪しい
北海道,夕張市,10-4,南部大宮町 国道大宮町入口付近,国道大宮町入口付近,43.032166,142.085541,緯度経度は怪しい
北海道,夕張市,10-5,南部東町 南部コミュニティセンター前付近,南部コミュニティセンター前付近,43.022747,142.09111,緯度経度は怪しい
北海道,夕張市,11-1,沼ノ沢2部 入口道路沿付近,入口道路沿付近,42.9449154,142.0367738,
北海道,夕張市,11-2,沼ノ沢2部 波佐尾宅前道路沿付近,波佐尾宅前道路沿付近,42.9449154,142.0367738,
北海道,夕張市,11-3,沼ノ沢 旧沼ノ沢駅前付近,旧沼ノ沢駅前付近,42.970871,141.980423,緯度経度は怪しい
北海道,夕張市,11-4,沼ノ沢 農業研修センター前,農業研修センター前,42.970871,141.980423,緯度経度は怪しい
北海道,夕張市,11-5,沼ノ沢 6部入口付近,6部入口付近,42.970871,141.980423,緯度経度は怪しい
北海道,夕張市,12-1,真谷地6区 集会所付近,集会所付近,42.9691254,142.05703,
北海道,夕張市,12-2,真谷地市街 真谷地消防分団詰所付近,真谷地消防分団詰所付近,42.975597,142.082047,緯度経度は怪しい
北海道,夕張市,13-1,紅葉山 橋見団地入口道路沿付近,橋見団地入口道路沿付近,42.91016,142.058197,緯度経度は怪しい
北海道,夕張市,13-2,紅葉山 森林事務所横道路沿付近,森林事務所横道路沿付近,42.91016,142.058197,緯度経度は怪しい
北海道,夕張市,13-3,紅葉山 初ヶ台ガード先二叉路付近,初ヶ台ガード先二叉路付近,42.91016,142.058197,緯度経度は怪しい
北海道,夕張市,13-4,紅葉山 武道館前,武道館前,42.91016,142.058197,緯度経度は怪しい
北海道,夕張市,13-5,紅葉山 瑞穂橋寄り国道沿付近,瑞穂橋寄り国道沿付近,42.91016,142.058197,緯度経度は怪しい
北海道,夕張市,13-6,紅葉山 十三里小野宅入口道路沿付近,十三里小野宅入口道路沿付近,42.91016,142.058197,緯度経度は怪しい
北海道,夕張市,13-7,滝ノ上 道道夕張厚真線交差点付近,道道夕張厚真線交差点付近,42.903469,142.0047,緯度経度は怪しい
北海道,夕張市,13-8,滝ノ上 滝ノ上生活館入口道路沿付近,滝ノ上生活館入口道路沿付近,42.903469,142.0047,緯度経度は怪しい
北海道,夕張市,13-9,滝ノ上 郵便局横国道沿付近,郵便局横国道沿付近,42.903469,142.0047,緯度経度は怪しい
北海道,夕張市,14-1,楓 旧楓生活館道路沿付近,旧楓生活館道路沿付近,42.940018,142.084076,緯度経度は怪しい
北海道,夕張市,14-2,楓 改良住宅楓集会所付近,改良住宅楓集会所付近,42.940018,142.084076,緯度経度は怪しい
