prefecture,city,number,address,name,lat,long
北海道,恵庭市,1,漁太,西2線・南13号交差点付近,42.94421,141.62533
北海道,恵庭市,2,漁太154-1,道道45号線（恵庭栗山線）沿い・市道南13号付近,42.94052,141.63785
北海道,恵庭市,3,林田,恵庭神社遙拝所跡（鳥居）前付近,42.9519,141.62813
北海道,恵庭市,4,春日,西2線・南15号交差点付近,42.9349,141.61929
北海道,恵庭市,5,春日428,春日会館前,42.92153,141.62504
北海道,恵庭市,6,中央12-1,中央パークゴルフ場前,42.91769,141.60915
北海道,恵庭市,7,上山口674-1,道道600号線（島松千歳線）・川沿大通交差点付近,42.90568,141.60667
北海道,恵庭市,8,戸磯201-26,道道45号線（恵庭栗山線）・戸磯黄金通交差点付近,42.88103,141.59772
北海道,恵庭市,9,黄金南1丁目18,ほのぼの公園内,42.88171,141.59267
北海道,恵庭市,10,黄金南3丁目15,黄金曙公園内,42.88318,141.59633
北海道,恵庭市,11,黄金南5丁目11,黄金ふれあいセンター,42.88731,141.59694
北海道,恵庭市,12,黄金南7丁目5,すこやか公園内,42.88872,141.60012
北海道,恵庭市,13,和光町1丁目4,わこう公園内,42.87302,141.58782
北海道,恵庭市,14,和光町2丁目2-8,和光会館前,42.87638,141.58988
北海道,恵庭市,15,和光町2丁目10,和光小学校前,42.87445,141.58992
北海道,恵庭市,16,和光町4丁目10,ユカンボシ公園内,42.87479,141.5946
北海道,恵庭市,17,和光町5丁目13,エルム公園内,42.87158,141.59548
北海道,恵庭市,18,住吉町1丁目2,漁川第2幹線用水路角（クラーク博士通り）,42.87685,141.57978
北海道,恵庭市,19,住吉町3丁目4,すみよし公園内,42.87658,141.58477
北海道,恵庭市,20,恵南,あしか公園内,42.86731,141.58799
北海道,恵庭市,21,恵南32-22,恵南会館前,42.8611,141.58814
北海道,恵庭市,22,恵南,もみじ公園内,42.86749,141.58552
北海道,恵庭市,23,駒場町1丁目10,こまば公園内,42.87379,141.58239
北海道,恵庭市,24,駒場町4丁目,恵庭公園（恵南柏木通側）,42.86821,141.58159
北海道,恵庭市,25,駒場町4丁目,恵庭公園入口（管理棟付近）,42.87069,141.57846
北海道,恵庭市,26,駒場町5丁目4,くるみ公園内,42.86996,141.58277
北海道,恵庭市,27,白樺町3丁目13,かや公園内,42.86555,141.57008
北海道,恵庭市,28,白樺町4丁目,南恵庭駐屯地入口前,42.86445,141.57535
北海道,恵庭市,29,桜町1丁目5,さくら公園内,42.87728,141.57641
北海道,恵庭市,30,桜町3丁目7,つくし公園内,42.87334,141.5776
北海道,恵庭市,31,桜町4丁目1,桜町多目的広場内（恵庭駅通・恵南柏木線交差点側）,42.87195,141.57554
北海道,恵庭市,32,桜町4丁目1,桜町多目的広場内（妙正寺前）,42.87502,141.57607
北海道,恵庭市,33,福住町1丁目16,なかよし公園内,42.88536,141.57691
北海道,恵庭市,34,福住町1丁目3,やなぎ公園内,42.88786,141.57879
北海道,恵庭市,35,福住町2丁目6,まなび公園内,42.88448,141.58012
北海道,恵庭市,36,福住町2丁目9,恵庭小学校横　駐車場内,42.88338,141.57912
北海道,恵庭市,37,福住町3丁目11,ふくずみ公園内,42.88465,141.58237
北海道,恵庭市,38,栄恵町,恵庭駅通沿い（クリーニングエース隣）,42.87927,141.58125
北海道,恵庭市,39,漁町393,かわぞえ公園内,42.87793,141.57291
北海道,恵庭市,40,漁町,さかえ公園内,42.88032,141.57675
北海道,恵庭市,41,京町1,市役所敷地内,42.88226,141.5783
北海道,恵庭市,42,本町89,めぐみ公園内,42.88262,141.574
北海道,恵庭市,43,相生町1丁目5,柏木戸磯線沿い（北央信用組合恵庭支店向かい）,42.88246,141.58256
北海道,恵庭市,44,相生町4丁目11,つつじ公園内（相生町側）,42.87747,141.59001
北海道,恵庭市,45,緑町1丁目4,みどり公園内,42.8809,141.58227
北海道,恵庭市,46,緑町2丁目1,すみれ公園内,42.87835,141.58272
北海道,恵庭市,47,緑町2丁目5-5,市営住宅旭団地5号棟付近（団地中央通沿い）,42.87909,141.58596
北海道,恵庭市,48,黄金中央2丁目9,こがね公園内,42.88429,141.58935
北海道,恵庭市,49,黄金中央4丁目2,恵庭ふるさと公園内（管理事務所横）,42.88822,141.58748
北海道,恵庭市,50,黄金中央4丁目2,恵庭ふるさと公園内（黄金学園通沿い）,42.88637,141.5892
北海道,恵庭市,51,黄金北2丁目6,あおぞら公園内,42.88747,141.58492
北海道,恵庭市,52,黄金北4丁目1-1,恵明中学校体育館裏（川沿大通沿い）,42.89347,141.58876
北海道,恵庭市,53,黄金北4丁目14,国道36号線交差点付近（総合体育館横）,42.89372,141.59249
北海道,恵庭市,54,大町1丁目10-1,大町会館駐車場付近,42.8893,141.56673
北海道,恵庭市,55,大町4丁目1,クラーク博士通り沿い（漁川付近）,42.88382,141.57129
北海道,恵庭市,56,文京町1丁目13,ぶんきょう公園内,42.88799,141.56404
北海道,恵庭市,57,文京町4丁目8,ひだまり公園内,42.8806,141.56629
北海道,恵庭市,58,美咲野2丁目10,こもれび公園内,42.87772,141.56534
北海道,恵庭市,59,美咲野3丁目8,おひさま公園内,42.87846,141.56891
北海道,恵庭市,60,美咲野6丁目4,ひので公園内,42.87523,141.57137
北海道,恵庭市,61,幸町1丁目826,さいわい公園内（バス停付近）,42.88579,141.56235
北海道,恵庭市,62,幸町2丁目17,けいほく公園内,42.88368,141.56077
北海道,恵庭市,63,有明町2丁目8,あすなろ公園内,42.89003,141.57275
北海道,恵庭市,64,有明町3丁目9,あおば公園内,42.89223,141.57468
北海道,恵庭市,65,有明町4丁目4,あじさい公園内,42.88964,141.57643
北海道,恵庭市,66,有明町5丁目4,ありあけ公園内,42.88841,141.57458
北海道,恵庭市,67,恵央町12,恵央団地3号棟向かい　交差点付近,42.89296,141.57164
北海道,恵庭市,68,中島町1丁目4,わかくさ公園内,42.89283,141.57892
北海道,恵庭市,69,中島町3丁目1,中島公園内（黄金橋付近）,42.89361,141.58317
北海道,恵庭市,70,中島町3丁目1,中島公園内（駐車場横）,42.89579,141.58301
北海道,恵庭市,71,中島町4丁目5-1,若草小学校敷地内（旧教員住宅前）,42.8959,141.57724
北海道,恵庭市,72,中島町6丁目9,どんぐり公園内,42.89836,141.57782
北海道,恵庭市,73,中島町6丁目,恵み野跨線橋下　駐車場付近,42.90011,141.5755
北海道,恵庭市,74,柏木町3丁目7,こぶし公園内,42.89384,141.56357
北海道,恵庭市,75,柏木町4丁目9,茂漁川河川緑地（駐車場側）,42.88977,141.56851
北海道,恵庭市,76,柏木町5丁目7,茂漁川河川緑地（公園側）,42.88961,141.56394
北海道,恵庭市,77,北柏木町3丁目29,かえで公園内（トイレ付近）,42.89647,141.55714
北海道,恵庭市,78,島松沢136,島松川上線入口（山神碑付近）,42.92247,141.53829
北海道,恵庭市,79,柏陽町1丁目26,柏陽憩の家前,42.89906,141.56925
北海道,恵庭市,80,柏陽町1丁目9,あかしや公園内,42.89945,141.57281
北海道,恵庭市,81,柏陽町3丁目26,きぼう公園内,42.89521,141.56922
北海道,恵庭市,82,柏陽町4丁目12,かしわぎ公園内,42.89657,141.5731
北海道,恵庭市,83,恵み野南2丁目8,タイヤの丘公園内,42.90027,141.58519
北海道,恵庭市,84,恵み野南3丁目9,アルプス公園内,42.90179,141.58767
北海道,恵庭市,85,恵み野南4丁目1-1,恵み野小学校前,42.90133,141.58471
北海道,恵庭市,86,恵み野西1丁目17,チビッコ公園内,42.905,141.57894
北海道,恵庭市,87,恵み野西3丁目2,花の丘公園内（南島松1号通沿い）,42.90203,141.57926
北海道,恵庭市,88,北柏木町2丁目7,こばと公園内,42.9027,141.56275
北海道,恵庭市,89,北柏木町2丁目18,北柏木会館前,42.8993,141.56286
北海道,恵庭市,90,恵み野里美2丁目13,さとみ公園内,42.90554,141.5706
北海道,恵庭市,91,恵み野西5丁目,恵み野中央公園内（恵み野小学校側駐車場）,42.90354,141.58414
北海道,恵庭市,92,恵み野北1丁目8,おおぞら公園内,42.90943,141.58155
北海道,恵庭市,93,恵み野北2丁目1-3,恵み野憩の家前,42.90764,141.58254
北海道,恵庭市,94,恵み野北3丁目,恵み野中央公園内（恵み野中学校側、団地中央通沿い）,42.90558,141.58779
北海道,恵庭市,95,恵み野北5丁目,道道600号線（島松千歳線）・南島松2号線交差点付近,42.91247,141.58831
北海道,恵庭市,96,恵み野北6丁目3,めぐみの森公園内,42.91054,141.58495
北海道,恵庭市,97,恵み野北7丁目,団地環状通沿い、道道600号線（島松千歳線）交差点付近,42.91435,141.58179
北海道,恵庭市,98,恵み野東1丁目1-2,恵み野中学校内（団地中央通沿い、教会側）,42.90348,141.58951
北海道,恵庭市,99,恵み野東4丁目18,はるにれ公園内,42.90417,141.59519
北海道,恵庭市,100,恵み野東6丁目10,わんぱく公園内,42.90686,141.59698
北海道,恵庭市,101,恵み野東7丁目7,ちょうちょ公園内,42.90875,141.59435
北海道,恵庭市,102,南島松157-2,恵庭開拓記念公園内（南21号沿い）,42.90801,141.6009
北海道,恵庭市,103,中島松418,島松小学校前（南19号沿い）,42.92404,141.58794
北海道,恵庭市,104,中島松230,恵北中学校前（南18号沿い）,42.92756,141.59366
北海道,恵庭市,105,南島松389-3,島松体育館前,42.9177,141.58484
北海道,恵庭市,106,島松東町3丁目4,ひがし公園内,42.91769,141.57908
北海道,恵庭市,107,島松東町4丁目,道道600号線（島松千歳線）沿い、柏栄橋付近,42.91601,141.57857
北海道,恵庭市,108,島松東町4丁目9,あけぼの公園内,42.91522,141.57514
北海道,恵庭市,109,島松旭町3丁目4,あさひ公園内,42.92273,141.58411
北海道,恵庭市,110,島松仲町1丁目1,JR島松駅前,42.92193,141.57357
北海道,恵庭市,111,島松仲町2丁目5-1,島松支所前,42.91949,141.5762
北海道,恵庭市,112,島松本町3丁目13,かつら公園内,42.92542,141.57878
北海道,恵庭市,113,島松本町2丁目6,ときわ公園内,42.92482,141.57531
北海道,恵庭市,114,下島松,西6線・南18号交差点付近,42.93056,141.58509
北海道,恵庭市,115,下島松,西6線・南19号交差点付近,42.92626,141.58196
北海道,恵庭市,116,島松寿町1丁目13,ことぶき公園内,42.91978,141.57098
北海道,恵庭市,117,島松寿町1丁目21,しままつ公園内,42.91714,141.5706
北海道,恵庭市,118,島松寿町2丁目32,はまなす公園内,42.91568,141.5688
北海道,恵庭市,119,島松寿町2丁目40,みなみ公園内,42.91364,141.56699
北海道,恵庭市,120,穂栄,西5線・南15号交差点付近,42.94211,141.60021
北海道,恵庭市,121,北島216,北栄会館前（西6線・南11号交差点付近）,42.96232,141.60665
北海道,恵庭市,122,北島,西6線・南9号交差点付近,42.97097,141.61194