prefecture,city,number,address,name,lat,long,note
北海道,新ひだか町,1-1,静内御幸町3丁目,新ひだか町役場前,42.34063657,142.3693683,
北海道,新ひだか町,1-2,静内御幸町2丁目,静内郵便局前,42.34012276,142.3649601,
北海道,新ひだか町,1-3,静内御幸町5丁目,静内生活センターフェンス,42.34320499,142.3672059,
北海道,新ひだか町,1-4,静内吉野町2丁目,加地氏所有地,42.33859536,142.3684976,
北海道,新ひだか町,2-5,静内山手町1丁目,学校給食センター前,42.34359416,142.3611791,
北海道,新ひだか町,2-6,静内山手町3丁目,山手公園フェンス,42.34465176,142.3570368,
北海道,新ひだか町,2-7,静内末広町2丁目,北海産業㈱フェンス,42.34175605,142.3523856,
北海道,新ひだか町,2-8,静内末広町2丁目,末広公園,42.34319708,142.3521698,
北海道,新ひだか町,2-9,静内木場町1丁目,池内ベニヤ駐車場フェンス,42.33884338,142.3612744,
北海道,新ひだか町,3-10,静内末広町3丁目,末広生活センターフェンス,42.34353114,142.3498287,
北海道,新ひだか町,3-11,静内木場町2丁目,北海道コカコーラボトリング㈱日高営業所前,42.34006966,142.3524001,
北海道,新ひだか町,4-12,静内古川町2丁目,生協住宅公園,42.33306842,142.3678188,
北海道,新ひだか町,4-13,静内本町3丁目,静内駅横花壇,42.33685292,142.3608184,
北海道,新ひだか町,4-14,静内本町4丁目,しずない農協駐車場,42.33823046,142.3627439,
北海道,新ひだか町,4-15,静内海岸町1丁目,masked,42.33601565,142.3607991,
北海道,新ひだか町,5-16,静内青柳町1丁目,なかよし公園前,42.33677492,142.3685964,
北海道,新ひだか町,5-17,静内青柳町2丁目,女性センターみらいフェンス,42.33526896,142.3695889,
北海道,新ひだか町,5-18,静内青柳町3丁目,町職員住宅（赤レンガ）横,42.33797134,142.3708547,
北海道,新ひだか町,5-19,静内青柳町4丁目,青柳生活センター横,42.33574705,142.3726481,
北海道,新ひだか町,6-20,静内入船町,入船生活館横,42.32455971,142.3721332,
北海道,新ひだか町,7-21,静内緑町3丁目,新ひだか町生活支援ハウスきずな横フェンス,42.34029792,142.3724199,
北海道,新ひだか町,7-22,静内緑町4丁目,町立静内病院前花壇,42.33850477,142.3751581,
北海道,新ひだか町,7-23,静内緑町5丁目,田中歯科医院向かい空地（武田氏所有地）,42.34303487,142.3726834,
北海道,新ひだか町,7-24,静内緑町8丁目,コーポ野田前,42.34281993,142.3774986,
北海道,新ひだか町,8-25,静内こうせい町2丁目,静内消防署前,42.34448481,142.3710423,
北海道,新ひだか町,8-26,静内こうせい町3丁目,北海道電力㈱静内営業所フェンス,42.34742163,142.3666506,
北海道,新ひだか町,8-27,静内ときわ町1丁目,masked,42.34507944,142.3659014,
北海道,新ひだか町,8-28,静内ときわ町1丁目,静内高校前交差点横,42.34297262,142.3652527,
北海道,新ひだか町,9-29,静内高砂町2丁目,第２中村ビル横（小川氏所有地）,42.34761415,142.3599736,
北海道,新ひだか町,9-30,静内高砂町3丁目,旧ナラサキリースフェンス,42.35020082,142.3627886,
北海道,新ひだか町,9-31,静内花園,花園生活館入口右側,42.34953156,142.3571204,
北海道,新ひだか町,10-32,静内柏台,柏台会館フェンス,42.35057331,142.3537567,
北海道,新ひだか町,10-33,静内柏台,公営住宅（１２９棟横空地）,42.34868484,142.3521487,
北海道,新ひだか町,11-34,静内中野町2丁目,出口組中野工場フェンス,42.35161494,142.3693947,
北海道,新ひだか町,11-35,静内中野町2丁目,堀氏所有地牧柵前,42.35020749,142.3689242,
北海道,新ひだか町,11-36,静内中野町4丁目,旧太平洋建材工業㈱前,42.35123483,142.3786003,
北海道,新ひだか町,11-37,静内中野町4丁目,中野生活改善センター入口,42.35244628,142.3752522,
北海道,新ひだか町,12-38,静内旭町1丁目,静内旭町生活館フェンス,42.34506359,142.3780142,
北海道,新ひだか町,12-39,静内旭町1丁目,旭町公営住宅敷地内（Ｂ棟物置裏）,42.34598199,142.3766991,
北海道,新ひだか町,12-40,静内旭町2丁目,大型車両センターフェンス,42.34562705,142.3828921,
北海道,新ひだか町,13-41,静内清水丘,清水丘生活センターフェンス,42.35673135,142.3636543,
北海道,新ひだか町,14-42,静内神森,神森会館フェンス,42.3548919,142.3841939,
北海道,新ひだか町,14-43,静内神森,神森生活館前公園フェンス,42.34791729,142.3855174,
北海道,新ひだか町,15-44,静内目名,目名生活改善センター前,42.36296705,142.4025893,
北海道,新ひだか町,16-45,静内田原,しずない農協豊畑支所倉庫前,42.382260012347,142.44143486023,
北海道,新ひだか町,16-46,静内田原,田原生活館前,42.37319315108,142.42126464844,
北海道,新ひだか町,17-47,静内御園,御園生活館前フェンス,42.41029242218,142.48059511185,
北海道,新ひだか町,18-48,静内農屋,農屋会館前,42.420003388359,142.50248193741,
北海道,新ひだか町,19-49,静内豊畑,豊畑会館前（消防車庫横）,42.387498222686,142.46830523014,
北海道,新ひだか町,20-50,静内西川・静内川合,旧西川生活館前,42.354040652894,142.49287962914,
北海道,新ひだか町,20-51,静内西川・静内川合,ふれあい生活館前フェンス,42.333407136149,142.49146342278,
北海道,新ひだか町,21-52,静内東別・三石西端,東西生活館前,42.282928797373,142.52767324448,
北海道,新ひだか町,21-53,静内東別・三石西端,masked,42.282547794695,142.52495884895,
北海道,新ひだか町,22-54,静内春立,春立生活センター前,42.267877439735,142.4986410141,
北海道,新ひだか町,23-55,東静内・静内浦和,旧農協東静内支所倉庫横,42.299639053972,142.45370864868,
北海道,新ひだか町,23-56,東静内・静内浦和,東静内会館横,42.304007354589,142.44937419891,
北海道,新ひだか町,24-57,三石本町,新ひだか町総合町民センター前,42.248093252016,142.55954325199,
北海道,新ひだか町,24-58,三石本町,緑ヶ丘団地入口,42.251583628848,142.55919456482,
北海道,新ひだか町,24-59,三石西蓬莱,西蓬莱公営住宅跡地,42.255347777829,142.57527709007,
北海道,新ひだか町,24-60,三石東蓬莱,東蓬莱生活館前,42.245865504402,142.57606029511,
北海道,新ひだか町,25-61,三石越海町,越海町生活館前,42.252854252777,142.54022598267,
北海道,新ひだか町,25-62,三石港町,ひだか漁協三石支所前,42.250900657909,142.54853010178,
北海道,新ひだか町,26-63,三石豊岡,下豊岡会館前,42.275475014169,142.60433077812,
北海道,新ひだか町,26-64,三石富沢,延出基幹集落センター前,42.28021410302,142.60805368423,
北海道,新ひだか町,26-65,三石蓬栄,蓬栄生活館前,42.274450943119,142.61090755463,
北海道,新ひだか町,27-66,三石鳧舞,旧住友商店跡地,42.227436910859,142.61528491974,
北海道,新ひだか町,27-67,三石鳧舞,鳧舞生活館前,42.225927434187,142.62270927429,
北海道,新ひだか町,28-68,三石本桐,本桐公住入口前,42.24503951025,142.62927532196,
北海道,新ひだか町,28-69,三石本桐,本桐生活館前,42.250860950069,142.6344037056,
北海道,新ひだか町,28-70,三石美野和,masked,42.249622052898,142.63849675655,
北海道,新ひだか町,29-71,三石歌笛,歌笛総合住民センター前,42.274224692619,142.68352031708,
北海道,新ひだか町,29-72,三石歌笛,歌笛生活館前,42.26908025156,142.68363833427,
北海道,新ひだか町,29-73,三石美野和,masked,42.265995767281,142.68135309219,
北海道,新ひだか町,29-74,三石稲見,稲見生活館前,42.282381105299,142.70615816116,
北海道,新ひだか町,30-75,三石稲見,三石稲見 川上橋横ガードレール,42.295214898427,142.70645856857,
北海道,新ひだか町,30-76,三石川上,川上消防番屋前,42.300261981851,142.70950555801,
