prefecture,city,number,address,name,lat,long,note
北海道,旭川市,110,宮下通2丁目,旭川年金事務所さく,43.7658608,142.3500689,
北海道,旭川市,120,2条西3丁目,頌栄保育園さく,43.771049,142.346024,緯度経度は怪しい
北海道,旭川市,130,亀吉2条2丁目,亀吉公園,43.7748012,142.3374619,
北海道,旭川市,140,曙1条1丁目,日本醤油工業木さく,43.7689137,142.3477608,
北海道,旭川市,150,曙1条2丁目,青雲小学校さく(新出入口側),43.7697072,142.3468361,
北海道,旭川市,160,曙1条8丁目,masked,43.7716992,142.336235,
北海道,旭川市,170,曙3条3丁目,商業高等学校さく(自転車置場前),43.7667571,142.3438704,
北海道,旭川市,210,4条通2丁目,千代田電装工業へい,43.7713308,142.3527538,
北海道,旭川市,220,7条西6丁目,旭西第一公園(南側),43.7779523,142.3422256,
北海道,旭川市,230,4条西3丁目,新町小学校さく(4条通側),43.7732512,142.3470797,
北海道,旭川市,240,4条西5丁目,旭川高等支援学校グラウンドフェンス沿い(4条通側),43.773875,142.3440095,
北海道,旭川市,250,5条西5丁目,旭川高等支援学校さく(体育館横),43.7753108,142.3438982,
北海道,旭川市,260,8条西3丁目,旭川ケーブルテレビ資材置場,43.776291,142.348633,緯度経度は怪しい
北海道,旭川市,310,5条通4丁目,ときわ市民ホール前さく,43.7717304,142.3563489,
北海道,旭川市,320,6条通5丁目,日章小学校さく(研修センター向かい),43.77225120000001,142.3585534,
北海道,旭川市,330,6条通5丁目,日章小学校さく(正門横),43.77225120000001,142.3585534,
北海道,旭川市,340,8条通6丁目,常磐公共駐車場さく,43.77414719999999,142.3613426,
北海道,旭川市,350,宮下通5丁目,宮下そよかぜ公園,43.7640921,142.3540038,
北海道,旭川市,360,2条通4丁目,道北バス駐車場さく(休憩の建物の隣),43.7683382,142.3543663,
北海道,旭川市,410,宮前2条2丁目,宮前公園,43.7577922,142.3649333,
北海道,旭川市,420,3条通10丁目,北電3条変電所さく,43.76675609999999,142.3643292,
北海道,旭川市,430,宮下通12丁目,日新の森公園,43.7617167,142.36489,
北海道,旭川市,440,6条通9丁目,総合庁舎前庭,43.7702998,142.3645743,
北海道,旭川市,450,6条通10丁目,第3庁舎さく(バス停後方),43.7699724,142.3662829,
北海道,旭川市,460,8条通13丁目,知新小学校さく(中央橋通側),43.7708919,142.3720823,
北海道,旭川市,470,8条通13丁目,知新小学校さく(正門横),43.7708919,142.3720823,
北海道,旭川市,510,2条通20丁目,三景スタジオさく,43.7612347,142.3785636,
北海道,旭川市,520,11条通23丁目,朝日団地－3前,43.7714253,142.3883999,
北海道,旭川市,530,5条通21丁目,朝日小学校さく(22丁目側),43.7644738,142.3822855,
北海道,旭川市,540,6条通24丁目,第1豊岡団地12・13号棟前児童遊園さく(シラカバ広告工芸隣),43.7636966,142.387092,
北海道,旭川市,550,9条通22丁目,きぼく公園,43.7680338,142.386415,
北海道,旭川市,560,8条通19丁目,朝日工業前,43.7683449,142.3808237,
北海道,旭川市,570,10条通21丁目,かえで公園(20丁目側),43.769973,142.3846265,
北海道,旭川市,610,宮下通20丁目,北電宮下敷地内さく前,43.7588368,142.377453,
北海道,旭川市,620,1条通22丁目,渡辺パイプさく,43.7592353,142.3810471,
北海道,旭川市,630,南6条通26丁目,なんろく公園敷地内(南6条通側),43.7493576,142.383961,
北海道,旭川市,640,南2条通22丁目,啓明小学校さく,43.75598979999999,142.3794405,
北海道,旭川市,650,南2条通26丁目,北電東光アパートへい,43.7545644,142.3855469,
北海道,旭川市,660,南3条通20丁目,合同酒精さく(正門側),43.7559425,142.375906,
北海道,旭川市,670,南5条通20丁目,合同酒精さく(南6条通側),43.75339959999999,142.3744185,
北海道,旭川市,710,1条通25丁目,旭川東警察署さく,43.7577862,142.3853866,
北海道,旭川市,720,東光2条1丁目,光陽公園,43.75461139999999,142.3890812,
北海道,旭川市,730,東光2条2丁目,東光のぞみ公園,43.75424599999999,142.3932509,
北海道,旭川市,740,豊岡3条1丁目,東町小学校さく(体育館側),43.7595284,142.3899134,
北海道,旭川市,750,豊岡3条3丁目,寺岡種苗園さく,43.7587973,142.3982536,
北海道,旭川市,760,豊岡4条4丁目,豊岡第3公園,43.7602487,142.4020263,
北海道,旭川市,770,豊岡5条1丁目,豊岡第1公園,43.7623384,142.3903891,
北海道,旭川市,810,豊岡6条4丁目,豊岡第2公園,43.7630586,142.4025028,
北海道,旭川市,820,豊岡6条3丁目,豊岡公園,43.7634245,142.3983324,
北海道,旭川市,830,豊岡8条4丁目,豊岡まつ葉公園,43.7658688,142.4029793,
北海道,旭川市,840,豊岡10条3丁目,豊岡小学校さく(児童玄関横),43.7680522,142.3984112,
北海道,旭川市,850,豊岡10条3丁目,豊岡小学校さく(豊岡9条側),43.7680522,142.3984112,
北海道,旭川市,860,豊岡14条4丁目,豊岡りんどう公園,43.7719021,142.4032969,
北海道,旭川市,870,豊岡13条2丁目,ななかまど公園,43.7712284,142.3947164,
北海道,旭川市,910,東光5条1丁目,東光5・1児童遊園さく,43.7515116,142.3878514,
北海道,旭川市,920,東光5条2丁目,東部住民センター駐車場前さく,43.751261,142.3927454,
北海道,旭川市,930,東光5条2丁目,東光児童センター広場さく,43.751261,142.3927454,
北海道,旭川市,940,東光12条1丁目,東光さくら公園,43.7447486,142.3877647,
北海道,旭川市,950,東光9条2丁目,東光バッティングセンター横さく,43.7472228,142.3920617,
北海道,旭川市,960,東光8条2丁目,東光中学校さく,43.7482153,142.3929349,
北海道,旭川市,1010,東光2条3丁目,masked,43.7538805,142.3974205,
北海道,旭川市,1020,東光6条3丁目,東光旭東公園,43.75007859999999,142.3960711,
北海道,旭川市,1030,東光8条3丁目,千代田小学校さく(東光中学校グランド側),43.7482619,142.3964685,
北海道,旭川市,1040,東光8条3丁目,千代田小学校さく(正門横),43.7482619,142.3964685,
北海道,旭川市,1050,東光6条4丁目,東光図書館正面入り口付近,43.7497129,142.4002402,
北海道,旭川市,1060,東光12条4丁目,第3東光団地幼児遊園,43.74385849999999,142.3999531,
北海道,旭川市,1070,東光6条4丁目,東光ふれあい公園,43.7497129,142.4002402,
北海道,旭川市,1110,旭神1条4丁目,旭神中央公園さく,43.7384455,142.3905757,
北海道,旭川市,1120,旭神2条2丁目,旭神ひばり公園,43.739756,142.3837473,
北海道,旭川市,1130,旭神2条3丁目,コイン洗車場横さく,43.7381693,142.385594,
北海道,旭川市,1140,旭神2条4丁目,旭神みどり野会館前さく,43.7364609,142.3888299,
北海道,旭川市,1150,旭神1条5丁目,旭神さくら公園,43.7373781,142.3946249,
北海道,旭川市,1210,豊岡9条7丁目,豊岡若葉公園,43.766175,142.4157291,
北海道,旭川市,1220,豊岡6条7丁目,豊岡双葉公園さく,43.76237220000001,142.4143778,
北海道,旭川市,1230,豊岡13条5丁目,豊岡すずらん公園,43.7708333,142.4073488,
北海道,旭川市,1240,豊岡7条6丁目,豊岡あざみ公園,43.7641437,142.4104462,
北海道,旭川市,1250,豊岡8条6丁目,愛宕小学校(プール前),43.7655487,142.4106847,
北海道,旭川市,1260,豊岡12条7丁目,masked,43.7691075,142.4148163,
北海道,旭川市,1270,豊岡5条6丁目,きぼう児童遊園,43.76133360000001,142.4099692,
北海道,旭川市,1280,豊岡15条6丁目,豊岡しらゆり公園,43.77368999999999,142.4113613,
北海道,旭川市,1310,豊岡6条8丁目,愛宕公民館さく,43.7624179,142.4179124,
北海道,旭川市,1320,豊岡7条8丁目,masked,43.76382290000001,142.4181511,
北海道,旭川市,1330,豊岡7条9丁目,愛宕東小学校さく(プール前),43.7628759,142.4208117,
北海道,旭川市,1340,豊岡10条9丁目,豊岡東公園(10丁目側さく),43.76691539999999,142.4214984,
北海道,旭川市,1350,豊岡12条11丁目,東豊公園,43.76800679999999,142.4273276,
北海道,旭川市,1360,豊岡13条8丁目,豊岡のぎく公園,43.7698559,142.4184708,
北海道,旭川市,1370,豊岡8条10丁目,愛宕中学校さく(体育館前),43.7644181,142.4235428,
北海道,旭川市,1410,豊岡3条7丁目,旭川だいいち保育園前さく,43.7581575,142.413662,
北海道,旭川市,1420,豊岡2条10丁目,共栄小学校さく,43.75630940000001,142.4225167,
北海道,旭川市,1430,豊岡2条10丁目,豊岡すみれ公園,43.75630940000001,142.4225167,
北海道,旭川市,1440,豊岡4条8丁目,masked,43.759547,142.4181299,
北海道,旭川市,1450,東光2条8丁目,東光公園,43.75287429999999,142.4169962,
北海道,旭川市,1460,東光2条9丁目,masked,43.7528055,142.4198054,
北海道,旭川市,1470,東光4条8丁目,masked,43.750931,142.416992,緯度経度は怪しい
北海道,旭川市,1510,東光8条5丁目,東光8条花園公園,43.7476524,142.4034167,
北海道,旭川市,1520,豊岡2条5丁目,東地区体育センター横,43.7571339,142.4050247,
北海道,旭川市,1530,東光3条6丁目,masked,43.752384,142.409073,緯度経度は怪しい
北海道,旭川市,1540,東光4条6丁目,東栄小学校さく,43.751148,142.408966,緯度経度は怪しい
北海道,旭川市,1550,東光8条6丁目,東光8条第1公園,43.74757650000001,142.4083398,
北海道,旭川市,1560,豊岡2条4丁目,豊岡第4公園さく,43.7567364,142.4014308,
北海道,旭川市,1570,東光8条5丁目,masked,43.7476524,142.4034167,
北海道,旭川市,1610,東光10条5丁目,東光やまぶき公園,43.7457138,142.4052033,
北海道,旭川市,1620,東光13条6丁目,masked,43.74242450000001,142.4081707,
北海道,旭川市,1630,東光18条8丁目,東光はるかぜ公園,43.7370139,142.4150073,
北海道,旭川市,1640,東光15条7丁目,東明中学校グラウンドフェンス,43.7401885,142.4113164,
北海道,旭川市,1650,東光16条7丁目,東明中学校さく,43.7393644,142.4125865,
北海道,旭川市,1660,東光17条5丁目,真和保育園さく,43.7386923,142.4040125,
北海道,旭川市,1670,東光18条6丁目,東光小学校さく,43.73715869999999,142.4072773,
北海道,旭川市,1680,東光19条7丁目,東光ひがし野公園,43.73626609999999,142.4113555,
北海道,旭川市,1710,東光6条7丁目,地崎商事さく,43.749027,142.4121117,
北海道,旭川市,1720,東光6条10丁目,共栄公園(テニスコート前),43.7481717,142.4218385,
北海道,旭川市,1730,東光8条8丁目,旭川第3小学校さく(正門横),43.7471339,142.4174313,
北海道,旭川市,1740,東光9条7丁目,東光アカシア公園,43.7460959,142.4130243,
北海道,旭川市,1750,東光13条7丁目,東光めばえ公園,43.7422949,142.411674,
北海道,旭川市,1760,東光13条8丁目,千代田公園,43.7419286,142.415842,
北海道,旭川市,1770,東旭川町共栄,堀部造園ガーデンセンターさく,43.733974,142.428833,緯度経度は怪しい
北海道,旭川市,1780,東旭川町共栄,旭川電気軌道共栄営業所さく,43.733974,142.428833,緯度経度は怪しい
北海道,旭川市,1810,東旭川北1条3丁目,今崎ふとん店横空き地,43.771687,142.431183,緯度経度は怪しい
北海道,旭川市,1820,東旭川北1条4丁目,高嶋建業資材センターさく,43.772285,142.435455,緯度経度は怪しい
北海道,旭川市,1830,東旭川北1条6丁目,東旭川支所前,43.7719897,142.4428211,
北海道,旭川市,1840,東旭川北2条6丁目,札幌テレビ放送送信所さく,43.7744489,142.4432404,
北海道,旭川市,1850,東旭川北3条5丁目,JR東旭川駅さく,43.7768636,142.4401242,
北海道,旭川市,1860,東旭川南1条6丁目,旭川小・中学校さく(東旭川こども園向かい),43.768828,142.4422821,
北海道,旭川市,1870,東旭川南1条6丁目,旭川小・中学校さく(体育館横の道路沿い),43.768828,142.4422821,
北海道,旭川市,1880,東旭川南1条6丁目,東旭川北田公園,43.768828,142.4422821,
北海道,旭川市,1890,東旭川町上兵村,旧旭川小学校防地(東旭川公民館側),43.770618,142.452438,緯度経度は怪しい
北海道,旭川市,1910,東旭川町米原,JA東旭川倉庫横,43.749119,142.552948,緯度経度は怪しい
北海道,旭川市,1920,東旭川町米原,米原瑞穂会館さく,43.749119,142.552948,緯度経度は怪しい
北海道,旭川市,2010,東旭川町旭正,旧旭川第2小学校校門前,43.726864,142.450027,緯度経度は怪しい
北海道,旭川市,2020,東旭川町旭正,生駒組資材置場(旭岳温泉線沿い),43.726864,142.450027,緯度経度は怪しい
北海道,旭川市,2030,東旭川町旭正,只石組へい,43.726864,142.450027,緯度経度は怪しい
北海道,旭川市,2040,東旭川町旭正,旭正農業構造改善センター前(Aコープ横),43.726864,142.450027,緯度経度は怪しい
北海道,旭川市,2110,東旭川町豊田,西豊田地域会館前(道道瑞穂旭川停車場線沿い),43.767834,142.503326,緯度経度は怪しい
北海道,旭川市,2120,東旭川町豊田,豊田地域会館向かい(ぴあふる岩山),43.767834,142.503326,緯度経度は怪しい
北海道,旭川市,2210,東旭川町東桜岡,旭川第5小学校さく,43.781441,142.51445,緯度経度は怪しい
北海道,旭川市,2220,東旭川町桜岡,JR桜岡駅さく,43.7966752,142.4823261,
北海道,旭川市,2310,東旭川町瑞穂,masked,43.720669,142.658768,緯度経度は怪しい
北海道,旭川市,2320,東旭川町瑞穂,東旭川公民館瑞穂分館前,43.720669,142.658768,緯度経度は怪しい
北海道,旭川市,2410,東旭川町日の出,東旭川公民館日の出分館前,43.767632,142.46434,緯度経度は怪しい
北海道,旭川市,2420,東旭川町倉沼,倉沼みのりの広場,43.7591494,142.4871813,
北海道,旭川市,2510,金星町1丁目,みどり幼稚園さく,43.7784726,142.3648947,
北海道,旭川市,2520,金星町2丁目,金星児童遊園(中島交友会館隣),43.7788414,142.3688381,
北海道,旭川市,2530,東3条1丁目,東3条第1公園,43.7757265,142.3718404,
北海道,旭川市,2540,東5条1丁目,明星中学校前,43.77445960000001,142.3740961,
北海道,旭川市,2550,東5条3丁目,旧旭川計量検査所さく,43.7781425,142.3768352,
北海道,旭川市,2610,東8条4丁目,新旭川児童公園,43.7776559,142.3823981,
北海道,旭川市,2620,東4条7丁目,masked,43.7835897,142.3777557,
北海道,旭川市,2630,東5条5丁目,東五条小学校さく（プール横）,43.7801294,142.3785823,
北海道,旭川市,2640,東5条5丁目,東五条小学校さく（体育館側）,43.7801294,142.3785823,
北海道,旭川市,2650,東6条6丁目,山崎製パン札幌工場旭川営業所さく,43.7814134,142.3802107,
北海道,旭川市,2710,東5条11丁目,新富保育園雪止めさく前,43.7871516,142.3818867,
北海道,旭川市,2720,新富1条3丁目,新富なかよし公園,43.7930594,142.3857094,
北海道,旭川市,2730,新富2条1丁目,masked,43.7874962,142.3840624,
北海道,旭川市,2740,新富2条2丁目,新富小学校さく,43.7894225,142.3865058,
北海道,旭川市,2750,流通団地1条4丁目,旭川運輸貨物取扱所横さく,43.7978017,142.4048669,
北海道,旭川市,2760,流通団地1条5丁目,北旭川貨物駅舎前さく,43.8018835,142.4112075,
北海道,旭川市,2770,流通団地2条2丁目,渡辺パイプさく,43.7957216,142.3960429,
北海道,旭川市,2810,永山6条2丁目,永山ライラック公園,43.7845058,142.401906,
北海道,旭川市,2820,パルプ町1条2丁目,日本製紙フェンス（アークス駐車場向かい斜め部分）,43.7741588,142.3856874,
北海道,旭川市,2830,大雪通8丁目,北消防署新旭川出張所さく,43.78448789999999,142.3899053,
北海道,旭川市,2840,永山4条2丁目,永山4・2児童遊園,43.7864461,142.4001177,
北海道,旭川市,2850,新星町1丁目,トヨタ輸送旭川営業所前さく,43.7783022,142.3994429,
北海道,旭川市,2910,新星町3丁目,masked,43.7753692,142.400357,
北海道,旭川市,2920,永山11条2丁目,イサミヤアールピー永山工場さく,43.7782728,142.4079056,
北海道,旭川市,2930,永山10条3丁目,永山あかしや公園,43.7813743,142.4091376,
北海道,旭川市,2940,永山7条4丁目,永山住民センターさく,43.7861261,142.4078269,
北海道,旭川市,2950,永山5条4丁目,永山とちのき公園,43.7884792,142.405403,
北海道,旭川市,2960,永山9条1丁目,永山しらかば公園,43.7790514,142.4030982,
北海道,旭川市,2970,永山町3丁目,永嶺高等学校さく,43.7814506,142.4204415,
北海道,旭川市,3010,永山1条5丁目,永山1・5児童遊園,43.7940569,142.4028198,
北海道,旭川市,3020,永山9条6丁目,永山南小学校さく,43.786921,142.4150195,
北海道,旭川市,3030,永山9条6丁目,永山南小学校さく（体育館側）,43.786921,142.4150195,
北海道,旭川市,3040,永山9条8丁目,永山公園（永山4丁目通沿い）,43.78936580000001,142.4196697,
北海道,旭川市,3050,永山4条7丁目,永山にれの木公園さく（裏側）,43.7930336,142.4104109,
北海道,旭川市,3060,永山町4丁目,くりの木幼稚園さく（2番線沿い）,43.78331439999999,142.4235811,
北海道,旭川市,3070,永山2条7丁目,男山前さく（国道沿い）,43.7956776,142.4087421,
北海道,旭川市,3110,永山3条10丁目,日立建機日本旭川営業所さく,43.7985818,142.4162946,
北海道,旭川市,3120,永山9条11丁目,永山さくら公園,43.7937971,142.42607,
北海道,旭川市,3130,永山9条9丁目,永山かしわ公園,43.7909397,142.4220547,
北海道,旭川市,3140,永山7条11丁目,永山西小学校さく（児童昇降口前）,43.7961511,142.4236468,
北海道,旭川市,3150,永山7条11丁目,永山西小学校さく（駐車場側）,43.7961511,142.4236468,
北海道,旭川市,3160,永山2条12丁目,安東産業さく,43.802556,142.419794,
北海道,旭川市,3170,永山8条14丁目,永山かつら公園（しらゆき町内会館側）,43.7990541,142.4312001,
北海道,旭川市,3180,永山町5丁目,永山南中学校グラウンドフェンス,43.7872868,142.4270798,
北海道,旭川市,3210,永山3条14丁目,三菱ふそうトラック・バス北海道ふそう旭川支店さく,43.8038855,142.4249623,
北海道,旭川市,3220,永山3条15丁目,永山三区会館前,43.8054598,142.4273483,
北海道,旭川市,3230,永山北2条6丁目,日本製紙永山沈殿池さく,43.806913,142.4148859,
北海道,旭川市,3240,永山6条16丁目,永山みずほ公園,43.8038535,142.4334293,
北海道,旭川市,3250,永山北1条7丁目,旭川小型運輸(株)永山北1条倉庫（中央橋通側）,43.8078302,142.4206906,
北海道,旭川市,3260,永山北1条8丁目,トヨタモビリティーパーツ旭川支社さく,43.8095727,142.4252237,
北海道,旭川市,3310,永山3条22丁目,高畑整形外科医院駐車場フェンス,43.8151343,142.4431191,
北海道,旭川市,3320,永山1条17丁目,第1永山団地児童遊園横,43.8102601,142.4295775,
北海道,旭川市,3330,永山3条20丁目,永山支所向かいグラウンド,43.8119859,142.4383453,
北海道,旭川市,3340,永山5条18丁目,永山小学校さく（グラウンド側）,43.8075373,142.436175,
北海道,旭川市,3350,永山7条19丁目,永山中学校さく,43.8067562,142.4409845,
北海道,旭川市,3360,永山6条17丁目,永山中央公園（1番通側）,43.80542759999999,142.4358156,
北海道,旭川市,3370,永山北1条9丁目,旭川市場物流さく,43.8121409,142.4284853,
北海道,旭川市,3380,永山8条15丁目,永山サンシャイン公園,43.7999249,142.4334663,
北海道,旭川市,3390,永山町12丁目,永山13区会館さく,43.80567749999999,142.4612762,
北海道,旭川市,3410,永山3条23丁目,旭川市立大学前鉄さく,43.8170603,142.4455663,
北海道,旭川市,3420,永山6条24丁目,永山ワンワン遊園,43.8154523,142.4516479,
北海道,旭川市,3430,永山町13丁目,永山東小学校さく,43.8146087,142.4571535,
北海道,旭川市,3440,永山町14丁目,永山第十区会館前,43.8185828,142.4606576,
北海道,旭川市,3450,永山町14丁目,永山ふれあいセンター,43.8185828,142.4606576,
北海道,旭川市,3510,永山町14丁目,永山町十二区会館さく,43.8185828,142.4606576,
北海道,旭川市,3520,永山町16丁目,永山11区会館前,43.8187577,142.4748126,
北海道,旭川市,3610,緑町15丁目,旭川市民生活館前,43.7865314,142.3337873,
北海道,旭川市,3620,緑町15丁目,masked,43.7865314,142.3337873,
北海道,旭川市,3630,緑町17丁目,近文小学校さく（嵐山線沿い）,43.7881793,142.3312408,
北海道,旭川市,3640,緑町17丁目,近文小学校さく（体育館側）,43.7881793,142.3312408,
北海道,旭川市,3650,緑町13丁目,明成高等学校（緑町13丁目バス停付近）,43.7849138,142.3359858,
北海道,旭川市,3660,錦町15丁目,北門中学校前（校門左側）,43.7891016,142.3370426,
北海道,旭川市,3670,近文町14丁目,近文市民ふれあいセンターさく,43.7828464,142.331051,
北海道,旭川市,3710,近文町23丁目,近文公園,43.7899695,142.3188356,
北海道,旭川市,3720,緑町25丁目,緑町団地3号棟前さく（嵐山線）,43.7954738,142.3211705,
北海道,旭川市,3730,錦町21丁目,masked,43.7940457,142.3294024,
北海道,旭川市,3740,近文町25丁目,masked,43.7920892,142.3149556,
北海道,旭川市,3750,旭岡2丁目,静望公園,43.7937368,142.3124079,
北海道,旭川市,3760,旭岡6丁目,旭岡公園,43.7998031,142.3247209,
北海道,旭川市,3810,本町2丁目,masked,43.7802549,142.356727,
北海道,旭川市,3820,旭町2条3丁目,masked,43.7836481,142.3587104,
北海道,旭川市,3830,大町1条1丁目,大町小学校さく,43.7821083,142.3640966,
北海道,旭川市,3840,花咲町1丁目,護国神社へい（金星橋通側）,43.78538,142.3674717,
北海道,旭川市,3850,花咲町1丁目,護国神社へい（国道40号線側）,43.78538,142.3674717,
北海道,旭川市,3860,花咲町2丁目,スタルヒン球場前さく,43.78724589999999,142.3706098,
北海道,旭川市,3910,川端町5条9丁目,西高等学校教育研修センター横空き地前さく,43.7828725,142.3430532,
北海道,旭川市,3920,北門町9丁目,北門町9丁目バス停後方さく,43.786024,142.3478182,
北海道,旭川市,3930,北門町9丁目,教育大学学生寮さく,43.786024,142.3478182,
北海道,旭川市,3940,旭町1条6丁目,大有小学校さく（給食玄関前）,43.7848362,142.3532645,
北海道,旭川市,3950,旭町1条7丁目,大有小学校さく（体育館側）,43.7863634,142.3521101,
北海道,旭川市,3960,旭町2条8丁目,北星地区センター,43.78776939999999,142.3523469,
北海道,旭川市,3970,春光町10番地,NTT春光ビルさく,43.7927754,142.35565,
北海道,旭川市,4010,北門町11丁目,教育大学屋外運動場さく（ローソン向かい）,43.7876722,142.3452723,
北海道,旭川市,4020,旭町1条14丁目,旭町うさぎ公園,43.792248,142.3439246,
北海道,旭川市,4030,北門町21丁目,北門ビー パーク公園,43.7966166,142.332658,
北海道,旭川市,4040,旭町1条12丁目,昭徳寺駐車場,43.7907753,142.3465004,
北海道,旭川市,4050,旭町1条16丁目,北光小学校さく（正門横）,43.7940721,142.3414078,
北海道,旭川市,4060,旭町2条15丁目,旭川盲学校さく（さくらおか幼稚園向かい）,43.7945331,142.3443091,
北海道,旭川市,4070,旭町1条19丁目,新北都児童遊園,43.7965447,142.3375878,
北海道,旭川市,4110,大町2条15丁目,相川記念病院さく,43.7964002,142.3474471,
北海道,旭川市,4120,大町2条18丁目,大町しろくま公園,43.7988732,142.3436273,
北海道,旭川市,4130,住吉5条1丁目,向陵小学校さく（校門右側）,43.79603660000001,142.3516217,
北海道,旭川市,4140,住吉5条1丁目,向陵小学校さく（体育館側）,43.79603660000001,142.3516217,
北海道,旭川市,4150,住吉5条1丁目,北星中学校さく,43.79603660000001,142.3516217,
北海道,旭川市,4160,住吉6条2丁目,北電大雪寮さく,43.7989705,142.3507038,
北海道,旭川市,4170,春光4条1丁目,教育大学附属小学校さく,43.7963152,142.3566103,
北海道,旭川市,4210,春光5条3丁目64,公務員合同宿舎410棟前さく(春光町2区6条住宅),43.8004736,142.3580172,
北海道,旭川市,4220,春光7条6丁目,わかば公園,43.8067423,142.3597802,
北海道,旭川市,4230,春光5条4丁目,北部住民センターさく,43.8017587,142.359646,
北海道,旭川市,4240,春光6条6丁目,北鎮小学校生け垣(めいほう幼稚園横),43.8051536,142.3616306,
北海道,旭川市,4250,春光6条6丁目,めいほう幼稚園さく,43.8051536,142.3616306,
北海道,旭川市,4260,春光5条7丁目,春光園(春光園前バス停横),43.80484999999999,142.3651099,
北海道,旭川市,4270,春光3条6丁目,しらかば共同作業所横さく,43.8016637,142.3668669,
北海道,旭川市,4310,花咲町6丁目,藤幼稚園前さく,43.7956556,142.3805013,
北海道,旭川市,4320,春光2条7丁目,道営住宅さく(84R－6前),43.79990129999999,142.3727471,
北海道,旭川市,4330,春光2条7丁目,啓北中学校さく(入口付近),43.79990129999999,142.3727471,
北海道,旭川市,4340,春光2条7丁目,啓北中学校体育館側,43.79990129999999,142.3727471,
北海道,旭川市,4350,春光1条8丁目,六区公園,43.7994147,142.3783129,
北海道,旭川市,4360,春光3条8丁目,五区公園,43.8034782,142.3726452,
北海道,旭川市,4410,花咲町7丁目,旭川医療センターさく(春光交番向かい),43.79752149999999,142.3836406,
北海道,旭川市,4420,花咲町7丁目,旭川医療センターさく(バス停後方),43.79752149999999,142.3836406,
北海道,旭川市,4430,末広1条1丁目,春光小学校さく(正面側),43.8026264,142.382386,
北海道,旭川市,4440,末広1条1丁目,春光小学校さく(体育館側),43.8026264,142.382386,
北海道,旭川市,4450,末広3条3丁目,末広公園,43.8077928,142.3804354,
北海道,旭川市,4460,末広3条2丁目,六合中学校さく(玄関前),43.8072112,142.3789248,
北海道,旭川市,4470,春光2条9丁目,桜が丘児童公園,43.8030524,142.3775157,
北海道,旭川市,4510,春光5条9丁目,道営住宅「けやき」南側,43.8078662,142.3708394,
北海道,旭川市,4520,末広8条3丁目,末広高台公園,43.8166859,142.3685199,
北海道,旭川市,4530,末広4条1丁目,北消防署春光出張所さく,43.8075762,142.3747497,
北海道,旭川市,4540,末広5条5丁目,末広しらさぎ公園,43.813954,142.3793585,
北海道,旭川市,4550,末広5条3丁目,うっぺつ公園(鉄塔側),43.8117964,142.3754628,
北海道,旭川市,4560,末広6条2丁目,末広小学校(グラウンド側),43.8121613,142.3712872,
北海道,旭川市,4570,末広6条2丁目,末広小学校さく(正門側),43.8121613,142.3712872,
北海道,旭川市,4610,春光台2条2丁目,旭川工業高等専門学校さく(入口右側),43.8136796,142.3538876,
北海道,旭川市,4620,春光台3条5丁目,春光台地区センターさく(正面入口),43.8215754,142.3615754,
北海道,旭川市,4630,春光台3条3丁目,千代の山公園,43.8179005,142.3545988,
北海道,旭川市,4640,春光台1条4丁目,春光台1条第3公園,43.8164078,142.363529,
北海道,旭川市,4650,春光台3条8丁目,春光台鷹の巣公園,43.8253717,142.3671607,
北海道,旭川市,4660,春光台3条5丁目,春光台3条第2公園,43.8215754,142.3615754,
北海道,旭川市,4670,春光台2条8丁目,春光台2条第2公園,43.8233695,142.3696484,
北海道,旭川市,4710,春光台3条3丁目,春光台公民館さく,43.8179005,142.3545988,
北海道,旭川市,4720,春光台4条3丁目,春光台4条第1公園,43.81955019999999,142.3520514,
北海道,旭川市,4730,春光台5条3丁目,春光台中学校さく(校門左側),43.8226071,142.3497408,
北海道,旭川市,4740,春光台4条4丁目,高台小学校さく(春光台通沿い),43.8212969,142.3565838,
北海道,旭川市,4750,春光台4条4丁目,高台小学校さく(正門向かって右側),43.8212969,142.3565838,
北海道,旭川市,4760,春光台4条5丁目,春光台団地(春光台-6向かい、旧613号棟横),43.8232862,142.358332,
北海道,旭川市,4770,春光台4条7丁目,春光台4条第2公園,43.8260881,142.363043,
北海道,旭川市,4810,末広2条4丁目,ひばり児童遊園,43.80742739999999,142.3846103,
北海道,旭川市,4820,末広3条4丁目,北電新星変電所さく,43.8090777,142.3820649,
北海道,旭川市,4830,末広1条7丁目,陵雲小学校さく(6丁目側),43.8096313,142.3920448,
北海道,旭川市,4840,末広1条7丁目,陵雲小学校さく(プール側),43.8096313,142.3920448,
北海道,旭川市,4850,末広1条8丁目,末広つばめ公園,43.8102127,142.3935556,
北海道,旭川市,4860,末広3条8丁目,末広はやぶさ公園,43.8138046,142.3892205,
北海道,旭川市,4910,末広東1条5丁目,末広はなぞの公園,43.8054116,142.3913302,
北海道,旭川市,4920,末広東3条5丁目,末広東公園,43.80099510000001,142.3969365,
北海道,旭川市,4930,末広東1条7丁目,末広ひばり公園,43.8072775,142.3944707,
北海道,旭川市,4940,末広東2条7丁目,石狩川浄水場さく(がんセンター向かい),43.805566,142.3977111,
北海道,旭川市,4950,末広東2条9丁目,末広やまどり公園（地域活動センター側）,43.8077833,142.4009114,
北海道,旭川市,4960,末広東1条10丁目,末広こばと公園,43.8111313,142.3993606,
北海道,旭川市,4970,末広東1条12丁目,高田商事前フェンス,43.8137006,142.4026211,
北海道,旭川市,5010,末広4条6丁目,masked,43.813237,142.3834746,
北海道,旭川市,5020,末広6条9丁目,末広ホトトギス公園,43.8207452,142.3833322,
北海道,旭川市,5030,末広6条7丁目,末広第二こども園さく,43.8181747,142.3800722,
北海道,旭川市,5040,末広5条8丁目,末広すみれ公園（末広6条側）,43.8174576,142.3841887,
北海道,旭川市,5050,末広4条11丁目,末広キレンジャク公園,43.8193103,142.3915653,
北海道,旭川市,5060,末広5条11丁目,末広北小学校グラウンドフェンス,43.8209612,142.3890195,
北海道,旭川市,5070,末広5条11丁目,末広北小学校さく(駐車場横),43.8209612,142.3890195,
北海道,旭川市,5080,末広3条11丁目,masked,43.8173077,142.3940513,
北海道,旭川市,5110,末広1条11丁目,末広セキレイ公園,43.8140669,142.3984459,
北海道,旭川市,5120,末広1条15丁目,UDトラックス旭川支店さく,43.8187931,142.4056037,
北海道,旭川市,5130,末広2条11丁目,末広あかしや公園,43.8156568,142.3965966,
北海道,旭川市,5140,末広2条15丁目,かわせみ公園,43.8204444,142.4030586,
北海道,旭川市,5150,東鷹栖3線10号,近文第一小学校さく(プール側),43.822144,142.397476,緯度経度は怪しい
北海道,旭川市,5210,東鷹栖東1条1丁目,石部金属前さく,43.821709,142.414185,緯度経度は怪しい
北海道,旭川市,5220,東鷹栖東3条4丁目,旭ダンケ職員駐車場前,43.820183,142.426132,緯度経度は怪しい
北海道,旭川市,5230,東鷹栖4条3丁目,東鷹栖公民館入口横,43.831276,142.407578,緯度経度は怪しい
北海道,旭川市,5240,東鷹栖4条4丁目,NTT東鷹栖電話交換局さく,43.832443,142.409241,緯度経度は怪しい
北海道,旭川市,5250,東鷹栖4条5丁目,東鷹栖中学校グラウンドフェンス,43.833675,142.410904,緯度経度は怪しい
北海道,旭川市,5310,東鷹栖4線18号,東鷹栖保育所,43.829193,142.393219,緯度経度は怪しい
北海道,旭川市,5320,東鷹栖4線16号,近文第二小学校入口横,43.829193,142.393219,緯度経度は怪しい
北海道,旭川市,5330,東鷹栖4線19号,4線19号沿い空き地,43.829193,142.393219,緯度経度は怪しい
北海道,旭川市,5410,東鷹栖10線21号,東鷹栖公民館第三分館駐車場(道路側),43.87442,142.401077,緯度経度は怪しい
北海道,旭川市,5420,東鷹栖11線21号,旧東鷹栖公民館第三分館跡地前,43.880058,142.399094,緯度経度は怪しい
北海道,旭川市,5510,東鷹栖8線15号,藤沢牧場前,43.868649,142.412933,緯度経度は怪しい
北海道,旭川市,5520,東鷹栖10線16号,東鷹栖農村活性化センター(野土花)前,43.87442,142.401077,緯度経度は怪しい
北海道,旭川市,5610,神楽1条6丁目,忠別公園,43.7631594,142.3524358,
北海道,旭川市,5620,神楽5条2丁目,NTT旭川神楽ビルさく,43.7631288,142.3425547,
北海道,旭川市,5630,神楽4条6丁目,旭川地場産業振興センターさく,43.7597738,142.3483388,
北海道,旭川市,5640,神楽3条6丁目,神楽市民交流センター,43.7607065,142.3499065,
北海道,旭川市,5650,神楽6条5丁目,神楽さつき公園(西側),43.7584958,142.3445969,
北海道,旭川市,5710,神楽4条10丁目,神楽みのむし公園,43.7544264,142.3544916,
北海道,旭川市,5720,神楽3条8丁目,クリスタルパーク(神楽3条通沿い),43.7580599,142.353693,
北海道,旭川市,5730,神楽4条12丁目,神楽とよかぜ公園,43.75119249999999,142.3588835,
北海道,旭川市,5740,神楽2条11丁目,神楽まつむし公園,43.7550557,142.3595347,
北海道,旭川市,5750,神楽4条8丁目,クリスタルホール駐車場(神楽4-8バス停後方),43.7571879,142.3514302,
北海道,旭川市,5760,神楽3条8丁目,クリスタルパーク(氷点通沿い),43.7580599,142.353693,
北海道,旭川市,5810,神楽6条12丁目,神楽中学校さく(バス停後方),43.7490979,142.3542993,
北海道,旭川市,5820,神楽岡公園,神楽岡公園,43.75000499999999,142.364325,
北海道,旭川市,5830,神楽岡12条2丁目,神楽岡地区センターさく,43.7452772,142.3592968,
北海道,旭川市,5840,神楽岡14条3丁目,神楽岡小学校さく(正門横),43.74311609999999,142.3575223,
北海道,旭川市,5850,神楽岡13条9丁目,神楽岡ありんこ公園,43.7311482,142.3660793,
北海道,旭川市,5860,神楽岡14条4丁目,神楽岡くつわむし公園,43.7404765,142.3591927,
北海道,旭川市,5870,神楽岡12条8丁目,神楽岡ゆきむし公園前さく,43.7334298,142.3664643,
北海道,旭川市,5880,神楽岡11条6丁目,神楽岡11－6児童遊園,43.7377637,142.3657855,
北海道,旭川市,5910,神楽岡8条7丁目,神楽岡おにやんま公園,43.73769,142.3707081,
北海道,旭川市,5920,神楽岡1条5丁目,神楽岡てんとう虫公園,43.7445162,142.3782065,
北海道,旭川市,5930,神楽岡3条5丁目,緑新小学校さく(プール前),43.7435304,142.3752195,
北海道,旭川市,5940,神楽岡4条5丁目,緑新小学校さく(体育館側),43.7434763,142.3738002,
北海道,旭川市,5950,神楽岡7条6丁目,神楽岡神明公園,43.7393846,142.3716992,
北海道,旭川市,5960,神楽岡7条4丁目,神楽岡くわがた公園,43.74407679999999,142.3689659,
北海道,旭川市,5970,神楽岡7条7丁目,どんぐり児童遊園,43.7382707,142.3722161,
北海道,旭川市,6010,緑が丘2条2丁目,わかば幼稚園さく,43.7358473,142.3795615,
北海道,旭川市,6020,緑が丘4条2丁目,NTT神楽岡電話交換所さく,43.7343959,142.3757915,
北海道,旭川市,6030,緑が丘2条3丁目,masked,43.7346118,142.3814676,
北海道,旭川市,6040,緑が丘2条4丁目,緑が丘東公園,43.7327352,142.3825601,
北海道,旭川市,6050,緑が丘3条4丁目,緑が丘小学校前,43.7312232,142.3794849,
北海道,旭川市,6060,緑が丘5条4丁目,緑が丘南公園,43.730474,142.3758339,
北海道,旭川市,6070,緑が丘東2条1丁目,旭川医科大学病院さく(交差点入口右側),43.7282801,142.3846263,
北海道,旭川市,6110,緑が丘南2条1丁目,西御料公園さく(十字路角),43.7320734,142.36976,
北海道,旭川市,6120,緑が丘南2条2丁目,西御料あかね公園,43.7294343,142.3714291,
北海道,旭川市,6130,緑が丘東4条1丁目,工業高等学校前さく(正門左側バス停後方),43.7281858,142.3775619,
北海道,旭川市,6140,緑が丘東3条2丁目,中小企業大学校旭川校さく(南高バス停後方),43.7255332,142.3834569,
北海道,旭川市,6150,緑が丘東3条3丁目,南高等学校グラウンドフェンス,43.7221924,142.3850062,
北海道,旭川市,6160,西御料1条2丁目,西御料地小学校駐車場さく,43.72403509999999,142.3761559,
北海道,旭川市,6170,西神楽1線6号,西御料児童遊園,43.7169825,142.3672133,
北海道,旭川市,6210,西神楽1線10号,瑞穂会館掲示板横,43.6991731,142.3754792,
北海道,旭川市,6220,西神楽2線10号,JR西瑞穂駅さく,43.7011287,142.3856711,
北海道,旭川市,6310,西神楽北2条1丁目,西神楽赤とんぼ公園,43.6877748,142.3918631,
北海道,旭川市,6320,西神楽北2条2丁目,西神楽オーロラ公園,43.6876673,142.3890282,
北海道,旭川市,6330,西神楽北1条4丁目,NTT西神楽電話交換局さく,43.6842828,142.3870473,
北海道,旭川市,6340,西神楽南1条1丁目,JR西神楽駅右鉄さく,43.6825015,142.3951951,
北海道,旭川市,6350,西神楽南1条2丁目,masked,43.68280559999999,142.3917261,
北海道,旭川市,6360,西神楽北2条3丁目,西神楽小学校さく,43.6870877,142.3875218,
北海道,旭川市,6370,西神楽南2条3丁目,西神楽市民交流センター前,43.68029079999999,142.3920045,
北海道,旭川市,6410,西神楽1線18号,旧聖和小学校,43.66571,142.404709,緯度経度は怪しい
北海道,旭川市,6420,西神楽2線18号,JR西聖和駅さく,43.666752,142.41806,緯度経度は怪しい
北海道,旭川市,6510,西神楽2線24号,麦わらぼーし駐車場右側芝生,43.719517,142.375275,緯度経度は怪しい
北海道,旭川市,6520,西神楽2線24号,JR千代ヶ岡駅前バス停付近,43.719517,142.375275,緯度経度は怪しい
北海道,旭川市,6530,西神楽3線23号,千代ヶ岡農業集落排水処理センター,43.721653,142.378891,緯度経度は怪しい
北海道,旭川市,6610,西神楽1線31号,西神楽公民館就実分館前,43.722454,142.363602,緯度経度は怪しい
北海道,旭川市,6620,西神楽1線32号,masked,43.722454,142.363602,緯度経度は怪しい
北海道,旭川市,6710,忠和2条4丁目,忠和ピッコロ公園,43.7807098,142.3186948,
北海道,旭川市,6720,忠和4条4丁目,忠和小学校児童昇降口,43.7781394,142.3154411,
北海道,旭川市,6730,忠和4条4丁目,忠和小学校さく(環状線沿い),43.7781394,142.3154411,
北海道,旭川市,6740,忠和5条5丁目,忠和地区センターさく,43.7750867,142.3177521,
北海道,旭川市,6750,忠和7条4丁目,忠和ポパイ公園,43.7741635,142.3119523,
北海道,旭川市,6760,忠和7条5丁目,masked,43.7725167,142.3144989,
北海道,旭川市,6770,忠和5条2丁目,忠和ポプラ公園,43.7797363,142.3093572,
北海道,旭川市,6810,忠和2条6丁目,忠和太陽健康広場,43.7782281,142.326747,
北海道,旭川市,6820,忠和3条7丁目,忠和団地集会所前,43.7751751,142.3290572,
北海道,旭川市,6830,忠和4条6丁目,忠和やまびこ公園,43.7742526,142.3232573,
北海道,旭川市,6840,忠和5条6丁目,masked,43.7730281,142.3209351,
北海道,旭川市,6850,忠和4条7丁目,忠和しらかば公園,43.7729569,142.3258624,
北海道,旭川市,6860,忠和7条7丁目,山口産商さく,43.7691026,142.3209823,
北海道,旭川市,6910,神居2条9丁目,神居支所前へい,43.7607174,142.3354478,
北海道,旭川市,6920,神居9条6丁目,はす池公園,43.761187,142.3238875,
北海道,旭川市,6930,神居4条5丁目,神居中学校さく(郵便局向かい),43.7643322,142.3307643,
北海道,旭川市,6940,神居4条6丁目,神居小学校さく(正門横),43.76321790000001,142.3312827,
北海道,旭川市,6950,神居4条6丁目,神居小学校さく(体育館側),43.76321790000001,142.3312827,
北海道,旭川市,6960,神居2条7丁目,かむい中央公園,43.7629762,142.3340638,
北海道,旭川市,6970,神居5条4丁目,神居ミッキーマウス公園,43.76498549999999,142.3273467,
北海道,旭川市,6980,神居6条2丁目,masked,43.7666324,142.3248011,
北海道,旭川市,6990,神居4条4丁目,神居4条第1公園,43.7651557,142.3294917,
北海道,旭川市,7010,神居1条17丁目,神居東小学校さく(駐車場側),43.7524644,142.3442876,
北海道,旭川市,7020,神居1条17丁目,神居東小学校さく(体育館側),43.7524644,142.3442876,
北海道,旭川市,7030,神居2条17丁目,神居住民センター駐車場さく,43.7513015,142.341271,
北海道,旭川市,7040,神居1条21丁目,神居かわかぜ公園,43.7460708,142.3481482,
北海道,旭川市,7050,神居4条14丁目,神居東ちびっこ広場,43.7544798,142.3354578,
北海道,旭川市,7060,神居4条11丁目,masked,43.7576466,142.3338739,
北海道,旭川市,7070,神居6条13丁目,神居ガリバー公園,43.7549575,142.3320116,
北海道,旭川市,7080,神居4条20丁目,神居東公園(神居東中学校向かい),43.7456828,142.3403263,
北海道,旭川市,7110,神居町雨紛,開光寺前,43.73107110000001,142.3526732,
北海道,旭川市,7120,神居町雨紛,雨紛小学校グラウンドフェンス,43.73107110000001,142.3526732,
北海道,旭川市,7210,神居町上雨紛,masked,43.691463,142.331329,緯度経度は怪しい
北海道,旭川市,7220,神居町上雨紛,神居公民館上雨紛分館前,43.691463,142.331329,緯度経度は怪しい
北海道,旭川市,7310,神居町富沢,カムイの杜公園,43.739079,142.328949,緯度経度は怪しい
北海道,旭川市,7320,神居町富沢,富沢小学校前さく,43.739079,142.328949,緯度経度は怪しい
北海道,旭川市,7410,台場1条6丁目,台場そよかぜ公園,43.7675168,142.2981397,
北海道,旭川市,7420,台場1条2丁目,北海道地図へい(台場小バス停後方),43.7678958,142.2855033,
北海道,旭川市,7430,台場3条1丁目,旭台中央バス停前空き地,43.7688474,142.2786065,
北海道,旭川市,7440,神居町台場,台場小学校さく(体育館側),43.7719833,142.2918304,
北海道,旭川市,7510,神居町神居古潭,旧神居古潭小中学校さく,43.708549,142.226257,緯度経度は怪しい
北海道,旭川市,7520,神居町神居古潭,西神居会館さく,43.708549,142.226257,緯度経度は怪しい
北海道,旭川市,7610,神居町豊里,豊西会館(灯油タンク横),43.66795,142.224792,緯度経度は怪しい
北海道,旭川市,7620,神居町豊里,第12号農協倉庫前(豊西会館斜め向かい),43.66795,142.224792,緯度経度は怪しい
北海道,旭川市,7710,江丹別町中央,江丹別中央農村公園駐車場内(江丹別支所駐車場向かい),43.894253,142.236557,緯度経度は怪しい
北海道,旭川市,7720,江丹別町中央,masked,43.894253,142.236557,緯度経度は怪しい
北海道,旭川市,7810,江丹別町嵐山,嵐山小中学校さく,43.798115,142.27063,緯度経度は怪しい
北海道,旭川市,7820,江丹別町嵐山,嵐山保育所さく,43.798115,142.27063,緯度経度は怪しい
北海道,旭川市,7910,江丹別町春日,春日青少年の家(入口右側),43.762878,142.240845,緯度経度は怪しい
