prefecture,city,number,address,name,lat,long,note
北海道,札幌市,01-01,中央区南２９条西１２丁目 山鼻南小学校グラウンド北側,山鼻南小学校グラウンド北側,43.0211468,141.3438213,
北海道,札幌市,01-02,中央区南２６条西１１丁目 北海学園大学工学部,北海学園大学工学部,43.024654,141.344711,緯度経度は怪しい
北海道,札幌市,01-03,中央区南２９条西８丁目 山鼻取水場,山鼻取水場,43.021805,141.349838,緯度経度は怪しい
北海道,札幌市,01-04,中央区南２７条西１２丁目 山鼻みなみ公園,山鼻みなみ公園,43.0231982,141.3441618,
北海道,札幌市,01-05,中央区南３０条西１０丁目 テニスコート跡南側,テニスコート跡南側,43.0187713,141.3472108,
北海道,札幌市,01-06,中央区南２９条西９丁目 山鼻川緑地向かい遊歩道,山鼻川緑地向かい遊歩道,43.020557,141.348541,緯度経度は怪しい
北海道,札幌市,01-07,中央区南29条西12丁目 山鼻南小学校グラウンド南側,山鼻南小学校グラウンド南側,43.0211468,141.3438213,
北海道,札幌市,02-01,中央区南２条西２０丁目 円山裏参道公園,円山裏参道公園,43.0556547,141.3271514,
北海道,札幌市,02-02,中央区南４条西２２丁目 北海道電力円山荘,北海道電力円山荘,43.052891,141.3246,緯度経度は怪しい
北海道,札幌市,02-03,中央区南６条西１８丁目 北電円山変電所,北電円山変電所,43.051071,141.329254,緯度経度は怪しい
北海道,札幌市,02-04,中央区南２条西２１丁目 瑞龍寺花園駐車場,瑞龍寺花園駐車場,43.05505,141.325668,緯度経度は怪しい
北海道,札幌市,02-05,大通西１９丁目 社会福祉総合センター,社会福祉総合センター,43.05812645,141.3276098,
北海道,札幌市,02-06,中央区大通西１９丁目 地下鉄西１８丁目駅,地下鉄西１８丁目駅,43.057232,141.327927,緯度経度は怪しい
北海道,札幌市,03-01,中央区南２１条西５丁目 柏中学校,柏中学校,43.031597,141.353561,緯度経度は怪しい
北海道,札幌市,03-02,中央区南２５条西８丁目 南２５条すみれ公園,南２５条すみれ公園,43.026386,141.349945,緯度経度は怪しい
北海道,札幌市,03-03,中央区南２３条西１０丁目 ゲートボールコート,ゲートボールコート,43.028835,141.345886,緯度経度は怪しい
北海道,札幌市,03-04,中央区南23条西7丁目 北海道電力新山鼻荘,北海道電力新山鼻荘,43.029198,141.351471,緯度経度は怪しい
北海道,札幌市,03-05,中央区南24条西9丁目 北海道電力幌南荘,北海道電力幌南荘,43.027611,141.348129,緯度経度は怪しい
北海道,札幌市,04-01,中央区南１４条西１０丁目 山鼻小学校正門,山鼻小学校正門,43.041008,141.344315,緯度経度は怪しい
北海道,札幌市,04-02,中央区南１４条西１２丁目 北海道札幌視覚支援学校東側,北海道札幌視覚支援学校東側,43.041176,141.34111,緯度経度は怪しい
北海道,札幌市,04-03,中央区南１４条西１０丁目 山鼻小学校北側,山鼻小学校北側,43.041008,141.344315,緯度経度は怪しい
北海道,札幌市,04-04,中央区南１４条西１０丁目 山鼻小学校グラウンド,山鼻小学校グラウンド,43.041008,141.344315,緯度経度は怪しい
北海道,札幌市,04-05,中央区南１４条西１０丁目 山鼻小学校東側,山鼻小学校東側,43.041008,141.344315,緯度経度は怪しい
北海道,札幌市,04-06,中央区南１４条西１２丁目 北海道札幌視覚支援学校南側,北海道札幌視覚支援学校南側,43.041176,141.34111,緯度経度は怪しい
北海道,札幌市,05-01,中央区南１６条西１７丁目 伏見中学校正門,伏見中学校正門,43.0376553,141.3329099,
北海道,札幌市,05-02,中央区南１６条西１７丁目 伏見中学校グラウンド,伏見中学校グラウンド,43.0376553,141.3329099,
北海道,札幌市,05-03,中央区伏見1丁目 伏見タウンハウス,伏見タウンハウス,43.037163,141.326721,緯度経度は怪しい
北海道,札幌市,05-04,中央区伏見１丁目 バス停「伏見町高台」,バス停「伏見町高台」,43.0361604,141.3286471,
北海道,札幌市,05-05,中央区南１６条西１５丁目 財務局南16条住宅,財務局南16条住宅,43.037556,141.335999,緯度経度は怪しい
北海道,札幌市,05-06,中央区伏見３丁目 藻岩浄水場,藻岩浄水場,43.032253,141.324371,緯度経度は怪しい
北海道,札幌市,06-01,中央区南１８条西１５丁目 伏見小学校北西角,伏見小学校北西角,43.034855,141.336304,緯度経度は怪しい
北海道,札幌市,06-02,中央区南１８条西１５丁目 伏見小学校南東角,伏見小学校南東角,43.034855,141.336304,緯度経度は怪しい
北海道,札幌市,06-03,中央区南１７条西９丁目 南１７条つぼみ公園,南１７条つぼみ公園,43.0368947,141.3473474,
北海道,札幌市,06-04,中央区南２０条西１５丁目 北海道郵政研修センターグラウンド,北海道郵政研修センターグラウンド,43.032433,141.336548,緯度経度は怪しい
北海道,札幌市,06-05,中央区南２０条西１５丁目 北海道郵政研修センター,北海道郵政研修センター,43.032433,141.336548,緯度経度は怪しい
北海道,札幌市,06-06,中央区南２１条西１６丁目 電車事業所,電車事業所,43.030685,141.336273,緯度経度は怪しい
北海道,札幌市,06-07,中央区南１８条西１３丁目 山鼻どんぐり公園,山鼻どんぐり公園,43.035156,141.339874,緯度経度は怪しい
北海道,札幌市,06-08,中央区伏見４丁目 水道記念館,水道記念館,43.033844,141.329285,緯度経度は怪しい
北海道,札幌市,06-09,中央区南１９条西１６丁目 ロープウェイ入口交差点,ロープウェイ入口交差点,43.03339,141.334076,緯度経度は怪しい
北海道,札幌市,06-10,中央区南17条西16丁目 伏見もいわ山公園西側,伏見もいわ山公園西側,43.036461,141.334427,緯度経度は怪しい
北海道,札幌市,06-11,中央区伏見４丁目 藻岩浄水場脱水機棟東側,藻岩浄水場脱水機棟東側,43.033844,141.329285,緯度経度は怪しい
北海道,札幌市,07-01,中央区南１０条西１７丁目 幌西小学校西側,幌西小学校西側,43.045736,141.331682,
北海道,札幌市,07-02,中央区南１０条西１７丁目 幌西小学校グラウンド,幌西小学校グラウンド,43.045736,141.331682,
北海道,札幌市,07-03,中央区南１１条西１６丁目 南１１条おおたに公園,南１１条おおたに公園,43.0441061,141.3338408,
北海道,札幌市,07-04,中央区南７条西１８丁目 なかよし公園,なかよし公園,43.0498785,141.3290768,
北海道,札幌市,07-05,中央区南９条西１６丁目 幌西やくも公園,幌西やくも公園,43.047108,141.333054,緯度経度は怪しい
北海道,札幌市,07-06,中央区南８条西１６丁目 道路工業㈱駐車場,道路工業㈱駐車場,43.048466,141.33287,緯度経度は怪しい
北海道,札幌市,07-07,中央区南９条西１８丁目 財務局宿舎３０１,財務局宿舎３０１,43.046928,141.329636,緯度経度は怪しい
北海道,札幌市,07-08,中央区南９条西１４丁目 わんぱく公園,わんぱく公園,43.0476986,141.3370809,
北海道,札幌市,07-09,中央区南１２条西１７丁目 幌西ひだまりパーク,幌西ひだまりパーク,43.042984,141.331863,緯度経度は怪しい
北海道,札幌市,07-10,中央区南７条西13丁目 南７条りんりん公園東側,南７条りんりん公園東側,43.0509653,141.3381919,
北海道,札幌市,08-01,中央区南１１条西９丁目 あけぼのアート＆コミュニティセンター,あけぼのアート＆コミュニティセンター,43.045353,141.345337,緯度経度は怪しい
北海道,札幌市,08-02,中央区南１１条西９丁目 あけぼのアート＆コミュニティセンター,あけぼのアート＆コミュニティセンター,43.045353,141.345337,緯度経度は怪しい
北海道,札幌市,08-03,中央区南9条西12丁目 いこい公園,いこい公園,43.04763,141.340286,緯度経度は怪しい
北海道,札幌市,08-04,中央区南８条西８丁目 北洋銀行東屯田センター,北洋銀行東屯田センター,43.049611,141.3467882,
北海道,札幌市,08-05,中央区南12条西8丁目 曙もみじ公園,曙もみじ公園,43.0443171,141.3483663,
北海道,札幌市,08-06,中央区南１１条西１０丁目 あけぼの公園,あけぼの公園,43.04517,141.34375,緯度経度は怪しい
北海道,札幌市,08-07,中央区南９条西８丁目 北海道電力旧南９条アパート東側,北海道電力旧南９条アパート東側,43.048042,141.347122,緯度経度は怪しい
北海道,札幌市,09-01,中央区南12条西7丁目 中島中学校東側,中島中学校東側,43.044212,141.349487,緯度経度は怪しい
北海道,札幌市,09-02,中央区南12条西7丁目 中島中学校西側,中島中学校西側,43.044212,141.349487,緯度経度は怪しい
北海道,札幌市,09-03,中央区南１０条西６丁目 中島公園西ノボテル口,中島公園西ノボテル口,43.047115,141.35144,緯度経度は怪しい
北海道,札幌市,09-04,中央区南１１条西６丁目 中島公園西天文台口,中島公園西天文台口,43.045567,141.350891,緯度経度は怪しい
北海道,札幌市,09-05,中央区南１５条西４丁目 対山橋,対山橋,43.0400045,141.3551505,
北海道,札幌市,09-06,中央区南１６条西５丁目 ローソン西側三角地,ローソン西側三角地,43.038799,141.353561,緯度経度は怪しい
北海道,札幌市,09-07,中央区南１６条西６丁目 札幌静修高校,札幌静修高校,43.038689,141.351791,緯度経度は怪しい
北海道,札幌市,09-08,中央区南１２条西７丁目 中島中学校南側,中島中学校南側,43.044212,141.349487,緯度経度は怪しい
北海道,札幌市,10-01,中央区南8条西2丁目 豊水会館,豊水会館,43.051071,141.357086,緯度経度は怪しい
北海道,札幌市,10-02,中央区中島公園 中島公園北海道立文学館裏,中島公園北海道立文学館裏,43.044502,141.354141,緯度経度は怪しい
北海道,札幌市,10-03,中央区中島公園 バス停「中島公園駅前」,バス停「中島公園駅前」,43.044502,141.354141,緯度経度は怪しい
北海道,札幌市,10-04,中央区中島公園 南１４条橋東,南１４条橋東,43.044502,141.354141,緯度経度は怪しい
北海道,札幌市,10-05,中央区南7条西4丁目 豊川稲荷,豊川稲荷,43.052006,141.353439,緯度経度は怪しい
北海道,札幌市,10-06,中央区南8条西2丁目 市民活動プラザ星園,市民活動プラザ星園,43.050818,141.357702,
北海道,札幌市,10-07,中央区南10条西3丁目 中島公園東側,中島公園東側,43.047932,141.356171,緯度経度は怪しい
北海道,札幌市,10-08,中央区南８西４丁目 鴨々川藻山橋,鴨々川藻山橋,43.05062174,141.3545114,
北海道,札幌市,10-09,中央区中島公園 地下鉄幌平橋駅,地下鉄幌平橋駅,43.044502,141.354141,緯度経度は怪しい
北海道,札幌市,11-01,中央区南３条西７丁目 資生館小学校北側,資生館小学校北側,43.05595,141.34758,緯度経度は怪しい
北海道,札幌市,11-02,中央区南４条西７丁目 資生館小学校南側,資生館小学校南側,43.054806,141.34787,緯度経度は怪しい
北海道,札幌市,11-03,中央区南６条西６丁目 札幌トヨペット札幌店,札幌トヨペット札幌店,43.0529697,141.3495125,
北海道,札幌市,11-04,中央区南５条西８丁目 プレミアホテルキャビン駐車場,プレミアホテルキャビン駐車場,43.053455,141.346603,緯度経度は怪しい
北海道,札幌市,12-01,中央区大通西13丁目 札幌市資料館南,札幌市資料館南,43.058456,141.33728,緯度経度は怪しい
北海道,札幌市,12-02,中央区大通西13丁目 札幌市資料館北,札幌市資料館北,43.058456,141.33728,緯度経度は怪しい
北海道,札幌市,12-03,中央区南３条西１６丁目 医大保健医療学部,医大保健医療学部,43.054272,141.331741,緯度経度は怪しい
北海道,札幌市,12-04,中央区南5条西17丁目 渥美工業㈱駐車場,渥美工業㈱駐車場,43.051952,141.330551,緯度経度は怪しい
北海道,札幌市,12-05,中央区南1条西18丁目 医大駐車場前,医大駐車場前,43.055927,141.32991,緯度経度は怪しい
北海道,札幌市,12-06,中央区南1条西16丁目 医大病院駐車場前,医大病院駐車場前,43.0563271,141.3332081,
北海道,札幌市,12-07,中央区南２条西１５丁目 二条小学校西側,二条小学校西側,43.055401,141.334869,緯度経度は怪しい
北海道,札幌市,12-08,中央区南３条西１４丁目 二条小学校南側,二条小学校南側,43.054649,141.33551,緯度経度は怪しい
北海道,札幌市,12-09,中央区南２条西１４丁目 二条小学校東側,二条小学校東側,43.055355,141.3367,緯度経度は怪しい
北海道,札幌市,12-10,中央区南２条西14丁目 南２条みゆき公園北側,南２条みゆき公園北側,43.0553948,141.3366682,
北海道,札幌市,13-01,中央区大通東6丁目 中央小学校西側,中央小学校西側,43.0627944,141.3660641,
北海道,札幌市,13-02,中央区大通東6丁目 中央小学校南側,中央小学校南側,43.0627944,141.3660641,
北海道,札幌市,13-03,中央区南４条東４丁目 新渡戸稲造記念公園,新渡戸稲造記念公園,43.057091,141.363159,緯度経度は怪しい
北海道,札幌市,13-04,中央区南４条東４丁目 橋台公園,橋台公園,43.057091,141.363159,緯度経度は怪しい
北海道,札幌市,13-05,中央区大通東１丁目 北海道電力駐車場,北海道電力駐車場,43.0615707,141.3576701,
北海道,札幌市,13-06,中央区大通東４丁目 あそぶべ公園,あそぶべ公園,43.0624333,141.3621005,
北海道,札幌市,13-07,中央区北１条東７丁目 東7丁目緑地,東7丁目緑地,43.0648407,141.3661711,
北海道,札幌市,13-08,中央区北２条東６丁目 永山記念公園南,永山記念公園南,43.0655645,141.3645082,
北海道,札幌市,13-09,中央区北2条東6丁目 永山記念公園東,永山記念公園東,43.0655645,141.3645082,
北海道,札幌市,14-01,中央区北１条東１０丁目 苗穂会館,苗穂会館,43.065395,141.372055,緯度経度は怪しい
北海道,札幌市,14-02,中央区北３条東９丁目 札幌厚生病院,札幌厚生病院,43.067673,141.369461,緯度経度は怪しい
北海道,札幌市,14-03,中央区北１条東13丁目 バス停「東橋」,バス停「東橋」,43.066193,141.378189,緯度経度は怪しい
北海道,札幌市,14-04,中央区大通東９丁目 なえぼさくら公園,なえぼさくら公園,43.063774,141.370377,緯度経度は怪しい
北海道,札幌市,14-05,中央区大通東１３丁目 東橋公園,東橋公園,43.065475,141.377777,緯度経度は怪しい
北海道,札幌市,14-06,中央区大通東１１丁目 水穂大橋北詰,水穂大橋北詰,43.0646215,141.3740099,
北海道,札幌市,14-07,中央区北２条東１３丁目 ＪＲ苗穂駅向緑地,ＪＲ苗穂駅向緑地,43.067455,141.377533,緯度経度は怪しい
北海道,札幌市,15-01,中央区北４条東３丁目 中央中学校南側,中央中学校南側,43.06741,141.359726,緯度経度は怪しい
北海道,札幌市,15-02,中央区北３条東１丁目 ＪＲ札幌病院東側,ＪＲ札幌病院東側,43.065769,141.356827,緯度経度は怪しい
北海道,札幌市,15-03,中央区北３条東１丁目 ＪＲ札幌病院西側,ＪＲ札幌病院西側,43.065769,141.356827,緯度経度は怪しい
北海道,札幌市,15-04,中央区北５条東１丁目 札幌トヨタ駐車場,札幌トヨタ駐車場,43.0680417,141.3564427,
北海道,札幌市,15-05,中央区北４条東３丁目 中央中学校東側,中央中学校東側,43.06741,141.359726,緯度経度は怪しい
北海道,札幌市,15-06,中央区北４条東３丁目 中央中学校北側,中央中学校北側,43.06741,141.359726,緯度経度は怪しい
北海道,札幌市,16-01,中央区大通西２丁目 札幌市役所南側,札幌市役所南側,43.060799,141.354446,緯度経度は怪しい
北海道,札幌市,16-02,中央区北１条西２丁目 札幌市役所東側,札幌市役所東側,43.0618912,141.3544422,
北海道,札幌市,16-03,中央区南１条西８丁目 三吉神社,三吉神社,43.058044,141.345444,緯度経度は怪しい
北海道,札幌市,16-04,中央区北２条西５丁目 北海道庁前庭南東側,北海道庁前庭南東側,43.063457,141.348923,緯度経度は怪しい
北海道,札幌市,16-05,中央区北３条西５丁目 北海道庁前庭北東側,北海道庁前庭北東側,43.064651,141.348618,緯度経度は怪しい
北海道,札幌市,16-06,中央区北２条西５丁目 道庁前庭東側,道庁前庭東側,43.063457,141.348923,緯度経度は怪しい
北海道,札幌市,16-07,中央区北１条西２丁目 札幌市役所西側駐車場,札幌市役所西側駐車場,43.0618912,141.3544422,
北海道,札幌市,17-01,中央区北２条西１１丁目 大通高等学校西側,大通高等学校西側,43.06218,141.339539,緯度経度は怪しい
北海道,札幌市,17-02,中央区北４条西１１丁目 ミニ大通公園倫敦館前,ミニ大通公園倫敦館前,43.064568,141.338943,緯度経度は怪しい
北海道,札幌市,17-03,中央区北２条西１１丁目 大通高等学校東側,大通高等学校東側,43.06218,141.339539,緯度経度は怪しい
北海道,札幌市,17-04,中央区北２条西８丁目 北大植物園南東側,北大植物園南東側,43.062836,141.34436,緯度経度は怪しい
北海道,札幌市,17-05,中央区北２条西１８丁目 札幌管区気象台,札幌管区気象台,43.0604442,141.3288634,
北海道,札幌市,17-06,中央区北６条西１３丁目 宮部記念緑地,宮部記念緑地,43.066441,141.335266,緯度経度は怪しい
北海道,札幌市,17-07,中央区北４条西１０丁目 北大植物園北西側,北大植物園北西側,43.064854,141.3406948,
北海道,札幌市,18-01,中央区北８条西１７丁目 桑園小学校　北側,桑園小学校　北側,43.067886,141.328445,緯度経度は怪しい
北海道,札幌市,18-02,中央区北８条西１７丁目 桑園小学校　東側,桑園小学校　東側,43.067886,141.328445,緯度経度は怪しい
北海道,札幌市,18-03,中央区北１０条西１８丁目 桑の実公園東側,桑の実公園東側,43.069962,141.326309,緯度経度は怪しい
北海道,札幌市,18-04,中央区北１０条西１５丁目 JR桑園駅南側駐輪場前,JR桑園駅南側駐輪場前,43.070637,141.330963,緯度経度は怪しい
北海道,札幌市,18-05,中央区北７条西１３丁目 北７条赤い実公園,北７条赤い実公園,43.067593,141.334961,緯度経度は怪しい
北海道,札幌市,18-06,中央区北７条西１８丁目 桑園公園,桑園公園,43.066532,141.327164,緯度経度は怪しい
北海道,札幌市,18-07,中央区北１０条西１８丁目 桑の実公園南側,桑の実公園南側,43.069962,141.326309,緯度経度は怪しい
北海道,札幌市,18-08,中央区北９条西１５丁目 ツルハ前緑地帯,ツルハ前緑地帯,43.069454,141.331268,緯度経度は怪しい
北海道,札幌市,19-01,中央区北８条西２５丁目 日新小学校東側,日新小学校東側,43.066925,141.317383,緯度経度は怪しい
北海道,札幌市,19-02,中央区北１２条西２０丁目 中央卸売市場駐車場北西側,中央卸売市場駐車場北西側,43.073116,141.321136,緯度経度は怪しい
北海道,札幌市,19-03,中央区北９条西２０丁目 北9条さつき公園,北9条さつき公園,43.0684653,141.3229064,
北海道,札幌市,19-04,中央区北８条西２５丁目 日新小学校南側,日新小学校南側,43.066925,141.317383,緯度経度は怪しい
北海道,札幌市,19-05,中央区北７条西２６丁目 札幌市児童福祉総合センター,札幌市児童福祉総合センター,43.065228,141.315857,緯度経度は怪しい
北海道,札幌市,19-06,中央区北１２条西２０丁目 中央卸売市場駐車場南側,中央卸売市場駐車場南側,43.073116,141.321136,緯度経度は怪しい
北海道,札幌市,19-07,中央区北１０条西２２丁目 どんぐり公園,どんぐり公園,43.0688866,141.320714,
北海道,札幌市,19-08,中央区北８条西２３丁目 やちだも公園,やちだも公園,43.0661668,141.3203144,
北海道,札幌市,19-09,中央区北7条西26丁目 岡本病院北側,岡本病院北側,43.065228,141.315857,緯度経度は怪しい
北海道,札幌市,19-10,中央区北８条西２５丁目 日新公園西側フェンス,日新公園西側フェンス,43.0677297,141.3161959,
北海道,札幌市,20-01,中央区北６条西２８丁目 UR都市機構　UR円山北町団地,UR都市機構　UR円山北町団地,43.063572,141.313324,緯度経度は怪しい
北海道,札幌市,20-02,中央区北４条西２６丁目 共栄公園,共栄公園,43.0613275,141.3172852,
北海道,札幌市,20-03,中央区北５条西２７丁目 北円山わらしっこ公園南側駐輪場,北円山わらしっこ公園南側駐輪場,43.062653,141.314896,緯度経度は怪しい
北海道,札幌市,20-04,中央区宮ケ丘３丁目 オリオン宮が丘３丁目駐車場,オリオン宮が丘３丁目駐車場,43.057255,141.309326,緯度経度は怪しい
北海道,札幌市,20-05,中央区宮の森2条1丁目 北海道いすず自動車横,北海道いすず自動車横,43.06578463,141.3111571,
北海道,札幌市,20-06,中央区宮の森２条３丁目 宮の森グリーン公園西側,宮の森グリーン公園西側,43.0640683,141.3093911,
北海道,札幌市,21-01,中央区北１条西25丁目 円山小学校正面玄関,円山小学校正面玄関,43.058193,141.319183,緯度経度は怪しい
北海道,札幌市,21-02,中央区北１条西２５丁目 円山小学校北側,円山小学校北側,43.058193,141.319183,緯度経度は怪しい
北海道,札幌市,21-03,中央区北２条西２２丁目 ダイアパレス前道路用地,ダイアパレス前道路用地,43.059921,141.322891,緯度経度は怪しい
北海道,札幌市,21-04,中央区北１条西２７丁目 公園東側,公園東側,43.057652,141.316147,緯度経度は怪しい
北海道,札幌市,22-01,中央区南９条西２２丁目 啓明中学校南側,啓明中学校南側,43.04493,141.322662,緯度経度は怪しい
北海道,札幌市,22-02,中央区南９条西２２丁目 啓明中学校北側,啓明中学校北側,43.04493,141.322662,緯度経度は怪しい
北海道,札幌市,22-03,中央区南９条西２１丁目 南円山まちづくりセンター,南円山まちづくりセンター,43.0469434,141.3259456,
北海道,札幌市,22-04,中央区南７条西２５丁目 西野白石線三角地,西野白石線三角地,43.047653,141.321472,緯度経度は怪しい
北海道,札幌市,22-05,中央区南４条西２８丁目 円山墓地,円山墓地,43.051826,141.31601,緯度経度は怪しい
北海道,札幌市,22-06,中央区南５条西２６丁目 南円山さくら公園北側,南円山さくら公園北側,43.0506711,141.3190809,
北海道,札幌市,22-07,中央区南４条西２６丁目 南円山こども公園,南円山こども公園,43.052078,141.319016,緯度経度は怪しい
北海道,札幌市,22-08,中央区南７条西２５丁目 信廣寺回向堂駐車場,信廣寺回向堂駐車場,43.047653,141.321472,緯度経度は怪しい
北海道,札幌市,23-01,中央区南１０条西２２丁目 緑丘小学校東側,緑丘小学校東側,43.043716,141.323517,緯度経度は怪しい
北海道,札幌市,23-02,中央区南１０条西２２丁目 緑丘小学校西側,緑丘小学校西側,43.043716,141.323517,緯度経度は怪しい
北海道,札幌市,23-03,中央区双子山4丁目 双子山三角公園向かい,双子山三角公園向かい,43.041149,141.312286,緯度経度は怪しい
北海道,札幌市,23-04,中央区界川１丁目 札幌南藻園,札幌南藻園,43.040333,141.317245,緯度経度は怪しい
北海道,札幌市,23-05,中央区南１０条西２３丁目 緑ヶ丘公園,緑ヶ丘公園,43.0424886,141.3216883,
北海道,札幌市,23-06,中央区南１３条西２２丁目 啓明ターミナル,啓明ターミナル,43.039612,141.3270481,
北海道,札幌市,23-07,中央区南１３条西２３丁目 伏見公園,伏見公園,43.039658,141.324997,緯度経度は怪しい
北海道,札幌市,23-08,中央区旭ヶ丘１丁目 旭ヶ丘公園,旭ヶ丘公園,43.042229,141.319717,緯度経度は怪しい
北海道,札幌市,24-01,中央区旭ヶ丘６丁目 旭丘高等学校正門,旭丘高等学校正門,43.037678,141.318924,緯度経度は怪しい
北海道,札幌市,24-02,中央区旭ヶ丘６丁目 旭丘高等学校北東角,旭丘高等学校北東角,43.037678,141.318924,緯度経度は怪しい
北海道,札幌市,24-03,masked,masked,43.038818,141.323044,緯度経度は怪しい
北海道,札幌市,24-04,中央区旭ヶ丘５丁目 バス停「慈啓会前」,バス停「慈啓会前」,43.036549,141.32222,緯度経度は怪しい
北海道,札幌市,24-05,中央区旭ヶ丘４丁目 旭ヶ丘４丁目三叉路,旭ヶ丘４丁目三叉路,43.038818,141.323044,緯度経度は怪しい
北海道,札幌市,24-06,中央区旭ヶ丘５丁目 旭ヶ丘なかよし公園,旭ヶ丘なかよし公園,43.036549,141.32222,緯度経度は怪しい
北海道,札幌市,24-07,中央区界川３丁目 旭山記念公園,旭山記念公園,43.036179,141.313019,緯度経度は怪しい
北海道,札幌市,25-01,中央区円山西町８丁目 円山西町児童会館,円山西町児童会館,43.044914,141.306915,緯度経度は怪しい
北海道,札幌市,25-02,中央区円山西町２丁目 道立心身障害者総合相談所,道立心身障害者総合相談所,43.044544,141.301102,緯度経度は怪しい
北海道,札幌市,25-03,中央区円山西町９丁目 西円山あおぞら公園,西円山あおぞら公園,43.0446954,141.3128264,
北海道,札幌市,25-04,中央区円山西町１丁目 神宮の杜シティハウス,神宮の杜シティハウス,43.048187,141.303131,緯度経度は怪しい
北海道,札幌市,25-05,中央区円山西町８丁目 円山西町８丁目山麓通歩道,円山西町８丁目山麓通歩道,43.044914,141.306915,緯度経度は怪しい
北海道,札幌市,25-06,中央区円山西町６丁目 円山ポンプ場向い,円山ポンプ場向い,43.040836,141.307495,緯度経度は怪しい
北海道,札幌市,25-07,中央区円山西町７丁目 西円山くるみ公園,西円山くるみ公園,43.0425913,141.3093244,
北海道,札幌市,25-08,中央区円山西町６丁目 円山西町神社,円山西町神社,43.039511,141.3061295,
北海道,札幌市,26-01,中央区盤渓２３１番地 盤渓小学校,盤渓小学校,43.032337,141.27742,緯度経度は怪しい
北海道,札幌市,26-02,中央区盤渓 ばんけいリサイクルセンター,ばんけいリサイクルセンター,43.022663,141.268646,緯度経度は怪しい
北海道,札幌市,26-03,中央区盤渓 バス停「幌見峠入口」,バス停「幌見峠入口」,43.022663,141.268646,緯度経度は怪しい
北海道,札幌市,27-01,中央区宮の森３条１３丁目 大倉山小学校,大倉山小学校,43.0512576,141.2972129,
北海道,札幌市,27-02,masked,masked,43.052628,141.297928,緯度経度は怪しい
北海道,札幌市,27-03,中央区宮の森１条１３丁目 陸上競技場南側歩道,陸上競技場南側歩道,43.052891,141.302277,緯度経度は怪しい
北海道,札幌市,27-04,中央区宮の森２条１４丁目 バス停「荒井山」,バス停「荒井山」,43.050894,141.2992699,
北海道,札幌市,27-05,中央区宮の森１条１４丁目 宮の森ガーデン向い,宮の森ガーデン向い,43.050014,141.301376,緯度経度は怪しい
北海道,札幌市,27-06,中央区宮の森２条１１丁目 中央消防署　宮の森出張所,中央消防署　宮の森出張所,43.05719,141.301712,緯度経度は怪しい
北海道,札幌市,27-07,中央区宮の森１２３９番地 円山総合グラウンドテニスコート北側,円山総合グラウンドテニスコート北側,43.053646,141.304749,緯度経度は怪しい
北海道,札幌市,27-08,masked,masked,43.053371,141.29512,緯度経度は怪しい
北海道,札幌市,27-09,中央区宮ヶ丘 円山公園北側,円山公園北側,43.051479,141.306641,緯度経度は怪しい
北海道,札幌市,28-01,中央区宮の森４条６丁目 宮の森小学校南側,宮の森小学校南側,43.064285,141.302505,緯度経度は怪しい
北海道,札幌市,28-02,中央区宮の森４条３丁目 宮の森かしわ公園,宮の森かしわ公園,43.066605,141.305008,緯度経度は怪しい
北海道,札幌市,28-03,中央区宮の森３条１丁目 宮の森くまの子公園,宮の森くまの子公園,43.0660729,141.3094014,
北海道,札幌市,28-04,中央区宮の森３条５丁目 宮の森公園,宮の森公園,43.0642244,141.3055858,
北海道,札幌市,28-05,中央区宮の森４条６丁目 宮の森小学校東側,宮の森小学校東側,43.064285,141.302505,緯度経度は怪しい
北海道,札幌市,28-06,中央区宮の森２条５丁目 公園北側,公園北側,43.062199,141.308945,緯度経度は怪しい
北海道,札幌市,28-07,中央区宮の森２条５丁目 公園南側,公園南側,43.062199,141.308945,緯度経度は怪しい
北海道,札幌市,29-01,中央区南２１条西５丁目 幌南小学校,幌南小学校,43.031597,141.353561,緯度経度は怪しい
北海道,札幌市,29-02,中央区南１８条西６丁目 札幌南高等学校西側,札幌南高等学校西側,43.036079,141.352844,緯度経度は怪しい
北海道,札幌市,29-03,中央区南１８条西６丁目 札幌南高等学校北側,札幌南高等学校北側,43.036079,141.352844,緯度経度は怪しい
北海道,札幌市,29-04,中央区南１６条西１丁目 南１６条西１丁目,南１６条西１丁目,43.0388645,141.3563737,
北海道,札幌市,29-05,中央区南１９条西６丁目 南１９条大橋,南１９条大橋,43.034813,141.352295,緯度経度は怪しい
北海道,札幌市,30-01,中央区宮の森４条１１丁目 三角山小学校,三角山小学校,43.0571358,141.2957264,
北海道,札幌市,30-02,中央区宮の森３条１２丁目 宮の森緑地,宮の森緑地,43.056507,141.297577,緯度経度は怪しい
北海道,札幌市,30-03,中央区宮の森４条１２丁目 交差点三角地,交差点三角地,43.055477,141.294495,緯度経度は怪しい
北海道,札幌市,30-04,中央区宮の森２条１１丁目 宮の森第一ポンプ場用地,宮の森第一ポンプ場用地,43.05719,141.301712,緯度経度は怪しい
北海道,札幌市,30-05,中央区宮の森４条１２丁目 札幌彫刻美術館,札幌彫刻美術館,43.055477,141.294495,緯度経度は怪しい
北海道,札幌市,31-01,中央区南２条西１０丁目 旧中央区民センター,旧中央区民センター,43.056469,141.342545,緯度経度は怪しい
北海道,札幌市,31-02,中央区大通西11丁目 地下鉄西11丁目駅,地下鉄西11丁目駅,43.0586074,141.3411579,
北海道,札幌市,31-03,中央区大通西１１丁目 大通公園１１丁目,大通公園１１丁目,43.058907,141.340363,緯度経度は怪しい
北海道,札幌市,31-04,中央区大通西９丁目 大通公園西９丁目,大通公園西９丁目,43.059349,141.343506,緯度経度は怪しい
北海道,札幌市,31-05,中央区南７条西１１丁目 七条公園,七条公園,43.0506831,141.3413674,
北海道,札幌市,31-06,中央区南３条西１１丁目 中央区複合庁舎西側,中央区複合庁舎西側,43.055237,141.341202,緯度経度は怪しい
北海道,札幌市,31-07,中央区南３条西１１丁目 中央区複合庁舎東側,中央区複合庁舎東側,43.055237,141.341202,緯度経度は怪しい
北海道,札幌市,32-01,中央区南１４条西１５丁目 幌西キッズ公園,幌西キッズ公園,43.0404519,141.3350783,
北海道,札幌市,32-02,中央区南１２条西１３丁目 幌西西屯田通公園,幌西西屯田通公園,43.0440012,141.3392971,
北海道,札幌市,32-03,中央区南１４条西１８丁目 幌西自転車公園,幌西自転車公園,43.0397621,141.330996,
北海道,札幌市,33-01,中央区宮の森１条１６丁目 宮の森中学校体育館入口横,宮の森中学校体育館入口横,43.04615,141.294968,緯度経度は怪しい
北海道,札幌市,33-02,中央区宮の森１条１６丁目 ニコルソメット北西側歩道,ニコルソメット北西側歩道,43.04615,141.294968,緯度経度は怪しい
北海道,札幌市,33-03,中央区宮の森２条１７丁目 宮の森こぶし公園,宮の森こぶし公園,43.0447255,141.2920514,
北海道,札幌市,33-04,中央区宮の森２条１６丁目 バス停「大倉山競技場入口」,バス停「大倉山競技場入口」,43.047165,141.291199,緯度経度は怪しい
北海道,札幌市,33-05,中央区宮の森１条１６丁目 宮の森中学校グラウンド,宮の森中学校グラウンド,43.04615,141.294968,緯度経度は怪しい
北海道,札幌市,34-01,中央区南２２条西１３丁目 やまはなサンパーク,やまはなサンパーク,43.0295092,141.3405989,
北海道,札幌市,34-02,中央区南２３条西１３丁目 山鼻中学校南東角,山鼻中学校南東角,43.028542,141.340729,緯度経度は怪しい
北海道,札幌市,34-03,中央区南２３条西１３丁目 山鼻中学校西側,山鼻中学校西側,43.028542,141.340729,緯度経度は怪しい
北海道,札幌市,34-04,中央区南２０条西１２丁目 西山鼻公園,西山鼻公園,43.032532,141.342407,緯度経度は怪しい
北海道,札幌市,34-05,中央区南２２条西１５丁目 グラウンド（伏見小学校）,グラウンド（伏見小学校）,43.029469,141.336441,緯度経度は怪しい
北海道,札幌市,34-06,中央区南２２条西１３丁目 中央図書館,中央図書館,43.029812,141.340759,緯度経度は怪しい
北海道,札幌市,35-01,中央区北１１条西１３丁目 市立病院北西側,市立病院北西側,43.0711045,141.334364,
北海道,札幌市,35-02,中央区北１１条西１３丁目 市立病院南西側,市立病院南西側,43.0711045,141.334364,
北海道,札幌市,35-03,中央区北１１条西１５丁目 JR北海道桑園駅北側駐車場,JR北海道桑園駅北側駐車場,43.0707267,141.3319823,
北海道,札幌市,35-04,中央区北１６条西１６丁目 札幌競馬場南側,札幌競馬場南側,43.07766,141.325821,緯度経度は怪しい
北海道,札幌市,35-05,中央区北１６条西１６丁目 札幌競馬場北西角緑地帯,札幌競馬場北西角緑地帯,43.07766,141.325821,緯度経度は怪しい
北海道,札幌市,35-06,中央区北１６条西１６丁目 札幌競馬場東側,札幌競馬場東側,43.07766,141.325821,緯度経度は怪しい
北海道,札幌市,35-07,中央区北１１条西１４丁目 桑園ふれあい公園,桑園ふれあい公園,43.0727497,141.3336916,
北海道,札幌市,35-08,中央区北１６条西１６丁目 札幌競馬場南西側,札幌競馬場南西側,43.07766,141.325821,緯度経度は怪しい
北海道,札幌市,36-01,中央区宮の森３条７丁目 北海道森林管理局北側,北海道森林管理局北側,43.06306396,141.3033563,
北海道,札幌市,36-02,中央区宮の森４条８丁目 札幌西高等学校北側,札幌西高等学校北側,43.06287,141.300842,緯度経度は怪しい
北海道,札幌市,36-03,中央区宮の森４条１０丁目 宮の森こだま公園,宮の森こだま公園,43.0603533,141.299234,
北海道,札幌市,36-04,中央区宮の森３条１０丁目 宮の森住宅,宮の森住宅,43.059193,141.301651,緯度経度は怪しい
北海道,札幌市,36-05,中央区宮の森３条９丁目 宮の森杉の子公園,宮の森杉の子公園,43.0606852,141.3019292,
北海道,札幌市,36-06,中央区宮の森３条１０丁目 琴似川左岸,琴似川左岸,43.059193,141.301651,緯度経度は怪しい
北海道,札幌市,36-07,中央区宮の森４条１０丁目 宮の森フランセス駐車場,宮の森フランセス駐車場,43.060356,141.298782,緯度経度は怪しい
北海道,札幌市,36-08,中央区宮の森４条８丁目 札幌西高等学校東側,札幌西高等学校東側,43.06287,141.300842,緯度経度は怪しい
北海道,札幌市,37-01,中央区北３条西１９丁目 西本願寺札幌別院西側,西本願寺札幌別院西側,43.0618857,141.3272386,
北海道,札幌市,37-02,中央区北３条西１９丁目 西本願寺札幌別院南側,西本願寺札幌別院南側,43.0618857,141.3272386,
北海道,札幌市,37-03,中央区北３条西１７丁目 ミニ大通公園西側,ミニ大通公園西側,43.0619954,141.3298597,
北海道,札幌市,37-04,中央区北４条西１５丁目 ミニ大通公園東側,ミニ大通公園東側,43.063721,141.332718,緯度経度は怪しい
北海道,札幌市,37-05,中央区北４条西２１丁目 グットホーム駐車場前歩道,グットホーム駐車場前歩道,43.062473,141.323517,緯度経度は怪しい
北海道,札幌市,01-01,北区北７条西６丁目 北海道クリスチャンセンター西横,北海道クリスチャンセンター西横,43.069069,141.345749,緯度経度は怪しい
北海道,札幌市,01-02,北区北７条西７丁目 北大クラーク会館南側塀,北大クラーク会館南側塀,43.068874,141.344421,緯度経度は怪しい
北海道,札幌市,01-03,北区北７条西８丁目 清華亭正面横,清華亭正面横,43.068501,141.34288,緯度経度は怪しい
北海道,札幌市,01-04,北区北８条西５丁目 北大中央第１宿舎１２号棟前,北大中央第１宿舎１２号棟前,43.070446,141.347153,緯度経度は怪しい
北海道,札幌市,01-05,北区北８条西５丁目 北大正門南側,北大正門南側,43.0705696,141.3471339,
北海道,札幌市,01-06,北区北１０条西５丁目 北大環境科学院前,北大環境科学院前,43.072735,141.346588,緯度経度は怪しい
北海道,札幌市,02-01,北区北９条西１丁目 北九条小学校開放玄関側校門横,北九条小学校開放玄関側校門横,43.072445,141.353256,緯度経度は怪しい
北海道,札幌市,02-02,北区北９条西１丁目 中央バス「北9西１」停留所後,中央バス「北9西１」停留所後,43.072445,141.353256,緯度経度は怪しい
北海道,札幌市,02-03,北区北７条西３丁目 札幌駅北口広場東側駐輪場入口左,札幌駅北口広場東側駐輪場入口左,43.0698695,141.3504022,
北海道,札幌市,02-04,北区北１１条西２丁目 さつき公園,さつき公園,43.074509,141.350998,緯度経度は怪しい
北海道,札幌市,03-01,北区北１８条西２丁目 北辰中学校校門横,北辰中学校校門横,43.0827903,141.3484191,
北海道,札幌市,03-02,北区北１６条西２丁目 藤学園門柱西塀,藤学園門柱西塀,43.080235,141.349548,緯度経度は怪しい
北海道,札幌市,03-03,北区北１５条西３丁目 北15条地下鉄公園,北15条地下鉄公園,43.0792316,141.3476629,
北海道,札幌市,03-04,北区北２０条西１３丁目 北海道札幌工業高等学校北側,北海道札幌工業高等学校北側,43.083244,141.330597,緯度経度は怪しい
北海道,札幌市,03-05,北区北17条西４丁目 地下鉄北18条駅２番出入口横駐輪場,地下鉄北18条駅２番出入口横駐輪場,43.080971,141.346283,緯度経度は怪しい
北海道,札幌市,03-06,北区北18条西６丁目 幌北ポニー公園,幌北ポニー公園,43.0813782,141.3431682,
北海道,札幌市,03-07,北区北18条西２丁目 北辰中学校グラウンド前,北辰中学校グラウンド前,43.0827903,141.3484191,
北海道,札幌市,03-08,北区北13条西２丁目 北13条いこい公園,北13条いこい公園,43.0770432,141.3502596,
北海道,札幌市,04-01,北区北１９条西２丁目 幌北小学校校門横,幌北小学校校門横,43.0834619,141.3482032,
北海道,札幌市,04-02,北区北１９条西２丁目 幌北小学校グラウンド前,幌北小学校グラウンド前,43.0834619,141.3482032,
北海道,札幌市,04-03,北区北２０条西３丁目 幌北中央保育園,幌北中央保育園,43.085335,141.346619,緯度経度は怪しい
北海道,札幌市,04-04,北区北２０条西４丁目 幌北日の出公園,幌北日の出公園,43.0848931,141.3453223,
北海道,札幌市,04-05,北区北２０条西７丁目 幌北公園,幌北公園,43.084473,141.34053,緯度経度は怪しい
北海道,札幌市,04-06,北区北２１条西３丁目 北21条あらぜん公園,北21条あらぜん公園,43.086739,141.346252,緯度経度は怪しい
北海道,札幌市,05-01,北区北２４条西３丁目 北24条会館前,北24条会館前,43.091167,141.345139,緯度経度は怪しい
北海道,札幌市,05-02,北区北２５条西３丁目 市営住宅幌北団地1号棟前,市営住宅幌北団地1号棟前,43.09235,141.344849,緯度経度は怪しい
北海道,札幌市,05-03,北区北２５条西２丁目 市営住宅幌北団地5号棟前,市営住宅幌北団地5号棟前,43.092587,141.346603,緯度経度は怪しい
北海道,札幌市,05-04,北区北２３条西４丁目 交通局高速電車幌北変電所前,交通局高速電車幌北変電所前,43.089458,141.343948,緯度経度は怪しい
北海道,札幌市,05-05,北区北２４条西３丁目 北24条第一公園,北24条第一公園,43.091167,141.345139,緯度経度は怪しい
北海道,札幌市,05-06,北区北２６条西４丁目 市営住宅１５号棟駐車場北側,市営住宅１５号棟駐車場北側,43.093109,141.343033,緯度経度は怪しい
北海道,札幌市,06-01,北区北３４条西７丁目 北陽中学校体育館前,北陽中学校体育館前,43.10133,141.335938,緯度経度は怪しい
北海道,札幌市,06-02,北区北３４条西７丁目 北陽中学校グラウンド前,北陽中学校グラウンド前,43.10133,141.335938,緯度経度は怪しい
北海道,札幌市,06-03,北区北３６条西８丁目 麻生ひびの公園,麻生ひびの公園,43.1048811,141.3340632,
北海道,札幌市,06-04,北区北３４条西１０丁目 北34条和光公園,北34条和光公園,43.103123,141.332138,緯度経度は怪しい
北海道,札幌市,06-05,北区北３４条西９丁目 麻生公園南東側,麻生公園南東側,43.102264,141.333481,緯度経度は怪しい
北海道,札幌市,06-06,北区北３３条西１１丁目 札幌北幼稚園,札幌北幼稚園,43.101421,141.330688,緯度経度は怪しい
北海道,札幌市,06-07,北区北３７条西８丁目 麻生あかしや公園,麻生あかしや公園,43.10619,141.334808,緯度経度は怪しい
北海道,札幌市,06-08,北区北３４条西９丁目 麻生公園北西側,麻生公園北西側,43.102264,141.333481,緯度経度は怪しい
北海道,札幌市,07-01,北区北２４条西６丁目 北区役所駐車場前,北区役所駐車場前,43.090538,141.34053,緯度経度は怪しい
北海道,札幌市,07-02,北区北２５条西７丁目 若草公園,若草公園,43.0916917,141.3387073,
北海道,札幌市,07-03,北区北２９条西７丁目 北まちづくりセンター,北まちづくりセンター,43.095299,141.337753,緯度経度は怪しい
北海道,札幌市,07-04,北区北２３条西８丁目 北23条くれない公園,北23条くれない公園,43.0887041,141.3382091,
北海道,札幌市,07-05,北区北２６条西５丁目 北27条公園通り　PICOT N26前,北27条公園通り　PICOT N26前,43.092892,141.341492,緯度経度は怪しい
北海道,札幌市,07-06,北区北２４条西５丁目 札幌サンプラザ東側小公園,札幌サンプラザ東側小公園,43.090744,141.342041,緯度経度は怪しい
北海道,札幌市,07-07,北区北２２条西７丁目 中江病院前,中江病院前,43.08733,141.339798,緯度経度は怪しい
北海道,札幌市,07-08,北区北２９条西６丁目 北２９条ひかり公園,北２９条ひかり公園,43.095554,141.339264,緯度経度は怪しい
北海道,札幌市,07-09,北区北26条西7丁目 北27条公園通り（東側）,北27条公園通り（東側）,43.092499,141.338501,緯度経度は怪しい
北海道,札幌市,08-01,北区北２７条西１４丁目 新陽小学校塀北西角,新陽小学校塀北西角,43.095245,141.327225,緯度経度は怪しい
北海道,札幌市,08-02,北区北２８条西１５丁目 JRバス「北29西15」停留所後ろ歩道,JRバス「北29西15」停留所後ろ歩道,43.0982591,141.3262337,
北海道,札幌市,08-03,北区北２５条西１４丁目 北25条ちびっこ公園,北25条ちびっこ公園,43.090977,141.327377,緯度経度は怪しい
北海道,札幌市,08-04,北区北２６条西１７丁目 新川いずみ公園,新川いずみ公園,43.0946669,141.3231753,
北海道,札幌市,08-05,北区北２７条西１３丁目 北27条牧場公園,北27条牧場公園,43.0945271,141.3279312,
北海道,札幌市,08-06,北区北２４条西１８丁目 北24条あけぼの公園,北24条あけぼの公園,43.0913188,141.3226805,
北海道,札幌市,08-07,北区北２４条西１９丁目 新川十字街公園,新川十字街公園,43.092155,141.321198,緯度経度は怪しい
北海道,札幌市,08-08,北区北２６条西１２丁目 エルムの森公園パークゴルフ場前,エルムの森公園パークゴルフ場前,43.091908,141.330429,緯度経度は怪しい
北海道,札幌市,09-01,北区新川３条３丁目 新川中央小学校校門横,新川中央小学校校門横,43.098408,141.320221,緯度経度は怪しい
北海道,札幌市,09-02,北区新川５条１丁目 新川あおぞら公園,新川あおぞら公園,43.099735,141.325577,緯度経度は怪しい
北海道,札幌市,09-03,北区新川２条２丁目 新川藤公園,新川藤公園,43.0958463,141.3198334,
北海道,札幌市,09-04,北区新川１条４丁目 新川まちづくりセンター,新川まちづくりセンター,43.096722,141.315308,緯度経度は怪しい
北海道,札幌市,09-05,北区新川３条４丁目 新川ひまわり公園,新川ひまわり公園,43.10022,141.318085,緯度経度は怪しい
北海道,札幌市,09-06,北区新川３条３丁目 新川中央小学校プール横,新川中央小学校プール横,43.098408,141.320221,緯度経度は怪しい
北海道,札幌市,09-07,北区新川２条３丁目 新川にしまきば公園,新川にしまきば公園,43.0971612,141.3196371,
北海道,札幌市,10-01,北区新琴似１条３丁目 新琴似南小学校北側,新琴似南小学校北側,43.10416,141.322205,緯度経度は怪しい
北海道,札幌市,10-02,北区新琴似１条３丁目 新琴似南小学校南側グラウンド前,新琴似南小学校南側グラウンド前,43.10416,141.322205,緯度経度は怪しい
北海道,札幌市,10-03,北区新川５条５丁目 新川三号公園,新川三号公園,43.104165,141.3184074,
北海道,札幌市,10-04,北区新川４条６丁目 新川二号公園,新川二号公園,43.1039323,141.3156758,
北海道,札幌市,10-05,北区新琴似１条４丁目 新琴似いずみ公園,新琴似いずみ公園,43.104897,141.320892,緯度経度は怪しい
北海道,札幌市,10-06,北区新琴似３条４丁目 新琴似新星公園,新琴似新星公園,43.1076175,141.3229744,
北海道,札幌市,10-07,北区新琴似３条２丁目 新琴似さつき公園,新琴似さつき公園,43.1045929,141.3279738,
北海道,札幌市,10-08,北区新琴似４条２丁目 新琴似希望公園,新琴似希望公園,43.1076984,141.3288603,
北海道,札幌市,11-01,北区新琴似１条１２丁目 新光小学校校門横,新光小学校校門横,43.111328,141.307373,緯度経度は怪しい
北海道,札幌市,11-02,北区新琴似１条８丁目 新琴似みつば公園,新琴似みつば公園,43.1079358,141.31505,
北海道,札幌市,11-03,北区新琴似１条７丁目 新琴似うさぎ公園,新琴似うさぎ公園,43.1060075,141.3153825,
北海道,札幌市,11-04,北区新川４条１０丁目 新川たんぽぽ公園,新川たんぽぽ公園,43.1079181,141.3093003,
北海道,札幌市,11-05,北区新川３条７丁目 新川まきば公園,新川まきば公園,43.103294,141.312317,緯度経度は怪しい
北海道,札幌市,11-06,北区新川２条１１丁目 新川みどり公園,新川みどり公園,43.1049402,141.3050148,
北海道,札幌市,11-07,北区新川３条１２丁目 新川北風公園,新川北風公園,43.107964,141.303894,緯度経度は怪しい
北海道,札幌市,11-08,北区新琴似１条１１丁目 新光公園,新光公園,43.1098335,141.3083809,
北海道,札幌市,12-01,北区新川５条１５丁目 新川小学校校門横,新川小学校校門横,43.114773,141.299652,緯度経度は怪しい
北海道,札幌市,12-02,北区新川３条１６丁目 中央バス「天狗橋」停留所向かい歩道,中央バス「天狗橋」停留所向かい歩道,43.1138605,141.2946474,
北海道,札幌市,12-03,北区新川西１条４丁目 札幌市新川西地区貯留池,札幌市新川西地区貯留池,43.124397,141.277634,緯度経度は怪しい
北海道,札幌市,12-04,北区新川西３条２丁目 新川西札ふれあい公園,新川西札ふれあい公園,43.1242452,141.2859515,
北海道,札幌市,12-05,北区新川西２条４丁目 新川ひばりがはら公園,新川ひばりがはら公園,43.1261601,141.2785669,
北海道,札幌市,12-06,北区新川西３条３丁目 新川きじがはら公園,新川きじがはら公園,43.125938,141.2825918,
北海道,札幌市,12-07,北区新川４条１４丁目 新川中央公園,新川中央公園,43.1120363,141.3002613,
北海道,札幌市,12-08,北区新川４条１９丁目 新川カルガモ公園,新川カルガモ公園,43.1180122,141.2905923,
北海道,札幌市,12-09,北区新川４条１７丁目 新川サイロ公園,新川サイロ公園,43.1148253,141.2933164,
北海道,札幌市,13-01,北区新琴似５条１１丁目 光陽小学校開放玄関側校門横,光陽小学校開放玄関側校門横,43.115959,141.315552,緯度経度は怪しい
北海道,札幌市,13-02,北区新琴似６条１２丁目 新琴似やなぎ公園,新琴似やなぎ公園,43.118595,141.314758,緯度経度は怪しい
北海道,札幌市,13-03,北区新琴似５条１６丁目 新琴似やわら公園,新琴似やわら公園,43.121914,141.304626,緯度経度は怪しい
北海道,札幌市,13-04,北区新琴似６条１３丁目 新琴似三和ぐるっぺ公園,新琴似三和ぐるっぺ公園,43.1199164,141.3132301,
北海道,札幌市,13-05,北区新琴似５条８丁目 新琴似安春西公園,新琴似安春西公園,43.1138115,141.3199471,
北海道,札幌市,13-06,北区新琴似６条８丁目 新琴似むつみ公園,新琴似むつみ公園,43.114832,141.3220407,
北海道,札幌市,14-01,北区新琴似１１条１５丁目 新琴似西小学校校門横,新琴似西小学校校門横,43.129112,141.315536,緯度経度は怪しい
北海道,札幌市,14-02,北区新琴似８条１４丁目 新琴似西公園,新琴似西公園,43.1240554,141.3133112,
北海道,札幌市,14-03,北区新琴似１１条１５丁目 新琴似ふたば公園,新琴似ふたば公園,43.1292462,141.3147785,
北海道,札幌市,14-04,北区新琴似６条１７丁目 新琴似ひよどり公園,新琴似ひよどり公園,43.124504,141.304214,緯度経度は怪しい
北海道,札幌市,14-05,北区新琴似８条１５丁目 新琴似双葉西公園,新琴似双葉西公園,43.1252864,141.3098126,
北海道,札幌市,14-06,北区新琴似１０条１６丁目 新琴似わかば公園,新琴似わかば公園,43.128868,141.311691,緯度経度は怪しい
北海道,札幌市,14-07,北区新琴似１２条１７丁目 新琴似おり姫公園,新琴似おり姫公園,43.132935,141.312134,緯度経度は怪しい
北海道,札幌市,14-08,北区新琴似７条１４丁目 安春川縁沿い,安春川縁沿い,43.12236,141.312073,緯度経度は怪しい
北海道,札幌市,15-01,北区新琴似１０条１０丁目 新琴似北中学校校門横,新琴似北中学校校門横,43.121975,141.324387,緯度経度は怪しい
北海道,札幌市,15-02,北区新琴似１２条１０丁目 屯田防風林緑地帯（１０丁目）,屯田防風林緑地帯（１０丁目）,43.124893,141.327286,緯度経度は怪しい
北海道,札幌市,15-03,北区新琴似１２条７丁目 屯田防風林緑地帯（７丁目）,屯田防風林緑地帯（７丁目）,43.122471,141.331619,緯度経度は怪しい
北海道,札幌市,15-04,北区新琴似１１条７丁目 新琴似児童会館横,新琴似児童会館横,43.12101,141.33017,緯度経度は怪しい
北海道,札幌市,15-05,北区新琴似１０条８丁目 新琴似はづき公園,新琴似はづき公園,43.120399,141.327301,緯度経度は怪しい
北海道,札幌市,15-06,北区新琴似８条８丁目 新琴似ひまわり公園,新琴似ひまわり公園,43.117626,141.324539,緯度経度は怪しい
北海道,札幌市,15-07,北区新琴似１０条９丁目 新琴似ことぶき公園,新琴似ことぶき公園,43.121181,141.325851,緯度経度は怪しい
北海道,札幌市,16-01,北区新琴似７条４丁目 新琴似中学校学校開放玄関前,新琴似中学校学校開放玄関前,43.113083,141.329056,緯度経度は怪しい
北海道,札幌市,16-02,北区新琴似７条４丁目 新琴似図書館駐車場前,新琴似図書館駐車場前,43.113083,141.329056,緯度経度は怪しい
北海道,札幌市,16-03,北区新琴似８条６丁目 新琴似ひばり公園,新琴似ひばり公園,43.116035,141.32753,緯度経度は怪しい
北海道,札幌市,16-04,北区新琴似９条４丁目 新琴似五番さくら公園,新琴似五番さくら公園,43.115852,141.331833,緯度経度は怪しい
北海道,札幌市,16-05,北区新琴似６条４丁目 新琴似ハート公園,新琴似ハート公園,43.1116512,141.3279816,
北海道,札幌市,16-06,北区新琴似５条４丁目 新琴似安春東公園,新琴似安春東公園,43.1103569,141.3259705,
北海道,札幌市,16-07,北区新琴似５条４丁目 新琴似安春公園,新琴似安春公園,43.1096198,141.3263492,
北海道,札幌市,17-01,北区新琴似11条６丁目 新琴似北小学校校門横,新琴似北小学校校門横,43.12019,141.331665,緯度経度は怪しい
北海道,札幌市,17-02,北区新琴似11条６丁目 新琴似北小学校グラウンド前,新琴似北小学校グラウンド前,43.12019,141.331665,緯度経度は怪しい
北海道,札幌市,17-03,北区新琴似11条５丁目 新琴似北公園,新琴似北公園,43.1190175,141.332896,
北海道,札幌市,17-04,北区新琴似12条２丁目 屯田防風林緑地帯（２丁目）,屯田防風林緑地帯（２丁目）,43.118572,141.338745,緯度経度は怪しい
北海道,札幌市,17-05,北区新琴似12条５丁目 屯田防風林緑地帯（５丁目）,屯田防風林緑地帯（５丁目）,43.120895,141.334641,緯度経度は怪しい
北海道,札幌市,17-06,北区新琴似10条1丁目 新琴似ひかり公園,新琴似ひかり公園,43.114708,141.3376446,
北海道,札幌市,18-01,北区麻生町８丁目１番 下水道科学館新琴似６番通側入口,下水道科学館新琴似６番通側入口,43.115318,141.342392,緯度経度は怪しい
北海道,札幌市,18-02,北区麻生町７丁目２番 麻生球場公園,麻生球場公園,43.113224,141.339828,緯度経度は怪しい
北海道,札幌市,18-03,北区麻生町４丁目 市営住宅麻生団地西側3号棟前,市営住宅麻生団地西側3号棟前,43.111073,141.341202,緯度経度は怪しい
北海道,札幌市,18-04,北区麻生町４丁目１１番 麻生北公園,麻生北公園,43.110645,141.3396,緯度経度は怪しい
北海道,札幌市,18-05,北区麻生町４丁目 中央バス「北４１東１」停留所後,中央バス「北４１東１」停留所後,43.111073,141.341202,緯度経度は怪しい
北海道,札幌市,18-06,北区麻生町７丁目 麻生球場横テニスコート前,麻生球場横テニスコート前,43.1132403,141.3399681,
北海道,札幌市,18-07,北区麻生町８丁目 創成川水再生プラザ前,創成川水再生プラザ前,43.115871,141.34256,緯度経度は怪しい
北海道,札幌市,19-01,北区屯田５条４丁目 屯田南小学校正門横,屯田南小学校正門横,43.1320373,141.3367351,
北海道,札幌市,19-02,北区屯田５条３丁目 屯田なかよし公園,屯田なかよし公園,43.131172,141.339386,緯度経度は怪しい
北海道,札幌市,19-03,北区屯田４条４丁目 屯田４丁目ハチドリ公園,屯田４丁目ハチドリ公園,43.128845,141.335754,緯度経度は怪しい
北海道,札幌市,19-04,北区屯田４条２丁目 屯田ピノキオ公園トイレ前,屯田ピノキオ公園トイレ前,43.128136,141.341156,緯度経度は怪しい
北海道,札幌市,19-05,北区屯田４条３丁目 屯田さくら公園,屯田さくら公園,43.12849,141.338196,緯度経度は怪しい
北海道,札幌市,19-06,北区屯田５条２丁目 屯田花園公園,屯田花園公園,43.130852,141.341965,緯度経度は怪しい
北海道,札幌市,19-07,北区屯田５条１丁目 屯田あすなろ公園,屯田あすなろ公園,43.130569,141.34465,緯度経度は怪しい
北海道,札幌市,20-01,北区屯田７条６丁目 屯田小学校学校開放玄関横,屯田小学校学校開放玄関横,43.137722,141.332321,緯度経度は怪しい
北海道,札幌市,20-02,北区屯田７条９丁目 屯田ふるさと公園,屯田ふるさと公園,43.1387351,141.3236343,
北海道,札幌市,20-03,北区屯田８条９丁目 屯田北公園,屯田北公園,43.1407124,141.3246873,
北海道,札幌市,20-04,北区屯田９条７丁目 屯田かげろう公園,屯田かげろう公園,43.143622,141.3317491,
北海道,札幌市,20-05,北区屯田７条２丁目 屯田たもの木公園,屯田たもの木公園,43.1358304,141.3432988,
北海道,札幌市,20-06,北区屯田６条１丁目 屯田草ぶえ公園,屯田草ぶえ公園,43.1326545,141.3443977,
北海道,札幌市,20-07,北区屯田６条５丁目 屯田みずほ東公園,屯田みずほ東公園,43.1339365,141.3339357,
北海道,札幌市,20-08,北区屯田７条４丁目 屯田やよい公園,屯田やよい公園,43.1383422,141.3371238,
北海道,札幌市,21-01,北区東茨戸１条２丁目 茨戸小学校校門左側入口左,茨戸小学校校門左側入口左,43.159916,141.3564853,
北海道,札幌市,21-02,北区西茨戸４条１丁目 西茨戸さくら公園,西茨戸さくら公園,43.154541,141.349777,緯度経度は怪しい
北海道,札幌市,21-03,北区東茨戸２条２丁目 東茨戸通歩道横,東茨戸通歩道横,43.164352,141.3573,緯度経度は怪しい
北海道,札幌市,21-04,北区西茨戸６条１丁目 西茨戸ふれあい公園,西茨戸ふれあい公園,43.159325,141.350906,緯度経度は怪しい
北海道,札幌市,21-05,北区東茨戸２条１丁目 伏籠川緑地,伏籠川緑地,43.16621,141.355423,緯度経度は怪しい
北海道,札幌市,21-06,北区西茨戸３条１丁目 上茨戸ライラック公園,上茨戸ライラック公園,43.152149,141.349258,緯度経度は怪しい
北海道,札幌市,22-01,北区あいの里２条１丁目 拓北小学校校門横,拓北小学校校門横,43.161106,141.38443,緯度経度は怪しい
北海道,札幌市,22-02,北区拓北６条２丁目 拓北西公園,拓北西公園,43.1559739,141.3769975,
北海道,札幌市,22-03,北区あいの里２条１丁目 あいの里すぎのこ公園,あいの里すぎのこ公園,43.1625842,141.3844595,
北海道,札幌市,22-04,北区篠路町篠路３６８番地 篠路中学校校門横,篠路中学校校門横,43.157269,141.370193,緯度経度は怪しい
北海道,札幌市,22-05,北区拓北７条３丁目 拓北すみれ公園,拓北すみれ公園,43.157494,141.382248,緯度経度は怪しい
北海道,札幌市,22-06,北区拓北７条２丁目 拓北ライラック公園,拓北ライラック公園,43.157829,141.378647,緯度経度は怪しい
北海道,札幌市,22-07,北区篠路町篠路４２０番地 拓北記念碑前,拓北記念碑前,43.165966,141.37648,緯度経度は怪しい
北海道,札幌市,23-01,北区篠路４条９丁目 篠路小学校校門横,篠路小学校校門横,43.145496,141.37146,緯度経度は怪しい
北海道,札幌市,23-02,北区篠路５条１０丁目 篠路川あい公園,篠路川あい公園,43.1486014,141.3735472,
北海道,札幌市,23-03,北区篠路４条１０丁目 茨戸中部中継ポンプ場,茨戸中部中継ポンプ場,43.145584,141.37471,緯度経度は怪しい
北海道,札幌市,23-04,北区拓北２条３丁目 拓北ナナカマド公園,拓北ナナカマド公園,43.1488589,141.3796747,
北海道,札幌市,23-05,北区篠路２条１０丁目 篠路あい公園,篠路あい公園,43.140949,141.372925,緯度経度は怪しい
北海道,札幌市,23-06,北区篠路３条８丁目 篠路コミュニティセンター,篠路コミュニティセンター,43.1441,141.367844,緯度経度は怪しい
北海道,札幌市,23-07,北区拓北２条４丁目 拓北日の出公園,拓北日の出公園,43.1492756,141.3832753,
北海道,札幌市,23-08,北区篠路町上篠路263番地 上篠路こばと公園,上篠路こばと公園,43.142456,141.378891,緯度経度は怪しい
北海道,札幌市,24-01,北区篠路５条２丁目 篠路西小学校校門横,篠路西小学校校門横,43.149178,141.3543385,
北海道,札幌市,24-02,北区篠路５条５丁目 篠路駅前中央公園,篠路駅前中央公園,43.1488359,141.361255,
北海道,札幌市,24-03,北区篠路５条６丁目 篠路駅前青葉公園,篠路駅前青葉公園,43.148537,141.363785,緯度経度は怪しい
北海道,札幌市,24-04,北区篠路４条６丁目 篠路駅前南公園,篠路駅前南公園,43.1464156,141.363915,
北海道,札幌市,24-05,北区篠路３条６丁目 篠路三角公園,篠路三角公園,43.1449575,141.3620134,
北海道,札幌市,24-06,北区篠路４条３丁目 篠路駅前西公園西側,篠路駅前西公園西側,43.1476602,141.3555251,
北海道,札幌市,24-07,北区篠路４条３丁目 篠路駅前西公園東側,篠路駅前西公園東側,43.1476602,141.3555251,
北海道,札幌市,25-01,北区篠路１条２丁目 太平小学校校門横,太平小学校校門横,43.141212,141.352234,緯度経度は怪しい
北海道,札幌市,25-02,北区篠路２条２丁目 篠路どんぐり公園,篠路どんぐり公園,43.143661,141.35257,緯度経度は怪しい
北海道,札幌市,25-03,北区太平１２条２丁目 北区土木部維持管理課庁舎,北区土木部維持管理課庁舎,43.139362,141.352066,緯度経度は怪しい
北海道,札幌市,25-04,北区太平１０条６丁目 太平あおぞら公園,太平あおぞら公園,43.1351555,141.3595583,
北海道,札幌市,25-05,北区篠路２条６丁目 篠路しらかば公園,篠路しらかば公園,43.141972,141.362534,緯度経度は怪しい
北海道,札幌市,25-06,北区篠路２条４丁目 北消防署篠路出張所西側,北消防署篠路出張所西側,43.142944,141.357162,緯度経度は怪しい
北海道,札幌市,25-07,北区太平１２条３丁目 太平公園,太平公園,43.1383851,141.3537462,
北海道,札幌市,25-08,北区篠路１条６丁目 篠路１条四つ葉公園,篠路１条四つ葉公園,43.139702,141.361984,緯度経度は怪しい
北海道,札幌市,26-01,北区百合が原6丁目 百合が原小学校校門横,百合が原小学校校門横,43.1335644,141.3670006,
北海道,札幌市,26-02,北区百合が原４丁目 太平リリー公園,太平リリー公園,43.128811,141.36142,緯度経度は怪しい
北海道,札幌市,26-03,北区篠路１条１０丁目 篠路開拓公園,篠路開拓公園,43.1389201,141.371769,
北海道,札幌市,26-04,北区篠路１条７丁目 篠路双葉公園,篠路双葉公園,43.1395535,141.3652625,
北海道,札幌市,26-05,北区百合が原１０丁目 太平さくら公園,太平さくら公園,43.1354066,141.3687233,
北海道,札幌市,26-06,北区百合が原５丁目 百合が原駅前公園,百合が原駅前公園,43.1314984,141.3612174,
北海道,札幌市,26-07,北区百合が原１丁目 太平のびっこ公園,太平のびっこ公園,43.124989,141.358429,緯度経度は怪しい
北海道,札幌市,26-08,北区百合が原８丁目 太平ひばり公園,太平ひばり公園,43.1373613,141.3645924,
北海道,札幌市,27-01,北区篠路町上篠路313番地 十軒会館前,十軒会館前,43.134308,141.381073,緯度経度は怪しい
北海道,札幌市,27-02,北区篠路町上篠路81番地 上篠路こまどり公園,上篠路こまどり公園,43.132156,141.373795,緯度経度は怪しい
北海道,札幌市,27-03,北区篠路町上篠路120番地 道道２７３号線歩道,道道２７３号線歩道,43.135998,141.37236,緯度経度は怪しい
北海道,札幌市,27-04,北区篠路町上篠路110番地 上篠路ひよっこ公園,上篠路ひよっこ公園,43.133217,141.370865,緯度経度は怪しい
北海道,札幌市,28-01,北区篠路町拓北３０番地２ 拓北大野地会館前,拓北大野地会館前,43.1460823,141.3957576,
北海道,札幌市,28-02,北区篠路町拓北40番地13 市道大野地縦線,市道大野地縦線,43.145168,141.383606,緯度経度は怪しい
北海道,札幌市,29-01,北区篠路町福移１５３番地 篠路破砕工場前,篠路破砕工場前,43.1519286,141.4244833,
北海道,札幌市,29-02,北区篠路町拓北１６２番地 茨戸福移通歩道,茨戸福移通歩道,43.15892,141.412415,緯度経度は怪しい
北海道,札幌市,30-01,北区あいの里３条６丁目 鴻城小学校開放玄関斜め前,鴻城小学校開放玄関斜め前,43.161858,141.40271,緯度経度は怪しい
北海道,札幌市,30-02,北区あいの里２条６丁目 札幌市廃棄物空気輸送センター,札幌市廃棄物空気輸送センター,43.159004,141.401489,緯度経度は怪しい
北海道,札幌市,30-03,北区あいの里１条５丁目 あいの里教育大駅第一駐輪場,あいの里教育大駅第一駐輪場,43.1552899,141.3982816,
北海道,札幌市,30-04,北区あいの里４条５丁目 あいの里まんぼう公園,あいの里まんぼう公園,43.165916,141.398514,緯度経度は怪しい
北海道,札幌市,30-05,北区あいの里４条６丁目 あいの里めだか公園,あいの里めだか公園,43.165634,141.403244,緯度経度は怪しい
北海道,札幌市,30-06,北区あいの里４条６丁目 あいの里たつのこ公園,あいの里たつのこ公園,43.1636353,141.4054165,
北海道,札幌市,30-07,北区あいの里２条５丁目 あいの里いるか公園,あいの里いるか公園,43.1611037,141.3962398,
北海道,札幌市,30-08,北区あいの里３条６丁目 あいの里循環通歩道,あいの里循環通歩道,43.161858,141.40271,緯度経度は怪しい
北海道,札幌市,31-01,北区北３１条西９丁目 北陽小学校校門横,北陽小学校校門横,43.097305,141.334198,緯度経度は怪しい
北海道,札幌市,31-02,北区北３２条西９丁目 北３２条ほくよう公園,北３２条ほくよう公園,43.0986601,141.3334442,
北海道,札幌市,31-03,北区北３１条西５丁目 ﾄﾖﾀﾚﾝﾀﾘｰｽ札幌北34条駅前店,ﾄﾖﾀﾚﾝﾀﾘｰｽ札幌北34条駅前店,43.097794,141.340256,緯度経度は怪しい
北海道,札幌市,31-04,北区北３０条西９丁目 北３０条西９丁目公園,北３０条西９丁目公園,43.0961826,141.3338408,
北海道,札幌市,31-05,北区北３２条西７丁目 北３２条ひまわり公園,北３２条ひまわり公園,43.098415,141.33696,緯度経度は怪しい
北海道,札幌市,31-06,北区北３０条西１０丁目 北３０条仲よし子供公園,北３０条仲よし子供公園,43.0968837,141.3323259,
北海道,札幌市,31-07,北区北３１条西１４丁目 北３１条風の子公園,北３１条風の子公園,43.0997062,141.3278296,
北海道,札幌市,31-08,北区北３０条西６丁目 市営北30条団地3号棟前,市営北30条団地3号棟前,43.096569,141.339005,緯度経度は怪しい
北海道,札幌市,32-01,北区北２４条西７丁目 白楊小学校西門横,白楊小学校西門横,43.090336,141.339035,緯度経度は怪しい
北海道,札幌市,32-02,北区北２６条西８丁目 北２７条公園通り,北２７条公園通り,43.092396,141.337219,緯度経度は怪しい
北海道,札幌市,32-03,北区北２６条西９丁目 北２６条さくら公園,北２６条さくら公園,43.0925024,141.3357875,
北海道,札幌市,32-04,北区北２３条西１１丁目 北大生物生産研究農場フェンス前,北大生物生産研究農場フェンス前,43.088127,141.332977,緯度経度は怪しい
北海道,札幌市,32-05,北区北２４条西１２丁目 中央バス「北２４西１３」停留所後,中央バス「北２４西１３」停留所後,43.0886515,141.3313131,
北海道,札幌市,32-06,北区北２４条西７丁目 白楊小学校グラウンド前,白楊小学校グラウンド前,43.090336,141.339035,緯度経度は怪しい
北海道,札幌市,32-07,北区北２１条西１３丁目 南新川公務員宿舎跡地前歩道,南新川公務員宿舎跡地前歩道,43.084652,141.330887,緯度経度は怪しい
北海道,札幌市,33-01,北区新琴似４条１１丁目 光陽中学校開放玄関側校門横,光陽中学校開放玄関側校門横,43.114704,141.31424,緯度経度は怪しい
北海道,札幌市,33-02,北区新琴似４条９丁目 札幌医大グラウンド前,札幌医大グラウンド前,43.112946,141.317398,緯度経度は怪しい
北海道,札幌市,33-03,北区新琴似２条７丁目 新琴似はるにれ公園,新琴似はるにれ公園,43.108688,141.317871,緯度経度は怪しい
北海道,札幌市,33-04,北区新琴似２条８丁目 新琴似新川地区センター前,新琴似新川地区センター前,43.109894,141.316071,緯度経度は怪しい
北海道,札幌市,33-05,北区新琴似３条１２丁目 新琴似第２やわら公園,新琴似第２やわら公園,43.114655,141.310837,緯度経度は怪しい
北海道,札幌市,33-06,北区新琴似４条１４丁目 新琴似グリーン公園駐車場前,新琴似グリーン公園駐車場前,43.1181812,141.3088289,
北海道,札幌市,33-07,北区新琴似４条１５丁目 新琴似三和公園,新琴似三和公園,43.119848,141.3045626,
北海道,札幌市,34-01,北区新琴似１０条１１丁目 新琴似緑小学校校門横,新琴似緑小学校校門横,43.1231883,141.3224501,
北海道,札幌市,34-02,北区新琴似１０条１３丁目 新琴似めぐみ公園,新琴似めぐみ公園,43.125336,141.318176,緯度経度は怪しい
北海道,札幌市,34-03,北区新琴似８条１１丁目 新琴似中央公園,新琴似中央公園,43.1201883,141.320481,
北海道,札幌市,34-04,北区新琴似１１条１２丁目 新琴似６番西あすなろ公園,新琴似６番西あすなろ公園,43.125637,141.321838,緯度経度は怪しい
北海道,札幌市,34-05,北区新琴似１１条１３丁目 新琴似西はまなす公園,新琴似西はまなす公園,43.126656,141.319519,緯度経度は怪しい
北海道,札幌市,34-06,北区新琴似１２条１２丁目 屯田防風林緑地帯（12丁目）,屯田防風林緑地帯（12丁目）,43.127117,141.323318,緯度経度は怪しい
北海道,札幌市,34-07,北区新琴似８条１３丁目 新琴似よつば公園,新琴似よつば公園,43.122623,141.315155,緯度経度は怪しい
北海道,札幌市,35-01,北区太平８条２丁目 太平中学校学校開放玄関側校門横,太平中学校学校開放玄関側校門横,43.1340122,141.3499801,
北海道,札幌市,35-02,太平９条５丁目 太平こども公園,太平こども公園,43.13356662,141.3567622,
北海道,札幌市,35-03,太平８条６丁目 太平杉の子公園,太平杉の子公園,43.13180363,141.3587501,
北海道,札幌市,35-04,太平６条５丁目 太平すずらん公園,太平すずらん公園,43.1292075,141.3552496,
北海道,札幌市,35-05,太平４条５丁目 太平なかよし公園,太平なかよし公園,43.1265495,141.3516304,
北海道,札幌市,35-06,太平５条４丁目 太平はまなす公園,太平はまなす公園,43.12950385,141.3518142,
北海道,札幌市,35-07,太平５条２丁目 太平ポプラ公園,太平ポプラ公園,43.13040074,141.348491,
北海道,札幌市,36-01,北区北２９条西２丁目 札幌創成高等学校校門横,札幌創成高等学校校門横,43.096558,141.345352,緯度経度は怪しい
北海道,札幌市,36-02,北区北２９条西２丁目 札幌創成高等学校グラウンド前,札幌創成高等学校グラウンド前,43.096558,141.345352,緯度経度は怪しい
北海道,札幌市,36-03,北区北２９条西３丁目 北２９条メイプル公園,北２９条メイプル公園,43.096218,141.343643,緯度経度は怪しい
北海道,札幌市,36-04,北区北３３条西４丁目 地下鉄北３４条駅３番出入口,地下鉄北３４条駅３番出入口,43.100084,141.342035,
北海道,札幌市,37-01,北区北３４条西７丁目 和光小学校校門横,和光小学校校門横,43.10133,141.335938,緯度経度は怪しい
北海道,札幌市,37-02,北区北34条西2丁目 札幌市創成川第2中継ポンプ場,札幌市創成川第2中継ポンプ場,43.101574,141.344284,緯度経度は怪しい
北海道,札幌市,37-03,北区北３７条西２丁目 北３７条リバーサイド公園,北３７条リバーサイド公園,43.1046213,141.3439909,
北海道,札幌市,37-04,北区北３４条西７丁目 和光小学校グラウンド横,和光小学校グラウンド横,43.10133,141.335938,緯度経度は怪しい
北海道,札幌市,38-01,北区北３９条西５丁目 麻生総合センター入口横,麻生総合センター入口横,43.10722,141.337677,緯度経度は怪しい
北海道,札幌市,38-02,北区北３９条西５丁目 麻生緑地,麻生緑地,43.1074731,141.3368723,
北海道,札幌市,38-03,北区北３９条西４丁目 イオン札幌麻生店前,イオン札幌麻生店前,43.107033,141.339508,緯度経度は怪しい
北海道,札幌市,38-04,北区麻生町２丁目 麻生南公園南西側,麻生南公園南西側,43.108579,141.3418158,
北海道,札幌市,38-05,北区麻生町２丁目 麻生南公園東側,麻生南公園東側,43.108579,141.3418158,
北海道,札幌市,38-06,北区北３９条西４丁目 麻生バスターミナル南側自転車置場前,麻生バスターミナル南側自転車置場前,43.107033,141.339508,緯度経度は怪しい
北海道,札幌市,39-01,北区新琴似７条３丁目 新琴似小学校校門横,新琴似小学校校門横,43.112293,141.330536,緯度経度は怪しい
北海道,札幌市,39-02,北区新琴似５条３丁目 新琴似安春公園少年野球場前,新琴似安春公園少年野球場前,43.1094813,141.3272013,
北海道,札幌市,39-03,北区新琴似９条２丁目 新琴似第一公園,新琴似第一公園,43.1141839,141.3340071,
北海道,札幌市,39-04,北区新琴似８条１丁目 新琴似駅前緑地,新琴似駅前緑地,43.1125815,141.3353657,
北海道,札幌市,39-05,北区新琴似９条２丁目 新琴似駅前駐輪場前,新琴似駅前駐輪場前,43.114201,141.334854,緯度経度は怪しい
北海道,札幌市,39-06,北区新琴似６条２丁目 新琴似庁舎用地,新琴似庁舎用地,43.109798,141.331238,緯度経度は怪しい
北海道,札幌市,39-07,北区新琴似８条２丁目 北区体育館南東,北区体育館南東,43.112785,141.333618,緯度経度は怪しい
北海道,札幌市,40-01,北区篠路６条２丁目 篠路西中学校開放玄関側校門横,篠路西中学校開放玄関側校門横,43.151138,141.354218,緯度経度は怪しい
北海道,札幌市,40-02,北区篠路９条３丁目 篠路あさひ公園,篠路あさひ公園,43.1558664,141.357757,
北海道,札幌市,40-03,北区篠路１０条３丁目 篠路あおぞら公園,篠路あおぞら公園,43.1572909,141.358921,
北海道,札幌市,40-04,北区篠路８条６丁目 篠路こぐま公園,篠路こぐま公園,43.153431,141.365997,緯度経度は怪しい
北海道,札幌市,40-05,北区篠路８条５丁目 中央バス「篠路９-４」停留所後歩道,中央バス「篠路９-４」停留所後歩道,43.153412,141.361816,緯度経度は怪しい
北海道,札幌市,40-06,北区篠路７条６丁目 篠路駅前東公園,篠路駅前東公園,43.151722,141.363794,
北海道,札幌市,40-07,北区篠路６条４丁目 篠路駅前北公園,篠路駅前北公園,43.150829,141.358917,緯度経度は怪しい
北海道,札幌市,40-08,北区篠路８条２丁目 篠路ひかり公園,篠路ひかり公園,43.154224,141.354797,緯度経度は怪しい
北海道,札幌市,41-01,北区屯田５条６丁目 屯田地区センター,屯田地区センター,43.132214,141.331024,緯度経度は怪しい
北海道,札幌市,41-02,北区屯田５条６丁目 屯田ライラック公園,屯田ライラック公園,43.132214,141.331024,緯度経度は怪しい
北海道,札幌市,41-03,北区屯田３条８丁目 屯田むつみ公園,屯田むつみ公園,43.128174,141.324448,緯度経度は怪しい
北海道,札幌市,41-04,北区屯田４条９丁目 屯田西公園サッカー場（陸上競技場）西側面,屯田西公園サッカー場（陸上競技場）西側面,43.1310073,141.3222813,
北海道,札幌市,41-05,北区屯田４条８丁目 屯田しらかば公園,屯田しらかば公園,43.1297667,141.3257523,
北海道,札幌市,41-06,北区屯田４条１０丁目 屯田西公園（北側面）,屯田西公園（北側面）,43.1310206,141.3205786,
北海道,札幌市,41-07,北区屯田３条５丁目 屯田たんぽぽ公園,屯田たんぽぽ公園,43.126419,141.332413,緯度経度は怪しい
北海道,札幌市,41-08,北区屯田４条５丁目 屯田バンビ公園,屯田バンビ公園,43.1280526,141.3324104,
北海道,札幌市,42-01,北区屯田６条８丁目 屯田中央中学校校門横,屯田中央中学校校門横,43.135567,141.326416,緯度経度は怪しい
北海道,札幌市,42-02,北区屯田６条７丁目 市営住宅緑の里団地B-５号棟前歩道,市営住宅緑の里団地B-５号棟前歩道,43.135269,141.329117,緯度経度は怪しい
北海道,札幌市,42-03,北区屯田５条８丁目 屯田ファミリー公園防火水槽横,屯田ファミリー公園防火水槽横,43.132877,141.325607,緯度経度は怪しい
北海道,札幌市,42-04,北区屯田５条８丁目 屯田あかしやちびっこ公園,屯田あかしやちびっこ公園,43.132877,141.325607,緯度経度は怪しい
北海道,札幌市,42-05,北区屯田６条８丁目 屯田中央中学校北側グラウンド前,屯田中央中学校北側グラウンド前,43.135567,141.326416,緯度経度は怪しい
北海道,札幌市,42-06,北区屯田６条９丁目 屯田みずほ西公園北側,屯田みずほ西公園北側,43.1352849,141.3237699,
北海道,札幌市,42-07,北区屯田５条９丁目 屯田こじか公園,屯田こじか公園,43.1342655,141.3240988,
北海道,札幌市,43-01,北区あいの里２条３丁目 あいの里西小学校校門横,あいの里西小学校校門横,43.160542,141.390839,緯度経度は怪しい
北海道,札幌市,43-02,北区あいの里３条２丁目 あいの里くるみ公園,あいの里くるみ公園,43.1639566,141.3879078,
北海道,札幌市,43-03,北区あいの里１条４丁目 あいの里たんぽぽ公園,あいの里たんぽぽ公園,43.156837,141.394821,緯度経度は怪しい
北海道,札幌市,43-04,北区あいの里２条４丁目 あいの里つくし公園,あいの里つくし公園,43.1600535,141.3931749,
北海道,札幌市,43-05,北区あいの里４条３丁目 あいの里たけのこ公園,あいの里たけのこ公園,43.1647049,141.393251,
北海道,札幌市,43-06,北区あいの里１条３丁目 あいの里きのこ公園,あいの里きのこ公園,43.1564004,141.3884051,
北海道,札幌市,43-07,北区あいの里４条３丁目 あいの里ふきのこ公園,あいの里ふきのこ公園,43.1663516,141.3905058,
北海道,札幌市,43-08,北区あいの里３条３丁目 あいの里とちのき公園,あいの里とちのき公園,43.1641234,141.3914556,
北海道,札幌市,44-01,北区屯田６条１０丁目 屯田西小学校学校開放出入口横,屯田西小学校学校開放出入口横,43.136303,141.320847,緯度経度は怪しい
北海道,札幌市,44-02,北区屯田７条１０丁目 中央バス「屯田７条１０丁目」停留所後歩道,中央バス「屯田７条１０丁目」停留所後歩道,43.1378513,141.3217613,
北海道,札幌市,44-03,北区屯田８条１２丁目 屯田夏の雲公園（雨水貯留池の正面中央）,屯田夏の雲公園（雨水貯留池の正面中央）,43.1414047,141.3175222,
北海道,札幌市,44-04,北区屯田５条１０丁目 屯田わんぱく公園,屯田わんぱく公園,43.134019,141.3193943,
北海道,札幌市,44-05,北区屯田９条１０丁目 屯田こもれび公園,屯田こもれび公園,43.1448866,141.3217685,
北海道,札幌市,44-06,北区屯田５条１２丁目 屯田はやて公園,屯田はやて公園,43.1349528,141.3153215,
北海道,札幌市,44-07,北区屯田７条１１丁目 屯田とんぼ公園,屯田とんぼ公園,43.1393171,141.3190891,
北海道,札幌市,44-08,北区屯田８条１１丁目 屯田さつき公園,屯田さつき公園,43.141667,141.3201495,
北海道,札幌市,45-01,北区屯田３条３丁目 つよし幼稚園出入口横,つよし幼稚園出入口横,43.125736,141.33783,緯度経度は怪しい
北海道,札幌市,45-02,北区屯田３条１丁目 屯田一番通公園,屯田一番通公園,43.124528,141.3424163,
北海道,札幌市,45-03,北区屯田２条３丁目 屯田さわやか公園,屯田さわやか公園,43.122849,141.337082,緯度経度は怪しい
北海道,札幌市,45-04,北区屯田１条１丁目 屯田すくすく公園,屯田すくすく公園,43.119476,141.341888,緯度経度は怪しい
北海道,札幌市,45-05,北区屯田２条５丁目 屯田のびのび公園,屯田のびのび公園,43.124119,141.332077,緯度経度は怪しい
北海道,札幌市,45-06,北区屯田３条４丁目 屯田南緑地,屯田南緑地,43.1251306,141.3344747,
北海道,札幌市,45-07,北区屯田２条１丁目 屯田みどり公園,屯田みどり公園,43.122211,141.34259,緯度経度は怪しい
北海道,札幌市,46-01,北区屯田９条３丁目 屯田北小学校東側面,屯田北小学校東側面,43.142521,141.341751,緯度経度は怪しい
北海道,札幌市,46-02,北区屯田８条２丁目 屯田サニー公園,屯田サニー公園,43.1398069,141.3430984,
北海道,札幌市,46-03,北区屯田１０条３丁目 屯田チャイルド公園,屯田チャイルド公園,43.1448522,141.3421485,
北海道,札幌市,46-04,北区屯田１１条３丁目 屯田あさぎり公園,屯田あさぎり公園,43.1480742,141.3435513,
北海道,札幌市,46-05,北区屯田１１条１丁目 横新道歩道,横新道歩道,43.146156,141.347961,緯度経度は怪しい
北海道,札幌市,46-06,北区屯田９条１丁目 屯田ぼうふうりん公園,屯田ぼうふうりん公園,43.14193,141.347122,緯度経度は怪しい
北海道,札幌市,46-07,北区屯田８条１丁目 屯田ドレミファ公園,屯田ドレミファ公園,43.1387275,141.3456881,
北海道,札幌市,47-01,北区あいの里３条７丁目 あいの里東小学校開放玄関前,あいの里東小学校開放玄関前,43.1622243,141.409377,
北海道,札幌市,47-02,北区あいの里３条８丁目 あいの里くまげら公園,あいの里くまげら公園,43.1622245,141.4138051,
北海道,札幌市,47-03,北区あいの里３条９丁目 あいの里ふくろう公園,あいの里ふくろう公園,43.165211,141.41449,緯度経度は怪しい
北海道,札幌市,47-04,北区あいの里２条７丁目 あいの里東公園,あいの里東公園,43.1583604,141.408502,
北海道,札幌市,47-05,北区あいの里１条７丁目 あいの里かっこう公園,あいの里かっこう公園,43.1561215,141.4052128,
北海道,札幌市,47-06,北区あいの里４条１０丁目 拓北水再生プラザ,拓北水再生プラザ,43.169537,141.413681,緯度経度は怪しい
北海道,札幌市,47-07,北区あいの里４条８丁目 あいの里公園,あいの里公園,43.1657619,141.4093125,
北海道,札幌市,48-01,北区南あいの里３丁目 北海道拓北養護学校駐車場前,北海道拓北養護学校駐車場前,43.153961,141.390335,緯度経度は怪しい
北海道,札幌市,48-02,北区南あいの里４丁目 南あいの里ひよこ公園,南あいの里ひよこ公園,43.153706,141.394699,緯度経度は怪しい
北海道,札幌市,48-03,北区南あいの里５丁目 南あいの里こもれび公園,南あいの里こもれび公園,43.152716,141.3969427,
北海道,札幌市,48-04,北区南あいの里７丁目 南あいの里公園,南あいの里公園,43.1522908,141.4052315,
北海道,札幌市,48-05,北区拓北４条４丁目 拓北くるみ公園,拓北くるみ公園,43.152191,141.38414,緯度経度は怪しい
北海道,札幌市,48-06,北区拓北４条３丁目 拓北ひまわり公園,拓北ひまわり公園,43.1523272,141.380016,
北海道,札幌市,48-07,北区拓北５条４丁目 拓北どんぐり公園,拓北どんぐり公園,43.1540364,141.3836823,
北海道,札幌市,48-08,北区南あいの里５丁目 あいの里教育大駅南口自転車置場前,あいの里教育大駅南口自転車置場前,43.153519,141.398102,緯度経度は怪しい
北海道,札幌市,01-01,南区澄川４条６丁目４ 澄川正ちゃん公園,澄川正ちゃん公園,43.0087875,141.3664753,
北海道,札幌市,01-02,南区澄川４条7丁目418-42 澄川4条8丁目8号線の防護柵,澄川4条8丁目8号線の防護柵,43.006432,141.366867,緯度経度は怪しい
北海道,札幌市,01-03,南区澄川６条３丁目２ 都市機構澄川団地１号棟,都市機構澄川団地１号棟,43.012592,141.373978,
北海道,札幌市,01-04,南区澄川５条３丁目１０ 千秋公園,千秋公園,43.013317,141.372589,緯度経度は怪しい
北海道,札幌市,01-05,南区澄川４条３丁目４ 澄川すずらん公園,澄川すずらん公園,43.0142459,141.3669741,
北海道,札幌市,01-06,南区澄川５条４丁目１ 澄川小学校,澄川小学校,43.013267,141.3711744,
北海道,札幌市,01-07,南区澄川6条4丁目 澄川サニー公園,澄川サニー公園,43.0109472,141.3753439,
北海道,札幌市,01-08,南区澄川４条４丁目４ 澄川きよすみ公園,澄川きよすみ公園,43.0130283,141.3685515,
北海道,札幌市,01-09,南区澄川５条６丁目２ 澄川バプテスト教会西側（市道）,澄川バプテスト教会西側（市道）,43.008518,141.369431,緯度経度は怪しい
北海道,札幌市,01-10,南区澄川４条７丁目１ 自衛隊前駅月極駐車場,自衛隊前駅月極駐車場,43.007214,141.365189,緯度経度は怪しい
北海道,札幌市,02-01,南区澄川４条１丁目２ 地下鉄南北線第２澄川駐車場,地下鉄南北線第２澄川駐車場,43.018719,141.367783,緯度経度は怪しい
北海道,札幌市,02-02,南区澄川４条２丁目２ 地下鉄澄川駅駐輪場,地下鉄澄川駅駐輪場,43.016289,141.366821,緯度経度は怪しい
北海道,札幌市,02-03,南区澄川３条２丁目６ 澄川地区会館,澄川地区会館,43.016506,141.364853,緯度経度は怪しい
北海道,札幌市,02-04,南区澄川１条１丁目３ 澄川こぶし公園,澄川こぶし公園,43.019158,141.3606024,
北海道,札幌市,02-05,南区澄川１条２丁目１ 澄川むつみ公園,澄川むつみ公園,43.0179708,141.3589143,
北海道,札幌市,02-06,南区澄川１条３丁目６ 澄川橋南側（市道）,澄川橋南側（市道）,43.014336,141.35965,緯度経度は怪しい
北海道,札幌市,02-07,南区澄川２条３丁目２ 澄川ふれあい公園,澄川ふれあい公園,43.0150174,141.3628611,
北海道,札幌市,03-01,南区真駒内2丁目2 真駒内養護学校,真駒内養護学校,42.938824,141.353897,緯度経度は怪しい
北海道,札幌市,03-02,南区澄川４条８丁目１３ みなみ澄川公園,みなみ澄川公園,43.004809,141.3685637,
北海道,札幌市,03-03,南区澄川６条９丁目４ 澄川清澄台公園,澄川清澄台公園,43.002187,141.3723427,
北海道,札幌市,03-04,南区澄川６条10丁目１ 澄川五差路記念公園,澄川五差路記念公園,43.000477,141.371872,緯度経度は怪しい
北海道,札幌市,03-05,南区真駒内東町２丁目 西野真駒内線（五輪通）澄川橋（道道）,西野真駒内線（五輪通）澄川橋（道道）,42.999596,141.363892,緯度経度は怪しい
北海道,札幌市,03-06,南区澄川４条９丁目１０ 真駒内養護学校２号線（市道）,真駒内養護学校２号線（市道）,43.001724,141.366943,緯度経度は怪しい
北海道,札幌市,03-07,南区真駒内東町１丁目 交通資料館屋外展示場,交通資料館屋外展示場,43.003361,141.36441,緯度経度は怪しい
北海道,札幌市,04-01,南区藤野４条４丁目１３ 藤が丘公園,藤が丘公園,42.956988,141.3033577,
北海道,札幌市,04-02,南区藤野５条４丁目９ 藤野アップル公園,藤野アップル公園,42.9544536,141.3029632,
北海道,札幌市,04-03,南区藤野４条５丁目１ 市営住宅藤野団地１号棟北側（市道）,市営住宅藤野団地１号棟北側（市道）,42.960098,141.299713,緯度経度は怪しい
北海道,札幌市,04-04,南区藤野４条６丁目２９５ 藤野南小学校,藤野南小学校,42.9572773,141.2959899,
北海道,札幌市,04-05,南区藤野５条５丁目２２ 藤が丘そよかぜ公園,藤が丘そよかぜ公園,42.9551636,141.2975362,
北海道,札幌市,04-06,南区藤野４条６丁目２９５ 藤野南小学校,藤野南小学校,42.9572773,141.2959899,
北海道,札幌市,04-07,南区藤野３条６丁目１ コープさっぽろ藤野店東側（市道）,コープさっぽろ藤野店東側（市道）,42.961121,141.298203,緯度経度は怪しい
北海道,札幌市,04-08,南区藤野５条６丁目４５６ 藤野中学校,藤野中学校,42.955452,141.293518,緯度経度は怪しい
北海道,札幌市,05-01,南区真駒内本町３丁目９ 市営住宅真駒内本町団地,市営住宅真駒内本町団地,43.007347,141.348511,緯度経度は怪しい
北海道,札幌市,05-02,南区真駒内本町３丁目４ 真駒内児童会館,真駒内児童会館,43.006741,141.349579,緯度経度は怪しい
北海道,札幌市,05-03,南区真駒内本町４丁目１ じょうてつバス藻岩営業所,じょうてつバス藻岩営業所,43.006409,141.34729,緯度経度は怪しい
北海道,札幌市,05-04,南区真駒内公園1 道立真駒内公園,道立真駒内公園,42.999744,141.346603,緯度経度は怪しい
北海道,札幌市,05-05,南区真駒内公園２ 五輪小橋（道道）,五輪小橋（道道）,43.001045,141.343124,緯度経度は怪しい
北海道,札幌市,05-06,南区真駒内本町６丁目１０ 真駒内本町会館,真駒内本町会館,43.003567,141.346436,緯度経度は怪しい
北海道,札幌市,05-07,南区真駒内本町７丁目１６ 真駒内本町公園,真駒内本町公園,43.0024441,141.3468381,
北海道,札幌市,06-01,南区真駒内曙町１丁目１ 都市機構あけぼの団地３号棟,都市機構あけぼの団地３号棟,43.001904,141.349106,緯度経度は怪しい
北海道,札幌市,06-02,南区真駒内曙町１丁目２ 真駒内第１公園,真駒内第１公園,43.003547,141.3489225,
北海道,札幌市,06-03,南区真駒内曙町１丁目１ 都市機構あけぼの団地２１号棟,都市機構あけぼの団地２１号棟,43.001904,141.349106,緯度経度は怪しい
北海道,札幌市,06-04,南区真駒内曙町２丁目１ 真駒内公園小学校,真駒内公園小学校,42.999409,141.349792,緯度経度は怪しい
北海道,札幌市,06-05,南区真駒内曙町１丁目１ 都市機構あけぼの団地７号棟,都市機構あけぼの団地７号棟,43.001904,141.349106,緯度経度は怪しい
北海道,札幌市,06-06,南区真駒内曙町２丁目１ 真駒内曙中学校,真駒内曙中学校,42.9994031,141.3501628,
北海道,札幌市,06-07,南区真駒内曙町３丁目１２ 真駒内曙公園,真駒内曙公園,42.9989345,141.3526518,
北海道,札幌市,07-01,南区真駒内上町５丁目 真駒内めぐみ公園,真駒内めぐみ公園,42.996456,141.358276,緯度経度は怪しい
北海道,札幌市,07-02,南区真駒内上町４丁目７ 札幌みなみの杜高等支援学校（東側）,札幌みなみの杜高等支援学校（東側）,42.995747,141.355835,緯度経度は怪しい
北海道,札幌市,07-03,南区真駒内上町４丁目７ 札幌みなみの杜高等支援学校（西側）,札幌みなみの杜高等支援学校（西側）,42.995747,141.355835,緯度経度は怪しい
北海道,札幌市,07-04,南区真駒内上町４丁目９ 上町公園,上町公園,42.995472,141.3547523,
北海道,札幌市,07-05,南区真駒内緑町３丁目３ 真駒内五輪記念公園,真駒内五輪記念公園,42.9932034,141.3545206,
北海道,札幌市,07-06,南区真駒内公園４ 道立真駒内公園,道立真駒内公園,42.996857,141.347031,緯度経度は怪しい
北海道,札幌市,07-07,南区真駒内公園４ 道立真駒内公園,道立真駒内公園,42.996857,141.347031,緯度経度は怪しい
北海道,札幌市,08-01,南区真駒内泉町４丁目１ くるみ公園,くるみ公園,42.9861542,141.356953,
北海道,札幌市,08-02,南区真駒内泉町３丁目１３ 真駒内桜山小学校,真駒内桜山小学校,42.984432,141.354874,緯度経度は怪しい
北海道,札幌市,08-03,南区真駒内泉町３丁目１３ 真駒内桜山小学校,真駒内桜山小学校,42.984432,141.354874,緯度経度は怪しい
北海道,札幌市,08-04,南区真駒内泉町３丁目１２ 泉町公園,泉町公園,42.984839,141.3537511,
北海道,札幌市,08-05,南区真駒内南町１丁目１ 真駒内川緑地（南側）,真駒内川緑地（南側）,42.983669,141.349823,緯度経度は怪しい
北海道,札幌市,08-06,南区真駒内南町４丁目３ (株)モロオテニスコート,(株)モロオテニスコート,42.980503,141.351715,緯度経度は怪しい
北海道,札幌市,08-07,南区真駒内柏丘１０丁目２ 真駒内柏ヶ丘花園公園南側（市道）,真駒内柏ヶ丘花園公園南側（市道）,42.9818571,141.3487184,
北海道,札幌市,08-08,南区真駒内南町７丁目８ 石山西岡線・駒岡真駒内線交差点（市道）,石山西岡線・駒岡真駒内線交差点（市道）,42.973347,141.347397,緯度経度は怪しい
北海道,札幌市,09-01,南区真駒内１４４番地 駒岡１区バス停南側（市道）,駒岡１区バス停南側（市道）,42.9640482,141.3593512,
北海道,札幌市,09-02,南区真駒内１３８番地 駒岡団地入口（市道）,駒岡団地入口（市道）,42.956512,141.350128,緯度経度は怪しい
北海道,札幌市,09-03,南区真駒内１４３番地 駒岡小学校前（市道）,駒岡小学校前（市道）,42.9581147,141.3587408,
北海道,札幌市,10-01,南区常盤１条１丁目１ ときわ北公園,ときわ北公園,42.954533,141.346848,緯度経度は怪しい
北海道,札幌市,10-02,南区常盤１条２丁目７ ときわ中央公園,ときわ中央公園,42.952751,141.346786,緯度経度は怪しい
北海道,札幌市,10-03,南区常盤３条２丁目１８ 常盤いこい公園,常盤いこい公園,42.9433238,141.348718,
北海道,札幌市,10-04,南区常盤２条２丁目２１ 常盤中学校,常盤中学校,42.947228,141.3469252,
北海道,札幌市,10-05,南区常盤２条２丁目１１ ときわ南公園,ときわ南公園,42.949383,141.349411,緯度経度は怪しい
北海道,札幌市,10-06,南区真駒内２５１番地２０８ 芸術の森小学校向い（市道）,芸術の森小学校向い（市道）,42.955299,141.352676,緯度経度は怪しい
北海道,札幌市,10-07,南区常盤 常盤神社下バス停北側（市道）,常盤神社下バス停北側（市道）,42.917725,141.322098,緯度経度は怪しい
北海道,札幌市,10-08,南区真駒内１１８番地 ときわかけす公園,ときわかけす公園,42.956589,141.356461,緯度経度は怪しい
北海道,札幌市,10-09,南区真駒内332-146 真駒内あさひ公園,真駒内あさひ公園,42.9340153,141.3465685,
北海道,札幌市,11-01,南区滝野１０３番地 滝野会館,滝野会館,42.901585,141.366959,緯度経度は怪しい
北海道,札幌市,11-02,南区滝野７２番地２ 厚別の滝バス停西側（道道）,厚別の滝バス停西側（道道）,42.901585,141.366959,緯度経度は怪しい
北海道,札幌市,11-03,masked,masked,42.901585,141.366959,緯度経度は怪しい
北海道,札幌市,12-01,南区南３２条西１１丁目１ 南３２条藻岩下公園,南３２条藻岩下公園,43.0160872,141.3454041,
北海道,札幌市,12-02,南区南３１条西９丁目２ 南小学校,南小学校,43.016747,141.348785,緯度経度は怪しい
北海道,札幌市,12-03,南区南３１条西９丁目２ 南小学校,南小学校,43.016747,141.348785,緯度経度は怪しい
北海道,札幌市,12-04,南区藻岩下３丁目９ 藻岩下こぶし公園,藻岩下こぶし公園,43.0085219,141.3375821,
北海道,札幌市,12-05,南区南３５条西１０丁目８ 南３５条みゆき公園,南３５条みゆき公園,43.010078,141.3477804,
北海道,札幌市,12-06,南区南３４条西９丁目２ 市営住宅南３４条団地,市営住宅南３４条団地,43.012791,141.349136,緯度経度は怪しい
北海道,札幌市,12-07,南区南３６条西１１丁目 山鼻川緑地,山鼻川緑地,43.009731,141.34404,緯度経度は怪しい
北海道,札幌市,12-08,南区南３３条西８丁目３ 南こども公園,南こども公園,43.0145829,141.3515423,
北海道,札幌市,13-01,南区川沿１条３丁目７ 北の沢公園南東側（市道）,北の沢公園南東側（市道）,43.003147,141.328491,緯度経度は怪しい
北海道,札幌市,13-02,南区川沿３条２丁目１ 藻岩高校,藻岩高校,42.996429,141.334717,緯度経度は怪しい
北海道,札幌市,13-03,南区川沿２条２丁目 北海道銀行川沿支店向い（道道）,北海道銀行川沿支店向い（道道）,42.998867,141.335098,緯度経度は怪しい
北海道,札幌市,13-04,南区川沿２条４丁目１６８５番地 川沿はやぶさ公園,川沿はやぶさ公園,42.998753,141.327011,緯度経度は怪しい
北海道,札幌市,13-05,南区川沿２条３丁目７ 藻岩北小学校,藻岩北小学校,42.99847,141.330139,緯度経度は怪しい
北海道,札幌市,13-06,南区川沿３条２丁目５ 中の沢橋（市道）,中の沢橋（市道）,42.998077,141.332611,緯度経度は怪しい
北海道,札幌市,13-07,南区川沿３条４丁目３ 川沿こばと公園,川沿こばと公園,42.996595,141.3283707,
北海道,札幌市,13-08,masked,masked,42.998886,141.322693,緯度経度は怪しい
北海道,札幌市,14-01,南区川沿６条３丁目１ 川沿どんぐり公園,川沿どんぐり公園,42.9916531,141.3318422,
北海道,札幌市,14-02,南区川沿７条３丁目３ 川沿さふらん公園,川沿さふらん公園,42.9894503,141.3302993,
北海道,札幌市,14-03,南区川沿７条３丁目４ 藻岩中学校,藻岩中学校,42.9883973,141.3310185,
北海道,札幌市,14-04,南区川沿７条２丁目３ 藻岩小学校,藻岩小学校,42.9887866,141.3328088,
北海道,札幌市,14-05,南区川沿９条３丁目２ 川沿中央公園,川沿中央公園,42.985523,141.332123,緯度経度は怪しい
北海道,札幌市,14-06,南区川沿１０条１丁目６ 石山通・川沿石山連絡線交差点（市道）,石山通・川沿石山連絡線交差点（市道）,42.98373,141.335754,緯度経度は怪しい
北海道,札幌市,14-07,南区川沿１１条３丁目 川沿橋（市道）,川沿橋（市道）,42.981529,141.329407,緯度経度は怪しい
北海道,札幌市,14-08,南区川沿５条４丁目４ 川沿やまばと公園,川沿やまばと公園,42.991862,141.327652,
北海道,札幌市,15-01,南区南沢５条２丁目１２ 南沢東台公園,南沢東台公園,42.9908549,141.3151033,
北海道,札幌市,15-02,南区南沢５条３丁目１４ 南沢公園,南沢公園,42.9881059,141.313133,
北海道,札幌市,15-03,南区南沢３条２丁目１８ 南の沢小学校,南の沢小学校,42.986958,141.31868,緯度経度は怪しい
北海道,札幌市,15-04,南区南沢３条２丁目１８ 南の沢小学校,南の沢小学校,42.986958,141.31868,緯度経度は怪しい
北海道,札幌市,15-05,南区南沢４条２丁目 南沢えいと公園,南沢えいと公園,42.9884533,141.3161754,
北海道,札幌市,15-06,南区南沢２条２丁目９ 南沢サニー公園,南沢サニー公園,42.98426,141.3217363,
北海道,札幌市,15-07,南区南沢２条１丁目１７ 南が丘中学校,南が丘中学校,42.985298,141.325531,緯度経度は怪しい
北海道,札幌市,15-08,南区南沢４条１丁目７ 東海大学前バス停西側（市道）,東海大学前バス停西側（市道）,42.9899603,141.3194534,
北海道,札幌市,16-01,南区石山１条２丁目１５ 啓北商業高校,啓北商業高校,42.974396,141.340439,緯度経度は怪しい
北海道,札幌市,16-02,南区石山１条３丁目５ 石山北公園,石山北公園,42.9704561,141.3372119,
北海道,札幌市,16-03,南区石山１条４丁目９ 石山サン公園,石山サン公園,42.965472,141.3273399,
北海道,札幌市,16-04,南区石山１条４丁目１ 石山緑小学校,石山緑小学校,42.966709,141.330917,緯度経度は怪しい
北海道,札幌市,16-05,南区石山２条４丁目３ 善住寺,善住寺,42.964287,141.328491,緯度経度は怪しい
北海道,札幌市,16-06,南区石山２条２丁目１４ 石山緑地西向,石山緑地西向,42.968559,141.339798,緯度経度は怪しい
北海道,札幌市,16-07,南区石山３条６丁目２ 石山ほのぼの公園,石山ほのぼの公園,42.960572,141.3257999,
北海道,札幌市,16-08,南区石山78-24 石山緑地北側駐車場,石山緑地北側駐車場,42.954914,141.328781,緯度経度は怪しい
北海道,札幌市,17-01,南区石山3条６丁目553-94ほか 日鉱不動産石山団地雨水貯留池,日鉱不動産石山団地雨水貯留池,42.959126,141.324768,緯度経度は怪しい
北海道,札幌市,17-02,南区石山１条８丁目１０ 石山いこい公園,石山いこい公園,42.9643617,141.3174904,
北海道,札幌市,17-03,南区石山１条９丁目１０ 石山丘晴公園,石山丘晴公園,42.9625536,141.3146368,
北海道,札幌市,17-04,南区石山２条８丁目７ 石山中学校,石山中学校,42.959164,141.31778,緯度経度は怪しい
北海道,札幌市,17-05,南区石山５６１番地 石山電気商会㈱資材置場西側（市道）,石山電気商会㈱資材置場西側（市道）,42.951508,141.319885,緯度経度は怪しい
北海道,札幌市,17-06,南区石山１条７丁目１ 石山ふれあい公園,石山ふれあい公園,42.9634479,141.3217894,
北海道,札幌市,17-07,南区石山２条５丁目 石山なかよし公園,石山なかよし公園,42.963111,141.3263314,
北海道,札幌市,17-08,南区石山２条６丁目１１ 石山グリーン公園,石山グリーン公園,42.9606059,141.3228707,
北海道,札幌市,17-09,南区石山５２８番地 藤の沢小学校南西側,藤の沢小学校南西側,42.957279,141.313904,緯度経度は怪しい
北海道,札幌市,18-01,南区藤野６条２丁目 藤野２号橋（市道）,藤野２号橋（市道）,42.952763,141.308456,緯度経度は怪しい
北海道,札幌市,18-02,南区藤野３条２丁目２ 藤の沢はなぞの公園橋南側,藤の沢はなぞの公園橋南側,42.9605889,141.3082555,
北海道,札幌市,18-03,南区藤野４条１丁目１ 藤野１号橋（市道）,藤野１号橋（市道）,42.957401,141.310089,緯度経度は怪しい
北海道,札幌市,18-04,南区藤野４条２丁目６ 藤の沢チビッコ公園,藤の沢チビッコ公園,42.9566147,141.308983,
北海道,札幌市,18-05,南区藤野５条１丁目 藤野１号線,藤野１号線,42.954296,141.311371,緯度経度は怪しい
北海道,札幌市,19-01,南区藤野５条１０丁目１－１ 南陵高校グラウンド北側（市道）,南陵高校グラウンド北側（市道）,42.9557772,141.2824466,
北海道,札幌市,19-02,南区藤野３条８丁目１２ 下藤野１号橋（市道）,下藤野１号橋（市道）,42.960861,141.287582,緯度経度は怪しい
北海道,札幌市,19-03,南区藤野５条９丁目１ 藤野通橋（市道）,藤野通橋（市道）,42.955303,141.286407,緯度経度は怪しい
北海道,札幌市,19-04,南区藤野２条１２丁目１０  西藤野むつみ公園,西藤野むつみ公園,42.9619171,141.2760493,
北海道,札幌市,19-05,南区藤野４条９丁目６ 藤野白樺会館（市道）,藤野白樺会館（市道）,42.959019,141.286072,緯度経度は怪しい
北海道,札幌市,19-06,masked,masked,42.959995,141.292389,緯度経度は怪しい
北海道,札幌市,19-07,南区藤野３条１０丁目４ 藤野公園東側（市道）,藤野公園東側（市道）,42.9599505,141.2820141,
北海道,札幌市,20-01,南区白川１８１４番地 北方自然教育園東側,北方自然教育園東側,42.966221,141.270401,緯度経度は怪しい
北海道,札幌市,20-02,masked,masked,42.966221,141.270401,緯度経度は怪しい
北海道,札幌市,21-01,南区簾舞 旧簾舞通行屋前バス停（市道）,旧簾舞通行屋前バス停（市道）,42.917034,141.254456,緯度経度は怪しい
北海道,札幌市,21-02,南区簾舞２条４丁目 簾舞川橋横（市道）,簾舞川橋横（市道）,42.962784,141.263824,緯度経度は怪しい
北海道,札幌市,21-03,南区簾舞１条５丁目２ 簾舞花岡神社北側交差点（市道）,簾舞花岡神社北側交差点（市道）,42.962833,141.261368,緯度経度は怪しい
北海道,札幌市,21-04,南区簾舞３条６丁目８ 簾舞地区会館,簾舞地区会館,42.960506,141.257248,緯度経度は怪しい
北海道,札幌市,21-05,南区砥山７１ 砥山会館南向,砥山会館南向,42.960964,141.246567,緯度経度は怪しい
北海道,札幌市,21-06,南区簾舞４条３丁目９ みすまいひまわり公園,みすまいひまわり公園,42.9585882,141.2686862,
北海道,札幌市,21-07,南区簾舞４条６丁目４ 簾舞宮の上公園,簾舞宮の上公園,42.9590787,141.258581,
北海道,札幌市,21-08,南区簾舞２条１丁目１０ 簾舞よつば公園,簾舞よつば公園,42.963283,141.2708196,
北海道,札幌市,22-01,南区砥山 砥山豊平川沿線,砥山豊平川沿線,42.977146,141.245056,緯度経度は怪しい
北海道,札幌市,22-02,南区小金湯 豊滝砥山連絡線,豊滝砥山連絡線,42.970699,141.209457,緯度経度は怪しい
北海道,札幌市,22-03,南区豊滝１丁目４ とよたき公園,とよたき公園,42.9534616,141.2376598,
北海道,札幌市,22-04,南区豊滝 旧豊滝小学校東側,旧豊滝小学校東側,42.928345,141.218079,緯度経度は怪しい
北海道,札幌市,22-05,南区豊滝420番地43 豊滝20号線,豊滝20号線,42.958408,141.237427,緯度経度は怪しい
北海道,札幌市,23-01,南区定山渓温泉西１丁目 定山渓学園,定山渓学園,42.972042,141.1708862,
北海道,札幌市,23-02,南区定山渓温泉西３丁目 定山渓大橋公園,定山渓大橋公園,42.967838,141.164001,緯度経度は怪しい
北海道,札幌市,23-03,南区定山渓温泉西１丁目 定山渓錦台公園,定山渓錦台公園,42.9715061,141.168606,
北海道,札幌市,23-04,南区定山渓温泉東３丁目 章月グランドホテル南西側,章月グランドホテル南西側,42.9655457,141.164856,
北海道,札幌市,23-05,南区定山渓温泉東３丁目 定山渓大橋（道道）,定山渓大橋（道道）,42.965527,141.1661861,
北海道,札幌市,23-06,南区定山渓温泉東４丁目 定山渓まちづくりセンター東側,定山渓まちづくりセンター東側,42.962185,141.158722,緯度経度は怪しい
北海道,札幌市,24-01,南区中ノ沢１７１１番地 中ノ沢会館,中ノ沢会館,42.999313,141.310806,緯度経度は怪しい
北海道,札幌市,24-02,南区中ノ沢６丁目９ 中の沢ポプラ公園,中の沢ポプラ公園,42.997892,141.314866,
北海道,札幌市,24-03,南区中ノ沢７丁目８ 中の沢５丁目バス停北西側（市道）,中の沢５丁目バス停北西側（市道）,42.996937,141.313965,緯度経度は怪しい
北海道,札幌市,24-04,南区中ノ沢５丁目６ 中の沢さくら公園,中の沢さくら公園,42.9970522,141.3177368,
北海道,札幌市,24-05,南区中ノ沢２丁目２ レックス駐車場,レックス駐車場,42.99667,141.322388,緯度経度は怪しい
北海道,札幌市,24-06,南区中ノ沢２丁目１ 中ノ沢公園,中ノ沢公園,42.9974099,141.3221088,
北海道,札幌市,24-07,南区中ノ沢１丁目１０ 中の沢団地（市道）,中の沢団地（市道）,42.993465,141.323746,緯度経度は怪しい
北海道,札幌市,25-01,南区澄川５条１１丁目１０ 緑ヶ丘なか公園,緑ヶ丘なか公園,42.9981089,141.3687846,
北海道,札幌市,25-02,南区澄川６条１１丁目９ 澄川あさひ台北公園,澄川あさひ台北公園,42.9979679,141.3711803,
北海道,札幌市,25-03,南区澄川６条１２丁目１０ 澄川あさひ台公園,澄川あさひ台公園,42.9961021,141.371817,
北海道,札幌市,25-04,南区澄川５条１３丁目７ 澄川南小学校,澄川南小学校,42.993027,141.368958,緯度経度は怪しい
北海道,札幌市,25-05,南区澄川６条１３丁目９ 朝日台上橋南西側（市道）,朝日台上橋南西側（市道）,42.994164,141.372528,緯度経度は怪しい
北海道,札幌市,25-06,南区澄川５条１３丁目２ 緑ヶ丘にし公園,緑ヶ丘にし公園,42.9943082,141.3669744,
北海道,札幌市,25-07,南区澄川５条１３丁目７ 澄川南小学校,澄川南小学校,42.993027,141.368958,緯度経度は怪しい
北海道,札幌市,26-01,南区北ノ沢１８９７番地 山水団地前じょうてつバス回転場,山水団地前じょうてつバス回転場,43.017399,141.297653,緯度経度は怪しい
北海道,札幌市,26-02,南区北ノ沢３丁目３ 北の沢第３やまばと公園,北の沢第３やまばと公園,43.007615,141.3252138,
北海道,札幌市,26-03,南区北ノ沢６丁目６ 北の沢山の子公園,北の沢山の子公園,43.0027369,141.3240227,
北海道,札幌市,26-04,南区北ノ沢１７２７番地 北の沢小学校,北の沢小学校,43.005154,141.311569,緯度経度は怪しい
北海道,札幌市,26-05,南区北ノ沢９丁目３ 北の沢ヤマナミ公園,北の沢ヤマナミ公園,43.002545,141.319479,
北海道,札幌市,26-06,南区北ノ沢1744番地116 北ノ沢第２配水池,北ノ沢第２配水池,43.0118028,141.3048916,
北海道,札幌市,26-07,南区北ノ沢４丁目１ 北の沢２丁目バス停北側（市道）,北の沢２丁目バス停北側（市道）,43.005642,141.323364,緯度経度は怪しい
北海道,札幌市,27-01,南区川沿１３条３丁目４ 川沿みどり公園,川沿みどり公園,42.9791093,141.3318928,
北海道,札幌市,27-02,南区川沿１２条１丁目１ 北海道電力ネットワーク(株)札幌南ネットワークセンター駐車場,北海道電力ネットワーク(株)札幌南ネットワークセンター駐車場,42.980904,141.337341,緯度経度は怪しい
北海道,札幌市,27-03,南区川沿１５条２丁目３ 硬石山こばと公園,硬石山こばと公園,42.9762676,141.334513,
北海道,札幌市,27-04,南区川沿15条２丁目15-15 硬石山おおぞら公園,硬石山おおぞら公園,42.9762283,141.3321607,
北海道,札幌市,27-05,南区川沿１５条２丁目４ 定山渓観光交通(株),定山渓観光交通(株),42.975967,141.335083,緯度経度は怪しい
北海道,札幌市,27-06,南区川沿１７条１丁目１ 川沿たけのこ公園,川沿たけのこ公園,42.972087,141.3351427,
北海道,札幌市,27-07,南区川沿１８条２丁目１ 藻岩南小学校,藻岩南小学校,42.973089,141.3326369,
北海道,札幌市,28-01,南区藤野２条６丁目９ 十五島１号橋（市道）,十五島１号橋（市道）,42.963417,141.296814,緯度経度は怪しい
北海道,札幌市,28-02,南区藤野２条４丁目１ 東光ストア藤野店西側,東光ストア藤野店西側,42.962685,141.303024,緯度経度は怪しい
北海道,札幌市,28-03,南区藤野２条７丁目２ 藤野地区センター,藤野地区センター,42.9622713,141.2930307,
北海道,札幌市,28-04,南区藤野２条７丁目7 藤野小学校,藤野小学校,42.964233,141.292816,緯度経度は怪しい
北海道,札幌市,28-05,南区藤野２条８丁目４ 藤野みどり公園,藤野みどり公園,42.962852,141.290724,
北海道,札幌市,28-06,南区藤野２条９丁目５ 含笑寺西側（市道）,含笑寺西側（市道）,42.962391,141.287048,緯度経度は怪しい
北海道,札幌市,28-07,南区藤野１条１０丁目４ 藤野第２ちびっこ公園,藤野第２ちびっこ公園,42.9637987,141.2837794,
北海道,札幌市,28-08,南区藤野２条３丁目１ 藤野東公園,藤野東公園,42.961433,141.306183,緯度経度は怪しい
北海道,札幌市,29-01,南区澄川２条５丁目７ 澄川あじさい公園,澄川あじさい公園,43.0110546,141.3612474,
北海道,札幌市,29-02,南区澄川２条５丁目７ 澄川西小学校,澄川西小学校,43.0103264,141.3621355,
北海道,札幌市,29-03,masked,masked,43.013474,141.360886,緯度経度は怪しい
北海道,札幌市,29-04,南区澄川２条５丁目７ 澄川西小学校,澄川西小学校,43.0103264,141.3621355,
北海道,札幌市,29-05,南区澄川４条５丁目１ 地下鉄南北線高架下駐車場,地下鉄南北線高架下駐車場,43.010456,141.365692,緯度経度は怪しい
北海道,札幌市,29-06,南区澄川３条６丁目４ 地下鉄自衛隊前駅前慈恵橋（市道）,地下鉄自衛隊前駅前慈恵橋（市道）,43.006832,141.36438,緯度経度は怪しい
北海道,札幌市,30-01,南区澄川６条６丁目１ 澄川通（市道）,澄川通（市道）,43.007919,141.373474,緯度経度は怪しい
北海道,札幌市,30-02,南区澄川６条８丁目９ 澄川緑台公園,澄川緑台公園,43.004149,141.373106,
北海道,札幌市,30-03,南区澄川５条８丁目１ 澄川公園,澄川公園,43.0047378,141.3693254,
北海道,札幌市,30-04,南区澄川６条７丁目412－３ 澄川通（三角地）,澄川通（三角地）,43.005325,141.373322,緯度経度は怪しい
北海道,札幌市,30-05,南区澄川６条６丁目１ 澄川中学校,澄川中学校,43.007919,141.373474,緯度経度は怪しい
北海道,札幌市,30-06,南区澄川６条５丁目１ 澄川北緑地,澄川北緑地,43.0096436,141.3739599,
北海道,札幌市,31-01,南区真駒内柏丘５丁目３ 真駒内プリムラ公園,真駒内プリムラ公園,42.989204,141.3449222,
北海道,札幌市,31-02,南区真駒内柏丘１丁目１ 柏丘ポンプ場,柏丘ポンプ場,42.992302,141.348175,緯度経度は怪しい
北海道,札幌市,31-03,南区真駒内幸町２丁目１－５ 南区民センター,南区民センター,42.990494,141.354218,緯度経度は怪しい
北海道,札幌市,31-04,南区真駒内幸町３丁目１ 真駒内中学校,真駒内中学校,42.990037,141.3568315,
北海道,札幌市,31-05,南区真駒内幸町２丁目１－５ 南区役所,南区役所,42.990494,141.354218,緯度経度は怪しい
北海道,札幌市,31-06,南区真駒内泉町１丁目６ 真駒内川緑地（北側）,真駒内川緑地（北側）,42.9880617,141.3517766,
北海道,札幌市,31-07,南区真駒内柏丘５丁目１３ 柏ケ丘中央公園,柏ケ丘中央公園,42.9873559,141.3449123,
北海道,札幌市,31-08,南区真駒内柏丘２丁目６ 真駒内グリーンヒル公園,真駒内グリーンヒル公園,42.989491,141.3478498,
北海道,札幌市,32-01,南区石山東１丁目６ 石山みはらし公園,石山みはらし公園,42.9712382,141.3455584,
北海道,札幌市,32-02,南区石山東５丁目５ 藻南学園橋,藻南学園橋,42.961632,141.345505,緯度経度は怪しい
北海道,札幌市,32-03,南区石山東４丁目５ 石山こだま公園,石山こだま公園,42.9636008,141.3457433,
北海道,札幌市,32-04,南区石山東５丁目１ 石山東配水池用地,石山東配水池用地,42.961624,141.342834,緯度経度は怪しい
北海道,札幌市,32-05,南区石山東５丁目６－１ もなみ学園（旧石山東小）,もなみ学園（旧石山東小）,42.9605675,141.3448241,
北海道,札幌市,32-06,南区石山東６丁目８ 農地南側（市道）,農地南側（市道）,42.958176,141.343964,緯度経度は怪しい
北海道,札幌市,33-01,南区南沢６条４丁目１８ 南沢みどり公園,南沢みどり公園,42.9869339,141.305821,
北海道,札幌市,33-02,南区南沢１８２２番地 南沢福祉会館,南沢福祉会館,42.9834194,141.3115926,
北海道,札幌市,33-03,南区南沢４条４丁目１６ 東海公園,東海公園,42.9856051,141.3129996,
北海道,札幌市,33-04,南区南沢１条３丁目１６ 南沢１－３バス停西側（市道）,南沢１－３バス停西側（市道）,42.982723,141.322281,緯度経度は怪しい
北海道,札幌市,33-05,南区南沢１条３丁目 南の沢41号線,南の沢41号線,42.981468,141.324097,緯度経度は怪しい
北海道,札幌市,33-06,南区南沢１条３丁目１ 南沢入口バス停東側（市道）,南沢入口バス停東側（市道）,42.981052,141.325897,緯度経度は怪しい
北海道,札幌市,33-07,南区南沢３条４丁目 南沢３－４バス停西側（市道）,南沢３－４バス停西側（市道）,42.983303,141.314377,緯度経度は怪しい
北海道,札幌市,01-01,厚別区厚別町山本1063番地 山本会館前,山本会館前,43.068436,141.45726,緯度経度は怪しい
北海道,札幌市,01-02,厚別区厚別町山本750番地 高校前橋横,高校前橋横,43.055832,141.458618,緯度経度は怪しい
北海道,札幌市,01-03,厚別区厚別町山本1063番地 バス停「山本三区」,バス停「山本三区」,43.0668079,141.4599083,
北海道,札幌市,01-04,厚別区厚別町山本751番地 山本南橋横,山本南橋横,43.062897,141.46431,緯度経度は怪しい
北海道,札幌市,02-01,厚別区厚別西３条１丁目 厚別西小学校,厚別西小学校,43.047943,141.456909,緯度経度は怪しい
北海道,札幌市,02-02,厚別区厚別西２条１丁目 厚別どんぐり公園,厚別どんぐり公園,43.0455329,141.4575838,
北海道,札幌市,02-03,厚別区厚別西３条１丁目 厚別ぽぷら公園,厚別ぽぷら公園,43.0480598,141.4563219,
北海道,札幌市,02-04,厚別区厚別西４条２丁目 厚別いなり公園西側,厚別いなり公園西側,43.0502519,141.4564201,
北海道,札幌市,02-05,厚別区厚別西４条２丁目 厚別いなり公園東側,厚別いなり公園東側,43.0502519,141.4564201,
北海道,札幌市,02-06,厚別区厚別西５条１丁目 厚別西みどり公園,厚別西みどり公園,43.0532134,141.4536597,
北海道,札幌市,02-07,厚別区厚別西５条２丁目 厚別よつば公園,厚別よつば公園,43.0527687,141.4588877,
北海道,札幌市,03-01,厚別区厚別北２条３丁目 厚別北小学校,厚別北小学校,43.054377,141.4764754,
北海道,札幌市,03-02,厚別区厚別北２条２丁目 厚別北こがね公園,厚別北こがね公園,43.0548158,141.4737698,
北海道,札幌市,03-03,厚別区厚別北２条２丁目 北１３条通北側緑地帯,北１３条通北側緑地帯,43.05447,141.474167,緯度経度は怪しい
北海道,札幌市,03-04,厚別区厚別北１条２丁目 厚別北第１はんのき公園,厚別北第１はんのき公園,43.0523434,141.4779582,
北海道,札幌市,03-05,厚別区厚別北２条４丁目 厚別北若葉公園,厚別北若葉公園,43.057532,141.4782353,
北海道,札幌市,03-06,厚別区厚別北１条４丁目 ＪＲ森林公園駅西口前植込,ＪＲ森林公園駅西口前植込,43.056692,141.4809583,
北海道,札幌市,03-07,厚別区厚別北３条５丁目 厚別北にれのき公園,厚別北にれのき公園,43.0593509,141.4807561,
北海道,札幌市,03-08,厚別区厚別北３条５丁目 厚別北松の木公園,厚別北松の木公園,43.0617876,141.4795186,
北海道,札幌市,04-01,厚別区厚別中央４条３丁目 信濃小学校　厚別西通側,信濃小学校　厚別西通側,43.042187,141.463379,緯度経度は怪しい
北海道,札幌市,04-02,厚別区厚別中央４条３丁目 信濃公園,信濃公園,43.0420366,141.4623407,
北海道,札幌市,04-03,厚別区厚別中央５条４丁目 厚別若草公園,厚別若草公園,43.0451416,141.4665055,
北海道,札幌市,04-04,厚別区厚別中央４条５丁目 ファミリーマート駐車場入り口近く,ファミリーマート駐車場入り口近く,43.044147,141.470078,緯度経度は怪しい
北海道,札幌市,04-05,厚別区厚別中央３条４丁目 厚別サルビア公園西角,厚別サルビア公園西角,43.0402475,141.4679136,
北海道,札幌市,04-06,厚別区厚別中央５条４丁目 JR厚別駅前中央緑地帯,JR厚別駅前中央緑地帯,43.045506,141.46666,緯度経度は怪しい
北海道,札幌市,04-07,厚別区厚別中央３条６丁目 バス停「東商業高校前」,バス停「東商業高校前」,43.0428175,141.4726545,
北海道,札幌市,04-08,厚別区厚別中央５条６丁目 水恋橋横緑地帯,水恋橋横緑地帯,43.046833,141.471786,緯度経度は怪しい
北海道,札幌市,05-01,厚別区厚別東２条４丁目 小野幌小学校通用門右横,小野幌小学校通用門右横,43.043816,141.48642,緯度経度は怪しい
北海道,札幌市,05-02,厚別区厚別東２条４丁目 ホクノースーパー前,ホクノースーパー前,43.043816,141.48642,緯度経度は怪しい
北海道,札幌市,05-03,厚別区厚別東２条４丁目 下野幌高台公園,下野幌高台公園,43.0421877,141.4859229,
北海道,札幌市,05-04,厚別区厚別東２条５丁目 もみじ台通緑地帯,もみじ台通緑地帯,43.04459,141.489258,緯度経度は怪しい
北海道,札幌市,05-05,厚別区厚別東２条５丁目 下野幌なかよし公園,下野幌なかよし公園,43.0429715,141.4905804,
北海道,札幌市,05-06,厚別区厚別東１条５丁目 厚別東ひまわり公園,厚別東ひまわり公園,43.0410253,141.4931663,
北海道,札幌市,05-07,厚別区厚別東１条１丁目 マックスバリュー横,マックスバリュー横,43.039757,141.482956,緯度経度は怪しい
北海道,札幌市,05-08,厚別区厚別東２条５丁目 JRバス停「厚別東２条６丁目」,JRバス停「厚別東２条６丁目」,43.0432194,141.4925274,
北海道,札幌市,06-01,厚別区厚別中央３条２丁目 信濃中学校体育館側,信濃中学校体育館側,43.035316,141.459549,緯度経度は怪しい
北海道,札幌市,06-02,厚別区厚別中央４条２丁目 厚別あおぞら公園,厚別あおぞら公園,43.0382491,141.4587409,
北海道,札幌市,06-03,厚別区厚別中央４条２丁目 厚別いなほ公園,厚別いなほ公園,43.0402775,141.459323,
北海道,札幌市,06-04,厚別区厚別中央３条３丁目 厚別中央公園南側,厚別中央公園南側,43.0390389,141.463877,
北海道,札幌市,06-05,厚別区厚別中央３条３丁目 厚別中央公園北側,厚別中央公園北側,43.0390389,141.463877,
北海道,札幌市,06-06,厚別区厚別中央３条２丁目 DCM（株）横,DCM（株）横,43.035316,141.459549,緯度経度は怪しい
北海道,札幌市,07-01,厚別区厚別中央１条５丁目 厚別区民センター駐車場フェンス,厚別区民センター駐車場フェンス,43.0365477,141.473434,
北海道,札幌市,07-02,厚別区厚別中央２条５丁目 厚別区体育館西側,厚別区体育館西側,43.038853,141.471802,緯度経度は怪しい
北海道,札幌市,07-03,厚別区厚別中央１条７丁目 バス停「もみじ橋」,バス停「もみじ橋」,43.0380908,141.4813374,
北海道,札幌市,07-04,厚別区厚別中央１条５丁目 厚別区役所前,厚別区役所前,43.036041,141.472946,緯度経度は怪しい
北海道,札幌市,07-05,厚別区厚別中央１条５丁目 市営住宅1号棟前,市営住宅1号棟前,43.036106,141.4733063,
北海道,札幌市,08-01,厚別区大谷地東５丁目 大谷地東小学校正門横,大谷地東小学校正門横,43.024338,141.457993,緯度経度は怪しい
北海道,札幌市,08-02,厚別区大谷地東２丁目 高速電車　大谷地変電所フェンス,高速電車　大谷地変電所フェンス,43.0289,141.452621,緯度経度は怪しい
北海道,札幌市,08-03,厚別区大谷地東１丁目 バス停「北星大学通」,バス停「北星大学通」,43.0292082,141.4499204,
北海道,札幌市,08-04,厚別区大谷地東５丁目 サイクリングロード上フェンス,サイクリングロード上フェンス,43.024338,141.457993,緯度経度は怪しい
北海道,札幌市,08-05,厚別区大谷地東４丁目 大谷地駐車場　横フェンス,大谷地駐車場　横フェンス,43.0286,141.458471,
北海道,札幌市,08-06,厚別区大谷地東４丁目 陽だまりロード,陽だまりロード,43.028698,141.457001,緯度経度は怪しい
北海道,札幌市,08-07,厚別区大谷地東５丁目 大谷地駅前公園,大谷地駅前公園,43.0254516,141.4574521,
北海道,札幌市,09-01,厚別区厚別南２丁目 共栄小学校正門横,共栄小学校正門横,43.029892,141.4700448,
北海道,札幌市,09-02,厚別区青葉町１丁目 下野幌西集会所向い側空地,下野幌西集会所向い側空地,43.033188,141.471771,緯度経度は怪しい
北海道,札幌市,09-03,厚別区青葉町１丁目 市営住宅Ａ-２棟横フェンス,市営住宅Ａ-２棟横フェンス,43.033188,141.471771,緯度経度は怪しい
北海道,札幌市,09-04,厚別区青葉町２丁目 青葉町２丁目緑地,青葉町２丁目緑地,43.0343216,141.4742867,
北海道,札幌市,09-05,厚別区厚別南３丁目 旭町南こぶし公園,旭町南こぶし公園,43.027433,141.4674302,
北海道,札幌市,09-06,厚別区厚別南２丁目 厚別南白樺公園北西角,厚別南白樺公園北西角,43.030811,141.469147,緯度経度は怪しい
北海道,札幌市,09-07,厚別区厚別南１丁目 馬場公園南角,馬場公園南角,43.030346,141.4617715,
北海道,札幌市,09-08,厚別区厚別南１丁目 厚別南風の子公園南側,厚別南風の子公園南側,43.0305358,141.4651657,
北海道,札幌市,10-01,厚別区青葉町７丁目 青葉児童会館前,青葉児童会館前,43.02866,141.479599,緯度経度は怪しい
北海道,札幌市,10-02,厚別区青葉町１３丁目 下水道管理用地,下水道管理用地,43.03083,141.481491,緯度経度は怪しい
北海道,札幌市,10-03,厚別区青葉町４丁目 青葉まちづくりセンター向いフェンス,青葉まちづくりセンター向いフェンス,43.033772,141.478638,緯度経度は怪しい
北海道,札幌市,10-04,厚別区青葉町４丁目 エンゼル公園,エンゼル公園,43.0354368,141.4776592,
北海道,札幌市,10-05,厚別区青葉町１３丁目 青葉町みどり公園西側奥道路,青葉町みどり公園西側奥道路,43.0317621,141.4818169,
北海道,札幌市,10-06,厚別区青葉町６丁目 市営住宅E-２号棟横,市営住宅E-２号棟横,43.029182,141.476395,緯度経度は怪しい
北海道,札幌市,10-07,厚別区青葉町５丁目 バス停「青葉町８丁目」,バス停「青葉町８丁目」,43.0273745,141.4754701,
北海道,札幌市,11-01,厚別区もみじ台西３丁目 もみじの森小学校正門横,もみじの森小学校正門横,43.032982,141.487152,緯度経度は怪しい
北海道,札幌市,11-02,厚別区もみじ台西１丁目 もみじ台中学校横,もみじ台中学校横,43.037724,141.484299,緯度経度は怪しい
北海道,札幌市,11-03,厚別区もみじ台西４丁目 市営住宅W-２８号棟前,市営住宅W-２８号棟前,43.033756,141.489182,緯度経度は怪しい
北海道,札幌市,11-04,厚別区もみじ台西５丁目 もみじ台のうさぎ公園,もみじ台のうさぎ公園,43.0305839,141.4884272,
北海道,札幌市,11-05,厚別区もみじ台西６丁目 熊の沢公園,熊の沢公園,43.0291022,141.490882,
北海道,札幌市,11-06,厚別区もみじ台西７丁目 もみじ台しまりす公園,もみじ台しまりす公園,43.0278243,141.487812,
北海道,札幌市,11-07,厚別区青葉町１２丁目 紅青橋横フェンス,紅青橋横フェンス,43.032784,141.483582,緯度経度は怪しい
北海道,札幌市,11-08,厚別区青葉町１４丁目 下野幌山の手公園西側,下野幌山の手公園西側,43.029331,141.484573,緯度経度は怪しい
北海道,札幌市,12-01,厚別区もみじ台北５丁目 星瑳札幌もみじキャンパス東側玄関右横,星瑳札幌もみじキャンパス東側玄関右横,43.03653,141.491821,緯度経度は怪しい
北海道,札幌市,12-02,厚別区もみじ台北２丁目 もみじ台ちびっこ公園,もみじ台ちびっこ公園,43.038126,141.4924816,
北海道,札幌市,12-03,厚別区もみじ台北３丁目 市営住宅N-7号棟前,市営住宅N-7号棟前,43.037437,141.49585,緯度経度は怪しい
北海道,札幌市,12-04,厚別区もみじ台北６丁目 市営住宅N-３５号棟前,市営住宅N-３５号棟前,43.034012,141.492172,緯度経度は怪しい
北海道,札幌市,12-05,厚別区もみじ台北５丁目 もみじ台北公園,もみじ台北公園,43.0361973,141.4907798,
北海道,札幌市,12-06,厚別区もみじ台北４丁目 市営住宅N-１９号棟横,市営住宅N-１９号棟横,43.036259,141.487503,緯度経度は怪しい
北海道,札幌市,12-07,厚別区もみじ台北１丁目 もみじ台どろんこ公園,もみじ台どろんこ公園,43.0380609,141.4877191,
北海道,札幌市,13-01,厚別区もみじ台東４丁目 もみじの丘小学校前,もみじの丘小学校前,43.030174,141.497787,緯度経度は怪しい
北海道,札幌市,13-02,厚別区もみじ台東６丁目 もみじ台あおさぎ公園,もみじ台あおさぎ公園,43.0272284,141.5010799,
北海道,札幌市,13-03,厚別区もみじ台東５丁目 市営住宅Ｅ-２９号棟前,市営住宅Ｅ-２９号棟前,43.026993,141.498901,緯度経度は怪しい
北海道,札幌市,13-04,厚別区もみじ台東４丁目 もみじ台東公園,もみじ台東公園,43.0294129,141.4967887,
北海道,札幌市,13-05,厚別区もみじ台東１丁目 市営住宅E-６号棟前,市営住宅E-６号棟前,43.031952,141.494186,緯度経度は怪しい
北海道,札幌市,13-06,厚別区もみじ台東１丁目 市営住宅Ｅ－３号棟前,市営住宅Ｅ－３号棟前,43.031952,141.494186,緯度経度は怪しい
北海道,札幌市,13-07,厚別区もみじ台東２丁目 もみじ台やまどり公園,もみじ台やまどり公園,43.0332434,141.4963929,
北海道,札幌市,14-01,厚別区もみじ台北７丁目 もみじ台管理センター正面横,もみじ台管理センター正面横,43.031071,141.492554,緯度経度は怪しい
北海道,札幌市,14-02,厚別区もみじ台南３丁目 もみじ台しらかば公園,もみじ台しらかば公園,43.02611,141.4936978,
北海道,札幌市,14-03,厚別区もみじ台南２丁目 市営住宅S-14号棟前,市営住宅S-14号棟前,43.02808,141.493393,緯度経度は怪しい
北海道,札幌市,14-04,厚別区もみじ台南４丁目 市営住宅S-1号棟横,市営住宅S-1号棟横,43.026211,141.497192,緯度経度は怪しい
北海道,札幌市,14-05,厚別区もみじ台南６丁目 もみじ台さくら公園,もみじ台さくら公園,43.0233824,141.5014933,
北海道,札幌市,14-06,厚別区もみじ台南５丁目 もみじ台南公園,もみじ台南公園,43.024178,141.4964046,
北海道,札幌市,14-07,厚別区もみじ台南３丁目 もみじ台かえで公園,もみじ台かえで公園,43.0245764,141.4913376,
北海道,札幌市,15-01,厚別区厚別南７丁目 新札幌わかば小学校正門横,新札幌わかば小学校正門横,43.0221061,141.4783868,
北海道,札幌市,15-02,厚別区厚別南７丁目 上野幌つつじ公園,上野幌つつじ公園,43.0198617,141.4800564,
北海道,札幌市,15-03,厚別区厚別南５丁目 上野幌すみれ公園,上野幌すみれ公園,43.0240161,141.4753449,
北海道,札幌市,15-04,厚別区厚別南５丁目 上野幌公園,上野幌公園,43.0264259,141.4732323,
北海道,札幌市,15-05,厚別区厚別南４丁目 JR北海道バス厚別営業所前,JR北海道バス厚別営業所前,43.02499,141.468719,緯度経度は怪しい
北海道,札幌市,15-06,厚別区厚別南４丁目 ＥＮＥＯＳスタンド向い　角緑地帯,ＥＮＥＯＳスタンド向い　角緑地帯,43.02499,141.468719,緯度経度は怪しい
北海道,札幌市,15-07,厚別区厚別南７丁目 新札幌わかば小学校裏門横,新札幌わかば小学校裏門横,43.0221061,141.4783868,
北海道,札幌市,16-01,厚別区厚別東３条５丁目 厚別中学校前,厚別中学校前,43.046993,141.486801,緯度経度は怪しい
北海道,札幌市,16-02,厚別区厚別東３条５丁目 小野幌くりの木公園,小野幌くりの木公園,43.0474846,141.4861418,
北海道,札幌市,16-03,厚別区厚別東３条３丁目 小野幌みずほ公園,小野幌みずほ公園,43.0462348,141.4816352,
北海道,札幌市,16-04,厚別区厚別東４条３丁目 12号線沿い空き地　（記念塔病院跡地）,12号線沿い空き地　（記念塔病院跡地）,43.048122,141.481461,緯度経度は怪しい
北海道,札幌市,16-05,厚別区厚別東３条１丁目 厚別清掃工場跡地南側フェンス,厚別清掃工場跡地南側フェンス,43.04287,141.478516,緯度経度は怪しい
北海道,札幌市,16-06,厚別区厚別東４条７丁目 バス停「厚別東小学校前」横,バス停「厚別東小学校前」横,43.053952,141.4857802,
北海道,札幌市,16-07,厚別区厚別東５条８丁目 ＪＲ森林公園駅前東口前植込,ＪＲ森林公園駅前東口前植込,43.056633,141.483597,緯度経度は怪しい
北海道,札幌市,16-08,厚別区厚別東４条７丁目 小野幌桂丘公園,小野幌桂丘公園,43.0524204,141.4881761,
北海道,札幌市,17-01,厚別区上野幌１条２丁目 ムソウ横 防火水槽フェンス,ムソウ横 防火水槽フェンス,43.021008,141.46991,緯度経度は怪しい
北海道,札幌市,17-02,厚別区上野幌２条２丁目 上野幌ノホロ公園,上野幌ノホロ公園,43.017376,141.468719,緯度経度は怪しい
北海道,札幌市,17-03,厚別区上野幌３条１丁目 厚別公園補助競技場　フェンス北側,厚別公園補助競技場　フェンス北側,43.0208644,141.4625469,
北海道,札幌市,17-04,厚別区上野幌３条２丁目 バス停「東栄通北」後ろ,バス停「東栄通北」後ろ,43.013999,141.4701064,
北海道,札幌市,17-05,厚別区上野幌１条１丁目 上野幌ライラック公園南側,上野幌ライラック公園南側,43.0230083,141.4659342,
北海道,札幌市,17-06,厚別区上野幌２条１丁目 上野幌福寿草公園,上野幌福寿草公園,43.0209624,141.4677383,
北海道,札幌市,17-07,厚別区上野幌３条１丁目 厚別公園陸上競技場フェンス南側,厚別公園陸上競技場フェンス南側,43.019829,141.462448,緯度経度は怪しい
北海道,札幌市,18-01,厚別区厚別西４条３丁目 厚別通小学校正門横,厚別通小学校正門横,43.0526369,141.4618272,
北海道,札幌市,18-02,厚別区厚別西４条３丁目 厚別通小学校北側,厚別通小学校北側,43.0526369,141.4618272,
北海道,札幌市,18-03,厚別区厚別西４条４丁目 厚別さくら公園,厚別さくら公園,43.052632,141.4660019,
北海道,札幌市,18-04,厚別区厚別西３条３丁目 厚別西公園,厚別西公園,43.0500495,141.4629152,
北海道,札幌市,18-05,厚別区厚別西２条４丁目 厚別西児童会館前,厚別西児童会館前,43.048943,141.466751,緯度経度は怪しい
北海道,札幌市,18-06,厚別区厚別西１条３丁目 JR厚別駅西口側フェンス,JR厚別駅西口側フェンス,43.046238,141.464371,緯度経度は怪しい
北海道,札幌市,18-07,厚別区厚別西５条５丁目 厚別西川フェンス,厚別西川フェンス,43.055302,141.465256,緯度経度は怪しい
北海道,札幌市,19-01,厚別区厚別中央２条４丁目 ひばりが丘小学校フェンス,ひばりが丘小学校フェンス,43.037037,141.467667,緯度経度は怪しい
北海道,札幌市,19-02,厚別区厚別中央１条４丁目 市営住宅E-20号棟横,市営住宅E-20号棟横,43.034142,141.467468,緯度経度は怪しい
北海道,札幌市,19-03,厚別区厚別中央１条３丁目 市営住宅W-14号棟前駐車場,市営住宅W-14号棟前駐車場,43.033199,141.464325,緯度経度は怪しい
北海道,札幌市,19-04,厚別区厚別中央１条３丁目 市営住宅W-１５号棟前緑地,市営住宅W-１５号棟前緑地,43.033199,141.464325,緯度経度は怪しい
北海道,札幌市,19-05,厚別区厚別中央１条３丁目 ひばりが丘西集会所,ひばりが丘西集会所,43.033199,141.464325,緯度経度は怪しい
北海道,札幌市,19-06,厚別区厚別中央１条２丁目 市営住宅W－1号棟横,市営住宅W－1号棟横,43.032234,141.460815,緯度経度は怪しい
北海道,札幌市,19-07,厚別区厚別中央１条２丁目 市営住宅W-５号棟前横緑地,市営住宅W-５号棟前横緑地,43.032234,141.460815,緯度経度は怪しい
北海道,札幌市,20-01,厚別区大谷地西３丁目 大谷地ひまわり公園,大谷地ひまわり公園,43.0223909,141.4504624,
北海道,札幌市,20-02,厚別区大谷地西１丁目 かげろう公園,かげろう公園,43.0263596,141.4464957,
北海道,札幌市,20-03,厚別区大谷地西３丁目 わらび公園,わらび公園,43.0235082,141.4519344,
北海道,札幌市,20-04,厚別区大谷地西５丁目 東日本高速道路株式会社前フェンス,東日本高速道路株式会社前フェンス,43.021919,141.454376,緯度経度は怪しい
北海道,札幌市,20-05,厚別区大谷地西１丁目 北星学園大学駐車場前,北星学園大学駐車場前,43.025135,141.445587,緯度経度は怪しい
北海道,札幌市,20-06,厚別区大谷地西２丁目 大谷地の森公園入口,大谷地の森公園入口,43.022573,141.4485878,
北海道,札幌市,20-07,厚別区大谷地西４丁目 大谷地さくら公園,大谷地さくら公園,43.0203839,141.4525376,
北海道,札幌市,21-01,厚別区上野幌２条４丁目 ノホロの丘小学校プール前緑地,ノホロの丘小学校プール前緑地,43.014996,141.474075,緯度経度は怪しい
北海道,札幌市,21-02,厚別区上野幌２条３丁目 上野幌中学校グランド柵,上野幌中学校グランド柵,43.017052,141.472382,緯度経度は怪しい
北海道,札幌市,21-03,厚別区上野幌２条４丁目 バス停「上野幌中央公園」横,バス停「上野幌中央公園」横,43.0156178,141.4747986,
北海道,札幌市,21-04,厚別区上野幌３条５丁目 上野幌わんぱく公園,上野幌わんぱく公園,43.0133763,141.4771645,
北海道,札幌市,21-05,厚別区上野幌２条６丁目 上野幌いずみ公園,上野幌いずみ公園,43.0157526,141.480394,
北海道,札幌市,21-06,厚別区上野幌２条３丁目 上野幌白樺公園,上野幌白樺公園,43.017052,141.472382,緯度経度は怪しい
北海道,札幌市,21-07,厚別区上野幌３条３丁目 上野幌あおぞら公園,上野幌あおぞら公園,43.012321,141.4712463,
北海道,札幌市,21-08,厚別区厚別町上野幌932番地1 上野幌里塚循環通東部緑地,上野幌里塚循環通東部緑地,43.012516,141.479858,緯度経度は怪しい
北海道,札幌市,22-01,厚別区厚別町小野幌774番地5 厚別北中学校入口付近,厚別北中学校入口付近,43.0588968,141.4698497,
北海道,札幌市,22-02,厚別区厚別町小野幌774番地5 厚別北中学校駐車場付近,厚別北中学校駐車場付近,43.0588968,141.4698497,
北海道,札幌市,22-03,厚別区厚別北４条２丁目 厚別北第２はんのき公園,厚別北第２はんのき公園,43.057102,141.46994,緯度経度は怪しい
北海道,札幌市,22-04,厚別区厚別北４条３丁目 厚別北みのり公園,厚別北みのり公園,43.058788,141.473343,緯度経度は怪しい
北海道,札幌市,22-05,厚別区厚別北４条４丁目 厚別北わんぱく公園,厚別北わんぱく公園,43.0609952,141.4753649,
北海道,札幌市,22-06,厚別区厚別北４条５丁目 厚別北しらかば公園,厚別北しらかば公園,43.063392,141.4771402,
北海道,札幌市,22-07,厚別区厚別北６条５丁目 厚別北森林中央公園,厚別北森林中央公園,43.0646824,141.4728144,
北海道,札幌市,01-01,手稲区新発寒６条６丁目 新陵小学校体育館開放玄関前,新陵小学校体育館開放玄関前,43.11982,141.273636,緯度経度は怪しい
北海道,札幌市,01-02,手稲区新発寒５条６丁目 新発寒朝日公園北側,新発寒朝日公園北側,43.1178201,141.2707651,
北海道,札幌市,01-03,手稲区新発寒５条６丁目 新発寒朝日公園東側,新発寒朝日公園東側,43.1178201,141.2707651,
北海道,札幌市,01-04,手稲区新発寒５条７丁目 新発寒ささ舟緑地,新発寒ささ舟緑地,43.118732,141.269104,緯度経度は怪しい
北海道,札幌市,01-05,手稲区新発寒６条９丁目 新発寒すみれ公園,新発寒すみれ公園,43.1232524,141.267314,
北海道,札幌市,01-06,手稲区新発寒７条６丁目 新発寒ひばり公園,新発寒ひばり公園,43.121837,141.2758537,
北海道,札幌市,02-01,手稲区前田４条５丁目 稲積中学校体育館前,稲積中学校体育館前,43.117287,141.2621623,
北海道,札幌市,02-02,手稲区前田４条５丁目 稲積中学校グラウンド側,稲積中学校グラウンド側,43.117287,141.2621623,
北海道,札幌市,02-03,手稲区前田１条５丁目 手稲稲積公園西側スキー山広場横,手稲稲積公園西側スキー山広場横,43.1157036,141.258182,
北海道,札幌市,02-04,手稲区前田１条５丁目 手稲稲積公園西側野球場横,手稲稲積公園西側野球場横,43.1157036,141.258182,
北海道,札幌市,02-05,手稲区前田１条５丁目 手稲稲積公園南側テニスコート前,手稲稲積公園南側テニスコート前,43.1157036,141.258182,
北海道,札幌市,02-06,手稲区前田３条４丁目 市営住宅稲積集会所前,市営住宅稲積集会所前,43.115063,141.263031,緯度経度は怪しい
北海道,札幌市,02-07,手稲区前田７条６丁目 稲積サクラ公園,稲積サクラ公園,43.1217028,141.2638276,
北海道,札幌市,03-01,手稲区前田８条１２丁目 前田中央小学校体育館開放玄関前,前田中央小学校体育館開放玄関前,43.1315047,141.2560346,
北海道,札幌市,03-02,手稲区前田８条１２丁目 前田中央小学校グラウンド側,前田中央小学校グラウンド側,43.1315047,141.2560346,
北海道,札幌市,03-03,手稲区前田８条１２丁目 前田あざみ公園,前田あざみ公園,43.132088,141.256271,緯度経度は怪しい
北海道,札幌市,03-04,手稲区前田７条１１丁目 前田公園,前田公園,43.1295818,141.2565932,
北海道,札幌市,03-05,手稲区前田８条８丁目 前田緑苑そよかぜ公園,前田緑苑そよかぜ公園,43.1264978,141.26366,
北海道,札幌市,03-06,手稲区前田８条１０丁目 三晃ぼうけん公園,三晃ぼうけん公園,43.1289364,141.2611442,
北海道,札幌市,03-07,手稲区前田１０条９丁目 ゆたか東ほおずき公園,ゆたか東ほおずき公園,43.129452,141.265244,緯度経度は怪しい
北海道,札幌市,03-08,手稲区前田１２条１０丁目 前田すなやま公園,前田すなやま公園,43.1336483,141.2693497,
北海道,札幌市,04-01,手稲区前田６条１１丁目 前田小学校体育館前,前田小学校体育館前,43.1276049,141.2541072,
北海道,札幌市,04-02,手稲区前田６条９丁目 前田風っ子公園,前田風っ子公園,43.124439,141.257812,緯度経度は怪しい
北海道,札幌市,04-03,手稲区前田６条９丁目 前田まちづくりセンター,前田まちづくりセンター,43.124439,141.257812,緯度経度は怪しい
北海道,札幌市,04-04,手稲区前田４条９丁目 前田みどり公園,前田みどり公園,43.1217929,141.2543147,
北海道,札幌市,04-05,手稲区前田５条１３丁目 下手稲公園,下手稲公園,43.127648,141.2487056,
北海道,札幌市,04-06,手稲区前田６条１４丁目 手稲ファミリー公園,手稲ファミリー公園,43.130775,141.247726,緯度経度は怪しい
北海道,札幌市,04-07,手稲区前田６条１６丁目 手稲フレンド公園,手稲フレンド公園,43.1331348,141.2431969,
北海道,札幌市,05-01,手稲区前田２条１２丁目 手稲鉄北小学校前,手稲鉄北小学校前,43.124241,141.245316,緯度経度は怪しい
北海道,札幌市,05-02,手稲区前田４条１３丁目 前田ひばり公園,前田ひばり公園,43.12663,141.2463303,
北海道,札幌市,05-03,手稲区前田１条９丁目 前田いちご公園,前田いちご公園,43.1178146,141.2507101,
北海道,札幌市,05-04,手稲区前田１条１１丁目 手稲区役所正面玄関横,手稲区役所正面玄関横,43.122062,141.246538,
北海道,札幌市,05-05,手稲区前田１条１１丁目 手稲区役所駐車場,手稲区役所駐車場,43.122062,141.246538,
北海道,札幌市,05-06,手稲区前田２条１２丁目 手稲鉄北小学校グラウンド側,手稲鉄北小学校グラウンド側,43.124241,141.245316,緯度経度は怪しい
北海道,札幌市,06-01,手稲区前田１０条１８丁目 前田北小学校前,前田北小学校前,43.1433741,141.2477907,
北海道,札幌市,06-02,手稲区前田１０条１９丁目 前田はまなす公園,前田はまなす公園,43.144478,141.2444,緯度経度は怪しい
北海道,札幌市,06-03,手稲区前田１０条１９丁目 稲山アカシア公園,稲山アカシア公園,43.1436441,141.2447951,
北海道,札幌市,06-04,手稲区前田９条１９丁目 手稲稲山公園,手稲稲山公園,43.1424789,141.2453087,
北海道,札幌市,06-05,手稲区前田１０条１９丁目 前田さつき公園,前田さつき公園,43.145079,141.2455695,
北海道,札幌市,06-06,手稲区前田８条１９丁目 前田はぐくみ公園,前田はぐくみ公園,43.1420091,141.2430768,
北海道,札幌市,06-07,手稲区前田８条１８丁目 前田ふれあい公園,前田ふれあい公園,43.139823,141.24285,
北海道,札幌市,07-01,手稲区曙７条２丁目 稲陵中学校前,稲陵中学校前,43.1392978,141.2364835,
北海道,札幌市,07-02,手稲区曙７条２丁目 稲陵中学校西側,稲陵中学校西側,43.1392978,141.2364835,
北海道,札幌市,07-03,手稲区曙６条２丁目 山口なかよし公園,山口なかよし公園,43.137094,141.2377067,
北海道,札幌市,07-04,手稲区曙８条１丁目 曙ひまわり公園,曙ひまわり公園,43.1416983,141.2387612,
北海道,札幌市,07-05,手稲区曙７条１丁目 曙わんぱく公園,曙わんぱく公園,43.137861,141.2397797,
北海道,札幌市,07-06,手稲区明日風６丁目 明日風いちご公園,明日風いちご公園,43.1409069,141.2320744,
北海道,札幌市,07-07,手稲区曙５条５丁目 曙西緑地,曙西緑地,43.1327274,141.2228627,
北海道,札幌市,07-08,手稲区明日風２丁目 明日風公園北側,明日風公園北側,43.138905,141.228409,緯度経度は怪しい
北海道,札幌市,07-09,手稲区曙５条２丁目 札幌市稲寿園,札幌市稲寿園,43.13361,141.237564,緯度経度は怪しい
北海道,札幌市,08-01,手稲区星置３条５丁目 星置中学校体育館前,星置中学校体育館前,43.139557,141.205704,緯度経度は怪しい
北海道,札幌市,08-02,手稲区星置３条４丁目 星置竹の子公園,星置竹の子公園,43.138866,141.208252,緯度経度は怪しい
北海道,札幌市,08-03,手稲区星置２条４丁目 星置コメット公園,星置コメット公園,43.136111,141.2075265,
北海道,札幌市,08-04,手稲区星置１条４丁目 市営住宅星置駅前団地７号棟前,市営住宅星置駅前団地７号棟前,43.133549,141.20842,緯度経度は怪しい
北海道,札幌市,08-05,手稲区星置３条６丁目 星置明星公園,星置明星公園,43.1397209,141.2002458,
北海道,札幌市,08-06,手稲区星置３条９丁目 星置ほしみ公園,星置ほしみ公園,43.1391482,141.1932742,
北海道,札幌市,08-07,手稲区手稲山口６５３番地 手稲北小学校前,手稲北小学校前,43.142952,141.207581,緯度経度は怪しい
北海道,札幌市,08-08,手稲区星置３条１丁目 星置きらぼし公園,星置きらぼし公園,43.1392616,141.220159,
北海道,札幌市,08-09,手稲区明日風４丁目 明日風すいか公園南側,明日風すいか公園南側,43.141815,141.226425,緯度経度は怪しい
北海道,札幌市,09-01,手稲区富丘１条６丁目 富丘小学校前,富丘小学校前,43.1150597,141.2517479,
北海道,札幌市,09-02,手稲区富丘１条６丁目 富丘小学校グラウンド側,富丘小学校グラウンド側,43.1141591,141.2526196,
北海道,札幌市,09-03,手稲区富丘１条５丁目 富丘三樽別公園,富丘三樽別公園,43.1121382,141.2533186,
北海道,札幌市,09-04,手稲区富丘１条５丁目 オリンピア第二公園,オリンピア第二公園,43.111198,141.25267,緯度経度は怪しい
北海道,札幌市,09-05,手稲区富丘１条４丁目 稲積公園駅バス停付近,稲積公園駅バス停付近,43.112302,141.256597,
北海道,札幌市,09-06,手稲区富丘２条７丁目 市営住宅富丘西団地入口,市営住宅富丘西団地入口,43.114922,141.246429,緯度経度は怪しい
北海道,札幌市,10-01,手稲区富丘３条５丁目 手稲中学校体育館入口,手稲中学校体育館入口,43.109196,141.248016,緯度経度は怪しい
北海道,札幌市,10-02,手稲区富丘３条４丁目 市営住宅富丘東団地１号棟前,市営住宅富丘東団地１号棟前,43.105961,141.249435,緯度経度は怪しい
北海道,札幌市,10-03,手稲区富丘５条４丁目 富丘丸山公園,富丘丸山公園,43.104328,141.245407,緯度経度は怪しい
北海道,札幌市,10-04,手稲区富丘３条４丁目 富丘ささの子公園,富丘ささの子公園,43.1058528,141.2493955,
北海道,札幌市,10-05,手稲区西宮の沢５条２丁目 宮の沢公園,宮の沢公園,43.0954937,141.2558888,
北海道,札幌市,10-06,手稲区富丘２条２丁目 富丘西宮の沢まちづくりセンター前,富丘西宮の沢まちづくりセンター前,43.101101,141.253754,緯度経度は怪しい
北海道,札幌市,10-07,手稲区富丘２条３丁目 富丘五輪公園,富丘五輪公園,43.1053179,141.2553037,
北海道,札幌市,11-01,手稲区手稲本町３条２丁目 手稲中央小学校前,手稲中央小学校前,43.1156059,141.2406804,
北海道,札幌市,11-02,手稲区手稲本町３条２丁目 手稲中央小学校グラウンド側,手稲中央小学校グラウンド側,43.1156059,141.2406804,
北海道,札幌市,11-03,手稲区手稲本町３条１丁目 手稲ちびっこ公園,手稲ちびっこ公園,43.1146931,141.2420042,
北海道,札幌市,11-04,手稲区手稲本町４条２丁目 市営住宅千代ケ丘西団地,市営住宅千代ケ丘西団地,43.114922,141.239456,緯度経度は怪しい
北海道,札幌市,11-05,手稲区手稲本町３条４丁目 市営住宅見晴台西団地駐車場前,市営住宅見晴台西団地駐車場前,43.119808,141.236237,緯度経度は怪しい
北海道,札幌市,11-06,手稲区手稲本町３条３丁目 手稲ビーバー公園,手稲ビーバー公園,43.1175896,141.239245,
北海道,札幌市,11-07,手稲区手稲本町２条４丁目 手稲きつつき公園,手稲きつつき公園,43.1199619,141.2395092,
北海道,札幌市,11-08,手稲区手稲本町２条３丁目 手稲すずめ公園,手稲すずめ公園,43.1186952,141.2414108,
北海道,札幌市,12-01,手稲区稲穂４条５丁目 稲穂小学校前,稲穂小学校前,43.122787,141.218262,緯度経度は怪しい
北海道,札幌市,12-02,手稲区稲穂３条５丁目 稲穂金山まちづくりセンター,稲穂金山まちづくりセンター,43.12442,141.220398,緯度経度は怪しい
北海道,札幌市,12-03,手稲区稲穂４条７丁目 稲穂さんかく公園,稲穂さんかく公園,43.1264708,141.2125998,
北海道,札幌市,12-04,手稲区稲穂１条８丁目 JR星置駅,JR星置駅,43.131561,141.206619,緯度経度は怪しい
北海道,札幌市,12-05,手稲区稲穂２条７丁目 稲穂そよかぜ公園,稲穂そよかぜ公園,43.1301424,141.2148644,
北海道,札幌市,12-06,手稲区稲穂１条６丁目 いなほりす公園,いなほりす公園,43.129601,141.21814,緯度経度は怪しい
北海道,札幌市,12-07,手稲区稲穂２条５丁目 手稲ぎょうせい公園,手稲ぎょうせい公園,43.1272323,141.2207454,
北海道,札幌市,13-01,手稲区金山３条２丁目 手稲西中学校前,手稲西中学校前,43.124043,141.204346,緯度経度は怪しい
北海道,札幌市,13-02,手稲区金山３条２丁目 手稲西中学校グラウンド側,手稲西中学校グラウンド側,43.124043,141.204346,緯度経度は怪しい
北海道,札幌市,13-03,手稲区金山２条２丁目 金山ポプラ公園,金山ポプラ公園,43.1269962,141.2058918,
北海道,札幌市,13-04,手稲区金山２条３丁目 金山滝見公園,金山滝見公園,43.127334,141.2021098,
北海道,札幌市,13-05,手稲区金山１条４丁目 金山みはらし公園,金山みはらし公園,43.1303666,141.1992906,
北海道,札幌市,13-06,手稲区金山１条３丁目 金山あおば公園,金山あおば公園,43.1299038,141.2045162,
北海道,札幌市,13-07,手稲区金山１条２丁目 中垣病院,中垣病院,43.129223,141.206436,緯度経度は怪しい
北海道,札幌市,14-01,手稲区星置２条７丁目 星置児童会館玄関横,星置児童会館玄関横,43.13623,141.198959,緯度経度は怪しい
北海道,札幌市,14-02,手稲区星置１条６丁目 星置だるま公園,星置だるま公園,43.1344676,141.2006209,
北海道,札幌市,14-03,手稲区星置１条６丁目 星置わんぱく公園,星置わんぱく公園,43.1329618,141.201685,
北海道,札幌市,14-04,手稲区星置１条８丁目 星置きらきら公園,星置きらきら公園,43.134335,141.195312,緯度経度は怪しい
北海道,札幌市,14-05,手稲区星置１条９丁目 JRほしみ駅前,JRほしみ駅前,43.134354,141.192276,緯度経度は怪しい
北海道,札幌市,14-06,手稲区星置２条８丁目 星置スプリングス公園,星置スプリングス公園,43.136814,141.195312,緯度経度は怪しい
北海道,札幌市,15-01,手稲区新発寒２条２丁目 新発寒小学校体育館開放玄関前,新発寒小学校体育館開放玄関前,43.1078866,141.2719599,
北海道,札幌市,15-02,手稲区新発寒２条２丁目 新発寒小学校グラウンド側,新発寒小学校グラウンド側,43.1078866,141.2719599,
北海道,札幌市,15-03,手稲区新発寒４条２丁目 北発寒公園,北発寒公園,43.1103676,141.2742602,
北海道,札幌市,15-04,手稲区新発寒４条３丁目 新発寒なかよし公園,新発寒なかよし公園,43.111778,141.272461,緯度経度は怪しい
北海道,札幌市,15-05,手稲区新発寒４条５丁目 新発寒つくし公園,新発寒つくし公園,43.1143058,141.2688173,
北海道,札幌市,15-06,手稲区新発寒２条４丁目 新発寒わらび公園,新発寒わらび公園,43.109776,141.267151,緯度経度は怪しい
北海道,札幌市,15-07,手稲区前田１条２丁目 前田エンゼル公園,前田エンゼル公園,43.1092315,141.2638488,
北海道,札幌市,16-01,手稲区西宮の沢２条４丁目 西宮の沢小学校前,西宮の沢小学校前,43.104816,141.259842,緯度経度は怪しい
北海道,札幌市,16-02,手稲区西宮の沢２条４丁目 西宮の沢小学校体育館入口前,西宮の沢小学校体育館入口前,43.104816,141.259842,緯度経度は怪しい
北海道,札幌市,16-03,手稲区西宮の沢１条３丁目 西宮の沢つくし公園,西宮の沢つくし公園,43.1057757,141.264337,
北海道,札幌市,16-04,手稲区西宮の沢４条５丁目 西宮の沢おおぞら公園,西宮の沢おおぞら公園,43.105484,141.25679,緯度経度は怪しい
北海道,札幌市,16-05,手稲区西宮の沢４条４丁目 西宮の沢やまびこ公園,西宮の沢やまびこ公園,43.102131,141.257065,緯度経度は怪しい
北海道,札幌市,16-06,手稲区西宮の沢４条３丁目 市営住宅宮の沢団地前,市営住宅宮の沢団地前,43.099773,141.258224,緯度経度は怪しい
北海道,札幌市,16-07,手稲区西宮の沢４条１丁目 西宮の沢ふれあい公園,西宮の沢ふれあい公園,43.0976745,141.2621149,
北海道,札幌市,16-08,手稲区西宮の沢３条３丁目 西宮の沢公園,西宮の沢公園,43.1010501,141.2613112,
北海道,札幌市,17-01,手稲区曙２条１丁目 手稲区体育館正面,手稲区体育館正面,43.126896,141.240082,緯度経度は怪しい
北海道,札幌市,17-02,手稲区曙２条１丁目 市営住宅曙二条団地集会室前,市営住宅曙二条団地集会室前,43.126896,141.240082,緯度経度は怪しい
北海道,札幌市,17-03,手稲区曙３条２丁目 手稲わらび公園,手稲わらび公園,43.1287922,141.2389333,
北海道,札幌市,17-04,手稲区曙３条１丁目 曙ふれあい公園,曙ふれあい公園,43.1301585,141.2393891,
北海道,札幌市,17-05,手稲区曙４条２丁目 曙しらかば公園,曙しらかば公園,43.131229,141.237198,緯度経度は怪しい
北海道,札幌市,17-06,手稲区曙３条３丁目 曙プラタナス公園,曙プラタナス公園,43.129433,141.232986,緯度経度は怪しい
北海道,札幌市,17-07,手稲区曙１条１丁目 手稲緑道,手稲緑道,43.12368,141.24025,緯度経度は怪しい
北海道,札幌市,17-08,手稲区曙４条３丁目 曙中央公園,曙中央公園,43.1311006,141.232464,
北海道,札幌市,18-01,手稲区稲穂４条２丁目 稲穂中学校前,稲穂中学校前,43.118851,141.228622,緯度経度は怪しい
北海道,札幌市,18-02,手稲区稲穂１条１丁目 稲穂たんぽぽ公園,稲穂たんぽぽ公園,43.12355,141.2357687,
北海道,札幌市,18-03,手稲区稲穂４条３丁目 市営住宅稲穂団地前,市営住宅稲穂団地前,43.119865,141.224899,緯度経度は怪しい
北海道,札幌市,18-04,手稲区稲穂４条１丁目 稲穂ひだまり公園,稲穂ひだまり公園,43.1189185,141.2321974,
北海道,札幌市,18-05,手稲区稲穂３条３丁目 いなほ高台緑地,いなほ高台緑地,43.121948,141.226791,緯度経度は怪しい
北海道,札幌市,18-06,手稲区稲穂１条１丁目 稲穂ひまわり公園,稲穂ひまわり公園,43.123692,141.233459,緯度経度は怪しい
北海道,札幌市,19-01,手稲区新発寒５条４丁目 新陵東小学校グラウンド側,新陵東小学校グラウンド側,43.11507,141.273849,緯度経度は怪しい
北海道,札幌市,19-02,手稲区新発寒５条１丁目 新発寒クローバー公園,新発寒クローバー公園,43.1113594,141.2780079,
北海道,札幌市,19-03,手稲区新発寒５条２丁目 新発寒あすなろ公園,新発寒あすなろ公園,43.1134299,141.2785664,
北海道,札幌市,19-04,手稲区新発寒６条５丁目 新発寒たんぽぽ公園,新発寒たんぽぽ公園,43.117949,141.2749645,
北海道,札幌市,19-05,手稲区新発寒６条２丁目 発寒公園テニスコート側,発寒公園テニスコート側,43.115402,141.279861,緯度経度は怪しい
北海道,札幌市,19-06,手稲区新発寒５条４丁目 新陵東小学校南西側,新陵東小学校南西側,43.11507,141.273849,緯度経度は怪しい
北海道,札幌市,19-07,手稲区新発寒７条４丁目 新発寒さつき公園,新発寒さつき公園,43.1192779,141.279593,
北海道,札幌市,20-01,手稲区前田１０条１５丁目 前田北中学校前,前田北中学校前,43.1386419,141.2521804,
北海道,札幌市,20-02,手稲区前田９条１３丁目 前田すみれ公園,前田すみれ公園,43.1352431,141.257022,
北海道,札幌市,20-03,手稲区前田９条１５丁目 前田西公園,前田西公園,43.1362441,141.2539055,
北海道,札幌市,20-04,手稲区前田８条１５丁目 前田トマト公園,前田トマト公園,43.135176,141.2520507,
北海道,札幌市,20-05,手稲区前田８条１５丁目 前田パンプキン公園,前田パンプキン公園,43.137016,141.2492653,
北海道,札幌市,20-06,手稲区前田７条１５丁目 北海道科学大学前,北海道科学大学前,43.134373,141.24791,緯度経度は怪しい
北海道,札幌市,20-07,手稲区前田７条１３丁目 前田中学校前,前田中学校前,43.131184,141.2525669,
北海道,札幌市,21-01,手稲区富丘３条６丁目 富丘児童会館前,富丘児童会館前,43.111351,141.24678,緯度経度は怪しい
北海道,札幌市,21-02,手稲区富丘３条６丁目 市営住宅富丘高台団地9号棟横,市営住宅富丘高台団地9号棟横,43.111351,141.24678,緯度経度は怪しい
北海道,札幌市,21-03,手稲区富丘３条７丁目 富丘やまばと公園,富丘やまばと公園,43.112772,141.2461037,
北海道,札幌市,21-04,手稲区富丘４条６丁目 市営住宅富丘高台団地４号棟前,市営住宅富丘高台団地４号棟前,43.110756,141.244019,緯度経度は怪しい
北海道,札幌市,21-05,手稲区富丘４条６丁目 富丘丸山どんぐり公園,富丘丸山どんぐり公園,43.1106265,141.2428264,
北海道,札幌市,21-06,手稲区富丘６条７丁目 手稲ポニー公園,手稲ポニー公園,43.1096416,141.2396993,
北海道,札幌市,22-01,手稲区星置２条１丁目 星置東小学校体育館開放玄関前,星置東小学校体育館開放玄関前,43.1348723,141.2167049,
北海道,札幌市,22-02,手稲区星置２条２丁目 星置水星公園,星置水星公園,43.1365061,141.2142612,
北海道,札幌市,22-03,手稲区星置２条３丁目 星置太陽公園,星置太陽公園,43.1375246,141.211121,
北海道,札幌市,22-04,手稲区星置１条１丁目 星置銀河公園,星置銀河公園,43.1336023,141.2140902,
北海道,札幌市,22-05,手稲区星置１条１丁目 星置金星公園,星置金星公園,43.1334624,141.2172401,
北海道,札幌市,22-06,手稲区曙２条５丁目 曙地球公園,曙地球公園,43.1330108,141.219458,
北海道,札幌市,23-01,手稲区前田５条７丁目 稲積小学校前,稲積小学校前,43.121124,141.259979,緯度経度は怪しい
北海道,札幌市,23-02,手稲区前田５条７丁目 稲積小学校グラウンド側,稲積小学校グラウンド側,43.121124,141.259979,緯度経度は怪しい
北海道,札幌市,23-03,手稲区前田２条７丁目 稲積明治南公園（北側）,稲積明治南公園（北側）,43.117065,141.2542556,
北海道,札幌市,23-04,手稲区前田２条７丁目 稲積明治南公園（南側）,稲積明治南公園（南側）,43.117065,141.2542556,
北海道,札幌市,23-05,手稲区前田４条８丁目 前田つくし公園,前田つくし公園,43.121046,141.255747,
北海道,札幌市,24-01,手稲区曙１１条２丁目 手稲山口小学校前,手稲山口小学校前,43.144459,141.233444,緯度経度は怪しい
北海道,札幌市,24-02,手稲区曙１１条２丁目 手稲山口小学校東側,手稲山口小学校東側,43.144459,141.233444,緯度経度は怪しい
北海道,札幌市,24-03,手稲区曙１０条１丁目 曙はまなす公園,曙はまなす公園,43.144824,141.238902,
北海道,札幌市,24-04,手稲区曙１１条１丁目 市営住宅山口団地会館変電室前,市営住宅山口団地会館変電室前,43.14764,141.239319,緯度経度は怪しい
北海道,札幌市,24-05,手稲区曙１１条１丁目 市営住宅山口団地1号棟前,市営住宅山口団地1号棟前,43.14764,141.239319,緯度経度は怪しい
北海道,札幌市,24-06,手稲区曙１２条１丁目 市営住宅山口団地５号棟前,市営住宅山口団地５号棟前,43.149136,141.237,緯度経度は怪しい
北海道,札幌市,01-01,東区北１１条東７丁目１番 東区役所　正面,東区役所　正面,43.0764148,141.3634598,
北海道,札幌市,01-02,東区北９条東３丁目１番 瑞玄寺　東側フェンス,瑞玄寺　東側フェンス,43.0731102,141.3587092,
北海道,札幌市,01-03,東区北９条東５丁目７番地 鉄東まちづくりセンター,鉄東まちづくりセンター,43.073563,141.361435,緯度経度は怪しい
北海道,札幌市,01-04,東区北１０条東９丁目２番 札東ちびっこ公園　南側,札東ちびっこ公園　南側,43.075768,141.366943,緯度経度は怪しい
北海道,札幌市,01-05,東区北１１条東８丁目1番 光星緑地　北側,光星緑地　北側,43.076344,141.364487,緯度経度は怪しい
北海道,札幌市,01-06,東区北１０条東８丁目１番 市住　光星団地　９号棟,市住　光星団地　９号棟,43.075255,141.3651345,
北海道,札幌市,01-07,東区北１１条東２丁目２番 カトリック北１１条教会　東側,カトリック北１１条教会　東側,43.0752349,141.3565493,
北海道,札幌市,02-01,東区北１２条東３丁目１番 天使病院　南側,天使病院　南側,43.0765107,141.3573439,
北海道,札幌市,02-02,東区北１３条東４丁目１番 北光公園　東側,北光公園　東側,43.077923,141.358719,緯度経度は怪しい
北海道,札幌市,02-03,東区北１４条東６丁目１番 北電北１４条アパート　駐車場,北電北１４条アパート　駐車場,43.079453,141.360867,
北海道,札幌市,02-04,東区北１２条東８丁目１番 光星緑地　北１３条北郷通側,光星緑地　北１３条北郷通側,43.0775293,141.3651177,
北海道,札幌市,02-05,東区北１２条東６丁目１番 北光小学校　グラウンド西側,北光小学校　グラウンド西側,43.077206,141.362137,緯度経度は怪しい
北海道,札幌市,02-06,東区北１２条東６丁目１番 北光小学校　グラウンド南側,北光小学校　グラウンド南側,43.077206,141.362137,緯度経度は怪しい
北海道,札幌市,02-07,東区北１２条東９丁目１番 光星公園　南側,光星公園　南側,43.077702,141.365829,緯度経度は怪しい
北海道,札幌市,02-08,東区北１３条東３丁目１番 天使大学　東側茶色フェンス,天使大学　東側茶色フェンス,43.077508,141.357461,
北海道,札幌市,03-01,東区北１６条東２丁目１番 北斗高校　グラウンド,北斗高校　グラウンド,43.080929,141.354736,緯度経度は怪しい
北海道,札幌市,03-02,東区北１６条東９丁目１番 札幌大谷大学　北側　柵を利用,札幌大谷大学　北側　柵を利用,43.0822493,141.3664864,
北海道,札幌市,03-03,東区北１５条東４丁目２番 北１５条すくらむ公園　東側,北１５条すくらむ公園　東側,43.080494,141.358078,緯度経度は怪しい
北海道,札幌市,03-04,東区北１７条東６丁目１番 美香保中学校　正門,美香保中学校　正門,43.082924,141.360687,緯度経度は怪しい
北海道,札幌市,03-05,東区北１７条東６丁目１番 美香保中学校グラウンド,美香保中学校グラウンド,43.082924,141.360687,緯度経度は怪しい
北海道,札幌市,03-06,東区北１５条東８丁目２番 大谷高等学校　南向　柵利用,大谷高等学校　南向　柵利用,43.081219,141.364365,緯度経度は怪しい
北海道,札幌市,04-01,東区北２０条東４丁目２番 美香保公園　西側,美香保公園　西側,43.0871013,141.3564305,
北海道,札幌市,04-02,東区北１９条東１丁目５番 北海道電力（株）　北光寮,北海道電力（株）　北光寮,43.0841094,141.3523021,
北海道,札幌市,04-03,東区北１８条東６丁目１番 美香保小学校グラウンド東側,美香保小学校グラウンド東側,43.0844669,141.3598445,
北海道,札幌市,04-04,東区北１８条東６丁目１番 美香保小学校　正門,美香保小学校　正門,43.0844669,141.3598445,
北海道,札幌市,04-05,東区北１８条東８丁目３番 こまどり公園　北側,こまどり公園　北側,43.084846,141.36409,緯度経度は怪しい
北海道,札幌市,04-06,東区北２１条東５丁目１番 美香保公園　グラウンド東側,美香保公園　グラウンド東側,43.0878816,141.357975,
北海道,札幌市,04-07,東区北２０条東４丁目２番 美香保公園　南側,美香保公園　南側,43.0871013,141.3564305,
北海道,札幌市,04-08,東区北１８条東２丁目４番 北18条さくら公園　東側,北18条さくら公園　東側,43.08329,141.354675,緯度経度は怪しい
北海道,札幌市,05-01,東区北２２条東５丁目１番 美香保体育館　東側,美香保体育館　東側,43.0894003,141.3573425,
北海道,札幌市,05-02,東区北２３条東２丁目５番 しらかば公園　西側,しらかば公園　西側,43.090569,141.352356,緯度経度は怪しい
北海道,札幌市,05-03,東区北２４条東２丁目２番 たもの木公園　南側,たもの木公園　南側,43.091957,141.351715,緯度経度は怪しい
北海道,札幌市,05-04,東区北２４条東６丁目２番 つくし公園　北東側,つくし公園　北東側,43.092922,141.358353,緯度経度は怪しい
北海道,札幌市,05-05,東区北２５条東４丁目３番 北園小学校　正門,北園小学校　正門,43.092899,141.355545,緯度経度は怪しい
北海道,札幌市,05-06,東区北２５条東４丁目３番 北園小学校　西門,北園小学校　西門,43.092899,141.355545,緯度経度は怪しい
北海道,札幌市,05-07,東区北２４条東１丁目３番 札幌科学技術専門学校　西側,札幌科学技術専門学校　西側,43.0920723,141.350035,
北海道,札幌市,05-08,東区北２３条東５丁目２番 すみれ公園　西側,すみれ公園　西側,43.091141,141.356522,緯度経度は怪しい
北海道,札幌市,06-01,東区北２８条東１丁目１番 北海道運輸局札幌運輸支局,北海道運輸局札幌運輸支局,43.096088,141.347641,緯度経度は怪しい
北海道,札幌市,06-02,東区北２７条東３丁目２番 大学村公園　南側,大学村公園　南側,43.09576,141.353241,緯度経度は怪しい
北海道,札幌市,06-03,東区北３１条東２丁目３番 市住　北栄団地　６号棟,市住　北栄団地　６号棟,43.099072,141.349854,緯度経度は怪しい
北海道,札幌市,06-04,東区北３１条東３丁目３番 市住　北栄団地　４号棟駐車場,市住　北栄団地　４号棟駐車場,43.099022,141.351426,
北海道,札幌市,06-05,東区北３１条東１丁目３番 北３１条すえひろ公園　東側,北３１条すえひろ公園　東側,43.0986971,141.3475982,
北海道,札幌市,06-06,東区北３３条東２丁目１番 北栄中学校　正門,北栄中学校　正門,43.1008122,141.3500527,
北海道,札幌市,06-07,東区北３３条東２丁目１番 北栄中学校　体育館,北栄中学校　体育館,43.1008122,141.3500527,
北海道,札幌市,07-01,東区北２８条東４丁目１番 大学村の森　北東側,大学村の森　北東側,43.09726,141.353455,緯度経度は怪しい
北海道,札幌市,07-02,東区北２８条東６丁目１番 北２８条東６丁目公園　南側,北２８条東６丁目公園　南側,43.09737,141.356674,緯度経度は怪しい
北海道,札幌市,07-03,東区北２８条東７丁目１番 北２８条なかよし公園　西側,北２８条なかよし公園　西側,43.097572,141.3582,緯度経度は怪しい
北海道,札幌市,07-04,東区北３２条東５丁目４番 月極駐車場,月極駐車場,43.1003124,141.3555184,
北海道,札幌市,07-05,東区北３３条東４丁目１番 北小学校　正門,北小学校　正門,43.1012538,141.3527052,
北海道,札幌市,07-06,東区北３３条東４丁目１番 北小学校　体育館,北小学校　体育館,43.1012538,141.3527052,
北海道,札幌市,07-07,東区北２８条東４丁目１番 大学村の森　西側,大学村の森　西側,43.09726,141.353455,緯度経度は怪しい
北海道,札幌市,08-01,東区北３７条東１丁目６番 北３７条さくら公園　北側,北３７条さくら公園　北側,43.105568,141.347061,緯度経度は怪しい
北海道,札幌市,08-02,東区北４０条東２丁目１番 北４０条東公園　南東側,北４０条東公園　南東側,43.108101,141.348267,緯度経度は怪しい
北海道,札幌市,08-03,東区北３５条東５丁目２番 北栄保育園,北栄保育園,43.1044004,141.3530046,
北海道,札幌市,08-04,東区北３５条東７丁目２番 北３５条むつみ公園　東側,北３５条むつみ公園　東側,43.104706,141.356903,緯度経度は怪しい
北海道,札幌市,08-05,東区北４０条東２丁目１番 北４０条東公園　グラウンド西側,北４０条東公園　グラウンド西側,43.108101,141.348267,緯度経度は怪しい
北海道,札幌市,08-06,東区北３９条東５丁目１番 北３９条アカシヤ公園　西側,北３９条アカシヤ公園　西側,43.1077897,141.3525418,
北海道,札幌市,08-07,東区北３９条東４丁目 栄西小学校グラウンド　南側,栄西小学校グラウンド　南側,43.107651,141.351379,緯度経度は怪しい
北海道,札幌市,09-01,東区北４２条東４丁目１番 栄４２条公園　東側,栄４２条公園　東側,43.111221,141.350342,緯度経度は怪しい
北海道,札幌市,09-02,東区北４４条東７丁目２番 北４４条なでしこ公園　北側,北４４条なでしこ公園　北側,43.114353,141.354401,緯度経度は怪しい
北海道,札幌市,09-03,東区北４４条東４丁目３番 北４４条新栄公園　東側,北４４条新栄公園　東側,43.1142172,141.3501311,
北海道,札幌市,09-04,東区北４５条東２丁目３番 栄北希望公園　東側,栄北希望公園　東側,43.114891,141.346573,緯度経度は怪しい
北海道,札幌市,09-05,東区北４６条東１丁目１番 北４６条つくし公園　南側,北４６条つくし公園　南側,43.115395,141.344803,緯度経度は怪しい
北海道,札幌市,09-06,東区北４５条東３丁目２番 栄西公園　北西隅,栄西公園　北西隅,43.114429,141.348526,緯度経度は怪しい
北海道,札幌市,09-07,東区北４６条東６丁目１番 栄中学校　西側,栄中学校　西側,43.1171309,141.3521201,
北海道,札幌市,09-08,東区北４４条東２丁目１番 札幌塩原学園　栄光幼稚園,札幌塩原学園　栄光幼稚園,43.1131549,141.3476741,
北海道,札幌市,10-01,東区北４９条東２丁目１番 北海道中央バス（株）札幌北営業所,北海道中央バス（株）札幌北営業所,43.1187469,141.3442316,
北海道,札幌市,10-02,東区北４７条東６丁目１番 栄北小学校　正門,栄北小学校　正門,43.1175905,141.3514053,
北海道,札幌市,10-03,東区北５１条東７丁目１番 栄町ポプラ公園　西側,栄町ポプラ公園　西側,43.1229462,141.3516916,
北海道,札幌市,10-04,東区北５１条東３丁目３番 北５１条すくすく公園　東側,北５１条すくすく公園　東側,43.122501,141.347214,緯度経度は怪しい
北海道,札幌市,10-05,東区北４９条東４丁目３番 北４９条ミチル公園　北側,北４９条ミチル公園　北側,43.1206009,141.3488514,
北海道,札幌市,10-06,東区北４７条東６丁目１番 栄北小学校　グラウンド　北東側,栄北小学校　グラウンド　北東側,43.1175905,141.3514053,
北海道,札幌市,11-01,東区北４３条東１７丁目１番 道住　栄町団地　R-４,道住　栄町団地　R-４,43.1159604,141.3687883,
北海道,札幌市,11-02,東区北４７条東１５丁目３番 道路用地（北４７東１５バス停後ろ）,道路用地（北４７東１５バス停後ろ）,43.1195277,141.3649674,
北海道,札幌市,11-03,東区北４６条東１３丁目１番 栄東小学校　正門,栄東小学校　正門,43.117737,141.361374,緯度経度は怪しい
北海道,札幌市,11-04,東区北４６条東１０丁目２番 第１新和公園　西側,第１新和公園　西側,43.117764,141.358871,緯度経度は怪しい
北海道,札幌市,11-05,東区北４５条東９丁目２番 北４５条元園ゆたか公園　北側,北４５条元園ゆたか公園　北側,43.116104,141.357285,緯度経度は怪しい
北海道,札幌市,11-06,東区北４８条東１５丁目１番 北４８条第４新和公園　南側,北４８条第４新和公園　南側,43.120354,141.363983,緯度経度は怪しい
北海道,札幌市,11-07,東区北４５条東１６丁目１番 栄町さくら公園　東側,栄町さくら公園　東側,43.117188,141.366592,緯度経度は怪しい
北海道,札幌市,11-08,東区北４５条東１２丁目１番 市住　栄町団地,市住　栄町団地,43.1160294,141.3602852,
北海道,札幌市,11-09,東区北４６条東１３丁目１番 栄東小学校グラウンド　北側,栄東小学校グラウンド　北側,43.117737,141.361374,緯度経度は怪しい
北海道,札幌市,12-01,東区北４１条東１４丁目１番 東老人福祉センター　西側,東老人福祉センター　西側,43.1115644,141.3638912,
北海道,札幌市,12-02,東区北４２条東１０丁目２番 栄小学校　正門,栄小学校　正門,43.11253,141.360077,緯度経度は怪しい
北海道,札幌市,12-03,東区北４１条東１０丁目１番 ひのまる公園　東側,ひのまる公園　東側,43.110882,141.359894,緯度経度は怪しい
北海道,札幌市,12-04,東区北４４条東１０丁目３番 北４４条元園公園　北側,北４４条元園公園　北側,43.115322,141.358719,緯度経度は怪しい
北海道,札幌市,12-05,東区北４１条東１０丁目１番 ひのまる公園　南西側,ひのまる公園　南西側,43.110882,141.359894,緯度経度は怪しい
北海道,札幌市,12-06,東区北４３条東１４丁目２番 烈々布公園　西側,烈々布公園　西側,43.11441,141.363846,緯度経度は怪しい
北海道,札幌市,12-07,東区北４２条東１０丁目２番 栄小学校　グラウンド,栄小学校　グラウンド,43.11253,141.360077,緯度経度は怪しい
北海道,札幌市,13-01,東区北４１条東１７丁目４番 道路用地,道路用地,43.1130278,141.3699342,
北海道,札幌市,13-02,東区北３４条東１８丁目３番 栄町ひばり公園　東側,栄町ひばり公園　東側,43.105442,141.373138,緯度経度は怪しい
北海道,札幌市,13-03,東区北３６条東１６丁目１番 栄南中学校　正門,栄南中学校　正門,43.106789,141.369812,緯度経度は怪しい
北海道,札幌市,13-04,東区北３６条東１８丁目１番 栄町あかしや公園　西側,栄町あかしや公園　西側,43.106998,141.372604,緯度経度は怪しい
北海道,札幌市,13-05,東区北３３条東１８丁目１番 札幌市東区土木センター,札幌市東区土木センター,43.1041401,141.3730676,
北海道,札幌市,13-06,東区北４１条東１９丁目３番 道路用地（北４１東２０バス停後ろ）　北向,道路用地（北４１東２０バス停後ろ）　北向,43.113426,141.372864,緯度経度は怪しい
北海道,札幌市,13-07,東区北３５条東１７丁目２番 ひばりちびっこ公園　西側,ひばりちびっこ公園　西側,43.106026,141.37117,緯度経度は怪しい
北海道,札幌市,14-01,東区北31条東９丁目１番 北栄幼稚園　グラウンド,北栄幼稚園　グラウンド,43.1001875,141.3607736,
北海道,札幌市,14-02,東区北３１条東１４丁目１番 元町北小学校　北西側花壇,元町北小学校　北西側花壇,43.1012859,141.3668108,
北海道,札幌市,14-03,東区北３０条東１４丁目１番 北３０条やすらぎ公園　東側,北３０条やすらぎ公園　東側,43.099842,141.367264,緯度経度は怪しい
北海道,札幌市,14-04,東区北30条東14丁目１番 北30条やすらぎ公園　西側,北30条やすらぎ公園　西側,43.099842,141.367264,緯度経度は怪しい
北海道,札幌市,14-05,東区北27条東14丁目３番 東区体育館　南向,東区体育館　南向,43.097503,141.3685995,
北海道,札幌市,14-06,東区北33条東14丁目5番 北33条緑地　東側,北33条緑地　東側,43.1038709,141.3672109,
北海道,札幌市,15-01,東区北２４条東１９丁目２番 市住　元町中央団地　２号棟,市住　元町中央団地　２号棟,43.0958019,141.3800063,
北海道,札幌市,15-02,東区北２６条東１９丁目５番 北２６条子どものくに公園,北２６条子どものくに公園,43.0971536,141.3795853,
北海道,札幌市,15-03,東区北２５条東１７丁目１番 元町小学校　正門,元町小学校　正門,43.096046,141.374207,緯度経度は怪しい
北海道,札幌市,15-04,東区北２５条東１７丁目１番 元町小学校　プール,元町小学校　プール,43.096046,141.374207,緯度経度は怪しい
北海道,札幌市,15-05,東区北２３条東１７丁目２番 青空公園,青空公園,43.0935397,141.3744927,
北海道,札幌市,15-06,東区北２４条東１５丁目２番 こばと公園　西側,こばと公園　西側,43.094501,141.370392,緯度経度は怪しい
北海道,札幌市,15-07,東区北２５条東１８丁目１番 北２５条かぶと虫公園　南側,北２５条かぶと虫公園　南側,43.095783,141.375824,緯度経度は怪しい
北海道,札幌市,16-01,東区北２１条東１０丁目４番 明園公園　東側,明園公園　東側,43.089371,141.365906,緯度経度は怪しい
北海道,札幌市,16-02,東区北２２条東１２丁目１番 明園中学校　正門,明園中学校　正門,43.090889,141.36618,緯度経度は怪しい
北海道,札幌市,16-03,東区北２２条東８丁目５番 みはる公園　南側,みはる公園　南側,43.090214,141.362732,緯度経度は怪しい
北海道,札幌市,16-04,東区北２３条東８丁目３番 ひまわり公園　東側,ひまわり公園　東側,43.0921143,141.3622273,
北海道,札幌市,16-05,東区北２４条東１０丁目２番 鹿の原公園　西側,鹿の原公園　西側,43.093864,141.364197,緯度経度は怪しい
北海道,札幌市,16-06,東区北２２条東１４丁目１番 北園公園　グラウンド,北園公園　グラウンド,43.091385,141.369858,緯度経度は怪しい
北海道,札幌市,16-07,東区北２２条東１４丁目１番 北園公園　北側,北園公園　北側,43.091385,141.369858,緯度経度は怪しい
北海道,札幌市,16-08,東区北２２条東１２丁目１番 明園中学校　北西側　グラウンド,明園中学校　北西側　グラウンド,43.090889,141.36618,緯度経度は怪しい
北海道,札幌市,17-01,東区北１５条東１２丁目１番 東くるみ公園　西側,東くるみ公園　西側,43.0816,141.368637,緯度経度は怪しい
北海道,札幌市,17-02,東区北１７条東１２丁目１番 市住　美香保団地　４号棟,市住　美香保団地　４号棟,43.0842352,141.368915,
北海道,札幌市,17-03,東区北１８条東１２丁目１番 市住　美香保団地　２号棟,市住　美香保団地　２号棟,43.084786,141.3686058,
北海道,札幌市,17-04,東区北１６条東１８丁目２番 北１６条おはよう公園　北側,北１６条おはよう公園　北側,43.08437,141.378708,緯度経度は怪しい
北海道,札幌市,17-05,東区北１６条東１５丁目４番 あざみ公園　西側,あざみ公園　西側,43.08337,141.373077,緯度経度は怪しい
北海道,札幌市,17-06,東区北１９条東１４丁目１番 明園小学校　体育館入口,明園小学校　体育館入口,43.0863938,141.3714186,
北海道,札幌市,17-07,東区北１８条東１６丁目３番 めぐみ公園　南西側,めぐみ公園　南西側,43.086243,141.375046,緯度経度は怪しい
北海道,札幌市,17-08,東区北１９条東１０丁目４番 北栄公園　西側,北栄公園　西側,43.086765,141.365982,緯度経度は怪しい
北海道,札幌市,18-01,東区北７条東２０丁目１番 道住　苗穂第２グリーン団地　R-8,道住　苗穂第２グリーン団地　R-8,43.0771677,141.383829,
北海道,札幌市,18-02,東区北６条東１９丁目１番 市住　苗穂団地　４号棟,市住　苗穂団地　４号棟,43.0763294,141.3845532,
北海道,札幌市,18-03,東区北１３条東１６丁目３番 大友公園　東側,大友公園　東側,43.08102,141.377167,緯度経度は怪しい
北海道,札幌市,18-04,東区本町２条１丁目２番 東光小学校　正門,東光小学校　正門,43.0816107,141.3805675,
北海道,札幌市,18-05,東区北１３条東１４丁目１番 札幌市交通局高速電車光星変電所,札幌市交通局高速電車光星変電所,43.079913,141.3729356,
北海道,札幌市,18-06,東区北１３条東１３丁目３番 北１３条たまぞの公園　北側,北１３条たまぞの公園　北側,43.079876,141.372223,緯度経度は怪しい
北海道,札幌市,18-07,東区北８条東１９丁目３番 苗穂グリーン公園　西側,苗穂グリーン公園　西側,43.077835,141.382385,緯度経度は怪しい
北海道,札幌市,19-01,東区北８条東１７丁目２番 白鳩公園　東側,白鳩公園　東側,43.076397,141.380096,緯度経度は怪しい
北海道,札幌市,19-02,東区北９条東１５丁目１番 希望公園　北東側,希望公園　北東側,43.075764,141.377258,緯度経度は怪しい
北海道,札幌市,19-03,東区北９条東１５丁目１番 希望公園　南側,希望公園　南側,43.075764,141.377258,緯度経度は怪しい
北海道,札幌市,19-04,東区北９条東１３丁目１番 苗穂小学校　北東側,苗穂小学校　北東側,43.0749027,141.3740052,
北海道,札幌市,19-05,東区北１１条東１２丁目３番 すずかけ公園　北西側,すずかけ公園　北西側,43.076969,141.372787,緯度経度は怪しい
北海道,札幌市,19-06,東区北９条東１１丁目２番 新穂公園　西側,新穂公園　西側,43.075027,141.370621,緯度経度は怪しい
北海道,札幌市,19-07,東区北８条東９丁目２番 ホップ公園　北側,ホップ公園　北側,43.073711,141.368484,緯度経度は怪しい
北海道,札幌市,20-01,東区伏古１条２丁目１番 札幌小学校　東側,札幌小学校　東側,43.082802,141.387329,緯度経度は怪しい
北海道,札幌市,20-02,東区伏古４条２丁目２番 リング公園　北側,リング公園　北側,43.087814,141.389389,緯度経度は怪しい
北海道,札幌市,20-03,東区伏古２条４丁目５番 わかにれ公園　南側,わかにれ公園　南側,43.082989,141.391129,緯度経度は怪しい
北海道,札幌市,20-04,伏古４条４丁目４番 チビデカ公園　東側,チビデカ公園　東側,43.08553189,141.3939826,
北海道,札幌市,20-05,伏古１条２丁目１番 伏古公園　北西側,伏古公園　北西側,43.08541492,141.3858208,
北海道,札幌市,20-06,東区北２０条東２２丁目２番 さんさん公園　北西側,さんさん公園　北西側,43.087547,141.385529,緯度経度は怪しい
北海道,札幌市,21-01,東区北２２条東２１丁目１番 市立札幌開成中等教育学校　西側,市立札幌開成中等教育学校　西側,43.0924188,141.3830812,
北海道,札幌市,21-02,東区北２４条東２１丁目３番 北２４条玉ちゃん公園　東側,北２４条玉ちゃん公園　東側,43.095161,141.384918,緯度経度は怪しい
北海道,札幌市,21-03,東区伏古７条２丁目１番 一の村公園　北側,一の村公園　北側,43.09053,141.390167,緯度経度は怪しい
北海道,札幌市,21-04,東区伏古８条１丁目１番 札幌中学校　正門,札幌中学校　正門,43.0953172,141.3890325,
北海道,札幌市,21-05,東区伏古１０条２丁目６番 伏古りんどう公園　北側,伏古りんどう公園　北側,43.095852,141.393326,緯度経度は怪しい
北海道,札幌市,21-06,東区伏古１０条２丁目１７番 ミッキー公園　南側,ミッキー公園　南側,43.094826,141.394623,緯度経度は怪しい
北海道,札幌市,21-07,東区伏古８条１丁目２番 伏古川水再生プラザ　南西側,伏古川水再生プラザ　南西側,43.0943545,141.3897759,
北海道,札幌市,21-08,東区北２６条東２２丁目４番 北２６条ホームラン公園　北側,北２６条ホームラン公園　北側,43.098564,141.386719,緯度経度は怪しい
北海道,札幌市,22-01,東区丘珠町 丘珠空港入口東側（道路用地）,丘珠空港入口東側（道路用地）,43.120789,141.39444,緯度経度は怪しい
北海道,札幌市,22-02,東区北３８条東２０丁目３番 栄ヶ丘ふれあい公園　西側,栄ヶ丘ふれあい公園　西側,43.110168,141.376282,緯度経度は怪しい
北海道,札幌市,22-03,東区北３５条東２１丁目１番 栄町青い鳥公園　南側,栄町青い鳥公園　南側,43.1056278,141.3793357,
北海道,札幌市,22-04,東区北３６条東２２丁目９番 丘珠すずかけ公園　西側,丘珠すずかけ公園　西側,43.106602,141.38237,緯度経度は怪しい
北海道,札幌市,22-05,東区北３７条東２０丁目３番 栄南小学校　正門,栄南小学校　正門,43.1087114,141.3766261,
北海道,札幌市,22-06,東区北３６条東２１丁目５番 栄ケ丘公園　南側,栄ケ丘公園　南側,43.107979,141.379318,緯度経度は怪しい
北海道,札幌市,22-07,東区北３６条東２０丁目２番 栄南緑地　南東側,栄南緑地　南東側,43.1080281,141.3770197,
北海道,札幌市,23-01,東区北３４条東２７丁目５番 丘珠よつば公園　東側,丘珠よつば公園　東側,43.100975,141.388321,緯度経度は怪しい
北海道,札幌市,23-02,東区伏古１２条２丁目９番 伏古若草公園　北西側,伏古若草公園　北西側,43.1005322,141.3973089,
北海道,札幌市,23-03,東区北３７条東２７丁目１番 認定こども園おかだまのもり,認定こども園おかだまのもり,43.1035592,141.3898142,
北海道,札幌市,23-04,東区北３７条東３０丁目２番 丘珠公園　西側,丘珠公園　西側,43.102688,141.3992,緯度経度は怪しい
北海道,札幌市,23-05,東区北３７条東２９丁目１１番 丘珠１号公園　南側,丘珠１号公園　南側,43.1020436,141.3967111,
北海道,札幌市,23-06,東区伏古１１条１丁目２番 伏古北小学校　北西側,伏古北小学校　北西側,43.098849,141.3931843,
北海道,札幌市,23-07,東区北３４条東２８丁目６番 市住　東新道団地３号棟　西側,市住　東新道団地３号棟　西側,43.0999259,141.3916685,
北海道,札幌市,24-01,東区丘珠町１８３番地２ 丘珠まちづくりセンター,丘珠まちづくりセンター,43.107614,141.3903202,
北海道,札幌市,24-02,東区北丘珠２条２丁目３番 丘珠みづほちびっこ公園　東側,丘珠みづほちびっこ公園　東側,43.122784,141.406998,緯度経度は怪しい
北海道,札幌市,24-03,東区丘珠町８７３番地 札幌市東清掃事務所,札幌市東清掃事務所,43.1243016,141.3876034,
北海道,札幌市,24-04,東区北丘珠２条２丁目１３番 丘珠みずほ公園　南東側,丘珠みずほ公園　南東側,43.1246477,141.4063292,
北海道,札幌市,24-05,東区北丘珠２条３丁目１番 丘珠ゆたか緑地,丘珠ゆたか緑地,43.1240707,141.4091092,
北海道,札幌市,24-06,東区北丘珠３条１丁目２３番 新栄第二公園,新栄第二公園,43.124748,141.403442,緯度経度は怪しい
北海道,札幌市,24-07,東区北丘珠４条１丁目１３番 北丘珠みどり公園　北西側,北丘珠みどり公園　北西側,43.126308,141.399872,緯度経度は怪しい
北海道,札幌市,24-08,東区丘珠町５９３番地 丘珠小学校　南西向,丘珠小学校　南西向,43.122215,141.403625,緯度経度は怪しい
北海道,札幌市,25-01,東区中沼町７３番地 中沼小学校　体育館側入口,中沼小学校　体育館側入口,43.131104,141.430649,緯度経度は怪しい
北海道,札幌市,25-02,東区中沼町６９番地 道路用地,道路用地,43.131104,141.430649,緯度経度は怪しい
北海道,札幌市,25-03,東区中沼６条１丁目４番 中沼団地第３公園　北側,中沼団地第３公園　北側,43.130093,141.441742,緯度経度は怪しい
北海道,札幌市,25-04,東区中沼６条３丁目５番 中沼団地第１公園　東側,中沼団地第１公園　東側,43.131012,141.445816,緯度経度は怪しい
北海道,札幌市,25-05,東区中沼町２８番地 道路用地（中沼交流センター　北側）,道路用地（中沼交流センター　北側）,43.122528,141.443817,緯度経度は怪しい
北海道,札幌市,25-06,東区中沼西３条１丁目１番 中沼公園　北側,中沼公園　北側,43.129585,141.412811,緯度経度は怪しい
北海道,札幌市,25-07,東区中沼西１条１丁目１２番 中沼おおぞら公園　北側,中沼おおぞら公園　北側,43.126423,141.415466,緯度経度は怪しい
北海道,札幌市,26-01,東区中沼町９１番地 道路用地（バス停「福移学園」付近）,道路用地（バス停「福移学園」付近）,43.143311,141.428406,緯度経度は怪しい
北海道,札幌市,26-02,東区中沼町２４０番地 義務教育学校福移学園　正門,義務教育学校福移学園　正門,43.150394,141.438065,緯度経度は怪しい
北海道,札幌市,27-01,東区東雁来８条４丁目１２番 東雁来すずらん公園　北側,東雁来すずらん公園　北側,43.092136,141.430344,緯度経度は怪しい
北海道,札幌市,27-02,東区東苗穂９条３丁目６番 札苗ゆたか公園　南側,札苗ゆたか公園　南側,43.0973658,141.4185258,
北海道,札幌市,27-03,東区東苗穂１０条３丁目１６番 札苗北中学校　北側　体育館入口,札苗北中学校　北側　体育館入口,43.100124,141.421005,緯度経度は怪しい
北海道,札幌市,27-04,東区東雁来９条２丁目１４番 東雁来めぐみ公園　西側,東雁来めぐみ公園　西側,43.096344,141.425598,緯度経度は怪しい
北海道,札幌市,27-05,東区東苗穂１２条２丁目３番 東苗穂あつまれ公園　東側,東苗穂あつまれ公園　東側,43.1058665,141.4181114,
北海道,札幌市,27-06,東区東苗穂９条１丁目５番 東苗穂やまばと公園　南西側,東苗穂やまばと公園　南西側,43.100689,141.410278,緯度経度は怪しい
北海道,札幌市,27-07,東区東苗穂９条３丁目２番 札苗北小学校　正門,札苗北小学校　正門,43.098549,141.417206,緯度経度は怪しい
北海道,札幌市,27-08,東区東苗穂１２条１丁目４番 東苗穂はやぶさ公園　南東側,東苗穂はやぶさ公園　南東側,43.107101,141.415665,緯度経度は怪しい
北海道,札幌市,27-09,東区東雁来11条１丁目１番 雁穂公園　北西側,雁穂公園　北西側,43.100704,141.423859,緯度経度は怪しい
北海道,札幌市,28-01,東区東苗穂８条１丁目11番 東苗穂あかげら公園　東側,東苗穂あかげら公園　東側,43.098263,141.409286,緯度経度は怪しい
北海道,札幌市,28-02,東区伏古１４条３丁目１２番 市住　丘珠団地１号棟　西側,市住　丘珠団地１号棟　西側,43.1032811,141.4039796,
北海道,札幌市,28-03,東区伏古１１条３丁目１番 ふしこ地区センター　北西側駐車場,ふしこ地区センター　北西側駐車場,43.0966326,141.3981506,
北海道,札幌市,28-04,東区伏古１３条５丁目７番 伏古せきれい公園　北西側,伏古せきれい公園　北西側,43.0998,141.405701,緯度経度は怪しい
北海道,札幌市,28-05,東区東苗穂７条１丁目１番 札苗中学校　グラウンド,札苗中学校　グラウンド,43.09692,141.406235,緯度経度は怪しい
北海道,札幌市,28-06,東区伏古１４条５丁目４番 伏古みみずく公園　南西側,伏古みみずく公園　南西側,43.101788,141.407394,緯度経度は怪しい
北海道,札幌市,28-07,東区伏古１３条３丁目７番 伏古かっこう公園　東側,伏古かっこう公園　東側,43.100979,141.401703,緯度経度は怪しい
北海道,札幌市,29-01,東区東苗穂６条２丁目１２番 東苗穂いすず公園　北側,東苗穂いすず公園　北側,43.0924078,141.4080126,
北海道,札幌市,29-02,東区東苗穂７条２丁目１番 札苗中央公園　北側,札苗中央公園　北側,43.093964,141.409134,緯度経度は怪しい
北海道,札幌市,29-03,東区東苗穂７条２丁目３番 札苗小学校　正門,札苗小学校　正門,43.094147,141.411407,緯度経度は怪しい
北海道,札幌市,29-04,東区東苗穂７条３丁目３番 東苗穂つつじ公園　北側（北東向）,東苗穂つつじ公園　北側（北東向）,43.0929105,141.4141847,
北海道,札幌市,29-05,東区東苗穂８条３丁目１６番 札苗さくらんぼ公園　西側,札苗さくらんぼ公園　西側,43.0945078,141.4149437,
北海道,札幌市,29-06,東区東苗穂８条３丁目３番 札苗公園　北側,札苗公園　北側,43.0966,141.415604,緯度経度は怪しい
北海道,札幌市,29-07,東区東雁来８条１丁目１０番 東雁来さつき公園　西側,東雁来さつき公園　西側,43.093971,141.421097,緯度経度は怪しい
北海道,札幌市,29-08,東区東雁来７条１丁目５番 東雁来わかば公園　南側,東雁来わかば公園　南側,43.09198,141.41806,緯度経度は怪しい
北海道,札幌市,30-01,東区本町２条４丁目４番 あさひ公園　南東側,あさひ公園　南東側,43.078999,141.388718,緯度経度は怪しい
北海道,札幌市,30-02,東区本町２条７丁目１番 本町小学校　正門前,本町小学校　正門前,43.0763316,141.3931049,
北海道,札幌市,30-03,東区本町２条７丁目２番 苗穂・本町地区センター　正面,苗穂・本町地区センター　正面,43.077862,141.393014,
北海道,札幌市,30-04,東区東苗穂１条３丁目３番 市住　東苗穂団地　１号棟,市住　東苗穂団地　１号棟,43.07901,141.401901,緯度経度は怪しい
北海道,札幌市,30-05,東区東苗穂１条２丁目６番 道住　東苗穂団地　R-１９,道住　東苗穂団地　R-１９,43.0800369,141.3997366,
北海道,札幌市,30-06,東区東苗穂２条２丁目３番 中央バス　東営業所　南東向,中央バス　東営業所　南東向,43.0828451,141.4030466,
北海道,札幌市,30-07,東区東苗穂２条１丁目５番 札幌刑務所　北側・斜め筋向いに向けて,札幌刑務所　北側・斜め筋向いに向けて,43.0823557,141.399157,
北海道,札幌市,31-01,東区苗穂町３丁目３番 サツラク農協駐車場,サツラク農協駐車場,43.0737917,141.3834135,
北海道,札幌市,31-02,東区苗穂町３丁目４番 苗穂公園　北東側,苗穂公園　北東側,43.0744195,141.3853308,
北海道,札幌市,31-03,東区本町１条５丁目１番 ふしこ幼稚園　園庭・南向,ふしこ幼稚園　園庭・南向,43.0767568,141.3882476,
北海道,札幌市,31-04,東区本町１条６丁目２番 東栄公園　西側,東栄公園　西側,43.076519,141.390152,緯度経度は怪しい
北海道,札幌市,31-05,東区本町１条７丁目２番 東栄中学校　正門,東栄中学校　正門,43.0755535,141.3927395,
北海道,札幌市,31-06,東区苗穂町９丁目６番 道住　苗穂グリーン団地　R-2,道住　苗穂グリーン団地　R-2,43.074324,141.3913042,
北海道,札幌市,31-07,東区苗穂町１３丁目３番 雁来公園　野球場　南東,雁来公園　野球場　南東,43.072304,141.395111,緯度経度は怪しい
北海道,札幌市,32-01,東区北８条東７丁目１番 新生公園　南側,新生公園　南側,43.072475,141.364639,緯度経度は怪しい
北海道,札幌市,32-02,東区北８条東７丁目１番 新生公園　グラウンド東側,新生公園　グラウンド東側,43.072475,141.364639,緯度経度は怪しい
北海道,札幌市,32-03,東区北６条東７丁目 ホクレン農業総合研究所　東側,ホクレン農業総合研究所　東側,43.070492,141.365219,緯度経度は怪しい
北海道,札幌市,33-01,東区北３５条東１０丁目２番 北３５条はまなす公園　東側,北３５条はまなす公園　東側,43.105362,141.361572,緯度経度は怪しい
北海道,札幌市,33-02,東区北３６条東１３丁目３番 栄町小学校　正門,栄町小学校　正門,43.106606,141.364349,緯度経度は怪しい
北海道,札幌市,33-03,東区北３６条東１４丁目１番 栄町中学校　グラウンド　北側,栄町中学校　グラウンド　北側,43.1056031,141.3657619,
北海道,札幌市,33-04,東区北３５条東８丁目２番 北３５条ハウスA棟　北側・北向,北３５条ハウスA棟　北側・北向,43.1053607,141.3586743,
北海道,札幌市,33-05,東区北３８条東１４丁目３番 北３８条団地さんぱち公園　東側,北３８条団地さんぱち公園　東側,43.108704,141.365707,緯度経度は怪しい
北海道,札幌市,33-06,東区北３６条東１３丁目３番 栄町小学校　グラウンド,栄町小学校　グラウンド,43.106606,141.364349,緯度経度は怪しい
北海道,札幌市,34-01,東区北１９条東２１丁目５番 北１９条そよかぜ公園　北東側,北１９条そよかぜ公園　北東側,43.086021,141.382675,緯度経度は怪しい
北海道,札幌市,34-02,東区北２０条東１６丁目３番 市住　北東団地　１号棟前公園,市住　北東団地　１号棟前公園,43.0894146,141.3737903,
北海道,札幌市,34-03,東区北２１条東１７丁目２番 ひばり公園　西側,ひばり公園　西側,43.090633,141.375046,緯度経度は怪しい
北海道,札幌市,34-04,東区北２２条東１９丁目２番 元町公園　西側,元町公園　西側,43.092323,141.379211,緯度経度は怪しい
北海道,札幌市,34-05,東区北２０条東１９丁目３番 あすなろ公園　西側,あすなろ公園　西側,43.08934,141.379684,緯度経度は怪しい
北海道,札幌市,34-06,東区北２１条東２１丁目３番 開成小学校　正門,開成小学校　正門,43.0896328,141.3830768,
北海道,札幌市,34-07,東区北１９条東２０丁目３番 元町まちづくりセンター向いゲートボール場,元町まちづくりセンター向いゲートボール場,43.087791,141.382019,緯度経度は怪しい
北海道,札幌市,34-08,東区北１９条東１８丁目２番 草笛公園　西側,草笛公園　西側,43.087742,141.377884,緯度経度は怪しい
北海道,札幌市,35-01,東区伏古１０条３丁目７番 モーモー公園　東側,モーモー公園　東側,43.09399,141.397186,緯度経度は怪しい
北海道,札幌市,35-02,東区伏古９条５丁目５番 タイガー公園　南側,タイガー公園　南側,43.09177,141.400375,緯度経度は怪しい
北海道,札幌市,35-03,東区伏古８条５丁目２番 伏古小学校　グラウンド,伏古小学校　グラウンド,43.090374,141.398727,緯度経度は怪しい
北海道,札幌市,35-04,東区伏古８条５丁目２番 伏古小学校　正門,伏古小学校　正門,43.090374,141.398727,緯度経度は怪しい
北海道,札幌市,35-05,東区伏古８条３丁目７番 風っ子公園　北側,風っ子公園　北側,43.091671,141.395462,緯度経度は怪しい
北海道,札幌市,35-06,東区伏古６条３丁目３番 たまねぎちゃん公園　北東側,たまねぎちゃん公園　北東側,43.089111,141.393356,緯度経度は怪しい
北海道,札幌市,35-07,東区伏古７条５丁目１番 のびのび公園　南側,のびのび公園　南側,43.088196,141.396729,緯度経度は怪しい
北海道,札幌市,36-01,東区北２８条東１８丁目３番 元村公園　南側,元村公園　南側,43.100006,141.375763,緯度経度は怪しい
北海道,札幌市,36-02,東区北２８条東１８丁目３番 元村公園　北西角付近,元村公園　北西角付近,43.100006,141.375763,緯度経度は怪しい
北海道,札幌市,36-03,東区北２７条東１６丁目１番 道立札幌高等技術専門学院　北側フェンス,道立札幌高等技術専門学院　北側フェンス,43.0978046,141.3715577,
北海道,札幌市,36-04,東区北２７条東１９丁目４番 北２７条ゆめのくに公園　南東側,北２７条ゆめのくに公園　南東側,43.09893,141.379547,緯度経度は怪しい
北海道,札幌市,36-05,東区北２８条東２０丁目１番 元町中学校　東側,元町中学校　東側,43.10043,141.380508,緯度経度は怪しい
北海道,札幌市,36-06,東区北３０条東２０丁目５番 北３０条にじの丘公園　西側,北３０条にじの丘公園　西側,43.101685,141.380905,緯度経度は怪しい
北海道,札幌市,36-07,東区北３２条東１８丁目５番 北３２条いずみ公園　南側,北３２条いずみ公園　南側,43.102665,141.375381,緯度経度は怪しい
北海道,札幌市,36-08,東区北３０条東１９丁目２番 西松屋札幌東店駐車場　西側,西松屋札幌東店駐車場　西側,43.1018112,141.3773765,
北海道,札幌市,36-09,東区北２６条東２０丁目４番 北２６条口ぶえ公園　北側,北２６条口ぶえ公園　北側,43.098183,141.382523,緯度経度は怪しい
北海道,札幌市,37-01,東区北４９条東９丁目２番 第２新和公園　南東側,第２新和公園　南東側,43.120781,141.356903,緯度経度は怪しい
北海道,札幌市,37-02,東区北４９条東１４丁目８番 栄町ほまれ第２公園　東側,栄町ほまれ第２公園　東側,43.122307,141.362549,緯度経度は怪しい
北海道,札幌市,37-03,東区北５１条東９丁目７番 さかえけやき公園　東側,さかえけやき公園　東側,43.123863,141.356567,緯度経度は怪しい
北海道,札幌市,37-04,東区北５１条東１０丁目１番 栄緑小学校　東側,栄緑小学校　東側,43.1230831,141.3583536,
北海道,札幌市,37-05,東区北５１条東１４丁目１番 栄町どんぐり公園　南東角,栄町どんぐり公園　南東角,43.124088,141.361023,緯度経度は怪しい
北海道,札幌市,37-06,東区北４９条東１４丁目５番 栄町ほまれ公園　南側,栄町ほまれ公園　南側,43.122177,141.361237,緯度経度は怪しい
北海道,札幌市,38-01,東区東苗穂１３条３丁目１１番 東苗穂１３条わんぱく公園　北側,東苗穂１３条わんぱく公園　北側,43.1059245,141.4261433,
北海道,札幌市,38-02,東区東雁来１３条２丁目１１番 東雁来しんかわ公園　西側,東雁来しんかわ公園　西側,43.104424,141.432007,緯度経度は怪しい
北海道,札幌市,38-03,東区東苗穂１３条４丁目９番 札苗緑小学校　北側,札苗緑小学校　北側,43.10532,141.4297298,
北海道,札幌市,38-04,東区東苗穂１２条３丁目１５番 農本中チューリップ公園　北西側,農本中チューリップ公園　北西側,43.1040374,141.4230718,
北海道,札幌市,38-05,東区東苗穂１４条１丁目８番 東苗穂レインボー公園　南東側,東苗穂レインボー公園　南東側,43.112408,141.418198,緯度経度は怪しい
北海道,札幌市,38-06,東区東苗穂１４条２丁目１６番 東苗穂いずみ公園　西側,東苗穂いずみ公園　西側,43.1108378,141.4225186,
北海道,札幌市,38-07,東区東苗穂１３条２丁目１８番 東苗穂青空公園　南東側,東苗穂青空公園　南東側,43.109535,141.419296,緯度経度は怪しい
北海道,札幌市,38-08,東区東雁来町３８７番地 中央バス　バス回転場所,中央バス　バス回転場所,43.113007,141.429214,緯度経度は怪しい
北海道,札幌市,39-01,東区東苗穂５条１丁目５番 北海道電力ネットワーク(株),北海道電力ネットワーク(株),43.0925006,141.4030977,
北海道,札幌市,39-02,東区東苗穂５条２丁目３番 東苗穂小学校　体育館入口,東苗穂小学校　体育館入口,43.090176,141.405823,緯度経度は怪しい
北海道,札幌市,39-03,東区東苗穂５条３丁目７番 東苗穂５条みつば公園　西側,東苗穂５条みつば公園　西側,43.0877264,141.4098009,
北海道,札幌市,39-04,東区東苗穂４条２丁目１番 東苗穂みどり公園　西側,東苗穂みどり公園　西側,43.087643,141.406357,緯度経度は怪しい
北海道,札幌市,39-05,東区東苗穂５条２丁目３番 東苗穂公園　北側,東苗穂公園　北側,43.090176,141.405823,緯度経度は怪しい
北海道,札幌市,39-06,東区東苗穂３条２丁目６番 東苗穂すみれ公園　南側,東苗穂すみれ公園　南側,43.085541,141.403687,緯度経度は怪しい
北海道,札幌市,39-07,東区東苗穂４条１丁目５番 東苗穂ナナカマド公園　東側,東苗穂ナナカマド公園　東側,43.0896722,141.4011347,
北海道,札幌市,01-01,清田区北野３条２丁目 北野小学校校門前,北野小学校校門前,43.014095,141.433044,緯度経度は怪しい
北海道,札幌市,01-02,清田区北野４条２丁目 北野まちづくりセンター,北野まちづくりセンター,43.017372,141.433136,緯度経度は怪しい
北海道,札幌市,01-03,清田区北野５条１丁目 北野まきば公園,北野まきば公園,43.0209835,141.4302967,
北海道,札幌市,01-04,清田区北野６条２丁目 北野仲よし公園,北野仲よし公園,43.0230216,141.4355579,
北海道,札幌市,01-05,清田区北野６条１丁目 北野花園公園,北野花園公園,43.023643,141.431854,緯度経度は怪しい
北海道,札幌市,01-06,清田区北野６条２丁目 北野西公園,北野西公園,43.02153,141.435104,緯度経度は怪しい
北海道,札幌市,01-07,清田区北野７条１丁目 北野ひまわり公園,北野ひまわり公園,43.024456,141.434998,緯度経度は怪しい
北海道,札幌市,01-08,清田区北野７条３丁目 北野ひばり公園,北野ひばり公園,43.02153,141.440399,緯度経度は怪しい
北海道,札幌市,02-01,清田区北野４条５丁目 北野台小学校校門横,北野台小学校校門横,43.011116,141.447128,緯度経度は怪しい
北海道,札幌市,02-02,清田区北野３条５丁目 八望台なかよし公園,八望台なかよし公園,43.0086212,141.4452105,
北海道,札幌市,02-03,清田区北野３条４丁目 清田高校校門横,清田高校校門横,43.008453,141.441452,緯度経度は怪しい
北海道,札幌市,02-04,清田区北野６条５丁目 北野しらかば公園,北野しらかば公園,43.01643,141.449692,緯度経度は怪しい
北海道,札幌市,02-05,清田区北野７条５丁目 北野もみじ公園,北野もみじ公園,43.0186478,141.4502075,
北海道,札幌市,02-06,清田区北野６条４丁目 市営北野団地２号棟前,市営北野団地２号棟前,43.018196,141.443451,緯度経度は怪しい
北海道,札幌市,02-07,清田区北野６条５丁目 中央バス停「北野６条５丁目」前,中央バス停「北野６条５丁目」前,43.0153007,141.4518618,
北海道,札幌市,02-08,清田区北野７条５丁目 中央バス停「北野７条５丁目」前,中央バス停「北野７条５丁目」前,43.0176703,141.4534587,
北海道,札幌市,03-01,清田区平岡９条２丁目 平岡小学校校門横,平岡小学校校門横,43.0150493,141.4596041,
北海道,札幌市,03-02,清田区平岡１０条１丁目 平岡三角公園,平岡三角公園,43.0184033,141.4562803,
北海道,札幌市,03-03,清田区平岡１０条２丁目 平岡しらかば公園,平岡しらかば公園,43.0162762,141.4605846,
北海道,札幌市,03-04,清田区平岡７条１丁目 平岡わかば公園,平岡わかば公園,43.0127643,141.4531457,
北海道,札幌市,03-05,清田区平岡７条３丁目 平岡てんとう虫公園,平岡てんとう虫公園,43.010485,141.4596277,
北海道,札幌市,03-06,清田区平岡８条４丁目 平岡わいわい公園,平岡わいわい公園,43.0094117,141.4629348,
北海道,札幌市,03-07,清田区平岡９条２丁目 平岡北公園西側,平岡北公園西側,43.0140013,141.4575901,
北海道,札幌市,03-08,清田区平岡９条３丁目 平岡アパッチ公園,平岡アパッチ公園,43.0143185,141.4616873,
北海道,札幌市,04-01,清田区平岡５条３丁目 平岡中央小学校校門横,平岡中央小学校校門横,43.006393,141.455399,緯度経度は怪しい
北海道,札幌市,04-02,清田区平岡４条１丁目 平岡ぼだいじゅ公園,平岡ぼだいじゅ公園,43.006664,141.448639,緯度経度は怪しい
北海道,札幌市,04-03,清田区平岡４条３丁目 平岡青空公園,平岡青空公園,43.00349,141.454163,緯度経度は怪しい
北海道,札幌市,04-04,清田区平岡５条１丁目 北電平岡変電所前,北電平岡変電所前,43.0091362,141.4480395,
北海道,札幌市,04-05,清田区平岡５条４丁目 平岡どんぐり公園,平岡どんぐり公園,43.0021423,141.4574522,
北海道,札幌市,04-06,清田区平岡５条４丁目 平岡中央中学校フェンス,平岡中央中学校フェンス,43.0043188,141.4579761,
北海道,札幌市,04-07,清田区平岡６条１丁目 平岡はるにれ公園,平岡はるにれ公園,43.0107131,141.4494815,
北海道,札幌市,04-08,清田区平岡６条２丁目 平岡東公園,平岡東公園,43.0086115,141.4540492,
北海道,札幌市,05-01,清田区平岡公園東５丁目 平岡公園小学校前,平岡公園小学校前,43.00343,141.4739,
北海道,札幌市,05-02,清田区平岡公園東１丁目 ライブヒルズいろどり公園,ライブヒルズいろどり公園,43.0116,141.467438,緯度経度は怪しい
北海道,札幌市,05-03,清田区平岡公園東３丁目 ライブヒルズ積木公園,ライブヒルズ積木公園,43.0073829,141.470977,
北海道,札幌市,05-04,清田区平岡公園東６丁目 ライブヒルズとりで公園,ライブヒルズとりで公園,43.007809,141.4746957,
北海道,札幌市,05-05,清田区平岡公園東８丁目 こもれびふれあい公園,こもれびふれあい公園,43.0063573,141.4780679,
北海道,札幌市,05-06,清田区平岡公園東９丁目 平岡緑中学校グランドフェンス,平岡緑中学校グランドフェンス,43.0009151,141.4747993,
北海道,札幌市,05-07,清田区里塚緑ヶ丘１丁目 里塚緑ヶ丘ときめき公園,里塚緑ヶ丘ときめき公園,43.000542,141.470337,緯度経度は怪しい
北海道,札幌市,05-08,清田区平岡公園東１０丁目 こもれびうるおい公園,こもれびうるおい公園,43.0030774,141.4763598,
北海道,札幌市,06-01,清田区北野２条３丁目 北野平小学校体育館前,北野平小学校体育館前,43.008858,141.436066,緯度経度は怪しい
北海道,札幌市,06-02,清田区北野１条１丁目 中央バス停「北野１条１丁目」前,中央バス停「北野１条１丁目」前,43.0089808,141.4253021,
北海道,札幌市,06-03,清田区北野２条１丁目 北野ありんこ公園,北野ありんこ公園,43.0130947,141.4291742,
北海道,札幌市,06-04,清田区北野１条２丁目 中央バス停「清田2条1丁目」前,中央バス停「清田2条1丁目」前,43.0062817,141.4297462,
北海道,札幌市,06-05,清田区北野２条２丁目 北野にこにこ公園,北野にこにこ公園,43.011059,141.43161,緯度経度は怪しい
北海道,札幌市,06-06,清田区北野３条３丁目 北野第一公園,北野第一公園,43.011196,141.4375,緯度経度は怪しい
北海道,札幌市,06-07,清田区北野４条３丁目 北野第二公園,北野第二公園,43.0135836,141.4375888,
北海道,札幌市,07-01,清田区平岡１条１丁目 清田区役所市民交流広場前,清田区役所市民交流広場前,42.9990894,141.4449944,
北海道,札幌市,07-02,清田区清田１条２丁目 清田区民センター前,清田区民センター前,43.005268,141.439804,緯度経度は怪しい
北海道,札幌市,07-03,清田区真栄１条１丁目 真栄わんぱく公園,真栄わんぱく公園,42.996368,141.4385555,
北海道,札幌市,07-04,清田区平岡１条１丁目 清田区役所東側玄関前,清田区役所東側玄関前,42.999795,141.4429704,
北海道,札幌市,07-05,清田区平岡２条２丁目 平岡どろんこ公園,平岡どろんこ公園,42.9992689,141.4489643,
北海道,札幌市,07-06,清田区平岡３条２丁目 平岡なかよし公園,平岡なかよし公園,43.001705,141.44899,緯度経度は怪しい
北海道,札幌市,07-07,清田区平岡３条３丁目 平岡みどり公園,平岡みどり公園,42.9989766,141.4532419,
北海道,札幌市,07-08,清田区平岡４条３丁目 平岡樹芸センター,平岡樹芸センター,43.00349,141.454163,緯度経度は怪しい
北海道,札幌市,08-01,清田区平岡２条６丁目 平岡南小学校校門横,平岡南小学校校門横,42.992489,141.456284,緯度経度は怪しい
北海道,札幌市,08-02,清田区平岡３条６丁目 平岡つぼみ公園,平岡つぼみ公園,42.9941503,141.4605041,
北海道,札幌市,08-03,清田区平岡２条４丁目 清田区土木センター,清田区土木センター,42.995991,141.451477,緯度経度は怪しい
北海道,札幌市,08-04,清田区平岡１条５丁目 清田区体育館前,清田区体育館前,42.9904902,141.4503628,
北海道,札幌市,08-05,清田区里塚１条１丁目 里塚中央ぽぷら公園,里塚中央ぽぷら公園,42.9888899,141.4560744,
北海道,札幌市,08-06,清田区里塚１条３丁目 里塚あさひ公園前,里塚あさひ公園前,42.9881701,141.4609627,
北海道,札幌市,08-07,清田区里塚３条２丁目 桂台あおぞら公園,桂台あおぞら公園,42.9919439,141.464234,
北海道,札幌市,08-08,清田区里塚２条３丁目 かつら台公園,かつら台公園,42.9879918,141.463891,
北海道,札幌市,09-01,清田区里塚２条６丁目 三里塚小学校校門横,三里塚小学校校門横,42.9794107,141.4675567,
北海道,札幌市,09-02,清田区里塚１条４丁目 市営里塚団地6号棟前,市営里塚団地6号棟前,42.983917,141.461655,緯度経度は怪しい
北海道,札幌市,09-03,清田区里塚２条６丁目 三里塚公園北西側,三里塚公園北西側,42.9823466,141.4671389,
北海道,札幌市,09-04,清田区里塚３条５丁目 里塚チューリップ公園,里塚チューリップ公園,42.987026,141.470062,
北海道,札幌市,09-05,清田区里塚緑ヶ丘５丁目 里塚かぶとむし公園,里塚かぶとむし公園,42.996052,141.47403,緯度経度は怪しい
北海道,札幌市,09-06,清田区里塚緑ヶ丘８丁目 東里塚新緑公園,東里塚新緑公園,42.992817,141.474045,緯度経度は怪しい
北海道,札幌市,09-07,清田区里塚緑ヶ丘１１丁目 東里塚みどり公園,東里塚みどり公園,42.988323,141.47403,緯度経度は怪しい
北海道,札幌市,09-08,清田区里塚２条４丁目 美里すずらん公園,美里すずらん公園,42.9847894,141.4642102,
北海道,札幌市,10-01,清田区清田３条３丁目 清田中学校校門横,清田中学校校門横,42.998726,141.433411,緯度経度は怪しい
北海道,札幌市,10-02,清田区清田２条２丁目 市営清田団地４号棟前,市営清田団地４号棟前,43.0031804,141.4344613,
北海道,札幌市,10-03,清田区清田２条２丁目 清田ひばり公園,清田ひばり公園,43.003029,141.432144,緯度経度は怪しい
北海道,札幌市,10-04,清田区清田２条３丁目 湯の郷　絢ほのか前,湯の郷　絢ほのか前,43.000595,141.435684,緯度経度は怪しい
北海道,札幌市,10-05,清田区清田３条３丁目 札幌市清田老人福祉センター,札幌市清田老人福祉センター,42.998726,141.433411,緯度経度は怪しい
北海道,札幌市,10-06,清田区清田４条４丁目 西村邸前緑地,西村邸前緑地,42.996422,141.434586,緯度経度は怪しい
北海道,札幌市,10-07,清田区清田５条４丁目 清田すずめ公園,清田すずめ公園,42.9949382,141.4357857,
北海道,札幌市,11-01,清田区清田５条２丁目 清田南小学校校門横,清田南小学校校門横,42.996712,141.427872,緯度経度は怪しい
北海道,札幌市,11-02,清田区清田３条１丁目 清田かっこう公園,清田かっこう公園,43.0033721,141.4260585,
北海道,札幌市,11-03,清田区清田４条２丁目 清田中央公園,清田中央公園,42.9996103,141.4283129,
北海道,札幌市,11-04,清田区清田５条２丁目 清田トンネ川４号橋公園,清田トンネ川４号橋公園,42.996357,141.425844,
北海道,札幌市,11-05,清田区清田６条１丁目 清田桜ヶ丘公園,清田桜ヶ丘公園,42.995132,141.423141,緯度経度は怪しい
北海道,札幌市,11-06,清田区清田６条１丁目 清田西公園,清田西公園,42.9945572,141.4237433,
北海道,札幌市,11-07,清田区清田６条２丁目 清田わんぱく公園,清田わんぱく公園,42.993856,141.4301127,
北海道,札幌市,11-08,清田区清田６条３丁目 清田あさひ公園,清田あさひ公園,42.9940618,141.432535,
北海道,札幌市,12-01,清田区清田７条３丁目 清田緑小学校校門横,清田緑小学校校門横,42.988113,141.432861,緯度経度は怪しい
北海道,札幌市,12-02,清田区清田７条１丁目 清田緑清公園,清田緑清公園,42.991705,141.425109,
北海道,札幌市,12-03,清田区清田７条２丁目 清田南公園,清田南公園,42.990627,141.426926,緯度経度は怪しい
北海道,札幌市,12-04,清田区清田８条１丁目 清田元町土地区画整理団地雨水貯留池,清田元町土地区画整理団地雨水貯留池,42.98996,141.422745,緯度経度は怪しい
北海道,札幌市,12-05,清田区清田８条３丁目 清栄公園,清栄公園,42.9834711,141.4327698,
北海道,札幌市,12-06,清田区清田１０条４丁目 清田の丘公園,清田の丘公園,42.9804029,141.430605,
北海道,札幌市,12-07,清田区真栄４条１丁目 真栄あおぞら公園,真栄あおぞら公園,42.9858324,141.4357249,
北海道,札幌市,12-08,清田区真栄５条１丁目 真栄風の子公園,真栄風の子公園,42.982973,141.4347353,
北海道,札幌市,13-01,清田区美しが丘１条１丁目 真栄小学校体育館前,真栄小学校体育館前,42.989986,141.448715,緯度経度は怪しい
北海道,札幌市,13-02,清田区美しが丘１条１丁目 真栄中学校体育館前,真栄中学校体育館前,42.989004,141.4488,
北海道,札幌市,13-03,清田区真栄２条２丁目 真栄さくら公園,真栄さくら公園,42.9926742,141.4440497,
北海道,札幌市,13-04,清田区真栄３条２丁目 真栄第一公園,真栄第一公園,42.98954,141.443464,
北海道,札幌市,13-05,清田区真栄４条１丁目 真栄そよかぜ公園,真栄そよかぜ公園,42.9892399,141.4381757,
北海道,札幌市,13-06,清田区美しが丘３条２丁目 美しが丘公園,美しが丘公園,42.986738,141.4475004,
北海道,札幌市,13-07,清田区真栄４条４丁目 真栄さぼてん公園,真栄さぼてん公園,42.9843467,141.4446589,
北海道,札幌市,13-08,清田区真栄５条４丁目 真栄みつば公園,真栄みつば公園,42.9814191,141.444735,
北海道,札幌市,13-09,清田区真栄４条５丁目 真栄しらかば公園,真栄しらかば公園,42.9815541,141.4476734,
北海道,札幌市,14-01,清田区美しが丘２条５丁目 美しが丘小学校校門横,美しが丘小学校校門横,42.983852,141.455032,緯度経度は怪しい
北海道,札幌市,14-02,清田区美しが丘２条３丁目 美しが丘めるへん公園,美しが丘めるへん公園,42.9862897,141.4508618,
北海道,札幌市,14-03,清田区美しが丘２条４丁目 美しが丘風の子公園,美しが丘風の子公園,42.9852706,141.4523033,
北海道,札幌市,14-04,清田区美しが丘３条５丁目 美しが丘ぼうけん公園,美しが丘ぼうけん公園,42.9819254,141.456123,
北海道,札幌市,14-05,清田区美しが丘２条６丁目 美しが丘ひまわり公園,美しが丘ひまわり公園,42.9816408,141.4585905,
北海道,札幌市,14-06,清田区美しが丘２条７丁目 美しが丘南公園,美しが丘南公園,42.9802943,141.4612176,
北海道,札幌市,14-07,清田区美しが丘２条８丁目 美しが丘白鳩第二公園,美しが丘白鳩第二公園,42.9784105,141.4626995,
北海道,札幌市,14-08,清田区美しが丘２条８丁目 美しが丘白鳩公園,美しが丘白鳩公園,42.9791215,141.4646038,
北海道,札幌市,15-01,清田区美しが丘４条５丁目 美しが丘緑小学校校門横,美しが丘緑小学校校門横,42.9777686,141.4524025,
北海道,札幌市,15-02,清田区美しが丘４条５丁目 美しが丘西公園テニスコート前,美しが丘西公園テニスコート前,42.9787643,141.4536249,
北海道,札幌市,15-03,清田区美しが丘４条５丁目 美しが丘西公園,美しが丘西公園,42.9787643,141.4536249,
北海道,札幌市,15-04,清田区美しが丘５条６丁目 美しが丘のぞみの公園,美しが丘のぞみの公園,42.9762202,141.4528983,
北海道,札幌市,15-05,清田区美しが丘４条７丁目 美しが丘ひだまり公園,美しが丘ひだまり公園,42.9762725,141.4572633,
北海道,札幌市,15-06,清田区美しが丘４条６丁目 市営美しが丘団地３号棟前,市営美しが丘団地３号棟前,42.977806,141.456116,緯度経度は怪しい
北海道,札幌市,15-07,清田区美しが丘５条９丁目 美しが丘さくら公園,美しが丘さくら公園,42.973602,141.461975,緯度経度は怪しい
北海道,札幌市,16-01,清田区有明１４１番地 有明小学校校門横,有明小学校校門横,42.948387,141.44986,緯度経度は怪しい
北海道,札幌市,16-02,清田区有明２３番地 中央バス停「北有明」前,中央バス停「北有明」前,42.961658,141.456009,緯度経度は怪しい
北海道,札幌市,16-03,清田区有明１０６番地 有明会館前,有明会館前,42.948311,141.444916,緯度経度は怪しい
北海道,札幌市,01-01,白石区北郷３条１１丁目 北都小学校（正門）,北都小学校（正門）,43.0512716,141.4342791,
北海道,札幌市,01-02,白石区北郷４条１１丁目 北郷ねむの木公園,北郷ねむの木公園,43.0532844,141.4336749,
北海道,札幌市,01-03,白石区北郷３条１２丁目 北都公園,北都公園,43.0513713,141.4364772,
北海道,札幌市,01-04,白石区北郷４条１３丁目 プラーナ裏,プラーナ裏,43.052372,141.440582,緯度経度は怪しい
北海道,札幌市,01-05,白石区北郷４条１３丁目 北郷かつら公園,北郷かつら公園,43.0518327,141.4417027,
北海道,札幌市,01-06,白石区北郷２条１４丁目 北郷とちの木公園,北郷とちの木公園,43.0476061,141.4415018,
北海道,札幌市,01-07,白石区北郷１条１３丁目 ＪＲ平和駅　自転車駐輪場,ＪＲ平和駅　自転車駐輪場,43.047073,141.440094,緯度経度は怪しい
北海道,札幌市,01-08,白石区北郷３条１２丁目 北都公園,北都公園,43.0513713,141.4364772,
北海道,札幌市,01-09,白石区川北１条３丁目 川北すみれ公園,川北すみれ公園,43.0571532,141.4402179,
北海道,札幌市,01-10,白石区北郷３条１１丁目 北都小学校(校庭側),北都小学校(校庭側),43.0512716,141.4342791,
北海道,札幌市,02-01,白石区川下４条３丁目 東川下小学校（西側）,東川下小学校（西側）,43.0509955,141.443911,
北海道,札幌市,02-02,白石区川下３条５丁目 東川下記念会館,東川下記念会館,43.049522,141.447021,緯度経度は怪しい
北海道,札幌市,02-03,白石区川下４条３丁目 東川下小学校（東側）,東川下小学校（東側）,43.0509955,141.443911,
北海道,札幌市,02-04,白石区川下４条４丁目 東川下公園,東川下公園,43.0520797,141.4460749,
北海道,札幌市,02-05,白石区川下１条６丁目 市営住宅東川下団地Ｓ－５号棟,市営住宅東川下団地Ｓ－５号棟,43.046024,141.447906,緯度経度は怪しい
北海道,札幌市,02-06,白石区川下５条３丁目 東川下あおさぎ公園,東川下あおさぎ公園,43.0549934,141.4450479,
北海道,札幌市,02-07,白石区川下１条８丁目 東川下かわせみ公園,東川下かわせみ公園,43.0451764,141.4520433,
北海道,札幌市,02-08,白石区川下３条６丁目 東川下かけす公園,東川下かけす公園,43.04924,141.448944,緯度経度は怪しい
北海道,札幌市,03-01,白石区川北２条２丁目 川北すずらん公園,川北すずらん公園,43.059322,141.436401,緯度経度は怪しい
北海道,札幌市,03-02,白石区川北３条２丁目 川北はまなす公園,川北はまなす公園,43.061893,141.436356,緯度経度は怪しい
北海道,札幌市,03-03,白石区川北３条３丁目 川北ライラック公園,川北ライラック公園,43.0623593,141.4393172,
北海道,札幌市,03-04,白石区川北２条３丁目 川北なのはな公園,川北なのはな公園,43.0596294,141.4389666,
北海道,札幌市,04-01,白石区川下２７２４番地 バス停「中川下」横,バス停「中川下」横,43.07098,141.448853,緯度経度は怪しい
北海道,札幌市,04-02,白石区川下６４１番地 川下会館向かい,川下会館向かい,43.0584648,141.443036,
北海道,札幌市,04-03,白石区川下６４６番地 川下公園　東側,川下公園　東側,43.060268,141.442581,緯度経度は怪しい
北海道,札幌市,04-04,白石区川下７９４番地 バス停「川下公園前」後,バス停「川下公園前」後,43.064533,141.442352,緯度経度は怪しい
北海道,札幌市,04-05,白石区川下７４１番地 バス停「八幡宮前」後,バス停「八幡宮前」後,43.0650704,141.4486527,
北海道,札幌市,05-01,白石区菊水元町２条３丁目 菊水小学校（正門）,菊水小学校（正門）,43.066109,141.400833,緯度経度は怪しい
北海道,札幌市,05-02,白石区菊水元町２条１丁目 イシグロ㈱札幌支店,イシグロ㈱札幌支店,43.067799,141.39856,緯度経度は怪しい
北海道,札幌市,05-03,白石区菊水元町２条３丁目 菊水小学校（校庭側）,菊水小学校（校庭側）,43.066109,141.400833,緯度経度は怪しい
北海道,札幌市,05-04,白石区菊水元町３条１丁目 菊水元町夕やけ公園,菊水元町夕やけ公園,43.0702393,141.402729,
北海道,札幌市,05-05,白石区北郷２条１丁目 北郷ライラック公園,北郷ライラック公園,43.0622874,141.405424,
北海道,札幌市,05-06,白石区菊水元町２条４丁目 菊水元町しらかば公園,菊水元町しらかば公園,43.0651383,141.4017597,
北海道,札幌市,05-07,白石区菊水元町５条１丁目 白菊すくすく公園,白菊すくすく公園,43.0711546,141.4054215,
北海道,札幌市,05-08,白石区菊水元町２条１丁目 菊水元町青空公園,菊水元町青空公園,43.067799,141.39856,緯度経度は怪しい
北海道,札幌市,06-01,白石区北郷６条３丁目 北白石中学校,北白石中学校,43.064223,141.4190512,
北海道,札幌市,06-02,白石区北郷３条３丁目 北郷なかよし公園,北郷なかよし公園,43.060959,141.412918,緯度経度は怪しい
北海道,札幌市,06-03,白石区北郷２条２丁目 こぶし公園,こぶし公園,43.0606781,141.4080853,
北海道,札幌市,06-04,白石区北郷８条３丁目 北郷わんぱく公園,北郷わんぱく公園,43.0675424,141.4195427,
北海道,札幌市,06-05,白石区北郷６条３丁目 北郷あかつき公園,北郷あかつき公園,43.0654812,141.4169465,
北海道,札幌市,06-06,白石区北郷４条３丁目 北郷ゴルフセンター,北郷ゴルフセンター,43.062675,141.414505,緯度経度は怪しい
北海道,札幌市,06-07,白石区北郷５条４丁目 北郷やよい公園,北郷やよい公園,43.0616004,141.4206243,
北海道,札幌市,06-08,白石区北郷８条４丁目 北郷はづき公園,北郷はづき公園,43.0657482,141.4222352,
北海道,札幌市,07-01,白石区北郷４条５丁目 北郷小学校（学校開放入口）,北郷小学校（学校開放入口）,43.058907,141.420929,緯度経度は怪しい
北海道,札幌市,07-02,白石区北郷４条６丁目 北郷きさらぎ公園,北郷きさらぎ公園,43.0579024,141.4236536,
北海道,札幌市,07-03,白石区北郷５条６丁目　 北郷むつき公園（北側）,北郷むつき公園（北側）,43.0599567,141.4236334,
北海道,札幌市,07-04,白石区北郷１条５丁目 北郷東ひまわり公園,北郷東ひまわり公園,43.0536865,141.4172404,
北海道,札幌市,07-05,白石区北郷５条６丁目 北郷むつき公園（南側）,北郷むつき公園（南側）,43.0599567,141.4236334,
北海道,札幌市,07-06,白石区北郷２条４丁目 北郷こまどり公園,北郷こまどり公園,43.0578375,141.4137711,
北海道,札幌市,07-07,白石区北郷４条５丁目 北郷小学校（校庭側）,北郷小学校（校庭側）,43.058907,141.420929,緯度経度は怪しい
北海道,札幌市,08-01,白石区北郷３条７丁目 北白石地区センター,北白石地区センター,43.054649,141.424011,緯度経度は怪しい
北海道,札幌市,08-02,白石区北郷５条７丁目 豊平川中継ポンプ場,豊平川中継ポンプ場,43.056843,141.426025,緯度経度は怪しい
北海道,札幌市,08-03,白石区北郷３条９丁目 北郷あさかぜ公園,北郷あさかぜ公園,43.0528515,141.4280075,
北海道,札幌市,08-04,白石区北郷４条１０丁目 北郷すずらん公園,北郷すずらん公園,43.055367,141.430695,緯度経度は怪しい
北海道,札幌市,08-05,白石区北郷１条８丁目 北郷どじょっこ公園,北郷どじょっこ公園,43.050415,141.424255,緯度経度は怪しい
北海道,札幌市,08-06,白石区北郷１条７丁目 北郷どんぐり公園,北郷どんぐり公園,43.051811,141.421158,緯度経度は怪しい
北海道,札幌市,08-07,白石区北郷１条８丁目 北郷ひよっこ公園,北郷ひよっこ公園,43.050415,141.424255,緯度経度は怪しい
北海道,札幌市,08-08,白石区北郷２条１０丁目 北郷ホウの木公園,北郷ホウの木公園,43.0497307,141.4303651,
北海道,札幌市,09-01,白石区東米里２１２４番地 米こめ広場前,米こめ広場前,43.08358683,141.4483218,
北海道,札幌市,09-02,白石区東米里２１５９番地 東米里福祉会館,東米里福祉会館,43.08411325,141.4441108,
北海道,札幌市,09-03,白石区東米里２１９７番地 バス停「東栄北」横,バス停「東栄北」横,43.08215,141.435303,緯度経度は怪しい
北海道,札幌市,09-04,白石区東米里２０３８番地 バス停「厚別新川橋」後,バス停「厚別新川橋」後,43.08319959,141.4596128,
北海道,札幌市,10-01,白石区米里１条４丁目 米里中学校（正門）,米里中学校（正門）,43.071491,141.419159,緯度経度は怪しい
北海道,札幌市,10-02,白石区菊水元町７条１丁目 白菊公園,白菊公園,43.0736429,141.4090298,
北海道,札幌市,10-03,白石区菊水元町６条３丁目 菊水舞鶴公園,菊水舞鶴公園,43.0681461,141.4101796,
北海道,札幌市,10-04,白石区菊水元町８条２丁目 菊水元町児童会館,菊水元町児童会館,43.072395,141.413162,緯度経度は怪しい
北海道,札幌市,10-05,白石区菊水元町８条１丁目 菊水みやこ公園,菊水みやこ公園,43.0754452,141.413601,
北海道,札幌市,10-06,白石区米里３条１丁目 米里わいわい公園,米里わいわい公園,43.0831554,141.4228703,
北海道,札幌市,10-07,白石区菊水元町９条１丁目 米里公園,米里公園,43.0778043,141.4153796,
北海道,札幌市,10-08,白石区米里５条１丁目 バス停「米里5条1丁目」後,バス停「米里5条1丁目」後,43.086037,141.430786,緯度経度は怪しい
北海道,札幌市,10-09,白石区米里１条４丁目 米里中学校（校庭側）,米里中学校（校庭側）,43.071491,141.419159,緯度経度は怪しい
北海道,札幌市,10-10,白石区米里１条３丁目 米里小学校,米里小学校,43.074055,141.418304,緯度経度は怪しい
北海道,札幌市,11-01,白石区菊水上町１条３丁目 上白石小学校（正門）,上白石小学校（正門）,43.0620382,141.3869833,
北海道,札幌市,11-02,白石区菊水上町２条２丁目 菊水上町いずみ公園,菊水上町いずみ公園,43.0637714,141.3858826,
北海道,札幌市,11-03,白石区菊水上町４条３丁目 菊水みどり公園,菊水みどり公園,43.063839,141.393997,緯度経度は怪しい
北海道,札幌市,11-04,白石区菊水上町２条３丁目 白石公園,白石公園,43.062298,141.389816,緯度経度は怪しい
北海道,札幌市,11-05,白石区菊水上町１条３丁目 白石公園内しののめ公園,白石公園内しののめ公園,43.061729,141.3871,緯度経度は怪しい
北海道,札幌市,11-06,白石区菊水上町１条３丁目 上白石小学校（プール側）,上白石小学校（プール側）,43.0620382,141.3869833,
北海道,札幌市,11-07,白石区菊水上町４条１丁目 菊水上町わらしこ公園,菊水上町わらしこ公園,43.06694,141.391281,緯度経度は怪しい
北海道,札幌市,11-08,白石区菊水上町３条２丁目 ツルハドラッグ菊水上町店,ツルハドラッグ菊水上町店,43.064461,141.389679,緯度経度は怪しい
北海道,札幌市,12-01,白石区中央３条５丁目 西白石小学校（東側スロープ横）,西白石小学校（東側スロープ横）,43.0584688,141.4028104,
北海道,札幌市,12-02,白石区中央１条６丁目 にこにこ公園,にこにこ公園,43.051366,141.3995696,
北海道,札幌市,12-03,白石区中央２条３丁目 藤光鋼材㈱,藤光鋼材㈱,43.057961,141.396835,緯度経度は怪しい
北海道,札幌市,12-04,白石区中央２条３丁目 白石くりの木公園,白石くりの木公園,43.058427,141.3969951,
北海道,札幌市,12-05,白石区中央３条２丁目 白石ポッポ公園,白石ポッポ公園,43.0611414,141.397607,
北海道,札幌市,12-06,白石区中央３条５丁目 西白石小学校（校庭側）,西白石小学校（校庭側）,43.0584688,141.4028104,
北海道,札幌市,12-07,白石区中央２条４丁目 ほがらか公園,ほがらか公園,43.0574211,141.3992628,
北海道,札幌市,12-08,白石区中央２条１丁目 白石ちびっこ公園,白石ちびっこ公園,43.0604204,141.3933878,
北海道,札幌市,13-01,白石区本通１丁目北 白石小学校（東側）,白石小学校（東側）,43.052635,141.405319,緯度経度は怪しい
北海道,札幌市,13-02,白石区平和通１丁目北 白石中央東ＪＲ宿舎５０４号棟,白石中央東ＪＲ宿舎５０４号棟,43.056717,141.407806,緯度経度は怪しい
北海道,札幌市,13-03,白石区本通２丁目南 杉の子公園,杉の子公園,43.0495081,141.4046676,
北海道,札幌市,13-04,白石区平和通４丁目南 コスモス公園,コスモス公園,43.0503521,141.4129066,
北海道,札幌市,13-05,白石区本通４丁目北 わかごま公園,わかごま公園,43.0495352,141.4109473,
北海道,札幌市,13-06,白石区平和通３丁目北 ビッグハウス白石店駐車場,ビッグハウス白石店駐車場,43.053482,141.412613,緯度経度は怪しい
北海道,札幌市,13-07,白石区平和通１丁目北 白石中央公園,白石中央公園,43.0554541,141.4062853,
北海道,札幌市,13-08,白石区本通１丁目北 白石小学校（西側）,白石小学校（西側）,43.052635,141.405319,緯度経度は怪しい
北海道,札幌市,13-09,白石区本郷通１丁目北 市営住宅白石中央団地１号棟,市営住宅白石中央団地１号棟,43.05003,141.402008,緯度経度は怪しい
北海道,札幌市,14-01,白石区平和通８丁目北 柏丘中学校（通用門）,柏丘中学校（通用門）,43.048374,141.42131,緯度経度は怪しい
北海道,札幌市,14-02,白石区平和通９丁目北 平和通公園（西側）,平和通公園（西側）,43.0470033,141.4223996,
北海道,札幌市,14-03,白石区平和通１０丁目北 みゆき公園,みゆき公園,43.046513,141.426315,緯度経度は怪しい
北海道,札幌市,14-04,白石区平和通１３丁目北 みずき公園,みずき公園,43.0430549,141.4280593,
北海道,札幌市,14-05,白石区平和通７丁目北 かしわ公園,かしわ公園,43.0504998,141.4190621,
北海道,札幌市,14-06,白石区平和通９丁目北 平和通公園（北側）,平和通公園（北側）,43.0470033,141.4223996,
北海道,札幌市,14-07,白石区平和通８丁目北 柏丘中学校（校庭側）,柏丘中学校（校庭側）,43.048374,141.42131,緯度経度は怪しい
北海道,札幌市,14-08,白石区平和通５丁目北 やなぎ公園,やなぎ公園,43.051859,141.4157703,
北海道,札幌市,15-01,白石区本通１５丁目北 平和通小学校,平和通小学校,43.038738,141.431732,緯度経度は怪しい
北海道,札幌市,15-02,白石区平和通１７丁目北 大谷地かしわ公園,大谷地かしわ公園,43.0430988,141.4393834,
北海道,札幌市,15-03,白石区平和通１６丁目北 白石東公園,白石東公園,43.0414194,141.4354792,
北海道,札幌市,15-04,白石区本通１６丁目北 道立精神保健福祉センター,道立精神保健福祉センター,43.037781,141.43338,緯度経度は怪しい
北海道,札幌市,15-05,白石区平和通１５丁目南 本通橋横フェンス,本通橋横フェンス,43.040428,141.432297,緯度経度は怪しい
北海道,札幌市,15-06,白石区本通１６丁目北 白友公園,白友公園,43.0377686,141.4334678,
北海道,札幌市,15-07,白石区本通１７丁目北 大谷地だいいち公園,大谷地だいいち公園,43.0366495,141.4373844,
北海道,札幌市,15-08,白石区本通１４丁目北 はんの木公園,はんの木公園,43.0400104,141.4308171,
北海道,札幌市,16-01,白石区菊水８条１丁目 東橋小学校（プール側）,東橋小学校（プール側）,43.0621543,141.3808341,
北海道,札幌市,16-02,白石区菊水７条２丁目 若葉公園,若葉公園,43.0590168,141.3796374,
北海道,札幌市,16-03,白石区菊水２条２丁目 シャンボール菊水西町,シャンボール菊水西町,43.057007,141.372055,緯度経度は怪しい
北海道,札幌市,16-04,白石区菊水４条２丁目 勤医協札幌病院駐車場,勤医協札幌病院駐車場,43.058388,141.374969,緯度経度は怪しい
北海道,札幌市,16-05,白石区菊水５条２丁目 菊水公園,菊水公園,43.0600902,141.3752321,
北海道,札幌市,16-06,白石区菊水８条１丁目 東橋小学校（校庭側）,東橋小学校（校庭側）,43.0621543,141.3808341,
北海道,札幌市,16-07,白石区菊水３条１丁目 菊水交番横,菊水交番横,43.059551,141.370941,緯度経度は怪しい
北海道,札幌市,17-01,白石区菊水６条３丁目 幌東中学校（正門）,幌東中学校（正門）,43.0569193,141.3804845,
北海道,札幌市,17-02,白石区菊水３条５丁目 アークス菊水店,アークス菊水店,43.053017,141.379059,緯度経度は怪しい
北海道,札幌市,17-03,白石区菊水５条３丁目 ㈱メカニクス,㈱メカニクス,43.056625,141.377762,緯度経度は怪しい
北海道,札幌市,17-04,白石区菊水６条４丁目 四ツ葉公園,四ツ葉公園,43.054651,141.3814257,
北海道,札幌市,17-05,白石区菊水９条３丁目 双葉公園,双葉公園,43.0593535,141.3860091,
北海道,札幌市,17-06,白石区菊水２条３丁目 やよい公園,やよい公園,43.055473,141.373917,緯度経度は怪しい
北海道,札幌市,17-07,白石区菊水６条３丁目 幌東中学校（校庭側）,幌東中学校（校庭側）,43.0569193,141.3804845,
北海道,札幌市,18-01,白石区東札幌４条５丁目 日章中学校（正門）,日章中学校（正門）,43.0484052,141.3933039,
北海道,札幌市,18-02,白石区東札幌４条５丁目 日章中学校（通用門）,日章中学校（通用門）,43.0484052,141.3933039,
北海道,札幌市,18-03,白石区東札幌３条４丁目 きよみず公園,きよみず公園,43.0502737,141.3897883,
北海道,札幌市,18-04,白石区東札幌１条１丁目 白石こころーど（東札幌１丁目トンネル上）,白石こころーど（東札幌１丁目トンネル上）,43.050564,141.380219,緯度経度は怪しい
北海道,札幌市,18-05,白石区東札幌１条３丁目 白石こころーど（東札幌トンネル付近）,白石こころーど（東札幌トンネル付近）,43.048141,141.384308,緯度経度は怪しい
北海道,札幌市,18-06,白石区東札幌３条２丁目 イオン東札幌店　駐車場,イオン東札幌店　駐車場,43.0525081,141.3841763,
北海道,札幌市,18-07,白石区東札幌１条２丁目 白石こころーど（東札幌２丁目トンネル上）,白石こころーど（東札幌２丁目トンネル上）,43.049442,141.382507,緯度経度は怪しい
北海道,札幌市,19-01,白石区東札幌４条５丁目 東札幌小学校（プール側）,東札幌小学校（プール側）,43.048534,141.393829,緯度経度は怪しい
北海道,札幌市,19-02,白石区東札幌４条５丁目 東札幌小学校（南角）,東札幌小学校（南角）,43.048534,141.393829,緯度経度は怪しい
北海道,札幌市,19-03,白石区東札幌２条６丁目 東札幌やまびこ公園,東札幌やまびこ公園,43.0462818,141.3940282,
北海道,札幌市,19-04,白石区東札幌２条６丁目 地下鉄白石駅　自転車駐輪場,地下鉄白石駅　自転車駐輪場,43.0460435,141.3957879,
北海道,札幌市,19-05,白石区東札幌１条６丁目 まくらぎ公園,まくらぎ公園,43.0440151,141.3921876,
北海道,札幌市,19-06,白石区東札幌２条４丁目 東札幌かえで公園,東札幌かえで公園,43.0478349,141.3886944,
北海道,札幌市,19-07,白石区東札幌６条５丁目 東札幌にれ公園,東札幌にれ公園,43.0503056,141.3973449,
北海道,札幌市,19-08,白石区東札幌１条４丁目 白石こころーど,白石こころーど,43.046619,141.388153,緯度経度は怪しい
北海道,札幌市,20-01,白石区本郷通４丁目南 南郷小学校（通用門）,南郷小学校（通用門）,43.045345,141.406662,緯度経度は怪しい
北海道,札幌市,20-02,白石区本郷通４丁目南 南郷小学校（正門）,南郷小学校（正門）,43.045345,141.406662,緯度経度は怪しい
北海道,札幌市,20-03,白石区南郷通２丁目北 白石中央自動車学園,白石中央自動車学園,43.045872,141.401276,緯度経度は怪しい
北海道,札幌市,20-04,白石区南郷通４丁目南 アサヒビール園,アサヒビール園,43.041962,141.404037,緯度経度は怪しい
北海道,札幌市,20-05,白石区南郷通２丁目北 南郷丘公園,南郷丘公園,43.0459365,141.400888,
北海道,札幌市,20-06,白石区南郷通５丁目北 南郷タンポポ公園,南郷タンポポ公園,43.0437896,141.4071028,
北海道,札幌市,20-07,白石区本通４丁目南 本通公園,本通公園,43.0477894,141.4105054,
北海道,札幌市,20-08,白石区本郷通３丁目南 てまり公園,てまり公園,43.04644,141.404907,緯度経度は怪しい
北海道,札幌市,21-01,白石区南郷通２丁目南 南白石小学校,南白石小学校,43.043758,141.399399,緯度経度は怪しい
北海道,札幌市,21-02,白石区栄通５丁目 もみじ公園,もみじ公園,43.0394116,141.4018602,
北海道,札幌市,21-03,白石区栄通２丁目 エルム公園,エルム公園,43.041374,141.397614,緯度経度は怪しい
北海道,札幌市,21-04,白石区南郷通２丁目南 フレンド公園,フレンド公園,43.0434328,141.4002436,
北海道,札幌市,21-05,白石区南郷通３丁目南 白石こころーど（南郷通３丁目）,白石こころーど（南郷通３丁目）,43.042858,141.401886,緯度経度は怪しい
北海道,札幌市,22-01,白石区本郷通６丁目南 白石中学校（通用門）,白石中学校（通用門）,43.043365,141.410461,緯度経度は怪しい
北海道,札幌市,22-02,白石区本郷通６丁目南 白石中学校（校庭側）,白石中学校（校庭側）,43.043365,141.410461,緯度経度は怪しい
北海道,札幌市,22-03,白石区栄通７丁目 白石こころーど（万生トンネル付近）,白石こころーど（万生トンネル付近）,43.037464,141.408661,緯度経度は怪しい
北海道,札幌市,22-04,白石区栄通６丁目 みのる公園,みのる公園,43.038983,141.4070701,
北海道,札幌市,22-05,白石区南郷通６丁目南 南郷交番横,南郷交番横,43.04052,141.407684,緯度経度は怪しい
北海道,札幌市,22-06,白石区本郷通６丁目南 本郷公園,本郷公園,43.0429878,141.4111592,
北海道,札幌市,22-07,白石区南郷通６丁目南 南郷公園,南郷公園,43.04052,141.407684,緯度経度は怪しい
北海道,札幌市,22-08,白石区本通７丁目南 つどい公園,つどい公園,43.0448236,141.414745,
北海道,札幌市,23-01,白石区本通１０丁目南 市営住宅白石本郷団地５号棟,市営住宅白石本郷団地５号棟,43.041565,141.4207,緯度経度は怪しい
北海道,札幌市,23-02,白石区本郷通１０丁目北 市営住宅白石本郷団地４号棟,市営住宅白石本郷団地４号棟,43.040245,141.419052,緯度経度は怪しい
北海道,札幌市,23-03,白石区本通９丁目南 あかね公園（西側）,あかね公園（西側）,43.042689,141.4197524,
北海道,札幌市,23-04,白石区本通９丁目南 あかね公園（東側）,あかね公園（東側）,43.042689,141.4197524,
北海道,札幌市,23-05,白石区本郷通10丁目南 市営住宅白石本郷団地２号棟,市営住宅白石本郷団地２号棟,43.039162,141.418152,緯度経度は怪しい
北海道,札幌市,24-01,白石区南郷通１０丁目南 本郷小学校（通用門）,本郷小学校（通用門）,43.037117,141.416245,緯度経度は怪しい
北海道,札幌市,24-02,白石区南郷通１０丁目北 南郷東公園,南郷東公園,43.0383156,141.4178995,
北海道,札幌市,24-03,白石区南郷通１２丁目南 あおい公園,あおい公園,43.0360763,141.4194808,
北海道,札幌市,24-04,白石区栄通１３丁目 白石こころーど（星の子トンネル付近）,白石こころーど（星の子トンネル付近）,43.033482,141.419067,緯度経度は怪しい
北海道,札幌市,24-05,白石区栄通１２丁目 白石ふじ公園,白石ふじ公園,43.0334427,141.4170872,
北海道,札幌市,24-06,白石区栄通９丁目 こなみ公園,こなみ公園,43.0355518,141.4118263,
北海道,札幌市,24-07,白石区南郷通８丁目南 万生公園,万生公園,43.0380178,141.4124093,
北海道,札幌市,24-08,白石区南郷通８丁目北 みどり公園,みどり公園,43.0402115,141.4133696,
北海道,札幌市,24-09,白石区南郷通１０丁目南 本郷小学校（校庭側）,本郷小学校（校庭側）,43.037117,141.416245,緯度経度は怪しい
北海道,札幌市,25-01,白石区本通１４丁目南 東白石小学校,東白石小学校,43.03791,141.427399,緯度経度は怪しい
北海道,札幌市,25-02,白石区南郷通１４丁目北 南郷通フェンス,南郷通フェンス,43.036265,141.4254258,
北海道,札幌市,25-03,白石区南郷通１４丁目北 南郷の湯,南郷の湯,43.036312,141.425308,緯度経度は怪しい
北海道,札幌市,25-04,白石区本郷通１２丁目北 栄公園,栄公園,43.0385256,141.4219089,
北海道,札幌市,25-05,白石区南郷通１４丁目北 白石あかつき公園,白石あかつき公園,43.0359657,141.4254466,
北海道,札幌市,25-06,白石区南郷通１４丁目南 白石星の子公園,白石星の子公園,43.0342721,141.4229145,
北海道,札幌市,25-07,白石区本通１４丁目南 白石区土木センター,白石区土木センター,43.03791,141.427399,緯度経度は怪しい
北海道,札幌市,26-01,白石区本通１８丁目南 大谷地小学校（正門）,大谷地小学校（正門）,43.032757,141.436447,緯度経度は怪しい
北海道,札幌市,26-02,白石区流通センター４丁目 開栄橋,開栄橋,43.039406,141.449036,緯度経度は怪しい
北海道,札幌市,26-03,白石区南郷通２０丁目南 吉田山公園,吉田山公園,43.0281469,141.4404453,
北海道,札幌市,26-04,白石区栄通２０丁目 おおた公園,おおた公園,43.025711,141.438522,緯度経度は怪しい
北海道,札幌市,26-05,白石区本通１９丁目南 吉田山２号公園,吉田山２号公園,43.0307691,141.4390752,
北海道,札幌市,26-06,白石区栄通１８丁目 コープさっぽろルーシー店,コープさっぽろルーシー店,43.028019,141.432251,緯度経度は怪しい
北海道,札幌市,26-07,白石区南郷通１７丁目北 道営住宅白樺団地Ｒ－１,道営住宅白樺団地Ｒ－１,43.03278,141.43251,緯度経度は怪しい
北海道,札幌市,26-08,白石区栄通１８丁目 道営住宅栄通団地Ｒ－１,道営住宅栄通団地Ｒ－１,43.028019,141.432251,緯度経度は怪しい
北海道,札幌市,26-09,白石区本通１８丁目南 大谷地小学校（プール側）,大谷地小学校（プール側）,43.032757,141.436447,緯度経度は怪しい
北海道,札幌市,27-01,白石区平和通９丁目南 本通小学校（体育館側）,本通小学校（体育館側）,43.045418,141.421509,緯度経度は怪しい
北海道,札幌市,27-02,白石区本通１３丁目北 スーパーダイイチ駐車場フェンス,スーパーダイイチ駐車場フェンス,43.040974,141.426682,緯度経度は怪しい
北海道,札幌市,27-03,白石区平和通１０丁目南 旭町公園,旭町公園,43.0444197,141.423217,
北海道,札幌市,27-04,白石区平和通７丁目南 白石共栄公園（西側）,白石共栄公園（西側）,43.0476908,141.4175022,
北海道,札幌市,27-05,白石区本通１２丁目北 青葉公園,青葉公園,43.041645,141.424988,緯度経度は怪しい
北海道,札幌市,27-06,白石区平和通７丁目南 白石共栄公園（南側）,白石共栄公園（南側）,43.0476908,141.4175022,
北海道,札幌市,27-07,白石区平和通９丁目南 本通小学校（裏門）,本通小学校（裏門）,43.045418,141.421509,緯度経度は怪しい
北海道,札幌市,28-01,白石区南郷通１丁目南 白石区役所,白石区役所,43.044655,141.396484,緯度経度は怪しい
北海道,札幌市,28-02,白石区南郷通１丁目南 白石こころーど（南郷通１丁目西側）,白石こころーど（南郷通１丁目西側）,43.044655,141.396484,緯度経度は怪しい
北海道,札幌市,28-03,白石区南郷通１丁目南 なみき公園,なみき公園,43.0442159,141.3974034,
北海道,札幌市,28-04,白石区南郷通１丁目南 白石こころーど（南郷通１丁目東側）,白石こころーど（南郷通１丁目東側）,43.044655,141.396484,緯度経度は怪しい
北海道,札幌市,29-01,白石区南郷通１５丁目北 東白石中学校（正門）,東白石中学校（正門）,43.035011,141.427582,緯度経度は怪しい
北海道,札幌市,29-02,白石区南郷通１６丁目南 白石南公園,白石南公園,43.031827,141.4287291,
北海道,札幌市,29-03,白石区本通１５丁目南 白石霜踏公園,白石霜踏公園,43.0364396,141.4300657,
北海道,札幌市,29-04,白石区南郷通１７丁目南 南郷からまつ公園,南郷からまつ公園,43.0308924,141.4312592,
北海道,札幌市,29-05,白石区南郷通１５丁目南 白石みそら公園,白石みそら公園,43.0332931,141.4263306,
北海道,札幌市,29-06,白石区南郷通１５丁目北 東白石中学校（校庭側）,東白石中学校（校庭側）,43.035011,141.427582,緯度経度は怪しい
北海道,札幌市,29-07,白石区栄通１５丁目 白石こころーど（みそらトンネル付近）,白石こころーど（みそらトンネル付近）,43.031548,141.422943,緯度経度は怪しい
北海道,札幌市,29-08,白石区本通１６丁目南 リフレサッポロ駐車場,リフレサッポロ駐車場,43.035454,141.431442,緯度経度は怪しい
北海道,札幌市,30-01,白石区東札幌５条３丁目 東札幌児童会館,東札幌児童会館,43.052738,141.390808,緯度経度は怪しい
北海道,札幌市,30-02,白石区東札幌６条４丁目 もつき公園,もつき公園,43.0526166,141.3945539,
北海道,札幌市,30-03,白石区東札幌６条２丁目 東札幌公園,東札幌公園,43.0549203,141.3910365,
北海道,札幌市,30-04,白石区東札幌６条４丁目 もつき公園,もつき公園,43.0526166,141.3945539,
北海道,札幌市,30-05,白石区東札幌６条１丁目 さっぽろ大地公園,さっぽろ大地公園,43.0573617,141.3906448,
北海道,札幌市,31-01,白石区川北４条２丁目 川北小学校,川北小学校,43.063686,141.436264,緯度経度は怪しい
北海道,札幌市,31-02,白石区北郷８条９丁目 北郷公園,北郷公園,43.0657159,141.4286889,
北海道,札幌市,31-03,白石区北郷５条１０丁目 北郷コスモス公園,北郷コスモス公園,43.0584163,141.430428,
北海道,札幌市,31-04,白石区北郷６条８丁目 北郷さつき公園,北郷さつき公園,43.0611387,141.4259101,
北海道,札幌市,31-05,白石区米里２条４丁目 ＮＴＴ北郷電話交換局,ＮＴＴ北郷電話交換局,43.072254,141.424255,緯度経度は怪しい
北海道,札幌市,01-01,西区二十四軒２条２丁目１番 二十四軒小学校,二十四軒小学校,43.07396,141.3159542,
北海道,札幌市,01-02,西区二十四軒１条３丁目３番 二十四軒すずらん公園,二十四軒すずらん公園,43.072372,141.315018,緯度経度は怪しい
北海道,札幌市,01-03,西区二十四軒３条４丁目３番 二十四軒公園,二十四軒公園,43.0732464,141.3102917,
北海道,札幌市,01-04,西区二十四軒３条４丁目３番 二十四軒公園,二十四軒公園,43.0732464,141.3102917,
北海道,札幌市,01-05,西区二十四軒４条３丁目４番 札幌第一病院,札幌第一病院,43.0763859,141.3069647,
北海道,札幌市,01-06,西区二十四軒４条３丁目４番 札幌市西老人福祉センター,札幌市西老人福祉センター,43.0767879,141.3085338,
北海道,札幌市,01-07,西区二十四軒１条４丁目１番 交通局西車両基地琴似変電所,交通局西車両基地琴似変電所,43.0702792,141.3169459,
北海道,札幌市,02-01,西区二十四軒２条５丁目２番 二十四軒こだま公園,二十四軒こだま公園,43.070107,141.312164,緯度経度は怪しい
北海道,札幌市,02-02,西区二十四軒１条６丁目４番 とんぼ公園,とんぼ公園,43.067051,141.314026,緯度経度は怪しい
北海道,札幌市,02-03,西区二十四軒２条７丁目１番 ｼﾞｪｲ･ｱｰﾙ北海道ﾊﾞｽ㈱琴似営業所,ｼﾞｪｲ･ｱｰﾙ北海道ﾊﾞｽ㈱琴似営業所,43.0678228,141.3108277,
北海道,札幌市,02-04,西区二十四軒２条７丁目１番 ｼﾞｪｲ･ｱｰﾙ北海道ﾊﾞｽ㈱琴似営業所,ｼﾞｪｲ･ｱｰﾙ北海道ﾊﾞｽ㈱琴似営業所,43.0678228,141.3108277,
北海道,札幌市,02-05,西区二十四軒２条５丁目２番 二十四軒こだま公園,二十四軒こだま公園,43.070107,141.312164,緯度経度は怪しい
北海道,札幌市,02-06,西区二十四軒３条５丁目６番 市営住宅二十四軒団地４号棟,市営住宅二十四軒団地４号棟,43.0710662,141.3083198,
北海道,札幌市,02-07,西区二十四軒３条６丁目８番 二十四軒さいわい公園,二十四軒さいわい公園,43.071121,141.306625,緯度経度は怪しい
北海道,札幌市,03-01,西区琴似２条７丁目１番 西区民センター,西区民センター,43.0741379,141.2996192,
北海道,札幌市,03-02,西区琴似２条７丁目１番 西区民センター,西区民センター,43.0741379,141.2996192,
北海道,札幌市,03-03,西区琴似２条７丁目１番 西区役所,西区役所,43.0744198,141.3008878,
北海道,札幌市,03-04,西区琴似１条４丁目２番 ㈱札幌振興公社琴似駐車場,㈱札幌振興公社琴似駐車場,43.075504,141.304977,緯度経度は怪しい
北海道,札幌市,03-05,西区琴似２条１丁目４番 CiiNACiiNA琴似店,CiiNACiiNA琴似店,43.080715,141.306015,緯度経度は怪しい
北海道,札幌市,03-06,西区琴似１条１丁目２番 フロンティアビレッジ琴似コート,フロンティアビレッジ琴似コート,43.0798354,141.3094517,
北海道,札幌市,03-07,西区琴似２条１丁目１番 JR琴似駅第３自転車駐車場,JR琴似駅第３自転車駐車場,43.0819354,141.3069174,
北海道,札幌市,04-01,西区琴似２条７丁目１番 琴似小学校,琴似小学校,43.0754249,141.2996611,
北海道,札幌市,04-02,西区琴似４条７丁目２番 琴似くるみ公園,琴似くるみ公園,43.075947,141.295288,緯度経度は怪しい
北海道,札幌市,04-03,西区琴似４条３丁目５番 発寒河畔公園,発寒河畔公園,43.080708,141.299744,緯度経度は怪しい
北海道,札幌市,04-04,西区琴似３条１丁目1番 ＪＲ琴似駅第１自転車駐車場,ＪＲ琴似駅第１自転車駐車場,43.083344,141.304291,緯度経度は怪しい
北海道,札幌市,04-05,西区琴似４条４丁目３番 長栄新橋東側三角地,長栄新橋東側三角地,43.078785,141.298523,緯度経度は怪しい
北海道,札幌市,04-06,西区琴似３条６丁目１番 琴似なかよし公園,琴似なかよし公園,43.076279,141.299332,緯度経度は怪しい
北海道,札幌市,04-07,西区琴似２条７丁目１番 琴似小学校,琴似小学校,43.0754249,141.2996611,
北海道,札幌市,04-08,西区琴似２条４丁目 地下鉄琴似駅第１自転車駐車場　イオン西側,地下鉄琴似駅第１自転車駐車場　イオン西側,43.077187,141.30275,緯度経度は怪しい
北海道,札幌市,05-01,西区山の手４条２丁目１番 琴似中学校,琴似中学校,43.072491,141.296585,緯度経度は怪しい
北海道,札幌市,05-02,西区山の手５条２丁目２番 山の手アップル公園,山の手アップル公園,43.073364,141.295059,緯度経度は怪しい
北海道,札幌市,05-03,西区山の手６条３丁目５番 発寒河畔公園,発寒河畔公園,43.074333,141.290756,緯度経度は怪しい
北海道,札幌市,05-04,西区山の手２条３丁目４番 北風公園,北風公園,43.06913,141.300156,緯度経度は怪しい
北海道,札幌市,05-05,西区山の手２条３丁目４番 北風公園,北風公園,43.06913,141.300156,緯度経度は怪しい
北海道,札幌市,05-06,西区山の手１条４丁目５番 山の手ちびっこ公園,山の手ちびっこ公園,43.067101,141.301743,緯度経度は怪しい
北海道,札幌市,05-07,西区山の手４条３丁目１番 琴似中学校,琴似中学校,43.071598,141.296051,緯度経度は怪しい
北海道,札幌市,06-01,西区山の手１条１０丁目５番 山の手南小学校,山の手南小学校,43.062992,141.2954393,
北海道,札幌市,06-02,西区山の手１条９丁目６番 山の手南小学校,山の手南小学校,43.063778,141.29599,緯度経度は怪しい
北海道,札幌市,06-03,西区山の手２条１０丁目６番 山の手草ぶえ公園,山の手草ぶえ公園,43.064922,141.293076,緯度経度は怪しい
北海道,札幌市,06-04,西区山の手２条１０丁目６番 山の手草ぶえ公園,山の手草ぶえ公園,43.064922,141.293076,緯度経度は怪しい
北海道,札幌市,06-05,西区山の手１条７丁目４番 DCM山の手店,DCM山の手店,43.0650486,141.2983407,
北海道,札幌市,06-06,西区山の手２条１２丁目１２番 山の手三角山公園,山の手三角山公園,43.063007,141.290543,緯度経度は怪しい
北海道,札幌市,07-01,西区山の手５条６丁目１番 山の手小学校,山の手小学校,43.0704475,141.2913144,
北海道,札幌市,07-02,西区山の手３条８丁目１番 札幌山の手高等学校,札幌山の手高等学校,43.066612,141.293304,緯度経度は怪しい
北海道,札幌市,07-03,西区山の手５条６丁目１番 山の手小学校,山の手小学校,43.0704475,141.2913144,
北海道,札幌市,07-04,西区山の手６条５丁目２番 山の手ふもと公園,山の手ふもと公園,43.072041,141.290375,緯度経度は怪しい
北海道,札幌市,07-05,西区山の手４条５丁目２番 山の手公園,山の手公園,43.070293,141.294327,緯度経度は怪しい
北海道,札幌市,07-06,西区山の手３条５丁目１番 山の手ポプラ公園,山の手ポプラ公園,43.0690215,141.2968273,
北海道,札幌市,07-07,西区山の手４条７丁目４番 山の手そよ風公園,山の手そよ風公園,43.0685326,141.2917046,
北海道,札幌市,08-01,西区西町北１１丁目３番 桜公園,桜公園,43.082729,141.286545,緯度経度は怪しい
北海道,札幌市,08-02,西区西町北８丁目４番 ナナカマド公園,ナナカマド公園,43.081585,141.288467,緯度経度は怪しい
北海道,札幌市,08-03,西区西町北５丁目５番 イボタ公園,イボタ公園,43.079899,141.291214,緯度経度は怪しい
北海道,札幌市,08-04,西区西町北１丁目６番 河畔公園,河畔公園,43.077568,141.294952,緯度経度は怪しい
北海道,札幌市,08-05,西区西町南３丁目４番 オンコ公園,オンコ公園,43.076057,141.289001,緯度経度は怪しい
北海道,札幌市,08-06,西区西町南８丁目５番 西町ライラック公園,西町ライラック公園,43.078693,141.285446,緯度経度は怪しい
北海道,札幌市,08-07,西区西町南１１丁目５番 西町東公園,西町東公園,43.080143,141.282928,緯度経度は怪しい
北海道,札幌市,08-08,西区西町南１丁目１番 発寒川公園,発寒川公園,43.076481,141.292725,緯度経度は怪しい
北海道,札幌市,09-01,西区西町南２１丁目３番 手稲記念館,手稲記念館,43.0856818,141.2736028,
北海道,札幌市,09-02,西区西町南２１丁目３番 手稲記念館前,手稲記念館前,43.0856818,141.2736028,
北海道,札幌市,09-03,西区西町北１６丁目４番 西町白樺公園,西町白樺公園,43.085396,141.281982,緯度経度は怪しい
北海道,札幌市,09-04,西区西町北１８丁目１番 ニチロ畜産㈱,ニチロ畜産㈱,43.08608,141.278827,
北海道,札幌市,09-05,西区西町南１９丁目１番 中の川公園,中の川公園,43.085579,141.276428,緯度経度は怪しい
北海道,札幌市,09-06,西区宮の沢１条２丁目７番 宮の沢ちびっこ公園,宮の沢ちびっこ公園,43.090134,141.273407,緯度経度は怪しい
北海道,札幌市,09-07,西町南１５丁目３番 梅林公園,梅林公園,43.08889947,141.2791015,
北海道,札幌市,09-08,西町南１５丁目３番 梅林公園,梅林公園,43.08889947,141.2791015,
北海道,札幌市,10-01,西区宮の沢１条５丁目１５番 宮の沢中央公園,宮の沢中央公園,43.096622,141.265427,緯度経度は怪しい
北海道,札幌市,10-02,西区宮の沢１条５丁目２１番 宮の沢そよかぜ公園,宮の沢そよかぜ公園,43.094094,141.2647923,
北海道,札幌市,10-03,西区宮の沢１条５丁目１１番 宮の沢児童会館,宮の沢児童会館,43.0957041,141.2669451,
北海道,札幌市,10-04,西区宮の沢１条５丁目２０番 追分川沿い,追分川沿い,43.0956712,141.2650282,
北海道,札幌市,10-05,西区発寒７条１４丁目１７番 発寒ペンギン村公園,発寒ペンギン村公園,43.099697,141.268524,緯度経度は怪しい
北海道,札幌市,10-06,札幌市西区発寒９条１４丁目 DCM発寒追分通店,DCM発寒追分通店,43.10247526,141.2710068,
北海道,札幌市,11-01,西区宮の沢３条２丁目１番 手稲宮丘小学校,手稲宮丘小学校,43.0845629,141.2663377,
北海道,札幌市,11-02,西区宮の沢３条２丁目２番 宮の沢あおば公園,宮の沢あおば公園,43.085712,141.267914,緯度経度は怪しい
北海道,札幌市,11-03,西区西野３条１０丁目９番 宮の丘中学校,宮の丘中学校,43.081158,141.268814,緯度経度は怪しい
北海道,札幌市,11-04,西区宮の沢３条３丁目１９番 ビレッジハウス手稲２号棟,ビレッジハウス手稲２号棟,43.0871527,141.2674156,
北海道,札幌市,11-05,西区宮の沢３条５丁目１番 宮の沢青雲公園,宮の沢青雲公園,43.088249,141.262802,緯度経度は怪しい
北海道,札幌市,11-06,西区宮の沢３条３丁目２０番 宮の沢まつの木公園,宮の沢まつの木公園,43.087685,141.266785,緯度経度は怪しい
北海道,札幌市,11-07,西区西野２９０番地 宮丘公園,宮丘公園,43.077938,141.265869,緯度経度は怪しい
北海道,札幌市,11-08,西区宮の沢２条２丁目５番 宮の沢しらかば公園,宮の沢しらかば公園,43.087158,141.269958,緯度経度は怪しい
北海道,札幌市,12-01,西区西野２条７丁目１番 西野ひかり公園,西野ひかり公園,43.0807026,141.2762712,
北海道,札幌市,12-02,西区西野１条７丁目３番 西園小学校,西園小学校,43.080856,141.277145,緯度経度は怪しい
北海道,札幌市,12-03,西区西野１条６丁目４番 西野あかつき公園,西野あかつき公園,43.0798993,141.2788237,
北海道,札幌市,12-04,西区西野３条６丁目３番 中立西三仲よし公園,中立西三仲よし公園,43.0772222,141.274358,
北海道,札幌市,12-05,西区西野３条９丁目５番 西野ひよこ公園,西野ひよこ公園,43.0794169,141.2694363,
北海道,札幌市,12-06,西区西野１条８丁目６番 西野だいわ公園,西野だいわ公園,43.082592,141.275238,緯度経度は怪しい
北海道,札幌市,13-01,西区西野２条５丁目３番 手稲東中学校,手稲東中学校,43.0777964,141.2803946,
北海道,札幌市,13-02,西区西野１条３丁目２番 西野ふれあい公園,西野ふれあい公園,43.076908,141.283691,緯度経度は怪しい
北海道,札幌市,13-03,西区西野３条５丁目３番 中立あおぞら公園,中立あおぞら公園,43.0764767,141.2772013,
北海道,札幌市,13-04,西区西野２条２丁目４番 バス停「西野３条２丁目」,バス停「西野３条２丁目」,43.0738291,141.2845472,
北海道,札幌市,13-05,西区西野３条２丁目４番 西消防署西野出張所横,西消防署西野出張所横,43.0729222,141.2811713,
北海道,札幌市,13-06,西区西野２条５丁目３番 市営住宅西野団地１号棟,市営住宅西野団地１号棟,43.0786185,141.2792432,
北海道,札幌市,13-07,西区西野３条３丁目５番 西野グリーン公園,西野グリーン公園,43.074039,141.279892,緯度経度は怪しい
北海道,札幌市,14-01,西区西野４条３丁目７番 手稲東小学校,手稲東小学校,43.07217,141.278244,緯度経度は怪しい
北海道,札幌市,14-02,西区西野４条３丁目７番 手稲東小学校横,手稲東小学校横,43.07217,141.278244,緯度経度は怪しい
北海道,札幌市,14-03,西区西野５条４丁目８番 西野中央公園,西野中央公園,43.070805,141.2733,緯度経度は怪しい
北海道,札幌市,14-04,西区西野５条６丁目５番 西野カッコウ公園,西野カッコウ公園,43.073338,141.270752,緯度経度は怪しい
北海道,札幌市,14-05,西区西野４条８丁目２番 西野みどり公園,西野みどり公園,43.077129,141.269089,緯度経度は怪しい
北海道,札幌市,14-06,西区西野５条８丁目１番 西野よつば公園,西野よつば公園,43.075176,141.268143,緯度経度は怪しい
北海道,札幌市,14-07,西区西野４条１丁目４番 中立しらかば公園,中立しらかば公園,43.069675,141.280045,緯度経度は怪しい
北海道,札幌市,14-08,西区西野５条８丁目８番 西野しらかば公園,西野しらかば公園,43.075329,141.266083,緯度経度は怪しい
北海道,札幌市,15-01,西区西野８条４丁目４番 西野小学校,西野小学校,43.0631812,141.2698627,
北海道,札幌市,15-02,西区西野８条４丁目３番 西野緑道,西野緑道,43.0629875,141.2712196,
北海道,札幌市,15-03,西区西野８条２丁目６番 西野希望公園,西野希望公園,43.062168,141.274567,緯度経度は怪しい
北海道,札幌市,15-04,西区西野７条３丁目３番 西野昭和公園,西野昭和公園,43.065514,141.272507,緯度経度は怪しい
北海道,札幌市,15-05,西区西野７条３丁目５番 西野児童会館,西野児童会館,43.0657654,141.2714242,
北海道,札幌市,15-06,西区西野７条５丁目６番 西野コスモス公園,西野コスモス公園,43.067295,141.267151,緯度経度は怪しい
北海道,札幌市,15-07,西区西野９条５丁目１０番 西野あおぞら公園,西野あおぞら公園,43.0637183,141.2633057,
北海道,札幌市,15-08,西区西野８条５丁目３番 バス停「西野小学校前」,バス停「西野小学校前」,43.0645539,141.2673506,
北海道,札幌市,16-01,西区西野８条７丁目１番 西野第二小学校,西野第二小学校,43.0678111,141.2626912,
北海道,札幌市,16-02,西区西野７条７丁目５番 西野くわの木公園,西野くわの木公園,43.0690416,141.2652091,
北海道,札幌市,16-03,西区西７条１０丁目５番 西野にじがおか公園,西野にじがおか公園,43.075851,141.291718,緯度経度は怪しい
北海道,札幌市,16-04,西区西野８条１０丁目８番 西野山なみ公園,西野山なみ公園,43.070091,141.258026,緯度経度は怪しい
北海道,札幌市,16-05,西区西野７条９丁目２番 西野第一公園,西野第一公園,43.072353,141.262878,緯度経度は怪しい
北海道,札幌市,16-06,西区西野８条９丁目１８番 西野タンポポ公園,西野タンポポ公園,43.070675,141.259827,緯度経度は怪しい
北海道,札幌市,16-07,西区西野７条１０丁目１２番 西野やまばと公園,西野やまばと公園,43.073536,141.256897,緯度経度は怪しい
北海道,札幌市,16-08,西区西野６条６丁目９番 西野かえで公園,西野かえで公園,43.0705432,141.2690396,
北海道,札幌市,16-09,西野７条８丁目１２番 西野ひまわり公園,西野ひまわり公園,43.07123316,141.2632269,
北海道,札幌市,17-01,西区西野８条７丁目５番 西野中学校,西野中学校,43.06641097,141.2618392,
北海道,札幌市,17-02,西区西野８条６丁目５番 西野第二公園,西野第二公園,43.066036,141.26329,緯度経度は怪しい
北海道,札幌市,17-03,西区西野９条９丁目７番 西野西公園,西野西公園,43.067284,141.258728,緯度経度は怪しい
北海道,札幌市,17-04,西野９条７丁目１０番 西野中学校,西野中学校,43.06641097,141.2618392,
北海道,札幌市,17-05,西野１０条８丁目４番 西野すずめ公園,西野すずめ公園,43.06377879,141.2562978,
北海道,札幌市,17-06,西区西野１０条９丁目８番 西野うぐいす公園,西野うぐいす公園,43.0647079,141.253695,
北海道,札幌市,17-07,西野１１条９丁目２２番 雨水貯留池,雨水貯留池,43.06314886,141.2497342,
北海道,札幌市,17-08,西野１１条８丁目５番 西野台公園,西野台公園,43.06208294,141.2533949,
北海道,札幌市,18-01,西区平和３条８丁目２番 平和小学校,平和小学校,43.054237,141.250717,緯度経度は怪しい
北海道,札幌市,18-02,西区平和１条１０丁目１番 平和渓流公園,平和渓流公園,43.0580131,141.2455669,
北海道,札幌市,18-03,西区平和２条７丁目８番 平和やまびこ公園,平和やまびこ公園,43.0567591,141.2523724,
北海道,札幌市,18-04,西区平和２条２丁目４番 平和みなみ緑地,平和みなみ緑地,43.0589362,141.2626234,
北海道,札幌市,18-05,西区平和１条５丁目１番 平和ピノキオ公園,平和ピノキオ公園,43.0595702,141.2558194,
北海道,札幌市,18-06,西区西野１２条８丁目１番 中洲橋公園,中洲橋公園,43.060955,141.249802,緯度経度は怪しい
北海道,札幌市,18-07,西区平和３条９丁目３番 平和若葉公園,平和若葉公園,43.0550322,141.2484436,
北海道,札幌市,18-08,西区平和２条２丁目９番 平和ふもと公園,平和ふもと公園,43.0573453,141.262321,
北海道,札幌市,18-09,西区平和２条３丁目３番 平和からふる公園,平和からふる公園,43.058388,141.260101,緯度経度は怪しい
北海道,札幌市,19-01,西区福井６丁目１１番 福井野小学校,福井野小学校,43.0555,141.266174,緯度経度は怪しい
北海道,札幌市,19-02,西区福井４丁目５番 バス停「福井４丁目」,バス停「福井４丁目」,43.0564649,141.268624,
北海道,札幌市,19-03,西区福井２丁目１２番 福井すずらん公園,福井すずらん公園,43.0594127,141.2694607,
北海道,札幌市,19-04,西区福井１丁目１１番 福井さくら公園,福井さくら公園,43.0584619,141.2740389,
北海道,札幌市,19-05,西区福井４丁目８番 福井わかば公園,福井わかば公園,43.0568717,141.2658163,
北海道,札幌市,19-06,西区福井７丁目１２番 大成ロテック㈱,大成ロテック㈱,43.0498958,141.2647314,
北海道,札幌市,19-07,西区福井８丁目１６番 福井子ばと公園,福井子ばと公園,43.0518047,141.2643786,
北海道,札幌市,19-08,西区福井５丁目１１番 福井ひまわり公園,福井ひまわり公園,43.0515991,141.2695653,
北海道,札幌市,19-09,西区福井２丁目７番 福井ふたば公園,福井ふたば公園,43.059147,141.266174,緯度経度は怪しい
北海道,札幌市,20-01,西区八軒７条東１丁目１番 琴似中央小学校,琴似中央小学校,43.087952,141.316803,緯度経度は怪しい
北海道,札幌市,20-02,西区八軒７条東１丁目１番 八軒中央公園,八軒中央公園,43.088196,141.316544,緯度経度は怪しい
北海道,札幌市,20-03,西区八軒６条西２丁目２番 はちけん地区センター,はちけん地区センター,43.089191,141.312088,緯度経度は怪しい
北海道,札幌市,20-04,西区八軒７条東２丁目１番 ＪＲ八軒駅自転車駐車場,ＪＲ八軒駅自転車駐車場,43.0863729,141.3194832,
北海道,札幌市,20-05,西区八軒９条東１丁目２番 八軒自転車保管所,八軒自転車保管所,43.0897502,141.3187542,
北海道,札幌市,20-06,西区八軒６条東５丁目１番 八軒とんとん公園,八軒とんとん公園,43.082554,141.323364,緯度経度は怪しい
北海道,札幌市,20-07,八軒９条西２丁目１０番 八軒旭公園,八軒旭公園,43.09159882,141.3167822,
北海道,札幌市,20-08,八軒１０条東５丁目１番 八軒ひまわり公園,八軒ひまわり公園,43.08585171,141.3268434,
北海道,札幌市,21-01,西区八軒８条西８丁目１番 八軒中学校,八軒中学校,43.0952829,141.3060613,
北海道,札幌市,21-02,西区八軒９条西７丁目１番 新川下水処理場,新川下水処理場,43.0974039,141.309951,
北海道,札幌市,21-03,西区八軒１０条西１２丁目６ 八軒ひかり公園,八軒ひかり公園,43.1030769,141.303786,
北海道,札幌市,21-04,西区八軒８条西６丁目１番 北っ子公園,北っ子公園,43.093994,141.309418,緯度経度は怪しい
北海道,札幌市,21-05,西区八軒９条西３丁目３番 八軒ライラック公園,八軒ライラック公園,43.093044,141.314438,緯度経度は怪しい
北海道,札幌市,21-06,西区八軒９条西４丁目５番 八軒北公園,八軒北公園,43.094063,141.312027,緯度経度は怪しい
北海道,札幌市,21-07,西区八軒８条西６丁目１番 八軒北小学校,八軒北小学校,43.0934761,141.3096106,
北海道,札幌市,21-08,西区八軒７条西３丁目２番 八軒友花公園,八軒友花公園,43.090748,141.312134,緯度経度は怪しい
北海道,札幌市,22-01,西区八軒２条東３丁目１番 八軒東中学校,八軒東中学校,43.080437,141.314514,緯度経度は怪しい
北海道,札幌市,22-02,masked,masked,43.0801004,141.3112798,
北海道,札幌市,22-03,西区八軒１条東１丁目７番 八軒さつき公園,八軒さつき公園,43.081402,141.310623,緯度経度は怪しい
北海道,札幌市,22-04,西区八軒３条東３丁目1番 八軒はるかぜ公園,八軒はるかぜ公園,43.080757,141.315918,緯度経度は怪しい
北海道,札幌市,22-05,西区八軒４条東３丁目２番 八軒４条公園,八軒４条公園,43.082497,141.318024,緯度経度は怪しい
北海道,札幌市,22-06,masked,masked,43.0784477,141.3155591,
北海道,札幌市,22-07,西区八軒１条東３丁目２番 西消防署八軒出張所,西消防署八軒出張所,43.0791013,141.3133708,
北海道,札幌市,23-01,西区八軒４条西１丁目1番 八軒小学校,八軒小学校,43.085545,141.312195,緯度経度は怪しい
北海道,札幌市,23-02,西区八軒２条西２丁目１０番 八軒西公園,八軒西公園,43.084236,141.310181,緯度経度は怪しい
北海道,札幌市,23-03,西区八軒３条東１丁目1番 八軒東公園,八軒東公園,43.083241,141.312637,緯度経度は怪しい
北海道,札幌市,23-04,西区八軒３条東１丁目１番 八軒東公園,八軒東公園,43.083241,141.312637,緯度経度は怪しい
北海道,札幌市,23-05,西区八軒５条東２丁目３番 八軒エルム公園,八軒エルム公園,43.084503,141.317108,緯度経度は怪しい
北海道,札幌市,23-06,西区八軒４条西１丁目１番 八軒小学校,八軒小学校,43.085545,141.312195,緯度経度は怪しい
北海道,札幌市,23-07,西区八軒１条西１丁目４番 八軒まりも公園,八軒まりも公園,43.082909,141.308853,緯度経度は怪しい
北海道,札幌市,24-01,西区八軒４条西５丁目１番 八軒西小学校,八軒西小学校,43.0896234,141.3063963,
北海道,札幌市,24-02,西区八軒１条西４丁目２番 国家公務員合同宿舎琴似住宅６１８号棟,国家公務員合同宿舎琴似住宅６１８号棟,43.0849893,141.303642,
北海道,札幌市,24-03,西区八軒３条西５丁目１番 八軒西小学校,八軒西小学校,43.0884189,141.3063822,
北海道,札幌市,24-04,西区八軒５条西６丁目１番 農試公園,農試公園,43.091492,141.305023,緯度経度は怪しい
北海道,札幌市,24-05,西区八軒５条西６丁目１番 農試公園,農試公園,43.091492,141.305023,緯度経度は怪しい
北海道,札幌市,24-06,西区八軒５条西８丁目５番 特別養護老人ホーム三陽,特別養護老人ホーム三陽,43.092177,141.3023441,
北海道,札幌市,24-07,西区八軒４条西６丁目１番 農試公園,農試公園,43.086842,141.303497,緯度経度は怪しい
北海道,札幌市,25-01,西区発寒１５条２丁目２番 発寒東小学校,発寒東小学校,43.102428,141.297073,緯度経度は怪しい
北海道,札幌市,25-02,西区発寒１５条２丁目５番 西陵中学校,西陵中学校,43.103611,141.29715,緯度経度は怪しい
北海道,札幌市,25-03,西区発寒１６条１３丁目１番 ㈱鉄工団地自動車学園,㈱鉄工団地自動車学園,43.1094883,141.2875473,
北海道,札幌市,25-04,西区発寒１７条１３丁目１番 札樽自動車運輸㈱,札樽自動車運輸㈱,43.1117507,141.2911532,
北海道,札幌市,25-05,西区発寒１５条１丁目２番 発寒きじばと公園,発寒きじばと公園,43.100338,141.299179,緯度経度は怪しい
北海道,札幌市,25-06,西区発寒１６条１４丁目４番 発寒いこい公園,発寒いこい公園,43.114555,141.285065,緯度経度は怪しい
北海道,札幌市,25-07,西区発寒１５条１丁目１８番 発寒小天狗公園,発寒小天狗公園,43.101562,141.299728,緯度経度は怪しい
北海道,札幌市,26-01,西区発寒１３条１１丁目２番 鉄興公園,鉄興公園,43.101959,141.287247,緯度経度は怪しい
北海道,札幌市,26-02,西区発寒１２条５丁目２番 市営住宅発寒団地公園,市営住宅発寒団地公園,43.0979796,141.2881311,
北海道,札幌市,26-03,西区発寒１４条１２丁目２番 札幌鉄工団地センター,札幌鉄工団地センター,43.1051159,141.2855982,
北海道,札幌市,26-04,西区発寒１２条１１丁目４番 鉄興公園,鉄興公園,43.100311,141.285431,緯度経度は怪しい
北海道,札幌市,26-05,西区発寒１１条１１丁目５番 鉄興公園,鉄興公園,43.099178,141.284164,緯度経度は怪しい
北海道,札幌市,26-06,西区発寒１１条６丁目２番 北翔支援学校,北翔支援学校,43.0964804,141.2862916,
北海道,札幌市,26-07,西区発寒１２条４丁目２番 発寒ポプラ公園,発寒ポプラ公園,43.0961371,141.2923601,
北海道,札幌市,27-01,西区発寒１０条４丁目１番 発寒小学校,発寒小学校,43.0914153,141.2928661,
北海道,札幌市,27-02,西区発寒１０条４丁目１番 発寒小学校,発寒小学校,43.0914153,141.2928661,
北海道,札幌市,27-03,西区発寒１０条４丁目１番 ＪＲ発寒中央駅第４自転車駐車場,ＪＲ発寒中央駅第４自転車駐車場,43.0913659,141.2923953,
北海道,札幌市,27-04,西区発寒１０条１丁目２番 ビレッジハウス琴似第二４号棟前,ビレッジハウス琴似第二４号棟前,43.0866248,141.2999721,
北海道,札幌市,27-05,西区発寒１２条２丁目８番 発寒やよい公園,発寒やよい公園,43.096043,141.2966,緯度経度は怪しい
北海道,札幌市,27-06,西区発寒１１条１丁目９番 発寒いたどり公園,発寒いたどり公園,43.0929242,141.298091,
北海道,札幌市,27-07,西区発寒１０条２丁目１番 道営住宅発寒団地Ｒ５号棟,道営住宅発寒団地Ｒ５号棟,43.0885308,141.2972914,
北海道,札幌市,27-08,西区発寒１０条４丁目７番 発寒ふれあい公園,発寒ふれあい公園,43.092777,141.292206,緯度経度は怪しい
北海道,札幌市,28-01,西区発寒２条４丁目１番 発寒南小学校,発寒南小学校,43.0818704,141.2929981,
北海道,札幌市,28-02,西区発寒１条３丁目１４番 市営住宅発寒１条団地,市営住宅発寒１条団地,43.0795119,141.2965993,
北海道,札幌市,28-03,西区発寒３条３丁目２番 発寒双葉公園,発寒双葉公園,43.0827588,141.2955462,
北海道,札幌市,28-04,西区発寒４条２丁目１番 発寒大空公園,発寒大空公園,43.085762,141.296432,緯度経度は怪しい
北海道,札幌市,28-05,西区発寒４条２丁目１番 発寒大空公園,発寒大空公園,43.085762,141.296432,緯度経度は怪しい
北海道,札幌市,28-06,西区発寒６条３丁目１番 ＪＲ発寒中央駅第１自転車駐車場,ＪＲ発寒中央駅第１自転車駐車場,43.0890238,141.2944918,
北海道,札幌市,28-07,西区発寒１条４丁目６番 発寒南さくら公園,発寒南さくら公園,43.080656,141.2932385,
北海道,札幌市,29-01,西区発寒５条７丁目１番 発寒西小学校,発寒西小学校,43.0861829,141.2854822,
北海道,札幌市,29-02,西区発寒５条４丁目２番 発寒とんでん公園,発寒とんでん公園,43.087452,141.292648,緯度経度は怪しい
北海道,札幌市,29-03,西区発寒５条８丁目９番 西区体育館,西区体育館,43.0873733,141.2826236,
北海道,札幌市,29-04,西区発寒５条８丁目９番 西区体育館,西区体育館,43.0873733,141.2826236,
北海道,札幌市,29-05,西区発寒５条７丁目１番 発寒中学校,発寒中学校,43.0858455,141.2863126,
北海道,札幌市,29-06,西区発寒６条４丁目５番 たかやま公園,たかやま公園,43.089417,141.29129,緯度経度は怪しい
北海道,札幌市,30-01,西区発寒８条５丁目２番 市営住宅発寒８条団地集会室,市営住宅発寒８条団地集会室,43.0919591,141.2890071,
北海道,札幌市,30-02,西区発寒７条７丁目５番 みとべ公園,みとべ公園,43.0900725,141.2862017,
北海道,札幌市,30-03,西区発寒７条８丁目２番 発寒クローバー公園,発寒クローバー公園,43.090099,141.283524,緯度経度は怪しい
北海道,札幌市,30-04,西区発寒８条５丁目２番 市営住宅発寒８条団地７号棟,市営住宅発寒８条団地７号棟,43.0919591,141.2890071,
北海道,札幌市,30-05,西区発寒６条９丁目６０９－２６ 発寒特別緑地保全地区,発寒特別緑地保全地区,43.089577,141.279877,緯度経度は怪しい
北海道,札幌市,30-06,西区発寒６条１０丁目１番 発寒くりの木公園,発寒くりの木公園,43.090336,141.277725,緯度経度は怪しい
北海道,札幌市,31-01,西区発寒７条１３丁目２番 西小学校,西小学校,43.0964333,141.2732108,
北海道,札幌市,31-02,西区発寒９条１３丁目１番 JR発寒駅南口自転車駐車場,JR発寒駅南口自転車駐車場,43.098969,141.277145,緯度経度は怪しい
北海道,札幌市,31-03,西区発寒８条１３丁目１３番 発寒西公園,発寒西公園,43.098721,141.274155,緯度経度は怪しい
北海道,札幌市,31-04,西区発寒６条１３丁目３番 発寒あかね公園,発寒あかね公園,43.095337,141.271408,緯度経度は怪しい
北海道,札幌市,31-05,西区発寒９条１１丁目４番 西発寒ラビット公園,西発寒ラビット公園,43.095573,141.283417,緯度経度は怪しい
北海道,札幌市,31-06,西区発寒９条１１丁目１番 西発寒保育園,西発寒保育園,43.09469,141.2821524,
北海道,札幌市,31-07,西区発寒６条１２丁目４番 発寒しらかば公園,発寒しらかば公園,43.093521,141.274033,緯度経度は怪しい
北海道,札幌市,31-08,西区発寒６条１１丁目６番 発寒さくら公園,発寒さくら公園,43.092777,141.276398,緯度経度は怪しい
北海道,札幌市,01-01,豊平区豊平４条１丁目 豊平橋緑地,豊平橋緑地,43.0547461,141.3649031,
北海道,札幌市,01-02,豊平区水車町１丁目 水車町公園,水車町公園,43.052086,141.364395,緯度経度は怪しい
北海道,札幌市,01-03,豊平区豊平６条３丁目 豊陵公園,豊陵公園,43.0498972,141.3681475,
北海道,札幌市,01-04,豊平区水車町３丁目 旭小学校校地前花壇,旭小学校校地前花壇,43.0478181,141.3626713,
北海道,札幌市,01-05,豊平区旭町４丁目 北海学園札幌高等学校グラウンドフェンス,北海学園札幌高等学校グラウンドフェンス,43.046211,141.368164,緯度経度は怪しい
北海道,札幌市,01-06,豊平区水車町６丁目 コーポサカエ前ガードレール横,コーポサカエ前ガードレール横,43.044991,141.364746,緯度経度は怪しい
北海道,札幌市,01-07,豊平区豊平５条２丁目 橋南ちびっこ公園,橋南ちびっこ公園,43.0527231,141.3653564,
北海道,札幌市,01-08,豊平区旭町３丁目 旭水公園,旭水公園,43.0463902,141.3658268,
北海道,札幌市,02-01,豊平区豊平２条３丁目 豊平ひふみ公園,豊平ひふみ公園,43.0538271,141.3708744,
北海道,札幌市,02-02,豊平区豊平５条７丁目 豊平小学校校門横,豊平小学校校門横,43.0484131,141.3723488,
北海道,札幌市,02-03,豊平区豊平５条７丁目 豊平小学校グラウンドフェンス,豊平小学校グラウンドフェンス,43.0484131,141.3723488,
北海道,札幌市,02-04,豊平区豊平６条６丁目 学園前駅２番出口駐輪所,学園前駅２番出口駐輪所,43.047424,141.369132,
北海道,札幌市,02-05,豊平区豊平２条６丁目 豊平ゆたか公園,豊平ゆたか公園,43.0519434,141.3735978,
北海道,札幌市,02-06,豊平区豊平６条６丁目 北海商科大学　東門,北海商科大学　東門,43.047962,141.370026,緯度経度は怪しい
北海道,札幌市,02-07,豊平区豊平６条６丁目 北海商科大学　北側,北海商科大学　北側,43.047962,141.370026,緯度経度は怪しい
北海道,札幌市,03-01,豊平区豊平１条１２丁目 東園小学校校門横,東園小学校校門横,43.047565,141.382339,緯度経度は怪しい
北海道,札幌市,03-02,豊平区豊平１条１２丁目 東園小学校グラウンドフェンス,東園小学校グラウンドフェンス,43.047565,141.382339,緯度経度は怪しい
北海道,札幌市,03-03,豊平区豊平２条１３丁目 永浜クロス(株)駐車場,永浜クロス(株)駐車場,43.046227,141.382874,緯度経度は怪しい
北海道,札幌市,03-04,豊平区豊平４条１３丁目 市営住宅豊平４条団地１号棟前,市営住宅豊平４条団地１号棟前,43.044403,141.380768,緯度経度は怪しい
北海道,札幌市,03-05,豊平区豊平１条１２丁目 むつみ公園南側,むつみ公園南側,43.047089,141.3828109,
北海道,札幌市,03-06,豊平区豊平１条１２丁目 むつみ公園北側,むつみ公園北側,43.047089,141.3828109,
北海道,札幌市,04-01,豊平区豊平５条１１丁目 北海道立総合体育センター,北海道立総合体育センター,43.043934,141.376038,緯度経度は怪しい
北海道,札幌市,04-02,豊平区豊平８条９丁目 豊平みすず公園,豊平みすず公園,43.0444222,141.371794,
北海道,札幌市,04-03,豊平区豊平６条１０丁目 豊平みずほ公園,豊平みずほ公園,43.0444955,141.3744967,
北海道,札幌市,04-04,豊平区豊平８条１３丁目 八条中学校体育館前,八条中学校体育館前,43.0407728,141.3770824,
北海道,札幌市,04-05,豊平区豊平８条１３丁目 八条中学校学校開放事業利用者駐車場,八条中学校学校開放事業利用者駐車場,43.0407728,141.3770824,
北海道,札幌市,04-06,豊平区平岸３条５丁目 りんご公園,りんご公園,43.0376914,141.3726363,
北海道,札幌市,04-07,豊平区平岸３条２丁目 ライラック公園,ライラック公園,43.041016,141.371307,緯度経度は怪しい
北海道,札幌市,04-08,豊平区豊平８条１０丁目 南部水道センター用地,南部水道センター用地,43.043438,141.371979,緯度経度は怪しい
北海道,札幌市,05-01,豊平区美園２条２丁目 美園公園,美園公園,43.0445437,141.3855746,
北海道,札幌市,05-02,豊平区美園１条４丁目 豊園小学校校門横,豊園小学校校門横,43.044136,141.388809,緯度経度は怪しい
北海道,札幌市,05-03,豊平区美園１条４丁目 豊園公園,豊園公園,43.0440609,141.3894271,
北海道,札幌市,05-04,豊平区美園２条２丁目 美園公園,美園公園,43.0445437,141.3855746,
北海道,札幌市,05-05,豊平区美園２条７丁目 美園しらかば公園,美園しらかば公園,43.0411603,141.3923565,
北海道,札幌市,05-06,豊平区美園３条８丁目 国道３６号線月寒橋柵,国道３６号線月寒橋柵,43.0391612,141.3918286,
北海道,札幌市,05-07,豊平区美園１条４丁目 豊園小学校グランドフェンス,豊園小学校グランドフェンス,43.044136,141.388809,緯度経度は怪しい
北海道,札幌市,06-01,豊平区美園６条１丁目 豊平公園温水プール,豊平公園温水プール,43.041912,141.379959,緯度経度は怪しい
北海道,札幌市,06-02,豊平区美園５条２丁目 みどり小学校校門横,みどり小学校校門横,43.041866,141.382019,緯度経度は怪しい
北海道,札幌市,06-03,豊平区美園５条２丁目 みどり小学校グラウンド側,みどり小学校グラウンド側,43.041866,141.382019,緯度経度は怪しい
北海道,札幌市,06-04,豊平区美園６条５丁目 美園中央公園,美園中央公園,43.0391263,141.3850035,
北海道,札幌市,06-05,豊平区美園５条７丁目 みすみ公園,みすみ公園,43.0372199,141.3888123,
北海道,札幌市,06-06,豊平区美園７条８丁目 公営住宅美園団地１号棟横,公営住宅美園団地１号棟横,43.035442,141.38884,緯度経度は怪しい
北海道,札幌市,06-07,豊平区美園６条３丁目 ときわぎ公園東側,ときわぎ公園東側,43.0405945,141.3822835,
北海道,札幌市,06-08,豊平区美園６条５丁目 美園児童会館横空き地,美園児童会館横空き地,43.03883,141.384903,緯度経度は怪しい
北海道,札幌市,07-01,豊平区月寒東１条３丁目 北海道札幌月寒高等学校,北海道札幌月寒高等学校,43.035763,141.395737,緯度経度は怪しい
北海道,札幌市,07-02,豊平区月寒東２条２丁目 月寒中学校南東側,月寒中学校南東側,43.038662,141.397522,緯度経度は怪しい
北海道,札幌市,07-03,豊平区月寒東２条２丁目 月寒資料館緑地,月寒資料館緑地,43.038662,141.397522,緯度経度は怪しい
北海道,札幌市,07-04,豊平区月寒東３条４丁目 大東公園,大東公園,43.0367786,141.4018187,
北海道,札幌市,07-05,豊平区月寒東４条６丁目 みなと公園,みなと公園,43.0358446,141.4045629,
北海道,札幌市,07-06,豊平区月寒東１条４丁目 菊月公園,菊月公園,43.03476,141.396698,緯度経度は怪しい
北海道,札幌市,07-07,豊平区月寒東２条６丁目 月寒かつら公園,月寒かつら公園,43.0340873,141.4001976,
北海道,札幌市,07-08,豊平区月寒東１条１丁目 高台公園,高台公園,43.0386609,141.3925699,
北海道,札幌市,08-01,豊平区月寒東２条７丁目 市営住宅月寒団地Ｅ１号棟前,市営住宅月寒団地Ｅ１号棟前,43.032642,141.40155,緯度経度は怪しい
北海道,札幌市,08-02,豊平区月寒東２条７丁目 東２条公園,東２条公園,43.032642,141.40155,緯度経度は怪しい
北海道,札幌市,08-03,豊平区月寒東３条９丁目 東大東公園,東大東公園,43.030746,141.406372,緯度経度は怪しい
北海道,札幌市,08-04,豊平区月寒東３条７丁目 かっこう幼稚園,かっこう幼稚園,43.0326995,141.4041915,
北海道,札幌市,08-05,豊平区月寒東３条１０丁目 月寒東小学校開放玄関前,月寒東小学校開放玄関前,43.029228,141.40712,緯度経度は怪しい
北海道,札幌市,08-06,豊平区月寒東５条１０丁目 月光公園,月光公園,43.033138,141.4123929,
北海道,札幌市,08-07,豊平区月寒東５条１０丁目 月光公園,月光公園,43.033138,141.4123929,
北海道,札幌市,08-08,豊平区月寒東４条７丁目 月寒いこい公園,月寒いこい公園,43.0339074,141.4059176,
北海道,札幌市,09-01,豊平区月寒東４条１８丁目 東月寒公園,東月寒公園,43.022732,141.426208,緯度経度は怪しい
北海道,札幌市,09-02,豊平区月寒東４条１５丁目 東月寒向ヶ丘公園,東月寒向ヶ丘公園,43.0263575,141.4204332,
北海道,札幌市,09-03,豊平区月寒東４条１８丁目 しらかば台小学校校門横,しらかば台小学校校門横,43.022732,141.426208,緯度経度は怪しい
北海道,札幌市,09-04,豊平区月寒東４条１６丁目 東月寒２号公園,東月寒２号公園,43.0250609,141.4220717,
北海道,札幌市,09-05,豊平区月寒東４条１８丁目 東月寒みのり公園,東月寒みのり公園,43.0216818,141.4259113,
北海道,札幌市,09-06,豊平区月寒東４条１８丁目 東月寒緑地,東月寒緑地,43.02383,141.4262334,
北海道,札幌市,09-07,豊平区月寒東５条１５丁目 月寒東りんご公園,月寒東りんご公園,43.0296425,141.4231231,
北海道,札幌市,09-08,豊平区月寒東５条１５丁目 東北通三角公園,東北通三角公園,43.0289215,141.4245494,
北海道,札幌市,10-01,豊平区平岸１条２丁目 平岸ポプラ公園前柵,平岸ポプラ公園前柵,43.0418103,141.3613367,
北海道,札幌市,10-02,豊平区平岸１条３丁目 国立研究開発法人土木研究所寒地土木研究所,国立研究開発法人土木研究所寒地土木研究所,43.039993,141.362198,緯度経度は怪しい
北海道,札幌市,10-03,豊平区中の島２条１丁目 中の島小学校グラウンド前,中の島小学校グラウンド前,43.037704,141.363434,緯度経度は怪しい
北海道,札幌市,10-04,豊平区平岸１条４丁目 平岸みはらし公園,平岸みはらし公園,43.0398357,141.3644317,
北海道,札幌市,10-05,豊平区平岸１条２丁目 平岸木の花ホップ公園,平岸木の花ホップ公園,43.040859,141.364075,緯度経度は怪しい
北海道,札幌市,10-06,豊平区平岸２条４丁目 新木の花団地,新木の花団地,43.038174,141.368286,緯度経度は怪しい
北海道,札幌市,10-07,豊平区平岸２条４丁目 風の子公園,風の子公園,43.038168,141.3683561,
北海道,札幌市,10-08,豊平区平岸１条６丁目 ＫＫＲ札幌医療センター,ＫＫＲ札幌医療センター,43.03656,141.366058,緯度経度は怪しい
北海道,札幌市,11-01,豊平区美園９条５丁目 南美園公園,南美園公園,43.0367148,141.3825083,
北海道,札幌市,11-02,豊平区美園９条２丁目 美園さかえ公園,美園さかえ公園,43.0384328,141.3779134,
北海道,札幌市,11-03,豊平区平岸５条７丁目 美園小学校校門横,美園小学校校門横,43.035255,141.377991,緯度経度は怪しい
北海道,札幌市,11-04,豊平区平岸４条７丁目 いなほ公園,いなほ公園,43.035198,141.374878,緯度経度は怪しい
北海道,札幌市,11-05,豊平区美園９条２丁目 美園さかえ公園,美園さかえ公園,43.0384328,141.3779134,
北海道,札幌市,11-06,豊平区平岸３条７丁目 夕やけ公園,夕やけ公園,43.0350141,141.3715003,
北海道,札幌市,11-07,豊平区美園１０条８丁目 月寒公園駐車場前,月寒公園駐車場前,43.0333302,141.3861284,
北海道,札幌市,11-08,豊平区美園１０条４丁目 分離帯植樹三角地帯,分離帯植樹三角地帯,43.036732,141.380035,緯度経度は怪しい
北海道,札幌市,11-09,豊平区平岸５条７丁目 美園小学校グラウンドフェンス,美園小学校グラウンドフェンス,43.035255,141.377991,緯度経度は怪しい
北海道,札幌市,12-01,豊平区月寒西２条５丁目 月寒小学校校門横,月寒小学校校門横,43.032265,141.390747,緯度経度は怪しい
北海道,札幌市,12-02,豊平区月寒西２条５丁目 月寒小学校プール前,月寒小学校プール前,43.032265,141.390747,緯度経度は怪しい
北海道,札幌市,12-03,豊平区月寒西２条７丁目 平和公園西側,平和公園西側,43.0291315,141.3920042,
北海道,札幌市,12-04,豊平区月寒西２条７丁目 平和公園東側,平和公園東側,43.0291315,141.3920042,
北海道,札幌市,12-05,豊平区月寒西２条４丁目 月寒公園東側,月寒公園東側,43.0333388,141.3902844,
北海道,札幌市,12-06,豊平区月寒西２条５丁目 月寒小学校グラウンド側,月寒小学校グラウンド側,43.032265,141.390747,緯度経度は怪しい
北海道,札幌市,12-07,豊平区月寒西３条５丁目 月寒公園フェンス,月寒公園フェンス,43.031017,141.388397,緯度経度は怪しい
北海道,札幌市,13-01,豊平区月寒東２条１０丁目 市営住宅月寒団地Ｂ５号棟前,市営住宅月寒団地Ｂ５号棟前,43.028675,141.40416,緯度経度は怪しい
北海道,札幌市,13-02,豊平区月寒東１条１１丁目 市営住宅月寒団地Ａ２号棟横,市営住宅月寒団地Ａ２号棟横,43.025795,141.402756,緯度経度は怪しい
北海道,札幌市,13-03,豊平区月寒東１条１１丁目 市営住宅月寒団地Ａ３号棟横,市営住宅月寒団地Ａ３号棟横,43.025795,141.402756,緯度経度は怪しい
北海道,札幌市,13-04,豊平区月寒東１条９丁目 市営住宅月寒団地C２号棟前,市営住宅月寒団地C２号棟前,43.028255,141.400131,緯度経度は怪しい
北海道,札幌市,13-05,豊平区月寒東１条８丁目 月寒屋外競技場,月寒屋外競技場,43.029923,141.4008061,
北海道,札幌市,13-06,豊平区月寒西１条１１丁目 月寒みなみ公園,月寒みなみ公園,43.0224471,141.3996166,
北海道,札幌市,13-07,豊平区月寒東１条１１丁目 あやめの小学校校門横,あやめの小学校校門横,43.0252642,141.4040254,
北海道,札幌市,14-01,豊平区月寒東２条１５丁目 羊ヶ丘１号公園,羊ヶ丘１号公園,43.0209522,141.4095451,
北海道,札幌市,14-02,豊平区月寒東１条１６丁目 羊丘小学校グラウンドフェンス,羊丘小学校グラウンドフェンス,43.018585,141.411179,緯度経度は怪しい
北海道,札幌市,14-03,豊平区羊ヶ丘１番地 中央バス停留所「日糧パン前」横,中央バス停留所「日糧パン前」横,42.996433,141.394989,緯度経度は怪しい
北海道,札幌市,14-04,豊平区月寒東１条１６丁目 中央バス停留所「札幌ドーム」横,中央バス停留所「札幌ドーム」横,43.0166661,141.4113248,
北海道,札幌市,14-05,豊平区羊ヶ丘１番地 中央バス停留所「札幌ドーム」横,中央バス停留所「札幌ドーム」横,42.996433,141.394989,緯度経度は怪しい
北海道,札幌市,14-06,豊平区月寒東１条１５丁目 羊ヶ丘２号公園,羊ヶ丘２号公園,43.0203995,141.4071078,
北海道,札幌市,14-07,豊平区月寒東１条１５丁目 羊ヶ丘３号公園,羊ヶ丘３号公園,43.0190304,141.4084482,
北海道,札幌市,14-08,豊平区羊ヶ丘１番地 中央バス停「月寒東１条１９丁目」,中央バス停「月寒東１条１９丁目」,42.996433,141.394989,緯度経度は怪しい
北海道,札幌市,14-09,豊平区月寒東１条１８丁目 日糧製パン(株)駐車場前,日糧製パン(株)駐車場前,43.014797,141.417557,緯度経度は怪しい
北海道,札幌市,15-01,豊平区月寒東２条１６丁目 東月寒団地公園,東月寒団地公園,43.0184525,141.4142035,
北海道,札幌市,15-02,豊平区月寒東２条１８丁目 東月寒ひまわり公園,東月寒ひまわり公園,43.0170435,141.4186784,
北海道,札幌市,15-03,豊平区月寒東３条１８丁目 東月寒地区センター,東月寒地区センター,43.019867,141.423599,緯度経度は怪しい
北海道,札幌市,15-04,豊平区月寒東３条１９丁目 吉田川公園,吉田川公園,43.0168885,141.4276449,
北海道,札幌市,15-05,豊平区月寒東３条１８丁目 東月寒中学校校門横,東月寒中学校校門横,43.019867,141.423599,緯度経度は怪しい
北海道,札幌市,15-06,豊平区月寒東２条２０丁目 豊平区体育館駐車場,豊平区体育館駐車場,43.013428,141.425415,緯度経度は怪しい
北海道,札幌市,15-07,豊平区月寒東３条１６丁目 北電前植樹三角地帯,北電前植樹三角地帯,43.023243,141.41861,緯度経度は怪しい
北海道,札幌市,15-08,豊平区月寒東３条１７丁目 東月寒南ヶ丘公園,東月寒南ヶ丘公園,43.022271,141.4218074,
北海道,札幌市,16-01,豊平区中の島２条２丁目 水産庁北海道さけますふ化場前,水産庁北海道さけますふ化場前,43.036201,141.361954,緯度経度は怪しい
北海道,札幌市,16-02,豊平区中の島２条３丁目 中の島中学校校門横,中の島中学校校門横,43.0339917,141.3617771,
北海道,札幌市,16-03,豊平区平岸１条８丁目 子じか公園,子じか公園,43.0334545,141.365056,
北海道,札幌市,16-04,豊平区中の島２条５丁目 中の島公園,中の島公園,43.031049,141.3609521,
北海道,札幌市,16-05,豊平区中の島２条６丁目 北海道自動車学校,北海道自動車学校,43.028839,141.360626,緯度経度は怪しい
北海道,札幌市,16-06,豊平区中の島１条６丁目 川島公園,川島公園,43.0296523,141.3573472,
北海道,札幌市,16-07,豊平区平岸１条８丁目 精進川前,精進川前,43.03373,141.36438,緯度経度は怪しい
北海道,札幌市,17-01,豊平区平岸３条９丁目 平岸七草公園,平岸七草公園,43.0322221,141.3724109,
北海道,札幌市,17-02,豊平区平岸２条９丁目 平岸あさやけ公園,平岸あさやけ公園,43.0317946,141.3670413,
北海道,札幌市,17-03,豊平区平岸３条１１丁目 平岸あさがお公園,平岸あさがお公園,43.02913,141.3716023,
北海道,札幌市,17-04,豊平区平岸３条９丁目 平岸児童会館,平岸児童会館,43.03194,141.370682,緯度経度は怪しい
北海道,札幌市,17-05,豊平区平岸１条１０丁目 平岸まつ葉公園,平岸まつ葉公園,43.0303733,141.3635964,
北海道,札幌市,17-06,豊平区平岸３条１０丁目 地下鉄シェルター横,地下鉄シェルター横,43.030422,141.370377,緯度経度は怪しい
北海道,札幌市,17-07,豊平区平岸３条１０丁目 平岸七草公園,平岸七草公園,43.030422,141.370377,緯度経度は怪しい
北海道,札幌市,17-08,豊平区平岸３条８丁目 平岸すずむし公園,平岸すずむし公園,43.0336866,141.3707188,
北海道,札幌市,18-01,豊平区平岸４条１１丁目 東山小学校北側,東山小学校北側,43.029224,141.3741,緯度経度は怪しい
北海道,札幌市,18-02,豊平区平岸４条１１丁目 東山小学校西側,東山小学校西側,43.029224,141.3741,緯度経度は怪しい
北海道,札幌市,18-03,豊平区平岸４条１１丁目 東山公園,東山公園,43.0289859,141.3740575,
北海道,札幌市,18-04,豊平区平岸４条１１丁目 東山公園西側,東山公園西側,43.0289859,141.3740575,
北海道,札幌市,18-05,豊平区平岸４条１３丁目 平岸高台公園,平岸高台公園,43.026581,141.37384,緯度経度は怪しい
北海道,札幌市,18-06,豊平区平岸４条１２丁目 地下鉄シェルター下フェンス,地下鉄シェルター下フェンス,43.028011,141.373917,緯度経度は怪しい
北海道,札幌市,19-01,豊平区平岸６条１１丁目 陵陽中学校校門横,陵陽中学校校門横,43.029461,141.379669,緯度経度は怪しい
北海道,札幌市,19-02,豊平区平岸６条１１丁目 陵陽中学校南側,陵陽中学校南側,43.029461,141.379669,緯度経度は怪しい
北海道,札幌市,19-03,豊平区平岸６条１０丁目 豊平区役所,豊平区役所,43.030964,141.380463,緯度経度は怪しい
北海道,札幌市,19-04,豊平区平岸５条１１丁目 平岸ぼうず山公園,平岸ぼうず山公園,43.0290188,141.3772751,
北海道,札幌市,19-05,豊平区平岸５条９丁目 山ばと公園,山ばと公園,43.032192,141.377975,緯度経度は怪しい
北海道,札幌市,19-06,豊平区平岸７条１３丁目 平岸くるみ公園,平岸くるみ公園,43.0256524,141.3825812,
北海道,札幌市,19-07,豊平区美園１２条８丁目 アンパン道路沿フェンス,アンパン道路沿フェンス,43.0289686,141.3833989,
北海道,札幌市,19-08,豊平区美園１１条７丁目 月寒公園ふれあい通り,月寒公園ふれあい通り,43.033066,141.383026,緯度経度は怪しい
北海道,札幌市,20-01,豊平区月寒西４条８丁目 南月寒小学校校門横,南月寒小学校校門横,43.026871,141.389038,緯度経度は怪しい
北海道,札幌市,20-02,豊平区西岡４条１丁目 西岡クローバー公園,西岡クローバー公園,43.0225868,141.3925855,
北海道,札幌市,20-03,豊平区西岡３条１丁目 市営住宅西岡北団地Ｎ-9号棟横,市営住宅西岡北団地Ｎ-9号棟横,43.0236831,141.3911374,
北海道,札幌市,20-04,豊平区西岡１条２丁目 中央バス停留所「西岡２条１丁目」横,中央バス停留所「西岡２条１丁目」横,43.023478,141.3854621,
北海道,札幌市,20-05,豊平区西岡３条１丁目 豊平区土木センター,豊平区土木センター,43.022247,141.389618,緯度経度は怪しい
北海道,札幌市,20-06,豊平区西岡３条２丁目 市営住宅西岡南団地S７号棟横,市営住宅西岡南団地S７号棟横,43.020454,141.388153,緯度経度は怪しい
北海道,札幌市,20-07,豊平区西岡２条２丁目 配水センター・研修所用地,配水センター・研修所用地,43.021015,141.3853,緯度経度は怪しい
北海道,札幌市,20-08,豊平区月寒西５条７丁目 月寒さくらんぼ公園,月寒さくらんぼ公園,43.0281015,141.3871381,
北海道,札幌市,21-01,豊平区福住２条２丁目 福住小川公園,福住小川公園,43.0177034,141.4031447,
北海道,札幌市,21-02,豊平区福住１条３丁目 羊丘中学校北側,羊丘中学校北側,43.018108,141.397522,緯度経度は怪しい
北海道,札幌市,21-03,豊平区福住１条４丁目 北海道信連事務センター,北海道信連事務センター,43.016243,141.396118,緯度経度は怪しい
北海道,札幌市,21-04,豊平区西岡５条３丁目 月寒川緑地,月寒川緑地,43.017162,141.393005,緯度経度は怪しい
北海道,札幌市,21-05,豊平区西岡５条３丁目 西岡大和東公園,西岡大和東公園,43.0166498,141.3948944,
北海道,札幌市,21-06,豊平区福住１条１丁目 国道３６号線望月橋柵,国道３６号線望月橋柵,43.021454,141.401413,緯度経度は怪しい
北海道,札幌市,21-07,豊平区西岡５条１丁目 協和公園,協和公園,43.0220921,141.3959423,
北海道,札幌市,21-08,豊平区西岡４条２丁目 西岡みつば公園,西岡みつば公園,43.0189619,141.3927002,
北海道,札幌市,22-01,豊平区中の島１条８丁目 ＪＣＨＯ北海道病院駐車場,ＪＣＨＯ北海道病院駐車場,43.025425,141.356079,緯度経度は怪しい
北海道,札幌市,22-02,豊平区中の島２条８丁目 中の島かつら公園,中の島かつら公園,43.025059,141.358963,緯度経度は怪しい
北海道,札幌市,22-03,豊平区中の島２条７丁目 精進河畔公園,精進河畔公園,43.026669,141.359772,緯度経度は怪しい
北海道,札幌市,22-04,豊平区平岸１条１６丁目 精進河畔公園,精進河畔公園,43.023392,141.36203,緯度経度は怪しい
北海道,札幌市,22-05,豊平区平岸１条１５丁目 平岸西小学校校門横,平岸西小学校校門横,43.0246739,141.3616021,
北海道,札幌市,22-06,豊平区平岸１条１８丁目 天神山緑地,天神山緑地,43.0210698,141.3646997,
北海道,札幌市,22-07,豊平区平岸１条１５丁目 平岸西小学校グラウンドフェンス,平岸西小学校グラウンドフェンス,43.0246739,141.3616021,
北海道,札幌市,23-01,豊平区中の島１条１２丁目 中の島なかよし公園,中の島なかよし公園,43.018123,141.3565587,
北海道,札幌市,23-02,豊平区中の島２条１０丁目 滝の島公園,滝の島公園,43.021772,141.3575497,
北海道,札幌市,23-03,豊平区中の島１条１０丁目 豊島公園,豊島公園,43.0217059,141.355216,
北海道,札幌市,23-04,豊平区中の島２条１０丁目 中の島２条第２アパート前空き地,中の島２条第２アパート前空き地,43.021755,141.357971,緯度経度は怪しい
北海道,札幌市,23-05,豊平区中の島１条１２丁目 豊見公園,豊見公園,43.019809,141.356307,
北海道,札幌市,23-06,豊平区平岸１条２１丁目 平岸中学校グラウンドフェンス,平岸中学校グラウンドフェンス,43.016675,141.356778,
北海道,札幌市,23-07,豊平区平岸１条２１丁目 平岸中学校校門前,平岸中学校校門前,43.016675,141.356778,
北海道,札幌市,24-01,豊平区平岸２条１２丁目 平岸太陽公園,平岸太陽公園,43.0286678,141.3668668,
北海道,札幌市,24-02,豊平区平岸２条１４丁目 平岸小学校南側駐車場前,平岸小学校南側駐車場前,43.025913,141.366348,緯度経度は怪しい
北海道,札幌市,24-03,豊平区平岸２条１４丁目 平岸小学校グラウンドフェンス,平岸小学校グラウンドフェンス,43.025913,141.366348,緯度経度は怪しい
北海道,札幌市,24-04,豊平区平岸３条１２丁目 地下鉄シェルター下フェンス,地下鉄シェルター下フェンス,43.028454,141.369995,緯度経度は怪しい
北海道,札幌市,24-05,豊平区平岸３条１７丁目 地下鉄シェルター下フェンス,地下鉄シェルター下フェンス,43.02198,141.368713,緯度経度は怪しい
北海道,札幌市,24-06,豊平区平岸４条１４丁目 地下鉄シェルター下,地下鉄シェルター下,43.025383,141.373627,緯度経度は怪しい
北海道,札幌市,24-07,豊平区平岸３条１４丁目 平岸ひよっこ公園,平岸ひよっこ公園,43.0259926,141.3695403,
北海道,札幌市,24-08,豊平区平岸２条１５丁目 平岸ばら公園,平岸ばら公園,43.0246076,141.3657163,
北海道,札幌市,25-01,豊平区平岸３条１８丁目 平岸はらっぱ公園,平岸はらっぱ公園,43.020153,141.368835,緯度経度は怪しい
北海道,札幌市,25-02,豊平区平岸７条１６丁目 澄川通沿フェンス,澄川通沿フェンス,43.02066,141.380295,緯度経度は怪しい
北海道,札幌市,25-03,豊平区平岸４条１８丁目 札幌市子ども発達支援総合センター・ちくた,札幌市子ども発達支援総合センター・ちくた,43.019543,141.371368,緯度経度は怪しい
北海道,札幌市,25-04,豊平区平岸５条１８丁目 澄川通信号付近フェンス,澄川通信号付近フェンス,43.017227,141.374771,緯度経度は怪しい
北海道,札幌市,25-05,豊平区平岸５条１８丁目 平岸高台小学校北側,平岸高台小学校北側,43.017227,141.374771,緯度経度は怪しい
北海道,札幌市,25-06,豊平区平岸７条１８丁目 平岸南むつみ公園,平岸南むつみ公園,43.0167805,141.3782712,
北海道,札幌市,25-07,豊平区平岸５条１５丁目 平岸霊園,平岸霊園,43.0213285,141.3756256,
北海道,札幌市,26-01,豊平区西岡２条５丁目 中央バス停「西岡１条５丁目」横,中央バス停「西岡１条５丁目」横,43.0151699,141.3819361,
北海道,札幌市,26-02,豊平区西岡３条６丁目 西岡図書館,西岡図書館,43.013325,141.386398,緯度経度は怪しい
北海道,札幌市,26-03,豊平区西岡２条５丁目 西岡トム公園,西岡トム公園,43.0156442,141.3843485,
北海道,札幌市,26-04,豊平区西岡２条３丁目 西岡さんかく公園,西岡さんかく公園,43.0186751,141.3852105,
北海道,札幌市,26-05,豊平区西岡３条７丁目 札幌大学正門横,札幌大学正門横,43.0109674,141.3874579,
北海道,札幌市,26-06,豊平区西岡３条６丁目 西岡北小学校校門横,西岡北小学校校門横,43.013325,141.386398,緯度経度は怪しい
北海道,札幌市,26-07,豊平区西岡４条５丁目 大和第一公園,大和第一公園,43.0140743,141.3907982,
北海道,札幌市,26-08,豊平区西岡１条３丁目 西岡木の実公園,西岡木の実公園,43.0189482,141.3820847,
北海道,札幌市,27-01,豊平区福住３条５丁目 福住小学校校門横,福住小学校校門横,43.013,141.40184,緯度経度は怪しい
北海道,札幌市,27-02,豊平区福住３条５丁目 福住小学校北側,福住小学校北側,43.013,141.40184,緯度経度は怪しい
北海道,札幌市,27-03,豊平区福住２条６丁目 福住中央公園,福住中央公園,43.0129901,141.3972881,
北海道,札幌市,27-04,豊平区福住２条７丁目 福住ふれあい公園,福住ふれあい公園,43.009895,141.395065,緯度経度は怪しい
北海道,札幌市,27-05,豊平区福住３条８丁目 望羊公園,望羊公園,43.00624,141.3946287,
北海道,札幌市,27-06,豊平区福住３条７丁目 福住ひまわり公園,福住ひまわり公園,43.0106968,141.3990912,
北海道,札幌市,27-07,豊平区福住１条７丁目 福住中央ちびっこ公園,福住中央ちびっこ公園,43.010435,141.3911425,
北海道,札幌市,28-01,豊平区西岡３条８丁目 西岡北中学校東側,西岡北中学校東側,43.007702,141.384491,緯度経度は怪しい
北海道,札幌市,28-02,豊平区西岡２条９丁目 西岡小学校東側,西岡小学校東側,43.005821,141.381531,緯度経度は怪しい
北海道,札幌市,28-03,豊平区西岡２条９丁目 西岡小学校西側,西岡小学校西側,43.005821,141.381531,緯度経度は怪しい
北海道,札幌市,28-04,豊平区西岡３条１０丁目 西岡ぬまた公園,西岡ぬまた公園,43.0017401,141.3826785,
北海道,札幌市,28-05,豊平区西岡３条９丁目 北斗しらゆり公園,北斗しらゆり公園,43.004517,141.383545,緯度経度は怪しい
北海道,札幌市,28-06,豊平区西岡２条９丁目 西岡すみれ公園,西岡すみれ公園,43.0056141,141.3800997,
北海道,札幌市,28-07,豊平区西岡１条９丁目 北斗ひまわり公園,北斗ひまわり公園,43.0079369,141.3770831,
北海道,札幌市,29-01,豊平区西岡４条８丁目 西岡高台ポンプ場配水池用地,西岡高台ポンプ場配水池用地,43.007504,141.387604,緯度経度は怪しい
北海道,札幌市,29-02,豊平区福住１条９丁目 福住グリーン公園,福住グリーン公園,43.0071911,141.3892566,
北海道,札幌市,29-03,豊平区福住２条９丁目 福住夕陽ヶ丘公園,福住夕陽ヶ丘公園,43.0061504,141.3917222,
北海道,札幌市,29-04,豊平区福住３条１０丁目 福住ひつじ公園,福住ひつじ公園,43.0014275,141.391144,
北海道,札幌市,29-05,豊平区西岡４条１０丁目 西岡あかしや公園,西岡あかしや公園,43.0008115,141.3861174,
北海道,札幌市,29-06,豊平区福住３条１２丁目 福住なかよし公園,福住なかよし公園,42.9980146,141.3876845,
北海道,札幌市,29-07,豊平区福住２条１０丁目 福住コスモス公園,福住コスモス公園,43.003528,141.3900067,
北海道,札幌市,30-01,豊平区西岡４条１２丁目 西岡南小学校,西岡南小学校,42.9968155,141.3794752,
北海道,札幌市,30-02,豊平区西岡３条１２丁目 西岡中学校グラウンド前,西岡中学校グラウンド前,42.99736,141.378052,緯度経度は怪しい
北海道,札幌市,30-03,豊平区西岡５条１１丁目 西岡ライラック公園,西岡ライラック公園,42.9986807,141.3847595,
北海道,札幌市,30-04,豊平区西岡４条１３丁目 西岡あおば公園,西岡あおば公園,42.9942027,141.380476,
北海道,札幌市,30-05,豊平区西岡 中央バス西岡車庫横,中央バス西岡車庫横,42.959717,141.380157,緯度経度は怪しい
北海道,札幌市,30-06,豊平区西岡１条１１丁目 西岡めぐみ公園,西岡めぐみ公園,43.0023676,141.3758744,
北海道,札幌市,30-07,豊平区西岡２条１１丁目 西岡丘の上公園,西岡丘の上公園,43.001091,141.377945,緯度経度は怪しい
北海道,札幌市,30-08,豊平区西岡５条１２丁目 西岡みどり公園,西岡みどり公園,42.995056,141.38298,緯度経度は怪しい
北海道,札幌市,30-09,豊平区西岡３条１３丁目 西岡あすなろ公園,西岡あすなろ公園,42.996225,141.3770317,
北海道,札幌市,31-01,豊平区月寒西１条９丁目 札幌第一高等学校,札幌第一高等学校,43.026398,141.395004,緯度経度は怪しい
北海道,札幌市,31-02,豊平区月寒西１条９丁目 月寒三区平成公園,月寒三区平成公園,43.0271946,141.3956783,
北海道,札幌市,31-03,豊平区月寒中央通７丁目 月寒公民館,月寒公民館,43.030773,141.396133,緯度経度は怪しい
北海道,札幌市,31-04,豊平区月寒東１条７丁目 市営住宅月寒集会所前,市営住宅月寒集会所前,43.031502,141.398499,緯度経度は怪しい
北海道,札幌市,31-05,豊平区月寒中央通７丁目 つきさっぷ中央公園,つきさっぷ中央公園,43.0315976,141.3962799,
北海道,札幌市,31-06,豊平区月寒東１条７丁目 札幌市自転車駐輪所,札幌市自転車駐輪所,43.031502,141.398499,緯度経度は怪しい
