prefecture,city,number,address,name,lat,long,note
北海道,枝幸町,1-1,岬町　ウスタイベバス停付近,枝幸市街地・下幌別　ウスタイベバス停付近,44.960000159358,142.57739067078,緯度経度は怪しい
北海道,枝幸町,1-2,岬町　海洋食品付近,枝幸市街地・下幌別　海洋食品付近,44.951193079986,142.57833480835,緯度経度は怪しい
北海道,枝幸町,1-3,masked,masked,44.945239943619,142.58247613907,緯度経度は怪しい
北海道,枝幸町,1-4,枝幸市街地　小新商店(北浜町)前交差点付近,枝幸市街地・下幌別　小新商店（北浜町）前交差点付近,44.944222381487,142.57794857025,緯度経度は怪しい
北海道,枝幸町,1-5,枝幸市街地　バスタ-ミナル前,枝幸市街地・下幌別　バスターミナル前,44.938982410325,142.57884979248,緯度経度は怪しい
北海道,枝幸町,1-6,枝幸市街地　役場前,枝幸市街地・下幌別　役場前,44.938314089761,142.58228302002,緯度経度は怪しい
北海道,枝幸町,1-7,枝幸市街地　高校前交差点付近,枝幸市街地・下幌別　高校前交差点付近,44.938055872915,142.57455825806,緯度経度は怪しい
北海道,枝幸町,1-8,枝幸市街地　北幸団地入口付近,枝幸市街地・下幌別　北幸団地入口付近,44.9357482,142.5719251,緯度経度は怪しい
北海道,枝幸町,1-9,枝幸市街地　枝幸消防署付近,枝幸市街地・下幌別　枝幸消防署付近,44.9304146,142.5742926,緯度経度は怪しい
北海道,枝幸町,1-10,枝幸市街地　旧職業安定所付近,枝幸市街地・下幌別　旧職業安定所付近,44.936278701944,142.57953643799,緯度経度は怪しい
北海道,枝幸町,1-11,枝幸市街地　永光水産冷蔵庫付近,枝幸市街地・下幌別　永光水産冷蔵庫付近,44.937357162684,142.58743286133,緯度経度は怪しい
北海道,枝幸町,1-12,枝幸市街地　港団地付近,枝幸市街地・下幌別　港団地付近,44.93229885464,142.58339881897,緯度経度は怪しい
北海道,枝幸町,1-13,枝幸市街地　パ-ラ-ＪＡＣＫ枝幸店駐車場付近,枝幸市街地・下幌別　パーラーＪＡＣＫ枝幸店駐車場付近,44.939027977352,142.58681058884,緯度経度は怪しい
北海道,枝幸町,1-14,枝幸市街地　保健センタ-前電話ボックス付近,枝幸市街地・下幌別　保健センター前電話ボックス付近,44.943387055809,142.57438659668,緯度経度は怪しい
北海道,枝幸町,1-15,下幌別　下幌別コミュニティセンタ-前,枝幸市街地・下幌別　下幌別コミュニティセンター前,44.896802222051,142.58005142212,緯度経度は怪しい
北海道,枝幸町,2-1,目梨泊　目梨泊コミュニティセンタ-前,目梨泊　目梨泊コミュニティセンター前,45.036898305457,142.50778198242,緯度経度は怪しい
北海道,枝幸町,2-2,目梨泊　金子塗装店横ゴミステ-ション付近,目梨泊　金子塗装店横ゴミステーション付近,45.036413084487,142.51396179199,緯度経度は怪しい
北海道,枝幸町,2-3,目梨泊　目梨泊小学校フェンス前,目梨泊　目梨泊小学校フェンス前,45.03277379606,142.51567840576,緯度経度は怪しい
北海道,枝幸町,3-1,masked,masked,44.999706327441,142.53533363342,緯度経度は怪しい
北海道,枝幸町,3-2,問牧　問牧コミュニティセンタ-前,問牧　問牧コミュニティセンター前,44.99551844207,142.53559112549,緯度経度は怪しい
北海道,枝幸町,3-3,問牧　問牧漁港付近,問牧　問牧漁港付近,44.9901243,142.5423137,緯度経度は怪しい
北海道,枝幸町,4-1,岡島　道の駅敷地内,岡島　道の駅敷地内,44.8783584,142.6317983,緯度経度は怪しい
北海道,枝幸町,4-2,岡島　岡島コミュニティセンタ-前,岡島　岡島コミュニティセンター前,44.87500104805,142.63399600983,緯度経度は怪しい
北海道,枝幸町,4-3,岡島　岡島漁港付近,岡島　岡島漁港付近,44.873145894553,142.63858795166,緯度経度は怪しい
北海道,枝幸町,5-1,masked,masked,44.847912912305,142.6544880867,緯度経度は怪しい
北海道,枝幸町,5-2,徳志別　徳志別コミュニティセンタ-駐車場,徳志別　徳志別コミュニティセンター駐車場,44.845463553203,142.65120506287,緯度経度は怪しい
北海道,枝幸町,6-1,山臼　山臼漁港付近,山臼　山臼漁港付近,44.829669532726,142.67828464508,緯度経度は怪しい
北海道,枝幸町,6-2,山臼　山臼コミュニティセンタ-駐車場,山臼　山臼コミュニティセンター駐車場,44.822394915279,142.68184661865,緯度経度は怪しい
北海道,枝幸町,6-3,山臼　山臼7号農道入口付近,山臼　山臼７号農道入口付近,44.813170963415,142.69038677216,緯度経度は怪しい
北海道,枝幸町,7-1,乙忠部　乙忠部漁港付近,乙忠部　乙忠部漁港付近,44.782505182787,142.71926879883,緯度経度は怪しい
北海道,枝幸町,7-2,乙忠部　旧乙忠部小学校付近,乙忠部　旧乙忠部小学校付近,44.780616588222,142.71845340729,緯度経度は怪しい
北海道,枝幸町,7-3,乙忠部　乙忠部コミュニティセンタ-前,乙忠部　乙忠部コミュニティセンター前,44.777692190881,142.72094249725,緯度経度は怪しい
北海道,枝幸町,8-1,風烈布　領毛ボデ-前,風烈布　領毛ボデー前,44.749171554613,142.75325775146,緯度経度は怪しい
北海道,枝幸町,8-2,風烈布　風烈布小学校グランドフェンス,風烈布　風烈布小学校グランドフェンス,44.742709796671,142.75952339172,緯度経度は怪しい
北海道,枝幸町,8-3,風烈布　風烈布コミュニティセンタ-前,風烈布　風烈布コミュニティセンター前,44.740210243741,142.76347160339,緯度経度は怪しい
北海道,枝幸町,9-1,音標　音標小学校グランドフェンス,音標　音標小学校グランドフェンス,44.706577705514,142.80574321747,緯度経度は怪しい
北海道,枝幸町,9-2,音標　音標コミュニティセンタ-駐車場,音標　音標コミュニティセンター駐車場,44.702459959378,142.81222343445,緯度経度は怪しい
北海道,枝幸町,9-3,masked,masked,44.705815182032,142.81445503235,緯度経度は怪しい
北海道,枝幸町,9-4,音標　音標7号農道入口,音標　音標７号農道入口,44.71868523218,142.78913497925,緯度経度は怪しい
北海道,枝幸町,10-1,上音標　上音標コミュニティセンタ-付近,上音標　上音標コミュニティセンター付近,44.696969175577,142.74415969849,緯度経度は怪しい
北海道,枝幸町,11-1,歌登市街地　海洋センタ-裏,歌登市街地・毛登別・本幌別　海洋センター裏,44.833291280239,142.47353553772,緯度経度は怪しい
北海道,枝幸町,11-2,歌登市街地　役場町営バス車庫付近,歌登市街地・毛登別・本幌別　役場町営バス車庫付近,44.8392560153,142.48008012772,緯度経度は怪しい
北海道,枝幸町,11-3,歌登市街地　歌登支所付近,歌登市街地・毛登別・本幌別　歌登支所付近,44.841507846551,142.47967243195,緯度経度は怪しい
北海道,枝幸町,11-4,歌登市街地　東町団地付近,歌登市街地・毛登別・本幌別　東町団地付近,44.841933858779,142.48254776001,緯度経度は怪しい
北海道,枝幸町,11-5,歌登市街地　歌登小学校グランドフェンス,歌登市街地・毛登別・本幌別　歌登小学校グランドフェンス,44.841249194732,142.47334241867,緯度経度は怪しい
北海道,枝幸町,11-6,歌登市街地　安田商事付近,歌登市街地・毛登別・本幌別　安田商事付近,44.845570049243,142.47681856155,緯度経度は怪しい
北海道,枝幸町,11-7,歌登市街地　農協整備工場付近,歌登市街地・毛登別・本幌別　農協整備工場付近,44.836136779336,142.46237754822,緯度経度は怪しい
北海道,枝幸町,11-8,歌登市街地　パンケナイ会館横空き地,歌登市街地・毛登別・本幌別　パンケナイ会館横空き地,44.853739229979,142.49104499817,緯度経度は怪しい
北海道,枝幸町,11-9,歌登市街地・毛登別・本幌別　健康回復村入口付近,歌登市街地・毛登別・本幌別　健康回復村入口付近,44.79005894325,142.52125740051,緯度経度は怪しい
北海道,枝幸町,11-10,毛登別　旧毛登別小中学校前町有地,歌登市街地・毛登別・本幌別　旧毛登別小中学校前町有地,44.823247219192,142.34805107117,緯度経度は怪しい
北海道,枝幸町,11-11,本幌別　コミセンやねむね駐車場,歌登市街地・毛登別・本幌別　コミセンやねむね駐車場,44.763007040486,142.37937927246,緯度経度は怪しい
北海道,枝幸町,11-12,本幌別　旧本幌別小中学校付近,歌登市街地・毛登別・本幌別　旧本幌別小中学校付近,44.76471339074,142.37517356873,緯度経度は怪しい
北海道,枝幸町,11-13,歌登市街地　コミセンひまわり付近,歌登市街地・毛登別・本幌別　コミセンひまわり付近,44.833230412413,142.47791290283,緯度経度は怪しい
北海道,枝幸町,11-14,歌登市街地　歌登案内モニュメント付近,歌登市街地・毛登別・本幌別　歌登案内モニュメント付近,44.823855999987,142.45224952698,緯度経度は怪しい
北海道,枝幸町,12-1,歌登志美宇丹　コミセン志林付近,歌登志美宇丹　コミセン志林付近,44.768674366667,142.57816314697,緯度経度は怪しい
北海道,枝幸町,12-2,歌登志美宇丹　大奮自治会館付近,歌登志美宇丹　大奮自治会館付近,44.755084039803,142.56477355957,緯度経度は怪しい
北海道,枝幸町,12-3,歌登志美宇丹　上徳志別文化村付近,歌登志美宇丹　上徳志別文化村付近,44.742222087512,142.60322570801,緯度経度は怪しい
