prefecture,city,number,address,name,lat,long
北海道,江別市,1,江別市3条3丁目 17,中央児童公園,43.113361,141.558121
北海道,江別市,2,江別市4条7丁目 1,江別駅前公園東側,43.111526,141.555115
北海道,江別市,3,江別市萩ヶ岡  19,江別小学校跡地,43.110645,141.551971
北海道,江別市,4,江別市萩ヶ岡  8-2,萩ヶ岡児童センター前,43.110275,141.554398
北海道,江別市,5,江別市一番町 13-4,ＮＴＴ東日本江別ビル前,38.913589,139.841965
北海道,江別市,6,江別市萩ヶ岡  21-1,国道１２号３丁目通交差点萩ヶ岡側,43.110645,141.551971
北海道,江別市,7,江別市弥生町 18-4,子育て支援センターすくすく向かい,41.768269,140.70668
北海道,江別市,8,江別市弥生町 41,市道４丁目鉄西線交差点,43.104435,141.546341
北海道,江別市,9,江別市王子  6-1,中央通・学校通交差点,35.760567,139.739197
北海道,江別市,10,江別市王子  12,王子エフテックス保安本部前,43.116161,141.550446
北海道,江別市,11,江別市緑町東2丁目 55-2,消防団北部分団前,43.117329,141.545029
北海道,江別市,12,江別市緑町西2丁目 11,青年センター前,43.116123,141.543884
北海道,江別市,13,江別市若草町  2,３番通３丁目交差点,42.995987,144.37384
北海道,江別市,14,江別市弥生町  9,弥生公園,43.106827,141.541473
北海道,江別市,15,江別市若草町3-39,とだて歯科医院向かい,36.642181,136.949356
北海道,江別市,16,江別市元町  1-1,江別元町地区センター角,43.071121,141.657394
北海道,江別市,17,江別市元町  11-4,５丁目通のメイエール向ヶ丘向かい,41.765366,140.708099
北海道,江別市,18,江別市高砂町  55,５丁目鉄西線角,43.101437,141.541916
北海道,江別市,19,江別市高砂町  6,江別市役所入口,42.543098,140.768936
北海道,江別市,20,江別市高砂町  6,江別市民会館入口,42.543098,140.768936
北海道,江別市,21,江別市向ケ丘  26,旧江別高校グラウンド２番通角,43.104309,141.534744
北海道,江別市,22,江別市幸町  16,ほほじろ公園,43.100494,141.536713
北海道,江別市,23,江別市錦町 15-27,夜間急病センター向かい,38.261395,140.335388
北海道,江別市,24,江別市元江別本町  21,土木事務所入口,43.106129,141.526627
北海道,江別市,25,江別市元江別本町  5,もくれん公園,43.108589,141.531754
北海道,江別市,26,江別市向ケ丘  54,わくわく中央キッズクラブ前,43.105431,141.529785
北海道,江別市,27,江別市錦町  5,錦町公園北側,42.983841,144.382507
北海道,江別市,28,江別市中央町 16-1,消防学校グラウンド新栄通角,36.423237,139.802231
北海道,江別市,29,江別市中央町  38,やまばと公園,43.104359,141.51796
北海道,江別市,30,江別市新栄台  92,北海道農業共済組合研修所,43.106937,141.522385
北海道,江別市,31,江別市新栄台  57,中央中学校入口,43.10585,141.517197
北海道,江別市,32,江別市上江別東町 1-1,草野作工倉庫前,43.109386,141.557159
北海道,江別市,33,江別市上江別西町  12,すみれ公園,43.105656,141.552734
北海道,江別市,34,江別市上江別南町 １−２６,上江別自治会館前,43.106117,141.555984
北海道,江別市,35,江別市上江別西町 ４０,第一中学校入口,43.102993,141.548691
北海道,江別市,36,江別市上江別 ４２７,江南通 道道江別恵庭線交差点,43.100212,141.54715
北海道,江別市,37,江別市上江別 ４１９先,夕鉄バス５丁目通停留所横,43.101562,141.545425
北海道,江別市,38,江別市上江別 ４６４−９先,旧ベイクド・アルル向かい,43.098331,141.539581
北海道,江別市,39,江別市上江別南町 ３,上江別南町公園,43.10516,141.556473
北海道,江別市,40,江別市上江別南町 ２８−６,上江別南町２８番地先,43.101959,141.553787
北海道,江別市,41,江別市上江別東町 ３３,どんぐり公園,43.10569,141.56189
北海道,江別市,42,江別市上江別南町 ２３,くるみ公園,43.102123,141.556107
北海道,江別市,43,江別市ゆめみ野南町 ４,南大通橋,43.10183,141.560638
北海道,江別市,44,江別市ゆめみ野南町 ３１,上江別２号調整池,43.098701,141.564301
北海道,江別市,45,江別市ゆめみ野南町 ９−３,上江別小学校入口,43.099705,141.560287
北海道,江別市,46,江別市ゆめみ野東町 ２１,上江別公園,43.100922,141.566376
北海道,江別市,47,江別市ゆめみ野東町 ３２,みずなら公園,43.098705,141.569244
北海道,江別市,48,江別市東光町 ９,とうこう公園,43.112682,141.567291
北海道,江別市,49,江別市東光町 ２７−７,東光児童センター前,43.110741,141.566605
北海道,江別市,50,江別市東光町 ３１,泉の沼公園角,43.108932,141.567383
北海道,江別市,51,江別市東光町 １０５,かつら公園,43.111637,141.574448
北海道,江別市,52,江別市東光町 ３１,泉の沼公園南側,43.108932,141.567383
北海道,江別市,53,江別市萌えぎ野西 ２６−１,東江別１号調整池,43.112469,141.578156
北海道,江別市,54,江別市朝日町 ２５,江別太小学校前,43.107815,141.578049
北海道,江別市,55,江別市朝日町 ２２,かえで公園,43.106998,141.578766
北海道,江別市,56,江別市朝日町 １１−１２,区画整理記念会館横,39.467857,140.474533
北海道,江別市,57,江別市朝日町 ７,みずき公園,43.107483,141.573288
北海道,江別市,58,江別市あけぼの町 １１,あけぼの団地Ａ−４号棟横,43.101505,141.578415
北海道,江別市,59,江別市萌えぎ野東 １−１,江別太公園,43.106602,141.581741
北海道,江別市,60,江別市江別太 ５４２−２先,江別太本通南２線,43.107655,141.588196
北海道,江別市,61,江別市江別太 １４２,国道１２号 越後村交差点,43.099823,141.603348
北海道,江別市,62,江別市豊幌美咲町 １先,国道１２号 ＪＲ豊幌駅前,43.13588,141.624252
北海道,江別市,63,江別市豊幌花園町 ２３,豊幌公園,43.1301,141.620102
北海道,江別市,64,江別市豊幌花園町 １５,わくわく公園,43.132202,141.62207
北海道,江別市,65,江別市豊幌美咲町 ５６,かわせみ公園,43.131428,141.626541
北海道,江別市,66,江別市豊幌 ４１９,豊幌小学校前,43.127327,141.629547
北海道,江別市,67,江別市豊幌はみんぐ町１６－６,はみんぐ公園,43.137737,141.630463
北海道,江別市,68,江別市豊幌美咲町２３－３２,ふくじゅそう公園,43.134842,141.628326
北海道,江別市,69,江別市豊幌６８６－１０,豊幌地区センター横,43.134308,141.631729
北海道,江別市,70,江別市篠津８０５,北光小学校前,43.134285,141.544647
北海道,江別市,71,江別市美原１３７２,植村登宅斜め向かい,43.140221,141.558441
北海道,江別市,72,江別市美原２２４－３先,美原３１線南８号,43.16766,141.545319
北海道,江別市,73,江別市美原２９２,美原自治会館前,43.158314,141.553833
北海道,江別市,74,江別市美原６９４－１,豊栄会館前,42.771412,140.874619
北海道,江別市,75,江別市篠津５２－１,ＪＡ道央江別営農センター江別資材店前,43.131004,141.546112
北海道,江別市,76,江別市篠津２０７,長沢譲宅前,43.13916,141.518112
北海道,江別市,77,江別市篠津４０１,国道２７５号 篠津自治会館前,43.146568,141.51384
北海道,江別市,78,江別市篠津３７５,篠津第４部落会館横,43.14526,141.527664
北海道,江別市,79,江別市八幡２１先,荒井宅向かい,36.318577,140.049866
北海道,江別市,80,江別市八幡１０４－３,八幡自治会館前,43.162792,141.483337
北海道,江別市,81,江別市見晴台１７－１,対雁小学校体育館入口,43.111897,141.524002
北海道,江別市,82,江別市見晴台４２,ぎんなん公園,43.10918,141.523193
北海道,江別市,83,江別市見晴台８２,るんるん公園,43.1115,141.517197
北海道,江別市,84,江別市見晴台１００,いきいき公園,43.115459,141.516373
北海道,江別市,85,江別市新栄台１１,元野幌５遺跡 野幌台地斜面緑地,43.109142,141.509445
北海道,江別市,86,江別市新栄台７９,こでまり公園,43.108532,141.51683
北海道,江別市,87,江別市新栄台２３－５,元野幌緑地（６丁目通り）,43.111149,141.514008
北海道,江別市,88,江別市新栄台４２,つりばな公園,43.109283,141.513382
北海道,江別市,89,江別市対雁１１３－１,いずみ野小学校入口,43.118275,141.529816
北海道,江別市,90,江別市工栄町４,４丁目通 工栄町１号道路交差点（シティハイム元江別Ⅰ向かい）,43.120419,141.522751
北海道,江別市,91,江別市見晴台１０,元江別緑地（５丁目通り）,43.113926,141.522644
北海道,江別市,92,江別市いずみ野１２－９,佐藤宅前丁字路,43.116566,141.532486
北海道,江別市,93,江別市いずみ野２５,旧町村農場前,43.11536,141.53476
北海道,江別市,94,江別市元江別７３８－６４,ぴのきお公園,43.114922,141.528732
北海道,江別市,95,江別市元江別８３５－４,すぎのき公園,43.117516,141.523285
北海道,江別市,96,江別市牧場町２１,四番通４丁目角,43.114048,141.535538
北海道,江別市,97,江別市工栄町１４－２,５丁目通交差点江別グリーンエコナジー発電所横,43.117992,141.513855
北海道,江別市,98,江別市角山４５６,角山協和自治会館前,43.110489,141.470078
北海道,江別市,99,江別市角山１８８,国道２７５号 かがわ商会前,43.125267,141.485901
北海道,江別市,100,江別市角山１７６先,国道２７５号 札幌刑務所角山農場前バス停留所横,43.135605,141.485306
北海道,江別市,101,江別市野幌若葉町５－１,野幌若葉小学校入口,43.08567,141.523575
北海道,江別市,102,江別市野幌若葉町３２,とちの木公園,43.08363,141.527328
北海道,江別市,103,江別市野幌若葉町３２,とちのき公園ゲートボール場側,43.08363,141.527328
北海道,江別市,104,江別市野幌若葉町５７,ななかまど公園,43.082272,141.522278
北海道,江別市,105,江別市野幌若葉町８５－１,愛隣チャペルキリスト協会向かい,43.082199,141.516861
北海道,江別市,106,江別市野幌若葉町３,のっぽろ幼稚園向かい側角,43.087242,141.524521
北海道,江別市,107,江別市文京台緑町５６９－４１,国道１２号線 酪農学園正門バス停留所横,43.072071,141.503357
北海道,江別市,108,江別市あさひが丘４９,すずめ公園,43.083748,141.541855
北海道,江別市,109,江別市東野幌本町４４,おおばこ公園,43.087181,141.534363
北海道,江別市,110,江別市東野幌本町１３,はまなす公園,43.088676,141.527878
北海道,江別市,111,江別市東野幌本町３１,もみじ公園,43.086464,141.531525
北海道,江別市,112,江別市東野幌本町６２－１,野幌鉄南地区センター前,43.085163,141.534576
北海道,江別市,113,江別市あさひが丘２１－７,道央農協野幌営農センター麦ばら集出荷施設前,43.085587,141.539108
北海道,江別市,114,江別市あさひが丘３３,野幌東調整池（米田宅向かい）,43.086529,141.543015
北海道,江別市,115,江別市野幌若葉町１,鉄東線白樺通交差点,43.088673,141.525375
北海道,江別市,116,江別市野幌住吉町２９,ゆりのき公園,43.09198,141.509705
北海道,江別市,117,江別市野幌寿町１９,湯川公園多目的広場 ４番通側,43.100361,141.516373
北海道,江別市,118,江別市野幌代々木町３９,江別第二小学校前,43.09721,141.51825
北海道,江別市,119,江別市野幌代々木町５３,江別第二中学校グラウンド二番通,43.095596,141.521881
北海道,江別市,120,江別市野幌代々木町８１,市消防本部横,43.093147,141.519653
北海道,江別市,121,江別市野幌代々木町５４,野幌公会堂前,43.095142,141.521408
北海道,江別市,122,江別市野幌代々木町３９,江別第二小学校グラウンド三番通,43.09721,141.51825
北海道,江別市,123,江別市元野幌３０４,大麻新町公園 ２番通側,43.088078,141.511459
北海道,江別市,124,江別市野幌屯田町７－１,こぎつね公園,43.098419,141.509995
北海道,江別市,125,江別市野幌屯田町２２－１２,野幌屯田町公園バスケット場(杜の台記念会館向かい),43.09586,141.510025
北海道,江別市,126,江別市野幌屯田町２３－６,杜の台記念会館,43.096848,141.509781
北海道,江別市,127,江別市野幌屯田町４３－１７,こぐま公園,43.095779,141.512329
北海道,江別市,128,江別市野幌美幸町２６－１２,つつじ公園,43.09346,141.508118
北海道,江別市,129,江別市野幌美幸町４－１,ほのぼの公園,43.095158,141.505219
北海道,江別市,130,江別市野幌町７１,野幌公共駐車場跡地,43.090252,141.526123
北海道,江別市,131,江別市野幌町６０－９,野幌老人憩いの家横,43.091652,141.526016
北海道,江別市,132,江別市野幌末広町７,情報図書館前,43.091393,141.519531
北海道,江別市,133,江別市野幌松並町 ９−９,のぎく公園,43.089798,141.52037
北海道,江別市,134,江別市野幌松並町 ２２−１,あざみ公園,43.08749,141.519455
北海道,江別市,135,江別市野幌松並町 ２６−１,ホダカ江別店横,43.087852,141.516937
北海道,江別市,136,江別市野幌町 ４４,旭公園,43.093529,141.528198
北海道,江別市,137,江別市野幌町 １３,野幌公民館前,43.094345,141.523346
北海道,江別市,138,江別市野幌町 ２９,双葉公園,43.09549,141.529633
北海道,江別市,139,江別市野幌町 ９,市民体育館入口,43.096035,141.52623
北海道,江別市,140,江別市錦町 １８−１,新栄団地Ａ棟横　新栄通側,38.307323,141.016068
北海道,江別市,141,江別市錦町 １８−１,新栄団地Ｄ棟横　２番通側,38.307323,141.016068
北海道,江別市,142,江別市野幌末広町 ２２,えんじゅ公園,43.090061,141.515381
北海道,江別市,143,江別市野幌町 ３３,７丁目鉄西線Ｔ字路（山本宅向かい）,43.094608,141.532166
北海道,江別市,144,江別市緑ヶ丘 １４−４,緑ヶ丘緑地,43.083334691934176, 141.53933790168915
北海道,江別市,145,江別市緑ヶ丘 ９−２,陽林寺しらかば通り沿い敷地,42.90279,143.181625
北海道,江別市,146,江別市緑ヶ丘 ３５−１,あかげら公園,43.0805768879725, 141.53527110905034
北海道,江別市,147,江別市東野幌 １３３−１,野幌中学校敷地内,43.077496,141.541168
北海道,江別市,148,江別市東野幌 １４４−２先,白樺通　道道江別恵庭線Ｔ字交差点,43.078049,141.544403
北海道,江別市,149,江別市西野幌 １５７先,野幌農村環境改善センター,43.063354,141.540634
北海道,江別市,150,江別市西野幌 ２５２,野幌小学校前,43.050575,141.54184
北海道,江別市,151,江別市西野幌 ２８４,静明会館前,43.042118,141.544357
北海道,江別市,152,江別市西野幌 ３５３先,林行橋バス停留所横,43.033352,141.552643
北海道,江別市,153,江別市東野幌町 ４８,東野幌小学校前,43.091076,141.540894
北海道,江別市,154,江別市東野幌町 ３１,東野幌体育館前,43.094242,141.53923
北海道,江別市,155,江別市東野幌町 ４０−１,ビレッジハウス野幌,43.092304,141.538818
北海道,江別市,156,江別市東野幌町 １−１０,ちびっこ公園,43.094803,141.533524
北海道,江別市,157,江別市野幌東町 ３９,むつみ公園,43.091412,141.53566
北海道,江別市,158,江別市東野幌町 １２−１,夕張鉄道㈱ターミナル前,43.09594,141.537521
北海道,江別市,159,江別市東野幌町 １８,あやめ公園,43.094826,141.537399
北海道,江別市,160,江別市大麻元町 １９２−３,消防署大麻出張所前,43.080864,141.489258
北海道,江別市,161,江別市大麻宮町 １,大麻中学校住宅横,43.075481,141.487274
北海道,江別市,162,江別市大麻沢町 ２−４,道営大麻沢町団地ふれあい広場,43.072273,141.485031
北海道,江別市,163,江別市大麻宮町 １,大麻中学校角,43.075481,141.487274
北海道,江別市,164,江別市大麻宮町 ９,みやまち公園（２番通側）,43.074329,141.488922
北海道,江別市,165,江別市大麻宮町 ２,大麻小学校入口,43.076721,141.489044
北海道,江別市,166,江別市大麻沢町 ２６－２,大麻西地区センター前,43.069954,141.485031
北海道,江別市,167,江別市大麻中町 ２５,道営大麻中町団地Ａ－１号棟前,43.072708,141.490082
北海道,江別市,168,江別市大麻中町 １６－８先,弘田宅向かい,43.071304,141.492233
北海道,江別市,169,江別市大麻中町 ９,道営住宅大麻管理事務所,43.072811,141.492905
北海道,江別市,170,江別市大麻中町 ３４,大麻中央公園高町側,43.075699,141.495789
北海道,江別市,171,江別市大麻中町 ２６,大麻駅前２号公園,43.07494,141.493698
北海道,江別市,172,江別市大麻中町 ２６－７,えぽあホール横,43.07494,141.493698
北海道,江別市,173,江別市大麻中町 ２６,大麻出張所前,43.07494,141.493698
北海道,江別市,174,江別市大麻東町 ３２,大麻東小学校前,43.08007,141.501236
北海道,江別市,175,江別市大麻南樹町 ２,道営住宅６６Ｒ１５角,43.082485,141.503983
北海道,江別市,176,江別市大麻南樹町 ５,道営住宅大麻南樹町団地集会所横,43.081642,141.505142
北海道,江別市,177,江別市大麻南樹町 ６,道営住宅大麻南樹町団地Ｒ－２４号棟前,43.081928,141.505814
北海道,江別市,178,江別市大麻東町 ３５,大麻東公園入口（南側）,43.078945,141.502045
北海道,江別市,179,江別市大麻高町 ３３,たかまち公園,43.077477,141.503815
北海道,江別市,180,江別市大麻高町 ７－８先,石戸谷整骨院向かい,43.074776,141.501404
北海道,江別市,181,江別市大麻中町 ３４,大麻中央公園（２番通側）,43.075699,141.495789
北海道,江別市,182,江別市大麻園町 ３４,ＵＲ大麻園町団地（北海道信用金庫大麻支店向かい）,43.081856,141.500473
北海道,江別市,183,江別市大麻晴美町 １０－７,学校法人北海学園所有地,43.083374,141.502502
北海道,江別市,184,江別市大麻園町 ３４,ＵＲ大麻園町団地１９号棟側,43.081856,141.500473
北海道,江別市,185,江別市大麻園町 ３６,そのまち公園（ひかり幼稚園横）,43.081005,141.496796
北海道,江別市,186,江別市大麻園町 ２３,ＵＲ大麻園町団地２号棟側（大麻１３丁目停留所横）,43.080135,141.498001
北海道,江別市,187,江別市大麻元町 １６４－１５,１３丁目下水道ポンプ場（しらぎく公園横）,43.084736,141.494843
北海道,江別市,188,江別市大麻元町 １５４－６,北海道警察職員公宅 62共大麻ＫＲ横,43.084736,141.494843
北海道,江別市,189,江別市大麻元町 １５４,４番通１２丁目角,43.084736,141.494843
北海道,江別市,190,江別市大麻北町５１１－２０,うらじろ公園,43.09071,141.502487
北海道,江別市,191,江別市大麻栄町 ２１,東大麻１号緑地ゲートボール場,43.088432,141.504761
北海道,江別市,192,江別市大麻 ６９７－１,大麻東中学校入口,43.090874,141.494995
北海道,江別市,193,江別市大麻栄町 １５,青葉公園,43.086086,141.503754
北海道,江別市,194,江別市大麻栄町 １１,ＪＲ北海道バス 回転場,43.086063,141.506119
北海道,江別市,195,江別市大麻泉町 ２７,大麻泉小学校前,43.083439,141.511566
北海道,江別市,196,江別市大麻新町 ４０,ひよどり公園,43.085873,141.509979
北海道,江別市,197,江別市大麻新町 １０,若葉公園,43.083035,141.506454
北海道,江別市,198,江別市大麻泉町 ３,かとれあ公園,43.080326,141.505981
北海道,江別市,199,江別市大麻高町　３１,大麻１２丁目通先,43.077877,141.506668
北海道,江別市,200,江別市大麻沢町　１５－１０先,木野村宅向かい,43.067509,141.48732
北海道,江別市,201,江別市大麻扇町　１,大麻西小学校前,43.06741,141.482971
北海道,江別市,202,江別市大麻扇町　１９,おうぎまち公園,43.066696,141.483917
北海道,江別市,203,江別市大麻ひかり町　１６－１,こまゆみ公園,43.069069,141.479248
北海道,江別市,204,江別市大麻西町　１０－６先,三谷宅向かい,43.062969,141.483002
北海道,江別市,205,江別市大麻西町　３,にしまち公園,43.064034,141.48056
北海道,江別市,206,江別市大麻ひかり町　５１－１,大麻１号調整池,43.071442,141.480255
北海道,江別市,207,江別市大麻ひかり町　４６,あかまつ公園,43.070724,141.481735
北海道,江別市,208,江別市文京台東町　８,はんのき公園,43.069275,141.495026
北海道,江別市,209,江別市文京台　２８,すずかけ公園,43.066971,141.491226
北海道,江別市,210,江別市文京台　７－４,文京台地区センター前,43.064968,141.496246
北海道,江別市,211,江別市文京台南町　１１,ふじのき公園,43.063869,141.498688
北海道,江別市,212,江別市文京台南町　５１,ならのき公園,43.062149,141.505234
北海道,江別市,213,江別市文京台南町　６３,文京台南町公園（球戯広場横）,43.064919,141.500305
北海道,江別市,214,江別市文京台南町　６２,文京台南町公園（メモリアルパーク文京台斜め向かい）,43.066006,141.498016
北海道,江別市,215,江別市文京台南町　４４先,クリーンハイツ文京台横Ｔ字路,43.061611,141.503326
北海道,江別市,216,江別市文京台南町　５７先,辻本宅横Ｔ字路,43.060322,141.506958
北海道,江別市,217,江別市文京台　３７,はるにれ公園,43.063255,141.486069
北海道,江別市,218,江別市文京台　４８,のぼら公園,43.060349,141.486786
北海道,江別市,219,江別市文京台　２３－９先,北翔大学多目的グラウンド角,43.063904,141.489609
北海道,江別市,220,江別市文京台　７０,文京台小学校入口,43.061527,141.493774