prefecture,city,number,address,name,lat,long,note
北海道,紋別市,1,幸町3丁目 中央公園,中央公園 前,44.355091,143.353882,緯度経度は怪しい
北海道,紋別市,2,幸町3丁目 バス停,バス停 横 歩道上,44.355091,143.353882,緯度経度は怪しい
北海道,紋別市,3,弁天町2丁目 エムズトイスター,エムズトイスター 向 フェンス（道道）,44.357433,143.358932,緯度経度は怪しい
北海道,紋別市,4,潮見町1丁目 市民会館,市民会館 向 市道フェンス,44.356674,143.352081,緯度経度は怪しい
北海道,紋別市,5,潮見町3丁目 潮見小学校体育館横,潮見小学校体育館横 わんぱく坂,44.360958,143.349701,緯度経度は怪しい
北海道,紋別市,6,潮見町3丁目 潮見小学校,潮見小学校 裏 通用口 横,44.360958,143.349701,緯度経度は怪しい
北海道,紋別市,7,落石町1丁目 潮見中学校,潮見中学校 校門横,44.364475,143.347153,緯度経度は怪しい
北海道,紋別市,8,落石町1丁目 ㈲伊藤プロパン店,㈲伊藤プロパン店 向,44.364475,143.347153,緯度経度は怪しい
北海道,紋別市,9,落石町2丁目 メガネのプリンス紋別店,メガネのプリンス紋別店 横 河川フェンス,44.367241,143.338867,緯度経度は怪しい
北海道,紋別市,10,北浜町3丁目 ㈱木村商店,㈱木村商店 入口横（道道）,44.36993,143.346115,緯度経度は怪しい
北海道,紋別市,11,北浜町3丁目 ㈱マルイエ工場,㈱マルイエ工場 裏（道道）,44.36993,143.346115,緯度経度は怪しい
北海道,紋別市,12,落石町3丁目 落石町3丁目新興会館,落石町3丁目新興会館 玄関前 舗装上,44.360283,143.340683,緯度経度は怪しい
北海道,紋別市,13,落石町5丁目 らーめん一歩,らーめん一歩 向,44.356846,143.33609,緯度経度は怪しい
北海道,紋別市,14,落石町5丁目 グループホームだんらん,グループホームだんらん 紋別落石館 向,44.356846,143.33609,緯度経度は怪しい
北海道,紋別市,15,落石町4丁目 いずみホール落石斎場,いずみホール落石斎場 駐車場 前（国道）,44.363552,143.336243,緯度経度は怪しい
北海道,紋別市,16,花園町1丁目 旧武田医院,旧武田医院 向 市道フェンス,44.353306,143.350739,緯度経度は怪しい
北海道,紋別市,17,花園町2丁目 イオン紋別店駐車場,イオン紋別店駐車場 向 市道フェンス,44.350952,143.349243,緯度経度は怪しい
北海道,紋別市,18,花園町1丁目 ひだまりひろば,ひだまりひろば,44.3523079,143.34989,
北海道,紋別市,19,花園町5丁目 紋別小学校,紋別小学校 バス停 横,44.352829,143.346237,緯度経度は怪しい
北海道,紋別市,20,花園町6丁目 川代悦矢宅,masked,44.352806,143.341339,緯度経度は怪しい
北海道,紋別市,21,緑町3丁目 森林公園バス停,森林公園バス停 横 市道フェンス,44.349121,143.341095,緯度経度は怪しい
北海道,紋別市,22,緑町5丁目 みどり保育所,みどり保育所 横 フェンス,44.345268,143.342682,緯度経度は怪しい
北海道,紋別市,23,緑町4丁目 グループホームだんらん,グループホームだんらん 紋別みどり館 向,44.345093,143.348022,緯度経度は怪しい
北海道,紋別市,24,緑町5丁目 紋別高等看護学院前,紋別高等看護学院前 バス停 横,44.345268,143.342682,緯度経度は怪しい
北海道,紋別市,25,緑町4丁目 緑町町内会館,緑町町内会館 前,44.3447293,143.3474992,
北海道,紋別市,26,幸町4丁目 バスターミナル,バスターミナル 横 中央交番 向,44.353535,143.353088,緯度経度は怪しい
北海道,紋別市,27,幸町6丁目 保健センター,保健センター 前,44.350258,143.352188,緯度経度は怪しい
北海道,紋別市,28,幸町4丁目 氷紋の駅駐車場,氷紋の駅駐車場 階段横,44.353535,143.353088,緯度経度は怪しい
北海道,紋別市,29,幸町8丁目 幸町7・8丁目町内会館入口,幸町7・8丁目町内会館入口 市道フェンス,44.346535,143.35083,緯度経度は怪しい
北海道,紋別市,30,本町7丁目 パチンコビクトリー,パチンコビクトリー 前 市道フェンス,44.348366,143.354843,緯度経度は怪しい
北海道,紋別市,31,港町8丁目 プリンスホテル第二駐車場,プリンスホテル第二駐車場 前 市道フェンス,44.347466,143.3591,緯度経度は怪しい
北海道,紋別市,32,南が丘町2丁目 紋別中学校歩道橋,紋別中学校歩道橋 横 歩道上（道道）,44.3447678,143.3514597,
北海道,紋別市,33,南が丘町3丁目 南丘町3丁目バス停,南丘町3丁目バス停 横 フェンス（道道）,44.3400244,143.3523798,
北海道,紋別市,34,南が丘町3丁目 南が丘2・3丁目,南が丘2・3丁目 町内会館 横,44.34103,143.353531,緯度経度は怪しい
北海道,紋別市,35,南が丘町2丁目 報恩寺,報恩寺 前 道路花壇（道道）,44.343861,143.354462,緯度経度は怪しい
北海道,紋別市,36,南が丘町3丁目 ㈱協和土木工業,㈱協和土木工業 斜め向 南が丘大通,44.34103,143.353531,緯度経度は怪しい
北海道,紋別市,37,大山町1丁目 大山団地C-4棟,大山団地C-4棟 上 市道温根内線側 市道フェンス,44.34021,143.344833,緯度経度は怪しい
北海道,紋別市,38,大山町1丁目 福祉会館バス停,福祉会館バス停 横,44.34021,143.344833,緯度経度は怪しい
北海道,紋別市,39,大山町2丁目 旭団地バス停,旭団地バス停 横,44.335255,143.345032,緯度経度は怪しい
北海道,紋別市,40,大山町2丁目 はまなす団地入口,はまなす団地入口 市道フェンス,44.335255,143.345032,緯度経度は怪しい
北海道,紋別市,41,南が丘町7丁目 スポーツセンター,スポーツセンター 横 フェンス,44.334236,143.361038,緯度経度は怪しい
北海道,紋別市,42,南が丘町5丁目 南が丘オホーツク会館,南が丘オホーツク会館 横,44.341461,143.357773,緯度経度は怪しい
北海道,紋別市,43,南が丘町6丁目 紋高前バス停,紋高前バス停 横,44.338688,143.359009,緯度経度は怪しい
北海道,紋別市,44,南が丘町4丁目 つつじ公園入口,つつじ公園入口 横 公園フェンス,44.338879,143.353333,緯度経度は怪しい
北海道,紋別市,45,南が丘町7丁目 市道59号線,市道59号線 ガードレール,44.334236,143.361038,緯度経度は怪しい
北海道,紋別市,46,南が丘町7丁目 紋別市学生寮,紋別市学生寮 前,44.334236,143.361038,緯度経度は怪しい
北海道,紋別市,47,南が丘町7丁目 南丘小学校,南丘小学校 校門横,44.334236,143.361038,緯度経度は怪しい
北海道,紋別市,48,南が丘町7丁目 ㈱水田硝子,㈱水田硝子 向,44.334236,143.361038,緯度経度は怪しい
北海道,紋別市,49,大山町2丁目 新生福祉会館,新生福祉会館 前,44.335255,143.345032,緯度経度は怪しい
北海道,紋別市,50,新生 パチンコひまわり,パチンコひまわり 前,44.319832,143.344574,緯度経度は怪しい
北海道,紋別市,51,大山町2丁目 谷口農園,谷口農園 横 メモリアル通り線フェンス,44.335255,143.345032,緯度経度は怪しい
北海道,紋別市,52,元紋別 ㈱北紋バス入口,㈱北紋バス入口 横,44.312305,143.38031,緯度経度は怪しい
北海道,紋別市,53,元紋別 紋別生涯学習センター,紋別生涯学習センター 駐車場前,44.312305,143.38031,緯度経度は怪しい
北海道,紋別市,54,元紋別 公住前バス停,公住前バス停 横,44.312305,143.38031,緯度経度は怪しい
北海道,紋別市,55,元紋別 豊丘会館,豊丘会館 横,44.312305,143.38031,緯度経度は怪しい
北海道,紋別市,56,元紋別 北海道オリオン㈱,北海道オリオン㈱ 前 オホーツクタワー入口バス停横,44.312305,143.38031,緯度経度は怪しい
北海道,紋別市,57,小向 一本松福祉会館,一本松福祉会館 横,44.286877,143.427414,緯度経度は怪しい
北海道,紋別市,58,小向 小向12線バス停,小向12線バス停 横 フェンス,44.2816167,143.4475476,
北海道,紋別市,59,小向 小向生活改善センター,小向生活改善センター 前,44.286877,143.427414,緯度経度は怪しい
北海道,紋別市,60,小向 小向14線バス停,小向14線バス停 横 フェンス,44.2741067,143.4550762,
北海道,紋別市,61,弘道 弘道バス停,弘道バス停 横,44.260726386270015,143.4754708223616,緯度経度は怪しい
北海道,紋別市,62,沼の上 沼の上生活改善センター,沼の上生活改善センター 横,44.244034,143.504303,緯度経度は怪しい
北海道,紋別市,63,沼の上 沼の上郵便局,沼の上郵便局 向,44.244034,143.504303,緯度経度は怪しい
北海道,紋別市,64,沼の上 沼の上バス停駐輪場,沼の上バス停駐輪場 横,44.244034,143.504303,緯度経度は怪しい
北海道,紋別市,65,藻別 旧藻別小学校,旧藻別小学校 グラウンド 前,44.244709,143.355957,緯度経度は怪しい
北海道,紋別市,66,上藻別 上藻別福祉会館,上藻別福祉会館 向,44.168034,143.337158,緯度経度は怪しい
北海道,紋別市,67,渚滑町2丁目 渚滑2丁目バス停,渚滑2丁目バス停 横 三菱ふそうトラックバス㈱ 前,44.373135,143.329193,緯度経度は怪しい
北海道,紋別市,68,渚滑町元新4丁目 元新団地バス停,元新団地バス停 横 山本電工㈱ 前,44.368504,143.324173,緯度経度は怪しい
北海道,紋別市,69,渚滑町6丁目 渚滑市民センター,渚滑市民センター 駐車場入口 横,44.369282,143.311966,緯度経度は怪しい
北海道,紋別市,70,渚滑町5丁目 コマツカスタマーサポート㈱,コマツカスタマーサポート㈱ 前,44.376289,143.312973,緯度経度は怪しい
北海道,紋別市,71,渚滑町8丁目 渚滑小学校,渚滑小学校 校門横 開発前バス停 横,44.36652249999999,143.3068084,
北海道,紋別市,72,渚滑町元新1丁目 紋別高等養護学校,紋別高等養護学校 明誠寮 横,44.364555,143.330215,緯度経度は怪しい
北海道,紋別市,73,宇津々 近沢昭雄宅,masked,44.356373,143.35437,緯度経度は怪しい
北海道,紋別市,74,宇津々 宇津々,宇津々 担い手研修センター 前,44.356373,143.35437,緯度経度は怪しい
北海道,紋別市,75,上渚滑町下渚滑 15線バス停,15線バス停 横,44.332123,143.287994,緯度経度は怪しい
北海道,紋別市,76,上渚滑町中渚滑 旧中渚滑小学校,旧中渚滑小学校 前 中渚滑学校前バス停 横,44.29726,143.281906,緯度経度は怪しい
北海道,紋別市,77,上渚滑町中渚滑 多目的研修センター,多目的研修センター 前,44.29726,143.281906,緯度経度は怪しい
北海道,紋別市,78,上渚滑町8丁目 上渚滑小学校入口,上渚滑小学校入口 角,44.2503243,143.2622034,
北海道,紋別市,79,上渚滑町4丁目 上渚滑町民センター,上渚滑町民センター 前,44.244625,143.260025,緯度経度は怪しい
北海道,紋別市,80,上渚滑町2丁目 上渚滑保育所,上渚滑保育所 前,44.241783,143.257507,緯度経度は怪しい
北海道,紋別市,81,上渚滑町2丁目 上渚滑地区体育館,上渚滑地区体育館 テニスコート 向,44.241783,143.257507,緯度経度は怪しい
北海道,紋別市,82,上渚滑町下立牛 立牛地区教育資料館,立牛地区教育資料館 前,44.19548829054807,143.2167220086365,緯度経度は怪しい
北海道,紋別市,83,上渚滑町中立牛 上渚滑地区公民館,上渚滑地区公民館 中立牛分館 前,44.136379566741596,143.20039700164475,緯度経度は怪しい
