prefecture,city,number,address,name,lat,long,note
北海道,芦別市,1,北１条東１丁目３,芦別市役所前,43.518568,142.190032,
北海道,芦別市,2,北１条東１丁目２−３,旧土山歯科横,43.516845,142.188568,
北海道,芦別市,3,本町１７−８,図書館前,43.51847,142.193559,
北海道,芦別市,4,北１条東２丁目１１−１１,若葉公園内,43.519463,142.191166,
北海道,芦別市,5,北２条東１丁目,芦別小学校前,43.521786,142.187891,
北海道,芦別市,6,北４条西１丁目,北大通バス停横,43.52484,142.185452,
北海道,芦別市,7,北３条東１丁目６,こがね公園西側,43.522784,142.186853,
北海道,芦別市,8,本町芦別駅,芦別駅横,43.516963,142.184436,
北海道,芦別市,9,北１条西１丁目１５,大心寺前,43.519327,142.185978,
北海道,芦別市,10,北１条西１丁目１０−１０,栄町児童公園内,43.519067,142.185079,
北海道,芦別市,11,北２条西１丁目５−１,遊楽街跡地横,43.519765,142.183372,
北海道,芦別市,12,北２条東１丁目５−２,旧高島屋横,43.520567,142.186375,
北海道,芦別市,13,北２条西２丁目２−２,双葉公園内,43.520398,142.181754,
北海道,芦別市,14,北３条西２丁目１０−３,みやもと公園内,43.522979,142.181766,
北海道,芦別市,15,本町１０７５−１６,本町1136番地バス停横,43.517654,142.179732,
北海道,芦別市,16,南１条東１丁目４−３,masked,43.516041,142.189584,
北海道,芦別市,17,南１条西１丁目１−１６,㈱ヨシザワ建設横,43.516063,142.186728,
北海道,芦別市,18,南２条東２丁目１０−１８,芦月堂横,43.514506,142.191143,
北海道,芦別市,19,本町３８,xxx向,43.514984,142.194224,
北海道,芦別市,20,南２条東２丁目５,であえーる集会所前,43.513211,142.192028,
北海道,芦別市,21,南２条東３丁目３−１,永昌寺向（南側）,43.512335,142.194755,
北海道,芦別市,22,南３条東１丁目３−１０,masked,43.510795,142.192052,
北海道,芦別市,23,本町１０９３−３３,masked,43.513096,142.186528,
北海道,芦別市,24,本町１０６５−３１,芦別駅裏跨線橋前,43.516364,142.183067,
北海道,芦別市,25,本町１０９−１,農協会館向,43.52446,142.183255,
北海道,芦別市,26,北４条西２丁目,勤労者体育センター前,43.524184,142.17878,
北海道,芦別市,27,北４条西１丁目,masked,43.526264,142.182431,
北海道,芦別市,28,北４条東１丁目,芦別中学校前バス停横,43.526245,142.185418,
北海道,芦別市,29,北５条東１丁目,あかつき団地裏側,43.528576,142.187231,
北海道,芦別市,30,北６条東１丁目７−３,芦別中学校前,43.52953,142.184797,
北海道,芦別市,31,北５条西１丁目１１−３,ライラック公園内,43.52889,142.182343,
北海道,芦別市,32,北６条西３丁目,道道芦別停車場線入口,43.53111,142.177494,
北海道,芦別市,33,北７条西３丁目２,渓水駐在所横,43.531106,142.175414,
北海道,芦別市,34,北７条西４丁目４−７,渓水湯向,43.531509,142.170709,
北海道,芦別市,35,北６条西４丁目,あけぼの団地集会所向,43.529185,142.173322,
北海道,芦別市,36,北６条西５丁目１−９,サンマート配送センター横,43.529376,142.171015,
北海道,芦別市,37,北６条西３丁目１０−１,ビューティ愛横,43.529966,142.177733,
北海道,芦別市,38,北４条西３丁目１１−９,渓水通・やよい通交差点横,43.526005,142.176058,
北海道,芦別市,39,旭町５６−１,旭町町内会館前,43.524161,142.200925,
北海道,芦別市,40,旭町２０６−１,2区集会所前,43.516742,142.214556,地図的にはこの辺
北海道,芦別市,41,常磐町４７４,堤の沢バス停横,43.538469,142.167985,
北海道,芦別市,42,常磐町５１６−１３,丁字路交差点横,43.543475,142.157907,
北海道,芦別市,43,常磐町５５６,常磐多目的研修センター前,43.54736,142.147647,
北海道,芦別市,44,福住町３６２,平岸入口,43.547657,142.12404,
北海道,芦別市,45,福住町４１０,masked,43.547955,142.117933,
北海道,芦別市,46,福住町０７５,masked,43.545405,142.107407,おそらくこのへん
北海道,芦別市,47,常磐町７３９,masked,43.547022,142.165939,おそらくこのへん
北海道,芦別市,48,黄金町３４−２,黄金二股入口バス停向,43.565439,142.184502,
北海道,芦別市,49,黄金町１０９−２,本郷会館前,43.571499,142.18732,地図的にはこの辺だが、明らかに会館のようなものはない・・
北海道,芦別市,50,黄金町６３８,黄金多目的研修センター前,43.581392,142.193551,
北海道,芦別市,51,黄金町２７９,豊岡入口バス停付近,43.590966,142.196187,
北海道,芦別市,52,黄金町４９２,黄金第7集会所入口,43.57194,142.212112,おそらくこのへん
北海道,芦別市,53,新城町９０−２,3線バス停横,43.603964,142.204901,
北海道,芦別市,54,新城町２３２−１,新城郵便局横,43.611904,142.202464,
北海道,芦別市,55,新城町１８６,新城多目的研修センター前,43.611464,142.20388,
北海道,芦別市,56,新城町３９６,6線バス停横,43.616354,142.200695,
北海道,芦別市,57,西芦別町０７５ 0161,元西芦別小学校前,43.491284,142.174781,
北海道,芦別市,58,西芦別町西芦２丁目,北日本多目的センター前,43.487689,142.173618,
北海道,芦別市,59,西芦別町西芦４丁目,西芦別4丁目バス停横,43.486399,142.172688,
北海道,芦別市,60,西芦別町２−４,西芦別共同浴場前,43.484855,142.174984,
北海道,芦別市,61,西芦別町８７,西芦別生活館跡地,43.483693,142.173262,
北海道,芦別市,62,中の丘町３−１７,旧中の丘町内会館前,43.47874,142.166654,
北海道,芦別市,63,東頼城町１１−４,旧東頼城バス停付近,43.479717,142.175911,
北海道,芦別市,64,東頼城町１４−１４,旧日の出遊園地前,43.474366,142.175479,おそらくこのへん
北海道,芦別市,65,緑泉町頼城学校前,頼城学校前バス停横,43.461636,142.166237,
北海道,芦別市,66,頼城町青少年会館,頼城多目的研修センター入口,43.452963,142.160896,
北海道,芦別市,67,頼城町４−７４,頼城共同浴場前,43.452861,142.158629,
北海道,芦別市,68,頼城町４−１５,頼城仲町公園内,43.452248,142.158516,
北海道,芦別市,69,頼城町７３−１４,masked,43.443913,142.158262,
北海道,芦別市,70,川岸１１,masked,43.435838,142.158643,
北海道,芦別市,71,芦別２３−１０,青木沢入口,43.403128,142.179735,
北海道,芦別市,72,芦別町３８−６７０,なまこ山入口,43.501802,142.202772,おそらくこのへん
北海道,芦別市,73,上芦別町３０−１４０,市道上芦別西芦別線,43.499322,142.19653,
北海道,芦別市,74,上芦別町１０５−３８,元あかね湯前,43.497257,142.19387,
北海道,芦別市,75,上芦別町北日本精機前,あかね通りバス停付近,43.49696,142.190339,
北海道,芦別市,76,上芦別町ふるさと公園,ふるさと公園バス停横,43.496608,142.187044,
北海道,芦別市,77,上芦別町９４−３１２,masked,43.49542,142.197625,
北海道,芦別市,78,上芦別町９４−２４３,星んこ公園内,43.494787,142.20045,
北海道,芦別市,79,上芦別町上芦別小学校,上芦別小学校バス停横,43.493204,142.204287,
北海道,芦別市,80,上芦別町１６６−３７,市道上芦別１７線入口,43.487992,142.205435,
北海道,芦別市,81,野花南町６９,２番通り入口,43.483051,142.213006,
北海道,芦別市,82,上芦別町５１８−１,xxx跡地,43.489483,142.211826,
北海道,芦別市,83,上芦別町５２６−１９,三正堂跡地,43.490153,142.212975,
北海道,芦別市,84,上芦別町５４６,上芦別多目的研修センター前,43.492695,142.211387,
北海道,芦別市,85,上芦別町７３,ひぐらし研修センター前,43.496269,142.206747,
北海道,芦別市,86,上芦別町上芦別郵便局,上芦別郵便局向,43.49101,142.209478,
北海道,芦別市,87,上芦別町２１５,上芦別生活館前,43.487651,142.214096,
北海道,芦別市,88,上芦別町２１２,旧㈱イノウエ入口,43.484627,142.218196,
北海道,芦別市,89,上芦別町１９９,上芦別球場前,43.48873,142.21489,
北海道,芦別市,90,芦別町３５０−６８,xxx向,43.492138,142.218484,
北海道,芦別市,91,上芦別町３５０−６６,旧明和商事前,43.493305,142.217851,
北海道,芦別市,92,野花南町１６８０,３番通り入口,43.478991,142.220413,
北海道,芦別市,93,野花南町２２２１,５番通り入口,43.480319,142.236465,
北海道,芦別市,94,野花南町２４１−１,野花南第３会館前,43.469616,142.228804,
北海道,芦別市,95,野花南町８２２,道道芦別美瑛線入口,43.475715,142.254706,
北海道,芦別市,96,野花南町９７７,野花南生活改善センター前,43.472068,142.258695,
北海道,芦別市,97,野花南町１０１５−１,xxx向,43.473778,142.261402,
北海道,芦別市,98,野花南町３０７５,野花南駅行き市道,43.471467,142.263429,
