prefecture,city,number,address,name,lat,long,note
北海道,苫小牧市,1,旭町2丁目3旭町2丁目公園東面中央,旭町2丁目公園東面中央,42.6300146,141.6054736,
北海道,苫小牧市,2,旭町4丁目5-6市役所庁舎東面北側,市役所庁舎東面北側,42.6340685,141.6055413,
北海道,苫小牧市,3,旭町1丁目7市立苫小牧東中学校北面中央,市立苫小牧東中学校北面中央,42.6312303,141.6085463,
北海道,苫小牧市,4,汐見町2丁目10汐見公園南面東側,汐見公園南面東側,42.6286444,141.6118375,
北海道,苫小牧市,5,末広町1丁目19公営(1-19-14)東面北側,公営(1-19-14)東面北側,42.6332415,141.6135212,
北海道,苫小牧市,6,末広町3丁目1市民文化公園（出光カルチャーパーク）西面南側,市民文化公園（出光カルチャーパーク）西面南側,42.6349045,141.6098504,
北海道,苫小牧市,7,表町1丁目4表町公園西面南側,表町公園西面南側,42.63506599999999,141.6018954,
北海道,苫小牧市,8,表町4丁目2王子スポーツセンター北面西側,王子スポーツセンター北面西側,42.6365272,141.6002603,
北海道,苫小牧市,9,若草町1丁目4市立若草小学校グラウンド北面東側,市立若草小学校グラウンド北面東側,42.639104,141.6082677,
北海道,苫小牧市,10,若草町5丁目12若草公園西面中央,若草公園西面中央,42.6424174,141.6080727,
北海道,苫小牧市,11,新中野町3丁目16新中野3丁目公園北面西側,新中野3丁目公園北面西側,42.6436967,141.6118531,
北海道,苫小牧市,12,新中野町2丁目5新中野2丁目公園東面中央,新中野2丁目公園東面中央,42.64224950000001,141.6147497,
北海道,苫小牧市,13,元中野町3丁目2まきば公園南面西側,まきば公園南面西側,42.6377592,141.6147596,
北海道,苫小牧市,14,元中野町2丁目12元中野2丁目公園南面西側,元中野2丁目公園南面西側,42.6355464,141.6168473,
北海道,苫小牧市,15,船見町2丁目8船見町2丁目公園南面西側,船見町2丁目公園南面西側,42.6463896,141.6201491,
北海道,苫小牧市,16,船見町1丁目4船見町1丁目公園東面中央,船見町1丁目公園東面中央,42.6475039,141.6262234,
北海道,苫小牧市,17,王子町1丁目6王子アカシア公園東面中央,王子アカシア公園東面中央,42.6366275,141.597868,
北海道,苫小牧市,18,王子町1丁目3王子社宅(6号棟）南面西側,masked,42.6338214,141.5950383,
北海道,苫小牧市,19,栄町3丁目3栄公園南面東側,栄公園南面東側,42.6302996,141.5991934,
北海道,苫小牧市,20,高砂町1丁目4高砂下水処理センター北面中央,高砂下水処理センター北面中央,42.627827,141.602045,
北海道,苫小牧市,21,本幸町1丁目2教育・福祉センター駐車場東面北側,教育・福祉センター駐車場東面北側,42.628343,141.5965352,
北海道,苫小牧市,22,浜町2丁目1はまなす公園西面中央,はまなす公園西面中央,42.626138,141.5952379,
北海道,苫小牧市,23,元町2丁目1元町中央公園北面東側,元町中央公園北面東側,42.624544,141.5847999,
北海道,苫小牧市,24,矢代町1丁目11矢代1号公園北面中央,矢代1号公園北面中央,42.6274685,141.5893789,
北海道,苫小牧市,25,矢代町3丁目7市立苫小牧西小学校北面中央,市立苫小牧西小学校北面中央,42.6272597,141.5856365,
北海道,苫小牧市,26,弥生町2丁目5西弥生公園西面北側,西弥生公園西面北側,42.6272393,141.5792059,
北海道,苫小牧市,27,弥生町2丁目9公住（ななかまど2)東面南側,公住（ななかまど2)東面南側,42.6270958,141.5780667,
北海道,苫小牧市,28,白金町2丁目7旧白金公園西面北側,旧白金公園西面北側,42.63119990000001,141.5798571,
北海道,苫小牧市,29,青葉町1丁目4青葉中央公園南面西側,青葉中央公園南面西側,42.629961,141.572368,
北海道,苫小牧市,30,大成町2丁目10西町公園北面西側,西町公園北面西側,42.62764,141.5718496,
北海道,苫小牧市,31,青葉町2丁目11青葉町2丁目公園東面北側,青葉町2丁目公園東面北側,42.628621,141.5674348,
北海道,苫小牧市,32,大成町2丁目3市立大成小学校東面駐車場入口北側,市立大成小学校東面駐車場入口北側,42.6254757,141.5690181,
北海道,苫小牧市,33,新富町2丁目10新富2丁目公園南面東側,新富2丁目公園南面東側,42.624299,141.571337,
北海道,苫小牧市,34,新富町1丁目3新富1丁目公園北面中央,新富1丁目公園北面中央,42.62472899999999,141.576102,
北海道,苫小牧市,35,大成町1丁目8大成1号公園東面南側,大成1号公園東面南側,42.6274993,141.5763524,
北海道,苫小牧市,36,大成町1丁目13公住はなしょうぶ4北面西側,公住はなしょうぶ4北面西側,42.6294131,141.5761502,
北海道,苫小牧市,37,北光町2丁目4（地番：北光町2丁目3-670)北光2丁目公園南面西側,北光2丁目公園南面西側,42.6343859,141.5775493,
北海道,苫小牧市,38,北光町1丁目1（地番：北光町1丁目430-433)北光町未来の森公園西面北側,北光町未来の森公園西面北側,42.6361089,141.5794845,
北海道,苫小牧市,39,北光町3丁目8市立北光小学校正門東側,市立北光小学校正門東側,42.6369502,141.5735622,
北海道,苫小牧市,40,北光町4丁目6こばと公園北面中央,こばと公園北面中央,42.640498,141.579147,
北海道,苫小牧市,41,山手町1丁目11さばない公園西面中央,さばない公園西面中央,42.6427491,141.5781512,
北海道,苫小牧市,42,山手町1丁目9山手町1丁目公園南面中央,山手町1丁目公園南面中央,42.6422768,141.5753286,
北海道,苫小牧市,43,山手町2丁目12山手公園南面西側,山手公園南面西側,42.640802,141.572861,
北海道,苫小牧市,44,花園町1丁目4花園1丁目公園南面中央,花園1丁目公園南面中央,42.633191,141.573836,
北海道,苫小牧市,45,花園町2丁目6花園2丁目公園南面東側,花園2丁目公園南面東側,42.631194,141.567921,
北海道,苫小牧市,46,花園町3丁目9花園公園西面南側,花園公園西面南側,42.6349926,141.5690562,
北海道,苫小牧市,47,啓北町3丁目12市立啓北中学校正門東側右側,市立啓北中学校正門東側右側,42.635068,141.56401,
北海道,苫小牧市,48,見山町4丁目7見山町総合福祉会館東側ゲートボール場市道中央,見山町総合福祉会館東側ゲートボール場市道中央,42.635825,141.561759,
北海道,苫小牧市,49,見山町3丁目1見山3丁目公園南面北側,見山3丁目公園南面北側,42.6374535,141.5639432,
北海道,苫小牧市,50,見山町2丁目2見山2丁目公園南面北側,見山2丁目公園南面北側,42.6382803,141.5690066,
北海道,苫小牧市,51,見山町1丁目10見山1丁目公園西面東側,見山1丁目公園西面東側,42.6405796,141.5679617,
北海道,苫小牧市,52,末広町3丁目8末広町なかよし公園南面西側,末広町なかよし公園南面西側,42.63780819999999,141.610427,
北海道,苫小牧市,53,緑町2丁目12緑町2丁目公園西面南側,緑町2丁目公園西面南側,42.6443156,141.5986499,
北海道,苫小牧市,54,緑町1丁目17緑町1丁目公園南面西側,緑町1丁目公園南面西側,42.6443226,141.6060554,
北海道,苫小牧市,55,春日町1丁目10春日1丁目公園東面北側,春日1丁目公園東面北側,42.6470777,141.6045005,
北海道,苫小牧市,56,春日町2丁目1春日2丁目公園北面中央,春日2丁目公園北面中央,42.6465402,141.5995421,
北海道,苫小牧市,57,春日町3丁目8春日なかよし公園北面東側,春日なかよし公園北面東側,42.6479805,141.5995788,
北海道,苫小牧市,58,清水町2丁目7市立しみず保育園北面西側,市立しみず保育園北面西側,42.649714,141.598674,
北海道,苫小牧市,59,双葉町3丁目23双葉3丁目公園南面東側,双葉3丁目公園南面東側,42.6505365,141.6077062,
北海道,苫小牧市,60,音羽町2丁目10音羽2丁目公園北面西側,音羽2丁目公園北面西側,42.6457325,141.6102505,
北海道,苫小牧市,61,音羽町1丁目9音羽1丁目公園西面南側,音羽1丁目公園西面南側,42.6471056,141.6142298,
北海道,苫小牧市,62,双葉町1丁目7双葉1号公園北面東側,双葉1号公園北面東側,42.6493909,141.6144812,
北海道,苫小牧市,63,日の出町2丁目15日の出2丁目公園西面中央,日の出2丁目公園西面中央,42.6497041,141.6211188,
北海道,苫小牧市,64,三光町2丁目6市立緑小学校北面東側,市立緑小学校北面東側,42.6511637,141.6183652,
北海道,苫小牧市,65,三光町3丁目11三光町2号公園東面中央,三光町2号公園東面中央,42.6536099,141.6205047,
北海道,苫小牧市,66,三光町4丁目22新生台公園西面中央,新生台公園西面中央,42.655373,141.617175,
北海道,苫小牧市,67,三光町5丁目1三光町7号公園南面中央,三光町7号公園南面中央,42.6561433,141.6227879,
北海道,苫小牧市,68,三光町6丁目10バス停駒沢高校前東側,バス停駒沢高校前東側,42.6587973,141.620819,
北海道,苫小牧市,69,住吉町1丁目4公住(1-4-5)東面北側,公住(1-4-5)東面北側,42.6546469,141.6119348,
北海道,苫小牧市,70,住吉町2丁目11住吉公園東面南側,住吉公園東面南側,42.6540216,141.6083535,
北海道,苫小牧市,71,住吉町2丁目3公住(2-3-5)住吉児童センター向い10,公住(2-3-5)住吉児童センター向い10,42.652717,141.607,
北海道,苫小牧市,72,字高丘9-8高丘公園南面下緑地帯中央,高丘公園南面下緑地帯中央,42.65575459999999,141.6067768,
北海道,苫小牧市,73,字高丘6高丘2号公園北面西側,高丘2号公園北面西側,42.6578041,141.60631,
北海道,苫小牧市,74,泉町1丁目11泉町1丁目公園東面北側,泉町1丁目公園東面北側,42.6575553,141.6082104,
北海道,苫小牧市,75,字高丘6-28アッペナイ道路（樽前山神社登口）入口右側緑地帯南西角,アッペナイ道路（樽前山神社登口）入口右側緑地帯南西角,42.6609889,141.6042396,
北海道,苫小牧市,76,美園町2丁目14美園2丁目公園北面中央,美園2丁目公園北面中央,42.6590466,141.6140323,
北海道,苫小牧市,77,美園町4丁目26市立美園小学校正門西側,市立美園小学校正門西側,42.663784,141.6141826,
北海道,苫小牧市,78,美園町4丁目10美園4丁目公園西面中央,美園4丁目公園西面中央,42.6652625,141.617738,
北海道,苫小牧市,79,新明町5丁目24ひまわり公園東面南側,ひまわり公園東面南側,42.6679241,141.6201388,
北海道,苫小牧市,80,新明町5丁目1はんのき公園北面中央,はんのき公園北面中央,42.6651804,141.621095,
北海道,苫小牧市,81,新明町4丁目18グランドハイツ新明A棟南面西側,グランドハイツ新明A棟南面西側,42.66250120000001,141.6216728,
北海道,苫小牧市,82,新明町4丁目2ひばり公園北面西側,ひばり公園北面西側,42.6613136,141.6243317,
北海道,苫小牧市,83,明野元町1丁目6明野8号公園東面南側,明野8号公園東面南側,42.664428,141.6661272,
北海道,苫小牧市,84,明野元町2丁目7明野1号公園東面北側,明野1号公園東面北側,42.6662492,141.6625533,
北海道,苫小牧市,85,新開町2丁目8ゆたか公園東面中央,ゆたか公園東面中央,42.6675407,141.6559942,
北海道,苫小牧市,86,新開町4丁目7バス停苫小牧営業所北側,バス停苫小牧営業所北側,42.6637172,141.6367237,
北海道,苫小牧市,87,明野新町1丁目8明野6号公園南面西側,明野6号公園南面西側,42.6575433,141.6368012,
北海道,苫小牧市,88,明野新町4丁目7-1913苫小牧情報処理専門学校東側北側（地番：明野新町4丁目6-1913）,苫小牧情報処理専門学校東側北側（地番：明野新町4丁目6-1913）,42.6598526,141.6371508,
北海道,苫小牧市,89,明野新町3丁目2かけの公園南面西側,かけの公園南面西側,42.6576551,141.6309688,
北海道,苫小牧市,90,明野新町3丁目13明野新中学校正門体育館入口,明野新中学校正門体育館入口,42.6578686,141.6282485,
北海道,苫小牧市,91,明野新町1丁目12明野4号公園北面西側,明野4号公園北面西側,42.6583185,141.6379508,
北海道,苫小牧市,92,光洋町2丁目5市立光洋中学校北面中央,市立光洋中学校北面中央,42.62402840000001,141.5637069,
北海道,苫小牧市,93,光洋町3丁目16光洋3丁目公園東面中央,光洋3丁目公園東面中央,42.625289,141.560616,
北海道,苫小牧市,94,光洋町2丁目6市立光洋中学校正門東側,市立光洋中学校正門東側,42.62402840000001,141.5637069,
北海道,苫小牧市,95,音羽町1丁目6音羽1丁目公園南面東側,音羽1丁目公園南面東側,42.6471056,141.6142298,
北海道,苫小牧市,96,日吉町1丁目5日吉1丁目公園東面北側,日吉1丁目公園東面北側,42.621108,141.557096,
北海道,苫小牧市,97,日吉町3丁目14あかつき公園東面南側,あかつき公園東面南側,42.623269,141.5514696,
北海道,苫小牧市,98,日吉町3丁目4日吉体育館南面東側,日吉体育館南面東側,42.621731,141.550656,
北海道,苫小牧市,99,永福町2丁目2永福2丁目公園南面中央,永福2丁目公園南面中央,42.61956900000001,141.544602,
北海道,苫小牧市,100,字糸井148糸井なかよし公園東面南側,糸井なかよし公園東面南側,42.618158,141.538992,
北海道,苫小牧市,101,桜木町1丁目12桜木1丁目公園北面西側,桜木1丁目公園北面西側,42.628547,141.559836,
北海道,苫小牧市,102,桜木町2丁目13桜木2丁目公園東面北側,桜木2丁目公園東面北側,42.6265347,141.5537415,
北海道,苫小牧市,103,桜木町3丁目8市立北星小学校裏門西側,市立北星小学校裏門西側,42.628584,141.550772,
北海道,苫小牧市,104,桜木町4丁目19桜木4丁目公園南面西側,桜木4丁目公園南面西側,42.6322086,141.557671,
北海道,苫小牧市,105,豊川町2丁目8豊川2丁目公園北面中央,豊川2丁目公園北面中央,42.635306,141.554336,
北海道,苫小牧市,106,豊川町3丁目20豊川3丁目公園南面東側,豊川3丁目公園南面東側,42.632888,141.55025,
北海道,苫小牧市,107,豊川町4丁目7市立豊川小学校正門北側,市立豊川小学校正門北側,42.634614,141.548911,
北海道,苫小牧市,108,有珠の沢町2丁目10有珠1号公園南面東側,有珠1号公園南面東側,42.6453355,141.5537716,
北海道,苫小牧市,109,有珠の沢町7丁目12みどりの公園西面北側,みどりの公園西面北側,42.648968,141.548976,
北海道,苫小牧市,110,有珠の沢町6丁目23有珠5号公園西面南側,有珠5号公園西面南側,42.64472,141.549142,
北海道,苫小牧市,111,有珠の沢町3丁目9旧市立啓北中学校山なみ分校正門西グラウンド面東側ネットに固定,旧市立啓北中学校山なみ分校正門西グラウンド面東側ネットに固定,42.63859739999999,141.5528739,
北海道,苫小牧市,112,有珠の沢町3丁目5そよかぜ公園南面西側,そよかぜ公園南面西側,42.639235,141.554855,
北海道,苫小牧市,113,地番・しらかば町2丁目187-2糸井駅前広場北面北角,糸井駅前広場北面北角,42.6227418,141.5417988,緯度経度は怪しい
北海道,苫小牧市,114,しらかば町6丁目22わかば公園西面北側,わかば公園西面北側,42.626008,141.544765,
北海道,苫小牧市,115,しらかば町2丁目15しらかば公園北面東側,しらかば公園北面東側,42.623315,141.541011,
北海道,苫小牧市,116,しらかば町3丁目23あすなろ公園東面北側,あすなろ公園東面北側,42.62287999999999,141.536102,
北海道,苫小牧市,117,しらかば町5丁目6しらかば総合福祉会館西面,しらかば総合福祉会館西面,42.6257857,141.5397349,
北海道,苫小牧市,118,桜坂町2丁目12望洋台北公園東面北側,望洋台北公園東面北側,42.6402152,141.5353633,
北海道,苫小牧市,119,日新町6丁目1直笛公園南面西側,直笛公園南面西側,42.6325514,141.5446385,
北海道,苫小牧市,120,日新町2丁目1バス停日新温水プール前(木もれびの道),バス停日新温水プール前(木もれびの道),42.6285537,141.5426662,
北海道,苫小牧市,121,日新町3丁目2バス停日新3丁目前(木もれびの道),バス停日新3丁目前(木もれびの道),42.6261737,141.5354339,
北海道,苫小牧市,122,日新町3丁目4こじか公園南面中央,こじか公園南面中央,42.627485,141.535186,
北海道,苫小牧市,123,日新町4丁目4バス停日新4丁目前,バス停日新4丁目前,42.6295794,141.5338784,
北海道,苫小牧市,124,日新町4丁目11日新4-11-5応地,日新4-11-5応地,42.63007899999999,141.5318896,
北海道,苫小牧市,125,宮の森町2丁目14宮の森2号公園西面南側,宮の森2号公園西面南側,42.635365,141.52518,
北海道,苫小牧市,126,柏木町6丁目10柏木6丁目公園北面西側,柏木6丁目公園北面西側,42.628217,141.527282,
北海道,苫小牧市,127,柏木町5丁目9柏木5丁目公園西面南側,柏木5丁目公園西面南側,42.62686,141.523272,
北海道,苫小牧市,128,はまなす町1丁目5こぐま公園東面北側,こぐま公園東面北側,42.628221,141.517139,
北海道,苫小牧市,129,柏木町2丁目3バス停川沿体育館前緑地(木もれびの道),バス停川沿体育館前緑地(木もれびの道),42.6225174,141.524574,
北海道,苫小牧市,130,柏木町1丁目5柏木1丁目公園東面北側,柏木1丁目公園東面北側,42.62543,141.52912,
北海道,苫小牧市,131,川沿町1丁目7川沿1丁目公園東面北側,川沿1丁目公園東面北側,42.620266,141.531985,
北海道,苫小牧市,132,川沿町2丁目6川沿2丁目公園東面北側,川沿2丁目公園東面北側,42.617804,141.526593,
北海道,苫小牧市,133,川沿町5丁目2川沿5丁目公園東面中央,川沿5丁目公園東面中央,42.621145,141.527805,
北海道,苫小牧市,134,川沿町4丁目6川沿公園北面東側,川沿公園北面東側,42.6194582,141.522389,
北海道,苫小牧市,135,川沿町4丁目6川沿公園野球場北側,川沿公園野球場北側,42.6194582,141.522389,
北海道,苫小牧市,136,澄川町7丁目17澄川7丁目公園南面中央,澄川7丁目公園南面中央,42.62432099999999,141.514506,
北海道,苫小牧市,137,澄川町7丁目11澄川6丁目公園北面西側,澄川6丁目公園北面西側,42.6223593,141.5086414,
北海道,苫小牧市,138,澄川町7丁目16澄川5丁目公園北面西側,澄川5丁目公園北面西側,42.6204096,141.5031492,
北海道,苫小牧市,139,澄川町4丁目12澄川4丁目公園南面中央,澄川4丁目公園南面中央,42.617469,141.504914,
北海道,苫小牧市,140,澄川町3丁目11澄川3丁目公園北面西側,澄川3丁目公園北面西側,42.6193769,141.5104518,
北海道,苫小牧市,141,澄川町2丁目4市立澄川小学校グラウンド東面南側,市立澄川小学校グラウンド東面南側,42.6201078,141.5145797,
北海道,苫小牧市,142,ときわ町6丁目11ときわ6丁目公園東面西側,ときわ6丁目公園東面西側,42.6180549,141.5180703,
北海道,苫小牧市,143,ときわ町4丁目21ときわ4丁目公園東面北側,ときわ4丁目公園東面北側,42.616893,141.513646,
北海道,苫小牧市,144,ときわ町1丁目12ときわ公園南面西側,ときわ公園南面西側,42.61482549999999,141.5189603,
北海道,苫小牧市,145,ときわ町2丁目14ときわ西公園東面北側,ときわ西公園東面北側,42.6132682,141.5139791,
北海道,苫小牧市,146,ときわ町7丁目8-1市立錦岡小学校正門東側,市立錦岡小学校正門東側,42.61506139999999,141.5159014,
北海道,苫小牧市,147,宮前町2丁目30植岡西12号公園南面西側,植岡西12号公園南面西側,42.605087,141.4882979,
北海道,苫小牧市,148,宮前町1丁目11植岡西1号公園南面西側,植岡西1号公園南面西側,42.6075692,141.497602,
北海道,苫小牧市,149,植岡町2丁目20植西ニュータウン錦岡西7号公園南面東側,植西ニュータウン錦岡西7号公園南面東側,42.601901,141.478132,緯度経度は怪しい
北海道,苫小牧市,150,北星町1丁目7植西ニュータウンすずらん公園南面中央,植西ニュータウンすずらん公園南面中央,42.6057617,141.4749931,
北海道,苫小牧市,151,北星町1丁目1北星公園北面東側,北星公園北面東側,42.6066307,141.4771838,
北海道,苫小牧市,152,北星町2丁目18錦岡西9号公園東面南側,錦岡西9号公園東面南側,42.6038928,141.4677381,
北海道,苫小牧市,153,字錦岡491-56うぐいす団地入口道路入って左側,うぐいす団地入口道路入って左側,42.6278328,141.4864754,
北海道,苫小牧市,154,のぞみ町3丁目10市立樽陵中学校西面中央,市立樽陵中学校西面中央,42.6185255,141.497851,
北海道,苫小牧市,155,のぞみ町1丁目12のぞみ公園南面西側,のぞみ公園南面西側,42.6161351,141.4997719,
北海道,苫小牧市,156,のぞみ町1丁目2のぞみコミュニティセンター南面中央,のぞみコミュニティセンター南面中央,42.6151365,141.5030863,
北海道,苫小牧市,157,植岡町5号公園北面西側植岡西5号公園北面西側,植岡西5号公園北面西側,42.63124639999999,141.6031222,緯度経度は怪しい
北海道,苫小牧市,158,美原町1丁目13清川公園北面東側,清川公園北面東側,42.6105878,141.4993587,
北海道,苫小牧市,159,青雲町2丁目7青雲公園南面西側,青雲公園南面西側,42.6084143,141.4922277,
北海道,苫小牧市,160,明徳町4丁目2バス停明徳町4丁目西側,バス停明徳町4丁目西側,42.614158,141.4917033,
北海道,苫小牧市,161,明徳町4丁目8明徳西4号公園東面北側,明徳西4号公園東面北側,42.6159192,141.4912765,
北海道,苫小牧市,162,明徳町2丁目4明徳西6号公園南面西側,明徳西6号公園南面西側,42.6090737,141.4847632,
北海道,苫小牧市,163,明徳町3丁目13明徳西3号公園東面南側,明徳西3号公園東面南側,42.6124828,141.4820018,
北海道,苫小牧市,164,もえぎ町2丁目12もえぎ町1号公園東面南側,もえぎ町1号公園東面南側,42.6103624,141.4758445,
北海道,苫小牧市,165,字樽前97-7松美周店前北側角地,松美周店前北側角地,42.5933185,141.4354441,
北海道,苫小牧市,166,字樽前102-1市立樽前小学校入口西側,市立樽前小学校入口西側,42.59042059999999,141.43566,
北海道,苫小牧市,167,字樽前85-3樽前交流センター正面東側駐車場西面,樽前交流センター正面東側駐車場西面,42.587279,141.432339,
北海道,苫小牧市,168,沼ノ端中央6丁目10沼ノ端南2号公園南面東側,沼ノ端南2号公園南面東側,42.667976,141.684858,
北海道,苫小牧市,169,沼ノ端中央5丁目4沼ノ端南3号公園東面中央,沼ノ端南3号公園東面中央,42.670158,141.689363,
北海道,苫小牧市,170,沼ノ端中央3丁目1サトウ工業所特側南面東側,サトウ工業所特側南面東側,42.6698364,141.6982026,
北海道,苫小牧市,171,沼ノ端中央3丁目12沼ノ端西9号公園西面南側,沼ノ端西9号公園西面南側,42.6721955,141.6968423,
北海道,苫小牧市,172,沼ノ端中央1丁目25沼ノ端西11号公園西面北側,沼ノ端西11号公園西面北側,42.6733308,141.7021784,
