prefecture,city,number,address,name,lat,long,note
北海道,赤平市,1,錦町1丁目1番地,赤平市交流センターみらい前 緑地帯,43.555901,142.048523,緯度経度は怪しい
北海道,赤平市,2,本町3丁目1番地,市立赤平病院 緑地帯,43.55762199999999,142.0523421,
北海道,赤平市,3,大町4丁目4番地,masked,43.55357,142.055939,緯度経度は怪しい
北海道,赤平市,4,美園町3丁目4番地,赤平公園,43.554321,142.037918,緯度経度は怪しい
北海道,赤平市,5,泉町4丁目1番地,赤平市役所 前 道道沿,43.558277,142.044083,緯度経度は怪しい
北海道,赤平市,6,泉町2丁目2番地の1,赤平市コミュニティセンター別館,43.557636,142.045731,緯度経度は怪しい
北海道,赤平市,7,錦町2丁目3番地,錦町公園,43.557877,142.050018,緯度経度は怪しい
北海道,赤平市,8,豊栄町1丁目,豊栄町掲示板横,43.5636595,142.0366039,
北海道,赤平市,9,幸町6丁目,遊園地 前 豊里美室室 向,43.566769,142.035583,緯度経度は怪しい
北海道,赤平市,10,豊栄町2丁目16番地,旧豊里生活館 前,43.564846,142.034927,緯度経度は怪しい
北海道,赤平市,11,宮下町 道道沿,宮下町 下字路 横,43.558132,142.037033,緯度経度は怪しい
北海道,赤平市,12,豊栄町1丁目11番地,豊里児童センター,43.563835,142.036072,緯度経度は怪しい
北海道,赤平市,13,幸町1丁目,masked,43.56639670000001,142.0335326,
北海道,赤平市,14,桜木町1丁目,masked,43.5623149,142.0314708,
北海道,赤平市,15,東大町3丁目,赤歌警察署,43.55225060000001,142.0586415,
北海道,赤平市,16,宇赤字670番地10,日の出地区集会所 向,43.54359092070036,142.0645905042182,緯度経度は怪しい
北海道,赤平市,17,宇赤字628番地,農産物加工実習センター付近,43.543587093531585,142.06233008107304,緯度経度は怪しい
北海道,赤平市,18,宇赤字637番地,住友友人クラブ集会所,43.54965840280016,142.06658414165545,緯度経度は怪しい
北海道,赤平市,19,宇赤字563番地,マックスバリュ 前,43.54852151214031,142.06145536071534,
北海道,赤平市,20,宇赤字659番地,福栄地区集会所,43.558048,142.044174,緯度経度は怪しい
北海道,赤平市,21,茂尻元町南5丁目1番地,大積寺 前,43.538857,142.073151,緯度経度は怪しい
北海道,赤平市,22,茂尻新町2丁目,茂尻新町 市道沿,43.5363834,142.0831029,
北海道,赤平市,23,茂尻元町南2丁目,茂尻駅前 花壇,43.5371114,142.0828699,
北海道,赤平市,24,茂尻元町北1丁目22番地,茂尻生活館,43.540211,142.08287,緯度経度は怪しい
北海道,赤平市,25,茂尻中央町1丁目3番地,茂尻分団詰所前,43.538155,142.084106,緯度経度は怪しい
北海道,赤平市,26,茂尻中央町南5丁目,児童公園,43.53769459999999,142.0864741,
北海道,赤平市,27,茂尻新春日町1丁目国道沿,新春日団地 前,43.540489,142.085831,緯度経度は怪しい
北海道,赤平市,28,茂尻春日町3丁目,春日公園,43.538044,142.088943,緯度経度は怪しい
北海道,赤平市,29,茂尻本町1丁目1番地,東公民館,43.539921,142.090927,緯度経度は怪しい
北海道,赤平市,30,茂尻本町27丁目32番地,茂尻本町公園,43.539845,142.091476,緯度経度は怪しい
北海道,赤平市,31,平岸桂町 国道沿,バス停桂町付近,43.537098,142.102051,緯度経度は怪しい
北海道,赤平市,32,平岸西町1丁目国道沿,バス停西町（旧新宮商店付近）,43.5404914,142.1100928,
北海道,赤平市,33,平岸新光町5丁目61番地,浄光寺 裏 市道沿,43.541676,142.11348,緯度経度は怪しい
北海道,赤平市,34,平岸仲町2丁目3番地,平岸コミュニティセンター,43.542854,142.122177,緯度経度は怪しい
北海道,赤平市,35,平岸曙町2丁目18番地,平岸生活館,43.539581,142.118576,緯度経度は怪しい
北海道,赤平市,36,平岸仲町4丁目5番地,masked,43.541775,142.126144,緯度経度は怪しい
北海道,赤平市,37,平岸東町3丁目国道沿,masked,43.54048299999999,142.1395736,
北海道,赤平市,38,百戸町西1丁目,旧共同浴場,43.5470141,142.0788585,
北海道,赤平市,39,百戸町西2丁目 国道沿,光生舎虹の里付近,43.5425287,142.081642,
北海道,赤平市,40,百戸町東1丁目16番地,百戸コミュニティセンター,43.545647,142.083267,緯度経度は怪しい
北海道,赤平市,41,百戸町東4丁目道道沿,masked,43.5429373,142.0852183,
北海道,赤平市,42,豊丘町2丁目3番地1,豊丘地区集会所駐車場横,43.5649273,142.0505821,
北海道,赤平市,43,字豊里68番地,赤間地区共同浴場前,43.559616,142.054794,緯度経度は怪しい
北海道,赤平市,44,西文京町1丁目4番地,西文京町 小公園,43.561733,142.041428,緯度経度は怪しい
北海道,赤平市,45,東文京町4丁目6番地,赤平小学校付近,43.565708,142.044083,緯度経度は怪しい
北海道,赤平市,46,東文京町4丁目1番地,ホクレンスタンド 向,43.564621,142.042892,緯度経度は怪しい
北海道,赤平市,47,東文京町4丁目4番地,文京生活館,43.5644721,142.0452272,
北海道,赤平市,48,西文京町2丁目2番地,masked,43.562565,142.04129,緯度経度は怪しい
北海道,赤平市,49,北文京町3丁目,masked,43.56623219999999,142.048257,
北海道,赤平市,50,若木町北3丁目道道沿,バス停若木町付近,43.5740093,142.0400273,
北海道,赤平市,51,若木町北2丁目2番地,若木生活館,43.5732,142.040573,緯度経度は怪しい
北海道,赤平市,52,若木町東3丁目,若木町公園 市道側,43.571209,142.043579,緯度経度は怪しい
北海道,赤平市,53,若木町南3丁目,青葉団地B棟 横 市道側,43.5707755,142.0426675,
北海道,赤平市,54,若木町南1丁目,朝陽台団地 横 市道側,43.56937629999999,142.042442,
北海道,赤平市,55,共和町220番地国道沿,masked,43.578793,141.991302,緯度経度は怪しい
北海道,赤平市,56,共和町200番地国道沿,masked,43.577827,142.001526,緯度経度は怪しい
北海道,赤平市,57,市道右岸通 治,赤平幼稚園 道路東入口付近,43.58236624392346,142.02466231429946,
北海道,赤平市,58,市道右岸通 治,市道神社通 終点,43.558048,142.044174,緯度経度は怪しい
北海道,赤平市,59,共和町273番地4,共和地区集会所,43.5807016,142.0163367,
北海道,赤平市,60,幌岡町147-1先国道沿,エルム高原 入口,43.580963,142.03511,緯度経度は怪しい
北海道,赤平市,61,住吉町 道道沿,masked,43.547417,141.998611,緯度経度は怪しい
北海道,赤平市,62,住吉町363番地,コミュニティセンター住吉獅子会館,43.561806,141.993729,緯度経度は怪しい
北海道,赤平市,63,住吉町 道道沿,2号橋（福栄橋）付近,43.547417,141.998611,緯度経度は怪しい
北海道,赤平市,64,住吉町 道道沿,新住吉橋 付近,43.56860655107926,142.00560934038154,緯度経度は怪しい
