prefecture,city,number,address,name,lat,long,note
北海道,釧路町,1-1,別保1丁目1番地,役場庁舎敷地(掲示板横植樹枡),42.99585, 144.46599,目視で確認済み
北海道,釧路町,1-2,別保1丁目98番地,旧役場庁舎敷地,42.99508, 144.46932,目視で確認済み
北海道,釧路町,1-3,別保4丁目39番地5地先,町道別保双河辺線敷地(五月橋詰),42.99356, 144.47386,目視で確認済み
北海道,釧路町,1-4,別保5丁目11番地,旧職員住宅敷地,42.9933, 144.46619,目視で確認済み
北海道,釧路町,1-5,別保7丁目28番地,日の出会館敷地(花壇前),42.99126, 144.47797,目視で確認済み
北海道,釧路町,1-6,別保南1丁目97番地,双河辺生活館敷地,42.98226, 144.48159,目視で確認済み
北海道,釧路町,1-7,字別保168番地21,共和会館敷地,43.0064439,144.4681222,
北海道,釧路町,1-8,字別保原野東5線35番地6,上別保会館敷地,43.01208, 144.51576,目視で確認済み
北海道,釧路町,2-1,字別保原野南25線59番地39地先,国道44号線敷地(ジルティーダンススタジオ横空地側),42.99642, 144.43925,目視で確認済み
北海道,釧路町,2-2,東陽大通西1丁目1番地1,保健福祉センター(あいぱーる)敷地,42.9971807,144.4350953,
北海道,釧路町,2-3,東陽西1丁目15番地13,東陽東公園敷地(フェンス南面),42.9989132,144.4349312,
北海道,釧路町,2-4,東陽西2丁目13番地9,東陽西公園敷地(フェンス南面),43.0008771,144.4272389,
北海道,釧路町,3-1,河野3丁目1番地,公営住宅敷地(遠矢コレクティブセンター前),43.03662, 144.45477,目視で確認済み
北海道,釧路町,3-2,河野7丁目52番地1,公民館敷地(駐車場植樹枡),43.03886, 144.45602,目視で確認済み
北海道,釧路町,3-3,河野10丁目13番地,町道遠矢床丹線敷地,43.03801, 144.45274,目視で確認済み
北海道,釧路町,3-4,よし野3丁目8番地2,くるみ公園敷地(フェンス東面),43.03813, 144.46,目視で確認済み
北海道,釧路町,4-1,緑1丁目18番地地先,町道第1グリーン団地中央線敷地(緑公園向い),43.04243, 144.46963,目視で確認済み
北海道,釧路町,4-2,南陽台10丁目5番地,町道遠野阿歴内線敷地(柏入口),43.04084, 144.46651,目視で確認済み
北海道,釧路町,4-3,南陽台4丁目42番地,町道遠野阿歴内線敷地(団地入口バス停前),43.04141, 144.46364,目視で確認済み
北海道,釧路町,4-4,柏東2丁目68番地,柏東公園敷地(フェンス南面),43.0356, 144.47044,目視で確認済み
北海道,釧路町,5-1,遠矢6丁目16番地,すみれ保育園敷地(フェンス西面),43.04621, 144.45526,目視で確認済み
北海道,釧路町,5-2,遠矢4丁目23番地5,町道遠矢1号線敷地(遠矢跨線橋入口),43.04762, 144.45777,目視で確認済み
北海道,釧路町,5-3,遠矢2丁目27番地先,国道391号敷地,43.04646, 144.45852,目視で確認済み
北海道,釧路町,5-4,字トリトウシ88番地312,とおや交流館108敷地(玄関横植樹枡),43.050085,144.4575731,
北海道,釧路町,5-5,鳥通西6丁目1番地地先,遠矢中学校敷地(道路脇),43.05348, 144.4644,目視で確認済み
北海道,釧路町,5-6,鳥通東2丁目1番地,町道三映団地1号線敷地(団地入口),43.0597, 144.46996,目視で確認済み
北海道,釧路町,5-7,字トリトウシ5番地5地先,国道391号敷地,43.064604,144.4796265,
北海道,釧路町,5-8,字トリトウシ原野南3線43番地11,細岡会館敷地,43.1046558,144.468461,
北海道,釧路町,5-9,字達古武49番地1,達古武町内会館敷地,43.09612, 144.507,目視で確認済み
北海道,釧路町,5-10,字達古武63番地7,西村商店敷地(細岡入口),43.0939499,144.5062808,
北海道,釧路町,6-1,字遠野58番地556地先,町道旧釧路網走線敷地(高台三叉路),43.04141, 144.4781,目視で確認済み
北海道,釧路町,6-2,字遠野原野西2線56番地5地先,町道遠野阿歴内線敷地(東遠野入口),43.04886, 144.49613,目視で確認済み
北海道,釧路町,6-3,字遠野原野西2線57番地1,東遠野ふれあいセンター敷地(緑地帯),43.04813, 144.49903,目視で確認済み
北海道,釧路町,6-4,字遠野84番地8地先,町道達古武5号線敷地(道道遠野別保線交点),43.05929, 144.50239,目視で確認済み
北海道,釧路町,7-1,遠矢南1丁目39番地,八幡神社敷地,43.0362272,144.456576,
北海道,釧路町,7-2,わらび3丁目1番地,床丹地区会館敷地,43.0292345,144.4555785,
北海道,釧路町,7-3,わらび3丁目17番地,わらび公園敷地(フェンス東面),43.03101, 144.45448,目視で確認済み
北海道,釧路町,7-4,わらび4丁目5番地1地先,町道別保床丹線敷地(わらび団地入口),43.03281, 144.45382,目視で確認済み
北海道,釧路町,7-5,字床丹114番地473地先,町道別保床丹線敷地,43.02262, 144.46865,目視で確認済み
北海道,釧路町,7-6,字別保原野南20線51番地33地先,町道旧釧路網走線敷地(釧望台団地入口),43.0222106,144.4431019,緯度経度は怪しい
北海道,釧路町,8-1,中央4丁目24番地地先,町道筑工団地2号線敷地(高橋工務店向い),43.00448, 144.42343,目視で確認済み
北海道,釧路町,8-2,中央6丁目20番地1,国道391号敷地(自衛隊入口),43.01006, 144.42918,目視で確認済み
北海道,釧路町,8-3,中央8丁目100番地地先,町道床丹5号線敷地(河野団地入口),43.01063, 144.43368,目視で確認済み
北海道,釧路町,8-4,中央9丁目12番地,天寧コミュニティセンター敷地,43.01314, 144.44147,目視で確認済み
北海道,釧路町,8-5,中央9丁目36番地,天寧郵便局敷地,43.01183, 144.4492,目視で確認済み
北海道,釧路町,9-1,字又飯時35番地2,協洋会館敷地,42.9420891,144.4939704,
北海道,釧路町,9-2,字昆布森87番地8地先,町道宿徳内線敷地(宿徳内会館前),42.94735, 144.50357,目視で確認済み
北海道,釧路町,9-3,字アチョロベツ59番地2地先,町道アチョロベツ線敷地(城山会館前),42.9504156,144.5125958,
北海道,釧路町,9-4,昆布森2丁目38番地3及び番地先,地先：道道敷地、番地：住宅敷地(道道側),42.9521472,144.5271411,
北海道,釧路町,9-5,昆布森3丁目22番地1,昆布森福祉センター敷地(掲示板横),42.9539386,144.5316631,
北海道,釧路町,9-6,字幌内17番地2地先,町道幌内線敷地(幌内線終点),42.94948, 144.54946,目視で確認済み
北海道,釧路町,9-7,字浦雲泊44番地4地先,町道浦雲泊線敷地(浦雲泊会館横),42.9526668,144.6127658,
北海道,釧路町,9-8,字跡永賀1番地5,跡永賀集会所敷地,42.9525108,144.6318103,
北海道,釧路町,10-1,字老者舞28番地2,老者舞地区会館敷地,42.9376187,144.7185978,
北海道,釧路町,10-2,字老者舞2番地15地先,町道老者舞線敷地（伊畑倉庫横）,42.9366534,144.7174158,
北海道,釧路町,11-1,字オタクパウシ13-125地先,町道入境学線敷地（汐見入口）,42.9432, 144.68389,目視で確認済み
北海道,釧路町,11-2,字老者舞131番地先,道道142号敷地,42.94455, 144.72727,目視で確認済み
北海道,釧路町,11-3,字知方学176番地先,町道知方学尻羽線敷地（本田商店前）,42.93874, 144.73302,目視で確認済み
北海道,釧路町,12-1,字仙鳳趾7番地1地先,仙鳳趾漁港（漁港入口フェンス）,42.974, 144.72305,目視で確認済み
北海道,釧路町,12-2,字仙鳳趾18番地1地先,仙鳳寺境内敷地（参道）,42.98055, 144.72104,目視で確認済み
北海道,釧路町,12-3,字重蘭窮26番地1,仙鳳趾公園敷地（フェンス南西面）,42.98286, 144.71928,目視で確認済み
北海道,釧路町,12-4,字オタクパウシ5番地2地先,町道オタクパウシ2号線敷地（片野農場向い）,42.97927, 144.6886,目視で確認済み
北海道,釧路町,13-1,若葉1丁目28番地3,釧路町防災交流センター（まもりーふ）,43.00576, 144.41703,目視で確認済み
北海道,釧路町,13-2,国誉6丁目9番地,国誉地区会館敷地,43.0107209,144.4184271,
北海道,釧路町,13-3,字別保原野南23線102番地,町道富原学校通敷地（自衛隊官舎南面）,43.01056, 144.42033,目視で確認済み
北海道,釧路町,13-4,国誉6丁目2番地1地先,国誉6丁目河川敷地（土のうステーション横）,43.0093, 144.418,
北海道,釧路町,13-5,睦3丁目8番地1,むつみ公園敷地（フェンス南西面）,43.01157, 144.41305,目視で確認済み
北海道,釧路町,13-6,睦2丁目1番地6,新くしろクリニック敷地（フェンス北西面）,43.01235, 144.41172,目視で確認済み
北海道,釧路町,14-1,釧路市愛国東1丁目,桂ふれあい公園敷地（フェンス南東面）,43.00611, 144.3992,目視で確認済み
北海道,釧路町,14-2,桂3丁目15番地2,町道桂1号線敷地内,43.00826, 144.39768,目視で確認済み
北海道,釧路町,14-3,桂5丁目1番地1,桂地区会館敷地（交通安全監視所横）,43.0075955,144.4033502,
北海道,釧路町,14-4,桂木2丁目9番地先,町道桂木4号線敷地（イオン釧路店駐車場出入口）,43.0106122,144.4052473,
北海道,釧路町,14-5,桂木4丁目1番地,町道桂木4号線敷地（国道・町道交差点）,43.00944, 144.40695,目視で確認済み
北海道,釧路町,15-1,光和1丁目5番地,土井木材㈱駐車場（アセッツ川橋詰）,43.00239, 144.39938,目視で確認済み
北海道,釧路町,15-2,光和5丁目34番地1地先,町道川北通敷地（川北橋交差点）,43.00105, 144.40189,目視で確認済み
北海道,釧路町,15-3,光和3丁目10番地,美園公園敷地（フェンス南東面）,43.00442, 144.4021,目視で確認済み
北海道,釧路町,15-4,木場1丁目2番地,釧路町コミセン敷地（玄関横植樹枡）,43.0061355,144.4054019,
北海道,釧路町,15-5,新開4丁目2番地先,誉会館敷地（送電塔前）,43.0034658,144.4048359,
北海道,釧路町,15-6,新開3丁目36番地1,いずみ公園敷地（北面フェンス）,43.00273, 144.40631,目視で確認済み
北海道,釧路町,15-7,新開5丁目60番地先,町道東光4号線敷地（グリーンレンタリース・アソ向い）,43.00121, 144.40637,目視で確認済み
北海道,釧路町,16-1,北見団地3丁目1番地先,東光4号線敷地（カレン美容室前）,43.00031509999999,144.4051305,
北海道,釧路町,16-2,北見団地1丁目15番地,春日公園敷地（フェンス南東面）,42.99913, 144.40417,目視で確認済み
北海道,釧路町,16-3,北見団地2丁目31番地,若葉公園敷地（フェンス南西面）,42.99918, 144.40633,目視で確認済み
北海道,釧路町,16-4,北見団地4丁目64番地,北見団地地区会館敷地（緑地帯）,43.00112, 144.40839,目視で確認済み
北海道,釧路町,16-5,北見団地5丁目18番地,緑公園敷地（フェンス南面）,43.0018, 144.40994,目視で確認済み
北海道,釧路町,17-1,北都2丁目9番地2,北都西公園敷地（フェンス北西角）,43.01839, 144.41318,目視で確認済み
北海道,釧路町,17-2,北都1丁目8番地2,北都地区会館敷地（玄関横）,43.0162781,144.4154883,
北海道,釧路町,17-3,富原1番地先,町道富原学校通敷地（校門前）,43.01319, 144.41547,目視で確認済み
北海道,釧路町,18-1,豊美2丁目8番地,豊美西公園敷地（フェンス東面角）,43.02, 144.41742,目視で確認済み
北海道,釧路町,18-2,豊美1丁目7番地2,豊美東公園敷地（フェンス東面角）,43.0180107,144.4186046,
北海道,釧路町,18-3,雁来2番地1,雁来公園敷地（フェンス西面角）,43.01641, 144.42064,目視で確認済み
北海道,釧路町,18-4,雁来1番地31,富原大通会館敷地（南面緑地）,43.01655, 144.41912,目視で確認済み
北海道,釧路町,19-1,曙2丁目11番地1地先,曙1号線敷地（コープさっぽろ曙店前植樹枡）,43.01546, 144.40843,目視で確認済み
北海道,釧路町,19-2,曙4丁目9番地1,あおば公園敷地（フェンス南西面）,43.01548, 144.41066,目視で確認済み
北海道,釧路町,19-3,曙2丁目3番地9,曙公園敷地（フェンス北面角）,43.0137708,144.4093907,
北海道,釧路町,19-4,曙4丁目12番地1,ＮＴＴ東日本管理敷地,43.01613, 144.41175,目視で確認済み
