prefecture,city,number,address,name,lat,long,note
大阪府,富田林市,1,常磐町１６－２０,富田林小学校表門,34.499107,135.5979549,
大阪府,富田林市,2,甲田１丁目１－２３,富田林市役所第２駐車場,34.4987745,135.5966359,
大阪府,富田林市,3,本町１８,富田林駅西側フェンス,34.5045083,135.6008321,
大阪府,富田林市,4,寿町一丁目３－５,第一中学校北側,34.5002942,135.594809,
大阪府,富田林市,5,寿町二丁目６－１,府民センター西側フェンス,34.502412,135.5964007,
大阪府,富田林市,6,昭和町一丁目７－１,コノミヤ富田林店西向フェンス,34.5040298,135.5990934,
大阪府,富田林市,7,昭和町一丁目１０,富田林駅北口駅前広場,34.5046851,135.6005632,
大阪府,富田林市,8,富美ケ丘町７１７,富美ケ丘町入り口フェンス,34.50197590000001,135.5906749,
大阪府,富田林市,9,常盤町７,藤本窯業(株)駐車場,34.5023467,135.5984968,
大阪府,富田林市,10,若松町西一丁目1805-1,路辺のおもかげ公園,34.5061507,135.6004156,
大阪府,富田林市,11,富田林町３－１,谷川町老人憩の家前ガードレール,34.4987901,135.6006832,
大阪府,富田林市,12,常盤町１５－１,富田林幼稚園(西方寺側),34.4992513,135.5992605,
大阪府,富田林市,13,富田林町１４－２７,富田林保育園南側塀,34.4996947,135.6022238,
大阪府,富田林市,14,本町１０,ちびっこ交通公園,34.5024373,135.6017441,
大阪府,富田林市,15,若松町四丁目５－４,新堂小学校表門,34.508449,135.6092173,
大阪府,富田林市,16,若松町四丁目５－４,新堂小学校道路沿,34.508449,135.6092173,
大阪府,富田林市,17,若松町二丁目７,平田モータープール,34.5061114,135.6053606,
大阪府,富田林市,18,若松町二丁目９,ヤマハ音楽教室向かい歩道フェンス,34.5058819,135.6044011,
大阪府,富田林市,19,若松町三丁目４,杉多駐車場,34.5060714,135.6080178,
大阪府,富田林市,20,若松町五丁目６３１－２,雇用促進事業団北側道路フェンス,34.5089935,135.6060249,
大阪府,富田林市,21,緑ケ丘町１,府営富田林緑ヶ丘住宅２棟東側,34.510323,135.6010061,
大阪府,富田林市,22,若松町一丁目７－４７,児童館,34.5039871,135.604384,
大阪府,富田林市,23,若松町一丁目１,第４住宅南側フェンス,34.50241949999999,135.602925,
大阪府,富田林市,24,若松町一丁目３,第１０住宅東側緑地,34.5026894,135.6035154,
大阪府,富田林市,25,若松町一丁目９,第３住宅北東側空き地,34.5034675,135.6050654,
大阪府,富田林市,26,若松町一丁目１２－１２,若松団地集会所,34.5029593,135.6041058,
大阪府,富田林市,27,若松町一丁目１８－２２,老人憩の家皐月荘ブロック,34.5027536,135.6049672,
大阪府,富田林市,28,若松町一丁目７,若松団地駐車場フェンス（旧西友前）,34.5041059,135.6043273,
大阪府,富田林市,29,中野町三丁目６－２４,中野町長寿会館,34.5144435,135.6097155,
大阪府,富田林市,30,中野町一丁目６５５,ハイツ・リブレ前歩道フェンス,34.5109458,135.607133,
大阪府,富田林市,31,中野町三丁目３０６６－７,ファミリーマート中野店西側歩道フェンス,34.5156128,135.610749,
大阪府,富田林市,32,中野東一丁目３,ファミリーマート東向い歩道フェンス,34.51095301414054, 135.6121664944706
大阪府,富田林市,33,中野町三丁目２,中野町コミュニティーセンター西側フェンス,34.5154324,135.6088297,
大阪府,富田林市,34,中野町三丁目２,旭ヶ丘マンション前ガードレール,34.5154324,135.6088297,
大阪府,富田林市,35,中野町一丁目１２２－２,喜志第４号踏切東側ガードレール,34.5128783,135.6072058,
大阪府,富田林市,36,木戸山町１－３６,喜志小学校表門,34.5247932,135.6118266,
大阪府,富田林市,37,喜志町三丁目６,杉村モータープール前歩道フェンス,34.5230684,135.6088923,
大阪府,富田林市,38,喜志町一丁目８４６－３９,喜志町一丁目２児童遊園,34.5233469,135.6154735,
大阪府,富田林市,39,旭ヶ丘１１８７－３,喜志駅西側フェンス,34.52307591467067, 135.6072195031652
大阪府,富田林市,40,旭ヶ丘町１０,外環旭ヶ丘交差点南西フェンス,34.52328970000001,135.6052868,
大阪府,富田林市,41,喜志町三丁目１１５７－２,澤井産婦人科西側フェンス,34.5234527,135.6083869,
大阪府,富田林市,42,川面町一丁目８,河南橋西詰横植込みフェンス,34.5181856,135.6157688,
大阪府,富田林市,43,喜志新家町一丁目３,仲谷酒店横畑,34.526203,135.6061725,
大阪府,富田林市,44,宮町一丁目７,宮町集会所東側フェンス,34.5175891,135.6044011,
大阪府,富田林市,45,宮町三丁目２０５３,宮遊園　生垣,34.5178792,135.6022013,
大阪府,富田林市,46,宮町三丁目９４７,宮町1号児童遊園（鈴蘭台）,34.523346107751024, 135.6025690295954
大阪府,富田林市,47,南旭ヶ丘町２６０４－４５２,南旭ヶ丘町住宅北入り口ガードレール,34.515789,135.5989396,
大阪府,富田林市,48,南旭ヶ丘町１４,南旭ヶ丘町児童遊園北側植込み,34.5158521,135.5993824,
大阪府,富田林市,49,南旭ヶ丘町１,南旭ヶ丘町住宅豊田モータープール,34.5147196,135.6005632,
大阪府,富田林市,50,栗ケ池町２９６９－５,市民会館前フェンス,34.51860463391281, 135.60781410073267
大阪府,富田林市,51,宮町一丁目４－３６,国道１７０号線歩道(マクドナルド外環喜志店前),34.5167487,135.6052683,
大阪府,富田林市,52,南大伴町一丁目２－２０,大伴小学校表門,34.49757367771136, 135.61770859541812
大阪府,富田林市,53,山中田町一丁目４１１－２,林モータース横歩道フェンス,34.4997137,135.6113395,
大阪府,富田林市,54,南大伴町四丁目４,かがりの郷西側植込み,34.4949395,135.6179762,
大阪府,富田林市,55,山中田町三丁目31-313,かがり２号公園,34.4931302,135.6134065,
大阪府,富田林市,56,山中田町二丁目３－１６,個人宅前ブロック塀,34.4943984,135.6113764,
大阪府,富田林市,57,山中田町二丁目１,山中田ちびっこ老人憩の広場,34.49644,135.6111919,
大阪府,富田林市,58,南大伴町一丁目１３,個人宅向かいガードレール,34.493946,135.6198848,
大阪府,富田林市,59,別井三丁目２－５,個人宅,34.4940887,135.6271289,
大阪府,富田林市,60,別井二丁目３,個人宅向かいガードレール,34.4956565,135.6259578,
大阪府,富田林市,61,別井三丁目５－３１,個人宅,34.4931276,135.625625,
大阪府,富田林市,62,別井五丁目１,松隆運輸向かい歩道フェンス,34.49298539999999,135.6228566,
大阪府,富田林市,63,西板持町七丁目４０２－２,個人宅北側ガードレール,34.4922667,135.6060249,
大阪府,富田林市,64,西板持町八丁目１,東レ・アムテックス(株)南西側フェンス,34.496152,135.6072058,
大阪府,富田林市,65,西板持町八丁目７－４３,板持幼稚園,34.4941725,135.606993,
大阪府,富田林市,66,東板持町二丁目３,巌島橋横ガードレール,34.4914303,135.608313,
大阪府,富田林市,67,佐備３３２－３,第二中学校前バス停横フェンス,34.485402290442664, 135.6049298597803
大阪府,富田林市,68,西板持町七丁目１６－２９,個人宅,34.4904798,135.6050713,
大阪府,富田林市,69,東板持町三丁目４９４－２,寿美ヶ丘住宅入口手前ガードレール,34.4877697,135.6083869,
大阪府,富田林市,70,廿山二丁目７,個人宅(集会所前),34.4907908,135.5767313,
大阪府,富田林市,71,廿山二丁目１,廿山墓池前ガードレール,34.4888184,135.5804935,
大阪府,富田林市,72,廿山二丁目８,個人宅向かいガードレール,34.4911992,135.5750348,
大阪府,富田林市,73,廿山二丁目１２,菊水保育園向かいガードレール,34.493932,135.5740021,
大阪府,富田林市,74,甲田四丁目１４,谷塚駐車場,34.492768,135.5889778,
大阪府,富田林市,75,新家一丁目４－１,第二中学校北側,34.4922328,135.5862237,
大阪府,富田林市,76,甲田一丁目１００３－３,個人宅東側ガードレール,34.49687,135.5965781,
大阪府,富田林市,77,錦ヶ丘町６,府営錦ヶ丘住宅４号棟東側植込み,34.4976775,135.5891992,
大阪府,富田林市,78,美山台２,府営富田林西住宅,34.5000268,135.5877639,
大阪府,富田林市,79,宮甲田町１,甲田児童遊園,34.4964819,135.589937,
大阪府,富田林市,80,甲田五丁目１３,浅川駐車場,34.4929842,135.5908224,
大阪府,富田林市,81,宮甲田町１１,西甲田交差点前東側歩道フェンス,34.4963734,135.5878711,
大阪府,富田林市,82,加太二丁目８－１４,青葉丘幼稚園表門,34.5068873,135.5625037,
大阪府,富田林市,83,加太一丁目７,元加太集会所北向かい倉庫フェンス,34.5047206,135.5604322,
大阪府,富田林市,84,加太一丁目６,関西みらい銀行西側ガードレール,34.5038933,135.5598423,
大阪府,富田林市,85,新青葉丘町１２,個人宅前フェンス,34.5066928,135.5661105,
大阪府,富田林市,86,青葉丘１－４０,青葉丘集会所北側フェンス,34.5027966,135.5645161,
大阪府,富田林市,87,五軒家二丁目１４７７－２,個人宅前ガードレール,34.5113101,135.5623495,
大阪府,富田林市,88,加太一丁目１７,個人宅北側ガードレール,34.5098623,135.5613171,
大阪府,富田林市,89,錦織南一丁目7-13,個人宅ブロック塀,34.479019,135.5826636,
大阪府,富田林市,90,錦織南二丁目1254-2（一部）,錦織５号公園,34.4753929,135.5788706,
大阪府,富田林市,91,錦織南一丁目1007-2,錦郡小学校裏入口手前ガードレール,34.4789902,135.580641,
大阪府,富田林市,92,錦織北二丁目4-18,個人宅ブロック塀,34.4824356,135.5849219,
大阪府,富田林市,93,錦町南一丁目1322,錦町集会所,34.47757856329151, 135.5774734286019
大阪府,富田林市,94,錦織北一丁目2-10,個人宅前ガードレール,34.4891619,135.5877973,
大阪府,富田林市,95,金剛錦織台13-3,伏山配水池伏山加圧ポンプ場,34.4845256,135.5671015,
大阪府,富田林市,96,須賀一丁目23-1,個人宅前ガードレール,34.4795361,135.569798,
大阪府,富田林市,97,伏山三丁目19番,聖ヶ丘ポンプ場跡地西行市道,34.4826713,135.5627919,
大阪府,富田林市,98,須賀二丁目29-23,須賀南山児童遊園,34.4808913,135.5630132,
大阪府,富田林市,99,須賀二丁目26-1,南海滝谷駅北側フェンス,34.4789728,135.5625891,
大阪府,富田林市,100,伏山一丁目17番,個人宅前ガードレール,34.4863738,135.5597686,
大阪府,富田林市,101,伏山一丁目23番,伏山踏切西側フェンス,34.4840997,135.5604322,
大阪府,富田林市,102,彼方411,彼方小学校表門,34.4802934,135.5906921,
大阪府,富田林市,103,彼方156-5,サンベール東山南側フェンス,34.477456185698856, 135.58974128307716
大阪府,富田林市,104,彼方48 6先,高橋東詰フェンス,34.47883274057202, 135.587722149977
大阪府,富田林市,105,不動ヶ丘町1,不動ヶ丘町入口西側ガードレール,34.4757833,135.5872211,
大阪府,富田林市,106,彼方34-2,個人宅西側向かいガードレール,34.4766282,135.5865244,
大阪府,富田林市,107,不動ヶ丘町14,不動ヶ丘２号公園,34.4739459,135.5869857,
大阪府,富田林市,108,彼方232-1,土井商店西隣フェンス,34.476608927921404, 135.59129321524065
大阪府,富田林市,109,彼方859-2,楠風台西側入口三差路フェンス,34.4851906,135.5961808,
大阪府,富田林市,110,横山78-2,汐ノ宮妙見寺前向かい水路フェンス,34.4665954,135.5840675,
大阪府,富田林市,111,伏見堂458-1,伏見堂ふれあい広場フェンス,34.466383783874896, 135.5840936696274
大阪府,富田林市,112,横山11-2,横山自治会館前ガードレール,34.4669398,135.5847723,
大阪府,富田林市,113,横山119-1,汐の宮自動車前ガードレール,34.4669398,135.5847723,
大阪府,富田林市,114,嬉128-3,個人宅西側,34.4610213,135.5812206,
大阪府,富田林市,115,嬉633-2,嬉桜ヶ丘入り口ガードレール,34.4611477,135.580641,
大阪府,富田林市,116,嬉283,嬉桜ヶ丘１号児童遊園フェンス,34.45667880000001,135.5808314,
大阪府,富田林市,117,佐備795-5,個人宅向かいフェンス,34.4748237,135.6023364,
大阪府,富田林市,118,佐備297-3,個人宅横歩道フェンス,34.48188121836864, 135.60506545309883
大阪府,富田林市,119,佐備676-2,中佐備交差点フェンス,34.47700903647178, 135.60359350791103
大阪府,富田林市,120,佐備655-1,岡元電機製作所横フェンス,34.4768261,135.6034446,
大阪府,富田林市,121,佐備1264-4,個人宅南側フェンス,34.473220823324084, 135.60304305108824
大阪府,富田林市,122,佐備1945,中山町公民館前ガードレール,34.471668130120484, 135.61102528133725
大阪府,富田林市,123,佐備1085-3,東条小学校向かいバス停南側フェンス,34.46533447113927, 135.6020363239038
大阪府,富田林市,124,佐備1108-5,JA大阪南東條支店横歩道フェンス,34.46628822471827, 135.6022600770011
大阪府,富田林市,125,佐備1189-2,山本商店ブロック塀,34.4686393,135.6029434,
大阪府,富田林市,126,龍泉533-3,竜泉集会所北側フェンス,34.46222360346535, 135.6021983838973
大阪府,富田林市,127,甘南備22-2,個人宅横ガードレール,34.45005958562632, 135.6030021560718
大阪府,富田林市,128,甘南備861,甘南備集会所,34.4452124,135.6019609,
大阪府,富田林市,129,甘南備1176-3,個人宅向かいフェンス,34.4485547,135.6042771,
大阪府,富田林市,130,甘南備1553-6,甘南備口バス停横フェンス,34.45097244642644, 135.6023548417336
大阪府,富田林市,131,甘南備1143-1,甘南備バス停前フェンス,34.4474841,135.6057942,
大阪府,富田林市,132,甘南備1349-4,金剛コロニー東口バス停横,34.44737101137344, 135.60577964240514
大阪府,富田林市,133,清水町３,清水町北集会所北側,34.5036153923812, 135.6078757815356
大阪府,富田林市,134,清水町３,府営富田林清水住宅１０棟東側,34.50195316104215, 135.60763938914894
大阪府,富田林市,135,清水町３,府営富田林清水住宅西側入口フェンス,34.503919178720096, 135.60734261852772
大阪府,富田林市,136,清水町３,府営富田林清水住宅１３棟南側,34.50241558709779, 135.60685020141818
大阪府,富田林市,137,清水町３,府営富田林清水住宅６棟西側,34.50352972044627, 135.61005438997955
大阪府,富田林市,138,清水町２６２９－３,清水町遊園南側,34.50226749999999,135.6083869,
大阪府,富田林市,139,清水町３,府営富田林清水住宅４棟南側,34.50298704801808, 135.60839822495936
大阪府,富田林市,140,新堂２００３,ＰＬ病院前バス停横フェンス,34.507606,135.592206,
大阪府,富田林市,141,新堂２０３５,ＰＬ職員宿舎Ｌ棟道路向かいフェンス,34.5064265,135.5942558,
大阪府,富田林市,142,新堂２１８３,ＰＬ錬成会館南側フェンス,34.5128719,135.588904,
大阪府,富田林市,143,喜志２１７２－１,ＰＬ教職員住宅入り口石垣,34.522295,135.5924458,
大阪府,富田林市,144,新堂２１７５－３,ＰＬ歩道橋東側フェンス,34.508066327115706, 135.5910732090289
大阪府,富田林市,145,楠町４,楠町集会所向いフェンス,34.5049753,135.6182789,
大阪府,富田林市,146,北大伴町二丁目６－２２,西村木材ブロック塀,34.5020333,135.617184,
大阪府,富田林市,147,北大伴町一丁目２,中永洋傘加工所前ガードレール,34.5019676,135.6137144,
大阪府,富田林市,148,楠町３,北大伴バス停植え込み,34.505272,135.6170977,
大阪府,富田林市,149,北大伴町二丁目３５６－２,ハービス薬局横道路柵,34.5028078,135.6187219,
大阪府,富田林市,150,西板持町二丁目１－５４,板持住宅集会所横フェンス,34.4965172,135.6055267,
大阪府,富田林市,151,西板持町二丁目１,板持住宅１８棟前植込み,34.4967632,135.603663,
大阪府,富田林市,152,西板持町二丁目１,板持住宅９棟前植込み,34.4967632,135.603663,
大阪府,富田林市,153,川向町１,金剛大橋東詰横,34.49885601394108, 135.60671527148384
大阪府,富田林市,154,川向町５,大伴橋西側歩道フェンス,34.49925218535353, 135.60808113344166
大阪府,富田林市,155,久野喜台一丁目１６－１,久野喜台小学校表門,34.5001783,135.5639488,
大阪府,富田林市,156,久野喜台一丁目１９,久野喜台３号公園,34.5006588,135.561907,
大阪府,富田林市,157,久野喜台一丁目５,久野喜台４号公園,34.5011644,135.5654467,
大阪府,富田林市,158,久野喜台二丁目２,金剛中央公園,34.4974526,135.5667742,
大阪府,富田林市,159,久野喜台二丁目３,１１４棟南側,34.49629065480202, 135.56577277781702
大阪府,富田林市,160,久野喜台二丁目６,久野喜台２号公園,34.4974327,135.5633819,
大阪府,富田林市,161,久野喜台二丁目１１,１４６棟南側,34.4961199,135.5626445,
大阪府,富田林市,162,高辺台三丁目１－１,高辺台小学校西側フェンス,34.4993659,135.5698768,
大阪府,富田林市,163,高辺台二丁目１５,高辺台２号緑地,34.4973939,135.5754774,
大阪府,富田林市,164,高辺台一丁目５,第６集会所,34.5023274,135.5716419,
大阪府,富田林市,165,高辺台二丁目１０,高辺台３号公園,34.4981473,135.5716419,
大阪府,富田林市,166,高辺台二丁目２９,高辺台４号公園,34.4957838,135.5736333,
大阪府,富田林市,167,高辺台三丁目３,１０棟南側,34.4984062,135.5682492,
大阪府,富田林市,168,高辺台三丁目４,３５棟東側,34.496142,135.5706093,
大阪府,富田林市,169,高辺台一丁目１３,高辺台１号公園,34.5013824,135.5695767,
大阪府,富田林市,170,寺池台四丁目３,寺池台小学校表門,34.4907011,135.5663317,
大阪府,富田林市,171,寺池台四丁目１,３０７棟東側,34.4924015,135.5691342,
大阪府,富田林市,172,寺池台四丁目１,３１５棟北側,34.4924015,135.5691342,
大阪府,富田林市,173,寺池台四丁目２,３３３棟前遊園地北側,34.49127607403985, 135.56888570215034
大阪府,富田林市,174,寺池台四丁目２,３５１棟南側,34.489162247694026, 135.5693468501614
大阪府,富田林市,175,寺池台五丁目２,４１０棟北側,34.4897562,135.5642668,
大阪府,富田林市,176,寺池台五丁目１５,寺池台４号公園,34.49196060946136, 135.56173129226832
大阪府,富田林市,177,寺池台三丁目１０,寺池台２号公園,34.4889415,135.5722319,
大阪府,富田林市,178,寺池台四丁目３,寺池台小学校南西角地,34.4907011,135.5663317,
大阪府,富田林市,179,金剛伏山台２,金剛伏山台３号公園,34.4885837,135.5658155,
大阪府,富田林市,180,楠風台二丁目１２,府営楠風台住宅集会所,34.4841362,135.5998252,
大阪府,富田林市,181,楠風台三丁目１１,ＮＴＴ（佐備電話交換局）,34.4848377,135.6041058,
大阪府,富田林市,182,楠風台一丁目３,貯水池南側フェンス,34.4853143,135.5979803,
大阪府,富田林市,183,楠風台一丁目１５,第１楠風台児童遊園フェンス,34.4838618,135.5972423,
大阪府,富田林市,184,楠風台二丁目１２,府営楠風台住宅１棟北側,34.4841362,135.5998252,
大阪府,富田林市,185,楠風台二丁目１２,第２楠風台児童遊園,34.4841362,135.5998252,
大阪府,富田林市,186,楠風台二丁目１２,府営楠風台住宅４棟北側,34.4841362,135.5998252,
大阪府,富田林市,187,寺池台一丁目１,金剛中学校表門,34.496436797310906, 135.56696283615466
大阪府,富田林市,188,寺池台一丁目３,２０９棟東側,34.4940192,135.5681017,
大阪府,富田林市,189,寺池台一丁目９-３,金剛連絡所東側植込み,34.49536948578856, 135.56713508005646
大阪府,富田林市,190,寺池台一丁目１６,２２２棟北側,34.4950226,135.5614646,
大阪府,富田林市,191,寺池台一丁目１６,２２４棟南側石垣,34.4950226,135.5614646,
大阪府,富田林市,192,寺池台二丁目１０,寺池台１号公園,34.4911712,135.5722319,
大阪府,富田林市,193,寺池台一丁目１５,２１４棟南側フェンス,34.4954821,135.5633819,
大阪府,富田林市,194,梅の里四丁目６,喜志西小学校表門,34.5262596,135.5928885,
大阪府,富田林市,195,梅の里一丁目４,梅の里１号公園,34.5259257,135.5990134,
大阪府,富田林市,196,梅の里一丁目２２,梅の里３号公園,34.525919,135.5947333,
大阪府,富田林市,197,梅の里二丁目９,梅の里４号公園,34.5271972,135.5978327,
大阪府,富田林市,198,梅の里二丁目２９,梅の里５号公園,34.5279261,135.5957206,
大阪府,富田林市,199,梅の里三丁目１０,梅の里１０号公園,34.5298995,135.5917079,
大阪府,富田林市,200,平町二丁目２５４,個人宅前フェンス,34.5280169,135.6013013,
大阪府,富田林市,201,藤沢台二丁目３,藤沢台小学校表門,34.5057086,135.5738546,
大阪府,富田林市,202,藤沢台二丁目２,藤沢台第４住宅入り口,34.50360436206144, 135.5709711755306
大阪府,富田林市,203,藤沢台四丁目３,藤沢台１号緑地,34.5039509,135.5654467,
大阪府,富田林市,204,藤沢台二丁目２,藤沢台二丁目バス停東側,34.505092056470644, 135.56928727088416
大阪府,富田林市,205,藤沢台二丁目２,藤沢台第２住宅入り口,34.500831393771826, 135.5754353451509
大阪府,富田林市,206,藤沢台五丁目１,藤沢台公園西側,34.5068579,135.5714944,
大阪府,富田林市,207,藤沢台七丁目１０,藤沢台２号公園,34.5093227,135.5672905,
大阪府,富田林市,208,藤沢台二丁目３,藤沢台第１住宅入り口,34.5057086,135.5738546,
大阪府,富田林市,209,小金台三丁目１１−１,小金台小学校正門,34.4962093,135.581056,
大阪府,富田林市,210,津々山台二丁目３,津々山台公園,34.495911,135.5768051,
大阪府,富田林市,211,津々山台一丁目１３−８,ガーデンシティーコープ行道路側面柵,34.4983959,135.5764377,
大阪府,富田林市,212,小金台二丁目１１−１,明治池中学校東側フェンス,34.4962994,135.5814433,
大阪府,富田林市,213,小金台一丁目２,北部配水池フェンス,34.5004721,135.5840346,
大阪府,富田林市,214,小金台三丁目２,小金台１号公園,34.4990277,135.5804197,
大阪府,富田林市,215,津々山台三丁目１６,津々山台２号公園,34.4924683,135.578723,
大阪府,富田林市,216,小金台四丁目１５,明治池老人いこいの家西側フェンス,34.4949592,135.5799033,
大阪府,富田林市,217,向陽台五丁目１−１,向陽台小学校表門,34.5069784,135.5821026,
大阪府,富田林市,218,向陽台二丁目２０,向陽台２号公園,34.5055727,135.5807148,
大阪府,富田林市,219,向陽台一丁目３−３６,富田林病院,34.5036759,135.5831116,
大阪府,富田林市,220,向陽台三丁目１−１,エコール・ロゼ自転車置場前,34.5013695,135.5799033,
大阪府,富田林市,221,向陽台五丁目２,向陽台１号公園,34.5077347,135.5805672,
大阪府,富田林市,222,向陽台三丁目４−１,藤陽中学校表門,34.5058891,135.5784556,
大阪府,富田林市,223,向陽台二丁目８,向陽台３号公園,34.5027008,135.5817476,
大阪府,富田林市,224,向陽台四丁目１−１７２,第２向陽台四丁目集会所用地フェンス,34.5078512,135.5797558,
大阪府,富田林市,225,佐備１５,第三中学校,34.4858931,135.606766,
大阪府,富田林市,226,山手町１６,個人宅前ガードレール,34.4837088,135.6072797,
大阪府,富田林市,227,山手町１０,山手町公園石垣,34.4836726,135.6096417,
