prefecture,city,number,address,name,lat,long,note
大阪府,寝屋川市,1,大利町２２－２３,山崎宅北側　大利公園南側,34.7660234,135.61772,
大阪府,寝屋川市,2,桜木町６－９,桜木町公民館横ちびっこ老人憩いの広場,34.7678032,135.6205196,
大阪府,寝屋川市,3,大利町２８－３,府営寝屋川大利住宅３棟北側,34.7661283,135.6169277,
大阪府,寝屋川市,4,池田東町１０,池田東町第１ちびっこ老人憩の広場,34.7686271,135.6171715,
大阪府,寝屋川市,5,北大利町１－１,リバーサイドコーポ寝屋川向かい　出口幹線水路,34.7671988,135.620097,
大阪府,寝屋川市,6,寝屋川市駅西側,寝屋川沿い歩道南側,34.7644026,135.620706,緯度経度は怪しい
大阪府,寝屋川市,7,桜木町５－３０,市立消費生活センター東側,34.7668331,135.6206792,
大阪府,寝屋川市,8,東神田町２７－１,市立神田小学校南側,34.7543937,135.6147027,
大阪府,寝屋川市,9,東神田町２３－１,メゾン・クラシコ前道路,34.7556188,135.6128248,
大阪府,寝屋川市,10,中神田町１８－１,JA九個荘神田支所北側道路対面,34.75158520000001,135.6100855,
大阪府,寝屋川市,11,中神田町２－２,かえで保育園入口前,34.7535235,135.6114778,
大阪府,寝屋川市,12,東神田町３７,大阪府東部流域　萱島ポンプ場西側,34.7529208,135.613997,
大阪府,寝屋川市,13,東神田町３７,萱島ポンプ場東側　東神田集会所東側公園,34.7529208,135.613997,
大阪府,寝屋川市,14,東神田町３７,萱島ポンプ場東側　墓地向い,34.7529208,135.613997,
大阪府,寝屋川市,15,萱島信和町１,北側河川敷,34.7524139,135.6156212,
大阪府,寝屋川市,16,萱島信和町１６,丸信リバーサイドコーポ第３棟北側河川,34.750007,135.6121146,
大阪府,寝屋川市,17,萱島信和町２１,萱島駅前第二自転車駐車場向い河川,34.7481588,135.6111919,
大阪府,寝屋川市,18,下神田町２２－２,溝口宅前,34.7488817,135.609516,
大阪府,寝屋川市,19,下神田町２２,岸本モータープール西側,34.7486016,135.609125,
大阪府,寝屋川市,20,下神田町２５－１０,メゾンモンソレイユ入口東側水路,34.7485883,135.607921,
大阪府,寝屋川市,21,下神田町１番９号,（柳宅）の前面道路の東側歩道（友呂岐緑地の西側歩道）,34.7497309,135.6111035,
大阪府,寝屋川市,22,萱島信和町２９,京阪電車高架下　中井モータープール前,34.7504968,135.6132588,
大阪府,寝屋川市,23,高柳３丁目１－２７,市立西小学校北側,34.7642923,135.6100292,
大阪府,寝屋川市,24,高柳３丁目１－２７,市立西小学校東側,34.7642923,135.6100292,
大阪府,寝屋川市,25,高柳３丁目１－２７,市立西小学校南側,34.7642923,135.6100292,
大阪府,寝屋川市,26,長栄寺町２２－１３,まぁぶるこども園　星の学舎　正門横,34.7666061,135.6124948,
大阪府,寝屋川市,27,春日町２６－９前,水路,34.7646514,135.6073699,
大阪府,寝屋川市,28,春日町２,府営寝屋川春日住宅５棟北側水路,34.7676992,135.6065755,
大阪府,寝屋川市,29,春日町２,春日どんぐり公園東側,34.7676992,135.6065755,
大阪府,寝屋川市,30,高柳１丁目１２－２５,平田・田畑宅,34.76278670000001,135.6112117,
大阪府,寝屋川市,31,池田西町２７－７,市立第二中学校正門左横,34.7701571,135.6110067,
大阪府,寝屋川市,32,池田西町２４－５,市立池の里市民交流センター正門左横,34.7708384,135.6084186,
大阪府,寝屋川市,33,池田西町２８－２２,市立保健福祉センター駐車,34.7705161,135.6112855,
大阪府,寝屋川市,34,池田西町４,池田けやき公園,34.7693202,135.6088297,
大阪府,寝屋川市,35,池田西町１７,池田西町第１ちびっこ老人憩いの広場,34.7693378,135.6102322,
大阪府,寝屋川市,36,葛原新町１４,葛原新町公園,34.7686752,135.6075749,
大阪府,寝屋川市,37,池田西町２,高柳栄町第１ちびっこ老人憩いの広場,34.76791559999999,135.6100108,
大阪府,寝屋川市,38,仁和寺本町２丁目１６－１,筆本宅東側　畑の南側フェンス,34.7682331,135.5976562,
大阪府,寝屋川市,39,仁和寺本町５丁目８－１,河野宅前水路,34.7653349,135.5929716,
大阪府,寝屋川市,40,仁和寺本町６丁目１０,府営寝屋川仁和寺住宅給水塔東側,34.7656573,135.589937,
大阪府,寝屋川市,41,仁和寺本町５丁目１７－１北側,道路,34.7666789,135.5926797,
大阪府,寝屋川市,42,仁和寺本町４丁目１９－７,本荘ケミカル（株）東側,34.7652855,135.5963006,
大阪府,寝屋川市,43,仁和寺本町３丁目６－１,雲済寺東側,34.7676731,135.5993471,
大阪府,寝屋川市,44,仁和寺本町６丁目２,府営寝屋川仁和寺住宅１５棟東側駐車場,34.7690929,135.5931837,
大阪府,寝屋川市,45,日新町２－２５,市立友呂岐中学校正門横,34.7811532,135.6241948,
大阪府,寝屋川市,46,日新町４,アル・プラザ香里園駐車場南側,34.7833407,135.6218229,
大阪府,寝屋川市,47,寿町６１,寿町第２ちびっこ老人憩いの広場,34.7842741,135.6250717,
大阪府,寝屋川市,48,寿町５０－３０,米田宅西側駐車場,34.7836666,135.6266169,
大阪府,寝屋川市,49,寿町５７－２９,市立北小学校東側正門横,34.782778,135.6256177,
大阪府,寝屋川市,50,寿町２番,エコロパーク寿町第一前　京阪電車,34.78006,135.6286162,
大阪府,寝屋川市,51,日新町５,アル・プラザ香里園駐輪場東側,34.7833191,135.6235949,
大阪府,寝屋川市,52,菅相塚町８－１,中尾宅東側駐車場,34.7850399,135.6419102,
大阪府,寝屋川市,53,東香里園町３１－３,香里カトリック教会,34.7839392,135.634931,
大阪府,寝屋川市,54,京阪香里園駅東側,府道沿い,34.78406,135.630649,緯度経度は怪しい
大阪府,寝屋川市,55,東香里園町２３－１１,地蔵寺北側,34.78477,135.6367288,
大阪府,寝屋川市,56,郡元町１５－８,中司宅向いセブンスターマンション前,34.7838389,135.6319971,
大阪府,寝屋川市,57,末広町２０,末広町第１ちびっこ老人憩の広場,34.7828215,135.6442001,
大阪府,寝屋川市,58,末広町１９－７,飯田宅前,34.7826439,135.6437784,
大阪府,寝屋川市,59,香里本通町８番,香里園駅東側ロータリー内ＵＦＪ銀行前,34.7846719,135.6323086,
大阪府,寝屋川市,60,成田東町２６,成田東町ゲートボール場（ふれあい広場）,34.78341959999999,135.6464162,
大阪府,寝屋川市,61,成田町３－３,市立東北コミュニティセンター北側,34.7773001,135.6397711,
大阪府,寝屋川市,62,成田町３－６,市立第六中学校正門横,34.7775043,135.6409592,
大阪府,寝屋川市,63,成田町２９,四方黒池南側,34.7810114,135.6416147,
大阪府,寝屋川市,64,成田東町１９番１５号,成田東配水池　北西角（西側）,34.7824549,135.647118,
大阪府,寝屋川市,65,成田東が丘３１,成田東が丘第３ちびっこ老人憩いの広場,34.7784717,135.6445694,
大阪府,寝屋川市,66,成田町２９,成田町第１ちびっ子老人憩いの広場,34.7810114,135.6416147,
大阪府,寝屋川市,67,川勝町９－４,奥田宅北側寝屋川沿い,34.7680337,135.6318079,
大阪府,寝屋川市,68,国松町１３,国松第４ちびっ子老人憩いの広場　東側,34.7718415,135.6326778,
大阪府,寝屋川市,69,国松町１４－１,香里グランドコーポ北側歩道,34.771708,135.6317604,
大阪府,寝屋川市,70,国松町２７－１４,辻宅南側寝屋川沿い,34.7682696,135.6325848,
大阪府,寝屋川市,71,八幡台１－２３,頼医院前寝屋川沿い,34.7677093,135.6373553,
大阪府,寝屋川市,72,国松町４７－１,市立国松緑丘小学校南側通用門横,34.7707172,135.6378089,
大阪府,寝屋川市,73,三井が丘５丁目６　Ａ１０５棟,東側駐車場フェンス,34.7724125,135.639842,
大阪府,寝屋川市,74,三井が丘５丁目７,Ａ１１２棟北側,34.7731755,135.6399897,
大阪府,寝屋川市,75,幸町２５,府立工業高等専門学校正門東側向い寝屋川沿い,34.76962839999999,135.6303516,
大阪府,寝屋川市,76,豊野町２－３６,（財）豊野保育園西側道路,34.767267,135.6252061,
大阪府,寝屋川市,77,豊野町１５－１１,市役所北側　公用車立体駐車場南側,34.7671335,135.6283208,
大阪府,寝屋川市,78,幸町６,新報國橋南側寝屋川沿い,34.7694588,135.6258101,
大阪府,寝屋川市,79,豊野町１４－４,豊野町公民館,34.7666954,135.6272131,
大阪府,寝屋川市,80,幸町１０,新報國橋北側寝屋川沿い,34.7702144,135.6265485,
大阪府,寝屋川市,81,本町１５－６４,府立寝屋川高等学校北側,34.7650851,135.6258046,
大阪府,寝屋川市,82,木田町１３－１９,西側　市所有地,34.760184,135.6181723,
大阪府,寝屋川市,83,木田町７－１０,高浜宅前　アドバンス高架下駐輪場,34.7617897,135.6194218,
大阪府,寝屋川市,84,木田町２－８,たちばな保育園西門横,34.7607983,135.6226043,
大阪府,寝屋川市,85,木田町３－２０,西尾宅南側,34.7614077,135.6214315,
大阪府,寝屋川市,86,昭栄町１－２８,楠宅西側,34.7591154,135.6230992,
大阪府,寝屋川市,87,昭栄町１５－１,昭栄町公園北側,34.7563246,135.6253671,
大阪府,寝屋川市,88,昭栄町１８,枚方交野寝屋川線沿いコーナン寝屋川昭栄店西側水路,34.758542,135.6259578,
大阪府,寝屋川市,89,太秦元町２－１,市立東小学校正門横,34.761543,135.634197,
大阪府,寝屋川市,90,太秦元町２－１,市立東小学校南門横,34.761543,135.634197,
大阪府,寝屋川市,91,太秦桜が丘２５,打上川治水緑地北東入口前　寝屋川沿い遊歩道,34.7665403,135.6391329,緯度経度は怪しい
大阪府,寝屋川市,92,太秦高塚町１,大阪市水道局豊野浄水場西側,34.760194,135.6438308,
大阪府,寝屋川市,93,太秦東が丘13,太秦東が丘第2ちびっこ老人憩いの広場,34.7629266,135.6422057,
大阪府,寝屋川市,94,太秦中町１１,熱田公園南側,34.7638452,135.6382909,
大阪府,寝屋川市,95,太秦高塚町１,大阪市水道局豊野浄水場南側,34.760194,135.6438308,
大阪府,寝屋川市,96,堀溝１丁目３５－８,ヴェルドミール堀溝　北側歩道,34.74271,135.6233306,
大阪府,寝屋川市,97,堀溝３丁目８－２,西村宅北側,34.7388135,135.6233086,
大阪府,寝屋川市,98,堀溝３丁目１０－８,市立堀溝小学校入口,34.738208,135.6251883,
大阪府,寝屋川市,99,河北西町１７,府営寝屋川河北住宅７棟南側,34.7355017,135.6224136,
大阪府,寝屋川市,100,河北西町３－１８,翁宅西側河北大橋北側,34.7342077,135.6242051,
大阪府,寝屋川市,101,河北中町２１,ちびっこ老人憩いの広場北側,34.7323533,135.6266224,
大阪府,寝屋川市,102,河北東町１１－１５,河北東町集会所南側水路,34.7286369,135.6326379,
大阪府,寝屋川市,103,河北西町１７,府営寝屋川河北住宅２棟東側,34.7355017,135.6224136,
大阪府,寝屋川市,104,寝屋１丁目６－２２,グランドビル前,34.7704703,135.649833,
大阪府,寝屋川市,105,大谷町７－１,社会福祉法人　療育・自立センター駐車場,34.7631598,135.6585921,
大阪府,寝屋川市,106,寝屋１丁目２８,寝屋神社前バス停から約４０ｍ東の第二京阪道路側のプレハブ横,34.7692549,135.6558729,
大阪府,寝屋川市,107,寝屋２丁目１３,㈱松倉興業南側,34.7677079,135.659937,
大阪府,寝屋川市,108,寝屋新町１１－１,府営寝屋川寝屋住宅１棟北側,34.7730795,135.6535984,
大阪府,寝屋川市,109,寝屋新町１１－８,府営寝屋川寝屋住宅集会所前,34.7725444,135.6548939,
大阪府,寝屋川市,110,寝屋新町１３－１,寝屋川コーポラス集会棟前,34.7714538,135.6524742,
大阪府,寝屋川市,111,打上中町２,コーナン東寝屋川店の西北側の道路向いの歩道,34.7599869,135.6546169,
大阪府,寝屋川市,112,打上新町４－１,市立第四中学校正門横,34.7570438,135.651426,
大阪府,寝屋川市,113,打上高塚町５,フレッシュバザール寝屋川公園駅前店　東側市有地,34.7554309,135.651957,
大阪府,寝屋川市,114,JR寝屋川公園駅西出口,向かって左側フェンス (位置情報が見つかりませんでした),34.7557488,135.6531867,緯度経度は怪しい
大阪府,寝屋川市,115,打上新町１５,ふじのき公園,34.7574462,135.6466379,
大阪府,寝屋川市,116,打上南町２－１４,市営明和住宅14棟北側,34.7556343,135.6469334,
大阪府,寝屋川市,117,打上新町１７－２８,打上公民館横打上第１ちびっこ老人憩いの広場,34.7566657,135.6471734,
大阪府,寝屋川市,118,打上元町14番,JR寝屋川公園駅東出口横,34.755551,135.6534347,
大阪府,寝屋川市,119,梅が丘１丁目２,府営寝屋川打上住宅Ｂ－３棟東側,34.7539943,135.6555035,
大阪府,寝屋川市,120,梅が丘１丁目５－６,打上郵便局前,34.7527614,135.6540258,
大阪府,寝屋川市,121,梅が丘１丁目４,府営寝屋川打上住宅Ｂ８棟東側,34.7528891,135.6549124,
大阪府,寝屋川市,122,梅が丘１丁目１２,住宅供給公社寝屋川打上団地Ａ１０棟東側駐車場,34.7509416,135.6549124,
大阪府,寝屋川市,123,梅が丘１丁目１１,住宅供給公社寝屋川打上団地Ａ７棟東側,34.7512683,135.6565379,
大阪府,寝屋川市,124,打上宮前町３,寝屋川東ファミリータウン中２番館南　リンリン公園東側,34.7543668,135.6535825,
大阪府,寝屋川市,125,明和２丁目１６－１２,市営明和住宅12棟向かい駐車場フェンス,34.7523193,135.6474173,
大阪府,寝屋川市,126,高倉２丁目１３,高倉第１ちびっこ老人憩いの広場　向かい,34.7519649,135.6510705,
大阪府,寝屋川市,127,明和２丁目５－１９,木村宅南側,34.7534856,135.6444577,
大阪府,寝屋川市,128,明和２丁目１６−３０,みやいけ公園北側歩道,34.7521799,135.646336,
大阪府,寝屋川市,129,打上南町１,市立たんぽぽ保育所駐車場南側,34.7547435,135.6458991,
大阪府,寝屋川市,130,明和１丁目１３−２３,東障害福祉センター南側駐車場,34.752131,135.6425425,
大阪府,寝屋川市,131,小路北町２３,消防団明和班屯所の北西前,34.7533491,135.6407283,
大阪府,寝屋川市,132,小路北町,第一ちびっこ老人憩いの広場の南側,34.7532927,135.6396943,
大阪府,寝屋川市,133,小路北町２５,市道高宮１丁目・打上南町１号線,34.7548752,135.6410238,
大阪府,寝屋川市,134,錦町８−１３,子育てリフレッシュ館（通称：リラット）,34.7607788,135.617315,
大阪府,寝屋川市,135,錦町１−１,寝屋川市駅西自転車駐輪場,34.76261290000001,135.6189486,
大阪府,寝屋川市,136,錦町２３−４５,市立成美小学校東側,34.7600765,135.6150859,
大阪府,寝屋川市,137,錦町９,寝屋川沿い道路,34.7602889,135.6168762,
大阪府,寝屋川市,138,清水町２−１,松野宅前公園,34.7589306,135.6160832,
大阪府,寝屋川市,139,錦町２３−４５,市立成美小学校西側,34.7600765,135.6150859,
大阪府,寝屋川市,140,清水町９−２８,寝屋川沿い道路,34.7564677,135.6164771,
大阪府,寝屋川市,141,錦町２−２２,大方宅東側水路敷,34.7622728,135.6182277,
大阪府,寝屋川市,142,萱島本町１７,京阪電車萱島駅前萱島橋横東側,34.7468963,135.6120777,
大阪府,寝屋川市,143,萱島本町２０,京阪電車萱島駅前萱島橋横西側,34.7464545,135.6112657,
大阪府,寝屋川市,144,京阪電車萱島駅高架下,北駐輪センター北側,34.747463,135.611131,緯度経度は怪しい
大阪府,寝屋川市,145,南水苑町２０−１北側,南水苑橋横寝屋川沿い,34.7450763,135.6149964,
大阪府,寝屋川市,146,南水苑町１３－１北側,萱島小橋横寝屋川沿い,34.7456428,135.6132236,
大阪府,寝屋川市,147,萱島南町８－１２,リサイクルショップエコアンド南側寝屋川沿い,34.7453839,135.6155658,
大阪府,寝屋川市,148,萱島南町１２番,さつき公園,34.7450748,135.6187219,
大阪府,寝屋川市,149,下木田町６－１,市立南幼稚園正門横,34.7503519,135.6184365,
大阪府,寝屋川市,150,萱島東３丁目１７－２０西側,欄干,34.7471105,135.6192572,
大阪府,寝屋川市,151,下木田町６－１,市立南幼稚園北側,34.7503519,135.6184365,
大阪府,寝屋川市,152,萱島東３丁目２４,せせらぎの道沿い東３丁目集会所北側,34.7462215,135.6215275,
大阪府,寝屋川市,153,萱島東３丁目２８－１,萱島東公園北側,34.74499,135.6204053,
大阪府,寝屋川市,154,下木田町２,林宅前 京阪電鉄,34.7508881,135.6153259,
大阪府,寝屋川市,155,萱島東３丁目３０－５,(有)丸高工業前寝屋川沿い,34.7445279,135.6193548,
大阪府,寝屋川市,156,香里南之町１－１５,香里スターハイツの道向いの駐車場,34.7805939,135.6304939,
大阪府,寝屋川市,157,田井町１７－３,市立第三中学校北側,34.7785369,135.6304023,
大阪府,寝屋川市,158,田井町１７－３,市立第三中学校正門横,34.7785369,135.6304023,
大阪府,寝屋川市,159,田井町４３,駐車場北側水路,34.7763099,135.6283208,
大阪府,寝屋川市,160,緑町４０－３,クワイエット香里東側 市道の歩道,34.7753635,135.631169,
大阪府,寝屋川市,161,田井町４４－１４,岩木宅前西側水路,34.7758924,135.6268716,
大阪府,寝屋川市,162,緑町４,ドラッグストア ウエルシア駐車場南側歩道,34.7734012,135.6274346,
大阪府,寝屋川市,163,緑町２０,緑町第１ちびっこ老人憩いの広場,34.7737717,135.6283946,
大阪府,寝屋川市,164,松屋町２０－１２,古本市場前,34.785143,135.6250437,
大阪府,寝屋川市,165,松屋町19,ローズハイツ香里園北側第2ちびっこ老人憩いの広場北側,34.7858854,135.624038,
大阪府,寝屋川市,166,香里新町３１,京阪電車香里園駅西口 ロータリー西側,34.7849077,135.6300931,
大阪府,寝屋川市,167,香里新町１０,アンド・ユー香里園の南側歩道,34.785749,135.6295023,
大阪府,寝屋川市,168,香里本通町31,京阪電車香里園駅西口北側,34.7846574,135.6334902,緯度経度は怪しい
大阪府,寝屋川市,169,松屋町２０,市立西北コミュニティセンター北側 松屋ゆうゆう広場,34.7852436,135.6253671,
大阪府,寝屋川市,170,香里新町１０－２,香里園駅前第３自転車駐車場東側,34.7859628,135.6293672,
大阪府,寝屋川市,171,石津南町２－２,栄光サンプラザ 西側水路,34.7724784,135.6216186,
大阪府,寝屋川市,172,桜木町２０,寝屋川浄化ポンプ場東側,34.772062,135.6232996,
大阪府,寝屋川市,173,若葉町３３－１,南側水路,34.7711416,135.6176558,
大阪府,寝屋川市,174,若葉町１－１２東側,佐伯大利橋欄干,34.7693099,135.6202908,
大阪府,寝屋川市,175,桜木町２１－７,京阪本線東側 南前川沿い,34.7723746,135.6256571,
大阪府,寝屋川市,176,石津南町２６,寝屋川導水路横,34.7751635,135.6226351,
大阪府,寝屋川市,177,桜木町２０－５,寝屋川浄化ポンプ場北側水路沿い,34.7721636,135.62315,
大阪府,寝屋川市,178,桜木町４－２８,アクティ大和第三マンション横,34.7706901,135.6228658,
大阪府,寝屋川市,179,高柳６丁目３,市立啓明小学校西門横,34.7594403,135.6039582,
大阪府,寝屋川市,180,高柳５丁目17番地,神田天満宮バス停横水路,34.7572975,135.6058034,
大阪府,寝屋川市,181,黒原旭町２９,黒原旭町公園北側,34.7585565,135.6023345,
大阪府,寝屋川市,182,高柳５丁目３２－１８,平田モータープール前水路,34.7551243,135.6051137,
大阪府,寝屋川市,183,高柳５丁目７－５,中華料理孫悟空から東南へ20m行った駐車場前の水路,34.7599805,135.6070063,
大阪府,寝屋川市,184,高柳７丁目２８－１４,星宅裏水路,34.7621002,135.6030323,
大阪府,寝屋川市,185,高柳５丁目２４,第２ちびっこ老人憩いの広場,34.7579708,135.6075749,
大阪府,寝屋川市,186,讃良東町１－１,市立第七中学校正門横,34.7480109,135.6255748,
大阪府,寝屋川市,187,大成町２６－６,西山宅前　水路,34.7485364,135.6249081,
大阪府,寝屋川市,188,新家１丁目２１,堀溝公園南側,34.7513809,135.62869,
大阪府,寝屋川市,189,堀溝北町２５－１,しらゆり保育園西正門横,34.752869,135.6272817,
大阪府,寝屋川市,190,楠根南町２１－１,市立楠根小学校北側,34.7516358,135.6319024,
大阪府,寝屋川市,191,楠根南町１４,楠根南町第２ちびっこ老人憩いの広場北側,34.7538617,135.6304623,
大阪府,寝屋川市,192,楠根南町１－７,（株）天野自動車寝屋川工場前水路橋,34.7543551,135.6284923,
大阪府,寝屋川市,193,豊里町３９,豊里町第２ちびっこ老人憩いの広場前　寝屋川導水路　西日之出橋　西側,34.7801903,135.6179836,
大阪府,寝屋川市,194,木屋元町６,木屋元町公園北側,34.7864563,135.6170977,
大阪府,寝屋川市,195,木屋元町６,木屋元町公園東側,34.7864563,135.6170977,
大阪府,寝屋川市,196,池田北町２４－１,寝屋川サンハイツ遊園西側,34.7808447,135.6141816,
大阪府,寝屋川市,197,豊里町４１番,豊里町第一ちびっこ老人憩いの広場北側,34.7825482,135.6169869,
大阪府,寝屋川市,198,大間町１１－６,壺林宅東側,34.7662504,135.6280175,緯度経度は怪しい
大阪府,寝屋川市,199,豊里町１９－２２,市立木屋小学校東側,34.7849218,135.6189803,
大阪府,寝屋川市,200,太間町１０番,太間公園 西側,34.783035,135.6126682,
大阪府,寝屋川市,201,上神田２丁目８－１,市立第五中学校西門,34.754487,135.6069983,
大阪府,寝屋川市,202,上神田２丁目８－１,市立第五中学校南側,34.754487,135.6069983,
大阪府,寝屋川市,203,上神田１丁目９－２３,みやけ眼科北側水路,34.7579474,135.6093302,
大阪府,寝屋川市,204,御幸西町１４,御幸公園,34.7526456,135.6053606,
大阪府,寝屋川市,205,御幸西町５,古川導水幹線,34.7528632,135.6046225,
大阪府,寝屋川市,206,上神田１丁目３０－１,市立西南コミュニティセンター北側,34.7565446,135.6121515,
大阪府,寝屋川市,207,上神田１丁目３７－１１,吉田宅前水路,34.7546692,135.6100188,
大阪府,寝屋川市,208,御幸東町１３－２１,神田郵便局西横 駐車場前 北側歩道,34.7529147,135.6080423,
大阪府,寝屋川市,209,早子町２３,京阪電車寝屋川市駅東側ロータリー花壇,34.7636706,135.6216752,
大阪府,寝屋川市,210,初町４－５,寝屋川市郵便局前,34.7621054,135.6279832,
大阪府,寝屋川市,211,初町１８,大阪電気通信大学前北側,34.7598488,135.6256994,
大阪府,寝屋川市,212,早子町８,園貫々堂ビルの北側（寝屋川駅前線さわやかロードの南側）歩道,34.763149,135.624481,
大阪府,寝屋川市,213,初町２,初本町公園北側,34.763414,135.628964,
大阪府,寝屋川市,214,初町１－２５,市立中央小学校正門横,34.7637542,135.6257641,
大阪府,寝屋川市,215,初町１－２５,市立中央小学校 体育館側 さわやかロードフェンス,34.7637542,135.6257641,
大阪府,寝屋川市,216,中木田町３６,府営中木田住宅西側,34.7581502,135.6169772,
大阪府,寝屋川市,217,中木田町２５,中木田公民館横中木田公園北側,34.7573222,135.6194666,
大阪府,寝屋川市,218,中木田町7-1,市立中木田中学校東側,34.7575708,135.6209184,
大阪府,寝屋川市,219,中木田町7-1,市立中木田中学校北側,34.7575708,135.6209184,
大阪府,寝屋川市,220,木田元宮1丁目3-3,（株）栄和,34.7549852,135.6217031,
大阪府,寝屋川市,221,木田元宮1丁目17-1,市立木田小学校西側,34.7524006,135.622345,
大阪府,寝屋川市,222,下木田町16-50,市立南コミュニティセンター西側,34.74860779999999,135.6215987,
大阪府,寝屋川市,223,下木田町16-15,市立南小学校東側,34.749114,135.623532,
大阪府,寝屋川市,224,中木田町36,京阪電車高架下,34.7581502,135.6169772,
大阪府,寝屋川市,225,仁和寺町16-26,中西金属工業（株）西側,34.7646502,135.5990755,
大阪府,寝屋川市,226,対馬江西町3-4,中谷宅,34.7642825,135.6030664,
大阪府,寝屋川市,227,宝町11,宝町第１ちびっこ老人憩いの広場,34.7671537,135.6041058,
大阪府,寝屋川市,228,対馬江東町2,府道八尾茨木線の歩道,34.7643803,135.6063939,
大阪府,寝屋川市,229,宝町14-7,府道八尾茨木線沿い,34.7675102,135.6033678,
大阪府,寝屋川市,230,仁和寺町20,仁和寺町第１ちびっこ老人憩いの広場,34.7638822,135.598792,
大阪府,寝屋川市,231,仁和寺町27-20,サンライフコート　水路南側,34.7630326,135.5979604,
大阪府,寝屋川市,232,三井が丘2丁目1,B13棟西側京阪バス三井泰団地バス停前,34.7683166,135.6448649,
大阪府,寝屋川市,233,三井が丘4丁目15,A135棟西側　調整池,34.7689384,135.6424273,
大阪府,寝屋川市,234,三井が丘4丁目5,A85棟前道路,34.7712853,135.6410238,
大阪府,寝屋川市,235,三井が丘2丁目4,B21棟　北側,34.7702279,135.6449388,
大阪府,寝屋川市,236,三井が丘4丁目2,A124棟南側　調整池,34.7696091,135.6416147,
大阪府,寝屋川市,237,三井が丘3丁目10-31,園尾宅前第3三井公園,34.773692,135.6410792,
大阪府,寝屋川市,238,三井が丘3丁目7-3,市立三井小学校南側,34.7725746,135.6433737,
大阪府,寝屋川市,239,三井が丘4丁目3,A77棟西側,34.7699832,135.6422795,
大阪府,寝屋川市,240,池田2丁目1-7,市立池田小学校北側裏門横,34.7738731,135.6161864,
大阪府,寝屋川市,241,池田2丁目1-7,市立池田小学校東側,34.7738731,135.6161864,
大阪府,寝屋川市,242,池田1丁目22,池田1号公園南東側出入口東側（ユールこども園向い）,34.7731217,135.6190911,
大阪府,寝屋川市,243,池田1丁目22,池田1号公園北側出入口横,34.7731217,135.6190911,
大阪府,寝屋川市,244,池田本町26,池田旭町公民館別館,34.7702552,135.6133695,
大阪府,寝屋川市,245,池田1丁目31-1,池田第2ちびっこ老人憩いの広場,34.7721129,135.6191649,
大阪府,寝屋川市,246,池田2丁目11,寝屋川消防署東側,34.7762339,135.6175407,
大阪府,寝屋川市,247,池田本町15-6,柴田宅南側駐車場,34.7730181,135.6130597,
大阪府,寝屋川市,248,石津東町4-2西側,宮前橋南側寝屋川導水路,34.7766215,135.6224228,
大阪府,寝屋川市,249,石津南町19,ロイヤルシャトー寝屋川オークビル北側水路,34.7762255,135.6238903,
大阪府,寝屋川市,250,田井西町9-1,市立田井小学校南側,34.7761656,135.6257594,
大阪府,寝屋川市,251,田井西町26,田井西公園南側グランド,34.7793583,135.626327,
大阪府,寝屋川市,252,田井西町9-1,市立田井小学校西側水路,34.7761656,135.6257594,
大阪府,寝屋川市,253,石津中町32-6,榎本宅前寝屋川導水路,34.7787892,135.6199494,
大阪府,寝屋川市,254,石津元町８－１,市立石津小学校北側裏門横,34.7761572,135.6204339,
大阪府,寝屋川市,255,石津中町６－１２,水路東側,34.778304,135.6219668,
大阪府,寝屋川市,256,美井元町２９,美井元町第１ちびっ子老人憩いの広場 東側（美井元町１５－３）,34.7777131,135.6328994,
大阪府,寝屋川市,257,美井元町１１,美井やまももふれあい公園,34.77934219999999,135.6332686,
大阪府,寝屋川市,258,美井町５,調整池南側,34.7810339,135.6327886,
大阪府,寝屋川市,259,美井町６,府営寝屋川香里住宅３棟北側,34.781006,135.632908,
大阪府,寝屋川市,260,美井元町２２,三ツ池西側（防護柵）,34.7777007,135.6360475,
大阪府,寝屋川市,261,美井町１８－１０,香里ヌヴェール学院正門西側奥,34.7810374,135.6363071,
大阪府,寝屋川市,262,境橋町２４－６,松本歯科前水路,34.7759601,135.6339149,
大阪府,寝屋川市,263,明徳１丁目１６,京阪バス寝屋川団地口バス停横,34.7722787,135.6504794,
大阪府,寝屋川市,264,明徳１丁目７,京阪バス寝屋川団地口バス停前,34.7747611,135.6493713,
大阪府,寝屋川市,265,明徳２丁目９,寝屋川団地Ｃ１５棟北側,34.7746689,135.6484109,
大阪府,寝屋川市,266,明徳２丁目４,寝屋川市水道局明徳ポンプ場前 寝屋川市公園墓地,34.7724439,135.6484109,
大阪府,寝屋川市,267,明徳１丁目１１,明徳第１ちびっこ老人憩いの広場北側,34.77394,135.6510705,
大阪府,寝屋川市,268,池の瀬町３－２３,南側 寝屋川沿い,34.7724023,135.6461946,緯度経度は怪しい
大阪府,寝屋川市,269,成田東が丘３８,成田東が丘第１公園,34.7771103,135.6505533,
大阪府,寝屋川市,270,黒原橘町３０－１,市立和光小学校北門横,34.7561891,135.6030264,
大阪府,寝屋川市,271,黒原橘町３０－１,市立和光小学校南門横,34.7561891,135.6030264,
大阪府,寝屋川市,272,黒原城内町１,駐車場東側,34.7627914,135.599899,
大阪府,寝屋川市,273,黒原橘町３－４,森タイル店前水路,34.7570384,135.6046361,
大阪府,寝屋川市,274,黒原橘町15,駐車場西側水路,34.7581183,135.6012275,
大阪府,寝屋川市,275,黒原新町９番,黒原新町第１公園,34.7583219,135.598792,
大阪府,寝屋川市,276,黒原新町10番,黒原新町第２公園 (位置情報が見つかりませんでした),34.7576232,135.5990872,
大阪府,寝屋川市,277,八坂町２５－１１,関西電力送配電（株）平池変電所,34.7673089,135.623826,
大阪府,寝屋川市,278,八坂町１５－２７,京阪電車高架下　寝屋川市駅駐輪センター東側,34.7656585,135.6227296,
大阪府,寝屋川市,279,八坂町２５番,京阪高架下タイムズ寝屋川北,34.766869,135.623844,
大阪府,寝屋川市,280,平池町３０－２０,平池町第２ちびっこ老人憩いの広場西側,34.7713207,135.6240323,
大阪府,寝屋川市,281,八坂町１５－２７,京阪電車高架下　寝屋川市駅駐輪センター西側,34.7656585,135.6227296,
大阪府,寝屋川市,282,平池町２－２０,京阪電車高架下,34.7676429,135.6243887,
大阪府,寝屋川市,283,点野５丁目２６－１,市立点野小学校南側正門前水路,34.7716939,135.6006232,
大阪府,寝屋川市,284,点野３丁目１２－４,田中宅北側,34.7776263,135.6052507,
大阪府,寝屋川市,285,点野３丁目２２－２４,武藤鉄工所西側水路,34.7764281,135.603628,
大阪府,寝屋川市,286,点野６丁目２,府営寝屋川点野住宅Ｂ１５棟東側,34.7765308,135.6016703,
大阪府,寝屋川市,287,点野６丁目８,府営寝屋川点野住宅Ｂ３棟東側橋,34.7739221,135.5990134,
大阪府,寝屋川市,288,葛原２丁目７－１,市立西コミュニティセンター南側入口横,34.7703931,135.6050196,
大阪府,寝屋川市,289,葛原１丁目,第１ちびっこ老人憩いの広場西側,34.7734407,135.6072058,
大阪府,寝屋川市,290,点野５丁目２１,点野霊園西側,34.7739898,135.6020393,
大阪府,寝屋川市,291,高宮栄町１２−１,大阪運輸局南側　府道枚方交野寝屋川線沿,34.7582787,135.6292245,緯度経度は怪しい
大阪府,寝屋川市,292,高宮新町３２−１,市立第一中学校正門横,34.7619469,135.6311537,
大阪府,寝屋川市,293,高宮新町３２−１,市立第一中学校裏門横,34.7619469,135.6311537,
大阪府,寝屋川市,294,高宮あさひ丘４９−２,寝屋川市水道局高宮あさひ丘配水場,34.7568989,135.6414657,
大阪府,寝屋川市,295,高宮あさひ丘１９,あさひ丘グランド南側（太秦２号公園）,34.7590775,135.6386602,
大阪府,寝屋川市,296,高宮あさひ丘１,太秦交番前　大谷池西側,34.7594702,135.6364185,
大阪府,寝屋川市,297,高宮あさひ丘３,太秦２号公園北側,34.7592277,135.6377739,
大阪府,寝屋川市,298,高宮２丁目２３,関西電力鉄塔南側,34.7540933,135.6368876,
大阪府,寝屋川市,299,高柳２丁目１８,高柳２丁目第２ちびっこ老人憩いの広場東側,34.7594106,135.6091988,
大阪府,寝屋川市,300,高柳２丁目７,府営高柳住宅６棟西側,34.7601166,135.608313,
大阪府,寝屋川市,301,高柳４丁目１６−１６,市立第九中学校西側,34.761303,135.6082446,
大阪府,寝屋川市,302,高柳４丁目１６−１６,市立第九中学校裏門横,34.761303,135.6082446,
大阪府,寝屋川市,303,高柳４丁目１６−１６,市立第九中学校正門横,34.761303,135.6082446,
大阪府,寝屋川市,304,高柳２丁目１７番,梨の木公園南側フェンス,34.7595569,135.6086083,
大阪府,寝屋川市,305,三井が丘１丁目７,Ａ１６棟東側道路沿い,34.7738109,135.6436726,
大阪府,寝屋川市,306,三井が丘１丁目２,府公安香里三井団地Ａ５棟の西側歩道,34.7740441,135.6427966,
大阪府,寝屋川市,307,成田南町１５−２４,梅谷宅前　市立第十中学校,34.77619440000001,135.645197,
大阪府,寝屋川市,308,三井が丘１丁目５,Ａ１０棟北側,34.7751492,135.6433875,
大阪府,寝屋川市,309,三井が丘１丁目６,Ａ１２棟東側 交差点,34.7744108,135.6440524,
大阪府,寝屋川市,310,成田南町２０－７,市立第十中学校東側（スーパーマルヤス裏側）,34.7748992,135.6459915,
大阪府,寝屋川市,311,池田３丁目２,市立池田小学校西側水路,34.7736892,135.6153259,
大阪府,寝屋川市,312,池田３丁目３－２８,リカーショップ池田屋西側水路,34.7742477,135.6132624,
大阪府,寝屋川市,313,池田新町３－２３,旧市立教育研修センター（図書館）南側,34.7739227,135.6122161,
大阪府,寝屋川市,314,池田中町１７－８,摂南大学グラウンド東側（府道149号線）歩道,34.779519,135.6117455,
大阪府,寝屋川市,315,池田中町１０－７,いずみデイサービス　西側駐車場,34.7757971,135.6122994,
大阪府,寝屋川市,316,池田新町１９－２６,ウエルシア池田新町店前　枚方交野寝屋川線歩道,34.7721406,135.610067,
大阪府,寝屋川市,317,池田新町３,市立桜小学校東門前水路,34.7735326,135.6131443,
大阪府,寝屋川市,318,香里西之町１９－２,寝屋川市香里浄水場南側,34.7897906,135.6280411,
大阪府,寝屋川市,319,香里西之町２６,香里西公園　東側,34.7891283,135.6248989,
大阪府,寝屋川市,320,香里西之町５－６,ニュー香里モータープール　西側,34.7876653,135.6276931,
大阪府,寝屋川市,321,香里西之町１－５,三協段ボール㈱南側,34.7876786,135.6248225,
大阪府,寝屋川市,322,香里西之町１９－２,寝屋川市香里浄水場西側,34.7897906,135.6280411,
大阪府,寝屋川市,323,松屋町１２－１０,ひまわり保育園西側,34.7867844,135.6264399,
大阪府,寝屋川市,324,香里北之町５,香里北さざんか公園　西側,34.7884876,135.6311362,
大阪府,寝屋川市,325,国道170号線,成田山境橋口交差点西南側 (位置情報が見つかりませんでした),34.7603853,135.6301221,緯度経度は怪しい
大阪府,寝屋川市,326,成田西町17,成田西町公園南側,34.7790522,135.6370353,
大阪府,寝屋川市,327,三井南町１８,市立第五小学校南門,34.7755085,135.6368876,
大阪府,寝屋川市,328,三井南町１８,市立第五小学校グランド北側,34.7755085,135.6368876,
大阪府,寝屋川市,329,成田西町１０,京阪バス停「成田山不動尊」の道向えの歩道,34.7805871,135.6394312,
大阪府,寝屋川市,330,成田西町１０,成田西町第１ちびっこ老人憩いの広場,34.7805871,135.6394312,
大阪府,寝屋川市,331,三井南町１９,三井南町第２ちびっこ老人憩いの広場,34.7752157,135.6380693,
大阪府,寝屋川市,332,宇谷町５,フドウ香里南横　第７ちびっこ老人憩いの広場,34.768892,135.6488541,
大阪府,寝屋川市,333,宇谷町３－２０,府道枚方交野寝屋川線　眼鏡市場　寝屋川宇谷店前（内側）,34.7690821,135.6476944,
大阪府,寝屋川市,334,宇谷町８－１,市立宇谷小学校正門前水路,34.7669606,135.6459084,
大阪府,寝屋川市,335,寝屋南１丁目２－１,市立クリーンセンター西側,34.7634354,135.647351,
大阪府,寝屋川市,336,宇谷町１－２３,和食さと　東側バス停,34.7678242,135.6443006,
大阪府,寝屋川市,337,宇谷町７,ランフォルセ寝屋川壱番館　太秦第３ちびっこ老人憩いの広場,34.7671817,135.6466379,
大阪府,寝屋川市,338,寝屋南２丁目,ビバホーム北側道路,34.767321,135.6521048,
