prefecture,city,number,address,name,lat,long
大阪府,摂津市,1,千里丘一丁目1番先,千里丘駅西口南側,34.7928462,135.5520268
大阪府,摂津市,2,千里丘一丁目 6番先,北おおさか信用金庫倉庫東側,34.79223959999999,135.5504048
大阪府,摂津市,3,千里丘三丁目 9番47号,千里丘公民館駐車場,34.7875023,135.5471242
大阪府,摂津市,4,千里丘三丁目15番4号,市立千里丘小学校南門右側,34.789917,135.5448375
大阪府,摂津市,5,千里丘四丁目 6番 8号,摂津市千里丘送水所北側,34.785068,135.5456359
大阪府,摂津市,6,千里丘新町3番先,健都イノベーションパーク隅切,34.7818416,135.5425908
大阪府,摂津市,7,千里丘四丁目15番先,明和池公園北側,34.7845386,135.5467562
大阪府,摂津市,8,千里丘七丁目11番先,市場バス停前,34.7847884,135.5399373
大阪府,摂津市,1,千里丘東三丁目10番先,自転車駐車場,34.7897096,135.5507551
大阪府,摂津市,2,千里丘東一丁目 6番先,さわや前市有地西側,34.7913661,135.5539437
大阪府,摂津市,3,千里丘東一丁目11番先,自転車駐輪,34.7914928,135.551953
大阪府,摂津市,4,千里丘東二丁目10番先,フォルテ摂津2F渡廊下,34.7908306,135.5521742
大阪府,摂津市,5,千里丘東二丁目15番先,三宅モータープール,34.790675,135.555233
大阪府,摂津市,6,千里丘東三丁目1番先,境川いこいの広場,34.7876124,135.5542386
大阪府,摂津市,7,千里丘東三丁目14番先,境川坪井橋正面道路沿,34.7882949,135.5522479
大阪府,摂津市,1,千里丘東四丁目 6番先,さかいがわちびっこ広場,34.7876258,135.5530589
大阪府,摂津市,2,千里丘東四丁目2番先,阪急電鉄踏切横道路沿,34.785959,135.5530589
大阪府,摂津市,3,千里丘東四丁目11番先,カンソーパーク千里丘4丁目,34.7873638,135.5501468
大阪府,摂津市,4,千里丘東四丁目10番6号,三浦氏宅,34.78802280000001,135.5507441
大阪府,摂津市,5,千里丘東四丁目11番13号,西尾氏宅,34.7871135,135.5500178
大阪府,摂津市,6,千里丘東四丁目1番先,阪急摂津市駅北側道路沿,34.7870635,135.5536487
大阪府,摂津市,7,千里丘東四丁目31番19号,中尾氏宅,34.7863127,135.5494464
大阪府,摂津市,1,庄屋一丁目2番先,鳥山公園西側,34.7825369,135.5486355
大阪府,摂津市,2,千里丘東五丁目13番先,山田川ちびっこ広場,34.7825503,135.547456
大阪府,摂津市,3,千里丘東五丁目18番先,エスポワール中内,34.7840422,135.5494741
大阪府,摂津市,4,千里丘東五丁目1番先,石田氏宅前駐車場,34.7847459,135.549815
大阪府,摂津市,5,庄屋一丁目 1番28号,イーストウインド前,34.7828556,135.550257
大阪府,摂津市,6,千里丘東五丁目8番1号,崎田氏宅,34.784155,135.5490962
大阪府,摂津市,7,庄屋一丁目2番5号,庄屋会館,34.7822461,135.5491392
大阪府,摂津市,1,昭和園6番11号,太中浄水場北側,34.7893868,135.5580744
大阪府,摂津市,2,香露園14番先,伽藍堂遊歩道公衆便所横,34.7887545,135.5562965
大阪府,摂津市,3,香露園27番8号,市立第34集会所東側,34.7872818,135.5565795
大阪府,摂津市,4,香露園32番6号,いきいきプラザ前,34.7853303,135.5569361
大阪府,摂津市,5,学園町二丁目 9番1号,市立三宅柳田小学校南門横,34.7842933,135.560538
大阪府,摂津市,6,学園町二丁目 9番1号,市立三宅柳田小学校正門左側,34.7842933,135.560538
大阪府,摂津市,7,桜町一丁目 7番先,さくら公園ちびっこ広場,34.7889205,135.5613171
大阪府,摂津市,8,桜町一丁目13番先,洪氏宅北向かい側ガードレール,34.7901741,135.5610222
大阪府,摂津市,1,南千里丘5番先,摂津市駅タクシー乗場横,34.785661,135.5548284
大阪府,摂津市,2,南千里丘3番20号,市立第一中学校西側,34.7833395,135.5551908
大阪府,摂津市,3,南千里丘3番20号,市立第一中学校北側,34.7833395,135.5551908
大阪府,摂津市,4,東正雀19番1号,日本郵便(株)摂津郵便局,34.7824517,135.554485
大阪府,摂津市,5,三島三丁目14番60号,市立摂津小学校正門横左側,34.7814225,135.5549759
大阪府,摂津市,6,東正雀16番先,東正雀ちびっ子広場東側,34.7814852,135.5525428
大阪府,摂津市,7,東正雀17番9号,岸野氏サニーハイツ西側,34.7809772,135.5536533
大阪府,摂津市,1,庄屋一丁目7番10号,大阪精密鋼業(株)摂津工場,34.7812251,135.5473943
大阪府,摂津市,2,庄屋一丁目10番先,庄屋公園西側,34.7787961,135.547859
大阪府,摂津市,3,正雀一丁目1番1号,新味舌体育館北側,34.7789161,135.5509577
大阪府,摂津市,4,正雀一丁目4番1号,薫英学園北側西・西村宅向い,34.7783459,135.5499204
大阪府,摂津市,5,正雀二丁目13番27号,市立第9集会所,34.7770721,135.5499857
大阪府,摂津市,6,正雀一丁目1番1号,新味舌体育館南側,34.7789161,135.5509577
大阪府,摂津市,7,正雀二丁目14番先,正雀公園北西側,34.775448,135.550732
大阪府,摂津市,1,鶴野四丁目20番先,アドリーム鶴野ちびっこ広場,34.7822157,135.5659998
大阪府,摂津市,2,鶴野二丁目1番先,鶴野第1公園北側,34.7796349,135.5624232
大阪府,摂津市,3,鶴野二丁目1番先,鶴野第1公園西側,34.7796349,135.5624232
大阪府,摂津市,4,鶴野四丁目16番先,鶴野4丁目ちびっこ広場,34.7838582,135.5666267
大阪府,摂津市,5,鶴野三丁目1番先,摂津市青少年運動広場西側,34.7779519,135.5667742
大阪府,摂津市,6,鶴野四丁目1番先,旭興産運輸(株)南側,34.7821541,135.5638243
大阪府,摂津市,7,鶴野一丁目2番先,鶴野南ちびっこ広場,34.7775017,135.5636769
大阪府,摂津市,1,三島一丁目1番10号,摂津市上下水道部,34.7777125,135.5617207
大阪府,摂津市,2,三島三丁目16番53号,三島まちかど広場,34.7825267,135.5575067
大阪府,摂津市,3,三島二丁目2番先,温水プール前府道歩道沿,34.7790879,135.5586625
大阪府,摂津市,4,三島二丁目7番16号,市立第31集会所,34.77593580000001,135.5559036
大阪府,摂津市,5,三島二丁目13番38号,市立味舌小学校正門左側,34.776916,135.5567913
大阪府,摂津市,6,三島三丁目5番先,星翔高等学校正門右側,34.7797556,135.5549759
大阪府,摂津市,7,三島三丁目13番1号,せっつ遊育園斜め前水路沿,34.7804337,135.5565185
大阪府,摂津市,1,正雀三丁目17番24号,ライフォート正雀店,34.7759797,135.5530273
大阪府,摂津市,2,正雀三丁目6番2号,エルソフィア正雀II南側,34.7744348,135.5533354
大阪府,摂津市,3,正雀三丁目6番3号,エルソフィア正雀I西側,34.7743153,135.5531511
大阪府,摂津市,4,正雀四丁目2番3号,市立正雀体育館東側,34.7744311,135.5557637
大阪府,摂津市,5,正雀四丁目2番3号,市立正雀体育館南側,34.7744311,135.5557637
大阪府,摂津市,6,正雀四丁目9番25号,市民図書館,34.7723657,135.5531568
大阪府,摂津市,7,正雀四丁目9番25号先,児童公園前歩道沿,34.7723657,135.5531568
大阪府,摂津市,1,正雀本町二丁目15番先,三島荘公園東側,34.772476,135.5507734
大阪府,摂津市,2,正雀本町一丁目25番先,正雀駅南第1自転車駐車場西側,34.7755084,135.5467925
大阪府,摂津市,3,正雀本町一丁目18番先,旧デイハウス味舌東側三角公園,34.7757406,135.5477509
大阪府,摂津市,4,正雀本町一丁目20番先,岸田モータープール前,34.776563,135.54889
大阪府,摂津市,5,正雀本町一丁目29番先,防火水槽,34.7765384,135.5478246
大阪府,摂津市,6,正雀本町二丁目10番先,十高線トンネル上スロープ,34.7728666,135.5485249
大阪府,摂津市,7,正雀本町二丁目15番先,三島荘公園西側,34.772476,135.5507734
大阪府,摂津市,1,浜町9番24号,市立第20集会所,34.770124,135.5521926
大阪府,摂津市,2,浜町5番31号,東田氏宅前水路沿,34.7695197,135.554411
大阪府,摂津市,3,北別府町4番2号,宮本氏宅前番田川沿,34.7700321,135.5553336
大阪府,摂津市,4,東別府五丁目1番33号,市立別府小学校正門右側,34.7702882,135.5580857
大阪府,摂津市,5,東別府五丁目1番33号,市立別府小学校東側,34.7702882,135.5580857
大阪府,摂津市,6,東別府二丁目8番先,下田氏宅前東モータープール,34.7676887,135.5592524
大阪府,摂津市,7,東別府一丁目4番9号,メモリアルホール前バス停,34.7703593,135.5592643
大阪府,摂津市,1,別府一丁目2番先,別府バス停,34.7685705,135.5551233
大阪府,摂津市,2,別府一丁目6番22号,あいあいホール別府,34.7678937,135.5543677
大阪府,摂津市,3,別府一丁目21番6号,さかぐち氏宅前水路鉄サク,34.763653,135.5552649
大阪府,摂津市,4,別府二丁目10番20号,別府コミセン横駐車場西側,34.765386,135.5538397
大阪府,摂津市,5,別府二丁目26番先,和田モータープール北側,34.7628522,135.5540174
大阪府,摂津市,6,別府二丁目6番12号,神崎文化住宅横駐車場,34.767044,135.5526417
大阪府,摂津市,7,別府二丁目14番先,岡崎機械工業株(駐車場,34.7645723,135.5524691
大阪府,摂津市,1,南別府町1番45号,(株)マスパック北側,34.7620201,135.5554703
大阪府,摂津市,2,西一津屋2番先,摂津市斎場専用駐車場,34.7622299,135.5567454
大阪府,摂津市,3,南別府町7番30号,市立第5集会所,34.7601674,135.5527112
大阪府,摂津市,4,南別府町9番先,府営住宅内駐車場北入口横,34.7578389,135.5520268
大阪府,摂津市,5,南別府町9番先,府営住宅西側,34.7578389,135.5520268
大阪府,摂津市,6,南別府町15番先,味生水路排水機場,34.7580822,135.5549759
大阪府,摂津市,7,南別府町16番先,ダイキン前バス停,34.7577193,135.556303
大阪府,摂津市,1,一津屋一丁目16番13号,味生公民館北側広場,34.7614744,135.5676375
大阪府,摂津市,2,一津屋一丁目17番3号,野口氏宅北側,34.7621785,135.5676645
大阪府,摂津市,3,一津屋一丁目23番先,(株)サン・エキスプレス配車センター東側,34.7629889,135.5689867
大阪府,摂津市,4,西一津屋1番先,ダイキン正門左側,34.75984130000001,135.5603112
大阪府,摂津市,5,一津屋二丁目18番先,味生神社裏道路沿,34.758306,135.561389
大阪府,摂津市,6,一津屋二丁目19番1号,市立味生小学校北側,34.7597923,135.564995
大阪府,摂津市,7,鳥飼和道一丁目7番3号,サンフィルタ総合メンテナンス,34.7615231,135.5719042
大阪府,摂津市,1,新在家一丁目14番先,サンシティ摂津横水路沿,34.7718612,135.5707568
大阪府,摂津市,2,新在家一丁目14番8号,野口氏宅東側水路沿,34.7715916,135.57068
大阪府,摂津市,3,新在家二丁目2番6号先,(株)ハスラック南側水路沿,34.7716684,135.5694292
大阪府,摂津市,4,新在家二丁目26番先,摂津スカイハイツちびっこ広場,34.7682901,135.5672167
大阪府,摂津市,5,新在家一丁目10番13号,塚本氏宅,34.7718519,135.5731081
大阪府,摂津市,6,鳥飼八防一丁目5番20号,林氏宅,34.7726847,135.5747491
大阪府,摂津市,7,鳥飼八防一丁目19番先,旭技建(株)前水路沿,34.7708356,135.5723057
大阪府,摂津市,1,鳥飼野々三丁目37番先,樋上氏宅前水路沿,34.7737432,135.5731908
大阪府,摂津市,2,鳥飼野々二丁目2番先,公団鳥飼野々二丁目団地北側,34.7741644,135.5757724
大阪府,摂津市,3,鳥飼野々二丁目2番先,公団鳥飼野々二丁目団地東側,34.7741644,135.5757724
大阪府,摂津市,4,鳥飼本町五丁目14番先,さくら公園北側,34.7740945,135.5776442
大阪府,摂津市,5,鳥飼野々三丁目20番1号,市立新野々集会所,34.7755277,135.5762806
大阪府,摂津市,6,鳥飼本町五丁目10番1号,市立鳥飼北小学校北側,34.7763451,135.5786557
大阪府,摂津市,7,鳥飼本町五丁目5番先,しば公園西側,34.777065,135.5772477
大阪府,摂津市,1,鳥飼本町四丁目7番先,ふるさと公園南西側,34.7772299,135.5809361
大阪府,摂津市,2,鳥飼本町四丁目7番先,関電鉄塔北側,34.7772299,135.5809361
大阪府,摂津市,3,鳥飼本町三丁目5番先,けやき公園西側,34.7797885,135.5819689
大阪府,摂津市,4,鳥飼本町三丁目14番先,さつき公園北側,34.7775442,135.5837395
大阪府,摂津市,5,鳥飼本町一丁目11番先,市立新鳥飼公民館駐車場北東側隅切,34.7782718,135.5868381
大阪府,摂津市,6,鳥飼本町一丁目4番16号,パックプリント(株)裏フェンス,34.7805746,135.5869369
大阪府,摂津市,7,鳥飼本町一丁目1番先,関電鉄塔北側,34.7810147,135.5840346
大阪府,摂津市,1,鳥飼中三丁目3番先,ゆりのき公園北側,34.7830537,135.5878711
大阪府,摂津市,2,鳥飼新町二丁目1番先,関電変電所南側,34.7890896,135.5886089
大阪府,摂津市,3,鳥飼新町一丁目10番先,市立第五中学校南側水路沿,34.7857686,135.5874284
大阪府,摂津市,4,鳥飼八町一丁目5番11号,川氏宅前,34.7871108,135.5840715
大阪府,摂津市,5,鳥飼中二丁目6番先,あじさい公園南角,34.7824629,135.5908224
大阪府,摂津市,6,鳥飼上三丁目1番17号,(有)野口鉄工所前水路沿,34.7872499,135.5906933
大阪府,摂津市,7,鳥飼新町二丁目25番先,鳥飼モータープール前水路沿,34.7895751,135.5916341
大阪府,摂津市,1,鳥飼上一丁目16番先,カイトモータープール,34.7825563,135.5946595
大阪府,摂津市,2,鳥飼上一丁目10番先,上鳥飼バス停前,34.7838928,135.5962091
大阪府,摂津市,3,鳥飼上二丁目2番先,りんどう公園東側,34.7849012,135.5961354
大阪府,摂津市,4,鳥飼上三丁目4番51号,市立鳥飼東小学校西側,34.7865536,135.5925878
大阪府,摂津市,5,鳥飼上二丁目3番55号,市立鳥飼東公民館,34.7880595,135.5955805
大阪府,摂津市,6,鳥飼上三丁目11番先,くぬぎ公園東側,34.7888489,135.5942905
大阪府,摂津市,7,鳥飼上四丁目7番先,摂津ふれあいの里バス停,34.7925268,135.5976113
大阪府,摂津市,1,鳥飼中一丁目12番先,鳥飼中バス停前,34.7807813,135.592003
大阪府,摂津市,2,鳥飼中一丁目10番20号,石仙氏宅,34.7796779,135.5927745
大阪府,摂津市,3,鳥飼下一丁目7番4号,市立鳥飼小学校東側,34.7765388,135.5895807
大阪府,摂津市,4,鳥飼下一丁目11番先,前川氏宅向歩道沿,34.776273,135.5883875
大阪府,摂津市,5,鳥飼下三丁目2番先,下鳥飼バス停前,34.7756057,135.5831493
大阪府,摂津市,6,鳥飼下三丁目27番先,松野氏宅前水路沿,34.7726914,135.5857315
大阪府,摂津市,7,鳥飼下三丁目9番先,林氏畑前,34.77437949999999,135.5810836
大阪府,摂津市,1,鳥飼野々一丁目26番先,大阪府管理用地,34.7729927,135.5779116
大阪府,摂津市,2,鳥飼西二丁目4番先,辻氏宅前畑フェンス,34.7717748,135.5810099
大阪府,摂津市,3,鳥飼西二丁目26番1号,林氏宅,34.7668251,135.5794607
大阪府,摂津市,4,鳥飼八防二丁目1番1号,市立第二中学校南側,34.7701574,135.574394
大阪府,摂津市,5,鳥飼西一丁目13番24号,石橋氏宅横水路沿,34.770201,135.5820873
大阪府,摂津市,6,鳥飼西三丁目1番1号,市立鳥飼西小学校北側,34.7685957,135.5800147
大阪府,摂津市,7,鳥飼西三丁目8番先,スポーツ広場駐車場前フェンス,34.7680793,135.5791656
大阪府,摂津市,8,東一津屋14番先,南摂津駅駐車場,34.7660391,135.5695767
