prefecture,city,number,address,name,lat,long,note
長野県,坂城町,1,南條7167-1,坂城町,36.424259,138.193728,
長野県,坂城町,2,南條271,坂城町,36.4262185,138.1921363,
長野県,坂城町,3,南條707-1,坂城町,36.4280802,138.1924139,
長野県,坂城町,4,南條525-1,坂城町,36.4274102,138.1888466,
長野県,坂城町,5,南條1012-9,坂城町,36.4305661,138.1964171,
長野県,坂城町,6,南條979-86,坂城町,36.431973,138.196319,
長野県,坂城町,7,南條782,坂城町,36.4309294,138.1928183,
長野県,坂城町,8,南條,坂城町,36.4370841,138.1915306,緯度経度は怪しい
長野県,坂城町,9,南條960-4,坂城町,36.434247,138.19489,
長野県,坂城町,10,南條2080,坂城町,36.434935,138.192883,
長野県,坂城町,11,南條4910-14,坂城町,36.4407255,138.1878675,
長野県,坂城町,12,南條6720,坂城町,36.433343,138.192204,
長野県,坂城町,13,南條2327-4,坂城町,36.4379537,138.1943207,
長野県,坂城町,14,南條5918-3,坂城町,336.439767,138.19093,
長野県,坂城町,15,南條2234-8,坂城町,36.44025,138.194219,
長野県,坂城町,16,南條5950-1,坂城町,36.4398453,138.1915529,
長野県,坂城町,17,南條2251-3,坂城町,36.4404242,138.1975906,
長野県,坂城町,18,南條3999-1,坂城町,36.437809,138.213379,緯度経度は怪しい
長野県,坂城町,19,南條3759,坂城町,36.437809,138.213379,緯度経度は怪しい
長野県,坂城町,20,南條4485-1,坂城町,36.437809,138.213379,緯度経度は怪しい
長野県,坂城町,21,南條4549-2,坂城町,36.437809,138.213379,緯度経度は怪しい
長野県,坂城町,22,南條4600,坂城町,36.437809,138.213379,緯度経度は怪しい
長野県,坂城町,23,南條4655,坂城町,36.4420501,138.1961321,
長野県,坂城町,24,南條4728,坂城町,36.437809,138.213379,緯度経度は怪しい
長野県,坂城町,25,南條4745-1,坂城町,36.437809,138.213379,緯度経度は怪しい
長野県,坂城町,26,中之条2468-2,坂城町,36.4518455,138.1926032,
長野県,坂城町,27,中之条873-3,坂城町,36.452736,138.217606,緯度経度は怪しい
長野県,坂城町,28,中之条628,坂城町,36.4478766,138.1891444,
長野県,坂城町,29,中之条811-3,坂城町,36.4467046,138.1897708,
長野県,坂城町,30,中之条751-7,坂城町,36.4441272,138.1898569,
長野県,坂城町,31,中之条763-2,坂城町,36.4453754,138.1916013,
長野県,坂城町,32,中之条1310-1,坂城町,36.4445908,138.1948983,
長野県,坂城町,33,中之条1107-4,坂城町,36.452736,138.217606,緯度経度は怪しい
長野県,坂城町,34,中之条1336-2,坂城町,36.4475115,138.1940404,
長野県,坂城町,35,中之条,坂城町,36.452736,138.217606,緯度経度は怪しい
長野県,坂城町,36,坂城6948-1,坂城町,36.476643,138.202744,緯度経度は怪しい
長野県,坂城町,37,坂城9333-7,坂城町,36.4540151,138.1874925,
長野県,坂城町,38,坂城9522-1,坂城町,36.4556531,138.1874014,
長野県,坂城町,39,坂城6671,坂城町,36.476643,138.202744,緯度経度は怪しい
長野県,坂城町,40,坂城9029-5,坂城町,36.476643,138.202744,緯度経度は怪しい
長野県,坂城町,41,坂城9184-2,坂城町,36.476643,138.202744,緯度経度は怪しい
長野県,坂城町,42,坂城6742,坂城町,36.476643,138.202744,緯度経度は怪しい
長野県,坂城町,43,坂城6705-1,坂城町,36.46068440000001,138.1886054,
長野県,坂城町,44,坂城6537-1,坂城町,36.476643,138.202744,緯度経度は怪しい
長野県,坂城町,45,坂城9938-2,坂城町,36.476643,138.202744,緯度経度は怪しい
長野県,坂城町,46,坂城5724-31,坂城町,36.463217,138.1886341,
長野県,坂城町,47,坂城6094-10,坂城町,36.46714040000001,138.1869734,
長野県,坂城町,48,坂城4526-1,坂城町,36.476643,138.202744,緯度経度は怪しい
長野県,坂城町,49,坂城4587,坂城町,36.4696917,138.1936445,
長野県,坂城町,50,坂城4560-1,坂城町,36.4702307,138.1926451,
長野県,坂城町,51,坂城1987-1,坂城町,36.476643,138.202744,緯度経度は怪しい
長野県,坂城町,52,坂城2250-5,坂城町,36.476643,138.202744,緯度経度は怪しい
長野県,坂城町,53,坂城2420-4,坂城町,36.476643,138.202744,緯度経度は怪しい
長野県,坂城町,54,坂城2060,坂城町,36.476643,138.202744,緯度経度は怪しい
長野県,坂城町,55,坂城3327-1,坂城町,36.476643,138.202744,緯度経度は怪しい
長野県,坂城町,56,坂城6410,坂城町,36.46280369999999,138.1815306,
長野県,坂城町,57,坂城6475,坂城町,36.4627734,138.1844979,
長野県,坂城町,58,坂城6323,坂城町,36.4634883,138.1817108,
長野県,坂城町,59,坂城6227,坂城町,36.465786,138.184082,緯度経度は怪しい
長野県,坂城町,60,坂城6204-1,坂城町,36.4658095,138.1830542,
長野県,坂城町,61,坂城6130-1,坂城町,36.4670001,138.1861679,
長野県,坂城町,62,坂城1925,坂城町,36.4679058,138.1835275,
長野県,坂城町,63,坂城10070-1,坂城町,36.4635887,138.1792014,
長野県,坂城町,64,坂城10050,坂城町,36.4618291,138.1801001,
長野県,坂城町,65,坂城1177,坂城町,36.4687571,138.1805081,
長野県,坂城町,66,坂城1187-5,坂城町,36.4675325,138.1806295,
長野県,坂城町,67,坂城1013-12,坂城町,36.469723,138.1698,緯度経度は怪しい
長野県,坂城町,68,坂城1067-1,坂城町,36.476643,138.202744,緯度経度は怪しい
長野県,坂城町,69,坂城1084-1,坂城町,36.4660231,138.178847,
長野県,坂城町,70,坂城1014-9,坂城町,36.476643,138.202744,緯度経度は怪しい
長野県,坂城町,71,坂城1017,坂城町,36.465939,138.17691,緯度経度は怪しい
長野県,坂城町,72,坂城10245-6,坂城町,36.46458260000001,138.1755765,
長野県,坂城町,73,坂城37-1,坂城町,36.476643,138.202744,緯度経度は怪しい
長野県,坂城町,74,坂城297-1,坂城町,36.4684834,138.1656766,
長野県,坂城町,75,坂城155,坂城町,36.4704732,138.1643508,
長野県,坂城町,76,網掛3191,坂城町,36.438705,138.168854,緯度経度は怪しい
長野県,坂城町,77,網掛564-11,坂城町,36.438705,138.168854,緯度経度は怪しい
長野県,坂城町,78,上平1536先,坂城町,36.4463981,138.1664063,
長野県,坂城町,79,網掛1615-1,坂城町,36.438705,138.168854,緯度経度は怪しい
長野県,坂城町,80,網掛608-4,坂城町,36.43644,138.172409,緯度経度は怪しい
長野県,坂城町,81,網掛453,坂城町,36.438705,138.168854,緯度経度は怪しい
長野県,坂城町,82,網掛900-59,坂城町,36.448025,138.175583,緯度経度は怪しい
長野県,坂城町,83,網掛900-164,坂城町,36.4485251,138.1758483,
長野県,坂城町,84,上五明1907-5先,坂城町,36.4524315,138.1765099,
長野県,坂城町,85,上五明656-1,坂城町,36.44867199999999,138.1698762,
長野県,坂城町,86,上五明113-1,坂城町,36.4568275,138.1722179,
長野県,坂城町,87,上五明733,坂城町,36.4568275,138.1722179,
長野県,坂城町,88,上五明1111-1,坂城町,36.4568275,138.1722179,
長野県,坂城町,89,上五明1284-5,坂城町,36.4584933,138.1741362,
長野県,坂城町,90,上平238-1,坂城町,36.442787,138.147247,緯度経度は怪しい
長野県,坂城町,91,上平342,坂城町,36.448544,138.161804,緯度経度は怪しい
長野県,坂城町,92,上平434-1,坂城町,36.442787,138.147247,緯度経度は怪しい
長野県,坂城町,93,上平492-1,坂城町,36.442787,138.147247,緯度経度は怪しい
長野県,坂城町,94,上平1341-1,坂城町,36.442787,138.147247,緯度経度は怪しい
長野県,坂城町,95,上平1484-1,坂城町,36.442787,138.147247,緯度経度は怪しい
長野県,坂城町,96,網掛3038-1,坂城町,36.438705,138.168854,緯度経度は怪しい
長野県,坂城町,97,上平2229-1,坂城町,36.442787,138.147247,緯度経度は怪しい
長野県,坂城町,98,上平2291-64,坂城町,36.429497,138.180298,緯度経度は怪しい
長野県,坂城町,99,上平2501-25,坂城町,36.423687,138.178513,緯度経度は怪しい
