prefecture,city,number,address,name,lat,long,note
1-1,長野県,軽井沢町,軽井沢３−１３,中部電力パワーグリッド㈱軽井沢サービスステーション前,36.353946,138.634260,
1-2,長野県,軽井沢町,軽井沢１５,旧軽ロータリー 軽井沢本通り側,36.356693,138.633963,
1-3,長野県,軽井沢町,軽井沢１５,旧軽ロータリー 軽井沢警察署旧軽臨時交番,36.356640,138.633784,
1-4,長野県,軽井沢町,軽井沢旧軽井沢８７８,旧軽公民館 入口,36.357761,138.638088,
1-5,長野県,軽井沢町,軽井沢７３９,軽井沢観光会館入口,36.359098,138.636089,
1-6,長野県,軽井沢町,軽井沢旧軽井沢１５０,三笠通り 聖パウロ教会前バス停 北側,36.359053,138.633524,
1-7,長野県,軽井沢町,峠町字碓氷 峠20,みすず屋,36.368940,138.656274,
1-8,長野県,軽井沢町,長倉２１２６,小瀬温泉 入口 南,36.388376,138.613244,
1-9,長野県,軽井沢町,軽井沢 旧軽井沢８７８−５,masked,36.357218,138.639211,
1-10,長野県,軽井沢町,軽井沢１２０３−６,離山線 貸駐車場前植込,36.351423,138.630814,
1-11,長野県,軽井沢町,軽井沢７６３−１,振興公社旧軽井沢駐車場フェンス,36.357913,138.636263,
1-12,長野県,軽井沢町,軽井沢旧軽井沢６４６,北裏線 神宮寺駐車場フェンス,36.360482,138.635785,
1-13,長野県,軽井沢町,軽井沢旧軽井沢１３,二手橋 公衆便所横 道路敷,36.362715,138.640005,
1-14,長野県,軽井沢町,軽井沢３９５−５,三笠通り 一本松 道路敷 東側,36.361256,138.631971,
2-1,長野県,軽井沢町,軽井沢１２４９,離山線 東部小学校北西土手,36.347563,138.623145,
2-2,長野県,軽井沢町,軽井沢東２８８,西野沢原公園南側,36.343851,138.628130,
2-3,長野県,軽井沢町,軽井沢東１５４−２,北野沢原公園南フェンス,36.345236,138.631415,
2-4,長野県,軽井沢町,軽井沢東３−２,軽井沢駅北口 キッチンハイツ向い駐車場フェンス,36.343757,138.634626,
2-5,長野県,軽井沢町,軽井沢東２８−１,矢ヶ崎公園管理棟入口,36.344471,138.636206,
2-6,長野県,軽井沢町,軽井沢東２８−１,矢ヶ崎公園東端 公衆トイレ横,36.344295,138.638750,
2-7,長野県,軽井沢町,軽井沢１０１６−４８８,町営矢ヶ崎団地1号横フェンス,36.343827,138.645052,
2-8,長野県,軽井沢町,軽井沢野沢原１３２３−１２９７,たまご形,36.347479,138.631933,
2-9,長野県,軽井沢町,軽井沢東１１−１７,横町 森角工業前,36.345244,138.635187,
2-10,長野県,軽井沢町,軽井沢東１９−１２,八十二銀行軽井沢支店 南,36.346509,138.635011,
2-11,長野県,軽井沢町,軽井沢東４−５,軽井沢駅北口 東側バスターミナル前植込,36.343252,138.636158,
2-12,長野県,軽井沢町,軽井沢１１７８−１１２６,軽井沢駅北口西側駐車場 駐輪場付近,36.343307,138.633122,
2-13,長野県,軽井沢町,軽井沢野沢原１３２３−１００２,国道18号 デリシア軽井沢店前,36.343587,138.625028,
3-1,長野県,軽井沢町,長倉２０５０−４,離山信号東,36.343950,138.608822,
3-2,長野県,軽井沢町,長倉２０５５−４,離山線 セントラル自動車北 駐車場,36.344123,138.610173,
3-3,長野県,軽井沢町,長倉離山１９９４,離山公民館入口,36.344597,138.613710,
3-4,長野県,軽井沢町,軽井沢野沢原１３２３−６０７,離山 警察官舎前,36.345144,138.615894,
3-5,長野県,軽井沢町,長倉２０１０−７,国道１８号 桂地下道入口付近,36.343758,138.611549,
3-6,長野県,軽井沢町,長倉１８９２−２４６,市村記念館駐車場 国道18号南側,36.343059,138.607218,
3-7,長野県,軽井沢町,長倉南原２４７９−１,南原跨線橋下 南原2号線脇,36.344070,138.605602,
4-1,長野県,軽井沢町,長倉２３５３−１,中央公民館入口,36.350109,138.597354,
4-2,長野県,軽井沢町,中軽井沢２２−１８,狩野公園西側入口脇フェンス,36.350293,138.590322,
4-3,長野県,軽井沢町,長倉３５５７−７,中部小通り ル・カシマ（アパート）前,36.346541,138.586507,
4-4,長野県,軽井沢町,長倉３０４１−３,中軽十二屋西側 松屋駐車場フェンス,36.348585,138.592104,
4-5,長野県,軽井沢町,軽井沢 大字長倉3415-1,鳥ケ坂団地東,36.349477,138.587093,
4-6,長野県,軽井沢町,中軽井沢３８９ 0112,湯川橋西 長倉公園入口18号線沿い,36.348866,138.594863,
4-7,長野県,軽井沢町,中軽井沢２２−１８,狩野公園北フェンス 幼稚園前,36.350722,138.590571,
4-8,長野県,軽井沢町,中軽井沢１５−９,中軽児童館北フェンス,36.350133,138.592867,
4-9,長野県,軽井沢町,長倉３３５６−１,国道146号 セブンイレブン中軽井沢店南,36.355887,138.589578,
4-10,長野県,軽井沢町,長倉２３８１−１,軽井沢町役場南側,36.347898,138.596892,
5-1,長野県,軽井沢町,長倉２４８４−１９,中学校線 踏切先 おらが製菓南西,36.344121,138.602437,
5-2,長野県,軽井沢町,長倉３７２２,あさま医院前,36.341015,138.587962,
5-3,長野県,軽井沢町,長倉２７１９−８,農協通り 町営鳥井原団地道路沿い,36.339967,138.592285,
5-4,長野県,軽井沢町,長倉２９６６,農協通り ＪＡ佐久浅間軽井沢支所フェンス,36.346710,138.590526,
5-5,長野県,軽井沢町,長倉前沢２３９８,広栄ホームサービス南側角,36.345339,138.598061,
5-6,長野県,軽井沢町,長倉２８８５,中軽井沢駅南 ㈱松屋中軽井沢営業所北側,36.344848,138.593543,
5-7,長野県,軽井沢町,長倉２８５９−３,子育て支援センターるるぱる東側,36.344383,138.591012,
5-8,長野県,軽井沢町,長倉３６７８−５,新幹線側道 ポケットパーク 西側,36.340685,138.586413,
5-9,長野県,軽井沢町,長倉２７９０−１,湯川ふるさと公園入り口西側,36.341863,138.594488,
6-1,長野県,軽井沢町,長倉千ケ滝西区２１４０−１０,エネオス南バス停横,36.360864,138.588779,
6-2,長野県,軽井沢町,長倉２１４７−６４６,元西武デパート南,36.368886,138.587469,
6-3,長野県,軽井沢町,長倉２１４６−１１７０,国道146号 荻原タバコ屋下 ペンションサンジュエールイン前,36.373207,138.587739,
6-4,長野県,軽井沢町,長倉２１４６−２１８,軽井沢ブルワリー北東 ゴミ集積場,36.372164,138.589472,
6-5,長野県,軽井沢町,長倉２１３９−８,㈱西武不動産プロパティマネジメント千ケ滝別荘管理事務所横,36.360415,138.582000,
6-6,長野県,軽井沢町,長倉千ケ滝西区１７９３,清水屋山荘東側駐車場横,36.358836,138.577765,
6-7,長野県,軽井沢町,長倉２１３９−６６,西区あやめヶ原バス停 カーブミラー横,36.355795,138.573271,
7-1,長野県,軽井沢町,長倉３９７７−１,古宿村中線 ㈲カワジ 南側,36.345492,138.579995,
7-2,長野県,軽井沢町,長倉古宿４４２８−４,團クリニック第2駐車場前,36.345424,138.576371,
7-3,長野県,軽井沢町,大字長倉古宿4430−1,古宿公民館 入口,36.344575,138.577071,
7-4,長野県,軽井沢町,長倉４４０４−３,古宿村中線 ゆうすげ川魚料理 前,36.344304,138.574495,
7-5,長野県,軽井沢町,長倉４２８６,中部電力変電所 フェンス東端,36.343148,138.579682,
8-1,長野県,軽井沢町,長倉４６７９−６７,つくしヶ丘児童遊園地 東フェンス,36.344680,138.564468,
8-2,長野県,軽井沢町,長倉４６３４,借宿村中線 借宿公民館入口,36.341560,138.562856,
8-3,長野県,軽井沢町,長倉４６９８−６０,masked,36.346212,138.565967,
8-4,長野県,軽井沢町,追分１０７４−３６,しなの追分駅東 駐車場土手上,36.336573,138.559992,
8-5,長野県,軽井沢町,追分１１１２−３,借宿村中線 西入口 中村建設東,36.342600,138.557602,
8-6,長野県,軽井沢町,長倉５３３１−２,借宿村中線 東入口,36.342702,138.568957,
8-7,長野県,軽井沢町,長倉５３２１−１,借宿村中線 女街道入口Ｔ字路正面,36.342279,138.565908,
8-8,長野県,軽井沢町,長倉４６１２−５８,町所有地 つくしヶ丘西バス停,36.345556,138.563141,
8-9,長野県,軽井沢町,長倉４９６６−８,木もれ陽の里入口交差点 西側,36.337814,138.562996,
8-10,長野県,軽井沢町,追分１３４１−７８,西地区児童館入口フェンス,36.341885,138.553955,
8-11,長野県,軽井沢町,長倉５３９１−３５,借宿北児童遊園南側フェンス,36.349617,138.566347,
8-12,長野県,軽井沢町,長倉４８４４−１,木もれ陽の里敷地 町道借宿発地線沿い土手,36.335816,138.563506,
9-1,長野県,軽井沢町,長倉５５２４−１,masked,36.349040,138.561047,
9-2,長野県,軽井沢町,長倉5457ｰ2,浅間ふれあい公園東 千メートル林道沿い,36.349660,138.562547,
9-3,長野県,軽井沢町,長倉５５０３−１,masked,36.352097,138.564646,
9-4,長野県,軽井沢町,長倉５５２８−４,浅間台公民館 西側フェンス,36.350295,138.560895,
9-5,長野県,軽井沢町,長倉５５５７,masked,36.350258,138.560135,
10-1,長野県,軽井沢町,長倉５５３６,大日向グランド入口,36.352027,138.559589,
10-2,長野県,軽井沢町,長倉５５３６,大日向グランド北側,36.352465,138.558785,
10-3,長野県,軽井沢町,長倉大日向５６３８,大日向児童遊園地 西側フェンス,36.354873,138.559282,
10-4,長野県,軽井沢町,長倉５６８８,大日向公民館敷地,36.355649,138.559254,
10-5,長野県,軽井沢町,長倉５７８６,大日向公民館東150M 旧水道施設前,36.356399,138.560583,
11-1,長野県,軽井沢町,追分８７３,追分浅間神社入口,36.340733,138.547828,
11-2,長野県,軽井沢町,追分６４１−２,追分村中線 ポケットパーク,36.339541,138.544777,
11-3,長野県,軽井沢町,追分５６８,追分バス停東空き地,36.337058,138.539506,
11-4,長野県,軽井沢町,追分９６０−３０,追分駅西入口 倉賀橋北50M 公衆便所跡地,36.334926,138.554505,
11-5,長野県,軽井沢町,追分７１９−７０,草越 ポーラハウス西軽井沢 南西200M畑前,36.330677,138.550359,
12-1,長野県,軽井沢町,追分１３５５−１,ここあ軽井沢北東側 セブンイレブン浅間サンライン店跡,36.340153,138.531162,
12-2,長野県,軽井沢町,追分１６７９−３,浅間サンライン 公衆便所横,36.340678,138.527672,
12-3,長野県,軽井沢町,追分三ツ石大字,三ツ石公民館敷地 浅間サンライン沿い東,36.340929,138.527252,
12-4,長野県,軽井沢町,追分１６７９−３,三ツ石公民館前十字路南 防火水槽横,36.339840,138.527147,
12-5,長野県,軽井沢町,追分１７１０−１,静山荘駐車場入口横緑地,36.340699,138.525588,
13-1,長野県,軽井沢町,茂沢７３１,茂沢消防団11分団詰所駐車場,36.312830,138.563432,
13-2,長野県,軽井沢町,茂沢８９３−５,県道杉瓜線 茂沢消防団11分団詰所北東側,36.313412,138.563877,
13-3,長野県,軽井沢町,茂沢７５３,茂沢橋北西側,36.312106,138.564476,
13-4,長野県,軽井沢町,茂沢１２８,大日橋東側畑,36.310856,138.565689,
13-5,長野県,軽井沢町,茂沢８７４−２,農業集落排水事業茂沢地区処理施設,36.313747,138.561987,
14-1,長野県,軽井沢町,長倉２６８０−６,鳥井原 軽井沢タイヤ向い,36.335754,138.591643,
14-2,長野県,軽井沢町,長倉１６７０−８,中山商店前,36.335743,138.588739,
14-3,長野県,軽井沢町,長倉３６８６−１,鳥井原信号南東角付近,36.338032,138.588074,
14-4,長野県,軽井沢町,長倉１６２９−１１,長倉地区児童館東入口,36.333217,138.587356,
14-5,長野県,軽井沢町,長倉１４３７−３,油井村中線 釜の橋バス停西側畑,36.331288,138.584514,
14-6,長野県,軽井沢町,長倉１６２９−１１,長倉地区児童館フェンス,36.332728,138.586598,
15-1,長野県,軽井沢町,発地１１５７−６,風越公園グラウンド前,36.321832,138.595770,
15-2,長野県,軽井沢町,長倉７８０−１,青樹荘有料駐車場 西150M,36.332896,138.599636,
15-3,長野県,軽井沢町,長倉５２７,塩沢十字路 青樹荘有料駐車場,36.332455,138.601000,
15-4,長野県,軽井沢町,長倉塩沢５３３,塩沢消防詰所手前 旭光学寮隣土手,36.331333,138.601822,
15-5,長野県,軽井沢町,長倉３８９−１,はしば荘前テニスコートフェンス,36.329569,138.603775,
16-1,長野県,軽井沢町,発地風越１１３０−２４８,風越団地 公園フェンス,36.323195,138.588795,
16-2,長野県,軽井沢町,発地風越１１５０−５,風越団地 13棟南東の角 フェンス,36.323096,138.588339,
16-3,長野県,軽井沢町,発地風越１１５０−１１,風越団地 北端 バス停隣,36.324110,138.589453,
16-4,長野県,軽井沢町,長倉９５７,JA佐久浅間 予冷庫 フェンス,36.326200,138.588150,
16-5,長野県,軽井沢町,長倉９７０−１７,杉瓜入口バス停横,36.329364,138.585665,
17-1,長野県,軽井沢町,発地２１１４,軽井沢ホタルの里 発地トイレ,36.312078,138.594264,
17-2,長野県,軽井沢町,発地２３００,下発地公民館ロータリー,36.313830,138.590900,
17-3,長野県,軽井沢町,発地下発地２５２７,下発地入口バス停東,36.315542,138.592211,
17-4,長野県,軽井沢町,発地２５６０−１,南保育園フェンス,36.317828,138.591553,
17-5,長野県,軽井沢町,発地２９２３−３,旧杉瓜公民館前畑,36.321983,138.574890,
17-6,長野県,軽井沢町,発地２２１３,下発地バス停横,36.313631,138.593371,
18-1,長野県,軽井沢町,発地上発地１５７７−３,上発地第2号橋南 ゴミ集積所横,36.299871,138.602885,
18-2,長野県,軽井沢町,発地１６４７,大聖寺入口防火水層横,36.302083,138.603769,
18-3,長野県,軽井沢町,発地１６９８−５,発地橋南東,36.305039,138.599778,
18-4,長野県,軽井沢町,発地１７５２,上発地公民館,36.302644,138.602230,
18-5,長野県,軽井沢町,発地上発地１６５８−１,佐藤商店向い 火の見櫓横,36.302546,138.602687,
19-1,長野県,軽井沢町,発地１１３,ペンションにいみ入口,36.304022,138.625296,
19-2,長野県,軽井沢町,発地３４２−５９,レイクニュータウン内事務所横,36.299539,138.621534,
19-3,長野県,軽井沢町,発地馬取５８８,馬取公民館前,36.299349,138.618285,
19-4,長野県,軽井沢町,発地８１２,馬取バス停横,36.298466,138.614605,
19-5,長野県,軽井沢町,発地８４８−２,馬取溜池北 喫茶ばおばぶ東,36.297876,138.612381,
20-1,長野県,軽井沢町,発地 南軽井沢１３９８−２３６,南軽井沢公民館入口,36.316349,138.631045,
20-2,長野県,軽井沢町,発地南軽井沢１３９８−８２,プリンスホテル事務所道向い ファミリーマート入口,36.313930,138.631229,
20-3,長野県,軽井沢町,発地１３９９−６０,(有)レッカーサービス110軽井沢基地前T字路 72ゴルフ隣,36.307773,138.631731,
20-4,長野県,軽井沢町,発地１３９８−２３４,ニトリクラブ十字路 東側電柱横,36.315426,138.628951,
20-5,長野県,軽井沢町,発地５−５,押立茶屋 北東道路沿い 町所有緑地,36.306284,138.627870,
21-1,長野県,軽井沢町,軽井沢１０６２−５６,民宿あおき入り口脇植込み,36.333321,138.631464,
21-2,長野県,軽井沢町,軽井沢１０６５−４５,デュピア軽井沢南西 十字路,36.332643,138.630055,
21-3,長野県,軽井沢町,長倉成沢１３−４４,旧成沢公民館敷地,36.326628,138.628753,
21-4,長野県,軽井沢町,軽井沢１０４９−２,プリンス南館通り変電施設前,36.327751,138.637288,
21-5,長野県,軽井沢町,軽井沢１０１９−１９７,成沢公民館敷地内,36.326954,138.638718,
22-1,長野県,軽井沢町,軽井沢１１３０,新ゴルフ通り 南ケ丘陸橋南250M,36.342112,138.621703,
22-2,長野県,軽井沢町,軽井沢南ケ丘１０５２−７６,南ヶ丘公民館北児童遊園 フェンス,36.335550,138.621080,
22-3,長野県,軽井沢町,軽井沢南ケ丘１０５２−８３０,新ゴルフ通り 歩道橋南脇,36.330117,138.621285,
22-4,長野県,軽井沢町,軽井沢１１４８−７１,町道離山裾南ヶ丘線,36.343352,138.614017,
22-5,長野県,軽井沢町,長倉南ケ丘３３０８,ゆうせん軽井沢クラブ前,36.333522,138.615049,
