prefecture,city,number,address,name,lat,long,note
福岡県,みやこ町,1-1,犀川本庄495番1,下高屋橋,33.6435526,130.9467058,緯度経度は怪しい
福岡県,みやこ町,1-2,犀川古川541,黒田一級設計事務所,33.6551033,130.9474269,緯度経度は怪しい
福岡県,みやこ町,1-3,犀川久富1816番地1,久富入口交差点,33.6586956,130.9555845,緯度経度は怪しい
福岡県,みやこ町,1-4,犀川続命院101番地,東犀川三四郎駅,33.659913,130.9497238,緯度経度は怪しい
福岡県,みやこ町,1-5,犀川本庄323-3,犀川駅前,33.6507831,130.9396039,緯度経度は怪しい
福岡県,みやこ町,1-6,犀川本庄641-1,みやこ犀川体育館,33.6484852,130.9430034,緯度経度は怪しい
福岡県,みやこ町,1-7,犀川本庄1115,桜台住宅入口,33.6448642,130.9404423,
福岡県,みやこ町,1-8,犀川喜多良2235,喜多良入口,33.6253942,130.9283449,緯度経度は怪しい
福岡県,みやこ町,1-9,犀川花熊619-1,花熊入口（行橋農機サービス）恩高寺,33.670159,130.950188,緯度経度は怪しい
福岡県,みやこ町,1-10,犀川木山740-1,木山ポンプ小屋,33.6621887,130.9379982,緯度経度は怪しい
福岡県,みやこ町,1-11,犀川谷口386-1,谷口集会場,33.6577205,130.9331647,
福岡県,みやこ町,1-12,犀川大坂1669,松坂入口（松坂橋）,33.6636319,130.9216246,緯度経度は怪しい
福岡県,みやこ町,1-13,犀川生立46,生立橋横,33.6538058,130.9372092,緯度経度は怪しい
福岡県,みやこ町,1-14,犀川上高屋1391-2,上高屋橋八幡神社前,33.6320419,130.9449773,緯度経度は怪しい
福岡県,みやこ町,1-15,犀川鐙畑508,鐙畑大山祇神社,33.5895832,130.9235739,
福岡県,みやこ町,1-16,犀川山鹿40番地1,犀川橋,33.6501966,130.92955,緯度経度は怪しい
福岡県,みやこ町,1-17,犀川大村84番地,上大村橋,33.6476991,130.9197165,緯度経度は怪しい
福岡県,みやこ町,1-18,犀川柳瀬340番地,柳瀬橋横,33.6411155,130.9205175,緯度経度は怪しい
福岡県,みやこ町,1-19,犀川大板591番地3,大坂入り口,33.699834,130.9191782,緯度経度は怪しい
福岡県,みやこ町,1-20,犀川崎山3079番地2,​崎山駅,33.62171319999999,130.9107094,
福岡県,みやこ町,1-21,犀川崎山338,上田酒店,33.62171319999999,130.9107094,
福岡県,みやこ町,2-22,犀川内垣622-1,内垣公民館前,33.6381885,130.9672926,
福岡県,みやこ町,2-23,犀川犬丸109,太陽交通犬丸バス停横,33.6344716,130.9688301,緯度経度は怪しい
福岡県,みやこ町,2-24,犀川木井馬場1110-1,下木井公民館,33.621478,130.963736,
福岡県,みやこ町,2-25,犀川横瀬194-6,富永工業（有）,33.6051777,130.9602204,緯度経度は怪しい
福岡県,みやこ町,3-26,犀川下伊良原1883-5,みやこ町役場伊良原出張所,33.5722376,130.946234,緯度経度は怪しい
福岡県,みやこ町,3-27,犀川下伊良原420,上伊良原公民館,33.5736286,130.9435412,緯度経度は怪しい
福岡県,みやこ町,3-28,犀川帆柱95,帆柱地区集会所　悠々学舎,33.5290617,130.9506089,緯度経度は怪しい
福岡県,みやこ町,4-29,勝山矢山513-1,矢山公民館,33.71745970000001,130.8889496,
福岡県,みやこ町,4-30,勝山岩熊554,諫山小学校,33.7100219,130.8901071,
福岡県,みやこ町,4-31,勝山池田347番地,池田入口,33.7128866,130.9031932,緯度経度は怪しい
福岡県,みやこ町,4-32,勝山浦河内747-1,下河内公民館前,33.7107958,130.8835654,緯度経度は怪しい
福岡県,みやこ町,4-33,勝山長川325,長川橋,33.7040506,130.9029819,緯度経度は怪しい
福岡県,みやこ町,5-34,勝山松田2454,小松レンタル西日本行橋点,33.6833249,130.8956319,緯度経度は怪しい
福岡県,みやこ町,5-35,勝山松田185-1,勝山町消防団第２分団第4部格納庫,33.6909946,130.8954421,緯度経度は怪しい
福岡県,みやこ町,5-36,勝山箕田295-5,三島団地3,33.6943781,130.9061996,緯度経度は怪しい
福岡県,みやこ町,5-37,勝山大久保2192-8,新町入口,33.6914178,130.9085233,緯度経度は怪しい
福岡県,みやこ町,5-38,勝山大久保2178,久保地区学習等供用施設,33.690021,130.9103238,緯度経度は怪しい
福岡県,みやこ町,5-39,勝山大久保1871-2,萬福寺入口,33.6886002,130.9175575,緯度経度は怪しい
福岡県,みやこ町,5-40,勝山大久保3190,masked,33.6884175,130.9251607,緯度経度は怪しい
福岡県,みやこ町,5-41,勝山大久保3811-1,平尾消防ポンプ格納庫横,33.6826282,130.9231298,緯度経度は怪しい
福岡県,みやこ町,5-42,勝山松田3244,masked,33.6744417,130.9019644,緯度経度は怪しい
福岡県,みやこ町,6-43,勝山箕田1109-1,箕田橋横,33.6997301,130.9101282,緯度経度は怪しい
福岡県,みやこ町,6-44,勝山上田189,masked,33.6937541,130.9192743,緯度経度は怪しい
福岡県,みやこ町,6-45,勝山黒田1341-1,上黒田集会所,33.7038198,130.9311723,緯度経度は怪しい
福岡県,みやこ町,6-46,勝山上田960,みやこ町役場前,33.6992738,130.9203136,緯度経度は怪しい
福岡県,みやこ町,6-47,勝山黒田2451-1,黒田神社前,33.7106935,130.9217883,緯度経度は怪しい
福岡県,みやこ町,6-48,勝山黒田1691-1,小長田団地入口,33.71440340000001,130.9305552,緯度経度は怪しい
福岡県,みやこ町,7-49,節丸1217-1,太陽交通節丸バス停前,33.6474229,130.9757939,
福岡県,みやこ町,7-50,光冨425-2,太陽交通光冨バス停（光冨橋）,33.6571328,130.9770589,
福岡県,みやこ町,7-51,光冨1086-6,光冨団地入口,33.6553595,130.9750925,緯度経度は怪しい
福岡県,みやこ町,7-52,上原1146-2,布引公民館（集会所）,33.663292,130.9801395,
福岡県,みやこ町,7-53,上原828,上原公民館（集会所）,33.6653462,130.9860479,
福岡県,みやこ町,7-54,吉岡353-1,吉岡公民館,33.6646578,130.9908412,
福岡県,みやこ町,7-55,豊津1109,太陽交通富津支所バス停（みやこ町役場富津支所）,33.6718796,130.9737852,
福岡県,みやこ町,7-55,豊津378-1,錦町交差点,33.6836427,130.9710115,
福岡県,みやこ町,7-57,富津1319-4,内山自動車整備工場,33.6682388,130.9666247,緯度経度は怪しい
福岡県,みやこ町,7-58,国分507,国分公民館前,33.6780089,130.9791514,緯度経度は怪しい
福岡県,みやこ町,7-59,国分231,JA福岡京筑豊津支所,33.6825639,130.9825108,緯度経度は怪しい
福岡県,みやこ町,8-60,綾野711,みやこ町第11分団第5部消防格納庫,33.6711884,130.9904798,
福岡県,みやこ町,8-61,下原594-3,masked,33.699834,130.9191782,緯度経度は怪しい
福岡県,みやこ町,8-62,呰見1734-1,祓郷郵便局前,33.6810089,130.9963314,
福岡県,みやこ町,8-63,呰見1597-1,呰見地区学習等供用施設,33.67961349999999,131.0023308,
福岡県,みやこ町,8-63,徳永2112,奥村商店前,33.689563,130.9987275,
福岡県,みやこ町,8-65,田中388,ホームセンターナフコ豊津店,33.6862458,130.9952237,
福岡県,みやこ町,8-66,国作488-1,国作地区集会所前,33.6882146,130.9852837,緯度経度は怪しい
福岡県,みやこ町,8-67,徳政269-9,古民具まる箸付近,33.6824908,130.9884213,
