prefecture,city,number,address,name,lat,long,note
福岡県,北九州市,第1投票区-1,八幡東区松尾町9番1号,槻田小学校体育館入口横 金網,33.8627993,130.8411408,
福岡県,北九州市,第1投票区-2,八幡東区山路松尾町6番,エステート駐車場 フェンス,33.8588417,130.8429341,
福岡県,北九州市,第1投票区-3,八幡東区松尾町19番,槻田市民センター横駐車場 金網,33.8634291,130.8436454,
福岡県,北九州市,第1投票区-4,八幡東区松尾町9番,松尾町公園西側 植込み,33.8624269,130.840879,
福岡県,北九州市,第1投票区-5,八幡東区松尾町3番1号,成重商店横 金水橋 欄干,33.8640412,130.8419559,
福岡県,北九州市,第1投票区-6,八幡東区清田二丁目1番14号,masked,33.8621792,130.8378018,
福岡県,北九州市,第1投票区-7,八幡東区松尾町9番1号,槻田小学校南側 金網,33.8627993,130.8411408,
福岡県,北九州市,第1投票区-8,八幡東区石坪町14番,槻田あおぞら通り 植込み,33.864074,130.8398514,
福岡県,北九州市,第1投票区-9,八幡東区清田二丁目15番,清田三丁目公園前 歩道柵,33.8601441,130.8404047,
福岡県,北九州市,第2投票区-1,八幡東区高見四丁目1番,高見小学校門横 フェンス,33.8691356,130.8375591,
福岡県,北九州市,第2投票区-2,八幡東区高見三丁目2番,高見三丁目公園 金網,33.8685665,130.8353458,
福岡県,北九州市,第2投票区-3,八幡東区昭和一丁目3番26号,八幡東消防団第7分団槻田車庫 フェンス,33.8657935,130.8384385,
福岡県,北九州市,第2投票区-4,八幡東区昭和一丁目9番,昭和一丁目公園 フェンス,33.8668309,130.840958,
福岡県,北九州市,第2投票区-5,八幡東区昭和二丁目6番,岩渕橋バス停横 ガードフェンス,33.8688573,130.8426179,
福岡県,北九州市,第2投票区-6,八幡東区川淵町12番,川淵町公園 金網,33.8697394,130.840958,
福岡県,北九州市,第2投票区-7,八幡東区八王寺町5番,八王寺橋欄干,33.8712598,130.8438825,
福岡県,北九州市,第3投票区-1,八幡東区荒生田二丁目3番,七条バス停横 ガードフェンス,33.8666568,130.8350296,
福岡県,北九州市,第3投票区-2,八幡東区荒生田一丁目2番,荒生田一丁目西公園,33.8649886,130.8301427,
福岡県,北九州市,第3投票区-3,八幡東区荒生田一丁目6番,荒生田一丁目東公園 ガードレール,33.8653414,130.8325,
福岡県,北九州市,第3投票区-4,八幡東区高見二丁目8番20号,高見市民センター北側 植込み,33.8674433,130.8344343,
福岡県,北九州市,第3投票区-5,八幡東区高見二丁目3番,高見中央公園南側 歩道柵,33.8657742,130.8294168,
福岡県,北九州市,第3投票区-6,八幡東区高見二丁目11番,県道曽根鞘ヶ谷線 ガードフェンス,33.86895519999999,130.8327371,
福岡県,北九州市,第3投票区-7,八幡東区荒生田一丁目1番,荒生田バス停 ガードフェンス,33.8653569,130.829733,
福岡県,北九州市,第4投票区-1,八幡東区宮の町二丁目3番,宮の町公園入口 植込み,33.8616359,130.8337648,
福岡県,北九州市,第4投票区-2,八幡東区宮の町二丁目3番,宮の町公園南東角 植込み,33.8616359,130.8337648,
福岡県,北九州市,第4投票区-3,八幡東区清田一丁目14番,中畑橋欄干,33.8573928,130.8345553,
福岡県,北九州市,第4投票区-4,八幡東区東鉄町9番25号,masked,33.8653393,130.8356422,
福岡県,北九州市,第4投票区-5,八幡東区東鉄町1番4号,masked,33.8633087,130.8330121,
福岡県,北九州市,第5投票区-1,八幡東区宮の町一丁目5番1号,槻田中学校東側 金網,33.8615353,130.832243,
福岡県,北九州市,第5投票区-2,八幡東区宮の町一丁目5番1号,槻田中学校西側 ガードフェンス,33.8615353,130.832243,
福岡県,北九州市,第5投票区-3,八幡東区清田一丁目1番,清田橋欄干,33.8583759,130.8333695,
福岡県,北九州市,第5投票区-4,八幡東区祝町二丁目12番,三条交差点北側 ガードフェンス,33.8648716,130.8283868,
福岡県,北九州市,第5投票区-5,八幡東区中尾一丁目23番,中尾一丁目東公園 金網,33.8597004,130.8306026,
福岡県,北九州市,第5投票区-6,八幡東区中尾一丁目24番1号,大原学園4号館東側 金網,33.8610149,130.8307795,
福岡県,北九州市,第5投票区-7,八幡東区中尾一丁目19番32号,masked,33.8592303,130.8288599,
福岡県,北九州市,第5投票区-8,八幡東区中尾二丁目6番,駐車場横 ガードレール,33.8571172,130.8317885,
福岡県,北九州市,第6投票区-1,八幡東区中畑二丁目5番1号,高槻小学校東側 金網,33.8550151,130.8302815,
福岡県,北九州市,第6投票区-2,八幡東区中畑一丁目8番,中畑公園道路側 金網,33.8563617,130.8331324,
福岡県,北九州市,第6投票区-3,八幡東区中畑一丁目8番,中畑公園川側 金網,33.8563617,130.8331324,
福岡県,北九州市,第6投票区-4,八幡東区大平町2番7号付近,睦橋欄干,33.853827,130.8283297,
福岡県,北九州市,第6投票区-5,八幡東区中畑二丁目5番,高槻小学校バス停横 ガードレール,33.8550458,130.8306026,
福岡県,北九州市,第6投票区-6,八幡東区大字小熊野(猪倉町3番東側),猪倉公園 ガードフェンス,33.8496848,130.8233053,手作業で修正
福岡県,北九州市,第6投票区-7,八幡東区中尾三丁目15番,猪倉バス停前 大平町公園 金網,33.851645,130.8254638,
福岡県,北九州市,第7投票区-1,八幡東区大蔵一丁目4番1号,大蔵中学校正門横 ガードレール,33.8657971,130.8227091,
福岡県,北九州市,第7投票区-2,八幡東区大蔵一丁目13番8号,masked,33.8642707,130.8223308,
福岡県,北九州市,第7投票区-3,八幡東区大蔵一丁目1番,大蔵バス停裏 金網,33.8639483,130.8214314,
福岡県,北九州市,第7投票区-4,八幡東区大蔵一丁目1番,大蔵一丁目公園 金網,33.8639483,130.8214314,
福岡県,北九州市,第7投票区-5,八幡東区山王三丁目7番15号,masked,33.8667468,130.8211175,
福岡県,北九州市,第7投票区-6,八幡東区山王三丁目9番14号,荒木洋品店横 ガードレール,33.8674266,130.822152,
福岡県,北九州市,第8投票区-1,八幡東区大蔵二丁目4番,大蔵公園南東側 金網,33.862908,130.8216686,
福岡県,北九州市,第8投票区-2,八幡東区大蔵二丁目1番,大蔵市民センター正面 金網,33.8633556,130.8219207,
福岡県,北九州市,第8投票区-3,八幡東区大蔵二丁目1番,大蔵市民センター南側 金網,33.8633556,130.8219207,
福岡県,北九州市,第8投票区-4,八幡東区大蔵二丁目7番,神田橋バス停横 ガードフェンス,33.8620764,130.8217477,
福岡県,北九州市,第8投票区-5,八幡東区末広町9番,masked,33.86270440000001,130.8170825,
福岡県,北九州市,第8投票区-6,八幡東区祝町一丁目13番1号,祝町一丁目西公園 金網,33.8623594,130.8227582,
福岡県,北九州市,第8投票区-7,八幡東区祝町一丁目24番,祝町一丁目東公園 植込み,33.8611702,130.8278356,
福岡県,北九州市,第8投票区-8,八幡東区羽衣町1番,羽衣町北公園 ガードフェンス,33.8604954,130.822064,
福岡県,北九州市,第9投票区-1,八幡東区勝山一丁目1番1号,大蔵小学校体育館横 フェンス,33.8581194,130.8201519,
福岡県,北九州市,第9投票区-2,八幡東区勝山一丁目1番1号,大蔵小学校正門横 金網,33.8581194,130.8201519,
福岡県,北九州市,第9投票区-3,八幡東区勝山一丁目4番,勝山一丁目公園 金網,33.8568797,130.8181895,
福岡県,北九州市,第9投票区-4,八幡東区勝山一丁目11番,勝山北団地北側出入口 植込み,33.8549533,130.8170034,
福岡県,北九州市,第9投票区-5,八幡東区勝山一丁目11番,勝山北団地内公園横 金網,33.8549533,130.8170034,
福岡県,北九州市,第9投票区-6,八幡東区勝山一丁目8番5号,masked,33.8571746,130.8195083,
福岡県,北九州市,第9投票区-7,八幡東区大蔵三丁目12番,勝山バス停横 ガードレール,33.8554588,130.8157382,
福岡県,北九州市,第10投票区-1,八幡東区河内一丁目1番,東河内バス停横 植込み,33.8375073,130.8064064,
福岡県,北九州市,第10投票区-2,八幡東区河内一丁目7番2号,河内小学校グランド西側 金網,33.8302473,130.7997477,
福岡県,北九州市,第10投票区-3,八幡東区河内一丁目6番,河内小学校前バス停横 ガードレール,33.8308902,130.7992879,
福岡県,北九州市,第10投票区-4,八幡東区田代町2番,田代入口バス停横 ガードレール,33.8119688,130.7992879,
福岡県,北九州市,第11投票区-1,八幡東区枝光四丁目12番1号,枝光小学校東門横 フェンス,33.88222,130.8181796,
福岡県,北九州市,第11投票区-2,八幡東区枝光五丁目4番,枝光小学校南門前公園 歩道柵,33.8806712,130.8183477,
福岡県,北九州市,第11投票区-3,八幡東区大宮町18番1号,旧大場谷小学校西側 金網,33.8783546,130.8212694,
福岡県,北九州市,第11投票区-4,八幡東区枝光五丁目8番,枝光台中学校入口 ガードレール,33.8824071,130.8200082,
福岡県,北九州市,第11投票区-5,八幡東区荒手二丁目6番37号,masked,33.8851317,130.8201651,
福岡県,北九州市,第11投票区-6,八幡東区荒手一丁目4番,荒手一丁目公園 金網,33.8846643,130.817636,
福岡県,北九州市,第11投票区-7,八幡東区枝光三丁目12番,枝光三丁目公園 金網,33.879555,130.8173197,
福岡県,北九州市,第11投票区-8,八幡東区宮田町19番29号,駐車場横 ガードレール,33.8779018,130.8178109,
福岡県,北九州市,第12投票区-1,八幡東区枝光二丁目8番5号,枝光北市民センター 植込み,33.88113690000001,130.8121128,
福岡県,北九州市,第12投票区-2,八幡東区東田四丁目1番,夢二通り 植込み,33.8726606,130.8110499,
福岡県,北九州市,第12投票区-3,八幡東区枝光四丁目3番,枝光四丁目西公園 コンクリート柵,33.8827671,130.8151056,
福岡県,北九州市,第12投票区-4,八幡東区宮田町10番,鉱滓線下 空地,33.8786094,130.815501,
福岡県,北九州市,第12投票区-5,八幡東区枝光四丁目16番,エメラルドタウン枝光E棟前 ガードフェンス,33.8832604,130.8160545,
福岡県,北九州市,第12投票区-6,八幡東区宮田町6番,宮田町公園 金網,33.8776293,130.8161336,
福岡県,北九州市,第13投票区-1,八幡東区諏訪二丁目7番1号,ひびきが丘小学校入口 フェンス,33.8720875,130.8225384,
福岡県,北九州市,第13投票区-2,八幡東区諏訪二丁目7番1号,ひびきが丘小学校北側 ガードレール,33.8720875,130.8225384,
福岡県,北九州市,第13投票区-3,八幡東区日の出三丁目4番,補助信号機横 金網,33.8742851,130.8234081,
福岡県,北九州市,第13投票区-4,八幡東区日の出二丁目10番17号,日の出第一集会所前 金網,33.8763931,130.8226372,
福岡県,北九州市,第13投票区-5,八幡東区日の出二丁目8番,日の出二丁目公園 金網,33.8758027,130.82325,
福岡県,北九州市,第13投票区-6,八幡東区日の出三丁目8番,日の出南団地1棟前 植込み,33.8724986,130.823329,
福岡県,北九州市,第13投票区-7,八幡東区山王三丁目20番,山王三丁目西公園前 金網,33.8686912,130.8204826,
福岡県,北九州市,第14投票区-1,八幡東区日の出一丁目5番11号,枝光市民センター 植込み,33.8740454,130.8180939,
福岡県,北九州市,第14投票区-2,八幡東区日の出一丁目14番,枝光公園西側階段横 植込み,33.8758557,130.8174778,
福岡県,北九州市,第14投票区-3,八幡東区日の出一丁目17番,日の出一丁目西公園横 ガードレール,33.8758022,130.8196128,
福岡県,北九州市,第14投票区-4,八幡東区諏訪一丁目3番20号,美容室サロンドダム前 植込み,33.8726759,130.8168374,
福岡県,北九州市,第14投票区-5,八幡東区諏訪一丁目1番,諏訪一丁目公園 植込み,33.8716026,130.8162917,
福岡県,北九州市,第14投票区-6,八幡東区山王二丁目6番3号,山王団地前 金網,33.8695135,130.817379,
福岡県,北九州市,第14投票区-7,八幡東区枝光本町1番,枝光本町1番ポスト横ガードレール,33.8711091,130.8153428,
福岡県,北九州市,第15投票区-1,八幡東区中央三丁目9番1号,八幡小学校体育館横 金網,33.8661813,130.8128287,
福岡県,北九州市,第15投票区-2,八幡東区中央三丁目6番15号,リヴィエールクリエ中央町前 植込み,33.8657605,130.8120487,
福岡県,北九州市,第15投票区-3,八幡東区中央三丁目9番,高炉台公園東側 植込み,33.8665587,130.8152637,
福岡県,北九州市,第15投票区-4,八幡東区山王一丁目10番,(株)ジョブパートナー駐車場 金網,33.8686112,130.8161336,
福岡県,北九州市,第15投票区-5,八幡東区山王一丁目17番5号,山王バス停 ガードレール,33.8700608,130.8151451,
福岡県,北九州市,第15投票区-6,八幡東区上本町二丁目3番13号,上本町団地東側広場 植込み,33.8683175,130.8175149,
福岡県,北九州市,第15投票区-7,八幡東区東田二丁目1番,東田バス停横公園 植込み,33.8673351,130.8100444,
福岡県,北九州市,第15投票区-8,八幡東区上本町一丁目5番,masked,33.8659588,130.8185849,
福岡県,北九州市,第16投票区-1,八幡東区西丸山町1番,八幡東区役所入口前 植込み,33.8631737,130.8109934,
福岡県,北九州市,第16投票区-2,八幡東区中央一丁目1番1号,八幡東区役所東側 ガードフェンス,33.8638829,130.8118848,
福岡県,北九州市,第16投票区-3,八幡東区中央二丁目1番1号,レインボープラザ東側 フェンス,33.8638974,130.8107614,
福岡県,北九州市,第16投票区-4,八幡東区中央二丁目5番,中央二丁目公園 植込み,33.863641,130.8090954,
福岡県,北九州市,第16投票区-5,八幡東区春の町一丁目1番1号,製鉄記念八幡病院 西側バス停前植込み,33.8656252,130.8070391,
福岡県,北九州市,第16投票区-6,八幡東区西丸山町6番,西丸山町東公園,33.8615544,130.8106771,
福岡県,北九州市,第16投票区-7,八幡東区中央一丁目11番,第2尾倉団地南側 ガードレール,33.8630354,130.813524,
福岡県,北九州市,第16投票区-8,八幡東区西丸山町9番50号,masked,33.8616999,130.8087838,
福岡県,北九州市,第17投票区-1,八幡東区天神町4番,ガーデンヴィレッジ天神 鉄柵,33.8603875,130.8034009,
福岡県,北九州市,第17投票区-2,八幡東区大谷一丁目3番,天神町団地集会所横 金網,33.8633237,130.8062482,
福岡県,北九州市,第17投票区-3,八幡東区春の町二丁目9番,消防用貯水槽 金網,33.8643729,130.80435,
福岡県,北九州市,第17投票区-4,八幡東区天神町3番,皿倉団地13棟南西側 ガードフェンス,33.8608813,130.80435,
福岡県,北九州市,第17投票区-5,八幡東区春の町一丁目5番,春の町一丁目公園南側 植込み,33.8645757,130.8052991,
福岡県,北九州市,第17投票区-6,八幡東区春の町一丁目5番,春の町一丁目公園西側 植込み,33.8645757,130.8052991,
福岡県,北九州市,第17投票区-7,八幡東区大谷一丁目3番,大谷球場前バス停横 スロープフェンス,33.8633237,130.8062482,
福岡県,北九州市,第18投票区-1,八幡東区尾倉一丁目15番2号,尾倉市民センター入口 金網,33.86329449999999,130.8007718,
福岡県,北九州市,第18投票区-2,八幡東区尾倉一丁目15番1号,皿倉小学校バス停横 鉄柵,33.86272690000001,130.8011863,
福岡県,北九州市,第18投票区-3,八幡東区尾倉一丁目6番,尾倉一丁目公園,33.8645197,130.800158,
福岡県,北九州市,第18投票区-4,八幡東区春の町四丁目3番8号,春の町保育園 駐車場フェンス,33.8666625,130.8011725,
福岡県,北九州市,第18投票区-5,八幡東区帆柱一丁目11番,帆柱一丁目西公園 金網,33.8601665,130.7979432,
福岡県,北九州市,第18投票区-6,八幡東区天神町6番,天神町公園 金網,33.862968,130.8027682,
福岡県,北九州市,第18投票区-7,八幡東区帆柱一丁目7番22号,masked,33.8604624,130.8005041,
福岡県,北九州市,第18投票区-8,八幡東区春の町三丁目8番,masked,33.8642362,130.8026891,
福岡県,北九州市,第19投票区-1,八幡東区尾倉三丁目10番1号,尾倉中学校北門 金網,33.8619414,130.7961288,
福岡県,北九州市,第19投票区-2,八幡東区尾倉三丁目10番,尾倉公園南側角(洞見橋付近) 植込み,33.8625911,130.7953328,
福岡県,北九州市,第19投票区-3,八幡東区尾倉三丁目5番,尾倉三丁目公園前 ガードレール,33.8632439,130.7977059,
福岡県,北九州市,第19投票区-4,八幡東区尾倉三丁目2番,帆柱二丁目バス停横 ガードフェンス,33.8624092,130.7983387,
福岡県,北九州市,第19投票区-5,八幡東区東台良町1番,洞見側道橋 欄干,33.8612682,130.7939089,
福岡県,北九州市,第19投票区-6,八幡東区帆柱三丁目2番,帆柱登山口バス停横 ガードフェンス,33.8595108,130.7961239,
福岡県,北九州市,第20投票区-1,八幡東区尾倉二丁目8番,小伊藤山公園前 ガードフェンス,33.8661653,130.795491,
福岡県,北九州市,第20投票区-2,八幡東区西本町四丁目1番,交叉点中央分離帯 植込み,33.8668354,130.7945418,
福岡県,北九州市,第20投票区-3,八幡東区西本町四丁目18番1号,旧市立八幡病院駐車場 フェンス,33.8650129,130.7932735,
福岡県,北九州市,第20投票区-4,八幡東区平野二丁目11番,スピナ正面前 植込み,33.8641513,130.791061,
福岡県,北九州市,第20投票区-5,八幡東区西本町二丁目7番,西本町二丁目公園西側 植込み,33.8678451,130.796203,
福岡県,北九州市,第20投票区-6,八幡東区平野二丁目9番,九州国際大学グランド西側 フェンス,33.8619113,130.7901117,
福岡県,北九州市,第20投票区-7,八幡東区西本町四丁目11番,西本町四丁目公園東側 金網,33.8661606,130.7924059,
福岡県,北九州市,第20投票区-8,八幡東区尾倉二丁目6番,八幡東生涯学習センター尾倉分館横 ガードフェンス,33.8646663,130.7959657,
福岡県,北九州市,第21投票区-1,八幡東区祇園一丁目6番2号,祇園団地駐車場塀,33.864872,130.7898488,
福岡県,北九州市,第21投票区-2,八幡東区前田三丁目,前田三丁目北公園 植込み,33.8680447,130.7881589,
福岡県,北九州市,第21投票区-3,八幡東区前田二丁目7番,前田二丁目公園 金網,33.8669187,130.7905072,
福岡県,北九州市,第21投票区-4,八幡東区前田一丁目2番,前田一丁目公園 植込み,33.8685928,130.7923268,
福岡県,北九州市,第21投票区-5,八幡東区前田三丁目6番,前田三丁目南公園 植込み,33.8672076,130.786868,
福岡県,北九州市,第21投票区-6,八幡東区祇園一丁目5番,祇園一丁目公園東側 植込み,33.8651237,130.7878965,
福岡県,北九州市,第21投票区-7,八幡東区桃園一丁目3番,桃園一丁目さくら公園 フェンス,33.86521740000001,130.7858395,
福岡県,北九州市,第21投票区-8,八幡東区祇園一丁目5番1号,前田市民センター西側 フェンス,33.8654906,130.7879759,
福岡県,北九州市,第22投票区-1,八幡東区桃園四丁目1番1号,平野市民センター前 植込み,33.8623358,130.7862147,
福岡県,北九州市,第22投票区-2,八幡東区桃園三丁目1番,桃園公園南側 歩道柵,33.8650752,130.7810922,
福岡県,北九州市,第22投票区-3,八幡東区桃園二丁目6番,ロイヤルシャトー桃園前 中央分離帯,33.8667661,130.7837824,
福岡県,北九州市,第22投票区-4,八幡東区祇園三丁目9番,祇園三丁目公園 金網,33.8610276,130.7881339,
福岡県,北九州市,第22投票区-5,八幡東区平野三丁目4番,九州国際大学大駐車場西側 ガードレール,33.8603739,130.7899535,
福岡県,北九州市,第22投票区-6,八幡東区祇園原町11番,祇園原町公園 金網,33.8588477,130.7875801,
福岡県,北九州市,第22投票区-7,八幡東区花尾町1番,龍尾橋横 ガードレール,33.8553334,130.7878174,
福岡県,北九州市,第22投票区-8,八幡東区西台良町5番,西台良町東公園前 金網,33.856673,130.7901117,
福岡県,北九州市,第23投票区-1,八幡東区山路二丁目3番10号,masked,33.8532258,130.8346754,
福岡県,北九州市,第23投票区-2,八幡東区山路二丁目8番,金山橋 歩道柵,33.8548912,130.8322628,
福岡県,北九州市,第23投票区-3,八幡東区山路二丁目6番,ガードフェンス,33.8546163,130.8331324,
福岡県,北九州市,第23投票区-4,八幡東区山路一丁目15番,山路一丁目公園西側 ガードフェンス,33.8538835,130.8378753,
福岡県,北九州市,第23投票区-5,八幡東区山路一丁目14番,山路橋横 ガードレール,33.8547942,130.8385077,
福岡県,北九州市,第23投票区-6,八幡東区山路一丁目9番,駐車場横 ガードレール,33.8558941,130.8350296,
福岡県,北九州市,第24投票区-1,八幡東区勝山二丁目7番5号,日本ウェルネススポーツ専門学校北九州校横 ガードフェンス,33.8516563,130.8150215,
福岡県,北九州市,第24投票区-2,八幡東区勝山二丁目1番,勝山二丁目公園 植込み,33.8540422,130.8163708,
福岡県,北九州市,第24投票区-3,八幡東区景勝町1番,景勝町公園前 空地(都市高速下),33.8538395,130.8154219,
福岡県,北九州市,第24投票区-4,八幡東区景勝町9番,景勝園バス停横金網,33.8532429,130.8142753,
福岡県,北九州市,第24投票区-5,八幡東区豊町12番,重田バス停横 ガードレール,33.8468179,130.8147893,
福岡県,北九州市,第24投票区-6,八幡東区豊町8番,豊町バス停近く フェンス,33.8494147,130.8150265,
福岡県,北九州市,第25投票区-1,八幡東区茶屋町10番,茶屋町公園南西角鉄柵,33.8664419,130.8435664,
福岡県,北九州市,第25投票区-2,八幡東区茶屋町10番,小山田橋横 欄干,33.8664419,130.8435664,
福岡県,北九州市,第25投票区-3,八幡東区茶屋町4番,茶屋川橋 欄干,33.8682628,130.844831,
福岡県,北九州市,第25投票区-4,八幡東区槻田一丁目4番,階段横 金網,33.8635714,130.8441987,
福岡県,北九州市,第25投票区-5,八幡東区槻田二丁目10番,小山田団地 鉄柵,33.867286,130.84491,
福岡県,北九州市,第1投票区-1,八幡西区元城町1番1号,八幡中央高校正門横フェンス,33.8549876,130.7852659,
福岡県,北九州市,第1投票区-2,八幡西区元城町2番,元城東公園東側フェンス,33.856495,130.784178,
福岡県,北九州市,第1投票区-3,八幡西区元城町1番1号,八幡中央高校 南門横フェンス,33.8549876,130.7852659,
福岡県,北九州市,第1投票区-4,八幡西区元城町8番,元城月極駐車場南側フェンス,33.8547186,130.7818835,
福岡県,北九州市,第1投票区-5,八幡西区東川頭町6番,東川頭中公園 西側フェンス,33.8583648,130.7844154,
福岡県,北九州市,第2投票区-1,八幡西区平尾町1番1号,仰星学園高等学校 体育館入口フェンス,33.8595054,130.7788608,
福岡県,北九州市,第2投票区-2,八幡西区平尾町5番,市営平尾団地 集会室前フェンス,33.8584857,130.7768194,
福岡県,北九州市,第2投票区-3,八幡西区清納二丁目6番,清納公園 南東フェンス,33.8616763,130.779035,
福岡県,北九州市,第2投票区-4,八幡西区清納二丁目6番,清納公園 北西フェンス,33.8616763,130.779035,
福岡県,北九州市,第2投票区-5,八幡西区清納二丁目9番,市営清納団地 1棟前公園フェンス,33.8602523,130.7790251,
福岡県,北九州市,第2投票区-6,八幡西区清納一丁目7番,市営清納団地 24号棟前フェンス,33.8607921,130.7812505,
福岡県,北九州市,第2投票区-7,八幡西区清納二丁目6番27号,市営清納団地 集会室前フェンス,33.861025,130.7802988,
福岡県,北九州市,第3投票区-1,八幡西区八幡東区桃園三丁目1番1号,陣山市民センター,33.8665603,130.7797004,
福岡県,北九州市,第3投票区-2,八幡西区陣山三丁目7番,北九州市立高等学校グラウンド 北門横斜面,33.8639222,130.7788767,
福岡県,北九州市,第3投票区-3,八幡西区紅梅二丁目9番,公団紅梅団地 16号前フェンス,33.8632304,130.7758698,
福岡県,北九州市,第3投票区-4,八幡西区陣山三丁目1番39号,中嶋自動車修理工場 北側フェンス,33.8651161,130.7794867,
福岡県,北九州市,第3投票区-5,八幡西区陣山三丁目4番20号,黒木工業所 ブロック塀,33.8651457,130.7775701,
福岡県,北九州市,第3投票区-6,八幡西区紅梅三丁目2番,公団紅梅団地 24棟前フェンス,33.8620662,130.7758698,
福岡県,北九州市,第3投票区-7,八幡西区紅梅二丁目7番17号,紅梅2号公園 西側フェンス,33.8637261,130.7765455,
福岡県,北九州市,第4投票区-1,八幡西区田町二丁目7番,黒崎第9区区民の家 ちびっ子広場,33.8685681,130.7727045,
福岡県,北九州市,第4投票区-2,八幡西区東浜町8番,東浜公園 北側フェンス,33.8699542,130.7781646,
福岡県,北九州市,第4投票区-3,八幡西区舟町6番10号,藤田ポンプ場 入口横フェンス,33.8708279,130.7710467,
福岡県,北九州市,第4投票区-4,八幡西区屋敷二丁目14番,城山球場 北側フェンス,33.8744159,130.7755533,
福岡県,北九州市,第4投票区-5,八幡西区屋敷二丁目2番,城山緑地内テニスコート 駐車場入口横,33.8719998,130.7765029,
福岡県,北九州市,第5投票区-1,八幡西区藤田四丁目3番,長浦公園 入口植込み,33.8639223,130.7704886,
福岡県,北九州市,第5投票区-2,八幡西区八千代町9番,佐山の尾公園 東側フェンス,33.8632799,130.7742872,
福岡県,北九州市,第5投票区-3,八幡西区岡田町8番,市営岡田球場 南側フェンス,33.8601985,130.7666898,
福岡県,北九州市,第5投票区-4,八幡西区藤田一丁目7番,石畑公園 入口横,33.8664814,130.7742872,
福岡県,北九州市,第5投票区-5,八幡西区黒崎一丁目4番18号,福岡ひびき信用金庫黒崎支店 東側駐車場フェンス,33.865982,130.7677069,
福岡県,北九州市,第5投票区-6,八幡西区黒崎四丁目7番,蛎原公園北側フェンス,33.8649323,130.7637614,
福岡県,北九州市,第5投票区-7,八幡西区黒崎三丁目1番,JR黒崎駅 ペデストリアンデッキ下,33.8657948,130.7659775,
福岡県,北九州市,第6投票区-1,八幡西区東鳴水一丁目1番1号,鳴水小学校 正門横フェンス,33.8595539,130.7708044,
福岡県,北九州市,第6投票区-2,八幡西区東鳴水一丁目1番1号,鳴水小学校 東門横フェンス,33.8595539,130.7708044,
福岡県,北九州市,第6投票区-3,八幡西区東鳴水一丁目4番,岩田公園 入口階段横(公衆電話付近),33.8591281,130.773021,
福岡県,北九州市,第6投票区-4,八幡西区南八千代町2番2号,市営八千代団地 2棟前 フェンス,33.8618058,130.7730366,
福岡県,北九州市,第6投票区-5,八幡西区南八千代町7番17号,黒崎保育所 南側フェンス,33.8611186,130.773182,
福岡県,北九州市,第6投票区-6,八幡西区東鳴水二丁目4番16号,鳴水市民センター 南側フェンス,33.8579995,130.7683485,
福岡県,北九州市,第6投票区-7,八幡西区東鳴水一丁目1番1号,鳴水小学校 グラウンド南側フェンス,33.8595539,130.7708044,
福岡県,北九州市,第7投票区-1,八幡西区西鳴水一丁目1番1号,黒崎中学校 正門横フェンス,33.8540038,130.767511,
福岡県,北九州市,第7投票区-2,八幡西区西鳴水一丁目3番,西鳴水公園 東側フェンス,33.8545443,130.7664524,
福岡県,北九州市,第7投票区-3,八幡西区西鳴水二丁目7番18号,コーポ西鳴水 西側フェンス,33.853267,130.7662641,
福岡県,北九州市,第7投票区-4,八幡西区西鳴水二丁目9番19号,マンション大畑 西側ブロック塀,33.8515778,130.7671845,
福岡県,北九州市,第7投票区-5,八幡西区岸の浦一丁目13番,幸神一交差点 東側歩道フェンス,33.8555079,130.7649486,
福岡県,北九州市,第7投票区-6,八幡西区岸の浦一丁目5番,サンパーク黒崎中央レジデンス 前歩道フェンス,33.8584627,130.7644738,
福岡県,北九州市,第7投票区-7,八幡西区東鳴水五丁目3番,鳴水公園 北西側フェンス,33.8542677,130.7720714,
福岡県,北九州市,第8投票区-1,八幡西区山寺町6番30号,筒井市民センター 入口横フェンス,33.8619821,130.7589339,
福岡県,北九州市,第8投票区-2,八幡西区筒井町3番1号,筒井小学校 西門横フェンス,33.8647485,130.7595535,
福岡県,北九州市,第8投票区-3,八幡西区山寺町4番1号,熊西中学校 北側フェンス,33.861943,130.7568306,
福岡県,北九州市,第8投票区-4,八幡西区筒井町3番1号,筒井小学校 正門横フェンス,33.8647485,130.7595535,
福岡県,北九州市,第8投票区-5,八幡西区山寺町12番,皇后崎公園南側フェンス,33.8607899,130.7560836,
福岡県,北九州市,第8投票区-6,八幡西区菅原町2番,ペンギンパーキング 北側フェンス,33.8626257,130.763524,
福岡県,北九州市,第8投票区-7,八幡西区山寺町7番,御手洗公園西側柵,33.8611915,130.7590915,
福岡県,北九州市,第9投票区-1,八幡西区西曲里町7番1号,熊西小学校 東門横フェンス,33.8582491,130.7603897,
福岡県,北九州市,第9投票区-2,八幡西区南王子町8番,南王子公園 東側フェンス,33.8527623,130.756321,
福岡県,北九州市,第9投票区-3,八幡西区幸神三丁目4番,幸神南公園 東側フェンス,33.8524373,130.763524,
福岡県,北九州市,第9投票区-4,八幡西区東曲里町1番1号,ハローデイ黒崎店駐車場西側フェンス,33.8613258,130.7628137,
福岡県,北九州市,第9投票区-5,八幡西区西王子町7番,西王子公園 北東ガードパイプ,33.8574562,130.7575084,
福岡県,北九州市,第9投票区-6,八幡西区東王子町13番,正和なみき病院 駐車場南側フェンス,33.8562427,130.7590915,
福岡県,北九州市,第9投票区-7,八幡西区青山三丁目6番,月極駐車場フェンス,33.856431,130.7544212,
福岡県,北九州市,第9投票区-8,八幡西区西曲里町7番1号,熊西小学校 南門横フェンス,33.8582491,130.7603897,
福岡県,北九州市,第10投票区-1,八幡西区萩原三丁目5番1号,萩原小学校 正門横フェンス,33.8558338,130.750374,
福岡県,北九州市,第10投票区-2,八幡西区萩原三丁目5番1号,萩原小学校 西門横フェンス,33.8558338,130.750374,
福岡県,北九州市,第10投票区-3,八幡西区萩原二丁目6番13号,公団萩原団地 13棟前フェンス,33.8592861,130.7505778,
福岡県,北九州市,第10投票区-4,八幡西区萩原二丁目2番,萩原北公園 南東部,33.8611535,130.749513,
福岡県,北九州市,第10投票区-5,八幡西区鉄竜一丁目5番2号,穴生ドーム 東側入口横フェンス,33.853455,130.7526421,
福岡県,北九州市,第10投票区-6,八幡西区萩原二丁目12番,月極駐車場(筑鉄) 西側フェンス,33.8590795,130.7483255,
福岡県,北九州市,第10投票区-7,八幡西区鉄竜一丁目1番,山の神池公園 南側フェンス,33.8548131,130.7535504,
福岡県,北九州市,第11投票区-1,八幡西区別所町1番,引野配水池(引野中学校前) フェンス,33.8464655,130.7598831,
福岡県,北九州市,第11投票区-2,八幡西区別所町9番1号,引野市民センター 駐車場入口,33.84717250000001,130.7570829,
福岡県,北九州市,第11投票区-3,八幡西区小鷺田町7番,小鷺田公園 南側フェンス,33.8518785,130.7585374,
福岡県,北九州市,第11投票区-4,八幡西区小鷺田町13番,小鷺田南公園 フェンス,33.8500416,130.7600414,
福岡県,北九州市,第11投票区-5,八幡西区小鷺田町4番,市営小鷺田東団地 公園南側フェンス,33.8525354,130.760358,
福岡県,北九州市,第11投票区-6,八幡西区茶売町13番,市営茶売団地 茶売団地集会室東側フェンス,33.8493745,130.7606259,
福岡県,北九州市,第11投票区-7,八幡西区別所町1番,八幡工業高校 東側フェンス,33.8464655,130.7598831,
福岡県,北九州市,第12投票区-1,八幡西区引野三丁目15番1号,引野小学校 正門横フェンス,33.8457389,130.7511626,
福岡県,北九州市,第12投票区-2,八幡西区引野三丁目15番1号,引野小学校 南東フェンス,33.8457389,130.7511626,
福岡県,北九州市,第12投票区-3,八幡西区鉄王二丁目2番,鉄王西公園 南側フェンス,33.8478795,130.7508589,
福岡県,北九州市,第12投票区-4,八幡西区相生町7番,相生公園 北側フェンス,33.84888180000001,130.749988,
福岡県,北九州市,第12投票区-5,八幡西区鉄王一丁目10番,鉄王東公園 南側フェンス,33.8494412,130.7549753,
福岡県,北九州市,第12投票区-6,八幡西区引野一丁目23番,野中公園 西側フェンス,33.8441542,130.7560044,
福岡県,北九州市,第12投票区-7,八幡西区引野一丁目6番,道永公園 東側,33.8426858,130.7587749,
福岡県,北九州市,第13投票区-1,八幡西区竹末一丁目18番1号,竹末小学校 東側フェンス,33.8494862,130.7439512,
福岡県,北九州市,第13投票区-2,八幡西区竹末一丁目18番1号,竹末小学校 南側フェンス,33.8494862,130.7439512,
福岡県,北九州市,第13投票区-3,八幡西区竹末一丁目21番,竹末公園 北東部,33.8506564,130.7438919,
福岡県,北九州市,第13投票区-4,八幡西区若葉一丁目7番,竹末市民センター 正面フェンス,33.8467911,130.7431793,
福岡県,北九州市,第13投票区-5,八幡西区若葉二丁目26番,的場公園 東側フェンス,33.8424955,130.7503047,
福岡県,北九州市,第13投票区-6,八幡西区若葉二丁目16番,西ケ峯公園 南側フェンス,33.8437625,130.7460296,
福岡県,北九州市,第13投票区-7,八幡西区竹末二丁目15番,割子川せせらぎ公園 東側フェンス,33.8459777,130.7483255,
福岡県,北九州市,第14投票区-1,八幡西区鷹の巣三丁目3番1号,穴生市民センター 西側歩道ガードパイプ,33.8553765,130.744645,
福岡県,北九州市,第14投票区-2,八幡西区鷹の巣三丁目7番,八幡特別支援学校 正門横フェンス,33.8541503,130.7438919,
福岡県,北九州市,第14投票区-3,八幡西区鷹の巣二丁目2番,鷹ノ巣公園 北側斜面,33.8559157,130.7489589,
福岡県,北九州市,第14投票区-4,八幡西区森下町13番,筑豊電鉄森下駅 下り側フェンス,33.8540998,130.741279,
福岡県,北九州市,第14投票区-5,八幡西区鷹の巣二丁目15番,大池公園 西側照明下フェンス,33.8530093,130.7478505,
福岡県,北九州市,第14投票区-6,八幡西区鷹の巣二丁目15番,大池公園 東側斜面(大池市民プール横),33.8530093,130.7478505,
福岡県,北九州市,第14投票区-7,八幡西区鷹の巣一丁目17番,月極駐車場みつばパーキング前フェンス,33.856557,130.7451587,
福岡県,北九州市,第15投票区-1,八幡西区穴生一丁目13番1号,穴生小学校 正門横フェンス,33.8609618,130.7437632,
福岡県,北九州市,第15投票区-2,八幡西区穴生一丁目13番1号,穴生小学校 西門横ブロック塀,33.8609618,130.7437632,
福岡県,北九州市,第15投票区-3,八幡西区穴生三丁目5番1号,ポリテクセンター八幡 北西側フェンス,33.8613263,130.7419245,
福岡県,北九州市,第15投票区-4,八幡西区穴生一丁目8番,筑豊電鉄穴生駅 北側フェンス,33.8574304,130.7451587,
福岡県,北九州市,第15投票区-5,八幡西区穴生四丁目11番,西鉄バス八幡自動車営業所 入口横フェンス,33.8629234,130.7445253,
福岡県,北九州市,第15投票区-6,八幡西区穴生四丁目5番,市営穴生団地 駐車場フェンス,33.8619792,130.7463462,
福岡県,北九州市,第15投票区-7,八幡西区穴生一丁目4番,小山公園 南側,33.8597107,130.7467421,
福岡県,北九州市,第16投票区-1,八幡西区青山一丁目7番1号,青山小学校 正門横フェンス,33.8624808,130.7524817,
福岡県,北九州市,第16投票区-2,八幡西区青山一丁目7番1号,青山小学校 南側フェンス,33.8624808,130.7524817,
福岡県,北九州市,第16投票区-3,八幡西区萩原二丁目1番5号,サンコーポラス萩原5棟南側フェンス,33.861731,130.7505045,
福岡県,北九州市,第16投票区-4,八幡西区萩原一丁目4番,穴生公園 東側入口フェンス,33.862908,130.7478505,
福岡県,北九州市,第16投票区-5,八幡西区青山二丁目1番,皇后崎公園 北側フェンス,33.8598008,130.7541837,
福岡県,北九州市,第16投票区-6,八幡西区青山一丁目7番1号,青山小学校 東側フェンス,33.8624808,130.7524817,
福岡県,北九州市,第16投票区-7,八幡西区皇后崎町12番,三崎公園 東側フェンス,33.8647732,130.7491964,
福岡県,北九州市,第17投票区-1,八幡西区陣原三丁目23番9号,ルワージュ陣原 駐車場フェンス (陣原市民センター),33.8675544,130.7422354,
福岡県,北九州市,第17投票区-2,八幡西区陣原五丁目10番64号,陣原公民館前ブロック塀,33.866203,130.7334027,
福岡県,北九州市,第17投票区-3,八幡西区瀬板二丁目2番,公共緑地(「朝日プラザ八幡西」北側道路),33.864711,130.735657,
福岡県,北九州市,第17投票区-4,八幡西区陣原四丁目14番,本陣橋南側 ガードパイプ,33.8688847,130.7324895,
福岡県,北九州市,第17投票区-5,八幡西区陣原二丁目13番,陣原西公園入口横フェンス,33.8650811,130.7411207,
福岡県,北九州市,第17投票区-6,八幡西区瀬板一丁目9番,瀬板東公園入口横フェンス,33.8625635,130.7368448,
福岡県,北九州市,第17投票区-7,八幡西区陣原一丁目10番,陣原東公園 北東フェンス,33.8658218,130.7472963,
福岡県,北九州市,第18投票区-1,八幡西区本城東一丁目7番17号,柳原公民館(本城団地中央集会所) 前フェンス,33.8764757,130.7366643,
福岡県,北九州市,第18投票区-2,八幡西区本城東一丁目4番,市営本城団地 駐車場北側フェンス,33.8758797,130.7397746,
福岡県,北九州市,第18投票区-3,八幡西区本城東四丁目12番,夕原大橋 北側ガードパイプ,33.8719122,130.73439,
福岡県,北九州市,第18投票区-4,八幡西区本城,ポンプ場 入口横フェンス,33.8817665,130.7348652,
福岡県,北九州市,第18投票区-5,八幡西区洞北町2番1号,大力税理士事務所 フェンス,33.8753178,130.7412317,
福岡県,北九州市,第18投票区-6,八幡西区本城東一丁目11番11号,市営本城団地 21棟横駐車場フェンス,33.8778969,130.7351152,
福岡県,北九州市,第18投票区-7,八幡西区本城東一丁目6番,三丁目公園 北側フェンス,33.8774448,130.7385869,
福岡県,北九州市,第19投票区-1,八幡西区本城東三丁目12番,本城小学校 東門横フェンス,33.8767877,130.727817,
福岡県,北九州市,第19投票区-2,八幡西区本城一丁目23番1号,本城小学校 西門横フェンス,33.8795308,130.7288755,
福岡県,北九州市,第19投票区-3,八幡西区本城三丁目7番,本城三丁目東公園 南,33.8816726,130.7327271,
福岡県,北九州市,第19投票区-4,八幡西区本城二丁目8番1号,八幡西消防団 第4分団フェンス,33.8818829,130.7281301,
福岡県,北九州市,第19投票区-5,八幡西区本城三丁目4番,サンコーポラス本城 管理人室横のブロック塀,33.8820603,130.7343109,
福岡県,北九州市,第19投票区-6,八幡西区御開一丁目21番,猪戸公園 入口横,33.8851132,130.7306681,
福岡県,北九州市,第19投票区-7,八幡西区御開二丁目5番30号,東中島ポンプ場 フェンス,33.8880032,130.7402003,
福岡県,北九州市,第19投票区-8,八幡西区御開四丁目16番,本城公園 入口北側(歩道と駐車場との境),33.8899383,130.7304305,
福岡県,北九州市,第20投票区-1,八幡西区本城東五丁目6番1号,赤坂小学校 西門横フェンス,33.8724122,130.7285331,
福岡県,北九州市,第20投票区-2,八幡西区本城東六丁目14番1号,本城中学校 東側フェンス (体育館裏),33.8738052,130.7285892,
福岡県,北九州市,第20投票区-3,八幡西区星和町21番,星和台東公園 東側フェンス,33.8702756,130.7284506,
福岡県,北九州市,第20投票区-4,八幡西区本城東六丁目10番,本城東六丁目公園 南西側入口横フェンス,33.8753564,130.7270251,
福岡県,北九州市,第20投票区-5,八幡西区友田三丁目3番,市営折尾東団地 18棟横フェンス,33.8735446,130.7229858,
福岡県,北九州市,第20投票区-6,八幡西区友田三丁目1番,市営折尾東団地 2棟前フェンス,33.87204,130.7245698,
福岡県,北九州市,第20投票区-7,八幡西区星和町2番,星和台公園 南東斜面上フェンス,33.8699532,130.7261539,
福岡県,北九州市,第21投票区-1,八幡西区光明一丁目2番1号,折尾東小学校 東門横フェンス,33.8681032,130.7222814,
福岡県,北九州市,第21投票区-2,八幡西区中須一丁目3番1号,折尾中学校 北側フェンス,33.8671602,130.7260499,
福岡県,北九州市,第21投票区-3,八幡西区友田二丁目1番,県営折尾東団地 1300棟横フェンス,33.870293,130.7245698,
福岡県,北九州市,第21投票区-4,八幡西区友田二丁目5番,市営折尾東団地 29棟横 フェンス,33.870611,130.7232234,
福岡県,北九州市,第21投票区-5,八幡西区友田三丁目7番,友田北公園 南東,33.8723411,130.7223522,
福岡県,北九州市,第21投票区-6,八幡西区友田三丁目7番,友田北公園 西側フェンス,33.8723411,130.7223522,
福岡県,北九州市,第21投票区-7,八幡西区友田二丁目5番,市営折尾東団地 28棟北側フェンス,33.870611,130.7232234,
福岡県,北九州市,第22投票区-1,八幡西区光明二丁目2番50号,折尾東市民センター 駐車場フェンス,33.8663511,130.7199829,
福岡県,北九州市,第22投票区-2,八幡西区丸尾町4番,市立折尾プール東側フェンス (折尾丸山公園横),33.8681556,130.7187878,
福岡県,北九州市,第22投票区-3,八幡西区光明一丁目9番22号,折尾出張所,33.8664604,130.7214666,
福岡県,北九州市,第22投票区-4,八幡西区光明二丁目11番8号,旧NTT折尾営業所 フェンス,33.8646068,130.7168311,
福岡県,北九州市,第22投票区-5,八幡西区丸尾町4番,折尾丸山公園 北西側入口横フェンス,33.8681556,130.7187878,
福岡県,北九州市,第22投票区-6,八幡西区折尾三丁目5番,折尾西公園 東側斜面,33.867726,130.7123715,
福岡県,北九州市,第22投票区-7,八幡西区折尾二丁目16番,折尾北公園入口横フェンス,33.8681071,130.7156193,
福岡県,北九州市,第23投票区-1,八幡西区千代ヶ崎二丁目10番1号,医生丘小学校正門東側フェンス,33.8781055,130.718674,
福岡県,北九州市,第23投票区-2,八幡西区千代ヶ崎二丁目8番,市営本城西団地 6棟横フェンス,33.876168,130.7176789,
福岡県,北九州市,第23投票区-3,八幡西区千代ヶ崎二丁目14番,市営本城西団地 18棟駐車場フェンス,33.8758232,130.720372,
福岡県,北九州市,第23投票区-4,八幡西区千代ヶ崎一丁目12番,本城西公園 南側入口横,33.875059,130.7191839,
福岡県,北九州市,第23投票区-5,八幡西区千代ヶ崎三丁目2番15号,県営本城西団地 1500棟横フェンス,33.8775298,130.7162169,
福岡県,北九州市,第23投票区-6,八幡西区力丸町8番,力丸記念公園,33.8779894,130.724253,
福岡県,北九州市,第23投票区-7,八幡西区千代ヶ崎二丁目6番8号,市営本城西団地 8棟横フェンス,33.8757337,130.7163057,
福岡県,北九州市,第24投票区-1,八幡西区光貞台一丁目4番1号,光貞小学校 正門横フェンス,33.882785,130.7143695,
福岡県,北九州市,第24投票区-2,八幡西区光貞台一丁目5番,光貞台南公園 西側フェンス,33.8818169,130.7148272,
福岡県,北九州市,第24投票区-3,八幡西区光貞台一丁目2番,本城西市街地住宅 3号棟前空地,33.8810053,130.714946,
福岡県,北九州市,第24投票区-4,八幡西区医生ケ丘4番,医生ケ丘公園 フェンス,33.8800311,130.7141935,
福岡県,北九州市,第24投票区-5,八幡西区光貞台一丁目1番2号,西日本シティ銀行 駐車場フェンス,33.8810053,130.714946,
福岡県,北九州市,第24投票区-6,八幡西区光貞台一丁目13番20号,光貞台公民館 横フェンス,33.8831195,130.7188693,
福岡県,北九州市,第24投票区-7,八幡西区光貞台三丁目7番,光貞台東公園 南側公園入口横,33.8855894,130.7175997,
福岡県,北九州市,第25投票区-1,八幡西区浅川町10番1号,浅川小学校 正門横フェンス,33.882,130.6967584,
福岡県,北九州市,第25投票区-2,八幡西区浅川日の峯一丁目3番,浅川東公園 西側公園入口横,33.8805529,130.6995366,
福岡県,北九州市,第25投票区-3,八幡西区浅川日の峯一丁目7番,浅川公園 フェンス,33.87921060000001,130.6972387,
福岡県,北九州市,第25投票区-4,八幡西区浅川日の峯三丁目19番,浅川日の峯三丁目19番下道路 フェンス,33.8791935,130.6963671,
福岡県,北九州市,第25投票区-5,八幡西区浅川二丁目19番,浅川交差点 横フェンス,33.8781748,130.7011213,
福岡県,北九州市,第25投票区-6,八幡西区浅川日の峯一丁目30番,浅川6号公園 フェンス,33.8761092,130.6977142,
福岡県,北九州市,第25投票区-7,八幡西区浅川日の峯一丁目22番,市営バス「浅川台」 バス停横ガードパイプ,33.8755244,130.6982689,
福岡県,北九州市,第26投票区-1,八幡西区三ツ頭一丁目10番1号,三ツ頭公民館(さつき集いの家) フェンス,33.8799343,130.6886109,
福岡県,北九州市,第26投票区-2,八幡西区三ツ頭二丁目6番,三ツ頭公園 南側,33.88434470000001,130.6883633,
福岡県,北九州市,第26投票区-3,八幡西区三ツ頭二丁目25番,浅川緑地 入口横,33.8841476,130.6857479,
福岡県,北九州市,第26投票区-4,八幡西区三ツ頭二丁目1番41号,三ツ頭つどいの家 入口フェンス,33.8824723,130.6876565,
福岡県,北九州市,第26投票区-5,八幡西区三ツ頭一丁目4番,さつきケ丘公園 入口横フェンス,33.8790175,130.6887595,
福岡県,北九州市,第27投票区-1,八幡西区浅川台二丁目1番,浅川団地 集会所前公園,33.8723987,130.6995366,
福岡県,北九州市,第27投票区-2,八幡西区浅川台二丁目1番7号,浅川団地700棟南側フェンス,33.872064,130.7000969,
福岡県,北九州市,第27投票区-3,八幡西区浅川台一丁目10番,山の谷公園 横防火水槽フェンス,33.874343,130.7021514,
福岡県,北九州市,第27投票区-4,八幡西区藤原二丁目15番,藤原台南公園 フェンス,33.8750008,130.7039737,
福岡県,北九州市,第27投票区-5,八幡西区浅川台二丁目7番,県営浅川小松団地 集会場西側フェンス,33.8747674,130.7001705,
福岡県,北九州市,第27投票区-6,八幡西区浅川台二丁目14番,浅川台中公園 入口横フェンス,33.8743376,130.6985066,
福岡県,北九州市,第27投票区-7,八幡西区浅川台三丁目5番,水洗公園 東側フェンス,33.8713692,130.697001,
福岡県,北九州市,第28投票区-1,八幡西区日吉台一丁目22番20号,折尾西市民センター 駐車場フェンス,33.86196640000001,130.7018164,
福岡県,北九州市,第28投票区-2,八幡西区日吉台一丁目22番,市営日吉団地 13棟南側空地,33.8612785,130.7022306,
福岡県,北九州市,第28投票区-3,八幡西区日吉台一丁目23番,日吉2号公園 ゲートボール場横フェンス,33.8621569,130.7011213,
福岡県,北九州市,第28投票区-4,八幡西区日吉台三丁目5番,日吉西公園 下側フェンス,33.8638047,130.7000913,
福岡県,北九州市,第28投票区-5,八幡西区日吉台三丁目33番,日吉西2号公園 北側フェンス,33.8593704,130.7008044,
福岡県,北九州市,第28投票区-6,八幡西区日吉台三丁目33番,日吉西2号公園 西側フェンス,33.8593704,130.7008044,
福岡県,北九州市,第28投票区-7,八幡西区日吉台二丁目1番,地下道 横フェンス (日吉台二丁目バス停横),33.8626337,130.706509,
福岡県,北九州市,第29投票区-1,八幡西区西折尾町15番1号,折尾西小学校 西門横 フェンス,33.8575749,130.7079796,
福岡県,北九州市,第29投票区-2,八幡西区西折尾町15番1号,折尾西小学校 北門横フェンス,33.8575749,130.7079796,
福岡県,北九州市,第29投票区-3,八幡西区大膳二丁目10番10号,車検のコバック折尾店 西側フェンス,33.8569762,130.7066312,
福岡県,北九州市,第29投票区-4,八幡西区西折尾町8番1号,市営西折尾団地1棟 南東フェンス,33.8582033,130.71078,
福岡県,北九州市,第29投票区-5,八幡西区西折尾町5番9号,市営西折尾団地9棟 北側フェンス,33.8589002,130.7096774,
福岡県,北九州市,第29投票区-6,八幡西区大膳二丁目24番,美吉野公園 北側フェンス,33.8540222,130.7061921,
福岡県,北九州市,第29投票区-7,八幡西区堀川町1番,折尾駅西口 東側歩道ガードパイプ,33.8639914,130.7131888,
福岡県,北九州市,第30投票区-1,八幡西区則松二丁目1番1号,則松小学校 南側斜面,33.8602649,130.7175106,
福岡県,北九州市,第30投票区-2,八幡西区則松二丁目1番1号,則松小学校 西側フェンス (プール裏),33.8602649,130.7175106,
福岡県,北九州市,第30投票区-3,八幡西区則松二丁目9番1号,則松市民センター北東側フェンス,33.8576316,130.7154686,
福岡県,北九州市,第30投票区-4,八幡西区東筑一丁目1番1号,東筑高等学校正門南側フェンス,33.8594581,130.7148757,
福岡県,北九州市,第30投票区-5,八幡西区南鷹見町6番1号,八幡西勤労青少年ホーム 西側歩道ガードパイプ,33.8620276,130.716187,
福岡県,北九州市,第30投票区-6,八幡西区北鷹見町4番,鷹見公園 北側フェンス,33.8630693,130.7165699,
福岡県,北九州市,第30投票区-7,八幡西区東折尾町15番,梔子ノ池公園 入口横フェンス,33.8615381,130.7195007,
福岡県,北九州市,第31投票区-1,八幡西区則松三丁目5番1号,則松中学校 正門横フェンス,33.85606569999999,130.7181568,
福岡県,北九州市,第31投票区-2,八幡西区則松三丁目5番1号,則松中学校 南側フェンス,33.85606569999999,130.7181568,
福岡県,北九州市,第31投票区-3,八幡西区さつき台一丁目24番,さつき台中央公園 入口横フェンス,33.8535679,130.7153817,
福岡県,北九州市,第31投票区-4,八幡西区松寿山三丁目6番,松寿山公園 いこいの家横フェンス,33.8484515,130.7150648,
福岡県,北九州市,第31投票区-5,八幡西区泉ケ浦一丁目16番2号,泉ケ浦一丁目公園 北側フェンス,33.8492853,130.7190106,
福岡県,北九州市,第31投票区-6,八幡西区則松四丁目1番1号,則松中継ポンプ場 入口横フェンス,33.8572699,130.7223742,
福岡県,北九州市,第31投票区-7,八幡西区則松四丁目14番,くら寿司東側ガードパイプ,33.8589076,130.7217185,
福岡県,北九州市,第31投票区-8,八幡西区さつき台二丁目20番,大膳堀池 北側フェンス,33.851339,130.711104,
福岡県,北九州市,第32投票区-1,八幡西区八枝三丁目8番1号,八枝市民センター 北東側フェンス,33.8442473,130.7274945,
福岡県,北九州市,第32投票区-2,八幡西区永犬丸四丁目5番1号,永犬丸中学校体育館横フェンス,33.842593,130.7310343,
福岡県,北九州市,第32投票区-3,八幡西区永犬丸四丁目5番1号,永犬丸中学校 正門横フェンス,33.842593,130.7310343,
福岡県,北九州市,第32投票区-4,八幡西区里中二丁目17番,西鉄バス「今池」 バス停 奥フェンス,33.8448524,130.7394579,
福岡県,北九州市,第32投票区-5,八幡西区八枝三丁目13番1号,正和中央病院 正面フェンス,33.8465802,130.7269856,
福岡県,北九州市,第32投票区-6,八幡西区永犬丸西町一丁目3番,永犬丸西町一丁目公園 東側フェンス,33.840243,130.727817,
福岡県,北九州市,第32投票区-7,八幡西区里中二丁目1番,月極駐車場 東側フェンス,33.8393461,130.7381118,
福岡県,北九州市,第32投票区-8,八幡西区永犬丸二丁目3番,五郎丸東公園 南側フェンス,33.8445627,130.7246491,
福岡県,北九州市,第33投票区-1,八幡西区永犬丸西町四丁目4番1号,永犬丸西小学校 南側フェンス,33.8363878,130.7268591,
福岡県,北九州市,第33投票区-2,八幡西区鷹見台三丁目10番,鷹見台東公園 北西フェンス,33.8376264,130.7267083,
福岡県,北九州市,第33投票区-3,八幡西区鷹見台三丁目1番,鷹見大橋西側フェンス,33.8383857,130.724253,
福岡県,北九州市,第33投票区-4,八幡西区永犬丸西町二丁目5番,西町南公園 南側,33.838719,130.7290842,
福岡県,北九州市,第33投票区-5,八幡西区永犬丸西町二丁目21番,西町公園 南西フェンス,33.8370798,130.7305493,
福岡県,北九州市,第33投票区-6,八幡西区永犬丸南町一丁目7番,永犬丸南町一丁目公園 南東フェンス,33.8333971,130.733123,
福岡県,北九州市,第33投票区-7,八幡西区永犬丸南町三丁目13番,永犬丸南町三丁目公園 西側,33.8309113,130.7305889,
福岡県,北九州市,第34投票区-1,八幡西区美原町9番1号,永犬丸小学校正門横フェンス,33.8393754,130.7415866,
福岡県,北九州市,第34投票区-2,八幡西区美原町9番1号,永犬丸小学校 西門横フェンス,33.8393754,130.7415866,
福岡県,北九州市,第34投票区-3,八幡西区美原町9番1号,永犬丸小学校 南西側フェンス (永犬丸市民センター駐車場横),33.8393754,130.7415866,
福岡県,北九州市,第34投票区-4,八幡西区永犬丸東町二丁目7番1号,市営永犬丸東町団地 駐車場横フェンス,33.83702,130.7420404,
福岡県,北九州市,第34投票区-5,八幡西区永犬丸東町三丁目2番,名前谷公園 北側柵,33.8348835,130.7454753,
福岡県,北九州市,第34投票区-6,八幡西区美原町1番,美原公園 南側フェンス,33.8422995,130.7429417,
福岡県,北九州市,第34投票区-7,八幡西区若葉三丁目21番,若葉西公園 西側フェンス,33.8448912,130.7400913,
福岡県,北九州市,第35投票区-1,八幡西区下上津役一丁目6番,中尾小学校 西側フェンス,33.8302383,130.74215,
福岡県,北九州市,第35投票区-2,八幡西区三ケ森四丁目6番,三ケ森四丁目公園 北西部フェンス,33.83489040000001,130.739062,
福岡県,北九州市,第35投票区-3,八幡西区春日台一丁目22番,市営春日台団地 3棟横フェンス,33.8318926,130.7347068,
福岡県,北九州市,第35投票区-4,八幡西区沖田四丁目18番1号,沖田中学校 正門横フェンス,33.8317635,130.740606,
福岡県,北九州市,第35投票区-5,八幡西区沖田三丁目3番,沖田中公園 西側フェンス,33.8309933,130.7455545,
福岡県,北九州市,第35投票区-6,八幡西区沖田三丁目1番,下上津役二号緑地,33.8319495,130.7457129,
福岡県,北九州市,第35投票区-7,八幡西区沖田四丁目7番,沖田北公園 南側フェンス,33.8336968,130.7457129,
福岡県,北九州市,第36投票区-1,八幡西区塔野一丁目3番1号,塔野小学校 正門右横フェンス,33.8249711,130.738191,
福岡県,北九州市,第36投票区-2,八幡西区塔野一丁目3番1号,塔野小学校 南側裏門横フェンス,33.8249711,130.738191,
福岡県,北九州市,第36投票区-3,八幡西区塔野二丁目6番,塔野南公園 西側フェンス,33.8236284,130.7358946,
福岡県,北九州市,第36投票区-4,八幡西区塔野三丁目1番,末松久男税理士事務所 横空地フェンス,33.8251975,130.7354853,
福岡県,北九州市,第36投票区-5,八幡西区春日台二丁目11番43号,masked,33.8292283,130.7350433,
福岡県,北九州市,第36投票区-6,八幡西区春日台二丁目10番,春日台公園 南西フェンス,33.8306793,130.7362905,
福岡県,北九州市,第36投票区-7,八幡西区下上津役二丁目15番,下上津役二丁目公園 東側フェンス,33.8268572,130.7398538,
福岡県,北九州市,第36投票区-8,八幡西区大平台22番,大平台ひまわり公園南側フェンス,33.8217486,130.742625,
福岡県,北九州市,第37投票区-1,八幡西区上の原二丁目2番16号,上津役市民センター 入口前フェンス,33.8360141,130.7575584,
福岡県,北九州市,第37投票区-2,八幡西区市瀬三丁目4番,市瀬東公園 南東側フェンス,33.83612370000001,130.7657401,
福岡県,北九州市,第37投票区-3,八幡西区上の原四丁目23番,上の原四丁目公園 東側フェンス,33.8348737,130.7476921,
福岡県,北九州市,第37投票区-4,八幡西区市瀬一丁目7番,市瀬一丁目公園 南側フェンス,33.839308,130.7606746,
福岡県,北九州市,第37投票区-5,八幡西区割子川二丁目11番,割子川公園 北側フェンス,33.84077389999999,130.7584583,
福岡県,北九州市,第37投票区-6,八幡西区上の原三丁目4番,上の原公園 北側フェンス,33.8351668,130.7566377,
福岡県,北九州市,第37投票区-7,八幡西区養福寺町11番,養福寺貯水池 西側フェンス,33.8377145,130.7531082,
福岡県,北九州市,第37投票区-8,八幡西区中の原一丁目2番,中の原東公園 北西フェンス,33.8317674,130.7540254,
福岡県,北九州市,第38投票区-1,八幡西区上上津役三丁目21番21号,大原市民センター 北東側フェンス,33.8257885,130.7527789,
福岡県,北九州市,第38投票区-2,八幡西区上上津役三丁目5番,上上津役三丁目北公園 東側フェンス,33.8300615,130.7541046,
福岡県,北九州市,第38投票区-3,八幡西区下上津役四丁目8番1号,上津役出張所 駐車場入口横フェンス,33.8270931,130.7480688,
福岡県,北九州市,第38投票区-4,八幡西区上上津役四丁目5番64号,市営大原団地 64棟横フェンス,33.8290423,130.7581148,
福岡県,北九州市,第38投票区-5,八幡西区上上津役二丁目1番21号,馬場公民館 駐車場フェンス,33.8328482,130.7611987,
福岡県,北九州市,第38投票区-6,八幡西区上上津役一丁目6番,上上津役一丁目中公園 東側フェンス,33.8335984,130.7631282,
福岡県,北九州市,第38投票区-7,八幡西区上上津役四丁目3番,大原公園北側,33.8275546,130.7565585,
福岡県,北九州市,第39投票区-1,八幡西区町上津役東一丁目12番1号,大原小学校 正門横フェンス,33.825491,130.753402,
福岡県,北九州市,第39投票区-2,八幡西区町上津役東一丁目12番1号,大原小学校 東門左横フェンス,33.825491,130.753402,
福岡県,北九州市,第39投票区-3,八幡西区町上津役東二丁目14番,市有地(広場) 東側フェンス,33.823269,130.7567168,
福岡県,北九州市,第39投票区-4,八幡西区町上津役西二丁目1番,南原公園 北側,33.8246327,130.7492755,
福岡県,北九州市,第39投票区-5,八幡西区町上津役東一丁目17番,町上津役公園 北側フェンス,33.8230312,130.7540254,
福岡県,北九州市,第39投票区-6,八幡西区町上津役東二丁目15番,県営水三番団地 7棟南側フェンス,33.8221042,130.7567168,
福岡県,北九州市,第39投票区-7,八幡西区上上津役四丁目18番,上津役公園 南側グラウンドフェンス,33.8269187,130.7592498,
福岡県,北九州市,第40投票区-1,八幡西区町上津役西四丁目5番1号,八児小学校 正門横フェンス,33.819807,130.7512794,
福岡県,北九州市,第40投票区-2,八幡西区町上津役西四丁目16番1号,八児中学校 北側フェンス,33.819528,130.7498199,
福岡県,北九州市,第40投票区-3,八幡西区小嶺三丁目18番,小嶺東公園 西側フェンス,33.8159571,130.7591707,
福岡県,北九州市,第40投票区-4,八幡西区町上津役西四丁目12番5号,masked,33.8213592,130.7491014,
福岡県,北九州市,第40投票区-5,八幡西区小嶺二丁目7番,西鉄バス「小嶺」バス停東側ガードパイプ,33.8172939,130.7530755,
福岡県,北九州市,第40投票区-6,八幡西区大平三丁目17番,論田下池東側(国道側)柵,33.8197394,130.7454753,
福岡県,北九州市,第40投票区-7,八幡西区小嶺二丁目3番22号,小嶺児童館 横フェンス (道路向側都市高速下),33.8188633,130.7540269,
福岡県,北九州市,第41投票区-1,八幡西区小嶺台三丁目9番3号,小嶺団地集会所横公園フェンス,33.809413,130.7545759,
福岡県,北九州市,第41投票区-2,八幡西区小嶺台一丁目6番,小嶺台北公園 北側斜面,33.8119713,130.752363,
福岡県,北九州市,第41投票区-3,八幡西区小嶺台二丁目14番,西鉄バス「小嶺台」 バス停 横,33.8081,130.7527588,
福岡県,北九州市,第41投票区-4,八幡西区小嶺台二丁目4番,小嶺台西公園 東側入口横フェンス,33.8111458,130.7507797,
福岡県,北九州市,第41投票区-5,八幡西区小嶺台四丁目20番,小嶺台南2号公園 南側,33.8060518,130.7549753,
福岡県,北九州市,第41投票区-6,八幡西区小嶺台三丁目11番2号,県公社小嶺団地 2棟横フェンス,33.8098991,130.7564469,
福岡県,北九州市,第41投票区-7,八幡西区小嶺台一丁目3番30号,こみね幼稚園 入口横フェンス,33.8122897,130.7507433,
福岡県,北九州市,第42投票区-1,八幡西区千代五丁目17番1号,千代小学校 正門横フェンス,33.8084299,130.7383097,
福岡県,北九州市,第42投票区-2,八幡西区千代五丁目17番1号,千代小学校 東門横フェンス,33.8084299,130.7383097,
福岡県,北九州市,第42投票区-3,八幡西区椋枝二丁目10番,市営浦田団地 敷地内フェンス,33.8090728,130.7336773,
福岡県,北九州市,第42投票区-4,八幡西区椋枝一丁目2番,西鉄バス「千代小学校入口」バス停 奥フェンス,33.8114462,130.7385077,
福岡県,北九州市,第42投票区-5,八幡西区千代一丁目17番,千代1号公園 北側フェンス,33.8099797,130.7460296,
福岡県,北九州市,第42投票区-6,八幡西区船越三丁目3番,西鉄バス「船越団地」 バス停 横フェンス,33.8159036,130.7441937,
福岡県,北九州市,第42投票区-7,八幡西区千代三丁目7番,千代東公園 北側集いの家横フェンス,33.8083363,130.7459504,
福岡県,北九州市,第42投票区-8,八幡西区千代二丁目11番,千代2号公園 南東フェンス,33.8076838,130.7477713,
福岡県,北九州市,第43投票区-1,八幡西区香月中央一丁目8番,香月市民センター 前広場,33.8021027,130.7334398,
福岡県,北九州市,第43投票区-2,八幡西区香月中央一丁目7番1号,香月市民センター 駐車場フェンス,33.80267690000001,130.7332109,
福岡県,北九州市,第43投票区-3,八幡西区香月中央一丁目9番,香月公園 南側フェンス,33.8029288,130.7350235,
福岡県,北九州市,第43投票区-4,八幡西区香月中央一丁目2番,香月北公園 北側フェンス,33.8045768,130.7339941,
福岡県,北九州市,第43投票区-5,八幡西区香月西二丁目14番20号,福岡ひびき信用金庫 香月支店駐車場,33.8023628,130.7307991,
福岡県,北九州市,第43投票区-6,八幡西区香月西三丁目8番9号,市営大辻東第二団地 集会所フェンス,33.803355,130.729358,
福岡県,北九州市,第43投票区-7,八幡西区香月西二丁目1番3号,市営明治町団地 3棟横フェンス,33.8065096,130.7319747,
福岡県,北九州市,第44投票区-1,八幡西区岩崎二丁目7番,岩崎保育園前 ガードパイプ,33.8046194,130.7175997,
福岡県,北九州市,第44投票区-2,八幡西区岩崎二丁目15番,岩崎中公園 東側フェンス,33.8045542,130.7183126,
福岡県,北九州市,第44投票区-3,八幡西区岩崎一丁目5番,岩崎公園 北側斜面,33.8075071,130.7189462,
福岡県,北九州市,第44投票区-4,八幡西区高江四丁目10番,高江東公園 東側フェンス,33.8052363,130.714035,
福岡県,北九州市,第44投票区-5,八幡西区高江二丁目9番,緒方組 駐車場ブロック塀,33.8021029,130.7143123,
福岡県,北九州市,第44投票区-6,八幡西区高江一丁目1番,黒川河川公園グラウンド 北西部斜面,33.8021147,130.7195007,
福岡県,北九州市,第44投票区-7,八幡西区楠北三丁目9番,楠北又田公園 南側フェンス,33.8009699,130.7139558,
福岡県,北九州市,第45投票区-1,八幡西区楠橋上方一丁目3番1号,楠橋小学校 正門横フェンス,33.7949896,130.7323707,
福岡県,北九州市,第45投票区-2,八幡西区楠橋上方一丁目3番1号,楠橋小学校 北門横フェンス,33.7949896,130.7323707,
福岡県,北九州市,第45投票区-3,八幡西区楠橋上方一丁目2番,楠橋小下交差点 東側空地フェンス,33.7958669,130.7315392,
福岡県,北九州市,第45投票区-4,八幡西区真名子二丁目4番,ミスターマックス北側 消防用貯水槽フェンス,33.78426350000001,130.7288466,
福岡県,北九州市,第45投票区-5,八幡西区楠橋西一丁目7番,元村公園 南側フェンス,33.7895414,130.719976,
福岡県,北九州市,第45投票区-6,八幡西区真名子一丁目11番20号,楠橋保育所 正門横フェンス,33.7882604,130.7252987,
福岡県,北九州市,第45投票区-7,八幡西区楠橋南二丁目1番,おの膳西側 消防用貯水槽フェンス,33.7881197,130.7328854,
福岡県,北九州市,第46投票区-1,八幡西区池田三丁目2番1号,池田小学校 正門横フェンス,33.798783,130.7466926,
福岡県,北九州市,第46投票区-2,八幡西区茶屋の原一丁目6番1号,八幡南出張所 南側,33.7963449,130.7447849,
福岡県,北九州市,第46投票区-3,八幡西区池田一丁目4番,井手ノ口池(奈良池)北東道路フェンス,33.7972266,130.7481949,
福岡県,北九州市,第46投票区-4,八幡西区馬場山東一丁目14番,馬場山大谷公園 南側フェンス,33.7971574,130.7524422,
福岡県,北九州市,第46投票区-5,八幡西区馬場山東三丁目1番,市営大谷団地 7棟東側フェンス,33.7962535,130.7495922,
福岡県,北九州市,第46投票区-6,八幡西区馬場山東一丁目15番,福原公園 東側入口横フェンス,33.7976162,130.7522047,
福岡県,北九州市,第46投票区-7,八幡西区池田一丁目1番,新開池 東側フェンス(国道211号沿),33.8029098,130.7525272,
福岡県,北九州市,第46投票区-8,八幡西区石坂一丁目4番,上石坂公園入口横フェンス,33.8067813,130.7496714,
福岡県,北九州市,第46投票区-9,八幡西区上香月一丁目10番,西側道路フェンス,33.8027633,130.7400121,
福岡県,北九州市,第47投票区-1,八幡西区茶屋の原二丁目17番,西鉄バス「茶屋の原団地」 バス停 横フェンス,33.7957867,130.7414374,
福岡県,北九州市,第47投票区-2,八幡西区茶屋の原四丁目3番5号,楠東緑地 茶屋の原四丁目3番の東側,33.795579,130.7380327,
福岡県,北九州市,第47投票区-3,八幡西区馬場山緑7番41号,楠橋市民センター 駐車場フェンス,33.79098889999999,130.7353724,
福岡県,北九州市,第47投票区-4,八幡西区茶屋の原三丁目23番,楠東緑地 茶屋の原公民館前,33.7932842,130.7374783,
福岡県,北九州市,第47投票区-5,八幡西区馬場山緑19番,馬場山緑公園 東側フェンス,33.7893162,130.7406506,
福岡県,北九州市,第47投票区-6,八幡西区馬場山西2番,向江公園 東側フェンス,33.7926581,130.7432585,
福岡県,北九州市,第47投票区-7,八幡西区茶屋の原四丁目1番8号,楠東緑地 茶屋の原四丁目1番の東側,33.7966803,130.7388991,
福岡県,北九州市,第48投票区-1,八幡西区大字野面630番地,木屋瀬小学校 正門横フェンス,33.7762532,130.7335982,
福岡県,北九州市,第48投票区-2,八幡西区大字野面730番地,木屋瀬交差点 東側フェンス (九州自動車道高架下),33.7808464,130.7316481,
福岡県,北九州市,第48投票区-3,八幡西区木屋瀬一丁目11番,真名子公園 東側フェンス,33.7826452,130.727421,
福岡県,北九州市,第48投票区-4,八幡西区木屋瀬四丁目3番,芝原公園 東側フェンス,33.7777072,130.7229858,
福岡県,北九州市,第48投票区-5,八幡西区木屋瀬二丁目26番9号,八幡西消防団 第12分団フェンス,33.7790479,130.722065,
福岡県,北九州市,第48投票区-6,八幡西区木屋瀬三丁目12番,筑前木屋瀬祇園山笠会館 南側フェンス,33.7799205,130.7210849,
福岡県,北九州市,第48投票区-7,八幡西区木屋瀬二丁目9番,木屋瀬北公園 道路側フェンス (九州自動車道高架下),33.7831182,130.7233026,
福岡県,北九州市,第49投票区-1,八幡西区大字笹田920番地の8,星ケ丘市民センター 南側フェンス,33.7774439,130.7489984,
福岡県,北九州市,第49投票区-2,八幡西区星ヶ丘六丁目2番,星ヶ丘中央公園 市民トイレ横斜面,33.7725634,130.7479856,
福岡県,北九州市,第49投票区-3,八幡西区星ヶ丘五丁目7番,星ケ丘南公園 北側入口横フェンス,33.7707938,130.751888,
福岡県,北九州市,第49投票区-4,八幡西区大字金剛1258番地,西鉄バス「田の口」バス停横ガードパイプ,33.7848872,130.7496017,手作業で修正
福岡県,北九州市,第49投票区-5,八幡西区大字野面1284番地,市農協木屋瀬支所 南側フェンス,33.778852,130.7391873,
福岡県,北九州市,第49投票区-6,八幡西区野面一丁目1番,ショップ白石 道路向側ガードレール,33.7840215,130.7378742,
福岡県,北九州市,第49投票区-7,八幡西区野面一丁目8番,野面2号公園 東側フェンス,33.7837152,130.7404278,
福岡県,北九州市,第49投票区-8,八幡西区金剛三丁目12番,金剛区公園 北側フェンス,33.78537439999999,130.7432585,
福岡県,北九州市,第49投票区-9,八幡西区星ヶ丘二丁目7番,星ヶ丘小学校 北側フェンス,33.773264,130.7535504,
福岡県,北九州市,第50投票区-1,八幡西区大浦三丁目9番1号,折尾スポーツセンター 入口横空地,33.8727865,130.7113982,
福岡県,北九州市,第50投票区-2,八幡西区大浦二丁目13番,折尾スポーツセンター 臨時駐車場東側,33.8721765,130.7125299,
福岡県,北九州市,第50投票区-3,八幡西区自由ケ丘1番,九州共立大学 東通用門出口フェンス,33.8708925,130.7064298,
福岡県,北九州市,第50投票区-4,八幡西区大浦二丁目10番,大浦南公園 東側斜面,33.8699731,130.712213,
福岡県,北九州市,第50投票区-5,八幡西区大浦一丁目7番,大浦東公園 南西フェンス,33.8729555,130.7151441,
福岡県,北九州市,第50投票区-6,八幡西区医生ケ丘1番1号,市営バス「産業医科大学前」バス停 奥フェンス,33.8779784,130.7123643,
福岡県,北九州市,第50投票区-7,八幡西区医生ケ丘1番1号,市営バス「本城西団地」バス停 奥フェンス,33.8779784,130.7123643,
福岡県,北九州市,第51投票区-1,八幡西区浅川学園台二丁目4番,浅川中学校 テニスコートフェンス,33.8828874,130.7079351,
福岡県,北九州市,第51投票区-2,八幡西区浅川二丁目8番,浅川中前交差点 奥ガードパイプ,33.8814752,130.7074597,
福岡県,北九州市,第51投票区-3,八幡西区浅川学園台二丁目19番,浅川学園台二丁目公園 入口横フェンス,33.8830598,130.7065882,
福岡県,北九州市,第51投票区-4,八幡西区藤原三丁目13番,藤原台西公園 南東側,33.8787744,130.7067467,
福岡県,北九州市,第51投票区-5,八幡西区浅川一丁目8番,大谷公園 入口横フェンス,33.8777843,130.7048452,
福岡県,北九州市,第51投票区-6,八幡西区浅川二丁目1番,浅川二丁目交差点 北東部ガードパイプ,33.8797863,130.7036568,
福岡県,北九州市,第51投票区-7,八幡西区浅川学園台一丁目14番,浅川学園台一丁目公園 東側フェンス,33.881895,130.7018344,
福岡県,北九州市,第51投票区-8,八幡西区浅川学園台三丁目1番,浅川学園台中央公園 駐車場入口フェンス,33.8839986,130.7106286,
福岡県,北九州市,第52投票区-1,八幡西区八枝四丁目5番1号,八枝小学校 正門横フェンス,33.8470031,130.7285029,
福岡県,北九州市,第52投票区-2,八幡西区八枝一丁目1番1号,金山川ポンプ場 入口横フェンス,33.8481389,130.7280523,
福岡県,北九州市,第52投票区-3,八幡西区北筑一丁目8番,永犬丸中央公園 北東(北筑一丁目),33.8455948,130.7313808,
福岡県,北九州市,第52投票区-4,八幡西区北筑二丁目20番,永犬丸中央公園 南東(北筑二丁目),33.8437506,130.7345484,
福岡県,北九州市,第52投票区-5,八幡西区北筑二丁目8番,北筑二丁目公園北側フェンス,33.8457382,130.7366865,
福岡県,北九州市,第52投票区-6,八幡西区永犬丸一丁目1番,月極駐車場 ブロック塀,33.8493533,130.7232234,
福岡県,北九州市,第52投票区-7,八幡西区泉ケ浦一丁目4番,泉ケ浦緑地 フェンス,33.8461373,130.7212433,
福岡県,北九州市,第52投票区-8,八幡西区泉ケ浦二丁目20番,北浦公園東側フェンス,33.8444816,130.7191839,
福岡県,北九州市,第1投票区-1,小倉北区長浜町2番1号,市営長浜団地1棟199号線側フェンス,33.8856961,130.8889671,
福岡県,北九州市,第1投票区-2,小倉北区末広一丁目11番,末広一丁目バス停手前のガードレール,33.8863624,130.8905748,
福岡県,北九州市,第1投票区-3,小倉北区長浜町2番22号,長浜児童館(長浜保育園側フェンス),33.8857175,130.8899627,
福岡県,北九州市,第1投票区-4,小倉北区高浜一丁目4番,国道199号線沿い歩道,33.8880107,130.8957078,
福岡県,北九州市,第1投票区-5,小倉北区長浜町16番8号,市営長浜団地4棟フェンス,33.8855759,130.8931909,
福岡県,北九州市,第1投票区-6,小倉北区浅野三丁目9番,北九州国際会議場前 植え込み,33.8891953,130.8878586,
福岡県,北九州市,第1投票区-7,小倉北区浅野三丁目9番33号,ミクスタ前歩道橋下ガードレール,33.8912192,130.8888239,
福岡県,北九州市,第2投票区-1,小倉北区堺町二丁目4番1号,小倉中央小学校(南側),33.8813242,130.8868382,
福岡県,北九州市,第2投票区-2,小倉北区米町二丁目3番,砂津橋,33.8836188,130.8878106,
福岡県,北九州市,第2投票区-3,小倉北区京町四丁目6番,新砂津橋,33.8844908,130.8878106,
福岡県,北九州市,第2投票区-4,小倉北区堺町二丁目4番24号,小倉中央市民センター,33.8822034,130.8873007,
福岡県,北九州市,第2投票区-5,小倉北区堺町二丁目4番1号,小倉中央小学校(北側壁面),33.8813242,130.8868382,
福岡県,北九州市,第2投票区-6,小倉北区堺町二丁目4番1号,小倉中央小学校(正門横),33.8813242,130.8868382,
福岡県,北九州市,第3投票区-1,小倉北区馬借二丁目1番1号,市立医療センター前植込み (モノレール側),33.8797628,130.8784662,
福岡県,北九州市,第3投票区-2,小倉北区馬借一丁目13番,紫川鉄の橋バス停前,33.8800363,130.8764368,
福岡県,北九州市,第3投票区-3,小倉北区馬借一丁目5番,旦過橋(ローソン横),33.8803507,130.8792805,
福岡県,北九州市,第3投票区-4,小倉北区古船場町1番,平和橋,33.8803968,130.8800483,
福岡県,北九州市,第3投票区-5,小倉北区馬借三丁目5番,稲荷橋ガードレール,33.877717,130.882045,
福岡県,北九州市,第3投票区-6,小倉北区古船場町3番,古船場公園,33.879174,130.8814921,
福岡県,北九州市,第4投票区-1,小倉北区竪町二丁目2番,竪町公園,33.8857792,130.8679049,
福岡県,北九州市,第4投票区-2,小倉北区城内2番,小倉城前交差点(濠横外柵),33.88516329999999,130.873435,
福岡県,北九州市,第4投票区-3,小倉北区城内2番,小倉城西側(濠横外柵),33.88516329999999,130.873435,
福岡県,北九州市,第4投票区-4,小倉北区大門一丁目5,大門緑道(思永中学校西側),33.8851771,130.871223,
福岡県,北九州市,第4投票区-5,小倉北区大門一丁目5番,西小倉市民センター駐車場フェンス,33.8851771,130.871223,
福岡県,北九州市,第4投票区-6,小倉北区大門二丁目5番,大門一丁目交差点北西の鉄柵,33.8878158,130.870986,
福岡県,北九州市,第4投票区-7,小倉北区鋳物師町6番,鋳物師町交差点西側フェンス,33.8901399,130.8679049,
福岡県,北九州市,第5投票区-1,小倉北区大手町3番,小倉北区役所市民駐車場東側金網,33.87961,130.8747391,
福岡県,北九州市,第5投票区-2,小倉北区大手町3番,小倉北区役所市民駐車場西側金網,33.87961,130.8747391,
福岡県,北九州市,第5投票区-3,小倉北区城内4番,勝山公園植え込み,33.880458,130.8712329,
福岡県,北九州市,第5投票区-4,小倉北区城内6番1号,西小倉小学校(正門右),33.8837163,130.870912,
福岡県,北九州市,第5投票区-5,小倉北区田町2番,西小倉横断歩道橋付近のガードレール,33.883402,130.869485,
福岡県,北九州市,第5投票区-6,小倉北区田町20番,金田公園福岡地方裁判所小倉支部側ガードレール,33.8801012,130.8659298,
福岡県,北九州市,第5投票区-7,小倉北区金田一丁目1番,金田一丁目団地8号棟南側フェンス,33.8785902,130.8647348,
福岡県,北九州市,第5投票区-8,小倉北区城内4番,勝山公園(児童公園),33.880458,130.8712329,
福岡県,北九州市,第6投票区-1,小倉北区青葉二丁目5番,青葉公園(フェンス),33.8861058,130.8654557,
福岡県,北九州市,第6投票区-2,小倉北区平松町2番,極楽橋上,33.8911046,130.8640422,
福岡県,北九州市,第6投票区-3,小倉北区愛宕二丁目8番1号,小倉高等学校(正門横),33.8876602,130.862808,
福岡県,北九州市,第6投票区-4,小倉北区愛宕一丁目2番,小倉高校前交差点北 ガードパイプ,33.8886728,130.8634015,
福岡県,北九州市,第6投票区-5,小倉北区菜園場一丁目4番内,都市高速道路3号線下駐車場フェンス,33.8837713,130.8634805,
福岡県,北九州市,第6投票区-6,小倉北区菜園場二丁目4番7号,ビーライン菜園場アパート前緑地,33.8822748,130.8607052,
福岡県,北九州市,第6投票区-7,小倉北区東港一丁目2番,消防訓練研修センター (国道199号線沿い正門西側),33.8914224,130.868695,
福岡県,北九州市,第7投票区-1,小倉北区日明一丁目9番,日明公園道路側フェンス,33.8915459,130.8622163,
福岡県,北九州市,第7投票区-2,小倉北区日明四丁目3番7号,日明市民センター (正面フェンス),33.8911063,130.8594113,
福岡県,北九州市,第7投票区-3,小倉北区日明四丁目4番1号,日明小学校(正門左側フェンス),33.8923364,130.858631,
福岡県,北九州市,第7投票区-4,小倉北区日明四丁目4番1号,日明小学校(裏門左側),33.8923364,130.858631,
福岡県,北九州市,第7投票区-5,小倉北区日明四丁目9番11号,ビレッジハウス日明 (ブロック塀),33.8939291,130.8583626,
福岡県,北九州市,第7投票区-6,小倉北区中井一丁目1番13号,高見台歩道橋前柵,33.8932961,130.8559809,
福岡県,北九州市,第7投票区-7,小倉北区西港町94番地9,中央卸売市場正門右側,33.908267,130.8748623,
福岡県,北九州市,第8投票区-1,小倉北区緑ヶ丘一丁目6番,緑ケ丘公園フェンス,33.8896509,130.8596879,
福岡県,北九州市,第8投票区-2,小倉北区緑ヶ丘一丁目14番,臼ヶ丘公園,33.8890454,130.8568432,
福岡県,北九州市,第8投票区-3,小倉北区緑ヶ丘二丁目12番,城見公園前ガードレール,33.8867793,130.8572383,
福岡県,北九州市,第8投票区-4,小倉北区緑ヶ丘三丁目3番,九州電力(株)日明変電所(西角),33.8864528,130.8596879,
福岡県,北九州市,第8投票区-5,小倉北区緑ヶ丘一丁目2番,光沢寺前ガードレール,33.8881837,130.8619003,
福岡県,北九州市,第8投票区-6,小倉北区緑ヶ丘三丁目1番,九州電力(株)日明変電所(入口金網左),33.88785530000001,130.8612682,
福岡県,北九州市,第8投票区-7,小倉北区緑ヶ丘二丁目10番,緑ヶ丘3号公園,33.8868735,130.8588187,
福岡県,北九州市,第9投票区-1,小倉北区高峰町12番,小倉高峰パンダ公園(入口),33.88635319999999,130.8555789,
福岡県,北九州市,第9投票区-2,小倉北区高峰町15番,記念公園 (北入口右端),33.8875674,130.8539984,
福岡県,北九州市,第9投票区-3,小倉北区高峰町5番,小倉高峰北公園,33.8883131,130.8543145,
福岡県,北九州市,第9投票区-4,小倉北区井堀二丁目7番4号,中井市民センター (フェンス),33.8871059,130.8506419,
福岡県,北九州市,第9投票区-5,小倉北区白萩町8番1号,板櫃中学校 (北西側フェンス),33.8847899,130.8535144,
福岡県,北九州市,第9投票区-6,小倉北区白萩町8番1号,板櫃中学校(裏門),33.8847899,130.8535144,
福岡県,北九州市,第9投票区-7,小倉北区白萩町6番,小倉工業高校正門前ガードレール,33.8829462,130.8557369,
福岡県,北九州市,第10投票区-1,小倉北区朝日ヶ丘19番,masked,33.88902789999999,130.8528921,
福岡県,北九州市,第10投票区-2,小倉北区朝日ヶ丘5番,県営朝日ケ丘団地駐車場入口左(フェンス),33.8895051,130.8529711,
福岡県,北九州市,第10投票区-3,小倉北区朝日ヶ丘6番,県営朝日ケ丘団地2号棟 北東フェンス,33.8891477,130.8536823,
福岡県,北九州市,第10投票区-4,小倉北区朝日ヶ丘2番,市営ときわ台団地 (集会所前ガードレール),33.8900577,130.8543145,
福岡県,北九州市,第10投票区-5,小倉北区朝日ヶ丘2番,市営ときわ台団地(東門右),33.8900577,130.8543145,
福岡県,北九州市,第10投票区-6,小倉北区朝日ヶ丘13番,masked,33.887492,130.8527341,
福岡県,北九州市,第10投票区-7,小倉北区朝日ヶ丘6番,県営朝日ケ丘団地4号棟 南西フェンス,33.8891477,130.8536823,
福岡県,北九州市,第11投票区-1,小倉北区中井浜4番,櫨山荘公園駐車場 東側フェンス,33.9002539,130.8509955,
福岡県,北九州市,第11投票区-2,小倉北区中井口4番1号,志明館(東南角),33.8960338,130.8512558,
福岡県,北九州市,第11投票区-3,小倉北区中井口4番1号,志明館(体育館前門),33.8960338,130.8512558,
福岡県,北九州市,第11投票区-4,小倉北区中井口5番1号,真颯館高校(北門東側フェンス),33.8976265,130.8525113,
福岡県,北九州市,第11投票区-5,小倉北区中井一丁目9番,北小倉市民センター,33.8945299,130.8531292,
福岡県,北九州市,第11投票区-6,小倉北区中井一丁目21番,北小倉さざんか公園,33.8945589,130.8517857,
福岡県,北九州市,第11投票区-7,小倉北区中井一丁目39番,境川沿いガードレール,33.8951828,130.8482294,
福岡県,北九州市,第12投票区-1,小倉北区中井二丁目12番1号,中井小学校(正門右側),33.8914776,130.8504849,
福岡県,北九州市,第12投票区-2,小倉北区中井二丁目12番1号,中井小学校(運動場側門),33.8914776,130.8504849,
福岡県,北九州市,第12投票区-3,小倉北区中井二丁目16番,中井2号公園(低いフェンス),33.8893765,130.8502052,
福岡県,北九州市,第12投票区-4,小倉北区中井三丁目7番,境川上中原橋横ガードレール,33.8913152,130.8478793,
福岡県,北九州市,第12投票区-5,小倉北区中井三丁目23番,境川公園,33.8911477,130.8457794,
福岡県,北九州市,第12投票区-6,小倉北区中井五丁目6番,境川沿い三角植樹帯,33.8899247,130.8453842,
福岡県,北九州市,第12投票区-7,小倉北区中井四丁目11番,masked,33.8868994,130.8476762,
福岡県,北九州市,第12投票区-8,小倉北区中井四丁目8番,スピナ駐車場北側フェンス,33.8873411,130.8502052,
福岡県,北九州市,第13投票区-1,小倉北区馬島,市営渡船待合所横,33.9668318,130.8538404,
福岡県,北九州市,第13投票区-2,小倉北区馬島,馬島集会所,33.9668318,130.8538404,
福岡県,北九州市,第13投票区-3,小倉北区浅野三丁目5番,あさの汐風公園西側歩道ガードパイプ,33.8906982,130.8846514,
福岡県,北九州市,第13投票区-4,小倉北区室町一丁目1番,新勝山橋,33.8857308,130.8756469,
福岡県,北九州市,第13投票区-5,小倉北区浅野二丁目11番25号,日産レンタカー前道路柵,33.8888552,130.8830591,
福岡県,北九州市,第13投票区-6,小倉北区城内1番,勝山公園(議会棟前植え込み),33.88243790000001,130.8757295,
福岡県,北九州市,第13投票区-7,小倉北区京町三丁目7番,ガーデンシティ前ガードレール,33.8859725,130.8833877,
福岡県,北九州市,第13投票区-8,小倉北区浅野三丁目7番,ミクスタ入口向かい側ガードレール(西日本総合展示場側),33.8910566,130.8870208,
福岡県,北九州市,第13投票区-9,小倉北区京町三丁目1番,セントシティ前のガードレール,33.8852716,130.8825979,
福岡県,北九州市,第14投票区-1,小倉北区藍島246番地3,藍島小学校,33.9929494,130.8176008,
福岡県,北九州市,第14投票区-2,小倉北区藍島,トンネル手前左のスペース,33.993652,130.8158963,
福岡県,北九州市,第14投票区-3,小倉北区藍島,漁業組合売店前,33.993652,130.8158963,
福岡県,北九州市,第15投票区-1,小倉北区下到津五丁目7番1号,小倉西高等学校(運動場側フェンス),33.8736629,130.8560234,
福岡県,北九州市,第15投票区-2,小倉北区下到津五丁目7番1号,小倉西高等学校(南西フェンス),33.8736629,130.8560234,
福岡県,北九州市,第15投票区-3,小倉北区下到津五丁目2番,下到津公園,33.8756036,130.8575544,
福岡県,北九州市,第15投票区-4,小倉北区下到津五丁目7番1号,小倉西高等学校(正門)右,33.8736629,130.8560234,
福岡県,北九州市,第15投票区-5,小倉北区真鶴一丁目3番,真鶴公園,33.8742672,130.8552628,
福岡県,北九州市,第15投票区-6,小倉北区真鶴一丁目11番,新鶴公園,33.8738663,130.8528131,
福岡県,北九州市,第16投票区-1,小倉北区板櫃町17番,市営白萩第二団地横公園 (フェンス),33.88152670000001,130.8569222,
福岡県,北九州市,第16投票区-2,小倉北区上到津一丁目13番,西南女学院中学・高校前路上,33.8796165,130.8498891,
福岡県,北九州市,第16投票区-3,小倉北区上到津一丁目9番1号,到津小学校(正門左),33.879195,130.8530137,
福岡県,北九州市,第16投票区-4,小倉北区上到津一丁目1番,到津八幡公園,33.8768498,130.8540775,
福岡県,北九州市,第16投票区-5,小倉北区上到津二丁目1番,板櫃橋上,33.8739739,130.8521809,
福岡県,北九州市,第16投票区-6,小倉北区上到津一丁目3番10号,到津児童館フェンス,33.8768753,130.852676,
福岡県,北九州市,第16投票区-7,小倉北区下到津三丁目11番,市営板櫃団地10棟前フェンス,33.8801273,130.8547887,
福岡県,北九州市,第16投票区-8,小倉北区下到津四丁目3番,小倉北特別支援学校前フェンス,33.8789953,130.8565271,
福岡県,北九州市,第17投票区-1,小倉北区井堀三丁目23番,九州電力(株)井堀変電所南側鉄塔の柵,33.8850134,130.8434873,
福岡県,北九州市,第17投票区-2,小倉北区井堀三丁目15番1号,井堀小学校(正門),33.883823,130.8455866,
福岡県,北九州市,第17投票区-3,小倉北区井堀三丁目15番2号,井堀小学校(井堀市民センター側),33.8833957,130.8452376,
福岡県,北九州市,第17投票区-4,小倉北区井堀四丁目13番,中央公園ソフトボール球場入口,33.88018,130.8459375,
福岡県,北九州市,第17投票区-5,小倉北区都一丁目13番,都上到津1号線道路関連設備の柵,33.8788328,130.8489407,
福岡県,北九州市,第17投票区-6,小倉北区井堀一丁目20番,井堀南団地5棟 (つどいの家側フェンス),33.8808306,130.8483085,
福岡県,北九州市,第17投票区-7,小倉北区井堀一丁目7番,井堀1号公園(北西側),33.8839028,130.8486246,
福岡県,北九州市,第18投票区-1,小倉北区上到津三丁目6番,トヨタカローラ中古車販売店北 フェンス,33.8730167,130.8489407,
福岡県,北九州市,第18投票区-2,小倉北区上到津四丁目2番,サンリブ到津前ガードレール,33.8716513,130.8479923,
福岡県,北九州市,第18投票区-3,小倉北区上到津四丁目24番,総合体育館バス停前ガードレール,33.8730047,130.8438825,
福岡県,北九州市,第18投票区-4,小倉北区上到津四丁目3番,九州電力(株)到津変電所北側鉄塔の柵,33.8711804,130.8468068,
福岡県,北九州市,第18投票区-5,小倉北区泉台三丁目25番,市営曙団地(市-1横フェンス),33.8667451,130.8486246,
福岡県,北九州市,第18投票区-6,小倉北区金鶏町4番1号,金鶏公園,33.8710913,130.8513906,
福岡県,北九州市,第18投票区-7,小倉北区泉台一丁目3番1号,泉台小学校(中央門),33.8693534,130.8508621,
福岡県,北九州市,第18投票区-8,小倉北区泉台一丁目3番1号,泉台小学校(裏門西側フェンス),33.8693534,130.8508621,
福岡県,北九州市,第18投票区-9,小倉北区皿山町25番,皿山町南公園(北側フェンス),33.8670571,130.8556579,
福岡県,北九州市,第18投票区-10,小倉北区泉台二丁目17番,ひなたの街南側公園,33.8643548,130.8524179,
福岡県,北九州市,第19投票区-1,小倉北区清水二丁目13番1号,清水小学校(北門),33.8734014,130.8615854,
福岡県,北九州市,第19投票区-2,小倉北区竪林町3番22号,masked,33.869532,130.8618997,
福岡県,北九州市,第19投票区-3,小倉北区清水四丁目7番,末事務機対面(山側),33.8713329,130.8596879,
福岡県,北九州市,第19投票区-4,小倉北区弁天町9番,竪林公園,33.8709534,130.8606361,
福岡県,北九州市,第19投票区-5,小倉北区弁天町12番,新栄会病院駐車場倉庫西側(小倉新栄会新栄きよみずの杜側),33.8701055,130.8634805,
福岡県,北九州市,第19投票区-6,小倉北区皿山町8番,市営皿山団地(駐車場フェンス),33.8693861,130.8587397,
福岡県,北九州市,第19投票区-7,小倉北区清水二丁目13番1号,清水小学校(正門右側),33.8734014,130.8615854,
福岡県,北九州市,第20投票区-1,小倉北区原町二丁目4番,原町東公園,33.8752988,130.8667594,
福岡県,北九州市,第20投票区-2,小倉北区原町二丁目13番,原町緑道,33.8743184,130.8640336,
福岡県,北九州市,第20投票区-3,小倉北区原町二丁目17番,原町緑道,33.8744516,130.8626114,
福岡県,北九州市,第20投票区-4,小倉北区原町二丁目8番1号,篠崎中学校正門前歩道フェンス,33.8755713,130.8648835,
福岡県,北九州市,第20投票区-5,小倉北区原町二丁目8番1号,篠崎中学校(西門フェンス),33.8755713,130.8648835,
福岡県,北九州市,第20投票区-6,小倉北区大手町15番,大手町公園グラウンド前道路柵,33.8750391,130.871855,
福岡県,北九州市,第20投票区-7,小倉北区木町一丁目3番,原町緑道(ミクチャリ置場横植え込み),33.8739776,130.8671544,
福岡県,北九州市,第20投票区-8,小倉北区木町一丁目8番,木町公園,33.8722938,130.8692586,
福岡県,北九州市,第21投票区-1,小倉北区木町三丁目11番,JR南小倉駅自転車駐車場フェンス,33.8705983,130.8644286,
福岡県,北九州市,第21投票区-2,小倉北区木町三丁目4番,木町三丁目公園 年長者いこいの家横,33.8715594,130.8634805,
福岡県,北九州市,第21投票区-3,小倉北区木町三丁目16番,JR南小倉駅ホーム北東側市道ガードレール,33.8698014,130.8656928,
福岡県,北九州市,第21投票区-4,小倉北区木町二丁目13番,吾妻橋横ガードレール,33.8704073,130.868537,
福岡県,北九州市,第21投票区-5,小倉北区木町二丁目4番,スピナ木町月極有料駐車場フェンス,33.8718147,130.8684488,
福岡県,北九州市,第21投票区-6,小倉北区木町二丁目1番4号,木町二丁目1-4前ガードレール (木町バス停側),33.872188,130.8669765,
福岡県,北九州市,第22投票区-1,小倉北区篠崎四丁目2号,市営宮田団地遊児公園ガードレール,33.8632431,130.8648237,
福岡県,北九州市,第22投票区-2,小倉北区篠崎五丁目29番,小山町集会所横のガードレール,33.8607623,130.8628484,
福岡県,北九州市,第22投票区-3,小倉北区新高田二丁目11番,新高田二丁目公園,33.8654907,130.8641126,
福岡県,北九州市,第22投票区-4,小倉北区新高田一丁目10番,おぐまの保育所西側道路柵,33.8663498,130.8663248,
福岡県,北九州市,第22投票区-5,小倉北区篠崎一丁目6番,都市高速道路紫川ジャンクション下フェンス,33.8661656,130.869327,
福岡県,北九州市,第22投票区-6,小倉北区篠崎一丁目10番,篠崎橋横道路ガードレール,33.8637302,130.8722793,
福岡県,北九州市,第22投票区-7,小倉北区篠崎二丁目48番,篠崎南公園(フェンス),33.8623277,130.872013,
福岡県,北九州市,第23投票区-1,小倉北区熊谷三丁目15番,セブンイレブン熊谷3丁目店南ガードパイプ,33.8546264,130.8641916,
福岡県,北九州市,第23投票区-2,小倉北区今町三丁目1番1号,西部ガスポンプ室 金網,33.8578123,130.8701487,
福岡県,北九州市,第23投票区-3,小倉北区今町三丁目14番,南ヶ丘病院南側道路柵,33.8545984,130.8707095,
福岡県,北九州市,第23投票区-4,小倉北区南丘一丁目3番,南丘小学校(正門手前フェンス),33.8536138,130.870354,
福岡県,北九州市,第23投票区-5,小倉北区南丘一丁目1番1号,南丘小学校南側の道路ガードレール,33.85252200000001,130.8699807,
福岡県,北九州市,第23投票区-6,小倉北区南丘一丁目3番,南丘コミュニティ公園 (南西側の柵),33.8536138,130.870354,
福岡県,北九州市,第24投票区-1,小倉北区篠崎五丁目15番,篠崎西公園,33.8627732,130.8600039,
福岡県,北九州市,第24投票区-2,小倉北区高尾1丁目公園南側柵,高尾一丁目23番,33.8651668,130.8592292,
福岡県,北九州市,第24投票区-3,小倉北区篠崎五丁目3番8号,山田町公民館(公民館入口フェンス),33.8636023,130.8584273,
福岡県,北九州市,第24投票区-4,小倉北区高尾一丁目42番,高尾西公園鉄柵,33.8653409,130.8543145,
福岡県,北九州市,第24投票区-5,小倉北区高尾一丁目4番3号,高尾東公園向かいガードレール,33.8661938,130.858275,
福岡県,北九州市,第24投票区-6,小倉北区高尾一丁目33番,高尾中公園(フェンス),33.8648727,130.8562111,
福岡県,北九州市,第25投票区-1,小倉北区下富野一丁目2番1号,国道3号線歩道上フェンス (菊陵中前),33.8825253,130.8944147,
福岡県,北九州市,第25投票区-2,小倉北区下富野二丁目10番,富野歩道橋下ガードレール,33.8818035,130.8988663,
福岡県,北九州市,第25投票区-3,小倉北区下富野一丁目2番1号,菊陵中学校(正門塀横フェンス),33.8825253,130.8944147,
福岡県,北九州市,第25投票区-4,小倉北区下富野一丁目2番1号,菊陵中学校(東門左のフェンス),33.8825253,130.8944147,
福岡県,北九州市,第25投票区-5,小倉北区下富野三丁目12番,福岡教育大学付属小倉中学校 北側フェンス,33.8797761,130.8977609,
福岡県,北九州市,第25投票区-6,小倉北区下富野三丁目8番内,都市高速道路4号線下フェンス (株)第一交通角・トンネル横,33.8789255,130.8944443,
福岡県,北九州市,第25投票区-7,小倉北区砂津二丁目3番,砂津ぶんせん公園フェンス,33.8811901,130.8909696,
福岡県,北九州市,第26投票区-1,小倉北区下富野四丁目4番内,都市高速道路4号線法面フェンス 市営下富野第三団地北側,33.878255,130.8953919,
福岡県,北九州市,第26投票区-2,小倉北区下富野四丁目4番,市営下富野第三団地裏口(金網),33.878255,130.8953919,
福岡県,北九州市,第26投票区-3,小倉北区下富野五丁目6番,富野営団北公園(町内掲示場横),33.8770406,130.8969712,
福岡県,北九州市,第26投票区-4,小倉北区下富野五丁目8番,富野営団南公園(北側金網),33.8764968,130.8976029,
福岡県,北九州市,第26投票区-5,小倉北区下富野五丁目17番17号,下富野地域交流センター (道路側フェンス),33.8785544,130.8980038,
福岡県,北九州市,第26投票区-6,小倉北区下富野五丁目25番,十字ヶ丘1号公園,33.876162,130.8996165,
福岡県,北九州市,第27投票区-1,小倉北区神幸町2番,小倉北消防署富野分署横ガードレール,33.8810812,130.9013931,
福岡県,北九州市,第27投票区-2,小倉北区上富野二丁目12番,ナフコ富野店(フェンス) ナフコ・マルショク間,33.8820423,130.9004456,
福岡県,北九州市,第27投票区-3,小倉北区常盤町8番,富野中学校東門前道路ガードレール,33.880419,130.9073936,
福岡県,北九州市,第27投票区-4,小倉北区小文字一丁目1番,市立神幸町第二集会所 (フェンス),33.8793373,130.9013931,
福岡県,北九州市,第27投票区-5,小倉北区小文字一丁目4番38号,市営小文字第2団地38棟西側フェンス,33.8781701,130.9012056,
福岡県,北九州市,第27投票区-6,小倉北区神幸町7番,市営神幸団地23棟前 (フェンス),33.8816106,130.9029722,
福岡県,北九州市,第27投票区-7,小倉北区須賀町6番23号,富野市民センター前道路柵,33.8816446,130.9072956,
福岡県,北九州市,第27投票区-8,小倉北区常盤町2番,大谷公園フェンス,33.8820881,130.9061304,
福岡県,北九州市,第28投票区-1,小倉北区赤坂二丁目21番1号,桜丘小学校(体育館西側、道路沿いフェンス),33.8868142,130.9087258,
福岡県,北九州市,第28投票区-2,小倉北区赤坂二丁目21番1号,桜丘小学校(東門左側ブロック塀),33.8868142,130.9087258,
福岡県,北九州市,第28投票区-3,小倉北区赤坂二丁目17番,赤坂桜城公園(市立年長者いこいの家前),33.8861941,130.906762,
福岡県,北九州市,第28投票区-4,小倉北区富野台2番,富野台北公園西側フェンス,33.8866975,130.9122093,
福岡県,北九州市,第28投票区-5,小倉北区赤坂四丁目7番,市営赤坂東第一団地6棟前(団地集会所フェンス),33.890613,130.9102357,
福岡県,北九州市,第28投票区-6,小倉北区赤坂四丁目7番,手向山公園すそ市営住宅前道路,33.890613,130.9102357,
福岡県,北九州市,第28投票区-7,小倉北区赤坂四丁目1番,市営赤坂東第一団地12棟西側(フェンス),33.8915742,130.9092883,
福岡県,北九州市,第29投票区-1,小倉北区山門町9番,市営足立団地集会室横フェンス,33.8743925,130.9019458,
福岡県,北九州市,第29投票区-2,小倉北区山門町5番,県道湯川赤坂線 山門町バス停南側の歩道フェンス,33.8733226,130.9004456,
福岡県,北九州市,第29投票区-3,小倉北区大畠三丁目10番1号,寿山小学校正門右側,33.8706723,130.900181,
福岡県,北九州市,第29投票区-4,小倉北区足原一丁目6番,小倉藤松公園(東側),33.8696506,130.8967343,
福岡県,北九州市,第29投票区-5,小倉北区大畠三丁目10番2号,寿山市民センター,33.8713729,130.9002238,
福岡県,北九州市,第29投票区-6,小倉北区大畠三丁目10番1号,寿山小学校正門左側 体育館前,33.8706723,130.900181,
福岡県,北九州市,第29投票区-7,小倉北区足原一丁目7番,アーベインルネス足立妙見通りフェンス,33.8691923,130.8969712,
福岡県,北九州市,第29投票区-8,小倉北区大畠二丁目5番,県道湯川赤坂線歩道 香川医院職員駐車場上ガードパイプ,33.8752449,130.8985505,
福岡県,北九州市,第30投票区-1,小倉北区大畠一丁目5番,大畠公園フェンス,33.8730603,130.8960236,
福岡県,北九州市,第30投票区-2,小倉北区熊本二丁目2番,熊本二丁目公園 (東公園前バス停横),33.870838,130.8928649,
福岡県,北九州市,第30投票区-3,小倉北区神岳一丁目5番,市営住宅管理センター駐車場,33.8706808,130.8914434,
福岡県,北九州市,第30投票区-4,小倉北区神岳一丁目5番,市営神岳団地集会所横(金網),33.8706808,130.8914434,
福岡県,北九州市,第30投票区-5,小倉北区神岳二丁目10番31号,神岳保育園(正門),33.87148,130.8936575,
福岡県,北九州市,第30投票区-6,小倉北区大畠一丁目1番,マルショク大畠店西側水路ガードレール,33.874066,130.8946022,
福岡県,北九州市,第31投票区-1,小倉北区宇佐町二丁目11番,宇佐町2号公園,33.8742512,130.8916014,
福岡県,北九州市,第31投票区-2,小倉北区宇佐町一丁目11番,宇佐町バス停北側乱橋,33.8755826,130.8899067,
福岡県,北九州市,第31投票区-3,小倉北区宇佐町一丁目8番15号,足立市民センター駐車場案内フェンス,33.8769478,130.8914708,
福岡県,北九州市,第31投票区-4,小倉北区宇佐町一丁目6番7号,足立小学校(東門フェンス),33.8779459,130.8905649,
福岡県,北九州市,第31投票区-5,小倉北区大田町15番内,都市高速道路4号線下駐車場フェンス,33.8778555,130.8929439,
福岡県,北九州市,第31投票区-6,小倉北区中津口一丁目9番,中津口橋東側ガードレール,33.8789819,130.8855992,
福岡県,北九州市,第31投票区-7,小倉北区下富野四丁目9番,市営下富野西団地2棟(西側),33.8768908,130.8944443,
福岡県,北九州市,第32投票区-1,小倉北区明和町2番,市営住宅47棟フェンス (明和町公園側),33.8763141,130.8871788,
福岡県,北九州市,第32投票区-2,小倉北区明和町10番,小倉競輪明和町駐車場フェンス,33.8734307,130.8900219,
福岡県,北九州市,第32投票区-3,小倉北区萩崎町3番,足立中学校(都市高速側),33.8752849,130.8857572,
福岡県,北九州市,第32投票区-4,小倉北区萩崎町3番,足立中学校(正門),33.8752849,130.8857572,
福岡県,北九州市,第32投票区-5,小倉北区江南町7番,江南町緑地(南入口),33.8757091,130.8843355,
福岡県,北九州市,第32投票区-6,小倉北区萩崎町1番,都市高速4号高架下フェンス (障害者職業センター南側),33.874218,130.8837037,
福岡県,北九州市,第32投票区-7,小倉北区香春口二丁目1番,国道322号香春口南交差点三角植樹帯,33.8752528,130.8809392,
福岡県,北九州市,第33投票区-1,小倉北区中島一丁目18番,松昌ビル前植え込み,33.87667570000001,130.8792015,
福岡県,北九州市,第33投票区-2,小倉北区中島一丁目7番,九州電力(株)旦過変電所柵,33.8783809,130.8754889,
福岡県,北九州市,第33投票区-3,小倉北区中島二丁目1番,紫川柵(豊後橋東交差点そば),33.8753539,130.8746989,
福岡県,北九州市,第33投票区-4,小倉北区昭和町16番3号,れんげの花保育園(市民センター側柵),33.8749206,130.8779582,
福岡県,北九州市,第33投票区-5,小倉北区昭和町8番,昭和町公園(南門右側),33.8746629,130.8789645,
福岡県,北九州市,第33投票区-6,小倉北区昭和町16番1号,中島小学校(運動場側門左側フェンス),33.8745363,130.8777211,
福岡県,北九州市,第33投票区-7,小倉北区昭和町16番1号,中島小学校(運動場東側フェンス),33.8745363,130.8777211,
福岡県,北九州市,第33投票区-8,小倉北区中島二丁目1番,紫川柵(貴船橋東交差点),33.8753539,130.8746989,
福岡県,北九州市,第34投票区-1,小倉北区白銀一丁目13番1号,白銀中学校(北側),33.869828,130.8757964,
福岡県,北九州市,第34投票区-2,小倉北区白銀一丁目13番1号,白銀中学校(南側),33.869828,130.8757964,
福岡県,北九州市,第34投票区-3,小倉北区白銀一丁目13番1号,白銀中学校(正門),33.869828,130.8757964,
福岡県,北九州市,第34投票区-4,小倉北区白銀二丁目6番,市営白銀団地4棟前フェンス,33.8685711,130.8767528,
福岡県,北九州市,第34投票区-5,小倉北区黄金一丁目7番,黄金公園西側,33.8707158,130.8792015,
福岡県,北九州市,第34投票区-6,小倉北区黄金二丁目6番,市営黄金団地16棟前(受水タンク前フェンス),33.868289,130.8787275,
福岡県,北九州市,第35投票区-1,小倉北区貴船町3番,都市高速道路4号線下フェンス 東陶駐車場横,33.8706335,130.872329,
福岡県,北九州市,第35投票区-2,小倉北区白銀二丁目8番1号,貴船小学校(西側フェンス),33.8684102,130.8748433,
福岡県,北九州市,第35投票区-3,小倉北区白銀二丁目8番1号,貴船小学校(西門右側),33.8684102,130.8748433,
福岡県,北九州市,第35投票区-4,小倉北区白銀二丁目9番,市営白銀団地白銀九町内掲示板横(白銀西団地),33.867538,130.8758838,
福岡県,北九州市,第35投票区-5,小倉北区東篠崎一丁目24番,松井踏切北東陸橋下ガードパイプ,33.864374,130.8770687,
福岡県,北九州市,第35投票区-6,小倉北区東篠崎二丁目6番,東篠崎西公園(掲示板横),33.8641855,130.873909,
福岡県,北九州市,第35投票区-7,小倉北区白銀二丁目17番,東篠崎きづな公園(フェンス),33.8685267,130.8772267,
福岡県,北九州市,第35投票区-8,小倉北区白銀二丁目11番,白銀南公園,33.867781,130.8769107,
福岡県,北九州市,第36投票区-1,小倉北区三萩野三丁目3番,三萩野体育館駐車場付近の植え込み 道路に向けて,33.8698741,130.8876527,
福岡県,北九州市,第36投票区-2,小倉北区三萩野三丁目1番,三萩野公園,33.8718715,130.8870208,
福岡県,北九州市,第36投票区-3,小倉北区三萩野三丁目1番,メディアドーム神獄川ガードレール (北側),33.8718715,130.8870208,
福岡県,北九州市,第36投票区-4,小倉北区三萩野三丁目1番,メディアドーム神獄川ガードレール (南側),33.8718715,130.8870208,
福岡県,北九州市,第36投票区-5,小倉北区片野一丁目4番,角神社前ガードレール,33.8705276,130.8827559,
福岡県,北九州市,第36投票区-6,小倉北区三萩野二丁目10番,三萩野公園(北九州市民球場ライト側東部公園管理事務所前),33.8688892,130.8857572,
福岡県,北九州市,第36投票区-7,小倉北区三萩野二丁目10番,三萩野公園(三萩野年長者いこいの家前フェンス),33.8688892,130.8857572,
福岡県,北九州市,第36投票区-8,小倉北区三萩野二丁目10番,三萩野公園(北九州市民球場レフト側植え込み奥フェンス),33.8688892,130.8857572,
福岡県,北九州市,第37投票区-1,小倉北区三郎丸三丁目13番,三郎丸橋横ガードレール,33.865742,130.8900783,
福岡県,北九州市,第37投票区-2,小倉北区三郎丸三丁目13番1号,三郎丸小学校(正門),33.865742,130.8900783,
福岡県,北九州市,第37投票区-3,小倉北区三郎丸三丁目13番1号,三郎丸小学校(西門体育館前),33.865742,130.8900783,
福岡県,北九州市,第37投票区-4,小倉北区三郎丸三丁目10番36号,いづみ幼稚園(金網),33.865742,130.8900783,
福岡県,北九州市,第37投票区-5,小倉北区三郎丸一丁目9番12号,福岡県警第二機動隊グラウンド前ガードレール,33.8639416,130.8882647,
福岡県,北九州市,第37投票区-6,小倉北区三郎丸二丁目9番1号,小倉聴覚特別支援学校前ガードレール,33.864663,130.8903792,
福岡県,北九州市,第38投票区-1,小倉北区片野新町一丁目3番1号,美萩野女子高等学校(正門),33.8651665,130.8842305,
福岡県,北九州市,第38投票区-2,小倉北区片野新町一丁目3番1号,美萩野女子高等学校(裏門),33.8651665,130.8842305,
福岡県,北九州市,第38投票区-3,小倉北区片野三丁目15番,アーベインルネス片野駐車場前,33.8654723,130.8808602,
福岡県,北九州市,第38投票区-4,小倉北区片野新町二丁目10番,片野新町公園,33.8600305,130.8866518,
福岡県,北九州市,第38投票区-5,小倉北区片野三丁目5番,片野本町公園,33.8671945,130.8810972,
福岡県,北九州市,第38投票区-6,小倉北区片野四丁目5番,片野西公園,33.863892,130.8811762,
福岡県,北九州市,第38投票区-7,小倉北区片野新町二丁目2番,片野新町2号公園入口,33.8622314,130.8844145,
福岡県,北九州市,第38投票区-8,小倉北区片野四丁目24番,富士見公園前の道路フェンス,33.8606014,130.8826769,
福岡県,北九州市,第39投票区-1,小倉北区足原二丁目8番1号,足原小学校(正門),33.8644706,130.8966114,
福岡県,北九州市,第39投票区-2,小倉北区足原二丁目8番,第一黒原バス停前ガードレール (足原小学校前),33.8642129,130.8963395,
福岡県,北九州市,第39投票区-3,小倉北区城野団地1番,城野団地集会所前,33.8631491,130.8918032,
福岡県,北九州市,第39投票区-4,小倉北区熊本三丁目8番,熊本公園入口,33.8678899,130.892786,
福岡県,北九州市,第39投票区-5,小倉北区足原二丁目3番,足原公園入口右,33.8669118,130.8972191,
福岡県,北九州市,第39投票区-6,小倉北区足立三丁目8番,足立三丁目公園,33.8658915,130.9001297,
福岡県,北九州市,第39投票区-7,小倉北区足立二丁目5番,アーベインルネス足立公園 団地内公園角,33.8675091,130.9004456,
福岡県,北九州市,第39投票区-8,小倉北区黒原一丁目5番,足立公園(平和公園),33.863648,130.9002876,
福岡県,北九州市,第40投票区-1,小倉北区霧ヶ丘三丁目15番,県道湯川赤坂線五ツ石歩道橋下(植え込み),33.851787,130.8976029,
福岡県,北九州市,第40投票区-2,小倉北区高坊二丁目6番,市営高坊団地26棟,33.8561379,130.892549,
福岡県,北九州市,第40投票区-3,小倉北区高坊二丁目1番,市営高坊団地21棟前,33.8572717,130.8938915,
福岡県,北九州市,第40投票区-4,小倉北区霧ヶ丘二丁目19番,霧ヶ丘二丁目19番側道柵,33.8543112,130.8991032,
福岡県,北九州市,第40投票区-5,小倉北区霧ヶ丘一丁目12番1号,霧ヶ丘小学校(南門),33.855248,130.8972759,
福岡県,北九州市,第40投票区-6,小倉北区霧ヶ丘一丁目12番1号,霧ヶ丘小学校(正門),33.855248,130.8972759,
福岡県,北九州市,第40投票区-7,小倉北区黒原三丁目21、22番,霧ヶ丘幼稚園の向かい側,33.8587269,130.8969712,
福岡県,北九州市,第41投票区-1,小倉北区黒原三丁目17番1号,霧ヶ丘中学校(西側の塀),33.8616875,130.8967245,
福岡県,北九州市,第41投票区-2,小倉北区黒住町23番,黒原街園,33.8631416,130.8939496,
福岡県,北九州市,第41投票区-3,小倉北区黒住町12番,黒住清張公園(黒住駐車場前),33.8616326,130.8938915,
福岡県,北九州市,第41投票区-4,小倉北区黒原二丁目30番30号,霧丘市民センター (センター入口側の金網),33.8607066,130.8987308,
福岡県,北九州市,第41投票区-5,小倉北区黒原三丁目2番,足原小学校南側歩道のガードパイプ,33.8634451,130.8962605,
福岡県,北九州市,第41投票区-6,小倉北区黒原三丁目17番1号,霧丘中学校(裏門),33.8616875,130.8967245,
福岡県,北九州市,第41投票区-7,小倉北区黒住町1番,黒原本町公園,33.8635258,130.8933387,
福岡県,北九州市,第42投票区-1,小倉北区今町一丁目4番,市営今町団地入口バス停前フェンス,33.860532,130.873593,
福岡県,北九州市,第42投票区-2,小倉北区今町二丁目20番,今町二丁目交差点手前ガードレール,33.8572068,130.873909,
福岡県,北九州市,第42投票区-3,小倉北区今町二丁目19番,今町なかよし公園,33.8567518,130.873593,
福岡県,北九州市,第42投票区-4,小倉北区今町三丁目19番1号,今町小学校(体育館前門),33.8537907,130.8717937,
福岡県,北九州市,第42投票区-5,小倉北区南丘一丁目23番,南丘団地バス停横のフェンス,33.8524407,130.872013,
福岡県,北九州市,第42投票区-6,小倉北区南丘二丁目15番,市営南丘団地4棟前,33.8488688,130.871855,
福岡県,北九州市,第42投票区-7,小倉北区南丘二丁目15番,市営南丘団地恵里バス停後ろ,33.8488688,130.871855,
福岡県,北九州市,第42投票区-8,小倉北区今町二丁目15番,大木橋バス停横鉄柵,33.8581547,130.8751729,
福岡県,北九州市,第43投票区-1,小倉北区篠崎二丁目21番,市営松ケ丘団地13棟前,33.8608871,130.869801,
福岡県,北九州市,第43投票区-2,小倉北区篠崎二丁目24番,市営松ケ丘団地2棟前,33.8620502,130.869801,
福岡県,北九州市,第43投票区-3,小倉北区篠崎二丁目14番,西八幡町公園(谷畑酒店 横),33.86229429999999,130.8671939,
福岡県,北九州市,第43投票区-4,小倉北区熊谷一丁目3番,小熊野公園入口左側,33.8586626,130.8666408,
福岡県,北九州市,第43投票区-5,小倉北区熊谷一丁目5番,熊谷1号公園(金網),33.8584474,130.8679049,
福岡県,北九州市,第43投票区-6,小倉北区熊谷二丁目5番,熊谷公園,33.8577935,130.8660878,
福岡県,北九州市,第43投票区-7,小倉北区熊谷二丁目2番,くまがいほたる橋欄干側,33.8579011,130.8654557,
福岡県,北九州市,第43投票区-8,小倉北区熊谷四丁目3番,熊谷西公園,33.857146,130.8631645,
福岡県,北九州市,第43投票区-9,小倉北区熊谷一丁目26番,南丘市民センター前 歩道フェンス (掲示板左),33.8608469,130.8660878,
福岡県,北九州市,第44投票区-1,小倉北区上富野三丁目17番10号,栄美幼稚園正門横フェンス,33.8850991,130.902834,
福岡県,北九州市,第44投票区-2,小倉北区上富野三丁目18番,上富野東公園(金網),33.8860967,130.9026564,
福岡県,北九州市,第44投票区-3,小倉北区上富野三丁目13番,市営富ヶ丘団地集会所前フェンス,33.8865285,130.9001297,
福岡県,北九州市,第44投票区-4,小倉北区上富野五丁目10番,横内橋先ガードレール,33.8845771,130.9064462,
福岡県,北九州市,第44投票区-5,小倉北区上富野四丁目1番,市営赤坂団地12棟向側防火槽フェンス,33.8876765,130.9023406,
福岡県,北九州市,第44投票区-6,小倉北区高浜二丁目2番,市営高浜第2団地物置金網前,33.8897277,130.9037025,
福岡県,北九州市,第44投票区-7,小倉北区上富野三丁目13番,市営富ヶ丘団地30棟南側金網,33.8865285,130.9001297,
福岡県,北九州市,第1投票区-1,小倉南区八幡町6番3号,市営若葉団地3棟前,33.863705,130.8760782,
福岡県,北九州市,第1投票区-2,小倉南区八幡町32番,小倉八幡公園(年長者憩いの家前),33.8607583,130.8773847,
福岡県,北九州市,第1投票区-3,小倉南区富士見三丁目1番3号,城野市民センター,33.860095,130.8818159,
福岡県,北九州市,第1投票区-4,小倉南区富士見三丁目2番1号,城野小学校裏門,33.8589847,130.8808009,
福岡県,北九州市,第1投票区-5,小倉南区富士見三丁目2番,モノレール城野駅自転車置場,33.8587028,130.8807022,
福岡県,北九州市,第1投票区-6,小倉南区富士見三丁目2番1号,城野小学校正門横,33.8589847,130.8808009,
福岡県,北九州市,第2投票区-1,小倉南区城野二丁目1番3号,市営中城野団地内公園,33.8582282,130.8847503,
福岡県,北九州市,第2投票区-2,小倉南区重住二丁目6番,重住南公園,33.8539521,130.8900219,
福岡県,北九州市,第2投票区-3,小倉南区城野一丁目15番,宮崎内科前交差点,33.8553064,130.8859151,
福岡県,北九州市,第2投票区-4,小倉南区城野三丁目4番,上城野公園,33.8545742,130.8833877,
福岡県,北九州市,第2投票区-5,小倉南区重住一丁目10番,重住一丁目公園,33.8535242,130.8852833,
福岡県,北九州市,第2投票区-6,小倉南区城野一丁目10番,浜崎工務店前,33.8566354,130.8859546,
福岡県,北九州市,第2投票区-7,小倉南区城野一丁目8番,JR城野駅南口駐輪場,33.8579233,130.8859151,
福岡県,北九州市,第2投票区-8,小倉南区春ケ丘10番1号,国立病院機構小倉医療センター正門,33.8493006,130.8836576,
福岡県,北九州市,第2投票区-9,小倉南区春ヶ丘10番3号,小倉総合特別支援学校,33.8503908,130.884918,
福岡県,北九州市,第2投票区-10,小倉南区城野二丁目1番,城野二丁目公園,33.8575572,130.8846514,
福岡県,北九州市,第3投票区-1,小倉南区下城野三丁目1番,(株)翔薬付近,33.8571175,130.8761375,
福岡県,北九州市,第3投票区-2,小倉南区北方二丁目16番,北方保育所第二園庭,33.8485699,130.8802283,
福岡県,北九州市,第3投票区-3,小倉南区下城野三丁目5番10号,市営大川町団地,33.854325,130.8755629,
福岡県,北九州市,第3投票区-4,小倉南区北方二丁目2番1号,北方小学校正門横,33.8505423,130.8795617,
福岡県,北九州市,第3投票区-5,小倉南区下城野三丁目9番,レオパレス星&ナミK11付近,33.8537173,130.873909,
福岡県,北九州市,第3投票区-6,小倉南区下城野一丁目12番,下城野二丁目信号西側歩道,33.8545632,130.8783326,
福岡県,北九州市,第4投票区-1,小倉南区北方三丁目31番1号,北方地域交流センター,33.8491508,130.8771104,
福岡県,北九州市,第4投票区-2,小倉南区北方二丁目20番,光法寺前道路,33.8467873,130.8795964,
福岡県,北九州市,第4投票区-3,小倉南区北方四丁目5番,競馬場北入口付近,33.8434696,130.871539,
福岡県,北九州市,第4投票区-4,小倉南区北方四丁目3番,モノレール電源所,33.8452199,130.8777007,
福岡県,北九州市,第4投票区-5,小倉南区北方四丁目2番1号,北九州市立大学(バス停裏),33.84416,130.8789449,
福岡県,北九州市,第4投票区-6,小倉南区北方四丁目2番1号,北九州市立大学裏門付近,33.84416,130.8789449,
福岡県,北九州市,第4投票区-7,小倉南区北方三丁目16番25号,北方なかよし保育園,33.8505067,130.875357,
福岡県,北九州市,第4投票区-8,小倉南区北方三丁目40番,北方さつき公園(北方児童館横),33.8486627,130.8750939,
福岡県,北九州市,第5投票区-1,小倉南区若園三丁目17番,市営若園第二団地,33.845318,130.8890742,
福岡県,北九州市,第5投票区-2,小倉南区若園三丁目6番8号,若園三丁目6番8号住宅前,33.84749660000001,130.8885806,
福岡県,北九州市,第5投票区-3,小倉南区若園五丁目1番2号,小倉南区役所入口,33.8464083,130.8848324,
福岡県,北九州市,第5投票区-4,小倉南区若園三丁目19番,市営若園第三団地入口,33.8450205,130.8901799,
福岡県,北九州市,第5投票区-5,小倉南区若園三丁目14番22号,若園小学校運動場東側,33.8466835,130.8901867,
福岡県,北九州市,第5投票区-6,小倉南区蜷田若園二丁目9番,若園東公園,33.8452534,130.8928649,
福岡県,北九州市,第5投票区-7,小倉南区八重洲町8番,若園南公園,33.8411448,130.8922332,
福岡県,北九州市,第5投票区-8,小倉南区若園四丁目1番,若園四丁目公園,33.8478729,130.8855992,
福岡県,北九州市,第5投票区-9,小倉南区若園五丁目1番,北九州高等学校正門西側,33.8462236,130.8835457,
福岡県,北九州市,第5投票区-10,小倉南区若園三丁目14番22号,若園小学校正門,33.8466835,130.8901867,
福岡県,北九州市,第6投票区-1,小倉南区葉山町三丁目1番,葉山町三丁目北公園横,33.8390866,130.882124,
福岡県,北九州市,第6投票区-2,小倉南区南若園町1番1号,企救中学校正門,33.8435129,130.8861619,
福岡県,北九州市,第6投票区-3,小倉南区南若園町1番1号,企救中学校裏門,33.8435129,130.8861619,
福岡県,北九州市,第6投票区-4,小倉南区日の出町二丁目5号,小倉南体育館,33.8396435,130.8792805,
福岡県,北九州市,第6投票区-5,小倉南区若園四丁目11番,南若園町交差点,33.8440039,130.886547,
福岡県,北九州市,第6投票区-6,小倉南区南若園町8番,石田バス停横道路,33.8410827,130.8887583,
福岡県,北九州市,第6投票区-7,小倉南区若園四丁目9番,市営若園第一団地,33.8450405,130.8868629,
福岡県,北九州市,第6投票区-8,小倉南区石田町3番,市営下石田第2団地,33.839844,130.8874947,
福岡県,北九州市,第7投票区-1,小倉南区蒲生一丁目2番,蒲生交差点,33.847472,130.869169,
福岡県,北九州市,第7投票区-2,小倉南区蒲生四丁目5番,米太郎前道路,33.8422625,130.8647447,
福岡県,北九州市,第7投票区-3,小倉南区守恒本町一丁目25番,守恒八旗公園,33.8362081,130.86988,
福岡県,北九州市,第7投票区-4,小倉南区下南方二丁目9番,山下医科器械(株)向かい,33.8343802,130.8588187,
福岡県,北九州市,第7投票区-5,小倉南区南方二丁目5番37号,徳力市民センター,33.8347003,130.8645649,
福岡県,北九州市,第7投票区-6,小倉南区守恒本町二丁目11番3号,第3住友ビル前道路,33.8338745,130.8703532,
福岡県,北九州市,第7投票区-7,小倉南区南方一丁目9番,こうちゃんカレー味よし向かい,33.8381146,130.8634805,
福岡県,北九州市,第7投票区-8,小倉南区徳力新町一丁目1番,紫川河畔公園前,33.8399924,130.869327,
福岡県,北九州市,第7投票区-9,小倉南区守恒本町二丁目5番,守恒駅東口南側,33.835797,130.872724,
福岡県,北九州市,第8投票区-1,小倉南区徳力団地53番,徳力団地53棟前,33.834172,130.8662458,
福岡県,北九州市,第8投票区-2,小倉南区徳力団地3番,徳力団地有料駐車場,33.8301218,130.8660088,
福岡県,北九州市,第8投票区-3,小倉南区南方二丁目2番,徳力くすのき公園,33.8331191,130.8650607,
福岡県,北九州市,第8投票区-4,小倉南区徳力六丁目13番,嵐山さくら公園,33.8243666,130.8622163,
福岡県,北九州市,第8投票区-5,小倉南区南方四丁目1番1号,広徳小学校正門,33.8296307,130.8620966,
福岡県,北九州市,第8投票区-6,小倉南区南方四丁目5番1号,上南方集会所,33.8283189,130.8605842,
福岡県,北九州市,第8投票区-7,小倉南区南方五丁目2番1号,徳力保育所,33.82724390000001,130.8627102,
福岡県,北九州市,第8投票区-8,小倉南区徳力六丁目9番,モノレール徳力嵐山口停留所,33.8247336,130.8634805,
福岡県,北九州市,第9投票区-1,小倉南区山手一丁目17番,山手一丁目西公園,33.8290565,130.8743039,
福岡県,北九州市,第9投票区-2,小倉南区山手二丁目8番,山手二丁目北公園,33.8278361,130.8769897,
福岡県,北九州市,第9投票区-3,小倉南区企救丘四丁目4番1号,志徳中学校横門,33.8269039,130.8733461,
福岡県,北九州市,第9投票区-4,小倉南区志徳一丁目1番,志徳団地2棟前,33.8258558,130.8709281,
福岡県,北九州市,第9投票区-5,小倉南区徳力四丁目26番,志井1号橋横(志徳幼稚園横),33.8237732,130.871697,
福岡県,北九州市,第9投票区-6,小倉南区企救丘五丁目9番,企救丘五丁目公園,33.8306595,130.873751,
福岡県,北九州市,第9投票区-7,小倉南区徳力四丁目5番,ヴァンティアン徳力入口,33.82545229999999,130.8686855,
福岡県,北九州市,第9投票区-8,小倉南区徳力一丁目14番,福岡銀行徳力支店前,33.829578,130.8666408,
福岡県,北九州市,第9投票区-9,小倉南区志徳一丁目1番,志徳団地18棟駐車場前,33.8258558,130.8709281,
福岡県,北九州市,第10投票区-1,小倉南区下石田一丁目2番,あい歯科横歩道,33.8392869,130.8903378,
福岡県,北九州市,第10投票区-2,小倉南区下石田二丁目3番,グラン・シャリオ前,33.835058,130.8889163,
福岡県,北九州市,第10投票区-3,小倉南区下石田二丁目14番,新石田橋北側歩道,33.8328137,130.8890742,
福岡県,北九州市,第10投票区-4,小倉南区上石田四丁目14番,増田米穀店横道路,33.8287552,130.8868629,
福岡県,北九州市,第10投票区-5,小倉南区石田南三丁目1番,北九州動物霊園前,33.8232548,130.8824399,
福岡県,北九州市,第10投票区-6,小倉南区横代南町一丁目9番,横代公園,33.8307928,130.8935757,
福岡県,北九州市,第10投票区-7,小倉南区横代南町二丁目4番1号,横代小学校裏門,33.8299645,130.8916274,
福岡県,北九州市,第10投票区-8,小倉南区横代葉山1番,葉山バス停前,33.8256239,130.8964974,
福岡県,北九州市,第10投票区-9,小倉南区上石田三丁目10番,横代中央公園,33.8323076,130.8903378,
福岡県,北九州市,第11投票区-1,小倉南区志井四丁目11番,下志井公園,33.8202224,130.871302,
福岡県,北九州市,第11投票区-2,小倉南区志井五丁目8番,志井しらさぎ公園,33.8179332,130.871934,
福岡県,北九州市,第11投票区-3,小倉南区志井五丁目20番,北九州高専グラウンド (フェンス),33.8161215,130.8703046,
福岡県,北九州市,第11投票区-4,小倉南区大字志井280番地,志井小学校横門,33.8148023,130.8753619,
福岡県,北九州市,第11投票区-5,小倉南区志井四丁目10番,志井南公園,33.8197732,130.86988,
福岡県,北九州市,第11投票区-6,小倉南区大字志井472番地2,中志井バス停前,33.8110261,130.8763446,
福岡県,北九州市,第11投票区-7,小倉南区大字志井1471番地,九州自動車道高架下交差点,33.811262,130.8765441,
福岡県,北九州市,第11投票区-8,小倉南区大字志井,茶屋バス停横道路,33.811262,130.8765441,
福岡県,北九州市,第11投票区-9,小倉南区大字志井,志井車庫バス停横道路,33.811262,130.8765441,
福岡県,北九州市,第12投票区-1,小倉南区長行東三丁目8番1号,長行小学校正門,33.8176361,130.8591891,
福岡県,北九州市,第12投票区-2,小倉南区長行東二丁目1番,シャトレーゼ付近道路,33.8211665,130.8622163,
福岡県,北九州市,第12投票区-3,小倉南区長行東一丁目6番,長行もみじ公園,33.8190066,130.8619793,
福岡県,北九州市,第12投票区-4,小倉南区徳吉東五丁目1番,徳吉公園,33.813247,130.8587397,
福岡県,北九州市,第12投票区-5,小倉南区徳吉東一丁目11番,市営徳吉第2団地公園,33.8148633,130.8596089,
福岡県,北九州市,第12投票区-6,小倉南区徳吉西二丁目5番,徳光公園,33.8133854,130.8562111,
福岡県,北九州市,第12投票区-7,小倉南区徳吉東一丁目9番15号,徳吉保育所,33.8158484,130.8605653,
福岡県,北九州市,第13投票区-1,小倉南区大字合馬38番地2,合馬竹林公園入口,33.812691,130.8399552,
福岡県,北九州市,第13投票区-2,小倉南区大字辻三840番地,辻の蔵橋,33.821142,130.8196919,
福岡県,北九州市,第13投票区-3,小倉南区大字合馬158番地,大字合馬158住宅付近道路,33.8118989,130.835467,
福岡県,北九州市,第13投票区-4,小倉南区大字合馬304番地,合馬小学校,33.8127163,130.8316995,
福岡県,北九州市,第13投票区-5,小倉南区大字合馬347番地,公衆トイレ前道路,33.8116892,130.8277368,
福岡県,北九州市,第13投票区-6,小倉南区大字辻三159番地1,大字辻三159-1住宅付近道路,33.814542,130.8263399,
福岡県,北九州市,第13投票区-7,小倉南区大字合馬604番地,大字合馬604住宅付近道路,33.8091427,130.8211147,
福岡県,北九州市,第13投票区-8,小倉南区大字合馬673番地1,新麻生橋,33.8071302,130.8152835,
福岡県,北九州市,第14投票区-1,小倉南区大字高津尾523番地1,西鉄バス北九州(株)中谷自動車営業所,33.8085293,130.8568037,
福岡県,北九州市,第14投票区-2,小倉南区大字高津尾460番地1,大字高津尾460-1住宅付近道路,33.8076179,130.8592719,
福岡県,北九州市,第14投票区-3,小倉南区大字高津尾223番地,大字高津尾223住宅付近道路,33.8017108,130.8563493,
福岡県,北九州市,第14投票区-4,小倉南区大字高津尾,たかし橋横(高速下),33.8029925,130.8563691,
福岡県,北九州市,第14投票区-5,小倉南区大字高津尾15番地1,大字高津尾15-1住宅付近道路,33.7956324,130.861393,
福岡県,北九州市,第14投票区-6,小倉南区大字山本326番地1,大字山本326-1住宅付近道路,33.8059394,130.8513227,
福岡県,北九州市,第14投票区-7,小倉南区大字山本393番地6,すがお小学校横門,33.8003744,130.8483465,
福岡県,北九州市,第14投票区-8,小倉南区大字春吉540番地,大字春吉540住宅付近橋,33.793208,130.8481903,
福岡県,北九州市,第15投票区-1,小倉南区大字道原13番地6,河原橋付近三叉交差点,33.7712254,130.8222221,
福岡県,北九州市,第15投票区-2,小倉南区大字道原1646番地,旧道原小学校正門,33.7778947,130.8417171,
福岡県,北九州市,第15投票区-3,小倉南区大字道原223番地1,楽庭橋,33.777853,130.840553,
福岡県,北九州市,第15投票区-4,小倉南区大字道原229番地,細川橋,33.7777938,130.8393574,
福岡県,北九州市,第15投票区-5,小倉南区大字道原283番地2,大字道原283-2住宅付近道路,33.7794082,130.8355434,
福岡県,北九州市,第15投票区-6,小倉南区大字道原1516番地,正福寺付近道路,33.7723668,130.8384223,
福岡県,北九州市,第15投票区-7,小倉南区大字道原,舟木橋手前,33.7712254,130.8222221,
福岡県,北九州市,第15投票区-8,小倉南区大字頂吉451番地1,かぐめよし少年自然の家,33.7419211,130.8441905,
福岡県,北九州市,第16投票区-1,小倉南区大字木下,チェリーゴルフクラブ看板横道路,33.7750088,130.8652187,
福岡県,北九州市,第16投票区-2,小倉南区大字木下157番地,セブンイレブン前,33.7703723,130.8672613,
福岡県,北九州市,第16投票区-3,小倉南区大字市丸409番地,保育園前バス停,33.768273,130.8684387,
福岡県,北九州市,第16投票区-4,小倉南区大字市丸516番地,市丸公園,33.7651089,130.8703347,
福岡県,北九州市,第16投票区-5,小倉南区大字小森472番地2,市丸小学校横門,33.7629004,130.8678821,
福岡県,北九州市,第16投票区-6,小倉南区大字小森1091番地,小森西交差点,33.7590165,130.870275,
福岡県,北九州市,第16投票区-7,小倉南区大字小森365番地,新小森橋,33.7589885,130.8675692,
福岡県,北九州市,第16投票区-8,小倉南区大字呼野,呼野国道踏切前(日田彦山線),33.7457462,130.8626904,
福岡県,北九州市,第17投票区-1,小倉南区大字母原,西鉄バス折返場所正面,33.7948547,130.8854413,
福岡県,北九州市,第17投票区-2,小倉南区大字新道寺,新道寺バス停そば歩道,33.7655103,130.9006035,
福岡県,北九州市,第17投票区-3,小倉南区大字新道寺820番地,新道寺小学校正門,33.7862701,130.8694555,
福岡県,北九州市,第17投票区-4,小倉南区大字新道寺442番地1,新道寺ふれあい公園,33.783306,130.8680265,
福岡県,北九州市,第17投票区-5,小倉南区大字石原町272番地6,宮乃前橋,33.7906871,130.8623546,
福岡県,北九州市,第17投票区-6,小倉南区大字木下704番地1,小倉南区役所東谷出張所・東谷市民センター,33.7789845,130.8662512,
福岡県,北九州市,第17投票区-7,小倉南区大字木下1217番地,平尾台入口交差点,33.7784563,130.8695705,
福岡県,北九州市,第17投票区-8,小倉南区大字木下499番地1,東谷中学校グラウンドフェンス,33.7776632,130.8647663,
福岡県,北九州市,第17投票区-9,小倉南区大字井手浦418番地,井手浦浄水場進入口,33.778076,130.8803457,
福岡県,北九州市,第18投票区-1,小倉南区平尾台二丁目1番,ひつじcaféHIRAODAI横,33.7588471,130.895076,
福岡県,北九州市,第18投票区-2,小倉南区平尾台二丁目6番1号,平尾公民館,33.7568935,130.8951037,
福岡県,北九州市,第19投票区-1,小倉南区湯川一丁目4番12号,湯川区公民館前,33.8467415,130.900511,
福岡県,北九州市,第19投票区-2,小倉南区湯川五丁目4番,湯川五丁目4番13号住宅付近道路,33.8461466,130.9029722,
福岡県,北九州市,第19投票区-3,小倉南区安部山14番,安部山公園前,33.8496828,130.9086568,
福岡県,北九州市,第19投票区-4,小倉南区湯川四丁目5番,湯川四丁目公園,33.8475865,130.9051829,
福岡県,北九州市,第19投票区-5,小倉南区湯川五丁目10番10号,北九州湯川病院,33.8455296,130.9062022,
福岡県,北九州市,第19投票区-6,小倉南区湯川二丁目3番,湯川二丁目北公園,33.8506993,130.8988663,
福岡県,北九州市,第20投票区-1,小倉南区葛原三丁目19番,葛原みどり山どんぐり公園,33.8481943,130.9141829,
福岡県,北九州市,第20投票区-2,小倉南区葛原四丁目12番,葛原四丁目北公園,33.8468943,130.9161564,
福岡県,北九州市,第20投票区-3,小倉南区葛原一丁目3番,上葛原バス停後ろ,33.8442481,130.9077094,
福岡県,北九州市,第20投票区-4,小倉南区葛原五丁目4番,葛原八幡神社前交差点,33.8420073,130.914025,
福岡県,北九州市,第20投票区-5,小倉南区葛原五丁目3番,公園(電源開発送変電ネットワーク (株)所有),33.8429615,130.9141829,
福岡県,北九州市,第20投票区-6,小倉南区葛原四丁目24番1号,葛原小学校正門,33.8437555,130.9156822,
福岡県,北九州市,第20投票区-7,小倉南区葛原五丁目6番,いいお内科循環器科クリニック付近,33.8424482,130.916551,
福岡県,北九州市,第21投票区-1,小倉南区中吉田一丁目3番1号,吉田小学校正門,33.8471315,130.9496852,
福岡県,北九州市,第21投票区-2,小倉南区吉田にれの木坂二丁目12番,吉田にれの木坂二丁目公園,33.8506378,130.9499318,
福岡県,北九州市,第21投票区-3,小倉南区中吉田一丁目3番1号,吉田小学校運動場,33.8471315,130.9496852,
福岡県,北九州市,第21投票区-4,小倉南区中吉田六丁目26番,吉田にれの木坂東側入り口,33.8498851,130.9537973,
福岡県,北九州市,第21投票区-5,小倉南区中吉田四丁目18番,陸上自衛隊曽根訓練場角,33.845839,130.9566371,
福岡県,北九州市,第21投票区-6,小倉南区下吉田三丁目19番,吉田公園,33.8452498,130.9638938,
福岡県,北九州市,第21投票区-7,小倉南区中吉田四丁目5番,中吉田四丁目公園,33.8443675,130.9532451,
福岡県,北九州市,第22投票区-1,小倉南区上吉田六丁目1番,吉田団地入口バス停横道路,33.8532654,130.9539995,
福岡県,北九州市,第22投票区-2,小倉南区上吉田二丁目16番,占部ハイツ裏道路,33.8559651,130.9509573,
福岡県,北九州市,第22投票区-3,小倉南区上吉田三丁目1番1号,高蔵市民センター,33.8556691,130.9487089,
福岡県,北九州市,第22投票区-4,小倉南区上吉田三丁目16番,市営吉田団地14棟跡前道路,33.8562237,130.9464952,
福岡県,北九州市,第22投票区-5,小倉南区上吉田三丁目16番,市営吉田団地16棟前道路,33.8562237,130.9464952,
福岡県,北九州市,第22投票区-6,小倉南区上吉田三丁目22番17号,市営吉田団地17棟前,33.8555618,130.9454901,
福岡県,北九州市,第22投票区-7,小倉南区上吉田三丁目18番10号,市営吉田団地10棟前道路,33.8545171,130.948166,
福岡県,北九州市,第23投票区-1,小倉南区中曽根三丁目1番,パレス下曽根駅南向かい道路,33.8283536,130.9386492,
福岡県,北九州市,第23投票区-2,小倉南区中曽根一丁目7番2号,ひかり保育園,33.8262409,130.9381552,
福岡県,北九州市,第23投票区-3,小倉南区中曽根三丁目9番1号,曽根小学校グランド (市民センター入口),33.8244854,130.9396995,
福岡県,北九州市,第23投票区-4,小倉南区東貫三丁目1番,平野アパート附近道路,33.818798,130.9392805,
福岡県,北九州市,第23投票区-5,小倉南区中曽根四丁目22番,中曽根若葉公園,33.8241208,130.9414109,
福岡県,北九州市,第23投票区-6,小倉南区上曽根五丁目1番,コーポ小森前道路,33.8160384,130.9420972,
福岡県,北九州市,第23投票区-7,小倉南区上曽根新町9番11号,株式会社日報,33.8180992,130.9486795,
福岡県,北九州市,第23投票区-8,小倉南区中曽根六丁目1番,中曽根中央公園,33.8227271,130.9418054,
福岡県,北九州市,第24投票区-1,小倉南区下曽根一丁目8番6号,日本年金機構小倉南年金事務所,33.8334525,130.9341614,
福岡県,北九州市,第24投票区-2,小倉南区下曽根一丁目8番,下曽根駅北口,33.831192,130.9335546,
福岡県,北九州市,第24投票区-3,小倉南区下曽根三丁目15番,下曽根中公園,33.8326764,130.938018,
福岡県,北九州市,第24投票区-4,小倉南区下曽根四丁目3番20号,下曽根公民館,33.8315404,130.9375054,
福岡県,北九州市,第24投票区-5,小倉南区下曽根二丁目10番35号,NTT小倉南営業所曽根分局,33.8343017,130.9392909,
福岡県,北九州市,第24投票区-6,小倉南区下曽根三丁目11番,下曽根三丁目公園,33.8334967,130.9395961,
福岡県,北九州市,第24投票区-7,小倉南区下曽根二丁目7番,九州労災病院南側道路,33.8355609,130.9382547,
福岡県,北九州市,第24投票区-8,小倉南区中曽根一丁目16番,グリーンコープ生協向かい,33.829404,130.9367554,
福岡県,北九州市,第25投票区-1,小倉南区朽網西二丁目28番,朽網公園,33.812101,130.9507207,
福岡県,北九州市,第25投票区-2,小倉南区朽網西六丁目2番,市営朽網団地10棟前,33.8096781,130.9496951,
福岡県,北九州市,第25投票区-3,小倉南区朽網西三丁目6番39号,朽網市民センター,33.8091813,130.9467417,
福岡県,北九州市,第25投票区-4,小倉南区朽網西三丁目16番,日豊一号公園,33.8073664,130.9474861,
福岡県,北九州市,第25投票区-5,小倉南区朽網西五丁目12番1号,朽網小学校グラウンド,33.8063048,130.9503361,
福岡県,北九州市,第25投票区-6,小倉南区朽網西五丁目17番,日豊東公園,33.8052553,130.9529296,
福岡県,北九州市,第25投票区-7,小倉南区朽網西一丁目10番,朽網寿東公園,33.8103953,130.9544284,
福岡県,北九州市,第25投票区-8,小倉南区朽網西四丁目17番,日豊平和公園,33.8057862,130.9478017,
福岡県,北九州市,第25投票区-9,小倉南区朽網西三丁目8番,日豊西公園,33.8083791,130.9449614,
福岡県,北九州市,第26投票区-1,小倉南区長野本町一丁目3番,麺屋八のじ横道路,33.833056,130.9174983,
福岡県,北九州市,第26投票区-2,小倉南区長野東町1番,遊覧観光バス横(長野東町交差点),33.8237216,130.9141865,
福岡県,北九州市,第26投票区-3,小倉南区西貫一丁目4番1号,小倉カンツリー倶楽部,33.8208993,130.9220764,
福岡県,北九州市,第26投票区-4,小倉南区西貫一丁目11番1号,貫市民センター,33.8208993,130.9220764,
福岡県,北九州市,第26投票区-5,小倉南区上貫三丁目18番,みやこ商会付近道路,33.8124125,130.9242075,
福岡県,北九州市,第26投票区-6,小倉南区津田南町10番,津田南町10番30号付近 ガードレール,33.8250793,130.917814,
福岡県,北九州市,第26投票区-7,小倉南区上貫二丁目13番,市営貫団地跡地横公園,33.8167432,130.9291796,
福岡県,北九州市,第26投票区-8,小倉南区上貫二丁目2番41号,貫保育所,33.8187733,130.9307173,
福岡県,北九州市,第27投票区-1,小倉南区若園二丁目23号,山内土建工業(株)前道路,33.8489957,130.8922332,
福岡県,北九州市,第27投票区-2,小倉南区若園一丁目24号,小倉南特別支援学校敷地,33.8486154,130.886468,
福岡県,北九州市,第27投票区-3,小倉南区若園二丁目16号,若園公園(若園児童館横),33.849553,130.8893901,
福岡県,北九州市,第27投票区-4,小倉南区西水町7号,水町公園,33.8522317,130.8928649,
福岡県,北九州市,第27投票区-5,小倉南区若園二丁目19番,若園二丁目東公園,33.8503297,130.8914434,
福岡県,北九州市,第27投票区-6,小倉南区春ケ丘10番,春ヶ丘公園,33.8497131,130.8835457,
福岡県,北九州市,第28投票区-1,小倉南区湯川新町一丁目6番,湯川新町西公園,33.848363,130.8938126,
福岡県,北九州市,第28投票区-2,小倉南区湯川新町一丁目8番1号,湯川小学校正門,33.8472866,130.8945998,
福岡県,北九州市,第28投票区-3,小倉南区湯川新町二丁目19番駐車場前,湯川新町二丁目19番,33.8437967,130.9001297,
福岡県,北九州市,第28投票区-4,小倉南区湯川新町一丁目3番,湯川新町一丁目北公園,33.8485136,130.8963395,
福岡県,北九州市,第28投票区-5,小倉南区湯川新町二丁目30番11号,リバーサイドユガワ前,33.8426476,130.8966631,
福岡県,北九州市,第28投票区-6,小倉南区東水町5番,西部ガス(株) 制圧器,33.8504803,130.8939705,
福岡県,北九州市,第29投票区-1,小倉南区沼緑町一丁目17番,沼緑町月極有料駐車場前,33.8443319,130.933599,
福岡県,北九州市,第29投票区-2,小倉南区沼本町一丁目11番,沼本町一丁目南公園,33.8453096,130.9427522,
福岡県,北九州市,第29投票区-3,小倉南区沼緑町三丁目25番,沼緑町三丁目北公園,33.8507412,130.934467,
福岡県,北九州市,第29投票区-4,小倉南区沼本町二丁目4番1号,沼小学校正門,33.8478379,130.9389857,
福岡県,北九州市,第29投票区-5,小倉南区沼新町二丁目3番,沼新町南公園,33.8525453,130.9440935,
福岡県,北九州市,第29投票区-6,小倉南区沼南町二丁目1番,小柳橋,33.8447402,130.9437094,
福岡県,北九州市,第29投票区-7,小倉南区沼南町三丁目5番,ワイズガレージ前道路,33.8403314,130.942121,
福岡県,北九州市,第29投票区-8,小倉南区沼本町一丁目2番,モスバーガー駐車場横道路,33.8451229,130.9395961,
福岡県,北九州市,第29投票区-9,小倉南区沼緑町四丁目28番1号,沼市民センター,33.8494938,130.9375457,
福岡県,北九州市,第29投票区-10,小倉南区沼本町四丁目15番,商業用地(空き地) 前道路,33.8499448,130.9449614,
福岡県,北九州市,第30投票区-1,小倉南区中曽根二丁目13番1号,曽根中学校正門,33.8238314,130.9381058,
福岡県,北九州市,第30投票区-2,小倉南区中曽根二丁目13番1号,曽根中学校運動場,33.8238314,130.9381058,
福岡県,北九州市,第30投票区-3,小倉南区東貫一丁目12番,東貫一丁目公園,33.8194755,130.9372289,
福岡県,北九州市,第30投票区-4,小倉南区下貫一丁目1番,貫公園,33.8158365,130.9347037,
福岡県,北九州市,第30投票区-5,小倉南区下貫二丁目14番,ニューヨークストア駐車場前,33.8172971,130.933599,
福岡県,北九州市,第30投票区-6,小倉南区下貫三丁目16番,ぬきみどり公園,33.8153782,130.9349405,
福岡県,北九州市,第30投票区-7,小倉南区下貫三丁目20番,下貫なかのはし,33.8145776,130.9367554,
福岡県,北九州市,第31投票区-1,小倉南区星和台二丁目18番,星和台東公園,33.8322489,130.8826769,
福岡県,北九州市,第31投票区-2,小倉南区山手三丁目8番,山手三丁目中公園,33.8273996,130.8806233,
福岡県,北九州市,第31投票区-3,小倉南区星和台一丁目12番,星和台中央公園,33.8330901,130.8809392,
福岡県,北九州市,第31投票区-4,小倉南区星和台一丁目2番,星和台一丁目2番2号住宅付近道路,33.83129460000001,130.8788855,
福岡県,北九州市,第31投票区-5,小倉南区星和台二丁目1番1号,守恒小学校正門下,33.8298885,130.8797128,
福岡県,北九州市,第31投票区-6,小倉南区星和台二丁目1番1号,守恒小学校横門,33.8298885,130.8797128,
福岡県,北九州市,第31投票区-7,小倉南区山手一丁目1番,山手緑公園,33.8294105,130.8777797,
福岡県,北九州市,第32投票区-1,小倉南区徳吉西三丁目7番1号,小倉南区役所両谷出張所,33.8102486,130.854833,
福岡県,北九州市,第32投票区-2,小倉南区長行西五丁目4番,長行台中央公園(西側),33.8146612,130.8508374,
福岡県,北九州市,第32投票区-3,小倉南区長行西五丁目4番,長行台中央公園(東側),33.8146612,130.8508374,
福岡県,北九州市,第32投票区-4,小倉南区徳吉西三丁目13番,徳吉西三丁目公園,33.8112841,130.8527341,
福岡県,北九州市,第32投票区-5,小倉南区徳吉南一丁目6番10号,両谷市民センター,33.8085965,130.854102,
福岡県,北九州市,第32投票区-6,小倉南区徳吉南二丁目2番1号,菅生中学校運動場,33.8088015,130.8529958,
福岡県,北九州市,第32投票区-7,小倉南区長行西二丁目14号,長行なかよし公園,33.8160778,130.8502052,
福岡県,北九州市,第33投票区-1,小倉南区葛原本町三丁目15番,葛原本町三丁目15番21号住宅付近道路,33.8474591,130.9219975,
福岡県,北九州市,第33投票区-2,小倉南区葛原本町三丁目5番,葛原公園(葛原郵便局前),33.8423685,130.92255,
福岡県,北九州市,第33投票区-3,小倉南区葛原本町一丁目13番8号,葛原保育園,33.8415869,130.9225238,
福岡県,北九州市,第33投票区-4,小倉南区葛原本町一丁目10番16号,周田医院付近,33.8409307,130.9209709,
福岡県,北九州市,第33投票区-5,小倉南区葛原本町三丁目4番,葛原市民センター左入口,33.8425842,130.9212871,
福岡県,北九州市,第33投票区-6,小倉南区葛原東一丁目3番,曽根変電所前,33.840671,130.9282326,
福岡県,北九州市,第33投票区-7,小倉南区葛原本町五丁目14番,葛原本町五丁目14番6号住宅付近,33.8412559,130.9276801,
福岡県,北九州市,第34投票区-1,小倉南区葛原東五丁目15番1号,ヤマト運輸前道路,33.8365328,130.926254,
福岡県,北九州市,第34投票区-2,小倉南区葛原東三丁目2番,博愛調剤薬局駐車場前,33.8388984,130.932652,
福岡県,北九州市,第34投票区-3,小倉南区葛原東二丁目7番,葛原東二丁目公園,33.8423972,130.9309947,
福岡県,北九州市,第34投票区-4,小倉南区沼緑町一丁目1番1号,沼中学校正門,33.8423101,130.9328197,
福岡県,北九州市,第34投票区-5,小倉南区沼緑町一丁目12番,沼緑町一丁目公園前ガードレール,33.8425397,130.9346248,
福岡県,北九州市,第34投票区-6,小倉南区沼緑町一丁目12番,シャルム富貴前道路,33.8425397,130.9346248,
福岡県,北九州市,第34投票区-7,小倉南区葛原東三丁目6番,葛原東ふれあい公園(西側),33.8390963,130.9341514,
福岡県,北九州市,第35投票区-1,小倉南区下曽根四丁目22番,曽根出張所,33.8302101,130.940543,
福岡県,北九州市,第35投票区-2,小倉南区下曽根四丁目12番,下曽根四丁目東公園横,33.832029,130.9418054,
福岡県,北九州市,第35投票区-3,小倉南区中曽根東三丁目4番,曽根公園前,33.8282287,130.9451192,
福岡県,北九州市,第35投票区-4,小倉南区中曽根東三丁目5番1号,曽根東小学校正門,33.8279124,130.9461926,
福岡県,北九州市,第35投票区-5,小倉南区下曽根四丁目26番,下曽根四丁目南公園,33.8294611,130.9407797,
福岡県,北九州市,第35投票区-6,小倉南区中曽根東三丁目2番,(株)光製作所横道路,33.8272747,130.9449614,
福岡県,北九州市,第35投票区-7,小倉南区曽根新田北三丁目16番,曽根新田ふれあい公園入口,33.8207922,130.9520618,
福岡県,北九州市,第36投票区-1,小倉南区津田一丁目10番,みずほ野保育園付近,33.8288453,130.9200242,
福岡県,北九州市,第36投票区-2,小倉南区津田一丁目2番12号,南海部品北九州店前ガードレール,33.8301782,130.9233964,
福岡県,北九州市,第36投票区-3,小倉南区津田三丁目14番,津田三丁目東公園,33.8265329,130.9245232,
福岡県,北九州市,第36投票区-4,小倉南区田原新町二丁目1番1号,田原小学校正門,33.8293095,130.9271375,
福岡県,北九州市,第36投票区-5,小倉南区田原新町一丁目2番3号,山根歯科医院前歩道,33.8323193,130.9277725,
福岡県,北九州市,第36投票区-6,小倉南区津田新町一丁目9番,津田新町一丁目西公園,33.8333391,130.9253124,
福岡県,北九州市,第36投票区-7,小倉南区津田新町二丁目15番,ベルコ会館駐車場向かい,33.8322452,130.9209714,
福岡県,北九州市,第36投票区-8,小倉南区田原新町二丁目13番,田原新町二丁目公園,33.8318095,130.930758,
福岡県,北九州市,第37投票区-1,小倉南区横代北町二丁目2番,横代北町二丁目公園,33.8388295,130.8972871,
福岡県,北九州市,第37投票区-2,小倉南区横代東町三丁目11番,横代東町みどりの丘公園,33.8325597,130.9036828,
福岡県,北九州市,第37投票区-3,小倉南区横代東町二丁目1番1号,蜷田地域交流センター,33.8370602,130.9048293,
福岡県,北九州市,第37投票区-4,小倉南区横代東町一丁目6番,農事センターバス停横,33.8344854,130.9012351,
福岡県,北九州市,第37投票区-5,小倉南区横代北町五丁目5番,石田南公園,33.8353068,130.8924701,
福岡県,北九州市,第37投票区-6,小倉南区横代北町三丁目5番1号,横代中学校正門,33.8340488,130.8959397,
福岡県,北九州市,第37投票区-7,小倉南区横代東町四丁目13番1号,横代市民センター,33.8311631,130.8967515,
福岡県,北九州市,第38投票区-1,小倉南区高野四丁目9番,新平原橋付近,33.831853,130.8536823,
福岡県,北九州市,第38投票区-2,小倉南区長尾五丁目4番,長行桜橋公園前,33.8217986,130.8606361,
福岡県,北九州市,第38投票区-3,小倉南区長行西一丁目1番1号,長尾市民センター,33.820917,130.8545272,
福岡県,北九州市,第38投票区-4,小倉南区長行西四丁目11番,長行みどり公園,33.8153797,130.852497,
福岡県,北九州市,第38投票区-5,小倉南区高野二丁目2番3号,高野二丁目2番3号住宅前,33.8277446,130.8566624,
福岡県,北九州市,第38投票区-6,小倉南区長尾四丁目30番1号,長尾小学校正門,33.8224112,130.8567229,
福岡県,北九州市,第38投票区-7,小倉南区長尾一丁目11番,(株)電技商会前,33.8240118,130.8587397,
福岡県,北九州市,第38投票区-8,小倉南区長尾四丁目8番,長尾新町中央公園 金網,33.8241534,130.8556579,
福岡県,北九州市,第38投票区-9,小倉南区長尾六丁目6番,長尾六丁目公園,33.8209852,130.8573964,
福岡県,北九州市,第39投票区-1,小倉南区企救丘一丁目1番,企救丘一丁目北公園,33.82610349999999,130.8784116,
福岡県,北九州市,第39投票区-2,小倉南区企救丘二丁目1番1号,企救丘小学校正門前,33.8228348,130.8755185,
福岡県,北九州市,第39投票区-3,小倉南区企救丘二丁目1番1号,企救丘小学校裏門右側,33.8228348,130.8755185,
福岡県,北九州市,第39投票区-4,小倉南区企救丘一丁目21番,企救丘一丁目西公園,33.8235742,130.8774637,
福岡県,北九州市,第39投票区-5,小倉南区企救丘二丁目13番,モノレール車庫(企救丘停留所側),33.8208204,130.8794384,
福岡県,北九州市,第39投票区-6,小倉南区企救丘二丁目13番,モノレール車庫 (北側駐車場そば),33.8208204,130.8794384,
福岡県,北九州市,第39投票区-7,小倉南区志徳二丁目1番8号,ゆたか保育園(東側),33.8203262,130.8740867,
福岡県,北九州市,第40投票区-1,小倉南区朽網東一丁目12番,朽網中央年長者いこいの家前,33.8034184,130.9544284,
福岡県,北九州市,第40投票区-2,小倉南区朽網東二丁目33番,JR朽網駅ロータリー,33.80766759999999,130.9556117,
福岡県,北九州市,第40投票区-3,小倉南区朽網東一丁目2番13号,市立朽網プール,33.8064689,130.954837,
福岡県,北九州市,第40投票区-4,小倉南区朽網東一丁目10番5号,コーポラスカーム2前,33.8044629,130.9562347,
福岡県,北九州市,第40投票区-5,小倉南区大字朽網1215番1号,東朽網市民センター,33.8004347,130.958185,
福岡県,北九州市,第40投票区-6,小倉南区朽網東四丁目12番,朽網東四丁目公園,33.7987338,130.9661022,
福岡県,北九州市,第40投票区-7,小倉南区朽網東四丁目4番,朽網東四丁目3番7号住宅付近道路,33.8009237,130.9613698,
福岡県,北九州市,第40投票区-8,小倉南区朽網東五丁目20番,朽網東五丁目20番14号住宅付近道路,33.8008809,130.967995,
福岡県,北九州市,第40投票区-9,小倉南区朽網東六丁目15番,朽網南公園,33.8045849,130.9667331,
福岡県,北九州市,第41投票区-1,小倉南区守恒二丁目8番36号,守恒市民センター,33.8332844,130.8768192,
福岡県,北九州市,第41投票区-2,小倉南区守恒四丁目22番,守恒四丁目西公園前道路,33.832743,130.872724,
福岡県,北九州市,第41投票区-3,小倉南区守恒四丁目20番,守恒四丁目中公園,33.8320916,130.873988,
福岡県,北九州市,第41投票区-4,小倉南区守恒四丁目3番,守恒四丁目東公園,33.8318259,130.8768318,
福岡県,北九州市,第41投票区-5,小倉南区守恒三丁目1番,もりつね団地5棟前,33.834314,130.8792462,
福岡県,北九州市,第41投票区-6,小倉南区守恒一丁目12番,コナミスポーツクラブ徳力横道路向かい,33.8357398,130.8754099,
福岡県,北九州市,第42投票区-1,小倉南区舞ヶ丘二丁目1番,舞ヶ丘3号公園,33.8260082,130.9017089,
福岡県,北九州市,第42投票区-2,小倉南区舞ヶ丘五丁目1番,舞ヶ丘6号公園,33.8285542,130.9066041,
福岡県,北九州市,第42投票区-3,小倉南区舞ヶ丘一丁目5番,南小倉ハイランド1号調整池前,33.8266408,130.9001297,
福岡県,北九州市,第42投票区-4,小倉南区舞ヶ丘二丁目16番,舞ケ丘ふれあい橋,33.8235331,130.9022616,
福岡県,北九州市,第42投票区-5,小倉南区舞ヶ丘三丁目4番,舞ヶ丘中央公園北側,33.8258239,130.9047092,
福岡県,北九州市,第42投票区-6,小倉南区舞ヶ丘四丁目12番,舞ヶ丘5号公園,33.8240692,130.9063672,
福岡県,北九州市,第42投票区-7,小倉南区舞ヶ丘二丁目5番,舞ヶ丘1号公園,33.824583,130.9003666,
福岡県,北九州市,第43投票区-1,小倉南区下曽根新町13番,アステム駐車場(下曽根駅南口),33.8313709,130.9343881,
福岡県,北九州市,第43投票区-2,小倉南区下曽根新町12番,ファミリーマート横歩道,33.8305728,130.9325731,
福岡県,北九州市,第43投票区-3,小倉南区田原三丁目16番31号,田原市民センター,33.8267952,130.9302853,
福岡県,北九州市,第43投票区-4,小倉南区田原四丁目4番,小倉東高校前交差点付近歩道,33.8228759,130.9314683,
福岡県,北九州市,第43投票区-5,小倉南区田原三丁目16番,サエグサ薬品向かい,33.8264946,130.9306002,
福岡県,北九州市,第43投票区-6,小倉南区田原新町三丁目7番,田原新町三丁目公園,33.828634,130.9305212,
福岡県,北九州市,第44投票区-1,小倉南区湯川新町四丁目4番,湯川新町公園,33.8428235,130.9063672,
福岡県,北九州市,第44投票区-2,小倉南区上葛原一丁目4番23号,上葛原区民センター,33.8413326,130.9073575,
福岡県,北九州市,第44投票区-3,小倉南区上葛原二丁目6番,上葛原二丁目東公園,33.8396442,130.906683,
福岡県,北九州市,第44投票区-4,小倉南区上葛原一丁目7番,上葛原中央公園前道路,33.8420795,130.9091305,
福岡県,北九州市,第44投票区-5,小倉南区湯川新町四丁目25番,湯川中学校正門,33.8397057,130.9034459,
福岡県,北九州市,第44投票区-6,小倉南区湯川新町三丁目24番,湯川中央公園北側,33.83976370000001,130.9007614,
福岡県,北九州市,第44投票区-7,小倉南区湯川新町三丁目4番,湯川新町三丁目4番8号住宅前,33.8430716,130.9032091,
福岡県,北九州市,第44投票区-8,小倉南区湯川新町三丁目7番,湯川東公園,33.84262,130.9023406,
福岡県,北九州市,第45投票区-1,小倉南区中貫一丁目19番,市営貫東団地1棟,33.8070728,130.9233309,
福岡県,北九州市,第45投票区-2,小倉南区貫弥生が丘二丁目1番,弥生が丘つどいの家,33.8076442,130.9295742,
福岡県,北九州市,第45投票区-3,小倉南区大字貫791番6号,西専寺前バス停付近,33.8074548,130.9235859,
福岡県,北九州市,第45投票区-4,小倉南区中貫二丁目10番,中貫橋,33.8110923,130.9294953,
福岡県,北九州市,第45投票区-5,小倉南区中貫二丁目1番,貫入口バス停,33.8140752,130.930758,
福岡県,北九州市,第45投票区-6,小倉南区貫弥生が丘三丁目18番,貫弥生が丘三丁目高速下,33.8032171,130.9266541,
福岡県,北九州市,第45投票区-7,小倉南区貫弥生が丘一丁目7番,調整池前,33.8087526,130.931705,
福岡県,北九州市,第1投票区-1,戸畑区新池三丁目6番,幸町バス停北側,33.8995437,130.8275194,
福岡県,北九州市,第1投票区-2,戸畑区新池二丁目1番12号,戸畑中央小学校南側,33.8985617,130.8284977,
福岡県,北九州市,第1投票区-3,戸畑区新池二丁目5番,末広公園,33.8986221,130.8288239,
福岡県,北九州市,第1投票区-4,戸畑区新池二丁目1番,美禄公園,33.8978081,130.8294958,
福岡県,北九州市,第1投票区-5,戸畑区千防三丁目21番,新池公園,33.9007472,130.8312351,
福岡県,北九州市,第1投票区-6,戸畑区千防三丁目1番12号,東戸畑市民センター,33.8987818,130.8305551,
福岡県,北九州市,第1投票区-7,戸畑区新池二丁目1番12号,戸畑中央小学校東側,33.8985617,130.8284977,
福岡県,北九州市,第2投票区-1,戸畑区北鳥旗町11番,戸畑渡場バス停西側,33.9011857,130.8189926,
福岡県,北九州市,第2投票区-2,戸畑区銀座一丁目1番,戸畑駅前公園(北口),33.8976798,130.8194547,
福岡県,北九州市,第2投票区-3,戸畑区汐井町3番,戸畑駅北口駐車場,33.8952931,130.8190593,
福岡県,北九州市,第2投票区-4,戸畑区南鳥旗町3番17号,西戸畑市民センター,33.8998379,130.8215994,
福岡県,北九州市,第2投票区-5,戸畑区北鳥旗町1番,本町公園,33.9000832,130.8215749,
福岡県,北九州市,第2投票区-6,戸畑区川代二丁目2番,大橋公園,33.9016021,130.8194395,
福岡県,北九州市,第2投票区-7,戸畑区元宮町9番,八幡製鉄所総合センター前バス停付近,33.9010551,130.8248313,
福岡県,北九州市,第3投票区-1,戸畑区初音町9番,初音町北公園,33.8947429,130.8207989,
福岡県,北九州市,第3投票区-2,戸畑区浅生二丁目13番,向町公園,33.8948659,130.8246731,
福岡県,北九州市,第3投票区-3,戸畑区沖台一丁目5番,北九州市立高校横フェンス,33.8901399,130.8264916,
福岡県,北九州市,第3投票区-4,戸畑区浅生一丁目8番,貴船公園,33.890873,130.8290215,
福岡県,北九州市,第3投票区-5,戸畑区浅生二丁目2番,浅生2号公園,33.8935854,130.8269659,
福岡県,北九州市,第3投票区-6,戸畑区汐井町1番,汐井町公園,33.8974716,130.8226472,
福岡県,北九州市,第3投票区-7,戸畑区新池一丁目1番1号,戸畑図書館,33.8946188,130.8293308,
福岡県,北九州市,第3投票区-8,戸畑区千防一丁目1番1号,戸畑区役所正面玄関横,33.8936915,130.8296419,
福岡県,北九州市,第4投票区-1,戸畑区牧山一丁目5番,牧山一号公園,33.8924795,130.8170034,
福岡県,北九州市,第4投票区-2,戸畑区牧山一丁目1番,牧山第一団地 (牧山一丁目バス停前フェンス),33.892802,130.818743,
福岡県,北九州市,第4投票区-3,戸畑区初音町11番,初音町団地南側フェンス,33.8936207,130.8208779,
福岡県,北九州市,第4投票区-4,戸畑区丸町三丁目1番,西高峰第2団地2棟東側フェンス,33.8872664,130.8204035,
福岡県,北九州市,第4投票区-5,戸畑区丸町一丁目6番,丸町公園,33.8890399,130.8226965,
福岡県,北九州市,第4投票区-6,戸畑区新川町3番25号,牧山東市民センター駐車場,33.8913684,130.8215997,
福岡県,北九州市,第4投票区-7,戸畑区高峰二丁目1番,岩崎石材店前バス停東側,33.888082,130.8230918,
福岡県,北九州市,第5投票区-1,戸畑区千防一丁目10番14号,NTT西日本戸畑ビル,33.8952882,130.8303046,
福岡県,北九州市,第5投票区-2,戸畑区小芝一丁目8番,黒田公園,33.89320480000001,130.8351877,
福岡県,北九州市,第5投票区-3,戸畑区千防一丁目12番,市営千防猪之坂団地,33.8948049,130.8315513,
福岡県,北九州市,第5投票区-4,戸畑区小芝一丁目8番6号,飛幡中学校正門横ブロック塀,33.8934534,130.8348616,
福岡県,北九州市,第5投票区-5,戸畑区沢見二丁目1番,小沢見公園,33.893609,130.8370849,
福岡県,北九州市,第5投票区-6,戸畑区沢見一丁目3番47号,北九州中央高等学園正門横フェンス,33.8901832,130.8366689,
福岡県,北九州市,第5投票区-7,戸畑区沢見一丁目4番,小沢見市営団地集会所横フェンス,33.8913648,130.837243,
福岡県,北九州市,第6投票区-1,戸畑区菅原一丁目7番,猿渡公園,33.8868393,130.829654,
福岡県,北九州市,第6投票区-2,戸畑区正津町2番4号,masked,33.8912831,130.83103,
福岡県,北九州市,第6投票区-3,戸畑区天籟寺二丁目2番,天籟寺公園,33.8889509,130.8309189,
福岡県,北九州市,第6投票区-4,戸畑区観音寺町3番,観音寺公園フェンス,33.88375389999999,130.8315513,
福岡県,北九州市,第6投票区-5,戸畑区夜宮二丁目6番,夜宮団地25棟前フェンス,33.8852459,130.8321837,
福岡県,北九州市,第6投票区-6,戸畑区夜宮二丁目1番1号,天籟寺小学校正門横フェンス,33.8867061,130.8324752,
福岡県,北九州市,第6投票区-7,戸畑区天籟寺一丁目4番,沢見一丁目交差点西側,33.8897217,130.834081,
福岡県,北九州市,第7投票区-1,戸畑区椎ノ木町1番,椎ノ木団地第2団地入口横フェンス,33.8850029,130.8238825,
福岡県,北九州市,第7投票区-2,戸畑区椎ノ木町13番,椎ノ木団地第1団地3棟前フェンス,33.8835423,130.8249894,
福岡県,北九州市,第7投票区-3,戸畑区椎ノ木町16番4号,旧北九州市職員研修所,33.8825509,130.8268331,
福岡県,北九州市,第7投票区-4,戸畑区椎ノ木町10番,椎ノ木谷団地4棟横フェンス,33.8817244,130.8231709,
福岡県,北九州市,第7投票区-5,戸畑区菅原四丁目6番1号,大谷小学校正門横フェンス,33.8833847,130.8274506,
福岡県,北九州市,第7投票区-6,戸畑区菅原四丁目6番1号,大谷小学校裏門横,33.8833847,130.8274506,
福岡県,北九州市,第7投票区-7,戸畑区東大谷一丁目7番,大谷10号公園,33.8811649,130.8302074,
福岡県,北九州市,第8投票区-1,戸畑区西鞘ヶ谷町16番,鞘ヶ谷競技場入口,33.8748008,130.8277566,
福岡県,北九州市,第8投票区-2,戸畑区西鞘ヶ谷町24番,鞘ヶ谷ホタル公園,33.8747788,130.8316304,
福岡県,北九州市,第8投票区-3,戸畑区西鞘ヶ谷町3番17号,鞘ヶ谷市民センター,33.8780442,130.8327051,
福岡県,北九州市,第8投票区-4,戸畑区東鞘ヶ谷町2番,東鞘ヶ谷1号(橋上),33.8785882,130.8339229,
福岡県,北九州市,第8投票区-5,戸畑区東鞘ヶ谷町2番,平和アパート前,33.8785882,130.8339229,
福岡県,北九州市,第8投票区-6,戸畑区福柳木一丁目12番,福柳木公園,33.8817399,130.8349506,
福岡県,北九州市,第8投票区-7,戸畑区金比羅町1番,金比羅中央公園,33.8778924,130.8392981,
福岡県,北九州市,第9投票区-1,戸畑区一枝一丁目7番,岩ヶ鼻北公園,33.8852586,130.8380137,
福岡県,北九州市,第9投票区-2,戸畑区一枝一丁目8番1号,一枝市民センターフェンス,33.8869461,130.8392443,
福岡県,北九州市,第9投票区-3,戸畑区一枝四丁目3番,一枝西団地3棟東側フェンス,33.883045,130.8391401,
福岡県,北九州市,第9投票区-4,戸畑区一枝二丁目7番1号,一枝小学校正門横フェンス,33.884406,130.8399404,
福岡県,北九州市,第9投票区-5,戸畑区一枝二丁目1番,一枝公園,33.8866879,130.8395748,
福岡県,北九州市,第9投票区-6,戸畑区一枝四丁目4番2号,一枝,33.8829812,130.839684,
福岡県,北九州市,第9投票区-7,戸畑区一枝四丁目13番,一枝団地入口横フェンス,33.8814893,130.8423017,
福岡県,北九州市,第10投票区-1,戸畑区千防二丁目5番,千防公園,33.8958416,130.8318675,
福岡県,北九州市,第10投票区-2,戸畑区天神二丁目5番,小芝公園,33.8965289,130.8339986,
福岡県,北九州市,第10投票区-3,戸畑区千防二丁目5番,千防公園北側,33.8958416,130.8318675,
福岡県,北九州市,第10投票区-4,戸畑区小芝二丁目2番4号,戸畑リハビリテーション病院駐車場,33.8947071,130.8356367,
福岡県,北九州市,第10投票区-5,戸畑区小芝二丁目1番4号,沢見市民センター,33.8950592,130.8352473,
福岡県,北九州市,第10投票区-6,戸畑区小芝二丁目4番31号,戸畑リハビリテーション病院,33.8947556,130.8362044,
福岡県,北九州市,第10投票区-7,戸畑区小芝二丁目5番,旧戸畑診療所向かい側ガードレール,33.8961439,130.8369268,
福岡県,北九州市,第11投票区-1,戸畑区千防三丁目12番,寿公園,33.8995332,130.8328162,
福岡県,北九州市,第11投票区-2,戸畑区小芝三丁目9番,小山公園,33.8994279,130.8365315,
福岡県,北九州市,第11投票区-3,戸畑区三六町4番,春日公園,33.8984168,130.8354249,
福岡県,北九州市,第11投票区-4,戸畑区小芝三丁目2番,東本町公園南側,33.8978886,130.8369268,
福岡県,北九州市,第11投票区-5,戸畑区小芝三丁目12番2号,三六市民センター,33.8997373,130.8372194,
福岡県,北九州市,第11投票区-6,戸畑区小芝三丁目13番,199号線歩道フェンス,33.9004168,130.8378753,
福岡県,北九州市,第11投票区-7,戸畑区中原西一丁目12番,中ノ浜公園南側,33.9002392,130.8397724,
福岡県,北九州市,第12投票区-1,戸畑区仙水町1番1号,九州工業大学正門横,33.8909667,130.8400718,
福岡県,北九州市,第12投票区-2,戸畑区中原西三丁目2番,仙水公園,33.8948212,130.842776,
福岡県,北九州市,第12投票区-3,戸畑区土取町12番,土取公園,33.8917048,130.8429341,
福岡県,北九州市,第12投票区-4,戸畑区境川二丁目6番1号,中原中学校グラウンド南西側フェンス,33.8919661,130.8448186,
福岡県,北九州市,第12投票区-5,戸畑区中原西二丁目11番,新堤公園,33.8979375,130.8426179,
福岡県,北九州市,第12投票区-6,戸畑区中原西三丁目8番14号,中原児童館,33.8984522,130.8441403,
福岡県,北九州市,第12投票区-7,戸畑区中原東三丁目1番,堺川町公園,33.8943617,130.8466488,
福岡県,北九州市,第12投票区-8,戸畑区中原東三丁目13番,皆好園団地1棟前フェンス,33.8983589,130.8484665,
福岡県,北九州市,第12投票区-9,戸畑区中原東三丁目12番,八幡橋横ガードレール,33.8966897,130.849731,
福岡県,北九州市,第13投票区-1,戸畑区牧山四丁目25番,都島公園,33.892729,130.809649,
福岡県,北九州市,第13投票区-2,戸畑区牧山四丁目23番16号,牧山児童館跡地,33.8931848,130.8117778,
福岡県,北九州市,第13投票区-3,戸畑区牧山二丁目12番,牧山二丁目公園,33.8896658,130.8149474,
福岡県,北九州市,第13投票区-4,戸畑区牧山四丁目1番22号,牧山市民センター,33.8910759,130.8134027,
福岡県,北九州市,第13投票区-5,戸畑区牧山三丁目1番,牧山展望公園,33.8871557,130.8179523,
福岡県,北九州市,第13投票区-6,戸畑区牧山二丁目12番,牧山第13つどいの家集会所フェンス (防火水槽用地),33.8896658,130.8149474,
福岡県,北九州市,第13投票区-7,戸畑区牧山三丁目6番,戸畑工業高校下道路,33.8884107,130.8164499,
福岡県,北九州市,第14投票区-1,戸畑区西大谷二丁目12番1号,西大谷第2団地8棟入口横フェンス,33.8782029,130.8242092,
福岡県,北九州市,第14投票区-2,戸畑区西大谷一丁目10番,大谷1号公園,33.8798434,130.8251475,
福岡県,北九州市,第14投票区-3,戸畑区東大谷二丁目3番,大谷第9号公園,33.8794671,130.8255428,
福岡県,北九州市,第14投票区-4,戸畑区東大谷二丁目12番,東大谷二丁目公園,33.8775734,130.8260963,
福岡県,北九州市,第14投票区-5,戸畑区東大谷二丁目2番44号,大谷市民センター,33.8792642,130.8272932,
福岡県,北九州市,第14投票区-6,戸畑区東大谷三丁目3番,東大谷第1団地入口横フェンス,33.8774186,130.8277566,
福岡県,北九州市,第14投票区-7,戸畑区東大谷一丁目18番,東大谷第2団地18棟前フェンス,33.8788823,130.829733,
福岡県,北九州市,第1投票区-1,若松区本町三丁目13番1号,若松市民会館前 植込み,33.90136,130.8074753,
福岡県,北九州市,第1投票区-2,若松区本町二丁目17番16号,下水道中川通りポンプ場 鉄柵,33.901428,130.8094276,
福岡県,北九州市,第1投票区-3,若松区久岐の浜1番,久岐の浜広場 駐車場 鉄柵,33.900307,130.8068809,
福岡県,北九州市,第1投票区-4,若松区久岐の浜3番,久岐の浜1号公園 鉄柵,33.8984099,130.80435,
福岡県,北九州市,第1投票区-5,若松区久岐の浜2番,JR若松駅有料駐車場前 フェンス,33.8992763,130.8054573,
福岡県,北九州市,第1投票区-6,若松区本町三丁目13番1号,若松市民会館裏 植込み,33.90136,130.8074753,
福岡県,北九州市,第1投票区-7,若松区本町三丁目6番,ルートイン前広場 ステージ横植え込み,33.9029215,130.8074346,
福岡県,北九州市,第2投票区-1,若松区浜町一丁目1番2号,若松中央市民センター 植栽場,33.9054296,130.8117282,
福岡県,北九州市,第2投票区-2,若松区浜町一丁目1番1号,若松区役所 駐車場フェンス,33.9054389,130.8111568,
福岡県,北九州市,第2投票区-3,若松区浜町一丁目1番1号,若松区役所 西側出入口付近,33.9054389,130.8111568,
福岡県,北九州市,第2投票区-4,若松区本町一丁目10番16号,若松渡場前 駐輪場 フェンス,33.9023584,130.814196,
福岡県,北九州市,第2投票区-5,若松区本町二丁目1番,若松市民公園,33.9048182,130.8099653,
福岡県,北九州市,第2投票区-6,若松区浜町一丁目17番1号,産業医科大学若松病院 玄関前植込み,33.9075576,130.8122095,
福岡県,北九州市,第3投票区-1,若松区浜町二丁目10番13号,市立若松コスモス保育所 フェンス,33.9071685,130.8081105,
福岡県,北九州市,第3投票区-2,若松区浜町三丁目18番,九州電力 北湊変電所 フェンス,33.9100056,130.8109934,
福岡県,北九州市,第3投票区-3,若松区浜町三丁目11番,浜町三丁目公園,33.9093893,130.8098071,
福岡県,北九州市,第3投票区-4,若松区浜町二丁目11番,浜町二丁目公園,33.9068572,130.8094117,
福岡県,北九州市,第3投票区-5,若松区桜町1番28号,若松消防署 車庫 フェンス,33.9076492,130.8071577,
福岡県,北九州市,第3投票区-6,若松区桜町2番,桜町南公園 北側植込み,33.9080365,130.8066437,
福岡県,北九州市,第3投票区-7,若松区大字安瀬64番地95,ホームセンター付近 植込み,33.923118,130.8094574,
福岡県,北九州市,第3投票区-8,若松区大字安瀬64番地18付近,安瀬変電所前交差点 植込み,33.923118,130.8094574,
福岡県,北九州市,第4投票区-1,若松区白山二丁目12番45号,若松中学校 北門塀,33.9068597,130.8014513,
福岡県,北九州市,第4投票区-2,若松区山ノ堂町12番,山ノ堂町12番12号付近 道路フェンス,33.9076758,130.796994,
福岡県,北九州市,第4投票区-3,若松区白山二丁目13番,若松中学校 グラウンドフェンス,33.908438,130.801819,
福岡県,北九州市,第4投票区-4,若松区白山二丁目13番30号,16区自治会 ちびっこ広場 フェンス,33.908941,130.8019476,
福岡県,北九州市,第4投票区-5,若松区西園町4番,西園町バス停付近鉄柵,33.908928,130.8033218,
福岡県,北九州市,第4投票区-6,若松区老松二丁目5番,市営 老松北団地前,33.9103758,130.8044291,
福岡県,北九州市,第4投票区-7,若松区老松一丁目6番17号,昭和公民館 フェンス,33.9092786,130.8052571,
福岡県,北九州市,第5投票区-1,若松区深町一丁目2番14号,市立 深町児童館 フェンス,33.9121053,130.7992008,
福岡県,北九州市,第5投票区-2,若松区深町一丁目1番,深町バス停付近鉄柵,33.9116182,130.7978641,
福岡県,北九州市,第5投票区-3,若松区深町一丁目10番,深町一丁目南公園 鉄柵,33.91269940000001,130.7977059,
福岡県,北九州市,第5投票区-4,若松区波打町5番,波打町公園 フェンス,33.9114064,130.8022145,
福岡県,北九州市,第5投票区-5,若松区深町一丁目13番,市営 深町北団地 駐車場フェンス,33.917024,130.7970731,
福岡県,北九州市,第5投票区-6,若松区東畑町1番,第一東畑町バス停付近 道路鉄柵,33.9086275,130.7977059,
福岡県,北九州市,第5投票区-7,若松区北湊町5番,北湊町5番三角地,33.9133843,130.8025956,
福岡県,北九州市,第6投票区-1,若松区西小石町8番1号,赤崎小学校 正門フェンス,33.9198601,130.7910907,
福岡県,北九州市,第6投票区-2,若松区西小石町8番2号,赤崎市民センター 出入口前ガードパイプ,33.9199954,130.7918593,
福岡県,北九州市,第6投票区-3,若松区東小石町10番,市営 原町東団地6棟 フェンス,33.9202359,130.7948582,
福岡県,北九州市,第6投票区-4,若松区東小石町5番2号,市営 上ノ鴻団地2棟 フェンス,33.9171614,130.7945824,
福岡県,北九州市,第6投票区-5,若松区赤崎町11番4号,市営 竜清西団地4棟 フェンス,33.9190755,130.7893896,
福岡県,北九州市,第6投票区-6,若松区小石本村町14番,第二小石本村バス停付近 鉄柵,33.9178545,130.7824373,
福岡県,北九州市,第6投票区-7,若松区響南町5番,若松市民グラウンド駐車場 フェンス,33.9201661,130.7997625,
福岡県,北九州市,第6投票区-8,若松区小石本村町20番,市営 小石プール フェンス,33.9182177,130.7810448,
福岡県,北九州市,第7投票区-1,若松区下原町7番11号,小石公民館 フェンス,33.9156515,130.7900897,
福岡県,北九州市,第7投票区-2,若松区宮前町3番1号,小石小学校 西門フェンス,33.9161225,130.7886728,
福岡県,北九州市,第7投票区-3,若松区原町12番34号,市立若松ひまわり学園 フェンス,33.9168442,130.7927786,
福岡県,北九州市,第7投票区-4,若松区原町12番2号,UR 原町団地2棟 フェンス,33.9173354,130.7934738,
福岡県,北九州市,第7投票区-5,若松区原町9番27号,ビレッジハウス若松 1棟フェンス,33.9158711,130.7939966,
福岡県,北九州市,第7投票区-6,若松区迫田町14番1号,市営 迫田団地1棟 フェンス,33.912946,130.7854046,
福岡県,北九州市,第7投票区-7,若松区棚田町4番5号,市営 棚田団地5棟 フェンス,33.9134771,130.7910677,
福岡県,北九州市,第8投票区-1,若松区中畑町16番28号,西14区公民館,33.9108641,130.7878767,
福岡県,北九州市,第8投票区-2,若松区中畑町7番,小石観音前バス停 フェンス,33.9121799,130.7866307,
福岡県,北九州市,第8投票区-3,若松区中畑町10番,中畑町公園,33.9112815,130.7837824,
福岡県,北九州市,第8投票区-4,若松区小糸町8番,市営 小糸団地 西側道路フェンス,33.9095117,130.788213,
福岡県,北九州市,第8投票区-5,若松区中畑町4番,中畑町北公園 フェンス,33.912536,130.7872763,
福岡県,北九州市,第8投票区-6,若松区棚田町5番,棚田町東公園 植込み,33.9121552,130.791061,
福岡県,北九州市,第8投票区-7,若松区中畑町23番,中畑町東公園 フェンス,33.9093092,130.7872636,
福岡県,北九州市,第9投票区-1,若松区西畑町13番1号,深町小学校南側鉄柵,33.9106519,130.7937655,
福岡県,北九州市,第9投票区-2,若松区大谷町2番,大谷町河川 鉄柵,33.9066574,130.7933552,
福岡県,北九州市,第9投票区-3,若松区西畑町13番1号,深町小学校 東側フェンス,33.9106519,130.7937655,
福岡県,北九州市,第9投票区-4,若松区大谷町1番,大谷町河川 鉄柵,33.90713170000001,130.793988,
福岡県,北九州市,第9投票区-5,若松区新大谷町4番,新大谷町北公園,33.9062211,130.7933552,
福岡県,北九州市,第9投票区-6,若松区西畑町5番31号,畑団地1棟 フェンス,33.9081892,130.791546,
福岡県,北九州市,第10投票区-1,若松区白山二丁目1番1号,若松中央小学校 正門フェンス,33.9060879,130.8049927,
福岡県,北九州市,第10投票区-2,若松区白山二丁目1番1号,若松中央小学校 南門フェンス,33.9060879,130.8049927,
福岡県,北九州市,第10投票区-3,若松区白山二丁目1番1号,若松中央小学校 東門フェンス,33.9060879,130.8049927,
福岡県,北九州市,第10投票区-4,若松区中川町4番,林成寺駐車場 フェンス,33.9066236,130.8067571,
福岡県,北九州市,第10投票区-5,若松区大井戸町9番,大井戸町公園 フェンス,33.906968,130.8045873,
福岡県,北九州市,第10投票区-6,若松区白山一丁目7番,正保寺公園 鉄柵,33.9030668,130.8037964,
福岡県,北九州市,第10投票区-7,若松区白山一丁目9番62号,市営 白山団地62棟 フェンス,33.9022899,130.8052398,
福岡県,北九州市,第10投票区-8,若松区白山一丁目9番11号,若松駅前郵便局前 鉄柵,33.9020093,130.805839,
福岡県,北九州市,第11投票区-1,若松区修多羅一丁目11番4号,旧修多羅小学校(若松天使園) 正門フェンス,33.9010406,130.802521,
福岡県,北九州市,第11投票区-2,若松区白山一丁目18番,修多羅バス停付近 フェンス,33.9011162,130.8062244,
福岡県,北九州市,第11投票区-3,若松区修多羅一丁目4番,修多羅一丁目公園,33.901056,130.8030055,
福岡県,北九州市,第11投票区-4,若松区白山一丁目16番11号,市立 高塔児童館 フェンス,33.9010996,130.8039546,
福岡県,北九州市,第11投票区-5,若松区修多羅二丁目27番,古前一丁目バス停付近 フェンス,33.8968004,130.8023727,
福岡県,北九州市,第11投票区-6,若松区修多羅二丁目7番,久岐の浜歩道橋付近 フェンス,33.8985647,130.8026891,
福岡県,北九州市,第12投票区-1,若松区古前二丁目19番36号,くきのうみ小学校 正門フェンス,33.8957074,130.7972306,
福岡県,北九州市,第12投票区-2,若松区古前二丁目15番7号,若松消防団 第四分団 フェンス,33.8955457,130.7989557,
福岡県,北九州市,第12投票区-3,若松区古前一丁目28番23号,古前市民センター フェンス,33.8925444,130.7948291,
福岡県,北九州市,第12投票区-4,若松区古前一丁目13番,古前東公園 フェンス,33.8957315,130.8003162,
福岡県,北九州市,第12投票区-5,若松区古前一丁目6番,藤ノ木ポンプ場 フェンス,33.8921707,130.7979432,
福岡県,北九州市,第12投票区-6,若松区古前一丁目1番,古前一丁目バス停横フェンス (若松体育館),33.8948557,130.8008699,
福岡県,北九州市,第12投票区-7,若松区古前二丁目19番36号,くきのうみ小学校 北側フェンス,33.8957074,130.7972306,
福岡県,北九州市,第13投票区-1,若松区赤島町20番13号,藤ノ木市民センター,33.89479,130.782896,
福岡県,北九州市,第13投票区-2,若松区赤島町4番16号,第24区公民館 ブロック塀,33.8942013,130.7796634,
福岡県,北九州市,第13投票区-3,若松区赤島町17番,赤島町17番15号付近 川沿い鉄柵,33.894879,130.7813296,
福岡県,北九州市,第13投票区-4,若松区宮丸二丁目27番,宮丸公園 フェンス,33.8955986,130.7866307,
福岡県,北九州市,第13投票区-5,若松区宮丸一丁目4番,宮丸市場駐車場 フェンス,33.893515,130.7876592,
福岡県,北九州市,第13投票区-6,若松区宮丸一丁目19番2号,市営 大池団地2棟 フェンス,33.8958805,130.7891973,
福岡県,北九州市,第14投票区-1,若松区今光一丁目18番1号,藤木小学校 西門フェンス,33.8948789,130.7734958,
福岡県,北九州市,第14投票区-2,若松区今光一丁目18番1号,藤木小学校 正門フェンス,33.8948789,130.7734958,
福岡県,北九州市,第14投票区-3,若松区今光一丁目12番8号,石峯中学校 西側フェンス,33.8948789,130.7734958,
福岡県,北九州市,第14投票区-4,若松区赤岩町9番,ボートレース若松 第8駐車場 フェンス,33.8888964,130.7647904,
福岡県,北九州市,第14投票区-5,若松区今光一丁目12番8号,石峯中学校 北側フェンス,33.8948789,130.7734958,
福岡県,北九州市,第14投票区-6,若松区用勺町15番,用勺町西公園 フェンス,33.8921626,130.7682727,
福岡県,北九州市,第14投票区-7,若松区用勺町11番,用勺町東公園,33.893024,130.7704886,
福岡県,北九州市,第14投票区-8,若松区童子丸二丁目9番,市営 童子丸南団地3棟横 フェンス,33.8907332,130.7632865,
福岡県,北九州市,第15投票区-1,若松区大字小竹1114番地2,脇ノ浦公民館前道路鉄柵,33.9195666,130.7538329,
福岡県,北九州市,第15投票区-2,若松区大字小竹967番地,外小竹公民館前,33.915486,130.7546689,
福岡県,北九州市,第15投票区-3,若松区大字小竹1537番地7付近,鬼ヶ坂入口バス停 鉄柵,33.9126056,130.7538671,
福岡県,北九州市,第15投票区-4,若松区大字小竹1563番地,脇の浦公園 フェンス,33.9126056,130.7538671,
福岡県,北九州市,第15投票区-5,若松区大字小竹626番地付近,外小竹バス停付近鉄柵,33.9126056,130.7538671,
福岡県,北九州市,第16投票区-1,若松区東二島三丁目8番20号,東二島公民館前 フェンス,33.8887419,130.7559687,
福岡県,北九州市,第16投票区-2,若松区東二島二丁目7番3号,二島市民センター フェンス,33.8876743,130.7580453,
福岡県,北九州市,第16投票区-3,若松区南二島一丁目1番,ボートレース若松 第6駐車場 フェンス,33.88741419999999,130.761941,
福岡県,北九州市,第16投票区-4,若松区東二島二丁目3番,日吉神社 鳥居横道路鉄柵,33.88694230000001,130.7565585,
福岡県,北九州市,第16投票区-5,若松区南二島二丁目19番,東二島三丁目バス停 フェンス,33.8870906,130.7518088,
福岡県,北九州市,第16投票区-6,若松区東二島四丁目2番,市営 寺田団地1棟前駐車場 フェンス,33.888458,130.7527588,
福岡県,北九州市,第16投票区-7,若松区東二島二丁目18番,東二島二丁目公園 フェンス,33.8905334,130.7575876,
福岡県,北九州市,第16投票区-8,若松区東二島三丁目28番,東二島中公園 フェンス,33.8913572,130.7549753,
福岡県,北九州市,第17投票区-1,若松区鴨生田四丁目13番1号,鴨生田小学校正門フェンス,33.8987337,130.7375199,
福岡県,北九州市,第17投票区-2,若松区鴨生田四丁目13番1号,鴨生田小学校 南門フェンス,33.8987337,130.7375199,
福岡県,北九州市,第17投票区-3,若松区鴨生田二丁目1番1号,島郷合同庁舎(出張所)入口塀,33.8934587,130.7363819,
福岡県,北九州市,第17投票区-4,若松区鴨生田二丁目9番,二島西公園 グラウンド側,33.895574,130.7345484,
福岡県,北九州市,第17投票区-5,若松区畠田三丁目5番18号,畠田バス停付近鉄柵,33.9031059,130.7427244,
福岡県,北九州市,第17投票区-6,若松区畠田二丁目6番,畠田二丁目公園,33.9018896,130.7438919,
福岡県,北九州市,第17投票区-7,若松区大字小竹2227番地,花房小学校前 鉄柵,33.9082941,130.741459,
福岡県,北九州市,第17投票区-8,若松区鴨生田二丁目9番,二島西公園 西側フェンス,33.895574,130.7345484,
福岡県,北九州市,第17投票区-9,若松区二島六丁目2番,二島六丁目公園 フェンス,33.891302,130.7408831,
福岡県,北九州市,第18投票区-1,若松区大字安屋2280番地2付近,安屋分校前交差点,33.929322,130.722216,
福岡県,北九州市,第18投票区-2,若松区大字安屋3406番地1付近,逆水バス停付近鉄柵,33.9334304,130.7133221,
福岡県,北九州市,第18投票区-3,若松区大字安屋1630番地4付近,安屋バス停付近フェンス (安屋公民館そば),33.9294149,130.7234412,
福岡県,北九州市,第18投票区-4,若松区大字安屋1679番地19付近,脇田公園 フェンス,33.9303548,130.7266489,
福岡県,北九州市,第18投票区-5,若松区柳崎町1番,電源開発 フェンス,33.937999,130.745109,
福岡県,北九州市,第18投票区-6,若松区大字頓田2284番地付近,内平バス停付近鉄柵,33.9194872,130.7380211,
福岡県,北九州市,第18投票区-7,若松区大字安屋2547番地付近,後バス停付近鉄柵,33.9297676,130.7156137,
福岡県,北九州市,第19投票区-1,若松区大字竹並3087番地1,洞北中学校正門フェンス,33.9035726,130.7227878,
福岡県,北九州市,第19投票区-2,若松区大字竹並3087番地1付近,洞北中学校前バス停付近 鉄柵,33.9035726,130.7227878,
福岡県,北九州市,第19投票区-3,若松区大字竹並2261番地付近,武富商店前三叉路 鉄柵,33.9076008,130.7196858,
福岡県,北九州市,第19投票区-4,若松区大字払川118番地付近,払川バス停付近鉄柵,33.9007893,130.7221937,
福岡県,北九州市,第19投票区-5,若松区大字払川493番地1,市民農園駐車場入口横 鉄柵,33.899798,130.720776,
福岡県,北九州市,第19投票区-6,若松区大字払川563番地付近,塩屋入口バス停 鉄柵,33.9007893,130.7221937,
福岡県,北九州市,第19投票区-7,若松区大字竹並1786番地付近,竹並公民館前道路鉄柵,33.9107629,130.723461,
福岡県,北九州市,第20投票区-1,若松区大字蜑住1307番地,蜑住公民館前,33.9060394,130.7099167,
福岡県,北九州市,第20投票区-2,若松区大字蜑住941番地付近,火の坂交差点付近鉄柵,33.9111215,130.7073906,
福岡県,北九州市,第20投票区-3,若松区大字蜑住983番地39付近,蜑住中央公園 フェンス,33.9145187,130.7051012,
福岡県,北九州市,第20投票区-4,若松区大字蜑住990番地8付近,蜑住西公園 フェンス,33.9131284,130.7047858,
福岡県,北九州市,第20投票区-5,若松区大字蜑住1761番地1付近,セブンイレブン前 鉄柵,33.8999453,130.7058158,
福岡県,北九州市,第20投票区-6,若松区大字蜑住1824番地付近,稲国橋バス停付近鉄柵,33.9091603,130.7001511,
福岡県,北九州市,第21投票区-1,若松区大字有毛682番地1,有毛公民館前 フェンス,33.9186665,130.6903844,
福岡県,北九州市,第21投票区-2,若松区大字乙丸770番地1付近,行学幼稚園手前 信号付近鉄柵,33.9089927,130.694089,
福岡県,北九州市,第21投票区-3,若松区大字有毛306番地付近,上有毛バス停横 鉄柵,33.91930730000001,130.700276,
福岡県,北九州市,第21投票区-4,若松区大字有毛1793番地付近,有毛バス停 鉄柵,33.9200751,130.6898096,
福岡県,北九州市,第21投票区-5,若松区大字有毛2927番地付近,ケアハウス玄海付近 道路鉄柵,33.9342325,130.6897646,
福岡県,北九州市,第21投票区-6,若松区大字有毛650番地付近,有毛大江橋(坂井川)鉄柵,33.9207133,130.6919518,
福岡県,北九州市,第21投票区-7,若松区大字乙丸591番地(青葉台西二丁目12番付近),青葉台西二丁目 北側信号 鉄柵,33.9109281,130.687967,
福岡県,北九州市,第21投票区-8,若松区花野路一丁目13番,花野路一丁目公園 フェンス,33.9082908,130.6823398,
福岡県,北九州市,第21投票区-9,若松区大字乙丸5番地,江川小学校 正門フェンス,33.9068252,130.6979213,
福岡県,北九州市,第22投票区-1,若松区高須東四丁目14番1号,高須小学校 正門フェンス,33.8902648,130.6945084,
福岡県,北九州市,第22投票区-2,若松区高須東三丁目9番,西部ガス 発信機庫 フェンス,33.888636,130.6966048,
福岡県,北九州市,第22投票区-3,若松区高須南四丁目1番1号,市営 高須団地1棟 フェンス,33.8881381,130.6871411,
福岡県,北九州市,第22投票区-4,若松区高須南一丁目10番,高須南一丁目公園 フェンス,33.8861533,130.6935144,
福岡県,北九州市,第22投票区-5,若松区高須南三丁目2番10号,県営高須団地10棟 フェンス,33.8887467,130.689835,
福岡県,北九州市,第22投票区-6,若松区高須東三丁目12番,高須公園,33.8893518,130.6946238,
福岡県,北九州市,第22投票区-7,若松区高須東二丁目12番,高須東二丁目公園 フェンス,33.8925015,130.697318,
福岡県,北九州市,第22投票区-8,若松区高須南二丁目2番,サンリブ高須前 フェンス,33.8896232,130.689552,
福岡県,北九州市,第23投票区-1,若松区東二島五丁目13番1号,二島小学校 正門フェンス,33.8936225,130.7479792,
福岡県,北九州市,第23投票区-2,若松区東二島五丁目13番1号,二島小学校 グランド側フェンス,33.8936225,130.7479792,
福岡県,北九州市,第23投票区-3,若松区片山三丁目4番,片山三丁目公園 フェンス,33.8976394,130.745792,
福岡県,北九州市,第23投票区-4,若松区二島一丁目3番,若松イオン駐車場入口前交差点 道路鉄柵,33.8917343,130.7454925,
福岡県,北九州市,第23投票区-5,若松区二島二丁目2番,市営 二島団地6棟前 国道側フェンス,33.8911871,130.7473755,
福岡県,北九州市,第23投票区-6,若松区二島二丁目1番13号,市営 二島団地3棟 東側フェンス,33.8910814,130.7482404,
福岡県,北九州市,第23投票区-7,若松区二島四丁目2番,二島四丁目公園 フェンス,33.8958657,130.7429417,
福岡県,北九州市,第24投票区-1,若松区高須北一丁目1番2号,高須市民センター フェンス,33.8931107,130.6933392,
福岡県,北九州市,第24投票区-2,若松区高須西一丁目15番,高須西一丁目北公園,33.892467,130.6860649,
福岡県,北九州市,第24投票区-3,若松区高須北二丁目1番,高須東四丁目交差点付近 道路鉄柵,33.8922127,130.6920087,
福岡県,北九州市,第24投票区-4,若松区高須北二丁目6番,高須北二丁目公園,33.8938214,130.6903445,
福岡県,北九州市,第24投票区-5,若松区高須西一丁目7番,高須西一丁目南公園,33.8911153,130.6859857,
福岡県,北九州市,第24投票区-6,若松区高須北一丁目12番,高須西一丁目交差点付近 道路鉄柵,33.8959301,130.6885218,
福岡県,北九州市,第24投票区-7,若松区高須北一丁目2番,高須中学校前,33.8954813,130.6912955,
福岡県,北九州市,第25投票区-1,若松区青葉台西三丁目1番1号,青葉小学校正門側フェンス,33.8990423,130.6879272,
福岡県,北九州市,第25投票区-2,若松区青葉台南二丁目15番,青葉台南二丁目公園 フェンス,33.89806069999999,130.6912162,
福岡県,北九州市,第25投票区-3,若松区青葉台西一丁目6番,青葉台西一丁目公園 フェンス,33.9017344,130.6882048,
福岡県,北九州市,第25投票区-4,若松区青葉台西一丁目14番,青葉台中央公園 手すり,33.9048622,130.6863819,
福岡県,北九州市,第25投票区-5,若松区青葉台西三丁目1番1号,青葉小学校 グラウンド側フェンス,33.8990423,130.6879272,
福岡県,北九州市,第25投票区-6,若松区青葉台南一丁目1番,青葉台南一丁目公園,33.894979,130.6967633,
福岡県,北九州市,第25投票区-7,若松区青葉台西五丁目3番,青葉台西五丁目公園 フェンス,33.9005477,130.6836872,
福岡県,北九州市,第25投票区-8,若松区青葉台東二丁目9番,青葉台東二丁目公園,33.9059734,130.6890765,
福岡県,北九州市,第26投票区-1,若松区塩屋二丁目18番,ひびきの北公園,33.8958124,130.7193423,
福岡県,北九州市,第26投票区-2,若松区ひびきの北8番,技術開発交流センター前,33.8913263,130.7090442,
福岡県,北九州市,第26投票区-3,若松区大字小敷222番地1付近,小敷公民館前バス停 鉄柵,33.8942295,130.702805,
福岡県,北九州市,第26投票区-4,若松区大字大鳥居460番地付近,小敷橋付近 鉄柵,33.8966215,130.6994304,
福岡県,北九州市,第26投票区-5,若松区ひびきの南一丁目3番,ひびきの南一丁目公園,33.8882854,130.7146688,
福岡県,北九州市,第26投票区-6,若松区小敷ひびきの三丁目1番,ひびきの南公園,33.8891381,130.7053998,
福岡県,北九州市,第26投票区-7,若松区塩屋四丁目4番付近,交差点 道路鉄柵,33.8964718,130.7116585,
福岡県,北九州市,第26投票区-8,若松区ひびきの北8番28号,ひびきの市民センター前 フェンス,33.893044,130.7107633,
福岡県,北九州市,第26投票区-9,若松区塩屋三丁目18番付近,交差点 道路鉄柵,33.8932078,130.7160154,
福岡県,北九州市,第1投票区-1,門司区清滝一丁目6番37号,門司区役所東別館前金網,33.9415105,130.9601442,
福岡県,北九州市,第1投票区-2,門司区清滝一丁目6番,門司区役所駐車場金網,33.9412009,130.9607388,
福岡県,北九州市,第1投票区-3,門司区広石一丁目1番,森田酒店横道路鉄柵,33.9410039,130.9574561,
福岡県,北九州市,第1投票区-4,門司区広石一丁目4番,道路横鉄柵,33.9405769,130.9556117,
福岡県,北九州市,第1投票区-5,門司区風師一丁目4番,白木崎公園前道路鉄柵,33.9380837,130.9507996,
福岡県,北九州市,第1投票区-6,門司区風師一丁目1番11号,masked,33.9399695,130.9543692,
福岡県,北九州市,第2投票区-1,門司区清滝三丁目5番30号,旧門司税務署正門左横金網,33.9427486,130.9621794,
福岡県,北九州市,第2投票区-2,門司区港町6番16号,日本穀物検定協会門司事務所フェンス,33.9453898,130.9633614,
福岡県,北九州市,第2投票区-3,門司区港町3番,鎮西橋公園鉄柵,33.946433,130.964911,
福岡県,北九州市,第2投票区-4,門司区栄町11番,セブンイレブン前ガードレール,33.9465377,130.9676795,
福岡県,北九州市,第2投票区-5,門司区清滝三丁目6番,門司港交番前道路鉄柵,33.9426718,130.9635783,
福岡県,北九州市,第2投票区-6,門司区栄町7番,桟橋通バス停横鉄柵,33.9441737,130.9650769,
福岡県,北九州市,第2投票区-7,門司区錦町11番27号,錦町11番27号前歩道鉄柵,33.9428305,130.9682739,
福岡県,北九州市,第3投票区-1,門司区丸山二丁目5番1号,門司中学校正面横レンガ塀,33.939251,130.9698836,
福岡県,北九州市,第3投票区-2,門司区丸山二丁目15番,丸山二丁目公園金網,33.9368593,130.96973,
福岡県,北九州市,第3投票区-3,門司区丸山一丁目10番,市営住宅No1前金網,33.9386505,130.9687048,
福岡県,北九州市,第3投票区-4,門司区丸山二丁目1番,市営住宅No216公園金網,33.9413996,130.9698089,
福岡県,北九州市,第3投票区-5,門司区丸山吉野町4番2号,月極有料駐車場(堀)金網,33.9385221,130.9725197,
福岡県,北九州市,第3投票区-6,門司区長谷二丁目1番,消防用貯水槽金網,33.9394094,130.9724113,
福岡県,北九州市,第3投票区-7,門司区長谷一丁目14番,市営長谷団地金網,33.9418367,130.9748559,
福岡県,北九州市,第4投票区-1,門司区東門司二丁目5番,東門司二丁目公園入口横,33.9488977,130.9733576,
福岡県,北九州市,第4投票区-2,門司区東門司二丁目17番11号,有料駐車場前ガードレール,33.9468349,130.9755857,
福岡県,北九州市,第4投票区-3,門司区東門司二丁目11番,東門司二丁目バス停ガードレール,33.9489342,130.9739885,
福岡県,北九州市,第4投票区-4,門司区東門司二丁目7番4号,masked,33.9479464,130.9730619,
福岡県,北九州市,第4投票区-5,門司区東門司二丁目16番1号,門司中央小学校体育館横コンクリート塀,33.9469334,130.9747727,
福岡県,北九州市,第4投票区-6,門司区花月園6番,花月園入口道路 鉄柵,33.9475381,130.9774581,
福岡県,北九州市,第4投票区-7,門司区谷町一丁目8番3号,日本福音ルーテル門司教会ブロック塀,33.9449896,130.9785648,
福岡県,北九州市,第5投票区-1,門司区老松町3番,老松公園東側金網,33.9472493,130.9694745,
福岡県,北九州市,第5投票区-2,門司区東門司一丁目1番24号,門司市民会館駐車場金網,33.9484535,130.9692967,
福岡県,北九州市,第5投票区-3,門司区老松町10番,市営久保町団地 金網,33.9471329,130.9710707,
福岡県,北九州市,第5投票区-4,門司区庄司町4番,老松市民センター市民駐車場 金網,33.9464889,130.9712284,
福岡県,北九州市,第5投票区-5,門司区庄司町15番12号,masked,33.9437172,130.9692462,
福岡県,北九州市,第5投票区-6,門司区老松町3番,老松公園北側金網,33.9472493,130.9694745,
福岡県,北九州市,第5投票区-7,門司区老松町3番,老松公園西側金網,33.9472493,130.9694745,
福岡県,北九州市,第6投票区-1,門司区浜町3番,門司消防署老松分署金網(山側),33.9492405,130.9667331,
福岡県,北九州市,第6投票区-2,門司区浜町4番1号,門司電気通信レトロ館前金網,33.9498203,130.9668969,
福岡県,北九州市,第6投票区-3,門司区東本町二丁目5番,内堀川公園金網(西側),33.9497897,130.9680738,
福岡県,北九州市,第6投票区-4,門司区東本町二丁目5番,内堀川公園金網(東側),33.9497897,130.9680738,
福岡県,北九州市,第6投票区-5,門司区浜町3番,門司消防署老松分署金網(海側),33.9492405,130.9667331,
福岡県,北九州市,第6投票区-6,門司区浜町6番,有料駐車場金網,33.9518165,130.9661022,
福岡県,北九州市,第6投票区-7,門司区旧門司二丁目5番,ノーフォーク広場駐車場 鉄柵,33.957393,130.9619119,
福岡県,北九州市,第7投票区-1,門司区畑田町4番12号,masked,33.9509782,130.9708242,
福岡県,北九州市,第7投票区-2,門司区清見一丁目10番12号,堀江医院前ブロック塀,33.9501777,130.9742638,
福岡県,北九州市,第7投票区-3,門司区清見二丁目2番,教王寺前ガードレール,33.9524721,130.9774581,
福岡県,北九州市,第7投票区-4,門司区清見一丁目19番,masked,33.9514923,130.9755656,
福岡県,北九州市,第7投票区-5,門司区大久保二丁目1番,大久保公園 金網,33.9542135,130.9774581,
福岡県,北九州市,第7投票区-6,門司区大久保一丁目13番,和布刈スカイマンション前道路鉄柵,33.9574416,130.9730422,
福岡県,北九州市,第7投票区-7,門司区大久保三丁目5番,市営住宅No2前金網,33.9564947,130.9799025,
福岡県,北九州市,第8投票区-1,門司区清見三丁目1番,清見市民センター前道路フェンス,33.9495157,130.9790352,
福岡県,北九州市,第8投票区-2,門司区清見一丁目21番,市営住宅No1前フェンス,33.9508213,130.9765119,
福岡県,北九州市,第8投票区-3,門司区清見一丁目21番,市営住宅No2前 金網,33.9508213,130.9765119,
福岡県,北九州市,第8投票区-4,門司区花月園15番,上本町公園金網,33.9481737,130.9809276,
福岡県,北九州市,第8投票区-5,門司区清見三丁目5番,清見南団地市営住宅集会室前金網,33.9487178,130.9802968,
福岡県,北九州市,第8投票区-6,門司区清見四丁目3番,市営清見東団地No.3前金網,33.9467003,130.9836872,
福岡県,北九州市,第8投票区-7,門司区清見四丁目17番,鳴竹公園金網,33.9511671,130.9850275,
福岡県,北九州市,第9投票区-1,門司区鳴竹一丁目12番,masked,33.953761,130.9872351,
福岡県,北九州市,第9投票区-2,門司区鳴竹二丁目17番5号,西鉄門司営業所ブロック塀,33.9543365,130.9886582,
福岡県,北九州市,第9投票区-3,門司区鳴竹二丁目18番,西鉄門司営業所バス駐車場コンクリート塀,33.9548674,130.9888118,
福岡県,北九州市,第9投票区-4,門司区田野浦一丁目6番22号,masked,33.9542113,130.9892492,
福岡県,北九州市,第9投票区-5,門司区田野浦一丁目2番,田野浦臨海公園金網,33.9573884,130.9897579,
福岡県,北九州市,第9投票区-6,門司区新開13番,田野浦公民館前 川の金網,33.9567808,130.9880234,
福岡県,北九州市,第9投票区-7,門司区新開13番9号,県営新開団地No.9前金網,33.9560478,130.9881144,
福岡県,北九州市,第10投票区-1,門司区白野江二丁目5番3号,masked,33.9356151,131.0049263,
福岡県,北九州市,第10投票区-2,門司区白野江二丁目12番21号,masked,33.9370185,131.0056336,
福岡県,北九州市,第10投票区-3,門司区白野江三丁目2番1号,白野江小学校金網,33.9386794,131.0083059,
福岡県,北九州市,第10投票区-4,門司区白野江三丁目5番22号,masked,33.9398416,131.0087418,
福岡県,北九州市,第10投票区-5,門司区白野江三丁目18番,(株)平本砕石前 高瀬川の橋のコンクリート塀,33.9438442,131.0109608,
福岡県,北九州市,第10投票区-6,門司区白野江一丁目8番,市営白野江団地11棟駐車場金網,33.9340735,131.0069415,
福岡県,北九州市,第10投票区-7,門司区大字白野江139番地,masked,33.9535642,131.0190039,
福岡県,北九州市,第10投票区-8,門司区白野江四丁目29番41号,シトラスコート門司港前道路鉄柵,33.9450516,131.0078281,
福岡県,北九州市,第11投票区-1,門司区大字黒川,金山口バス停横鉄柵,33.92875230000001,130.9776158,
福岡県,北九州市,第11投票区-2,門司区大字大積119番地の2,高砂モータース横道路鉄柵,33.92836,130.9880824,
福岡県,北九州市,第11投票区-3,門司区大字大積974番地の3,大積小学校正門左側金網(体育館方向へ20m),33.92922,130.9883339,
福岡県,北九州市,第11投票区-4,門司区大字大積,大積西町バス停向側鉄柵,33.9315876,130.9965374,
福岡県,北九州市,第11投票区-5,門司区大字大積677番,大積農協前信号機前ガードレール,33.9295494,130.9960685,
福岡県,北九州市,第11投票区-6,門司区大字大積,大積小学校前バス停横鉄柵,33.9315876,130.9965374,
福岡県,北九州市,第11投票区-7,門司区大字喜多久303番地,公民館前ガードレール,33.9159916,131.0005055,
福岡県,北九州市,第11投票区-8,門司区黒川西一丁目9番,東郷中学校正面そば金網,33.9238365,130.9804545,
福岡県,北九州市,第12投票区-1,門司区春日町9番24号,かすがばし歩道橋南西側道路鉄柵,33.9312749,130.9714699,
福岡県,北九州市,第12投票区-2,門司区高砂町9番1号,masked,33.9262203,130.9765948,
福岡県,北九州市,第12投票区-3,門司区春日町23番,春日町公園金網,33.928691,130.9721747,
福岡県,北九州市,第12投票区-4,門司区春日町29番,奥畑上橋そば 川の鉄柵,33.9279372,130.9704398,
福岡県,北九州市,第12投票区-5,門司区春日町18番,春日橋横の鉄柵,33.9280029,130.9753291,
福岡県,北九州市,第13投票区-1,門司区大字柄杓田,柄杓田分道バス停下道路金網,33.9103962,130.9914922,
福岡県,北九州市,第13投票区-2,門司区大字柄杓田,柄杓田小学校前信号近くの道路鉄柵,33.9103962,130.9914922,
福岡県,北九州市,第13投票区-3,門司区大字柄杓田946番2号,県道柄杓田・大里線 トレーニング門司向い 鉄柵,33.9098487,130.9896114,
福岡県,北九州市,第13投票区-4,門司区大字柄杓田,柄杓田橋欄干,33.9103962,130.9914922,
福岡県,北九州市,第13投票区-5,門司区大字柄杓田,masked,33.9103962,130.9914922,
福岡県,北九州市,第14投票区-1,門司区風師二丁目8番,丸正運送アパート前道路鉄柵,33.9370816,130.9516673,
福岡県,北九州市,第14投票区-2,門司区葛葉一丁目1番,葛葉東公園金網,33.9366403,130.9496951,
福岡県,北九州市,第14投票区-3,門司区葛葉一丁目4番,小森江東公民館前道路金網,33.9344752,130.9480384,
福岡県,北九州市,第14投票区-4,門司区葛葉二丁目1番24号,masked,33.9339212,130.9472494,
福岡県,北九州市,第14投票区-5,門司区葛葉二丁目3番,葛葉南公園金網,33.9327046,130.9463027,
福岡県,北九州市,第15投票区-1,門司区風師三丁目9番,風師公園前ガードレール,33.9321381,130.9471705,
福岡県,北九州市,第15投票区-2,門司区ニタ松町4番,市営住宅No.221前金網,33.9040449,130.9398395,
福岡県,北九州市,第15投票区-3,門司区風師四丁目3番,元高橋商店横川の鉄柵,33.9311034,130.9468549,
福岡県,北九州市,第15投票区-4,門司区葛葉三丁目5番,ニタ松町バス停前道路金網,33.92983570000001,130.9444091,
福岡県,北九州市,第15投票区-5,門司区ニタ松町2番1号,小森江東小学校正門横フェンス,33.941189,130.959686,緯度経度は怪しい
福岡県,北九州市,第15投票区-6,門司区風師四丁目13番1号,旧風師中学校正門横金網,33.9290297,130.947229,
福岡県,北九州市,第15投票区-7,門司区片上海岸1番,ナフコ門司シーサイド店駐車場フェンス,33.9321754,130.9443421,
福岡県,北九州市,第16投票区-1,門司区片上町3番,(株)シノハラ製作所横 鉄柵,33.9244041,130.9440146,
福岡県,北九州市,第16投票区-2,門司区北川町1番18号,ハローワーク前道路ガードレール,33.9229806,130.9434446,
福岡県,北九州市,第16投票区-3,門司区羽山一丁目1番24号,門司休日急患診療所金網,33.9212783,130.9427262,
福岡県,北九州市,第16投票区-4,門司区小森江二丁目2番,小森江バス停ガードレール (海側),33.9203997,130.941332,
福岡県,北九州市,第16投票区-5,門司区羽山二丁目5番3号,羽山9号線ガードレール,33.9193351,130.9454143,
福岡県,北九州市,第16投票区-6,門司区矢筈町6番,矢筈公園金網,33.9189619,130.9421999,
福岡県,北九州市,第16投票区-7,門司区矢筈町2番17号,信号機横ガードレール,33.9178406,130.9410649,
福岡県,北九州市,第17投票区-1,門司区大里東一丁目6番,市営住宅No5横フェンス,33.9149264,130.9408586,
福岡県,北九州市,第17投票区-2,門司区大里東一丁目8番,市立大里東児童館金網,33.9150002,130.942121,
福岡県,北九州市,第17投票区-3,門司区南本町3番,すみれ保育所金網,33.9159614,130.9411742,
福岡県,北九州市,第17投票区-4,門司区大里東二丁目2番,大里東公園金網,33.9152007,130.9430678,
福岡県,北九州市,第17投票区-5,門司区大里東二丁目2番20号,大里東第二公民館金網,33.9150678,130.9428114,
福岡県,北九州市,第17投票区-6,門司区大里東三丁目6番,市営山田団地No.26駐車場金網,33.9148573,130.9446458,
福岡県,北九州市,第17投票区-7,門司区大里東三丁目8番,市営住宅No6上ガードレール,33.9142764,130.9446458,
福岡県,北九州市,第18投票区-1,門司区永黒二丁目5番,永黒公園金網,33.9084723,130.9496951,
福岡県,北九州市,第18投票区-2,門司区寺内四丁目1番1号,戸ノ上中学校正門横 金網,33.9053201,130.9504475,
福岡県,北九州市,第18投票区-3,門司区寺内四丁目6番,市営住宅No24横 金網,33.9049012,130.9500896,
福岡県,北九州市,第18投票区-4,門司区城山町4番,城山町公園金網,33.9039729,130.9522196,
福岡県,北九州市,第18投票区-5,門司区大字大里5933番地2,城山霊園前バス停金網,33.9003355,130.9571903,
福岡県,北九州市,第18投票区-6,門司区奥田二丁目7番,奥田公園金網,33.9098756,130.9563216,
福岡県,北九州市,第18投票区-7,門司区奥田一丁目6番,13号と16号の間の空き地前ガードレール,33.9097795,130.9552961,
福岡県,北九州市,第19投票区-1,門司区寺内一丁目21番,寺内第二団地3棟下金網,33.9068196,130.9487484,
福岡県,北九州市,第19投票区-2,門司区寺内三丁目4番,寺内バス停横金網,33.9038454,130.9469338,
福岡県,北九州市,第19投票区-3,門司区永黒二丁目1番24号,masked,33.9102225,130.9475173,
福岡県,北九州市,第19投票区-4,門司区上二十町8番10号,masked,33.9074877,130.9448375,
福岡県,北九州市,第19投票区-5,門司区寺内二丁目7番1号,萩ヶ丘小学校正門横金網,33.9048047,130.944693,
福岡県,北九州市,第19投票区-6,門司区大里戸ノ上三丁目8番,市立萩ヶ丘市民センター金網,33.905117,130.9432256,
福岡県,北九州市,第19投票区-7,門司区大里戸ノ上三丁目8番,萩ヶ丘球場南側金網,33.905117,130.9432256,
福岡県,北九州市,第20投票区-1,門司区大里東二丁目14番,大川公園市道側金網,33.9125459,130.9429889,
福岡県,北九州市,第20投票区-2,門司区大里戸ノ上一丁目12番,元カーブス門司店金網 (セブンイレブン隣),33.90481340000001,130.9392805,
福岡県,北九州市,第20投票区-3,門司区中二十町15番,中二十町公園金網,33.9107174,130.9433834,
福岡県,北九州市,第20投票区-4,門司区中二十町7番1号,大里東小学校北側 金網,33.9088946,130.94178,
福岡県,北九州市,第20投票区-5,門司区大里東四丁目11番2号,市営大里東第3団地受水槽前金網,33.9120725,130.9438963,
福岡県,北九州市,第20投票区-6,門司区中二十町7番1号,大里東小学校正門横金網,33.9088946,130.94178,
福岡県,北九州市,第20投票区-7,門司区大里戸ノ上二丁目20番,道路鉄柵,33.9041942,130.9417265,
福岡県,北九州市,第21投票区-1,門司区黄金町5番,黄金4の橋のガードレール,33.9089698,130.9383336,
福岡県,北九州市,第21投票区-2,門司区黄金町6番,(有)豊栄建設駐車場フェンス,33.9095507,130.9383336,
福岡県,北九州市,第21投票区-3,門司区黄金町7番,月極駐車場金網,33.9092892,130.9400695,
福岡県,北九州市,第21投票区-4,門司区黄金町1番,黄金2の橋のガードレール,33.9096405,130.9373867,
福岡県,北九州市,第21投票区-5,門司区大里戸ノ上一丁目3番,大里戸ノ上一丁目月極駐車場裏歩道鉄柵,33.90624460000001,130.9364398,
福岡県,北九州市,第21投票区-6,門司区黄金町8番,有料駐車場ブロック塀,33.9086264,130.9399117,
福岡県,北九州市,第21投票区-7,門司区大里本町一丁目5番,大里本町第一駐車場金網,33.9113094,130.9361241,
福岡県,北九州市,第21投票区-8,門司区大里本町一丁目8番,紙のリサイクルステーション前ガードレール,33.9118164,130.9348616,
福岡県,北九州市,第21投票区-9,門司区下二十町3番7号,市立大里東市民センター駐車場金網,33.9116675,130.9385417,
福岡県,北九州市,第22投票区-1,門司区大里本町二丁目1番,社務所横川の鉄柵,33.9101105,130.9354929,
福岡県,北九州市,第22投票区-2,門司区大里本町三丁目3番12号,協和硝子(株)国道199沿い金網,33.9067908,130.9317275,
福岡県,北九州市,第22投票区-3,門司区大里本町三丁目3番,駐車場金網,33.9074381,130.9320207,
福岡県,北九州市,第22投票区-4,門司区大里本町二丁目9番17号,masked,33.9083264,130.9335027,
福岡県,北九州市,第22投票区-5,門司区大里本町三丁目13番,大里海岸緑地中央入口左横植込み,33.9042067,130.9283115,
福岡県,北九州市,第22投票区-6,門司区大里本町三丁目10番40号,ヤマダ電機前道路鉄柵,33.9037261,130.928785,
福岡県,北九州市,第23投票区-1,門司区柳町三丁目4番24号,masked,33.9022856,130.9381672,
福岡県,北九州市,第23投票区-2,門司区柳町二丁目8番,ゆめマート駐車場金網,33.9027959,130.9370711,
福岡県,北九州市,第23投票区-3,門司区柳町二丁目8番1号,サンドラッグ門司店駐車場金網,33.9027856,130.9371226,
福岡県,北九州市,第23投票区-4,門司区高田二丁目2番,大里柳市民センター横 道路鉄柵,33.8998394,130.9355718,
福岡県,北九州市,第23投票区-5,門司区高田二丁目6番,市営住宅No3前金網,33.8986852,130.934467,
福岡県,北九州市,第23投票区-6,門司区柳原町1番,柳西中学校正門下 川の鉄柵,33.8977991,130.933599,
福岡県,北九州市,第23投票区-7,門司区高田一丁目11番10号,UR柳団地1000棟横金網,33.9015511,130.9343545,
福岡県,北九州市,第23投票区-8,門司区柳原町1番,柳西中学校裏門左側交差点 歩道の鉄柵(隅切り部分),33.8977991,130.933599,
福岡県,北九州市,第24投票区-1,門司区原町別院10番16号,サンライフ原町横川の鉄柵,33.8983241,130.9316616,
福岡県,北九州市,第24投票区-2,門司区原町別院14番,新九郎公園金網,33.8969663,130.9295446,
福岡県,北九州市,第24投票区-3,門司区東馬寄2番,下馬寄バス停前市営住宅No26金網,33.8944852,130.9297321,
福岡県,北九州市,第24投票区-4,門司区別院7番,サンライフ別院前 橋ガードレール,33.869103,130.9656289,
福岡県,北九州市,第24投票区-5,門司区原町別院13番,市立大里南市民センター金網,33.8972861,130.929811,
福岡県,北九州市,第24投票区-6,門司区東馬寄3番,市営住宅No4横金網,33.8942132,130.9300477,
福岡県,北九州市,第24投票区-7,門司区大里桃山町2番,桃山町公園前フェンス,33.8937944,130.9365187,
福岡県,北九州市,第24投票区-8,門司区大里本町三丁目9番,大里本町公園金網,33.90205419999999,130.9275223,
福岡県,北九州市,第25投票区-1,門司区新原町15番,大里南小学校前バス停金網,33.8905067,130.9318628,
福岡県,北九州市,第25投票区-2,門司区新原町15番1号,大里南小学校正門横ブロック塀,33.8908006,130.9313795,
福岡県,北九州市,第25投票区-3,門司区新原町14番2号,市営泉ヶ丘団地No.2前鉄柵,33.8910044,130.9331408,
福岡県,北九州市,第25投票区-4,門司区新原町8番,鉄道学園前バス停前,33.8925033,130.9312315,
福岡県,北九州市,第25投票区-5,門司区上馬寄一丁目16番,やまきど橋ガードレール,33.88838399999999,130.9297321,
福岡県,北九州市,第25投票区-6,門司区新原町6番,木村アパート横川の鉄柵,33.8934197,130.930758,
福岡県,北九州市,第25投票区-7,門司区上馬寄二丁目5番,上馬寄公園金網,33.8885958,130.9320996,
福岡県,北九州市,第26投票区-1,門司区東新町一丁目10番,西門司小学校正面横金網,33.8927055,130.9260227,
福岡県,北九州市,第26投票区-2,門司区東新町一丁目8番,masked,33.8924673,130.9244442,
福岡県,北九州市,第26投票区-3,門司区松原二丁目4番13号,(株)北九州ゴム工業横 跨線橋下金網,33.8951927,130.9199178,
福岡県,北九州市,第26投票区-4,門司区社ノ木二丁目1番,市営馬寄団地No.14棟金網,33.8937032,130.928785,
福岡県,北九州市,第26投票区-5,門司区社ノ木一丁目8番,市営馬寄団地No.10横金網,33.8950445,130.9268909,
福岡県,北九州市,第26投票区-6,門司区西新町一丁目8番,西新町公園 鉄柵,33.8905234,130.9218013,
福岡県,北九州市,第26投票区-7,門司区社ノ木一丁目1番,松竹橋ガードレール(旧電車通山側),33.8958755,130.9255678,
福岡県,北九州市,第26投票区-8,門司区西新町一丁目1番,さきのえハイツ横 村中川橋ガードレール,33.8924454,130.9216028,
福岡県,北九州市,第27投票区-1,門司区光町一丁目1番,志津摩橋ガードレール,33.8887475,130.9228467,
福岡県,北九州市,第27投票区-2,門司区藤松三丁目11番,masked,33.886254,130.92255,
福岡県,北九州市,第27投票区-3,門司区藤松一丁目4番,藤松公団バス停前金網,33.8889435,130.9238128,
福岡県,北九州市,第27投票区-4,門司区藤松一丁目11番,藤松公園金網,33.8874012,130.9247599,
福岡県,北九州市,第27投票区-5,門司区藤松一丁目19番1号,藤松小学校裏門横金網,33.8878149,130.9256752,
福岡県,北九州市,第27投票区-6,門司区藤松一丁目23番25号,奥商店倉庫金網,33.8885537,130.9266893,
福岡県,北九州市,第27投票区-7,門司区藤松一丁目21番2号,吉峯工務店前ガードレール,33.88949789999999,130.9259606,
福岡県,北九州市,第28投票区-1,門司区吉志一丁目34番,東部農協門司支店横 橋鉄柵,33.870496,130.9739096,
福岡県,北九州市,第28投票区-2,門司区吉志一丁目11番,吉志橋鉄柵,33.8682435,130.9726479,
福岡県,北九州市,第28投票区-3,門司区吉志四丁目2番,masked,33.8665546,130.967995,
福岡県,北九州市,第28投票区-4,門司区吉志新町二丁目1番,新門司地区複合公共施設前ガードレール,33.870471,130.9716227,
福岡県,北九州市,第28投票区-5,門司区吉志二丁目21番,吉志橋ガードレール,33.8666062,130.9694934,
福岡県,北九州市,第28投票区-6,門司区吉志二丁目20番,松ヶ江南小学校裏門横金網,33.8669112,130.9703609,
福岡県,北九州市,第28投票区-7,門司区大字恒見,あげバス停跡鉄柵,33.8560785,130.9763542,
福岡県,北九州市,第28投票区-8,門司区大字恒見1322番地,井の浦バス停横鉄柵,33.8470191,130.9828798,
福岡県,北九州市,第28投票区-9,門司区大字恒見1359番地46,門司消防団第11分団車庫前金網,33.8548713,130.9864476,
福岡県,北九州市,第29投票区-1,門司区大字猿喰489番地,日本梱包運輸倉庫(株)金網,33.8967731,130.9797189,
福岡県,北九州市,第29投票区-2,門司区大字猿喰,新池バス停横鉄柵,33.8932565,130.9763542,
福岡県,北九州市,第29投票区-3,門司区大字畑518番地,松ヶ江北小学校正門横金網,33.8838416,130.9799466,
福岡県,北九州市,第29投票区-4,門司区大字畑,山門バス停横鉄柵,33.8834708,130.977174,
福岡県,北九州市,第29投票区-5,門司区大字畑,御堂バス停横鉄柵,33.8834708,130.977174,
福岡県,北九州市,第29投票区-6,門司区大字畑,ヘアーサロンおおば横鉄柵,33.8834708,130.977174,
福岡県,北九州市,第29投票区-7,門司区大字畑1601番地1,ローソン門司畑店前ガードレール,33.8798287,130.9753329,
福岡県,北九州市,第29投票区-8,門司区大字畑,西日本電波研究所北側ガードレール,33.8834708,130.977174,
福岡県,北九州市,第29投票区-9,門司区大字今津310番地,公園前道路鉄柵,33.8799216,130.9830502,
福岡県,北九州市,第30投票区-1,門司区大字伊川,神山住宅バス停横金網,33.9118404,130.9763542,
福岡県,北九州市,第30投票区-2,門司区大字伊川1126番地4,旧伊川小学校下ガードレール,33.9089808,130.9790461,
福岡県,北九州市,第30投票区-3,門司区大字伊川,伊川バス停横鉄柵,33.9118404,130.9763542,
福岡県,北九州市,第30投票区-4,門司区大字伊川,伊川バス停横ガードレール,33.9118404,130.9763542,
福岡県,北九州市,第30投票区-5,門司区大字伊川,伊川東公園金網,33.9118404,130.9763542,
福岡県,北九州市,第30投票区-6,門司区大字伊川,伊川市民サブセンター前 鉄柵,33.9118404,130.9763542,
福岡県,北九州市,第30投票区-7,門司区大字伊川474番地3,masked,33.9101574,130.9732307,
福岡県,北九州市,第31投票区-1,門司区下二十町7番,市営大里高層団地No2横川沿いの鉄柵,33.9119402,130.9407008,
福岡県,北九州市,第31投票区-2,門司区大里東一丁目11番1号,masked,33.9131636,130.9406812,
福岡県,北九州市,第31投票区-3,門司区下二十町1番,門司消防署訓練所金網,33.9130281,130.9394383,
福岡県,北九州市,第31投票区-4,門司区下二十町7番,市営大里高層団地No2前 金網,33.9119402,130.9407008,
福岡県,北九州市,第31投票区-5,門司区下二十町7番,市営大里高層団地No1前金網,33.9119402,130.9407008,
福岡県,北九州市,第31投票区-6,門司区下二十町7番,市営大里高層団地No5前鉄柵,33.9119402,130.9407008,
福岡県,北九州市,第32投票区-1,門司区緑ヶ丘4番,上馬寄南公園 緑ヶ丘バス停前鉄柵,33.8854894,130.9311526,
福岡県,北九州市,第32投票区-2,門司区藤松二丁目11番3号,masked,33.8849576,130.9283869,
福岡県,北九州市,第32投票区-3,門司区藤松二丁目7番,門司大翔館高校裏門横 金網,33.8846519,130.9261806,
福岡県,北九州市,第32投票区-4,門司区藤松二丁目7番,藤松二丁目バス停横 鉄柵,33.8846519,130.9261806,
福岡県,北九州市,第32投票区-5,門司区藤松三丁目4番20号,masked,33.8846799,130.9237822,
福岡県,北九州市,第32投票区-6,門司区藤松二丁目7番,門司大翔館高校正門横 川の金網,33.8846519,130.9261806,
福岡県,北九州市,第32投票区-7,門司区藤松二丁目4番,駐車場前歩道鉄柵,33.886239,130.9247599,
