prefecture,city,number,address,name,lat,long
福岡県,大川市,1,小保４７０−１２,小保団地公共賃貸住宅フェンス,33.2034557,130.365086
福岡県,大川市,2,小保７１９−１２,住吉児童公園石油スタンド側フェンス,33.20970894,130.3637661
福岡県,大川市,3,向島２３０３,善隆寺正面右側の塀,33.21402921,130.36585
福岡県,大川市,4,向島１５１６,大明神玉垣,33.21408725,130.3752359
福岡県,大川市,5,向島１５５４−１,向島（旧フタタ）ミニストップ東側ガードレール,33.21187096,130.3741139
福岡県,大川市,6,向島１８５０,大川小学校正面左側フェンス,33.21000473,130.3714935
福岡県,大川市,7,向島１８５５−２,大川コミュニティーセンター正面左側フェンス,33.21087312,130.3714803
福岡県,大川市,8,向島２１３６−１,西鉄バス久留米(株) 大川支社　西側入口正面右側フェンス,33.21733884,130.3705512
福岡県,大川市,9,榎津６６９,明治橋東側フェンス,33.20772953,130.3726672
福岡県,大川市,10,小保６１４−６,ワークピア大川駐車場,33.20520486,130.3670406
福岡県,大川市,11,榎津４７３−７,榎津水入町天満神社玉垣,33.20458243,130.3736615
福岡県,大川市,12,榎津１３７−１,旧大川高校前市道ガードレール,33.20501336,130.3769274
福岡県,大川市,13,榎津１３７−１,国際医療福祉正門植込み,33.20361966,130.3806398
福岡県,大川市,14,酒見１４１−１１,高木病院駐車場西側角寄りフェンス,33.20742953,130.3794743
福岡県,大川市,15,酒見４４,中原天満宮左側玉垣,33.20900058,130.3808122
福岡県,大川市,16,酒見２５６−１,大川市役所正面左側,33.20643618,130.3836097
福岡県,大川市,17,酒見３４４−１２,酒見団地公園,33.21015757,130.3825123
福岡県,大川市,18,向島８４５,宮前小学校正面左側フェンス,33.21394283,130.3851235
福岡県,大川市,19,酒見１１６,花宗大橋南側フェンス,33.20856961,130.3779701
福岡県,大川市,20,向島７−８,宮前小から200m北の市道ガードレール,33.2151587,130.3858631
福岡県,大川市,21,鐘ケ江４１１,又七梱包フェンス（カーブミラー北側）,33.23693825,130.386357
福岡県,大川市,22,中古賀１１１０,リサイクルプラザ用地市道側フェンス,33.22231065,130.3842725
福岡県,大川市,23,鐘ケ江６５１−３,信用金庫三又支店向かい側ガードレール,33.23456414,130.3858009
福岡県,大川市,24,諸富８３−３,masked,33.22455628,130.3902953
福岡県,大川市,25,中古賀２０８−１,三又コミュニティーセンター西側植込み,33.23048039,130.3880347
福岡県,大川市,26,下青木１５４,覚円寺前の畑,33.22846506,130.3945921
福岡県,大川市,27,下林２８７,masked,33.22721615,130.4050845
福岡県,大川市,28,道海島６４３−２,鐘ヶ江大橋道海島交差点北側空き地,33.23639861,130.3798596
福岡県,大川市,29,道海島３４６,道海島市営住宅1号棟北側隅のフェンス,33.2389188,130.371867
福岡県,大川市,30,道海島５４７,道海島公民館　西市道ガードレール,33.2374005,130.3765692
福岡県,大川市,31,道海島１１７−１,株式会社ケイ·エム産業前,33.24067873,130.374021
福岡県,大川市,32,中木室８０６,上田バス停東側バードパイプ　旧４４２号,33.21041002,130.4174258
福岡県,大川市,33,大橋２８３,溝田畳店花壇,33.21018252,130.3962338
福岡県,大川市,34,中木室４９６,木室小学校入口左側ガードレール,33.21081264,130.4051627
福岡県,大川市,35,中八院１４６８番地1,木室ふれあい広場東側グラウンド隅,33.21294343,130.4059384
福岡県,大川市,36,下木佐木９４５−１,３８５BP川南交差点北側歩道のガードパイプ,33.19794659,130.4027165
福岡県,大川市,37,中八院８９５,県道柳川城島線高瀬町橋　歩道（橋梁）のフェンス,33.21548165,130.4117624
福岡県,大川市,38,本木室８６,本木室交差点宮本大川線ガードレール,33.21739915,130.3999764
福岡県,大川市,39,三丸２０６１,田口小学校正面左側フェンス,33.19412509,130.3873972
福岡県,大川市,40,三丸２０６１,田口小学校給食室西側のフェンス,33.19479689,130.387287
福岡県,大川市,41,大字三丸８２４ー３７,アプリコット１南側　大川東ICガードパイプ,33.19017078,130.3837952
福岡県,大川市,42,坂井７１８−３,県道柳川城島線中ノ坪橋　歩道のガードパイプ,33.18410557,130.3913238
福岡県,大川市,43,鬼古賀１５０−２,角建具製作所東側市道ガードレール,33.19617269,130.394826
福岡県,大川市,44,上巻４０５−１,保健センター前歩道　ガードレール,33.20139141,130.3851844
福岡県,大川市,45,郷原５３５−１,中村理容西側市道ガードレール,33.20619563,130.3883832
福岡県,大川市,46,幡保１７２−３,関家具駐車場横ブロック塀のガードパイプ,33.19524646,130.3817617
福岡県,大川市,47,津７３１−１,炭焼地鶏海人　向側クリークガードパイプ,33.20269331,130.3725113
福岡県,大川市,48,一木５１２,masked,33.194767,130.3645529
福岡県,大川市,49,大字一木４８１,川口小学校正門左側市道ガードレール,33.1925607,130.3646612
福岡県,大川市,50,一木１２８０−１,岡崎税理士事務所前県道ガードレール,33.18972079,130.3678687
福岡県,大川市,51,一木６０４−１,旧川口幼稚園入口傍　点滅信号側フェンス,33.19096198,130.3625808
福岡県,大川市,52,津２４３,津公民館前　車止パイプ,33.20002146,130.377298
福岡県,大川市,53,新田１３１７−２,川口漁協南側県道ガードレール,33.18424374,130.3600386
福岡県,大川市,54,新田１２０−１,龍商店斜向側空き地,33.18669742,130.3615823
福岡県,大川市,55,新田６３２,紅粉屋橋西側　金網フェンス,33.18071788,130.3623637
福岡県,大川市,56,大野島２６７３,大野島小学校　東側校門左側フェンス,33.19625291,130.3538372
福岡県,大川市,57,大野島２８９３－２,大野小学校バス停の横　運動場西側のフェンス,33.19592539,130.3525676
福岡県,大川市,58,大野島９７９,本田藤吉方裏市道　ガードレール,33.20387742,130.3483919
福岡県,大川市,59,大野島３５２６−１,堀江鍼灸院　ブロック塀,33.19017067,130.3480141
福岡県,大川市,60,大字大野島２４１７－１,JA大野島支所南側の市道,33.19829989,130.3481084
福岡県,大川市,61,大野島５０９−２,武下美容室東側の市道ガードレール,33.20441555,130.3523217
