prefecture,city,number,address,name,lat,long,note
福岡県,太宰府市,1,大字北谷259番地,北谷公民館前（まほろば号）バス停横,33.5415567,130.5476327,
福岡県,太宰府市,2,大字内山573番地,竈門神社​第三駐車場前​​,33.527902,130.548120,
福岡県,太宰府市,3,御笠1丁目2番,大原団地前バス停横,33.5313554,130.5362049,
福岡県,太宰府市,4,三条1丁目3番,福岡県盲人協会 福岡光明園横,33.5251468,130.5331906,
福岡県,太宰府市,5,宰府5丁目6番,三条公民館前（まほろば号）バス停横,33.5240489,130.53499,
福岡県,太宰府市,6,連歌屋2丁目2番,浦の城橋横,33.5212652,130.5311958,
福岡県,太宰府市,7,宰府2丁目8番,馬場公民館,33.5181064,130.5323138,
福岡県,太宰府市,8,石坂3丁目7番,石坂ハイツ前,33.516272,130.5318797,
福岡県,太宰府市,9,五条4丁目14番,福岡女子短期大学入口,33.5128955,130.5301434,
福岡県,太宰府市,10,石坂3丁目30番,湯の谷公園前,33.515725,130.5368706,
福岡県,太宰府市,11,五条1丁目6番,新町公民館前,33.5179551,130.5283389,
福岡県,太宰府市,12,観世音寺6丁目1番,観世団地東側入口,33.518985,130.523744,
福岡県,太宰府市,13,白川5番,白川5番15号前（市道五条橋・建重寺線）,33.5171403,130.5261902,
福岡県,太宰府市,14,白川2番,太宰府市体育センター横（御笠川側）,33.5145154,130.5255053,
福岡県,太宰府市,15,五条2丁目11番,車屋第1ビル横（市道高橋口橋線）,33.5129439,130.5264081,
福岡県,太宰府市,16,五条2丁目4番,五条二丁目4番18号前（市道五条2号線）,33.512488,130.5276383,
福岡県,太宰府市,17,五条2丁目7番,西鉄五条駅前広場,33.5113407,130.5265072,
福岡県,太宰府市,18,五条4丁目6番,五条台入口（デイサービス前案内板横）,33.5087332,130.527804,
福岡県,太宰府市,19,五条3丁目4番,月見山公園,33.5101478,130.5251138,
福岡県,太宰府市,20,青山2丁目5番,東ヶ丘中央公園,33.5071564,130.5349261,
福岡県,太宰府市,21,青山3丁目4番,太宰府東小学校正門横,33.5080436,130.5379823,
福岡県,太宰府市,22,青山4丁目17番,星ヶ丘公園,33.5032066,130.5350253,
福岡県,太宰府市,23,青山4丁目11番,星ヶ丘第2（西鉄）バス停前（下り線）,33.5030178,130.5384571,
福岡県,太宰府市,24,五条6丁目25番,国道3号バイパス 星ヶ丘交差点横,33.5036169,130.5311914,
福岡県,太宰府市,25,梅香苑1丁目2番,梅香苑第2公園（梅香苑第1（西鉄）バス停前）,33.501923,130.5323119,
福岡県,太宰府市,26,梅香苑4丁目14番,梅香苑第1公園,33.4987919,130.5345989,
福岡県,太宰府市,27,高雄2丁目3855番地,太宰府南小学校正門横,33.5021782,130.539564,
福岡県,太宰府市,28,高雄1丁目3789番地,星ヶ丘保育園横,33.4992839,130.5395017,
福岡県,太宰府市,29,高雄6丁目8番,高雄中央公園,33.4980981,130.5433154,
福岡県,太宰府市,30,梅ヶ丘2丁目15番,高雄台前（西鉄）バス停横,33.495452,130.544089,
福岡県,太宰府市,31,梅ヶ丘2丁目1番,梅ヶ丘公民館横県道沿い,33.4949989,130.5420829,
福岡県,太宰府市,32,高雄4丁目12番,高雄四丁目12番16号前（市道今王・柳ヶ浦線）,33.501063,130.5417467,
福岡県,太宰府市,33,水城1丁目20番,水城老人憩いの家前（市道水城橋・小柳線）,33.495028,130.542182,
福岡県,太宰府市,34,水城5丁目21番,水城ヶ丘団地入口,33.5268204,130.4987894,
福岡県,太宰府市,35,水城3丁目10番,水城台団地北入口,33.524284,130.4976433,
福岡県,太宰府市,36,水城1丁目2番,特別史跡水城跡 第二広場,33.5225849,130.497814,
福岡県,太宰府市,37,国分1丁目8番,国分一丁目6番前（市道松本・鍛冶久線）,33.5213235,130.5043086,
福岡県,太宰府市,38,国分2丁目9番,国分小学校入口,33.521312, 130.504280,
福岡県,太宰府市,39,坂本3丁目175番地20,令和の都小正府公園（コットンヒルズ内）,33.516784,130.507043,
福岡県,太宰府市,40,坂本3丁目2番,消防団本部分団第3自動車部車庫前,33.5160665,130.5086079,
福岡県,太宰府市,41,坂本3丁目3番,坂本三丁目3番18号 刈萱の関跡横,33.5140234,130.5057989,
福岡県,太宰府市,42,観世音寺3丁目13番,水城小学校正門横,33.5136409,130.5077495,
福岡県,太宰府市,43,観世音寺2丁目8番,大楠公園,33.5119587,130.5125517,
福岡県,太宰府市,44,観世音寺5丁目9番,観世音寺公民館横,33.5151793,130.5200434,
福岡県,太宰府市,45,観世音寺1丁目1番,太宰府市役所前,33.5135936,130.5240277,
福岡県,太宰府市,46,観世音寺1丁目3番,プラム・カルコア太宰府横（露切公園）,33.5121301,130.5229402,
福岡県,太宰府市,47,朱雀5丁目6番,筑陽学園（裏門横）,33.5097164,130.516217,
福岡県,太宰府市,48,朱雀6丁目18番,榎社前,33.5073389,130.5148238,
福岡県,太宰府市,49,通古賀6丁目9番,通古賀六丁目9番1号前（市道鶴畑・芝原線）,33.5043192,130.516297,
福岡県,太宰府市,50,通古賀5丁目22番,通古賀五丁目22番1号 サヴァーブ都府楼前,33.5050279,130.5122395,
福岡県,太宰府市,51,通古賀3丁目14番,西鉄都府楼前駅 駅前広場,33.5119847,130.5072852,
福岡県,太宰府市,52,宰都1丁目4番,落合公園,33.5138617,130.5031669,
福岡県,太宰府市,53,通古賀2丁目5番,東蓮寺公園,33.510041,130.5102373,
福岡県,太宰府市,54,通古賀1丁目1番,通古賀近隣公園,33.5104613,130.5149819,
福岡県,太宰府市,55,朱雀1丁目2番,平野第3公園（ライオンズマンション二日市第2横）,33.5084963,130.5211649,
福岡県,太宰府市,56,朱雀2丁目4番,南体育館入口,33.5069406,130.5206859,
福岡県,太宰府市,57,朱雀2丁目3番,人権センター入口横,33.5062924,130.5192391,
福岡県,太宰府市,58,朱雀2丁目10番,西鉄太宰府線踏切付近（西鉄二日市1号踏切）,33.5047989,130.5171634,
福岡県,太宰府市,59,都府楼南4丁目1番,都府楼団地入口（まほろば号）バス停横,33.5051591,130.5106342,
福岡県,太宰府市,60,都府楼南3丁目19番,都府楼広場（ＪＲ都府楼南駅前）,33.5031423,130.5069458,
福岡県,太宰府市,61,大字向佐野90番地,水城西小学校正門横,33.5111729,130.4997135,
福岡県,太宰府市,62,向佐野1丁目3番,向佐野公園,33.5107613,130.4961676,
福岡県,太宰府市,63,吉松2丁目8番,吉松三丁目9番1号前（市道フケ・水城駅線）,33.5136142,130.4928841,
福岡県,太宰府市,64,吉松1丁目21番,ＪＲ鹿児島本線 土井踏切前,33.5162597,130.4927954,
福岡県,太宰府市,65,青葉台2丁目11番,青葉台団地入口（ロイヤルホスト前）,33.5133328,130.4894425,
福岡県,太宰府市,66,青葉台4丁目7番,青葉台共同利用施設,33.506128,130.4888026,
福岡県,太宰府市,67,向佐野3丁目9番,太宰府西中学校テニスコート入口,33.5047689,130.4940854,
福岡県,太宰府市,68,大佐野6丁目8番,ひまわり台東公園,33.499591,130.486073,
福岡県,太宰府市,69,大佐野6丁目26番,つつじヶ丘第2公園（公民館前）,33.4968035,130.4852031,
福岡県,太宰府市,70,大佐野5丁目4番,岩野公園（大佐野台区内）,33.4969552,130.4904888,
福岡県,太宰府市,71,大佐野3丁目5番,大佐野公民館駐車場,33.5020281,130.494007,
福岡県,太宰府市,72,大佐野4丁目14番,佐野近隣公園（花やしき団地内）,33.5008125,130.4899235,
