prefecture,city,number,address,name,lat,long
福岡県,小郡市,1,,【1】小郡市役所前,33.3960816,130.5557319
福岡県,小郡市,2,,【2】人権教育啓発センター駐車場,33.3958356,130.5579347
福岡県,小郡市,3,,【3】小郡小学校西門横,33.3928416,130.5508539
福岡県,小郡市,4,,【4】流通センター入口交差点北東側,33.3928649,130.5444757
福岡県,小郡市,5,,【5】協和病院職員駐車場入口,33.3946644,130.5490335
福岡県,小郡市,6,,【6】小郡小学校運動場東側,33.3928708,130.5523183
福岡県,小郡市,7,,【7】西鉄小郡駅前,33.3961358,130.5528629
福岡県,小郡市,8,,【8】小郡校区コミュニティセンター,33.3886828,130.5481879
福岡県,小郡市,9,,【9】寺福童禅福寺南側,33.3858242,130.5493626
福岡県,小郡市,10,,【10】シルバー人材センター東側,33.3781456,130.5488628
福岡県,小郡市,11,,【11】小郡地域運動広場西側,33.3872992,130.5448557
福岡県,小郡市,12,,【12】八重州グリーンハイツ北公園,33.3902157,130.5469382
福岡県,小郡市,13,,【13】端間駅東側,33.3785808,130.5508547
福岡県,小郡市,14,,【14】大中臣神社南側,33.3786299,130.5460237
福岡県,小郡市,15,,【15】ドラッグストアモリ小郡七夕店北方,33.3924266,130.5570616
福岡県,小郡市,16,,【16】小板井子供広場,33.3915315,130.5542063
福岡県,小郡市,17,,【17】大崎後川橋北方,33.3913606,130.5604519
福岡県,小郡市,18,,【18】（株）サニクリーン九州　鳥栖支店,33.3905219,130.5578581
福岡県,小郡市,19,,【19】七夕地域運動広場北側,33.3889968,130.5624519
福岡県,小郡市,20,,【20】天の川大橋北側,33.3845308,130.5590156
福岡県,小郡市,21,,【21】大崎中島橋西方,33.3851497,130.5556391
福岡県,小郡市,22,,【22】小郡市体育館前,33.3972881,130.5598802
福岡県,小郡市,23,,【23】大板井南児童遊園,33.3994305,130.5614505
福岡県,小郡市,24,,【24】大板井2区東公園,33.4057011,130.5603687
福岡県,小郡市,25,,【25】大原小学校正門横,33.4073021,130.5589511
福岡県,小郡市,26,,【26】大原校区コミュニティセンター,33.4088279,130.5582145
福岡県,小郡市,27,,【27】小郡イオン北側入口,33.4103744,130.5641151
福岡県,小郡市,28,,【28】大保駅前駐輪場,33.4119885,130.5582729
福岡県,小郡市,29,,【29】生涯学習センター入口,33.3979782,130.5631415
福岡県,小郡市,30,,【30】甘木鉄道小郡駅舎下,33.3976289,130.5538995
福岡県,小郡市,31,,【31】イトマンスイミング東側,33.3991859,130.555252
福岡県,小郡市,32,,【32】笹牟田公園東側,33.4004955,130.5595768
福岡県,小郡市,33,,【33】小郡自動車学校南側,33.4003473,130.5533836
福岡県,小郡市,34,,【34】カトリック幼稚園横児童遊園,33.4034923,130.555195
福岡県,小郡市,35,,【35】大原中学校正門横,33.39999,130.5505575
福岡県,小郡市,36,,【36】中学校前区公民館前,33.3994695,130.5485669
福岡県,小郡市,37,,【37】自衛隊南側道路,33.4028947,130.5497757
福岡県,小郡市,38,,【38】大原神社前,33.4055265,130.5461422
福岡県,小郡市,39,,【39】東野小学校正門横,33.4097347,130.5512263
福岡県,小郡市,40,,【40】大保原児童公園南側,33.4080538,130.5545963
福岡県,小郡市,41,,【41】東野校区コミュニティセンター,33.4138971,130.5562269
福岡県,小郡市,42,,【42】パークビルズ小郡西方,33.4062251,130.5533662
福岡県,小郡市,43,,【43】㈱田中総建北三叉路,33.4166795,130.5501843
福岡県,小郡市,44,,【44】力武公民館前,33.4215202,130.566243
福岡県,小郡市,45,,【45】三国校区コミュニティセンター,33.4244828,130.5630772
福岡県,小郡市,46,,【46】小郡スイミング三国校前,33.4258258,130.5629009
福岡県,小郡市,47,,【47】小郡高校南側,33.4335738,130.5617967
福岡県,小郡市,48,,【48】三沢公民館前,33.4245321,130.5604727
福岡県,小郡市,49,,【49】三沢中隈団地,33.4232833,130.5543116
福岡県,小郡市,50,,【50】みくにの東団地内中央通り,33.4293085,130.5626203
福岡県,小郡市,51,,【51】三沢ハイツ南側,33.4288078,130.5641688
福岡県,小郡市,52,,【52】消防団第2分団格納庫,33.4234587,130.5657559
福岡県,小郡市,53,,【53】あすみクラブハウス,33.4350774,130.55816
福岡県,小郡市,54,,【54】みくにの団地古墳公園北側,33.4433261,130.5608456
福岡県,小郡市,55,,【55】みくにの団地公民館前,33.4418918,130.560667
福岡県,小郡市,56,,【56】北中尾公園東方,33.4294875,130.5605073
福岡県,小郡市,57,,【57】津古駅北方,33.4467677,130.5646239
福岡県,小郡市,58,,【58】津古駅前駐輪場,33.4454047,130.5657711
福岡県,小郡市,59,,【59】西鉄三国が丘駅東口,33.4366717,130.5637736
福岡県,小郡市,60,,【60】一ノ口堤北側,33.4371023,130.5518777
福岡県,小郡市,61,,【61】消防団第8分団格納庫東側,33.4326655,130.5532962
福岡県,小郡市,62,,【62】希みが丘クリニック東側,33.4376609,130.5402747
福岡県,小郡市,63,,【63】のぞみが丘小学校正門横,33.4370901,130.5450954
福岡県,小郡市,64,,【64】永浦公園北東調整池南方,33.4399575,130.5492907
福岡県,小郡市,65,,【65】上田町堤東側,33.4342248,130.5460985
福岡県,小郡市,66,,【66】三国中学校南方,33.4334284,130.5513934
福岡県,小郡市,67,,【67】希みが丘2丁目調整池北側,33.4344844,130.5401067
福岡県,小郡市,68,,【68】生掛公園西方,33.441378,130.564376
福岡県,小郡市,69,,【69】土取公園西方,33.4393233,130.563862
福岡県,小郡市,70,,【70】三国が丘公民館,33.4391269,130.5676425
福岡県,小郡市,71,,【71】井ノ浦近隣公園北西角,33.4378994,130.5654673
福岡県,小郡市,72,,【72】井ノ浦近隣公園南西角,33.4355152,130.5649516
福岡県,小郡市,73,,【73】井ノ浦近隣公園南東角,33.4349886,130.5678126
福岡県,小郡市,74,,【74】鍋倉公園南側,33.4335627,130.5671769
福岡県,小郡市,75,,【75】乙隈公民館前,33.4333704,130.5819172
福岡県,小郡市,76,,masked,33.4103607,130.5894105
福岡県,小郡市,77,,【77】花立公民館前,33.4150478,130.6028192
福岡県,小郡市,78,,【78】今隈公民館前,33.4043151,130.5955233
福岡県,小郡市,79,,【79】立石校区コミュニティセンター,33.4121893,130.5836284
福岡県,小郡市,80,,【80】干潟第2工業団地調整池西側,33.4174831,130.5866043
福岡県,小郡市,81,,【81】井上公園,33.4027783,130.5757062
福岡県,小郡市,82,,【82】上岩田区公民館南側,33.3992562,130.5739088
福岡県,小郡市,83,,【83】三井水道企業団事務所,33.3977186,130.5853282
福岡県,小郡市,84,,【84】下岩田交差点西方,33.387306,130.5748216
福岡県,小郡市,85,,【85】稲吉公民館前,33.3891228,130.5692223
福岡県,小郡市,86,,【86】高松凌雲碑入口,33.3780902,130.5756529
福岡県,小郡市,87,,【87】御原校区コミュニティセンター,33.3778074,130.5724795
福岡県,小郡市,88,,【88】はると整骨院前信号西側,33.3777123,130.5609938
福岡県,小郡市,89,,【89】総合保健福祉センター,33.3815357,130.5599239
福岡県,小郡市,90,,【90】宝城北公園,33.3754181,130.5596341
福岡県,小郡市,91,,【91】光養寺北方,33.3776317,130.5578847
福岡県,小郡市,92,,【92】宝城西公園,33.3727309,130.5575997
福岡県,小郡市,93,,【93】平方公民館前,33.3699451,130.5728439
福岡県,小郡市,94,,【94】光行曲がり角,33.3672793,130.5692149
福岡県,小郡市,95,,【95】㈱末次建装北方,33.3624539,130.559549
福岡県,小郡市,96,,【96】赤川区防火水槽前,33.3505565,130.5435816
福岡県,小郡市,97,,【97】西鉄味坂駅前,33.3535036,130.54112
福岡県,小郡市,98,,【98】味坂校区コミュニティセンター,33.3657054,130.5596499
福岡県,小郡市,99,,【99】味坂小学校正門横,33.3670817,130.5603724
