prefecture,city,number,address,name,lat,long
福岡県,春日市,1-1,春日市一の谷3丁目16番地,一の谷３丁目交差点,33.5204951,130.4500414
福岡県,春日市,1-2,春日市昇町1丁目142番地,春日小学校西側,33.5294169,130.4486568
福岡県,春日市,1-3,春日市昇町3丁目159番地,昇町保育所,33.5289773,130.4453544
福岡県,春日市,1-4,春日市須玖南2丁目172番地,春日中学校南側,33.5340909,130.4471993
福岡県,春日市,1-5,春日市昇町1丁目142番地,春日小学校正門側,33.5294169,130.4486568
福岡県,春日市,1-6,春日市小倉3丁目242番地1,春日市福祉ぱれっと館,33.5292503,130.4498425
福岡県,春日市,1-7,春日市小倉3丁目13番地,小倉第１緑地,33.5307894,130.450678
福岡県,春日市,1-8,春日市小倉7丁目33番地,井ノ尻公園,33.5341026,130.4552933
福岡県,春日市,2-1,春日市若葉台東1丁目51番地,春日東小学校南側,33.5282064,130.4630028
福岡県,春日市,2-2,春日市若葉台東1丁目51番地,春日東小学校正門側,33.5282064,130.4630028
福岡県,春日市,2-3,春日市若葉台東1丁目41番地,春日東中学校正門,33.5285903,130.4617494
福岡県,春日市,2-4,春日市原町3丁目3番地1先道路,光町三丁目バス停横,33.5306807,130.4634402
福岡県,春日市,2-5,春日市原町3丁目1番地5,春日市役所,33.5325883,130.4705044
福岡県,春日市,2-6,春日市千歳町3丁目32番地1,千歳町共同利用施設,33.5330491,130.4654922
福岡県,春日市,2-7,春日市光町2丁目180番地2,光公園,33.5326765,130.4630989
福岡県,春日市,2-8,春日市宝町4丁目15番地3,宝町共同利用施設,33.534419,130.4601269
福岡県,春日市,2-9,春日市若葉台西3丁目4番地1,若葉台中央公園,33.5291818,130.4585953
福岡県,春日市,3-1,春日市岡本3丁目57番地,奴国の丘歴史公園,33.5380881,130.451685
福岡県,春日市,3-2,春日市岡本1丁目35番地,春日北小学校南側,33.5414718,130.4479227
福岡県,春日市,3-3,春日市岡本1丁目35番地,春日北小学校東側,33.5414718,130.4479227
福岡県,春日市,3-4,春日市須玖北2丁目38番地,須玖北公園,33.5447536,130.4449483
福岡県,春日市,3-5,春日市桜ヶ丘5丁目10番地,桜ヶ丘公園,33.5459324,130.4494048
福岡県,春日市,3-6,春日市桜ヶ丘8丁目5番地,欽修市営住宅,33.5480691,130.4493356
福岡県,春日市,3-7,春日市桜ヶ丘7丁目1番地2,桜ヶ丘地区公民館,33.5467506,130.4509566
福岡県,春日市,3-8,春日市桜ヶ丘6丁目107番地先道路,コミュニティバスやよい日の出町２丁目バス停横,33.5460271,130.451892
福岡県,春日市,4-1,春日市春日原北町1丁目3番地1,春日原北緑地,33.5375221,130.4696171
福岡県,春日市,4-2,春日市春日原北町4丁目50番地49,龍神池自転車駐車場横,33.5361889,130.4718811
福岡県,春日市,4-3,春日市原町3丁目7番地2,春日原南第１緑地,33.5353728,130.4685016
福岡県,春日市,4-4,春日市春日原南町4丁目37番地84,春日原共同利用施設,33.5348545,130.4723073
福岡県,春日市,4-5,春日市春日原南町4丁目52番地2,春日原南共同利用施設,33.5332528,130.4746141
福岡県,春日市,4-6,春日市春日原南町4丁目37番地1,春日原小学校東側,33.5336995,130.4731361
福岡県,春日市,4-7,春日市春日原南町4丁目37番地1,春日原小学校西側,33.5336995,130.4731361
福岡県,春日市,4-8,春日市春日原北町5丁目2番地2,ＪＲ春日駅東,33.5354897,130.4687077
福岡県,春日市,5-1,春日市下白水南4丁目134番地,春日西小学校,33.5225802,130.4430423
福岡県,春日市,5-2,春日市下白水南4丁目134番地,春日西小学校東側,33.5225802,130.4430423
福岡県,春日市,5-3,春日市下白水南4丁目10番地1先道路,西中入口北交差点,33.5257826,130.4419546
福岡県,春日市,5-4,春日市下白水南6丁目5番地先道路,泉入口交差点,33.5239071,130.4398548
福岡県,春日市,5-5,春日市泉3丁目33番地,泉西児童遊園,33.5264142,130.4379446
福岡県,春日市,5-6,春日市泉2丁目84番地,泉東児童遊園,33.5285077,130.4385813
福岡県,春日市,5-7,春日市泉2丁目4番地,泉地区公民館,33.5293047,130.4379284
福岡県,春日市,5-8,春日市下白水北5丁目44番地,下白水第２公園,33.5286774,130.4424523
福岡県,春日市,6-1,春日市須玖南2丁目172番地,春日中学校西側,33.5340909,130.4471993
福岡県,春日市,6-2,春日市須玖南2丁目71番地,須玖小学校正門側,33.5368576,130.4464
福岡県,春日市,6-3,春日市弥生7丁目50番地,弥生ｺﾐｭﾆﾃｨ供用施設,33.5352997,130.4489754
福岡県,春日市,6-4,春日市弥生1丁目1番地,若草市営住宅,33.5373832,130.4479296
福岡県,春日市,6-5,春日市須玖南4丁目10番地先道路,須玖バス停横,33.5393641,130.4444698
福岡県,春日市,6-6,春日市須玖北5丁目166番地,須玖中の宮公園,33.5420073,130.4445267
福岡県,春日市,6-7,春日市須玖北2丁目96番地先道路,御陵バス停横,33.5442336,130.4433988
福岡県,春日市,6-8,春日市須玖南4丁目128番地,須玖南地区公民館前,33.5371993,130.4431182
福岡県,春日市,7-1,春日市ちくし台2丁目69番地,ちくし台第２公園,33.5224063,130.4607584
福岡県,春日市,7-2,春日市紅葉ヶ丘東2丁目1番地,紅葉ヶ丘東児童遊園,33.5210989,130.4600672
福岡県,春日市,7-3,春日市紅葉ヶ丘西3丁目2番地,小倉新池横,33.5208317,130.4574267
福岡県,春日市,7-4,春日市春日8丁目100番地,春日南小学校西側,33.5204673,130.4646439
福岡県,春日市,7-5,春日市春日6丁目110番地,金口池公園,33.5168866,130.4688815
福岡県,春日市,7-6,春日市惣利2丁目16番地,円入公園,33.5110725,130.4688185
福岡県,春日市,7-7,春日市大土居3丁目148番地3,大土居地区公民館,33.5115163,130.4612001
福岡県,春日市,7-8,春日市惣利3丁目133番地5,惣利公園,33.5124639,130.4659397
福岡県,春日市,7-9,春日市塚原台2丁目63番地,塚原台第２公園,33.5076317,130.4634088
福岡県,春日市,8-1,春日市大谷4丁目1番地,大谷小学校正門側,33.527091,130.4521705
福岡県,春日市,8-2,春日市大谷6丁目28番地,総合ｽﾎﾟｰﾂｾﾝﾀｰ西側,33.526388,130.4559232
福岡県,春日市,8-3,春日市小倉東2丁目22番地,小倉東共同利用施設,33.5308009,130.457362
福岡県,春日市,8-4,春日市伯玄町2丁目24番地,春日市商工会県道側,33.5330617,130.4583168
福岡県,春日市,8-5,春日市大和町2丁目16番地2,大和町共同利用施設,33.53703,130.46004
福岡県,春日市,8-6,春日市大和町1丁目4番地1,大和市営住宅,33.5372637,130.4614841
福岡県,春日市,8-7,春日市大谷9丁目41番地,大谷第１児童遊園,33.523932,130.4532244
福岡県,春日市,8-8,春日市大谷6丁目24番地,春日市ふれあい文化センター東側,33.5275598,130.4548361
福岡県,春日市,9-1,春日市星見ヶ丘2丁目61番地,大丸池公園,33.5034265,130.4562897
福岡県,春日市,9-2,春日市天神山1丁目53番地,天神山ｺﾐｭﾆﾃｨ供用施設,33.5182276,130.4485894
福岡県,春日市,9-3,春日市天神山6丁目39番地,天神山小学校,33.5155744,130.4482704
福岡県,春日市,9-4,春日市天神山3丁目130番地,白水大池公園北駐車場,33.5146099,130.4529273
福岡県,春日市,9-5,春日市大字下白水209番地,白水大池公園正面入口,33.5142442,130.4554723
福岡県,春日市,9-6,春日市大土居3丁目11番地1,春日南中学校,33.5119294,130.4579316
福岡県,春日市,9-7,春日市松ヶ丘5丁目35番地,松ヶ丘地区公民館,33.5081245,130.456847
福岡県,春日市,9-8,春日市星見ヶ丘1丁目7番地1,ナギの木苑入口,33.5055153,130.4588764
福岡県,春日市,10-1,春日市春日公園3丁目23番地,御供田公園,33.5261406,130.472955
福岡県,春日市,10-2,春日市春日公園1丁目47番地,春日公園共同利用施設,33.5272631,130.475222
福岡県,春日市,10-3,春日市春日公園4丁目1番地1,春日野小学校北側,33.5247842,130.4716325
福岡県,春日市,10-4,春日市春日公園4丁目1番地1,春日野小学校東側,33.5247842,130.4716325
福岡県,春日市,10-5,春日市春日公園4丁目1番地1,春日野小学校正門,33.5247842,130.4716325
福岡県,春日市,10-6,春日市春日4丁目79番地,向谷児童遊園,33.517941,130.472955
福岡県,春日市,10-7,春日市平田台4丁目32番地,平田台ｺﾐｭﾆﾃｨ供用施設,33.5103048,130.4736196
福岡県,春日市,10-8,春日市春日3丁目50番地,元宮公園,33.5199481,130.4723186
福岡県,春日市,11-1,春日市日の出町2丁目61番地12,日の出町ｺﾐｭﾆﾃｨ供用施設,33.5436346,130.453026
福岡県,春日市,11-2,春日市日の出町3丁目1番地10,日の出小学校,33.5441423,130.4548954
福岡県,春日市,11-3,春日市日の出町3丁目2番地1,陸上自衛隊北門付近,33.5431664,130.4547349
福岡県,春日市,11-4,春日市日の出町5丁目11番地,日の出第１公園,33.5416683,130.4513146
福岡県,春日市,11-5,春日市日の出町6丁目1番地,日の出ふれあい公園,33.5430897,130.450678
福岡県,春日市,11-6,春日市日の出町2丁目2番地2,日の出町２丁目調整池,33.5453609,130.4536592
福岡県,春日市,11-7,春日市日の出町2丁目61番地2,県営日の出町団地,33.5439106,130.4532659
福岡県,春日市,12-1,春日市白水ヶ丘6丁目122番地,春日西多目的広場公園,33.5136808,130.4407383
福岡県,春日市,12-2,春日市上白水3丁目40番地,上白水市営住宅,33.5193469,130.4437799
福岡県,春日市,12-3,春日市上白水6丁目77番地,上白水地区公民館,33.5193871,130.4420917
福岡県,春日市,12-4,春日市白水ヶ丘4丁目148番地,天神の木公園,33.5156987,130.4422235
福岡県,春日市,12-5,春日市白水ヶ丘3丁目46番地,白水ヶ丘地区公民館,33.5142588,130.4429748
福岡県,春日市,12-6,春日市白水ヶ丘1丁目100番地,白水小学校正門,33.5132064,130.4462216
福岡県,春日市,12-7,春日市白水ヶ丘2丁目63番地,白水ヶ丘中央公園,33.5121833,130.4441041
福岡県,春日市,12-8,春日市上白水7丁目156番地,門田児童遊園,33.5183615,130.4388495
