prefecture,city,number,address,name,lat,long
福岡県,柳川市,1-1,福岡県柳川市京町京町商店街,市民広場前,33.1671811,130.4103385
福岡県,柳川市,2-1,福岡県柳川市新町５７,風浪宮 東水路防護柵,33.1634785,130.4137968
福岡県,柳川市,3-1,福岡県柳川市細工町５−２,柳河ふれあいセンター,33.1632461,130.411326
福岡県,柳川市,4-1,福岡県柳川市隅町２１,masked,33.1702563,130.4130936
福岡県,柳川市,5-1,福岡県柳川市細工町２２,常光寺正門向かい,33.1656104,130.4109611
福岡県,柳川市,6-1,福岡県柳川市椿原町３７−８,メゾンファミーユ前,33.1644792,130.4115753
福岡県,柳川市,7-1,福岡県柳川市東魚屋町１７−３,柳川市シルバー人材センターフェンス,33.1652242,130.4098038
福岡県,柳川市,1-2,福岡県柳川市上町１,出の橋,33.1710761,130.4075352
福岡県,柳川市,2-2,福岡県柳川市中町１５,柳河小学校前,33.1691655,130.4075759
福岡県,柳川市,3-2,福岡県柳川市新船津町１−４,大門橋東側歩道ガードパイプ,33.1714793,130.4049138
福岡県,柳川市,4-2,福岡県柳川市鍛冶屋町１５−１５,延命橋,33.1663876,130.4045398
福岡県,柳川市,5-2,福岡県柳川市八軒町５,柳河小学校裏門,33.1687896,130.4096025
福岡県,柳川市,6-2,福岡県柳川市糀屋町３７−２,若宮団地広場前,33.1696936,130.4041718
福岡県,柳川市,1-3,福岡県柳川市本町柳川市役所（柳川庁舎）,柳川市役所柳川庁舎前,33.1636651,130.4054988
福岡県,柳川市,2-3,福岡県柳川市本城町５−１,消防本部北側ガードパイプ,33.1620193,130.4039646
福岡県,柳川市,3-3,福岡県柳川市本城町本城町（バス）,筑紫ビル向かい,33.1603405,130.3993674
福岡県,柳川市,4-3,福岡県柳川市新外町１３２−１３,藤平門橋西側,33.1649559,130.4005249
福岡県,柳川市,5-3,福岡県柳川市新外町１,御花前,33.1589121,130.3972539
福岡県,柳川市,6-3,福岡県柳川市本町５２−８,柳川市民体育館前,33.1597312,130.4044689
福岡県,柳川市,7-3,福岡県柳川市本城町柳川高校前（バス）,バス停「柳川高校」横,33.1600501,130.4017324
福岡県,柳川市,1-5,福岡県柳川市筑紫町５６９,等應寺南側,33.1639767,130.3927779
福岡県,柳川市,2-5,福岡県柳川市筑紫町６６１−１,沖端保育園前,33.1611026,130.3954432
福岡県,柳川市,3-5,福岡県柳川市矢留本町うぶすな館,うぶすな館前,33.1558326,130.3937578
福岡県,柳川市,4-5,福岡県柳川市矢留本町４４１−３,矢留開 柳川地方防犯協会沖端支部前ガードパイプ,33.1503771,130.3880899
福岡県,柳川市,5-5,福岡県柳川市上宮永町３９５−１,まるまつストアー西側駐車場フェンス,33.1520894,130.4047937
福岡県,柳川市,6-5,福岡県柳川市弥四郎町１６５,日吉神社前,33.1545021,130.3987452
福岡県,柳川市,7-5,福岡県柳川市吉富町２０８−１,金子酒店西側,33.1500383,130.389476
福岡県,柳川市,8-5,福岡県柳川市吉富町３９２−１,大坪酒店前,33.1470416,130.3915149
福岡県,柳川市,1-7,福岡県柳川市下宮永町３７３,東宮永小学校前,33.1440444,130.4056305
福岡県,柳川市,2-7,福岡県柳川市下宮永町１０８２,中開橋西側付近,33.1375432,130.3994415
福岡県,柳川市,3-7,福岡県柳川市下宮永町１４５−１,柳川農村環境改善センター前,33.1495599,130.4020473
福岡県,柳川市,4-7,福岡県柳川市佃町１６３３−２,野々内十字路（柳川漁業協同組合東宮永支所 東側）,33.1325791,130.4047234
福岡県,柳川市,5-7,福岡県柳川市佃町１５６１−１,四丁開公民館北側,33.1338886,130.4081473
福岡県,柳川市,6-7,福岡県柳川市佃町１２８７−６,御仮橋公民館南,33.1481648,130.4140817
福岡県,柳川市,7-7,福岡県柳川市佃町１０３１−２,江上神社前 (長寿寺北側),33.1401105,130.4101757
福岡県,柳川市,1-8,福岡県柳川市有明町１７４９,有明まほろばセンター前,33.1306175,130.3937584
福岡県,柳川市,2-8,福岡県柳川市大浜町２０８７,霊鷲寺前,33.1281011,130.3924351
福岡県,柳川市,3-8,福岡県柳川市有明町２５３５−７,東の切橋南側交差点,33.1232893,130.4003938
福岡県,柳川市,4-8,福岡県柳川市有明町１２０７,有明町1207番地4付近,33.1287551,130.4029423
福岡県,柳川市,5-8,福岡県柳川市有明町１７４１−３９,東六十丁東公民館南側,33.1195346,130.3946478
福岡県,柳川市,6-8,福岡県柳川市大浜町８６８−９,県道橋本辻町線交差点付近ガードパイプ,33.1224697,130.3891768
福岡県,柳川市,7-8,福岡県柳川市大浜町１１０６,海童神社付近,33.1279123,130.3850641
福岡県,柳川市,8-8,福岡県柳川市大浜町寿硯,寿硯公民館付近,33.1358806,130.3863212
福岡県,柳川市,9-8,福岡県柳川市有明町８２２−１,県道橋本辻町線沿い ガードパイプ,33.1336784,130.3979113
福岡県,柳川市,1-9,福岡県柳川市田脇８１５−２,昭代第一小学校前,33.1721308,130.3795729
福岡県,柳川市,2-9,福岡県柳川市間６１５,宮下公民館前,33.1799024,130.3758538
福岡県,柳川市,3-9,福岡県柳川市間北間（バス）,県道新田西蒲池線交差点付近ガードレール,33.1829486,130.3759226
福岡県,柳川市,4-9,福岡県柳川市間１２５０−４,バス停「農業倉庫前」北側,33.1748014,130.377303
福岡県,柳川市,5-9,福岡県柳川市久々原１２６−３,柳川就業改善センター前,33.1701335,130.3797546
福岡県,柳川市,6-9,福岡県柳川市七ツ家２７９−１,養福寺北側 第8分団格納庫付近,33.1678354,130.3731707
福岡県,柳川市,7-9,福岡県柳川市久々原５６１,八ツ家公民館南,33.1631599,130.3765156
福岡県,柳川市,8-9,福岡県柳川市西浜武８４−２,県道柳川城島線・県道新田西蒲池線交差点ガードレール,33.1802813,130.3883758
福岡県,柳川市,1-10,福岡県柳川市西浜武昭代第二小前（バス）,昭代第二小学校前,33.1672746,130.383588
福岡県,柳川市,2-10,福岡県柳川市西浜武諸藤公民館,諸藤公民館前（若宮神社前）,33.1681999,130.3922355
福岡県,柳川市,3-10,福岡県柳川市西浜武９６８−１,西浜武三叉路交差点東側,33.1689676,130.3894294
福岡県,柳川市,4-10,福岡県柳川市西浜武浜武（バス）,バス停「浜武」付近農業倉庫前,33.16467,130.3867123
福岡県,柳川市,5-10,福岡県柳川市古賀２５８−２,古賀公民館北側,33.1608461,130.3900154
福岡県,柳川市,6-10,福岡県柳川市南浜武６２３−２,浜武漁業協同組合前,33.1553352,130.3845689
福岡県,柳川市,7-10,福岡県柳川市南浜武４８４,県道本町新田大川線 南浜武247番地付近 ガードパイプ,33.1553359,130.3782583
福岡県,柳川市,8-10,福岡県柳川市吉原１６９−９,吉原公民館前 (日吉神社前),33.1598041,130.3797581
福岡県,柳川市,1-11,福岡県柳川市矢加部蒲池農村環境改善センター,蒲池農村環境改善センター前,33.1843021,130.4166121
福岡県,柳川市,2-11,福岡県柳川市矢加部５９７,北矢加部三叉路交差点北側,33.1816801,130.4138427
福岡県,柳川市,3-11,福岡県柳川市蒲生１０４７,東札木橋西側ガードパイプ,33.1930976,130.4225157
福岡県,柳川市,4-11,福岡県柳川市蒲生６８８,本園公民館前,33.1922129,130.4264909
福岡県,柳川市,5-11,福岡県柳川市蒲生１１,蒲生11番地1付近 蒲生交差点西側,33.1889837,130.4289689
福岡県,柳川市,6-11,福岡県柳川市高島３８３,井出公民館前（三島宮前）,33.1841621,130.4291004
福岡県,柳川市,7-11,福岡県柳川市金納４２７,蒲池小学校前,33.1868977,130.4161862
福岡県,柳川市,1-12,福岡県柳川市東蒲池１３０２,中村農村公園,33.1891289,130.4065509
福岡県,柳川市,2-12,福岡県柳川市西蒲池１３００−１,野田入口十字路,33.1925611,130.4022798
福岡県,柳川市,3-12,福岡県柳川市東蒲池１１５１,東蒲池1151番地1付近,33.1917551,130.4110247
福岡県,柳川市,4-12,福岡県柳川市東蒲池中古賀公民館前,中古賀公民館前,33.1870922,130.4103603
福岡県,柳川市,5-12,福岡県柳川市西蒲池北本村,西蒲池768番地1付近,33.1851752,130.4046532
福岡県,柳川市,6-12,福岡県柳川市東蒲池萩島公民館,荻島公民館前,33.1841924,130.408451
福岡県,柳川市,7-12,福岡県柳川市東蒲池６８８,鹿島公民館前,33.1828417,130.4062815
福岡県,柳川市,1-13,福岡県柳川市大和町栄５７３−２,大和小学校前,33.1330188,130.4202624
福岡県,柳川市,2-13,福岡県柳川市大和町栄１９８−２,作出公民館東側,33.1322674,130.4271067
福岡県,柳川市,3-13,福岡県柳川市大和町明野３２１６,有明漁業協同組合北側,33.1377433,130.4195708
福岡県,柳川市,4-13,福岡県柳川市大和町明野大和コミュニティセンター,大和コミュニティセンター前,33.135481,130.4166834
福岡県,柳川市,5-13,福岡県柳川市大和町明野６９４,旧岩井鉄工所前,33.1323734,130.4157622
福岡県,柳川市,6-13,福岡県柳川市大和町栄５８９,松藤鮮魚店前（消防団格納庫南側）,33.1310407,130.4198704
福岡県,柳川市,7-13,福岡県柳川市大和町明野７６３−１,大和町明野1185番地5付近,33.1322574,130.4112704
福岡県,柳川市,1-14,福岡県柳川市大和町中島１５２０−３,中島コミュニティセンター前,33.120022,130.4316733
福岡県,柳川市,2-14,福岡県柳川市大和町中島５６５−２,松藤酒店東側,33.1236603,130.4370061
福岡県,柳川市,3-14,福岡県柳川市大和町中島西鉄中島駅,北浦樋門（排水機場）前,33.1223907,130.4394871
福岡県,柳川市,4-14,福岡県柳川市大和町中島旧北二重公民館,旧北二重公民館前,33.1213451,130.436479
福岡県,柳川市,5-14,福岡県柳川市大和町中島１６８９,平河建材店前,33.1177352,130.4344161
福岡県,柳川市,6-14,福岡県柳川市大和町中島１９９３,上ケ地公民館前,33.1187124,130.4275779
福岡県,柳川市,7-14,福岡県柳川市大和町中島２３５６−１,海童神社前,33.1145032,130.4297761
福岡県,柳川市,1-16,福岡県柳川市大和町皿垣開３７５,甲木公民館前,33.1166261,130.4232782
福岡県,柳川市,3-16,福岡県柳川市大和町皿垣開５６０,有明コミュニティセンター前,33.1159379,130.4206056
福岡県,柳川市,4-16,福岡県柳川市大和町皿垣開１４５６,松藤酒店西側,33.11374,130.4157696
福岡県,柳川市,5-16,福岡県柳川市大和町皿垣開１５３０−３,荒開東公民館横,33.1119455,130.4192056
福岡県,柳川市,6-16,福岡県柳川市大和町皿垣開２３２６,弁天公民館前（海童神社前）,33.1106777,130.4107032
福岡県,柳川市,7-16,福岡県柳川市大和町大坪２６,大和干拓婦人児童ホーム前,33.100976,130.4164975
福岡県,柳川市,1-17,福岡県柳川市大和町栄１４９５,皿垣コミュニティセンター前,33.1220824,130.4235066
福岡県,柳川市,2-17,福岡県柳川市大和町栄１１４５,大和町栄1157番地付近,33.1232692,130.4201677
福岡県,柳川市,3-17,福岡県柳川市大和町皿垣開５５,大和町皿垣開708番地付近,33.1242648,130.4172511
福岡県,柳川市,4-17,福岡県柳川市大和町皿垣開６５８,宇土公民館北側,33.120104,130.419305
福岡県,柳川市,5-17,福岡県柳川市大和町皿垣開二十五丁,二十五丁公民館前,33.1177871,130.4062101
福岡県,柳川市,6-17,福岡県柳川市大和町栄１３５２,浦酒造南,33.1201737,130.4247782
福岡県,柳川市,7-17,福岡県柳川市大和町中島４０３,中島403番地付近（皿垣橋南）,33.1250858,130.4276145
福岡県,柳川市,8-17,福岡県柳川市大和町栄９８３,皿垣南公民館前（八幡宮前）,33.1241047,130.4253437
福岡県,柳川市,1-18,福岡県柳川市大和町徳益徳益駅,西鉄徳益駅南,33.1547875,130.4270584
福岡県,柳川市,2-18,福岡県柳川市大和町徳益徳益,大坪商店前,33.1540758,130.4241953
福岡県,柳川市,3-18,福岡県柳川市大和町徳益４２０−１１,西徳益団地入口,33.1550577,130.4169915
福岡県,柳川市,4-18,福岡県柳川市大和町豊原２６７,大和町豊原267番地1北側付近,33.1491158,130.4217153
福岡県,柳川市,5-18,福岡県柳川市大和町豊原１３５−１,豊原コミュニティセンター前,33.1482147,130.4271266
福岡県,柳川市,6-18,福岡県柳川市大和町塩塚５４１,西鉄塩塚駅西信号南 大和町塩塚537番地付近,33.1429263,130.4307228
福岡県,柳川市,7-18,福岡県柳川市大和町塩塚４９４,大和町塩塚494番地1付近,33.1419166,130.4306892
福岡県,柳川市,8-18,福岡県柳川市大和町塩塚１００４,大和町塩塚1004番地付近,33.1383016,130.4256192
福岡県,柳川市,9-18,福岡県柳川市大和町豊原８６５−３,四十丁樋公民館前,33.1446248,130.4169334
福岡県,柳川市,1-19,福岡県柳川市大和町鷹ノ尾１１８４,島公民館東,33.1273167,130.4413133
福岡県,柳川市,2-19,福岡県柳川市大和町鷹ノ尾５２７,鷹尾神社前,33.1299599,130.4420836
福岡県,柳川市,3-19,福岡県柳川市大和町鷹ノ尾７６６,鷹尾767番地付近,33.1294601,130.4395192
福岡県,柳川市,4-19,福岡県柳川市大和町六合１７９０,六合コミュニティセンター前,33.1356926,130.4409795
福岡県,柳川市,5-19,福岡県柳川市大和町六合１０９８,大和町六合1097番地付近,33.1406337,130.4389931
福岡県,柳川市,6-19,福岡県柳川市大和町六合１０４６,大和町六合484番地付近,33.1427277,130.4404712
福岡県,柳川市,7-19,福岡県柳川市大和町六合８３５,大和町六合837番地1付近,33.1419152,130.4504377
福岡県,柳川市,8-19,福岡県柳川市大和町鷹ノ尾１２０,柳川市役所大和庁舎,33.1340403,130.4307233
福岡県,柳川市,1-20,福岡県柳川市三橋町新村２９６−２,新村橋北側,33.1717036,130.4567355
福岡県,柳川市,2-20,福岡県柳川市三橋町吉開２２４,西苗代橋南（吉開地区コミュニティセンター西側）,33.1786364,130.4559272
福岡県,柳川市,3-20,福岡県柳川市三橋町起田起田,起田公民館南側（天満神社南側）,33.1817357,130.4477623
福岡県,柳川市,4-20,福岡県柳川市三橋町木元６,三橋町木元238番地付近,33.1771521,130.4454835
福岡県,柳川市,5-20,福岡県柳川市三橋町木元６０,二ツ河コミュニティセンター前,33.1771104,130.4415181
福岡県,柳川市,6-20,福岡県柳川市三橋町百町７７１,島町橋東側,33.1748019,130.4415489
福岡県,柳川市,7-20,福岡県柳川市三橋町磯鳥磯鳥,三橋町磯鳥541番地付近,33.1763816,130.4281463
福岡県,柳川市,1-21,福岡県柳川市三橋町今古賀４２０,今古賀南交差点南,33.1593876,130.4172784
福岡県,柳川市,2-21,福岡県柳川市三橋町藤吉３８８,藤吉388番地付近,33.1597797,130.4148246
福岡県,柳川市,3-21,福岡県柳川市三橋町藤吉５０２,藤吉小学校西側,33.164719,130.4141101
福岡県,柳川市,4-21,福岡県柳川市三橋町江曲８８,江曲南公民館北側（天満神社北側）,33.1521851,130.4105271
福岡県,柳川市,5-21,福岡県柳川市三橋町蒲船津６２４−１,御鷹見橋西側,33.1726046,130.419744
福岡県,柳川市,6-21,福岡県柳川市三橋町蒲船津１４０４−２０,ゆめモール柳川,33.1630513,130.423542
福岡県,柳川市,7-21,福岡県柳川市三橋町高畑２６１−２ Kｸﾚｽﾄ20 103号,藤吉コミュニティセンター前,33.168441,130.4200253
福岡県,柳川市,1-22,福岡県柳川市三橋町五拾町３６７−３,西光寺北側,33.1582252,130.458474
福岡県,柳川市,2-22,福岡県柳川市三橋町棚町１０００,棚町五差路交差点北側,33.1536896,130.4553692
福岡県,柳川市,3-22,福岡県柳川市三橋町棚町４５,誓願寺前,33.1535711,130.4420939
福岡県,柳川市,4-22,福岡県柳川市三橋町垂見９８０−１,垂見保育園東側,33.1572835,130.4344328
福岡県,柳川市,5-22,福岡県柳川市三橋町垂見４１９,六田農事組合倉庫南側,33.1593839,130.436297
福岡県,柳川市,6-22,福岡県柳川市三橋町垂見１５８３,垂見コミュニティセンター前,33.1555107,130.4431292
福岡県,柳川市,7-22,福岡県柳川市三橋町白鳥４３３,バス停「御仁橋」東側,33.1620739,130.4514696
福岡県,柳川市,1-23,福岡県柳川市三橋町柳河７２,矢ケ城橋北側,33.1727366,130.4171267
福岡県,柳川市,2-23,福岡県柳川市三橋町柳河８４６−１,蓮蒲池交差点北側,33.177126,130.4045152
福岡県,柳川市,3-23,福岡県柳川市三橋町柳河４３６−１,矢ケ部コミュニティセンター前,33.1739795,130.4124617
福岡県,柳川市,4-23,福岡県柳川市三橋町柳河６５８−１,矢ケ部交差点北側,33.1771456,130.4107127
福岡県,柳川市,5-23,福岡県柳川市三橋町枝光２２１−２,枝光三叉路交差点南西側,33.1775043,130.3969865
福岡県,柳川市,6-23,福岡県柳川市三橋町枝光１２９,三橋町枝光149番地1付近,33.1741682,130.3974539
福岡県,柳川市,7-23,福岡県柳川市三橋町柳河９９５−６,橋本公民館北側（You・遊の森公園南側）,33.1741117,130.406437
福岡県,柳川市,1-24,福岡県柳川市三橋町中山３３８,（株）ヤスナガ北側,33.1695451,130.470564
福岡県,柳川市,2-24,福岡県柳川市三橋町中山中山公民館,中山コミュニティセンター前,33.1685612,130.4668424
福岡県,柳川市,3-24,福岡県柳川市三橋町中山４８８−２,三橋町中山476番地付近,33.1691745,130.4684114
福岡県,柳川市,4-24,福岡県柳川市三橋町中山９７４,中山散田西側幹線水路（三橋町中山974番地付近）,33.1660262,130.4559093
福岡県,柳川市,5-24,福岡県柳川市三橋町中山８３４−８,旧中山第2団地跡地南側,33.1688062,130.4606035
福岡県,柳川市,1-25,福岡県柳川市三橋町蒲船津８５−１,柳川市役所三橋庁舎南側,33.1648057,130.4346459
福岡県,柳川市,2-25,福岡県柳川市三橋町白鳥６１０−９,島田天満宮前交差点南側,33.1638955,130.4387916
福岡県,柳川市,3-25,福岡県柳川市三橋町久末１６４,天満宮北側（上久末構造改善センター北側）,33.1689582,130.4504899
福岡県,柳川市,4-25,福岡県柳川市三橋町久末９７８−１,三橋町久末1327番地1付近,33.1662319,130.4424457
福岡県,柳川市,5-25,福岡県柳川市三橋町百町１８５０−４,三橋町百町1980番地付近,33.1694468,130.4365404
福岡県,柳川市,6-25,福岡県柳川市三橋町蒲船津１１１９,三橋町蒲船津1119番地付近,33.1667974,130.4280632
福岡県,柳川市,7-25,福岡県柳川市三橋町蒲船津３５７,バス停「下百丁」北側,33.1665687,130.4220706
