prefecture,city,number,address,name,lat,long,note
福岡県,福岡市,春吉第一-1,中央区西中洲6番27号,十八親和銀行ビル駐車場フェンス,33.5920947,130.4037078,
福岡県,福岡市,春吉第一-2,中央区春吉一丁目17番38号,春吉小学校正門横,33.5849248,130.4067784,
福岡県,福岡市,春吉第一-3,中央区春吉一丁目17番38号,春吉小学校東門横,33.5849248,130.4067784,
福岡県,福岡市,春吉第一-4,中央区春吉一丁目17番38号,春吉小学校南側,33.5849248,130.4067784,
福岡県,福岡市,春吉第一-5,中央区春吉一丁目17番,春吉公園西側,33.5847191,130.4065155,
福岡県,福岡市,春吉第一-6,中央区渡辺通四丁目6番2号,パーキング 303駐車場フェンス,33.5855841,130.4024819,
福岡県,福岡市,春吉第一-7,中央区渡辺通二丁目1番,電気ビル新館西側,33.5837107,130.4047947,
福岡県,福岡市,春吉第一-8,中央区春吉二丁目3番,六軒屋公園西側,33.58678,130.4091249,
福岡県,福岡市,春吉第二-1,中央区清川三丁目4番,清川公園北側入口横,33.5782521,130.4129471,
福岡県,福岡市,春吉第二-2,中央区清川一丁目4番1号,ロイヤル渡辺通154駐車場,33.5820557,130.408547,
福岡県,福岡市,春吉第二-3,中央区清川二丁目12番,清川中公園入口横,33.5796696,130.4100804,
福岡県,福岡市,春吉第二-4,中央区清川三丁目4番,清川公園西側入口横,33.5782521,130.4129471,
福岡県,福岡市,春吉第二-5,中央区清川一丁目3番,清川一丁目3番歩道,33.5824918,130.4090452,
福岡県,福岡市,春吉第二-6,中央区清川一丁目10番,渡辺通パーキング,33.5819666,130.4077711,
福岡県,福岡市,春吉第二-7,中央区清川二丁目3番,アーベイン渡辺通り南前,33.5796734,130.4123101,
福岡県,福岡市,春吉第二-8,中央区清川二丁目22番8号,FBS福岡放送本社北側,33.5805453,130.4084082,
福岡県,福岡市,警固第一-1,中央区警固一丁目11番1号,警固小学校正門横,33.5839738,130.3930842,
福岡県,福岡市,警固第一-2,中央区警固三丁目13番18号,西光寺入口横,33.58178960000001,130.3914899,
福岡県,福岡市,警固第一-3,中央区警固二丁目11番,警固本町公園,33.583788,130.3905524,
福岡県,福岡市,警固第一-4,中央区警固二丁目8番1号,筑紫女学園高等学校北側,33.581936,130.388899,
福岡県,福岡市,警固第一-5,中央区薬院二丁目13番,薬院北公園前,33.5822773,130.3944708,
福岡県,福岡市,警固第一-6,中央区警固三丁目13番,警固一号公園入口横,33.5815602,130.3914439,
福岡県,福岡市,警固第一-7,中央区警固三丁目6番,クラシオン桜坂北側,33.5777071,130.3896915,
福岡県,福岡市,警固第一-8,中央区警固二丁目7番,筑紫女学園高等学校グランド南側,33.581683,130.3900101,
福岡県,福岡市,警固第二-1,中央区今泉一丁目8番,今泉公園西側北角,33.5853208,130.3999665,
福岡県,福岡市,警固第二-2,中央区今泉一丁目8番,今泉公園東南角,33.5853208,130.3999665,
福岡県,福岡市,警固第二-3,中央区薬院一丁目2番,薬院記念公園東南角,33.583206,130.400761,
福岡県,福岡市,警固第二-4,中央区今泉二丁目1番,天神南コイン駐車場フェンス北側,33.58489,130.396726,
福岡県,福岡市,警固第二-5,中央区今泉一丁目19番,若宮神社前,33.585773,130.397276,
福岡県,福岡市,警固第二-6,中央区今泉二丁目3番,アットパーク今泉二丁目フェンス,33.5830352,130.3970196,
福岡県,福岡市,警固第二-7,中央区警固一丁目11番1号,警固小学校東側,33.5839738,130.3930842,
福岡県,福岡市,警固第二-8,中央区今泉二丁目4番17号,青龍山 長圓寺,33.5839071,130.3964535,
福岡県,福岡市,大名-1,中央区大名一丁目12番,福岡歯科衛生専門学校前,33.5880531,130.3954266,
福岡県,福岡市,大名-2,中央区大名二丁目5番31号,中央区役所東側,33.5890694,130.3906872,
福岡県,福岡市,大名-3,中央区天神一丁目1番,天神中央公園西側,33.59095250000001,130.4025947,
福岡県,福岡市,大名-4,中央区天神二丁目2番,警固公園北西側,33.5920982,130.3983437,
福岡県,福岡市,大名-5,中央区大名二丁目5番31号,中央区役所前,33.5890694,130.3906872,
福岡県,福岡市,大名-6,中央区天神一丁目8番1号,福岡市役所南西側,33.5901398,130.4017105,
福岡県,福岡市,大名-7,中央区大名一丁目9番55号,大名郵政アパート,33.5877823,130.3935744,
福岡県,福岡市,赤坂-1,中央区赤坂二丁目5番5号,中央体育館東角,33.5862355,130.3891381,
福岡県,福岡市,赤坂-2,中央区桜坂一丁目13番,桜坂公園南西側,33.5797144,130.3890542,
福岡県,福岡市,赤坂-3,中央区赤坂二丁目5番20号,赤坂小学校正門前,33.5856421,130.3871025,
福岡県,福岡市,赤坂-4,中央区赤坂二丁目6番,九電大濠変電所前,33.5836816,130.3849118,
福岡県,福岡市,赤坂-5,中央区赤坂一丁目13番12号,ホンダカーズ福岡赤坂店駐車場西側,33.5891102,130.3891626,
福岡県,福岡市,赤坂-6,中央区赤坂二丁目5番23号,警固中学校正門横,33.5853007,130.3864397,
福岡県,福岡市,赤坂-7,中央区桜坂三丁目11番,七隈線桜坂駅1番出入口,33.5771019,130.3852416,
福岡県,福岡市,赤坂-8,中央区赤坂三丁目10番,赤坂公園入口横フェンス,33.5825143,130.3871423,
福岡県,福岡市,舞鶴-1,中央区舞鶴三丁目4番,浜の町公園前,33.5913013,130.3871423,
福岡県,福岡市,舞鶴-2,中央区舞鶴二丁目5番,舞鶴小・中学校グランド前,33.5923951,130.3903287,
福岡県,福岡市,舞鶴-3,中央区舞鶴二丁目6番6号,舞鶴公民館花壇,33.592382,130.3910443,
福岡県,福岡市,舞鶴-4,中央区舞鶴二丁目6番6号,舞鶴小・中学校北側,33.592382,130.3910443,
福岡県,福岡市,舞鶴-5,中央区舞鶴一丁目7番,長浜公園南側,33.5933637,130.3938335,
福岡県,福岡市,舞鶴-6,中央区舞鶴一丁目7番,長浜公園西側,33.5933637,130.3938335,
福岡県,福岡市,舞鶴-7,中央区天神五丁目2番2号,福岡市民ホール北東側,33.5965692,130.3999202,
福岡県,福岡市,舞鶴-8,中央区舞鶴二丁目6番6号,舞鶴小・中学校西側,33.592382,130.3910443,
福岡県,福岡市,簀子第一-1,中央区港二丁目1番,福崎公園東側,33.5926527,130.3826214,
福岡県,福岡市,簀子第一-2,中央区大手門二丁目1番,ローソン福岡西鉄大手門ビル店前植樹帯,33.5902117,130.3861864,
福岡県,福岡市,簀子第一-3,中央区大手門三丁目15番,簀子公園西側,33.5915018,130.3825218,
福岡県,福岡市,簀子第一-4,中央区港二丁目,かもめ広場西側,33.5935909,130.3809284,
福岡県,福岡市,簀子第一-5,中央区港二丁目,かもめ広場駐車場南側,33.5935909,130.3809284,
福岡県,福岡市,簀子第一-6,中央区港二丁目1番,福崎公園西側,33.5926527,130.3826214,
福岡県,福岡市,簀子第一-7,中央区荒津二丁目1番,荒津公園前,33.5998947,130.3734389,
福岡県,福岡市,簀子第一-8,中央区港三丁目4番6号,ヤマト運輸(株)駐車場フェンス,33.5987742,130.3788138,
福岡県,福岡市,簀子第二-1,中央区荒戸一丁目1番,大濠公園駅2番出入口,33.5904054,130.3782195,
福岡県,福岡市,簀子第二-2,中央区城内10番,舞鶴公園第2駐車場横,33.5835058,130.3806894,
福岡県,福岡市,簀子第二-3,中央区城内2番,大濠公園駅5番出入口,33.5863068,130.3800365,
福岡県,福岡市,簀子第二-4,中央区城内2番,五号堀前,33.5863068,130.3800365,
福岡県,福岡市,簀子第二-5,中央区城内1番,平和台陸上競技場北側入口横,33.5846177,130.3835276,
福岡県,福岡市,簀子第二-6,中央区城内2番,旧舞鶴中学校前,33.5863068,130.3800365,
福岡県,福岡市,簀子第二-7,中央区大手門三丁目15番,簀子公園南入口横,33.5915018,130.3825218,
福岡県,福岡市,当仁第一-1,中央区西公園12番,福岡教育大学附属福岡中学校プール観覧席下,33.5955851,130.3735983,
福岡県,福岡市,当仁第一-2,中央区荒戸三丁目3番,福岡大学附属若葉高等学校運動場前,33.5924061,130.3742357,
福岡県,福岡市,当仁第一-3,中央区荒戸三丁目3番,福岡大学附属若葉高等学校テニスコート前,33.5924061,130.3742357,
福岡県,福岡市,当仁第一-4,中央区大濠公園1番1号,かんぽ生命福岡事務サービスセンター前,33.589408,130.3771112,
福岡県,福岡市,当仁第一-5,中央区西公園14番30号,中央市民プール前,33.5994231,130.3722456,
福岡県,福岡市,当仁第一-6,中央区荒戸三丁目5番,福岡教育大学附属福岡中学校グランド南側フェンス,33.5944579,130.3758471,
福岡県,福岡市,当仁第一-7,中央区荒戸二丁目2番49号,金光教福岡教会前,33.5914958,130.3770543,
福岡県,福岡市,当仁第一-8,中央区伊崎14番,伊崎公園前,33.5975471,130.3712078,
福岡県,福岡市,当仁第二-1,中央区唐人町一丁目8番53号,成道寺北側,33.5914542,130.3695557,
福岡県,福岡市,当仁第二-2,中央区唐人町三丁目2番,唐人町公園前,33.5926923,130.3708891,
福岡県,福岡市,当仁第二-3,中央区唐人町三丁目1番45号,当仁小学校西門横,33.5922233,130.3724479,
福岡県,福岡市,当仁第二-4,中央区唐人町三丁目1番45号,当仁小学校西南角,33.5922233,130.3724479,
福岡県,福岡市,当仁第二-5,中央区唐人町三丁目3番,唐人町北公園前,33.5941138,130.3702516,
福岡県,福岡市,当仁第二-6,中央区唐人町三丁目1番45号,当仁小学校北東塀,33.5922233,130.3724479,
福岡県,福岡市,当仁第二-7,中央区黒門8番,唐人町駅5番出入口,33.5894473,130.3702488,
福岡県,福岡市,当仁第二-8,中央区唐人町一丁目4番,唐人町駅4番出入口,33.5906837,130.3709688,
福岡県,福岡市,南当仁第一-1,中央区大濠一丁目2番36号,福岡管区気象台西側,33.5826159,130.3770806,
福岡県,福岡市,南当仁第一-2,中央区鳥飼二丁目8番7号,県営住宅鳥飼団地7棟西側,33.5839873,130.3690366,
福岡県,福岡市,南当仁第一-3,中央区鳥飼二丁目4番61号,南当仁小学校東側体育館前,33.5844162,130.3705782,
福岡県,福岡市,南当仁第一-4,中央区鳥飼二丁目4番61号,南当仁小学校東側,33.5844162,130.3705782,
福岡県,福岡市,南当仁第一-5,中央区鳥飼二丁目4番61号,南当仁小学校西側,33.5844162,130.3705782,
福岡県,福岡市,南当仁第一-6,中央区大濠一丁目7番16号,大濠聖母幼稚園西側,33.5842016,130.3728794,
福岡県,福岡市,南当仁第一-7,中央区大濠公園1番,大濠公園西側,33.5865521,130.3764667,
福岡県,福岡市,南当仁第一-8,中央区鳥飼一丁目4番,鳥飼3号公園前,33.582396,130.3702516,
福岡県,福岡市,南当仁第二-1,中央区地行二丁目16番,地行公園西側,33.5885374,130.3652313,
福岡県,福岡市,南当仁第二-2,中央区地行一丁目15番18号,傳照寺北側,33.5908344,130.3679208,
福岡県,福岡市,南当仁第二-3,中央区地行浜二丁目1番,市立福岡中央特別支援学校,33.5941455,130.365311,
福岡県,福岡市,南当仁第二-4,中央区地行三丁目15番1号,市営地行住宅1棟東側フェンス,33.589427,130.3620707,
福岡県,福岡市,南当仁第二-5,中央区地行三丁目16番12号,クラシオン地行,33.5880947,130.3617726,
福岡県,福岡市,南当仁第二-6,中央区地行四丁目18番,地行北緑地,33.5916116,130.3643945,
福岡県,福岡市,南当仁第二-7,中央区地行浜一丁目3番,地行浜西公園東側,33.5907046,130.3610075,
福岡県,福岡市,南当仁第二-8,中央区地行一丁目3番,明治通北側街路樹帯,33.5896322,130.3684189,
福岡県,福岡市,南当仁第三-1,中央区今川二丁目3番23号,金龍寺東側,33.5853188,130.3647326,
福岡県,福岡市,南当仁第三-2,中央区今川二丁目8番,西町公園北側,33.5867628,130.3671438,
福岡県,福岡市,南当仁第三-3,中央区今川二丁目8番,西町公園東側,33.5867628,130.3671438,
福岡県,福岡市,南当仁第三-4,中央区鳥飼三丁目10番,鳥飼2号公園北側,33.5835354,130.3649125,
福岡県,福岡市,南当仁第三-5,中央区鳥飼三丁目7番,鳥飼倶楽部正面横,33.5837076,130.367293,
福岡県,福岡市,南当仁第三-6,中央区鳥飼三丁目3番,埴安神社前,33.582767,130.367622,
福岡県,福岡市,南当仁第三-7,中央区鳥飼一丁目5番27号,鳥飼第2ポンプ場前,33.5816572,130.3673231,
福岡県,福岡市,高宮-1,中央区白金二丁目15番40号,高宮小学校正門横,33.5771704,130.4061934,
福岡県,福岡市,高宮-2,中央区高砂一丁目16番,高砂公園南側,33.5794548,130.4068951,
福岡県,福岡市,高宮-3,中央区白金二丁目4番,白金公園南側,33.5765671,130.4064173,
福岡県,福岡市,高宮-4,中央区那の川二丁目8番10号,エルパルケ平尾南側植栽帯,33.5740011,130.4078344,
福岡県,福岡市,高宮-5,中央区清川三丁目20番9号,はちすが産婦人科医院西側,33.57702829999999,130.4128422,
福岡県,福岡市,高宮-6,中央区白金二丁目15番40号,高宮小学校南側,33.5771704,130.4061934,
福岡県,福岡市,高宮-7,中央区白金一丁目14番,白金280号線水路沿植樹帯,33.57884260000001,130.4037893,
福岡県,福岡市,高宮-8,中央区白金一丁目17番1号,福岡市水道局駐車場フェンス,33.5807625,130.4025016,
福岡県,福岡市,高宮-9,中央区那の川二丁目10番18号,NTT平尾ビル南側,33.5743915,130.4064571,
福岡県,福岡市,一本木-1,中央区大宮一丁目4番,大宮335号線水路沿植樹帯,33.5782763,130.4029929,
福岡県,福岡市,一本木-2,中央区大宮二丁目4番,大宮321号線水路沿植樹帯,33.5754355,130.405382,
福岡県,福岡市,一本木-3,中央区大宮二丁目2番,一本木公園南側,33.5760746,130.4044762,
福岡県,福岡市,一本木-4,中央区大宮二丁目2番,一本木公園北側,33.5760746,130.4044762,
福岡県,福岡市,一本木-5,中央区平尾二丁目6番,平尾出張所移転地植樹桝,33.5735318,130.405382,
福岡県,福岡市,一本木-6,中央区平尾二丁目2番15号,スズキ自販福岡駐車場フェンス,33.5750318,130.4039912,
福岡県,福岡市,一本木-7,中央区大宮二丁目6番1号,ロイヤルホスト平尾店北側,33.574929,130.4065188,
福岡県,福岡市,一本木-8,中央区平尾一丁目7番1号,クラーク記念国際高等学校,33.5779816,130.4020173,
福岡県,福岡市,平尾-1,中央区平尾三丁目29番1号,平尾小学校正門横,33.57530819999999,130.3960439,
福岡県,福岡市,平尾-2,中央区平尾三丁目29番1号,平尾小学校東門横,33.57530819999999,130.3960439,
福岡県,福岡市,平尾-3,中央区平尾三丁目29番1号,平尾小学校南東角,33.57530819999999,130.3960439,
福岡県,福岡市,平尾-4,中央区平尾三丁目20番57号,福岡中央高校南東,33.5763414,130.3984785,
福岡県,福岡市,平尾-5,中央区平尾四丁目14番,山荘公園南西側,33.5725339,130.3976567,
福岡県,福岡市,平尾-6,中央区平尾四丁目14番,山荘公園南東側,33.5725339,130.3976567,
福岡県,福岡市,平尾-7,中央区平尾五丁目14番,平尾山荘公園南側,33.570688,130.3952673,
福岡県,福岡市,平尾-8,中央区平尾五丁目14番,平尾2号公園前,33.570688,130.3952673,
福岡県,福岡市,草ヶ江-1,中央区草香江二丁目3番5号,草ヶ江小学校南門角,33.5789418,130.3740034,
福岡県,福岡市,草ヶ江-2,中央区草香江二丁目3番5号,草ヶ江小学校裏門横,33.5789418,130.3740034,
福岡県,福岡市,草ヶ江-3,中央区草香江一丁目6番,タイムズ大濠南駐車場(大濠団地跡),33.5809839,130.3753512,
福岡県,福岡市,草ヶ江-4,中央区六本松四丁目2番6号,MJR六本松西側,33.5766289,130.3771753,
福岡県,福岡市,草ヶ江-5,中央区六本松四丁目2番,七隈線六本松駅1番出入口,33.5771428,130.3765912,
福岡県,福岡市,草ヶ江-6,中央区草香江二丁目17番,草香江公園前,33.5808291,130.3714469,
福岡県,福岡市,草ヶ江-7,中央区六本松四丁目2番,六本松公園東側,33.5771428,130.3765912,
福岡県,福岡市,草ヶ江-8,中央区谷二丁目11番,谷公園入口横,33.5741406,130.3803144,
福岡県,福岡市,小笹-1,中央区小笹四丁目12番,小笹中央公園,33.5671953,130.3858677,
福岡県,福岡市,小笹-2,中央区小笹四丁目4番,小笹団地45棟前,33.5689679,130.3879788,
福岡県,福岡市,小笹-3,中央区小笹四丁目5番,小笹団地正門バス停前,33.5690947,130.3858227,
福岡県,福岡市,小笹-4,中央区小笹四丁目5番,小笹北公園前,33.5690947,130.3858227,
福岡県,福岡市,小笹-5,中央区小笹五丁目15番,増田駐車場西側,33.5680834,130.3903287,
福岡県,福岡市,小笹-6,中央区小笹五丁目15番,増田駐車場東側,33.5680834,130.3903287,
福岡県,福岡市,小笹-7,中央区小笹四丁目5番1号,小笹団地集会所前,33.5706069,130.3862255,
福岡県,福岡市,梅光園-1,中央区梅光園三丁目2番,アーベインルネス友泉集会所前(観光道路側),33.5695427,130.3778212,
福岡県,福岡市,梅光園-2,中央区梅光園三丁目5番1号,フローレンス梅光園グランドアーク南側,33.5689838,130.3768971,
福岡県,福岡市,梅光園-3,中央区梅光園団地18番,梅光園団地南側UR都市機構フェンス,33.5731713,130.3768842,
福岡県,福岡市,梅光園-4,中央区梅光園団地1番,梅光園団地駐車場北側,33.5742506,130.3775822,
福岡県,福岡市,梅光園-5,中央区梅光園一丁目2番27号,梅光園ポンプ場南側,33.5745763,130.376061,
福岡県,福岡市,梅光園-6,中央区梅光園二丁目26番,梅光園公園東側,33.569461,130.3787773,
福岡県,福岡市,梅光園-7,中央区梅光園二丁目14番,市営梅光園住宅,33.5711732,130.3770244,
福岡県,福岡市,福浜-1,中央区福浜一丁目2番1号,福浜小学校正門横,33.5976081,130.3685311,
福岡県,福岡市,福浜-2,中央区福浜一丁目2番2号,福浜公民館南側,33.5968046,130.3687575,
福岡県,福岡市,福浜-3,中央区福浜一丁目5番2号,福浜市営住宅2棟集会所入口横,33.5979529,130.3664274,
福岡県,福岡市,福浜-4,中央区福浜一丁目1番15号,福浜市営住宅15棟前,33.5965369,130.3694913,
福岡県,福岡市,福浜-5,中央区福浜一丁目1番13号,伊崎バス停前,33.5978002,130.3697805,
福岡県,福岡市,福浜-6,中央区福浜二丁目5番4号,西公園下住宅4棟前,33.5962032,130.3669557,
福岡県,福岡市,福浜-7,中央区福浜二丁目5番10号,西公園下住宅10棟西側植込,33.5951201,130.3667204,
福岡県,福岡市,小笹南-1,中央区平和五丁目8番15号,合同宿舎平尾住宅前,33.565505,130.3932609,
福岡県,福岡市,小笹南-2,中央区平和五丁目7番11号,平和中央公園東側,33.5647334,130.3931067,
福岡県,福岡市,小笹南-3,中央区平和五丁目11番1号,平尾中学校東側,33.56508730000001,130.3936413,
福岡県,福岡市,小笹南-4,中央区平和五丁目11番1号,平尾中学校南側,33.56508730000001,130.3936413,
福岡県,福岡市,小笹南-5,中央区小笹二丁目4番,小笹南公園前,33.5617177,130.3882576,
福岡県,福岡市,小笹南-6,中央区小笹三丁目10番5号,小笹三丁目10番住宅裏フェンス,33.5654664,130.3880937,
福岡県,福岡市,小笹南-7,中央区小笹三丁目2番,小笹公園前,33.5658852,130.3897711,
福岡県,福岡市,小笹南-8,中央区平和三丁目13番2号,平和三丁目住宅2棟東側植込,33.5665876,130.3964911,
福岡県,福岡市,笹丘-1,中央区笹丘一丁目22番1号,友泉中学校西側,33.5636627,130.3791268,
福岡県,福岡市,笹丘-2,中央区笹丘一丁目28番74号,イオンスタイル笹丘西側駐車場出口,33.5650687,130.3767757,
福岡県,福岡市,笹丘-3,中央区笹丘二丁目25番1号,笹丘小学校北東側,33.5667674,130.380663,
福岡県,福岡市,笹丘-4,中央区笹丘一丁目22番1号,友泉中学校東側,33.5636627,130.3791268,
福岡県,福岡市,笹丘-5,中央区笹丘二丁目25番1号,笹丘小学校車門横,33.5667674,130.380663,
福岡県,福岡市,笹丘-6,中央区笹丘二丁目25番1号,笹丘小学校東側,33.5667674,130.380663,
福岡県,福岡市,笹丘-7,中央区笹丘一丁目13番41号,笹丘公民館隣接植樹帯,33.5671659,130.3785185,
福岡県,福岡市,笹丘-8,中央区輝国二丁目12番,輝国公園前,33.5699857,130.3794943,
福岡県,福岡市,薬院-1,中央区薬院四丁目14番,グランドメゾン浄水ガーデンシティ前(九電体育館跡地),33.5766866,130.3950776,
福岡県,福岡市,薬院-2,中央区薬院四丁目19番17号,南薬院警察官舎前,33.5794128,130.3940716,
福岡県,福岡市,薬院-3,中央区南公園1番,南公園西門横,33.5720007,130.3886609,
福岡県,福岡市,薬院-4,中央区平尾浄水町9番地,動物園駐車場前,33.572534,130.3923799,
福岡県,福岡市,薬院-5,中央区浄水通1番,浄水通1号公園,33.5768371,130.3941522,
福岡県,福岡市,薬院-6,中央区薬院三丁目10番,薬院公園入口横,33.5791498,130.4002054,
福岡県,福岡市,薬院-7,中央区薬院四丁目1番18号,合同宿舎東薬院住宅横,33.5797517,130.3974711,
福岡県,福岡市,薬院-8,中央区御所ケ谷4番11号,十八親和銀行福岡済美寮前,33.577141,130.3925383,
福岡県,福岡市,薬院-9,中央区薬院3丁目4番,松尾建設(株)福岡支店東側駐車場,33.5801965,130.400524,
福岡県,福岡市,六本松-1,中央区六本松一丁目11番,草ヶ江老人いこいの家東側,33.5793545,130.3767057,
福岡県,福岡市,六本松-2,中央区六本松一丁目12番1号,大濠高等学校北西角,33.5817084,130.3765862,
福岡県,福岡市,六本松-3,中央区六本松一丁目12番1号,大濠高等学校南東角,33.5817084,130.3765862,
福岡県,福岡市,六本松-4,中央区六本松一丁目1番1号,NHK放送センター入口バス停前,33.5804409,130.3809184,
福岡県,福岡市,六本松-5,中央区六本松一丁目1番1号,護国神社バス停前,33.5804409,130.3809184,
福岡県,福岡市,六本松-6,中央区六本松一丁目11番,六本松2号公園南側,33.5793545,130.3767057,
福岡県,福岡市,六本松-7,中央区谷二丁目3番,谷緑地前,33.5752252,130.3833185,
福岡県,福岡市,六本松-8,中央区六本松三丁目12番,菊池児童公園前,33.5802869,130.3823624,
福岡県,福岡市,大楠西-1-1,南区大楠三丁目10番1号,大楠小学校正門横,33.5703994,130.4150124,
福岡県,福岡市,大楠西-1-2,南区大楠三丁目10番1号,大楠小学校南門横,33.5703994,130.4150124,
福岡県,福岡市,大楠西-1-3,南区大楠三丁目18番,盤瀬公園北側入口横,33.5681102,130.415097,
福岡県,福岡市,大楠西-1-4,南区大楠三丁目11番1号,高宮中学校正門横,33.5718655,130.4121481,
福岡県,福岡市,大楠西-1-5,南区大楠三丁目11番1号,高宮中学校西側フェンス,33.5718655,130.4121481,
福岡県,福岡市,大楠西-1-6,南区大楠二丁目18番,堀川公園南側角,33.5736003,130.4085674,
福岡県,福岡市,大楠西-1-7,南区大楠二丁目5番,大楠公園西側入口横,33.5734189,130.4123897,
福岡県,福岡市,大楠西-1-8,南区大楠三丁目28番,福岡大学高宮グラウンド入口横,33.5708855,130.4111953,
福岡県,福岡市,大楠東-2-1,南区那の川一丁目4番,永楽公園入口南側,33.575874,130.416769,
福岡県,福岡市,大楠東-2-2,南区那の川一丁目12番12号,玉石重機フェンス,33.5748527,130.4158733,
福岡県,福岡市,大楠東-2-3,南区大楠一丁目15番,大楠1号公園西側,33.5731609,130.4173861,
福岡県,福岡市,大楠東-2-4,南区大楠一丁目33番,月極大橋パーキング第一前,33.5723988,130.4151766,
福岡県,福岡市,大楠東-2-5,南区大楠一丁目12番,サンピックビル南側フェンス,33.5721956,130.4186799,
福岡県,福岡市,大楠東-2-6,南区大楠一丁目5番2号,SYSKEN大楠ビル北側,33.5745699,130.4187396,
福岡県,福岡市,大楠東-2-7,南区大楠一丁目2番,天代公園西側入口,33.5744993,130.4202723,
福岡県,福岡市,西高宮-3-1,南区平和一丁目7番,平尾新池北側,33.5686528,130.4030725,
福岡県,福岡市,西高宮-3-2,南区平和一丁目7番,平尾新池西側,33.5686528,130.4030725,
福岡県,福岡市,西高宮-3-3,南区市崎一丁目16番,市崎公園東側,33.5718542,130.4033114,
福岡県,福岡市,西高宮-3-4,南区平和一丁目6番55号,西高宮小学校西側フェンス,33.5700728,130.4024798,
福岡県,福岡市,西高宮-3-5,南区平和二丁目10番,平和東公園水下し池前フェンス,33.5656375,130.4017983,
福岡県,福岡市,西高宮-3-6,南区市崎一丁目2番,高宮マンション東側塀,33.5718359,130.4046653,
福岡県,福岡市,西高宮-3-7,南区市崎二丁目5番,上高宮南公園東側,33.5653962,130.4068951,
福岡県,福岡市,西高宮-3-8,南区市崎二丁目3番,上高宮北公園東側,33.5662954,130.4066562,
福岡県,福岡市,長丘-4-1,南区長丘五丁目10番1号,長丘西公園東側,33.5560288,130.3896915,
福岡県,福岡市,長丘-4-2,南区長丘三丁目12番1号,長丘中公園東側,33.5548665,130.3941522,
福岡県,福岡市,長丘-4-3,南区長丘三丁目12番,市楽池南側,33.5548665,130.3941522,
福岡県,福岡市,長丘-4-4,南区長丘二丁目22番1号,長丘小学校西門横,33.5570492,130.3971789,
福岡県,福岡市,長丘-4-5,南区長丘二丁目22番1号,長丘小学校東門横,33.5570492,130.3971789,
福岡県,福岡市,長丘-4-6,南区長丘一丁目13番5号,長丘緑地前北側入口横,33.5556535,130.398941,
福岡県,福岡市,長丘-4-7,南区長丘二丁目15番,長丘ハイツ東側ガードレール,33.5573877,130.3989311,
福岡県,福岡市,長丘-4-8,南区長丘四丁目4番,長丘北公園北側入口横,33.5567877,130.3922405,
福岡県,福岡市,長住-5-1,南区長住四丁目5番39号,長住小学校北側,33.54743380000001,130.3949188,
福岡県,福岡市,長住-5-2,南区西長住三丁目34番,桧原山崎公園北側フェンス,33.5435089,130.3922006,
福岡県,福岡市,長住-5-3,南区長住七丁目18番,長住西公園東側,33.5458477,130.3945504,
福岡県,福岡市,長住-5-4,南区長住五丁目10番,長住中央公園南側,33.5459163,130.3971789,
福岡県,福岡市,長住-5-5,南区長住五丁目10番,長住中央公園北側,33.5459163,130.3971789,
福岡県,福岡市,長住-5-6,南区長住一丁目6番,長住東公園西側,33.5488533,130.400524,
福岡県,福岡市,長住-5-7,南区長住六丁目7番,長住南公園東側,33.5452944,130.3998868,
福岡県,福岡市,長住-5-8,南区長住二丁目4番,長住北公園北側,33.5510902,130.3994886,
福岡県,福岡市,西長住-6-1,南区西長住一丁目9番20号,西長住小学校南側,33.5516561,130.3902192,
福岡県,福岡市,西長住-6-2,南区西長住一丁目9番20号,西長住小学校東側,33.5516561,130.3902192,
福岡県,福岡市,西長住-6-3,南区西長住一丁目2番,西側道路沿いフェンス,33.5516389,130.3919218,
福岡県,福岡市,西長住-6-4,南区西長住二丁目1番,鹿助公園北側,33.5511803,130.3927184,
福岡県,福岡市,西長住-6-5,南区西長住二丁目4番,長住公民館東側,33.5488808,130.3939132,
福岡県,福岡市,西長住-6-6,南区西長住二丁目14番,鹿助公園南側,33.5482083,130.3926387,
福岡県,福岡市,西長住-6-7,南区長住団地,長住団地30棟東側,33.5487645,130.3981346,
福岡県,福岡市,西花畑-7-1,南区桧原二丁目20番1号,西花畑小学校正門横,33.5405795,130.3971291,
福岡県,福岡市,西花畑-7-2,南区桧原二丁目21番1号,花畑中学校運動場東側角,33.5393385,130.3974834,
福岡県,福岡市,西花畑-7-3,南区桧原三丁目8番18号,住宅敷地前,33.5361325,130.3953651,
福岡県,福岡市,西花畑-7-4,南区桧原四丁目28番,桧原南公園西側,33.5352343,130.3935946,
福岡県,福岡市,西花畑-7-5,南区桧原六丁目1番1号,福岡葬祭場入口西側,33.5341399,130.3869062,
福岡県,福岡市,西花畑-7-6,南区桧原二丁目51番,桧原三ツ角バス停後方,33.538204,130.3925591,
福岡県,福岡市,西花畑-7-7,南区桧原一丁目18番,南側道路フェンス,33.5399239,130.3941522,
福岡県,福岡市,西花畑-7-8,南区桧原七丁目49番,井手公園西側,33.537438,130.387222,
福岡県,福岡市,皿山-8-1,南区皿山二丁目5番,皿山中央公園西側,33.5432327,130.4045857,
福岡県,福岡市,皿山-8-2,南区皿山二丁目5番,皿山中央公園北側,33.5432327,130.4045857,
福岡県,福岡市,皿山-8-3,南区皿山一丁目1番,福岡整形外科病院第2駐車場前フェンス,33.5490284,130.4041875,
福岡県,福岡市,皿山-8-4,南区皿山一丁目7番,皿山公園東側,33.5471866,130.4040282,
福岡県,福岡市,皿山-8-5,南区皿山四丁目21番,久屋池緑地北側,33.5423327,130.3996877,
福岡県,福岡市,皿山-8-6,南区皿山四丁目45番,皿山四丁目バス停北側ガードレール,33.5422421,130.4013204,
福岡県,福岡市,皿山-8-7,南区皿山三丁目2番49号,住宅敷地前,33.5455501,130.4023656,
福岡県,福岡市,花畑第一-9-1,南区花畑三丁目34番1号,花畑小学校南側,33.5334034,130.4016633,
福岡県,福岡市,花畑第一-9-2,南区花畑三丁目34番1号,花畑小学校西側入口横,33.5334034,130.4016633,
福岡県,福岡市,花畑第一-9-3,南区花畑二丁目39番,花畑1号公園南側,33.5360497,130.4023558,
福岡県,福岡市,花畑第一-9-4,南区花畑四丁目8番1号,花畑二丁目バス停横,33.5396321,130.4012166,
福岡県,福岡市,花畑第一-9-5,南区花畑二丁目20番,仲の原公園入口横,33.5380611,130.4033911,
福岡県,福岡市,花畑第一-9-6,南区花畑三丁目1番,駐車場東側歩道柵,33.5341093,130.4050635,
福岡県,福岡市,花畑第一-9-7,南区柏原一丁目8番1号,柏原中学校北西側入口横,33.5306789,130.4018431,
福岡県,福岡市,花畑第一-9-8,南区柏原一丁目8番1号,柏原中学校西側入口横,33.5306789,130.4018431,
福岡県,福岡市,花畑第二-10-1,南区中尾一丁目32番32号,みどりがおか幼稚園南側,33.5443772,130.411474,
福岡県,福岡市,花畑第二-10-2,南区中尾一丁目31番,住宅敷地前,33.5441461,130.411036,
福岡県,福岡市,花畑第二-10-3,南区中尾二丁目1番1号,ぶどう畑駐輪場前柵,33.5442693,130.4098814,
福岡県,福岡市,花畑第二-10-4,南区中尾二丁目17番,宮ヶ丘町児童広場東側,33.5420318,130.4106379,
福岡県,福岡市,花畑第二-10-5,南区屋形原二丁目8番,桜ヶ丘公園北側,33.5402127,130.4113545,
福岡県,福岡市,花畑第二-10-6,南区中尾一丁目36番16号,住宅敷地後方壁,33.5434167,130.4140012,
福岡県,福岡市,花畑第二-10-7,南区屋形原二丁目38番,芋池フェンス,33.5384549,130.4113545,
福岡県,福岡市,柏原-11-1,南区柏原五丁目21番1号,柏原小学校南西側正門横,33.5286483,130.3911801,
福岡県,福岡市,柏原-11-2,南区柏原五丁目21番1号,柏原小学校西側通用門横,33.5286483,130.3911801,
福岡県,福岡市,柏原-11-3,南区柏原一丁目45番,古池前フェンス,33.5268971,130.4015496,
福岡県,福岡市,柏原-11-4,南区大平寺二丁目21番,上原田公園フェンス,33.5302147,130.3951876,
福岡県,福岡市,柏原-11-5,南区大平寺一丁目21番,大平寺東公園フェンス,33.5333184,130.3977364,
福岡県,福岡市,柏原-11-6,南区柏原六丁目15番,柏原ゴン公園前,33.5256806,130.3899304,
福岡県,福岡市,柏原-11-7,南区柏原三丁目2番,柏原北公園西側,33.52579290000001,130.4017983,
福岡県,福岡市,柏原-11-8,南区柏原四丁目1番,新中島橋南側,33.5283152,130.3974178,
福岡県,福岡市,柏原-11-9,南区柏原四丁目11番,柏原小学校バス停横フェンス,33.5271819,130.3926305,
福岡県,福岡市,東花畑-12-1,南区屋形原二丁目23番1号,東花畑小学校正門東側,33.5385629,130.4092344,
福岡県,福岡市,東花畑-12-2,南区屋形原二丁目23番1号,東花畑小学校南門横,33.5385629,130.4092344,
福岡県,福岡市,東花畑-12-3,南区屋形原一丁目10番,中尾台町児童広場北側,33.5407496,130.4079304,
福岡県,福岡市,東花畑-12-4,南区屋形原四丁目38番,新池フェンス,33.5359615,130.4085683,
福岡県,福岡市,東花畑-12-5,南区屋形原四丁目39番,福岡病院東側フェンス,33.5343893,130.4086471,
福岡県,福岡市,東花畑-12-6,南区屋形原三丁目39番,市営屋形原住宅西側公園前,33.5339775,130.4117527,
福岡県,福岡市,東花畑-12-7,南区野多目五丁目2番,野多目西公園北側フェンス前,33.5414369,130.4164506,
福岡県,福岡市,野多目-13-1,南区野多目二丁目6番1号,野多目小学校正門横,33.5409193,130.4251364,
福岡県,福岡市,野多目-13-2,南区向新町二丁目14番,市営向新町住宅北側,33.5396636,130.4297459,
福岡県,福岡市,野多目-13-3,南区野多目四丁目10番,野多目中央公園前,33.538732,130.4240938,
福岡県,福岡市,野多目-13-4,南区向新町二丁目29番,野多目市営住宅入口前,33.5383739,130.4286464,
福岡県,福岡市,野多目-13-5,南区野多目三丁目2番1号,ダイキョーバリュー野多目店西側,33.5417105,130.4192652,
福岡県,福岡市,野多目-13-6,南区野多目三丁目1番,国立病院機構九州がんセンター北側フェンス,33.5428696,130.4213869,
福岡県,福岡市,野多目-13-7,南区和田一丁目4番,鉄板焼 幸北側信号機前,33.5455596,130.4275966,
福岡県,福岡市,野多目-13-8,南区野多目一丁目2番,市営野多目一丁目住宅集会所入口横,33.5423785,130.4271189,
福岡県,福岡市,三宅第一-14-1,南区和田三丁目16番,和田宝満公園前,33.5470545,130.4215461,
福岡県,福岡市,三宅第一-14-2,南区和田三丁目10番,和田公園前,33.5479774,130.4227404,
福岡県,福岡市,三宅第一-14-3,南区三宅一丁目17番12号,清星幼稚園正門横,33.5516997,130.424547,
福岡県,福岡市,三宅第一-14-4,南区和田四丁目10番,中尾池西側フェンス前,33.54772,130.4194761,
福岡県,福岡市,三宅第一-14-5,南区三宅二丁目23番1号,三宅小学校正門横,33.549862,130.4264174,
福岡県,福岡市,三宅第一-14-6,南区三宅二丁目23番1号,三宅小学校東側入口横,33.549862,130.4264174,
福岡県,福岡市,三宅第一-14-7,南区三宅三丁目4番10号,JA福岡市三宅支店前,33.5503524,130.4286315,
福岡県,福岡市,三宅第一-14-8,南区三宅三丁目3番,三宅中央公園北側,33.5505428,130.4298255,
福岡県,福岡市,三宅第二-15-1,南区大橋三丁目18番1号,三宅中学校南側フェンス,33.5536267,130.4332782,
福岡県,福岡市,三宅第二-15-2,南区大橋二丁目20番12号,美由喜ビル東側,33.5559796,130.4302348,
福岡県,福岡市,三宅第二-15-3,南区大橋三丁目18番1号,三宅中学校正門横,33.5536267,130.4332782,
福岡県,福岡市,三宅第二-15-4,南区大橋三丁目18番1号,三宅中学校北西側入口横,33.5536267,130.4332782,
福岡県,福岡市,三宅第二-15-5,南区大橋三丁目5番,クラシオン大橋駐車場フェンス,33.553999,130.429388,
福岡県,福岡市,三宅第二-15-6,南区大橋三丁目9番,大橋三丁目ちびっこ広場南側,33.5547261,130.4294275,
福岡県,福岡市,三宅第二-15-7,南区大橋四丁目9番,大橋南公園北側,33.5546187,130.4278354,
福岡県,福岡市,三宅第二-15-8,南区大橋二丁目9番,大橋西公園南側,33.5567157,130.4307012,
福岡県,福岡市,筑紫丘第一-16-1,南区南大橋一丁目9番,筑紫丘小学校正門東側ガードレール,33.5550674,130.4214665,
福岡県,福岡市,筑紫丘第一-16-2,南区南大橋一丁目13番1号,筑紫丘小学校裏門講室横,33.5544757,130.4210409,
福岡県,福岡市,筑紫丘第一-16-3,南区筑紫丘一丁目12番,チサンマンション大橋南東側ガードレール,33.5572466,130.4233773,
福岡県,福岡市,筑紫丘第一-16-4,南区筑紫丘二丁目28番,筑紫丘中学校グラウンド南側,33.5565933,130.42075,
福岡県,福岡市,筑紫丘第一-16-5,南区筑紫丘二丁目2番,筑紫丘中央公園西側フェンス,33.5579288,130.4188392,
福岡県,福岡市,筑紫丘第一-16-6,南区南大橋一丁目22番,三宅1号公園南側,33.5528728,130.4225811,
福岡県,福岡市,筑紫丘第一-16-7,南区筑紫丘二丁目2番,野間中学校西側生垣,33.5579288,130.4188392,
福岡県,福岡市,筑紫丘第一-16-8,南区筑紫丘二丁目2番,流泉寺池北側フェンス,33.5579288,130.4188392,
福岡県,福岡市,筑紫丘第二-17-1,南区若久団地,若久橋フェンス,33.5546638,130.4182022,
福岡県,福岡市,筑紫丘第二-17-2,南区若久団地,次源田池南側フェンス,33.5546638,130.4182022,
福岡県,福岡市,筑紫丘第二-17-3,南区若久二丁目3番,若久特別支援学校入口横,33.5542418,130.4162913,
福岡県,福岡市,筑紫丘第二-17-4,南区若久二丁目18番,若久菖蒲公園北側,33.5516906,130.4170079,
福岡県,福岡市,筑紫丘第二-17-5,南区若久二丁目3番,若久特別支援学校南側,33.5542418,130.4162913,
福岡県,福岡市,筑紫丘第二-17-6,南区若久団地,若久団地南公園フェンス,33.5546638,130.4182022,
福岡県,福岡市,筑紫丘第二-17-7,南区若久二丁目41番,八田池東側フェンス,33.5512642,130.4192555,
福岡県,福岡市,東若久-18-1,南区柳河内二丁目6番,柳河內公園西側,33.5519016,130.4063633,
福岡県,福岡市,東若久-18-2,南区若久五丁目18番,御畠山公園南側,33.5480316,130.4078507,
福岡県,福岡市,東若久-18-3,南区若久五丁目1番5号,田代医院南側フェンス,33.549657,130.4107652,
福岡県,福岡市,東若久-18-4,南区若久二丁目29番,若久新町公園西側,33.552732,130.4145396,
福岡県,福岡市,東若久-18-5,南区若久三丁目37番1号,東若久小学校正門横,33.5501614,130.4154473,
福岡県,福岡市,東若久-18-6,南区若久三丁目37番1号,東若久小学校南東入口横,33.5501614,130.4154473,
福岡県,福岡市,東若久-18-7,南区若久六丁目35番,若久公園南側,33.5482563,130.4154951,
福岡県,福岡市,東若久-18-8,南区若久六丁目29番1号,若久園前ガードレール,33.5470641,130.4143845,
福岡県,福岡市,若久-19-1,南区若久一丁目12番1号,若久小学校正門横,33.5553676,130.4114839,
福岡県,福岡市,若久-19-2,南区若久一丁目12番1号,若久小学校北西入口横,33.5553676,130.4114839,
福岡県,福岡市,若久-19-3,南区若久一丁目22番,若久幼稚園フェンス南側,33.55409,130.4135045,
福岡県,福岡市,若久-19-4,南区若久一丁目16番5号,住宅敷地前,33.5565222,130.4146608,
福岡県,福岡市,若久-19-5,南区柳河内一丁目1番,野間大池公園東側,33.554347,130.4059395,
福岡県,福岡市,若久-19-6,南区柳河内一丁目1番,野間大池公園南側,33.554347,130.4059395,
福岡県,福岡市,若久-19-7,南区野間三丁目24番,神中橋西側ガードレール,33.5589466,130.4149377,
福岡県,福岡市,若久-19-8,南区若久一丁目11番20号,若久公民館入口フェンス,33.5557102,130.4128276,
福岡県,福岡市,玉川第一-20-1,南区向野一丁目8番1号,第一薬科大学東門横,33.5655247,130.419914,
福岡県,福岡市,玉川第一-20-2,南区向野一丁目5番1号,玉川小学校東側,33.5635276,130.4211112,
福岡県,福岡市,玉川第一-20-3,南区向野一丁目5番1号,玉川小学校西門横,33.5635276,130.4211112,
福岡県,福岡市,玉川第一-20-4,南区向野一丁目21番,野間八幡宮東側,33.5613205,130.4202723,
福岡県,福岡市,玉川第一-20-5,南区向野二丁目5番,向野東公園西側入口横,33.5606382,130.4248103,
福岡県,福岡市,玉川第一-20-6,南区向野一丁目15番,向野西公園東側,33.5629098,130.4199538,
福岡県,福岡市,玉川第一-20-7,南区向野一丁目18番18号,川崎技研駐車場フェンス,33.5630306,130.4185991,
福岡県,福岡市,玉川第一-20-8,南区玉川町19番,NTT高宮社宅西側フェンス前,33.5669241,130.4186799,
福岡県,福岡市,玉川第二-21-1,南区塩原三丁目25番1号,南区役所前,33.561708,130.4265651,
福岡県,福岡市,玉川第二-21-2,南区塩原三丁目25番1号,南区役所北側入口横,33.561708,130.4265651,
福岡県,福岡市,玉川第二-21-3,南区塩原三丁目23番1号,九州中央病院北西,33.563295,130.4248864,
福岡県,福岡市,玉川第二-21-4,南区塩原二丁目5番,塩原中央公園北側,33.5659732,130.4252083,
福岡県,福岡市,玉川第二-21-5,南区塩原三丁目4番,地禄神社西側緑地前,33.5640967,130.4288703,
福岡県,福岡市,玉川第二-21-6,南区大橋一丁目3番,大橋駅東口南側,33.5593252,130.4275966,
福岡県,福岡市,玉川第二-21-7,南区塩原三丁目8番21号,みやこ幼稚園北側,33.5652499,130.4267946,
福岡県,福岡市,玉川第三-22-1,南区清水一丁目14番,清水西公園北側,33.5710896,130.4201927,
福岡県,福岡市,玉川第三-22-2,南区清水一丁目8番,旧住吉中学校南側,33.5715727,130.4213869,
福岡県,福岡市,玉川第三-22-3,南区清水四丁目16番33号,清水南公園北東側,33.5680557,130.423122,
福岡県,福岡市,玉川第三-22-4,南区清水三丁目6番1号,清水中央公園南側,33.5705916,130.4225811,
福岡県,福岡市,玉川第三-22-5,南区清水四丁目21番50号,春吉中学校正門横,33.5665528,130.4210061,
福岡県,福岡市,玉川第三-22-6,南区清水四丁目21番50号,春吉中学校西門横,33.5665528,130.4210061,
福岡県,福岡市,玉川第三-22-7,南区清水一丁目19番,扇橋南東側フェンス,33.5714215,130.4186003,
福岡県,福岡市,玉川第三-22-8,南区清水二丁目5番,清水北公園西側,33.5732067,130.42282,
福岡県,福岡市,塩原-23-1,南区塩原一丁目27番1号,塩原小学校南側植込,33.5653683,130.4315979,
福岡県,福岡市,塩原-23-2,南区塩原一丁目26番,塩原公園西側フェンス,33.5656495,130.4318156,
福岡県,福岡市,塩原-23-3,南区塩原四丁目5番,塩原市営住宅入口横,33.5624254,130.4301439,
福岡県,福岡市,塩原-23-4,南区塩原四丁目8番,塩原東公園北側,33.5618211,130.4314972,
福岡県,福岡市,塩原-23-5,南区大橋団地,アーベインルネス大橋3号棟前,33.5573667,130.4322136,
福岡県,福岡市,塩原-23-6,南区塩原四丁目9番1号,九大芸術工学部正門横,33.5607468,130.429632,
福岡県,福岡市,塩原-23-7,南区塩原一丁目1番,塩原北公園西側,33.5687393,130.4282334,
福岡県,福岡市,塩原-23-8,南区塩原一丁目12番,那珂川河川緑地西側,33.5681144,130.4298255,
福岡県,福岡市,宮竹第一-24-1,南区五十川二丁目9番,五十川公園南東側,33.5613543,130.4403323,
福岡県,福岡市,宮竹第一-24-2,南区井尻一丁目1番1号,宮竹小学校北門横,33.5566287,130.4420783,
福岡県,福岡市,宮竹第一-24-3,南区井尻一丁目1番1号,宮竹小学校正門横,33.5566287,130.4420783,
福岡県,福岡市,宮竹第一-24-4,南区五十川一丁目4番,宮竹中学校前歩道,33.5630595,130.434124,
福岡県,福岡市,宮竹第一-24-5,南区五十川二丁目12番8号,たかつきビル南側フェンス,33.56021500000001,130.441375,
福岡県,福岡市,宮竹第一-24-6,南区井尻一丁目13番,アーベインルネス井尻4号棟南側,33.5550835,130.4428791,
福岡県,福岡市,宮竹第一-24-7,南区五十川二丁目36番,住宅敷地前歩道橋,33.5597188,130.4377854,
福岡県,福岡市,宮竹第一-24-8,南区五十川一丁目5番,雪印メグミルク株式会社福岡工場東側バス停付近,33.5631042,130.4358751,
福岡県,福岡市,宮竹第二-25-1,南区井尻三丁目20番,井尻1号公園前フェンス,33.5518398,130.4484598,
福岡県,福岡市,宮竹第二-25-2,南区井尻三丁目20番,アーベインルネス諸岡3号棟横,33.5518398,130.4484598,
福岡県,福岡市,宮竹第二-25-3,南区井尻三丁目29番,笹原公園東側,33.5508472,130.4490069,
福岡県,福岡市,宮竹第二-25-4,南区井尻三丁目22番23号,新世コンソーシアム東側フェンス,33.5512832,130.4473279,
福岡県,福岡市,宮竹第二-25-5,南区井尻二丁目46番39号,南区維持管理課補修事務所入口横,33.5544289,130.4458521,
福岡県,福岡市,宮竹第二-25-6,南区井尻三丁目10番5号,住宅敷地前,33.5519524,130.4448313,
福岡県,福岡市,宮竹第二-25-7,南区井尻二丁目36番40号,国立大学法人九州大学井尻寮前,33.55540149999999,130.4455839,
福岡県,福岡市,高木-26-1,南区高木一丁目12番12号,谷ハイツ東側フェンス,33.560713,130.4376256,
福岡県,福岡市,高木-26-2,南区高木二丁目7番,高木北公園前,33.5601311,130.434124,
福岡県,福岡市,高木-26-3,南区高木三丁目9番3号,MTビル前,33.555671,130.4377771,
福岡県,福岡市,高木-26-4,南区高木三丁目11番1号,高木小学校正門横,33.5561653,130.4357709,
福岡県,福岡市,高木-26-5,南区高木三丁目11番1号,高木小学校北側,33.5561653,130.4357709,
福岡県,福岡市,高木-26-6,南区高木一丁目17番5号,福岡保養院北側,33.5605183,130.435315,
福岡県,福岡市,高木-26-7,南区高木三丁目1番,高木東公園西側角,33.5559547,130.4384221,
福岡県,福岡市,井尻第一-27-1,南区井尻五丁目16番,向屋敷橋横側溝フェンス,33.5531736,130.4389793,
福岡県,福岡市,井尻第一-27-2,南区井尻五丁目18番1号,井尻会館北側,33.552314,130.4402145,
福岡県,福岡市,井尻第一-27-3,南区井尻五丁目26番50号,アートビル2北側フェンス,33.550255,130.4402088,
福岡県,福岡市,井尻第一-27-4,南区井尻五丁目23番,井尻公園北側,33.5504372,130.4412874,
福岡県,福岡市,井尻第一-27-5,南区井尻四丁目1番1号,井尻自転車駐車場,33.5516945,130.4436697,
福岡県,福岡市,井尻第一-27-6,南区井尻五丁目5番27号,地禄神社境内東側,33.5513063,130.4418942,
福岡県,福岡市,井尻第一-27-7,南区井尻五丁目27番,センチュリー21南側ガードレール,33.5510611,130.4391384,
福岡県,福岡市,井尻第二-28-1,南区井尻四丁目1番,マックスバリュ井尻駅前店南側歩道フェンス,33.5514873,130.4438341,
福岡県,福岡市,井尻第二-28-2,南区井尻四丁目16番,蓮葉井尻池東側道路フェンス,33.5499186,130.4439137,
福岡県,福岡市,井尻第二-28-3,南区井尻四丁目23番29号,住宅敷地前,33.549539,130.445207,
福岡県,福岡市,井尻第二-28-4,南区井尻四丁目24番4号,駐車場前,33.5490435,130.4460904,
福岡県,福岡市,井尻第二-28-5,南区井尻四丁目30番,井尻南公園南側フェンス,33.5483518,130.4451075,
福岡県,福岡市,井尻第二-28-6,南区井尻四丁目30番,井尻南公園入口,33.5483518,130.4451075,
福岡県,福岡市,井尻第二-28-7,南区井尻四丁目39番,向原公園,33.5478545,130.448052,
福岡県,福岡市,日佐-29-1,南区日佐二丁目1番,旧老人いこいの家裏道路フェンス,33.5423338,130.4385783,
福岡県,福岡市,日佐-29-2,南区的場二丁目8番,ビレッジハウス的場西側,33.5433065,130.4310992,
福岡県,福岡市,日佐-29-3,南区日佐四丁目21番,日佐中公園入口左横フェンス,33.5389131,130.4367905,
福岡県,福岡市,日佐-29-4,南区的場二丁目32番,湯乃里まとば西側ガードレール,33.540822,130.4338852,
福岡県,福岡市,日佐-29-5,南区日佐四丁目35番,上日佐1号公園西側,33.5376862,130.4351587,
福岡県,福岡市,日佐-29-6,南区的場二丁目29番,マルキョウ日佐店前ガードレール,33.5427679,130.4339648,
福岡県,福岡市,日佐-29-7,南区的場一丁目23番,JA福岡市日佐支店前,33.5448191,130.434522,
福岡県,福岡市,日佐-29-8,南区的場一丁目7番,的場公園東側フェンス,33.5441043,130.4326116,
福岡県,福岡市,大池-30-1,南区多賀二丁目8番1号,大池小学校北側入口横,33.5591919,130.4105085,
福岡県,福岡市,大池-30-2,南区多賀二丁目8番1号,大池小学校西側入口横,33.5591919,130.4105085,
福岡県,福岡市,大池-30-3,南区多賀一丁目1番,多賀北緑地西側フェンス,33.5641921,130.4118323,
福岡県,福岡市,大池-30-4,南区多賀二丁目9番,野間台北公園南側入口前,33.56017120000001,130.4097619,
福岡県,福岡市,大池-30-5,南区大池一丁目19番15号,住宅敷地前,33.5584055,130.4058856,
福岡県,福岡市,大池-30-6,南区多賀一丁目3番,北側道路フェンス,33.5628966,130.4127082,
福岡県,福岡市,大池-30-7,南区大池一丁目7番,寺塚南台公園西側フェンス,33.556864,130.4090452,
福岡県,福岡市,寺塚-31-1,南区寺塚一丁目23番,興宗寺駐車場フェンス,33.557038,130.4018779,
福岡県,福岡市,寺塚-31-2,南区寺塚一丁目15番,市営寺塚住宅公園北側,33.5542148,130.4022927,
福岡県,福岡市,寺塚-31-3,南区寺塚一丁目7番,寺塚南公園北側,33.5555142,130.4037096,
福岡県,福岡市,寺塚-31-4,南区寺塚二丁目21番1号,寺塚公園東側,33.5585714,130.4022164,
福岡県,福岡市,寺塚-31-5,南区寺塚二丁目9番11号,大池公民館入口横,33.5584067,130.4035703,
福岡県,福岡市,寺塚-31-6,南区大池二丁目8番1号,北側道路ガードレール,33.5598984,130.4051191,
福岡県,福岡市,寺塚-31-7,南区大池二丁目1番1号,上水公園前,33.56131970000001,130.4083499,
福岡県,福岡市,東高宮-32-1,南区高宮四丁目21番,高宮1号公園前,33.566318,130.4075322,
福岡県,福岡市,東高宮-32-2,南区高宮一丁目10番,三月田公園北側,33.5704616,130.4081693,
福岡県,福岡市,東高宮-32-3,南区高宮一丁目10番,三月田公園南側,33.5704616,130.4081693,
福岡県,福岡市,東高宮-32-4,南区高宮三丁目16番,福海公園南側入口横,33.5663273,130.4125489,
福岡県,福岡市,東高宮-32-5,南区高宮三丁目3番,ピア高宮N(アミカス) 西側,33.5675009,130.4136637,
福岡県,福岡市,東高宮-32-6,南区高宮五丁目1番,ピア高宮S東側ガードレール,33.5663734,130.4148581,
福岡県,福岡市,東高宮-32-7,南区高宮四丁目17番,宮下池東側道路フェンス,33.5643538,130.4088063,
福岡県,福岡市,東高宮-32-8,南区高宮五丁目1番,磐瀬橋横ガードレール,33.5663734,130.4148581,
福岡県,福岡市,横手-33-1,南区横手四丁目22番1号,横手小学校正門横,33.54929560000001,130.4357483,
福岡県,福岡市,横手-33-2,南区横手四丁目22番1号,横手小学校西門横,33.54929560000001,130.4357483,
福岡県,福岡市,横手-33-3,南区横手二丁目2番3号,的野ビル前フェンス,33.5508372,130.4380484,
福岡県,福岡市,横手-33-4,南区横手三丁目8番,横手公園南西側,33.5473945,130.4357955,
福岡県,福岡市,横手-33-5,南区横手三丁目41番,日佐小学校東側入口横,33.5440724,130.4381038,
福岡県,福岡市,横手-33-6,南区横手三丁目42番1号,日佐小学校正門横,33.5440848,130.4370342,
福岡県,福岡市,横手-33-7,南区横手一丁目2番1号,香蘭女子短期大学バス停横,33.5528585,130.4352556,
福岡県,福岡市,横手-33-8,南区横手四丁目10番,横手四丁目バス停横,33.5485641,130.4346812,
福岡県,福岡市,鶴田-34-1,南区鶴田三丁目7番1号,鶴田小学校正門横,33.5277989,130.4123005,
福岡県,福岡市,鶴田-34-2,南区鶴田三丁目7番1号,鶴田小学校南側入口横,33.5277989,130.4123005,
福岡県,福岡市,鶴田-34-3,南区鶴田四丁目21番,鶴田団地ちびっ子広場フェンス,33.5333981,130.4148183,
福岡県,福岡市,鶴田-34-4,南区鶴田四丁目6番1号,山本歯科前ガードレール,33.5300797,130.4093638,
福岡県,福岡市,鶴田-34-5,南区鶴田四丁目9番4号,鶴田西公園北側フェンス,33.5288261,130.4103193,
福岡県,福岡市,鶴田-34-6,南区鶴田二丁目1番,マルショク鶴田店東側フェンス,33.527235,130.4100804,
福岡県,福岡市,鶴田-34-7,南区鶴田一丁目16番,屋形原2号公園前,33.5262643,130.4065766,
福岡県,福岡市,鶴田-34-8,南区老司五丁目45番,老司大池公園西側,33.5270347,130.4141415,
福岡県,福岡市,老司-35-1,南区野多目六丁目6番,野多目公園南側,33.5361637,130.4164506,
福岡県,福岡市,老司-35-2,南区老司一丁目25番,老司県営住宅集会室前フェンス,33.5363023,130.42282,
福岡県,福岡市,老司-35-3,南区老司三丁目9番,ヒラキテント北側ガードレール,33.53464,130.4182818,
福岡県,福岡市,老司-35-4,南区老司三丁目2番1号,老司小学校正門横,33.5351153,130.4228178,
福岡県,福岡市,老司-35-5,南区老司三丁目2番1号,老司小学校東門横,33.5351153,130.4228178,
福岡県,福岡市,老司-35-6,南区老司三丁目32番,老司中公園南側,33.5322396,130.4212277,
福岡県,福岡市,老司-35-7,南区老司三丁目43番,老司団地集会所前フェンス,33.5326914,130.4170875,
福岡県,福岡市,老司-35-8,南区老司四丁目5番11号,住宅敷地横歩道柵,33.5309769,130.4243904,
福岡県,福岡市,弥永-36-1,南区日佐三丁目7番1号,日佐中学校正門横,33.53679109999999,130.4376262,
福岡県,福岡市,弥永-36-2,南区柳瀬一丁目11番,柳瀬公園北西側入口前,33.5340033,130.4348404,
福岡県,福岡市,弥永-36-3,南区弥永団地,弥永住宅給水塔西側,33.5311009,130.4379446,
福岡県,福岡市,弥永-36-4,南区弥永団地30番,弥永中央公園東側フェンス,33.5321886,130.4377854,
福岡県,福岡市,弥永-36-5,南区弥永団地,弥永住宅3棟西側,33.5311009,130.4379446,
福岡県,福岡市,弥永-36-6,南区弥永団地,弥永住宅73棟東側,33.5311009,130.4379446,
福岡県,福岡市,弥永-36-7,南区弥永四丁目2番1号,弥永小学校西門前,33.5285441,130.4350941,
福岡県,福岡市,弥永西-37-1,南区弥永一丁目21番,弥永一丁目公民館向側(春日神社),33.5280973,130.4319748,
福岡県,福岡市,弥永西-37-2,南区弥永一丁目3番,背振神社南側,33.5312571,130.432134,
福岡県,福岡市,弥永西-37-3,南区弥永一丁目13番5号,住宅敷地前歩道柵,33.5290829,130.4304425,
福岡県,福岡市,弥永西-37-4,南区警弥郷二丁目2番,市営警弥郷住宅2号棟前,33.534013,130.4290295,
福岡県,福岡市,弥永西-37-5,南区警弥郷一丁目33番1号,警弥郷一丁目バス停横警弥郷緑地前,33.5344169,130.4322932,
福岡県,福岡市,弥永西-37-6,南区弥永二丁目10番1号,弥永西小学校西側入口横,33.526595,130.4301688,
福岡県,福岡市,弥永西-37-7,南区弥永二丁目10番1号,弥永西小学校東側講堂前入口横,33.526595,130.4301688,
福岡県,福岡市,弥永西-37-8,南区警弥郷二丁目23番,市営上警固住宅9棟前,33.532755,130.4277558,
福岡県,福岡市,冷泉-1,博多区上川端町6番25号,冷泉公民館塀前,33.5936261,130.4091986,
福岡県,福岡市,冷泉-2,博多区中洲五丁目4番,那珂川フェンス前,33.594008,130.4035305,
福岡県,福岡市,冷泉-3,博多区上川端町7番,冷泉公園東側,33.5945186,130.4088063,
福岡県,福岡市,冷泉-4,博多区祇園町1番,地下鉄祇園駅祇園3番出入口前 (ギオン11前),33.5939637,130.4150472,
福岡県,福岡市,冷泉-5,博多区祇園町8番,向島ポンプ場フェンス前,33.5913057,130.4115908,
福岡県,福岡市,冷泉-6,博多区中洲中島町5番,中洲中島公園植込,33.5959289,130.4014797,
福岡県,福岡市,冷泉-7,博多区中洲四丁目1番,中洲街園(八和ビル横),33.5917796,130.4066035,
福岡県,福岡市,奈良屋-1,博多区神屋町4番,那ノ津公園前植込,33.5998643,130.4033911,
福岡県,福岡市,奈良屋-2,博多区古門戸町4番23号,博多さくら園北側植込,33.5980677,130.4047051,
福岡県,福岡市,奈良屋-3,博多区下川端町3番,博多リバレイン前車道側植込,33.5951112,130.4050336,
福岡県,福岡市,奈良屋-4,博多区須崎町2番,東中島橋横フェンス前 (農林中金向かい側),33.5958076,130.4040282,
福岡県,福岡市,奈良屋-5,博多区築港本町7番,築港本町バス停横植込,33.6015748,130.400524,
福岡県,福岡市,奈良屋-6,博多区綱場町8番,地下鉄呉服町駅呉服1番出入口前,33.5975553,130.4096723,
福岡県,福岡市,奈良屋-7,博多区対馬小路13番40号,博多中学校東側フェンス前,33.5979183,130.4013304,
福岡県,福岡市,奈良屋-8,博多区奈良屋町1番,大博通り博多小学校東側植込,33.5989912,130.4067359,
福岡県,福岡市,御供所-1,博多区御供所町4番,西鉄奥の堂バス停横植込,33.5960719,130.4123101,
福岡県,福岡市,御供所-2,博多区上呉服町3番,リファレンス上呉服町前歩道植込,33.5973573,130.4120754,
福岡県,福岡市,御供所-3,博多区上呉服町12番,ヒロシ前フェンス前,33.598974,130.4118358,
福岡県,福岡市,御供所-4,博多区御供所町1番,地下鉄祇園駅祇園4番出入口前,33.5938513,130.4150422,
福岡県,福岡市,御供所-5,博多区博多駅前一丁目10番,出来町公園 駐輪場フェンス前,33.5936113,130.4170875,
福岡県,福岡市,御供所-6,博多区博多駅前一丁目4番,JPR博多ビル前植込,33.5929829,130.4164506,
福岡県,福岡市,御供所-7,博多区博多駅前一丁目28番15号,福岡市水道局駐車場フェンス前,33.5947688,130.4179943,
福岡県,福岡市,大浜-1,博多区大博町13番23号,メモリープラザ大博向かい側 御笠川フェンス前,33.6041146,130.407767,
福岡県,福岡市,大浜-2,博多区下呉服町3番,浜口公園植込,33.600457,130.4078507,
福岡県,福岡市,大浜-3,博多区下呉服町10番,博多高等学園向かい側御笠川フェンス前,33.6023306,130.4090653,
福岡県,福岡市,大浜-4,博多区石城町19番1号,福岡県警田鶴寮前塀,33.6057932,130.4064472,
福岡県,福岡市,大浜-5,博多区石城町7番,石城町1号公園前,33.6044706,130.4065766,
福岡県,福岡市,大浜-6,博多区下呉服町9番,カーポートスズキ駐車場フェンス前,33.6009246,130.4095635,
福岡県,福岡市,大浜-7,博多区中呉服町3番,九勧呉服町ビル専用駐車場フェンス前,33.5993286,130.4084878,
福岡県,福岡市,大浜-8,博多区大博町1番,原三信病院前植込,33.6014569,130.4053024,
福岡県,福岡市,千代第一-1,博多区千代一丁目5番,福岡高等学校西側フェンス前,33.5997394,130.4173264,
福岡県,福岡市,千代第一-2,博多区千代一丁目2番,千代東緑地植込,33.6028333,130.4199512,
福岡県,福岡市,千代第一-3,博多区千代一丁目26番,市営千代一丁目住宅南側植込,33.6029409,130.4186799,
福岡県,福岡市,千代第一-4,博多区千代四丁目1番,地下鉄千代県庁口駅千代3番出入口前,33.6029345,130.4142211,
福岡県,福岡市,千代第一-5,博多区東公園8番1号,千代小学校正門横,33.6043599,130.4183863,
福岡県,福岡市,千代第一-6,博多区東公園8番1号,千代小学校南側,33.6043599,130.4183863,
福岡県,福岡市,千代第一-7,博多区東公園8番2号,地下鉄千代県庁口駅6番出入口前,33.6034601,130.4163226,
福岡県,福岡市,千代第一-8,博多区千代二丁目23番1号,地下鉄千代県庁口駅1番出入口前,33.6018419,130.4138855,
福岡県,福岡市,千代第二-1,博多区千代三丁目16番,千代三和公園植込,33.60226,130.4107175,
福岡県,福岡市,千代第二-2,博多区千代三丁目19番,新博多住宅1棟駐車場北側フェンス前,33.6030562,130.411673,
福岡県,福岡市,千代第二-3,博多区千代四丁目22番,千代新町公園フェンス前,33.6064882,130.413186,
福岡県,福岡市,千代第二-4,博多区千代四丁目17番47号,千代中学校裏側 (シャルマンコーポ入口),33.6051558,130.4119418,
福岡県,福岡市,千代第二-5,博多区千代六丁目4番,市営千代六丁目住宅公園フェンス前,33.609703,130.4092841,
福岡県,福岡市,千代第二-6,博多区千代五丁目12番,千代北公園植込,33.6072382,130.4112749,
福岡県,福岡市,千代第二-7,博多区千代五丁目14番,千代保育所第2園庭フェンス前,33.6074907,130.4123101,
福岡県,福岡市,吉塚-1,博多区堅粕三丁目20番,堅粕北公園北側,33.5995582,130.4222627,
福岡県,福岡市,吉塚-2,博多区吉塚一丁目8番27号,市営吉塚西住宅入口植込,33.6007577,130.4226437,
福岡県,福岡市,吉塚-3,博多区吉塚一丁目38番23号,(株)ホービック南側塀,33.5997183,130.4261019,
福岡県,福岡市,吉塚-4,博多区吉塚一丁目38番14号,吉塚西公園前,33.6003356,130.4256037,
福岡県,福岡市,吉塚-5,博多区吉塚二丁目21番54号,吉塚小学校東側塀,33.6022408,130.4285021,
福岡県,福岡市,吉塚-6,博多区吉塚三丁目13番,吉塚南公園前,33.5988554,130.4281538,
福岡県,福岡市,吉塚-7,博多区吉塚二丁目7番,吉塚中公園フェンス前,33.6029502,130.4253675,
福岡県,福岡市,吉塚-8,博多区吉塚五丁目15番3号,吉塚会館北側塀,33.6029334,130.4285316,
福岡県,福岡市,東吉塚-1,博多区吉塚八丁目10番,堅田橋公園フェンス前,33.60539,130.4366711,
福岡県,福岡市,東吉塚-2,博多区吉塚五丁目10番6号,吉塚中学校正門横フェンス前,33.6046408,130.4310096,
福岡県,福岡市,東吉塚-3,博多区吉塚六丁目17番,東吉塚公園フェンス前,33.608118,130.4276762,
福岡県,福岡市,東吉塚-4,博多区吉塚六丁目8番11号,東吉塚小学校東側(東吉塚公民館前),33.6068661,130.4287558,
福岡県,福岡市,東吉塚-5,博多区吉塚七丁目7番28号,市営住宅吉塚団地北側フェンス前,33.6084454,130.4298768,
福岡県,福岡市,東吉塚-6,博多区吉塚五丁目10番6号,吉塚中学校東側フェンス前,33.6046408,130.4310096,
福岡県,福岡市,東吉塚-7,博多区吉塚本町9番,JR吉塚駅東口吉塚緑地,33.6054996,130.4240938,
福岡県,福岡市,東吉塚-8,博多区吉塚二丁目3番8号,吉塚公園植込,33.6046353,130.4267607,
福岡県,福岡市,東吉塚-9,博多区吉塚本町10番24号,東吉塚会館フェンス前,33.6059375,130.4254351,
福岡県,福岡市,堅粕-1,博多区堅粕一丁目1番1号,ニュー堅粕団地5棟西角,33.596762,130.4191775,
福岡県,福岡市,堅粕-2,博多区堅粕一丁目23番1号,堅粕人権のまちづくり館北側フェンス前,33.5976398,130.4190707,
福岡県,福岡市,堅粕-3,博多区堅粕三丁目17番,新川公園東側,33.5987867,130.4238549,
福岡県,福岡市,堅粕-4,博多区博多駅前二丁目20番,地下鉄祇園駅2番出入口前,33.592555,130.415691,
福岡県,福岡市,堅粕-5,博多区博多駅東一丁目8番1号,堅粕小学校正門横,33.5932456,130.4224691,
福岡県,福岡市,堅粕-6,博多区博多駅東二丁目12番,中比恵公園東側,33.5882294,130.4263229,
福岡県,福岡市,堅粕-7,博多区博多駅前二丁目8番1号,博多区役所前植込,33.5908105,130.4141684,
福岡県,福岡市,堅粕-8,博多区比恵町6番,比恵公園東側,33.5867711,130.4302235,
福岡県,福岡市,堅粕-9,博多区博多駅前二丁目8番,藤田公園植込,33.5907619,130.4139026,
福岡県,福岡市,東光-1,博多区堅粕四丁目2番5号,堅粕公園植込,33.596575,130.4232147,
福岡県,福岡市,東光-2,博多区堅粕四丁目17番,今町公園前フェンス前,33.5963639,130.4259248,
福岡県,福岡市,東光-3,博多区上牟田一丁目23番,上牟田公園北側,33.5867813,130.437467,
福岡県,福岡市,東光-4,博多区東光一丁目3番16号,東光二丁目交差点都市高高架下駐車場フェンス前,33.593414,130.4250491,
福岡県,福岡市,東光-5,博多区東光二丁目15番1号,東光中学校正門横,33.5933476,130.426791,
福岡県,福岡市,東光-6,博多区東比恵二丁目21番1号,東光小学校正門横,33.5916986,130.4315756,
福岡県,福岡市,東光-7,博多区東比恵三丁目13番,津屋公園南側フェンス前,33.5923392,130.434124,
福岡県,福岡市,東光-8,博多区東比恵三丁目2番36号,地下鉄東比恵駅前自転車駐輪場フェンス前,33.5899102,130.431736,
福岡県,福岡市,席田-1,博多区空港前四丁目4番,市営空港南自転車駐輪場フェンス前,33.592809,130.4511512,
福岡県,福岡市,席田-2,博多区大井二丁目10番15号,市立大井集会所駐車場フェンス前,33.6035512,130.4451725,
福岡県,福岡市,席田-3,博多区空港前三丁目17番,下臼井老松公園フェンス前,33.5955825,130.4530653,
福岡県,福岡市,席田-4,博多区空港前四丁目17番1号,席田小学校北門横,33.595558,130.4544777,
福岡県,福岡市,席田-5,博多区空港前四丁目3番,上臼井緑地北側,33.5933016,130.4512351,
福岡県,福岡市,席田-6,博多区空港前五丁目15番,斉藤池北側フェンス前,33.5958172,130.4574018,
福岡県,福岡市,席田-7,博多区青木一丁目3番,青木公園フェンス前,33.5907317,130.452747,
福岡県,福岡市,席田-8,博多区東平尾二丁目7番,今田前公園前,33.5868992,130.4563078,
福岡県,福岡市,席田-9,博多区空港前三丁目1番,地下鉄福岡空港駅3番出入口横植込,33.597078,130.4490268,
福岡県,福岡市,月隈-1,博多区月隈一丁目17番,下月隈正手浦公園前,33.5798549,130.4668297,
福岡県,福岡市,月隈-2,博多区月隈二丁目23番,星の子保育園駐車場フェンス前,33.5778266,130.466591,
福岡県,福岡市,月隈-3,博多区月隈三丁目30番1号,月隈小学校正門横,33.5737331,130.46587,
福岡県,福岡市,月隈-4,博多区西月隈一丁目10番,西月隈公園前,33.5745858,130.4498823,
福岡県,福岡市,月隈-5,博多区西月隈三丁目21番,西月隈三丁目21番転落防止用柵,33.5691971,130.4546567,
福岡県,福岡市,月隈-6,博多区金の隈一丁目19番,金隈北公園グラウンドフェンス前 (四つ角前),33.56294159999999,130.4683412,
福岡県,福岡市,月隈-7,博多区金の隈三丁目3番,金隈4号公園北側,33.5571405,130.4778866,
福岡県,福岡市,月隈-8,博多区金の隈三丁目9番,金隈病院入口交差点歩道フェンス前,33.5552583,130.477648,
福岡県,福岡市,月隈-9,博多区西月隈五丁目19番,隅田公園前,33.5633478,130.4591125,
福岡県,福岡市,月隈-10,博多区金の隈二丁目17番,堤ヶ浦バス停後ろフェンス前,33.5565096,130.4750231,
福岡県,福岡市,月隈-11,博多区立花寺二丁目1番,立花寺東交差点歩道植込,33.5675402,130.4670683,
福岡県,福岡市,東月隈-1,博多区浦田一丁目20番1号,東月隈会館前フェンス前,33.57724049999999,130.4746378,
福岡県,福岡市,東月隈-2,博多区東月隈一丁目7番,下月隈西公園西側,33.5821352,130.4681025,
福岡県,福岡市,東月隈-3,博多区東月隈二丁目19番,下月隈中央公園南側,33.5823476,130.4712845,
福岡県,福岡市,東月隈-4,博多区東月隈三丁目1番,下月隈南公園南側フェンス前,33.5807585,130.4710459,
福岡県,福岡市,東月隈-5,博多区東月隈四丁目15番,市営月隈東団地南側(東月隈小学校正門前),33.5765806,130.4742277,
福岡県,福岡市,東月隈-6,博多区東月隈四丁目6番,市営月隈住宅フェンス前,33.5789221,130.4742277,
福岡県,福岡市,東月隈-7,博多区大字立花寺,浦田調整池フェンス前,33.5683025,130.4751822,
福岡県,福岡市,東月隈-8,博多区東月隈五丁目30番,坂瀬池グラウンド南西端フェンス前,33.5767834,130.4723336,
福岡県,福岡市,住吉-1,博多区住吉二丁目7番,住吉2号公園北側フェンス前,33.5873936,130.4133452,
福岡県,福岡市,住吉-2,博多区住吉二丁目7番,住吉2号公園南側フェンス前,33.5873936,130.4133452,
福岡県,福岡市,住吉-3,博多区住吉四丁目3番,住吉公園南側,33.5843234,130.4161321,
福岡県,福岡市,住吉-4,博多区住吉四丁目3番,住吉公園西側,33.5843234,130.4161321,
福岡県,福岡市,住吉-5,博多区住吉四丁目18番1号,旧住吉小学校講堂グラウンド前フェンス前,33.5831247,130.4125035,
福岡県,福岡市,住吉-6,博多区住吉四丁目8番,月形月極駐車場前,33.5840885,130.413186,
福岡県,福岡市,住吉-7,博多区住吉五丁目15番,住吉1号公園東側,33.582031,130.4149079,
福岡県,福岡市,住吉-8,博多区住吉五丁目29番,南住吉公園北側,33.581285,130.4128675,
福岡県,福岡市,美野島第一-1,博多区美野島一丁目23番,菅原神社南側,33.580012,130.4146192,
福岡県,福岡市,美野島第一-2,博多区美野島一丁目7番,小柳公園東側,33.5812085,130.4171671,
福岡県,福岡市,美野島第一-3,博多区美野島二丁目5番,ミスターマックスセレクト美野島店駐車場植込前,33.5790989,130.4189984,
福岡県,福岡市,美野島第一-4,博多区美野島一丁目26番,美野島1号緑地植込,33.5791736,130.4135841,
福岡県,福岡市,美野島第一-5,博多区美野島二丁目4番,美野島交差点植込,33.5796855,130.4195557,
福岡県,福岡市,美野島第一-6,博多区美野島二丁目5番31号,福岡カトリック教会美野島司牧センター北側塀,33.57936520000001,130.4187396,
福岡県,福岡市,美野島第一-7,博多区美野島二丁目32番,美野島警報局フェンス前,33.5775023,130.4148581,
福岡県,福岡市,美野島第二-1,博多区美野島三丁目2番,美野島公園西側,33.5779313,130.4212277,
福岡県,福岡市,美野島第二-2,博多区美野島三丁目12番,美野島陸橋下資材置場フェンス前,33.5766322,130.4198742,
福岡県,福岡市,美野島第二-3,博多区美野島三丁目22番7号,住吉小・中学校南側フェンス前,33.5766606,130.4174521,
福岡県,福岡市,美野島第二-4,博多区美野島三丁目22番44号,清幸ビル前塀,33.57719820000001,130.4170292,
福岡県,福岡市,美野島第二-5,博多区美野島三丁目2番,美野島公園北側,33.5779313,130.4212277,
福岡県,福岡市,美野島第二-6,博多区美野島四丁目1番,那珂川河川緑地,33.5759261,130.4229792,
福岡県,福岡市,美野島第二-7,博多区美野島四丁目5番,美野島南公園東側入口右,33.5728149,130.4262432,
福岡県,福岡市,東住吉-1,博多区博多駅南二丁目5番1号,東住吉中学校南側フェンス前,33.5844211,130.4233673,
福岡県,福岡市,東住吉-2,博多区博多駅前四丁目2番,ザイマックス博多駅前ビル前歩道植込,33.5867526,130.4179634,
福岡県,福岡市,東住吉-3,博多区博多駅前四丁目12番,人参公園北側植込(東住吉公民館向かい側),33.5860634,130.4186003,
福岡県,福岡市,東住吉-4,博多区博多駅前四丁目22番,県営東領住宅西側植込,33.584606,130.418925,
福岡県,福岡市,東住吉-5,博多区博多駅前四丁目37番,東領公園植込,33.580231,130.4205908,
福岡県,福岡市,東住吉-6,博多区博多駅南一丁目1番,音羽公園前植込,33.5867159,130.4212277,
福岡県,福岡市,東住吉-7,博多区博多駅南二丁目6番1号,東住吉小学校正門横,33.5839726,130.4231358,
福岡県,福岡市,東住吉-8,博多区博多駅南二丁目7番,東住吉公園南側,33.5829128,130.4234569,
福岡県,福岡市,東住吉-9,博多区博多駅前四丁目37番,東領公園フェンス前,33.580231,130.4205908,
福岡県,福岡市,春住-1,博多区山王一丁目9番,山王公園北側植込,33.5832852,130.4331242,
福岡県,福岡市,春住-2,博多区博多駅南三丁目11番,花野公園前,33.5812022,130.4263229,
福岡県,福岡市,春住-3,博多区博多駅南四丁目10番22号,小林町第2市営住宅フェンス前,33.5802044,130.4291413,
福岡県,福岡市,春住-4,博多区博多駅南四丁目21番,西鉄バス折り返し場前フェンス前,33.5781132,130.4304624,
福岡県,福岡市,春住-5,博多区博多駅南五丁目1番,駅南ポンプ場北側フェンス前,33.5801559,130.4260044,
福岡県,福岡市,春住-6,博多区山王一丁目9番,山王公園南側植込,33.5832852,130.4331242,
福岡県,福岡市,春住-7,博多区博多駅南五丁目5番,春住中公園フェンス前,33.5781928,130.4278354,
福岡県,福岡市,春住-8,博多区山王一丁目5番,山王ポンプ所フェンス前,33.5847664,130.4322534,
福岡県,福岡市,春住-9,博多区博多駅南三丁目18番,ホシザキ北九株式会社本社前歩道植込,33.57956679999999,130.4237753,
福岡県,福岡市,那珂第一-1,博多区那珂一丁目18番12号,那珂幼稚園東側フェンス前,33.5725628,130.4375922,
福岡県,福岡市,那珂第一-2,博多区東那珂一丁目14番,那珂大橋横フェンス前,33.574279,130.4398548,
福岡県,福岡市,那珂第一-3,博多区那珂一丁目44番,那珂八幡宮横植込,33.5708426,130.4355567,
福岡県,福岡市,那珂第一-4,博多区那珂三丁目10番1号,那珂小学校正門横,33.57013,130.439201,
福岡県,福岡市,那珂第一-5,博多区那珂三丁目10番1号,那珂小学校北側フェンス前,33.57013,130.439201,
福岡県,福岡市,那珂第一-6,博多区那珂三丁目19番1号,那珂市営住宅那珂第1有料駐車場フェンス西端,33.5698583,130.4416184,
福岡県,福岡市,那珂第一-7,博多区東那珂一丁目9番15号,博多市民プール正門横,33.5776704,130.4397201,
福岡県,福岡市,那珂第一-8,博多区東那珂三丁目5番,東那珂公園前,33.5748709,130.4443117,
福岡県,福岡市,那珂第二-1,博多区竹下二丁目1番,沖学園高校グラウンドネット前,33.5739299,130.4303032,
福岡県,福岡市,那珂第二-2,博多区竹下三丁目1番,アサヒビールビン置場建物東側植込,33.5724265,130.4318952,
福岡県,福岡市,那珂第二-3,博多区東光寺公園東側フェンス前,東光寺町一丁目7番,33.5751181,130.4352977,
福岡県,福岡市,那珂第二-4,博多区東光寺公民館前フェンス前,東光寺町一丁目14番15号,33.5752293,130.4329857,
福岡県,福岡市,那珂第二-5,博多区博多駅南五丁目30番,春住公園フェンス前,33.5779349,130.4234569,
福岡県,福岡市,那珂第二-6,博多区博多駅南六丁目3番,駅南六丁目公園前,33.5777843,130.4342832,
福岡県,福岡市,那珂第二-7,博多区半道橋一丁目14番,半道橋公園フェンス前,33.5793797,130.4384221,
福岡県,福岡市,那珂第二-8,博多区竹下二丁目1番,沖学園高校北側,33.5739299,130.4303032,
福岡県,福岡市,那珂第三-1,博多区竹下五丁目2番,宮園公園植込,33.5702543,130.4338852,
福岡県,福岡市,那珂第三-2,博多区竹下四丁目16番,竹下駅前広場歩道橋下植込,33.5691215,130.431736,
福岡県,福岡市,那珂第三-3,博多区竹下五丁目11番,那珂中央公園フェンス前,33.5689607,130.4358751,
福岡県,福岡市,那珂第三-4,博多区那珂二丁目18番1号,那珂中学校正門横,33.5678862,130.4378325,
福岡県,福岡市,那珂第三-5,博多区那珂二丁目18番1号,那珂中学校西側塀,33.5678862,130.4378325,
福岡県,福岡市,那珂第三-6,博多区那珂六丁目3番,清道公園前,33.5662261,130.4392976,
福岡県,福岡市,那珂第三-7,博多区那珂六丁目23番,ららぽーと福岡前歩道植込,33.5659603,130.4415709,
福岡県,福岡市,弥生-1,博多区板付三丁目6番,市営板付団地第1バス停横フェンス前,33.5670964,130.4478928,
福岡県,福岡市,弥生-2,博多区板付三丁目9番,市営板付団地第2バス停後フェンス前,33.5650065,130.4489274,
福岡県,福岡市,弥生-3,博多区那珂四丁目19番,ファミール那珂駐車場北側フェンス前,33.5688886,130.4435158,
福岡県,福岡市,弥生-4,博多区那珂四丁目9番1号,弥生小学校正門南側フェンス前,33.570195,130.4466892,
福岡県,福岡市,弥生-5,博多区那珂五丁目7番,那珂東公園フェンス前,33.566339,130.4447892,
福岡県,福岡市,弥生-6,博多区諸岡一丁目10番,諸岡2号公園東側フェンス前,33.565046,130.4473358,
福岡県,福岡市,弥生-7,博多区諸岡一丁目18番11号,弥生会館植込,33.5628962,130.4476604,
福岡県,福岡市,板付北-1,博多区板付一丁目4番,板付公園東側フェンス前,33.569676,130.4493849,
福岡県,福岡市,板付北-2,博多区板付二丁目12番,板付遺跡南側柵,33.5657646,130.4525878,
福岡県,福岡市,板付北-3,博多区板付二丁目2番20号,板付北小学校正門横,33.5672811,130.4503328,
福岡県,福岡市,板付北-4,博多区板付二丁目5番30号,博多区役所那珂倉庫フェンス前,33.5676316,130.4530056,
福岡県,福岡市,板付北-5,博多区板付五丁目15番,板付北公園フェンス前,33.5649733,130.454975,
福岡県,福岡市,板付北-6,博多区板付三丁目18番,県営板付団地第2バス停後柵,33.5650287,130.4498027,
福岡県,福岡市,板付北-7,博多区板付四丁目13番,市営板付南団地3棟北東側柵,33.5601589,130.4519512,
福岡県,福岡市,板付北-8,博多区板付四丁目12番,板付西公園フェンス前,33.5602279,130.4528614,
福岡県,福岡市,諸岡-1,博多区諸岡一丁目25番29号,諸岡町会館前,33.5618174,130.4492592,
福岡県,福岡市,諸岡-2,博多区諸岡二丁目12番,諸岡グラウンドフェンス前,33.5584433,130.4514738,
福岡県,福岡市,諸岡-3,博多区諸岡三丁目31番,月ヶ丘公園フェンス前,33.5593544,130.4454258,
福岡県,福岡市,諸岡-4,博多区諸岡三丁目29番,平原北公園植込,33.55956159999999,130.4441525,
福岡県,福岡市,諸岡-5,博多区諸岡三丁目14番,諸岡1号公園北側,33.5599409,130.4459829,
福岡県,福岡市,諸岡-6,博多区諸岡三丁目28番,諸岡5号公園植込,33.560565,130.4438341,
福岡県,福岡市,諸岡-7,博多区諸岡三丁目32番,諸岡1号緑地,33.5584554,130.4456646,
福岡県,福岡市,板付-1,博多区板付七丁目3番,板付南公園西側,33.5583643,130.4546567,
福岡県,福岡市,板付-2,博多区麦野一丁目1番5号,板付会館フェンス前,33.5547074,130.4550906,
福岡県,福岡市,板付-3,博多区麦野一丁目12番,那珂1号緑地前,33.5531589,130.4561685,
福岡県,福岡市,板付-4,博多区麦野一丁目18番,麦野1丁目公園入口横,33.5540706,130.4574814,
福岡県,福岡市,板付-5,博多区麦野二丁目3番1号,板付小学校西門横,33.5556162,130.4581878,
福岡県,福岡市,板付-6,博多区麦野二丁目3番1号,板付小学校東門横,33.5556162,130.4581878,
福岡県,福岡市,板付-7,博多区麦野四丁目5番1号,那珂5号緑地北側,33.5520321,130.457919,
福岡県,福岡市,板付-8,博多区板付七丁目8番,板付1号公園フェンス前,33.5560663,130.4564072,
福岡県,福岡市,麦野-1,博多区井相田二丁目1番20号,板付中学校裏門横,33.5548999,130.4629878,
福岡県,福岡市,麦野-2,博多区井相田三丁目18番37号,井相田町公民館植込,33.54987759999999,130.4696844,
福岡県,福岡市,麦野-3,博多区東雲町三丁目4番7号,東雲町公民館前,33.5466773,130.4682417,
福岡県,福岡市,麦野-4,博多区麦野四丁目40番,麦野南公園フェンス前,33.5479591,130.4615789,
福岡県,福岡市,麦野-5,博多区麦野五丁目9番,麦野北公園前,33.5510968,130.4619767,
福岡県,福岡市,麦野-6,博多区麦野五丁目17番11号,麦野水利組合集会所東側,33.5499067,130.4640275,
福岡県,福岡市,麦野-7,博多区麦野六丁目4番41号,麦野東公園前,33.5471145,130.4641861,
福岡県,福岡市,麦野-8,博多区麦野六丁目8番18号,日吉神社南側,33.5473146,130.4660873,
福岡県,福岡市,三筑北-1,博多区諸岡四丁目15番,池田公園東側植込,33.5569356,130.4502802,
福岡県,福岡市,三筑北-2,博多区諸岡五丁目4番17号,諸岡東公園フェンス前,33.5549349,130.4519533,
福岡県,福岡市,三筑北-3,博多区諸岡四丁目33番1号,住宅東側塀,33.5581304,130.4471613,
福岡県,福岡市,三筑北-4,博多区諸岡五丁目10番,諸岡池北側植込,33.5564927,130.447905,
福岡県,福岡市,三筑北-5,博多区諸岡五丁目13番11号,板付保育園フェンス前,33.5545841,130.4516719,
福岡県,福岡市,三筑北-6,博多区諸岡五丁目16番25号,市営諸岡住宅フェンス前,33.55360710000001,130.4500837,
福岡県,福岡市,三筑北-7,博多区諸岡五丁目24番,池ノ上公園前植込,33.5557199,130.4485295,
福岡県,福岡市,三筑南-1,博多区三筑一丁目10番,三筑中学校北側フェンス前,33.5512959,130.4551341,
福岡県,福岡市,三筑南-2,博多区三筑二丁目3番,三筑北公園フェンス前,33.5499157,130.4552933,
福岡県,福岡市,三筑南-3,博多区三筑二丁目19番,三筑南公園北側フェンス前,33.5494828,130.4594705,
福岡県,福岡市,三筑南-4,博多区南八幡公園入口植込,南八幡町一丁目3番,33.5458906,130.4562571,
福岡県,福岡市,三筑南-5,博多区中尾公園南端,南本町一丁目8番,33.546199,130.4593511,
福岡県,福岡市,三筑南-6,博多区諸岡南公園東側フェンス前,諸岡六丁目19番,33.5518004,130.4510243,
福岡県,福岡市,三筑南-7,博多区笹原会館前,諸岡六丁目24番18号,33.5504853,130.4516528,
福岡県,福岡市,三筑南-8,博多区諸岡中央公園フェンス前(三筑会館前),諸岡六丁目28番,33.549805,130.453199,
福岡県,福岡市,那珂南第一-1,博多区銀天町三丁目5番15号,フラワーボウル駐車場北側フェンス前,33.5454325,130.4642839,
福岡県,福岡市,那珂南第一-2,博多区寿町二丁目4番,寿町公園植込,33.5429805,130.461022,
福岡県,福岡市,那珂南第一-3,博多区昭南町二丁目2番,昭南町公園フェンス前,33.539155,130.4623745,
福岡県,福岡市,那珂南第一-4,博多区南本町二丁目3番1号,さざんぴあ博多前植込,33.5469129,130.4612606,
福岡県,福岡市,那珂南第一-5,博多区西春町一丁目8番,夫婦池南側フェンス前,33.5426961,130.466591,
福岡県,福岡市,那珂南第一-6,博多区竹丘町二丁目6番,竹丘公園フェンス前,33.5437295,130.4653579,
福岡県,福岡市,那珂南第一-7,博多区元町二丁目2番,元町公園前フェンス前,33.5413637,130.4633712,
福岡県,福岡市,那珂南第一-8,博多区元町三丁目1番1号,那珂南小学校東側塀,33.5405485,130.4653554,
福岡県,福岡市,西新第一-1,城南区早良区西新六丁目4番1号,西新小学校東側塀,33.586474,130.3549308,
福岡県,福岡市,西新第一-2,城南区早良区西新六丁目2番92号,西南学院大学西側塀北端,33.5845855,130.3536489,
福岡県,福岡市,西新第一-3,城南区早良区西新六丁目1番10号,修猷館高等学校南側塀西端,33.5838873,130.3563736,
福岡県,福岡市,西新第一-4,城南区早良区西新六丁目1番10号,修猷館高等学校南側塀東端,33.5838873,130.3563736,
福岡県,福岡市,西新第一-5,城南区早良区西新三丁目1番,西新駅北自転車駐車場フェンス,33.584193,130.3594932,
福岡県,福岡市,西新第一-6,城南区早良区西新二丁目4番43号,福岡銀行西新社宅B棟南東付近,33.5860205,130.3611519,
福岡県,福岡市,西新第一-7,城南区早良区西新二丁目23番,西新北1号緑地北側柵,33.5890284,130.3600511,
福岡県,福岡市,西新第一-8,城南区早良区西新六丁目6番,西新北緑地西側,33.5868377,130.3536749,
福岡県,福岡市,西新第二-1,城南区早良区西新四丁目3番,西新駅中央自転車駐車場南側フェンス,33.5831484,130.3602902,
福岡県,福岡市,西新第二-2,城南区早良区城西三丁目21番,下田公園西側フェンス,33.5815357,130.3597323,
福岡県,福岡市,西新第二-3,城南区早良区西新四丁目5番,西新駅南自転車駐車場南側フェンス,33.5826057,130.3609278,
福岡県,福岡市,西新第二-4,城南区早良区西新一丁目8番,西新公園入口横フェンス,33.5841776,130.3619639,
福岡県,福岡市,西新第二-5,城南区早良区城西二丁目2番,西新ゴルフセンター駐車場西側フェンス,33.5800808,130.3641953,
福岡県,福岡市,西新第二-6,城南区早良区城西二丁目10番,城西公園西側フェンス,33.5805802,130.3629202,
福岡県,福岡市,西新第二-7,城南区早良区曙一丁目3番,曙公園北側フェンス,33.576435,130.3622826,
福岡県,福岡市,西新第二-8,城南区早良区曙一丁目14番,アーベインルネス曙10号棟北側,33.5778095,130.3593338,
福岡県,福岡市,高取第一-1,城南区早良区昭代二丁目8番,高取小学校第2運動場北側ブロック塀,33.5761238,130.354472,
福岡県,福岡市,高取第一-2,城南区早良区昭代二丁目15番51号,高取小学校正門横フェンス,33.5765185,130.3532297,
福岡県,福岡市,高取第一-3,城南区早良区昭代一丁目7番,祖原公園西側入口横塀,33.5769674,130.3571819,
福岡県,福岡市,高取第一-4,城南区早良区祖原22番21号,小嶋レジデンス北側フェンス,33.5788488,130.3566165,
福岡県,福岡市,高取第一-5,城南区早良区昭代一丁目7番,祖原公園東側入口横塀,33.5769674,130.3571819,
福岡県,福岡市,高取第一-6,城南区早良区昭代二丁目10番5号,昭代デイサービス南側ガードレール,33.5747124,130.3546706,
福岡県,福岡市,高取第一-7,城南区早良区祖原15番,高取公園北側フェンス,33.5803153,130.3568631,
福岡県,福岡市,高取第一-8,城南区早良区昭代三丁目8番,ニューロード原ガソリンスタンド向側フェンス,33.5746683,130.3497691,
福岡県,福岡市,高取第二-1,城南区早良区西新五丁目15番,西新駅西自転車駐車場フェンス,33.5822363,130.3549502,
福岡県,福岡市,高取第二-2,城南区早良区高取一丁目7番,福岡財務支局高取宿舎西側フェンス,33.5805151,130.3527981,
福岡県,福岡市,高取第二-3,城南区早良区高取一丁目7番,福岡財務支局高取宿舎東側フェンス,33.5805151,130.3527981,
福岡県,福岡市,高取第二-4,城南区早良区高取一丁目22番,紅葉山公園東側フェンス,33.5778319,130.3510445,
福岡県,福岡市,高取第二-5,城南区早良区高取二丁目8番,立体交差ガードレール西側,33.5779758,130.3499286,
福岡県,福岡市,高取第二-6,城南区早良区高取二丁目18番,福岡市地下鉄藤崎駅4番出口南側植込,33.5814921,130.3499286,
福岡県,福岡市,高取第二-7,城南区早良区高取一丁目22番,紅葉山公園北側フェンス,33.5778319,130.3510445,
福岡県,福岡市,高取第二-8,城南区早良区高取一丁目7番,福岡財務支局高取宿舎北側フェンス,33.5805151,130.3527981,
福岡県,福岡市,百道浜-1,城南区早良区百道浜四丁目2番,クリスタージュ北側入口植込,33.5884962,130.3468197,
福岡県,福岡市,百道浜-2,城南区早良区百道浜四丁目24番,百道浜小学校南側校門入口植込,33.5919333,130.3488923,
福岡県,福岡市,百道浜-3,城南区早良区百道浜三丁目2番,博物館南口バス停近く植込,33.5885065,130.3512836,
福岡県,福岡市,百道浜-4,城南区早良区百道浜一丁目1番,西南学院大学百道浜グランド西側南端植込,33.5977985,130.3556924,
福岡県,福岡市,百道浜-5,城南区早良区百道浜一丁目4番,百道浜東公園南側,33.5908111,130.3548354,
福岡県,福岡市,百道浜-6,城南区早良区百道浜三丁目1番,福岡市博物館北側緑地歩道,33.5895154,130.3531967,
福岡県,福岡市,百道浜-7,城南区早良区百道浜四丁目2番,クリスタージュ2番館南側植込,33.5884962,130.3468197,
福岡県,福岡市,百道浜-8,城南区早良区百道浜三丁目2番,百道中央公園北通植込,33.5885065,130.3512836,
福岡県,福岡市,百道-1,城南区早良区百道三丁目1番1号,百道小学校正門横植込,33.58499,130.3475716,
福岡県,福岡市,百道-2,城南区早良区百道三丁目1番1号,百道小学校北側,33.58499,130.3475716,
福岡県,福岡市,百道-3,城南区早良区百道二丁目16番,百道西公園入口横,33.5833847,130.3449065,
福岡県,福岡市,百道-4,城南区早良区百道一丁目5番,百道南公園入口横,33.58285010000001,130.3488923,
福岡県,福岡市,百道-5,城南区早良区百道二丁目1番1号,早良区役所南西角,33.5818305,130.3484096,
福岡県,福岡市,百道-6,城南区早良区室見一丁目17番,室見公園東端柵,33.5825857,130.3433918,
福岡県,福岡市,百道-7,城南区早良区室見一丁目7番,室見公園西端柵,33.5812269,130.3398441,
福岡県,福岡市,百道-8,城南区早良区百道一丁目22番,百道公園南側フェンス,33.5859688,130.348972,
福岡県,福岡市,室見第一-1,城南区早良区弥生一丁目6番,弥生一丁目6番前金屑川フェンス,33.5785313,130.3453483,
福岡県,福岡市,室見第一-2,城南区早良区室見三丁目2番,金門橋横ガードレール,33.5763925,130.3444282,
福岡県,福岡市,室見第一-3,城南区早良区室見二丁目10番,金門公園東側フェンス,33.5779594,130.3432324,
福岡県,福岡市,室見第一-4,城南区早良区藤崎二丁目7番,藤崎1号公園南側フェンス,33.5753547,130.3480154,
福岡県,福岡市,室見第一-5,城南区早良区藤崎二丁目15番,藤崎ポンプ場北側フェンス,33.576398,130.3466603,
福岡県,福岡市,室見第一-6,城南区早良区弥生二丁目3番,弥生幼稚園南側川沿フェンス,33.5751824,130.3460225,
福岡県,福岡市,室見第一-7,城南区早良区室見二丁目1番,飛石橋南側ガードレール,33.580662,130.344189,
福岡県,福岡市,室見第一-8,城南区早良区室見三丁目3番,室見小学校南側フェンス,33.5748431,130.3442687,
福岡県,福岡市,室見第二-1,城南区早良区室見四丁目12番,室見庄浜公園北側フェンス,33.5759025,130.3410001,
福岡県,福岡市,室見第二-2,城南区早良区室見三丁目2番,室見庄浜東公園南側,33.5763925,130.3444282,
福岡県,福岡市,室見第二-3,城南区早良区室見五丁目11番,南庄六丁目交差点北西側ガード柵,33.5793672,130.3370138,
福岡県,福岡市,室見第二-4,城南区早良区室見五丁目7番,室見中公園フェンス,33.5791001,130.339007,
福岡県,福岡市,室見第二-5,城南区早良区室見五丁目14番,室見川河畔公園北側生垣沿,33.5800013,130.3373132,
福岡県,福岡市,室見第二-6,城南区早良区南庄二丁目14番,南庄二丁目西交差点北西側駐車場前植込,33.5770843,130.3385884,
福岡県,福岡市,原第一-1,城南区早良区原二丁目10番,舟底公園北側横フェンス,33.5701191,130.3469791,
福岡県,福岡市,原第一-2,城南区早良区原二丁目5番1号,原小学校正門横フェンス,33.56868370000001,130.3488675,
福岡県,福岡市,原第一-3,城南区早良区原二丁目5番1号,原小学校西側フェンス,33.56868370000001,130.3488675,
福岡県,福岡市,原第一-4,城南区早良区原一丁目36番,原中央中学校東側ガードレール,33.5707515,130.3487329,
福岡県,福岡市,原第一-5,城南区早良区原一丁目3番,ロイヤルアーク藤崎西向側フェンス,33.5729609,130.3491713,
福岡県,福岡市,原第一-6,城南区早良区原一丁目19番,原汐入公園西側フェンス,33.5723822,130.3479357,
福岡県,福岡市,原第一-7,城南区早良区原一丁目11番,ヒューマインドHaRa西側フェンス,33.5719699,130.3504865,
福岡県,福岡市,原第二-1,城南区早良区荒江三丁目16番,荒江公園西側入口横,33.5695441,130.3514431,
福岡県,福岡市,原第二-2,城南区早良区荒江三丁目1番,マルショク昭代店道路向いフェンス,33.57407,130.3533561,
福岡県,福岡市,原第二-3,城南区早良区荒江三丁目18番,クラシオン荒江前植込,33.569631,130.3527184,
福岡県,福岡市,原第二-4,城南区早良区荒江三丁目3番29号,福岡高等聴覚特別支援学校寄宿舎北側フェンス,33.570975,130.3529086,
福岡県,福岡市,原第二-5,城南区早良区荒江二丁目19番1号,福岡工業高等学校南側フェンス,33.5733967,130.3540934,
福岡県,福岡市,原第二-6,城南区早良区荒江三丁目2番,福岡高等聴覚特別支援学校西門横塀,33.5725207,130.3531967,
福岡県,福岡市,原第二-7,城南区早良区荒江二丁目19番1号,福岡工業高等学校北側フェンス,33.5733967,130.3540934,
福岡県,福岡市,原第二-8,城南区早良区荒江二丁目18番31号,荒江中公園南側,33.5710772,130.3548796,
福岡県,福岡市,大原-1,城南区早良区原三丁目3番1号,高取中学校北門横フェンス,33.5737847,130.3447969,
福岡県,福岡市,大原-2,城南区早良区原三丁目8番10号,大原小学校正門横フェンス,33.5700543,130.3446524,
福岡県,福岡市,大原-3,城南区早良区原三丁目3番1号,高取中学校東側フェンス,33.5737847,130.3447969,
福岡県,福岡市,大原-4,城南区早良区原四丁目9番,原5号公園南側フェンス,33.5678444,130.3415582,
福岡県,福岡市,大原-5,城南区早良区原四丁目11番,原9号公園西側,33.5688049,130.3406015,
福岡県,福岡市,大原-6,城南区早良区原四丁目24番,原北あすなろ公園南側フェンス,33.5684045,130.3395651,
福岡県,福岡市,大原-7,城南区早良区原四丁目1番,原四丁目1区自治会掲示板横ガードレール,33.5695231,130.3430729,
福岡県,福岡市,原団地-1,城南区早良区原団地83番,原団地83棟南側フェンス,33.5701195,130.3389273,
福岡県,福岡市,原団地-2,城南区早良区原団地82番,原団地82棟東側フェンス,33.5708333,130.3397245,
福岡県,福岡市,原団地-3,城南区早良区原団地30番,原団地30棟南西角,33.5719896,130.3416379,
福岡県,福岡市,原団地-4,城南区早良区原団地26番,原団地26棟東側駐輪場前,33.5735012,130.3433918,
福岡県,福岡市,原団地-5,城南区早良区原団地12番,原団地12棟西側公園前,33.5724222,130.3435768,
福岡県,福岡市,原団地-6,城南区早良区原団地10番,原団地集会所横フェンス,33.5706939,130.3425149,
福岡県,福岡市,原団地-7,城南区早良区原団地72番,原団地72棟東側,33.5706083,130.3417974,
福岡県,福岡市,原北-1,城南区早良区南庄三丁目7番,南庄公園入口,33.5708884,130.3367746,
福岡県,福岡市,原北-2,城南区早良区南庄三丁目5番,金屑川公園西側フェンス,33.5718344,130.3382895,
福岡県,福岡市,原北-3,城南区早良区南庄一丁目19番,南庄東公園北西側,33.5736421,130.3411596,
福岡県,福岡市,原北-4,城南区早良区南庄二丁目7番,南庄中公園西側フェンス,33.5749769,130.3392462,
福岡県,福岡市,原北-5,城南区早良区南庄六丁目13番,原北公園入口,33.5764134,130.3361368,
福岡県,福岡市,原北-6,城南区早良区南庄三丁目26番,大原公園フェンス,33.5733129,130.3352597,
福岡県,福岡市,原北-7,城南区早良区南庄四丁目5番,原北小学校正門横,33.5747333,130.3340637,
福岡県,福岡市,原北-8,城南区早良区南庄六丁目24番,サニー室見店東側向ガードレール,33.5756967,130.3342232,
福岡県,福岡市,室見団地-1,城南区早良区南庄四丁目13番,室見団地2棟前柵,33.5748958,130.3321501,
福岡県,福岡市,室見団地-2,城南区早良区南庄五丁目3番,室見団地集会所正面入口向側,33.5760275,130.3326285,
福岡県,福岡市,室見団地-3,城南区早良区南庄五丁目4番,室見西公園東側,33.57724040000001,130.3321501,
福岡県,福岡市,室見団地-4,城南区早良区南庄五丁目4番,室見団地西口バス停前,33.57724040000001,130.3321501,
福岡県,福岡市,室見団地-5,城南区早良区南庄四丁目13番,室見南公園入口,33.5748958,130.3321501,
福岡県,福岡市,室見団地-6,城南区早良区南庄四丁目13番,室見団地11棟北西側,33.5748958,130.3321501,
福岡県,福岡市,室見団地-7,城南区早良区南庄四丁目13番,室見団地9棟東側柵,33.5748958,130.3321501,
福岡県,福岡市,小田部-1,城南区早良区小田部七丁目11番1号,原北中学校西側フェンス,33.5718908,130.331871,
福岡県,福岡市,小田部-2,城南区早良区小田部六丁目4番1号,小田部小学校正門横塀,33.572938,130.3285967,
福岡県,福岡市,小田部-3,城南区早良区小田部五丁目11番,小田部中央公園南東角,33.569366,130.3311135,
福岡県,福岡市,小田部-4,城南区早良区小田部七丁目11番1号,原北中学校北側フェンス,33.5718908,130.331871,
福岡県,福岡市,小田部-5,城南区早良区小田部一丁目24番,将軍神社南側,33.5697537,130.33518,
福岡県,福岡市,小田部-6,城南区早良区小田部六丁目17番,室見河畔公園沿い,33.5719146,130.3276799,
福岡県,福岡市,小田部-7,城南区早良区小田部一丁目7番,小田部東公園西側フェンス,33.5685234,130.3370138,
福岡県,福岡市,小田部-8,城南区早良区小田部五丁目11番,小田部西公園南側,33.569366,130.3311135,
福岡県,福岡市,有住-1,城南区早良区有田七丁目17番1号,有住小学校東門横フェンス,33.5614902,130.3312381,
福岡県,福岡市,有住-2,城南区早良区室住団地7番,室住団地7棟南側,33.5624529,130.3296782,
福岡県,福岡市,有住-3,城南区早良区室住団地28番,室住団地28棟東側,33.5649414,130.3285619,
福岡県,福岡市,有住-4,城南区早良区室住団地32番,室住団地児童公園前,33.564667,130.3277644,
福岡県,福岡市,有住-5,城南区早良区室住団地4番1号,有住公民館西側,33.5621486,130.3282451,
福岡県,福岡市,有住-6,城南区早良区室住団地64番,室住団地64棟南側入口,33.5599316,130.3265683,
福岡県,福岡市,有住-7,城南区早良区有田七丁目17番1号,有住小学校裏門横,33.5614902,130.3312381,
福岡県,福岡市,有田第一-1,城南区早良区次郎丸一丁目21番,次郎丸公園入口横フェンス,33.5533766,130.3335853,
福岡県,福岡市,有田第一-2,城南区早良区次郎丸一丁目1番,ビレッジ城月南側水路ガード柵,33.5550481,130.3323096,
福岡県,福岡市,有田第一-3,城南区早良区次郎丸二丁目22番,冷尻公園北側入口横フェンス,33.555497,130.3281632,
福岡県,福岡市,有田第一-4,城南区早良区有田六丁目13番,有田小学校東側水路ガードレール,33.5572186,130.329758,
福岡県,福岡市,有田第一-5,城南区早良区有田団地10番,有田団地10棟横フェンス,33.5573075,130.3315919,
福岡県,福岡市,有田第一-6,城南区早良区有田八丁目17番1号,有田小学校正門横フェンス,33.5577555,130.3291319,
福岡県,福岡市,有田第一-7,城南区早良区有田三丁目12番,有田公園入口横フェンス,33.5571874,130.3335853,
福岡県,福岡市,有田第二-1,城南区早良区次郎丸六丁目3番,次郎丸中学校東側フェンス,33.5501989,130.3353394,
福岡県,福岡市,有田第二-2,城南区早良区次郎丸三丁目22番,内野・次郎丸・弥生線道路転落防止柵,33.581816,130.357588,
福岡県,福岡市,有田第二-3,城南区早良区次郎丸五丁目8番,次郎丸東の前公園入口橫柵,33.5503578,130.3323096,
福岡県,福岡市,有田第二-4,城南区早良区次郎丸六丁目3番,次郎丸中学校裏門フェンス,33.5501989,130.3353394,
福岡県,福岡市,有田第二-5,城南区早良区次郎丸四丁目4番,田隈幼稚園北東水路フェンス,33.5498023,130.3284821,
福岡県,福岡市,有田第二-6,城南区早良区次郎丸三丁目4番,外環室見橋東交差点南側水路ガードレール,33.581816,130.357588,
福岡県,福岡市,有田第二-7,城南区早良区次郎丸四丁目3番,ピエトロ前フェンス,33.5495698,130.3277644,
福岡県,福岡市,賀茂-1,城南区早良区賀茂一丁目31番1号,賀茂小学校正門横フェンス,33.5524147,130.3406115,
福岡県,福岡市,賀茂-2,城南区早良区賀茂一丁目34番,賀茂小北交差点西側歩道フェンス,33.5532502,130.3408407,
福岡県,福岡市,賀茂-3,城南区早良区賀茂一丁目32番9号,賀茂小学校西側フェンス,33.5516124,130.3409648,
福岡県,福岡市,賀茂-4,城南区早良区賀茂三丁目23番8号,賀茂中央公園東側フェンス,33.5494602,130.3375328,
福岡県,福岡市,賀茂-5,城南区早良区賀茂一丁目50番,川久保橋東側フェンス,33.5541574,130.3433918,
福岡県,福岡市,賀茂-6,城南区早良区賀茂三丁目15番,金屑川沿いガードレール,33.5478834,130.3384489,
福岡県,福岡市,賀茂-7,城南区早良区賀茂二丁目20番23号,市営賀茂南住宅入口横,33.5495246,130.3432803,
福岡県,福岡市,賀茂-8,城南区早良区賀茂四丁目42番,水町公園東側フェンス,33.5522166,130.3380503,
福岡県,福岡市,原西第一-1,城南区早良区原五丁目19番,原3号公園入口,33.5658508,130.3397245,
福岡県,福岡市,原西第一-2,城南区早良区原五丁目16番10号,原西小学校東側塀,33.5646093,130.3390878,
福岡県,福岡市,原西第一-3,城南区早良区有田四丁目2番,有田旭町市営住宅西入口,33.5595883,130.3386881,
福岡県,福岡市,原西第一-4,城南区早良区有田五丁目5番16号,樋口産業株式会社駐車場フェンス,33.5582965,130.3354938,
福岡県,福岡市,原西第一-5,城南区早良区有田五丁目21番,有田平田公園東側フェンス,33.5567493,130.3341435,
福岡県,福岡市,原西第一-6,城南区早良区有田五丁目14番,有田1号公園フェンス,33.5558168,130.3376516,
福岡県,福岡市,原西第一-7,城南区早良区原八丁目17番,原南公園入口フェンス,33.5594259,130.3406015,
福岡県,福岡市,原西第一-8,城南区早良区原八丁目13番25号,原西公園入口ロフェンス,33.5610881,130.3396268,
福岡県,福岡市,原西第二-1,城南区早良区小田部二丁目13番,小田部南公園北西角,33.5672406,130.3348611,
福岡県,福岡市,原西第二-2,城南区早良区有田一丁目18番,市営新有田団地内公園フェンス,33.565234,130.336057,
福岡県,福岡市,原西第二-3,城南区早良区有田一丁目13番,有田東公園北西角,33.5641675,130.3365354,
福岡県,福岡市,原西第二-4,城南区早良区小田部四丁目14番,室見川緑地東側柵,33.5661311,130.3272062,
福岡県,福岡市,原西第二-5,城南区早良区有田一丁目40番,有田西公園東側柵,33.5634663,130.3327082,
福岡県,福岡市,原西第二-6,城南区早良区小田部三丁目32番,西福岡中学校正門横フェンス,33.5646808,130.332788,
福岡県,福岡市,原西第二-7,城南区早良区小田部三丁目11番6号,宝満宮東側フェンス,33.5678919,130.3317913,
福岡県,福岡市,飯原第一-1,城南区早良区原六丁目18番,原7号公園南側柵,33.5645451,130.344747,
福岡県,福岡市,飯原第一-2,城南区早良区原六丁目17番21号,正聞寺西側塀,33.5647236,130.3435334,
福岡県,福岡市,飯原第一-3,城南区早良区原六丁目20番,原本町児童広場西側フェンス,33.5660917,130.3437904,
福岡県,福岡市,飯原第一-4,城南区早良区原七丁目11番,飯原中央公園東側フェンス,33.5611093,130.3437904,
福岡県,福岡市,飯原第一-5,城南区早良区原七丁目3番,飯原公民館南側ブロック塀,33.5617854,130.346182,
福岡県,福岡市,飯原第一-6,城南区早良区原七丁目14番,トニーコート弐番館南側ガードレール,33.5627372,130.3418771,
福岡県,福岡市,飯原第一-7,城南区早良区原六丁目3番,原4号公園フェンス,33.5663035,130.344747,
福岡県,福岡市,飯原第二-1,城南区早良区飯倉四丁目34番58号,原中学校西門西側フェンス,33.5624586,130.3474574,
福岡県,福岡市,飯原第二-2,城南区早良区飯倉四丁目11番,飯倉四丁目交差点南側水路ガードレール,33.5636626,130.3516822,
福岡県,福岡市,飯原第二-3,城南区早良区飯倉四丁目19番,飯倉幼稚園向側水路ガードレール,33.5623424,130.3511242,
福岡県,福岡市,飯原第二-4,城南区早良区飯倉四丁目34番58号,原中学校東側塀,33.5624586,130.3474574,
福岡県,福岡市,飯原第二-5,城南区早良区飯倉四丁目16番,飯倉西公園南側水路ガードレール,33.5610019,130.3508054,
福岡県,福岡市,飯原第二-6,城南区早良区飯倉八丁目15番,飯原公園東側フェンス,33.55919550000001,130.3484937,
福岡県,福岡市,飯原第二-7,城南区早良区飯倉八丁目3番,稲塚橋南方ガードレール,33.5602271,130.3467001,
福岡県,福岡市,飯倉中央-1,城南区早良区飯倉三丁目31番,石橋商会駐車場北側フェンス,33.5636231,130.3484566,
福岡県,福岡市,飯倉中央-2,城南区早良区飯倉二丁目21番,旧飯倉中央公民館東側フェンス,33.5663892,130.3537945,
福岡県,福岡市,飯倉中央-3,城南区早良区飯倉三丁目45番,原東公園入口横,33.5649687,130.3466603,
福岡県,福岡市,飯倉中央-4,城南区早良区飯倉三丁目6番35号,飯倉中央小学校正門北側水路ガードレール,33.5660336,130.3510605,
福岡県,福岡市,飯倉中央-5,城南区早良区飯倉二丁目22番,飯倉公園入口横,33.5664074,130.3527184,
福岡県,福岡市,飯倉中央-6,城南区早良区飯倉三丁目6番35号,飯倉中央小学校東門フェンス,33.5660336,130.3510605,
福岡県,福岡市,飯倉中央-7,城南区早良区飯倉三丁目20番,原公民館前歩道橋南側付近水路ガードレール,33.56736240000001,130.34953,
福岡県,福岡市,飯倉-1,城南区早良区飯倉七丁目11番,鎧田児童公園フェンス,33.5592434,130.3508054,
福岡県,福岡市,飯倉-2,城南区早良区飯倉五丁目15番,飯倉中公園南側,33.5626033,130.3549502,
福岡県,福岡市,飯倉-3,城南区早良区飯倉六丁目15番,丸尾池公園北側フェンス,33.55837270000001,130.3541531,
福岡県,福岡市,飯倉-4,城南区早良区飯倉六丁目12番,唐木団地子供広場フェンス,33.5572411,130.3536749,
福岡県,福岡市,飯倉-5,城南区早良区飯倉七丁目14番10号,個人宅東側側溝ガードレール,33.558798,130.3505862,
福岡県,福岡市,飯倉-6,城南区早良区飯倉七丁目30番9号,飯倉小学校正門横フェンス,33.5574338,130.3495521,
福岡県,福岡市,飯倉-7,城南区早良区飯倉六丁目1番,NTTドコモ飯倉基地局フェンス,33.5606808,130.3563052,
福岡県,福岡市,干隈-1,城南区早良区干隈三丁目3番,干隈1号緑地東側,33.5548964,130.3496496,
福岡県,福岡市,干隈-2,城南区早良区干隈三丁目15番,西干隈公園フェンス,33.5541694,130.347856,
福岡県,福岡市,干隈-3,城南区早良区干隈五丁目27番,干隈2号公園入口横フェンス,33.5537512,130.3441492,
福岡県,福岡市,干隈-4,城南区早良区干隈五丁目21番,竹の花1区公園フェンス,33.5522146,130.3449862,
福岡県,福岡市,干隈-5,城南区早良区野芥二丁目1番,裕生堂薬局干隈店北側フェンス,33.546625,130.3452254,
福岡県,福岡市,干隈-6,城南区早良区干隈四丁目8番,飯倉小学校西側川向こうガードレール,33.5563401,130.3493307,
福岡県,福岡市,干隈-7,城南区早良区干隈六丁目7番,宮井手公園フェンス,33.5505244,130.3470589,
福岡県,福岡市,星の原-1,城南区早良区星の原団地8番,星の原団地8棟西側,33.5567637,130.3472183,
福岡県,福岡市,星の原-2,城南区早良区星の原団地10番,星の原団地10棟西側公園,33.5572222,130.3464211,
福岡県,福岡市,星の原-3,城南区早良区星の原団地35番,星の原団地35棟東側,33.557553,130.3448268,
福岡県,福岡市,星の原-4,城南区早良区星の原団地24番,星の原団地24棟前,33.5564617,130.3438701,
福岡県,福岡市,星の原-5,城南区早良区星の原団地28番,星の原団地28棟東側,33.5570145,130.3431128,
福岡県,福岡市,星の原-6,城南区早良区星の原団地45番,星の原団地45棟西側,33.5584699,130.3432324,
福岡県,福岡市,星の原-7,城南区早良区星の原団地59番,星の原団地59棟東側,33.559876,130.3445079,
福岡県,福岡市,田隈-1,城南区早良区野芥一丁目7番,JA福岡市田隈支店前,33.5460855,130.3469791,
福岡県,福岡市,田隈-2,城南区早良区野芥二丁目26番,田隈人権まちづくり館正面塀,33.5478148,130.3438701,
福岡県,福岡市,田隈-3,城南区早良区野芥三丁目11番,野芥4号公園西側入口横,33.5429359,130.3437904,
福岡県,福岡市,田隈-4,城南区早良区田隈一丁目37番,内林公園東側フェンス,33.5460606,130.3380503,
福岡県,福岡市,田隈-5,城南区早良区田隈二丁目7番1号,田隈小学校正門横フェンス,33.5442949,130.3393558,
福岡県,福岡市,田隈-6,城南区早良区田隈三丁目58番,田隈公園南側,33.5421693,130.339286,
福岡県,福岡市,田隈-7,城南区早良区田隈一丁目34番,田隈北公園南側フェンス,33.5460232,130.3396448,
福岡県,福岡市,田隈-8,城南区早良区野芥二丁目36番,野芥5号公園入口横フェンス,33.5443603,130.3439897,
福岡県,福岡市,田村-1,城南区早良区田村一丁目5番,有料老人ホーム穂々笑 東側フェンス,33.5437265,130.3275252,
福岡県,福岡市,田村-2,城南区早良区次郎丸三丁目30番,市営次郎丸団地東側入口横,33.581816,130.357588,
福岡県,福岡市,田村-3,城南区早良区田村三丁目2番,田村三丁目バス停横ガードレール,33.54037,130.3256114,
福岡県,福岡市,田村-4,城南区早良区田村三丁目33番,田村小学校西側ガードレール,33.5421569,130.3296184,
福岡県,福岡市,田村-5,城南区早良区田村三丁目32番1号,田村小学校正門橫,33.5418018,130.3299523,
福岡県,福岡市,田村-6,城南区早良区田村四丁目25番,田隈中学校西側,33.5414041,130.3353394,
福岡県,福岡市,田村-7,城南区早良区田村七丁目15番,コスモ石油前フェンス,33.5353534,130.325412,
福岡県,福岡市,田村-8,城南区早良区田村二丁目9番,田村二丁目9番東側水路ガードレール,33.5439858,130.3302364,
福岡県,福岡市,田村-9,城南区早良区田村三丁目13番,田村中公園北東側,33.5401644,130.3268873,
福岡県,福岡市,野芥第一-1,城南区早良区野芥三丁目30番,さかえ屋野芥店南側水路ガードレール,33.5392934,130.3441093,
福岡県,福岡市,野芥第一-2,城南区早良区野芥八丁目42番,西の坪公園入口フェンス,33.5351308,130.3384489,
福岡県,福岡市,野芥第一-3,城南区早良区田隈三丁目22番3号,唐の沖公園入口フェンス,33.5410512,130.3411565,
福岡県,福岡市,野芥第一-4,城南区早良区野芥七丁目24番,ビレッジハウス野芥 入口横フェンス,33.5391761,130.3397245,
福岡県,福岡市,野芥第一-5,城南区早良区野芥八丁目14番,餅田3号公園西側,33.53782,130.3378509,
福岡県,福岡市,野芥第一-6,城南区早良区田隈三丁目18番,西脇南公園北側フェンス,33.5414654,130.3421163,
福岡県,福岡市,野芥第二-1,城南区早良区梅林六丁目30番,油山川東側道路ガードレール,33.5405237,130.3497691,
福岡県,福岡市,野芥第二-2,城南区早良区野芥四丁目24番,櫛田神社入口横,33.5405596,130.3476169,
福岡県,福岡市,野芥第二-3,城南区早良区野芥四丁目45番,サイクルショップ友向側水路フェンス,33.5395055,130.3450659,
福岡県,福岡市,野芥第二-4,城南区早良区野芥四丁目19番,サワラスイミングスクール横ガードレール,33.540031,130.3457834,
福岡県,福岡市,野芥第二-5,城南区早良区梅林六丁目18番,梅林七夕公園北側,33.5419939,130.3514431,
福岡県,福岡市,野芥第二-6,城南区早良区梅林七丁目3番,梅林七丁目3番南端ガードレール,33.5419391,130.3543923,
福岡県,福岡市,野芥第二-7,城南区早良区梅林七丁目20番,梅林1号公園入口横フェンス,33.5356759,130.3533561,
福岡県,福岡市,野芥第二-8,城南区早良区野芥三丁目25番28号,市営西脇団地南側フェンス,33.540853,130.3438147,
福岡県,福岡市,野芥第三-1,城南区早良区野芥六丁目4番,野芥3号公園西側フェンス,33.5361934,130.3437904,
福岡県,福岡市,野芥第三-2,城南区早良区野芥六丁目51番,野芥六丁目バス停横ガードレール,33.5358319,130.3492111,
福岡県,福岡市,野芥第三-3,城南区早良区野芥六丁目35番,前田池西側ガードレール,33.5366005,130.3470589,
福岡県,福岡市,野芥第三-4,城南区早良区野芥五丁目6番,油山病院前ガードレール,33.5387196,130.3485734,
福岡県,福岡市,野芥第三-5,城南区早良区野芥五丁目31番,西油山ハイツ西側沼地フェンス,33.5380569,130.3512039,
福岡県,福岡市,野芥第三-6,城南区早良区野芥六丁目55番,西油山南公園北端フェンス,33.5348105,130.3508851,
福岡県,福岡市,野芥第三-7,城南区早良区野芥六丁目34番,野芥岩隈台公園入口横,33.5358255,130.3469791,
福岡県,福岡市,四箇田-1,城南区早良区四箇二丁目7番,金武中学校前バス停横,33.5292646,130.3240165,
福岡県,福岡市,四箇田-2,城南区早良区四箇六丁目13番,四箇中央公園西側,33.5310448,130.3307148,
福岡県,福岡市,四箇田-3,城南区早良区四箇二丁目18番,高橋橋西側付近ガード柵,33.5297842,130.329439,
福岡県,福岡市,四箇田-4,城南区早良区四箇六丁目17番6号,早良体育館北側駐車場横フェンス,33.5315858,130.3293397,
福岡県,福岡市,四箇田-5,城南区早良区四箇田団地14番,四箇田団地集会所横公園,33.5339971,130.3304756,
福岡県,福岡市,四箇田-6,城南区早良区四箇田団地40番,四箇田団地40棟西側,33.53568,130.3332287,
福岡県,福岡市,四箇田-7,城南区早良区四箇田団地55番,四箇田団地55棟西側,33.5333534,130.3323096,
福岡県,福岡市,四箇田-8,城南区早良区四箇田団地,四箇田団地32棟西側公園,33.5345228,130.3311933,
福岡県,福岡市,入部-1,城南区早良区重留二丁目14番,重留新町交差点南東側ガードレール,33.5334674,130.3425149,
福岡県,福岡市,入部-2,城南区早良区重留四丁目5番,宝満神社南側,33.5291878,130.3399637,
福岡県,福岡市,入部-3,城南区早良区重留六丁目4番,キッズガレージ南側付近ガード柵,33.5312604,130.3397245,
福岡県,福岡市,入部-4,城南区早良区東入部三丁目7番,三郎丸上りバス停南側ガードレール,33.5238157,130.3364557,
福岡県,福岡市,入部-5,城南区早良区東入部二丁目21番15号,入部小学校正門横,33.5218498,130.3379918,
福岡県,福岡市,入部-6,城南区早良区東入部二丁目14番8号,入部出張所入口,33.5188077,130.3360021,
福岡県,福岡市,入部-7,城南区早良区重留三丁目18番,重留北公園東側,33.5329952,130.3457834,
福岡県,福岡市,入部-8,城南区早良区東入部七丁目1番,早良消防署東入部出張所北側ガードレール,33.5155377,130.3349408,
福岡県,福岡市,入部-9,城南区早良区東入部一丁目19番,古田池フェンス,33.5219069,130.3410946,
福岡県,福岡市,入部-10,城南区早良区東入部八丁目32番,ーッ家バス停側ガードレール,33.5040532,130.3411775,
福岡県,福岡市,早良-1,城南区早良区早良一丁目16番,内野バス停付近ガードレール,33.5017984,130.3355786,
福岡県,福岡市,早良-2,城南区早良区早良七丁目1番33号,日高歯科医院東側フェンス,33.4967414,130.3354332,
福岡県,福岡市,早良-3,城南区早良区早良四丁目6番,長峰集会所東側川沿いガードレール,33.5084008,130.3303161,
福岡県,福岡市,早良-4,城南区早良区早良五丁目8番,早良北公園入口植込,33.503844,130.3333461,
福岡県,福岡市,早良-5,城南区早良区早良六丁目14番,早良東公園南東側,33.5013969,130.3345421,
福岡県,福岡市,早良-6,城南区早良区早良一丁目5番,早良公民館前バス停 (下り) 横ガードレール,33.507145,130.3370935,
福岡県,福岡市,早良-7,城南区早良区早良一丁目8番1号,早良小学校正門横フェンス,33.5527689,130.3617345,
福岡県,福岡市,脇山-1,城南区早良区脇山二丁目11番1号,谷人権のまちづくり館フェンス,33.4982683,130.3492712,
福岡県,福岡市,脇山-2,城南区早良区脇山二丁目1番,宮原公園入口,33.4992995,130.3466603,
福岡県,福岡市,脇山-3,城南区早良区脇山一丁目20番,城の原バス停西側ガードレール,33.4969747,130.3533561,
福岡県,福岡市,脇山-4,城南区早良区大字脇山2558番地,脇山小学校正門横植込,33.4894029,130.3527668,
福岡県,福岡市,脇山-5,城南区早良区大字脇山1742番地,脇山小前バス停南側付近ガード柵,33.4884116,130.3536514,
福岡県,福岡市,脇山-6,城南区早良区大字脇山2307番地,谷口公民館西側ガードレール,33.4829471,130.3491514,
福岡県,福岡市,脇山-7,城南区早良区大字椎原1184番地1,椎原公園入口,33.4711795,130.3501021,
福岡県,福岡市,脇山-8,城南区早良区大字脇山303番地5,野田公民館前,33.4924156,130.3623424,
福岡県,福岡市,脇山-9,城南区早良区大字板屋353番地,板屋活性化施設フェンス,33.4387278,130.3873203,
福岡県,福岡市,脇山-10,城南区早良区大字小笠木555番地,志水公民館西側塀,33.4881682,130.3704414,
福岡県,福岡市,内野-1,城南区早良区内野三丁目4番1号,市営内野第2旭ヶ丘住宅1棟北側フェンス,33.5022078,130.3403015,
福岡県,福岡市,内野-2,城南区早良区内野二丁目1番,内野公園フェンス,33.5006051,130.3358178,
福岡県,福岡市,内野-3,城南区早良区内野七丁目3番,馬立山公園南側,33.4964431,130.3443086,
福岡県,福岡市,内野-4,城南区早良区内野二丁目18番,内野南公園東側歩道フェンス,33.4974743,130.3393259,
福岡県,福岡市,内野-5,城南区早良区内野八丁目15番1号,内野小学校正門前,33.4933553,130.3374003,
福岡県,福岡市,内野-6,城南区早良区大字西1251番地2,西中山公園入口,33.4762037,130.3318311,
福岡県,福岡市,内野-7,城南区早良区大字西1980番地3,古賀バス停付近川沿い,33.5527689,130.3617345,
福岡県,福岡市,内野-8,城南区早良区内野三丁目21番,内野中央公園入口,33.5007076,130.3415582,
福岡県,福岡市,内野-9,城南区早良区大字西1796番地1,八丁川滝見橋東側付近ガードレール,33.4762037,130.3318311,
福岡県,福岡市,石釜-1,城南区早良区大字曲渕744番地,八丁橋前,33.4881619,130.3012044,
福岡県,福岡市,石釜-2,城南区早良区大字曲渕713番地1,曲渕小学校正門横フェンス,33.4979053,130.2983451,
福岡県,福岡市,石釜-3,城南区早良区大字曲渕861番地1,納骨堂入口右側,33.4881619,130.3012044,
福岡県,福岡市,石釜-4,城南区早良区大字石釜1214番地1,上石釜パス停横歩道フェンス,33.4932956,130.3125035,
福岡県,福岡市,石釜-5,城南区早良区大字石釜764番地,内野分団石釜格納庫付近ガードレール,33.4917881,130.3223649,
福岡県,福岡市,石釜-6,城南区早良区大字石釜2250番地,多々良瀬バス停向かいガードレール,33.4761383,130.3139675,
福岡県,福岡市,西新第一-1,早良区西新六丁目4番1号,西新小学校東側塀,33.586474,130.3549308,
福岡県,福岡市,西新第一-2,早良区西新六丁目2番92号,西南学院大学西側塀北端,33.5845855,130.3536489,
福岡県,福岡市,西新第一-3,早良区西新六丁目1番10号,修猷館高等学校南側塀西端,33.5838873,130.3563736,
福岡県,福岡市,西新第一-4,早良区西新六丁目1番10号,修猷館高等学校南側塀東端,33.5838873,130.3563736,
福岡県,福岡市,西新第一-5,早良区西新三丁目1番,西新駅北自転車駐車場フェンス,33.584193,130.3594932,
福岡県,福岡市,西新第一-6,早良区西新二丁目4番43号,福岡銀行西新社宅B棟南東付近,33.5860205,130.3611519,
福岡県,福岡市,西新第一-7,早良区西新二丁目23番,西新北1号緑地北側柵,33.5890284,130.3600511,
福岡県,福岡市,西新第一-8,早良区西新六丁目6番,西新北緑地西側,33.5868377,130.3536749,
福岡県,福岡市,西新第二-1,早良区西新四丁目3番,西新駅中央自転車駐車場南側フェンス,33.5831484,130.3602902,
福岡県,福岡市,西新第二-2,早良区城西三丁目21番,下田公園西側フェンス,33.5815357,130.3597323,
福岡県,福岡市,西新第二-3,早良区西新四丁目5番,西新駅南自転車駐車場南側フェンス,33.5826057,130.3609278,
福岡県,福岡市,西新第二-4,早良区西新一丁目8番,西新公園入口横フェンス,33.5841776,130.3619639,
福岡県,福岡市,西新第二-5,早良区城西二丁目2番,西新ゴルフセンター駐車場西側フェンス,33.5800808,130.3641953,
福岡県,福岡市,西新第二-6,早良区城西二丁目10番,城西公園西側フェンス,33.5805802,130.3629202,
福岡県,福岡市,西新第二-7,早良区曙一丁目3番,曙公園北側フェンス,33.576435,130.3622826,
福岡県,福岡市,西新第二-8,早良区曙一丁目14番,アーベインルネス曙10号棟北側,33.5778095,130.3593338,
福岡県,福岡市,高取第一-1,早良区昭代二丁目8番,高取小学校第2運動場北側ブロック塀,33.5761238,130.354472,
福岡県,福岡市,高取第一-2,早良区昭代二丁目15番51号,高取小学校正門横フェンス,33.5765185,130.3532297,
福岡県,福岡市,高取第一-3,早良区昭代一丁目7番,祖原公園西側入口横塀,33.5769674,130.3571819,
福岡県,福岡市,高取第一-4,早良区祖原22番21号,小嶋レジデンス北側フェンス,33.5788488,130.3566165,
福岡県,福岡市,高取第一-5,早良区昭代一丁目7番,祖原公園東側入口横塀,33.5769674,130.3571819,
福岡県,福岡市,高取第一-6,早良区昭代二丁目10番5号,昭代デイサービス南側ガードレール,33.5747124,130.3546706,
福岡県,福岡市,高取第一-7,早良区祖原15番,高取公園北側フェンス,33.5803153,130.3568631,
福岡県,福岡市,高取第一-8,早良区昭代三丁目8番,ニューロード原ガソリンスタンド向側フェンス,33.5746683,130.3497691,
福岡県,福岡市,高取第二-1,早良区西新五丁目15番,西新駅西自転車駐車場フェンス,33.5822363,130.3549502,
福岡県,福岡市,高取第二-2,早良区高取一丁目7番,福岡財務支局高取宿舎西側フェンス,33.5805151,130.3527981,
福岡県,福岡市,高取第二-3,早良区高取一丁目7番,福岡財務支局高取宿舎東側フェンス,33.5805151,130.3527981,
福岡県,福岡市,高取第二-4,早良区高取一丁目22番,紅葉山公園東側フェンス,33.5778319,130.3510445,
福岡県,福岡市,高取第二-5,早良区高取二丁目8番,立体交差ガードレール西側,33.5779758,130.3499286,
福岡県,福岡市,高取第二-6,早良区高取二丁目18番,福岡市地下鉄藤崎駅4番出口南側植込,33.5814921,130.3499286,
福岡県,福岡市,高取第二-7,早良区高取一丁目22番,紅葉山公園北側フェンス,33.5778319,130.3510445,
福岡県,福岡市,高取第二-8,早良区高取一丁目7番,福岡財務支局高取宿舎北側フェンス,33.5805151,130.3527981,
福岡県,福岡市,百道浜-1,早良区百道浜四丁目2番,クリスタージュ北側入口植込,33.5884962,130.3468197,
福岡県,福岡市,百道浜-2,早良区百道浜四丁目24番,百道浜小学校南側校門入口植込,33.5919333,130.3488923,
福岡県,福岡市,百道浜-3,早良区百道浜三丁目2番,博物館南口バス停近く植込,33.5885065,130.3512836,
福岡県,福岡市,百道浜-4,早良区百道浜一丁目1番,西南学院大学百道浜グランド西側南端植込,33.5977985,130.3556924,
福岡県,福岡市,百道浜-5,早良区百道浜一丁目4番,百道浜東公園南側,33.5908111,130.3548354,
福岡県,福岡市,百道浜-6,早良区百道浜三丁目1番,福岡市博物館北側緑地歩道,33.5895154,130.3531967,
福岡県,福岡市,百道浜-7,早良区百道浜四丁目2番,クリスタージュ2番館南側植込,33.5884962,130.3468197,
福岡県,福岡市,百道浜-8,早良区百道浜三丁目2番,百道中央公園北通植込,33.5885065,130.3512836,
福岡県,福岡市,百道-1,早良区百道三丁目1番1号,百道小学校正門横植込,33.58499,130.3475716,
福岡県,福岡市,百道-2,早良区百道三丁目1番1号,百道小学校北側,33.58499,130.3475716,
福岡県,福岡市,百道-3,早良区百道二丁目16番,百道西公園入口横,33.5833847,130.3449065,
福岡県,福岡市,百道-4,早良区百道一丁目5番,百道南公園入口横,33.58285010000001,130.3488923,
福岡県,福岡市,百道-5,早良区百道二丁目1番1号,早良区役所南西角,33.5818305,130.3484096,
福岡県,福岡市,百道-6,早良区室見一丁目17番,室見公園東端柵,33.5825857,130.3433918,
福岡県,福岡市,百道-7,早良区室見一丁目7番,室見公園西端柵,33.5812269,130.3398441,
福岡県,福岡市,百道-8,早良区百道一丁目22番,百道公園南側フェンス,33.5859688,130.348972,
福岡県,福岡市,室見第一-1,早良区弥生一丁目6番,弥生一丁目6番前金屑川フェンス,33.5785313,130.3453483,
福岡県,福岡市,室見第一-2,早良区室見三丁目2番,金門橋横ガードレール,33.5763925,130.3444282,
福岡県,福岡市,室見第一-3,早良区室見二丁目10番,金門公園東側フェンス,33.5779594,130.3432324,
福岡県,福岡市,室見第一-4,早良区藤崎二丁目7番,藤崎1号公園南側フェンス,33.5753547,130.3480154,
福岡県,福岡市,室見第一-5,早良区藤崎二丁目15番,藤崎ポンプ場北側フェンス,33.576398,130.3466603,
福岡県,福岡市,室見第一-6,早良区弥生二丁目3番,弥生幼稚園南側川沿フェンス,33.5751824,130.3460225,
福岡県,福岡市,室見第一-7,早良区室見二丁目1番,飛石橋南側ガードレール,33.580662,130.344189,
福岡県,福岡市,室見第一-8,早良区室見三丁目3番,室見小学校南側フェンス,33.5748431,130.3442687,
福岡県,福岡市,室見第二-1,早良区室見四丁目12番,室見庄浜公園北側フェンス,33.5759025,130.3410001,
福岡県,福岡市,室見第二-2,早良区室見三丁目2番,室見庄浜東公園南側,33.5763925,130.3444282,
福岡県,福岡市,室見第二-3,早良区室見五丁目11番,南庄六丁目交差点北西側ガード柵,33.5793672,130.3370138,
福岡県,福岡市,室見第二-4,早良区室見五丁目7番,室見中公園フェンス,33.5791001,130.339007,
福岡県,福岡市,室見第二-5,早良区室見五丁目14番,室見川河畔公園北側生垣沿,33.5800013,130.3373132,
福岡県,福岡市,室見第二-6,早良区南庄二丁目14番,南庄二丁目西交差点北西側駐車場前植込,33.5770843,130.3385884,
福岡県,福岡市,原第一-1,早良区原二丁目10番,舟底公園北側横フェンス,33.5701191,130.3469791,
福岡県,福岡市,原第一-2,早良区原二丁目5番1号,原小学校正門横フェンス,33.56868370000001,130.3488675,
福岡県,福岡市,原第一-3,早良区原二丁目5番1号,原小学校西側フェンス,33.56868370000001,130.3488675,
福岡県,福岡市,原第一-4,早良区原一丁目36番,原中央中学校東側ガードレール,33.5707515,130.3487329,
福岡県,福岡市,原第一-5,早良区原一丁目3番,ロイヤルアーク藤崎西向側フェンス,33.5729609,130.3491713,
福岡県,福岡市,原第一-6,早良区原一丁目19番,原汐入公園西側フェンス,33.5723822,130.3479357,
福岡県,福岡市,原第一-7,早良区原一丁目11番,ヒューマインドHaRa西側フェンス,33.5719699,130.3504865,
福岡県,福岡市,原第二-1,早良区荒江三丁目16番,荒江公園西側入口横,33.5695441,130.3514431,
福岡県,福岡市,原第二-2,早良区荒江三丁目1番,マルショク昭代店道路向いフェンス,33.57407,130.3533561,
福岡県,福岡市,原第二-3,早良区荒江三丁目18番,クラシオン荒江前植込,33.569631,130.3527184,
福岡県,福岡市,原第二-4,早良区荒江三丁目3番29号,福岡高等聴覚特別支援学校寄宿舎北側フェンス,33.570975,130.3529086,
福岡県,福岡市,原第二-5,早良区荒江二丁目19番1号,福岡工業高等学校南側フェンス,33.5733967,130.3540934,
福岡県,福岡市,原第二-6,早良区荒江三丁目2番,福岡高等聴覚特別支援学校西門横塀,33.5725207,130.3531967,
福岡県,福岡市,原第二-7,早良区荒江二丁目19番1号,福岡工業高等学校北側フェンス,33.5733967,130.3540934,
福岡県,福岡市,原第二-8,早良区荒江二丁目18番31号,荒江中公園南側,33.5710772,130.3548796,
福岡県,福岡市,大原-1,早良区原三丁目3番1号,高取中学校北門横フェンス,33.5737847,130.3447969,
福岡県,福岡市,大原-2,早良区原三丁目8番10号,大原小学校正門横フェンス,33.5700543,130.3446524,
福岡県,福岡市,大原-3,早良区原三丁目3番1号,高取中学校東側フェンス,33.5737847,130.3447969,
福岡県,福岡市,大原-4,早良区原四丁目9番,原5号公園南側フェンス,33.5678444,130.3415582,
福岡県,福岡市,大原-5,早良区原四丁目11番,原9号公園西側,33.5688049,130.3406015,
福岡県,福岡市,大原-6,早良区原四丁目24番,原北あすなろ公園南側フェンス,33.5684045,130.3395651,
福岡県,福岡市,大原-7,早良区原四丁目1番,原四丁目1区自治会掲示板横ガードレール,33.5695231,130.3430729,
福岡県,福岡市,原団地-1,早良区原団地83番,原団地83棟南側フェンス,33.5701195,130.3389273,
福岡県,福岡市,原団地-2,早良区原団地82番,原団地82棟東側フェンス,33.5708333,130.3397245,
福岡県,福岡市,原団地-3,早良区原団地30番,原団地30棟南西角,33.5719896,130.3416379,
福岡県,福岡市,原団地-4,早良区原団地26番,原団地26棟東側駐輪場前,33.5735012,130.3433918,
福岡県,福岡市,原団地-5,早良区原団地12番,原団地12棟西側公園前,33.5724222,130.3435768,
福岡県,福岡市,原団地-6,早良区原団地10番,原団地集会所横フェンス,33.5706939,130.3425149,
福岡県,福岡市,原団地-7,早良区原団地72番,原団地72棟東側,33.5706083,130.3417974,
福岡県,福岡市,原北-1,早良区南庄三丁目7番,南庄公園入口,33.5708884,130.3367746,
福岡県,福岡市,原北-2,早良区南庄三丁目5番,金屑川公園西側フェンス,33.5718344,130.3382895,
福岡県,福岡市,原北-3,早良区南庄一丁目19番,南庄東公園北西側,33.5736421,130.3411596,
福岡県,福岡市,原北-4,早良区南庄二丁目7番,南庄中公園西側フェンス,33.5749769,130.3392462,
福岡県,福岡市,原北-5,早良区南庄六丁目13番,原北公園入口,33.5764134,130.3361368,
福岡県,福岡市,原北-6,早良区南庄三丁目26番,大原公園フェンス,33.5733129,130.3352597,
福岡県,福岡市,原北-7,早良区南庄四丁目5番,原北小学校正門横,33.5747333,130.3340637,
福岡県,福岡市,原北-8,早良区南庄六丁目24番,サニー室見店東側向ガードレール,33.5756967,130.3342232,
福岡県,福岡市,室見団地-1,早良区南庄四丁目13番,室見団地2棟前柵,33.5748958,130.3321501,
福岡県,福岡市,室見団地-2,早良区南庄五丁目3番,室見団地集会所正面入口向側,33.5760275,130.3326285,
福岡県,福岡市,室見団地-3,早良区南庄五丁目4番,室見西公園東側,33.57724040000001,130.3321501,
福岡県,福岡市,室見団地-4,早良区南庄五丁目4番,室見団地西口バス停前,33.57724040000001,130.3321501,
福岡県,福岡市,室見団地-5,早良区南庄四丁目13番,室見南公園入口,33.5748958,130.3321501,
福岡県,福岡市,室見団地-6,早良区南庄四丁目13番,室見団地11棟北西側,33.5748958,130.3321501,
福岡県,福岡市,室見団地-7,早良区南庄四丁目13番,室見団地9棟東側柵,33.5748958,130.3321501,
福岡県,福岡市,小田部-1,早良区小田部七丁目11番1号,原北中学校西側フェンス,33.5718908,130.331871,
福岡県,福岡市,小田部-2,早良区小田部六丁目4番1号,小田部小学校正門横塀,33.572938,130.3285967,
福岡県,福岡市,小田部-3,早良区小田部五丁目11番,小田部中央公園南東角,33.569366,130.3311135,
福岡県,福岡市,小田部-4,早良区小田部七丁目11番1号,原北中学校北側フェンス,33.5718908,130.331871,
福岡県,福岡市,小田部-5,早良区小田部一丁目24番,将軍神社南側,33.5697537,130.33518,
福岡県,福岡市,小田部-6,早良区小田部六丁目17番,室見河畔公園沿い,33.5719146,130.3276799,
福岡県,福岡市,小田部-7,早良区小田部一丁目7番,小田部東公園西側フェンス,33.5685234,130.3370138,
福岡県,福岡市,小田部-8,早良区小田部五丁目11番,小田部西公園南側,33.569366,130.3311135,
福岡県,福岡市,有住-1,早良区有田七丁目17番1号,有住小学校東門横フェンス,33.5614902,130.3312381,
福岡県,福岡市,有住-2,早良区室住団地7番,室住団地7棟南側,33.5624529,130.3296782,
福岡県,福岡市,有住-3,早良区室住団地28番,室住団地28棟東側,33.5649414,130.3285619,
福岡県,福岡市,有住-4,早良区室住団地32番,室住団地児童公園前,33.564667,130.3277644,
福岡県,福岡市,有住-5,早良区室住団地4番1号,有住公民館西側,33.5621486,130.3282451,
福岡県,福岡市,有住-6,早良区室住団地64番,室住団地64棟南側入口,33.5599316,130.3265683,
福岡県,福岡市,有住-7,早良区有田七丁目17番1号,有住小学校裏門横,33.5614902,130.3312381,
福岡県,福岡市,有田第一-1,早良区次郎丸一丁目21番,次郎丸公園入口横フェンス,33.5533766,130.3335853,
福岡県,福岡市,有田第一-2,早良区次郎丸一丁目1番,ビレッジ城月南側水路ガード柵,33.5550481,130.3323096,
福岡県,福岡市,有田第一-3,早良区次郎丸二丁目22番,冷尻公園北側入口横フェンス,33.555497,130.3281632,
福岡県,福岡市,有田第一-4,早良区有田六丁目13番,有田小学校東側水路ガードレール,33.5572186,130.329758,
福岡県,福岡市,有田第一-5,早良区有田団地10番,有田団地10棟横フェンス,33.5573075,130.3315919,
福岡県,福岡市,有田第一-6,早良区有田八丁目17番1号,有田小学校正門横フェンス,33.5577555,130.3291319,
福岡県,福岡市,有田第一-7,早良区有田三丁目12番,有田公園入口横フェンス,33.5571874,130.3335853,
福岡県,福岡市,有田第二-1,早良区次郎丸六丁目3番,次郎丸中学校東側フェンス,33.5501989,130.3353394,
福岡県,福岡市,有田第二-2,早良区次郎丸三丁目22番,内野・次郎丸・弥生線道路転落防止柵,33.5817427,130.3575904,
福岡県,福岡市,有田第二-3,早良区次郎丸五丁目8番,次郎丸東の前公園入口橫柵,33.5503578,130.3323096,
福岡県,福岡市,有田第二-4,早良区次郎丸六丁目3番,次郎丸中学校裏門フェンス,33.5501989,130.3353394,
福岡県,福岡市,有田第二-5,早良区次郎丸四丁目4番,田隈幼稚園北東水路フェンス,33.5498023,130.3284821,
福岡県,福岡市,有田第二-6,早良区次郎丸三丁目4番,外環室見橋東交差点南側水路ガードレール,33.5817427,130.3575904,
福岡県,福岡市,有田第二-7,早良区次郎丸四丁目3番,ピエトロ前フェンス,33.5495698,130.3277644,
福岡県,福岡市,賀茂-1,早良区賀茂一丁目31番1号,賀茂小学校正門横フェンス,33.5524147,130.3406115,
福岡県,福岡市,賀茂-2,早良区賀茂一丁目34番,賀茂小北交差点西側歩道フェンス,33.5532502,130.3408407,
福岡県,福岡市,賀茂-3,早良区賀茂一丁目32番9号,賀茂小学校西側フェンス,33.5516124,130.3409648,
福岡県,福岡市,賀茂-4,早良区賀茂三丁目23番8号,賀茂中央公園東側フェンス,33.5494602,130.3375328,
福岡県,福岡市,賀茂-5,早良区賀茂一丁目50番,川久保橋東側フェンス,33.5541574,130.3433918,
福岡県,福岡市,賀茂-6,早良区賀茂三丁目15番,金屑川沿いガードレール,33.5478834,130.3384489,
福岡県,福岡市,賀茂-7,早良区賀茂二丁目20番23号,市営賀茂南住宅入口横,33.5495246,130.3432803,
福岡県,福岡市,賀茂-8,早良区賀茂四丁目42番,水町公園東側フェンス,33.5522166,130.3380503,
福岡県,福岡市,原西第一-1,早良区原五丁目19番,原3号公園入口,33.5658508,130.3397245,
福岡県,福岡市,原西第一-2,早良区原五丁目16番10号,原西小学校東側塀,33.5646093,130.3390878,
福岡県,福岡市,原西第一-3,早良区有田四丁目2番,有田旭町市営住宅西入口,33.5595883,130.3386881,
福岡県,福岡市,原西第一-4,早良区有田五丁目5番16号,樋口産業株式会社駐車場フェンス,33.5582965,130.3354938,
福岡県,福岡市,原西第一-5,早良区有田五丁目21番,有田平田公園東側フェンス,33.5567493,130.3341435,
福岡県,福岡市,原西第一-6,早良区有田五丁目14番,有田1号公園フェンス,33.5558168,130.3376516,
福岡県,福岡市,原西第一-7,早良区原八丁目17番,原南公園入口フェンス,33.5594259,130.3406015,
福岡県,福岡市,原西第一-8,早良区原八丁目13番25号,原西公園入口ロフェンス,33.5610881,130.3396268,
福岡県,福岡市,原西第二-1,早良区小田部二丁目13番,小田部南公園北西角,33.5672406,130.3348611,
福岡県,福岡市,原西第二-2,早良区有田一丁目18番,市営新有田団地内公園フェンス,33.565234,130.336057,
福岡県,福岡市,原西第二-3,早良区有田一丁目13番,有田東公園北西角,33.5641675,130.3365354,
福岡県,福岡市,原西第二-4,早良区小田部四丁目14番,室見川緑地東側柵,33.5661311,130.3272062,
福岡県,福岡市,原西第二-5,早良区有田一丁目40番,有田西公園東側柵,33.5634663,130.3327082,
福岡県,福岡市,原西第二-6,早良区小田部三丁目32番,西福岡中学校正門横フェンス,33.5646808,130.332788,
福岡県,福岡市,原西第二-7,早良区小田部三丁目11番6号,宝満宮東側フェンス,33.5678919,130.3317913,
福岡県,福岡市,飯原第一-1,早良区原六丁目18番,原7号公園南側柵,33.5645451,130.344747,
福岡県,福岡市,飯原第一-2,早良区原六丁目17番21号,正聞寺西側塀,33.5647236,130.3435334,
福岡県,福岡市,飯原第一-3,早良区原六丁目20番,原本町児童広場西側フェンス,33.5660917,130.3437904,
福岡県,福岡市,飯原第一-4,早良区原七丁目11番,飯原中央公園東側フェンス,33.5611093,130.3437904,
福岡県,福岡市,飯原第一-5,早良区原七丁目3番,飯原公民館南側ブロック塀,33.5617854,130.346182,
福岡県,福岡市,飯原第一-6,早良区原七丁目14番,トニーコート弐番館南側ガードレール,33.5627372,130.3418771,
福岡県,福岡市,飯原第一-7,早良区原六丁目3番,原4号公園フェンス,33.5663035,130.344747,
福岡県,福岡市,飯原第二-1,早良区飯倉四丁目34番58号,原中学校西門西側フェンス,33.5624586,130.3474574,
福岡県,福岡市,飯原第二-2,早良区飯倉四丁目11番,飯倉四丁目交差点南側水路ガードレール,33.5636626,130.3516822,
福岡県,福岡市,飯原第二-3,早良区飯倉四丁目19番,飯倉幼稚園向側水路ガードレール,33.5623424,130.3511242,
福岡県,福岡市,飯原第二-4,早良区飯倉四丁目34番58号,原中学校東側塀,33.5624586,130.3474574,
福岡県,福岡市,飯原第二-5,早良区飯倉四丁目16番,飯倉西公園南側水路ガードレール,33.5610019,130.3508054,
福岡県,福岡市,飯原第二-6,早良区飯倉八丁目15番,飯原公園東側フェンス,33.55919550000001,130.3484937,
福岡県,福岡市,飯原第二-7,早良区飯倉八丁目3番,稲塚橋南方ガードレール,33.5602271,130.3467001,
福岡県,福岡市,飯倉中央-1,早良区飯倉三丁目31番,石橋商会駐車場北側フェンス,33.5636231,130.3484566,
福岡県,福岡市,飯倉中央-2,早良区飯倉二丁目21番,旧飯倉中央公民館東側フェンス,33.5663892,130.3537945,
福岡県,福岡市,飯倉中央-3,早良区飯倉三丁目45番,原東公園入口横,33.5649687,130.3466603,
福岡県,福岡市,飯倉中央-4,早良区飯倉三丁目6番35号,飯倉中央小学校正門北側水路ガードレール,33.5660336,130.3510605,
福岡県,福岡市,飯倉中央-5,早良区飯倉二丁目22番,飯倉公園入口横,33.5664074,130.3527184,
福岡県,福岡市,飯倉中央-6,早良区飯倉三丁目6番35号,飯倉中央小学校東門フェンス,33.5660336,130.3510605,
福岡県,福岡市,飯倉中央-7,早良区飯倉三丁目20番,原公民館前歩道橋南側付近水路ガードレール,33.56736240000001,130.34953,
福岡県,福岡市,飯倉-1,早良区飯倉七丁目11番,鎧田児童公園フェンス,33.5592434,130.3508054,
福岡県,福岡市,飯倉-2,早良区飯倉五丁目15番,飯倉中公園南側,33.5626033,130.3549502,
福岡県,福岡市,飯倉-3,早良区飯倉六丁目15番,丸尾池公園北側フェンス,33.55837270000001,130.3541531,
福岡県,福岡市,飯倉-4,早良区飯倉六丁目12番,唐木団地子供広場フェンス,33.5572411,130.3536749,
福岡県,福岡市,飯倉-5,早良区飯倉七丁目14番10号,個人宅東側側溝ガードレール,33.558798,130.3505862,
福岡県,福岡市,飯倉-6,早良区飯倉七丁目30番9号,飯倉小学校正門横フェンス,33.5574338,130.3495521,
福岡県,福岡市,飯倉-7,早良区飯倉六丁目1番,NTTドコモ飯倉基地局フェンス,33.5606808,130.3563052,
福岡県,福岡市,干隈-1,早良区干隈三丁目3番,干隈1号緑地東側,33.5548964,130.3496496,
福岡県,福岡市,干隈-2,早良区干隈三丁目15番,西干隈公園フェンス,33.5541694,130.347856,
福岡県,福岡市,干隈-3,早良区干隈五丁目27番,干隈2号公園入口横フェンス,33.5537512,130.3441492,
福岡県,福岡市,干隈-4,早良区干隈五丁目21番,竹の花1区公園フェンス,33.5522146,130.3449862,
福岡県,福岡市,干隈-5,早良区野芥二丁目1番,裕生堂薬局干隈店北側フェンス,33.546625,130.3452254,
福岡県,福岡市,干隈-6,早良区干隈四丁目8番,飯倉小学校西側川向こうガードレール,33.5563401,130.3493307,
福岡県,福岡市,干隈-7,早良区干隈六丁目7番,宮井手公園フェンス,33.5505244,130.3470589,
福岡県,福岡市,星の原-1,早良区星の原団地8番,星の原団地8棟西側,33.5567637,130.3472183,
福岡県,福岡市,星の原-2,早良区星の原団地10番,星の原団地10棟西側公園,33.5572222,130.3464211,
福岡県,福岡市,星の原-3,早良区星の原団地35番,星の原団地35棟東側,33.557553,130.3448268,
福岡県,福岡市,星の原-4,早良区星の原団地24番,星の原団地24棟前,33.5564617,130.3438701,
福岡県,福岡市,星の原-5,早良区星の原団地28番,星の原団地28棟東側,33.5570145,130.3431128,
福岡県,福岡市,星の原-6,早良区星の原団地45番,星の原団地45棟西側,33.5584699,130.3432324,
福岡県,福岡市,星の原-7,早良区星の原団地59番,星の原団地59棟東側,33.559876,130.3445079,
福岡県,福岡市,田隈-1,早良区野芥一丁目7番,JA福岡市田隈支店前,33.5460855,130.3469791,
福岡県,福岡市,田隈-2,早良区野芥二丁目26番,田隈人権まちづくり館正面塀,33.5478148,130.3438701,
福岡県,福岡市,田隈-3,早良区野芥三丁目11番,野芥4号公園西側入口横,33.5429359,130.3437904,
福岡県,福岡市,田隈-4,早良区田隈一丁目37番,内林公園東側フェンス,33.5460606,130.3380503,
福岡県,福岡市,田隈-5,早良区田隈二丁目7番1号,田隈小学校正門横フェンス,33.5445036,130.3388958,
福岡県,福岡市,田隈-6,早良区田隈三丁目58番,田隈公園南側,33.5421693,130.339286,
福岡県,福岡市,田隈-7,早良区田隈一丁目34番,田隈北公園南側フェンス,33.5460232,130.3396448,
福岡県,福岡市,田隈-8,早良区野芥二丁目36番,野芥5号公園入口横フェンス,33.5443603,130.3439897,
福岡県,福岡市,田村-1,早良区田村一丁目5番,有料老人ホーム穂々笑 東側フェンス,33.5437265,130.3275252,
福岡県,福岡市,田村-2,早良区次郎丸三丁目30番,市営次郎丸団地東側入口横,33.581816,130.357588,
福岡県,福岡市,田村-3,早良区田村三丁目2番,田村三丁目バス停横ガードレール,33.54037,130.3256114,
福岡県,福岡市,田村-4,早良区田村三丁目33番,田村小学校西側ガードレール,33.5421569,130.3296184,
福岡県,福岡市,田村-5,早良区田村三丁目32番1号,田村小学校正門橫,33.5418018,130.3299523,
福岡県,福岡市,田村-6,早良区田村四丁目25番,田隈中学校西側,33.5414041,130.3353394,
福岡県,福岡市,田村-7,早良区田村七丁目15番,コスモ石油前フェンス,33.5353534,130.325412,
福岡県,福岡市,田村-8,早良区田村二丁目9番,田村二丁目9番東側水路ガードレール,33.5439858,130.3302364,
福岡県,福岡市,田村-9,早良区田村三丁目13番,田村中公園北東側,33.5401644,130.3268873,
福岡県,福岡市,野芥第一-1,早良区野芥三丁目30番,さかえ屋野芥店南側水路ガードレール,33.5392934,130.3441093,
福岡県,福岡市,野芥第一-2,早良区野芥八丁目42番,西の坪公園入口フェンス,33.5351308,130.3384489,
福岡県,福岡市,野芥第一-3,早良区田隈三丁目22番3号,唐の沖公園入口フェンス,33.5410512,130.3411565,
福岡県,福岡市,野芥第一-4,早良区野芥七丁目24番,ビレッジハウス野芥 入口横フェンス,33.5391761,130.3397245,
福岡県,福岡市,野芥第一-5,早良区野芥八丁目14番,餅田3号公園西側,33.53782,130.3378509,
福岡県,福岡市,野芥第一-6,早良区田隈三丁目18番,西脇南公園北側フェンス,33.5414654,130.3421163,
福岡県,福岡市,野芥第二-1,早良区梅林六丁目30番,油山川東側道路ガードレール,33.5405237,130.3497691,
福岡県,福岡市,野芥第二-2,早良区野芥四丁目24番,櫛田神社入口横,33.5405596,130.3476169,
福岡県,福岡市,野芥第二-3,早良区野芥四丁目45番,サイクルショップ友向側水路フェンス,33.5395055,130.3450659,
福岡県,福岡市,野芥第二-4,早良区野芥四丁目19番,サワラスイミングスクール横ガードレール,33.540031,130.3457834,
福岡県,福岡市,野芥第二-5,早良区梅林六丁目18番,梅林七夕公園北側,33.5419939,130.3514431,
福岡県,福岡市,野芥第二-6,早良区梅林七丁目3番,梅林七丁目3番南端ガードレール,33.5419391,130.3543923,
福岡県,福岡市,野芥第二-7,早良区梅林七丁目20番,梅林1号公園入口横フェンス,33.5356759,130.3533561,
福岡県,福岡市,野芥第二-8,早良区野芥三丁目25番28号,市営西脇団地南側フェンス,33.540853,130.3438147,
福岡県,福岡市,野芥第三-1,早良区野芥六丁目4番,野芥3号公園西側フェンス,33.5361934,130.3437904,
福岡県,福岡市,野芥第三-2,早良区野芥六丁目51番,野芥六丁目バス停横ガードレール,33.5358319,130.3492111,
福岡県,福岡市,野芥第三-3,早良区野芥六丁目35番,前田池西側ガードレール,33.5366005,130.3470589,
福岡県,福岡市,野芥第三-4,早良区野芥五丁目6番,油山病院前ガードレール,33.5387196,130.3485734,
福岡県,福岡市,野芥第三-5,早良区野芥五丁目31番,西油山ハイツ西側沼地フェンス,33.5380569,130.3512039,
福岡県,福岡市,野芥第三-6,早良区野芥六丁目55番,西油山南公園北端フェンス,33.5348105,130.3508851,
福岡県,福岡市,野芥第三-7,早良区野芥六丁目34番,野芥岩隈台公園入口横,33.5358255,130.3469791,
福岡県,福岡市,四箇田-1,早良区四箇二丁目7番,金武中学校前バス停横,33.5292646,130.3240165,
福岡県,福岡市,四箇田-2,早良区四箇六丁目13番,四箇中央公園西側,33.5310448,130.3307148,
福岡県,福岡市,四箇田-3,早良区四箇二丁目18番,高橋橋西側付近ガード柵,33.5297842,130.329439,
福岡県,福岡市,四箇田-4,早良区四箇六丁目17番6号,早良体育館北側駐車場横フェンス,33.5315858,130.3293397,
福岡県,福岡市,四箇田-5,早良区四箇田団地14番,四箇田団地集会所横公園,33.5339971,130.3304756,
福岡県,福岡市,四箇田-6,早良区四箇田団地40番,四箇田団地40棟西側,33.53568,130.3332287,
福岡県,福岡市,四箇田-7,早良区四箇田団地55番,四箇田団地55棟西側,33.5333534,130.3323096,
福岡県,福岡市,四箇田-8,早良区四箇田団地,四箇田団地32棟西側公園,33.5345228,130.3311933,
福岡県,福岡市,入部-1,早良区重留二丁目14番,重留新町交差点南東側ガードレール,33.5334674,130.3425149,
福岡県,福岡市,入部-2,早良区重留四丁目5番,宝満神社南側,33.5291878,130.3399637,
福岡県,福岡市,入部-3,早良区重留六丁目4番,キッズガレージ南側付近ガード柵,33.5312604,130.3397245,
福岡県,福岡市,入部-4,早良区東入部三丁目7番,三郎丸上りバス停南側ガードレール,33.5238157,130.3364557,
福岡県,福岡市,入部-5,早良区東入部二丁目21番15号,入部小学校正門横,33.5218498,130.3379918,
福岡県,福岡市,入部-6,早良区東入部二丁目14番8号,入部出張所入口,33.5188077,130.3360021,
福岡県,福岡市,入部-7,早良区重留三丁目18番,重留北公園東側,33.5329952,130.3457834,
福岡県,福岡市,入部-8,早良区東入部七丁目1番,早良消防署東入部出張所北側ガードレール,33.5155377,130.3349408,
福岡県,福岡市,入部-9,早良区東入部一丁目19番,古田池フェンス,33.5219069,130.3410946,
福岡県,福岡市,入部-10,早良区東入部八丁目32番,ーッ家バス停側ガードレール,33.5040532,130.3411775,
福岡県,福岡市,早良-1,早良区早良一丁目16番,内野バス停付近ガードレール,33.5017984,130.3355786,
福岡県,福岡市,早良-2,早良区早良七丁目1番33号,日高歯科医院東側フェンス,33.4967414,130.3354332,
福岡県,福岡市,早良-3,早良区早良四丁目6番,長峰集会所東側川沿いガードレール,33.5084008,130.3303161,
福岡県,福岡市,早良-4,早良区早良五丁目8番,早良北公園入口植込,33.503844,130.3333461,
福岡県,福岡市,早良-5,早良区早良六丁目14番,早良東公園南東側,33.5013969,130.3345421,
福岡県,福岡市,早良-6,早良区早良一丁目5番,早良公民館前バス停 (下り) 横ガードレール,33.507145,130.3370935,
福岡県,福岡市,早良-7,早良区早良一丁目8番1号,早良小学校正門横フェンス,33.5052703,130.3373249,
福岡県,福岡市,脇山-1,早良区脇山二丁目11番1号,谷人権のまちづくり館フェンス,33.4982683,130.3492712,
福岡県,福岡市,脇山-2,早良区脇山二丁目1番,宮原公園入口,33.4992995,130.3466603,
福岡県,福岡市,脇山-3,早良区脇山一丁目20番,城の原バス停西側ガードレール,33.4969747,130.3533561,
福岡県,福岡市,脇山-4,早良区大字脇山2558番地,脇山小学校正門横植込,33.4894029,130.3527668,
福岡県,福岡市,脇山-5,早良区大字脇山1742番地,脇山小前バス停南側付近ガード柵,33.4884116,130.3536514,
福岡県,福岡市,脇山-6,早良区大字脇山2307番地,谷口公民館西側ガードレール,33.4829471,130.3491514,
福岡県,福岡市,脇山-7,早良区大字椎原1184番地1,椎原公園入口,33.4711795,130.3501021,
福岡県,福岡市,脇山-8,早良区大字脇山303番地5,野田公民館前,33.4924156,130.3623424,
福岡県,福岡市,脇山-9,早良区大字板屋353番地,板屋活性化施設フェンス,33.4387278,130.3873203,
福岡県,福岡市,脇山-10,早良区大字小笠木555番地,志水公民館西側塀,33.4881682,130.3704414,
福岡県,福岡市,内野-1,早良区内野三丁目4番1号,市営内野第2旭ヶ丘住宅1棟北側フェンス,33.5022078,130.3403015,
福岡県,福岡市,内野-2,早良区内野二丁目1番,内野公園フェンス,33.5006051,130.3358178,
福岡県,福岡市,内野-3,早良区内野七丁目3番,馬立山公園南側,33.4964431,130.3443086,
福岡県,福岡市,内野-4,早良区内野二丁目18番,内野南公園東側歩道フェンス,33.4974743,130.3393259,
福岡県,福岡市,内野-5,早良区内野八丁目15番1号,内野小学校正門前,33.4933553,130.3374003,
福岡県,福岡市,内野-6,早良区大字西1251番地2,西中山公園入口,33.4762037,130.3318311,
福岡県,福岡市,内野-7,早良区大字西1980番地3,古賀バス停付近川沿い,33.4762037,130.3318311,
福岡県,福岡市,内野-8,早良区内野三丁目21番,内野中央公園入口,33.5007076,130.3415582,
福岡県,福岡市,内野-9,早良区大字西1796番地1,八丁川滝見橋東側付近ガードレール,33.4762037,130.3318311,
福岡県,福岡市,石釜-1,早良区大字曲渕744番地,八丁橋前,33.4881619,130.3012044,
福岡県,福岡市,石釜-2,早良区大字曲渕713番地1,曲渕小学校正門横フェンス,33.4979053,130.2983451,
福岡県,福岡市,石釜-3,早良区大字曲渕861番地1,納骨堂入口右側,33.4881619,130.3012044,
福岡県,福岡市,石釜-4,早良区大字石釜1214番地1,上石釜パス停横歩道フェンス,33.4932956,130.3125035,
福岡県,福岡市,石釜-5,早良区大字石釜764番地,内野分団石釜格納庫付近ガードレール,33.4917881,130.3223649,
福岡県,福岡市,石釜-6,早良区大字石釜2250番地,多々良瀬バス停向かいガードレール,33.4761383,130.3139675,
福岡県,福岡市,馬出第一-1-1,東区馬出一丁目12番27号,馬出小学校正門横,33.6094544,130.4205235,
福岡県,福岡市,馬出第一-1-2,東区馬出一丁目21番2号,馬出東市営団地2棟フェンス,33.6103675,130.4216732,
福岡県,福岡市,馬出第一-1-3,東区馬出五丁目12番,道具山神社横,33.6125842,130.4211481,
福岡県,福岡市,馬出第一-1-4,東区馬出二丁目1番,九大医学部東門横 (あかり薬局前),33.608467,130.4182,
福岡県,福岡市,馬出第一-1-5,東区馬出一丁目5番,東公園・球技広場前,33.6073781,130.4215461,
福岡県,福岡市,馬出第一-1-6,東区馬出五丁目21番,馬出御所ノ内公園北側,33.6121082,130.4249695,
福岡県,福岡市,馬出第一-1-7,東区馬出一丁目12番27号,馬出小学校裏門横,33.6094544,130.4205235,
福岡県,福岡市,馬出第一-1-8,東区馬出六丁目8番,米田公園フェンス,33.61079369999999,130.4271985,
福岡県,福岡市,馬出第二-2-1,東区馬出三丁目11番1号,福岡中学校正門横,33.6123985,130.4132905,
福岡県,福岡市,馬出第二-2-2,東区馬出三丁目1番1号,九大医学部北側グランドフェンス,33.6114165,130.4166568,
福岡県,福岡市,馬出第二-2-3,東区馬出二丁目6番4号,市営馬出住宅4棟フェンス,33.6126572,130.418405,
福岡県,福岡市,馬出第二-2-4,東区馬出二丁目6番,市営馬出住宅駐車場前,33.6129785,130.4188392,
福岡県,福岡市,馬出第二-2-5,東区馬出三丁目11番,馬出緑地フェンス,33.6124281,130.4139026,
福岡県,福岡市,馬出第二-2-6,東区馬出四丁目8番,馬出緑地入口横,33.615316,130.4154951,
福岡県,福岡市,馬出第二-2-7,東区東浜一丁目10番,ISUZU西側ブロック塀,33.6151437,130.4118323,
福岡県,福岡市,箱崎第一-3-1,東区箱崎二丁目2番45号,箱崎小学校正門横,33.6168726,130.4202761,
福岡県,福岡市,箱崎第一-3-2,東区箱崎二丁目2番45号,箱崎小学校裏門横,33.6168726,130.4202761,
福岡県,福岡市,箱崎第一-3-3,東区箱崎一丁目45番,市営地下鉄箱崎宮前駐輪場フェンス,33.6152394,130.4209092,
福岡県,福岡市,箱崎第一-3-4,東区箱崎一丁目18番1号,福岡県粕屋総合庁舎駐車場北側,33.6131424,130.4242699,
福岡県,福岡市,箱崎第一-3-5,東区箱崎二丁目10番19号,福寿会館前フェンス,33.6193488,130.4212242,
福岡県,福岡市,箱崎第一-3-6,東区箱崎二丁目2番45号,箱崎小学校西南側,33.6168726,130.4202761,
福岡県,福岡市,箱崎第一-3-7,東区箱崎一丁目15番,歩道フェンス,33.6149097,130.4247307,
福岡県,福岡市,箱崎第一-3-8,東区箱崎一丁目27番17号,箱崎公民館前,33.6169474,130.4236041,
福岡県,福岡市,箱崎第二-4-1,東区箱崎二丁目32番,網屋町換気所,33.6194402,130.4194363,
福岡県,福岡市,箱崎第二-4-2,東区箱崎二丁目54番27号,東区役所別館前,33.6181526,130.4177688,
福岡県,福岡市,箱崎第二-4-3,東区箱崎三丁目35番,箱崎九大前駅駐輪場フェンス,33.6226129,130.4214317,
福岡県,福岡市,箱崎第二-4-4,東区箱崎五丁目4番,箱崎5丁目市街地住宅入口フェンス,33.6259434,130.4201131,
福岡県,福岡市,箱崎第二-4-5,東区箱崎三丁目36番,箱崎3丁目公団住宅北側フェンス沿い,33.6227852,130.4212376,
福岡県,福岡市,箱崎第二-4-6,東区箱崎四丁目42番,旧JR臨港線踏切横フェンス,33.6207955,130.4164506,
福岡県,福岡市,箱崎第二-4-7,東区箱崎二丁目38番,箱崎1号公園東側フェンス,33.6204761,130.4201529,
福岡県,福岡市,箱崎第二-4-8,東区箱崎二丁目54番1号,東区役所前,33.6177302,130.4174824,
福岡県,福岡市,箱崎第三-5-1,東区箱崎七丁目10番58号,高須磨町バス停裏フェンス,33.6359576,130.4240333,
福岡県,福岡市,箱崎第三-5-2,東区貝塚団地9番,貝塚団地入口横,33.6324696,130.4230588,
福岡県,福岡市,箱崎第三-5-3,東区箱崎五丁目11番20号,東箱崎小学校東門左側,33.6287294,130.4201578,
福岡県,福岡市,箱崎第三-5-4,東区箱崎七丁目20番,県営高須磨団地入口横,33.6394115,130.4245714,
福岡県,福岡市,箱崎第三-5-5,東区箱崎七丁目15番,東箱崎公民館向側フェンス,33.6370696,130.4240142,
福岡県,福岡市,箱崎第三-5-6,東区貝塚団地5番1号,貝塚幼稚園フェンス,33.6316951,130.4221433,
福岡県,福岡市,箱崎第三-5-7,東区箱崎七丁目1番,貝塚駅バス停横,33.6330579,130.4258452,
福岡県,福岡市,箱崎第三-5-8,東区箱崎七丁目20番,県営高須磨団地6棟前フェンス,33.6394115,130.4245714,
福岡県,福岡市,筥松第一-6-1,東区郷口町16番1号,筥松小学校裏門横,33.6158535,130.430772,
福岡県,福岡市,筥松第一-6-2,東区社領二丁目14番,Fukuya Foods Factory 東側,33.6132892,130.433328,
福岡県,福岡市,筥松第一-6-3,東区二又瀬7番,二又瀬公園北側,33.6087594,130.4394568,
福岡県,福岡市,筥松第一-6-4,東区筥松二丁目15番,宮松南公園東側,33.6178821,130.4275966,
福岡県,福岡市,筥松第一-6-5,東区筥松二丁目5番近く,にしてつストア駐車場の向い宇美川沿いフェンス,33.6154772,130.4271985,
福岡県,福岡市,筥松第一-6-6,東区郷口町16番1号,筥松小学校正門横,33.6158535,130.430772,
福岡県,福岡市,筥松第一-6-7,東区筥松一丁目5番11号,筥松東公園南側入り口横,33.6152955,130.4326912,
福岡県,福岡市,筥松第一-6-8,東区社領一丁目6番,九州倉庫(株)前ガードレール,33.6122381,130.4285519,
福岡県,福岡市,筥松第二-7-1,東区箱崎三丁目2番,箱崎3号緑地,33.6198884,130.4269597,
福岡県,福岡市,筥松第二-7-2,東区筥松三丁目19番10号,福岡市営筥松第1住宅駐輪場前緑地,33.6265793,130.427716,
福岡県,福岡市,筥松第二-7-3,東区筥松二丁目23番,筥松北公園東側,33.6199942,130.4279946,
福岡県,福岡市,筥松第二-7-4,東区箱崎六丁目5番13号,米一丸会館前,33.6231988,130.4274021,
福岡県,福岡市,筥松第二-7-5,東区筥松三丁目19番,ニュー筥松住宅前,33.6276246,130.4277558,
福岡県,福岡市,筥松第二-7-6,東区筥松三丁目3番,宮松緑地内,33.6216059,130.4296663,
福岡県,福岡市,筥松第二-7-7,東区筥松四丁目4番5号,筥松団地5棟入口,33.6296877,130.4286586,
福岡県,福岡市,筥松第二-7-8,東区箱崎七丁目1番,貝塚駅立体歩道橋横フェンス,33.6330579,130.4258452,
福岡県,福岡市,筥松第三-8-1,東区原田二丁目15番,原田3号公園入口寄りフェンス,33.6214407,130.4315768,
福岡県,福岡市,筥松第三-8-2,東区原田二丁目22番32号,原田会館西側,33.6200741,130.4330821,
福岡県,福岡市,筥松第三-8-3,東区原田二丁目16番,小森ガレージフェンス,33.621442,130.4326912,
福岡県,福岡市,筥松第三-8-4,東区原田二丁目8番25号,筥松会館前,33.6210014,130.4306501,
福岡県,福岡市,筥松第三-8-5,東区原田二丁目2番,原田西公園前フェンス,33.6193081,130.4314176,
福岡県,福岡市,筥松第三-8-6,東区原田一丁目30番43号,原田ポンプ場前,33.6186976,130.4365738,
福岡県,福岡市,筥松第三-8-7,東区原田一丁目22番36号,株式会社宇治福産業横フェンス,33.6166488,130.4366145,
福岡県,福岡市,筥松第三-8-8,東区原田二丁目23番,エメラルドマンション第2箱崎前,33.6208165,130.4342832,
福岡県,福岡市,松島第一-9-1,東区松島一丁目39番1号,松島小学校通用門横フェンス,33.6258245,130.43538,
福岡県,福岡市,松島第一-9-2,東区松島三丁目15番2号,障がい者フレンドホーム前フェンス,33.6281261,130.434797,
福岡県,福岡市,松島第一-9-3,東区松島一丁目39番1号,松島小学校裏門横,33.6258245,130.43538,
福岡県,福岡市,松島第一-9-4,東区松島一丁目37番,松島公園フェンス,33.6266268,130.4330892,
福岡県,福岡市,松島第一-9-5,東区松島一丁目18番,倉庫前フェンス,33.6234099,130.4353179,
福岡県,福岡市,松島第一-9-6,東区松島二丁目1番,休也橋横ガードレール,33.6250573,130.4314972,
福岡県,福岡市,松島第一-9-7,東区松島一丁目14番,毛利内装(株)向側フェンス,33.6217801,130.4361139,
福岡県,福岡市,松島第一-9-8,東区松島一丁目22番,住宅前歩道フェンス,33.6245156,130.4332484,
福岡県,福岡市,松島第二-10-1,東区原田四丁目11番,登り新開公園向側フェンス,33.62484,130.4441525,
福岡県,福岡市,松島第二-10-2,東区原田四丁目16番,箱崎2号公園フェンス,33.6241605,130.4441413,
福岡県,福岡市,松島第二-10-3,東区原田四丁目33番,箱崎公園グラウンド原田東町交差点角,33.6220354,130.4404915,
福岡県,福岡市,松島第二-10-4,東区松田二丁目3番1号,箱崎清松中学校正門横ガードレール,33.6190282,130.4394438,
福岡県,福岡市,松島第二-10-5,東区松田三丁目9番13号,松田1号公園フェンス,33.6164805,130.4460625,
福岡県,福岡市,松島第二-10-6,東区松田三丁目11番,松田東公園フェンス,33.6175467,130.4461421,
福岡県,福岡市,松島第二-10-7,東区松田三丁目17番,松田5号公園フェンス,33.6192819,130.4463808,
福岡県,福岡市,松島第二-10-8,東区原田四丁目37番,箱崎公園・原田東町バス停横フェンス,33.6210759,130.4425608,
福岡県,福岡市,名島第一-11-1,東区名島五丁目5番1号,名島小学校東門横,33.640183,130.4349263,
福岡県,福岡市,名島第一-11-2,東区名島五丁目5番1号,名島小学校西門横,33.640183,130.4349263,
福岡県,福岡市,名島第一-11-3,東区松崎二丁目11番,市営松崎浜住宅2棟横フェンス,33.6349257,130.4377166,
福岡県,福岡市,名島第一-11-4,東区松崎三丁目15番,松崎第一ポンプ場フェンス,33.6367245,130.4347676,
福岡県,福岡市,名島第一-11-5,東区松崎三丁目6番,松崎郵便局西側フェンス,33.6377737,130.4389793,
福岡県,福岡市,名島第一-11-6,東区松崎二丁目25番,セブンイレブン駐車場前,33.6381096,130.4407303,
福岡県,福岡市,名島第一-11-7,東区松崎四丁目21番,松崎台公園入口横フェンス,33.6443047,130.4384619,
福岡県,福岡市,名島第一-11-8,東区名島五丁目19番,名島公園入口横,33.6420565,130.4368303,
福岡県,福岡市,名島第二-12-1,東区名島二丁目43番73号,東市民プール臨時駐車場前フェンス,33.6438843,130.4265643,
福岡県,福岡市,名島第二-12-2,東区名島二丁目42番1号,名島公民館横フェンス,33.6442373,130.4270354,
福岡県,福岡市,名島第二-12-3,東区名島二丁目31番33号,フォルクス名島店西側,33.6416067,130.4288889,
福岡県,福岡市,名島第二-12-4,東区名島二丁目29番,九州電力資材センター側南ブロック塀,33.6416721,130.4277558,
福岡県,福岡市,名島第二-12-5,東区名島三丁目43番,名島運動公園北側フェンス,33.6448507,130.4293479,
福岡県,福岡市,名島第二-12-6,東区名島一丁目27番,名島海岸,33.644717,130.4216124,
福岡県,福岡市,名島第二-12-7,東区名島二丁目43番,名島運動公園南側ゲートボール場前,33.6447639,130.4258452,
福岡県,福岡市,千早-13-1,東区千早三丁目13番1号,千早小学校正門横,33.6522136,130.4366014,
福岡県,福岡市,千早-13-2,東区千早三丁目12番1号,香椎第一中学校西側通用門フェンス,33.6532085,130.4357268,
福岡県,福岡市,千早-13-3,東区千早五丁目7番,千早北公園フェンス,33.6543901,130.4408098,
福岡県,福岡市,千早-13-4,東区千早六丁目2番15号,香椎住宅15号棟東側フェンス,33.6563083,130.4379872,
福岡県,福岡市,千早-13-5,東区千早五丁目19番1号,香椎参道駐車場西側フェンス,33.6559988,130.4402527,
福岡県,福岡市,千早-13-6,東区千早五丁目3番,千早中公園東側,33.6519658,130.4406507,
福岡県,福岡市,千早-13-7,東区千早四丁目,千早駅西口ロータリー前歩道防護柵,33.6483695,130.4382629,
福岡県,福岡市,千早-13-8,東区千早四丁目2番,千早南公園南側フェンス,33.6445837,130.4346812,
福岡県,福岡市,千早-13-9,東区千早四丁目12番,千早中央公園南側入口,33.6468633,130.4365119,
福岡県,福岡市,千早西-14-1,東区千早三丁目3番3号,千早西公民館前,33.65006880000001,130.4332882,
福岡県,福岡市,千早西-14-2,東区千早二丁目22番,千早公園南側フェンス,33.6470271,130.4323728,
福岡県,福岡市,千早西-14-3,東区千早二丁目45番,市営千早北住宅1棟南側,33.6493625,130.4330499,
福岡県,福岡市,千早西-14-4,東区千早二丁目26番45号,マックスバリュー千早店前,33.646215,130.4338945,
福岡県,福岡市,千早西-14-5,東区千早一丁目9番4号,千早住宅4棟内公園横緑地,33.6500025,130.4282454,
福岡県,福岡市,千早西-14-6,東区千早二丁目30番1号,千早病院駐車場西側,33.6481286,130.4339314,
福岡県,福岡市,千早西-14-7,東区千早一丁目9番,城浜団地口バス停横ブロック塀,33.649291,130.4277635,
福岡県,福岡市,千早西-14-8,東区香椎浜一丁目4番1号,千早西小学校正門横,33.6515899,130.4314113,
福岡県,福岡市,香陵-15-1,東区香椎浜四丁目3番2号,香陵小学校裏門横,33.6555997,130.4334032,
福岡県,福岡市,香陵-15-2,東区香椎浜一丁目2番3号,市営香椎浜住宅2-3棟西側フェンス,33.6522288,130.4326361,
福岡県,福岡市,香陵-15-3,東区香椎浜一丁目9番,香椎浜ハイツ駐車場北側,33.6534652,130.4334872,
福岡県,福岡市,香陵-15-4,東区香椎浜一丁目8番,香椎浜団地8-2棟入口北側,33.6535894,130.4320544,
福岡県,福岡市,香陵-15-5,東区香椎浜四丁目3番2号,香陵小学校グラウンドネット裏,33.6555997,130.4334032,
福岡県,福岡市,香陵-15-6,東区香椎浜四丁目7番,ネクサス香椎入口東側,33.6566466,130.4342639,
福岡県,福岡市,香陵-15-7,東区香椎浜四丁目6番,西鉄香椎浜車庫北側フェンス,33.6581465,130.4334872,
福岡県,福岡市,香椎浜-16-1,東区香椎浜二丁目2番2号,香椎浜小学校正門横,33.6528568,130.4274274,
福岡県,福岡市,香椎浜-16-2,東区香椎浜二丁目5番,香椎浜三丁目バス停横,33.6552981,130.4258452,
福岡県,福岡市,香椎浜-16-3,東区香椎浜二丁目2番1号,城香中学校正門横,33.6523721,130.4258452,
福岡県,福岡市,香椎浜-16-4,東区香椎浜二丁目2番,香椎浜西交差点付近フェンス,33.6523721,130.4258452,
福岡県,福岡市,香椎浜-16-5,東区香椎浜二丁目3番,香椎浜有料駐車場出入口横,33.6534578,130.4245714,
福岡県,福岡市,香椎浜-16-6,東区香椎浜二丁目1番,香椎浜二丁目バス停横,33.6519562,130.4283926,
福岡県,福岡市,香椎浜-16-7,東区香椎浜三丁目3番,香椎浜北公園南側,33.658508,130.429956,
福岡県,福岡市,香椎浜-16-8,東区香椎浜三丁目1番,片男佐橋交差点北側,33.6570753,130.4303326,
福岡県,福岡市,城浜-17-1,東区城浜団地1番,城浜団地1棟前公園西側フェンス,33.6476064,130.425686,
福岡県,福岡市,城浜-17-2,東区城浜団地19番,城浜団地19棟東側フェンス,33.6492355,130.4243326,
福岡県,福岡市,城浜-17-3,東区城浜団地31番1号,城浜小学校裏門横,33.6487402,130.421867,
福岡県,福岡市,城浜-17-4,東区城浜団地33番,城浜団地33棟西側フェンス,33.6495897,130.4230588,
福岡県,福岡市,城浜-17-5,東区城浜団地80番,城浜団地80棟東側フェンス,33.6505405,130.4227802,
福岡県,福岡市,城浜-17-6,東区城浜団地63番,城浜団地63棟西側フェンス,33.6516391,130.4241734,
福岡県,福岡市,城浜-17-7,東区城浜団地31番1号,城浜小学校正門横,33.6487402,130.421867,
福岡県,福岡市,舞松原第一-18-1,東区舞松原四丁目4番,舞松原団地集会所南側フェンス,33.6458544,130.4520343,
福岡県,福岡市,舞松原第一-18-2,東区舞松原三丁目15番,香椎ヶ丘1号公園西側,33.6452832,130.4474154,
福岡県,福岡市,舞松原第一-18-3,東区舞松原四丁目1番,県公社松崎団地1000棟南側石積み,33.6449926,130.4502006,
福岡県,福岡市,舞松原第一-18-4,東区舞松原四丁目8番,県公社舞松原団地600棟北側公園前フェンス,33.648087,130.452747,
福岡県,福岡市,舞松原第一-18-5,東区舞松原三丁目9番,香椎ヶ丘3号公園入口横,33.645284,130.4485295,
福岡県,福岡市,舞松原第一-18-6,東区舞松原五丁目19番1号,舞松原小学校正門右横,33.6439442,130.4518467,
福岡県,福岡市,舞松原第一-18-7,東区舞松原四丁目1番,県公社松崎団地5000棟東側フェンス,33.6449926,130.4502006,
福岡県,福岡市,舞松原第二-19-1,東区水谷一丁目8番,松原公園南側,33.6475819,130.4473358,
福岡県,福岡市,舞松原第二-19-2,東区水谷一丁目18番1号,多々良中学校正門左横フェンス,33.6465208,130.4434393,
福岡県,福岡市,舞松原第二-19-3,東区水谷一丁目18番1号,多々良中学校裏門左横フェンス,33.6465208,130.4434393,
福岡県,福岡市,舞松原第二-19-4,東区水谷一丁目24番3号,合同宿舎水谷住宅横フェンス,33.6498,130.4435207,
福岡県,福岡市,舞松原第二-19-5,東区水谷二丁目29番,香椎台南公園付近フェンス,33.6510493,130.4450279,
福岡県,福岡市,舞松原第二-19-6,東区水谷一丁目10番,松崎中央公園北側入口横,33.64829220000001,130.4470175,
福岡県,福岡市,舞松原第二-19-7,東区水谷二丁目12番,水谷公園南側フェンス,33.650943,130.442322,
福岡県,福岡市,若宮第一-20-1,東区若宮三丁目27番1号,若宮公民館前,33.6361134,130.4461311,
福岡県,福岡市,若宮第一-20-2,東区若宮二丁目21番,市営若宮住宅3棟西側,33.6347946,130.4508372,
福岡県,福岡市,若宮第一-20-3,東区若宮四丁目5番,松崎東公園北東側,33.6413533,130.4460625,
福岡県,福岡市,若宮第一-20-4,東区若宮三丁目12番1号,若宮小学校正門横フェンス,33.6384911,130.4473656,
福岡県,福岡市,若宮第一-20-5,東区舞松原一丁目4番,平駐車場西側ガードレールが,33.6385998,130.4530653,
福岡県,福岡市,若宮第一-20-6,東区若宮三丁目5番,大浦公園南西側,33.638931,130.4486886,
福岡県,福岡市,若宮第一-20-7,東区舞松原一丁目3番,多々良東公園東側,33.6379306,130.4523491,
福岡県,福岡市,若宮第一-20-8,東区若宮四丁目14番,若宮3号公園前,33.6390109,130.4438341,
福岡県,福岡市,若宮第二-21-1,東区若宮五丁目24番,市営松崎住宅2棟入口横,33.64536930000001,130.4433013,
福岡県,福岡市,若宮第二-21-2,東区水谷一丁目4番,多々良住宅6号棟北側,33.645992,130.4448687,
福岡県,福岡市,若宮第二-21-3,東区若宮五丁目21番3号,市営松崎住宅3棟前,33.644948,130.4425788,
福岡県,福岡市,若宮第二-21-4,東区若宮五丁目3番53号,福岡矯正管区入口東側,33.6443681,130.4438555,
福岡県,福岡市,若宮第二-21-5,東区若宮五丁目13番,若宮2号公園南側,33.6419566,130.4424812,
福岡県,福岡市,若宮第二-21-6,東区若宮五丁目18番,アークソピア香椎南の南東側水路上の道路,33.643398,130.4416057,
福岡県,福岡市,若宮第二-21-7,東区水谷一丁目1番30号,松崎住宅駐車場南東側ガードレール,33.6449844,130.4441809,
福岡県,福岡市,香椎第一-22-1,東区香椎駅前三丁目2番1号,香椎小学校正門前,33.6628654,130.440739,
福岡県,福岡市,香椎第一-22-2,東区香椎駅前三丁目24番,よろい坂団地2棟前,33.6664694,130.4431975,
福岡県,福岡市,香椎第一-22-3,東区御島崎二丁目20番,御島崎1号公園,33.663623,130.4355567,
福岡県,福岡市,香椎第一-22-4,東区香椎駅前三丁目28番20号,よろい坂集会所前,33.6648433,130.4431418,
福岡県,福岡市,香椎第一-22-5,東区御島崎一丁目13番,若葉団地13棟東側,33.6593179,130.4351587,
福岡県,福岡市,香椎第一-22-6,東区香椎駅東二丁目22番,九州高校グラウンド横JR側フェンス,33.6627515,130.445585,
福岡県,福岡市,香椎第一-22-7,東区御島崎一丁目26番,御島崎公園北側フェンス,33.660406,130.4372282,
福岡県,福岡市,香椎第一-22-8,東区御島崎一丁目40番,アーベイン香椎若葉前フェンス,33.6610944,130.4354771,
福岡県,福岡市,香椎第二-23-1,東区香椎駅前一丁目11番,JR香椎駅前ガードレール,33.6597995,130.4436313,
福岡県,福岡市,香椎第二-23-2,東区香椎駅前一丁目4番26号,工事資材置き場ガードレール,33.6565861,130.4435954,
福岡県,福岡市,香椎第二-23-3,東区香椎駅前二丁目10番,みゆき橋東側フェンス,33.6577117,130.4407363,
福岡県,福岡市,香椎第二-23-4,東区香椎駅前一丁目25番,鎧塚歩道橋横ガードレール,33.6624574,130.4427995,
福岡県,福岡市,香椎第二-23-5,東区香椎駅前一丁目11番,香椎駅南側フェンス,33.6597995,130.4436313,
福岡県,福岡市,香椎第二-23-6,東区香椎駅前二丁目17番19号,香椎公民館横,33.6596518,130.4404532,
福岡県,福岡市,香椎第二-23-7,東区香椎駅前二丁目3番,新浜男橋横ガードレール,33.6581078,130.437865,
福岡県,福岡市,香椎第二-23-8,東区香椎駅前一丁目13番8号,香椎駅前東公園前フェンス,33.6600048,130.4428145,
福岡県,福岡市,香椎下原第一-24-1,東区香椎駅東三丁目32番,香椎第三中学校横ガードレール,33.6618777,130.4528265,
福岡県,福岡市,香椎下原第一-24-2,東区香椎駅東四丁目8番,八尻西公園東側,33.6648654,130.4526674,
福岡県,福岡市,香椎下原第一-24-3,東区香椎駅東四丁目24番,八尻中公園南側フェンス,33.6668085,130.452747,
福岡県,福岡市,香椎下原第一-24-4,東区香椎駅東四丁目19番,八尻南公園東側,33.6647407,130.4540997,
福岡県,福岡市,香椎下原第一-24-5,東区香椎駅東三丁目9番,香椎駅東2号公園,33.6640284,130.4499619,
福岡県,福岡市,香椎下原第一-24-6,東区香椎駅東三丁目31番,坂堤南東側フェンス,33.6607787,130.4516379,
福岡県,福岡市,香椎下原第一-24-7,東区香椎駅東三丁目26番,香椎駅東1号公園北側,33.6647599,130.4505189,
福岡県,福岡市,香椎下原第二-25-1,東区下原一丁目4番2号,香椎下原公民館前フェンス,33.670853,130.4557785,
福岡県,福岡市,香椎下原第二-25-2,東区下原一丁目4番1号,香椎下原小学校裏門横,33.6697618,130.4556078,
福岡県,福岡市,香椎下原第二-25-3,東区香椎駅東四丁目46番1号,エトウビル前,33.6684806,130.4546108,
福岡県,福岡市,香椎下原第二-25-4,東区下原二丁目5番,八尻北公園入口付近植込み,33.6686696,130.4571233,
福岡県,福岡市,香椎下原第二-25-5,東区下原四丁目2番1号,BRANCH福岡下原搬入出口横フェンス,33.6722686,130.4497943,
福岡県,福岡市,香椎下原第二-25-6,東区下原五丁目73番,下原西公園前,33.6767945,130.4522695,
福岡県,福岡市,香椎下原第二-25-7,東区下原三丁目22番,下原公園前,33.6744559,130.4556115,
福岡県,福岡市,香椎下原第二-25-8,東区松香台一丁目10番,松葉谷公園前,33.6665549,130.4466991,
福岡県,福岡市,香陵-15-1,東区香椎浜四丁目3番2号,香陵小学校裏門横,33.6555997,130.4334032,
福岡県,福岡市,香陵-15-2,東区香椎浜一丁目2番3号,市営香椎浜住宅2-3棟西側フェンス,33.6522288,130.4326361,
福岡県,福岡市,香陵-15-3,東区香椎浜一丁目9番,香椎浜ハイツ駐車場北側,33.6534652,130.4334872,
福岡県,福岡市,香陵-15-4,東区香椎浜一丁目8番,香椎浜団地8-2棟入口北側,33.6535894,130.4320544,
福岡県,福岡市,香陵-15-5,東区香椎浜四丁目3番2号,香陵小学校グラウンドネット裏,33.6555997,130.4334032,
福岡県,福岡市,香陵-15-6,東区香椎浜四丁目7番,ネクサス香椎入口東側,33.6566466,130.4342639,
福岡県,福岡市,香陵-15-7,東区香椎浜四丁目6番,西鉄香椎浜車庫北側フェンス,33.6581465,130.4334872,
福岡県,福岡市,香椎浜-16-1,東区香椎浜二丁目2番2号,香椎浜小学校正門横,33.6528568,130.4274274,
福岡県,福岡市,香椎浜-16-2,東区香椎浜二丁目5番,香椎浜三丁目バス停横,33.6552981,130.4258452,
福岡県,福岡市,香椎浜-16-3,東区香椎浜二丁目2番1号,城香中学校正門横,33.6523721,130.4258452,
福岡県,福岡市,香椎浜-16-4,東区香椎浜二丁目2番,香椎浜西交差点付近フェンス,33.6523721,130.4258452,
福岡県,福岡市,香椎浜-16-5,東区香椎浜二丁目3番,香椎浜有料駐車場出入口横,33.6534578,130.4245714,
福岡県,福岡市,香椎浜-16-6,東区香椎浜二丁目1番,香椎浜二丁目バス停横,33.6519562,130.4283926,
福岡県,福岡市,香椎浜-16-7,東区香椎浜三丁目3番,香椎浜北公園南側,33.658508,130.429956,
福岡県,福岡市,香椎浜-16-8,東区香椎浜三丁目1番,片男佐橋交差点北側,33.6570753,130.4303326,
福岡県,福岡市,城浜-17-1,東区城浜団地1番,城浜団地1棟前公園西側フェンス,33.6476064,130.425686,
福岡県,福岡市,城浜-17-2,東区城浜団地19番,城浜団地19棟東側フェンス,33.6492355,130.4243326,
福岡県,福岡市,城浜-17-3,東区城浜団地31番1号,城浜小学校裏門横,33.6487402,130.421867,
福岡県,福岡市,城浜-17-4,東区城浜団地33番,城浜団地33棟西側フェンス,33.6495897,130.4230588,
福岡県,福岡市,城浜-17-5,東区城浜団地80番,城浜団地80棟東側フェンス,33.6505405,130.4227802,
福岡県,福岡市,城浜-17-6,東区城浜団地63番,城浜団地63棟西側フェンス,33.6516391,130.4241734,
福岡県,福岡市,城浜-17-7,東区城浜団地31番1号,城浜小学校正門横,33.6487402,130.421867,
福岡県,福岡市,舞松原第一-18-1,東区舞松原四丁目4番,舞松原団地集会所南側フェンス,33.6458544,130.4520343,
福岡県,福岡市,舞松原第一-18-2,東区舞松原三丁目15番,香椎ヶ丘1号公園西側,33.6452832,130.4474154,
福岡県,福岡市,舞松原第一-18-3,東区舞松原四丁目1番,県公社松崎団地1000棟南側石積み,33.6449926,130.4502006,
福岡県,福岡市,舞松原第一-18-4,東区舞松原四丁目8番,県公社舞松原団地600棟北側公園前フェンス,33.648087,130.452747,
福岡県,福岡市,舞松原第一-18-5,東区舞松原三丁目9番,香椎ヶ丘3号公園入口横,33.645284,130.4485295,
福岡県,福岡市,舞松原第一-18-6,東区舞松原五丁目19番1号,舞松原小学校正門右横,33.6439442,130.4518467,
福岡県,福岡市,舞松原第一-18-7,東区舞松原四丁目1番,県公社松崎団地5000棟東側フェンス,33.6449926,130.4502006,
福岡県,福岡市,舞松原第二-19-1,東区水谷一丁目8番,松原公園南側,33.6475819,130.4473358,
福岡県,福岡市,舞松原第二-19-2,東区水谷一丁目18番1号,多々良中学校正門左横フェンス,33.6465208,130.4434393,
福岡県,福岡市,舞松原第二-19-3,東区水谷一丁目18番1号,多々良中学校裏門左横フェンス,33.6465208,130.4434393,
福岡県,福岡市,舞松原第二-19-4,東区水谷一丁目24番3号,合同宿舎水谷住宅横フェンス,33.6498,130.4435207,
福岡県,福岡市,舞松原第二-19-5,東区水谷二丁目29番,香椎台南公園付近フェンス,33.6510493,130.4450279,
福岡県,福岡市,舞松原第二-19-6,東区水谷一丁目10番,松崎中央公園北側入口横,33.64829220000001,130.4470175,
福岡県,福岡市,舞松原第二-19-7,東区水谷二丁目12番,水谷公園南側フェンス,33.650943,130.442322,
福岡県,福岡市,若宮第一-20-1,東区若宮三丁目27番1号,若宮公民館前,33.6361134,130.4461311,
福岡県,福岡市,若宮第一-20-2,東区若宮二丁目21番,市営若宮住宅3棟西側,33.6347946,130.4508372,
福岡県,福岡市,若宮第一-20-3,東区若宮四丁目5番,松崎東公園北東側,33.6413533,130.4460625,
福岡県,福岡市,若宮第一-20-4,東区若宮三丁目12番1号,若宮小学校正門横フェンス,33.6384911,130.4473656,
福岡県,福岡市,若宮第一-20-5,東区舞松原一丁目4番,平駐車場西側ガードレールが,33.6385998,130.4530653,
福岡県,福岡市,若宮第一-20-6,東区若宮三丁目5番,大浦公園南西側,33.638931,130.4486886,
福岡県,福岡市,若宮第一-20-7,東区舞松原一丁目3番,多々良東公園東側,33.6379306,130.4523491,
福岡県,福岡市,若宮第一-20-8,東区若宮四丁目14番,若宮3号公園前,33.6390109,130.4438341,
福岡県,福岡市,若宮第二-21-1,東区若宮五丁目24番,市営松崎住宅2棟入口横,33.64536930000001,130.4433013,
福岡県,福岡市,若宮第二-21-2,東区水谷一丁目4番,多々良住宅6号棟北側,33.645992,130.4448687,
福岡県,福岡市,若宮第二-21-3,東区若宮五丁目21番3号,市営松崎住宅3棟前,33.644948,130.4425788,
福岡県,福岡市,若宮第二-21-4,東区若宮五丁目3番53号,福岡矯正管区入口東側,33.6443681,130.4438555,
福岡県,福岡市,若宮第二-21-5,東区若宮五丁目13番,若宮2号公園南側,33.6419566,130.4424812,
福岡県,福岡市,若宮第二-21-6,東区若宮五丁目18番,アークソピア香椎南の南東側水路上の道路,33.643398,130.4416057,
福岡県,福岡市,若宮第二-21-7,東区水谷一丁目1番30号,松崎住宅駐車場南東側ガードレール,33.6449844,130.4441809,
福岡県,福岡市,香椎第一-22-1,東区香椎駅前三丁目2番1号,香椎小学校正門前,33.6628654,130.440739,
福岡県,福岡市,香椎第一-22-2,東区香椎駅前三丁目24番,よろい坂団地2棟前,33.6664694,130.4431975,
福岡県,福岡市,香椎第一-22-3,東区御島崎二丁目20番,御島崎1号公園,33.663623,130.4355567,
福岡県,福岡市,香椎第一-22-4,東区香椎駅前三丁目28番20号,よろい坂集会所前,33.6648433,130.4431418,
福岡県,福岡市,香椎第一-22-5,東区御島崎一丁目13番,若葉団地13棟東側,33.6593179,130.4351587,
福岡県,福岡市,香椎第一-22-6,東区香椎駅東二丁目22番,九州高校グラウンド横JR側フェンス,33.6627515,130.445585,
福岡県,福岡市,香椎第一-22-7,東区御島崎一丁目26番,御島崎公園北側フェンス,33.660406,130.4372282,
福岡県,福岡市,香椎第一-22-8,東区御島崎一丁目40番,アーベイン香椎若葉前フェンス,33.6610944,130.4354771,
福岡県,福岡市,香椎第二-23-1,東区香椎駅前一丁目11番,JR香椎駅前ガードレール,33.6597995,130.4436313,
福岡県,福岡市,香椎第二-23-2,東区香椎駅前一丁目4番26号,工事資材置き場ガードレール,33.6565861,130.4435954,
福岡県,福岡市,香椎第二-23-3,東区香椎駅前二丁目10番,みゆき橋東側フェンス,33.6577117,130.4407363,
福岡県,福岡市,香椎第二-23-4,東区香椎駅前一丁目25番,鎧塚歩道橋横ガードレール,33.6624574,130.4427995,
福岡県,福岡市,香椎第二-23-5,東区香椎駅前一丁目11番,香椎駅南側フェンス,33.6597995,130.4436313,
福岡県,福岡市,香椎第二-23-6,東区香椎駅前二丁目17番19号,香椎公民館横,33.6596518,130.4404532,
福岡県,福岡市,香椎第二-23-7,東区香椎駅前二丁目3番,新浜男橋横ガードレール,33.6581078,130.437865,
福岡県,福岡市,香椎第二-23-8,東区香椎駅前一丁目13番8号,香椎駅前東公園前フェンス,33.6600048,130.4428145,
福岡県,福岡市,香椎下原第一-24-1,東区香椎駅東三丁目32番,香椎第三中学校横ガードレール,33.6618777,130.4528265,
福岡県,福岡市,香椎下原第一-24-2,東区香椎駅東四丁目8番,八尻西公園東側,33.6648654,130.4526674,
福岡県,福岡市,香椎下原第一-24-3,東区香椎駅東四丁目24番,八尻中公園南側フェンス,33.6668085,130.452747,
福岡県,福岡市,香椎下原第一-24-4,東区香椎駅東四丁目19番,八尻南公園東側,33.6647407,130.4540997,
福岡県,福岡市,香椎下原第一-24-5,東区香椎駅東三丁目9番,香椎駅東2号公園,33.6640284,130.4499619,
福岡県,福岡市,香椎下原第一-24-6,東区香椎駅東三丁目31番,坂堤南東側フェンス,33.6607787,130.4516379,
福岡県,福岡市,香椎下原第一-24-7,東区香椎駅東三丁目26番,香椎駅東1号公園北側,33.6647599,130.4505189,
福岡県,福岡市,香椎下原第二-25-1,東区下原一丁目4番2号,香椎下原公民館前フェンス,33.670853,130.4557785,
福岡県,福岡市,香椎下原第二-25-2,東区下原一丁目4番1号,香椎下原小学校裏門横,33.6697618,130.4556078,
福岡県,福岡市,香椎下原第二-25-3,東区香椎駅東四丁目46番1号,エトウビル前,33.6684806,130.4546108,
福岡県,福岡市,香椎下原第二-25-4,東区下原二丁目5番,八尻北公園入口付近植込み,33.6686696,130.4571233,
福岡県,福岡市,香椎下原第二-25-5,東区下原四丁目2番1号,BRANCH福岡下原搬入出口横フェンス,33.6722686,130.4497943,
福岡県,福岡市,香椎下原第二-25-6,東区下原五丁目73番,下原西公園前,33.6767945,130.4522695,
福岡県,福岡市,香椎下原第二-25-7,東区下原三丁目22番,下原公園前,33.6744559,130.4556115,
福岡県,福岡市,香椎下原第二-25-8,東区松香台一丁目10番,松葉谷公園前,33.6665549,130.4466991,
福岡県,福岡市,愛宕第一-1,西区愛宕浜二丁目2番,ウェーブコースト8番館前植樹帯,33.5946549,130.338346,
福岡県,福岡市,愛宕第一-2,西区愛宕浜二丁目2番,ウェーブコースト2番館前植樹帯,33.5946549,130.338346,
福岡県,福岡市,愛宕第一-3,西区愛宕浜二丁目1番,イーストコート9号棟前植樹帯,33.5931686,130.3401232,
福岡県,福岡市,愛宕第一-4,西区愛宕浜二丁目1番,イーストコート5号棟南側植樹帯,33.5931686,130.3401232,
福岡県,福岡市,愛宕第一-5,西区愛宕浜二丁目1番,クレアコースト3番館西,33.5931686,130.3401232,
福岡県,福岡市,愛宕第一-6,西区愛宕浜二丁目1番,愛宕浜東緑地北側,33.5931686,130.3401232,
福岡県,福岡市,愛宕第一-7,西区愛宕浜二丁目1番,愛宕浜東緑地南側,33.5931686,130.3401232,
福岡県,福岡市,愛宕第二-1,西区豊浜二丁目13番,豊浜公園東側,33.589647,130.3378908,
福岡県,福岡市,愛宕第二-2,西区豊浜二丁目27番,愛宕浜一丁目バス停横,33.5922076,130.3364955,
福岡県,福岡市,愛宕第二-3,西区豊浜二丁目17番,マリナタウン第1バス停向側,33.5910653,130.3358577,
福岡県,福岡市,愛宕第二-4,西区愛宕四丁目15番,愛宕小学校正門横,33.5870124,130.339007,
福岡県,福岡市,愛宕第二-5,西区愛宕三丁目2番,ルネッサンス室見向側フェンス,33.5822368,130.3377314,
福岡県,福岡市,愛宕第二-6,西区愛宕四丁目15番,愛宕小学校東南側角,33.5870124,130.339007,
福岡県,福岡市,愛宕第二-7,西区愛宕三丁目23番,愛宕北公園東側ガードレール,33.5864629,130.3368543,
福岡県,福岡市,愛宕第三-1,西区愛宕一丁目2番,アクシス室見前,33.5811459,130.3367746,
福岡県,福岡市,愛宕第三-2,西区愛宕一丁目29番,駐車場フェンス,33.5823938,130.3335853,
福岡県,福岡市,愛宕第三-3,西区愛宕一丁目5番,室見川筑肥橋横,33.5803046,130.33518,
福岡県,福岡市,愛宕第三-4,西区愛宕一丁目25番,交通局姪浜変電所南側フェンス,33.5829743,130.3313527,
福岡県,福岡市,愛宕第三-5,西区愛宕一丁目7番,個人敷地前植樹帯,33.58121,130.3346123,
福岡県,福岡市,愛宕第三-6,西区愛宕二丁目16番,サワライズ愛宕駐車場ブロック塀,33.5849444,130.3323096,
福岡県,福岡市,愛宕第三-7,西区愛宕四丁目24番,ヘルスケアさわら前,33.5878371,130.3339043,
福岡県,福岡市,能古-1,西区能古657番地32,能古保育園前,33.6111599,130.3086033,
福岡県,福岡市,能古-2,西区能古726番地9,能古公民館前,33.6096351,130.3078655,
福岡県,福岡市,能古-3,西区能古457番地7,能古渡船場待合所前,33.61250520000001,130.311022,
福岡県,福岡市,能古-4,西区能古1611番地2,個人敷地向側,33.6305834,130.3038669,
福岡県,福岡市,能古-5,西区能古194番地,個人敷地向側,33.6175503,130.3132895,
福岡県,福岡市,能古-6,西区能古706番地,個人敷地向側,33.6099048,130.3058261,
福岡県,福岡市,愛宕浜-1,西区愛宕浜四丁目37番,愛宕浜4号公園前,33.593539,130.3288808,
福岡県,福岡市,愛宕浜-2,西区愛宕浜一丁目11番,愛宕浜2号公園,33.5915449,130.3351003,
福岡県,福岡市,愛宕浜-3,西区大字小呂島17番地,福岡市漁業協同組合小呂島支所前,33.8630612,130.0370425,
福岡県,福岡市,愛宕浜-4,西区姪の浜三丁目39番3号,アーベイン姪の浜マリナステージ3前,33.5915594,130.3270972,
福岡県,福岡市,愛宕浜-5,西区愛宕浜四丁目42番1号,愛宕浜小学校正門横,33.5953953,130.3299528,
福岡県,福岡市,愛宕浜-6,西区愛宕浜一丁目32番1号,姪浜中学校北側植込,33.5938864,130.3367227,
福岡県,福岡市,愛宕浜-7,西区愛宕浜三丁目2番,愛宕浜中央公園駐車場南側,33.5978355,130.3311933,
福岡県,福岡市,愛宕浜-8,西区愛宕浜四丁目10番,愛宕浜南公園北側フェンス,33.5919355,130.3322298,
福岡県,福岡市,姪浜第一-1,西区姪の浜二丁目20番23号,姪北小学校正門横,33.590417,130.3276647,
福岡県,福岡市,姪浜第一-2,西区姪の浜三丁目37番,福岡市漁業協同組合姪浜支所駐車場前,33.5914357,130.3248937,
福岡県,福岡市,姪浜第一-3,西区姪の浜三丁目10番15号,天然寺塀前,33.5887052,130.32473,
福岡県,福岡市,姪浜第一-4,西区姪の浜三丁目12番,万正寺向側,33.5891172,130.3268873,
福岡県,福岡市,姪浜第一-5,西区姪の浜二丁目20番28号,姪北公民館北側フェンス,33.5911041,130.3277752,
福岡県,福岡市,姪浜第一-6,西区姪の浜三丁目32番,姪浜北公園西側フェンス,33.59098,130.3268075,
福岡県,福岡市,姪浜第一-7,西区姪の浜二丁目21番,名柄団地公園南側フェンス,33.5912621,130.3286615,
福岡県,福岡市,姪浜第二-1,西区姪の浜四丁目24番,姪浜駅北側,33.58542920000001,130.3254519,
福岡県,福岡市,姪浜第二-2,西区姪の浜一丁目3番18号,ときわ幼稚園フェンス,33.5850649,130.3303161,
福岡県,福岡市,姪浜第二-3,西区姪の浜二丁目7番,姪浜3号公園,33.5873267,130.3307148,
福岡県,福岡市,姪浜第二-4,西区姪の浜二丁目10番6号,姪浜小学校正門横,33.5876754,130.3299523,
福岡県,福岡市,姪浜第二-5,西区姪の浜一丁目1番67号,姪浜ドライビングスクール前フェンス,33.5852049,130.3311679,
福岡県,福岡市,姪浜第二-6,西区姪の浜一丁目20番29号,NTT西日本姪浜電話交換所フェンス,33.5855699,130.3285078,
福岡県,福岡市,姪浜第二-7,西区姪の浜二丁目10番,姪浜小学校北側フェンス,33.5882031,130.3295985,
福岡県,福岡市,姪浜第三-1,西区姪浜駅南一丁目1番,姪浜駅南口向側タクシー乗降場横,33.5833747,130.3243354,
福岡県,福岡市,姪浜第三-2,西区内浜一丁目4番1号,西区役所前,33.5828332,130.3229733,
福岡県,福岡市,姪浜第三-3,西区姪浜駅南二丁目4番,姪浜中央公園北東側,33.5810736,130.3249734,
福岡県,福岡市,姪浜第三-4,西区愛宕南一丁目6番,しろうお集会所前緑地,33.5791208,130.3307148,
福岡県,福岡市,姪浜第三-5,西区姪浜駅南三丁目7番,姪浜中公園フェンス,33.5814161,130.3278442,
福岡県,福岡市,姪浜第三-6,西区姪浜駅南四丁目5番,姪浜公園,33.5820893,130.32912,
福岡県,福岡市,姪浜第三-7,西区愛宕南二丁目7番,姪浜4号公園,33.5808415,130.3323096,
福岡県,福岡市,姪浜第三-8,西区姪浜駅南二丁目15番19号,九州電力姪浜変電所フェンス,33.5791977,130.3253801,
福岡県,福岡市,内浜第一-1,西区姪の浜五丁目8番8号,内浜小学校正門横,33.5850721,130.3229021,
福岡県,福岡市,内浜第一-2,西区姪の浜四丁目19番,上野間公園フェンス,33.5858877,130.3246544,
福岡県,福岡市,内浜第一-3,西区姪の浜五丁目8番8号,内浜小学校北西角フェンス,33.5850721,130.3229021,
福岡県,福岡市,内浜第一-4,西区姪の浜六丁目1番8号,福岡市農業協同組合姪浜支店東側,33.5877261,130.322337,
福岡県,福岡市,内浜第一-5,西区姪の浜五丁目23番,興徳寺東側フェンス,33.5869206,130.3193909,
福岡県,福岡市,内浜第一-6,西区姪の浜六丁目6番,名柄橋南側,33.5890999,130.3201885,
福岡県,福岡市,内浜第一-7,西区姪の浜六丁目14番,姪浜当方公園前フェンス,33.5899037,130.3233785,
福岡県,福岡市,内浜第一-8,西区姪の浜六丁目3番,姪浜2号公園前,33.5881402,130.3198175,
福岡県,福岡市,内浜第二-1,西区小戸三丁目7番,小戸南公園東側,33.5878781,130.3173173,
福岡県,福岡市,内浜第二-2,西区小戸三丁目7番,小戸南公園南側,33.5878781,130.3173173,
福岡県,福岡市,内浜第二-3,西区小戸三丁目24番,フードウェイ小戸店西側,33.5904288,130.3160412,
福岡県,福岡市,内浜第二-4,西区小戸四丁目11番32号,内浜公民館入口,33.5851082,130.3187994,
福岡県,福岡市,内浜第二-5,西区小戸三丁目24番,フードウェイ小戸店駐車場横,33.5904288,130.3160412,
福岡県,福岡市,内浜第二-6,西区小戸三丁目42番,小戸三丁目集会所前フェンス,33.5883944,130.3146853,
福岡県,福岡市,内浜第二-7,西区小戸四丁目31番,神功町公園フェンス,33.5823015,130.3145258,
福岡県,福岡市,内浜第二-8,西区小戸五丁目2番,神功町西公園西側,33.5845779,130.312452,
福岡県,福岡市,内浜第三-1,西区小戸一丁目35番,小戸東公園フェンス,33.5920335,130.321305,
福岡県,福岡市,内浜第三-2,西区小戸二丁目5番,西部水処理センター南東角,33.5978021,130.3177959,
福岡県,福岡市,内浜第三-3,西区小戸一丁目8番,名柄橋北側,33.5896415,130.3196459,
福岡県,福岡市,内浜第三-4,西区小戸一丁目15番14号,ファディ駐車場フェンス,33.5905566,130.3178734,
福岡県,福岡市,内浜第三-5,西区小戸二丁目1番2号,いきいき工房東側フェンス,33.5915852,130.3199692,
福岡県,福岡市,内浜第三-6,西区小戸二丁目1番25号,小戸ゴルフセンター南側フェンス,33.5913356,130.3175516,
福岡県,福岡市,内浜第三-7,西区小戸一丁目27番1号,福岡市姪の浜ポンプ場北側,33.5913768,130.3228352,
福岡県,福岡市,内浜第四-1,西区内浜一丁目3番7号,西福岡年金事務所東側,33.5828411,130.3213077,
福岡県,福岡市,内浜第四-2,西区内浜一丁目12番1号,内浜中学校正門横,33.5801833,130.3201645,
福岡県,福岡市,内浜第四-3,西区内浜一丁目4番7号,西区役所別館南側,33.582562,130.3232638,
福岡県,福岡市,内浜第四-4,西区内浜一丁目12番1号,内浜中学校西門横,33.5801833,130.3201645,
福岡県,福岡市,内浜第四-5,西区内浜二丁目2番,都町公園東側フェンス,33.5827331,130.3192314,
福岡県,福岡市,内浜第四-6,西区内浜二丁目4番,旧九州電気保安協会月極駐車場前フェンス,33.5832152,130.318334,
福岡県,福岡市,内浜第四-7,西区内浜二丁目25番,駐車場横ブロック塀,33.5821423,130.3175566,
福岡県,福岡市,内浜第四-8,西区内浜一丁目2番,市営野添住宅南側フェンス,33.5835748,130.3208265,
福岡県,福岡市,福重-1,西区福重四丁目25番1号,福重小学校正門横,33.572067,130.3256221,
福岡県,福岡市,福重-2,西区福重五丁目14番,新室見公園フェンス,33.5751334,130.3270468,
福岡県,福岡市,福重-3,西区福重三丁目26番,福重公園北側フェンス,33.5709475,130.3199492,
福岡県,福岡市,福重-4,西区福重二丁目29番,壱岐公園東側フェンス,33.5644782,130.3201885,
福岡県,福岡市,福重-5,西区福重三丁目28番,鹿町公園フェンス,33.5704205,130.3186732,
福岡県,福岡市,福重-6,西区福重団地7番,福重団地7棟前,33.5701039,130.3252924,
福岡県,福岡市,福重-7,西区福重四丁目25番2号,福重公民館南側フェンス,33.5721675,130.3249776,
福岡県,福岡市,福重-8,西区福重五丁目8番,福重五丁目集会所前フェンス,33.5747501,130.3246544,
福岡県,福岡市,石丸第一-1,西区石丸三丁目9番25号,石丸小学校正門横,33.5729061,130.3152643,
福岡県,福岡市,石丸第一-2,西区石丸三丁目7番,石丸東公園西側,33.574345,130.314446,
福岡県,福岡市,石丸第一-3,西区石丸三丁目44番19号,個人敷地東側ガードフェンス,33.5760924,130.3132223,
福岡県,福岡市,石丸第一-4,西区石丸三丁目29番,石丸西公園入口横,33.5739411,130.3122925,
福岡県,福岡市,石丸第一-5,西区石丸四丁目12番,石丸南公園西側,33.570565,130.3106174,
福岡県,福岡市,石丸第一-6,西区石丸四丁目9番,十郎川団地5棟向側フェンス,33.5699867,130.3134091,
福岡県,福岡市,石丸第一-7,西区石丸四丁目3番1号,旧西部市場北側フェンス,33.5708305,130.3155627,
福岡県,福岡市,石丸第二-1,西区石丸二丁目24番,石丸中公園東側植込,33.5734516,130.3169185,
福岡県,福岡市,石丸第二-2,西区石丸二丁目5番,石丸1号公園,33.571551,130.3185934,
福岡県,福岡市,石丸第二-3,西区石丸二丁目16番15号,石丸二丁目集会所前フェンス,33.5722219,130.3193923,
福岡県,福岡市,石丸第二-4,西区石丸一丁目27番,石丸公園入口横,33.573673,130.3212252,
福岡県,福岡市,石丸第二-5,西区石丸一丁目29番1号,石丸市営住宅南側,33.5731079,130.3222604,
福岡県,福岡市,石丸第二-6,西区石丸二丁目5番10号,石丸公民館前,33.5716671,130.3189523,
福岡県,福岡市,石丸第二-7,西区石丸二丁目25番,石丸一号緑地,33.5738695,130.3165995,
福岡県,福岡市,石丸第三-1,西区大町団地17番,大町団地集会所向側フェンス,33.5766604,130.3188327,
福岡県,福岡市,石丸第三-2,西区大町団地9番,大町団地9棟横駐車場東側フェンス,33.5768334,130.3208265,
福岡県,福岡市,石丸第三-3,西区大町団地22番,大町団地西部ガスガバナ室前,33.5776863,130.3188327,
福岡県,福岡市,石丸第三-4,西区大町団地23番,大町団地23棟北側角,33.5775367,130.3177161,
福岡県,福岡市,石丸第三-5,西区大町団地14番,大町団地14棟前南側道路ガードレール,33.5761553,130.3178756,
福岡県,福岡市,下山門-1,西区下山門四丁目15番1号,下山門小学校正門横,33.5757884,130.3093711,
福岡県,福岡市,下山門-2,西区下山門団地1番,下山門駅西自転車駐車場前,33.5806269,130.3071874,
福岡県,福岡市,下山門-3,西区下山門団地19番,下山門中央公園西側フェンス,33.5774865,130.307347,
福岡県,福岡市,下山門-4,西区下山門団地16番,下山門団地16棟東側フェンス,33.577365,130.3087828,
福岡県,福岡市,下山門-5,西区下山門団地11番,下山門団地11棟北側フェンス,33.5790178,130.3083042,
福岡県,福岡市,下山門-6,西区生の松原一丁目1番,生の松原集会所東側,33.5830765,130.3071077,
福岡県,福岡市,下山門-7,西区下山門一丁目7番,下山門1号公園北側フェンス,33.5805069,130.3166793,
福岡県,福岡市,下山門-8,西区下山門三丁目13番,下山門北公園入口横,33.5788176,130.3115347,
福岡県,福岡市,西陵-1,西区下山門団地39番,下山門団地39棟前,33.5775052,130.3065493,
福岡県,福岡市,西陵-2,西区生の松原二丁目3番,小松原公園北側フェンス,33.5773254,130.3023213,
福岡県,福岡市,西陵-3,西区下山門団地43番,下山門団地43棟横フェンス,33.5786122,130.305592,
福岡県,福岡市,西陵-4,西区生の松原四丁目1番,生/松原緑地前フェンス,33.5734849,130.3007992,
福岡県,福岡市,西陵-5,西区生の松原四丁目24番,生の松原公園南側,33.5719472,130.2965771,
福岡県,福岡市,西陵-6,西区生の松原四丁目1番,生ノ松原緑地北東角,33.5734849,130.3007992,
福岡県,福岡市,西陵-7,西区下山門団地74番,下山門団地74棟西側植込,33.5759487,130.3041561,
福岡県,福岡市,壱岐第一-1,西区拾六町三丁目21番,壱岐小学校西門横,33.5639839,130.308703,
福岡県,福岡市,壱岐第一-2,西区拾六町団地4番,拾六町団地南バス停横,33.5631819,130.306629,
福岡県,福岡市,壱岐第一-3,西区拾六町団地4番,拾六町団地21棟横公園フェンス,33.5631819,130.306629,
福岡県,福岡市,壱岐第一-4,西区拾六町二丁目3番,サニー福重店西側フェンス,33.5663764,130.3104579,
福岡県,福岡市,壱岐第一-5,西区拾六町三丁目18番,ひなぎく保育園斜め向側ガードフェンス,33.5651048,130.3088825,
福岡県,福岡市,壱岐第一-6,西区拾六町三丁目8番,拾六町東公園南側,33.5682098,130.3072672,
福岡県,福岡市,壱岐第一-7,西区拾六町四丁目15番,拾六町1号公園南側,33.5670069,130.3041561,
福岡県,福岡市,壱岐第一-8,西区野方六丁目33番,棒目橋,33.5583695,130.3080649,
福岡県,福岡市,壱岐第二-1,西区生松台一丁目1番,生松台入口バス停向側,33.5606507,130.3007257,
福岡県,福岡市,壱岐第二-2,西区野方七丁目780番地2,生の松原特別支援学校前ガードフェンス,33.5577356,130.3039377,
福岡県,福岡市,壱岐第二-3,西区生松台一丁目20番,生松台北2号公園北側フェンス,33.5578414,130.2998482,
福岡県,福岡市,壱岐第二-4,西区野方六丁目23番,野方打ヶ浦公園フェンス,33.5594882,130.3040763,
福岡県,福岡市,壱岐第二-5,西区生松台二丁目23番,生松台中公園フェンス,33.5545737,130.2997684,
福岡県,福岡市,壱岐第二-6,西区生松台二丁目32番,生松台南公園フェンス,33.551119,130.3001673,
福岡県,福岡市,壱岐第二-7,西区生松台二丁目46番,生松台東公園フェンス,33.5529294,130.3030393,
福岡県,福岡市,壱岐第二-8,西区西の丘三丁目13番,西の丘中央公園東側入口掲示板横,33.5661339,130.2994493,
福岡県,福岡市,壱岐南第一-1,西区戸切三丁目19番,特別養護老人ホームマナハウス向側ガードレール,33.5526505,130.314446,
福岡県,福岡市,壱岐南第一-2,西区戸切三丁目2番,戸切児童広場東側フェンス,33.5522849,130.3181946,
福岡県,福岡市,壱岐南第一-3,西区野方三丁目33番,野方藤ヶ丘北公園東側,33.5505105,130.3131699,
福岡県,福岡市,壱岐南第一-4,西区野方三丁目5番,萩ヶ丘団地入口町内掲示板向側,33.5523454,130.3105377,
福岡県,福岡市,壱岐南第一-5,西区野方二丁目36番,観進原公園フェンス,33.5513492,130.3067088,
福岡県,福岡市,壱岐南第一-6,西区戸切二丁目17番1号,壱岐南小学校西側外壁,33.5539866,130.3141012,
福岡県,福岡市,壱岐南第一-7,西区戸切三丁目17番,戸切公園南側フェンス,33.5528629,130.3154031,
福岡県,福岡市,壱岐南第二-1,西区壱岐団地128番地1,壱岐団地南集会所入口横,33.5572936,130.3148339,
福岡県,福岡市,壱岐南第二-2,西区橋本一丁目3番,県道561号北側フェンス,33.5599626,130.3227405,
福岡県,福岡市,壱岐南第二-3,西区橋本一丁目34番,室見川河畔公園東側,33.5627351,130.3257709,
福岡県,福岡市,壱岐南第二-4,西区壱岐団地106番地5,個人宅向側川沿いフェンス,33.558429,130.3166577,
福岡県,福岡市,壱岐南第二-5,西区橋本二丁目19番,橋本1号公園南側フェンス,33.55747789999999,130.3180351,
福岡県,福岡市,壱岐南第二-6,西区橋本二丁目37番,地下鉄橋本駅2番出入口東側植込,33.5548949,130.3206336,
福岡県,福岡市,壱岐南第二-7,西区壱岐団地1345番地74,壱岐団地南公園南側,33.561281,130.3152436,
福岡県,福岡市,壱岐南第三-1,西区野方五丁目15番3号,野方団地集会所西側塀,33.5534242,130.305728,
福岡県,福岡市,壱岐南第三-2,西区野方五丁目11番,野方西公園フェンス,33.5552216,130.3059909,
福岡県,福岡市,壱岐南第三-3,西区野方五丁目11番,野方中央公園北側入口横,33.5552216,130.3059909,
福岡県,福岡市,壱岐南第三-4,西区野方五丁目45番,野方南公園フェンス,33.5505616,130.3027202,
福岡県,福岡市,壱岐南第三-5,西区野方五丁目19番,野方東公園西側フェンス,33.5524343,130.3054325,
福岡県,福岡市,壱岐南第三-6,西区野方五丁目56番,大音公園西側フェンス,33.5503419,130.299529,
福岡県,福岡市,壱岐南第三-7,西区野方五丁目61番,野方台公園北側,33.54896,130.2996886,
福岡県,福岡市,金武第一-1,西区大字金武2136番地1,金武公民館向側,33.5343158,130.3214464,
福岡県,福岡市,金武第一-2,西区大字金武2056番地4,個人敷地向側,33.5339869,130.318733,
福岡県,福岡市,金武第一-3,西区大字吉武220番地,田んぼ脇ガードレール,33.53040500000001,130.3012044,
福岡県,福岡市,金武第一-4,西区大字羽根戸420番地,一乗寺向側,33.54241,130.3129752,
福岡県,福岡市,金武第一-5,西区大字飯盛534番地,飯盛保育園,33.5395986,130.3122598,
福岡県,福岡市,金武第一-6,西区大字金武744番地1号,金武バス停東側,33.5299212,130.3171063,
福岡県,福岡市,金武第一-7,西区大字金武865番地1,南金武バス停南側,33.5299212,130.3171063,
福岡県,福岡市,金武第一-8,西区大字金武1750番地1,かなたけの里公園入口バス停横,33.5297239,130.3172233,
福岡県,福岡市,金武第一-9,西区大字金武204番地1,金武南公園西側フェンス,33.5299212,130.3171063,
福岡県,福岡市,金武第二-1,西区室見が丘一丁目7番,金武南公園南側フェンス,33.5211326,130.316121,
福岡県,福岡市,金武第二-2,西区室見が丘二丁目22番,金武ふれあい広場南西角,33.5211271,130.3208265,
福岡県,福岡市,金武第二-3,西区室見が丘二丁目6番,室見が丘中央公園西側,33.5199467,130.3185934,
福岡県,福岡市,金武第二-4,西区室見が丘一丁目27番,室見が丘西公園西側,33.5188468,130.3154031,
福岡県,福岡市,金武第二-5,西区室見が丘三丁目23番,室見が丘南公園南側,33.5167993,130.3170781,
福岡県,福岡市,金武第二-6,西区室見が丘三丁目12番,室見が丘緑地,33.5179982,130.3185137,
福岡県,福岡市,金武第二-7,西区室見が丘二丁目7番,室見が丘東公園東側,33.5192557,130.3186732,
福岡県,福岡市,城の原-1,西区上山門一丁目27番1号,城原小学校西側フェンス,33.5706668,130.3078968,
福岡県,福岡市,城の原-2,西区城の原団地27番,城の原団地バス停横,33.57395169999999,130.308703,
福岡県,福岡市,城の原-3,西区城の原団地28番,城の原団地28棟前集会所前,33.5742432,130.3081447,
福岡県,福岡市,城の原-4,西区上山門一丁目27番1号,城原小学校東門横,33.5706668,130.3078968,
福岡県,福岡市,城の原-5,西区上山門二丁目39番24号,山ノ上公園西側フェンス,33.5703922,130.303488,
福岡県,福岡市,城の原-6,西区上山門二丁目19番,城の原公園東側フェンス,33.5733692,130.3028797,
福岡県,福岡市,城の原-7,西区城の原団地21番,城の原団地21棟前,33.5733265,130.30974,
福岡県,福岡市,城の原-8,西区上山門三丁目14番,高崎公園西側フェンス,33.5712497,130.301364,
福岡県,福岡市,壱岐東-1,西区橋本一丁目14番2号,壱岐東公民館西側フェンス,33.561696,130.3174354,
福岡県,福岡市,壱岐東-2,西区壱岐団地17番,壱岐団地17棟向側川沿いフェンス,33.5613887,130.3162805,
福岡県,福岡市,壱岐東-3,西区壱岐団地74番,壱岐団地中公園入口横,33.5597308,130.3150841,
福岡県,福岡市,壱岐東-4,西区壱岐団地37番,壱岐団地37棟西側フェンス,33.5622819,130.3138079,
福岡県,福岡市,壱岐東-5,西区壱岐団地71番,壱岐団地中央公園東側フェンス,33.5593501,130.3138079,
福岡県,福岡市,壱岐東-6,西区壱岐団地173番地15,壱岐団地北公園東側,33.561281,130.3152436,
福岡県,福岡市,壱岐東-7,西区壱岐団地51番,壱岐団地51棟横フェンス,33.5618776,130.3116544,
福岡県,福岡市,玄界島-1,西区大字玄界島21番地3,玄界公民館前,33.6830783,130.2348556,
福岡県,福岡市,玄界島-2,西区大字玄界島無番地,玄界島船着場前,33.6896756,130.2296803,
福岡県,福岡市,玄界島-3,西区大字玄界島1219番地60,市立玄界診療所西側,33.6837856,130.2362596,
福岡県,福岡市,玄界島-4,西区大字玄界島180番地,児童公園,33.6896756,130.2296803,
福岡県,福岡市,玄界島-5,西区大字玄界島字浜ノ上1番地1外,玄界復興記念公園フェンス,33.6896756,130.2296803,
福岡県,福岡市,今宿第一-1,西区今宿東三丁目12番3号,三菱電機体育館フェンス,33.5772339,130.2813394,
福岡県,福岡市,今宿第一-2,西区今宿青木1053番地,神和自動車向西側フェンス,33.57162,130.2819985,
福岡県,福岡市,今宿第一-3,西区今宿東二丁目17番,今宿公園フェンス,33.5768779,130.2792614,
福岡県,福岡市,今宿第一-4,西区今宿駅前一丁目17番,今宿松原公園フェンス,33.5806002,130.2774258,
福岡県,福岡市,今宿第一-5,西区今宿駅前一丁目2番,ドコモショップ今宿店北側歩道ガードパイプ,33.579664,130.273783,
福岡県,福岡市,今宿第一-6,西区今宿駅前一丁目19番,今宿郵便局前バス停横ガードパイプ,33.5798452,130.2771066,
福岡県,福岡市,今宿第一-7,西区今宿駅前一丁目21番,長垂海浜公園前バス停横ガードパイプ,33.579876,130.2802191,
福岡県,福岡市,今宿第二-1,西区今宿青木138番地1,今宿公民館東側水路ガードパイプ,33.5717844,130.2764881,
福岡県,福岡市,今宿第二-2,西区今宿東一丁目1番1号,三菱電機(株)南側フェンス,33.577483,130.2752884,
福岡県,福岡市,今宿第二-3,西区今宿上ノ原694番地,相原入口交差点北側ガードレール (水路沿い),33.557151,130.2807777,
福岡県,福岡市,今宿第二-4,西区今宿上ノ原488番地1,本村バス停向側ガードレール,33.557151,130.2807777,
福岡県,福岡市,今宿第二-5,西区今宿青木514番地1,今宿青木市住南側フェンス,33.5717196,130.2800417,
福岡県,福岡市,今宿第二-6,西区今宿東一丁目27番1号,今宿小学校正門側フェンス,33.5757714,130.2730007,
福岡県,福岡市,今宿第二-7,西区今宿青木230番地2,今宿青木公園フェンス,33.57162,130.2819985,
福岡県,福岡市,今宿第二-8,西区今宿町238番地,今宿町238番地ガードレール,33.5708664,130.2720236,
福岡県,福岡市,今宿第二-9,西区今宿町426番地2,今宿谷公園フェンス,33.5717299,130.2695414,
福岡県,福岡市,今津-1,西区今津4808番地,今津小学校正門横,33.6071956,130.2539671,
福岡県,福岡市,今津-2,西区今津1886番地8,今津南公園北東側フェンス,33.6022321,130.2598052,
福岡県,福岡市,今津-3,西区今津4928番地,今津日赤入口バス停横ガードレール,33.5984849,130.2654968,
福岡県,福岡市,今津-4,西区今津54番地1,福岡市漁業協同組合姪浜支所浜崎今津支所事務所向側,33.5977381,130.267288,
福岡県,福岡市,今津-5,西区今津1586番地先,今津公園西側歩道ガードパイプ,33.607631,130.2504511,
福岡県,福岡市,今津-6,西区今津4798番地53,今津ポンプ場敷地(今津自動車西側),33.6094144,130.24301,
福岡県,福岡市,今津-7,西区今津3581番地,今津大原公園柵,33.607631,130.2504511,
福岡県,福岡市,今津-8,西区今津3652番地先,大原橋バス停横ガードレール,33.607631,130.2504511,
福岡県,福岡市,周船寺第一-1,西区周船寺一丁目22番39号,周船寺小学校運動場入口,33.5706511,130.2418299,
福岡県,福岡市,周船寺第一-2,西区周船寺一丁目7番,周船寺駅バス停横ガードレール,33.57160760000001,130.2448544,
福岡県,福岡市,周船寺第一-3,西区大字千里342番地8先,筑前高校入口バス停横ガードパイプ,33.5624391,130.2431176,
福岡県,福岡市,周船寺第一-4,西区周船寺一丁目19番,ほっともっと周船寺店東側フェンス,33.5722505,130.2430178,
福岡県,福岡市,周船寺第一-5,西区周船寺一丁目2番,周船寺中公園フェンス,33.5707275,130.2448544,
福岡県,福岡市,周船寺第一-6,西区大字宇田川原260番地5,宇田川原公園フェンス,33.5593035,130.2444701,
福岡県,福岡市,周船寺第一-7,西区飯氏961番地4,平田公園西側フェンス,33.5644188,130.2501246,
福岡県,福岡市,周船寺第二-1,西区大字飯氏876番地1,周船寺公民館向側ガードレール,33.5706251,130.2484078,
福岡県,福岡市,周船寺第二-2,西区周船寺二丁目439番地1,伊靚神社横側道,33.5732912,130.2469306,
福岡県,福岡市,周船寺第二-3,西区周船寺二丁目1番,周船寺駅ロータリー北側フェンス,33.5711093,130.2461321,
福岡県,福岡市,周船寺第二-4,西区大字飯氏558番地1,大字飯氏558番地ガードレール,33.5644188,130.2501246,
福岡県,福岡市,周船寺第二-5,西区周船寺二丁目18番43号,サンライズ周船寺II向側ガードレール,33.5753176,130.2483118,
福岡県,福岡市,周船寺第二-6,西区周船寺三丁目22番,周船寺3号公園フェンス,33.5779598,130.2518812,
福岡県,福岡市,周船寺第二-7,西区周船寺二丁目15番50号,住宅敷地前歩道ガードパイプ,33.5744809,130.2445926,
福岡県,福岡市,西都-1,西区大字女原288番地1,一宮神社南側ガードレール,33.5700577,130.2621289,
福岡県,福岡市,西都-2,西区北原一丁目11番4号,北原中公園北側植込,33.5792972,130.2567855,
福岡県,福岡市,西都-3,西区大字女原56番地6,女原公園フェンス,33.5737427,130.2637068,
福岡県,福岡市,西都-4,西区西都一丁目9番11号地先,女原田尻線 橋りょう東側欄干,33.5799787,130.258297,手作業で修正
福岡県,福岡市,西都-5,西区北原一丁目7番30号地先,伊都区画整理駅前線橋りょう西側欄干,33.5793815,130.258641,
福岡県,福岡市,西都-6,西区大字徳永593番地2先,住宅敷地西側水路前歩道ガードパイプ,33.5718106,130.2580553,
福岡県,福岡市,西都-7,西区西都二丁目1番1号,西区役所西部出張所玄関前,33.577314,130.260229,
福岡県,福岡市,西都-8,西区北原一丁目1番,九大学研都市駅西側高架下駐輪場フェンス,33.5780681,130.2590268,
福岡県,福岡市,元岡第一-1,西区太郎丸一丁目2番24号,元岡小学校正門横,33.5898388,130.2399432,
福岡県,福岡市,元岡第一-2,西区学園通一丁目641番地1,今出集会所東側ガードパイプ,33.5876328,130.2487475,
福岡県,福岡市,元岡第一-3,西区元浜一丁目8番15号付近,セブンイレブン福岡元浜一丁目店駐車場対面ガードレール,33.5918539,130.2236427,
福岡県,福岡市,元岡第一-4,西区田尻二丁目29番13号,田尻二丁目29番ガードレール,33.5809206,130.2477467,
福岡県,福岡市,元岡第一-5,西区田尻三丁目356番地1,田尻中公園フェンス,33.5858595,130.2462918,
福岡県,福岡市,元岡第一-6,西区太郎丸二丁目7番地11,太郎丸公民館北側ガードレール,33.5847427,130.2365733,
福岡県,福岡市,元岡第一-7,西区大字桑原1115番地1,(株)松尾管工駐車場東側ガードレール,33.6043165,130.2256325,
福岡県,福岡市,元岡第一-8,西区大字元岡872番地,大坂の池脇歩道ガードレール,33.5934785,130.2207337,
福岡県,福岡市,元岡第一-9,西区田尻東一丁目23番,石崎公園前,33.5846641,130.2542043,
福岡県,福岡市,元岡第二-1,西区泉一丁目4番地,大生水池前ガードレール,33.5740821,130.2411995,
福岡県,福岡市,元岡第二-2,西区泉一丁目9番24号,泉西集会所裏ため池フェンス,33.575184,130.2419752,
福岡県,福岡市,元岡第二-3,西区泉一丁目19番,泉バス停先ガードパイプ(泉交差点566側西),33.5780689,130.2412609,
福岡県,福岡市,元岡第二-4,西区泉二丁目9番,セジュール泉II向側ガードパイプ,33.5774662,130.2426185,
福岡県,福岡市,元岡第二-5,西区泉二丁目79番地,泉東公園内,33.57713270000001,130.2430976,
福岡県,福岡市,元岡第二-6,西区泉三丁目984番地,深町池フェンス,33.5777273,130.2453336,
福岡県,福岡市,元岡第二-7,西区泉三丁目1048番地1,泉公園內,33.5777273,130.2453336,
福岡県,福岡市,宮浦-1,西区大字宮浦1978番地1,北崎公民館前フェンス,33.6411474,130.2275636,
福岡県,福岡市,宮浦-2,西区大字宮浦1937番地1,畑中バス停(下り) 側ガードパイプ,33.6427389,130.2241887,
福岡県,福岡市,宮浦-3,西区大字宮浦273番地,唐泊漁協ストアー横グラウンド,33.643117,130.2326336,
福岡県,福岡市,宮浦-4,西区大字宮浦1182番地,宮浦公民館西隣,33.6416414,130.2284263,
福岡県,福岡市,宮浦-5,西区大字宮浦1113番地付近,唐泊漁港入口横ガードレール,33.6430876,130.2310681,
福岡県,福岡市,宮浦-6,西区大字宮浦1947番地4,畑中児童広場東側ガードレール,33.6429776,130.2250007,
福岡県,福岡市,西浦-1,西区大字西浦665番地,大字西浦665番地ガードレール,33.6480372,130.2110268,
福岡県,福岡市,西浦-2,西区大字西浦1062番地先,井上橋東側ガードレール,33.6502697,130.2103964,
福岡県,福岡市,西浦-3,西区大字西浦1078番地先,西ノ浦公園西側フェンス,33.6511648,130.2097271,
福岡県,福岡市,西浦-4,西区大字西浦736番地1先,梢バス停向側ガードパイプ,33.6474024,130.2135645,
福岡県,福岡市,西浦-5,西区大字西浦1277番地3,大字西浦1277番地ガードパイプ,33.6543491,130.2099495,
福岡県,福岡市,西浦-6,西区大字西浦1021番地先,西岡公民館北側ガードレール,33.6498638,130.212405,
福岡県,福岡市,小田-1,西区大字小田1194番地5,小田公民館横(小田児童広場フェンス),33.6300704,130.217795,
福岡県,福岡市,小田-2,西区大字小田22番地1,サイクリングロード小田休憩所,33.6286437,130.2117858,
福岡県,福岡市,小田-3,西区大字小田497番地1,福寿寺東側道路フェンス,33.6286437,130.2117858,
福岡県,福岡市,小田-4,西区大字小田3046番地2,大字小田3046番地ガードレール,33.6306051,130.2174157,
福岡県,福岡市,小田-5,西区大字小田2857番地,大静寺東側ガードレール,33.6342449,130.21263,
福岡県,福岡市,小田-6,西区大字小田1905番地,大字小田1905番地ガードレール,33.6361095,130.2091355,
福岡県,福岡市,小田-7,西区大字草場344番地,大字草場344番地ガードレール,33.6148364,130.2153076,
福岡県,福岡市,玄洋-1,西区横浜二丁目34番,玄洋中学校前バス停横ガードパイプ,33.5881703,130.2606634,
福岡県,福岡市,玄洋-2,西区今宿二丁目7番,今宿1号公園フェンス,33.584171,130.2675286,
福岡県,福岡市,玄洋-3,西区横浜二丁目17番,横浜北公園フェンス,33.59253400000001,130.2628188,
福岡県,福岡市,玄洋-4,西区横浜三丁目25番,林田公園フェンス,33.58582060000001,130.2595457,
福岡県,福岡市,玄洋-5,西区今宿三丁目38番1号,玄洋小学校西門横フェンス,33.5796936,130.265551,
福岡県,福岡市,玄洋-6,西区今宿東一丁目2番地先,今宿駅高架下自転車駐輪場フェンス,33.5751636,130.2769869,
福岡県,福岡市,玄洋-7,西区横浜三丁目4番,上新田公園フェンス,33.5829338,130.2607432,
福岡県,福岡市,玄洋-8,西区横浜一丁目28番,横浜南公園フェンス,33.5823199,130.2651338,
