prefecture,city,number,address,name,lat,long,note
福岡県,福津市,1-1,中央1丁目5060番地,福津市役所前バス停横植込み,33.767094,130.490753,公式データ
福岡県,福津市,1-2,光陽台1丁目9番地7,旧光陽台下水処理場フェンス,33.767837,130.493997,公式データ
福岡県,福津市,1-3,光陽台3丁目10番地1,光陽台３丁目テニスコート公園植込み,33.768542,130.498334,公式データ
福岡県,福津市,1-4,光陽台1丁目34番地,美容室ボア・フレア横歩道フェンス,33.767588,130.497257,公式データ
福岡県,福津市,1-5,福間駅東1丁目2895番地4,白菊幼稚園入口交差点歩道ガードパイプ,33.762847,130.492568,公式データ
福岡県,福津市,1-6,光陽台1丁目25番地1,調整池前歩道ガードパイプ,33.766278,130.49191,公式データ
福岡県,福津市,1-7,中央3丁目5171番地,ＪＲ福間駅前広場道路側柵,33.763514,130.486097,公式データ
福岡県,福津市,1-8,中央2丁目3482番地1,大和保育所前ガードパイプ,33.768212,130.48819,公式データ
福岡県,福津市,2-9,中央4丁目5066番地,上妻整形外科第２駐車場前花壇,33.767067,130.484279,公式データ
福岡県,福津市,2-10,中央4丁目5104番地12地先,太郎丸交差点ピザクック前歩道ガードパイプ,33.769687,130.48471,公式データ
福岡県,福津市,2-11,中央5丁目3682番地,昭和公園セブンイレブン側入口横柵,33.769104,130.482098,公式データ
福岡県,福津市,2-12,中央6丁目3769番地1,福間会館前板鳥邸ブロック塀,33.765752,130.481396,公式データ
福岡県,福津市,2-13,西福間1丁目4963番地2,西福間１公民館前フェンス,33.769264,130.478695,公式データ
福岡県,福津市,2-14,西福間2丁目3960番地1,福間小学校グラウンド武道館前フェンス,33.766724,130.477868,公式データ
福岡県,福津市,3-15,西福間2丁目4037番地4,福間体育センター正面玄関横植込み,33.764576,130.478559,公式データ
福岡県,福津市,3-16,中央6丁目2657番地,ＮＴＴ西日本福間電話交換所フェンス,33.76352,130.47941,公式データ
福岡県,福津市,3-17,西福間2丁目4013番地,福間郷づくり交流センター,33.764414,130.476312,公式データ
福岡県,福津市,3-18,西福間2丁目3960番地1,福間小学校正門横ブロック塀,33.765251,130.477454,公式データ
福岡県,福津市,3-19,西福間3丁目4466番地,緑町公民館前フェンス,33.765296,130.473901,公式データ
福岡県,福津市,3-20,西福間3丁目2595番地1,南町公民館前フェンス,33.763104,130.472133,公式データ
福岡県,福津市,3-21,西福間5丁目4560番地343,西福間１号公園フェンス,33.771506,130.476328,公式データ
福岡県,福津市,4-22,花見が浜3丁目2258番地2,向山第２公園フェンス,33.759442,130.471761,公式データ
福岡県,福津市,4-23,花見の里3丁目1940番地2,苅目川横ハウス前歩道フェンス,33.755757,130.472034,公式データ
福岡県,福津市,4-24,花見の里2丁目5062番地,花見原町団地入口交差点正面ガードパイプ,33.755286,130.474628,公式データ
福岡県,福津市,4-25,花見の里1丁目1697番地8,花見の里１丁目苅目川排水池フェンス,33.753182,130.479326,公式データ
福岡県,福津市,4-26,花見が丘2丁目1801番地1,福間中学校運動場フェンス,33.756892,130.47643,公式データ
福岡県,福津市,4-27,花見が丘1丁目183番地1,花見が丘1丁目公園フェンス,33.761541,130.482176,公式データ
福岡県,福津市,4-28,花見が浜1丁目2453番地2,向山バス停そば福間病院敷地,33.760856,130.476812,公式データ
福岡県,福津市,5-29,日蒔野1丁目102番地,福間駅さいごう口自動車駐車場,33.763173,130.487151,公式データ
福岡県,福津市,5-30,日蒔野3丁目2番地2,日蒔野１２号公園（かんなづき公園）交差点横,33.760452,130.484428,公式データ
福岡県,福津市,5-31,福間南3丁目1279番地1地先,寺田公園前バス停ガードレール,33.75695,130.482646,公式データ
福岡県,福津市,5-32,有弥の里1丁目5番地1,消防団第７分団格納庫フェンス,33.751881,130.485568,公式データ
福岡県,福津市,5-33,日蒔野6丁目33番地1,原町団地南口交差点竹尾緑地側ガードパイプ,33.750457,130.487978,公式データ
福岡県,福津市,5-34,日蒔野6丁目17番地,日蒔野８号公園（むつき公園）イオン側,33.755203,130.493438,公式データ
福岡県,福津市,5-35,日蒔野4丁目11番地2,福間南小学校体育館駐車場フェンス,33.759983,130.489288,公式データ
福岡県,福津市,5-36,福間南1丁目1154番地4,パシオンクレシア前横断歩道正面ガードパイプ,33.7550164,130.487566,公式データ
福岡県,福津市,6-37,上西郷10番地14,ミノブチ松田工務店横防火水槽フェンス,33.766849,130.503697,公式データ
福岡県,福津市,6-38,上西郷263番地1,鞍掛橋正面,33.760916,130.500452,公式データ
福岡県,福津市,6-39,上西郷790番地2,折目酒店横交差点なまずの郷運動公園側ガードパイプ,33.753985,130.506343,公式データ
福岡県,福津市,6-40,内殿591番地15,上西郷郷づくり交流センター県道側フェンス,33.757026,130.517311,公式データ
福岡県,福津市,6-41,内殿431番地1,内殿公民館入口フェンス,33.749748,130.518705,公式データ
福岡県,福津市,6-42,舎利蔵168番地2,舎利蔵防火水槽横ガードレール,33.741281,130.534375,公式データ
福岡県,福津市,6-43,畦町447番地3,朝日が丘団地入口歩道ガードパイプ,33.758608,130.521973,公式データ
福岡県,福津市,6-44,畦町1366番地,大明神橋横畦町公民館入口交差点歩道ガードパイプ,33.76228,130.528184,公式データ
福岡県,福津市,6-45,本木1200番地2,本木入口バス停横ガードパイプ,33.755674,130.532983,公式データ
福岡県,福津市,7-46,八並686番地1地先,八並防火水槽横ガードパイプ,33.769767,130.52941,公式データ
福岡県,福津市,7-47,畦町1360番地1,久末ダム北側入口歩道ガードレール,33.770047,130.523022,公式データ
福岡県,福津市,7-48,久末221番地1,久末公民館横ガードレール,33.767218,130.516734,公式データ
福岡県,福津市,7-49,津丸839番地10,津丸交差点歩道ガードパイプ,33.767745,130.509031,公式データ
福岡県,福津市,7-50,桜川1090番地44,桜川入口交差点前桜川側植込み,33.7694,130.506471,公式データ
福岡県,福津市,7-51,津丸922番地1,津丸公民館前ブロック塀,33.768934,130.511901,公式データ
福岡県,福津市,7-52,津丸950番地1,神興東小学校フェンス,33.770557,130.515075,公式データ
福岡県,福津市,7-53,若木台5丁目4番地15,若木台かいがら公民館前フェンス,33.772465,130.521659,公式データ
福岡県,福津市,7-54,若木台1丁目51番地62,ＪＲ東福間駅若木台側自由通路,33.773972,130.510961,公式データ
福岡県,福津市,7-55,若木台2丁目7番地7,若木台９号公園（わかば公園）フェンス,33.774987,130.514528,公式データ
福岡県,福津市,8-56,東福間6丁目64番地9,神興小学校運動場フェンス,33.780168,130.511908,公式データ
福岡県,福津市,8-57,東福間6丁目1568番地35,東福間中央公民館横公園柵,33.777482,130.510875,公式データ
福岡県,福津市,8-58,東福間6丁目1568番地10,神興小学校正門横フェンス,33.778288,130.511946,公式データ
福岡県,福津市,8-59,東福間2丁目1213番地52,東福間第６公園（ひまわり公園）入口左側フェンス,33.774456,130.507898,公式データ
福岡県,福津市,8-60,小竹2丁目98番地6,小竹公民館フェンス,33.77929,130.514803,公式データ
福岡県,福津市,8-61,手光141番地2,冠防火水槽フェンス,33.783085,130.508057,公式データ
福岡県,福津市,8-62,東福間1丁目1243番地1,旧東部下水処理場フェンス,33.773987,130.510023,公式データ
福岡県,福津市,9-63,手光1557番地2,手光公民館フェンス購買店側,33.774959,130.497852,公式データ
福岡県,福津市,9-64,光陽台6丁目19番地15,光陽台５丁目バス停横公園,33.775394,130.503191,公式データ
福岡県,福津市,9-65,光陽台5丁目1444番地3,光陵高校正門横フェンス,33.773252,130.502042,公式データ
福岡県,福津市,9-66,手光1750番地14,通り堂バス停そば定札公園フェンス,33.770543,130.502752,公式データ
福岡県,福津市,9-67,手光1795番地1,光陵高校入口交差点歩道ガードレール,33.770127,130.501283,公式データ
福岡県,福津市,9-68,手光1906番地5,株式会社グランドアース前四差路ガードパイプ,33.770785,130.496762,公式データ
福岡県,福津市,9-69,手光南2丁目2005番地1,市中央公民館前歩道ガードパイプ,33.771826,130.492531,公式データ
福岡県,福津市,10-70,津屋崎3丁目815番地,福津市まちおこしセンター横駐車場ガードパイプ,33.788534,130.464221,公式データ
福岡県,福津市,10-71,津屋崎6丁目1682番地2,新開交差点横歩道ガードパイプ,33.790248,130.466095,公式データ
福岡県,福津市,10-72,津屋崎3丁目691番地6地先,天神橋,33.786586,130.466368,公式データ
福岡県,福津市,10-73,渡1395番地7,渡区公民館前,33.792176,130.456602,公式データ
福岡県,福津市,10-74,津屋崎1丁目690番地47,ハーモニー広場植え込み,33.785524,130.468051,公式データ
福岡県,福津市,10-75,津屋崎1丁目625番地1,東町老人花園横,33.782832,130.470579,公式データ
福岡県,福津市,10-76,津屋崎1丁目566番地1,津屋崎中学校運動場横フェンス,33.785146,130.47313,公式データ
福岡県,福津市,10-77,津屋崎1丁目458番地1,カメリアステージ前植込み,33.786555,130.471043,公式データ
福岡県,福津市,11-78,津屋崎8丁目1605番地1,津屋崎小学校正門横フェンス,33.791553,130.469987,公式データ
福岡県,福津市,11-79,津屋崎7丁目801番地1地先,五反田市営住宅入口交差点横ガードパイプ,33.798403,130.473846,公式データ
福岡県,福津市,11-80,在自979番地地先,在自区内道路用地,33.792626,130.479469,公式データ
福岡県,福津市,11-81,星ヶ丘4番地111,星ヶ丘公民館前フェンス,33.789183,130.481791,公式データ
福岡県,福津市,11-82,須多田389番地,須多田公民館前,33.801969,130.483802,公式データ
福岡県,福津市,11-83,大石405番地1,大石区公民館付近,33.805239,130.486906,公式データ
福岡県,福津市,11-84,生家1806番地,生家区公民館前,33.812122,130.485132,公式データ
福岡県,福津市,11-85,勝浦5053番地6地先,塩浜口バス停そば,33.807968,130.473167,公式データ
福岡県,福津市,11-86,津屋崎5丁目2176番地1,末広公民館前ガードレール,33.797539,130.467633,公式データ
福岡県,福津市,12-87,宮司1379番地2,宮地嶽神社前交差点そば,33.779566,130.483113,公式データ
福岡県,福津市,12-88,宮司6丁目1699番地30,石津電気商会敷地横畑柵,33.781747,130.478502,公式データ
福岡県,福津市,12-89,宮司6丁目1707番地9,的岡区公民館,33.784302,130.478361,公式データ
福岡県,福津市,12-90,宮司浜3丁目1805番地1地先,聖愛幼稚園前バス停横ガードパイプ,33.780258,130.4757,公式データ
福岡県,福津市,12-91,宮司浜3丁目1912番地1,宮司コミュニティセンター前,33.777656,130.474825,公式データ
福岡県,福津市,12-92,宮司4丁目2093番地2,あい保育園駐車場横ガードパイプ,33.778309,130.479226,公式データ
福岡県,福津市,12-93,宮司1丁目464番地1地先,道辻交差点セブンイレブン向かい側ガードパイプ,33.774374,130.483867,公式データ
福岡県,福津市,12-94,宮司ヶ丘117番地86,宮司ヶ丘バス停横,33.785033,130.482503,公式データ
福岡県,福津市,13-95,奴山718番地1,奴山公民館前,33.816422,130.495011,公式データ
福岡県,福津市,13-96,勝浦2997番地,桂区古賀公民館前,33.826223,130.489071,公式データ
福岡県,福津市,13-97,勝浦2249番地1,勝浦小学校正門横,33.827594,130.487118,公式データ
福岡県,福津市,13-98,勝浦360番地2,勝浦浜バス停前,33.842371,130.484225,公式データ
福岡県,福津市,13-99,勝浦1068番地1,西東バス停横,33.834975,130.48429,公式データ
福岡県,福津市,13-100,勝浦3301番地2,松原新海邸前,33.825491,130.478574,公式データ
福岡県,福津市,13-101,勝浦4822番地,塩浜区公民館前,33.813746,130.473068,公式データ
