prefecture,city,number,address,name,lat,long,note
福岡県,豊前市,1,大字 大村 鈴木谷中央,鈴木谷中央   ガードレール,33.5987498,131.1074166,緯度経度は怪しい
福岡県,豊前市,2,大字 大村 大村大竜寺入口三叉路,大村大竜寺入口三叉路   ガードレール,33.5987498,131.1074166,緯度経度は怪しい
福岡県,豊前市,3,大字 大村 八屋求菩提線,八屋求菩提線   ガードパイプ,33.5987498,131.1074166,緯度経度は怪しい
福岡県,豊前市,4,大字 大村 大村公民館,大村公民館   フェンス,33.6029,131.111769,緯度経度は怪しい
福岡県,豊前市,5,masked,masked,33.5676543,131.18278,緯度経度は怪しい
福岡県,豊前市,6,大字 大村 大村入口三叉路西,大村入口三叉路西   ガードレール,33.6072289,131.1148863,緯度経度は怪しい
福岡県,豊前市,7,大字 八屋 教校区掲示板横,教校区掲示板横   野立て,33.6184534,131.1221543,緯度経度は怪しい
福岡県,豊前市,8,masked,masked,33.6184534,131.1221543,緯度経度は怪しい
福岡県,豊前市,9,大字 八屋 市民会館前,市民会館前   野立て,33.6186557,131.1231998,緯度経度は怪しい
福岡県,豊前市,10,大字 八屋 JR宇島駅市営駐車場 駅前交番横,JR宇島駅市営駐車場 駅前交番横  フェンス,33.6212456,131.1263314,緯度経度は怪しい
福岡県,豊前市,11,大字 八屋 市立八屋小学校西側 4車線道路沿,市立八屋小学校西側 4車線道路沿  フェンス,33.6199547,131.1260053,緯度経度は怪しい
福岡県,豊前市,12,大字 八屋 市立八屋小学校正門,市立八屋小学校正門   フェンス,33.6199547,131.1260053,緯度経度は怪しい
福岡県,豊前市,13,大字 八屋 上町脊川池線 豊築休日急患センター西,上町脊川池線 豊築休日急患センター西  ガードパイプ,33.6157622,131.1271993,緯度経度は怪しい
福岡県,豊前市,14,大字 赤熊 市立八屋中学校正門横,市立八屋中学校正門横   フェンス,33.6188249,131.1298533,緯度経度は怪しい
福岡県,豊前市,15,大字 八屋 宇島駅北側 市営駐車場横,宇島駅北側 市営駐車場横  ガードパイプ,33.6115344,131.1303136,緯度経度は怪しい
福岡県,豊前市,16,大字 八屋 本町公民館,本町公民館   野立て,33.6168478,131.1184486,緯度経度は怪しい
福岡県,豊前市,17,masked,masked,33.6149675,131.1212113,緯度経度は怪しい
福岡県,豊前市,18,大字 八屋 本町団地東側入口,本町団地東側入口   ガードパイプ,33.6149675,131.1212113,緯度経度は怪しい
福岡県,豊前市,19,大字 八屋 八屋公民館,八屋公民館   ブロック塀,33.6155343,131.1180694,緯度経度は怪しい
福岡県,豊前市,20,大字 八屋 上町 上町橋 欄干,上町 上町橋 欄干 欄干,33.614004,131.1225659,緯度経度は怪しい
福岡県,豊前市,21,masked,masked,33.6184534,131.1221543,緯度経度は怪しい
福岡県,豊前市,22,大字 今市 上町団地北側入口,上町団地北側入口   フェンス,33.6109925,131.1214713,緯度経度は怪しい
福岡県,豊前市,23,大字 今市 上町南団地バス停,上町南団地バス停   ガードパイプ,33.6072896,131.1237781,
福岡県,豊前市,24,大字 八屋 前田小児科横,前田小児科横   ガードレール,33.6181788,131.118799,緯度経度は怪しい
福岡県,豊前市,25,masked,masked,33.6184534,131.1221543,緯度経度は怪しい
福岡県,豊前市,26,大字 八屋 住吉公民館,住吉公民館   フェンス,33.6176473,131.1165021,緯度経度は怪しい
福岡県,豊前市,27,大字 八屋 前川公民館,前川公民館   フェンス,33.6159596,131.1125578,緯度経度は怪しい
福岡県,豊前市,28,大字 八屋 宝福寺住宅下 大地橋横,宝福寺住宅下 大地橋横  ガードレール,33.614493,131.114955,緯度経度は怪しい
福岡県,豊前市,29,大字 八屋 西前川 久未食品西,西前川 久未食品西  ガードレール,33.6184534,131.1221543,緯度経度は怪しい
福岡県,豊前市,30,masked,masked,33.6219033,131.1315307,緯度経度は怪しい
福岡県,豊前市,31,大字 宇島 消防団第3分団第1部消防車庫,消防団第3分団第1部消防車庫   フェンス,33.6254828,131.1363606,緯度経度は怪しい
福岡県,豊前市,32,大字 宇島 角野庄助翁碑前,角野庄助翁碑前   野立て,33.6254828,131.1363606,緯度経度は怪しい
福岡県,豊前市,33,大字 宇島 宇島東部公民館西側,宇島東部公民館西側   ブロック塀,33.6254828,131.1363606,緯度経度は怪しい
福岡県,豊前市,34,大字 宇島 旧水産試験場跡地,旧水産試験場跡地   グラウンド フェンス,33.6254828,131.1363606,緯度経度は怪しい
福岡県,豊前市,35,大字 宇島 パストラルハイツ西側,パストラルハイツ西側   石碑 野立て,33.6254828,131.1363606,緯度経度は怪しい
福岡県,豊前市,36,大字 赤熊 宇島公民館西側,宇島公民館西側   野立て,33.621492,131.1365887,緯度経度は怪しい
福岡県,豊前市,37,masked,masked,33.6185059,131.1363606,
福岡県,豊前市,38,大字 赤熊 八屋中学校東 赤熊二号橋,八屋中学校東 赤熊二号橋  欄干,33.6188249,131.1298533,緯度経度は怪しい
福岡県,豊前市,39,大字 赤熊 上水道赤熊系第2配水場,上水道赤熊系第2配水場   フェンス,33.6210965,131.13538,緯度経度は怪しい
福岡県,豊前市,40,大字 赤熊 昭和町会館,昭和町会館   フェンス,33.6185059,131.1363606,
福岡県,豊前市,41,masked,masked,33.6185059,131.1363606,
福岡県,豊前市,42,大字 赤熊 青豊高校西 赤熊墓地駐車場,青豊高校西 赤熊墓地駐車場  フェンス,33.6210965,131.13538,緯度経度は怪しい
福岡県,豊前市,43,大字 赤熊 スーパー細川 駐車場,スーパー細川 駐車場  ガードパイプ,33.6195285,131.1393545,緯度経度は怪しい
福岡県,豊前市,44,大字 杏川 杏川公民館,杏川公民館   ブロック塀,33.6115344,131.1303136,
福岡県,豊前市,45,大字 杏川 杏川東防火水槽前,杏川東防火水槽前   ガードレール,33.6115344,131.1303136,
福岡県,豊前市,46,大字 久松 ともおしレディースクリニック入口県道,ともおしレディースクリニック入口県道   ガードパイプ,33.61659910000001,131.1483114,
福岡県,豊前市,47,大字 三毛門 善正寺東門,善正寺東門   ブロック塀,33.611836,131.1559601,
福岡県,豊前市,48,大字 三毛門 三毛門公民館入口,三毛門公民館入口   コンクリートポール,33.610934,131.153533,緯度経度は怪しい
福岡県,豊前市,49,大字 三毛門 県営三毛門団地西側入口,県営三毛門団地西側入口   ガードパイプ,33.6145799,131.1565898,緯度経度は怪しい
福岡県,豊前市,50,大字 市丸 三楽入口三叉路,三楽入口三叉路   ガードパイプ,33.6115344,131.1303136,緯度経度は怪しい
福岡県,豊前市,51,大字 六郎 六郎県道 カーブミラー付近歩道,六郎県道 カーブミラー付近歩道  ガードパイプ,33.5994845,131.1489404,緯度経度は怪しい
福岡県,豊前市,52,大字 市丸 市丸交差点 吉松たばこ店前,市丸交差点 吉松たばこ店前  ガードパイプ,33.6074753,131.1464246,
福岡県,豊前市,53,大字 清水町 清水町 新吉富・豊前線 後川橋東,清水町 新吉富・豊前線 後川橋東 ガードパイプ,33.61135,131.1382478,
福岡県,豊前市,54,大字 梶屋 農協東部低温倉庫前ゴミステーション横,農協東部低温倉庫前ゴミステーション横   ガードパイプ,33.6048502,131.1413929,
福岡県,豊前市,55,大字 小石原 （株）積水化成品九州 豊前事業部 正門前 小石原工業団地調整池,（株）積水化成品九州 豊前事業部 正門前 小石原工業団地調整池フェンス,33.5971298,131.1533426,
福岡県,豊前市,56,大字 皆毛 東皆毛集会所,東皆毛集会所   フェンス,33.5933415,131.1483114,
福岡県,豊前市,57,masked,masked,33.5933415,131.1483114,
福岡県,豊前市,58,大字 堀立 堀立市営住宅跡地,堀立市営住宅跡地   野立て,33.6001982,131.1413929,
福岡県,豊前市,59,大字 岸井 岸井西住宅横,岸井西住宅横   フェンス,33.5963041,131.1379667,
福岡県,豊前市,60,大字 久路土 市立黒土小学校旧正門,市立黒土小学校旧正門   フェンス,33.593418,131.135634,緯度経度は怪しい
福岡県,豊前市,61,大字 久路土 久路土交差点北 防火水槽,久路土交差点北 防火水槽  フェンス,33.5886834,131.1344569,
福岡県,豊前市,62,大字 鬼木 鬼木バス停北,鬼木バス停北   ガードレール,33.5796724,131.1288115,
福岡県,豊前市,63,大字 今市 高瀬事務所前,高瀬事務所前   ガードパイプ,33.6132769,131.1260251,緯度経度は怪しい
福岡県,豊前市,64,大字 今市 今市神社,今市神社   玉垣,33.6072896,131.1237781,
福岡県,豊前市,65,大字 吉木 豊前市役所前 県道犀川・豊前線交差点 ダイソー側,豊前市役所前 県道犀川・豊前線交差点 ダイソー側 フェンス,33.6128112,131.1284543,緯度経度は怪しい
福岡県,豊前市,66,大字 吉木 東吉木公民館,東吉木公民館   ブロック塀,33.6072332,131.1325862,
福岡県,豊前市,67,大字 今市 新町団地北植込み,新町団地北植込み   野立て,33.6072896,131.1237781,
福岡県,豊前市,68,大字 吉木 市立千束中学校正門前,市立千束中学校正門前   ガードパイプ,33.6072332,131.1325862,
福岡県,豊前市,69,大字 千束 千束公民館,千束公民館   フェンス,33.601745,131.127346,
福岡県,豊前市,70,大字 千束 市立千束小学校西側,市立千束小学校西側   フェンス,33.5937757,131.1250788,緯度経度は怪しい
福岡県,豊前市,71,大字 野田 上千束 落溜池西側 市道,上千束 落溜池西側 市道 ガードパイプ,33.60031050000001,131.1237781,
福岡県,豊前市,72,大字 永久 中大西集会所,中大西集会所   フェンス,33.584715,131.1220794,緯度経度は怪しい
福岡県,豊前市,73,大字 大西 下大西集会所前,下大西集会所前   ガードレール,33.5892196,131.1193122,緯度経度は怪しい
福岡県,豊前市,74,大字 青畑 青畑地区入口 天地山グラウンド南,青畑地区入口 天地山グラウンド南  ガードレール,33.5938119,131.1140545,緯度経度は怪しい
福岡県,豊前市,75,大字 永久 永久信号南 末森造花店前,永久信号南 末森造花店前  ガードパイプ,33.5814756,131.1202133,緯度経度は怪しい
福岡県,豊前市,76,大字 薬師寺 横武公民館,横武公民館   フェンス,33.5789739,131.1184361,緯度経度は怪しい
福岡県,豊前市,77,大字 薬師寺 蔵春園前バス停,蔵春園前バス停   ガードパイプ,33.5752397,131.122638,
福岡県,豊前市,78,大字 挾間 挾間 門前橋,挾間 門前橋  欄干,33.5667756,131.1174858,緯度経度は怪しい
福岡県,豊前市,79,大字 才尾 才尾バス停,才尾バス停   ガードパイプ,33.573285,131.1135395,緯度経度は怪しい
福岡県,豊前市,80,大字 山内 山内バス停 清水商店,山内バス停 清水商店  ブロック塀,33.568246,131.1091945,緯度経度は怪しい
福岡県,豊前市,81,大字 下河内 大木地区入口三叉路 県道,大木地区入口三叉路 県道  ガードレール,33.5655618,131.0973457,
福岡県,豊前市,82,masked,masked,33.5643391,131.1028558,緯度経度は怪しい
福岡県,豊前市,83,masked,masked,33.5655618,131.0973457,
福岡県,豊前市,84,大字 下河内 四ツ口集会所 記念碑前,四ツ口集会所 記念碑前  野立て,33.5655618,131.0973457,
福岡県,豊前市,85,大字 下河内 県道下河内交差点 歩道,県道下河内交差点 歩道  ガードパイプ,33.5618583,131.0930446,緯度経度は怪しい
福岡県,豊前市,86,大字 下川底 合河公民館前,合河公民館前   フェンス,33.558773,131.0930633,緯度経度は怪しい
福岡県,豊前市,87,大字 中川底 大榎入口バス停,大榎入口バス停   ガードパイプ,33.5370131,131.0872729,
福岡県,豊前市,88,大字 中川底 豊築松尾線 松尾橋入口,豊築松尾線 松尾橋入口  ガードレール,33.5370131,131.0872729,
福岡県,豊前市,89,大字 上川底 夫婦木バス停,夫婦木バス停   ガードパイプ,33.5429309,131.0735716,緯度経度は怪しい
福岡県,豊前市,90,大字 上川底 立岩バス停,立岩バス停   ガードレール,33.5251506,131.0646026,緯度経度は怪しい
福岡県,豊前市,91,大字 上川底 応因寺前バス停,応因寺前バス停   ガードパイプ,33.5357899,131.0659567,緯度経度は怪しい
福岡県,豊前市,92,大字 上川底 成ノバス停,成ノバス停   ガードレール,33.5251506,131.0646026,緯度経度は怪しい
福岡県,豊前市,93,大字 上川底 蟻地区生活改善センター,蟻地区生活改善センター   フェンス,33.5251506,131.0646026,緯度経度は怪しい
福岡県,豊前市,94,大字 大河内 大河内バス停下,大河内バス停下   ガードパイプ,33.5592602,131.081783,緯度経度は怪しい
福岡県,豊前市,95,大字 大河内 大河内原バス停 新長渕橋上,大河内原バス停 新長渕橋上  ガードパイプ,33.5589028,131.0771524,緯度経度は怪しい
福岡県,豊前市,96,大字 大河内 長渕橋上,長渕橋上   ガードレール,33.5570522,131.0721604,緯度経度は怪しい
福岡県,豊前市,97,大字 大河内 岩屋公民館 入口,岩屋公民館 入口  フェンス,33.5573943,131.0644583,緯度経度は怪しい
福岡県,豊前市,98,大字 岩屋 岩屋バス停下 牛渡橋前,岩屋バス停下 牛渡橋前  ガードパイプ,33.5550299,131.0582135,緯度経度は怪しい
福岡県,豊前市,99,大字 岩屋 枝川内ライスセンター,枝川内ライスセンター   ガードパイプ,33.5481859,131.0611405,緯度経度は怪しい
福岡県,豊前市,100,大字 岩屋 小谷バス停,小谷バス停   ガードレール,33.5425534,131.0444437,緯度経度は怪しい
福岡県,豊前市,101,大字 岩屋 中畑バス停,中畑バス停   ガードレール,33.5425534,131.0444437,緯度経度は怪しい
福岡県,豊前市,102,大字 篠瀬 戸符バス停,戸符バス停   ガードレール,33.6115344,131.1303136,緯度経度は怪しい
福岡県,豊前市,103,大字 篠瀬 篠瀬バス停,篠瀬バス停   ガードレール,33.5560809,131.0336601,緯度経度は怪しい
福岡県,豊前市,104,大字 鳥井畑 求菩提温泉ト仙の郷バス停前,求菩提温泉ト仙の郷バス停前   ガードパイプ,33.5516782,131.0270777,緯度経度は怪しい
福岡県,豊前市,105,大字 鳥井畑 鳥井畑 五郎橋上,鳥井畑 五郎橋上  ガードレール,33.5306772,131.0217562,緯度経度は怪しい
福岡県,豊前市,106,大字 求菩提 産家生活改善センター前,産家生活改善センター前   ガードレール,33.54201800000001,131.0167134,緯度経度は怪しい
福岡県,豊前市,107,大字 求菩提 求菩提資料館前バス停前,求菩提資料館前バス停前   ガードレール,33.5373996,131.0173527,緯度経度は怪しい
福岡県,豊前市,108,大字 四郎丸 山田公民館前,山田公民館前   ガードパイプ,33.6054521,131.1009036,緯度経度は怪しい
福岡県,豊前市,109,masked,masked,33.61008200000001,131.1023814,緯度経度は怪しい
福岡県,豊前市,110,大字 四郎丸 松若保育園,松若保育園   ブロック塀,33.6151484,131.0973011,緯度経度は怪しい
福岡県,豊前市,111,masked,masked,33.61008200000001,131.1023814,緯度経度は怪しい
福岡県,豊前市,112,大字 四郎丸 四郎丸団地入口,四郎丸団地入口   フェンス,33.613851,131.0964094,緯度経度は怪しい
福岡県,豊前市,113,大字 四郎丸 市立山田小学校正門,市立山田小学校正門   フェンス,33.608518,131.101334,緯度経度は怪しい
福岡県,豊前市,114,大字 鳥越 下鳥越区集会所前,下鳥越区集会所前   ガードパイプ,33.6049307,131.1048468,緯度経度は怪しい
福岡県,豊前市,115,大字 川内 平原 川内3320番地1付近,平原 川内3320番地1付近  ガードレール,33.6038354,131.097867,緯度経度は怪しい
福岡県,豊前市,116,大字 川内 旧川内小学校上 いのさこ橋,旧川内小学校上 いのさこ橋  ガードレール,33.5769954,131.0746794,緯度経度は怪しい
福岡県,豊前市,117,大字 川内 梶屋構造改善センター東,梶屋構造改善センター東   ガードレール,33.59290319999999,131.0923728,緯度経度は怪しい
福岡県,豊前市,118,大字 川内 中田バス停,中田バス停   ガードレール,33.5896213,131.0913573,緯度経度は怪しい
福岡県,豊前市,119,大字 川内 内尾入口 中島橋西,内尾入口 中島橋西  ガードレール,33.5811089,131.0824043,緯度経度は怪しい
福岡県,豊前市,120,大字 川内 内尾バス停上,内尾バス停上   ガードレール,33.5811089,131.0824043,緯度経度は怪しい
福岡県,豊前市,121,大字 川内 楢狩屋バス停,楢狩屋バス停   野立て,33.5769954,131.0746794,緯度経度は怪しい
福岡県,豊前市,122,大字 松江 高杉団地入口,高杉団地入口   ガードレール,33.6187857,131.0923095,
福岡県,豊前市,123,大字 畠中 畠中 国道10号線入口,畠中 国道10号線入口  ガードレール,33.630446,131.0879025,
福岡県,豊前市,124,大字 松江 浄園寺南側,浄園寺南側   フェンス,33.6187857,131.0923095,
福岡県,豊前市,125,大字 松江 JR豊前松江駅西側駐車場,JR豊前松江駅西側駐車場   フェンス,33.6225223,131.0951951,緯度経度は怪しい
福岡県,豊前市,126,大字 松江 豊築漁協松江支所西,豊築漁協松江支所西   ガードレール,33.6187857,131.0923095,
福岡県,豊前市,127,大字 中村 中村交差点 吉本無線前,中村交差点 吉本無線前  ガードパイプ,33.6252824,131.0886209,緯度経度は怪しい
福岡県,豊前市,128,大字 中村 角田公民館前 市立角田小学校,角田公民館前 市立角田小学校  フェンス,33.624819,131.086024,緯度経度は怪しい
福岡県,豊前市,129,大字 中村 角田八幡神社上,角田八幡神社上   ガードレール,33.621073,131.0803768,
福岡県,豊前市,130,大字 馬場 馬場バス停 城山公園入口,馬場バス停 城山公園入口  ガードレール,33.6036629,131.0633429,
福岡県,豊前市,131,大字 馬場 馬場上 湯の川内入口,馬場上 湯の川内入口  ガードレール,33.603282,131.062907,
福岡県,豊前市,132,大字 畑 竹の下バス停前,竹の下バス停前   ガードパイプ,33.6053516,131.0752457,緯度経度は怪しい
福岡県,豊前市,133,大字 畑 133,133   原井バス停 ガードレール,33.6052845,131.0753577,緯度経度は怪しい
福岡県,豊前市,134,大字 畑 134,134   旧畑小学校前 ガードレール,33.6052845,131.0753577,緯度経度は怪しい
福岡県,豊前市,135,大字 畑 135,135   堂の前バス停 ガードレール,33.6052845,131.0753577,緯度経度は怪しい
福岡県,豊前市,136,大字 畑 136,136   畑冷泉前バス停 ガードレール,33.6052845,131.0753577,緯度経度は怪しい
