prefecture,city,number,address,name,note,lat,long
福岡県,飯塚市,292,,292　口原橋火の見櫓横,,33.685605,130.712828
福岡県,飯塚市,293,,293　大畑公民館前,,33.698694,130.713664
福岡県,飯塚市,294,,294　石丸公民館前,,33.68186,130.717148
福岡県,飯塚市,295,,295　頴田交流センター入口フェンス,,33.684092,130.729298
福岡県,飯塚市,296,,296　佐藤医院横,,33.687125,130.723546
福岡県,飯塚市,297,,297　北勢田公民館横,,33.697142,130.721616
福岡県,飯塚市,298,,298　新立入口,,33.686315,130.737342
福岡県,飯塚市,299,,299　桜ケ丘バス停留所付近,,33.688788,130.745411
福岡県,飯塚市,300,,300　東勢田３公民館,,33.6917098,130.7410416
福岡県,飯塚市,301,,301　明治第１児童遊園地付近,,33.694629,130.737744
福岡県,飯塚市,302,,302　東勢田１公民館前,,33.690939,130.733524
福岡県,飯塚市,303,,303　木浦岐公民館入口付近,,33.698926,130.728688
福岡県,飯塚市,304,,304　東勢田児童遊園地付近,,33.6911452,130.7364609
福岡県,飯塚市,305,,305　東佐與交差点ガードパイプ,,33.6723532,130.7240024
福岡県,飯塚市,306,,306　西佐與公民館前,,33.663447,130.719485
福岡県,飯塚市,307,,307　鯰田東区広場前,,33.666519,130.713057
福岡県,飯塚市,308,,308　牧野公民館前,,33.67705,130.728741
福岡県,飯塚市,309,,309　鹿毛馬地区公民館前,,33.674443,130.735693
福岡県,飯塚市,310,,310　鹿毛馬上公民館付近,,33.672009,130.739561
福岡県,飯塚市,311,,311　小峠西公民館前,,33.683515,130.749201
福岡県,飯塚市,312,,312　改良住宅入口,,33.684816,130.751189
福岡県,飯塚市,313,,313　石丸団地付近,,33.679372,130.719443
福岡県,飯塚市,314,,314　渡邊プレス工業付近丁字路,,33.67622,130.718917
福岡県,飯塚市,315,,315　中央団地入口（野球場付近）,,33.678852,130.723807
福岡県,飯塚市,316,,316　中央団地３三叉路,,33.68087,130.726357
福岡県,飯塚市,317,,317　旧サンシャインかいた,,33.680115,130.722211
福岡県,飯塚市,260,,260　飯塚市役所庄内支所,,33.636616,130.729892
福岡県,飯塚市,261,,261　綱分関の台団地入口（防火水槽前）,,33.638644,130.730745
福岡県,飯塚市,262,,262　安丸口バス停留所前,,33.630176,130.731082
福岡県,飯塚市,263,,263　庄内栄町市営道祖住宅前,,33.628525,130.727262
福岡県,飯塚市,264,,264　市営住宅大坪改良住宅前,,33.628978,130.725995
福岡県,飯塚市,265,,265　安丸農業倉庫前,,33.631571,130.728052
福岡県,飯塚市,266,,266　立入口,,33.635095,130.725542
福岡県,飯塚市,267,,267　仁保〜赤坂線 赤松交差点,,33.627548,130.736371
福岡県,飯塚市,268,,268　庄内こども園前,,33.622268,130.7335
福岡県,飯塚市,269,,269　市営小僧住宅入口,,33.619754,130.734384
福岡県,飯塚市,270,,270　赤坂新町入口バス停留所,,33.61986,130.737814
福岡県,飯塚市,271,,271　新町二区市営新町西住宅入口,,33.6166046,130.7302758
福岡県,飯塚市,272,,272　ＪＲ筑前庄内駅横,,33.616574,130.73853
福岡県,飯塚市,273,,273　山倉入口交差点,,33.623567,130.742638
福岡県,飯塚市,274,,274　入水入口交差点,,33.619325,130.748607
福岡県,飯塚市,275,,275　筒野バス停留所,,33.610351,130.745342
福岡県,飯塚市,276,,276　高倉入口交差点,,33.607845,130.759826
福岡県,飯塚市,277,,277　仁保集会所内公園,,33.650012,130.729442
福岡県,飯塚市,278,,278　仁保四角バス停留所前,,33.650642,130.727844
福岡県,飯塚市,279,,279　仁保〜 赤松線　（元ヤクルト敷地横）,,33.649504,130.731414
福岡県,飯塚市,280,,280　多田ポケット公園前,,33.645109,130.735563
福岡県,飯塚市,281,,281　大門公民館,,33.6564875,130.7287901
福岡県,飯塚市,282,,282　県道口の原〜稲築線（庄内元吉点滅信号横）,,33.662138,130.729697
福岡県,飯塚市,283,,283　岡本農園直売所前,,33.645695,130.729316
福岡県,飯塚市,284,,284　仁保〜赤坂線（藤田／松尾アパート前）,,33.640249,130.736559
福岡県,飯塚市,285,,285　庄内体育館駐車場,,33.640157,130.723814
福岡県,飯塚市,286,,286　有井〜栄町線（工場団地入口三叉路）,,33.638308,130.726144
福岡県,飯塚市,287,,287　有安団地下交差点付近,,33.643711,130.721485
福岡県,飯塚市,288,,288　有井団地（ゴルフガーデンしろ前）,,33.647708,130.7217
福岡県,飯塚市,289,,289　市道有井団地５号線沿い（トヨペット側）,,33.646733,130.71676
福岡県,飯塚市,290,,290　有井バス停留所前,,33.649934,130.724377
福岡県,飯塚市,291,,291　県道鯰田停車場〜有井線　（防火水槽沿）,,33.654632,130.72293
福岡県,飯塚市,216,,216　飯塚市役所筑穂支所,,33.5699975,130.6465615
福岡県,飯塚市,217,,217　上穂波小学校南側,,33.569765,130.64165
福岡県,飯塚市,218,,218　筑穂元吉公民館,,33.569916,130.638496
福岡県,飯塚市,219,,219　筑穂元吉三軒屋付近ガードレール,,33.5685913,130.6331261
福岡県,飯塚市,220,,220　山口　入口付近ガードレール,,33.561775,130.624121
福岡県,飯塚市,221,,221　山口　サンビレッジ茜入口,,33.556371,130.619851
福岡県,飯塚市,222,,222　上馬敷公民館前,,33.564644,130.618142
福岡県,飯塚市,223,,223　下馬敷公民館付近,,33.5701,130.62469
福岡県,飯塚市,224,,224　大分　消防団格納庫付近,,33.583434,130.628218
福岡県,飯塚市,225,,225　長楽寺団地集会所前,,33.5863,130.62982
福岡県,飯塚市,226,,226　鶯塚集会所前,,33.588672,130.632419
福岡県,飯塚市,227,,227　大分駅前アイアイだいぶ（旧Aコープ）,,33.58991,130.629555
福岡県,飯塚市,228,,228　大分駅前団地集会所,,33.587814,130.629936
福岡県,飯塚市,229,,229　うぐいす台集会所,,33.586996,130.626676
福岡県,飯塚市,230,,230　切畑　入口付近,,33.57973,130.615203
福岡県,飯塚市,231,,231　内住本村公民館前,,33.5863502,130.6049812
福岡県,飯塚市,232,,232　久保山公民館,,33.5986787,130.598234
福岡県,飯塚市,233,,233　内住コミュニティセンター駐車場,,33.5966576,130.5888407
福岡県,飯塚市,234,,234　大野峠付近ガードレール,,33.597291,130.580995
福岡県,飯塚市,235,,235　旧大分小跡地付近ガードパイプ,,33.592815,130.62916
福岡県,飯塚市,236,,236　氷屋集会所,,33.586215,130.644357
福岡県,飯塚市,237,,237　JR吉田踏切前ガードレール,,33.58598,130.646492
福岡県,飯塚市,238,,238　北古賀村中　天理教付近,,33.581703,130.651706
福岡県,飯塚市,239,,239　北古賀　ドリームハイツ付近,,33.581279,130.6551046
福岡県,飯塚市,240,,240　長尾東団地公民館前,,33.581081,130.656888
福岡県,飯塚市,241,,241　出雲東団地南側入口,,33.573903,130.661567
福岡県,飯塚市,242,,242　平塚　旧公民館跡地,,33.569756,130.656578
福岡県,飯塚市,243,,243　長尾三叉路ふれあいバス停,,33.572928,130.650311
福岡県,飯塚市,244,,244　筑穂栄町　筑穂中学校南東側フェンス,,33.572352,130.642558
福岡県,飯塚市,245,,245　嘉穂　筑穂中学校西側フェンス,,33.572633,130.640514
福岡県,飯塚市,246,,246　浦田団地入口ガードレール,,33.575757,130.640015
福岡県,飯塚市,247,,247　阿恵四郎丸橋前,,33.564661,130.639193
福岡県,飯塚市,248,,248　阿恵児童遊園地前,,33.566538,130.647188
福岡県,飯塚市,249,,249　阿恵湯の浦　公民館前,,33.554892,130.64136
福岡県,飯塚市,250,,250　内野横山バス停前,,33.547529,130.640965
福岡県,飯塚市,251,,251　内野小学校フェンス,,33.538734,130.639258
福岡県,飯塚市,252,,252　内野宿展示館前,,33.537082,130.638479
福岡県,飯塚市,253,,253　関屋老松宮前,,33.534372,130.636231
福岡県,飯塚市,254,,254　内野・見定橋付近ガードレール,,33.535509,130.63982
福岡県,飯塚市,255,,255　内野下揚 内野太郎丸防火水槽付近,,33.542836,130.643077
福岡県,飯塚市,256,,256　弥山バス停前ガードレール,,33.541831,130.668631
福岡県,飯塚市,257,,257　弥山公民館前ガードレール,,33.542653,130.669688
福岡県,飯塚市,258,,258　君ヶ畑公民館フェンス,,33.528866,130.66668
福岡県,飯塚市,259,,259　桑曲ゲートボール場フェンス,,33.511789,130.637722
福岡県,飯塚市,1,,1　飯塚市吉原町　新飯塚橋西交差点南側　緑道公園付近,,33.643391,130.68523
福岡県,飯塚市,2,,2　飯塚市稲荷町　児童公園前,,33.643119,130.683038
福岡県,飯塚市,3,,3　飯塚市本町　　飯塚小学校裏門付近,,33.638092,130.682516
福岡県,飯塚市,4,,4　飯塚市東町　　イイヅカコミュニティセンター北側（元いぎすや前）,,33.6363032,130.6850171
福岡県,飯塚市,5,,5　飯塚市本町　　オーヴィジョン飯塚本町前,,33.637513,130.68604
福岡県,飯塚市,6,,6　飯塚市吉原町　芳雄橋西交差点西側（あいタウン横フェンス）,,33.6417070949427,130.686699246019
福岡県,飯塚市,7,,7　飯塚市西町　　旧飯塚医師会付近ガードパイプ,,33.640406,130.679695
福岡県,飯塚市,8,,8　飯塚市徳前　　飯塚小学校正門横,,33.638385,130.681088
福岡県,飯塚市,9,,9　飯塚市西町　　徳前片峰改良住宅集会所,,33.639339,130.677488
福岡県,飯塚市,10,,10　飯塚市徳前　　徳前公園前,,33.636957,130.682508
福岡県,飯塚市,11,,11　飯塚市徳前　　徳前郵便局付近（消防車庫前）,,33.636482,130.679762
福岡県,飯塚市,12,,12　飯塚市徳前　　徳前大橋南側歩道ガードパイプ,,33.632674,130.682426
福岡県,飯塚市,13,,13　飯塚市徳前　　徳前川沿い徳前団地付近（ベスト電器南東側付近）,,33.6352888094328,130.677871523525
福岡県,飯塚市,14,,14　飯塚市菰田東　中田公園フェンス,,33.633293,130.690671
福岡県,飯塚市,15,,15　飯塚市菰田西　飯塚駅横公園植込み,,33.629496,130.689137
福岡県,飯塚市,16,,16　飯塚市菰田東　菰田小学校正門付近,,33.631316,130.692044
福岡県,飯塚市,17,,17　飯塚市菰田東　菰田小学校東側入口（国道沿い） 付近,,33.631349,130.69348
福岡県,飯塚市,18,,18　飯塚市菰田東　菰田交流センター入口付近,,33.6286238337619,130.692181550235
福岡県,飯塚市,19,,19　飯塚市菰田西　飯塚橋南側歩道ガードパイプ,,33.633305,130.68695
福岡県,飯塚市,20,,20　飯塚市芳雄町　飯塚病院救命センター救急車出入口横,,33.641679,130.692737
福岡県,飯塚市,21,,21　飯塚市旧芳雄　サン・アビリティーズいいづか前フェンス,,33.642124,130.695994
福岡県,飯塚市,22,,22　飯塚市柏の森　旧芳雄踏切北側付近（線路沿いフェンス）,,33.639549,130.69265
福岡県,飯塚市,23,,23　飯塚市新飯塚　新飯塚駅ロータリー北側（ビル沿いガードパイプ）,,33.644652,130.693936
福岡県,飯塚市,24,,24　飯塚市芳雄町　飯塚病院正門入口付近（正門と歩行者入口の中間）,,33.642923,130.691327
福岡県,飯塚市,25,,25　飯塚市柏の森　飯塚市歴史資料館付近,,33.643274,130.697769
福岡県,飯塚市,26,,26　飯塚市柏の森　柏の森麻生塾ボウル付近ガードパイプ,,33.6451122354964,130.709234988792
福岡県,飯塚市,27,,27　飯塚市柏の森　飯塚第二中学校入口付近正門横フェンス,,33.636583,130.700911
福岡県,飯塚市,28,,28　飯塚市下三緒　飯塚東交流センター入口付近,,33.631632,130.706231
福岡県,飯塚市,29,,29　飯塚市下三緒　元 金池バス停付近,,33.639321,130.703957
福岡県,飯塚市,30,,30　飯塚市下三緒　下三緒公民館入口付近ガードレール,,33.6335248,130.7034365
福岡県,飯塚市,31,,31　飯塚市鯰田　　県営鯰田団地駐車場付近ガードパイプ,,33.659421,130.702169
福岡県,飯塚市,32,,32　飯塚市鯰田　　世尊寺バス停(線路側)付近,,33.66423,130.699681
福岡県,飯塚市,33,,33　飯塚市鯰田　　JR鯰田駅入口付近,,33.668269,130.701372
福岡県,飯塚市,34,,34　飯塚市鯰田　　鯰田小学校入口,,33.668169,130.705403
福岡県,飯塚市,35,,35　飯塚市鯰田　　鯰田新町公民館付近ガードパイプ,,33.666839,130.709137
福岡県,飯塚市,36,,36　飯塚市鯰田　　畝割公民館前フェンス,,33.676424,130.714207
福岡県,飯塚市,37,,37　飯塚市鯰田　　簀子町公民館前,,33.667129,130.705398
福岡県,飯塚市,38,,38　飯塚市鯰田　　鯰田愛宕団地バス停付近　(旧愛生苑前),,33.653225,130.705267
福岡県,飯塚市,39,,39　飯塚市忠隈　　国道201号バイパス五穀神交差点付近,,33.622559,130.694111
福岡県,飯塚市,40,,40　飯塚市菰田五穀神　菰田市営住宅付近公園フェンス,,33.626882,130.692893
福岡県,飯塚市,41,,41　飯塚市鶴三緒　鶴三緒ポンプ場前付近（国道211号線沿い）,,33.628121,130.697046
福岡県,飯塚市,42,,42　飯塚市上三緒　上三緒団地内飯塚東保育園付近,,33.629959,130.712226
福岡県,飯塚市,43,,43　飯塚市上三緒　上三緒団地貯水タンク下付近,,33.632028,130.715245
福岡県,飯塚市,44,,44　飯塚市上三緒　上三緒第一公民館横児童公園フェンス,,33.627756,130.71147
福岡県,飯塚市,45,,45　飯塚市上三緒　上三緒団地口交差点付近,,33.629092,130.711999
福岡県,飯塚市,46,,46　飯塚市上三緒　上三緒郵便局バス停付近交差点信号機門,,33.625424,130.715445
福岡県,飯塚市,47,,47　飯塚市上三緒　大橋踏切付近(高木自動車付近),,33.624573,130.711851
福岡県,飯塚市,48,,48　飯塚市下三緒　東ヶ丘市営住宅入口三叉路付近,,33.636834,130.713986
福岡県,飯塚市,49,,49　飯塚市下三緒　元 山内口バス停付近ガードパイプ,,33.636548,130.709978
福岡県,飯塚市,50,,50　飯塚市下三緒　山内岡本ストアー付近（坂の上三叉路）,,33.635916,130.713925
福岡県,飯塚市,51,,51　飯塚市下三緒　東ケ丘公民館入口付近　(擁壁下階段横),,33.638257,130.712656
福岡県,飯塚市,52,,52　飯塚市下三緒　下三緒団地入口三叉路付近,,33.634372,130.710369
福岡県,飯塚市,53,,53　飯塚市下三緒　山内分譲住宅西側入口付近（池の端からの登り道沿い）,,33.638243,130.708528
福岡県,飯塚市,54,,54　柏の森ヒルズ公園フェンス,,33.639924,130.710208
福岡県,飯塚市,55,,55　飯塚市立岩　　市役所駐車場,,33.645424,130.6911093
福岡県,飯塚市,56,,56　飯塚市立岩　　飯塚拘置支所裏　（新川沿い　泉酒造前),,33.647558,130.691818
福岡県,飯塚市,57,,57　飯塚市川島　　川島陸橋付近グッディ横左折レーン側ガードパイプ,,33.653155,130.689063
福岡県,飯塚市,58,,58　飯塚市川島　　久世ヶ浦市営住宅南東側歩道,,33.654422,130.694999
福岡県,飯塚市,59,,59　飯塚市立岩　　立岩笠松五叉路付近,,33.645656,130.696783
福岡県,飯塚市,60,,60　飯塚市鯰田　　愛宕バス停前　(松本市営住宅下側),,33.654211,130.697094
福岡県,飯塚市,61,,61　飯塚市立岩　　立岩小学校入口正門フェンス付近,,33.652136,130.693714
福岡県,飯塚市,62,,62　飯塚市鯰田　　愛宕踏切東側調整池フェンス,,33.652654,130.699423
福岡県,飯塚市,63,,63　飯塚市片島　　西鉄工場バス停付近,,33.650844,130.683275
福岡県,飯塚市,64,,64　飯塚市片島　　若八幡宮前,,33.6461403,130.6813502
福岡県,飯塚市,65,,65　飯塚市片島　　片島小学校正門横,,33.647637,130.680952
福岡県,飯塚市,66,,66　飯塚市片島　　勝盛公園池の橋付近,,33.6435616,130.6795241
福岡県,飯塚市,67,,67　飯塚市片島　　飯塚消防署片島分署前　（勝盛町バス停付近）,,33.645858,130.678822
福岡県,飯塚市,68,,68　飯塚市幸袋　　幸袋新町バス停付近（三角地公園内）,,33.659167,130.684263
福岡県,飯塚市,69,,69　飯塚市中　　　幸袋農協前バス停交差点付近ガードパイプ,,33.665995,130.684844
福岡県,飯塚市,70,,70　飯塚市幸袋　　幸袋栄町２丁目公民館付近（公園）,,33.662574,130.68346
福岡県,飯塚市,71,,71　飯塚市幸袋　　幸袋西町児童遊園裏側付近ガードパイプ,,33.661934,130.681118
福岡県,飯塚市,72,,72　飯塚市幸袋　　池田公民館横公園前,,33.658208,130.682988
福岡県,飯塚市,73,,73　飯塚市幸袋　　旧幸袋交流センター付近交差点歩道上ガードパイプ,,33.663777,130.686851
福岡県,飯塚市,74,,74　飯塚市津島　　自衛隊入口前交差点付近,,33.6784239,130.6789073
福岡県,飯塚市,75,,75　飯塚市中　　　中公園前フェンス,,33.6642142,130.6808093
福岡県,飯塚市,76,,76　飯塚市中　　　旧幸袋小学校正門付近,,33.6658642,130.6823694
福岡県,飯塚市,77,,77　飯塚市中　　　中交差点北西側フェンス,,33.6686412,130.6819006
福岡県,飯塚市,78,,78　飯塚市津島　　元 津島バス停付近　(元構木商店付近),,33.6707819,130.6842533
福岡県,飯塚市,79,,79　飯塚市柳橋　　柳橋公民館付近ガードレール,,33.6730066,130.6898866
福岡県,飯塚市,80,,80　飯塚市庄司　　本誓寺入口三叉路付近(中角２号橋付近),,33.6745822,130.669082
福岡県,飯塚市,81,,81　飯塚市庄司　　白旗団地集会所付近(広場西側),,33.6712987,130.6713914
福岡県,飯塚市,82,,82　飯塚市庄司　　庄司本村バス停付近(県道飯塚福間線沿い),,33.6760233,130.6723392
福岡県,飯塚市,83,,83　飯塚市庄司　　庄司公民館前,,33.6768492,130.6692118
福岡県,飯塚市,84,,84　飯塚市庄司　　笠置ダム公園入口付近(県道飯塚福間線沿い),,33.6817002,130.6637508
福岡県,飯塚市,85,,85　飯塚市庄司　　井の浦入口付近(ファミリーマートから白旗団地方面へ約100m),,33.6718786,130.6749832
福岡県,飯塚市,86,,86　飯塚市庄司　　県道478号線沿いガードパイプ（庄司公民館と水祖神社の中間）,,33.675761,130.66217
福岡県,飯塚市,87,,87　飯塚市庄司　　白旗団地入口付近(No.88から更に団地方面へ約150m),,33.671435,130.673332
福岡県,飯塚市,88,,88　飯塚市目尾　　目尾市営住宅入口付近(公園西側フェンス),,33.6789314,130.7027578
福岡県,飯塚市,89,,89　飯塚市目尾　　鯰田渡交差点付近,,33.672143,130.699426
福岡県,飯塚市,90,,90　飯塚市目尾　　浜生神社前,,33.674396,130.698045
福岡県,飯塚市,91,,91　飯塚市目尾　　新 幸袋交流センターフェンス（旧目尾小）,,33.6756762,130.7037895
福岡県,飯塚市,92,,92　飯塚市目尾　　目尾遊園バス停付近(旧国道200号線沿い),,33.682157,130.710473
福岡県,飯塚市,93,,93　飯塚市目尾　　環境センター前（柳橋橋横三差路）,,33.671902,130.693825
福岡県,飯塚市,95,,95　飯塚市吉北　　吉北団地東側付近（調整池東側フェンス）,,33.683369,130.699757
福岡県,飯塚市,96,,96　飯塚市吉北　　吉北繁牟田ため池付近（道路側フェンス）,,33.683938,130.694752
福岡県,飯塚市,98,,98　飯塚市吉北　　山の谷１号公園入口付近,,33.6809208,130.6969757
福岡県,飯塚市,99,,99　飯塚市横田　　中央区安町橋付近,,33.6408238,130.6703204
福岡県,飯塚市,100,,100　飯塚市横田　　南横田公民館入口付近（南横田バス停）,,33.641344,130.672726
福岡県,飯塚市,101,,101　飯塚市横田　　旧飯塚第1体育館付近ガードレール,,33.6394549,130.676546
福岡県,飯塚市,102,,102　飯塚市横田　　ミスターマックス横交差点付近,,33.641177,130.666552
福岡県,飯塚市,103,,103　飯塚市横田　　中央区公民館前（長浦ため池の縁）,,33.640003,130.672495
福岡県,飯塚市,104,,104　飯塚市横田　　中央区雇用能力開発機構飯塚宿舎前フェンス,,33.637818,130.670877
福岡県,飯塚市,105,,105　飯塚市川津　　グリーンベルトタクシー車両置場前フェンス,,33.6512013,130.6788327
福岡県,飯塚市,106,,106　飯塚市川津　　自動車学校前付近川津公園前,,33.653965,130.680957
福岡県,飯塚市,107,,107　飯塚市幸袋　　緑ケ丘団地入口付近,,33.656897,130.675923
福岡県,飯塚市,108,,108　飯塚市川津　　九工大バス停付近,,33.652009,130.672987
福岡県,飯塚市,109,,109　飯塚市横田　　九州電力変電所東側道路沿い法下付近,,33.644146,130.673194
福岡県,飯塚市,110,,110　飯塚市川津　　二瀬交流センター入口付近,,33.64884,130.672105
福岡県,飯塚市,111,,111　飯塚市伊岐須　高雄公園前(高雄団地内),,33.657102,130.669086
福岡県,飯塚市,112,,112　飯塚市伊岐須　千手マーケット付近（市営住宅内）,,33.650408,130.665721
福岡県,飯塚市,113,,113　飯塚市伊岐須　蟹ヶ浦市営住宅付近公園フェンス,,33.650632,130.664245
福岡県,飯塚市,114,,114　飯塚市伊岐須　伊岐須蟹ケ浦遊園,,33.649051,130.662497
福岡県,飯塚市,115,,115　飯塚市伊岐須　旧高雄区公民館付近,,33.653763,130.668429
福岡県,飯塚市,117,,117　飯塚市伊岐須　二瀬中学校東側ガードレール,,33.652929,130.661005
福岡県,飯塚市,118,,118　飯塚市伊岐須　二瀬中学校入口正門付近,,33.652334,130.659658
福岡県,飯塚市,119,,119　飯塚市伊川　　伊川道バス停付近,,33.6505821,130.65103
福岡県,飯塚市,120,,120　飯塚市伊川　　新乙丸橋付近(お堂横),,33.655648,130.652992
福岡県,飯塚市,121,,121　飯塚市伊岐須　西伊岐須公民館付近,,33.651293,130.658363
福岡県,飯塚市,122,,122　飯塚市相田　　二瀬病院付近交差点ガードパイプ,,33.65781,130.656431
福岡県,飯塚市,123,,123　飯塚市相田　　新二瀬公民館前,,33.656721,130.663397
福岡県,飯塚市,124,,124　飯塚市相田　　相田公民館前ガードレール,,33.662036,130.657653
福岡県,飯塚市,125,,125　飯塚市相田　　新相田高雄団地下バス停付近,,33.659626,130.6656887
福岡県,飯塚市,126,,126　飯塚市伊岐須　伊岐須小学校入口正門横付近,,33.654944,130.660888
福岡県,飯塚市,127,,127　飯塚市相田　　中村橋(旧バス停)付近,,33.665384,130.65477
福岡県,飯塚市,128,,128　飯塚市相田　　旧相田公園前ガードパイプ,,33.6583007,130.6586069
福岡県,飯塚市,129,,129　飯塚市相田　　相田団地入口付近,,33.65748,130.661066
福岡県,飯塚市,130,,130　飯塚市相田　　けやき台公民館フェンス,,33.6631116,130.6670902
福岡県,飯塚市,131,,131　飯塚市花瀬　　花瀬団地入口付近(センダハイツ花瀬三叉路付近),,33.643034,130.652152
福岡県,飯塚市,132,,132　飯塚市大日寺　大日寺〆尾市営住宅内公園前,,33.638021,130.653101
福岡県,飯塚市,133,,133　飯塚市大日寺　元 大日寺バス停 横公園前,,33.639403,130.642705
福岡県,飯塚市,134,,134　飯塚市大日寺　旧鎮西公民館前コミュニティバス停横,,33.64417,130.64128
福岡県,飯塚市,135,,135　飯塚市建花寺　古野公民館前,,33.659971,130.643024
福岡県,飯塚市,136,,136　飯塚市建花寺　建花寺本村公民館横公園フェンス,,33.655426,130.638066
福岡県,飯塚市,137,,137　飯塚市飯塚市蓮台寺　光妙寺入口付近,,33.64661,130.6370447
福岡県,飯塚市,138,,138　飯塚市八木山　元 八木山茶屋バス停付近（橋の横）,,33.639982,130.621027
福岡県,飯塚市,139,,139　飯塚市八木山　久保尾公民館右側フェンス,,33.643431,130.616438
福岡県,飯塚市,140,,140　飯塚市八木山　重ケ原龍王窯入口付近(国道201号線沿い),,33.6364212,130.6181051
福岡県,飯塚市,141,,141　飯塚市八木山　八木山小学校入口付近,,33.630205,130.612113
福岡県,飯塚市,142,,142　飯塚市八木山　旧青年の家入口付近（ゴルフ場入口三叉路）,,33.62513,130.60417
福岡県,飯塚市,143,,143　飯塚市八木山　八木山本村バス停付近(国道201号線沿い),,33.627257,130.605614
福岡県,飯塚市,144,,144　飯塚市八木山　大塚石材等看板群付近(国道201号線沿い旧ﾄﾞﾗｲﾌﾞｲﾝ・ｺｳｼﾞｬｸ),,33.6264014,130.5970229
福岡県,飯塚市,145,,145　飯塚市潤野　　ハッピー薬局駐車場付近ガードパイプ,,33.635286,130.666027
福岡県,飯塚市,146,,146　飯塚市潤野　　潤野下　公文学習塾東側付近（明星寺川沿い）,,33.631942,130.656401
福岡県,飯塚市,147,,147　飯塚市潤野　　花咲台団地拠点ボックス付近,,33.635865,130.664646
福岡県,飯塚市,148,,148　飯塚市潤野　　潤野市営住宅付近（東潤野バス停付近）,,33.633953,130.663986
福岡県,飯塚市,149,,149　飯塚市潤野　　旧潤野小学校入口付近,,33.630328,130.656044
福岡県,飯塚市,150,,150　飯塚市潤野　　元 潤野牟田（元鎮西病院）バス停付近,,33.6379508,130.6580403
福岡県,飯塚市,151,,151　飯塚市花瀬　　元 黒萩バス停付近,,33.640628,130.657475
福岡県,飯塚市,152,,152　飯塚市明星寺　明星寺北谷三叉路付近,,33.627419,130.640294
福岡県,飯塚市,153,,153　飯塚市明星寺　明星寺団地バス停付近ガードレール,,33.624147,130.649434
福岡県,飯塚市,94,,94　飯塚市吉北　　吉北団地掲示板付近（団地中央部）,,33.684636,130.697788
福岡県,飯塚市,97,,97　飯塚市吉北　　吉北宗広商店前,,33.685202,130.696619
福岡県,飯塚市,116,,116　飯塚市伊岐須　西新町公民館入口付近,,33.653294,130.666025
福岡県,飯塚市,154,,154　飯塚市役所穂波庁舎東側,,33.619789,130.682211
福岡県,飯塚市,155,,155　飯塚市シルバー人材センター横,,33.622585,130.684024
福岡県,飯塚市,156,,156　新堀池橋付近,,33.628158,130.685522
福岡県,飯塚市,157,,157　堀池公民館先,,33.627679,130.681193
福岡県,飯塚市,158,,158　堀池古川交差点,,33.624029,130.681135
福岡県,飯塚市,159,,159　穂波交流センター,,33.620273,130.675743
福岡県,飯塚市,160,,160　三宅脳神経外科病院駐車場,,33.613492,130.679909
福岡県,飯塚市,161,,161　楽市公民館先,,33.611794,130.678997
福岡県,飯塚市,162,,162　楽市東区公民館,,33.609974,130.681206
福岡県,飯塚市,163,,163　大将陣公園入口踏切,,33.603277,130.677099
福岡県,飯塚市,164,,164　天道橋東,,33.604627,130.676024
福岡県,飯塚市,165,,165　安恒公民館先,,33.611391,130.656735
福岡県,飯塚市,166,,166　穂波水防倉庫前,,33.619391,130.662682
福岡県,飯塚市,167,,167　椿彼岸原集会所南側,,33.616728,130.650075
福岡県,飯塚市,168,,168　弁分一区バス停,,33.62051,130.660914
福岡県,飯塚市,169,,169　飯塚市立病院駐車場入口,,33.62059,130.653419
福岡県,飯塚市,170,,170　弁分四つ角南側,,33.6217422,130.6653656
福岡県,飯塚市,171,,171　新弁分住宅,,33.624006,130.663897
福岡県,飯塚市,172,,172　小正集会所,,33.62663,130.658348
福岡県,飯塚市,173,,173　小正郵便局先,,33.6273,130.664805
福岡県,飯塚市,174,,174　若菜小学校正門横,,33.627001,130.66653
福岡県,飯塚市,175,,175　若菜歩道橋付近,,33.626983,130.671326
福岡県,飯塚市,176,,176　穂波消防第四分団詰所横,,33.630117,130.667919
福岡県,飯塚市,177,,177　秋松西公民館,,33.624795,130.672208
福岡県,飯塚市,178,,178　小正水落集会所,,33.629929,130.663985
福岡県,飯塚市,179,,179　忠営公民館付近ガードレール,,33.623222,130.689557
福岡県,飯塚市,180,,180　忠営二区公民館下,,33.619871,130.687468
福岡県,飯塚市,181,,181　常葉保育園入口付近ガードレール,,33.621674,130.689785
福岡県,飯塚市,182,,182　忠隈住民センター,,33.621044,130.688126
福岡県,飯塚市,183,,183　忠隈泉町住宅掲示板横,,33.621255,130.694156
福岡県,飯塚市,184,,184　忠隈泉町住宅上側道路,,33.621489,130.694726
福岡県,飯塚市,186,,186　穂波東小学校正門横,,33.610658,130.684465
福岡県,飯塚市,188,,188　神ノ浦公民館,,33.616061,130.687184
福岡県,飯塚市,189,,189　旧穂波東中学校入口,,33.616495,130.685452
福岡県,飯塚市,190,,190　平恒新町バス停付近ガードパイプ,,33.61355,130.690335
福岡県,飯塚市,191,,191　平恒正法寺下,,33.606899,130.691013
福岡県,飯塚市,192,,192　平恒橋先,,33.608904,130.685822
福岡県,飯塚市,194,,194　県道飯塚大野城線舎利蔵橋,,33.608113,130.643826
福岡県,飯塚市,195,,195　市道津原舎利蔵線八木山ＢＰ舎利蔵入口先,,33.610634,130.637225
福岡県,飯塚市,196,,196　本谷自治会入口三叉路,,33.609668,130.627043
福岡県,飯塚市,197,,197　旧ＪＡ福岡嘉穂高田出張所,,33.603895,130.63861
福岡県,飯塚市,198,,198　平瀬橋北側,,33.600342,130.634028
福岡県,飯塚市,199,,199　高田向野集会所入口,,33.597733,130.640581
福岡県,飯塚市,200,,200　見田公民館前,,33.60358,130.647449
福岡県,飯塚市,201,,201　久保白橋付近ガードレール,,33.605582,130.650309
福岡県,飯塚市,202,,202　県道高田天道停車場線天道橋,,33.605013,130.674807
福岡県,飯塚市,203,,203　太郎丸　ヘアーメイクプレアー付近,,33.607425,130.666677
福岡県,飯塚市,204,,204　椋本小学校前,,33.607627,130.665347
福岡県,飯塚市,205,,205　第二あさひの里付近交差点ガードパイプ,,33.607356,130.663561
福岡県,飯塚市,206,,206　済生会病院入口横,,33.603025,130.666736
福岡県,飯塚市,207,,207　太郎丸交差点,,33.607865,130.671615
福岡県,飯塚市,208,,208　穂波人権啓発センター,,33.610023,130.66838
福岡県,飯塚市,209,,209　旧岩井商店横,,33.633538,130.677382
福岡県,飯塚市,210,,210　枝国北交差点付近(旧神仙楼横),,33.634629,130.675834
福岡県,飯塚市,211,,211　グループホームえだくに横,,33.634021,130.671836
福岡県,飯塚市,212,,212　枝国二区バス停,,33.635649,130.672713
福岡県,飯塚市,213,,213　日鉄枝国公民館,,33.637254,130.671989
福岡県,飯塚市,214,,214　枝国二区公民館,,33.636304,130.669931
福岡県,飯塚市,215,,215　枝国三区公民館前店舗駐車場,,33.633253,130.669962
福岡県,飯塚市,185,,185　神の浦浦田公民館,,33.61705,130.69633
福岡県,飯塚市,187,,187　平恒公民館,,33.611796,130.688093
福岡県,飯塚市,193,,193　旧津原セブンイレブン横,,33.610512,130.648105
