prefecture,city,number,address,name,lat,long,note
大阪府,交野市,1,倉治7-25,東田町入口 ガードレール,34.7973047,135.6948278,
大阪府,交野市,2,倉治1-15-1,倉治小学校 給食門左側壁,34.7932901,135.6939959,
大阪府,交野市,3,倉治1-24-6,交野警察北東民家前,34.7937383,135.6920238,
大阪府,交野市,4,東倉治2-59-10,東倉治集会所前堤防 ガードレール,34.7961127,135.6998458,
大阪府,交野市,5,東倉治2-6,松塚上池南側,34.7925388,135.6868421,緯度経度は怪しい
大阪府,交野市,6,東倉治1-7,浜の池団地入口1号棟横（掲示板前）,34.7929147,135.6981556,
大阪府,交野市,7,神宮寺2-3,倉治グラウンド前 西側植え込み,34.7889684,135.6994129,緯度経度は怪しい
大阪府,交野市,8,倉治8-6,関西スーパー入口府道前 向側歩道池側柵,34.79936,135.6959001,
大阪府,交野市,9,倉治8-1,倉治桜堤交差点 府道歩道柵,34.7979127,135.6948648,
大阪府,交野市,10,倉治6-13-1,歩道柵（交野久御山線）,34.7957847,135.69316,
大阪府,交野市,11,倉治6-9-21,教育文化会館 正面左側フェンス,34.7963122,135.689909,
大阪府,交野市,12,倉治6-9-20,教育文化会館 裏フェンス,34.7965297,135.6900175,
大阪府,交野市,13,倉治5-1-26,歩道柵,34.79584250000001,135.6896847,
大阪府,交野市,14,倉治2-16,市道歩道柵,34.7932305,135.6871378,
大阪府,交野市,15,倉治3-4,倉治交番 横フェンス,34.7929751,135.6853634,
大阪府,交野市,16,幾野6-8,出鼻橋上 歩道柵,34.8007633,135.6744224,
大阪府,交野市,17,幾野4-25,ガソリンスタンド向かい側,34.7981796,135.6835151,
大阪府,交野市,18,幾野4-1,第2中学校 北門左側フェンス,34.7951744,135.6819625,
大阪府,交野市,19,幾野4-1,第2中学校 南門左側フェンス,34.7951744,135.6819625,
大阪府,交野市,20,幾野4,幾野2丁目交差点 北側歩道柵,34.7958585,135.6828497,
大阪府,交野市,21,幾野2-34,幾野1丁目交差点付近 歩道柵,34.7934197,135.6845871,
大阪府,交野市,22,幾野2-24-2,幾野集会所前 フェンス,34.7935007,135.6830377,
大阪府,交野市,23,郡津2-38,郡津2丁目ちびっこ広場前 フェンス,34.7979521,135.6767878,
大阪府,交野市,24,郡津2-32,masked,34.7973108,135.6786913,
大阪府,交野市,25,郡津3-47,だら池前 歩道柵,34.7967698,135.6740528,
大阪府,交野市,26,郡津3-1,masked,34.7951781,135.6761965,
大阪府,交野市,27,郡津4-31,ガードレール,34.7942026,135.6736094,
大阪府,交野市,28,郡津4-13-1,郡津小学校 正門前右側フェンス,34.7927706,135.6738605,
大阪府,交野市,29,郡津5-23,水路柵,34.795157,135.6696181,
大阪府,交野市,30,郡津5-11,京阪「郡津」駅東口 右側柵,34.7944758,135.6698768,
大阪府,交野市,31,松塚37,ガードレール,34.7956604,135.6682877,
大阪府,交野市,32,松塚39-2,松塚ふれあい館正門前庭,34.7951959,135.6664145,
大阪府,交野市,33,松塚14,交野会館前 歩道柵,34.7941241,135.6695946,
大阪府,交野市,34,松塚12-20,歩道柵,34.7934341,135.6690822,
大阪府,交野市,35,松塚12-20,松塚公園 南側歩道柵,34.7934341,135.6690822,
大阪府,交野市,36,梅が枝44,旧関西ガス設備向かい高架下（上り一方通行）歩道柵側フェンス,34.7914549,135.6709485,
大阪府,交野市,37,梅が枝45,府営住宅B-45棟前 梅が枝南交差点フェンス,34.7899918,135.6725376,
大阪府,交野市,38,梅が枝33,府営住宅B-33棟前 自転車置場裏,34.7888214,135.67093,
大阪府,交野市,39,梅が枝30-1,梅が枝第1集会所前,34.7891705,135.6715028,
大阪府,交野市,40,梅が枝38,府営住宅B-38棟前 自転車置場裏,34.7896901,135.6702833,
大阪府,交野市,41,私部4-2,免除川橋南側 歩道転落防止柵,34.7908328,135.6788576,
大阪府,交野市,42,私部西1-26,民家前歩道柵,34.7888576,135.6728702,
大阪府,交野市,43,私部4-48,立体駐車場前 歩道柵,34.7884506,135.6761595,
大阪府,交野市,44,私部4-51,線路側フェンス,34.7879075,135.6751246,
大阪府,交野市,45,私部西1-33,カミタケモータース斜め前歩道柵,34.786181,135.673908,
大阪府,交野市,46,私部西1,イズミヤ交野店駐車場西側出入口向かい歩道柵,34.7870777,135.6733876,
大阪府,交野市,47,私部2-11,交野市駅前駐輪場タクシー会社前 フェンス,34.7866904,135.6764921,
大阪府,交野市,48,私部西2-4-1,マクドナルド前歩道 ガードレール,34.784796,135.6752706,
大阪府,交野市,49,私部2-29-5,武道館『相撲場』前,34.7854857,135.6780441,
大阪府,交野市,50,私部2-29-1,青年の家前植え込み前柵,34.7850065,135.6782102,
大阪府,交野市,51,私部西5-1-8,民家前ガードレール,34.783325,135.6723977,
大阪府,交野市,52,私部6-33,私部春日線私部6丁目33番駐車場前柵,34.7915901,135.6821843,
大阪府,交野市,53,私部8-7,行殿団地2棟前フェンス,34.7906462,135.6852894,
大阪府,交野市,54,私部5-23-14,水路柵,34.7899578,135.6842979,
大阪府,交野市,55,私部5-21-11,民家前歩道柵,34.7899233,135.6827045,
大阪府,交野市,56,私部1-7,交野市役所前駐車場植込み,34.78566,135.6809276,
大阪府,交野市,57,青山3-1-10,水路柵,34.7889705,135.6889081,
大阪府,交野市,58,私部1-53,旧交野小学校 正門左側フェンス,34.7872402,135.6851416,
大阪府,交野市,59,私部1-37,私部会館進入路右側柵,34.7861784,135.6838847,
大阪府,交野市,60,向井田2,総体駐車場進入路入口 右側歩道柵,34.7846702,135.6875814,
大阪府,交野市,61,天野が原町1-10,松下電工「松福荘」東 ガードレール,34.7815456,135.6790794,
大阪府,交野市,62,天野が原町2-5,水路ガードレール,34.7814981,135.6760117,
大阪府,交野市,63,天野が原町1-17-2,天野が原会館前 フェンス,34.7799095,135.679057,
大阪府,交野市,64,天野が原町2-22,天野が原西公園さくら丘自治会館前,34.7794576,135.6764921,
大阪府,交野市,65,天野が原町2-22,天野が原西公園電話ボックス前,34.7794576,135.6764921,
大阪府,交野市,66,天野が原町5,天野が原町1丁目交差点くすのき通り第4中学校角 歩道柵,34.775859,135.680484,
大阪府,交野市,67,天野が原町4-7,消防署向かい国道側 168号線歩道柵,34.7762826,135.6773053,
大阪府,交野市,68,寺南野10-1,交野高校前信号機付近 歩道柵,34.7818015,135.6887759,
大阪府,交野市,69,寺2-36,かさんど池 フェンス,34.7806982,135.6934968,
大阪府,交野市,70,寺1-19-8,寺会館前空き地,34.78169159999999,135.6922558,
大阪府,交野市,71,寺2-6-18,ガードレール歩道柵,34.780822,135.6918618,
大阪府,交野市,72,森南3-38,駐車場 進入口北側,34.7796557,135.6907608,
大阪府,交野市,73,森北1-25-1,岩船小学校 正門横フェンス,34.7784108,135.6861052,
大阪府,交野市,74,森南1-15,歩道柵,34.7775257,135.6873966,
大阪府,交野市,75,森北1,JR「河内磐船」駅北 駐輪場フェンス南向,34.7780235,135.6852155,
大阪府,交野市,76,森南1-28-3,JR「河内磐船」駅付近 水路柵,34.7756618,135.6848147,
大阪府,交野市,77,森南1-47,森区民ホール 北入口付近ガードレール,34.7752896,135.6868421,
大阪府,交野市,78,森南2-16,森区民ホール 南入口付近ガードレール,34.7749003,135.6873596,
大阪府,交野市,79,私市2-8,京阪河内森駅岩船派出所向かい 歩道柵,34.7742355,135.6849937,
大阪府,交野市,80,私市2-24,水道局 正門右側フェンス,34.7738093,135.6829975,
大阪府,交野市,81,私市3-3-3,私市3丁目付近信号機 ガードレール,34.7733776,135.6815622,
大阪府,交野市,82,私市5-1,私市3丁目バス停前 歩道柵,34.7736805,135.679523,
大阪府,交野市,83,私市6-1-4,信号機付近 歩道柵,34.7692597,135.6818071,
大阪府,交野市,84,私市6-22-15,私市会館玄関前柵,34.7680115,135.6841989,
大阪府,交野市,85,私市6-13,植物園入口前府道側 歩道柵,34.7663094,135.684698,
大阪府,交野市,86,私市山手1-1,京阪交野線岩屋橋 歩道柵,34.7695025,135.6878772,
大阪府,交野市,87,私市山手1-18-1,私市山手自治会館横 歩道柵,34.7693213,135.6881981,
大阪府,交野市,88,私市山手3-4,カーブ沿い 歩道柵,34.7677552,135.6871748,
大阪府,交野市,89,私市山手4-11,ガードレール,34.7670541,135.6889123,
大阪府,交野市,90,私市山手4-14,カーブ沿い ガードレール,34.7673798,135.6879511,
大阪府,交野市,91,私市山手3-1,京阪「私市」駅前,34.7669103,135.6866203,
大阪府,交野市,92,藤が尾1,天野川緑地公園前 歩道柵,34.7721528,135.67664,
大阪府,交野市,93,藤が尾4-2-11,藤が尾会館前 府営住宅B-3棟側植込み前柵,34.7714352,135.6760422,
大阪府,交野市,94,藤が尾1-4-15,府営住宅B-15棟前 ベランダ側植込み前柵,34.7713223,135.6743914,
大阪府,交野市,95,藤が尾4-20,藤が尾2丁目交差点 ガードレール,34.7701772,135.6761225,
大阪府,交野市,96,藤が尾2,Aコープ星田店向かい歩道奥植込,34.77032519999999,135.6781184,
大阪府,交野市,97,藤が尾2,藤が尾2丁目バス停付近 歩道柵,34.77032519999999,135.6781184,
大阪府,交野市,98,藤が尾5-12,旧京阪バス停「妙見口」付近 歩道柵,34.7672789,135.6743485,
大阪府,交野市,99,妙見坂１－２,阿茶谷線 入口歩道柵,34.7689289,135.6798556,
大阪府,交野市,100,妙見坂６－１０,妙見川上 ガードレール,34.7662974,135.6749398,
大阪府,交野市,101,妙見坂５－１,５－１(H)棟前駐車場下植込み,34.7657242,135.677564,
大阪府,交野市,102,妙見坂４－１－６,歩道柵,34.7656104,135.6786324,
大阪府,交野市,103,妙見坂７－２２,６－２１(P)棟前駐車場下植込み,34.7626012,135.675679,
大阪府,交野市,104,妙見坂７－２０,妙見坂小学校正門横植込,34.76158,135.67664,
大阪府,交野市,105,妙見東１－７,水道加圧ポンプ場前 ガードレール,34.7602138,135.6800404,
大阪府,交野市,106,妙見東１－７－２０,三叉路柵,34.7601061,135.6800546,
大阪府,交野市,107,妙見東２－５,妙見東自治会館東側電話ボックス前 フェンス,34.7601906,135.6818147,
大阪府,交野市,108,妙見東３－６－１,妙見自治センター前 フェンス,34.7585516,135.6829166,
大阪府,交野市,109,妙見東３－３－３,樹木間,34.7583143,135.6804054,
大阪府,交野市,110,妙見東３,妙見東３丁目バス停向かい フェンス,34.758179,135.6813711,
大阪府,交野市,111,妙見東３－１６－１８,ガードレール,34.7568609,135.6796189,
大阪府,交野市,112,星田北５－３１,旧京阪バス停「星田北」付近府道 壁側(クレーチングの奥の壁に隣接),34.7755263,135.6685095,
大阪府,交野市,113,星田北４－３６－６,歩道柵,34.7729917,135.6699045,
大阪府,交野市,114,星田北７,JR「星田」駅裏 道路沿い歩道柵,34.7699669,135.662745,
大阪府,交野市,115,星田５－２,あさひ幼児園正門左横 フェンス,34.7682127,135.6666618,
大阪府,交野市,116,星田１－４９－５,旧星田出張所 駐車場,34.7680932,135.6678226,
大阪府,交野市,117,星田５－１１－５,JR「星田」駅前藤棚の下 ポール,34.7672541,135.6634655,
大阪府,交野市,118,星田３－３３－４,星田小学校プール前道路 ガードレール,34.766732,135.667387,
大阪府,交野市,119,星田３－１－１,慈光寺前 歩道柵,34.7664468,135.6711602,
大阪府,交野市,120,星田２,星田山手線星田２丁目歩道植込み側柵,34.765935,135.6733876,
大阪府,交野市,121,星田３－１０－８,星田保育園付近 ガードレール,34.7642827,135.67075,
大阪府,交野市,122,星田６－１－３０,旧京阪バス停「南旭日町」付近 転倒防止柵,34.7645164,135.6627265,
大阪府,交野市,123,星田７－２６,高岡幼稚園駐車場前 フェンス,34.7629497,135.6648881,
大阪府,交野市,124,星田８,全現堂池東側向かい ガードレール,34.7631987,135.6698398,
大阪府,交野市,125,星田８－６７－１,第3中学校東門入口横 フェンス,34.7621797,135.6690716,
大阪府,交野市,126,星田８－６７,第3中学校西門入口(プール側)横 歩道柵,34.7614017,135.6689529,
大阪府,交野市,127,星田７－８６,きんもくせい老人入り口付近 ガードレール,34.7579838,135.669692,
大阪府,交野市,128,南星台５－２－１６,フェンス,34.7569586,135.6748615,
大阪府,交野市,129,南星台４－１７,旧京阪バス停「南星台４丁目」前 遊水池フェンス,34.7552532,135.674206,
大阪府,交野市,130,星田９－６０,妙見川橋梁上棚,34.7591955,135.6781184,
大阪府,交野市,131,星田７－３０－６,星田山手31号線傍示川橋 鉄柵(棚下),34.7614456,135.6652299,
大阪府,交野市,132,星田７－５１,旧京阪バス停「星の森」付近 公園フェンス,34.7596003,135.6670683,
大阪府,交野市,133,星田山手３－１,ガードレール,34.7570319,135.6653315,
大阪府,交野市,134,星田山手３－９－９,フェンス,34.7550567,135.6658616,
大阪府,交野市,135,星田西３－２－１６,星田西団地スーパー向側 歩道柵,34.7553431,135.6621383,
大阪府,交野市,136,星田西４－５,アステージ6号棟向側 歩道柵,34.7544181,135.6603803,
大阪府,交野市,137,星田西４－１２,星田西体育施設前 交差点歩道柵,34.753512,135.6605281,
大阪府,交野市,138,星田西５－９－７,丁字路カーブミラー左横 木製風柵,34.7501602,135.660042,
