prefecture,city,number,address,name,lat,long,note
大阪府,吹田市,101-1,泉町１丁目３−４０,吹田市役所前,34.759703,135.516182,
大阪府,吹田市,101-2,泉町１丁目３−４０,吹田市役所東玄関前,34.758659,135.516855,
大阪府,吹田市,101-3,出口町１９,吹田市保健所下空地東面フェンス,34.764032,135.514743,
大阪府,吹田市,101-4,泉町２丁目１０,空地西面（テニスコート横）,34.760899,135.515606,
大阪府,吹田市,101-5,泉町２丁目２６,いずみ南公園東面,34.760438,135.513352,
大阪府,吹田市,101-6,泉町５丁目１３の前,阪急電車フェンス,34.763254,135.511627,
大阪府,吹田市,101-7,西の庄町１０−１,泉殿宮西面,34.760835,135.517274,
大阪府,吹田市,102-1,泉町３丁目１５−１８,吹田第二小学校南面,34.758568,135.510777,
大阪府,吹田市,102-2,泉町４丁目４１番１０号,西吹田幼稚園東面,34.760352,135.508683,
大阪府,吹田市,102-3,金田町２０,金田はと笛遊園,34.75806,135.508136,
大阪府,吹田市,102-4,穂波町８,穂波公園北面,34.756463,135.511652,
大阪府,吹田市,102-5,穂波町１１−６,（株）きんでん北摂営業所西面,34.755574,135.512552,
大阪府,吹田市,102-6,穂波町１５−３０,南保育園東面,34.755355,135.511035,
大阪府,吹田市,102-7,穂波町１６−１,第六中学校西面,34.7560625,135.509439,
大阪府,吹田市,102-8,穂波町１６−１,第六中学校北面,34.756443,135.50971,
大阪府,吹田市,103-1,南金田１丁目１２,南吹田公園東面,34.753657,135.509383,
大阪府,吹田市,103-2,南金田１丁目１２,南吹田公園西面,34.753937,135.50618,
大阪府,吹田市,103-3,南吹田１丁目９−２１,上新田公園植栽,34.750644,135.511583,
大阪府,吹田市,103-4,南金田２丁目９,南金田公園西面,34.754149,135.503867,
大阪府,吹田市,103-5,南吹田２丁目１７,（株）プロテリアル金属厚生センター西面,34.747425,135.509027,
大阪府,吹田市,103-6,南吹田３丁目３−６０,水道部庁舎南面,34.75173,135.508405,
大阪府,吹田市,103-7,南吹田５丁目５,下新田公園南面,34.751083,135.504942,
大阪府,吹田市,103-8,南吹田５丁目１２−１,吹田南小学校西面,34.752486,135.503711,
大阪府,吹田市,103-9,南吹田５丁目５,下新田公園北面,34.7514276,135.5050498,
大阪府,吹田市,104-1,清和園町１１の前,阪急電車フェンス,34.757352,135.51871,
大阪府,吹田市,104-2,南清和園町４３−１,吹田第六小学校南面フェンス,34.752777,135.514493,
大阪府,吹田市,104-3,南清和園町４３−１,吹田第六小学校通用門横,34.75389,135.514999,
大阪府,吹田市,104-4,南清和園町２の前,阪急電車フェンス,34.755044,135.517549,
大阪府,吹田市,104-5,川岸町６−４３,トップ産業(株)物流センター東面,34.751992,135.514855,
大阪府,吹田市,104-6,川岸町１３,川岸公園南面,34.752125,135.516271,
大阪府,吹田市,104-7,川岸町１９,川面下水処理場前グラウンドフェンス北面,34.751486,135.517396,
大阪府,吹田市,105-1,寿町１丁目２,やなぎ遊園,34.758188,135.5192769,
大阪府,吹田市,105-2,寿町１丁目１６,寄町遊園,34.755844,135.51966,
大阪府,吹田市,105-3,寿町１丁目１９の前,阪急電車フェンス,34.755588,135.518376,
大阪府,吹田市,105-4,寿町２丁目５−１,(株)今村フェンス,34.753883,135.52282,
大阪府,吹田市,105-5,寿町２丁目８−１６,寿町児童センターフェンス,34.7543333,135.5214275,
大阪府,吹田市,105-6,中の島町６,中の島公園北面フェンス（第３中学校横）,34.751403,135.520407,
大阪府,吹田市,105-7,中の島町５,中の島公園入口左側,34.752389,135.520329,
大阪府,吹田市,106-1,内本町２丁目１３の前,植樹帯（住宅前）,34.756869,135.523034,
大阪府,吹田市,106-2,内本町２丁目２番５号,旭トゥーレ前植栽,34.759355,135.525233,
大阪府,吹田市,106-3,内本町２丁目２−１２,植込み(内本町コミュニティセンター),34.7584682,135.5258548,
大阪府,吹田市,106-4,内本町３丁目３４−４１,吹田市有川面墓地フェンス,34.754958,135.526173,
大阪府,吹田市,106-5,内本町３丁目３５,大幸薬品前植込み,34.754458,135.527573,
大阪府,吹田市,106-6,内本町３丁目２９,馬廻第一緑道南面,34.753033,135.52527,
大阪府,吹田市,106-7,寿町１丁目５−５,吹田簡易裁判所前フェンス,34.756372,135.521062,
大阪府,吹田市,107-1,元町１２,植樹帯（三井のリパーク前）,34.759485,135.52497,
大阪府,吹田市,107-2,内本町１丁目２２の前,植樹帯（トロスモータープール前）,34.757552,135.522732,
大阪府,吹田市,107-3,内本町１丁目１１−７,吹一地区老人いこいの間,34.757247,135.521259,
大阪府,吹田市,107-4,元町１−１,ＪＲ吹田駅前西自転車置場,34.762379,135.523037,
大阪府,吹田市,107-5,元町３０−３５,吹田第一小学校北面,34.760133,135.523633,
大阪府,吹田市,107-6,元町３０−３５,吹田第一小学校東面,34.759781,135.524346,
大阪府,吹田市,107-7,元町３１,吹一公園南面,34.759294,135.523295,
大阪府,吹田市,108-1,高浜町５,植樹帯（高浜神社駐車場横）,34.758362,135.527508,
大阪府,吹田市,108-2,高浜町５,空地（高浜神社北側）,34.759189,135.526891,
大阪府,吹田市,108-3,南高浜町９−１６の前,安威川フェンス,34.755578,135.529153,
大阪府,吹田市,108-4,南高浜町２１−１０の前,安威川フェンス,34.757616,135.530742,
大阪府,吹田市,108-5,南高浜町２４,高浜神社御旅所,34.75858,135.53062,
大阪府,吹田市,108-6,南高浜町３３,安威川公園北面,34.759147,135.531128,
大阪府,吹田市,108-7,南高浜町６,南高浜ふれあい遊園東面鉄柵,34.7573187,135.5281923,
大阪府,吹田市,109-1,高城町１９,ひまわり遊園,34.761538,135.530875,
大阪府,吹田市,109-2,高城町１８−３９,吹田第三小学校北面,34.762682,135.53015,
大阪府,吹田市,109-3,高城町１８−３９,吹田第三小学校南面,34.761988,135.53123,
大阪府,吹田市,109-4,日の出町７,東城前自治会館集会所フェンス,34.763441,135.532472,
大阪府,吹田市,109-5,日の出町９−５０,旭第一マンション,34.764365,135.533952,
大阪府,吹田市,109-6,日の出町２６−３２の横,農地,34.763274,135.535794,
大阪府,吹田市,109-7,日の出町１０−２２,大阪高等学校グラウンド西面,34.763804,135.534302,
大阪府,吹田市,110-1,昭和町２,ＪＲの柵（和光ハイツ前）,34.764915,135.526067,
大阪府,吹田市,110-2,昭和町２−１０,中西工業（株）フェンス,34.7650407,135.5262463,
大阪府,吹田市,110-3,目俵町１,ＪＲ吹田総合車両所南西面（丸又紙工前）,34.765402,135.528959,
大阪府,吹田市,110-4,目俵町１−１１,目俵市民体育館南東面,34.766118,135.532141,
大阪府,吹田市,110-5,目俵町１,ＪＲ吹田総合車両所フェンス（日本テープＫＫ前）,34.765772,135.529923,
大阪府,吹田市,110-6,目俵町１,日本貨物鉄道(株)フェンス,34.7672,135.533487,
大阪府,吹田市,110-7,目俵町１−１１,目俵市民体育館南西面,34.765847,135.531157,
大阪府,吹田市,111-1,幸町２０−１,吹田東小学校西面,34.767655,135.535315,
大阪府,吹田市,111-2,幸町２０−１,吹田東小学校南面,34.767048,135.536479,
大阪府,吹田市,111-3,吹東町２９−３の前,水路鉄柵,34.765815,135.53688,
大阪府,吹田市,111-4,幸町２９−１,山崎製パン(株)入口横,34.768643,135.537835,
大阪府,吹田市,111-5,吹東町１７,吹東町集会所横運動広場フェンス,34.76503,135.536442,
大阪府,吹田市,111-6,吹東町１７,吹東緑地,34.76423,135.536434,
大阪府,吹田市,111-7,幸町２１−１,第五中学校正門横フェンス,34.768651,135.536656,
大阪府,吹田市,112-1,日の出町２７,済生会吹田病院前遊歩道,34.762105,135.534139,
大阪府,吹田市,112-2,川園町５４,植樹帯（ミストラル川園前）,34.764821,135.538846,
大阪府,吹田市,112-3,川園町６０,コミュニティーホール川園第一会館裏生垣,34.763462,135.538251,
大阪府,吹田市,112-4,川園町６０,府営吹田川園住宅７号棟前ポンプ室西面,34.763048,135.53816,
大阪府,吹田市,112-5,川園町６０,空地南面,34.762237,135.536489,
大阪府,吹田市,112-6,川園町６１,川園第二会館横ポンプ室北面,34.762461,135.537707,
大阪府,吹田市,112-7,川園町６１,府営吹田川園住宅２号棟西面,34.762936,135.536665,
大阪府,吹田市,113-1,西御旅町５−８,(株)日本触媒吹田工場東面,34.750056,135.525856,
大阪府,吹田市,113-2,西御旅町８,西御旅セントポーリア遊園東面,34.74925,135.52059,
大阪府,吹田市,113-3,東御旅町２,(株)日本触媒御旅グラウンドフェンス,34.751967,135.527273,
大阪府,吹田市,113-4,東御旅町８−６７,(株)日本触媒吹田工場西面,34.750348,135.526965,
大阪府,吹田市,113-5,東御旅町１０−７２,こすも公園,34.750748,135.528878,
大阪府,吹田市,113-6,西御旅町７番５３号,Ｍｅｉｊｉフットサル屋内コート,34.749155,135.522508,
大阪府,吹田市,121-1,南正雀１丁目１,阪急正雀駅金網,34.774873,135.545915,
大阪府,吹田市,121-2,南正雀１丁目２４,岸本モータープールフェンス,34.772656,135.54509,
大阪府,吹田市,121-3,南正雀２丁目１４の前,緑道東端,34.770865,135.549276,
大阪府,吹田市,121-4,南正雀２丁目４１−８,国土遊園北面,34.770285,135.547107,
大阪府,吹田市,121-5,南正雀３丁目,緑道西端,34.769968,135.545349,
大阪府,吹田市,121-6,南正雀５丁目２−３４の前,安威川フェンス,34.769699,135.550423,
大阪府,吹田市,121-7,南正雀４丁目１０,大阪市高速電気軌道（株）東吹田検車場フェンス,34.766685,135.53956,
大阪府,吹田市,122-1,岸部南１丁目４番８号,岸部市民センター南東面フェンス,34.775484,135.544773,
大阪府,吹田市,122-2,岸部南１丁目６−１０の前,阪急電車フェンス,34.77432,135.544407,
大阪府,吹田市,122-3,岸部南２丁目３７番,大阪学院大学１７号館と５号館の間道　５号館側フェンス,34.77245,135.541634,
大阪府,吹田市,122-4,岸部南１丁目２５,岸本南駐車場前水路鉄柵,34.775323,135.541745,
大阪府,吹田市,122-5,岸部南１丁目２５,ＪＲフェンス（岸辺駅前第２自転車駐車場前）,34.776471,135.540994,
大阪府,吹田市,122-6,岸部南２丁目２１の前,ＪＲフェンス（中井マンション前）,34.774434,135.538944,
大阪府,吹田市,122-7,岸部南２丁目４３−２９,さくらモータープール,34.77127,135.540802,
大阪府,吹田市,123-1,岸部中１丁目１２,市営岸部中住宅西１棟北西面側歩道,34.773545,135.530711,
大阪府,吹田市,123-2,岸部中１丁目１８,岸部中第２公園北面,34.773309,135.531203,
大阪府,吹田市,123-3,岸部中２丁目１９−１,岸部第一小学校北面,34.777624,135.535858,
大阪府,吹田市,123-4,岸部中２丁目１９−１,岸部第一小学校南面,34.776641,135.536464,
大阪府,吹田市,123-5,岸部中２丁目２−１,市立ことぶき保育園南フェンス,34.775517,135.532186,
大阪府,吹田市,123-6,岸部南１丁目１６,ＪＲ岸辺駅北口エスカレーター横植栽,34.776556,135.541879,
大阪府,吹田市,123-7,岸部中３丁目２６,岸部中３丁目２６フェンス,34.779925,135.536386,
大阪府,吹田市,124-1,岸部北１丁目２１,第二中学校南東面コンクリート壁,34.779916,135.52725,
大阪府,吹田市,124-2,岸部北２丁目３,府営岸部第一住宅駐車場東面,34.778458,135.532036,
大阪府,吹田市,124-3,岸部北２丁目６,下井モータープール南面,34.779989,135.53273,
大阪府,吹田市,124-4,岸部北１丁目２１,第二中学校正門左側コンクリート壁,34.779849,135.52613,
大阪府,吹田市,124-5,岸部北４丁目１２−１,岸部第二小学校南角フェンス,34.782446,135.528989,
大阪府,吹田市,124-6,岸部北４丁目１７,紫金山公園南面植樹帯,34.78268,135.531919,
大阪府,吹田市,124-7,岸部北４丁目２７,岸部北公園,34.783932,135.533369,
大阪府,吹田市,124-8,岸部北５丁目２０−１０,アルフレッサ（株）吹田事業所,34.785731,135.53544,
大阪府,吹田市,131-1,原町１丁目１３−２８の横,農地（山本駐車場横）,34.774678,135.52762,
大阪府,吹田市,131-2,原町２丁目１１,今池（新からま池）北面,34.773559,135.523198,
大阪府,吹田市,131-3,原町２丁目１３,棚裏池（牛池）南面,34.773442,135.524867,
大阪府,吹田市,131-4,原町２丁目２３,濁池北面歩道鉄柵,34.775197,135.522109,
大阪府,吹田市,131-5,原町２丁目２８,宮が谷池公園北東面,34.77487,135.524737,
大阪府,吹田市,131-6,原町２丁目５４,原町めだか遊園,34.776733,135.521673,
大阪府,吹田市,131-7,原町３丁目３４,徳田工務店横空地鉄柵,34.778091,135.522959,
大阪府,吹田市,132-1,片山町４丁目２７,原新池公園西面,34.771911,135.524414,
大阪府,吹田市,132-2,片山町４丁目２７,原新池公園東面,34.772331,135.524912,
大阪府,吹田市,132-3,片山町４丁目３２−１３,千里第一小学校（陸橋横）,34.770107,135.526703,
大阪府,吹田市,132-4,片山町４丁目３２−１３,千里第一小学校（西面）,34.769289,135.526203,
大阪府,吹田市,132-5,藤が丘町４,大井池公園東面,34.769126,135.523056,
大阪府,吹田市,132-6,藤が丘町２７,くまちゃん遊園,34.771631,135.522234,
大阪府,吹田市,132-7,天道町８,市営天道住宅北面,34.769654,135.528917,
大阪府,吹田市,133-1,片山町１丁目２２,片山町１丁目２２フェンス,34.766798,135.526455,
大阪府,吹田市,133-2,片山町１丁目２１,片山荒池遊園鉄柵,34.766718,135.52592,
大阪府,吹田市,133-3,片山町１丁目２２,片山自転車保管所前フェンス,34.765639,135.525511,
大阪府,吹田市,133-4,片山町１丁目２２,緑の遊歩道内植栽,34.765892,135.525856,
大阪府,吹田市,133-5,片山町３丁目５,植樹帯（エースモータープール前）,34.766843,135.520298,
大阪府,吹田市,133-6,片山町３丁目１６−２２,吹田税務署駐車場西面,34.76574,135.52219,
大阪府,吹田市,134-1,朝日が丘町１５−１５,歩道鉄柵,34.7688399,135.5196746,
大阪府,吹田市,134-2,片山町２丁目５−１,大和大学北西面フェンス,34.765707,135.518762,
大阪府,吹田市,134-3,山手町４丁目１３−１,片山北ふれあい公園西面,34.769956,135.517076,
大阪府,吹田市,134-4,朝日が丘町２６−１０,片山浄水所東面,34.772395,135.521005,
大阪府,吹田市,134-5,朝日が丘町１６−１の前,植樹帯（片山幼稚園東側）,34.770367,135.518757,
大阪府,吹田市,134-6,朝日が丘町２１,たけのこ遊園,34.771395,135.520293,
大阪府,吹田市,134-7,山手町４丁目３２,山手ゆにわ遊園北面,34.772109,135.514427,
大阪府,吹田市,135-1,出口町３２,片山保育園西面,34.765487,135.513391,
大阪府,吹田市,135-2,出口町３４,住宅公団片山団地北側進入路横,34.765398,135.515549,
大阪府,吹田市,135-3,山手町１丁目−６−１,山手地区公民館フェンス,34.768392,135.513385,
大阪府,吹田市,135-4,出口町２８,糸田川鉄柵（豊津駅東側）,34.764226,135.510669,
大阪府,吹田市,135-5,山手町２丁目１５−４３,山手小学校運動場東面,34.766471,135.51143,
大阪府,吹田市,135-6,山手町２丁目１５−４３,山手小学校正門横,34.767448,135.511839,
大阪府,吹田市,135-7,山手町２丁目１５−４３,山手小学校北面,34.768106,135.510887,
大阪府,吹田市,135-8,山手町３丁目１５,山手コーポ遊園南面,34.770842,135.510966,
大阪府,吹田市,136-1,上山手町７番,山の谷墓地西面北寄り市道フェンス,34.774436,135.515813,
大阪府,吹田市,136-2,上山手町１４,佐井寺南２号緑地,34.775567,135.518518,
大阪府,吹田市,136-3,上山手町１８,上山手公園東面石壁,34.77673,135.516579,
大阪府,吹田市,136-4,上山手町２７,牛角吹田上山手店前フェンス,34.777414,135.517368,
大阪府,吹田市,136-5,上山手町５５,農地北面フェンス,34.777802,135.519645,
大阪府,吹田市,136-6,上山手町５９,上山手遊園東面,34.778861,135.519876,
大阪府,吹田市,137-1,原町４丁目２２,原町うずまき遊園南東面,34.776653,135.529458,
大阪府,吹田市,137-2,原町３丁目３,サイクルショップカンザキ吹田店西面,34.777078,135.527092,
大阪府,吹田市,137-3,原町３丁目４８−１,原竜が池公園南面,34.778777,135.524912,
大阪府,吹田市,137-4,原町３丁目４８−１,原竜が池公園北面,34.779341,135.524064,
大阪府,吹田市,137-5,原町４丁目１２,住友公園南面,34.775314,135.529911,
大阪府,吹田市,137-6,原町４丁目２６−８,原町児童センター,34.778502,135.527139,
大阪府,吹田市,137-7,原町４丁目２８,原町公園南西面,34.777803,135.529919,
大阪府,吹田市,141-1,垂水町１丁目６−９,垂水保育園西面,34.765448,135.507658,
大阪府,吹田市,141-2,垂水町１丁目３４,玉の井公園南面,34.766265,135.502494,
大阪府,吹田市,141-3,垂水町２丁目１１,垂水東遊園東面,34.762932,135.50853,
大阪府,吹田市,141-4,垂水町３丁目２２−５,みどり健康管理センター南面フェンス,34.760454,135.503242,
大阪府,吹田市,141-5,垂水町２丁目２５,垂水南遊園東面植栽,34.760649,135.50735,
大阪府,吹田市,141-6,垂水町３丁目３２−５０,豊津中学校東面,34.758324,135.504865,
大阪府,吹田市,141-7,垂水町３丁目３２−５０,豊津中学校北面,34.759042,135.504798,
大阪府,吹田市,141-8,垂水町３丁目３２−５０,豊津中学校西面,34.758185,135.503588,
大阪府,吹田市,142-1,垂水町１丁目６０,北之町第３遊園,34.768109,135.499614,
大阪府,吹田市,142-2,江坂町１丁目１９,江坂公園東面植樹帯,34.758934,135.500571,
大阪府,吹田市,142-3,江坂町１丁目１９,江坂公園北面植樹帯,34.759762,135.499113,
大阪府,吹田市,142-4,江坂町１丁目１５−４２,豊津第一小学校東面,34.761363,135.500631,
大阪府,吹田市,142-5,江坂町１丁目１５−４２,豊津第一小学校北面,34.762006,135.499862,
大阪府,吹田市,142-6,江坂町１丁目１９,江坂公園南面植込み,34.758536,135.499693,
大阪府,吹田市,142-7,広芝町１,広芝公園北面,34.757171,135.503222,
大阪府,吹田市,142-8,広芝町２,広芝糸田川右岸,34.756868,135.502453,
大阪府,吹田市,142-9,垂水町１丁目５４,北の町遊園北面,34.764548,135.499653,
大阪府,吹田市,142-10,広芝町１６番,広芝橋　糸田川右岸交差点フェンス,34.754347,135.499852,
大阪府,吹田市,143-1,豊津町６−１,豊津西中学校南面,34.760554,135.494092,
大阪府,吹田市,143-2,豊津町７,江坂駅前西自転車駐車場,34.760551,135.495656,
大阪府,吹田市,143-3,豊津町４６,市営豊津住宅Ｔ５棟北面,34.758776,135.488896,
大阪府,吹田市,143-4,豊津町５０,市営豊津住宅Ｔ３棟東面,34.758154,135.489376,
大阪府,吹田市,143-5,江の木町４,江の木公園西面,34.756868,135.494459,
大阪府,吹田市,143-6,江の木町１２,モクセイ遊園東面,34.755027,135.493345,
大阪府,吹田市,143-7,江の木町３３−９５,住友ファーマ(株)北面,34.754192,135.493768,
大阪府,吹田市,143-8,芳野町１３,吹田支援学校北面,34.753138,135.490135,
大阪府,吹田市,143-9,豊津町６番１号,豊津西中学校北面,34.760817,135.494349,
大阪府,吹田市,144-1,江坂町３丁目１２−１,江坂町公民館西面,34.766064,135.493884,
大阪府,吹田市,144-2,江坂町３丁目１３−１,江坂大池小学校南面,34.765803,135.495462,
大阪府,吹田市,144-3,江坂町３丁目１３−１,江坂大池小学校北面,34.766766,135.495365,
大阪府,吹田市,144-4,江坂町４丁目１０,大阪健康倶楽部小谷診療所南面,34.767734,135.496337,
大阪府,吹田市,144-5,江坂町３丁目２３−３１,江坂ふじ遊園南面,34.7671918,135.4922172,
大阪府,吹田市,144-6,江坂町４丁目２３−６,住宅・都市整備公団江坂住宅６棟東面,34.769545,135.494009,
大阪府,吹田市,144-7,江坂町３丁目４７,歩道鉄柵,34.7672563,135.4901687,
大阪府,吹田市,145-1,江坂町２丁目２の前,名神沿いフェンス,34.763887,135.495659,
大阪府,吹田市,145-2,江坂町２丁目５−１,豊津第二小学校南面,34.761925,135.495399,
大阪府,吹田市,145-3,江坂町２丁目５−１,豊津第二小学校西面,34.762419,135.494291,
大阪府,吹田市,145-4,江坂町２丁目１１,ＮＡＳ駐車場西面,34.764054,135.494151,
大阪府,吹田市,145-5,江坂町２丁目１３の前,名神沿いフェンス,34.762312,135.491923,
大阪府,吹田市,145-6,江坂町２丁目２７,染之井公園北面,34.763837,135.488985,
大阪府,吹田市,145-7,江坂町２丁目３４,染之井南遊園,34.762293,135.48846,
大阪府,吹田市,151-1,山手町３丁目３番,関西大学会館　大学本部　東側フェンス,34.771675,135.508848,
大阪府,吹田市,151-2,円山町５２番,円山見晴らし公園南東面,34.769422,135.501201,
大阪府,吹田市,151-3,山手町３丁目５,関大幼稚園前阪急フェンス,34.770117,135.507027,
大阪府,吹田市,151-4,円山町３,垂水上池公園東面,34.766687,135.50748,
大阪府,吹田市,151-5,円山町１２−２９,住宅供給公社豊津団地北面,34.766509,135.505822,
大阪府,吹田市,151-6,円山町５０,円山公園フェンス,34.7682568,135.5036766,
大阪府,吹田市,151-7,円山町２１,関大前駅南側歩道フェンス,34.770117,135.506172,
大阪府,吹田市,152-1,千里山西１丁目６,市営千里山西住宅２棟北東面,34.772647,135.50385,
大阪府,吹田市,152-2,千里山西１丁目１３,千里山西遊園,34.772611,135.504686,
大阪府,吹田市,152-3,千里山西２丁目２−１,第一中学校東面,34.772733,135.502078,
大阪府,吹田市,152-4,千里山西２丁目１３−１,千里第三小学校北面,34.773572,135.499748,
大阪府,吹田市,152-5,千里山西２丁目１７,江坂山北公園南面,34.771808,135.498911,
大阪府,吹田市,152-6,千里山西２丁目１３−１,千里第三小学校南面,34.772183,135.500067,
大阪府,吹田市,152-7,江坂町５丁目３,江坂山南公園北面,34.769153,135.499414,
大阪府,吹田市,152-8,江坂町５丁目１３,江坂５丁目パーキング北面フェンス,34.770392,135.497623,
大阪府,吹田市,153-1,千里山西１丁目３８の前,阪急電車フェンス,34.778138,135.505355,
大阪府,吹田市,153-2,千里山西４丁目３８,ぞうさん遊園,34.778896,135.497714,
大阪府,吹田市,153-3,千里山西５丁目１−９,千里山駅第１駐車場,34.779415,135.504966,
大阪府,吹田市,153-4,千里山西４丁目３４,ステイツ千里山西前フェンス,34.778227,135.499358,
大阪府,吹田市,153-5,千里山西５丁目２９,吹田市消防団千二分団西面,34.782254,135.506022,
大阪府,吹田市,153-6,千里山西５丁目３１,千里山第２噴水,34.782638,135.503758,
大阪府,吹田市,153-7,千里山西５丁目１１−１９,千里山会館東面コンクリート壁,34.779807,135.5032,
大阪府,吹田市,154-1,春日１丁目２−４,農地西面,34.779121,135.495681,
大阪府,吹田市,154-2,春日２丁目２,レジオンスクエア緑地公園前道路フェンス,34.782052,135.494814,
大阪府,吹田市,154-3,春日３丁目１−１３,春日会館,34.783971,135.494511,
大阪府,吹田市,154-4,春日３丁目１３,水路鉄柵（つばめ遊園横）,34.785315,135.496417,
大阪府,吹田市,154-5,春日３丁目１４,駐車場西面,34.786139,135.496481,
大阪府,吹田市,154-6,春日３丁目１４,歩道鉄柵,34.786199,135.497077,
大阪府,吹田市,154-7,春日２丁目２５,春日さくら遊園前鉄柵,34.785818,135.493517,
大阪府,吹田市,155-1,千里山西６丁目４８,千里山西６丁目４８フェンス,34.784793,135.505083,
大阪府,吹田市,155-2,千里山竹園２丁目２０,歩道鉄柵,34.786293,135.503319,
大阪府,吹田市,155-3,千里山西６丁目６３の前,高川沿い,34.788257,135.507513,
大阪府,吹田市,155-4,春日４丁目１１,公団千里春日台団地１号棟北面,34.785557,135.499694,
大阪府,吹田市,155-5,春日４丁目１２,春日東トンボ遊園,34.785418,135.498078,
大阪府,吹田市,155-6,春日４丁目１,春日東遊園南面,34.783021,135.497656,
大阪府,吹田市,155-7,千里山竹園１丁目２７,西千里第２遊園,34.784426,135.502111,
大阪府,吹田市,155-8,春日４丁目５,春日かぜの遊園東面,34.784621,135.498314,
大阪府,吹田市,155-9,千里山竹園１丁目３,てまり遊園南東面,34.7797766,135.4982206,
大阪府,吹田市,156-1,千里山松が丘３,トラちゃん遊園前鉄柵,34.780746,135.51351,
大阪府,吹田市,156-2,千里山松が丘１５,松が丘第三公園南東面,34.779197,135.512432,
大阪府,吹田市,156-3,千里山高塚６,高塚南遊園北面,34.781991,135.511566,
大阪府,吹田市,156-4,千里山虹が丘２,公団虹２棟北側,34.780491,135.508977,
大阪府,吹田市,156-5,千里山月が丘２,市営千里山住宅３棟北東面,34.781091,135.506313,
大阪府,吹田市,156-6,千里山東４丁目１３,千里山東にちご公園北西面,34.779199,135.514401,
大阪府,吹田市,156-7,千里山東２丁目５,千里山東公園北面,34.775877,135.506244,
大阪府,吹田市,156-8,千里山松が丘２５−１,千里第二小学校正門横,34.779663,135.509205,
大阪府,吹田市,156-9,千里山霧が丘２２,千里山コミュニティセンター横ガードレール,34.778938,135.506338,
大阪府,吹田市,156-10,千里山星が丘４,プラウド千里山前歩道鉄柵,34.779991,135.507663,
大阪府,吹田市,157-1,佐井寺２丁目２６,こすもす遊園南面コンクリート壁,34.78376,135.516857,
大阪府,吹田市,157-2,竹谷町３７−１,総合運動場西側鉄柵,34.779183558670155,135.52178865145112,
大阪府,吹田市,157-3,佐井寺南が丘１４,佐井寺南が丘公園南西面,34.779192,135.518066,
大阪府,吹田市,157-4,佐井寺南が丘１４,佐井寺南が丘公園北東面,34.779419,135.519061,
大阪府,吹田市,157-5,佐井寺１丁目１０,佐井寺南公園南面,34.783352,135.52077,
大阪府,吹田市,157-6,佐井寺２丁目２−３,谷上池公園,34.7821522,135.518302,
大阪府,吹田市,157-7,佐井寺南が丘１丁目１,佐井寺地区公民館外側コンクリート壁,34.781915,135.51842,
大阪府,吹田市,157-8,竹谷町３７−１,せせらぎの道沿い植栽,34.780693383856914,135.523204857811,
大阪府,吹田市,157-9,佐井寺南が丘１４番,佐井寺南が丘公園南東面,34.778782,135.518737,
大阪府,吹田市,158-1,五月が丘北１０,山田下第３遊園,34.788973,135.526059,
大阪府,吹田市,158-2,五月が丘北２２,歩道鉄柵,34.788512,135.523112,
大阪府,吹田市,158-3,五月が丘東５,紫金山公園北西フェンス,34.786049,135.528578,
大阪府,吹田市,158-4,五月が丘東８,植樹帯（五月が丘バス停横）,34.786946,135.527453,
大阪府,吹田市,158-5,五月が丘南６,星和プラネタウン千里南（双子座のまち）西面,34.784668,135.525092,
大阪府,吹田市,158-6,五月が丘南１２,佐井寺東公園,34.78486,135.522909,
大阪府,吹田市,158-7,五月が丘西１,千里南パークマンション南面,34.786793,135.521329,
大阪府,吹田市,158-8,五月が丘西４−１,植樹帯（東佐井寺小学校裏門横）,34.786332,135.522651,
大阪府,吹田市,159-1,佐井寺３丁目１,貯水池フェンス,34.786574,135.51919,
大阪府,吹田市,159-2,佐井寺３丁目３,佐井寺小学校南面,34.785894,135.517088,
大阪府,吹田市,159-3,佐井寺３丁目６−１６,佐井寺新池公園南東面,34.7854637,135.5190828,
大阪府,吹田市,159-4,佐井寺３丁目２０,貯水池フェンス,34.785482,135.515018,
大阪府,吹田市,159-5,佐井寺３丁目２２,佐井寺北公園,34.786362,135.514018,
大阪府,吹田市,159-6,佐井寺３丁目３,佐井寺小学校西面,34.7864861,135.5158367,
大阪府,吹田市,159-7,佐井寺４丁目１８,だいら遊園西面,34.78396,135.51431,
大阪府,吹田市,161-1,佐竹台１丁目３,さつき公園南面,34.789548,135.511527,
大阪府,吹田市,161-2,佐竹台２丁目４,Ｂ１５棟西面,34.791887,135.512918,
大阪府,吹田市,161-3,佐竹台３丁目４,佐竹公園南面,34.789533,135.512433,
大阪府,吹田市,161-4,佐竹台３丁目４,佐竹公園東面,34.78994,135.514977,
大阪府,吹田市,161-5,佐竹台４丁目１２−１,佐竹台小学校北面,34.787498,135.515135,
大阪府,吹田市,161-6,佐竹台５丁目１,Ｂ３１棟西面,34.791006,135.515521,
大阪府,吹田市,161-7,佐竹台５丁目４,植樹帯（佐竹台５丁目バス停横）,34.791306,135.518879,
大阪府,吹田市,161-8,佐竹台６丁目９,ゆりのき公園西面,34.789043,135.520573,
大阪府,吹田市,162-1,高野台１丁目１,Ｃ１棟南面,34.793067,135.512042,
大阪府,吹田市,162-2,高野台１丁目１,Ｃ３棟北面,34.794203,135.511975,
大阪府,吹田市,162-3,高野台２丁目１,歩道鉄柵,34.795217,135.512976,
大阪府,吹田市,162-4,高野台２丁目１６−１,高野台小学校南面,34.795311,135.515701,
大阪府,吹田市,162-5,高野台２丁目１６−１,高野台小学校西面,34.795422,135.514091,
大阪府,吹田市,162-6,高野台３丁目９−５の前,千里第４緑地南面,34.796497,135.520557,
大阪府,吹田市,162-7,高野台４丁目５,歩道鉄柵,34.7915863,135.5183797,
大阪府,吹田市,162-8,高野台５丁目２−１の前,千里第４緑地北面,34.791401,135.521581,
大阪府,吹田市,163-1,津雲台１丁目３,千里南公園東面,34.793364,135.508252,
大阪府,吹田市,163-2,津雲台１丁目１,南千里駅改札横植込み,34.793962,135.510138,
大阪府,吹田市,163-3,津雲台２丁目２,Ｃ４８棟東面,34.800466,135.506624,
大阪府,吹田市,163-4,津雲台３丁目１３,津雲公園西面,34.801372,135.51049,
大阪府,吹田市,163-5,津雲台４丁目７,津雲台小学校北面,34.801938,135.509385,
大阪府,吹田市,163-6,津雲台５丁目１９,デュー阪急山田駐車場東面,34.804249,135.514384,
大阪府,吹田市,163-7,津雲台６丁目１０の前,植樹帯（津雲外周線横）,34.805488,135.509215,
大阪府,吹田市,163-8,津雲台７丁目３,阪急バス(株)千里営業所,34.805649,135.506235,
大阪府,吹田市,163-9,津雲台１丁目２−１,千里ニュータウンプラザ２階入口前,34.793117,135.508335,
大阪府,吹田市,164-1,桃山台１丁目１,Ｃ１棟東面,34.792624,135.507721,
大阪府,吹田市,164-2,桃山台１丁目１,グランファースト千里桃山台東側府道沿い,34.791038,135.507823,
大阪府,吹田市,164-3,桃山台１丁目２番,府営桃山台住宅　にれのき橋南端周辺,34.792694,135.506232,
大阪府,吹田市,164-4,桃山台１丁目５−１,桃山台小学校南面,34.791867,135.50338,
大阪府,吹田市,164-5,桃山台２丁目９−１０,桃山公園東面（春日大池東面）,34.79282,135.501164,
大阪府,吹田市,164-6,桃山台２丁目４,もものき公園西面,34.791856,135.502211,
大阪府,吹田市,164-7,桃山台３丁目１２と１５の境,千里第７緑地北面,34.788006,135.503909,
大阪府,吹田市,164-8,桃山台５丁目１,千里第８緑地北面,34.792295,135.496583,
大阪府,吹田市,165-1,竹見台１丁目１,Ｃ１０１棟東面,34.794651,135.507279,
大阪府,吹田市,165-2,竹見台１丁目１,Ｃ１９棟東面,34.797358,135.505715,
大阪府,吹田市,165-3,竹見台１丁目３−１,竹見台中学校（テニスコート横）,34.796364,135.503524,
大阪府,吹田市,165-4,竹見台２丁目１,Ｃ８棟北西面,34.796728,135.503172,
大阪府,吹田市,165-5,竹見台３丁目３−１,千里たけみ小学校北面,34.795753,135.501727,
大阪府,吹田市,165-6,竹見台３丁目５,しいのき公園南面,34.794906,135.500925,
大阪府,吹田市,165-7,竹見台４丁目２−５,竹見公園北面,34.793964,135.499139,
大阪府,吹田市,165-8,竹見台４丁目６,Ａ１棟南東側通路,34.79372,135.497775,
大阪府,吹田市,167-1,古江台１丁目１−１,古江台中学校グラウンド北面,34.808271,135.506121,
大阪府,吹田市,167-2,古江台３丁目９,植樹帯,34.819403,135.507365,
大阪府,吹田市,167-3,古江台４丁目１,阪急電車フェンス,34.8158868,135.5130147,
大阪府,吹田市,167-4,古江台１丁目１７−１,カトリックさゆり幼稚園東面フェンス,34.811085,135.510801,
大阪府,吹田市,167-5,古江台５丁目３,Ｄ２棟前,34.81261,135.512554,
大阪府,吹田市,167-6,古江台５丁目４,古江公園北西面,34.813596,135.513501,
大阪府,吹田市,167-7,古江台５丁目６−１,古江台小学校北西面,34.815684,135.509407,
大阪府,吹田市,167-8,古江台５丁目５,Ｂ４４棟南西面,34.814818,135.511696,
大阪府,吹田市,167-9,古江台６丁目２−１,弘済院太陽の広場東面,34.807782,135.512718,
大阪府,吹田市,168-1,青山台１丁目３,植樹帯（青山台１丁目バス停横）,34.817387,135.503824,
大阪府,吹田市,168-2,青山台２丁目１,近隣センター駐車場東面,34.819748,135.501393,
大阪府,吹田市,168-3,青山台２丁目５,青山台小学校北東面,34.823053,135.503829,
大阪府,吹田市,168-4,青山台３丁目２５,グラウンド（青山幼稚園バス停西）,34.825075,135.501946,
大阪府,吹田市,168-5,青山台３丁目４４−３の前,植樹帯（千里丘陵Ｆ団地前）,34.822319,135.500541,
大阪府,吹田市,168-6,青山台４丁目１,Ｃ７４棟西面,34.821164,135.509637,
大阪府,吹田市,168-7,青山台４丁目２−１,青山台中学校西面,34.822236,135.508093,
大阪府,吹田市,168-8,藤白台５丁目２,千里北公園西面,34.824766,135.509171,
大阪府,吹田市,169-1,藤白台３丁目２,ふじのき公園南面,34.817119,135.516067,
大阪府,吹田市,169-2,藤白台１丁目１,北消防署北西フェンス,34.812351,135.515476,
大阪府,吹田市,169-3,藤白台１丁目と２丁目の境,千里第３緑地,34.814272,135.518581,
大阪府,吹田市,169-4,藤白台３丁目５,藤白公園内ピアノ池南面鉄柵,34.818188,135.513105,
大阪府,吹田市,169-5,藤白台３丁目５,Ａ１棟北面,34.821416,135.511885,
大阪府,吹田市,169-6,藤白台４丁目８−１,藤白台保育園西フェンス,34.821917,135.514184,
大阪府,吹田市,169-7,藤白台５丁目１,千里北公園南面,34.824678,135.510012,
大阪府,吹田市,169-8,上山田３,上山田ほのぼの遊園西面,34.825294,135.517939,
大阪府,吹田市,169-9,藤白台３丁目３−３−１,藤白台小学校北面フェンス,34.81998,135.514824,
大阪府,吹田市,181-1,山田北１,北山田小学校前植栽,34.808221,135.520767,
大阪府,吹田市,181-2,山田北９−１３,ヤマト運輸(株)吹田北営業所西側フェンス,34.80716,135.519564,
大阪府,吹田市,181-3,山田西４丁目２,阪急山田駅前東自転車駐車場前,34.804424,135.516515,
大阪府,吹田市,181-4,山田西４丁目１,ジオ阪急千里山田前植込み,34.803849,135.515237,
大阪府,吹田市,181-5,山田西４丁目１６,山田上王子池公園東面,34.80253,135.520545,
大阪府,吹田市,181-6,山田西３丁目３３,千里王子高層Ａ棟西側石壁,34.803197,135.51712,
大阪府,吹田市,181-7,山田北７−１,コーナン千里山田店フェンス,34.808374,135.518645,
大阪府,吹田市,181-8,山田西４丁目２,山田駅東公園南面,34.80377429663487,135.5168878270531,
大阪府,吹田市,182-1,山田西２丁目２,府営吹田山田西住宅８棟前,34.791351,135.525603,
大阪府,吹田市,182-2,山田西２丁目５,山田西第２公園南東面,34.795017,135.528183,
大阪府,吹田市,182-3,山田西２丁目５−１,山田出張所北面,34.794809,135.528806,
大阪府,吹田市,182-4,山田西２丁目９,山田西第３次団地Ａ３棟北面,34.796706,135.52482,
大阪府,吹田市,182-5,山田西２丁目１０−１,山田・千里丘地域防災備蓄倉庫北東面,34.795175,135.525478,
大阪府,吹田市,182-6,山田西２丁目１１−１,西山田中学校東面,34.796359,135.523528,
大阪府,吹田市,182-7,山田西２丁目１４,山田西第３公園,34.797947,135.521773,
大阪府,吹田市,183-1,山田西１丁目４−１,山田第三小学校南面,34.79255,135.532035,
大阪府,吹田市,183-2,山田西１丁目４−１,山田第三小学校東面,34.792903,135.533113,
大阪府,吹田市,183-3,山田西１丁目６−１,山田第五小学校東面,34.791751,135.5344,
大阪府,吹田市,183-4,山田西１丁目２２,供給公社Ａ２棟西面,34.789387,135.530228,
大阪府,吹田市,183-5,山田西１丁目２３,山田西三角広場西面,34.791204,135.532169,
大阪府,吹田市,183-6,山田西１丁目２５,亥の子谷北公園北面フェンス,34.791804,135.530208,
大阪府,吹田市,183-7,山田西１丁目２７−１５,山三保育園北面,34.792684,135.528994,
大阪府,吹田市,183-8,山田西１丁目３１,亥子谷バス停横,34.790298,135.528397,
大阪府,吹田市,184-1,山田東４丁目２５−１８の前,極楽橋北側鉄柵,34.8034,135.522134,
大阪府,吹田市,184-2,山田東４丁目３３−１,山田東中学校南面,34.8025376,135.5279322,
大阪府,吹田市,184-3,山田東４丁目３３−１,山田東中学校西面,34.803019,135.528294,
大阪府,吹田市,184-4,山田東４丁目３８,SUN SQUARE千里万博南東面,34.802739,135.525672,
大阪府,吹田市,184-5,山田東４丁目３８,薮本モータープール北東面,34.803759,135.524597,
大阪府,吹田市,184-6,山田東４丁目４１,ローレルハイツ４棟北面,34.805383,135.52302,
大阪府,吹田市,185-1,山田東１丁目１０−３７,メロディーハイム千里東駐車場,34.794901,135.530225,
大阪府,吹田市,185-2,山田東１丁目２０の前,山田下ふれあい公園北面,34.795687,135.533786,
大阪府,吹田市,185-3,山田東３丁目１８,ぎんが遊園西面,34.80223,135.532002,
大阪府,吹田市,185-4,山田東１丁目３１,千里台スカイハイツＡ棟西面,34.798095,135.533238,
大阪府,吹田市,185-5,山田東１丁目３１,山田小川公園東面,34.797135,135.534048,
大阪府,吹田市,185-6,山田東３丁目２８−１,山田高校正門横フェンス,34.802551,135.528268,
大阪府,吹田市,185-7,山田東２丁目１７−６,駐車場西面,34.798786,135.5256,
大阪府,吹田市,185-8,山田東３丁目２５,駐車場南面,34.799906,135.529944,
大阪府,吹田市,185-9,山田東３丁目２５,小川自治会体育センター東面,34.800322,135.530464,
大阪府,吹田市,186-1,尺谷６番,尺谷公園西面フェンス,34.795044,135.540336,
大阪府,吹田市,186-2,樫切山３,エマブル樫切山横植栽,34.794862,135.535952,
大阪府,吹田市,186-3,山田市場１５−１,山田中学校北面,34.7932555,135.5392843,
大阪府,吹田市,186-4,樫切山１３,千里台公園北面,34.797384,135.537408,
大阪府,吹田市,186-5,山田市場１５−１,山田中学校正門横,34.792373,135.538699,
大阪府,吹田市,186-6,山田市場９,山田川公園鉄柵,34.791276,135.53841,
大阪府,吹田市,186-7,尺谷１５の前,名神沿いフェンス,34.795523,135.538296,
大阪府,吹田市,187-1,山田南１−１,イズミヤ千里丘店植栽,34.7894398,135.5391046,
大阪府,吹田市,187-2,山田南２９,ルネ千里丘公園西面,34.7896997,135.5367449,
大阪府,吹田市,187-3,山田南５０−１,関西大学吹田みらいキャンパス（山田南18の前・三差路沿い）,34.78713,135.535066,
大阪府,吹田市,187-4,山田南４３,山田南ニコニコ遊園,34.789499,135.535544,
大阪府,吹田市,187-5,山田南４５,だいのき公園,34.788401,135.535511,
大阪府,吹田市,187-6,山田南５０−１,関西大学吹田みらいキャンパス（住宅向かい）,34.786552,135.533578,
大阪府,吹田市,187-7,山田南５０−１,関西大学吹田みらいキャンパス,34.786661,135.532953,
大阪府,吹田市,188-1,山田西３丁目１２,千里第４緑地西面,34.799297,135.516273,
大阪府,吹田市,188-2,山田西３丁目２２の前,千里第４緑地北面,34.798828,135.518898,
大阪府,吹田市,188-3,山田西３丁目２１,千里山田遊園,34.798283,135.520437,
大阪府,吹田市,188-4,山田西３丁目９,王子公園東面,34.800416,135.51554,
大阪府,吹田市,188-5,山田西３丁目５２,一条池第一遊園北面,34.799656,135.522748,
大阪府,吹田市,188-6,山田西３丁目５９−３６,山田西いこいの遊園,34.8010258,135.5203894,
大阪府,吹田市,188-7,山田西３丁目８４−１,山田市民体育館北面,34.799278,135.524145,
大阪府,吹田市,191-1,長野東２６,長野公園東面,34.794331,135.541557,
大阪府,吹田市,191-2,長野東１,近畿郵政局吹田長野東第２社宅１棟西面,34.791876,135.546735,
大阪府,吹田市,191-3,長野東６番,千里丘つなぐ遊園南面フェンス,34.78979,135.542913,
大阪府,吹田市,191-4,長野西１７−１７,長野西公園北面,34.7934268,135.5406719,
大阪府,吹田市,191-5,長野東１０,歩道鉄柵（シャルマンコーポ千里丘グランデ北側）,34.791582,135.542204,
大阪府,吹田市,191-6,長野東２６,長野東２６フェンス,34.793474,135.541095,
大阪府,吹田市,191-7,長野東２６,長野公園西面,34.795254,135.540848,
大阪府,吹田市,192-1,千里丘上１３,千里丘歩道橋下府道鉄柵,34.795623,135.552162,
大阪府,吹田市,192-2,千里丘中４６,千里丘もくもく遊園,34.797759,135.544054,
大阪府,吹田市,192-3,千里丘中３６,千里丘上公園南西面,34.797781,135.545699,
大阪府,吹田市,192-4,千里丘上２８,千里丘つくし野遊園前フェンス,34.797565,135.549787,
大阪府,吹田市,192-5,千里丘下１９−１,山田第二小学校東面フェンス,34.793236,135.550807,
大阪府,吹田市,192-6,千里丘下１９−１,山田第二小学校南面フェンス,34.792865,135.5499342,
大阪府,吹田市,192-7,千里丘西９,南山田小学校北面,34.794615,135.543552,
大阪府,吹田市,192-8,千里丘西２４,千里丘西公園東面,34.798589,135.541085,
大阪府,吹田市,193-1,青葉丘南１６−１,青葉丘南１６北西面鉄柵,34.80467237561356,135.54626428836062,
大阪府,吹田市,193-2,新芦屋上２９,メゾン千里丘Ｋ棟南面,34.801903,135.550251,
大阪府,吹田市,193-3,清水１,清水一番遊園,34.799967,135.54076,
大阪府,吹田市,193-4,青葉丘南８,青葉丘南第１公園,34.804886,135.553311,
大阪府,吹田市,193-5,青葉丘南１４,コーナン西側鉄柵,34.806439,135.548456,
大阪府,吹田市,193-6,青葉丘南１５−１０,東山田小学校南面,34.805403,135.549142,
大阪府,吹田市,193-7,青葉丘南１６,青葉丘南第３公園（千里丘中学校南側）,34.803978,135.546157,
大阪府,吹田市,193-8,青葉丘北１８,青葉丘公園,34.809466,135.548379,
大阪府,吹田市,193-9,千里丘北１−１０,千里丘稲荷神社南西フェンス,34.801881,135.547465,
大阪府,吹田市,194-1,新芦屋上２０,市道植樹帯（ルナ・ヴィータ住宅前）,34.799228,135.55019,
大阪府,吹田市,194-2,新芦屋上１,住宅横フェンス,34.798292,135.551703,
大阪府,吹田市,194-3,新芦屋上２,ルナ・コートマンション（旧千里丘グランド跡）北面フェンス,34.799945,135.552034,
大阪府,吹田市,194-4,新芦屋上１０,新芦屋住宅遊園南面,34.802025,135.552089,
大阪府,吹田市,194-5,新芦屋下１５,新芦屋下公園内フェンス,34.800226,135.553825,
大阪府,吹田市,194-6,新芦屋上３−２０,ルナ・ハート老人ホーム横フェンス,34.799964,135.552584,
大阪府,吹田市,194-7,新芦屋上１９,こがねどり遊園,34.799803,135.550565,
