prefecture,city,number,address,name,lat,long,note
大阪府,和泉市,1-1,井ノ口町1-21,奥縫製加工所金網,34.4826284,135.4201778,
大阪府,和泉市,1-2,府中町七丁目5-19先,芦洗公園金網,34.4901302,135.4272725,
大阪府,和泉市,1-3,井ノ口町6,槇尾川堤防防護柵(柳田橋北詰)鉄柵,34.4824282,135.4214188,
大阪府,和泉市,1-4,府中町四丁目22-5先,保健センター前歩道防護柵(大阪和泉泉南線)鉄柵,34.4794494,135.4294275,
大阪府,和泉市,1-5,府中町五丁目5,みたち山2号公園鉄柵,34.48514180000001,135.43186,
大阪府,和泉市,1-6,府中町五丁目2,御館山公園鉄柵,34.4854713,135.429323,
大阪府,和泉市,1-7,府中町五丁目12,masked,34.4871295,135.4314923,
大阪府,和泉市,1-8,府中町728-4,歩道防護柵(大阪和泉泉南線)鉄柵,34.48247910000001,135.4307031,
大阪府,和泉市,1-9,府中町四丁目10,歩道防護柵(旧和泉市立病院R480側)鉄柵,34.482265,135.427675,
大阪府,和泉市,1-10,府中町四丁目10,ホテルルートイン大阪和泉府中南側鉄柵,34.482265,135.427675,
大阪府,和泉市,1-11,府中町二丁目5-20,国府小学校(小栗街道門左)金網,34.4832999,135.4247972,
大阪府,和泉市,1-12,府中町二丁目5-20,国府小学校(体育館入口)金網,34.4832999,135.4247972,
大阪府,和泉市,1-13,府中町二丁目5-20,国府小学校(正門左)金網,34.4832999,135.4247972,
大阪府,和泉市,1-14,府中町二丁目7-5,和泉市役所前バス停付近歩道防護柵鉄柵,34.4834292,135.4238722,
大阪府,和泉市,1-15,府中町四丁目20,和泉市立体育館前自転車置き場鉄柵,34.480331,135.428486,
大阪府,和泉市,1-16,府中町二丁目5-20,国府小学校(給食室前)鉄柵,34.4832999,135.4247972,
大阪府,和泉市,1-17,府中町二丁目7-5,和泉市役所前歩道防護柵鉄柵,34.4834292,135.4238722,
大阪府,和泉市,1-18,府中町六丁目14,府中9号公園金網,34.489324,135.4312717,
大阪府,和泉市,1-19,府中町五丁目21,道路フェンス(コート和泉府中セルカ東側)鉄柵,34.4867959,135.4330366,
大阪府,和泉市,2-1,肥子町一丁目1,JR和泉府中駅西口歩道柵鉄柵,34.4878477,135.4235785,
大阪府,和泉市,2-2,肥子町一丁目9先,肥子会館前歩道柵鉄柵,34.4874689,135.4216394,
大阪府,和泉市,2-3,肥子町二丁目2-1,イオン和泉府中店受水槽金網,34.485988,135.4211799,
大阪府,和泉市,2-4,肥子町二丁目2,肥子池公園金網,34.486093,135.420015,
大阪府,和泉市,2-5,肥子町二丁目7,歩道防護柵(トーセン加工前)鉄柵,34.4842005,135.4189191,
大阪府,和泉市,3-1,繁和町1-1,masked,34.4820041,135.4186414,
大阪府,和泉市,3-2,繁和町2-14,masked,34.4817707,135.417786,
大阪府,和泉市,3-3,繁和町2,槇尾川堤防防護柵(繁和橋西)鉄柵,34.482078,135.4176163,
大阪府,和泉市,3-4,繁和町1,masked,34.4817039,135.418331,
大阪府,和泉市,3-5,繁和町4,masked,34.4813774,135.4167137,
大阪府,和泉市,3-6,和気町二丁目3,槇尾川堤防防護柵鉄柵,34.4804344,135.4209409,
大阪府,和泉市,3-7,和気町二丁目3,サザンパーク西側歩道(踏切寄り)金網,34.4804344,135.4209409,
大阪府,和泉市,3-8,和気町二丁目2,和気7号公園(公園内南東鉄柵)鉄柵,34.480544,135.4218599,
大阪府,和泉市,4-1,和気町三丁目14-10,歩道防護柵(大阪和泉泉南線)金網,34.476612,135.4269304,
大阪府,和泉市,4-2,和気町三丁目18,槇尾川堤防防護柵(和泉大橋下流)金網,34.4791456,135.427595,
大阪府,和泉市,4-3,和気町一丁目4-29,masked,34.4773227,135.4244807,
大阪府,和泉市,4-4,和気町一丁目5-25,妙泉寺コンクリート塀,34.4771414,135.4253036,
大阪府,和泉市,5-1,小田町二丁目3-11先,松尾川防護柵(喜田橋 西側)鉄柵,34.4757524,135.4207261,
大阪府,和泉市,5-2,小田町796-2,前川橋 西詰め 道路防護柵鉄柵,34.47430929564895, 135.42236836935578,
大阪府,和泉市,5-3,小田町二丁目946,小田町公民館前 善福寺左側金網,34.4745803,135.4203895,
大阪府,和泉市,5-4,小田町三丁目949,地福寺(墓側)コンクリート塀,34.4720677,135.4209777,
大阪府,和泉市,5-5,小田町一丁目5-29先,橘織物 前 歩道防護柵鉄柵,34.4760789,135.4195257,
大阪府,和泉市,5-6,小田町二丁目9,駐車場 フェンス金網,34.474473,135.4206101,
大阪府,和泉市,5-7,小田町586-1先,水路防護柵（ラーバン和泉正門前）鉄柵,34.4690543,135.4268227,
大阪府,和泉市,5-8,小田町三丁目7-19,稲荷社(防火水槽防護柵)鉄柵,34.4723737,135.4204939,
大阪府,和泉市,6-1,観音寺町534-54,観音寺1号公園鉄柵,34.4773394,135.4393127,
大阪府,和泉市,6-2,観音寺町1123先,歩道防護柵鉄柵,34.4769657,135.4380467,
大阪府,和泉市,6-3,観音寺町519-7,槇尾川防護柵(郷荘橋 南側)鉄柵,34.47784673768833, 135.4405337317788,
大阪府,和泉市,6-4,観音寺町878-1,観音寺町会館 南側金網,34.4756415,135.4370799,
大阪府,和泉市,6-5,観音寺町878-1,観音寺町ふれあい広場入り口左金網,34.4756415,135.4370799,
大阪府,和泉市,6-6,弥生町一丁目1,和泉中央線 歩道柵(弥生町一丁目バス停)鉄柵,34.4752976,135.4369343,
大阪府,和泉市,6-7,弥生町一丁目244-3,今池防護柵(弥生6号公園前)鉄柵,34.4746454,135.4362724,
大阪府,和泉市,6-8,弥生町一丁目1,弥生3号公園擬木杭,34.4752976,135.4369343,
大阪府,和泉市,7-1,阪本町317-5,東阪本1号公園鉄柵,34.4764263,135.4486295,
大阪府,和泉市,7-2,阪本町975-1,郷荘神社杭打ち,34.4784355,135.4495524,
大阪府,和泉市,7-3,阪本町94-2先,歩道防護柵鉄柵,34.4764263,135.4486295,
大阪府,和泉市,7-4,阪本町1の先,阪本バス停歩道柵(光陽レース前)鉄柵,34.4766769,135.4463945,
大阪府,和泉市,7-5,阪本町17-1先,歩道防護柵鉄柵,34.475339,135.4475191,
大阪府,和泉市,7-6,阪本町185,masked,34.4734006,135.4504135,
大阪府,和泉市,8-1,芦部町428先,歩道防護柵鉄柵,34.4787172,135.4439216,
大阪府,和泉市,8-2,桑原町139先,桑原バス停 歩道防護柵鉄柵,34.4823551,135.4326697,
大阪府,和泉市,8-3,桑原町318先,歩道防護柵鉄柵,34.481415,135.4376974,
大阪府,和泉市,8-4,一条院町124,芦部産業(株)コンクリート塀,34.4811977,135.4408357,
大阪府,和泉市,8-5,芦部町224-3,芦部小学校(正門左側)金網,34.4812333,135.441292,
大阪府,和泉市,8-6,芦部町120先,歩道防護柵(R480)三叉路西鉄柵,34.4793256,135.4427016,
大阪府,和泉市,9-1,山荘町333-61先,山荘1号公園鉄柵,34.486295021693365, 135.4530945512437,
大阪府,和泉市,9-2,山荘町327先,山荘きつねづか公園鉄柵,34.48748590017755, 135.44986191740242,
大阪府,和泉市,9-3,山荘町1295,黒鳥配水場跡金網,34.4864155,135.4509836,
大阪府,和泉市,9-4,山荘町349-11先,歩道防護柵鉄柵,34.4850327,135.4496778,
大阪府,和泉市,9-5,山荘町333-42先,山荘2号公園鉄柵,34.4859919,135.4522163,
大阪府,和泉市,10-1,伯太町三丁目161-11,太平学園（電気室裏）鉄柵,34.4934768,135.4433332,
大阪府,和泉市,10-2,伯太町五丁目25,伯太宮前公園金網,34.4976581,135.4375962,
大阪府,和泉市,10-3,伯太町二丁目58,masked,34.492203,135.4345074,
大阪府,和泉市,10-4,伯太町六丁目1,人権文化センター 駐車場（南側）金網,34.4968142,135.4330366,
大阪府,和泉市,10-5,伯太町一丁目8,とうしん公園（和泉府中ハウス内）鉄柵,34.494532,135.432007,
大阪府,和泉市,10-6,伯太町二丁目4,masked,34.4907557,135.4334778,
大阪府,和泉市,10-7,伯太町五丁目8-14,伯太会館(伯太老人集会所)金網,34.4956114,135.4378358,
大阪府,和泉市,10-8,伯太町五丁目5,前奈池1号公園前ガードレール鉄柵,34.4942829,135.4376698,
大阪府,和泉市,10-9,伯太町二丁目24,歩道防護柵（伯太小学校裏門左）鉄柵,34.4920286,135.4371549,
大阪府,和泉市,10-10,伯太町二丁目24-22,伯太小学校（正門左側）金網,34.4925923,135.4372486,
大阪府,和泉市,11-1,黒鳥町三丁目21,masked,34.4885702,135.4408324,
大阪府,和泉市,11-2,黒鳥町四丁目2,黒鳥山公園鉄柵,34.4856201,135.4428919,
大阪府,和泉市,11-3,黒鳥町一丁目6-5,黒鳥小学校（正門左側）鉄柵,34.4897117,135.4372653,
大阪府,和泉市,11-4,黒鳥町三丁目20,歩道防護柵鉄柵,34.4878626,135.441715,
大阪府,和泉市,11-5,黒鳥町一丁目19,自衛隊裏門入口横防護柵鉄柵,34.4895163,135.4390304,
大阪府,和泉市,11-6,黒鳥町三丁目8,光明池水路柵鉄柵,34.4850673,135.4400233,
大阪府,和泉市,11-7,黒鳥町二丁目2,黒鳥会館前 広場鉄柵,34.4868363,135.4378169,
大阪府,和泉市,12-1,池上町三丁目8-6先,池上北交差点東(遺跡看板横)金網,34.5018056,135.4290656,
大阪府,和泉市,12-2,池上町三丁目8,池上小学校正門北側金網,34.5018056,135.4290656,
大阪府,和泉市,12-3,池上町570-1先,信太山駅前西駐車場鉄柵,34.50090741376395, 135.43261694738905,
大阪府,和泉市,12-4,池上町一丁目6,信太山駅北1番踏切 南 道路柵金網,34.4997298,135.4327468,
大阪府,和泉市,12-5,池上町一丁目2,信太山駅南2番踏切 北 道路柵金網,34.4976567,135.4324483,
大阪府,和泉市,12-6,池上町一丁目3,信太山駅南1番踏切 南 道路柵金網,34.4988413,135.4323012,
大阪府,和泉市,12-7,池上町一丁目595先,信太山駅前ロータリー 歩道柵鉄柵,34.4986268,135.4327424,
大阪府,和泉市,13-1,池田下町162-2,masked,34.4693572,135.459044,
大阪府,和泉市,13-2,池田下町140-1先,歩道防護柵(ディオ東)鉄柵,34.4682264,135.4586986,
大阪府,和泉市,13-3,池田下町1670,北池田小学校 正門左金網,34.4709953777781, 135.4608289806462,
大阪府,和泉市,13-4,池田下町2840の14,池田下町2840-14付近 道路防護柵鉄柵,34.4703846,135.4659754,
大阪府,和泉市,13-5,池田下町1779-8,北池田1号公園鉄柵,34.4690771,135.462964,
大阪府,和泉市,13-6,池田下町1846,北池田老人集会所金網,34.4746432,135.4568694,
大阪府,和泉市,13-7,池田下町1670,北池田小学校 裏門金網,34.47137551591689, 135.46227923819086,
大阪府,和泉市,14-1,伏屋町三丁目25-1先,歩道防護柵（下伏屋バス停横）鉄柵,34.4808327,135.467804,
大阪府,和泉市,14-2,伏屋町三丁目1,駐車場鉄柵,34.4764819,135.467392,
大阪府,和泉市,14-3,伏屋町二丁目10-23,masked,34.4783657,135.4665749,
大阪府,和泉市,14-4,伏屋町五丁目13,免許試験場東側 道路フェンス金網,34.4734612,135.4718814,
大阪府,和泉市,14-5,伏屋町四丁目1-18先,歩道防護柵鉄柵,34.4750956,135.4647572,
大阪府,和泉市,14-6,伏屋町五丁目8,伏屋5号公園鉄柵,34.4717516,135.4696735,
大阪府,和泉市,15-1,室堂町60-85,室堂4号公園（チェリータウン内）ステン柵鉄柵,34.4654086,135.4637529,
大阪府,和泉市,15-2,室堂町121-1先,歩道防護柵（琴の坂橋 北側）鉄柵,34.4635548,135.4656523,
大阪府,和泉市,15-3,室堂町480-1,個人所有 畑杭打ち,34.4634295,135.4698161,
大阪府,和泉市,15-4,室堂町543,NTT西日本三林ビル金網,34.4611634,135.4715568,
大阪府,和泉市,15-5,室堂町426,masked,34.4640586,135.4684591,
大阪府,和泉市,16-1,東阪本町338-1,masked,34.4790108,135.4523998,
大阪府,和泉市,16-2,阪本町376先,道路柵（和泉文化会館駐車場前）鉄柵,34.4744775,135.4521141,
大阪府,和泉市,16-3,池田下町1179,masked,34.4744278,135.4538945,
大阪府,和泉市,16-4,池田下町1206,masked,34.4731456,135.4558247,
大阪府,和泉市,16-5,池田下町1086-1,masked,34.471561,135.4538498,
大阪府,和泉市,16-6,池田下町1223-4,市道ガードレール鉄柵,34.4752583,135.4540599,
大阪府,和泉市,16-7,池田下町3514-2先,池田下2号公園鉄柵,34.47697590000001,135.4551699,
大阪府,和泉市,17-1,万町972先,和泉中央線 歩道防護柵鉄柵,34.4585001,135.4603914,
大阪府,和泉市,17-2,万町121先,市道ガードレール（天受院 向かい）鉄柵,34.4594315,135.4644523,
大阪府,和泉市,17-3,浦田町277,駐車場ブロック塀,34.4567860100474, 135.46752102416093,
大阪府,和泉市,17-4,浦田町337,masked,34.457438987024936, 135.46809914191337,
大阪府,和泉市,17-5,浦田町557-2先,道路防護柵鉄柵,34.4559407,135.4708693,
大阪府,和泉市,17-6,浦田町20,masked,34.45640716549964, 135.4652036278864,
大阪府,和泉市,17-7,万町1331-3先,石尾山バス停 歩道防護柵鉄柵,34.4584123,135.4627559,
大阪府,和泉市,18-1,和田町43先,歩道防護柵(城前橋付近)鉄柵,34.455937,135.4718534,
大阪府,和泉市,18-2,和田町260先,歩道防護柵（スーパーマツゲン前）鉄柵,34.4608447,135.473628,
大阪府,和泉市,18-3,和田町219,丸泉織物協同組合ブロック塀,34.4586173,135.4738197,
大阪府,和泉市,18-4,和田町133,masked,34.457378,135.4738135,
大阪府,和泉市,18-5,和田町1075先,和田町会館（南側）鉄柵,34.458571,135.4720289,
大阪府,和泉市,18-6,三林町416,三林町会館（西側）擬木杭,34.45308606948607, 135.4787457599739,
大阪府,和泉市,18-7,三林町1066先,和泉中継ポンプ場鉄柵,34.4537979,135.4742294,
大阪府,和泉市,19-1,納花町56-3先,河川(橋南側)防護フェンス金網,34.4501918,135.4717173,
大阪府,和泉市,19-2,納花町306-4先,歩道防護柵(オークワ向かい)鉄柵,34.4451649,135.475431,
大阪府,和泉市,19-3,納花町7先,市道ガードレール鉄柵,34.449624,135.4743655,
大阪府,和泉市,19-4,納花町181,南池田小学校(南門側)鉄柵,34.4476194,135.4745495,
大阪府,和泉市,19-5,納花町181,南池田小学校(市道側)金網,34.4476194,135.4745495,
大阪府,和泉市,19-6,鍛冶屋町216先,道路防護柵鉄柵,34.448907714921695, 135.4676649994625,
大阪府,和泉市,20-1,平井町333-1先,平井池 防護柵鉄柵,34.4424737,135.4784177,
大阪府,和泉市,20-2,平井町595,masked,34.4400461,135.4808835,
大阪府,和泉市,20-3,黒石町27-3先,市道ガードレール鉄柵,34.4414357,135.4834635,
大阪府,和泉市,20-4,国分町1491先,バイパス羽床川橋北側歩道防護柵鉄柵,34.4352512,135.483152,
大阪府,和泉市,20-5,国分町594先,R480 樟尾川防護柵金網,34.43793194509567, 135.4850968167556,
大阪府,和泉市,20-6,国分町599,masked,34.4370212,135.4851497,
大阪府,和泉市,20-7,国分町604,masked,34.4367286,135.4853795,
大阪府,和泉市,21-1,内田町二丁目2,道路防護柵（内田郵便局斜め向かい）鉄柵,34.4542531,135.4489973,
大阪府,和泉市,21-2,内田町一丁目6,歩道防護柵（防火水槽左）鉄柵,34.4534045,135.452455,
大阪府,和泉市,21-3,内田町二丁目6-5先,松尾川防護柵（露ヶ華橋南詰）鉄柵,34.4526079,135.4499812,
大阪府,和泉市,21-4,内田町四丁目2-22,masked,34.446647,135.453675,
大阪府,和泉市,21-5,内田町四丁目13,久保惣駐車場(創作教室横)鉄柵,34.4432364,135.4527492,
大阪府,和泉市,22-1,唐国町一丁目15-37,masked,34.4604938,135.4498063,
大阪府,和泉市,22-2,唐国町一丁目9,松尾川防護柵(唐国橋東詰)鉄柵,34.4587357,135.4495123,
大阪府,和泉市,22-3,唐国町三丁目10-4,菅原神社鉄柵,34.4587755,135.4474898,
大阪府,和泉市,22-4,唐国町二丁目10-10先,masked,34.4568736,135.453908,
大阪府,和泉市,22-5,唐国町二丁目6-18,音楽教室ブロック塀,34.456884,135.4510443,
大阪府,和泉市,23-1,箕形町三丁目4,道路歩道防護柵（箕形町基地前）鉄柵,34.4664232,135.4434435,
大阪府,和泉市,23-2,箕形町五丁目1-33,箕形公民館入り口左（堤防沿い）金網,34.4648496,135.4407825,
大阪府,和泉市,23-3,箕形町四丁目2-36,masked,34.4644456,135.4421083,
大阪府,和泉市,23-4,箕形町四丁目4,箕形児童遊園金網,34.4640985,135.4442159,
大阪府,和泉市,24-1,寺田町二丁目6-3先,masked,34.4703798,135.431748,
大阪府,和泉市,24-2,寺田町二丁目5-36先,masked,34.4700162,135.4325048,
大阪府,和泉市,24-3,寺田町三丁目3-25,寺田公民館鉄柱,34.4683047,135.4354696,
大阪府,和泉市,24-4,寺田町二丁目2-2先,masked,34.4709786,135.4336987,
大阪府,和泉市,24-5,寺田町三丁目1-3,masked,34.4697749,135.4356301,
大阪府,和泉市,24-6,寺田町一丁目5,道路歩道防護柵（弥生町登り口）鉄柵,34.4692082,135.436661,
大阪府,和泉市,25-1,春木川町611先,長池防護柵（春木川出口公民館横）鉄柵,34.410909152784434, 135.45652342698185,
大阪府,和泉市,25-2,春木川町718先,春木川町墓地向かいガードレール鉄柵,34.40044315431598, 135.45703229593735,
大阪府,和泉市,25-3,春木川町259-1先,道路フェンス金網,34.395096399844114, 135.45788227318093,
大阪府,和泉市,25-4,春木川町174,masked,34.3969626,135.4583127,
大阪府,和泉市,26-1,若樫町658先,若樫町会館入り口石垣,34.411203,135.4621417,
大阪府,和泉市,26-2,若樫町650先,道路ガードレール鉄柵,34.4115809,135.4632394,
大阪府,和泉市,26-3,若樫町321先,道路ガードレール鉄柵,34.41115307685905, 135.46531348910057,
大阪府,和泉市,26-4,若樫町158-8先,道路ガードレール（㈱アソシエイト前）鉄柵,34.4109803,135.4688989,
大阪府,和泉市,26-5,若樫町1050先,道路ガードレール鉄柵,34.4106102,135.4585668,
大阪府,和泉市,27-1,久井町91-1先,歩道防護柵（松尾南口バス停北）鉄柵,34.4266298,135.4571872,
大阪府,和泉市,27-2,久井町1193-3先,歩道防護柵（久保之川橋南側）鉄柵,34.4163939,135.45914,
大阪府,和泉市,27-3,久井町430,南松尾老人集会所（正門北側）金網,34.4202955,135.4586385,
大阪府,和泉市,27-4,久井町133先,歩道防護柵鉄柵,34.4257438,135.4576949,
大阪府,和泉市,28-1,春木町995-2先,個人所有地(水色フェンス)金網,34.4347196,135.4547063,
大阪府,和泉市,28-2,春木町1075,masked,34.43411369272992, 135.45510106873317,
大阪府,和泉市,28-3,春木町924先,ゴミ収集場北側道路防護柵鉄柵,34.4313651,135.454629,
大阪府,和泉市,28-4,春木町1040-3先,歩道防護柵鉄柵,34.4364073,135.4548777,
大阪府,和泉市,28-5,春木町616先,歩道防護柵鉄柵,34.43035318365062, 135.449958315793,
大阪府,和泉市,28-6,春木町1386,歩道防護柵（春木町交差点南側）鉄柵,34.430781,135.4548478,
大阪府,和泉市,29-1,松尾寺町1525-5先,グランド前 道路防護柵 鉄柵,34.4317652,135.4601436,
大阪府,和泉市,29-2,はつが野三丁目48-19先,松風台バス停横 石垣,34.4391608,135.4576738,
大阪府,和泉市,29-3,松尾寺町484-7,masked,34.4349213,135.4596976,
大阪府,和泉市,29-4,松尾寺町493先,山伏池防護柵（奥村酒店横） 金網,34.4351006,135.460136,
大阪府,和泉市,30-1,下宮町160,和泉市総合スポーツセンター 木製柵,34.4317533,135.4922952,
大阪府,和泉市,30-2,岡町45先,駐車場 ブロック塀,34.4277711,135.4979063,
大阪府,和泉市,30-3,北田中町183,横山小学校（正門右側） 金網,34.4290648,135.4954926,
大阪府,和泉市,30-4,北田中町183,横山小学校（裏門左側） 金網,34.4290648,135.4954926,
大阪府,和泉市,30-5,小野田町465,ゲートボール場 金網,34.4248432,135.4944821,
大阪府,和泉市,30-6,九鬼町377先,九鬼町下オレンジバス停横ガードレール 鉄柵,34.4191316,135.4993363,
大阪府,和泉市,31-1,仏並町398-1,和泉市南部リージョンセンター 鉄柵,34.423410469293735, 135.48206817789864,
大阪府,和泉市,31-2,仏並町618-2,masked,34.419870936560756, 135.48728436650634,
大阪府,和泉市,31-3,坪井町195-2先,坪井町公民館西側 ガードレール 鉄柵,34.414816,135.4867851,
大阪府,和泉市,31-4,坪井町332,上野肥糧店 コンクリート塀,34.4148685,135.4879382,
大阪府,和泉市,31-5,坪井町574先,歩道防護柵 鉄柵,34.4170657,135.491003,
大阪府,和泉市,31-6,仏並町478-1先,道路 ガードレール 鉄柵,34.4144609,135.4804192,
大阪府,和泉市,31-7,仏並町（小川）1311-1,masked,34.41273232523033, 135.48328078353916,
大阪府,和泉市,31-8,仏並町375,喫茶店向い 杭打ち,34.42518157499711, 135.48608873860937,
大阪府,和泉市,32-1,福瀬町258-1先,外環状線 歩道防護柵 鉄柵,34.4281243,135.5052526,
大阪府,和泉市,32-2,福瀬町188,グラウンドフェンス（福瀬町民会館横） 鉄柵,34.4296127,135.5037059,
大阪府,和泉市,32-3,福瀬町305,masked,34.4288101,135.5083461,
大阪府,和泉市,32-4,善正町669-6先,歩道防護柵（善正町民会館東側付近） 鉄柵,34.4258979,135.5128697,
大阪府,和泉市,32-5,南面利町100-1先,道路防護柵（天野商運（株）向い） 鉄柵,34.424569952018125, 135.51966663949386,
大阪府,和泉市,32-6,善正町500-1先,善正町交差点 防護柵 鉄柵,34.42487920000001,135.5144048,
大阪府,和泉市,32-7,善正町507-1先,旧辻野（株）横防護柵 鉄柵,34.4245197,135.5148741,
大阪府,和泉市,33-1,父鬼町1593先,南横山小学校前歩道 防護柵 鉄柵,34.3730058,135.4733534,
大阪府,和泉市,33-2,父鬼町327先,道路防護柵（父鬼川） 金網,34.38974301949581, 135.46596243116238,
大阪府,和泉市,33-3,父鬼町145,masked,34.391010791276706, 135.46566295936742,
大阪府,和泉市,33-4,父鬼町283,masked,34.3885938,135.4659018,
大阪府,和泉市,33-5,父鬼町89-1先,真田橋 棚干 コンクリート製 鉄柵,34.3919979460591, 135.46577829434898,
大阪府,和泉市,34-1,大野町62先,父鬼川防護柵金網,34.4068609,135.4744145,
大阪府,和泉市,34-2,大野町116-1,あみだ寺駐車場金網,34.4057027,135.4740619,
大阪府,和泉市,34-3,大野町182,masked,34.4039021,135.4726569,
大阪府,和泉市,34-4,大野町759先,道路防護柵（バス停北側）鉄柵,34.4062803,135.4723801,
大阪府,和泉市,34-5,大野町353-1,masked,34.394225140078994, 135.47162107192628,
大阪府,和泉市,35-1,幸二丁目3-1,幸小学校（消防器具庫横）金網,34.50012404213375, 135.43613246253267,
大阪府,和泉市,35-2,幸二丁目14-16,八坂神社 水路防護柵金網,34.50209579503273, 135.43990821032327,
大阪府,和泉市,35-3,幸二丁目128-3,旭 温泉 自転車置き場(跡地)鉄柵,34.49953844771421, 135.43764206381624,
大阪府,和泉市,35-4,幸二丁目7,旭第一団地駐車場（20棟西）鉄柵,34.500200484888964, 135.43772418370878,
大阪府,和泉市,35-5,幸二丁目5-16,北部総合福祉会館（南東側 駐車場フェンス）鉄柵,34.50065853717658, 135.43639778810396,
大阪府,和泉市,35-6,幸二丁目8,旭第二団地駐車場（15棟北側）鉄柵,34.50210145931177, 135.43862667542842,
大阪府,和泉市,35-7,幸二丁目5-16,北部総合福祉会館（府道側）鉄柵,34.50136167881637, 135.43558631557335,
大阪府,和泉市,36-1,幸三丁目5,放光池公園前交差点西 歩道防護柵鉄柵,34.49871629512538, 135.4393023805701,
大阪府,和泉市,36-2,幸三丁目7,山手団地54号棟前鉄柵,34.499482122232, 135.43942868632075,
大阪府,和泉市,36-3,幸三丁目6,幸第二団地50棟北 駐車場鉄柵,34.5001514013197, 135.43847550918088,
大阪府,和泉市,36-4,幸三丁目10-19,山手団地集会所鉄柵,34.501003064192716, 135.4399615183015,
大阪府,和泉市,36-5,幸三丁目12,山手団地61棟東側 自転車置き場鉄柵,34.5002282060544, 135.4406563276517,
大阪府,和泉市,37-1,幸一丁目8,東側線 和泉第一団地1棟管理人室向かい金網,34.50401637337701, 135.43622017446103,
大阪府,和泉市,37-2,幸一丁目1,東側線 道路柵(竹内第1ビル向かい)金網,34.5031754,135.4359782,
大阪府,和泉市,37-3,幸一丁目8,旭公園（入り口）鉄柵,34.50283160548559, 135.4370248371254,
大阪府,和泉市,37-4,幸一丁目8,和泉第一団地駐車場鉄柵,34.50432140417535, 135.4374271684576,
大阪府,和泉市,38-1,尾井町二丁目1-12先,歩道防護柵鉄柵,34.5067274,135.4412645,
大阪府,和泉市,38-2,尾井町二丁目8-17,信太小学校（正門横）金網,34.50559200000001,135.4440119,
大阪府,和泉市,38-3,尾井町二丁目8-17,信太小学校（裏門左側）金網,34.50559200000001,135.4440119,
大阪府,和泉市,38-4,尾井町一丁目8-32先,東側線 北信太南2番踏切金網,34.5083158,135.4401332,
大阪府,和泉市,38-5,王子町904-4先,道路ガードレール（ハロータウン和泉内）鉄柵,34.5014492,135.4439273,
大阪府,和泉市,38-6,尾井町二丁目8-17,信太小学校(プール東側)金網,34.50559200000001,135.4440119,
大阪府,和泉市,38-7,王子町二丁目12,道路柵鉄柵,34.505379,135.4403175,
大阪府,和泉市,39-1,上代町508,上代町ふれあい広場杭打ち,34.5050796,135.4577477,
大阪府,和泉市,39-2,上代町776-1先,上代1号公園（砂場）鉄柵,34.5103615,135.4542641,
大阪府,和泉市,39-3,上代町670-50先,道路(スロープ)柵鉄柵,34.5071578,135.4553307,
大阪府,和泉市,39-4,上代町125,友信化学株式会社ブロック塀,34.5091679,135.4601436,
大阪府,和泉市,40-1,上町152-3,上町2号公園鉄柵,34.5098258,135.4486295,
大阪府,和泉市,40-2,上町116-16先,水路防護柵（上町1号公園）鉄柵,34.5083493,135.4504833,
大阪府,和泉市,40-3,上町30,masked,34.5103739,135.4451686,
大阪府,和泉市,40-4,太町24-1,上町会館鉄柵,34.5082071,135.442838,
大阪府,和泉市,40-5,上町580-1,masked,34.5123148,135.4504713,
大阪府,和泉市,40-6,上町580-1,masked,34.5123148,135.4504713,
大阪府,和泉市,40-7,上町643,masked,34.5123741,135.4489329,
大阪府,和泉市,41-1,葛の葉町一丁目13-75先,関西電力鉄塔敷鉄柵,34.5116442,135.4375161,
大阪府,和泉市,41-2,葛の葉町二丁目8,水路防護柵 ビレッジハウス北側鉄柵,34.5123191,135.4389201,
大阪府,和泉市,41-3,葛の葉町一丁目1-41-14先,masked,34.5070978,135.4375575,
大阪府,和泉市,41-4,葛の葉町二丁目5,葛の葉5号公園鉄柵,34.5111066,135.4385523,
大阪府,和泉市,41-5,葛の葉町一丁目10-72,masked,34.5090162,135.4393215,
大阪府,和泉市,41-6,葛の葉町一丁目7-35,長徳寺ブロック塀,34.5096375,135.4379447,
大阪府,和泉市,41-7,葛の葉町三丁目6,葛の葉1号公園鉄柵,34.5126667,135.4336249,
大阪府,和泉市,41-8,葛の葉町三丁目5,葛の葉7号公園鉄柵,34.5128427,135.4361253,
大阪府,和泉市,42-1,王子町三丁目10,歩道防護柵鉄柵,34.5028752,135.4428919,
大阪府,和泉市,42-2,幸三丁目17-70,永尾団地70棟北側鉄柵,34.501886345266485, 135.44063364600362,
大阪府,和泉市,42-3,王子町二丁目2-12,和泉王子町会館ブロック塀,34.5027966,135.4394068,
大阪府,和泉市,42-4,王子町二丁目1,王子第二団地駐車場（バス停横）金網,34.5038999,135.4390672,
大阪府,和泉市,42-5,王子町二丁目9,王子西公園 南側鉄柵,34.5045761,135.4405382,
大阪府,和泉市,42-6,王子町二丁目9,王子西公園 北側鉄柵,34.5045761,135.4405382,
大阪府,和泉市,43-1,尾井町733,個人所有畑金網,34.491660807759686, 135.45590469759523,
大阪府,和泉市,43-2,尾井町332-2,道路ガードレール(株式会社晃成 北側)鉄柵,34.4921739,135.4566581,
大阪府,和泉市,44-1,太町23先,歩行者道路 西川月極有料駐車場前鉄柵,34.507845,135.4424594,
大阪府,和泉市,44-2,太町217,masked,34.5097025,135.4440423,
大阪府,和泉市,44-3,尾井町一丁目6-3先,道路フェンス鉄柵,34.5078633,135.4412673,
大阪府,和泉市,44-4,太町23-6先,南海バス転回場鉄柵,34.5078502,135.4424639,
大阪府,和泉市,45-1,富秋町三丁目11番,助松団地24棟西側 植込み 杭打ち,34.5107575,135.4306834,
大阪府,和泉市,45-2,富秋町二丁目8-17,旧 TSUTAYA(和泉26号線店) 金網,34.5073009,135.4334086,
大阪府,和泉市,45-3,富秋町二丁目13番先,王子川葛の葉橋 東側 防護柵 鉄柵,34.507727,135.436346,
大阪府,和泉市,45-4,富秋町二丁目2-89,masked,34.5055335,135.4366089,
大阪府,和泉市,45-5,富秋町二丁目2-89,富秋中学校 南西側グラウンドフェンス 金網,34.5055335,135.4366089,
大阪府,和泉市,45-6,富秋町一丁目14-4,和泉総合高校（裏門左） 鉄柵,34.5040348,135.4312403,
大阪府,和泉市,45-7,富秋町一丁目14-4,和泉総合高校（正門左） 鉄柵,34.5040348,135.4312403,
大阪府,和泉市,46-1,弥生町二丁目6先,三ツ池歩道防護柵 鉄柵,34.4701477,135.4420828,
大阪府,和泉市,46-2,弥生町二丁目7-2,カトリック幼稚園（入り口右側） 鉄柵,34.4702954,135.4411567,
大阪府,和泉市,46-3,弥生町二丁目22先,和泉中央線歩道防護柵(弥生町自治会館北) 鉄柵,34.4679404,135.4431861,
大阪府,和泉市,46-4,弥生町三丁目4,三井11号公園 金網,34.4698133,135.4459305,
大阪府,和泉市,46-5,弥生町二丁目19,弥生13号公園 鉄柵,34.4662222,135.4441423,
大阪府,和泉市,46-6,弥生町四丁目12-5先,弥生18号公園前 鉄柵,34.4708375,135.4431677,
大阪府,和泉市,47-1,伯太町四丁目7,丸笠団地1棟北側 歩道防護柵 鉄柵,34.49595,135.4448825,
大阪府,和泉市,47-2,伯太町四丁目7,丸笠団地3棟北側 歩道防護柵 鉄柵,34.49595,135.4448825,
大阪府,和泉市,47-3,伯太町四丁目7,丸笠団地7棟西側 ガードレール 鉄柵,34.49595,135.4448825,
大阪府,和泉市,48-1,鶴山台二丁目2,10棟西側 鉄柵,34.5032427,135.4518664,
大阪府,和泉市,48-2,鶴山台三丁目4,masked,34.5036073,135.4453928,
大阪府,和泉市,48-3,鶴山台三丁目5,80棟東側 鉄柵,34.5033055,135.4471582,
大阪府,和泉市,48-4,鶴山台三丁目5,72棟西側 鉄柵,34.5033055,135.4471582,
大阪府,和泉市,48-5,鶴山台二丁目10,大阪ガス整圧機 31棟横 鉄柵,34.50130240000001,135.4512779,
大阪府,和泉市,48-6,鶴山台二丁目2,28棟横 駐車場 鉄柵,34.5032427,135.4518664,
大阪府,和泉市,48-7,鶴山台二丁目1,鶴山台南老人集会所 鉄柵,34.5028392,135.4500939,
大阪府,和泉市,48-8,鶴山台四丁目6,鶴山台7号公園 鉄柵,34.4988691,135.4511307,
大阪府,和泉市,48-9,鶴山台四丁目20-8,鶴山台配水場 金網,34.4970429,135.4505107,
大阪府,和泉市,48-10,鶴山台三丁目8,57棟横（鶴山台南小学校正門向かい） 鉄柵,34.50022060000001,135.4489238,
大阪府,和泉市,48-11,鶴山台四丁目1,鶴山台南小学校 南側 金網,34.4991074,135.4489238,
大阪府,和泉市,48-12,鶴山台二丁目10,50棟西側 鉄柵,34.50130240000001,135.4512779,
大阪府,和泉市,48-13,鶴山台二丁目3,志保池公園 南側 鉄柵,34.5054973,135.4532014,
大阪府,和泉市,48-14,鶴山台四丁目21,惣ヶ池公園 東側 鉄柵,34.4977079,135.4495123,
大阪府,和泉市,49-1,鶴山台一丁目1-1,信太中学校 一丁目側 金網,34.5057268,135.4473086,
大阪府,和泉市,49-2,鶴山台一丁目1-1,信太中学校 正門バス停側 金網,34.5057268,135.4473086,
大阪府,和泉市,49-3,鶴山台二丁目3,志保池公園 北側 鉄柵,34.5054973,135.4532014,
大阪府,和泉市,49-4,鶴山台一丁目6,鶴山台3号公園 杭打ち,34.5069758,135.4510572,
大阪府,和泉市,49-5,鶴山台一丁目9-1,鶴山台北小学校 正門左 鉄柵,34.507539,135.4518547,
大阪府,和泉市,49-6,鶴山台一丁目11,鶴山台2号公園 杭打ち,34.5091508,135.4523078,
大阪府,和泉市,49-7,鶴山台一丁目1067,鶴山台東公園前歩道 石柱,34.507282,135.4515721,
大阪府,和泉市,50-1,光明台二丁目111,伏見谷緑地 遊歩道 擬木杭,34.4518713,135.4967649,
大阪府,和泉市,50-2,光明台二丁目58,光明台4号公園 石垣,34.4531272,135.4941876,
大阪府,和泉市,50-3,光明台二丁目59,光明台5号公園 杭打ち,34.4503688,135.494703,
大阪府,和泉市,50-4,光明台三丁目7,大阪ガス整圧機 鉄柵,34.4528551,135.4913159,
大阪府,和泉市,50-5,光明台三丁目7,23棟横 鉄柵,34.4528551,135.4913159,
大阪府,和泉市,50-6,光明台三丁目8-1,光明台南小学校 正門 左 鉄柵,34.4529066,135.489449,
大阪府,和泉市,50-7,光明台三丁目8-1,光明台南小学校 西門 右(グランド側) 金網,34.4529066,135.489449,
大阪府,和泉市,50-8,光明台三丁目35,光明台6号公園 東側 杭打ち,34.4514138,135.4874136,
大阪府,和泉市,50-9,光明台三丁目31-1,光明台低区配水場 金網,34.4525978,135.4852909,
大阪府,和泉市,50-10,みずき台一丁目10,みずき台中央公園 鉄柵,34.4460889,135.4920522,
大阪府,和泉市,50-11,みずき台一丁目4,みずき台1号緑地(みずき台進入交差点付近) 杭打ち,34.4487883,135.4908005,
大阪府,和泉市,51-1,寺門町二丁目23,妙ノ池 防護柵 鉄柵,34.472506,135.4361542,
大阪府,和泉市,51-2,寺門町二丁目7,寺門4号公園 鉄柵,34.4736195,135.4349486,
大阪府,和泉市,51-3,寺門町二丁目1,郷荘中学校（体育館側） 鉄柵,34.4742239,135.4339926,
大阪府,和泉市,51-4,寺門町二丁目1,郷荘中学校（父鬼・和気線側） 鉄柵,34.4742239,135.4339926,
大阪府,和泉市,51-5,今福町二丁目8,masked,34.4732853,135.4287715,
大阪府,和泉市,51-6,今福町二丁目7,今福1号公園 鉄柵,34.4722872,135.4279626,
大阪府,和泉市,51-7,今福町二丁目1-1,歩道防護柵 すいせん保育園西側 鉄柵,34.474169,135.4258688,
大阪府,和泉市,51-8,今福町二丁目4,遊水池防護柵 金網,34.4728623,135.426693,
大阪府,和泉市,51-9,寺門町二丁目19,寺門3号公園 鉄柵,34.4712019,135.4361989,
大阪府,和泉市,51-10,和気町四丁目4,槇尾川公園 鉄柵,34.4774919,135.4289921,
大阪府,和泉市,51-11,今福町一丁目11-28,今福町会館（ごみ置き場） 金網,34.4717249,135.4294936,
大阪府,和泉市,51-12,和気町四丁目18,和気4号公園 鉄柵,34.4756433,135.4319335,
大阪府,和泉市,51-13,寺門町二丁目23,妙ノ池 防護柵 鉄柵,34.472506,135.4361542,
大阪府,和泉市,51-14,和気町四丁目9-1,和気小学校（和気団地内） 金網,34.4756866,135.4290498,
大阪府,和泉市,51-15,和気町四丁目9-1,和気小学校（父鬼和気線側） 金属塀,34.4756866,135.4290498,
大阪府,和泉市,52-1,緑ヶ丘三丁目4-1,緑ヶ丘小学校北側金網,34.4465932,135.4596734,
大阪府,和泉市,52-2,緑ヶ丘三丁目4-1,緑ヶ丘小学校体育館入り口右金網,34.4465932,135.4596734,
大阪府,和泉市,52-3,緑ヶ丘二丁目9-17,緑ヶ丘3号公園杭打ち,34.445927834438976, 135.4565934495294,
大阪府,和泉市,52-4,緑ヶ丘三丁目8,緑ヶ丘4号公園杭打ち,34.44428680000001,135.4597389,
大阪府,和泉市,52-5,のぞみ野一丁目15-7,のぞみ野1号公園鉄柵,34.4538344,135.4616065,
大阪府,和泉市,52-6,のぞみ野二丁目1331-3先,歩道防護柵（石尾中 テニスコート向い）鉄柵,34.4543093,135.457458,
大阪府,和泉市,52-7,のぞみ野二丁目1385先,歩道防護柵（のぞみ野西バス停）鉄柵,34.4543093,135.457458,
大阪府,和泉市,53-1,青葉台二丁目1,青葉台1号公園前 水路防護柵金網,34.44532600000001,135.4650371,
大阪府,和泉市,53-2,青葉台二丁目1-1,旧あおば会館(防災センター)鉄柵,34.4456056,135.4662777,
大阪府,和泉市,53-3,青葉台三丁目24-4先,大池 歩道防護柵鉄柵,34.444988,135.4723402,
大阪府,和泉市,53-4,青葉台三丁目14,青葉台3号公園杭打ち,34.4442127,135.4698942,
大阪府,和泉市,53-5,はつが野五丁目1,くすのき公園杭打ち,34.4390443,135.4636389,
大阪府,和泉市,53-6,青葉台三丁目33,青葉台7号公園金網,34.4414292,135.4673184,
大阪府,和泉市,54-1,唐国町四丁目5,唐国4号公園（休憩所）鉄柵,34.4512442,135.4425977,
大阪府,和泉市,54-2,唐国町四丁目4-11,双百合幼稚園（正門右側畑前）金網,34.4506669,135.4410088,
大阪府,和泉市,54-3,唐国町四丁目5-1,グリーンポリス自治会館ブロック塀,34.4508125,135.4429838,
大阪府,和泉市,55-1,光明台一丁目45,光明台2号公園杭打ち,34.4585485,135.4876345,
大阪府,和泉市,55-2,光明台三丁目1,光明台第一団地駐車場北コンクリート塀,34.4554159,135.4890411,
大阪府,和泉市,55-3,光明台三丁目1,UR光明台団地20棟南側フェンス金網,34.4554159,135.4890411,
大阪府,和泉市,55-4,光明台三丁目36,光明池緑地（光明台幼稚園横）擬木杭,34.4537499,135.4871928,
大阪府,和泉市,55-5,光明台三丁目36,光明池緑地（駐車場入り口右側）擬木杭,34.4537499,135.4871928,
大阪府,和泉市,55-6,光明台三丁目36,光明池緑地（交差点東側）擬木杭,34.4537499,135.4871928,
大阪府,和泉市,55-7,光明台一丁目44,光明池緑地（光明台中学校西横）擬木杭,34.45536054632369, 135.4866804090273,
大阪府,和泉市,55-8,光明台一丁目35-1,光明台北小学校（正門左）金網,34.4571944,135.4823297,
大阪府,和泉市,55-9,光明台一丁目10-8,光明台北老人集会所鉄柵,34.4595357,135.4866861,
大阪府,和泉市,56-1,いぶき野二丁目10-1,いしたちはら公園(いぶき野一丁目バス停)枕打ち,34.465982,135.449303,
大阪府,和泉市,56-2,いぶき野二丁目10-1,いしたちはら公園 南側 ステン柵鉄柵,34.465982,135.449303,
大阪府,和泉市,56-3,いぶき野三丁目4-1,北池田中学校 入口左側金網,34.4656793,135.455575,
大阪府,和泉市,56-4,いぶき野一丁目22,槇尾川防護柵鉄柵,34.4682174,135.45091,
大阪府,和泉市,56-5,いぶき野一丁目14,いぶき野1号公園鉄柵,34.4670165,135.4496594,
大阪府,和泉市,56-6,いぶき野二丁目37,いぶき野5号公園(いぶき野二丁目西)鉄柵,34.4634296,135.4473054,
大阪府,和泉市,56-7,いぶき野三丁目13,いぶき野3号公園(公園内西側植込み)枕打ち,34.4653675,135.4581938,
大阪府,和泉市,56-8,いぶき野四丁目6,中央公園(和泉中央駅前線側エントランス広場付近)枕打ち,34.46064399999999,135.452455,
大阪府,和泉市,56-9,いぶき野四丁目5,エコール・いずみ北館駐車場(入口右側)鉄柵,34.4619954,135.4553979,
大阪府,和泉市,56-10,いぶき野四丁目5-7,和泉中央駅前北自転車等駐輪場(南側金網)金網,34.4612249,135.4549068,
大阪府,和泉市,56-11,いぶき野五丁目1,日本郵便和泉支店駐車場柵鉄柵,34.4604517,135.4562808,
大阪府,和泉市,56-12,いぶき野五丁目3,いぶき野4号公園(公園内南東植込み)枕打ち,34.4580972,135.4553979,
大阪府,和泉市,57-1,室堂町677先,府道交差点 歩道防護柵鉄柵,34.46896673333805, 135.46940532156322,
大阪府,和泉市,57-2,室堂町674,旧和泉市リサイクルプラザ前歩道防護柵鉄柵,34.4697158,135.4728476,
大阪府,和泉市,57-3,室堂町840,母子保健総合医療センター(和泉寮)金網,34.4705518,135.4726181,
大阪府,和泉市,57-4,室堂町802,室堂1号公園（西側）(東室堂)鉄柵,34.46924764839502, 135.47423281178072,
大阪府,和泉市,57-5,室堂町802,室堂1号公園（東側）(東室堂)コンクリート塀,34.46928830252592, 135.47455144193958,
大阪府,和泉市,57-6,室堂町782,室堂5号公園（光明池パストラル内）鉄柵,34.4659495,135.4739743,
大阪府,和泉市,57-7,室堂町1020先,歩道防護柵（光明池テニスコート前）鉄柵,34.4684365524416, 135.47559721756605,
大阪府,和泉市,57-8,室堂町1020先,歩道防護柵（光明池野球場前）鉄柵,34.4676316298162, 135.47589762496077,
大阪府,和泉市,57-9,池田下町2890-2,池田下4号公園(エバーランドシティ新泉北入口)鉄柵,34.468983,135.468648,
大阪府,和泉市,57-10,室堂町1103-123先,室堂21号公園(ジーズランド）鉄柵,34.4644803,135.474482,
大阪府,和泉市,58-1,はつが野一丁目50-1,青葉はつが野小学校（北側裏門横）枕打ち,34.4416561,135.4625985,
大阪府,和泉市,58-2,はつが野一丁目50-1,青葉はつが野小学校（西側）枕打ち,34.4416561,135.4625985,
大阪府,和泉市,58-3,はつが野一丁目50-1,青葉はつが野小学校裏（東側）鉄柵,34.4416561,135.4625985,
大阪府,和泉市,58-4,はつが野三丁目35,はつが野2号公園鉄柵,34.4405312,135.4594446,
大阪府,和泉市,58-5,はつが野一丁目4,はつが野3号公園枕打ち,34.4504742,135.4653314,
大阪府,和泉市,58-6,はつが野二丁目13,はつが野1号公園枕打ち,34.4505059,135.4581202,
大阪府,和泉市,58-7,はつが野二丁目6,のぞみ野2号公園枕打ち,34.4517771,135.4617993,
大阪府,和泉市,58-8,はつが野二丁目17,かぐらざき公園（南側植込み）枕打ち,34.4482933,135.4595182,
大阪府,和泉市,58-9,はつが野五丁目8,はつが野5号公園（東側）鉄柵,34.4396229,135.467024,
大阪府,和泉市,58-10,はつが野六丁目31,はつが野6号公園（北側）鉄柵,34.436613,135.4659025,
大阪府,和泉市,58-11,はつが野四丁目23,はつが野4号公園鉄柵,34.436516,135.460254,
