prefecture,city,number,address,name,lat,long,note
大阪府,堺市,1,中区毛穴町493-1,毛穴公園,34.531792,135.472382,緯度経度は怪しい
大阪府,堺市,2,中区毛穴町378-6,田の池公園,34.5307625,135.4755187,
大阪府,堺市,3,中区八田北町619-120,八田北町すいれん公園,34.5264225,135.4829743,
大阪府,堺市,4,中区堀上町603,鈴の宮公園,34.5285336,135.4857203,
大阪府,堺市,5,中区八田寺町231,八田荘小学校正門南側,34.5280965,135.4800832,
大阪府,堺市,6,中区八田北町853,八田北町会ミニスポーツ広場,34.524592,135.4829135,
大阪府,堺市,7,中区八田北町614-4,八田北町なみきそう公園,34.5253253,135.4839409,
大阪府,堺市,8,中区八田南之町436-1,八田南之町公園,34.5231649,135.4852546,
大阪府,堺市,1,中区毛穴町268-2,八田荘西小学校正門西側,34.528645,135.474518,緯度経度は怪しい
大阪府,堺市,2,中区毛穴町268-2,八田荘西小学校北東角,34.528645,135.474518,緯度経度は怪しい
大阪府,堺市,3,中区八田寺町291,八田寺町すずがも公園,34.527027,135.4781622,
大阪府,堺市,4,中区八田北町中10-31,八田北町かるがも公園,34.524837,135.481339,緯度経度は怪しい
大阪府,堺市,5,中区八田西町1丁2,泉北水再生センター,34.5219803,135.4762976,
大阪府,堺市,6,中区八田西町2丁3,八田西町住宅14・15号棟間駐車場南側植込,34.519791,135.477921,緯度経度は怪しい
大阪府,堺市,7,中区八田西町1丁~2丁,八田荘公園,34.5219803,135.4762976,
大阪府,堺市,1,中区宮園町9,堺宮園住宅3棟南側,34.5269665,135.4905581,
大阪府,堺市,2,中区宮園町2,八田荘住宅2-5棟南側,34.5266726,135.4895488,
大阪府,堺市,3,中区宮園町4-1,宮園小学校東側,34.5260433,135.4948274,
大阪府,堺市,4,中区宮園町4,八田荘住宅4-3棟北側,34.5266247,135.4930831,
大阪府,堺市,5,中区宮園町3,八田荘住宅3-7棟南側,34.5258136,135.4913159,
大阪府,堺市,6,中区宮園町4,八田荘住宅4-2棟南東側,34.5266247,135.4930831,
大阪府,堺市,7,中区宮園町6,八田荘住宅6-2棟北側,34.5285946,135.4945987,
大阪府,堺市,1,中区深井中町1002,関西電力向ヶ丘独身寮,34.535192,135.4815628,
大阪府,堺市,2,中区深井中町897-3,深井西公園,34.5361286,135.4826559,
大阪府,堺市,3,中区深井中町866-51,深井中町せきちく公園,34.5377668,135.4813126,
大阪府,堺市,4,中区深井北町843-3,深井北町公園,34.5392493,135.4813327,
大阪府,堺市,5,中区深井北町926,深井西小学校正門西側,34.539181,135.484177,緯度経度は怪しい
大阪府,堺市,6,中区深井北町926,深井西小学校通用門西側,34.539181,135.484177,緯度経度は怪しい
大阪府,堺市,7,中区深井北町788,市営北深井住宅東側,34.539021,135.484985,緯度経度は怪しい
大阪府,堺市,8,中区深井中町728-2,深井中町ふれあい広場北側,34.537441,135.489136,緯度経度は怪しい
大阪府,堺市,1,中区深井北町3230,深井北町よもぎ公園,34.541313,135.49353,緯度経度は怪しい
大阪府,堺市,2,中区深井北町3258,陵南南公園,34.5404306,135.4910214,
大阪府,堺市,3,中区深井中町340,府営深井中町住宅1号棟北側,34.536148,135.488663,緯度経度は怪しい
大阪府,堺市,4,中区深井中町311-4,市営深井中町住宅ふれあい広場前,34.538076,135.4958744,
大阪府,堺市,5,中区深井中町1409,深井小学校東側,34.535034,135.492035,緯度経度は怪しい
大阪府,堺市,6,中区深井中町1409,深井小学校南通用門東側,34.535034,135.492035,緯度経度は怪しい
大阪府,堺市,7,中区深井清水町3698,清水おさ公園,34.5335208,135.4921143,
大阪府,堺市,8,中区深井清水町3287,清水こやま公園,34.531124,135.489502,緯度経度は怪しい
大阪府,堺市,1,中区深井水池町3012,水池第2公園,34.5349038,135.4975395,
大阪府,堺市,2,中区深井沢町2710-23,マンション建設工事仮囲いフェンス,34.530045,135.4995645,
大阪府,堺市,3,中区深井沢町3183,沢町公園,34.5285251,135.4957356,
大阪府,堺市,4,中区深井沢町2470-7,中区役所東側,34.5283444,135.498668,
大阪府,堺市,5,中区深井水池町3214,東深井小学校正門北,34.5311326,135.5015958,
大阪府,堺市,6,中区深井水池町3410,水池公園,34.533638,135.504181,緯度経度は怪しい
大阪府,堺市,7,中区深井東町3129-2,深井東町みやまむらさき広場,34.5321284,135.5072955,
大阪府,堺市,8,中区深井畑山町194-5,畑山町自治会館,34.5266531,135.5093972,
大阪府,堺市,9,中区深井沢町276-1,府営深井沢町住宅集会所南側,34.5288594,135.5036115,
大阪府,堺市,1,中区学園町217-11,大阪公立大学通用口,34.5457754,135.5075174,
大阪府,堺市,2,中区土師町1丁2677,一本松公園,34.543962,135.4975013,
大阪府,堺市,3,中区土師町2丁1071,土師公園,34.5427852,135.5022145,
大阪府,堺市,4,中区土師町5丁10-13,土師町グラウンド西側,34.540322,135.5053444,
大阪府,堺市,5,中区土師町3丁35-1,土師小学校北通用門,34.53884350000001,135.498118,
大阪府,堺市,6,中区土師町3丁35-1,土師小学校東南角,34.53884350000001,135.498118,
大阪府,堺市,7,中区土師町4丁1878-2,土師町すずしろ公園,34.5366773,135.5010362,
大阪府,堺市,8,中区土師町4丁1644-89,土師町ののいけ緑地公園,34.5366773,135.5010362,
大阪府,堺市,1,中区新家町646-1,新家町スポーツ広場駐車場前,34.5401808,135.5152675,
大阪府,堺市,2,中区土塔町3130,土塔町北谷公園,34.536674,135.509995,緯度経度は怪しい
大阪府,堺市,3,中区新家町640-1,新家町公園,34.5396942,135.515305,
大阪府,堺市,4,中区土塔町139,東百舌鳥小学校東側,34.5383758,135.5079466,
大阪府,堺市,5,中区大野芝町141,ホームセンターコーナン南側ブロック,34.5350077,135.5168849,
大阪府,堺市,6,中区土塔町2110-3,土塔町公園,34.5334947,135.5098745,
大阪府,堺市,7,中区土塔町2363-1,土塔町太鼓会館前フェンス,34.536655,135.505585,緯度経度は怪しい
大阪府,堺市,8,中区土塔町,菰池・下池水辺緑地西側,34.5334947,135.5098745,
大阪府,堺市,9,中区土塔町1991,泉南乳業株式会社南側,34.5371656,135.5027013,
大阪府,堺市,1,中区小阪西町2,小阪西町子供会広場西側,34.5183338,135.4860884,
大阪府,堺市,2,中区小阪307,市営小阪住宅7棟北西駐車場北側フェンス,34.5216336,135.4903965,
大阪府,堺市,3,中区小阪382,小阪墓地東側,34.5195692,135.4893733,
大阪府,堺市,4,中区平井682-1,すみ池西側フェンス,34.5191792,135.4980904,
大阪府,堺市,5,中区東八田202-3,東八田自治会グラウンド北側,34.52396969999999,135.4968183,
大阪府,堺市,6,中区平井999,久世小学校北側,34.5204288,135.4957858,
大阪府,堺市,7,中区平井999,久世小学校正門南側,34.5204288,135.4957858,
大阪府,堺市,8,中区楢葉151-1,楢葉交差点北側駐車場,34.5149463,135.5022145,
大阪府,堺市,1,中区深阪2447,八石公園,34.514668,135.505127,緯度経度は怪しい
大阪府,堺市,2,中区深阪2083,西之条公園,34.514668,135.505127,緯度経度は怪しい
大阪府,堺市,3,中区深阪1901,開公園,34.514668,135.505127,緯度経度は怪しい
大阪府,堺市,4,中区深阪571,深阪公民館北側,34.514668,135.505127,緯度経度は怪しい
大阪府,堺市,5,中区深阪1811,矢谷公園,34.514668,135.505127,緯度経度は怪しい
大阪府,堺市,6,中区深阪1786,矢尾公園,34.514668,135.505127,緯度経度は怪しい
大阪府,堺市,7,中区深阪5丁15-1,深阪小学校北角,34.5084492,135.5083712,
大阪府,堺市,1,中区東山28-9,東山あかねすみれ公園,34.5234665,135.5032811,
大阪府,堺市,2,中区東山175-1,床山恒雄氏所有駐車場,34.523998,135.505081,緯度経度は怪しい
大阪府,堺市,3,中区東山803,南海バス東山車庫北側,34.52142450000001,135.509266,
大阪府,堺市,4,中区東山500-3,ベルランド総合病院,34.5179716,135.5082527,
大阪府,堺市,5,中区東山407-1,樋上敷物株式会社南側畑フェンス,34.5195904,135.5108781,
大阪府,堺市,6,中区東山77-48,東山はないかり公園,34.526724,135.5004985,
大阪府,堺市,7,中区東山783-1,東山資材置場北側フェンス,34.5211656,135.5073885,
大阪府,堺市,1,中区東山897,鶯谷公園,34.515743,135.505798,緯度経度は怪しい
大阪府,堺市,2,中区東山880,つくもりざか公園,34.516674,135.509613,緯度経度は怪しい
大阪府,堺市,3,中区辻之1193-7,辻之しおん公園,34.5150484,135.51146,
大阪府,堺市,4,中区辻之1147-9,辻之かやのき公園,34.5149723,135.5126213,
大阪府,堺市,5,中区田園570,西陶器小学校南側,34.5105987,135.5116247,
大阪府,堺市,6,中区田園565-11,田園あかとんぼ公園,34.510586,135.510086,緯度経度は怪しい
大阪府,堺市,7,中区辻之133-3,辻之キショウブ広場,34.510689,135.516937,緯度経度は怪しい
大阪府,堺市,8,中区辻之398-1,泉北星和台コーポラス駐車場入口北側,34.510689,135.516937,緯度経度は怪しい
大阪府,堺市,1,中区福田727,福田小学校正門南側,34.5244986,135.5186921,
大阪府,堺市,2,中区陶器北1678,西友堺福田店駐車場フェンス,34.5265891,135.5243629,
大阪府,堺市,3,中区福田1032-2,あおい幼稚園広場西側フェンス,34.5258817,135.5230983,
大阪府,堺市,4,中区福田603,府営堺福田住宅11棟南西側,34.5246551,135.5234757,
大阪府,堺市,5,中区福田603,府営堺福田住宅3棟北西側,34.5246551,135.5234757,
大阪府,堺市,6,中区福田603,府営堺福田住宅20棟北東側,34.5246551,135.5234757,
大阪府,堺市,7,中区陶器北1675-1,金山バス停東側駐車場フェンス,34.5215643,135.521645,
大阪府,堺市,8,中区福田784-7,福田784番地7駐車場フェンス,34.5228538,135.5205359,
大阪府,堺市,1,中区陶器北416-1,陶器配水場,34.5197954,135.5227299,
大阪府,堺市,2,中区福田523,かめや食堂北側畑,34.5206305,135.525311,
大阪府,堺市,3,中区陶器北2556,東陶器小学校西側,34.513096,135.525055,緯度経度は怪しい
大阪府,堺市,4,中区陶器北1076-1,北井氏所有畑,34.510632,135.528625,緯度経度は怪しい
大阪府,堺市,5,中区上之1215,陶荒田神社南側,34.5104321,135.5224059,
大阪府,堺市,6,中区福田381-1,福田公園,34.5189697,135.5295628,
大阪府,堺市,7,中区福田413-2,府営堺東陶器住宅7棟東側,34.5207252,135.5278776,
大阪府,堺市,8,中区福田210-91,福田南住宅松本宅南側,34.513924,135.5289,緯度経度は怪しい
大阪府,堺市,1,中区見野山29-4,見野山公園,34.5083043,135.5291939,
大阪府,堺市,2,中区見野山24,藤野進方北側空地,34.509148,135.529282,緯度経度は怪しい
大阪府,堺市,3,中区福田147-25,福田ハッカ公園,34.523998,135.523651,緯度経度は怪しい
大阪府,堺市,4,中区陶器北1012,隠自治会館南側フェンス,34.511433,135.529755,緯度経度は怪しい
大阪府,堺市,5,中区陶器北903,天理教倉庫南側,34.5089079,135.5325856,
大阪府,堺市,6,中区上之627,陽光台住宅南入口西側,34.5041115,135.5261483,
大阪府,堺市,7,中区見野山168,コーナン商事株式会社資材置場西側,34.503365,135.534103,緯度経度は怪しい
大阪府,堺市,1,北区東三国ヶ丘町4丁2,URサンヴァリエ金岡9号棟北側 公園内,34.5704328,135.5002997,
大阪府,堺市,2,北区東三国ヶ丘町2丁2-1,東三国丘小学校西門南側,34.5706068,135.4976486,
大阪府,堺市,3,北区東三国ヶ丘町3丁5,URサンヴァリエ金岡5号棟北側駐車場北側,34.5700913,135.4990131,
大阪府,堺市,4,北区東三国ヶ丘町2丁1,URサンヴァリエ金岡4号棟東側,34.569629,135.4979431,
大阪府,堺市,5,北区東三国ヶ丘町4丁2,URサンヴァリエ金岡11号棟東側,34.5704328,135.5002997,
大阪府,堺市,6,北区東三国ヶ丘町2丁2-1,東三国丘小学校西側フェンス(北寄り),34.5706068,135.4976486,
大阪府,堺市,7,北区東三国ヶ丘町2丁2-1,東三国丘小学校正門西側,34.5706068,135.4976486,
大阪府,堺市,1,北区長曽根町1179-4,近畿管区警察学校北側塀の東端(金岡公園横),34.5732769,135.504729,
大阪府,堺市,2,北区中長尾町2丁4-3,金岡病院北側フェンス,34.5742546,135.4983697,
大阪府,堺市,3,北区長曽根町1180,近畿中央呼吸器センター正門北側フェンス,34.5704523,135.5030981,
大阪府,堺市,4,北区長曽根町1179-5,長尾中学校北側,34.57233,135.504929,緯度経度は怪しい
大阪府,堺市,5,北区長曽根町1180,近畿中央呼吸器センター南側職員宿舎前ブロック塀,34.5704523,135.5030981,
大阪府,堺市,6,北区長曽根町1179-5,長尾中学校西側,34.57233,135.504929,緯度経度は怪しい
大阪府,堺市,7,北区北長尾町7丁4-20,関西電力長曽根変電所北側ブロック塀,34.5768036,135.5064656,
大阪府,堺市,8,北区長曽根町1179-4,近畿管区警察学校北側塀の正門西横,34.5732769,135.504729,
大阪府,堺市,1,北区東浅香山町2丁69,近畿管区警察学校北側塀の正門西横,34.58395429999999,135.5042583,
大阪府,堺市,2,北区東浅香山町2丁232,第二東浅香山公園東北側,34.5844826,135.5057497,
大阪府,堺市,3,北区大豆塚町1丁60,東浅香山公園南側,34.580944,135.504013,緯度経度は怪しい
大阪府,堺市,4,北区大豆塚町1丁60,東浅香山小学校正門南側,34.580944,135.504013,緯度経度は怪しい
大阪府,堺市,5,北区大豆塚町1丁60,東浅香山小学校東門南側,34.580944,135.504013,緯度経度は怪しい
大阪府,堺市,6,北区東雲東町4丁5-18,東浅香山小学校南門東側金岡下水ポンプ場東側フェンス,34.5827281,135.5022602,
大阪府,堺市,7,北区東雲東町2丁2-3,市営東雲東町団地3棟南西側フェンス,34.578956,135.4998945,
大阪府,堺市,8,北区東雲東町2丁2-3,市営東雲東町団地3棟南東側フェンス,34.578956,135.4998945,
大阪府,堺市,1,北区常磐町1丁25-1,北老人福祉センター南側,34.586242,135.5074051,
大阪府,堺市,2,北区東浅香山町3丁104,府営堺浅香山住宅13号館東側,34.5854769,135.5107303,
大阪府,堺市,3,北区東浅香山町3丁31-4,新浅香山小学校東南側,34.5860057,135.5097962,
大阪府,堺市,4,北区東浅香山町3丁31-4,新浅香山小学校正門西側,34.5860057,135.5097962,
大阪府,堺市,5,北区東浅香山町3丁31,府営堺浅香山住宅27号館西側,34.585674,135.508224,緯度経度は怪しい
大阪府,堺市,6,北区東浅香山町3丁104,府営堺浅香山住宅7号館東側,34.5854769,135.5107303,
大阪府,堺市,7,北区東浅香山町3丁145,浅香山住宅2号棟南側,34.5862949,135.5112003,
大阪府,堺市,8,北区東浅香山町3丁31,府営堺浅香山住宅5号館西側,34.585674,135.508224,緯度経度は怪しい
大阪府,堺市,1,北区新堀町1丁85-2,五箇荘中学校北側フェンス,34.5784729,135.5074096,
大阪府,堺市,2,北区新堀町1丁85-2,五箇荘中学校西側フェンス(南寄り),34.5784729,135.5074096,
大阪府,堺市,3,北区奥本町1丁,関西電力鉄塔フェンス,34.5810817,135.5104638,
大阪府,堺市,4,北区新堀町2丁58,五箇荘小学校南側フェンス(西寄り),34.577036,135.5138183,
大阪府,堺市,5,北区新堀町2丁58,五箇荘小学校北側,34.577036,135.5138183,
大阪府,堺市,6,北区新堀町2丁126-1,五箇荘校区地域会館北側駐車場(JA),34.5776571,135.5148714,
大阪府,堺市,7,北区宮本町57,華表神社南側,34.5799369,135.5150546,
大阪府,堺市,8,北区蔵前町1丁9,関西電力鉄塔フェンス,34.5760091,135.5100218,
大阪府,堺市,1,北区常磐町3丁22-1,常磐東公園南側,34.5912799,135.5202104,
大阪府,堺市,2,北区常磐町3丁6-2,常磐西公園北側,34.5896079,135.5174068,
大阪府,堺市,3,北区北花田町4丁97-2,関西電力鉄塔フェンス,34.5860531,135.5192,
大阪府,堺市,4,北区北花田町3丁24,北花田第二公園西側,34.5844342,135.5179628,
大阪府,堺市,5,北区北花田町4丁118,北花田第三公園東側,34.5834454,135.5206653,
大阪府,堺市,6,北区北花田町2丁203,五箇荘東小学校西通用門北側,34.5815293,135.5187145,
大阪府,堺市,7,北区船堂町1丁,船堂公園南側,34.5781897,135.5187145,
大阪府,堺市,8,北区船堂町1丁,船堂公園北側,34.5781897,135.5187145,
大阪府,堺市,1,北区新金岡町2丁,新金岡緑地,34.5732587,135.512821,
大阪府,堺市,2,北区新金岡町2丁6,もうもう公園北西側,34.5745112,135.5155839,
大阪府,堺市,3,北区新金岡町2丁3,ぞうさん公園北西側,34.5738309,135.5116424,
大阪府,堺市,4,北区新金岡町2丁1,府公社金岡東団地1-05棟西南側,34.5719622,135.5109057,
大阪府,堺市,5,北区新金岡町1丁5-1,金岡北中学校裏門北側,34.57129210000001,135.5115068,
大阪府,堺市,6,北区新金岡町1丁4-1,新金岡小学校正門西側,34.5700303,135.5123053,
大阪府,堺市,7,北区新金岡町1丁6,新金岡公園南側,34.5703326,135.5131156,
大阪府,堺市,8,北区新金岡町1丁3,ぶうちゃん公園西側,34.5682649,135.5116424,
大阪府,堺市,1,北区新金岡町1丁2,UR新金岡第1団地2-09棟西側,34.56673,135.511261,緯度経度は怪しい
大阪府,堺市,2,北区新金岡町1丁2,UR新金岡第1団地2-19棟東側,34.56673,135.511261,緯度経度は怪しい
大阪府,堺市,3,北区新金岡町1丁7,わんわん公園東側,34.5692037,135.5142943,
大阪府,堺市,4,北区新金岡町1丁7,新金岡第三住宅7-07棟東側,34.5692037,135.5142943,
大阪府,堺市,5,北区新金岡町4丁1-9,新金岡東小学校東側フェンス,34.566887,135.515793,緯度経度は怪しい
大阪府,堺市,6,北区新金岡町5丁1-4,北区役所北東側,34.5659314,135.5169769,
大阪府,堺市,7,北区新金岡町4丁1-9,新金岡東小学校北側フェンス,34.566887,135.515793,緯度経度は怪しい
大阪府,堺市,1,北区新金岡町3丁3,府営金岡東第3住宅3-03棟北側,34.5742778,135.5198933,
大阪府,堺市,2,北区新金岡町3丁8,うさぎ公園西側,34.57438940000001,135.5219563,
大阪府,堺市,3,北区新金岡町3丁7-1,光竜寺小学校西南側,34.572952,135.5214773,
大阪府,堺市,4,北区新金岡町3丁4,光竜寺公園南側,34.572746,135.518433,緯度経度は怪しい
大阪府,堺市,5,北区新金岡町3丁2,とら公園東側,34.5738957,135.5172411,
大阪府,堺市,6,北区新金岡町3丁4,光竜寺公園北東側,34.572746,135.518433,緯度経度は怪しい
大阪府,堺市,7,北区新金岡町3丁5,府営金岡東第6住宅5-05棟南側,34.571081,135.5195986,
大阪府,堺市,1,北区新金岡4丁8-1,大泉学園東側フェンス(正門の南側),34.568256,135.512772,緯度経度は怪しい
大阪府,堺市,2,北区新金岡4丁8-1,大泉学園東側フェンス(東門の北側),34.568256,135.512772,緯度経度は怪しい
大阪府,堺市,3,北区新金岡町5丁8,きりん公園南側,34.563757,135.5209248,
大阪府,堺市,4,北区新金岡町4丁5,金岡東公園北東側,34.567598,135.5198933,
大阪府,堺市,5,北区新金岡町4丁5,金岡東公園西側,34.567598,135.5198933,
大阪府,堺市,6,北区新金岡町4丁6,ひつじ公園西側,34.567439,135.5213668,
大阪府,堺市,7,北区新金岡町4丁4,府公社金岡東CE団地4-06棟北側,34.5694111,135.5195986,
大阪府,堺市,1,北区南花田町,大泉緑地北側南花田東口東側,34.5694433,135.5275562,
大阪府,堺市,2,北区南花田町33-6、33-7,(株)東和南側,34.5751938,135.5303387,
大阪府,堺市,3,北区新金岡町3丁7-1,光竜寺小学校東北側,34.572952,135.5214773,
大阪府,堺市,4,北区南花田町,大泉緑地北側,34.5694433,135.5275562,
大阪府,堺市,5,北区南花田町,大泉緑地西側,34.5694433,135.5275562,
大阪府,堺市,6,北区南花田町258-2,ホームセンターコーナン駐車場南側,34.5757469,135.520984,
大阪府,堺市,7,北区新金岡町3丁7-1,光竜寺小学校東南側,34.572952,135.5214773,
大阪府,堺市,1,北区中村町250,北八下小学校北側,34.5653483,135.5360586,
大阪府,堺市,2,北区中村町250,北八下小学校西南側,34.5653483,135.5360586,
大阪府,堺市,3,北区中村町,大泉緑地第3駐車場南側植栽,34.5626986,135.5322724,
大阪府,堺市,4,北区中村町,大泉緑地第3駐車場入口東側,34.5626986,135.5322724,
大阪府,堺市,5,北区中村町977-20,八下中学校南側フェンス(東寄り),34.561962,135.53093,緯度経度は怪しい
大阪府,堺市,1,北区野遠町,雨水貯留槽,34.5619967,135.5428856,
大阪府,堺市,2,北区野遠町,野遠町ちびっこ老人憩いの広場南側,34.5619967,135.5428856,
大阪府,堺市,3,北区野遠町,八坂神社境内,34.5619967,135.5428856,
大阪府,堺市,4,北区野遠町,雨水貯留槽,34.5619967,135.5428856,
大阪府,堺市,5,北区野遠町173,竹林と道路の間に設置されているフェンスに沿った場所,34.563087,135.5457,緯度経度は怪しい
大阪府,堺市,6,北区野遠町,金岡中央病院駐車場のフェンス沿い,34.5619967,135.5428856,
大阪府,堺市,7,北区野遠町348-1,あけぼの苑駐車場のフェンス沿い,34.5619967,135.5428856,
大阪府,堺市,1,北区長曽根町545,UR下野池団地1号棟北側しもつ池バス停南側,34.5631424,135.5143655,
大阪府,堺市,2,北区金岡町128,大泉緑地南西角,34.566017,135.524185,緯度経度は怪しい
大阪府,堺市,3,北区金岡町325-1,府営金岡南住宅北側中央環状線沿いフェンス,34.5622007,135.5201604,
大阪府,堺市,4,北区金岡町2469,金岡南中学校北側フェンス(東寄り),34.555691,135.521652,緯度経度は怪しい
大阪府,堺市,5,北区金岡町2866,金岡神社南東側,34.5595975,135.5200249,
大阪府,堺市,6,北区金岡町2275-3,芝ノ内町チビッコ広場,34.554123,135.517502,緯度経度は怪しい
大阪府,堺市,7,北区金岡町1254,金岡小学校正門西側,34.5589508,135.5154999,
大阪府,堺市,8,北区金岡町3028-9,金岡窪田池公園北側,34.559347,135.5132544,
大阪府,堺市,1,北区金岡町,蟻ケ池公園西側,34.5562096,135.5181251,
大阪府,堺市,2,北区金岡町1415-2,URサンヴァリエ中百舌鳥6号東側,34.5523821,135.5145681,
大阪府,堺市,3,北区金岡町1415-2,URサンヴァリエ中百舌鳥7号棟前植え込み,34.5523821,135.5145681,
大阪府,堺市,4,北区金岡町,金岡町セコイア公園,34.5562096,135.5181251,
大阪府,堺市,5,北区金岡町1304,ダイキン工業堺製作所金岡工場西側フェンス(北寄り),34.554333,135.515472,緯度経度は怪しい
大阪府,堺市,6,北区金岡町1415-2,URサンヴァリエ中百舌鳥1号棟北側植え込み,34.5523821,135.5145681,
大阪府,堺市,7,北区金岡町1182-1,金岡南小学校東側,34.555613,135.5113223,
大阪府,堺市,8,北区金岡町1182-1,金岡南小学校西側,34.555613,135.5113223,
大阪府,堺市,9,北区金岡町,白鷺駅北側,34.5562096,135.5181251,
大阪府,堺市,1,北区長曽根町3062,長曽根東公園南側,34.5636359,135.5120379,
大阪府,堺市,2,北区長曽根町,関西電力鉄塔フェンス(長曽根竹ノ内公園西側),34.5658151,135.5075174,
大阪府,堺市,3,北区長曽根町3017-1,長曽根町自治会館東側グランド前,34.5628589,135.5061548,
大阪府,堺市,4,北区長曽根町376-7,堺市産業振興センター臨時駐車場東側,34.5588245,135.5081677,
大阪府,堺市,5,北区長曽根町376-7,堺市産業振興センター臨時駐車場西側,34.5588245,135.5081677,
大阪府,堺市,6,北区長曽根町183-5,堺市産業振興センター第1駐車場西側,34.5587789,135.5050717,
大阪府,堺市,7,北区長曽根町183-5,堺市産業振興センターイベントホール南側,34.5587789,135.5050717,
大阪府,堺市,8,北区長曽根町,関西電力鉄塔フェンス(長曽根東公園北側),34.5658151,135.5075174,
大阪府,堺市,1,北区黒土町,関西電力鉄塔フェンス(堺富田林線沿い),34.5645097,135.5010362,
大阪府,堺市,2,北区黒土町,新池北東側,34.5645097,135.5010362,
大阪府,堺市,3,北区黒土町,黒土町内会グランド西側,34.5645097,135.5010362,
大阪府,堺市,4,北区黒土町,黒土町会館南側ちびっこ老人憩いの広場横フェンス沿い,34.5645097,135.5010362,
大阪府,堺市,5,北区黒土町,新池東側フェンス沿い,34.5645097,135.5010362,
大阪府,堺市,6,北区黒土町,黒土みのんだ公園横フェンス沿い,34.5645097,135.5010362,
大阪府,堺市,7,北区黒土町,黒土町公園フェンス沿い,34.5645097,135.5010362,
大阪府,堺市,1,北区百舌鳥赤畑町4丁,関西電力鉄塔フェンス,34.557755,135.491745,緯度経度は怪しい
大阪府,堺市,2,北区百舌鳥赤畑町3丁,関西電力鉄塔(堺港長曽根NO.19)用地,34.5596097,135.4927885,
大阪府,堺市,3,北区百舌鳥赤畑町3丁177,関西電力鉄塔フェンス,34.5591038,135.491738,
大阪府,堺市,4,北区百舌鳥赤畑町2丁,百舌鳥赤畑町かたばみ広場南側,34.5611519,135.4919049,
大阪府,堺市,5,北区百舌鳥梅北町3丁125,梅北公園西側フェンス,34.558538,135.4966716,
大阪府,堺市,6,北区百舌鳥梅北町5丁,梅寿公園東側フェンス,34.5562078,135.4975013,
大阪府,堺市,7,北区百舌鳥梅北町1丁39-2,堺市上下水道局本館正門,34.5628262,135.4941876,
大阪府,堺市,8,北区百舌鳥梅北町4丁146,梅北四丁ちびっ子老人憩いの広場フェンス沿い,34.5609926,135.4979199,
大阪府,堺市,1,北区中百舌鳥町1丁,中百舌鳥町れんげそう公園,34.5594847,135.5022145,
大阪府,堺市,2,北区中百舌鳥町6丁917,中百舌鳥町自治会グラウンド西側,34.55199100000001,135.5044674,
大阪府,堺市,3,北区中百舌鳥町6丁1033-2,中百舌鳥小学校第2運動場西側フェンス,34.5506647,135.5070758,
大阪府,堺市,4,北区中百舌鳥町6丁917,中百舌鳥町自治会グラウンド南側,34.55199100000001,135.5044674,
大阪府,堺市,5,北区中百舌鳥町6丁1033-2,中百舌鳥小学校通用門北側,34.5506647,135.5070758,
大阪府,堺市,6,北区中百舌鳥町6丁,UR中百舌鳥公園団地第2号館南西側植込み,34.5510561,135.5081067,
大阪府,堺市,7,北区中百舌鳥町6丁998-3,UR中百舌鳥公園団地増田歯科北側,34.5510635,135.5080274,
大阪府,堺市,8,北区中百舌鳥町6丁,堺中百舌鳥郵便局西側UR中百舌鳥公園団地駐車場,34.5510561,135.5081067,
大阪府,堺市,9,北区中百舌鳥町6丁1034,中百舌鳥町マシュマロウ公園,34.5504321,135.5108057,
大阪府,堺市,1,北区百舌鳥梅町1丁,城の山公園北側,34.5525821,135.4980904,
大阪府,堺市,2,北区百舌鳥梅町2丁498,百舌鳥小学校西側フェンス,34.5512674,135.4952768,
大阪府,堺市,3,北区百舌鳥梅町2丁498,百舌鳥小学校正門横,34.5512674,135.4952768,
大阪府,堺市,4,北区百舌鳥梅町2丁498,百舌鳥小学校東側フェンス,34.5512674,135.4952768,
大阪府,堺市,5,北区百舌鳥西之町3丁,御陵山公園南西側入口横,34.5473019,135.4975013,
大阪府,堺市,6,北区百舌鳥陵南町3丁30,陵南北公園西側,34.5445975,135.4916104,
大阪府,堺市,7,北区百舌鳥陵南町3丁,陵南中央公園南西側,34.5445975,135.4916104,
大阪府,堺市,8,北区百舌鳥西之町3丁,御陵山公園北西側入口横,34.5473019,135.4975013,
大阪府,堺市,1,北区百舌鳥本町3丁10,いたすけ公園西側,34.553936,135.486069,緯度経度は怪しい
大阪府,堺市,2,北区東上野芝町2丁406-1,東上野芝町マスカット公園北側フェンス,34.551221,135.4849933,
大阪府,堺市,3,北区東上野芝町2丁,東上野芝町いわつめくさ公園東側,34.5513704,135.4845424,
大阪府,堺市,4,北区百舌鳥本町2丁,百舌鳥本町だわの坂公園南側フェンス,34.5529622,135.4904323,
大阪府,堺市,5,北区百舌鳥西之町1丁,陵南中学校グラウンド南側,34.5496227,135.4904323,
大阪府,堺市,6,北区百舌鳥西之町1丁82,西百舌鳥小学校北門東側,34.5506567,135.4899839,
大阪府,堺市,7,北区百舌鳥本町2丁288,百舌鳥本町児童遊園西側,34.5531834,135.489075,
大阪府,堺市,8,北区百舌鳥西之町1丁,陵南中学校東側フェンス,34.5496227,135.4904323,
大阪府,堺市,1,北区百舌鳥梅町3丁29,梅町公園北東側,34.5518772,135.5005073,
大阪府,堺市,2,北区百舌鳥梅町3丁28-3,関西電力梅町変電所西側ネットフェンス・ブロック,34.5507411,135.5014504,
大阪府,堺市,3,北区百舌鳥梅町3丁29,梅町公園北西側,34.5518772,135.5005073,
大阪府,堺市,4,北区百舌鳥梅町3丁29,梅町公園南東側,34.5518772,135.5005073,
大阪府,堺市,5,北区百舌鳥梅町3丁36-1,府営百舌鳥梅町住宅西北側,34.5479261,135.5020393,
大阪府,堺市,6,北区百舌鳥梅町3丁36-1,府営百舌鳥梅町住宅南西側,34.5479261,135.5020393,
大阪府,堺市,7,北区百舌鳥梅町3丁58,仁山田公園東側,34.5498614,135.4977934,
大阪府,堺市,1,南区小代310,栄光自動車前,34.505483,135.4879373,
大阪府,堺市,2,南区稲葉1丁3131-2,ペガサス福泉中央こども園東側,34.4997112,135.4803636,
大阪府,堺市,3,南区稲葉2丁2997-1,masked,34.5013821,135.4763554,
大阪府,堺市,4,南区高尾2丁500-1,新日本工機駐車場南側,34.4971509,135.4675455,
大阪府,堺市,5,南区桃山台3丁7-1,福泉南中学校北西角,34.4964328,135.4818921,
大阪府,堺市,6,南区桃山台4丁17-1,福泉中央小学校東通用門北側,34.4971092,135.4834453,
大阪府,堺市,7,南区大庭寺569-28,みきとじ公園西側,34.4949645,135.4867922,
大阪府,堺市,8,南区桃山台3丁2,府営桃山台3丁住宅2-1棟東側,34.491325,135.4838062,
大阪府,堺市,1,南区大森245-3,大森公民館北側,34.4879114,135.4818093,
大阪府,堺市,2,南区檜尾1200-1,高橋中交差点東側高架下フェンス,34.4816933,135.4847265,
大阪府,堺市,3,南区美木多上135-9,美木多地域会館,34.4753364,135.4867086,
大阪府,堺市,4,南区檜尾575-8,檜尾コスモス広場,34.4822562,135.4875214,
大阪府,堺市,5,美木多上967-10,美木多ワレモコウ公園,34.538544,135.55986,緯度経度は怪しい
大阪府,堺市,6,南区美木多上135-11,上北自治会館,34.4753338,135.4866958,
大阪府,堺市,7,南区別所151-1,別所パーキング,34.4537064,135.503218,
大阪府,堺市,8,南区別所425-3,元(株)泉建設工業出入口南側空地,34.4500626,135.5047597,
大阪府,堺市,1,南区片蔵32,堺市立青少年の家,34.4861258,135.5032438,
大阪府,堺市,2,南区栂223,栂自治会館北側,34.4854783,135.4986795,
大阪府,堺市,3,南区泉田中495-2,泉田中南バス停横,34.4734692,135.5090115,
大阪府,堺市,4,南区鉢ヶ峯寺103,鉢ヶ峯東バス停横,34.4700741,135.5132427,
大阪府,堺市,5,南区鉢ヶ峯寺1545-1,masked,34.464642,135.511612,緯度経度は怪しい
大阪府,堺市,6,南区釜室684,釜室公園東側,34.4806433,135.5187858,
大阪府,堺市,7,南区釜室42-1,masked,34.475135,135.5233726,
大阪府,堺市,8,南区富蔵229,富蔵地域会館掲示板横,34.4755422,135.5174239,
大阪府,堺市,9,南区畑198,畑町内会館グランドフェンス,34.467499,135.533997,緯度経度は怪しい
大阪府,堺市,1,南区和田455,和田公園,34.5067413,135.4937038,
大阪府,堺市,2,南区宮山台2丁2-1,宮山台小学校正門南側,34.503185,135.495712,緯度経度は怪しい
大阪府,堺市,3,南区宮山台1丁13-1,野田尾自治会館,34.501422,135.5038414,
大阪府,堺市,4,南区宮山台4丁3,府営堺宮山台第4住宅3-27棟北側,34.507042,135.498764,緯度経度は怪しい
大阪府,堺市,5,南区宮山台4丁3,府営堺宮山台第4住宅3-1棟南側,34.507042,135.498764,緯度経度は怪しい
大阪府,堺市,6,南区宮山台1丁6,府営宮山台第1住宅6-13棟南側,34.5049223,135.5022145,
大阪府,堺市,7,南区宮山台1丁1-1,宮山台中学校バス停前,34.4998431,135.5036123,
大阪府,堺市,1,南区竹城台1丁6,泉ヶ丘緑道(旧南保健センター南側空き地),34.5011317,135.5094325,
大阪府,堺市,2,南区竹城台1丁6,旧南保健センター北側側道,34.5011317,135.5094325,
大阪府,堺市,3,南区竹城台1丁10番1号,竹城台東小学校南東角,34.5033475,135.5105507,
大阪府,堺市,4,南区竹城台1丁10番1号,竹城台東小学校正門前,34.5033475,135.5105507,
大阪府,堺市,5,南区竹城台1丁10番1号,竹城台東小学校西側,34.5033475,135.5105507,
大阪府,堺市,6,南区竹城台1丁10番1号,竹城台東小学校北側,34.5033475,135.5105507,
大阪府,堺市,7,南区土佐屋台1551,シュガ谷公園北側,34.5041716,135.507693,
大阪府,堺市,1,南区竹城台1丁2,UR2-1棟南側,34.4986132,135.510361,
大阪府,堺市,2,南区竹城台1丁1,UR1-2棟西側,34.4981068,135.5116424,
大阪府,堺市,3,南区竹城台1丁2,UR2-23棟南西側,34.4986132,135.510361,
大阪府,堺市,4,南区竹城台1丁2,UR2-3棟南側,34.4986132,135.510361,
大阪府,堺市,5,南区竹城台1丁2,UR2-6棟北側,34.4986132,135.510361,
大阪府,堺市,6,南区竹城台1丁2,UR2-18棟東側,34.4986132,135.510361,
大阪府,堺市,7,南区竹城台1丁2,UR2-15棟北側,34.4986132,135.510361,
大阪府,堺市,1,南区竹城台4丁2,府営堺竹城台第4住宅2-2棟北東側,34.4986058,135.5008889,
大阪府,堺市,2,南区豊田972,小谷駐車場西側,34.45358150000001,135.5275562,
大阪府,堺市,3,南区竹城台4丁2,府営堺竹城台第4住宅2-9棟南側,34.4986058,135.5008889,
大阪府,堺市,4,南区竹城台2丁1,UR1-15棟北側,34.498264,135.506454,
大阪府,堺市,5,南区竹城台3丁2-1,竹城台小学校北門西側,34.491505,135.499344,緯度経度は怪しい
大阪府,堺市,6,南区竹城台3丁1-12,大阪府営竹城台3住宅1-12棟南側,34.4950274,135.5061921,
大阪府,堺市,7,南区竹城台3丁1,泉ヶ丘緑道(竹城台),34.4954048,135.5057497,
大阪府,堺市,1,南区三原台3丁2-1,三原台小学校西側,34.5012901,135.5201235,
大阪府,堺市,2,南区三原台3丁2-1,三原台小学校北側,34.5012901,135.5201235,
大阪府,堺市,3,南区三原台3丁40,三原台団地4棟北西側(40-4棟北西側),34.501983,135.5231351,
大阪府,堺市,4,南区三原台4丁19,三原しろくま公園東側,34.5021647,135.5250509,
大阪府,堺市,5,南区三原台1丁,三原公園北側,34.4985473,135.5198933,
大阪府,堺市,6,南区三原台1丁3,府営堺三原台住宅9号館東側,34.498802,135.517288,緯度経度は怪しい
大阪府,堺市,7,南区三原台1丁3,府営堺三原台住宅2号棟西側ゴミ置き場前,34.498802,135.517288,緯度経度は怪しい
大阪府,堺市,8,南区三原台1丁12-1,三原台中学校正門前,34.4987987,135.5239548,
大阪府,堺市,1,南区若松台1丁4,府営若松台第1住宅4-9棟北側,34.49263639999999,135.5045713,
大阪府,堺市,2,南区若松台1丁4,府営若松台第1住宅4-21棟南西側,34.49263639999999,135.5045713,
大阪府,堺市,3,南区若松台1丁3-1,若松台小学校正門南側,34.4918365,135.5058578,
大阪府,堺市,4,南区若松台3丁,若松かんがるう公園北側,34.4887207,135.5057497,
大阪府,堺市,5,南区若松台2丁3,府営堺若松台第2住宅3-1棟北側,34.4895613,135.5103165,
大阪府,堺市,6,南区若松台2丁5,大蓮公園東側中央,34.4925945,135.511824,
大阪府,堺市,7,南区若松台2丁3,府営堺若松台第2住宅3-28棟南西側,34.4895613,135.5103165,
大阪府,堺市,1,南区茶山台2丁3,UR3-11棟東側,34.4930101,135.5175357,
大阪府,堺市,2,南区茶山台2丁4,UR4-3棟南側,34.4919425,135.5191565,
大阪府,堺市,3,南区茶山台2丁5-1,茶山台小学校北側,34.4912342,135.5170404,
大阪府,堺市,4,南区茶山台2丁5-1,茶山台小学校通用門北側,34.4912342,135.5170404,
大阪府,堺市,5,南区茶山台3丁,茶山公園西側,34.4888068,135.5193039,
大阪府,堺市,6,南区茶山台2丁1,茶山台団地27棟北側(1-27棟北側),34.490275,135.5139996,
大阪府,堺市,7,南区茶山台2丁1,茶山台団地集会所西側(公社集会所西側),34.490275,135.5139996,
大阪府,堺市,8,南区茶山台2丁8,茶山台B団地2棟西側(公社8-2棟西側),34.4890174,135.5142943,
大阪府,堺市,1,南区高倉台1丁3,府営高倉台第1住宅3-1棟北西側,34.4945211,135.5190092,
大阪府,堺市,2,南区高倉台1丁3,府営高倉台第1住宅集会所北東側,34.4945211,135.5190092,
大阪府,堺市,3,南区高倉台2丁28-1,高倉第1公園,34.4971567,135.520862,
大阪府,堺市,4,南区高倉台1丁3,府営高倉台第1住宅3-3棟南西側,34.4945211,135.5190092,
大阪府,堺市,5,南区高倉台1丁2-1,大阪健康福祉短期大学正門南側(旧高倉台西小学校),34.4959084,135.5186769,
大阪府,堺市,6,南区高倉台2丁20-4,高蔵寺第2公園,34.4946776,135.522693,
大阪府,堺市,7,南区高倉台2丁18,高蔵寺第1公園西側,34.4936035,135.5223246,
大阪府,堺市,1,南区高倉台4丁3,府営高倉台第4住宅3-8棟北側,34.4985734,135.5278509,
大阪府,堺市,2,南区高倉台4丁3,府営高倉台第4住宅3-3棟西側,34.4985734,135.5278509,
大阪府,堺市,3,南区高倉台4丁,高倉公園北東側,34.4953574,135.5287352,
大阪府,堺市,4,南区高倉台3丁1,府営高倉台第3住宅1-4棟西側,34.4972227,135.5249035,
大阪府,堺市,5,南区高倉台3丁1,府営高倉台第3住宅1-7棟南側,34.4972227,135.5249035,
大阪府,堺市,6,南区高倉台3丁5-1,泉北高倉小学校西門南側,34.4932716,135.5257601,
大阪府,堺市,7,南区高倉台3-10-33,泉ヶ丘緑道(泉北高倉小学校東側),34.4919766,135.5265246,
大阪府,堺市,1,南区晴美台1丁1番2号,府立堺東高校正門横,34.49946,135.5340411,
大阪府,堺市,2,南区晴美台1丁27,泉ヶ丘緑地(晴美台幼稚園向い),34.4952181,135.5335989,
大阪府,堺市,3,南区晴美台1丁29,晴美台B団地8棟集会所東側(公社29-8棟集会所東側),34.4951801,135.5313881,
大阪府,堺市,4,南区晴美台3丁2,府営晴美台第3住宅2-1棟東側,34.49239439999999,135.5313881,
大阪府,堺市,5,南区晴美台3丁8-1,晴美台中学校正門東側,34.4862353,135.528947,
大阪府,堺市,6,南区晴美台3丁6,晴美公園東側,34.4871097,135.5307985,
大阪府,堺市,7,南区晴美台3丁7,晴美くろうし公園西側,34.4881778,135.5291773,
大阪府,堺市,8,南区晴美台3丁14,晴美台団地9棟西側(公社14-9棟西側),34.4860633,135.5260824,
大阪府,堺市,1,南区槇塚台1丁10,府営槇塚台第1住宅10-1棟北東側,34.4845692,135.5234298,
大阪府,堺市,2,南区逆瀬川1161,masked,34.4758483,135.5295734,
大阪府,堺市,3,南区槇塚台1丁10,府営槇塚台第1住宅敷地内槇塚台1丁バス停南側,34.4845692,135.5234298,
大阪府,堺市,4,南区槇塚台2丁41,槇塚幼稚園裏南側槇塚公園,34.4841894,135.5207774,
大阪府,堺市,5,南区槇塚台1丁10,府営槇塚台第1住宅10-12棟南側,34.4845692,135.5234298,
大阪府,堺市,6,南区槇塚台1丁11,槇塚第2公園南側,34.482792,135.5259351,
大阪府,堺市,7,南区槇塚台3丁39-1,槇塚台小学校正門南側,34.4827385,135.5271168,
大阪府,堺市,8,南区槇塚台3丁39-1,槇塚台小学校東北側,34.4827385,135.5271168,
大阪府,堺市,1,南区桃山台1丁5,府営桃山台1丁住宅5-11棟北側,34.4902093,135.4889598,
大阪府,堺市,2,南区桃山台2丁8,府営桃山台2丁住宅8-3棟西側,34.4895147,135.487308,
大阪府,堺市,3,南区桃山台1丁5,府営桃山台1丁住宅5-7棟北側,34.4902093,135.4889598,
大阪府,堺市,4,南区桃山台1丁5,府営桃山台1丁住宅5-3棟西側,34.4902093,135.4889598,
大阪府,堺市,5,南区桃山台2丁6-1,桃山台小学校北門西側,34.4895184,135.4882695,
大阪府,堺市,6,南区桃山台1丁3,UR泉北桃山台1丁団地集会所北側,34.4883458,135.4927885,
大阪府,堺市,7,南区桃山台1丁1-1,堺市役所南区役所南側,34.4864049,135.490478,
大阪府,堺市,1,南区原山台1丁5,UR5-1棟北東側,34.4851475,135.492494,
大阪府,堺市,2,南区原山台4丁3-1,原山ひかり小学校(原山公園側),34.4796843,135.4938838,
大阪府,堺市,3,南区原山台1丁7,原山台団地3棟南西側(7-3棟南西側),34.484971,135.4951449,
大阪府,堺市,4,南区原山台5丁3,原山台B団地1棟西側(3-1棟西側),34.4822963,135.4972067,
大阪府,堺市,5,南区原山台3丁1,府営原山台3丁住宅1-2棟西側,34.4783202,135.4927885,
大阪府,堺市,6,南区原山台3丁1,府営原山台3丁住宅1-19棟南側,34.4783202,135.4927885,
大阪府,堺市,7,南区原山台5丁1,府営原山台5丁住宅1-13棟南側,34.4800682,135.4972067,
大阪府,堺市,8,南区原山台4丁6-7,原山台地域会館(本館),34.478625,135.4951667,
大阪府,堺市,1,南区城山台3丁3,UR3-22棟東側,34.4665942,135.4874136,
大阪府,堺市,2,南区城山台1丁20-1,城山台小学校正門東側,34.4685038,135.4877818,
大阪府,堺市,3,南区城山台1丁20-1,城山台小学校西門北側,34.4685038,135.4877818,
大阪府,堺市,4,南区城山台3丁1,公団3-2棟北側,34.4660222,135.4860148,
大阪府,堺市,5,南区城山台2丁3,城山とんぼ公園東南側,34.4680134,135.48307,
大阪府,堺市,6,南区城山台2丁1,府営城山台2丁住宅1-11棟南側,34.4696678,135.4842479,
大阪府,堺市,7,南区城山台2丁3,UR2丁住宅3-1棟北側,34.4680134,135.48307,
大阪府,堺市,8,南区城山台2丁1,府営城山台2丁住宅1-3棟西側,34.4696678,135.4842479,
大阪府,堺市,1,南区庭代台2丁1,府営庭代台2丁住宅1-11棟西側,34.4742443,135.4954394,
大阪府,堺市,2,南区庭代台2丁5,庭代公園西側(ひなぎく保育園向い),34.4739408,135.4972067,
大阪府,堺市,3,南区庭代台3丁12-1,庭代台小学校西門南側,34.4739339,135.4992227,
大阪府,堺市,4,南区庭代台1丁23,庭代台団地4棟東側(公社23-4棟東側),34.4708853,135.4966176,
大阪府,堺市,5,南区庭代台2丁10,UR10-10棟西側,34.47140880000001,135.4989741,
大阪府,堺市,6,南区庭代台2丁19-1,庭代台中学校正門南側,34.4688385,135.4999986,
大阪府,堺市,7,南区庭代台3丁13,庭代台B団地5棟南西側(13-5棟南西側),34.4725062,135.5001524,
大阪府,堺市,8,南区庭代台3丁12-1,庭代台小学校正門北側,34.4739339,135.4992227,
大阪府,堺市,1,南区御池台2丁3-1,御池台小学校東門北側,34.4649535,135.5031313,
大阪府,堺市,2,南区御池台2丁3-1,御池台小学校南門東側,34.4649535,135.5031313,
大阪府,堺市,3,南区御池台3丁19,御池みみずく公園,34.4635522,135.5053815,
大阪府,堺市,4,南区御池台4丁24-1,上神谷支援学校正門南側,34.4597945,135.5066612,
大阪府,堺市,5,南区御池台1丁35-20,御池第3公園南側,34.4618134,135.5003733,
大阪府,堺市,6,南区御池台1丁27,第1住宅27-14棟南側,34.4641496,135.5001524,
大阪府,堺市,7,南区御池台1丁2,御池第1公園,34.4651984,135.4974276,
大阪府,堺市,8,南区御池台2丁23,御池台花の丘公園,34.4712171,135.5050869,
大阪府,堺市,1,南区赤坂台6丁26,赤坂第14公園西側,34.4928073,135.4747519,
大阪府,堺市,2,南区赤坂台6丁1,赤坂第12公園南側,34.4891554,135.4771073,
大阪府,堺市,3,南区赤坂台2丁1-1,赤坂台中学校東門南側,34.4846606,135.4774754,
大阪府,堺市,4,南区赤坂台2丁1-1,赤坂台中学校西門南側,34.4846606,135.4774754,
大阪府,堺市,5,南区赤坂台2丁2-1,赤坂台小学校通用門北側,34.4862042,135.4765921,
大阪府,堺市,6,南区赤坂台3丁9,府営赤坂台3丁住宅9-12棟北側,34.4851894,135.4740045,
大阪府,堺市,7,南区赤坂台5丁13,赤坂第10公園南側,34.4912252,135.470851,
大阪府,堺市,8,南区赤坂台3丁9,府営赤坂台3丁住宅9-1棟南東側,34.4851894,135.4740045,
大阪府,堺市,1,南区新檜尾台1丁14,新檜尾第2公園,34.4814452,135.4809351,
大阪府,堺市,2,南区新檜尾台4丁17,新檜尾第8公園,34.4812875,135.4772545,
大阪府,堺市,3,南区新檜尾台1丁1-48,新檜尾公園,34.4790312,135.4793156,
大阪府,堺市,4,南区新檜尾台3丁7-1,新檜尾台小学校通用門西側,34.4800785,135.4765921,
大阪府,堺市,5,南区新檜尾台3丁7-1,新檜尾台小学校南西側,34.4800785,135.4765921,
大阪府,堺市,6,南区新檜尾台3丁3,公団第3次住宅3-19棟東側,34.4784405,135.4742367,
大阪府,堺市,7,南区新檜尾台3丁2,府営新檜尾台3丁住宅2-5棟東側,34.4773431,135.473059,
大阪府,堺市,8,南区新檜尾台3丁2,府営新檜尾台3丁住宅2-1棟南側,34.4773431,135.473059,
大阪府,堺市,1,南区鴨谷台2丁4-1,鴨谷体育館北西側,34.474027,135.4787267,
大阪府,堺市,2,南区鴨谷台3丁3,UR3-3棟西側遊歩道沿い,34.4708315,135.4807143,
大阪府,堺市,3,南区鴨谷台3丁3,UR3-4棟西側遊歩道沿い,34.4708315,135.4807143,
大阪府,堺市,4,南区鴨谷台1丁47-1,美木多中学校南門西側,34.4724508,135.4837229,
大阪府,堺市,5,南区鴨谷台1丁48-1,美木多小学校正門西側,34.4746278,135.4842827,
大阪府,堺市,6,南区鴨谷台1丁44,府営鴨谷台1丁住宅44-16棟南側,34.4760814,135.4836589,
大阪府,堺市,7,南区鴨谷台1丁44,府営鴨谷台1丁住宅44-1棟北側,34.4760814,135.4836589,
大阪府,堺市,8,南区鴨谷台3丁4,鴨谷公園東北側,34.4730612,135.4814275,
大阪府,堺市,1,堺区松屋大和川通4丁147-1,三宝水再生センター事務所前,34.600383,135.4626455,
大阪府,堺市,2,堺区松屋大和川通3丁140,三宝水再生センター南東側,34.601173,135.464325,緯度経度は怪しい
大阪府,堺市,3,堺区松屋大和川通3丁140-1,大和川ボンプ場南東,34.601173,135.464325,緯度経度は怪しい
大阪府,堺市,4,堺区緑町4丁157,三宝水再生センター西南側,34.5993804,135.4634154,
大阪府,堺市,5,堺区緑町4丁157,三宝水再生センター東南側,34.5993804,135.4634154,
大阪府,堺市,6,堺区緑町2丁121,みどり幼児園東側,34.5984208,135.4672016,
大阪府,堺市,7,堺区緑町3丁132-1,ニュー堺ゴルフセンター南側,34.5978051,135.4638045,
大阪府,堺市,1,堺区三宝町5丁287番地1,堺消防署三宝出張所北側,34.5942763,135.474022,
大阪府,堺市,2,堺区南島町1丁36-14,南島町リキュウバイ広場,34.5965149,135.4786531,
大阪府,堺市,3,堺区三宝町4丁236,三宝幼稚園,34.5920198,135.4749775,
大阪府,堺市,4,堺区鉄砲町49,七道駅西側緑地帯植込,34.5953726,135.4810087,
大阪府,堺市,5,堺区三宝町2丁136-35,三宝町むくのき公園南側,34.5922451,135.4788849,
大阪府,堺市,6,堺区三宝町5丁286,三宝小学校正門北側,34.593969,135.4721272,
大阪府,堺市,7,堺区三宝町5丁286,三宝小学校南側,34.593969,135.4721272,
大阪府,堺市,1,堺区神南辺町1丁1,月州中学校正門南側,34.5850591,135.4748899,
大阪府,堺市,2,堺区神南辺町1丁1,月州中学校正門西北側,34.5850591,135.4748899,
大阪府,堺市,3,堺区山本町1丁6,月州中学校第2運動場東側,34.58628059999999,135.4755286,
大阪府,堺市,4,堺区神南辺町2丁76,神南辺町とけいそう公園北側,34.585847,135.4714296,
大阪府,堺市,5,堺区神南辺町5丁152,三菱商事ライフサイエンス株式会社正門西側,34.588319,135.4668329,
大阪府,堺市,6,堺区山本町4丁86,三宝公園西側,34.5882511,135.4699218,
大阪府,堺市,7,堺区山本町4丁86,三宝公園東側,34.5882511,135.4699218,
大阪府,堺市,8,堺区海山町5丁195-1,三宝校区地域会館南側,34.5917676,135.4704739,
大阪府,堺市,1,堺区櫛屋町西1丁,ザビエル公園南側,34.5817468,135.4752671,
大阪府,堺市,2,堺区櫛屋町西1丁,ザビエル公園北側,34.5817468,135.4752671,
大阪府,堺市,3,堺区市之町西3丁1-14,市小学校西側,34.5800591,135.4712926,
大阪府,堺市,4,堺区市之町西3丁1-14,市小学校南側,34.5800591,135.4712926,
大阪府,堺市,5,堺区甲斐町西2-1,甲斐町公園北側,34.5783112,135.4720286,
大阪府,堺市,6,堺区戎島町3丁,堺駅バスターミナル南側,34.5822992,135.470115,
大阪府,堺市,7,堺区戎島町4丁53,堺市内川排水機場,34.581947,135.46756,緯度経度は怪しい
大阪府,堺市,8,堺区大浜北町4丁,大浜公園北東側,34.5810964,135.4620636,
大阪府,堺市,1,堺区七道東町132,七道並松東住宅南フェンス,34.5934793,135.4853646,
大阪府,堺市,2,堺区七道西町12-29,錦西こども園東側フェンス,34.592831,135.483154,緯度経度は怪しい
大阪府,堺市,3,堺区七道西町12-22,七道並松住宅4棟南西側,34.5940788,135.4836162,
大阪府,堺市,4,堺区七道西町12-7,七道西町公園東側,34.5936728,135.4834495,
大阪府,堺市,5,堺区七道西町12-7,七道西町公園南側,34.5936728,135.4834495,
大阪府,堺市,6,堺区七道西町12-35,七道西町すずらん公園西側,34.5936728,135.4834495,
大阪府,堺市,7,堺区七道東町198,七道東町やませみ公園南側,34.5940572,135.4860148,
大阪府,堺市,1,堺区錦之町西1丁2-32,錦西公園東側,34.5879265,135.4814504,
大阪府,堺市,2,堺区錦之町西2丁2-23,旧教育研究所北側,34.5884899,135.4803893,
大阪府,堺市,3,堺区錦之町西2丁2-34,教育支援教室スプリングポート ( コミュニティセンター) 東側,34.5881353,135.4807363,
大阪府,堺市,4,堺区神明町西2丁1-1,錦西小学校東側,34.5849377,135.4785563,
大阪府,堺市,5,堺区宿屋町西2丁30,宿屋浜公園北側,34.5846412,135.4773281,
大阪府,堺市,6,堺区材木町西3丁,宿屋橋東南側内川河川敷(左岸),34.5842427,135.475856,
大阪府,堺市,7,堺区神明町西3丁,神明橋東南側内川河川敷(左岸),34.586032,135.4773281,
大阪府,堺市,1,堺区北向陽町1丁1-20,北向陽町緩衝緑地,34.5816633,135.4833924,
大阪府,堺市,2,堺区材木町東3丁3,土居川公園(材木町東)妙国寺東側,34.5815437,135.4802726,
大阪府,堺市,3,堺区材木町東2丁1-36,材木町公園南側,34.5821508,135.4790212,
大阪府,堺市,4,堺区戎之町東2丁1-38,菅原神社北側駐車場,34.5794038,135.4766565,
大阪府,堺市,5,堺区櫛屋町東3丁2-1,殿馬場中学校西側,34.5792425,135.4795588,
大阪府,堺市,6,堺区櫛屋町東3丁2-1,殿馬場中学校南側,34.5792425,135.4795588,
大阪府,堺市,7,堺区櫛屋町東4丁3,土居川公園(櫛屋町東)テニスコート北側,34.5780551,135.481156,
大阪府,堺市,1,堺区神明町東3丁2,土居川公園(神明町東)阪神高速道路下支柱414西,34.5827615,135.4829227,
大阪府,堺市,2,堺区九間町東3丁1-17,錦小学校正門北側,34.584045,135.4828215,
大阪府,堺市,3,堺区九間町東3丁1-17,錦小学校東側,34.584045,135.4828215,
大阪府,堺市,4,堺区錦之町東2丁3,土居川公園(錦之町東)阪神高速道路下支柱403西,34.5860845,135.4841006,
大阪府,堺市,5,堺区綾之町東2丁1,土居川公園(綾之町東)阪神高速道路下支柱399西,34.587746,135.4846896,
大阪府,堺市,6,堺区桜之町東2丁1,土居川公園(桜之町東)阪神高速道路下支柱391西,34.5889939,135.4849841,
大阪府,堺市,7,堺区北旅篭町東2丁2,土居川公園(北旅篭町東)阪神高速道路下支柱387西,34.590065,135.485504,緯度経度は怪しい
大阪府,堺市,1,堺区砂道町1丁15-25,市営砂道住宅南側,34.5915727,135.4886826,
大阪府,堺市,2,堺区北庄町1丁7,北庄町わすれなぐさ公園西側,34.5831522,135.4849841,
大阪府,堺市,3,堺区砂道町2丁4-79,南海浅香山駅北西側遊び場,34.5899992,135.4906532,
大阪府,堺市,4,堺区北清水町3丁2,北清水住宅1号棟東側,34.5885856,135.4893739,
大阪府,堺市,5,堺区南清水町1丁2,南清水町緩衝緑地西側,34.58755980000001,135.4856467,
大阪府,堺市,6,堺区錦綾町1丁6-19,錦綾小学校正門東側,34.58569900000001,135.4862133,
大阪府,堺市,7,堺区錦綾町1丁5,錦綾町緩衝緑地西側,34.5863551,135.4846896,
大阪府,堺市,1,堺区今池町3丁3-16,(公財)浅香山病院北側,34.5859283,135.491532,
大阪府,堺市,2,堺区香ヶ丘町1丁11-1,関西大学堺キャンパス東北側,34.589865,135.4921444,
大阪府,堺市,3,堺区香ヶ丘町1丁11-1,関西大学堺キャンパス西正門横,34.589865,135.4921444,
大阪府,堺市,4,堺区今池町5丁4-43,浅香山小学校正門南側,34.585313,135.4947214,
大阪府,堺市,5,堺区今池町5丁4-43,浅香山小学校東北側,34.585313,135.4947214,
大阪府,堺市,6,堺区今池町6丁6,今池町まいづるそう公園東側,34.5854081,135.4961021,
大阪府,堺市,7,堺区浅香山町2丁9,浅香山公園西側,34.58637179999999,135.4995633,
大阪府,堺市,8,堺区浅香山町2丁5-29,浅香山住宅B棟第3広場南側,34.5845614,135.4988914,
大阪府,堺市,1,堺区今池町1丁1-15,市営今池住宅1棟東側,34.5820077,135.4890515,
大阪府,堺市,2,堺区浅香山町2丁1-7,浅香山住宅C棟第4広場北側,34.583028,135.4982999,
大阪府,堺市,3,堺区今池町4丁5,浅香山中学校第2グランド北側,34.58489369999999,135.4928622,
大阪府,堺市,4,堺区今池町5丁3-8,浅香山中学校南側,34.584493,135.4942612,
大阪府,堺市,5,堺区今池町5丁3-8,浅香山中学校西側,34.584493,135.4942612,
大阪府,堺市,6,堺区東雲西町3丁5,東雲西町たんぽぽ広場南側,34.5820389,135.4984586,
大阪府,堺市,7,堺区東雲西町3丁4-20,市営東雲住宅東側,34.581459,135.4989387,
大阪府,堺市,1,堺区東雲西町1丁13-1,東雲公園東側,34.5790102,135.4986795,
大阪府,堺市,2,堺区田出井町5,大阪刑務所官舎10棟東側,34.5778312,135.4930831,
大阪府,堺市,3,堺区北三国ヶ丘町5丁1番1号,三国丘小学校北側,34.5755444,135.4927432,
大阪府,堺市,4,堺区北三国ヶ丘町4丁1-12,三国丘幼稚園西側,34.575726,135.4913768,
大阪府,堺市,5,堺区田出井町5,大阪刑務所官舎1棟南側,34.5778312,135.4930831,
大阪府,堺市,6,堺区北田出井町2丁3,王子ヶ飢公園北側,34.5813304,135.4887389,
大阪府,堺市,7,堺区中三国ヶ丘町3丁3-2,旧天王貯水池南側,34.5739208,135.4892451,
大阪府,堺市,8,堺区北三国ヶ丘町5丁1番1号,三国丘小学校東側,34.5755444,135.4927432,
大阪府,堺市,1,堺区熊野町東5丁1-49,熊野小学校西側,34.5760102,135.4793939,
大阪府,堺市,2,堺区熊野町東5丁1-49,熊野小学校東側,34.5760102,135.4793939,
大阪府,堺市,3,堺区市之町東6丁3,土居川公園(市之町東) LS堺東第2ビル前,34.5748429,135.4794629,
大阪府,堺市,4,堺区大町東4丁3,土居川公園(大町東)堺イン東,34.57380759999999,135.4761504,
大阪府,堺市,5,堺区大町東4丁2-7,祥雲寺入口南側,34.5745371,135.4755886,
大阪府,堺市,6,堺区甲斐町東3丁1-1,甲斐町市街地住宅併設店舗東側,34.5758382,135.4744023,
大阪府,堺市,7,堺区宿院町2丁1,宿院町公園西側,34.5761799,135.470115,
大阪府,堺市,1,堺区北花田口町2丁1,花田口公園北側,34.5778894,135.4832172,
大阪府,堺市,2,堺区北瓦町1丁123,瓦町公園西側,34.5760287,135.4818921,
大阪府,堺市,3,堺区北瓦町1丁123,瓦町公園北側,34.5760287,135.4818921,
大阪府,堺市,4,堺区南瓦町2-1,総合福祉会館南側,34.5736203,135.48032,
大阪府,堺市,5,堺区南瓦町26-2,旧堺税務署敷地,34.5740889,135.4813032,
大阪府,堺市,6,堺区南瓦町3-1,市役所東側,34.5735081,135.4830157,
大阪府,堺市,7,堺区南瓦町3-1,市役所西側,34.5735081,135.4830157,
大阪府,堺市,1,堺区南三国ヶ丘町3丁2,三国丘高校プール北側,34.5733618,135.489107,
大阪府,堺市,2,堺区南三国ヶ丘町4丁3,南三国ヶ丘公園南側,34.5730605,135.4908741,
大阪府,堺市,3,堺区向陵西町1丁6,向陵西町みこしぎく公園南側,34.5708346,135.4908741,
大阪府,堺市,4,堺区向陵西町3丁6-15,三国丘中学校ブール西側,34.5705817,135.4942612,
大阪府,堺市,5,堺区向陵東町3丁208,向陵第二公園北側,34.5615994,135.5001524,
大阪府,堺市,6,堺区向陵東町3丁208,向陵第二公園南側,34.5615994,135.5001524,
大阪府,堺市,7,堺区向陵東町1丁10-1,堺市立堺高等学校北西側,34.5635121,135.4977003,
大阪府,堺市,8,堺区向陵東町1丁11,堺市立堺高等学校グラウンド北東側,34.562823,135.4970594,
大阪府,堺市,1,堺区榎元町3-11,榎小学校正門西,34.5712304,135.4871928,
大阪府,堺市,2,堺区榎元町3丁3,向泉寺公園西南,34.5712662,135.4871191,
大阪府,堺市,3,堺区榎元町3丁3,向泉寺公園西北,34.5712662,135.4871191,
大阪府,堺市,4,堺区榎元町2丁3-11,榎小学校通用門西側,34.5705631,135.486024,
大阪府,堺市,5,堺区中永山園39-1,大仙公園(中永山園),34.5684635,135.4860148,
大阪府,堺市,6,堺区南三国ヶ丘町2丁2-36,三国丘高校本館北側,34.5729615,135.4869581,
大阪府,堺市,7,堺区南三国ヶ丘町2丁2-36,三国丘高校グラウンド東側,34.5729615,135.4869581,
大阪府,堺市,1,堺区緑ヶ丘中町1丁2,(株)クボタ駐車場東側,34.5564491,135.471219,
大阪府,堺市,2,堺区緑ヶ丘南町2丁54-1,ハピネス神石こども園西側,34.554259,135.4711454,
大阪府,堺市,3,堺区石津町2丁6-1,神石小学校北門北側,34.5547564,135.4673276,
大阪府,堺市,4,堺区石津町2丁6-1,神石小学校正門東側,34.5547564,135.4673276,
大阪府,堺市,5,堺区石津町1丁2,石津公園西側,34.5571404,135.4634917,
大阪府,堺市,6,堺区神石市之町20,霞ヶ丘公園西側,34.5513071,135.4654786,
大阪府,堺市,7,堺区石津町3丁1253-6,石津川公園東側,34.5533018,135.464522,
大阪府,堺市,8,堺区緑ヶ丘中町4丁地先,大仙公園緑ヶ丘公園南端,34.5541492,135.4742367,
大阪府,堺市,1,堺区翁橋町2丁3,市営翁橋住宅東側緑地内,34.5715213,135.4808615,
大阪府,堺市,2,堺区一条通19-1,一条通公用車立体駐車場,34.5718305,135.4814786,
大阪府,堺市,3,堺区中安井町1丁1-11,ベルキンダー安井南側,34.5720225,135.4758254,
大阪府,堺市,4,堺区南安井町4丁1-5,安井小学校北側正門横,34.5698602,135.4785519,
大阪府,堺市,5,堺区南安井町4丁1-5,安井小学校南西側,34.5698602,135.4785519,
大阪府,堺市,6,堺区中安井町3丁4-1,大阪府泉北府税事務所西側,34.5710482,135.479116,
大阪府,堺市,7,堺区賑町4丁1-5,堺東グリーンハイツ南側,34.5684382,135.4777054,
大阪府,堺市,8,堺区南安井町3-1-1,ベルタウン西側,34.5705507,135.4768148,
大阪府,堺市,1,堺区中之町東4丁4,土居川公園(中之町東)白木屋釣具店前(南),34.5717478,135.4740895,
大阪府,堺市,2,堺区寺地町東4丁3,土居川公園(寺地町東)定久KK前,34.5710956,135.473427,
大阪府,堺市,3,堺区新在家町東4丁5,土居川公園(新在家町東)大江マーク刺繍前,34.5694097,135.4720286,
大阪府,堺市,4,堺区少林寺町東4丁1-1,少林寺小学校北東側,34.5707654,135.4712641,
大阪府,堺市,5,堺区少林寺町東4丁1-1,少林寺小学校南西側,34.5707654,135.4712641,
大阪府,堺市,6,堺区南旅篭町東3丁1,少林寺施設所(旧堺市立第三幼稚園) 北東側,34.5689626,135.4689375,
大阪府,堺市,7,堺区新在家町東1丁22,新在家町公園北西側,34.5714737,135.4683487,
大阪府,堺市,1,堺区中之町西2丁2,中之町公園西側,34.57571009999999,135.4687903,
大阪府,堺市,2,堺区少林寺町西1丁2-22,関西電力送配電(株)竜神変電所東側,34.5733118,135.4679605,
大阪府,堺市,3,堺区少林寺町西3丁2-2,英彰こども園第二駐車場,34.5747144,135.4660262,
大阪府,堺市,4,堺区新在家町西4丁5,英彰小学校南側,34.5746575,135.4640804,
大阪府,堺市,5,堺区寺地町西4丁1-1,得新橋北土居川河川敷(右岸),34.5754274,135.466051,
大阪府,堺市,6,堺区寺地町西4丁1-1,英彰小学校北側,34.5754274,135.466051,
大阪府,堺市,7,堺区大浜北町1丁10,大浜橋南土居川河川敷(左岸),34.5769748,135.4650371,
大阪府,堺市,8,堺区大浜北町2丁3,大浜北町ウェーブ公園西側,34.5780985,135.464154,
大阪府,堺市,1,堺区出島浜通1番1号,堺消防署前,34.5729253,135.4587144,
大阪府,堺市,2,堺区大浜南町3丁11-36,大浜南町公園北側,34.5746459,135.4595182,
大阪府,堺市,3,堺区大浜中町2丁6,大浜中町公園南側,34.5755501,135.4622408,
大阪府,堺市,4,堺区大浜南町2丁4-1,大浜中学校正門南側,34.573865,135.4618085,
大阪府,堺市,5,堺区大浜中町1丁2,大浜中町まつむしそう公園西側,34.5752213,135.4634917,
大阪府,堺市,6,堺区大浜南町1丁2,浜橋南土居川河川敷(左岸),34.5730924,135.4620752,
大阪府,堺市,7,堺区出島町2丁7,出島町があべら公園西側,34.5701476,135.4618863,
大阪府,堺市,8,堺区出島海岸通2丁7,出島町レールウェイ公園,34.5688481,135.458856,
大阪府,堺市,1,堺区西湊町1丁6,五貫屋橋東側植込,34.5703499,135.4637861,
大阪府,堺市,2,堺区西湊町6丁6-1,新湊小学校北東側,34.566662,135.4605667,
大阪府,堺市,3,堺区西湊町6丁6-1,新湊小学校東南側,34.566662,135.4605667,
大阪府,堺市,4,堺区西湊町4丁208-1,湊西ぼうさい公園北側,34.5676548,135.4624615,
大阪府,堺市,5,堺区楠町4丁4,楠町ストリーム公園西側,34.56504049999999,135.4575316,
大阪府,堺市,6,堺区柏木町4丁80-1,柏木町公園南側,34.56432059999999,135.4567222,
大阪府,堺市,7,堺区柏木町2丁1,柏木町おじぎそう公園東側,34.5640763,135.4595182,
大阪府,堺市,8,堺区柏木町1丁1,柏木町むつごろう公園東側,34.5628847,135.460254,
大阪府,堺市,1,堺区大仙西町1丁,大仙西町団地D棟東側植込,34.567023,135.4683487,
大阪府,堺市,2,堺区東湊町3丁185,堺市大仙西町団地駐車場植込,34.5661949,135.466726,
大阪府,堺市,3,堺区東湊町2丁119-4,元湊小学校東側,34.568031,135.4663433,
大阪府,堺市,4,堺区東湊町2丁119-4,元湊小学校西側,34.568031,135.4663433,
大阪府,堺市,5,堺区老松町1丁5-1,老松町公園西側,34.5619714,135.4643564,
大阪府,堺市,6,堺区老松町1丁5-1,老松町公園東側,34.5619714,135.4643564,
大阪府,堺市,7,堺区東湊町6丁353-3,東湊町れもん公園西側,34.5635496,135.4665433,
大阪府,堺市,1,堺区協和町2丁61-1,人権ふれあいセンター西側,34.5647405,135.4688537,
大阪府,堺市,2,堺区協和町2丁,協和町中公園東側,34.563399,135.4689375,
大阪府,堺市,3,堺区協和町3丁147-2,協和町第7公園西側,34.5628274,135.470115,
大阪府,堺市,4,堺区大仙西町4丁129,大仙西小学校南側,34.5650225,135.4724702,
大阪府,堺市,5,堺区大仙西町4丁129,大仙西小学校北側,34.5650225,135.4724702,
大阪府,堺市,6,堺区協和町4丁367-2,協和町第6公園西側,34.5628689,135.4713422,
大阪府,堺市,7,堺区協和町5丁481-2,共愛こども園正門北側,34.5611755,135.4727307,
大阪府,堺市,1,堺区一条通8,masked,34.56695759999999,135.4788003,
大阪府,堺市,2,堺区大仙中町12-1,堺工科高校北西側,34.5622401,135.4769615,
大阪府,堺市,3,堺区大仙中町,大仙公園平和塔入口東側,34.5614493,135.4798309,
大阪府,堺市,4,堺区大仙中町11-1,旭中学校東門北側,34.5618955,135.4788319,
大阪府,堺市,5,堺区旭ヶ丘中町4丁,大仙公園(平成の森西側),34.5574418,135.4777698,
大阪府,堺市,6,堺区緑ヶ丘北町4丁4,大仙公園緑ヶ丘公園,34.5549327,135.475488,
大阪府,堺市,7,堺区東上野芝町1丁71,府立堺支援学校通用門東側,34.5552817,135.4833645,
大阪府,堺市,8,堺区百舌鳥夕雲町2丁,大仙公園有料駐車場南東隅,34.5585898,135.4857203,
大阪府,堺市,1,東区白鷺町2丁1183-14,白鷺公園駐車場横フェンス,34.5459339,135.516357,
大阪府,堺市,2,東区白鷺町2丁1149番6,UR白鷺団地A-01棟東側駐車場北側,34.5459339,135.516357,
大阪府,堺市,3,東区白鷺町1-20-A-20棟,UR白鷺団地A-20号西側,34.54921900000001,135.5127473,
大阪府,堺市,4,東区白鷺町2-20,UR白鷺団地集会所南側,34.5459339,135.516357,
大阪府,堺市,5,東区白鷺町2-8-1,白鷺小学校東側,34.5455657,135.5152481,
大阪府,堺市,6,東区野尻町192,野尻町加古里池公園北側,34.5404777,135.5198435,
大阪府,堺市,7,東区野尻町261,大津池コーポ向側河川敷,34.5438982,135.5208376,
大阪府,堺市,8,東区野尻町221-4,初芝体育館庭球管理事務所南側,34.5405519,135.5226332,
大阪府,堺市,1,東区引野町1-110,八下西小学校西側,34.5506998,135.522945,
大阪府,堺市,2,東区引野町3-1,初芝グリーンハイツ北側,34.546274,135.5238883,
大阪府,堺市,3,東区引野町1-98,引野会館,34.5499522,135.5247623,
大阪府,堺市,4,東区引野町3-151-7,引野公民館,34.5472676,135.5263666,
大阪府,堺市,5,東区引野町3-151,南八下西公園北側,34.5466145,135.5278649,
大阪府,堺市,6,東区引野町3-151,南八下西公園南引野集会所北側,34.5466145,135.5278649,
大阪府,堺市,7,東区引野町1-27-5,八下西ふれあい広場,34.5476318,135.5241981,
大阪府,堺市,8,東区菩提町1-148,大饗野公園,34.5496542,135.5293247,
大阪府,堺市,1,東区菩提町5-228,南八下小学校南門西側,34.5471644,135.5382309,
大阪府,堺市,2,東区菩提町5-228,南八下小学校正門東側,34.5471644,135.5382309,
大阪府,堺市,3,東区菩提町3-191,元南八下幼稚園跡地正面フェンス,34.5488954,135.5387849,
大阪府,堺市,4,東区菩提町3-39,菩提町ナシ公園南側,34.5505226,135.5361225,
大阪府,堺市,5,東区菩提町2-58,南八下中学校南東側,34.5490488,135.532862,
大阪府,堺市,6,東区石原町4-40,八坂神社内北側寄り,34.5522924,135.5399373,
大阪府,堺市,7,東区八下町2-32,八下町会館,34.5564615,135.5425539,
大阪府,堺市,8,東区菩提町3,菩提町キュウリ緑地,34.5495569,135.5363995,
大阪府,堺市,1,東区日置荘西町2-1-4,初芝駅北西側(銀行前),34.5425075,135.526414,
大阪府,堺市,2,東区日置荘西町2,初芝駅前東第1駐輪場南側,34.5429395,135.5316828,
大阪府,堺市,3,東区日置荘西町3-11-1,前ヶ池北西側,34.5417215,135.5296321,
大阪府,堺市,4,東区日置荘西町3-13-1,前ヶ池公園北側,34.54159540000001,135.5307248,
大阪府,堺市,5,東区日置荘西町1-7-3,NTT初芝ビル北側フェンス,34.5448944,135.5249403,
大阪府,堺市,6,東区日置荘西町3丁27-14,萩原町会会館前,34.5408013,135.5337718,
大阪府,堺市,7,東区日置荘西町3-207-5,日置荘西町きぶねぎく公園北側,34.5401388,135.532862,
大阪府,堺市,1,東区日置荘西町7-1-1,出雲大社大阪分祠北側,34.5382968,135.52133,
大阪府,堺市,2,東区日置荘西町6-9-1,日置荘西小学校正門東側,34.5382949,135.5246272,
大阪府,堺市,3,東区日置荘西町6-9-1,日置荘西小学校東門北側,34.5382949,135.5246272,
大阪府,堺市,4,東区日置荘西町5丁,灰原池北側,34.5385171,135.5293247,
大阪府,堺市,5,東区日置荘西町6-547-2,日置荘西町べごにあ公園南側,34.5368954,135.5257877,
大阪府,堺市,6,東区日置荘田中町332-12,日置荘田中町あさつき公園南側,34.5360427,135.5274394,
大阪府,堺市,7,東区日置荘田中町332-1,日置荘田中町しばざくら公園西側,34.5360427,135.5274394,
大阪府,堺市,8,東区日置荘西町6-338-10,日置荘西町やまどり公園東側,34.5368954,135.5257877,
大阪府,堺市,1,東区日置荘北町1-70-188,東初芝公園南西側,34.543988,135.5363995,
大阪府,堺市,2,東区日置荘北町1-70-244,第二東初芝公園西側,34.543988,135.5363995,
大阪府,堺市,3,東区日置荘北町1-70-24,第三東初芝公園南西側,34.543988,135.5363995,
大阪府,堺市,4,東区日置荘北町22-3,日置荘北町児童公園東側,34.539383,135.537552,緯度経度は怪しい
大阪府,堺市,5,東区日置荘原寺町214,日置荘原寺町児童公園北側,34.5376938,135.538309,
大阪府,堺市,6,東区日置荘西町2-46-1,日置荘小学校南西側,34.5419645,135.534029,
大阪府,堺市,7,東区日置荘北町3-11-28,日置荘中学校西門西側,34.5412821,135.5355944,
大阪府,堺市,8,東区日置荘原寺町195-1,東区役所西側,34.5382268,135.5365571,
大阪府,堺市,1,東区草尾154-6,草尾つくし公園北側,34.5318098,135.5228744,
大阪府,堺市,2,東区中茶屋78,中茶屋おしろいばな公園西側,34.528558,135.5252535,
大阪府,堺市,3,東区大美野159,大美野動物病院南側畑,34.5308459,135.5244041,
大阪府,堺市,4,東区中茶屋22-32,中茶屋かんな公園東側,34.5267704,135.5274946,
大阪府,堺市,5,東区草尾31-2,下草尾公園,34.534958,135.520813,緯度経度は怪しい
大阪府,堺市,6,東区大美野135,登美丘西小学校北東側,34.5261181,135.5283023,
大阪府,堺市,7,東区大美野134-18,登美丘西こども園南側,34.5272747,135.5297227,
大阪府,堺市,8,東区高松408,登美丘中学校南西側,34.526474,135.531921,緯度経度は怪しい
大阪府,堺市,1,東区高松122,府営堺高松住宅 汚水場西側,34.52944110000001,135.5365561,
大阪府,堺市,2,東区高松122,府営堺高松住宅 14棟西側,34.52944110000001,135.5365561,
大阪府,堺市,3,東区高松3-12,赤銅池 (しゃくどういけ),34.5301066,135.5340227,
大阪府,堺市,4,東区高松229-2,高松まんりょう公園南側,34.527981,135.53801,緯度経度は怪しい
大阪府,堺市,5,東区丈六255-4,丈六公園南側,34.5279169,135.5387396,
大阪府,堺市,6,東区丈六224,登美丘東小学校北側,34.52704629999999,135.5397917,
大阪府,堺市,7,東区丈六224,登美丘東小学校南西側,34.52704629999999,135.5397917,
大阪府,堺市,8,東区北野田179-2,登美丘東こども園西側,34.5275503,135.5433092,
大阪府,堺市,1,東区大美野103,NTT大阪支店登美丘第1別館西側,34.5225972,135.5323387,
大阪府,堺市,2,東区大美野103,NTT大阪支店登美丘第1別館東側,34.5225972,135.5323387,
大阪府,堺市,3,東区大美野33-26,東消防署登美丘出張所横フェンス,34.523802,135.5388747,
大阪府,堺市,4,東区大美野,府道36号交差点南東側植え込み(心音向かい),34.528614,135.529312,緯度経度は怪しい
大阪府,堺市,5,東区南野田367-1,北野田駅前東第2駐輪場東側,34.5196011,135.5476034,
大阪府,堺市,6,東区大美野21,大美野幼稚園北側,34.5226626,135.5370167,
大阪府,堺市,7,南野田375-9,南野田すかしゆり公園,34.486408,135.490433,緯度経度は怪しい
大阪府,堺市,1,東区西野530,西野公園北側,34.5185875,135.5405269,
大阪府,堺市,2,東区西野380-8,西野おきなぐさ公園,34.51778,135.542587,緯度経度は怪しい
大阪府,堺市,3,東区西野320-38,西野ななみのき公園,34.512745,135.542389,緯度経度は怪しい
大阪府,堺市,4,東区西野83-1,西野地区会館北東側,34.5175021,135.5397586,
大阪府,堺市,5,東区西野51,登美丘高校北西側,34.5190501,135.5404927,
大阪府,堺市,6,東区草尾596,登美丘南小学校東側,34.5183416,135.5363811,
大阪府,堺市,7,東区草尾596,登美丘南小学校南側,34.5183416,135.5363811,
大阪府,堺市,8,東区草尾448,鶴道住宅2棟東側,34.5141832,135.5360627,
大阪府,堺市,1,東区北野田237-6,(元)光風園公園南側(野田西除川公園),34.528202,135.544586,緯度経度は怪しい
大阪府,堺市,2,東区北野田897-2,野田小学校北側,34.5253761,135.5520906,
大阪府,堺市,3,東区北野田897-2,野田小学校東側,34.5253761,135.5520906,
大阪府,堺市,4,東区南野田101-1,野田中学校北西側,34.5215564,135.550884,
大阪府,堺市,5,東区南野田101-1,野田中学校南東側,34.5215564,135.550884,
大阪府,堺市,6,東区南野田140,グリーンハウス向かい水路柵,34.5214829,135.548101,
大阪府,堺市,7,東区南野田335-1,南野田くるまゆり公園北側,34.5200256,135.5457986,
大阪府,堺市,8,東区南野田170-1,南野田のばら公園東側,34.5188086,135.5478564,
大阪府,堺市,1,美原区黒山167-9,美原区役所別館西側駐車場フェンス,34.5390727,135.560828,
大阪府,堺市,2,美原区黒山402-1先,川ロモータープール西側フェンス,34.538423,135.5592553,
大阪府,堺市,3,美原区黒山422-2先,masked,34.5363386,135.5584249,
大阪府,堺市,4,美原区黒山859,上黒山公民館東側植込,34.5365584,135.5557466,
大阪府,堺市,5,美原区黒山782-16,保健センター駐車場フェンス,34.5395565,135.5562692,
大阪府,堺市,6,美原区黒山204-2,下黒山ちびっこ公園フェンス,34.5447281,135.5603423,
大阪府,堺市,7,美原区黒山95先,masked,34.5443592,135.5613328,
大阪府,堺市,1,美原区阿弥31-1,上黒山バス停(墓地石柵),34.5358028,135.5550588,
大阪府,堺市,2,美原区阿弥55-2,阿弥公園植込,34.5343244,135.5548508,
大阪府,堺市,3,美原区阿弥288,masked,34.5324569,135.5546259,
大阪府,堺市,4,美原区阿弥377-1,堺市美原B&G海洋センター東入口駐車場フェンス,34.5313501,135.5515485,
大阪府,堺市,5,美原区阿弥93,黒山小学校東側フェンス,34.5355709,135.5562382,
大阪府,堺市,6,美原区阿弥13-1,大阪南農業協同組合黒山支店駐車場東側フェンス,34.5359139,135.5524322,
大阪府,堺市,7,美原区阿弥377-1,堺市美原B&G海洋センター北側フェンス,34.5313501,135.5515485,
大阪府,堺市,1,美原区南余部28先,masked,34.5358515,135.5502302,
大阪府,堺市,2,美原区南余部160-10,南余部総合会館南側植込,34.5341338,135.5469346,
大阪府,堺市,3,美原区南余部6-2先,スギ薬局前歩道鉄柵,34.535576,135.5467391,
大阪府,堺市,4,美原区南余部13-2付近,柳原橋東詰,34.5354192,135.5479381,
大阪府,堺市,5,美原区南余部297,南余部西公園フェンス,34.5326664,135.5436676,
大阪府,堺市,6,美原区南余部367番地6先,大阪狭山線(新) と南余部2号線交差部南側フェンス,34.5357165,135.5448206,
大阪府,堺市,7,美原区南余部107付近,南河原橋東詰,34.5329706,135.5476034,
大阪府,堺市,1,美原区北余部54-5先,エムワイ警備保障前フェンス,34.5375726,135.5448551,
大阪府,堺市,2,美原区北余部48-1,北余部区民会館前駐車場フェンス,34.5368385,135.5450794,
大阪府,堺市,3,美原区北余部69-3,北余部ちびっこ公園フェンス,34.5379685,135.5461199,
大阪府,堺市,4,美原区北余部452-4,北余部ふれあい会館西側フェンス,34.5368518,135.5476403,
大阪府,堺市,5,美原区北余部423-2付近,中橋付近,34.540924,135.546371,緯度経度は怪しい
大阪府,堺市,6,美原区北余部530-14付近,北小橋東詰,34.5385849,135.5488148,
大阪府,堺市,7,美原区北余部483-2先,西除川高橋北詰ガードレール,34.536865,135.548615,緯度経度は怪しい
大阪府,堺市,1,美原区太井151-1,太井ちびっこ公園南側フェンス,34.5470237,135.5514922,
大阪府,堺市,2,美原区太井306-2,masked,34.5465289,135.5510126,
大阪府,堺市,3,美原区太井293,太井総合会館北東側フェンス,34.5453483,135.5513061,
大阪府,堺市,4,美原区太井514-1先,家具団地前信号西側歩道鉄柵,34.5440445,135.5523217,
大阪府,堺市,5,美原区太井565-1先,太井中交差点(阪和道下)歩道鉄柵,34.542642,135.5524138,
大阪府,堺市,6,美原区太井655,双立西側フェンス,34.5410175,135.5539405,
大阪府,堺市,7,美原区太井684-23,2号公園西側フェンス,34.5392501,135.5539882,
大阪府,堺市,1,美原区平尾2535-1,平尾南ちびっこ公園北側フェンス,34.529263,135.572952,緯度経度は怪しい
大阪府,堺市,2,美原区平尾2470-1,上池公園南側フェンス,34.5302949,135.5718433,
大阪府,堺市,3,美原区平尾2788-2-甲,大阪南農業協同組合平尾支店駐車場フェンス,34.5324258,135.5698203,
大阪府,堺市,4,美原区平尾2817-1先,近鉄平尾バス停付近鉄柵,34.5270288,135.5735596,
大阪府,堺市,5,美原区平尾1895-1,平尾東公園北側フェンス,34.531246,135.573608,緯度経度は怪しい
大阪府,堺市,6,美原区平尾2627-1,平尾会館前ブロック塀,34.5324057,135.5713837,
大阪府,堺市,7,美原区平尾101-3先,masked,34.5346265,135.5701115,
大阪府,堺市,1,美原区菅生470-1,masked,34.5287132,135.5660183,
大阪府,堺市,2,美原区菅生1337,masked,34.5293345,135.5636676,
大阪府,堺市,3,美原区菅生378-1付近,菅生地区会館前,34.5277441,135.5637875,
大阪府,堺市,4,美原区菅生984-3,masked,34.5244096,135.5674712,
大阪府,堺市,5,美原区菅生1008-1,駕籠池公園入口付近植込,34.5226931,135.5670849,
大阪府,堺市,1,美原区小平尾173-2,masked,34.5361974,135.5724879,
大阪府,堺市,2,美原区小平尾233-4,小平尾公園北側フェンス,34.536938,135.570221,緯度経度は怪しい
大阪府,堺市,3,美原区小平尾835-10,東多治井公園西側フェンス,34.5407034,135.5751968,
大阪府,堺市,4,美原区小平尾864,ダスキン美原支店フェンス,34.5399153,135.5735678,
大阪府,堺市,5,美原区小平尾390,美原中学校南側フェンス,34.5388645,135.5629434,
大阪府,堺市,1,美原区大保81-1,寺池南側堤フェンス,34.549898,135.5565223,
大阪府,堺市,2,美原区大保143-7,大保緑地東側植込,34.553192,135.555878,緯度経度は怪しい
大阪府,堺市,3,美原区大保19,美原北小学校グラウンドフェンス,34.54924190000001,135.5609434,
大阪府,堺市,4,美原区真福寺150-21,masked,34.5502296,135.5587178,
大阪府,堺市,5,美原区真福寺285-8,奥ヶ池西側フェンス,34.5521287,135.5616026,
大阪府,堺市,6,美原区真福寺332-1,真福寺ちびっこ公園北側フェンス,34.5529146,135.5596395,
大阪府,堺市,7,美原区真福寺51-6,こども館みはらきた北側フェンス,34.5496369,135.5618702,
大阪府,堺市,1,美原区多治井183-2付近,水路路肩,34.5454684,135.562573,
大阪府,堺市,2,美原区多治井878-3,美原多治井運動広場南側フェンス,34.5432736,135.5683794,
大阪府,堺市,3,美原区多治井295,多治井公園予定地南側フェンス,34.5438446,135.5664792,
大阪府,堺市,4,美原区多治井513,masked,34.54616490000001,135.5701207,
大阪府,堺市,5,美原区多治井391-1,masked,34.5443754,135.5687219,
大阪府,堺市,6,美原区多治井232-115,多治井4号公園,34.5462956,135.5652427,
大阪府,堺市,7,美原区多治井232,多治井3号公園,34.5462956,135.5652427,
大阪府,堺市,1,美原区丹上523,masked,34.5561539,135.5631223,
大阪府,堺市,2,美原区丹上379-13,丹上公園フェンス,34.5553978,135.5622297,
大阪府,堺市,3,美原区丹上494-31,菅原神社東側ブロック塀,34.5547702,135.5629504,
大阪府,堺市,4,美原区丹上506,masked,34.554972,135.5635514,
大阪府,堺市,5,美原区丹上350-1先,グリーンコープ生協おおさか南側歩道フェンス,34.553238,135.5634984,
大阪府,堺市,1,美原区今井64-1,今井地区公民館前植込,34.5535085,135.5508973,
大阪府,堺市,2,美原区今井495-13,今井南橋北側広場フェンス,34.55164,135.548386,緯度経度は怪しい
大阪府,堺市,3,美原区今井492,masked,34.5527405,135.549041,
大阪府,堺市,4,美原区今井438,masked,34.555325,135.5492971,
大阪府,堺市,5,美原区今井389-1,美原病院駐車場ブロック塀北端,34.55608,135.549194,緯度経度は怪しい
大阪府,堺市,1,美原区小寺401-1,masked,34.5520081,135.543518,
大阪府,堺市,2,美原区小寺848-1,小寺第一会場前植込,34.5516877,135.5451686,
大阪府,堺市,3,美原区小寺825-1先,たなか園東側ガードレール,34.5511657,135.5455854,
大阪府,堺市,4,美原区小寺367-1,小寺公園北側植込,34.5522271,135.5446548,
大阪府,堺市,5,美原区小寺12-1,大池公園北側入口付近植込,34.5493835,135.5430295,
大阪府,堺市,1,美原区大饗145-1,前ヶ池西側堤フェンス,34.5424491,135.5444336,
大阪府,堺市,2,美原区大饗146-25先,masked,34.543432,135.5436376,
大阪府,堺市,3,美原区大饗160-1,こども館やかみフェンス,34.5452453,135.5438586,
大阪府,堺市,4,美原区大饗159-3,城岸寺公園南側植込,34.5447833,135.5443149,
大阪府,堺市,5,美原区大饗117-1,八上小学校北側信号付近ブロック塀,34.545631,135.540085,緯度経度は怪しい
大阪府,堺市,6,美原区大饗117-1,八上小学校東側フェンス,34.545631,135.540085,緯度経度は怪しい
大阪府,堺市,7,美原区菩提798-1,菩提ちびっこ公園北側フェンス,34.5480956,135.5406393,
大阪府,堺市,1,美原区北余部81-5先,余部西口バス停交差点付近歩道鉄柵,34.5379718,135.5441251,
大阪府,堺市,2,美原区北余部西1丁目1,3号棟東側ポンプ室南側植込,34.5407548,135.5436228,
大阪府,堺市,3,美原区北余部西1丁目1,府美原北余部住宅集会所南側植込,34.5407548,135.5436228,
大阪府,堺市,4,美原区北余部西4丁目2,9号棟西側植込,34.5392355,135.5427382,
大阪府,堺市,5,美原区北余部西2丁目1,北公園前フェンス,34.541294,135.542496,緯度経度は怪しい
大阪府,堺市,6,美原区北余部西4丁目2,7号棟北側植込,34.5392355,135.5427382,
大阪府,堺市,7,美原区北余部西1丁目1,4号棟北西側植込,34.5407548,135.5436228,
大阪府,堺市,1,美原区南余部西1丁目,2号棟西側植込,34.5345646,135.5431805,
大阪府,堺市,2,美原区南余部西1丁目,3号棟西側植込,34.5345646,135.5431805,
大阪府,堺市,3,美原区南余部西1丁目,2号棟東側植込,34.5345646,135.5431805,
大阪府,堺市,4,美原区南余部西1丁目,府営美原南余部住宅集会所東側植込,34.5345646,135.5431805,
大阪府,堺市,5,美原区南余部西3丁目,6号棟東側植込,34.5333872,135.5427382,
大阪府,堺市,1,美原区青南台1-2-3先,上善能池公園南側鉄柵,34.5147303,135.5690605,
大阪府,堺市,2,美原区青南台1-1-19先,木青会館前遊歩道フェンス,34.5156768,135.5698349,
大阪府,堺市,3,美原区青南台1-8-1,西地区児童公園(菅生2号公園) フェンス,34.5158833,135.5664055,
大阪府,堺市,4,美原区青南台2-3-1,木材団地ちびっこ公園南側フェンス,34.5137379,135.5702405,
大阪府,堺市,5,美原区青南台1-13,青南台5号公園南側植込,34.5153722,135.568028,
大阪府,堺市,6,美原区木材通4-688-322,木材団地中央通共同駐車場北側フェンス,34.5136547,135.5735596,
大阪府,堺市,7,美原区木材通1-2,ハウス美原南側フェンス,34.5201523,135.5722319,
大阪府,堺市,1,美原区さつき野西1-14,さざんか公園東側植込,34.5356228,135.5765101,
大阪府,堺市,2,美原区さつき野西1-11-10,かいづか公園南側植込,34.5363501,135.5762897,
大阪府,堺市,3,美原区さつき野西2-22-1,美原さつき野運動広場東側植込,34.5307328,135.5802801,
大阪府,堺市,4,美原区さつき野西2-6,さつき野中学校グラウンド北側フェンス,34.532518,135.5804598,
大阪府,堺市,5,美原区さつき野東1-6,さつき野小学校北側フェンス,34.5327516,135.5824115,
大阪府,堺市,6,美原区さつき野東2-11-19,つばき公園南側植込,34.5310627,135.5835919,
大阪府,堺市,7,美原区さつき野東3-12-20,ばら公園南側植込,34.5282381,135.5839032,
大阪府,堺市,1,西区鳳北町8丁450-43,鳳北町るりそう広場南側,34.5415584,135.4575338,
大阪府,堺市,2,西区鳳北町4丁,鳳北町公園北側,34.5385129,135.4571637,
大阪府,堺市,3,西区鳳北町7丁,鳳北町第1公園南西側,34.5401207,135.4618728,
大阪府,堺市,4,西区鳳北町1丁1-2,大鳥大社表門南側,34.5365937,135.4607946,
大阪府,堺市,5,西区鳳中町2丁22,鳳小学校北側,34.5344013,135.4583214,
大阪府,堺市,6,西区鳳中町2丁22,鳳小学校南東側,34.5344013,135.4583214,
大阪府,堺市,7,西区鳳中町7丁4,鳳中町第1公園北側,34.5367724,135.4551056,
大阪府,堺市,8,西区鳳中町9丁8,鳳中町第2公園西側,34.5319282,135.4552269,
大阪府,堺市,1,西区鳳西町1丁67-4,鳳西町第3公園東側,34.5307991,135.4537838,
大阪府,堺市,2,西区鳳西町1丁159-1,鳳中学校北西側,34.528763,135.4546067,
大阪府,堺市,3,西区鳳西町1丁,鳳西町第4公園北側,34.5275726,135.4533378,
大阪府,堺市,4,西区鳳西町1丁,鳳西町第4公園南側,34.5275726,135.4533378,
大阪府,堺市,5,西区鳳西町2丁14-9,鳳西町第2公園北側,34.5272881,135.448663,
大阪府,堺市,6,西区鳳西町2丁14-9,鳳西町第2公園南側,34.5272881,135.448663,
大阪府,堺市,7,西区鳳西町3丁10-5,鳳西町第1公園北側,34.5312352,135.4509353,
大阪府,堺市,1,西区鳳東町6丁623-3,鳳東町とんぼそう広場南側,34.536506,135.4662797,
大阪府,堺市,2,西区鳳東町6丁600,西区役所北側,34.5349727,135.4641138,
大阪府,堺市,3,西区鳳東町6丁600,西区役所西側,34.5349727,135.4641138,
大阪府,堺市,4,西区鳳東町5丁470,鳳前池公園東側,34.5335757,135.4610266,
大阪府,堺市,5,西区鳳東町1丁125,鳳駅出入り口東側,34.5320038,135.4589022,
大阪府,堺市,6,西区鳳東町7丁851,NTT西日本鳳第2ビル西側,34.5299669,135.4630134,
大阪府,堺市,7,西区鳳東町7丁768-58,鳳東町こなすび公園東側,34.5319257,135.4677876,
大阪府,堺市,1,西区鳳南町4丁444-1,西図書館東側,34.5276321,135.4615819,
大阪府,堺市,2,西区鳳南町5丁652-7,鳳南町かたくり広場東側,34.52803129999999,135.4679992,
大阪府,堺市,3,西区鳳南町3丁301-12,鳳南町ブルーベリー公園南側,34.5266198,135.4551405,
大阪府,堺市,4,西区鳳南町3丁197,鳳公園西側,34.526478,135.460114,緯度経度は怪しい
大阪府,堺市,5,西区鳳南町4丁444-1,鳳南町地域会館西側,34.5276321,135.4615819,
大阪府,堺市,6,西区鳳南町5丁,鳳南町ツボスミレ公園西側,34.5285305,135.4651107,
大阪府,堺市,7,西区鳳南町5丁533-16,鳳南町いぬごま広場北側,34.5288698,135.4645657,
大阪府,堺市,8,西区鳳南町3丁199-24,鳳南町ビッグバード公園南東側,34.5253297,135.4577035,
大阪府,堺市,1,西区上,上カボス公園西側,34.522996,135.4627559,
大阪府,堺市,2,西区上424-1,阪下正行氏所有駐車場,34.5258559,135.4630582,
大阪府,堺市,3,西区上303-23,笠池公園東側,34.5240086,135.4648353,
大阪府,堺市,4,西区上303-23,笠池公園南側,34.5240086,135.4648353,
大阪府,堺市,5,西区上,中ノ池南側,34.522996,135.4627559,
大阪府,堺市,6,西区上444-1,ライフ南側フェンス,34.5244232,135.4626823,
大阪府,堺市,7,西区上653-1,鳳胃腸病院東駐車場西側ブロック塀,34.5212737,135.458856,
大阪府,堺市,8,西区上544,アリオ鳳北東側歩道,34.5248977,135.4615145,
大阪府,堺市,1,西区草部183-1,福泉公民館南側,34.5156535,135.4668401,
大阪府,堺市,2,西区草部255-1,日下部ちびっこ老人憩いの広場西側,34.5200611,135.4659174,
大阪府,堺市,3,西区菱木2丁2186-1,福泉小学校北西側,34.5146111,135.4707056,
大阪府,堺市,4,西区菱木2丁2186-1,福泉小学校南西側,34.5146111,135.4707056,
大阪府,堺市,5,西区菱木3丁2501-1,菱木下の池公園西側,34.5097649,135.4739423,
大阪府,堺市,6,西区菱木2丁2318-1,シルバー人材センター福泉分室,34.5143527,135.4731133,
大阪府,堺市,7,西区太平寺8-1,太平寺公民館南側,34.5093357,135.481702,
大阪府,堺市,8,西区草部1925,草部かわがらす公園南西側,34.5163844,135.4814454,
大阪府,堺市,1,西区草部1800,UR津久野南団地1棟東側植込,34.5204623,135.4739475,
大阪府,堺市,2,西区草部1800,UR津久野南団地4棟北側植込,34.5204623,135.4739475,
大阪府,堺市,3,西区草部1800,UR津久野南団地6棟東側植込,34.5204623,135.4739475,
大阪府,堺市,4,西区草部1009,府営堺草部住宅3棟北側ロータリー,34.519945,135.4746985,
大阪府,堺市,5,西区草部1009,府営堺草部住宅5棟東側,34.519945,135.4746985,
大阪府,堺市,6,西区草部,万崎北公園南側,34.518543,135.471939,緯度経度は怪しい
大阪府,堺市,7,西区草部946-1,福泉東小学校東側,34.5192564,135.4731694,
大阪府,堺市,1,西区山田2丁94-7,福泉住宅つばめ公園西側,34.508663,135.464447,緯度経度は怪しい
大阪府,堺市,2,西区山田2丁55,福泉中学校北側,34.508663,135.464447,緯度経度は怪しい
大阪府,堺市,3,西区山田2丁55,福泉中学校南側,34.508663,135.464447,緯度経度は怪しい
大阪府,堺市,4,西区山田2丁94,市営福泉住宅北東側植込,34.508663,135.464447,緯度経度は怪しい
大阪府,堺市,5,西区山田2丁127-7,菱木おとぎりそう広場東側,34.5050412,135.4663635,
大阪府,堺市,6,西区山田1丁,山田タンジー公園西側,34.5132002,135.4668769,
大阪府,堺市,7,西区原田150,鳳高等学校南東側,34.5177157,135.4595961,
大阪府,堺市,1,西区浜寺石津町東1丁4-31,NTT西日本石津ビル東側,34.5607263,135.4616404,
大阪府,堺市,2,西区浜寺石津町東2丁11-5,masked,34.5575939,135.4610174,
大阪府,堺市,3,西区浜寺石津町中2丁1-47,プリマハム(株)堺営業所西側,34.5600848,135.4578802,
大阪府,堺市,4,西区浜寺石津町中2丁3-28,浜寺石津小学校北側,34.5595979,135.4552663,
大阪府,堺市,5,西区浜寺石津町中2丁3-28,浜寺石津小学校南側,34.5595979,135.4552663,
大阪府,堺市,6,西区浜寺石津町西2丁,浜寺石津町中ブリーチ公園西側,34.5610993,135.4530435,
大阪府,堺市,7,西区浜寺石津町西3丁3,石津川駅前広場緑地,34.5594454,135.4518664,
大阪府,堺市,8,西区浜寺石津町西4丁23,浜寺石津町中サンド公園北西側,34.5585629,135.4488134,
大阪府,堺市,9,西区浜寺石津町西4丁22,浜寺石津西公園北側,34.5588909,135.4489973,
大阪府,堺市,1,西区浜寺石津町東3丁11,浜寺石津東第2公園北側,34.5557159,135.4606955,
大阪府,堺市,2,西区浜寺石津町東3丁10-5,市営石津住宅北側,34.5552815,135.4595881,
大阪府,堺市,3,西区浜寺石津町東3丁4-16,浜寺石津町東3丁4-16角地東側,34.55602200000001,135.4568418,
大阪府,堺市,4,西区浜寺石津町東4丁2-36,浜寺石津スポーツ広場西側,34.5554736,135.4557005,
大阪府,堺市,5,西区浜寺石津町中4丁12-7,石津太神社南側,34.5569957,135.453439,
大阪府,堺市,6,西区浜寺石津町中5丁11,市営中石津住宅北側駐車場,34.55503059999999,135.4517928,
大阪府,堺市,7,西区浜寺石津町中5丁14,中石津住宅せせらぎ広場東側,34.5540645,135.4512043,
大阪府,堺市,1,西区浜寺船尾町東3丁441,浜寺船尾第4公園西側,34.5479263,135.4606955,
大阪府,堺市,2,西区浜寺船尾町西5丁60,浜寺中学校南西側,34.5434168,135.4580438,
大阪府,堺市,3,西区浜寺船尾町東1丁101,浜寺東小学校北側,34.5509816,135.4587578,
大阪府,堺市,4,西区浜寺船尾町東1丁101,浜寺東小学校南側,34.5509816,135.4587578,
大阪府,堺市,5,西区浜寺船尾町西1丁,浜寺船尾第3公園北側,34.5507693,135.4559865,
大阪府,堺市,6,西区浜寺船尾町西5丁570-4,浜寺船尾町くりんそう公園東側,34.545937,135.4569955,
大阪府,堺市,7,西区浜寺船尾町西4丁485,府営堺浜寺住宅4号館北側,34.54571060000001,135.4553085,
大阪府,堺市,8,西区浜寺船尾町西4丁499,府営堺浜寺住宅2号館北側,34.5453269,135.4543026,
大阪府,堺市,1,西区浜寺諏訪森町西2丁114,諏訪の森団地西側,34.55162079999999,135.4466222,
大阪府,堺市,2,西区浜寺諏訪森町西2丁114,諏訪の森団地東側,34.55162079999999,135.4466222,
大阪府,堺市,3,西区浜寺諏訪森町東3丁343,浜寺諏訪森町東公園北側,34.5463465,135.4502304,
大阪府,堺市,4,西区浜寺諏訪森町西2丁105番2,諏訪ノ森駅前西第2自転車駐輪場,34.5502196,135.4480226,
大阪府,堺市,5,西区浜寺諏訪森町東2丁163,浜寺小学校北側,34.5494465,135.4516463,
大阪府,堺市,6,西区浜寺諏訪森町東2丁163,浜寺小学校東側,34.5494465,135.4516463,
大阪府,堺市,7,西区浜寺諏訪森町東3丁,白井歯科南側緑地,34.5468076,135.4503951,
大阪府,堺市,8,西区浜寺諏訪森町西3丁281-2,浜寺諏訪森町西はまなす広場西側,34.547424,135.4469716,
大阪府,堺市,1,西区浜寺昭和町1丁82-3付近,市営浜寺団地駐車場北側,34.544892,135.4486111,
大阪府,堺市,2,西区浜寺昭和町1丁13,道路予定地北側,34.5460541,135.4489169,
大阪府,堺市,3,西区浜寺昭和町2丁282,浜寺昭和小学校西側,34.5422526,135.4485146,
大阪府,堺市,4,西区浜寺昭和町2丁282,浜寺昭和小学校東側,34.5422526,135.4485146,
大阪府,堺市,5,西区浜寺元町3丁238,北浜公園東側,34.541785,135.4515721,
大阪府,堺市,6,西区浜寺南町2丁281,浜寺元町自治会第2駐車場東側,34.5381665,135.4506094,
大阪府,堺市,7,西区浜寺南町3丁12,浜寺南町第1公園西側,34.5359414,135.4525743,
大阪府,堺市,8,西区浜寺南町1丁55,浜寺南中学校北東側,34.5364096,135.4477467,
大阪府,堺市,1,西区津久野町1丁17-9,URサンヴァリエ津久野9号棟西側,34.539328,135.472714,
大阪府,堺市,2,西区津久野町1丁17-8,URサンヴァリエ津久野8号棟東側,34.54004,135.4733332,
大阪府,堺市,3,西区津久野町1丁15-10,URサンヴァリエ津久野1号棟南西側,34.5402316,135.4711014,
大阪府,堺市,4,西区津久野町1丁17-10,URサンヴァリエ津久野10号棟北西側,34.5399907,135.4724087,
大阪府,堺市,5,西区津久野町1丁16-16,URサンヴァリエ津久野5号棟北側,34.5407193,135.4728131,
大阪府,堺市,6,西区津久野町1丁16-16,URサンヴァリエ津久野5号棟南東側,34.5407193,135.4728131,
大阪府,堺市,7,西区津久野町1丁17-9,URサンヴァリエ津久野9号棟南側,34.539328,135.472714,
大阪府,堺市,1,西区津久野町3丁7-17,津久野幼稚園北側,34.5467453,135.4713488,
大阪府,堺市,2,西区津久野町3丁14-11,津久野小学校北側,34.54503930000001,135.4707756,
大阪府,堺市,3,西区津久野町3丁14-11,津久野小学校南側,34.54503930000001,135.4707756,
大阪府,堺市,4,西区下田町16-22,下田町ちごゆり広場北西側,34.5442653,135.4660858,
大阪府,堺市,5,西区津久野町3丁30,津久野駅西側緑地,34.5426473,135.4681279,
大阪府,堺市,6,西区津久野町2丁11-29,津久野公園南側,34.5411748,135.470978,
大阪府,堺市,7,西区神野町2丁16-1,津久野中学校北側,34.5414941,135.4748704,
大阪府,堺市,8,西区神野町2丁16-1,津久野中学校南側,34.5414941,135.4748704,
大阪府,堺市,1,西区上野芝向ヶ丘町1丁21-3,上野芝向ヶ丘町きりんそう公園北側,34.547819,135.4835646,
大阪府,堺市,2,西区上野芝向ヶ丘町6丁9,市営上野芝団地3号棟東側,34.54062010000001,135.4820393,
大阪府,堺市,3,西区上野芝向ヶ丘町6丁9-1,市営上野芝団地1号棟西側,34.5401934,135.481691,
大阪府,堺市,4,西区上野芝向ヶ丘町5丁25-1,上野芝中学校東側,34.5416976,135.4804658,
大阪府,堺市,5,西区上野芝向ヶ丘町5丁25-1,上野芝中学校南側,34.5416976,135.4804658,
大阪府,堺市,6,西区上野芝向ヶ丘町6丁7-1,向丘小学校南東側,34.5402296,135.4783679,
大阪府,堺市,7,西区上野芝向ヶ丘町4丁2-67,向ヶ丘町自治会館北側,34.5451695,135.4787957,
大阪府,堺市,8,西区上野芝向ヶ丘町3丁14,守屋池上池北側道路,34.5443269,135.4802041,
大阪府,堺市,1,西区上野芝町3丁1-1,上野芝駅東出口北側,34.5498394,135.478529,
大阪府,堺市,2,西区上野芝町3丁1-1,上野芝駅西出口南側,34.5498394,135.478529,
大阪府,堺市,3,西区上野芝町4丁15-5,上野芝町会館東側,34.5503014,135.476593,
大阪府,堺市,4,西区上野芝町8丁4,霞ヶ丘公園東側植込,34.5509587,135.4682015,
大阪府,堺市,5,西区上野芝町8丁18-21,上野芝町つがざくら広場前道路,34.5490021,135.4674271,
大阪府,堺市,6,西区上野芝町4丁12-35,上野芝町かのこゆり広場西側,34.5505666,135.4735299,
大阪府,堺市,7,西区上野芝町4丁25-18,上野芝町公園南側,34.55014990000001,135.4747931,
大阪府,堺市,8,西区上野芝町5丁3,上野芝町トマト公園北側,34.5485128,135.4743839,
大阪府,堺市,1,西区家原寺町1丁7-1,家原寺小学校北側,34.5376021,135.4756662,
大阪府,堺市,2,西区平岡町283,平岡公園北側,34.5351508,135.4757548,
大阪府,堺市,3,西区堀上緑町1丁6-1,平岡小学校西側,34.5345917,135.4767232,
大阪府,堺市,4,西区堀上緑町1丁7-51,UR向ヶ丘第二団地51号棟西側,34.533389,135.4762572,
大阪府,堺市,5,西区堀上緑町1丁7-61,UR向ヶ丘第二団地61号棟南東側,34.5330292,135.4777725,
大阪府,堺市,6,西区堀上緑町3丁4,八田寺公園南側,34.5311655,135.4814504,
大阪府,堺市,7,西区堀上緑町2丁10,堀上公園南側,34.5341074,135.4799781,
大阪府,堺市,8,西区堀上緑町2丁10,堀上公園北側,34.5341074,135.4799781,
大阪府,堺市,1,西区北条町2丁2-43,北条町ステビア広場西側,34.5459991,135.4846436,
大阪府,堺市,2,西区北条町1丁2-31,大仙病院西側南寄りフェンス,34.5480025,135.4844094,
大阪府,堺市,3,西区北条町1丁30-61,常盤浜寺線沿い駐車場,34.5440962,135.4876299,
大阪府,堺市,4,西区北条町1丁37-11,北条町自治会館東側,34.5422311,135.4863626,
大阪府,堺市,5,西区北条町1丁24,北條橋西側道路,34.5444666,135.4875655,
大阪府,堺市,6,西区北条町2丁21-8,マツゲン北条店西側駐車場フェンス,34.5443734,135.4847421,
大阪府,堺市,7,西区北条町2丁15,北条町このはずく公園西側植込,34.543968,135.484027,
