prefecture,city,number,address,name,lat,long,note
大阪府,大阪市,1,中央区本町4丁目7番11号,愛日会館 北寄り窓枠,34.684467,135.49826,
大阪府,大阪市,2,中央区北久宝寺町3丁目1番,久宝公園 南側植栽内,34.680183,135.502975,
大阪府,大阪市,3,中央区南本町4丁目2番,船場中央３交差点北西角 南側道路植樹帯,34.682476,135.500107,
大阪府,大阪市,4,中央区南本町3丁目2番,船場センタービル6・7号 館地下1階連絡口（唐物町）手摺,34.68248,135.503036,
大阪府,大阪市,5,中央区久太郎町3丁目1番29号,本町武田ビル 北側道路植樹帯,34.681519,135.503067,
大阪府,大阪市,6,中央区久太郎町1丁目2番27号,中央区役所 北側掲示板横植栽内,34.681446,135.509827,
大阪府,大阪市,7,中央区久太郎町1丁目2番27号,中央区役所 西側植栽内,34.681446,135.509827,
大阪府,大阪市,8,中央区本町1丁目8番,本町1交差点北東角 道路植樹帯,34.683642,135.50659,
大阪府,大阪市,9,中央区南本町1丁目6番20号,三陽ビル南側駐車場 南側金網,34.682644,135.50769,
大阪府,大阪市,10,中央区船場中央1丁目1番,船場センタービル東駐車場 西側管理棟前金網,34.682014,135.509964,
大阪府,大阪市,11,中央区今橋1丁目5番7号,開平小学校 南側消火栓西隣鉄柵,34.6903,135.508148,
大阪府,大阪市,12,中央区今橋1丁目5番7号,開平小学校 西側校門北隣鉄柵,34.6903,135.508148,
大阪府,大阪市,13,中央区北浜2丁目2番,北浜1交差点南西角 道路植樹帯,34.69157,135.506134,
大阪府,大阪市,14,中央区糸屋町2丁目3番14号,中大江小学校 北側東寄り鉄柵,34.6856,135.512421,
大阪府,大阪市,15,中央区島町2丁目3番11号,関西電力㈱天満橋変電所 北東出口西側鉄柵,34.6889,135.512543,
大阪府,大阪市,16,中央区島町1丁目5番,北大江公園 南側中央西寄り植栽内,34.688942,135.515594,
大阪府,大阪市,17,中央区糸屋町2丁目2番,中大江公園 北側集会所西側鉄柵,34.685265,135.513809,
大阪府,大阪市,18,中央区南新町2丁目1番,中大江公園 東側南寄りコンクリート擁護壁鉄柵,34.684822,135.51384,
大阪府,大阪市,19,中央区本町橋2番,内本町2交差点北西角 道路植樹帯,34.684368,135.510971,
大阪府,大阪市,20,中央区船越町1丁目1番,中央高校運動場 南側東寄り鉄柵,34.687569,135.516342,
大阪府,大阪市,21,中央区大手通3丁目1番,松屋町筋大手通2交差点 北西角道路植樹帯,34.686462,135.510895,
大阪府,大阪市,22,中央区大手前3丁目1番88号,大阪府庁分館6号館 北側西寄り植樹帯,34.685631,135.519943,
大阪府,大阪市,23,中央区上町1丁目19番31号,中央聴覚支援学校 西側校門北隣鉄柵,34.677368,135.521896,
大阪府,大阪市,24,中央区内久宝寺町2丁目5番,銅座公園 北側スロープ鉄柵,34.678284,135.518585,
大阪府,大阪市,25,中央区法円坂2丁目1番14号,国立病院機構大阪医療センター 東側正門南側,34.679611,135.52095,
大阪府,大阪市,26,中央区法円坂1丁目5番,もと法円坂住宅32号棟 北側道路植樹帯,34.679989,135.524475,
大阪府,大阪市,27,中央区上町1丁目19番1号,広小路公園 東側フェンス,34.677895,135.523758,
大阪府,大阪市,28,中央区農人橋1丁目3番3号,南大江小学校 西側校門南側鉄柵,34.680317,135.51442,
大阪府,大阪市,29,中央区和泉町1丁目1番,谷四錦郷公園 北側植裁内東寄り,34.679829,135.516205,
大阪府,大阪市,30,中央区粉川町6番,南大江公園 西側植栽内北寄り,34.678249,135.513474,
大阪府,大阪市,31,中央区農人橋3丁目2番,農人橋 東詰南側東寄り金網,34.680889,135.511093,
大阪府,大阪市,32,中央区農人橋1丁目4番28号,関西電力（株）農人橋変電所 北側道路植樹帯,34.681217,135.51474,
大阪府,大阪市,33,中央区玉造2丁目3番43号,玉造小学校 北側校門西隣鉄柵,34.678719,135.5298,
大阪府,大阪市,34,中央区森ノ宮中央1丁目20番,城南公園 南側西寄りフェンス,34.679157,135.532043,
大阪府,大阪市,35,中央区玉造1丁目9番10号,玉造幼稚園 西側通用口南寄り鉄柵,34.675663,135.530624,
大阪府,大阪市,36,中央区玉造2丁目20番,玉造公園 東側北寄りフェンス,34.676849,135.528809,
大阪府,大阪市,37,中央区玉造2丁目26番54号,大阪女学院 南側校門東寄り金網,34.676949,135.526535,
大阪府,大阪市,38,中央区上町1丁目2番,寺山公園 東側植栽内,34.677242,135.526138,
大阪府,大阪市,39,中央区玉造2丁目24番,越中公園 北側東寄りフェンス,34.678864,135.527237,
大阪府,大阪市,40,中央区谷町6丁目5番,桃園公園北側 桃園会館植栽内,34.674683,135.515961,
大阪府,大阪市,41,中央区谷町6丁目17番32号,もと南高等学校 西側消火栓北隣鉄柵,34.674255,135.512527,
大阪府,大阪市,42,中央区谷町7丁目4番15号,大阪府社会福祉会館 西側鉄柵,34.671818,135.515686,
大阪府,大阪市,43,中央区松屋町3番,松屋町3番水上クリニック北側 高津原橋下道路植樹帯,34.674725,135.512177,
大阪府,大阪市,44,中央区安堂寺町2丁目3番,マストタワー安堂寺 南側道路植樹帯,34.676285,135.514679,
大阪府,大阪市,45,中央区上本町西3丁目2番30号,上町中学校 西側校門北側植樹帯,34.672131,135.518204,
大阪府,大阪市,46,中央区上本町西2丁目5番25号,大阪市中央区社会福祉協議会 南側植栽内広報板北隣,34.67334,135.518585,
大阪府,大阪市,47,中央区上本町西4丁目1番,東平北公園 南側植栽内,34.670273,135.519516,
大阪府,大阪市,48,中央区上本町西5丁目1番12号,水道局南部水道センターサテライト 南側鉄柵,34.668133,135.51947,
大阪府,大阪市,49,中央区谷町9丁目5番6号,大山寺 東側アルミ堺中央付近,34.669037,135.515991,
大阪府,大阪市,50,中央区瓦屋町２丁目８番４号,中央小学校 東側校門南側鉄柵,34.671165,135.513275,
大阪府,大阪市,51,中央区瓦屋町２丁目８番４号,中央小学校 西側校門南側鉄柵,34.671165,135.513275,
大阪府,大阪市,52,中央区高津１丁目５番１１号,関西電力（株）高津変電所 北側東寄り鉄柵,34.667969,135.512527,
大阪府,大阪市,53,中央区瓦屋町１丁目３番１０号,ＮＴＴ大阪南支店高津ビル 南側広報板西側鉄柵,34.671925,135.514145,
大阪府,大阪市,54,中央区南船場３丁目７番,南幼稚園グラウンド 南側鉄柵,34.677166,135.501923,
大阪府,大阪市,55,中央区南船場１丁目１０番８号,グランドメゾン南船場ビル 南側道路植樹帯,34.675362,135.509033,
大阪府,大阪市,56,中央区南船場１丁目９番,もと南高等学校運動場 西側植栽内記念碑付近,34.676373,135.508774,
大阪府,大阪市,57,中央区南船場２丁目４番,長堀橋交差点北西角 道路植樹帯,34.675644,135.505829,
大阪府,大阪市,58,中央区東心斎橋１丁目１４番２９号,南小学校 北側正門西側鉄柵,34.673519,135.503876,
大阪府,大阪市,59,中央区西心斎橋２丁目９番１５号,御津会館 南側植樹帯,34.67038,135.498596,
大阪府,大阪市,60,中央区宗右衛門町４番,相合橋北詰 西側植樹内,34.669273,135.503769,
大阪府,大阪市,61,中央区心斎橋筋１丁目１番,クリスタ長堀南９号出口 西側道路植樹帯西寄り,34.674934,135.501877,
大阪府,大阪市,62,中央区西心斎橋１丁目１番,新橋交差点南西角 道路植樹帯,34.674931,135.499924,
大阪府,大阪市,63,中央区島之内２丁目１２番３１号,市立中央会館 北側掲示板付近,34.671837,135.50795,
大阪府,大阪市,64,中央区島之内１丁目１７番,長堀橋東交差点南西角 道路植樹帯,34.674953,135.507782,
大阪府,大阪市,65,中央区島之内１丁目１０番２３号,南中学校 東側通用口北側金網,34.674187,135.508316,
大阪府,大阪市,66,中央区島之内２丁目５番,道仁公園 西側植栽内中央付近,34.670612,135.509705,
大阪府,大阪市,67,中央区高津３丁目４番２１号,高津小学校 西側正門南隣鉄柵,34.665859,135.510513,
大阪府,大阪市,68,中央区高津１丁目９番,インテリジェンスビル 西側道路植樹帯,34.667252,135.511581,
大阪府,大阪市,69,中央区日本橋１丁目１７番,日本橋駅１０号出口 北側道路植樹帯,34.66674,135.506247,
大阪府,大阪市,70,中央区日本橋２丁目１２番,黒門公園 東側植栽内,34.66412,135.507702,
大阪府,大阪市,71,中央区日本橋１丁目６番,地下鉄日本橋駅７号出口前 道路植樹帯,34.66723,135.507747,
大阪府,大阪市,72,中央区難波千日前５番,難波千日前公園 北側鉄柵及び植栽内,34.663952,135.5047,
大阪府,大阪市,73,中央区難波２丁目２番,御堂筋難波交差点北西角 道路植樹帯,34.667591,135.499847,
大阪府,大阪市,74,中央区難波３丁目８番,なんばマルイ西側 バス停前道路植樹帯,34.665157,135.500809,
大阪府,大阪市,75,中央区千日前２丁目１０番,ビックカメラ北側 道路植樹帯駐輪場利用案内付近,34.666683,135.502625,
大阪府,大阪市,76,住之江区浜口東2丁目3番,細江川橋東側,34.610165,135.488083,
大阪府,大阪市,77,住之江区浜口東3丁目5番,保健福祉センター分館南側,34.608685,135.48587,
大阪府,大阪市,78,住之江区住之江1丁目4番29号,安立小学校正門横,34.604034,135.487457,
大阪府,大阪市,79,住之江区住之江1丁目4番29号,安立小学校南門横,34.604034,135.487457,
大阪府,大阪市,80,住之江区西住之江1丁目3番,浜口東公園東側,34.606716,135.485886,
大阪府,大阪市,81,住之江区西住之江2丁目15番,西住之江中公園南側,34.602253,135.485001,
大阪府,大阪市,82,住之江区住之江3丁目6番,嶋治駐車場南側,34.600304,135.485764,
大阪府,大阪市,83,住之江区住之江3丁目11番,市営住之江住宅1号棟南側,34.599167,135.485352,
大阪府,大阪市,84,住之江区西住之江4丁目2番,市営西住之江住宅7号棟北側,34.599136,135.482986,
大阪府,大阪市,85,住之江区西住之江3丁目9番,市営西住之江住宅集会場南側,34.600391,135.483292,
大阪府,大阪市,86,住之江区北島2丁目9番22号,敷津浦小学校正門横,34.60215,135.477371,
大阪府,大阪市,87,住之江区御崎7丁目12番55号,住吉商業高等学校西側,34.604298,135.480133,
大阪府,大阪市,88,住之江区御崎8丁目1番6号,住之江中学校北側,34.605759,135.479477,
大阪府,大阪市,89,住之江区御崎8丁目1番6号,住之江中学校南側,34.605759,135.479477,
大阪府,大阪市,90,住之江区南加賀屋3丁目120号,住之江西会館西側,34.605579,135.474396,
大阪府,大阪市,91,住之江区南加賀屋4丁目8番,加賀屋緑地東側,34.602413,135.475021,
大阪府,大阪市,92,住之江区浜口西2丁目2番,新橋西側（鉄柵）,34.610516,135.485703,
大阪府,大阪市,93,住之江区浜口西2丁目6番,浜口西公園北側,34.610756,135.484268,
大阪府,大阪市,94,住之江区御崎2丁目2番,真住中学校南側,34.61314,135.477966,
大阪府,大阪市,95,住之江区御崎3丁目1番17号,住之江区役所正面左側,34.609188,135.48288,
大阪府,大阪市,96,住之江区御崎4丁目6番43号,住之江西小学校正門前（鉄柵）,34.610321,135.479813,
大阪府,大阪市,97,住之江区御崎4丁目6番43号,住之江西小学校東門横,34.610321,135.479813,
大阪府,大阪市,98,住之江区御崎6丁目14番,コーポ御崎横　畑の北側,34.606956,135.477997,
大阪府,大阪市,99,住之江区浜口西3丁目4番,浜口公園南東角付近,34.60836,135.484146,
大阪府,大阪市,100,住之江区御崎5丁目7番18号,清江小学校東側,34.607693,135.480576,
大阪府,大阪市,101,住之江区御崎5丁目7番18号,清江小学校南側,34.607693,135.480576,
大阪府,大阪市,102,住之江区新北島2丁目3番,新北島南公園西側,34.603756,135.4711,
大阪府,大阪市,103,住之江区新北島3丁目5番,新北島東公園北側,34.606945,135.469757,
大阪府,大阪市,104,住之江区新北島4丁目1番,指名管理者公社株式会社記載新北島住宅緑地工業組合,34.60503,135.468323,
大阪府,大阪市,105,住之江区新北島6丁目2番56号,新北島小学校南門横,34.605927,135.463699,
大阪府,大阪市,106,住之江区新北島6丁目2番56号,新北島小学校正門横,34.605927,135.463699,
大阪府,大阪市,107,住之江区新北島7丁目3番,新北島西公園北側,34.609272,135.460617,
大阪府,大阪市,108,住之江区泉1丁目1番82号,ゴルフスミノ工事車場会議,34.609573,135.469681,
大阪府,大阪市,109,住之江区平林南2丁目2番,市営平林南住宅南側,34.609638,135.458588,
大阪府,大阪市,110,住之江区平林南2丁目2番,市営平林南住宅北側,34.609638,135.458588,
大阪府,大阪市,111,住之江区平林南2丁目3番,平林小学校南側,34.608852,135.458145,
大阪府,大阪市,112,住之江区平林南2丁目6番,平林南公園北側,34.608768,135.4561,
大阪府,大阪市,113,住之江区平林南2丁目7番37号,ヤマザキ製パン株式会社住之江工場製菓製菓課,34.610676,135.457504,
大阪府,大阪市,114,住之江区平林南2丁目6番48号,平林小学校正門横,34.609131,135.45546,
大阪府,大阪市,115,住之江区南港東1丁目6番,都市再生機構南港団地集会所前,34.613007,135.444366,
大阪府,大阪市,116,住之江区南港東1丁目6番,都市再生機構南港団地棟1号棟北側,34.613007,135.444366,
大阪府,大阪市,117,住之江区南港東1丁目6番,都市再生機構南港団地棟2号棟北側,34.613007,135.444366,
大阪府,大阪市,118,住之江区南港東1丁目6番,都市再生機構南港団地棟3号棟東側,34.613007,135.444366,
大阪府,大阪市,119,住之江区南港東1丁目6番,都市再生機構南港団地棟4号棟北側,34.613007,135.444366,
大阪府,大阪市,120,住之江区南港東1丁目7番,市営南港住宅北側,34.611771,135.446167,
大阪府,大阪市,121,住之江区南港東1丁目7番,南港南住宅会会会会住宅2号棟東側,34.611771,135.446167,
大阪府,大阪市,122,住之江区南港中2丁目1番,立体駐車場西側,34.630123,135.429672,
大阪府,大阪市,123,住之江区南港中2丁目1番,ポートタウン東駅前広場,34.630123,135.429672,
大阪府,大阪市,124,住之江区南港中2丁目8番,市営南港住宅31号棟北側,34.628197,135.427017,
大阪府,大阪市,125,住之江区南港中2丁目5番,市営南港住宅21号棟北側,34.628433,135.429153,
大阪府,大阪市,126,住之江区南港中2丁目7番18号,大阪府立・南港高等学校（グラウンド）南側,34.627209,135.427917,
大阪府,大阪市,127,住之江区南港中3丁目1番,ポートタウン管理センター西側,34.630283,135.425461,
大阪府,大阪市,128,住之江区南港中3丁目2番,ポートタウン西駅西側,34.631279,135.422409,
大阪府,大阪市,129,住之江区南港中3丁目5番14号,咲洲みなみ小中一貫校西側,34.628361,135.425858,
大阪府,大阪市,130,住之江区南港中3丁目5番14号,咲洲みなみ小中一貫校南側,34.628361,135.425858,
大阪府,大阪市,131,住之江区南港中3丁目7番13号,大阪府立・南港高等学校（グラウンド）南側,34.626789,135.426163,
大阪府,大阪市,132,住之江区南港中4丁目2番,都市再生機構市からの団地12号棟西側,34.635078,135.424667,
大阪府,大阪市,133,住之江区南港中4丁目2番,南港光小学校東門近く,34.635078,135.424667,
大阪府,大阪市,134,住之江区南港中4丁目3番39号,南港北中学校西側,34.63567,135.422958,
大阪府,大阪市,135,住之江区南港中4丁目3番39号,南港北中学校北側,34.63567,135.422958,
大阪府,大阪市,136,住之江区南港中4丁目5番,南港太陽のまち公園東側,34.633705,135.424927,
大阪府,大阪市,137,住之江区南港中4丁目4番22号,南港光小学校南側,34.633369,135.423767,
大阪府,大阪市,138,住之江区南港中4丁目4番22号,南港光小学校西側,34.633369,135.423767,
大阪府,大阪市,139,住之江区南港中5丁目2番48号,南港桜小学校北門横,34.635704,135.421036,
大阪府,大阪市,140,住之江区南港中5丁目3番,中ふ頭駅東側,34.634823,135.417999,
大阪府,大阪市,141,住之江区南港中5丁目2番48号,南港桜小学校東側,34.635704,135.421036,
大阪府,大阪市,142,住之江区南港中5丁目5番,都市住宅機構南港のもり団地37号棟東側,34.634068,135.419083,
大阪府,大阪市,143,住之江区南港中5丁目6番,新日鉄フローケハイツ2号棟東側,34.632221,135.421799,
大阪府,大阪市,144,住之江区南港中5丁目6番,新日鉄フローケハイツ2号棟東側,34.632221,135.421799,
大阪府,大阪市,145,住之江区南港北1丁目25番,森ノ宮医療大学北側歩道橋下,34.641895,135.41481,
大阪府,大阪市,146,住之江区南港北1丁目30番21号,コスモスクエア駅バス停南側,34.641842,135.412201,
大阪府,大阪市,147,住之江区柴谷2丁目7番,柴谷公園南側,34.617817,135.465775,
大阪府,大阪市,148,住之江区中加賀屋3丁目17番,加賀屋公園北側,34.615932,135.47847,
大阪府,大阪市,149,住之江区西加賀屋3丁目8番,西加賀屋公園東側,34.616261,135.476562,
大阪府,大阪市,150,住之江区西加賀屋4丁目1番4号,住吉川小学校正門横,34.614796,135.47879,
大阪府,大阪市,151,住之江区西加賀屋4丁目1番4号,住吉川小学校西門横,34.614796,135.47879,
大阪府,大阪市,152,住之江区西加賀屋4丁目1番4号,住吉川小学校東門横,34.614796,135.47879,
大阪府,大阪市,153,住之江区北加賀屋5丁目3番,北加賀屋公園西側,34.623161,135.475494,
大阪府,大阪市,154,住之江区北加賀屋2丁目5番26号,加賀屋小学校正門横,34.622181,135.478851,
大阪府,大阪市,155,住之江区北加賀屋2丁目5番26号,加賀屋小学校東門横,34.622181,135.478851,
大阪府,大阪市,156,住之江区北加賀屋5丁目3番,北加賀屋公園南側,34.623161,135.475494,
大阪府,大阪市,157,住之江区北加賀屋5丁目6番,市営北加賀屋第6住宅1号棟北側,34.621334,135.473022,
大阪府,大阪市,158,住之江区緑木1丁目2番,市営緑木住宅1号棟南側,34.618717,135.474472,
大阪府,大阪市,159,住之江区東加賀屋1丁目4番,市営東加賀屋住宅1号棟南側,34.618862,135.483887,
大阪府,大阪市,160,住之江区東加賀屋1丁目6番25号,加賀屋東小学校正門横,34.619698,135.483719,
大阪府,大阪市,161,住之江区東加賀屋1丁目6番25号,加賀屋東小学校南門横,34.619698,135.483719,
大阪府,大阪市,162,住之江区中加賀屋1丁目5番,中加賀屋公園東側,34.619492,135.481644,
大阪府,大阪市,163,住之江区中加賀屋2丁目17番1号,大阪市立北加賀屋保育所東側,34.617802,135.479492,
大阪府,大阪市,164,住之江区西加賀屋2丁目9番20号,加賀屋中学校南側,34.618843,135.476318,
大阪府,大阪市,165,住之江区粉浜西2丁目6番,粉浜公園南側,34.618866,135.488312,
大阪府,大阪市,166,住之江区粉浜西1丁目5番11号,住吉第一中学校正門横,34.621777,135.487946,
大阪府,大阪市,167,住之江区粉浜西1丁目5番11号,住吉第一中学校南側,34.621777,135.487946,
大阪府,大阪市,168,住之江区粉浜西3丁目1番,都島市生協連合市営粉浜住宅1号棟東側,34.615059,135.485321,
大阪府,大阪市,169,住之江区粉浜西3丁目1番,都島市生協連合市営粉浜住宅1号棟東側,34.615059,135.485321,
大阪府,大阪市,170,住之江区粉浜1丁目5番40号,北粉浜小学校北門横,34.622753,135.49028,
大阪府,大阪市,171,住之江区粉浜1丁目5番40号,北粉浜小学校正門横,34.622753,135.49028,
大阪府,大阪市,172,住之江区粉浜2丁目6番6号,粉浜小学校正門横,34.618088,135.490616,
大阪府,大阪市,173,住之江区粉浜1丁目21番11号,粉浜幼稚園南側,34.619659,135.489838,
大阪府,大阪市,174,住之江区浜口東1丁目1番,住吉公園管理事務所東側,34.61375,135.48764,
大阪府,大阪市,175,住吉区墨江２丁目３番４６号,市立墨江小学校 正門南側,34.607948,135.495193,
大阪府,大阪市,176,住吉区墨江４丁目２番,南海今宮戎 泉ノ町駅上りホーム 北側鉄柵,34.606579,135.496384,
大阪府,大阪市,177,住吉区墨江４丁目１５番３４号,市立墨江丘中学校 図書館寄り,34.605919,135.493912,
大阪府,大阪市,178,住吉区墨江１丁目１１番,阪堺線細井川駅北側 細井川橋側鉄柵,34.609524,135.49147,
大阪府,大阪市,179,住吉区上住吉２丁目１１番,熊の橋北側 細井川北側鉄柵,34.61071,135.494522,
大阪府,大阪市,180,住吉区千躰１丁目５番２２号,市立三稜中学校 西門北側,34.607916,135.499452,
大阪府,大阪市,181,住吉区千躰１丁目５番２２号,市立三稜中学校 正門東側,34.606898,135.499679,
大阪府,大阪市,182,住吉区南住吉１丁目２１番,市営南住吉第９住宅１号棟東側団地東側通路 南,34.604191,135.500626,
大阪府,大阪市,183,住吉区千躰２丁目５番,千林公園 西側南寄,34.608433,135.497058,
大阪府,大阪市,184,住吉区千躰２丁目３番,市営千林住宅１号館 公園東側植込,34.607631,135.498409,
大阪府,大阪市,185,住吉区上住吉１丁目１番,市営上住吉住宅３号棟 東側植え込み,34.609982,135.497238,
大阪府,大阪市,186,住吉区上住吉１丁目３番,千躰交差点北側 細井川南側鉄柵フェンス,34.609585,135.499603,
大阪府,大阪市,187,住吉区南住吉２丁目１２番,市営南住吉第５住宅 ２号館側北側植え込み,34.607563,135.504379,
大阪府,大阪市,188,住吉区南住吉３丁目５番１号,市立南住吉小学校 正門西側鉄柵,34.604816,135.503922,
大阪府,大阪市,189,住吉区南住吉４丁目１３番,市営南住吉第１住宅３号棟東側,34.601788,135.500656,
大阪府,大阪市,190,住吉区沢之町２丁目７番１６号,南海高野線我孫子前駅北側金網東側,34.601582,135.497147,
大阪府,大阪市,191,住吉区南住吉３丁目１５番,沢之町公園 南側寄,34.604191,135.500626,
大阪府,大阪市,192,住吉区我孫子西１丁目６番１２号,市立大空小学校 西側フェンス,34.604851,135.508133,
大阪府,大阪市,193,住吉区我孫子西１丁目４番,市営我孫子西住宅 ５号館西側フェンス,34.604038,135.507339,
大阪府,大阪市,194,住吉区清水丘２丁目９番４１号,市立清水丘小学校 正門東側,34.602077,135.492493,
大阪府,大阪市,195,住吉区清水丘２丁目２番,遠沢公園 西側入口,34.602731,135.493777,
大阪府,大阪市,196,住吉区清水丘３丁目８番,清水丘ふれあい公園 南側,34.597347,135.490195,
大阪府,大阪市,197,住吉区清水丘２丁目２２番,清水丘公園 東側北寄,34.60267,135.491673,
大阪府,大阪市,198,住吉区清水丘２丁目２４番,阪堺線安立３号踏切 南側東側,34.603458,135.489638,
大阪府,大阪市,199,住吉区遠里小野６丁目６番２７号,市立遠里小野小学校　西側南寄り,34.59725,135.4945,
大阪府,大阪市,200,住吉区遠里小野６丁目６番２７号,市立遠里小野小学校　正門東側,34.597667,135.495114,
大阪府,大阪市,201,住吉区遠里小野７丁目５番,おりおの南公園,34.59674,135.492588,
大阪府,大阪市,202,住吉区遠里小野１丁目７番,南海高野線我孫子駅前１号踏切　北側金網東面,34.598661,135.496839,
大阪府,大阪市,203,住吉区東粉浜２丁目３番２６号,市立東粉浜小学校 南門西側,34.619438,135.493942,
大阪府,大阪市,204,住吉区東粉浜３丁目１３番,阪堺上町線 神ノ木４号踏切北側50m 西側鉄柵,34.615459,135.49234,
大阪府,大阪市,205,住吉区東粉浜１丁目１３番,東粉浜１公園内 南側,34.622395,135.492676,
大阪府,大阪市,206,住吉区帝塚山西４丁目１番３５号,市立住吉小学校 南通用門西側鉄柵,34.617317,135.496094,
大阪府,大阪市,207,住吉区帝塚山西４丁目１番３５号,市立住吉小学校 北通用門北側寄,34.617317,135.496094,
大阪府,大阪市,208,住吉区住吉１丁目１番,阪堺上町線 神ノ木駅南側フェンス,34.615742,135.496802,
大阪府,大阪市,209,住吉区住吉１丁目１番,帝塚山６跡地北側金網,34.614795,135.497241,
大阪府,大阪市,210,住吉区住吉２丁目９番８９号,住吉大社水練池 東側金網,34.612617,135.491318,
大阪府,大阪市,211,住吉区帝塚山中３丁目１０番５１号,帝塚山学園小学校 南側北歩道寄り,34.621098,135.498779,
大阪府,大阪市,212,住吉区帝塚山西１丁目６番７号,帝塚山学園 第２校舎 東側金網南寄り,34.621479,135.49794,
大阪府,大阪市,213,住吉区帝塚山中２丁目５番,住吉西停留場北側及び処理場下側北側鉄柵,34.623215,135.499176,
大阪府,大阪市,214,住吉区万代３丁目７番,万代公園 北側万代歩道東側,34.620436,135.503551,
大阪府,大阪市,215,住吉区万代３丁目７番,万代歩道 南東入口側,34.618873,135.503005,
大阪府,大阪市,216,住吉区万代３丁目７番,万代歩道 西側金網,34.619478,135.500538,
大阪府,大阪市,217,住吉区帝塚山東5丁目6番1号,市営住宅若草会会所 北側,34.61451,135.49852,
大阪府,大阪市,218,住吉区帝塚山東5丁目5番16号,市立住吉乳児保育所 東側鉄柵,34.614441,135.498718,
大阪府,大阪市,219,住吉区帝塚山東5丁目9番4号,市立住吉保育所 南側鉄柵,34.61272,135.49852,
大阪府,大阪市,220,住吉区万代6－9－19,住吉万代住宅 南側フェンス,34.613811,135.501114,
大阪府,大阪市,221,住吉区大領3丁目3番5号,市立大領小学校 東及隣前向,34.615639,135.507675,
大阪府,大阪市,222,住吉区大領3丁目3番5号,市立大領小学校 西門北側,34.615639,135.507675,
大阪府,大阪市,223,住吉区万代東3丁目1番,万領中央公園 西側,34.616055,135.504242,
大阪府,大阪市,224,住吉区長居1丁目7番,緑ヶ丘住宅 8棟囲側鉄柵,34.615383,135.510818,
大阪府,大阪市,225,住吉区長居1丁目7番,鶴ヶ丘住宅 6棟東側鉄柵,34.615383,135.510818,
大阪府,大阪市,226,住吉区大領4丁目3番25号,市立大領中学校 南側鉄柵東側,34.613621,135.506577,
大阪府,大阪市,227,住吉区大領4丁目3番25号,市立大領中学校 西門北側,34.613621,135.506577,
大阪府,大阪市,228,住吉区万代東3丁目5番22号,大阪シティバス 住吉東車前 百側金網,34.614601,135.502838,
大阪府,大阪市,229,住吉区万代東4丁目2番,南万領公園 東側植込北布,34.613274,135.502686,
大阪府,大阪市,230,住吉区長居西1丁目14番,西長居公園 南側東寄,34.612354,135.508545,
大阪府,大阪市,231,住吉区長居東3丁目3番40号,市立長居小学校 北白角,34.609238,135.514053,
大阪府,大阪市,232,住吉区長居東3丁目3番40号,市立長居小学校 南門西側,34.609238,135.514053,
大阪府,大阪市,233,住吉区長居東2丁目7番,府住宅公社東長居団地 北側東寄り,34.607819,135.518036,
大阪府,大阪市,234,住吉区長居東2丁目15番,サンヴェリィ東長居 3号棟北側フェンス,34.605965,135.519318,
大阪府,大阪市,235,住吉区長居東3丁目9番,長居第2住宅,34.607109,135.516068,
大阪府,大阪市,236,住吉区長居東3丁目2番,市営長居西住宅 幼児遊び場及び花壇,34.608509,135.516602,
大阪府,大阪市,237,住吉区長居東4丁目3番,ＪＲ長居駅（高架下西自転車駐車場 東側金網）,34.610622,135.512268,
大阪府,大阪市,238,住吉区長居東4丁目8番,長居東4丁目8番街区内側フェンス,34.608929,135.511963,
大阪府,大阪市,239,住吉区我孫子東1丁目4番32号,市立我孫子中学校 正門東,34.604931,135.5112,
大阪府,大阪市,240,住吉区我孫子東1丁目4番32号,市立我孫子中学校 東側鉄柵寄り,34.604931,135.5112,
大阪府,大阪市,241,住吉区我孫子2丁目2番,市営我孫子東第7住宅 2号館フェンス,34.603012,135.509618,
大阪府,大阪市,242,住吉区我孫子1丁目8番,我孫子1丁目8番街区西側フェンス,34.60534,135.509366,
大阪府,大阪市,243,住吉区我孫子4丁目11番48号,市立依羅小学校 東門北側,34.598167,135.507904,
大阪府,大阪市,244,住吉区我孫子4丁目11番48号,市立依羅小学校 西通用門南側,34.598167,135.507904,
大阪府,大阪市,245,住吉区浅香1丁目3番,浅香南住宅6号館東側駐車場 北側金網,34.591161,135.51157,
大阪府,大阪市,246,住吉区浅香2丁目2番57号,浅香公園北側金網,34.590034,135.50856,
大阪府,大阪市,247,住吉区杉本2丁目6番,杉本町公園 北側西寄,34.594913,135.507248,
大阪府,大阪市,248,住吉区我孫子3丁目11番,ＪＲ阪和線 我孫子町駅 南側東面金網,34.601375,135.506345,
大阪府,大阪市,249,住吉区我孫子5丁目2番,浅橋子公園 北側南寄,34.599533,135.507416,
大阪府,大阪市,250,住吉区浅香1丁目8番55号,市立我孫子南中学校 東側北寄り鉄柵,34.593407,135.510742,
大阪府,大阪市,251,住吉区苅田1丁目11番39号,市立苅田北小学校 正門西側,34.604134,135.521088,
大阪府,大阪市,252,住吉区苅田1丁目11番39号,市立苅田北小学校 西側南寄り,34.604134,135.521088,
大阪府,大阪市,253,住吉区苅田4丁目4番,大阪教育1センター附属高等学校 第2グラウンド南側,34.600498,135.520096,
大阪府,大阪市,254,住吉区苅田1丁目16番2号,市立東我孫子中学校 南側西寄り,34.603539,135.519913,
大阪府,大阪市,255,住吉区苅田2丁目11番,苅田北公園 北側,34.60397,135.515305,
大阪府,大阪市,256,住吉区苅田3丁目5番34号,市立苅田小学校 正門西側,34.602264,135.516647,
大阪府,大阪市,257,住吉区苅田6丁目10番5号,西光寺 南側塀,34.598213,135.520737,
大阪府,大阪市,258,住吉区苅田6丁目16番,苅田中公園 両側,34.599407,135.517654,
大阪府,大阪市,259,住吉区苅田5丁目12番,樹方畑地 南側金網,34.600231,135.515411,
大阪府,大阪市,260,北区天満１丁目２４番１５号,滝川小学校正門横ブロック塀,34.69614,135.518509,
大阪府,大阪市,261,北区天満４丁目７番,滝川公園西側フェンス,34.694107,135.514633,
大阪府,大阪市,262,北区天満４丁目７番,滝川公園南側植込み,34.694107,135.514633,
大阪府,大阪市,263,北区天満１丁目５番先,桜ノ宮公園入口フェンス,34.692646,135.517868,
大阪府,大阪市,264,北区天満１丁目２４番１５号,滝川小学校南門横ブロック塀,34.69614,135.518509,
大阪府,大阪市,265,北区天満橋１丁目１番５８号,北稜中学校南西角鉄柵,34.698681,135.520538,
大阪府,大阪市,266,北区東天満２丁目１０番７号,堀川小学校正門横ブロック塀,34.697559,135.513031,
大阪府,大阪市,267,北区東天満２丁目１０番７号,堀川小学校東側フェンス,34.697559,135.513031,
大阪府,大阪市,268,北区末広町２番４０号先,末広町２番４０号先植込み,34.701122,135.510712,
大阪府,大阪市,269,北区天神橋２丁目１番,大阪天満宮東側緑地,34.696121,135.512741,
大阪府,大阪市,270,北区南森町１丁目２番１４号先,阪神高速南森入口下フェンス,34.696365,135.50972,
大阪府,大阪市,271,北区松ケ枝町１番３８号,桜和高等学校西側側通用口右側フェンス,34.698654,135.517975,
大阪府,大阪市,272,北区松ヶ枝町１番３８号,桜和高等学校北側鉄柵,34.69389,135.502228,
大阪府,大阪市,273,北区与力町５番,与力町公園北側鉄柵,34.701061,135.514343,
大阪府,大阪市,274,北区与力町５番,与力町公園南側鉄柵,34.701061,135.514343,
大阪府,大阪市,275,北区天神橋３丁目４番,堀川児童遊園北側金網,34.700283,135.512146,
大阪府,大阪市,276,北区天満橋１丁目７番,東天満公園西側フェンス,34.700802,135.51857,
大阪府,大阪市,277,北区同心１丁目５番３３号,ＮＴＴ大阪中央支店堀川ビル南側鉄柵 ,34.70086,135.51595,
大阪府,大阪市,278,北区天満橋１丁目７号,東天満公園南側フェンス,34.700802,135.51857,
大阪府,大阪市,279,北区西天満３丁目１２番２１号,西天満小学校正門横鉄柵,34.696758,135.506836,
大阪府,大阪市,280,北区西天満３丁目１２番２１号,西天満小学校東側鉄柵,34.696758,135.506836,
大阪府,大阪市,281,北区西天満５丁目７番,西天満公園西側鉄柵,34.69857,135.508041,
大阪府,大阪市,282,北区西天満５丁目７番,西天満公園東側鉄柵,34.69857,135.508041,
大阪府,大阪市,283,北区西天満１丁目２番２３号,天満堀川抽水所南側壁面,34.693474,135.508942,
大阪府,大阪市,284,北区天神橋１丁目３番先,天神橋水防倉庫北側フェンス,34.692162,135.512512,
大阪府,大阪市,285,北区扇町２丁目１番２７号,北区民センター東側植込み,34.705719,135.510284,
大阪府,大阪市,286,北区扇町２丁目７番２４号,扇町小学校東側鉄柵,34.704857,135.506897,
大阪府,大阪市,287,北区扇町２丁目７番２４号,扇町小学校西側鉄柵（正門横）,34.704857,135.506897,
大阪府,大阪市,288,北区山崎町５番２１号,北天満会館西側金網,34.70602,135.507584,
大阪府,大阪市,289,北区扇町２丁目３番１号,市営扇町住宅北側植込み,34.704685,135.508514,
大阪府,大阪市,290,北区中崎西１丁目６番８号,済美福祉センター前フェンス,34.707214,135.504684,
大阪府,大阪市,291,北区中崎西１丁目１番６号先,吉村ビル前分離帯,34.706951,135.505005,
大阪府,大阪市,292,北区万歳町５番北側,万歳町道路予定地北側フェンス,34.706059,135.504883,
大阪府,大阪市,293,北区万歳町３番２０号先,北大阪ビル前分離帯植込み,34.705132,135.503418,
大阪府,大阪市,294,北区大深町１番１号先,ヨドバシ梅田前ガードフェンス,34.70417,135.497269,
大阪府,大阪市,295,北区茶屋町１７番先,毎日放送※館前植込み,34.708462,135.499893,
大阪府,大阪市,296,北区池田町１３番,菅北小学校講堂入口横鉄柵,34.708199,135.513641,
大阪府,大阪市,297,北区菅栄町９番５号,菅北小学校通用門右側鉄柵,34.708443,135.513672,
大阪府,大阪市,298,北区池田町１番,ローレルハイツ北天満東側入口横鉄柵,34.706856,135.514053,
大阪府,大阪市,299,北区錦町４番８２号,延原倉庫㈱天満営業所北側金網,34.705139,135.514526,
大阪府,大阪市,300,北区錦町４番８２号,延原倉庫㈱天満営業所南側金網,34.705139,135.514526,
大阪府,大阪市,301,北区神山町12番9号,天満中学校西側ブロック塀,34.703056,135.506607,
大阪府,大阪市,302,北区野崎町2番,野崎公園北側ブロック柵,34.701328,135.50708,
大阪府,大阪市,303,北区神山町12－9,天満中学校北側通用門左側鉄柵,34.703056,135.506607,
大阪府,大阪市,304,北区兎我野町4番,きたの旭ヶ丘学園運動場南側鉄柵,34.701275,135.504028,
大阪府,大阪市,305,北区堂島2丁目2番26号,もと堂島小学校あとグランド西側フェンス,34.697258,135.494202,
大阪府,大阪市,306,北区堂島浜1丁目3番先,堂島ガーデンブリッジ北側ガードフェンス,34.695587,135.49791,
大阪府,大阪市,307,北区中之島4丁目2番1号,市立科学館南側ガードフェンス,34.691406,135.492493,
大阪府,大阪市,308,北区中之島4丁目2番,中之島抽水所西側フェンス,34.690742,135.490646,
大阪府,大阪市,309,北区中之島4丁目3番,田蓑橋南詰交差点美術館前ガードフェンス,34.692181,135.490524,
大阪府,大阪市,310,北区堂島2丁目5番,堂島水防用具庫鉄柵,34.695995,135.492203,
大阪府,大阪市,311,北区長柄中2丁目3番30号,豊崎東小学校通用門横鉄柵,34.713383,135.516037,
大阪府,大阪市,312,北区長柄東2丁目2番30号,新豊崎中学校正門横植込み,34.713734,135.517471,
大阪府,大阪市,313,北区長柄東2丁目2番30号,新豊崎中学校南東鉄柵,34.713734,135.517471,
大阪府,大阪市,314,北区長柄東2丁目1番,毛馬桜ノ宮公園西側植込み,34.712723,135.518951,
大阪府,大阪市,315,北区長柄東1丁目3番,鶴満寺公園西側植込み,34.710972,135.516281,
大阪府,大阪市,316,北区国分寺1丁目5番,国分寺公園西側植込み,34.710274,135.514847,
大阪府,大阪市,317,北区長柄中2丁目4番25号,大阪市設北霊園西側植込み,34.713825,135.514389,
大阪府,大阪市,318,北区国分寺1丁目5番,国分寺公園東側鉄柵,34.710274,135.514847,
大阪府,大阪市,319,北区長柄西2丁目6番20号,豊仁小学校通用門横鉄柵,34.717064,135.513748,
大阪府,大阪市,320,北区長柄東3丁目2番37号,市営長柄第2住宅西側金網,34.717293,135.51535,
大阪府,大阪市,321,北区長柄東3丁目2番11号,都市再生機構リバーサイドながら４号棟南側金網,34.716747,135.517303,
大阪府,大阪市,322,北区長柄西2丁目6番20号,豊仁小学校校南通用門横鉄柵,34.717064,135.513748,
大阪府,大阪市,323,北区長柄西2丁目7番,長柄公園北側鉄柵,34.717426,135.513763,
大阪府,大阪市,324,北区長柄東2丁目7番,市営長柄東第2住宅1号館西側,34.715214,135.51619,
大阪府,大阪市,325,北区本庄西2丁目1番16号,豊崎本庄小学校通用門右側フェンス,34.712597,135.505508,
大阪府,大阪市,326,北区本庄東3丁目4番,本庄小公園北側植込み,34.716148,135.509537,
大阪府,大阪市,327,北区本庄西3丁目11番,本庄公園東側ブロック,34.715547,135.504874,
大阪府,大阪市,328,北区本庄東3丁目11番,都市再生機構リバーサイド本庄5号棟北側鉄柵,34.716171,135.506851,
大阪府,大阪市,329,北区本庄東3丁目4番8号,豊崎中学校正門横鉄柵,34.715611,135.509384,
大阪府,大阪市,330,北区本庄東2丁目6番,本庄川崎公園北側鉄柵,34.713387,135.508286,
大阪府,大阪市,331,北区本庄東2丁目4番,本庄東開発公園南側鉄柵,34.713184,135.509415,
大阪府,大阪市,332,北区本庄東2丁目4番39号,本庄会館北側鉄柵,34.713387,135.510132,
大阪府,大阪市,333,北区豊崎4丁目5番9号,豊崎小学校南側通用門横鉄柵,34.712189,135.500351,
大阪府,大阪市,334,北区豊崎6丁目13番,豊崎北公園西側鉄柵,34.716457,135.502182,
大阪府,大阪市,335,北区豊崎5丁目5番,豊崎西公園南側フェンス,34.711377,135.49881,
大阪府,大阪市,336,北区豊崎4丁目7番,豊崎東公園北側鉄柵,34.712643,135.50177,
大阪府,大阪市,337,北区豊崎7丁目1番,豊崎中公園南側フェンス,34.714005,135.499573,
大阪府,大阪市,338,北区豊崎7丁目5番1,市営豊崎第１住宅西側鉄柵,34.714981,135.499069,
大阪府,大阪市,339,北区中津3丁目34番18号,中津小学校正門横鉄柵,34.713605,135.493604,
大阪府,大阪市,340,北区中津3丁目34番18号,中津小学校南側鉄柵,34.712855,135.494524,
大阪府,大阪市,341,北区中津2丁目1番,中津東公園北側鉄柵,34.71373,135.497955,
大阪府,大阪市,342,北区中津3丁目4番,中津中央公園南側,34.710403,135.493042,
大阪府,大阪市,343,北区中津6丁目10番2号,市営中津第２住宅南側,34.709499,135.490936,
大阪府,大阪市,344,大阪市北区中津6丁目７番34号, YMCAインターナショナル北側通用門右側フェンス,34.708929,135.488711,
大阪府,大阪市,345,北区大淀中2丁目1番11号,大淀中学校正門横鉄柵,34.70375,135.486361,
大阪府,大阪市,346,北区大淀中2丁目1番11号,大淀中学校東側横断歩道前,34.703906,135.486481,
大阪府,大阪市,347,北区大淀中1丁目9番,大淀中公園東側鉄柵,34.704972,135.487298,
大阪府,大阪市,348,北区大淀南1丁目9番3号,建設局北野抽水所東側鉄柵,34.702431,135.488159,
大阪府,大阪市,349,北区大淀南1丁目5番10号,日本たばこ産業（株）大阪支店西側フェンス,34.702755,135.489182,
大阪府,大阪市,350,北区大淀中1丁目9番,大淀中公園西側鉄柵 ,34.705064,135.4883,
大阪府,大阪市,351,北区大淀南1丁目9番3号,建設局北野抽水所北側鉄柵,34.702431,135.488159,
大阪府,大阪市,352,北区大淀中4丁目10番33号,大淀小学校正門横鉄柵,34.703648,135.482834,
大阪府,大阪市,353,北区大淀南3丁目3番,浦江公園西側テニスコートフェンス,34.701233,135.483627,
大阪府,大阪市,354,北区大淀北1丁目4番,大淀北公園西側植込み,34.707977,135.486649,
大阪府,大阪市,355,北区大淀中4丁目10番33号,大淀小学校北側通用門横鉄柵,34.703648,135.482834,
大阪府,大阪市,356,北区大淀南3丁目3番,浦江公園北側鉄柵,34.701233,135.483627,
大阪府,大阪市,357,城東区放出西3丁目12番10号,放出中学校北側鉄柵,34.690838,135.557724,
大阪府,大阪市,358,城東区新喜多東2丁目4番21号,関西電力新喜多島変電所東側フェンス,34.693428,135.552582,
大阪府,大阪市,359,城東区新喜多東2丁目8番4号,米忠味噌株式会社東側フェンス,34.69281,135.550064,
大阪府,大阪市,360,城東区放出西2丁目2番18号,放出中学校東側鉄柵,34.694695,135.555771,
大阪府,大阪市,361,城東区放出西2丁目15番,西放出公園北側東角植込み,34.692772,135.557541,
大阪府,大阪市,362,城東区放出西1丁目4番,放出小学校・今福小学校第二運動場北側ブロック塀,34.694164,135.553406,
大阪府,大阪市,363,城東区今福西3丁目9番27号,鯰江小学校東側鉄柵,34.701496,135.549362,
大阪府,大阪市,364,城東区今福西6丁目8番19号,ウェルネオシェガー関西工場西側ブロック塀,34.704266,135.552734,
大阪府,大阪市,365,城東区今福西4丁目7番20号,鯰江中学校西側鉄柵,34.702477,135.553131,
大阪府,大阪市,366,城東区今福西5丁目13番,鯰江北公園南側植込み,34.704845,135.548798,
大阪府,大阪市,367,城東区今福西2丁目7番,牛乳石鹸共進社駐車場フェンス,34.699432,135.550858,
大阪府,大阪市,368,城東区今福東2丁目2番25号,野江特別養護老人ホーム城東園東側植込み,34.70322,135.555481,
大阪府,大阪市,369,城東区今福東2丁目10番4号,小倉モータープール北側フェンス,34.70335,135.556931,
大阪府,大阪市,370,城東区今福東3丁目16番23号,日本郵便株式会社大阪城東郵便局南側フェンス,34.703621,135.560013,
大阪府,大阪市,371,城東区今福東1丁目9番,今福ファミリータウン駐車場北側フェンス,34.701118,135.557404,
大阪府,大阪市,372,城東区今福東1丁目3番26号,鯰江東小学校北側塀,34.70071,135.555405,
大阪府,大阪市,373,城東区中央3丁目4番20号,城東消防署西側フェンス,34.702785,135.546173,
大阪府,大阪市,374,城東区中央3丁目5番45号,役所南側自転車置き場前ブロック塀,34.703159,135.545578,
大阪府,大阪市,375,城東区中央3丁目8番,蒲生公園北東角植込み,34.703514,135.545197,
大阪府,大阪市,376,城東区今福西3丁目1番,OsakaMetro「蒲生四丁目駅」6号出入口地上金網北側部分,34.700653,135.54657,
大阪府,大阪市,377,城東区蒲生4丁目13番9号,蒲生幼稚園ブロック塀,34.698875,135.545441,
大阪府,大阪市,378,城東区新喜多2丁目4番35号,聖賢小学校東側正門横鉄柵,34.69714,135.543152,
大阪府,大阪市,379,城東区新喜多東1丁目1番25号,もと聖賢老人憩の家正面東側柵,34.696304,135.5466,
大阪府,大阪市,380,城東区蒲生1丁目2番,上新庄生野線道路予定地フェンス,34.697422,135.536316,
大阪府,大阪市,381,城東区蒲生3丁目2番,JRおおさか東線蒲生踏切東側フェンス,34.698212,135.542419,
大阪府,大阪市,382,城東区新喜多1丁目9番,新喜多公園南側植え込み,34.697258,135.539139,
大阪府,大阪市,383,城東区今福南2丁目23番,今福南1-1児童遊園北側,34.698399,135.550629,
大阪府,大阪市,384,城東区今福南2丁目1番53号,今福小学校南側正門横鉄柵,34.695847,135.551346,
大阪府,大阪市,385,城東区今福南1丁目1番,南今福南東詰遊歩道フェンス,34.696098,135.549438,
大阪府,大阪市,386,城東区今福南3丁目3番2号,今福下水処理場正門西側ブロック塀,34.696129,135.555511,
大阪府,大阪市,387,城東区今福南4丁目4番,南今福公園北側植込み,34.698208,135.557053,
大阪府,大阪市,388,城東区鴫野西2丁目4番14号,阪神容器株式会社駐車場北側フェンス,34.690189,135.536011,
大阪府,大阪市,389,城東区鴫野西5丁目2番20号,JR学研都市線鴫野駅南側フェンス,34.692101,135.545654,
大阪府,大阪市,390,城東区鴫野東3丁目16番41号,城東小学校西側鉄柵,34.69125,135.54776,
大阪府,大阪市,391,城東区天王田4番,天王田植栽公園南側植込み,34.690723,135.552261,
大阪府,大阪市,392,城東区鴫野東3丁目23番,鴫野東公園北側植込み,34.689102,135.548233,
大阪府,大阪市,393,城東区東中浜4丁目6番35号,大阪府寝屋川水系改修工営所西側北寄りフェンス,34.686584,135.55014,
大阪府,大阪市,394,城東区永田2丁目15番5号,諏訪小学校北側鉄柵,34.68692,135.558487,
大阪府,大阪市,395,城東区永田2丁目3番61号,放出下水処理場 北側鉄柵,34.685089,135.555344,
大阪府,大阪市,396,城東区永田2丁目3番61号,放出下水処理場 北門西側鉄柵,34.685089,135.555344,
大阪府,大阪市,397,城東区諏訪2丁目1番1号,奥田様宅ガレージ西側 ブロック塀,34.685951,135.559174,
大阪府,大阪市,398,城東区諏訪2丁目6番,市営諏訪住宅北側植込み,34.683971,135.561005,
大阪府,大阪市,399,城東区諏訪3丁目6番,諏訪会館東側正門南側,34.682598,135.559952,
大阪府,大阪市,400,城東区永田3丁目1番2号,深江橋ユーポス B棟東側フェンス,34.684185,135.55423,
大阪府,大阪市,401,城東区永田3丁目3番44号,城東中学校南側鉄柵,34.68174,135.556076,
大阪府,大阪市,402,城東区永田4丁目14番,永田公園南側植込み,34.681431,135.557053,
大阪府,大阪市,403,城東区諏訪4丁目10番,OMパーキング諏訪1丁目 東側ブロック塀,34.681179,135.559769,
大阪府,大阪市,404,城東区諏訪4丁目23番15号,城東組整備工場 東側ブロック塀南側,34.680443,135.563446,
大阪府,大阪市,405,城東区鴫野西1丁目15番,西馳野3児童遊園 南側鉄柵,34.695442,135.538574,
大阪府,大阪市,406,城東区鴫野西3丁目3番64号,城陽中学校南側正門横鉄柵,34.694267,135.541641,
大阪府,大阪市,407,城東区鴫野西1丁目18番11号,鴫野会館前南側 鉄柵西寄り,34.693512,135.539185,
大阪府,大阪市,408,城東区鴫野西2丁目18番,西鴫野5・6児童遊園 東側広報板横,34.6931,135.538956,
大阪府,大阪市,409,城東区鴫野西2丁目1番21号,男女共同参画センター東館前 クレオ大阪東 東側植込み防護柵,34.691505,135.536942,
大阪府,大阪市,410,城東区鴫野西1丁目5番,市営鴫野西住宅 西側植込み,34.694195,135.536682,
大阪府,大阪市,411,城東区鴫野西1丁目11番48号,鴫野小学校西側 正門横鉄柵,34.694599,135.537521,
大阪府,大阪市,412,城東区鴫野西5丁目3番,市営鴫野住宅2号館 東入口南側フェンス,34.69215,135.54248,
大阪府,大阪市,413,城東区野江4丁目7番,JRおおさか東線 リンナイ（株）北側駐車場前植栽,34.709743,135.540558,
大阪府,大阪市,414,城東区野江4丁目1番28号,榎並小学校東側 正門横鉄柵,34.708904,135.538986,
大阪府,大阪市,415,城東区野江3丁目20番,サンベリー 北側駐車場フェンス,34.707981,135.539398,
大阪府,大阪市,416,城東区野江3丁目28番,JRおおさか東線 JR野江駅南西側フェンス,34.706814,135.54097,
大阪府,大阪市,417,城東区野江2丁目7番12号,野江サンフレンズ保育園 東側フェンス,34.705608,135.538467,
大阪府,大阪市,418,城東区野江2丁目12番12号,関西電力㈱野江変電所 西正門横ブロック塀,34.70425,135.537231,
大阪府,大阪市,419,城東区野江2丁目15番,榎並公園南西側植込み,34.70364,135.539566,
大阪府,大阪市,420,城東区野江1丁目9番9号,開明高等学校 校舎東側フェンス,34.701481,135.537704,
大阪府,大阪市,421,城東区野江1丁目18番,市営野江第2住宅3号館 西側植込み,34.700714,135.539749,
大阪府,大阪市,422,城東区成育5丁目2番8号,新関目モータープール 北側フェンス,34.713791,135.543579,
大阪府,大阪市,423,城東区成育4丁目8番12号,関目聖マリア幼稚園 東側フェンス,34.712399,135.543442,
大阪府,大阪市,424,城東区成育3丁目18番,成育公園(通称三角公園) 北東側植込み,34.709366,135.543732,
大阪府,大阪市,425,城東区成育2丁目8番,ナショナルタクシー本社 東側ブロック塀,34.708199,135.545273,
大阪府,大阪市,426,城東区成育1丁目5番19号,成育小学校北側 正門横鉄柵,34.706486,135.543701,
大阪府,大阪市,427,城東区成育1丁目5番19号,成育小学校西側 西門横鉄柵,34.706486,135.543701,
大阪府,大阪市,428,城東区関目1丁目2番,洲崎鉄筋 東側ブロック塀,34.70602,135.546738,
大阪府,大阪市,429,城東区中央2丁目8番7号,ブレジオ野江 北側ブロック塀,34.702759,135.541962,
大阪府,大阪市,430,城東区関目5丁目7番,相互タクシー整備工場 北側塀,34.714649,135.547729,
大阪府,大阪市,431,城東区関目5丁目9番,関目駅前小公園東側植込み,34.713688,135.547394,
大阪府,大阪市,432,城東区関目5丁目1番,OsakaMetro「関目成育駅」 １号出入口地上金網西側部分,34.712532,135.546768,
大阪府,大阪市,433,城東区関目6丁目5番5号,関目小学校西側 正門横鉄柵,34.714367,135.550186,
大阪府,大阪市,434,城東区関目6丁目3番,北関目公園東側植込み,34.713184,135.550797,
大阪府,大阪市,435,城東区関目４丁目３番,関目中央公園南側柵込み,34.710388,135.550705,
大阪府,大阪市,436,城東区関目１丁目７番,西関目公園南東角柵込み,34.708569,135.547836,
大阪府,大阪市,437,城東区関目２丁目４番,南関目公園東側柵込み,34.707146,135.550262,
大阪府,大阪市,438,城東区関目２丁目１７番,市営古市住宅駐車場西側フェンス,34.707047,135.553375,
大阪府,大阪市,439,城東区関目４丁目１２番１５号,関目東小学校正門横鉄柵,34.710957,135.553558,
大阪府,大阪市,440,城東区古市３丁目５番,すみれ宿舎コート西側フェンス,34.713993,135.555603,
大阪府,大阪市,441,城東区古市３丁目９番,プルコムナーデ関目１号棟北側フェンス,34.713268,135.55719,
大阪府,大阪市,442,城東区古市３丁目１９番,古市西北公園東側柵込み,34.71299,135.559097,
大阪府,大阪市,443,城東区古市２丁目４番,大阪信愛学院　グラウンド西側ブロック塀,34.711414,135.556488,
大阪府,大阪市,444,城東区古市２丁目６番３８号,すみれ小学校東側東門横鉄柵,34.710831,135.559219,
大阪府,大阪市,445,城東区古市１丁目５番,市営古市南住宅１号館北側駐車場フェンス,34.708641,135.555084,
大阪府,大阪市,446,城東区古市１丁目１８番４号,菫中学校西側通用門横北側鉄柵,34.706661,135.557022,
大阪府,大阪市,447,城東区古市１丁目２０番２６号,大阪産業大学附属高等学校正門西側鉄柵,34.708973,135.558914,
大阪府,大阪市,448,城東区今福東３丁目４番,市営すみれ住宅９号棟北側駐車場フェンス,34.705181,135.556076,
大阪府,大阪市,449,城東区中浜１丁目１番,中浜下水処理場,34.688049,135.541672,
大阪府,大阪市,450,城東区中浜２丁目１２番３５号,中浜流潔場柵（上城見橋南側）中浜小学校南側広報板検疫柵,34.685352,135.543106,
大阪府,大阪市,451,城東区中浜２丁目９番,中浜中央公園東側柵込み,34.684441,135.542496,
大阪府,大阪市,452,城東区中浜１丁目１７番１０号,中浜下水処理場正門北側フェンス（今里筋沿い）,34.687607,135.545349,
大阪府,大阪市,453,城東区森之宮２丁目１番,中浜下水処理場　コンクリート塀（上新庄生野線沿い）,34.686329,135.539062,
大阪府,大阪市,454,城東区森之宮２丁目１番,ＵＲ鴫野機構森之宮第２団地７号棟西側歩道橋下フェンス,34.686329,135.539062,
大阪府,大阪市,455,城東区森之宮１丁目６番６４号,森之宮小学校東側正門横鉄柵,34.683575,135.537827,
大阪府,大阪市,456,城東区森之宮２丁目４番４３号,大阪府赤十字血液センター西側鉄柵,34.682018,135.537888,
大阪府,大阪市,457,城東区森之宮２丁目３番３０号,扶桑薬品工業　研究開発センター西側フェンス,34.684803,135.539551,
大阪府,大阪市,458,城東区東中浜２丁目４番３１号,東中浜ひばり保育園正門西側フェンス,34.683979,135.545914,
大阪府,大阪市,459,城東区東中浜５丁目４番５号,東中浜小学校北側正門横鉄柵,34.684494,135.549088,
大阪府,大阪市,460,城東区東中浜６丁目・９丁目,干潟川みどり公園側フェンス,34.682423,135.549545,
大阪府,大阪市,461,城東区東中浜３丁目１７番２２号,宮成モータープール南側フェンス,34.68206,135.547043,
大阪府,大阪市,462,城東区東中浜８丁目１番２７号,コーナンＰＲＯ城東東中浜店西側フェンス,34.68531,135.551529,
大阪府,大阪市,463,大正区三軒家東1丁目1番,大正橋公園西角金網,34.667004,135.479996,
大阪府,大阪市,464,大正区三軒家西1丁目13番13号,三軒家西小学校護堂入口付近金柵,34.665237,135.476624,
大阪府,大阪市,465,大正区三軒家西1丁目20番26号,三軒家西小学校南面金柵,34.665157,135.476837,
大阪府,大阪市,466,大正区三軒家西1丁目7番5号,岩崎橋公園北東角金網,34.666313,135.476669,
大阪府,大阪市,467,大正区三軒家東2丁目5番,市営大浪住宅4号館北側金網,34.661858,135.479507,
大阪府,大阪市,468,大正区三軒家東4丁目4番30号,大正東中学校南東金柵,34.662441,135.477295,
大阪府,大阪市,469,大正区三軒家東2丁目5番,市営大浪住宅2号館西側金網,34.661858,135.479507,
大阪府,大阪市,470,大正区三軒家東4丁目4番30号,大正東中学校西南金網,34.662441,135.477295,
大阪府,大阪市,471,大正区三軒家東2丁目12番59号,三軒家東小学校北門金柵,34.660568,135.478714,
大阪府,大阪市,472,大正区三軒家東4丁目3番22号,大正郵便局南面コンクリート塀,34.66304,135.47728,
大阪府,大阪市,473,大正区千島1丁目16番16号,泉尾東小学校正門付近金柵,34.653782,135.47464,
大阪府,大阪市,474,大正区千島1丁目16番16号,泉尾東小学校西面金柵,34.653782,135.47464,
大阪府,大阪市,475,大正区千島2丁目4番,千島団地バス停前UR千島団地駐車場前金網,34.651745,135.473404,
大阪府,大阪市,476,大正区千島2丁目7番,大正区役所西面,34.649113,135.472443,
大阪府,大阪市,477,大正区千島2丁目4番,UR千島団地1・2号館の間,34.651745,135.473404,
大阪府,大阪市,478,大正区千島2丁目4番,UR千島団地2・3号館の間,34.651745,135.473404,
大阪府,大阪市,479,大正区泉尾2丁目21番24号,泉尾北小学校正門付近,34.660454,135.47052,
大阪府,大阪市,480,大正区泉尾2丁目21番24号,泉尾北小学校北側金柵,34.660454,135.47052,
大阪府,大阪市,481,大正区泉尾2丁目8番8号,大正北保育所東面金網,34.659386,135.47348,
大阪府,大阪市,482,大正区泉尾1丁目37番1号,昭和幼稚園南面金網,34.661312,135.472046,
大阪府,大阪市,483,大正区泉尾1丁目16番,日商岩井マンション内公園北面金網,34.662914,135.472641,
大阪府,大阪市,484,大正区泉尾4丁目18番6号,市営泉尾住宅集会所金網,34.656757,135.470566,
大阪府,大阪市,485,大正区泉尾3丁目9番16号,大正こども・子育てプラザ正面玄関側金柵,34.657616,135.472366,
大阪府,大阪市,486,大正区泉尾3丁目23番34号,中泉尾小学校東側金柵,34.659698,135.469803,
大阪府,大阪市,487,大正区泉尾3丁目23番34号,中泉尾小学校正門付近金柵,34.659698,135.469803,
大阪府,大阪市,488,大正区泉尾5丁目8番,市営泉尾第6住宅東面金柵,34.653419,135.470734,
大阪府,大阪市,489,大正区北村1丁目15番11号,北恩加島老人憩の家西面金網,34.651279,135.467484,
大阪府,大阪市,490,大正区北村2丁目16番,北村公園西面,34.651146,135.466629,
大阪府,大阪市,491,大正区泉尾7丁目17番,泉尾浜公園南面,34.654739,135.465652,
大阪府,大阪市,492,大正区泉尾7丁目17番,泉尾浜公園北面,34.654739,135.465652,
大阪府,大阪市,493,大正区泉尾5丁目17番31号,北恩加島小学校正門付近金柵,34.654488,135.467621,
大阪府,大阪市,494,大正区泉尾5丁目17番31号,北恩加島小学校南通用門付近ブロック塀,34.654488,135.467621,
大阪府,大阪市,495,大正区小林東2丁目4番45号,小林小学校西面通用門右側金柵,34.646626,135.474091,
大阪府,大阪市,496,大正区小林東2丁目5番59号,千島下水処理場北面金柵,34.646618,135.474808,
大阪府,大阪市,497,大正区小林東3丁目23番5号,大正中央中学校北面金柵,34.643929,135.472168,
大阪府,大阪市,498,大正区小林東3丁目22番,市営小林住宅1号館北面,34.643497,135.472275,
大阪府,大阪市,499,大正区小林西2丁目5番14号,小林児童遊園西面金網,34.642715,135.469177,
大阪府,大阪市,500,大正区平尾４丁目１番,市営小林住宅２号館南西角,34.642761,135.472763,
大阪府,大阪市,501,大正区平尾２丁目２１番２８号,平尾小学校正門右側付近金柵,34.640923,135.473923,
大阪府,大阪市,502,大正区平尾２丁目２１番２８号,平尾小学校南面通用門付近金柵,34.640923,135.473923,
大阪府,大阪市,503,大正区平尾４丁目１９番１６号,鶴三好ロジテックテータープール北面金柵,34.641304,135.470627,
大阪府,大阪市,504,大正区南恩加島２丁目７番３６号,鶴三好ロジテック事務所駐車場北面金柵,34.638058,135.470718,
大阪府,大阪市,505,大正区南恩加島１丁目１３番,南恩加島公園西面,34.634266,135.472076,
大阪府,大阪市,506,大正区南恩加島３丁目６番１１号,南恩加島小学校正門付近,34.636047,135.469559,
大阪府,大阪市,507,大正区南恩加島３丁目６番１１号,南恩加島小学校東面金柵,34.636047,135.469559,
大阪府,大阪市,508,大正区南恩加島６丁目１４番３７号,大正西中学校正門左横金柵,34.636684,135.464325,
大阪府,大阪市,509,大正区南恩加島６丁目１４番３７号,大正西中学校通用門付近金柵,34.636684,135.464325,
大阪府,大阪市,510,大正区南恩加島６丁目１４番,南恩加島西公園東面,34.636326,135.464722,
大阪府,大阪市,511,大正区鶴町１丁目８番１４,鶴町ゲートボール場北側金網,34.635757,135.458679,
大阪府,大阪市,512,大正区鶴町１丁目１９番,鶴町南公園北東角,34.635765,135.455002,
大阪府,大阪市,513,大正区鶴町２丁目７番,鶴町中央公園西面,34.638863,135.455597,
大阪府,大阪市,514,大正区鶴町３丁目２２番,市営鶴町第３住宅１号館東面,34.642136,135.45372,
大阪府,大阪市,515,大正区鶴町３丁目６番,市営鶴町第５住宅７号館西面,34.641808,135.455872,
大阪府,大阪市,516,大正区鶴町２丁目６番２４号,鶴町小学校正門付近金柵,34.639702,135.456238,
大阪府,大阪市,517,大正区鶴町２丁目６番２４号,鶴町小学校南通用門付近金柵,34.639702,135.456238,
大阪府,大阪市,518,天王寺区北河堀町６番２０号,天王寺中学校南面鉄柵,34.649357,135.517334,
大阪府,大阪市,519,天王寺区大道四丁目６番街区,大道北公園北面,34.649006,135.521515,
大阪府,大阪市,520,天王寺区悲田院町６番街区,大阪シティバス阿倍野北操車場東面金網,34.648533,135.515793,
大阪府,大阪市,521,天王寺区大道一丁目６番街区,四天王寺南交差点南東緑地,34.652627,135.51381,
大阪府,大阪市,522,天王寺区堀越町２番街区,庚申堂公園北面金網,34.650314,135.516251,
大阪府,大阪市,523,天王寺区茶臼山町５番街区,天王寺公園天王寺駅前交番西鉄柵,34.64856,135.510803,
大阪府,大阪市,524,天王寺区生玉寺町７番街区,区民センター東側緑地,34.661015,135.512741,
大阪府,大阪市,525,天王寺区上汐五丁目６番２５号,クレオ大阪中央玄関横鉄柵,34.660088,135.515671,
大阪府,大阪市,526,天王寺区上本町八丁目７番街区,上八公園北東側緑地,34.659645,135.517502,
大阪府,大阪市,527,天王寺区四天王寺一丁目３番街区,五條宮前西交差点南側緑地,34.656746,135.517365,
大阪府,大阪市,528,天王寺区四天王寺一丁目９番１８号,大江小学校南面鉄柵,34.656139,135.514236,
大阪府,大阪市,529,天王寺区夕陽丘町４番街区南東,大阪星光学院北側緑地,34.657509,135.513458,
大阪府,大阪市,530,天王寺区烏ヶ辻二丁目８番街区,市営勝山第一住宅１号館東面植込,34.654987,135.52504,
大阪府,大阪市,531,天王寺区烏ヶ辻二丁目９番２６号,大阪ビジネスフロンティア高校南面,34.655231,135.524231,
大阪府,大阪市,532,天王寺区勝山一丁目１６番街区,市営勝山第一住宅１号館西面植込,34.65308,135.518414,
大阪府,大阪市,533,天王寺区寺田町一丁目６番３７号,聖和小学校北面鉄柵,34.652088,135.522217,
大阪府,大阪市,534,天王寺区国分町１４番街区,国分公園西面,34.65131,135.524521,
大阪府,大阪市,535,天王寺区北山町１０番街区,大阪府立夕陽丘高校東面南フェンス,34.658354,135.523121,
大阪府,大阪市,536,天王寺区小宮町９番２８号,五条小学校北面鉄柵,34.658714,135.519592,
大阪府,大阪市,537,天王寺区真法院町２０番３３号,天王寺区役所正面玄関前東側植込,34.658142,135.519348,
大阪府,大阪市,538,天王寺区烏ヶ辻二丁目５番街区,五条公園グランド北西角,34.657623,135.52359,
大阪府,大阪市,539,天王寺区真法院町１５番１５号,真生幼稚園西面,34.656734,135.520782,
大阪府,大阪市,540,天王寺区小宮町５番街区,市営小宮住宅１号館北西面植込,34.660313,135.52034,
大阪府,大阪市,541,天王寺区石ケ辻町１１番街区,石ケ辻公園北面,34.663433,135.522278,
大阪府,大阪市,542,天王寺区石ケ辻町１２番１６号,清風学園東面鉄柵,34.663116,135.521637,
大阪府,大阪市,543,天王寺区上之宮町４番４号,五条幼稚園東面,34.661366,135.522324,
大阪府,大阪市,544,天王寺区上之宮町３番街区,建設局上之宮出張所南面フェンス,34.662113,135.52063,
大阪府,大阪市,545,天王寺区上汐三丁目５番街区,上汐北公園南面,34.66391,135.517105,
大阪府,大阪市,546,天王寺区生玉町６番街区,生玉公園北面鉄柵,34.664551,135.514404,
大阪府,大阪市,547,天王寺区生玉町３番街区南東,生玉南交差点西側緑地,34.664459,135.514893,
大阪府,大阪市,548,天王寺区上汐四丁目１番２５号,生魂小学校南面鉄柵,34.663235,135.516556,
大阪府,大阪市,549,天王寺区上汐四丁目３番２号,天王寺保健福祉センター分館南側フェンス,34.66151,135.517105,
大阪府,大阪市,550,天王寺区筆ケ崎町６番街区,市営筆ヶ崎住宅北面植込,34.663654,135.524323,
大阪府,大阪市,551,天王寺区堂ケ芝一丁目２番２３号,桃陽小学校東面鉄柵,34.661541,135.527924,
大阪府,大阪市,552,天王寺区堂ケ芝二丁目１２番１１号,市営堂ヶ芝住宅１１号館南面植込,34.659111,135.525925,
大阪府,大阪市,553,天王寺区堂ケ芝二丁目１７番街区,五条小公園北面,34.659054,135.524582,
大阪府,大阪市,554,天王寺区筆ケ崎町１番街区,桃陽会館南側鉄柵,34.66486,135.52829,
大阪府,大阪市,555,天王寺区味原町１０番１８号,OsakaMetro鶴橋変電所北面金網,34.667789,135.528687,
大阪府,大阪市,556,天王寺区味原町８番１９号,味原小学校南面ブロック塀,34.667152,135.527588,
大阪府,大阪市,557,天王寺区小橋町３番街区,小橋公園西面,34.666476,135.52554,
大阪府,大阪市,558,天王寺区小橋町３番街区,小橋公園東面,34.66655,135.526577,
大阪府,大阪市,559,天王寺区玉造本町１４番街区,幸相山西公園北東面金網,34.672626,135.528625,
大阪府,大阪市,560,天王寺区真田山町５番街区,真田山公園北面広報板横,34.669212,135.527084,
大阪府,大阪市,561,天王寺区餌差町３番街区,真田山小学校学習園東面鉄柵,34.672039,135.527023,
大阪府,大阪市,562,天王寺区餌差町５番４号,大阪明星学園南面鉄柵,34.672943,135.526718,
大阪府,大阪市,563,天王寺区真田山町５番街区,真田山公園南面,34.669212,135.527084,
大阪府,大阪市,564,天王寺区清水谷町１６番街区,清水谷公園南面東,34.67355,135.524094,
大阪府,大阪市,565,天王寺区空清町８番街区,市営空清住宅１号館北面,34.672573,135.522644,
大阪府,大阪市,566,天王寺区上本町三丁目２番３号,小上馬モータープール東面,34.672802,135.521057,
大阪府,大阪市,567,天王寺区城南寺町１番３１号,高津中学校西面鉄柵,34.671494,135.523315,
大阪府,大阪市,568,天王寺区上本町五丁目３番２３号,正念寺東面,34.668545,135.519943,
大阪府,大阪市,569,天王寺区東高津町１２番街区,たかつガーデン駐車場西面金網,34.666348,135.521774,
大阪府,大阪市,570,平野区平野元町９,ＪＲ平野駅北側植込,34.631161,135.550949,
大阪府,大阪市,571,平野区平野宮町１８－５５,平野北中学校正門南側鉄柵,34.628242,135.553116,
大阪府,大阪市,572,平野区平野宮町１９－２９,平野小学校正門東側コンクリート塀,34.628242,135.553116,
大阪府,大阪市,573,平野区平野市町１－８,坂上公園西入口北側コンクリート柵,34.627857,135.55751,
大阪府,大阪市,574,平野区平野市町３－１０,京町公園南側植込,34.626102,135.558762,
大阪府,大阪市,575,平野区平野上町２－４,今井商事管理駐車場東側金網,34.625488,135.552521,
大阪府,大阪市,576,平野区平野本町４－９,木谷モータープール北側金網,34.622398,135.553955,
大阪府,大阪市,577,平野区平野東２－１１,平野公国内野球場北側鉄柵,34.622501,135.559189,
大阪府,大阪市,578,平野区背戸口１－１６－２６,平野中学校体育館東側鉄柵,34.622841,135.543518,
大阪府,大阪市,579,平野区背戸口４－１－３１,平野西小学校正門南側鉄柵,34.624554,135.547165,
大阪府,大阪市,580,平野区背戸口２－１,今井商事管理駐車場北側金網,34.625252,135.544373,
大阪府,大阪市,581,平野区西脇２－２,西脇公園西側金網,34.628029,135.545883,
大阪府,大阪市,582,平野区西脇３－２,日産プリンス西側駐車場南側金網,34.629856,135.547058,
大阪府,大阪市,583,平野区平野本町１１－１５－１４,平野西保育所正門北側,34.624294,135.550461,
大阪府,大阪市,584,平野区背戸口３－８－１９,平野区役所南側植込,34.621017,135.546494,
大阪府,大阪市,585,平野区平野西１－３,平野西１丁目駐車場東側金網,34.620205,135.542862,
大阪府,大阪市,586,平野区平野西１－４－２９,平野丁営所南側植込,34.620159,135.54071,
大阪府,大阪市,587,平野区流町１－６,大阪教育大学附属平野小学校北側フェンス,34.619488,135.550766,
大阪府,大阪市,588,平野区平野西３－５,平野西公園東側植込,34.619289,135.545914,
大阪府,大阪市,589,平野区背戸口５－３,大阪メトロ平野駅３号出口自転車置場西側金網,34.622223,135.548431,
大阪府,大阪市,590,平野区平野南２－３－８,平野南小学校西門北側鉄柵,34.618305,135.558334,
大阪府,大阪市,591,平野区平野南１－２,平野野堂公園北側植込,34.620422,135.558182,
大阪府,大阪市,592,平野区流町３－２０－７,三菱ＵＦＪ銀行平野南口支店南側ブロック塀,34.620613,135.555664,
大阪府,大阪市,593,平野区平野南３－１１,平野東住宅５号棟北側広場植込,34.618469,135.560364,
大阪府,大阪市,594,平野区流町４－１０－１０,三好病院北側ブロック塀,34.61834,135.554565,
大阪府,大阪市,595,平野区流町２－１－２４,大阪教育大学附属平野中学校正門南側鉄柵,34.618202,135.551483,
大阪府,大阪市,596,平野区喜連東１－３,喜連北池住宅給水塔北側金網,34.616119,135.560349,
大阪府,大阪市,597,平野区喜連東２－２－１７,喜連東小学校正門東側鉄柵,34.613758,135.561707,
大阪府,大阪市,598,平野区喜連東４－４,東喜連第３住宅１２号館北西向駐車場横,34.612934,135.564667,
大阪府,大阪市,599,平野区喜連東３－６,東喜連第２住宅１号棟集会所北側,34.610825,135.560654,
大阪府,大阪市,600,平野区喜連東５－３,東喜連第４住宅３号棟南東植込,34.610031,135.564209,
大阪府,大阪市,601,平野区喜連５－９,喜連北公園東南植込,34.615677,135.557602,
大阪府,大阪市,602,平野区喜連１－７－４,喜連北小学校正門西側鉄柵,34.614525,135.550064,
大阪府,大阪市,603,平野区喜連１－８,喜連北第１公園東入口植込,34.613621,135.551666,
大阪府,大阪市,604,平野区喜連１－８,喜連北第１公園南入口東側植込,34.613621,135.551666,
大阪府,大阪市,605,平野区喜連西５－１－４０,金森モータープール南側鉄柵,34.614819,135.547516,
大阪府,大阪市,606,平野区喜連６－７,喜連中央公園北東角鉄柵,34.613014,135.557877,
大阪府,大阪市,607,平野区喜連７－４,喜連住宅２号館東側植込,34.610302,135.556961,
大阪府,大阪市,608,平野区喜連７－６－４,喜連小学校正門東側ブロック塀,34.611652,135.555649,
大阪府,大阪市,609,平野区喜連２－７,府住宅供給公社喜連団地９号棟駐車場西側鉄柵,34.609573,135.552032,
大阪府,大阪市,610,平野区喜連４－１０,喜連第２住宅１号棟南東角植込,34.610275,135.554703,
大阪府,大阪市,611,平野区喜連西１－１０,西喜連第４住宅１号棟北東角植込,34.616295,135.541824,
大阪府,大阪市,612,平野区喜連西２－１,西喜連第４住宅５号棟北側駐車場金網,34.614216,135.541443,
大阪府,大阪市,613,平野区喜連西６－２－１１,喜連中学校正門南側鉄柵,34.611771,135.547897,
大阪府,大阪市,614,平野区喜連西３－１７－６１,喜連西小学校正門北側鉄柵,34.612415,135.54422,
大阪府,大阪市,615,平野区喜連西３－８,西喜連第５住宅４号館西側植込,34.611301,135.542511,
大阪府,大阪市,616,平野区喜連西３－１８,西喜連第５住宅２号館南東側植込,34.611301,135.544952,
大阪府,大阪市,617,平野区長吉出戸 １－１１,長吉出戸公園南入口植込,34.614185,135.56456,
大阪府,大阪市,618,平野区長吉出戸 １－１,長吉第２住宅西側駐輪場鉄柵,34.61628,135.56221,
大阪府,大阪市,619,平野区長吉出戸 ２－１９,長吉出戸西住宅中央広場南側金網,34.613995,135.568176,
大阪府,大阪市,620,平野区長吉出戸 ３－１－４３,長吉出戸小学校正門東側鉄柵,34.611774,135.57019,
大阪府,大阪市,621,平野区長吉出戸 ５－４,長吉公園東側入口南側鉄柵,34.610786,135.570816,
大阪府,大阪市,622,平野区長吉出戸 ５－３－５８,平野区民センター正面玄関東側植込,34.608421,135.569839,
大阪府,大阪市,623,平野区長吉長原西 ２－４,長原西公園南側,34.605225,135.566177,
大阪府,大阪市,624,平野区長吉長原 ２－６－５５,長吉小学校北門東側鉄柵,34.605705,135.568893,
大阪府,大阪市,625,平野区長吉長原 ２－１４－６,長吉住宅１号棟ごみ集積場西側植込,34.605797,135.572266,
大阪府,大阪市,626,平野区長吉川辺 １－４－９,川辺小学校正門東側鉄柵,34.596962,135.569489,
大阪府,大阪市,627,平野区長吉川辺 ４－１,菜乃花の里児童遊園西側植込,34.592335,135.568329,
大阪府,大阪市,628,平野区長吉長原西 ３－８－２１,長吉西中学校正門南側　鉄柵,34.600811,135.566818,
大阪府,大阪市,629,平野区長吉長原西 ４－２－１０,長吉長原西第３住宅１０号棟西側鉄柵,34.59922,135.565094,
大阪府,大阪市,630,平野区長吉川辺 ２－北１,川辺北公園北側植込,34.598759,135.57103,
大阪府,大阪市,631,平野区長吉出戸 ７－３,長吉出戸第２住宅１号棟北側金網,34.612118,135.574692,
大阪府,大阪市,632,平野区長吉出戸 ７－７,出戸やすらぎ公園南西側植込,34.610565,135.575256,
大阪府,大阪市,633,平野区長吉出戸 ８－８－４１,長吉東小学校正門北側鉄柵,34.608177,135.576126,
大阪府,大阪市,634,平野区長吉出戸 ８－１１－４,長吉出戸南第１住宅４号棟　北側植込,34.607555,135.576782,
大阪府,大阪市,635,平野区長吉六反 １－８,六反さくら公園南東側植込,34.609989,135.579941,
大阪府,大阪市,636,平野区長吉六反 ４－５－３,長吉六反北住宅３号棟東側植込,34.608765,135.583954,
大阪府,大阪市,637,平野区長吉六反 ４－７,六反東公園西側鉄柵,34.607277,135.585312,
大阪府,大阪市,638,平野区長吉六反 ４－９,希望の橋南側　植込,34.608597,135.586166,
大阪府,大阪市,639,平野区長吉六反 ５－８,長吉六反第１住宅２号棟　北東植込,34.603859,135.584381,
大阪府,大阪市,640,平野区長吉長原東 １－６－１５,長吉中学校東側ブロック塀,34.605442,135.576523,
大阪府,大阪市,641,平野区長吉長原東 ２－５－１１,長吉長原東住宅１１号館東側植込,34.603695,135.576462,
大阪府,大阪市,642,平野区長吉六反 ３－２－１７,長吉南小学校正門南側ブロック塀,34.604305,135.578842,
大阪府,大阪市,643,平野区長吉長原東 ３－１２－４７,長吉第二幼稚園西側金網,34.601601,135.578491,
大阪府,大阪市,644,平野区長吉川辺 ３－１１,長吉東都南公園南側,34.59626,135.578339,
大阪府,大阪市,645,平野区長吉六反 ３－１１－１６,長吉長原東住宅１６棟西側 植込,34.602329,135.580582,
大阪府,大阪市,646,平野区瓜破 ２－４,瓜破２丁目住宅１号棟北側植込,34.607021,135.552444,
大阪府,大阪市,647,平野区瓜破 ２－５－３１,瓜破中学校正門西側鉄柵,34.60643,135.554214,
大阪府,大阪市,648,平野区瓜破 ５－３－１１,瓜破小学校正門西側鉄柵,34.602707,135.553467,
大阪府,大阪市,649,平野区瓜破 ５－４－１９,瓜破大神社東側石垣境内道路側植込,34.602043,135.555038,
大阪府,大阪市,650,平野区瓜破東 ６－１－４１,瓜破会館北側入口鉄柵,34.602501,135.558151,
大阪府,大阪市,651,平野区瓜破東 ６－３,平野区わた畑南側金網,34.600971,135.558609,
大阪府,大阪市,652,平野区瓜破南 ２－１－５６,㈱タプチ南側ブロック塀金網,34.596458,135.552399,
大阪府,大阪市,653,平野区瓜破 １－８－３３,瓜破北小学校正門西側鉄柵,34.604782,135.551346,
大阪府,大阪市,654,平野区瓜破 ６－１０,大阪シティバス南野大橋停留所南側金網,34.599648,135.551239,
大阪府,大阪市,655,平野区瓜破西 １－１２,瓜破西住宅６号棟東側植込,34.606106,135.548355,
大阪府,大阪市,656,平野区瓜破西 １－５,瓜破西住宅集会所東側植込,34.605671,135.545776,
大阪府,大阪市,657,平野区瓜破西 １－１,瓜破西第２住宅２号棟北側植込,34.607697,135.543976,
大阪府,大阪市,658,平野区瓜破 ６－３,瓜破土地改良区西会館西側金網,34.599613,135.549393,
大阪府,大阪市,659,平野区瓜破西 ２－１－４３,瓜破西小学校正門西側鉄柵,34.603817,135.544617,
大阪府,大阪市,660,平野区瓜破西 ２－１２－２２,瓜破西中学校正門南側鉄柵,34.602306,135.545914,
大阪府,大阪市,661,平野区瓜破 ４－１－１７,相互タクシー㈱東側金網,34.602966,135.550018,
大阪府,大阪市,662,平野区瓜破東 １－６,瓜破東第１住宅５号館南西側植込,34.607273,135.556656,
大阪府,大阪市,663,平野区瓜破東 １－４,瓜破東１丁目住宅４号棟東側植込,34.607674,135.557968,
大阪府,大阪市,664,平野区瓜破東 ２－２,瓜破東住宅３号館北側駐車場植込,34.607304,135.559189,
大阪府,大阪市,665,平野区瓜破東 ２－５,瓜破東中公園北側フェンス,34.608688,135.560837,
大阪府,大阪市,666,平野区瓜破東 ２－５,瓜破東北公園西側入口植込,34.608688,135.560837,
大阪府,大阪市,667,平野区瓜破東 ２－７,瓜破東第２住宅２６号棟南西空地（ポンプ室）,34.607521,135.564102,
大阪府,大阪市,668,平野区加美北 ６－１３,加美柿花公園入口西側植込,34.634678,135.556931,
大阪府,大阪市,669,平野区加美北 ２－５,平野下水処理場西側ブロック塀,34.640808,135.558167,
大阪府,大阪市,670,平野区加美北 ５－４,加美北公園（東公園）北側植込,34.640011,135.561722,
大阪府,大阪市,671,平野区加美北 ５－９,加美長沢西公園北側植込,34.637623,135.561523,
大阪府,大阪市,672,平野区加美北 ７－４－１０,加美北小学校正門東側鉄柵,34.636593,135.560486,
大阪府,大阪市,673,平野区加美北 ８－３,市設加美霊園西側フェンス,34.636261,135.564743,
大阪府,大阪市,674,平野区加美北 ８－１３,加美北第２住宅２号棟北側植込,34.634903,135.562988,
大阪府,大阪市,675,平野区加美北 ６－１６,加美正覚寺住宅８号棟東側ブロック塀内側植込,34.634163,135.554703,
大阪府,大阪市,676,平野区加美正覚寺 ２－１１－２,加美神明第２住宅２号棟南側植込,34.630318,135.559601,
大阪府,大阪市,677,平野区加美正覚寺 ２－１２－２６,加美第一保育所正門北側フェンス,34.630112,135.560837,
大阪府,大阪市,678,平野区加美正覚寺 ３－１３－３５,加美小学校南側鉄柵,34.630127,135.56366,
大阪府,大阪市,679,平野区加美東 １－６,加美神明公園南側植込,34.632,135.565872,
大阪府,大阪市,680,平野区加美西 １－３,たらばな公園東側植込,34.627106,135.560242,
大阪府,大阪市,681,平野区加美東 ３－１０,加美東第１住宅６号棟東側植込,34.631741,135.573151,
大阪府,大阪市,682,平野区加美東 ６－６,加美東第２住宅３号棟西側植込,34.629723,135.574722,
大阪府,大阪市,683,平野区加美東 ５－９－２５,加美東小学校正門北側ブロック塀,34.626972,135.57193,
大阪府,大阪市,684,平野区加美東 ５－８,加美東児童遊園北東角金網,34.627979,135.569565,
大阪府,大阪市,685,平野区加美東 ５－１,加美東モータープール北側フェンス,34.630035,135.569458,
大阪府,大阪市,686,平野区加美東 ４－８,もと加美絹木住宅北側金網,34.627323,135.566742,
大阪府,大阪市,687,平野区加美南 １－９－１７,加美南部小学校正門南側鉄柵,34.624344,135.570404,
大阪府,大阪市,688,平野区加美南 ２－５－２,加美グランドハイツ２号棟北側バス停前金網,34.623764,135.572357,
大阪府,大阪市,689,平野区加美南 １－１１,加美鞍作公園南側植込,34.622917,135.571198,
大阪府,大阪市,690,平野区加美南 ５－１１,加美八尾共同墓地 南側ブロック塀,34.61945,135.573105,
大阪府,大阪市,691,平野区加美西 ２－５,加美西公園正門南側植込,34.62534,135.563797,
大阪府,大阪市,692,平野区加美鞍作 １－２,加美ユースセンター北側ゲートボール場門側金網,34.62653,135.564804,
大阪府,大阪市,693,旭区新森 ４丁目２２番,新森中央公園西側植え込み,34.7181069,135.556598,
大阪府,大阪市,694,旭区新森 ４丁目２番,大阪メトロ新森古市駅２番出口東側フェンス,34.7155904,135.5577777,
大阪府,大阪市,695,旭区新森 ６丁目３番１３号,新森小路小学校正門東側鉄柵,34.7152885,135.5614922,
大阪府,大阪市,696,旭区新森 ６丁目７番２５号,旭東中学校西側鉄柵バス停付近,34.7183426,135.5620223,
大阪府,大阪市,697,旭区新森 ６丁目６番９号,旭東中学校体育館西側鉄柵,34.7168018,135.5610222,
大阪府,大阪市,698,旭区新森 ６丁目８番,新森東公園北側植え込み,34.717885,135.5633819,
大阪府,大阪市,699,旭区新森 ７丁目５番５号,旭東幼稚園北側鉄柵,34.7188977,135.5646516,
大阪府,大阪市,700,旭区清水 ３丁目９番,清水北公園北西側植え込み,34.7244867,135.5577777,
大阪府,大阪市,701,旭区清水 ２丁目５番,清水小公園南側植え込み,34.7209581,135.5593262,
大阪府,大阪市,702,旭区清水 ２丁目１３番,清水南公園西側植え込み,34.7219704,135.5589575,
大阪府,大阪市,703,旭区清水 ３丁目３１番,清水中公園西側植え込み,34.7236241,135.5601373,
大阪府,大阪市,704,旭区清水 ３丁目１５番２０号,清水集会センター南側フェンス,34.7225211,135.5591665,
大阪府,大阪市,705,旭区清水 ４丁目６番１５号,両国保育所北側鉄柵,34.721619,135.563659,
大阪府,大阪市,706,旭区清水 ５丁目１番１２号,清水小学校西側ブロック塀南端,34.7231891,135.5617781,
大阪府,大阪市,707,旭区新森 １丁目４番,新森南公園北東側植え込み,34.715578,135.550856,
大阪府,大阪市,708,旭区新森 １丁目７番,クローバーハイツ１号棟北側フェンス,34.7172516,135.5515026,
大阪府,大阪市,709,旭区新森 ２丁目８番１８号,ヤナセ新森モータープール南側フェンス,34.7172541,135.5531114,
大阪府,大阪市,710,旭区新森 ２丁目７番２号,城北川遊歩道北側壁面フェンス,34.7175932,135.5520896,
大阪府,大阪市,711,旭区新森 ３丁目１２番,新森北公園南側植え込み,34.720046,135.5543123,
大阪府,大阪市,712,旭区新森 １丁目６番９号,城北川遊歩道南側壁面フェンス,34.7176823,135.5508386,
大阪府,大阪市,713,旭区森小路 １丁目７番,森小路東公園西側植え込み,34.7201357,135.5500661,
大阪府,大阪市,714,旭区森小路 １丁目１２番,森小路南公園南側植え込み,34.7219099,135.5491008,
大阪府,大阪市,715,旭区森小路 ２丁目１０番３５号,古市小学校東側鉄柵,34.7228256,135.5511144,
大阪府,大阪市,716,旭区森小路 ２丁目５番２６号,旭区保健福祉センター（分館）東側ブロック塀,34.7231464,135.5497482,
大阪府,大阪市,717,旭区森小路 ２丁目５番,大阪メトロ千林大宮駅３番出口駐輪場,34.7234746,135.5495201,
大阪府,大阪市,718,旭区千林 ２丁目９番,千林公園南側植え込み,34.7251212,135.5512895,
大阪府,大阪市,719,旭区今市 １丁目２番２号,今市地域在宅サービスステーション西側フェンス,34.7265395,135.550368,
大阪府,大阪市,720,旭区今市 １丁目５番６号,浄願寺本堂裏手北側鉄柵,34.7259476,135.5520332,
大阪府,大阪市,721,旭区今市 １丁目９番２５号,宝龍寺西側ブロック塀,34.727517,135.5521558,
大阪府,大阪市,722,旭区今市 ２丁目７番,今市公園北側鉄柵,34.7263401,135.5539437,
大阪府,大阪市,723,旭区今市 ２丁目２２番,上辻霊園東側フェンス,34.7305097,135.5539437,
大阪府,大阪市,724,旭区今市 ２丁目２１番,今市パンダ集会所,34.7298254,135.5530589,
大阪府,大阪市,725,旭区大宮 １丁目１番１７号,旭区役所前付近植え込み,34.7211833,135.5442644,
大阪府,大阪市,726,旭区大宮 １丁目１番１１号,旭消防署西側フェンス,34.721379,135.5436887,
大阪府,大阪市,727,旭区大宮 １丁目１番３２号,建設局東工営所旭出張所跡地東側ブロック塀,34.7208853,135.5445258,
大阪府,大阪市,728,旭区大宮 ２丁目１番２０号,前田邸東側ブロック塀（センモリ株式会社）,34.7233139,135.5441019,
大阪府,大阪市,729,旭区大宮 １丁目２０番８号,日本郵便株式会社大阪旭郵便局北側バス停付近スロープ手すり,34.7207254,135.5477263,
大阪府,大阪市,730,旭区大宮 １丁目５番２０号,北野駐車場南東フェンス,34.7220427,135.5463637,
大阪府,大阪市,731,旭区大宮 ３丁目１番３７号,大宮神社東側ブロック塀,34.7253653,135.5449507,
大阪府,大阪市,732,旭区大宮 ４丁目９番１６号,大宮小学校西側鉄柵,34.7270524,135.5467188,
大阪府,大阪市,733,旭区大宮 ４丁目１２番,大宮小学校第二運動場北東角鉄柵,34.7278079,135.547456,
大阪府,大阪市,734,旭区大宮 ５丁目１番１３号,市営城北住宅１３号棟西側植え込み,34.729368,135.546281,
大阪府,大阪市,735,旭区大宮 ５丁目１１番,江堀川筋遊歩道（阪神高速高架下）鉄柵,34.7305734,135.5486355,
大阪府,大阪市,736,旭区大宮 ５丁目９番２０号,大宮北老人憩いの家南側フェンス,34.7301623,135.5467122,
大阪府,大阪市,737,旭区大宮 ５丁目１１番７号,大阪府立思斉支援学校南側鉄柵,34.7303753,135.5488886,
大阪府,大阪市,738,旭区中宮１丁目８番１４号,大宮西小学校東側ブロック塀,34.7222871,135.5415358,
大阪府,大阪市,739,旭区中宮１丁目９番２４号,株式会社旭大理石工作所南側鉄柵,34.72202,135.5411719,
大阪府,大阪市,740,旭区中宮１丁目１１番,市営中宮第二住宅北側ブロック塀,34.7211934,135.5427382,
大阪府,大阪市,741,旭区中宮２丁目１８番,江勝公園東側植え込み,34.7239124,135.5418558,
大阪府,大阪市,742,旭区中宮２丁目２２番２２号,大宮第一保育所西側フェンス,34.7235971,135.5429409,
大阪府,大阪市,743,旭区中宮４丁目７番１１号,大宮中学校南西角鉄柵,34.7270952,135.5406867,
大阪府,大阪市,744,旭区中宮４丁目７番１１号,大宮中学校北側鉄柵,34.7270952,135.5406867,
大阪府,大阪市,745,旭区中宮３丁目１６番１号,江野川筋遊歩道　中宮老人憩いの家東側鉄柵,34.7257621,135.5442125,
大阪府,大阪市,746,旭区中宮５丁目６番,江野川筋遊歩道（阪神高速高架傘下）植え込み,34.7294501,135.5430515,
大阪府,大阪市,747,旭区中宮５丁目９番,大宮中学校第２運動場南側鉄柵,34.7296955,135.5406744,
大阪府,大阪市,748,旭区太子橋１丁目８番,太子橋南公園西側植え込み,34.7304026,135.5512895,
大阪府,大阪市,749,旭区太子橋１丁目１２番１５号,太子橋小学校正門西側鉄柵,34.7323434,135.5538189,
大阪府,大阪市,750,旭区太子橋１丁目１７番,太子橋西公園東側植え込み,34.7326192,135.5518793,
大阪府,大阪市,751,旭区太子橋２丁目７番,太子橋中公園西側植え込み,34.7367533,135.5548284,
大阪府,大阪市,752,旭区太子橋３丁目２番,淀川パークハウス西側植え込み,34.7377726,135.5567454,
大阪府,大阪市,753,旭区太子橋３丁目３番,太子橋東公園南側植え込み,34.738229,135.5592524,
大阪府,大阪市,754,旭区太子橋３丁目９８４７号,マックスバリュー太子橋北東側フェンス,34.7398538,135.5570404,
大阪府,大阪市,755,旭区生江１丁目４番,生江南公園西側植込み,34.7232236,135.5356625,
大阪府,大阪市,756,旭区生江１丁目１０番２１号,生江小学校南側鉄柵,34.7233234,135.538044,
大阪府,大阪市,757,旭区生江２丁目１０番,生江霊園北側フェンス,34.7241432,135.5372102,
大阪府,大阪市,758,旭区生江２丁目１１番８号,生江東公園東側植え込み,34.7248871,135.537366,
大阪府,大阪市,759,旭区生江３丁目１４番１３号,生江保育園南側フェンス,34.7276929,135.5350387,
大阪府,大阪市,760,旭区生江３丁目２９番,城北公園バス停前付近植え込み,34.728703,135.538254,
大阪府,大阪市,761,旭区赤川１丁目４番,赤川南公園西側植え込み（城北集会所寄り）,34.7235366,135.5327146,
大阪府,大阪市,762,旭区赤川１丁目７番,日本タクシー株式会社社員用駐車場北側フェンス,34.721936,135.533203,
大阪府,大阪市,763,旭区赤川２丁目８番６号,小島将春邸西側ブロック塀,34.7250069,135.532378,
大阪府,大阪市,764,旭区赤川１丁目１１番８号,大阪運輸倉庫株式会社北側ブロック塀,34.7235404,135.5338569,
大阪府,大阪市,765,旭区赤川３丁目１３番４７号,城北小学校正門北側鉄柵,34.7270482,135.5302643,
大阪府,大阪市,766,旭区赤川４丁目１番３０号,大阪市立生江障害者会館　光生園南側鉄柵（城北公園通側）,34.7272005,135.5337125,
大阪府,大阪市,767,旭区赤川４丁目２２番２８号,城北憩いの家東側フェンス,34.7280484,135.53057,
大阪府,大阪市,768,旭区高殿１丁目３番,高殿西公園東側植込み,34.7189261,135.5347781,
大阪府,大阪市,769,旭区高殿５丁目３番,旭スポーツセンター自転車置き場前植え込み,34.7170522,135.5403795,
大阪府,大阪市,770,旭区高殿５丁目９番３１号,旭陽中学校南側鉄柵,34.7183984,135.5392014,
大阪府,大阪市,771,旭区高殿５丁目９番３１号,旭陽中学校東側鉄柵,34.7183984,135.5392014,
大阪府,大阪市,772,旭区高殿６丁目９番１０号,高殿小学校正門南側鉄柵,34.7176449,135.5434661,
大阪府,大阪市,773,旭区高殿６丁目９番１０号,高殿小学校東門北側鉄柵,34.7176449,135.5434661,
大阪府,大阪市,774,旭区高殿７丁目７番２８号,関目モータープール西側フェンス,34.7163063,135.5474557,
大阪府,大阪市,775,旭区高殿２丁目１３番１号,市営高殿西第２住宅駐車場北側鉄柵,34.7189159,135.5372026,
大阪府,大阪市,776,旭区高殿３丁目２１番,高殿第２コーポ２号棟東側高殿西駐車場　西角フェンス,34.7151385,135.5406007,
大阪府,大阪市,777,旭区高殿４丁目７番,高殿南公園,34.7149853,135.54178,
大阪府,大阪市,778,旭区高殿４丁目２０番１６号,伊藤邸駐車場北側と西側フェンス,34.7160847,135.5444749,
大阪府,大阪市,779,旭区高殿２丁目４番,高殿南公園南東側植え込み,34.7165744,135.536768,
大阪府,大阪市,780,旭区高殿３丁目１０番３０号,高殿南小学校正門北側鉄柵,34.7140195,135.539753,
大阪府,大阪市,781,東住吉区杭全２－１３,育和児童遊園北側金網,34.636738,135.537827,
大阪府,大阪市,782,東住吉区杭全１－６,駒川商店街駒,34.639923,135.53595,
大阪府,大阪市,783,東住吉区杭全４－３,杭全公園西側,34.634087,135.535263,
大阪府,大阪市,784,東住吉区杭全４－１０－１２,育和小学校正門横鉄柵,34.634457,135.537949,
大阪府,大阪市,785,東住吉区杭全８－５,育和公園南側,34.633678,135.541351,
大阪府,大阪市,786,東住吉区今川１－２－２１,白鷺小学校東側鉄柵,34.630817,135.536285,
大阪府,大阪市,787,東住吉区今林１－２－６８,中央卸売市場東部市場門横柵,34.641163,135.53894,
大阪府,大阪市,788,東住吉区今林２－１１－６,育和白鷺学園今林園南側,34.63784,135.542923,
大阪府,大阪市,789,東住吉区今林４－４,今林公園西北側,34.63723,135.54538,
大阪府,大阪市,790,東住吉区今林３－１－８７,今林の里正門横鉄柵,34.634285,135.545044,
大阪府,大阪市,791,東住吉区杭全８－８,育和公園西側,34.632801,135.542664,
大阪府,大阪市,792,東住吉区今川３－５－８,今川学園（新園舎）南側金網,34.63068,135.541534,
大阪府,大阪市,793,東住吉区今川６－８,平野白鷺公園西側,34.627102,135.541397,
大阪府,大阪市,794,東住吉区今川６－８,平野白鷺公園南側自転車いの字横,34.627102,135.541397,
大阪府,大阪市,795,東住吉区桑津１－１２,桑津北公園北側,34.641781,135.529388,
大阪府,大阪市,796,東住吉区桑津３－１,中川モータープール北側金網,34.640377,135.530045,
大阪府,大阪市,797,東住吉区桑津３－６,桑津公園東側,34.638371,135.529831,
大阪府,大阪市,798,東住吉区桑津４－３,駒川五輪橋北側金網,34.638111,135.532684,
大阪府,大阪市,799,東住吉区桑津５－１７－２５,東住吉中学校正門横鉄柵,34.634933,135.532211,
大阪府,大阪市,800,東住吉区桑津５－１３－１３,桑津小学校北門横鉄柵,34.635788,135.530838,
大阪府,大阪市,801,東住吉区西今川１－２５,大和モータープール前今川西金網,34.634655,135.533508,
大阪府,大阪市,802,東住吉区西今川１－１７,池野宅前今川西金網,34.632317,135.533691,
大阪府,大阪市,803,東住吉区西今川１－５２８,第２めばえ保育園東門鉄柵,34.63261,135.53299,
大阪府,大阪市,804,東住吉区駒川１－１４,駒川さくら新橋北側西側鉄柵,34.631111,135.530609,
大阪府,大阪市,805,東住吉区北田辺４－２,北田辺４公園東側,34.63459,135.526138,
大阪府,大阪市,806,東住吉区北田辺３－３－２４,関西電力送配電南美章園変電所西側金網,34.634758,135.52504,
大阪府,大阪市,807,東住吉区北田辺３－１１－１４,北田辺小学校東門横鉄柵,34.632729,135.524902,
大阪府,大阪市,808,東住吉区北田辺４－１６,近鉄北田辺駅西側金網,34.632839,135.528656,
大阪府,大阪市,809,東住吉区北田辺６－７６,近鉄高架下１号駐車場Ａ,34.629745,135.527771,
大阪府,大阪市,810,東住吉区北田辺６－２４,北田辺分川高架下児童遊園南側鉄柵,34.628433,135.529556,
大阪府,大阪市,811,東住吉区山辺２－１,ＪＲ南田辺駅東側駐輪場東側鉄柵,34.628139,135.52301,
大阪府,大阪市,812,東住吉区山辺２－１,大阪メトロ谷町２号線田辺駅南東側高架沿歩道鉄柵,34.628139,135.52301,
大阪府,大阪市,813,東住吉区田辺２－３－３４,田辺小学校西門横鉄柵,34.626053,135.525787,
大阪府,大阪市,814,東住吉区駒川３－４,近鉄今川駅東側金網,34.626045,135.531113,
大阪府,大阪市,815,東住吉区駒川３－１０,田辺公園西側,34.625832,135.530823,
大阪府,大阪市,816,東住吉区山坂２－１９,山坂公園南側,34.623283,135.521774,
大阪府,大阪市,817,東住吉区山坂３－１１－１,関西電力送配電㈱坂変電所北東側鉄柵,34.621559,135.520142,
大阪府,大阪市,818,東住吉区南田辺４－２６,田辺中学校グラウンド北東側鉄柵,34.616718,135.521866,
大阪府,大阪市,819,東住吉区南田辺４－２６,田辺中学校グラウンド南西側鉄柵,34.616718,135.521866,
大阪府,大阪市,820,東住吉区南田辺４－３－４,南田辺小学校北門横鉄柵,34.61771,135.52211,
大阪府,大阪市,821,東住吉区南田辺４－３－４,南田辺小学校東門横鉄柵,34.61771,135.52211,
大阪府,大阪市,822,東住吉区山坂５－１,ＪＲ鶴ヶ丘駅東側道路予定地南側東側金網,34.617973,135.517349,
大阪府,大阪市,823,東住吉区長居公園,長居公園北西側入口横鉄柵,34.612823,135.520615,
大阪府,大阪市,824,東住吉区長居公園,長居公園北東角,34.612823,135.520615,
大阪府,大阪市,825,東住吉区東田辺１－１３－４,東住吉区役所西側,34.622334,135.526627,
大阪府,大阪市,826,東住吉区東田辺１－１１,東田辺さくら公園北側横柵,34.622284,135.528915,
大阪府,大阪市,827,東住吉区駒川３－２２,近鉄高架下金網,34.622993,135.530716,
大阪府,大阪市,828,東住吉区東田辺２－１４－６,東田辺小学校北門横鉄柵,34.620293,135.527908,
大阪府,大阪市,829,東住吉区東田辺３－１８,駒川橋北側西鉄柵,34.617596,135.529892,
大阪府,大阪市,830,東住吉区中野３－５,今川線道路側（百済公園北東側）,34.620171,135.53688,
大阪府,大阪市,831,東住吉区中野４－４－２５,中野中学校校門西側鉄柵,34.620243,135.540573,
大阪府,大阪市,832,東住吉区中野３－１０,南百済公園北側,34.618481,135.537521,
大阪府,大阪市,833,東住吉区中野４－１４－６,湯里保育園北側ブロック塀,34.617455,135.539871,
大阪府,大阪市,834,東住吉区湯里２－４,南百済小学校運動場横鉄柵,34.614967,135.536179,
大阪府,大阪市,835,東住吉区湯里１－１５－４０,南百済小学校校門鉄柵,34.6152,135.534744,
大阪府,大阪市,836,東住吉区湯里６－１４,サングッリオ・針中野南東側今川左金網,34.613422,135.539886,
大阪府,大阪市,837,東住吉区湯里６－１１－１２,今川緑樹下西金網,34.612064,135.540436,
大阪府,大阪市,838,東住吉区湯里５－７,湯里の森公園南側,34.610123,135.53624,
大阪府,大阪市,839,東住吉区湯里６－８－３,湯里小学校北門横鉄柵,34.610786,135.539627,
大阪府,大阪市,840,東住吉区駒川２－４,駒川東交番南側汗会金網,34.628902,135.53067,
大阪府,大阪市,841,東住吉区今川４－１,つくし公園東側,34.629574,135.533875,
大阪府,大阪市,842,東住吉区今川４－１,つくし公園北東鉄柵,34.629574,135.533875,
大阪府,大阪市,843,東住吉区今川４－２４－４,今川小学校校門横鉄柵,34.627296,135.535477,
大阪府,大阪市,844,東住吉区今川４－２４－４,今川小学校東門横鉄柵,34.627296,135.535477,
大阪府,大阪市,845,東住吉区今川３－２１－１７,大阪法務局東住吉出張所西側鉄柵,34.63036,135.542236,
大阪府,大阪市,846,東住吉区駒川２－５,北田辺今川高架下児童遊園東側鉄柵,34.628456,135.530685,
大阪府,大阪市,847,東住吉区中野２－１－２０,中野休日急病診療所西側金網,34.623058,135.538712,
大阪府,大阪市,848,東住吉区鷹合２－５,酒君塚公園東側,34.614868,135.53154,
大阪府,大阪市,849,東住吉区鷹合１－５－１６,鷹合保育所入口横金網,34.612888,135.528137,
大阪府,大阪市,850,東住吉区鷹合３－１２－３８,鷹合小学校東側鉄柵,34.611935,135.529053,
大阪府,大阪市,851,東住吉区鷹合３－１２－３８,鷹合小学校北門横鉄柵,34.611935,135.529053,
大阪府,大阪市,852,東住吉区鷹合３－２,鷹合旭１棟 東側鉄柵,34.611095,135.527588,
大阪府,大阪市,853,東住吉区照ヶ丘矢田２－１－５５,矢田北小学校前横鉄柵,34.608784,135.535797,
大阪府,大阪市,854,東住吉区照ヶ丘矢田２－１－５５,矢田北小学校西門横鉄柵,34.608784,135.535797,
大阪府,大阪市,855,東住吉区住道矢田６－８,矢田河原町公園南側金網,34.606827,135.541428,
大阪府,大阪市,856,東住吉区照ヶ丘矢田２－１７－４,矢田北保育所北側金網,34.606625,135.537857,
大阪府,大阪市,857,東住吉区照ヶ丘矢田１－１３－１６,矢田北会館南側金網,34.60635,135.535629,
大阪府,大阪市,858,東住吉区照ヶ丘矢田３－１１,矢田住道公園西側鉄柵,34.603798,135.53421,
大阪府,大阪市,859,東住吉区住道矢田９－７－５５,矢田中学校北側通用門横鉄柵,34.601746,135.540573,
大阪府,大阪市,860,東住吉区住道矢田２－７－４３,矢田東小学校東側通用門横鉄柵,34.603115,135.53746,
大阪府,大阪市,861,東住吉区住道矢田２－７－４３,矢田東小学校南側門横鉄柵,34.603115,135.53746,
大阪府,大阪市,862,東住吉区住道矢田１－７,矢田公園南側鉄柵,34.601593,135.532974,
大阪府,大阪市,863,東住吉区住道矢田９－７－５５,矢田中学校南側東金網,34.601746,135.540573,
大阪府,大阪市,864,東住吉区矢田１－２２,矢田部公園北側,34.606731,135.52951,
大阪府,大阪市,865,東住吉区矢田２－２５,近鉄矢田駅前花壇鉄柵,34.606346,135.532867,
大阪府,大阪市,866,東住吉区矢田６－７－２５,もと東住吉区役所矢田出張所東側金網,34.603222,135.532104,
大阪府,大阪市,867,東住吉区矢田３－４－２７,矢田南中学校南東側鉄柵,34.603199,135.529037,
大阪府,大阪市,868,東住吉区矢田６－９,矢田六公園南側柵,34.601315,135.531754,
大阪府,大阪市,869,東住吉区矢田７－６－１８,阿麻美許曽神社駐車場柵側金網,34.594727,135.529816,
大阪府,大阪市,870,東住吉区公園南矢田１－２０,市営矢田部住宅10棟南駐車場フェンス,34.608013,135.525162,
大阪府,大阪市,871,東住吉区公園南矢田１－２２,市営矢田部住宅集会所南側鉄柵,34.607109,135.525558,
大阪府,大阪市,872,東住吉区公園南矢田２－１５－４３,矢田西小学校南門横鉄柵,34.604328,135.525177,
大阪府,大阪市,873,東住吉区公園南矢田２－１５－４３,矢田西小学校 東門横鉄柵,34.604328,135.525177,
大阪府,大阪市,874,東住吉区公園南矢田３－１７,南部文化コミュニティセンター西側金網,34.600288,135.524979,
大阪府,大阪市,875,東住吉区公園南矢田３－１８－８,南部文化公園北側,34.60004,135.525696,
大阪府,大阪市,876,東住吉区公園南矢田４－３０,東住吉スポーツセンター南側鉄柵,34.598717,135.52626,
大阪府,大阪市,877,東住吉区公園南矢田４－２２,粘土町公園北側,34.597664,135.524857,
大阪府,大阪市,878,東成区東小橋２丁目１番,東小橋公園東側南寄り,34.66964,135.532608,
大阪府,大阪市,879,東成区東小橋２丁目８番１３号,宇内金属工業株式会社　駐車場南側フェンス,34.668545,135.534256,
大阪府,大阪市,880,東成区東小橋３丁目１０番３７号,東小橋小学校南門右側鉄柵,34.667175,135.532806,
大阪府,大阪市,881,東成区東小橋２丁目４番,東小橋２丁目４番街区東側植え込み,34.670174,135.535187,
大阪府,大阪市,882,東成区大今里西２丁目８番４号,東成区役所正門右側植え込み,34.670067,135.541458,
大阪府,大阪市,883,東成区大今里西２丁目８番４号,東成区役所裏門左側植え込み,34.670067,135.541458,
大阪府,大阪市,884,東成区大今里西３丁目２番１０号,今里ニューガ公開緑地北側フェンス,34.66819,135.540634,
大阪府,大阪市,885,東成区大今里西３丁目２番６２号,大成小学校正門右側鉄柵,34.667175,135.539948,
大阪府,大阪市,886,東成区大今里西３丁目１４番２８号,大成保育所南側フェンス,34.666302,135.539383,
大阪府,大阪市,887,東成区大今里西１丁目２７番１５号,東成消防署来庁者用駐場フェンス,34.670517,135.542999,
大阪府,大阪市,888,東成区大今里１丁目３５番２９号,今里小学校正門左側鉄柵（中央寄り）,34.671551,135.544708,
大阪府,大阪市,889,東成区今里３丁目１７番,今里西公園北側,34.669998,135.541107,
大阪府,大阪市,890,東成区大今里３丁目２１番,地下鉄今里駅自転車駐輪場ブロック,34.668594,135.545486,
大阪府,大阪市,891,東成区東小橋１丁目３番,歩行者道路北側植え込み（西寄り）,34.674252,135.534515,
大阪府,大阪市,892,東成区東小橋１丁目９番,東小橋北公園東側（中央寄り）,34.67334,135.533661,
大阪府,大阪市,893,東成区玉津１丁目７番３９号,中道小学校北側鉄柵（東寄り）,34.672535,135.537689,
大阪府,大阪市,894,東成区玉津１丁目１２番４３号,玉津中学校西側通用門左側鉄柵,34.671585,135.537582,
大阪府,大阪市,895,東成区中道１丁目３番,森の宮自転車駐輪場ブロック,34.679375,135.536377,
大阪府,大阪市,896,東成区中道３丁目１５番,中通３丁目１５番街区南側植え込み,34.674656,135.534988,
大阪府,大阪市,897,東成区中道２丁目９番２０号,北中道小学校正門横鉄柵,34.679386,135.538101,
大阪府,大阪市,898,東成区中道４丁目５番１１号,モータープールアズマ西側フェンス,34.67712,135.537415,
大阪府,大阪市,899,東成区中道２丁目１３番,北中道公園西側（南寄り）,34.679317,135.539948,
大阪府,大阪市,900,東成区中本４丁目２番３２号,中本小学校南通用門左側鉄柵,34.676426,135.539444,
大阪府,大阪市,901,東成区中本４丁目２番４１号,北中本保育園西側フェンス南寄り,34.676762,135.538803,
大阪府,大阪市,902,東成区中本５丁目２番,中々くすのき公園正面植え込み,34.67712,135.541489,
大阪府,大阪市,903,東成区大今里西１丁目１０番,南中本公園北側（東寄り）,34.673859,135.542404,
大阪府,大阪市,904,東成区東中本１丁目４番,地下鉄緑橋駅構第２駐輪場,34.681332,135.54747,
大阪府,大阪市,905,東成区東中本２丁目９番３号,東中本小学校北側鉄柵,34.679401,135.545456,
大阪府,大阪市,906,東成区東中本２丁目９番３号,東中本小学校西側鉄柵（中央寄り）,34.679401,135.545456,
大阪府,大阪市,907,東成区東中本２丁目１２番,神路公園南側（西寄り）,34.678043,135.548325,
大阪府,大阪市,908,東成区中本１丁目５番８号,中本一丁目児童遊園北側フェンス,34.681606,135.542313,
大阪府,大阪市,909,東成区中本２丁目５番３１号,介護老人保健施設おとしよりすこやかセンター東館正面右側植え込み,34.678406,135.540436,
大阪府,大阪市,910,東成区東中本３丁目１４番２号,本庄中学校東門右側鉄柵,34.676418,135.546265,
大阪府,大阪市,911,東成区東中本３丁目１５番,東中本公園西側（北寄り）,34.676121,135.545364,
大阪府,大阪市,912,東成区大今里１丁目１１番,今里モータープール西側フェンス,34.673866,135.548538,
大阪府,大阪市,913,東成区東中本３丁目１４番２号,本庄中学校南門鉄柵,34.676418,135.546265,
大阪府,大阪市,914,東成区今里４丁目６番１９号,神路小学校正門右側鉄柵,34.669998,135.541107,
大阪府,大阪市,915,東成区今里４丁目６番１９号,神路小学校西側鉄柵（中央）,34.669998,135.541107,
大阪府,大阪市,916,東成区神路４丁目１１番５号,ロネニューマチック工業 南側塀,34.668728,135.553162,
大阪府,大阪市,917,東成区大今里４丁目１６番４８号,熊野大神宮 玉垣（鳥居の左側）,34.668526,135.547791,
大阪府,大阪市,918,東成区神路２丁目８番１６号,相生中学校南側フェンス,34.674564,135.554001,
大阪府,大阪市,919,東成区大今里４丁目１６番,大今里公園南側,34.668724,135.548523,
大阪府,大阪市,920,東成区深江南１丁目２番１１号,瓜生製作所東側フェンス北寄り,34.672806,135.557205,
大阪府,大阪市,921,東成区深江南１丁目４番６号,深江小学校正門右側鉄柵,34.672432,135.55571,
大阪府,大阪市,922,東成区深江南２丁目９番,南深江公園西側（北寄り）,34.670673,135.558548,
大阪府,大阪市,923,東成区深江南２丁目９番,南深江公園北側（中央寄り）,34.670673,135.558548,
大阪府,大阪市,924,東成区深江南３丁目１６番１７号,深江稲荷神社玉垣（鳥居の右）,34.669586,135.56102,
大阪府,大阪市,925,東成区大今里南３丁目１１番,東成区社会福祉協議会西側フェンス,34.666035,135.549362,
大阪府,大阪市,926,東成区大今里南２丁目１３番,片江小学校正門右側鉄柵,34.665367,135.546478,
大阪府,大阪市,927,東成区大今里南２丁目１３番,片江小学校東門右側鉄柵,34.665367,135.546478,
大阪府,大阪市,928,東成区大今里南４丁目１２番,建設局片江排水所南側排,34.666325,135.551819,
大阪府,大阪市,929,東成区大今里南４丁目１７番,今里グリーンハイツ北側フェンス,34.665134,135.552933,
大阪府,大阪市,930,東成区大今里南５丁目５番１６号,新深江変電所西側フェンス,34.666927,135.55397,
大阪府,大阪市,931,東成区神路１丁目１５番４８号,宝栄小学校西通用門左側鉄柵,34.677567,135.554565,
大阪府,大阪市,932,東成区神路２丁目８番１６号,相生中学校正門右側鉄柵,34.674564,135.554001,
大阪府,大阪市,933,東成区深江北１丁目１０番,欧陽公園東側南寄り,34.675941,135.556259,
大阪府,大阪市,934,東成区深江北２丁目５番７号,東陽中学校北側鉄柵（世門と正門の間）,34.677685,135.559387,
大阪府,大阪市,935,東成区深江北２丁目１６番,深江公園東側南寄り,34.673901,135.559036,
大阪府,大阪市,936,東成区深江北３丁目２番,深江北３東交差点南東歩道フェンス,34.678162,135.561768,
大阪府,大阪市,937,東成区深江北３丁目１６番,東深江公園北側西寄り,34.675091,135.561874,
大阪府,大阪市,938,東淀川区東中島2丁目21番4号,市営南方住宅1号棟北側フェンス,34.729755,135.506478,
大阪府,大阪市,939,東淀川区東中島3丁目5番22号,東淀川支署学校正門左側フェンス,34.731178,135.504974,
大阪府,大阪市,940,東淀川区東中島3丁目11番4号,市営南方住宅4号棟東側植込み,34.730348,135.507927,
大阪府,大阪市,941,東淀川区東中島4丁目8番38号,むくのき学園 正門右側鉄柵,34.732582,135.507401,
大阪府,大阪市,942,東淀川区東中島4丁目11番25号,日之出保育所西側鉄柵バス停横,34.734077,135.505539,
大阪府,大阪市,943,東淀川区東中島2丁目24番街区内,南方公園南側フェンス,34.728535,135.506714,
大阪府,大阪市,944,東淀川区東中島6丁目5番12号,市営南方住宅記1号棟北側公園植込み,34.733788,135.511414,
大阪府,大阪市,945,東淀川区西淡路2丁目1番,日之出公園東側南側フェンス,34.734642,135.505173,
大阪府,大阪市,946,東淀川区西淡路1丁目5番,日之出山公園南側鉄柵,34.736717,135.503693,
大阪府,大阪市,947,東淀川区西淡路2丁目6番,日之出住宅10号街南側フェンス,34.73637,135.506088,
大阪府,大阪市,948,東淀川区西淡路3丁目9番,道路設置予定地南側歩道植込み,34.740314,135.506638,
大阪府,大阪市,949,東淀川区西淡路1丁目10番1号,日之出北住宅1号館北側植込み,34.736908,135.5056,
大阪府,大阪市,950,東淀川区西淡路3丁目14番11号,もと西淡路小学校南側フェンス,34.739334,135.509232,
大阪府,大阪市,951,東淀川区西淡路4丁目17番,須賀の森公園東側植込み,34.742416,135.506699,
大阪府,大阪市,952,東淀川区西淡路4丁目25番53号,淡路中学校北門鉄柵,34.742786,135.510254,
大阪府,大阪市,953,東淀川区淡路5丁目14番,淡路公園東側植込み,34.742767,135.515869,
大阪府,大阪市,954,東淀川区西淡路5丁目5番32号,西淡路小学校正門右側鉄柵,34.742279,135.5112,
大阪府,大阪市,955,東淀川区西淡路6丁目1番29号,建設局国次抽水所南側フェンス,34.744183,135.510437,
大阪府,大阪市,956,東淀川区西淡路5丁目12番,市営淡路住宅４号棟東側駐輪場裏フェンスシティバス停前,34.74234,135.516068,
大阪府,大阪市,957,東淀川区西淡路6丁目2番,市営北陽住宅北陽駐車場南側フェンス,34.745117,135.5112,
大阪府,大阪市,958,東淀川区淡路1丁目21番,市営淡路第３住宅２号棟南側敷地内植え込み,34.736504,135.508118,
大阪府,大阪市,959,東淀川区淡路2丁目1番,淡路２公園東側植込み,34.735657,135.511154,
大阪府,大阪市,960,東淀川区淡路3丁目13番,淡路3公園南西側フェンス,34.738499,135.513443,
大阪府,大阪市,961,東淀川区淡路3丁目13番13号付近,西淡路児童遊園北側フェンス,34.7388,135.512634,
大阪府,大阪市,962,東淀川区淡路3丁目1番17号付近,西淡路連合第２福祉会館フェンス（道路側）,34.736725,135.513672,
大阪府,大阪市,963,東淀川区淡路4丁目9番18号先,阪急電鉄淡路駅西側駐輪場下ガードレール,34.739681,135.516861,
大阪府,大阪市,964,東淀川区淡路4丁目20番,道路予定地北西側フェンス,34.740898,135.513153,
大阪府,大阪市,965,東淀川区柴島1丁目3番,柴島浄水場西門南側フェンス,34.724297,135.505356,
大阪府,大阪市,966,東淀川区柴島2丁目8番36号,柴島中学校通用門左側鉄柵,34.726974,135.512878,
大阪府,大阪市,967,東淀川区柴島2丁目9番,柴島センター東側フェンス,34.726887,135.511261,
大阪府,大阪市,968,東淀川区柴島3丁目11番,水道局柴島ポンプ場東側フェンス,34.732185,135.516495,
大阪府,大阪市,969,東淀川区柴島3丁目11番,水道局くにじまスポーツインドアテニス側フェンス,34.732185,135.516495,
大阪府,大阪市,970,東淀川区柴島3丁目11番,水道局第３排水ポンプ場北西側フェンス,34.732185,135.516495,
大阪府,大阪市,971,東淀川区東淡路1丁目8番,道路予定地西側フェンス,34.736248,135.523224,
大阪府,大阪市,972,東淀川区東淡路3丁目3番15号,市営東淡路2住宅2号棟南側植込み,34.735756,135.51796,
大阪府,大阪市,973,東淀川区東淡路2丁目5番,東淡路南公園南西側植込み,34.735516,135.517532,
大阪府,大阪市,974,東淀川区東淡路3丁目3番32号,東淡路小学校正門右側鉄柵,34.736675,135.518784,
大阪府,大阪市,975,東淀川区東淡路3丁目5番21号,市営東淡路住宅1号棟南側植込み,34.736004,135.520676,
大阪府,大阪市,976,東淀川区東淡路4丁目15番1号,東淀川区役所出張所東南角・南角植込み,34.737885,135.516174,
大阪府,大阪市,977,東淀川区東淡路5丁目8番付近,エディオン北側道路植栽帯,34.736694,135.521759,
大阪府,大阪市,978,東淀川区菅原2丁目2番,菅原天満宮公園北側鉄柵,34.7374,135.531158,
大阪府,大阪市,979,東淀川区菅原3丁目6番,菅原公園南側植込み,34.738953,135.525925,
大阪府,大阪市,980,東淀川区菅原4丁目10番15号,菅原保育園北側フェンス,34.741474,135.525772,
大阪府,大阪市,981,東淀川区菅原5丁目7番15号,パークプラザ淡路西館前歩道フェンス,34.739841,135.519302,
大阪府,大阪市,982,東淀川区菅原6丁目1番,菅原１交差点北西角ガソリンスタンド跡地フェンス,34.738068,135.523193,
大阪府,大阪市,983,東淀川区菅原6丁目3番25号,菅原小学校正門左側鉄柵,34.739712,135.522995,
大阪府,大阪市,984,東淀川区菅原7丁目9番,菅原北公園北側鉄柵,34.742245,135.52388,
大阪府,大阪市,985,東淀川区菅原7丁目15番,事業計画予定地南側フェンス,34.743156,135.52565,
大阪府,大阪市,986,東淀川区下新庄1丁目12番12号,鳩ヶ蔵会館入口右側フェンス,34.744644,135.517746,
大阪府,大阪市,987,東淀川区下新庄4丁目14番,下新庄北公園北側鉄柵,34.746571,135.51796,
大阪府,大阪市,988,東淀川区下新庄4丁目19番,市営下新庄第２住宅１号棟北側鉄柵バス停前,34.748249,135.51796,
大阪府,大阪市,989,東淀川区下新庄5丁目2番9号,下新庄小学校正門左側鉄柵,34.745937,135.520401,
大阪府,大阪市,990,東淀川区下新庄5丁目17番,下新庄公園南側鉄柵,34.747272,135.523209,
大阪府,大阪市,991,東淀川区下新庄5丁目26番10号先,セントボリア北大阪VISION１号館バス停「下新庄５丁目」前,34.74892,135.521408,
大阪府,大阪市,992,東淀川区下新庄6丁目6番,NTT西日本市制側鉄柵除草下フェンス,34.745983,135.525787,
大阪府,大阪市,993,東淀川区上新庄1丁目2番先,もとイズミヤ上新庄店前新幹線高架下フェンス,34.744923,135.52771,
大阪府,大阪市,994,東淀川区上新庄2丁目8番23号付近,上新庄1丁目上新庄西北部区画整理事業下フェンス,34.746765,135.531769,
大阪府,大阪市,995,東淀川区上新庄2丁目15番17号先,新庄小学校第2運動場フェンス,34.749283,135.530197,
大阪府,大阪市,996,東淀川区上新庄2丁目20番5号,新庄小学校正門右側植込み,34.747875,135.532364,
大阪府,大阪市,997,東淀川区瑞光1丁目11番3号先,阪急上新庄駅南口東側植込み2基,34.748486,135.533356,
大阪府,大阪市,998,東淀川区瑞光2丁目2番,瑞光寺公園西南側鉄柵,34.749222,135.537811,
大阪府,大阪市,999,東淀川区瑞光2丁目2番,瑞光寺公園北側鉄柵,34.749222,135.537811,
大阪府,大阪市,1000,東淀川区豊新1丁目12番,豊北公園北東側入口右側鉄柵,34.74226,135.532639,
大阪府,大阪市,1001,東淀川区豊新2丁目1番4号,東淀川区役所正面左側植込み,34.740986,135.529282,
大阪府,大阪市,1002,東淀川区豊新2丁目8番,多幸公園南東側鉄柵,34.742897,135.529343,
大阪府,大阪市,1003,東淀川区豊新3丁目2番,六原公園北東側鉄柵,34.74337,135.531647,
大阪府,大阪市,1004,東淀川区豊新4丁目17番26号,豊新小学校正門左側植込み,34.746338,135.535934,
大阪府,大阪市,1005,東淀川区豊新5丁目5番26号,デイケアサービスなごみ管理棟正面南側フェンスへム島,34.746826,135.539932,
大阪府,大阪市,1006,東淀川区豊新5丁目15番先,豊新第7児童遊園南側フェンス,34.747028,135.53566,
大阪府,大阪市,1007,東淀川区豊新4丁目10番,かぶと公園北西側植込み,34.744354,135.537048,
大阪府,大阪市,1008,東淀川区豊里5丁目14番14号,豊里中央公園北西側鉄柵,34.741222,135.541763,
大阪府,大阪市,1009,東淀川区豊里5丁目14番60号,豊里小学校正門左側鉄柵,34.742062,135.544525,
大阪府,大阪市,1010,東淀川区豊里6丁目25番19号,東淀中学校正門右側ブロック塀,34.744198,135.53743,
大阪府,大阪市,1011,東淀川区豊里6丁目25番19号,東淀中学校東門右側鉄柵,34.744198,135.53743,
大阪府,大阪市,1012,東淀川区豊里7丁目5番26号,豊里中学校校区育成委員会入口フェンス,34.743637,135.54213,
大阪府,大阪市,1013,東淀川区豊里7丁目5番26号,府立太成高校支援学校校区内フェンス,34.743637,135.54213,
大阪府,大阪市,1014,東淀川区豊里7丁目25番,豊里さつき公園南側植え込み,34.744392,135.539658,
大阪府,大阪市,1015,東淀川区豊里2丁目4番,豊里三番公園南側鉄柵,34.737406,135.539346,
大阪府,大阪市,1016,東淀川区豊里4丁目1番,公財卸生涯開発財団入口右側鉄柵,34.737818,135.541447,
大阪府,大阪市,1017,東淀川区豊里5丁目4番6号,野村集会所南側フェンス,34.738462,135.545458,
大阪府,大阪市,1018,東淀川区豊里5丁目12番41号,豊里南小学校正門左側鉄柵,34.738972,135.544022,
大阪府,大阪市,1019,東淀川区豊里5丁目12番41号,市営豊里住宅2号棟東側公道東フェンス,34.738972,135.544022,
大阪府,大阪市,1020,東淀川区豊里5丁目15番3号,市営豊里住宅8号棟東側公道植込み,34.739937,135.542923,
大阪府,大阪市,1021,東淀川区豊里5丁目16番,市営豊里住宅8号棟東側公道植込み,34.740303,135.544662,
大阪府,大阪市,1022,東淀川区豊里1丁目8番,北淀公園南側植込み,34.738983,135.534119,
大阪府,大阪市,1023,東淀川区豊里1丁目10番32号,新東淀中学校正門左側鉄柵,34.740154,135.534241,
大阪府,大阪市,1024,東淀川区豊里2丁目11番35号,府立淀川高等学校正門前フェンス,34.74015,135.53688,
大阪府,大阪市,1025,東淀川区豊里2丁目11番35号,市立北淀高等学校正門北側フェンス,34.74015,135.53688,
大阪府,大阪市,1026,東淀川区豊里2丁目11番35号,府立淀川清流高等学校正門南側フェンス,34.74015,135.53688,
大阪府,大阪市,1027,東淀川区大道南1丁目9番,市営南大通り2住宅3号棟東側フェンス,34.741203,135.548508,
大阪府,大阪市,1028,東淀川区大道南1丁目17番,竹島さんちりん公園南側フェンス,34.741989,135.550049,
大阪府,大阪市,1029,東淀川区大道南1丁目23番6号,大道南小学校正門左側鉄柵,34.742577,135.549744,
大阪府,大阪市,1030,東淀川区大道南1丁目30番,大道南公園北西入口右側鉄柵,34.743111,135.551727,
大阪府,大阪市,1031,東淀川区大道南2丁目19番,大道北公園西側フェンス,34.745743,135.548828,
大阪府,大阪市,1032,東淀川区大道南3丁目2番,能条公園西側植込み,34.742195,135.546814,
大阪府,大阪市,1033,東淀川区大桐2丁目2番,今在家公園南東側フェンス,34.745892,135.543961,
大阪府,大阪市,1034,東淀川区大桐2丁目8番,市営南大通り3住宅2号棟東側植込み生垣1基,34.747513,135.541977,
大阪府,大阪市,1035,東淀川区大桐3丁目5番,大桐連合集会所南側植込み,34.747494,135.546692,
大阪府,大阪市,1036,東淀川区大桐3丁目8番,大桐公園東側鉄柵,34.747448,135.545959,
大阪府,大阪市,1037,東淀川区大桐4丁目1番15号,大桐小学校裏門右側鉄柵,34.747795,135.548004,
大阪府,大阪市,1038,東淀川区大桐4丁目5番8号,大桐中学校通用門右側鉄柵補修,34.7491,135.548462,
大阪府,大阪市,1039,東淀川区大桐5丁目7番,北大桐住宅3号棟南側植込み,34.75069,135.549683,
大阪府,大阪市,1040,東淀川区南江口２丁目１番,市営南江口住宅傍境目側鉄製フェンス,34.755478,135.546631,
大阪府,大阪市,1041,東淀川区南江口２丁目６番,市営南江口第１住宅傍境目側フェンス,34.755386,135.549316,
大阪府,大阪市,1042,東淀川区南江口３丁目１番,市営南江口第５住宅３号棟北側板柵,34.754475,135.551437,
大阪府,大阪市,1043,東淀川区瑞光４丁目５番,大隅東公園北側鉄柵,34.752647,135.549225,
大阪府,大阪市,1044,東淀川区瑞光５丁目１番,東淀川高等学校・東淀工業高等学校側鉄柵,34.752155,135.549683,
大阪府,大阪市,1045,東淀川区瑞光５丁目８番１９号,大阪東小学校裏門左側フェンス,34.753685,135.551971,
大阪府,大阪市,1046,東淀川区南江口２丁目９番２５号,市営江口第一住宅３号棟北側フェンス,34.756325,135.550873,
大阪府,大阪市,1047,東淀川区瑞光３丁目３番４０号,大阪西社会保険検査宿舎側フェンス,34.750744,135.542892,
大阪府,大阪市,1048,東淀川区瑞光４丁目９番３７号,瑞光中学校西側入口右側フェンス,34.752148,135.545456,
大阪府,大阪市,1049,東淀川区大隅１丁目３番１８号付近,Oosumi レジデンシャル前植え込み,34.748642,135.538834,
大阪府,大阪市,1050,東淀川区大隅１丁目５番,大門公園南西側鉄柵,34.748638,135.540329,
大阪府,大阪市,1051,東淀川区大隅２丁目１番,大阪経済大学北側住宅フェンス,34.749767,135.543198,
大阪府,大阪市,1052,東淀川区大隅２丁目３番１８号,大阪西小学校正門右側鉄柵,34.751213,135.546478,
大阪府,大阪市,1053,東淀川区瑞光４丁目９番３７号,瑞光中学校表側東門右側鉄柵,34.752148,135.545456,
大阪府,大阪市,1054,東淀川区相川２丁目１４番,相川南豊運動南東側スロープ鉄柵,34.75678,135.536617,
大阪府,大阪市,1055,東淀川区相川３丁目１２番３２号,市営相川住宅２号棟植え込み,34.759747,135.538225,
大阪府,大阪市,1056,東淀川区小松１丁目１４番１２号,風の子ベビーホーム南側鉄柵,34.752957,135.535075,
大阪府,大阪市,1057,東淀川区小松２丁目１２番,小松公園南東側鉄柵,34.75297,135.536691,
大阪府,大阪市,1058,東淀川区小松３丁目５番１５号,小松幼稚園南側大門右側フェンス,34.751905,135.538565,
大阪府,大阪市,1059,東淀川区小松３丁目１８番１５号,小松小学校正門右側鉄柵,34.754968,135.539522,
大阪府,大阪市,1060,東淀川区小松３丁目１８番１５号,小松小学校正面用足型ブロック塀,34.75468,135.540012,
大阪府,大阪市,1061,東淀川区小松４丁目１３番,市営小松住宅３号棟南側フェンス,34.753967,135.542023,
大阪府,大阪市,1062,東淀川区井高野１丁目２８番１７号,井高野小学校正門右側鉄柵,34.762798,135.544403,
大阪府,大阪市,1063,東淀川区北江口３丁目５番,作業員江口第２住宅１１号棟北側格子,34.761192,135.543396,
大阪府,大阪市,1064,東淀川区北江口２丁目４番８号,井高野団地社会館南フェンス,34.760178,135.544907,
大阪府,大阪市,1065,東淀川区北江口３丁目１番,市営北江口第２住宅空実側植え込み,34.759716,135.546753,
大阪府,大阪市,1066,東淀川区北江口３丁目４番,市営北江口第２住宅１４号棟裏門東側コンクリート板,34.760811,135.545227,
大阪府,大阪市,1067,東淀川区北江口４丁目１４番,府タク会社側下「井高野駅前」西側道路下,34.760582,135.549942,
大阪府,大阪市,1068,東淀川区北江口４丁目２０番,市営北江口第２住宅１６号棟南側フェンス,34.760437,135.547729,
大阪府,大阪市,1069,東淀川区井高野２丁目４番,市営井高野第５住宅１０号棟北側フェンス,34.762039,135.548843,
大阪府,大阪市,1070,東淀川区井高野２丁目８番１３号,井高野中学校正門左側鉄柵,34.764896,135.547897,
大阪府,大阪市,1071,東淀川区井高野２丁目８番２８号,東井高野小学校正門右側鉄柵,34.765396,135.549103,
大阪府,大阪市,1072,東淀川区井高野３丁目３番,井高野公園南側入口左側植え込み,34.765533,135.54425,
大阪府,大阪市,1073,東淀川区井高野住宅６号棟北側駐車場フェンスバス停前,市営井高野住宅,34.76255,135.543106,
大阪府,大阪市,1074,東淀川区井高野１丁目３０番４０号,市営井高野住宅６号棟北側駐車場フェンスバス停前,34.762589,135.544891,
大阪府,大阪市,1075,東淀川区井高野４丁目４番,井高野第４住宅南側フェンス,34.766487,135.547363,
大阪府,大阪市,1076,此花区西九条１－７－１４,西九条保育所前,34.682922,135.468613,
大阪府,大阪市,1077,此花区西九条１－３０,西九条上公園北東側,34.681767,135.467606,
大阪府,大阪市,1078,此花区西九条２－１,西九条南公園北側,34.679741,135.466202,
大阪府,大阪市,1079,此花区西九条２－１２,市営西九条住宅集会所横,34.68055,135.464691,
大阪府,大阪市,1080,此花区西九条４－３－４１,西九条小学校西側,34.6824,135.465378,
大阪府,大阪市,1081,此花区西九条５－４,西九条公園南東側出入口横,34.68375,135.464142,
大阪府,大阪市,1082,此花区西九条５－４－２４,此花会館／梅香殿正面植込み,34.683628,135.464249,
大阪府,大阪市,1083,此花区朝日１－３－４,朝日橋女愛子供会館横フェンス,34.684681,135.46138,
大阪府,大阪市,1084,此花区朝日２－１２,朝日児童遊園北側フェンス,34.685879,135.460648,
大阪府,大阪市,1085,此花区朝日２,嬉ヶ崎橋西詰高架下北側フェンス,34.686146,135.461182,
大阪府,大阪市,1086,此花区四貫島１－１,千鳥橋公園南出口横,34.685699,135.457642,
大阪府,大阪市,1087,此花区四貫島２－１６－２９,四貫島小学校西側,34.68499,135.454681,
大阪府,大阪市,1088,此花区四貫島２－１６－２９,四貫島小学校東門横,34.68499,135.454681,
大阪府,大阪市,1089,此花区梅香１－３,梅香東公園北側,34.682331,135.459778,
大阪府,大阪市,1090,此花区梅香１－３,梅香東公園南側,34.682331,135.459778,
大阪府,大阪市,1091,此花区梅香３－２,市営梅香住宅南側植え込み,34.680756,135.45607,
大阪府,大阪市,1092,此花区梅香３－７－１６,四貫島保育園フェンス,34.681305,135.457657,
大阪府,大阪市,1093,此花区梅香３－１７－２９,梅香小学校正門横,34.682293,135.455429,
大阪府,大阪市,1094,此花区梅香３－１７－２９,梅香小学校西側通用門横,34.682293,135.455429,
大阪府,大阪市,1095,此花区春日出北１－５,此花公園北側,34.682415,135.450394,
大阪府,大阪市,1096,此花区春日出北１－５,此花公園南出入口横,34.682415,135.450394,
大阪府,大阪市,1097,此花区春日出北１－８－４,此花区役所前,34.682819,135.452499,
大阪府,大阪市,1098,此花区春日出北１－８－４,此花区役所東側,34.682819,135.452499,
大阪府,大阪市,1099,此花区春日出北１－１８－１３,天使虹の園東側フェンス,34.684166,135.451752,
大阪府,大阪市,1100,此花区春日出中１－１２,市営春日出中住宅東側,34.681175,135.453598,
大阪府,大阪市,1101,此花区春日出中１－１３－２３,春日出小学校北側,34.680618,135.452209,
大阪府,大阪市,1102,此花区春日出中１－１３－２３,春日出小学校南側,34.680618,135.452209,
大阪府,大阪市,1103,此花区春日出南１－２－８,春日出中学校学習園南側フェンス,34.679222,135.457916,
大阪府,大阪市,1104,此花区春日出南２－９,市営春日出南住宅１号棟北側,34.677284,135.454071,
大阪府,大阪市,1105,此花区春日出中３－１,住友化学(株)グランド東側フェンス,34.677895,135.447205,
大阪府,大阪市,1106,此花区伝法６－３,伝法公団住宅１号棟北側植込み,34.686157,135.449173,
大阪府,大阪市,1107,此花区伝法２－１－４９,伝法コミュニティ広場北側フェンス,34.68734,135.45755,
大阪府,大阪市,1108,此花区伝法２－１１,伝法東公園南側,34.687859,135.455093,
大阪府,大阪市,1109,此花区伝法３－２,此花中学校敷地内在宅サービスセンター北側空地東側,34.69035,135.454376,
大阪府,大阪市,1110,此花区伝法４－４－３５,伝法幼稚園北側フェンス,34.68866,135.451889,
大阪府,大阪市,1111,此花区伝法５－６,伝法西市街地整備事業用地南側柵,34.688541,135.448547,
大阪府,大阪市,1112,此花区伝法３－７,伝法北公園南側,34.69096,135.453018,
大阪府,大阪市,1113,此花区高見１－３－３５,高見小学校西側,34.690554,135.459928,
大阪府,大阪市,1114,此花区高見１－３,コーシャハイツ高見３７南側植込み,34.689682,135.460017,
大阪府,大阪市,1115,此花区高見１－５,高見フローラルタウン五番街高見町公園南側,34.691823,135.458317,
大阪府,大阪市,1116,此花区高見１－１０,海老江下水処理場Ｔ３門左側植込み,34.693772,135.46177,
大阪府,大阪市,1117,此花区高見２－１４,此花中学校北側,34.691026,135.455519,
大阪府,大阪市,1118,此花区高見１－４,市営高見住宅５１号棟南西側植込み,34.689382,135.458412,
大阪府,大阪市,1119,此花区高見１－６,市営高見住宅２４号棟横駐車場フェンス,34.692563,135.460049,
大阪府,大阪市,1120,此花区伝法１－１,千鳥橋団地１号棟北側植込み,34.688429,135.460378,
大阪府,大阪市,1121,此花区酉島１－５,市営秀野西住宅１号棟東側,34.685097,135.444486,
大阪府,大阪市,1122,此花区酉島１－１０－１１,建設局北港抽水所正門横,34.683609,135.443679,
大阪府,大阪市,1123,此花区酉島１－１３,酉島東公園北側（バス停付近）,34.684941,135.443531,
大阪府,大阪市,1124,此花区酉島４－１,リバーサイドヒルなぎさ街店舗棟前植木,34.684721,135.440466,
大阪府,大阪市,1125,此花区酉島２－５－１２,酉島小学校南門横,34.685351,135.442253,
大阪府,大阪市,1126,此花区酉島３－８－１７,大塚刷毛製造㈱北側フェンス,34.683892,135.440407,
大阪府,大阪市,1127,此花区酉島３－１１,市営酉島第２住宅駐車場西側,34.682258,135.440566,
大阪府,大阪市,1128,此花区酉島３－１３,酉島中公園東側,34.682403,135.44187,
大阪府,大阪市,1129,此花区春日出北２－１－９,日本郵便株式会社此花郵便局前 南側フェンス,34.680931,135.449593,
大阪府,大阪市,1130,此花区春日出北２－１６,春日出北公園北西側,34.682406,135.447423,
大阪府,大阪市,1131,此花区春日出北３－１,北港運輸㈱駐車場南側バス停付近,34.680029,135.447772,
大阪府,大阪市,1132,此花区春日出北３－１０－３４,建設局恩賜島抽水所東側,34.682172,135.44686,
大阪府,大阪市,1133,此花区春日出北３－１２－２４,梅香中学校グラウンド西側通用門横,34.68109,135.444101,
大阪府,大阪市,1134,此花区酉島３－１９,酉島南公園西側,34.682729,135.438981,
大阪府,大阪市,1135,此花区酉島３－２４,住友電気工業㈱慎思寮西側,34.682109,135.438081,
大阪府,大阪市,1136,此花区酉島６－３,酉島公園西側フェンス,34.683031,135.435111,
大阪府,大阪市,1137,此花区島屋２－５－１４,島屋保育所西側フェンス,34.678036,135.439563,
大阪府,大阪市,1138,此花区島屋２－９－３６,島屋小学校通用門横,34.677064,135.438968,
大阪府,大阪市,1139,此花区島屋３－７－９,鴻池運輸駐車場フェンス,34.676549,135.44246,
大阪府,大阪市,1140,此花区島屋３－１０－２９,コウノイケ・コーポレートサービス(株) 東側フェンス,34.676012,135.442621,
大阪府,大阪市,1141,此花区島屋３－３,島屋公園 西側,34.676583,135.443363,
大阪府,大阪市,1142,此花区島屋３－２,島屋コミュニティ広場東側フェンス,34.676253,135.445237,
大阪府,大阪市,1143,此花区島屋５－１,日本製鉄㈱ 製鋼所 東側門横フェンス,34.671973,135.440425,
大阪府,大阪市,1144,此花区島屋６－１－１０１,JRゆめ咲線安治川口駅東側フェンス,34.674421,135.444613,
大阪府,大阪市,1145,此花区島屋６－１,安治川口北公園西側,34.671572,135.44153,
大阪府,大阪市,1146,此花区島屋６－２,島屋南公園南側植え込み,34.67068,135.441099,
大阪府,大阪市,1147,此花区島屋５－１,島屋西公園交番横植え込み,34.668416,135.436396,
大阪府,大阪市,1148,此花区桜島３－２,建設局梅町抽水所北側フェンス,34.665158,135.427163,
大阪府,大阪市,1149,此花区桜島２－１,JRゆめ咲線桜島駅南側フェンス,34.661812,135.43215,
大阪府,大阪市,1150,此花区桜島３－４－２,港振興桜島駐車場東側フェンス,34.662638,135.428505,
大阪府,大阪市,1151,此花区桜島３－４－１０２,桜島集会所前,34.66242,135.427816,
大阪府,大阪市,1152,此花区桜島３－５,桜島公園北側,34.661891,135.428438,
大阪府,大阪市,1153,此花区桜島３－５,桜島公園南側,34.661371,135.428247,
大阪府,大阪市,1154,此花区桜島３－６－３０,市営桜島住宅東側,34.660736,135.428615,
大阪府,大阪市,1155,此花区北港白津２－１,アミティ舞洲駐車場フェンス,34.668312,135.407256,
大阪府,大阪市,1156,浪速区日本橋3丁目2番27号,もと日本橋小学校南側通用門横フェンス,34.662205,135.506714,
大阪府,大阪市,1157,浪速区日本橋3丁目2番8号,日本橋公園東側北寄り植込み,34.661916,135.507829,
大阪府,大阪市,1158,浪速区難波中2丁目5番21号,ＮＴＴコミュニケーションズ（株）浪速ビル南側フェンス,34.660923,135.504425,
大阪府,大阪市,1159,浪速区難波中2丁目5番,タイムズ大阪難波駐車場西側南寄りフェンス,34.66164,135.504471,
大阪府,大阪市,1160,浪速区日本橋東3丁目2番9号,日東幼稚園正門横（西側）,34.657837,135.507721,
大阪府,大阪市,1161,浪速区下寺2丁目2番12号,浪速区老人福祉センターグランド南側フェンス,34.659943,135.50975,
大阪府,大阪市,1162,浪速区下寺3丁目5番15号,愛染公園西側南寄り,34.656399,135.509003,
大阪府,大阪市,1163,浪速区下寺3丁目17番25号,逢下公園東側フェンス,34.654873,135.509155,
大阪府,大阪市,1164,浪速区日本橋西1丁目7番6号,日本橋中学校正門北側,34.658585,135.50412,
大阪府,大阪市,1165,浪速区日本橋5丁目20番1号,日本橋住宅東側植込み,34.657192,135.50473,
大阪府,大阪市,1166,浪速区日本橋西2丁目7番,広田・関谷公園　北側東寄,34.656059,135.503403,
大阪府,大阪市,1167,浪速区日本橋西2丁目2番,日本橋西住宅北側東寄りフェンス,34.657383,135.502747,
大阪府,大阪市,1168,浪速区恵美須東3丁目1番4号の先,信成駐車場車庫前（歩道植込み）,34.650501,135.506866,
大阪府,大阪市,1169,浪速区恵美須東3丁目4番9号,大阪市高速電気軌道（株）動物園前技術事務所前植込み,34.65004,135.506149,
大阪府,大阪市,1170,浪速区恵美須東1丁目22番の先,大阪メトロ恵美須町東　西側歩道ガード,34.65345,135.505325,
大阪府,大阪市,1171,浪速区恵美須東2丁目2番の先,スカイコート恵美須西側（歩道植込み）,34.652107,135.506622,
大阪府,大阪市,1172,浪速区恵美須西2丁目13番,恵美公園・グランド北側フェンス,34.65329,135.502106,
大阪府,大阪市,1173,浪速区恵美須西2丁目1番10号の先,阪堺線恵美須町駅東側（歩道植込み）,34.653458,135.504959,
大阪府,大阪市,1174,浪速区恵美須西3丁目17番61号,ＪＲ新今宮駅東側フェンス,34.649742,135.503082,
大阪府,大阪市,1175,浪速区恵美須西1丁目6番10号,今宮戎神社東門北側塀,34.654907,135.502472,
大阪府,大阪市,1176,浪速区大国3丁目10番22号,大国集会所入り口横東側柵,34.654072,135.494064,
大阪府,大阪市,1177,浪速区茂本町1丁目3番26号,戎公園西側フェンス ,34.652878,135.499446,
大阪府,大阪市,1178,浪速区大国1丁目9番3号,大国小学校西側北寄り塀,34.653439,135.49733,
大阪府,大阪市,1179,浪速区大国3丁目5番14号,大国住宅南側植込み,34.656033,135.492645,
大阪府,大阪市,1180,浪速区茂本町2丁目7番39号,今宮高等学校南門東側フェンス ,34.651695,135.49852,
大阪府,大阪市,1181,浪速区敷津東3丁目9番32号,敷津小学校南門,34.656227,135.498886,
大阪府,大阪市,1182,浪速区敷津西1丁目7番2号,鴎町公園東側北寄り,34.65913,135.495651,
大阪府,大阪市,1183,浪速区敷津西1丁目7番2号,鴎町公園南側西寄り,34.65913,135.495651,
大阪府,大阪市,1184,浪速区敷津東2丁目6番19号の先,もと山本木材正面前（歩道植込み）,34.657516,135.498016,
大阪府,大阪市,1185,浪速区敷津西1丁目13番,難波塩草敷津公園南側植込み,34.659119,135.492996,
大阪府,大阪市,1186,浪速区元町1丁目5番30号,難波元町小学校東側南寄り塀,34.664928,135.497827,
大阪府,大阪市,1187,浪速区難波中3丁目8番8号の先,浪速スポーツセンター東側植込み,34.66098,135.499725,
大阪府,大阪市,1188,浪速区難波中3丁目11番16号,難波中公園西側北寄りフェンス,34.660713,135.498932,
大阪府,大阪市,1189,浪速区敷津東1丁目4番20号,浪速区役所北側,34.659534,135.499527,
大阪府,大阪市,1190,浪速区元町2丁目9番19号,難波八阪神社東側,34.6616,135.49639,
大阪府,大阪市,1191,浪速区元町3丁目15番,難波塩草敷津公園北側植込み,34.661025,135.493734,
大阪府,大阪市,1192,浪速区桜川3丁目8番1号の先,汐見橋駅北側フェンス,34.668395,135.486161,
大阪府,大阪市,1193,浪速区桜川4丁目8番21号,立葉幼稚園北側フェンス,34.666882,135.484543,
大阪府,大阪市,1194,浪速区桜川4丁目13番2号,桜川公園東側東北出入口横,34.666014,135.483884,
大阪府,大阪市,1195,浪速区立葉2丁目1番15号,もと立葉小学校西側フェンス,34.664387,135.485718,
大阪府,大阪市,1196,浪速区久保吉2丁目1番2号,大浪橋住宅駐車場東側植込み,34.663113,135.484253,
大阪府,大阪市,1197,浪速区幸町2丁目8番の先,シティパル桜川西側（歩道植込み）,34.669208,135.486679,
大阪府,大阪市,1198,浪速区幸町1丁目3番16号の先,メゾンリェール前（歩道植込み）,34.668434,135.492084,
大阪府,大阪市,1199,浪速区桜川2丁目3番25号の先,大阪メトロ桜川駅３号（東南）出入口横,34.668178,135.488257,
大阪府,大阪市,1200,浪速区桜川2丁目5番16号,稲荷町公園西側植込み,34.667251,135.489485,
大阪府,大阪市,1201,浪速区稲荷1丁目5番20号,稲荷住宅西側,34.664138,135.492063,
大阪府,大阪市,1202,浪速区稲荷2丁目4番3号,浪速区民センター正面植込み,34.664822,135.490631,
大阪府,大阪市,1203,浪速区塩草1丁目1番59号,難波中学校南側塀,34.662384,135.490479,
大阪府,大阪市,1204,浪速区塩草1丁目4番31号,塩草立葉小学校正面入口右側,34.661266,135.490356,
大阪府,大阪市,1205,浪速区桜川1丁目1番26号の先,もと橋本アルミ北側（歩道植込み）,34.667888,135.493314,
大阪府,大阪市,1206,浪速区浪速東1丁目1番61号,栄小学校西側フェンス,34.658184,135.490417,
大阪府,大阪市,1207,浪速区浪速西1丁目3番10号,もと市民交流センターなにわ東側フェンス,34.658195,135.487793,
大阪府,大阪市,1208,浪速区浪速東2丁目8番8号,浪速中公園南側東寄り,34.656849,135.489517,
大阪府,大阪市,1209,浪速区浪速東3丁目2番,浪速第1保育所正門横フェンス,34.654022,135.491608,
大阪府,大阪市,1210,浪速区浪速西1丁目7番16号,浪速老人センターゲートボール場西側フェンス,34.657978,135.48671,
大阪府,大阪市,1211,淀川区加島１丁目３０番,市営加島南第４住宅１号館東側植込み北側,34.724491,135.460419,
大阪府,大阪市,1212,淀川区加島２丁目７番,市営加島北住宅１号館南側フェンス,34.731091,135.458984,
大阪府,大阪市,1213,淀川区加島１丁目６０番２８号,市立加島小学校正門東側鉄柵,34.728931,135.458389,
大阪府,大阪市,1214,淀川区加島１丁目５７番２０号,加島・三津屋地区文化センター北側フェンス,34.729015,135.460617,
大阪府,大阪市,1215,淀川区加島３丁目９番,加島中公園北側入口植込み,34.730038,135.454681,
大阪府,大阪市,1216,淀川区加島３丁目１０番,ＪＲ加島駅前東側植込み,34.729191,135.453918,
大阪府,大阪市,1217,淀川区加島４丁目７番,加島北公園入口左側鉄柵,34.731174,135.455811,
大阪府,大阪市,1218,淀川区加島１丁目５４番４１号,市立美津島中学校正門左側鉄柵,34.728424,135.463654,
大阪府,大阪市,1219,淀川区塚本１丁目１９番１２号,コ・ス・パ塚本北側駐輪場入口横フェンス,34.711334,135.470566,
大阪府,大阪市,1220,淀川区塚本２丁目２８番,塚本駅前公園東側北鉄柵,34.713348,135.468918,
大阪府,大阪市,1221,淀川区塚本３丁目５番６号,市立塚本小学校正門左側鉄柵,34.715431,135.472427,
大阪府,大阪市,1222,淀川区塚本３丁目５番６号,市立塚本小学校西門左側鉄柵,34.715431,135.472427,
大阪府,大阪市,1223,淀川区塚本３丁目５番６号,市立塚本小学校北側鉄柵,34.715431,135.472427,
大阪府,大阪市,1224,淀川区塚本４丁目１５番,塚本公園東側鉄柵,34.715736,135.46846,
大阪府,大阪市,1225,淀川区塚本４丁目１５番,塚本公園西側鉄柵,34.715736,135.46846,
大阪府,大阪市,1226,淀川区塚本６丁目１０番７号,塚本くすのき保育園南側ブロック塀,34.716743,135.466385,
大阪府,大阪市,1227,淀川区三津屋南１丁目１５番,市営三津屋住宅３号館北側植込み,34.72657,135.473801,
大阪府,大阪市,1228,淀川区三津屋南２丁目２番,市営三津屋住宅１号館集会所東側会館広場北側,34.725437,135.474014,
大阪府,大阪市,1229,淀川区三津屋南２丁目２０番２９号,三津屋会館北側フェンス,34.726376,135.469666,
大阪府,大阪市,1230,淀川区三津屋南３丁目２１番,三津屋中央公園北側入口左側,34.724197,135.464432,
大阪府,大阪市,1231,淀川区三津屋北１丁目２番,三津屋東公園東側入口左側,34.73011,135.474197,
大阪府,大阪市,1232,淀川区三津屋中１丁目４番１４号,市立三津屋小学校正門右側鉄柵,34.727879,135.472977,
大阪府,大阪市,1233,淀川区三津屋中１丁目４番１４号,市立三津屋小学校北門右側鉄柵,34.727879,135.472977,
大阪府,大阪市,1234,淀川区三津屋北２丁目２２番,大阪ガス神崎川供給所グランド南側ブロック塀,34.72953,135.467422,
大阪府,大阪市,1235,淀川区田川２丁目７番,ダイヘン西工場南側フェンス,34.719963,135.470673,
大阪府,大阪市,1236,淀川区田川北１丁目５番,市営田川北住宅１号館南側植込み,34.724907,135.47438,
大阪府,大阪市,1237,淀川区田川２丁目９番３７号,市立田川小学校通用門左側鉄柵,34.721329,135.469727,
大阪府,大阪市,1238,淀川区田川２丁目２番,田川中公園北側,34.721153,135.473053,
大阪府,大阪市,1239,淀川区田川北２丁目５番,田川北公園北側入口西側植込み,34.722019,135.468857,
大阪府,大阪市,1240,淀川区十三元今里３丁目４番,田川東公園北側鉄柵,34.722588,135.474075,
大阪府,大阪市,1241,淀川区十三元今里１丁目１番,十三公園西側入口右側植込み,34.717731,135.477081,
大阪府,大阪市,1242,淀川区十三元今里１－１,十三公園南側入口左側鉄柵,34.717731,135.477081,
大阪府,大阪市,1243,淀川区十三元今里２丁目３番１２号,市立神津小学校南門右側鉄柵,34.720295,135.476334,
大阪府,大阪市,1244,淀川区十三元今里２－３－１２,市立神津小学校グランド北側鉄柵,34.720295,135.476334,
大阪府,大阪市,1245,淀川区十三本町１－１５,コンドルモータープール東側フェンス,34.71806,135.480484,
大阪府,大阪市,1246,淀川区十三本町３－４－１１,淀川公共職業安定所正面玄関前植込み,34.722279,135.481964,
大阪府,大阪市,1247,淀川区新北野１丁目５番２６号,ＮＴＴ西日本（株）淀川営業所北側植込み,34.717026,135.482574,
大阪府,大阪市,1248,淀川区新北野１丁目１０番３号,新北野第３コーポ西側フェンス,34.715916,135.481918,
大阪府,大阪市,1249,淀川区新北野２丁目５番１３号,府立北野高等学校東側南植込み,34.714619,135.478043,
大阪府,大阪市,1250,淀川区新北野２丁目１３番３７号,市立新北野中学校西側北鉄柵,34.716198,135.47612,
大阪府,大阪市,1251,淀川区新北野３丁目１４番,新北野公園東側植込み,34.713043,135.473892,
大阪府,大阪市,1252,淀川区新北野３丁目１４番,新北野公園西側植込み,34.713043,135.473892,
大阪府,大阪市,1253,淀川区野中南１丁目１２番１６号,野中福祉会館西隣駐車場フェンス,34.727516,135.484314,
大阪府,大阪市,1254,淀川区野中南２丁目１番,野中南公園北側人口左側植込み,34.725403,135.48291,
大阪府,大阪市,1255,淀川区野中北１丁目６番,野中北１公園入口野立て,34.729954,135.482544,
大阪府,大阪市,1256,淀川区野中北１丁目１１番２６号,市立野中小学校西通用門左側鉄柵,34.728008,135.480545,
大阪府,大阪市,1257,淀川区野中北２丁目１２番２７号,十三市民病院東入口広報板右側横植込み,34.729,135.476791,
大阪府,大阪市,1258,淀川区新高１丁目８番,新高駐車場南側フェンス,34.732063,135.48143,
大阪府,大阪市,1259,淀川区新高１丁目１５番５３号,市立新高小学校正門右側鉄柵,34.732868,135.480011,
大阪府,大阪市,1260,淀川区新高１丁目１５番５３号,市立新高小学校東側鉄柵,34.732868,135.480011,
大阪府,大阪市,1261,淀川区新高３丁目８番,新高東公園東側植込み,34.736797,135.4823,
大阪府,大阪市,1262,淀川区新高４丁目６番,新高公園東側鉄柵,34.734455,135.479935,
大阪府,大阪市,1263,淀川区新高４丁目１５番,新高中央公園西側植込み,34.73608,135.480286,
大阪府,大阪市,1264,淀川区新高２丁目５番３５号,ニチレキ（株）関西支店北側鉄柵,34.730274,135.478378,
大阪府,大阪市,1265,淀川区新高５丁目６番３８号,新高第２モータープール南側ブロック塀,34.733341,135.479248,
大阪府,大阪市,1266,淀川区十三東５丁目１番２７号,市立十三中学校南側南鉄柵,34.724117,135.484299,
大阪府,大阪市,1267,淀川区十三東５丁目１番２７号,市立十三中学校北側南鉄柵,34.724117,135.484299,
大阪府,大阪市,1268,淀川区十三東２丁目３番３号,淀川区役所正面玄関横垂幕幕鉄柵,34.72102,135.486923,
大阪府,大阪市,1269,淀川区十三東２丁目３番３号,淀川区役所北側植込み,34.72102,135.486923,
大阪府,大阪市,1270,淀川区十三東２丁目６番,十三東公園西側植込み,34.720097,135.483841,
大阪府,大阪市,1271,淀川区十三東４丁目３番６号,市立十三小学校正門右側植込み,34.723263,135.486099,
大阪府,大阪市,1272,淀川区木川東３丁目７番３２号,市立木川小学校西側鉄柵,34.726715,135.492249,
大阪府,大阪市,1273,淀川区木川東３丁目７番３２号,市立木川小学校正門右側鉄柵,34.726715,135.492249,
大阪府,大阪市,1274,淀川区木川東４丁目３番１号,市営木川東第２住宅１号館北側植込み,34.728104,135.494019,
大阪府,大阪市,1275,淀川区木川東４丁目１６番,木川北公園南側植え込み,34.728222,135.490067,
大阪府,大阪市,1276,淀川区木川西３丁目７番,木川公園西北側,34.726948,135.489258,
大阪府,大阪市,1277,淀川区木川西４丁目６番,綱下総合車両所宮原支所西側フェンス,34.728302,135.487106,
大阪府,大阪市,1278,淀川区木川東１丁目２番３６号,市立木川南小学校正門左側鉄柵,34.722775,135.494705,
大阪府,大阪市,1279,淀川区木川東１丁目２番３６号,市立木川南小学校北門左側鉄柵,34.722775,135.494705,
大阪府,大阪市,1280,淀川区木川東１丁目４番,木川南公園北側コンクリート塀,34.723694,135.493149,
大阪府,大阪市,1281,淀川区木川西１丁目４番,金光教神津教会駐車場北側フェンス,34.722435,135.490784,
大阪府,大阪市,1282,淀川区西中島１丁目１２番,地下鉄御堂筋線高架下道路東側フェンス,34.725334,135.499405,
大阪府,大阪市,1283,淀川区西中島２丁目７番２４,南方変電所東側ブロック塀,34.723713,135.496185,
大阪府,大阪市,1284,淀川区西中島３丁目２３番先,高架下西中島コミュニティ広場西側フェンス,34.727905,135.499359,
大阪府,大阪市,1285,淀川区西中島３丁目２３番先,高架下西中島コミュニティ広場東側フェンス,34.727905,135.499359,
大阪府,大阪市,1286,淀川区西中島３丁目８番,西中島東公園東側鉄柵,34.727379,135.501465,
大阪府,大阪市,1287,淀川区西中島７丁目１４番２５号,市立西中島小学校南門右側鉄柵,34.730209,135.494324,
大阪府,大阪市,1288,淀川区西中島７丁目１４番４１号,市立西中島幼稚園東側北鉄柵,34.729855,135.495361,
大阪府,大阪市,1289,淀川区三国本町１丁目１３番１号,市営木川第1住宅1号館東側フェンス,34.731812,135.489624,
大阪府,大阪市,1290,淀川区三国本町１丁目１３番２号,市営木川第1住宅2号館北側フェンス,34.731781,135.489548,
大阪府,大阪市,1291,淀川区三国本町１丁目１３番１６号,木川第2保育所入口右側植込み,34.7313,135.488083,
大阪府,大阪市,1292,淀川区三国本町１丁目１６番４４号,市立宮原小学校正門右側鉄柵,34.733013,135.485809,
大阪府,大阪市,1293,淀川区西宮原２丁目６番５７号,市立三国保育所北側入口鉄柵（一部ブロック塀）,34.736557,135.489105,
大阪府,大阪市,1294,淀川区西宮原１丁目６番,宮原公園南側植え込み,34.732399,135.490585,
大阪府,大阪市,1295,淀川区三国本町１丁目１２番,三国本町公園東側植込み,34.731327,135.485947,
大阪府,大阪市,1296,淀川区三国本町１丁目１２番,三国本町公園南側植え込み,34.731327,135.485947,
大阪府,大阪市,1297,淀川区三国本町２丁目１８番４８号,大阪文化服装学院新館東側鉄柵,34.73428,135.4841,
大阪府,大阪市,1298,淀川区三国本町３丁目９番１８号,市立三国小学校西側右側鉄柵,34.737972,135.487457,
大阪府,大阪市,1299,淀川区三国本町３丁目９番１８号,市立三国小学校南側鉄柵,34.737972,135.487457,
大阪府,大阪市,1300,淀川区三国本町２丁目１１番２号,市営三国南住宅西側植え込み,34.734043,135.487595,
大阪府,大阪市,1301,淀川区三国本町３丁目３０番６号,三国社会福祉会館入口右側鉄柵,34.737,135.483963,
大阪府,大阪市,1302,淀川区西三国２丁目３番,都市整備局　三国東土地区画整理事務所管理地,34.739025,135.487686,
大阪府,大阪市,1303,淀川区西三国２丁目５番２４号,市立三国中学校東側通用門右側フェンス,34.74028,135.487213,
大阪府,大阪市,1304,淀川区西三国３丁目１８番,三国公園南側入口左側,34.739613,135.486847,
大阪府,大阪市,1305,淀川区西三国４丁目３番,（株）山本商会山本モータープール入口フェンス,34.741737,135.48494,
大阪府,大阪市,1306,淀川区西三国４丁目１０番,三国駅前公園東側植込み,34.738708,135.483047,
大阪府,大阪市,1307,淀川区西三国１丁目２１番２８号,市立西三国小学校正門右側鉄柵,34.744946,135.491562,
大阪府,大阪市,1308,淀川区西三国１丁目２１番２８号,市立西三国小学校南側鉄柵,34.744946,135.491562,
大阪府,大阪市,1309,淀川区西三国１丁目２０番,関西電力（株）西三国変電所東側北鉄柵,34.743221,135.492249,
大阪府,大阪市,1310,淀川区西三国４丁目２番,田岡化学工業（株）南側フェンス,34.744492,135.487045,
大阪府,大阪市,1311,淀川区十八条２丁目１０番,十八条中央公園北側植込み,34.747272,135.490219,
大阪府,大阪市,1312,淀川区十八条３丁目１９番３５号,井手　伸江稼宅北側鉄柵,34.746861,135.483978,
大阪府,大阪市,1313,淀川区西宮原３－３,市立宮原中学校正門南側鉄柵,34.73822,135.489975,
大阪府,大阪市,1314,淀川区宮原４丁目４番５号,府立東淀川高等学校東側南鉄柵,34.735603,135.49762,
大阪府,大阪市,1315,淀川区宮原４丁目４番５号,府立東淀川高等学校南側鉄柵,34.735603,135.49762,
大阪府,大阪市,1316,淀川区宮原１丁目１５番１９,関西電力（株）東淀川変電所入口左側鉄柵,34.737045,135.502243,
大阪府,大阪市,1317,淀川区宮原３丁目４番,新大阪駅北広場駐車場鉄柵,34.733826,135.496811,
大阪府,大阪市,1318,淀川区宮原５丁目３番４号,市立北中島小学校正門左側鉄柵,34.738743,135.497055,
大阪府,大阪市,1319,淀川区宮原５丁目７番,北中島公園北側鉄柵,34.737862,135.49408,
大阪府,大阪市,1320,淀川区宮原５丁目７番,北中島公園南側鉄柵,34.737862,135.49408,
大阪府,大阪市,1321,淀川区十八条１丁目８番,十八条東公園南西入口右側鉄柵,34.747665,135.49437,
大阪府,大阪市,1322,淀川区東三国５丁目１３番,東三国西公園北側鉄柵,34.74194,135.494049,
大阪府,大阪市,1323,淀川区東三国６丁目３番２４号,市立東三国小学校正門左側鉄柵,34.744492,135.495117,
大阪府,大阪市,1324,淀川区東三国６丁目３番６８号,市立東三国中学校北側ブロック塀,34.744549,135.497177,
大阪府,大阪市,1325,淀川区東三国６丁目３番６８号,市立東三国中学校南側鉄柵,34.744549,135.497177,
大阪府,大阪市,1326,淀川区東三国２丁目１０番７号,アーベイン東三国7号棟北側植込み,34.743843,135.504578,
大阪府,大阪市,1327,淀川区東三国２丁目１２番２２号,アーベイン東三国２２号棟西側植込み,34.743053,135.500717,
大阪府,大阪市,1328,淀川区東三国２丁目１８,東三国東公園東側植え込み,34.742191,135.5,
大阪府,大阪市,1329,淀川区東三国２丁目３２番先,地下鉄御堂筋線高架下道路東側フェンス,34.744102,135.498718,
大阪府,大阪市,1330,淀川区東三国３丁目９番１０号,市立新東三国小学校南側鉄柵,34.744915,135.500168,
大阪府,大阪市,1331,港区波除２丁目２番,抱月公園 西側,34.672318,135.465027,
大阪府,大阪市,1332,港区波除４丁目４番,大阪市立波除小学校第２グランド 南東側,34.673183,135.462646,
大阪府,大阪市,1333,港区波除５丁目５番,波除公園 南側,34.674335,135.460739,
大阪府,大阪市,1334,港区波除３丁目６番８号,大阪市立波除小学校 東側,34.671288,135.46254,
大阪府,大阪市,1335,港区南岡元町３丁目２番,大阪市立南岡東中学校 北東側,34.667156,135.471802,
大阪府,大阪市,1336,港区波除３丁目１番８号,香川銀行弁天町支店駐車場 北側,34.669434,135.463623,
大阪府,大阪市,1337,港区市岡元町２丁目９番,市岡小公園 北側,34.66869,135.466995,
大阪府,大阪市,1338,港区市岡元町３丁目１２番,市岡元町公園 北東側,34.666698,135.46402,
大阪府,大阪市,1339,港区弁天５丁目１２番,弁天東公園 南側,34.673027,135.45668,
大阪府,大阪市,1340,港区弁天２丁目９番３５号,大阪市立弁天小学校 正門横,34.668732,135.455978,
大阪府,大阪市,1341,港区弁天２丁目４番,弁天四公園 南西側,34.668743,135.457535,
大阪府,大阪市,1342,港区弁天２丁目９番３５号,大阪市立弁天小学校 西通用門横,34.668732,135.455978,
大阪府,大阪市,1343,港区弁天３丁目５番,弁天公園 南東側,34.668041,135.452835,
大阪府,大阪市,1344,港区弁天１丁目１番６号,弁天町バスターミナル跡地 南側,34.668621,135.461365,
大阪府,大阪市,1345,港区弁天２丁目１番５号,（旧）港区民センター 南側,34.667591,135.458725,
大阪府,大阪市,1346,港区弁天３丁目４番,べんてん花広場 北西側,34.667183,135.453964,
大阪府,大阪市,1347,港区磯路１丁目５番２１号,大阪市立市岡中学校 東側,34.666485,135.461426,
大阪府,大阪市,1348,港区磯路３丁目１９番３号,磯路児童遊園 南西側,34.663185,135.456085,
大阪府,大阪市,1349,港区磯路３丁目７番７号,大阪市立磯路小学校 北通用門横,34.664925,135.45694,
大阪府,大阪市,1350,港区磯路３丁目７番７号,大阪市立磯路小学校 南通用門横,34.664925,135.45694,
大阪府,大阪市,1351,港区磯路２丁目１７番,磯路中央公園 南東側,34.665707,135.458771,
大阪府,大阪市,1352,港区磯路１丁目５番２１号,大阪市立市岡中学校 正門横,34.666485,135.461426,
大阪府,大阪市,1353,港区南市岡２丁目６番３５号,大阪市立南市岡小学校 南西側,34.665882,135.46875,
大阪府,大阪市,1354,港区南市岡１丁目４番７号,寺下パーク駐車場 北東側,34.667057,135.472702,
大阪府,大阪市,1355,港区南市岡１丁目１番４５号,多根脳神経リハビリテーション病院 南西側,34.668365,135.472107,
大阪府,大阪市,1356,港区南市岡１丁目１０番,南市岡児童遊園 北側,34.666481,135.47052,
大阪府,大阪市,1357,港区南市岡２丁目６番３５号,大阪市立南市岡小学校 正門横,34.665882,135.46875,
大阪府,大阪市,1358,港区南市岡２丁目７番,南市岡公園 西側,34.666126,135.468491,
大阪府,大阪市,1359,港区市岡１丁目１５番２５号,大阪市港区役所 北側,34.664059,135.460693,
大阪府,大阪市,1360,港区市岡２丁目９番,ネグロス電工（株）大阪営業所駐車場 北側,34.661892,135.457977,
大阪府,大阪市,1361,港区市岡１丁目６番３１号,市岡会館老人憩いの家 東側,34.663898,135.462769,
大阪府,大阪市,1362,港区市岡１丁目２２番７号,（株）飯田 西側,34.661438,135.461365,
大阪府,大阪市,1363,港区市岡３丁目２番２４号,大阪市立市岡小学校 正門横,34.663239,135.464233,
大阪府,大阪市,1364,港区市岡４丁目４番,市岡自転車保管所 東側,34.659874,135.46344,
大阪府,大阪市,1365,港区南市岡３丁目９番,市岡団地横ちびっこ広場 西側,34.663754,135.465652,
大阪府,大阪市,1366,港区田中２丁目１０番３４号,大阪市立田中小学校 東通用門横,34.663589,135.447586,
大阪府,大阪市,1367,港区田中２丁目１０番３４号,大阪市立田中小学校 北通用門横,34.663589,135.447586,
大阪府,大阪市,1368,港区田中１丁目１１番,大阪市営田中住宅集会所横運動場 南東側,34.665325,135.449249,
大阪府,大阪市,1369,港区田中１丁目１番,東田中公園 南側,34.66531,135.451599,
大阪府,大阪市,1370,港区夕凪２丁目６番,夕凪公園 南側,34.662819,135.451843,
大阪府,大阪市,1371,港区夕凪１丁目３番,ＮＴＴ港ビル 西側,34.663265,135.454361,
大阪府,大阪市,1372,港区田中３丁目１番,八幡屋公園事務所 南東側,34.659412,135.444778,
大阪府,大阪市,1373,港区三先１丁目５番２８号,大阪市立港南中学校 西側,34.660019,135.456879,
大阪府,大阪市,1374,港区三先１丁目６番３７号,大阪市立三先幼稚園 西側,34.660461,135.455612,
大阪府,大阪市,1375,港区三先２丁目６番３２号,大阪市立三先小学校 南西側,34.659008,135.452499,
大阪府,大阪市,1376,港区三先２丁目６番３２号,大阪市立三先小学校 通用門横,34.659008,135.452499,
大阪府,大阪市,1377,港区三先２丁目３番,三先公園 北側,34.659798,135.452515,
大阪府,大阪市,1378,港区三先２丁目３番,三先公園 南西側,34.659798,135.452515,
大阪府,大阪市,1379,港区三先２丁目１７番,大阪市営三先住宅 南西側,34.658424,135.451019,
大阪府,大阪市,1380,港区池島１丁目５番３５号,大阪市立港中学校 北西側,34.656593,135.448669,
大阪府,大阪市,1381,港区池島１丁目５番３５号,大阪市立港中学校 南東側,34.656593,135.448669,
大阪府,大阪市,1382,港区池島２丁目４番,池島公園 南西側,34.657146,135.453812,
大阪府,大阪市,1383,港区池島３丁目３番,大阪市営池島住宅１号館 南西側,34.655266,135.450195,
大阪府,大阪市,1384,港区池島２丁目５番４７号,大阪市立池島小学校 正門横,34.655663,135.451126,
大阪府,大阪市,1385,港区池島３丁目７番１８号,海の子学園入所寮 北西側,34.654758,135.448288,
大阪府,大阪市,1386,港区八幡屋１丁目４番２０号,港近隣センター 南西側,34.656528,135.448196,
大阪府,大阪市,1387,港区八幡屋３丁目３番５号,大阪市立八幡屋小学校 北門側,34.655159,135.446503,
大阪府,大阪市,1388,港区八幡屋３丁目２番,コミュニティ広場 南東側,34.654999,135.445267,
大阪府,大阪市,1389,港区八幡屋３丁目１０番,大阪市営八幡屋第２住宅４号館 南西側,34.654293,135.445587,
大阪府,大阪市,1390,港区八幡屋４丁目３番,八幡屋南公園 南西側入口横,34.652321,135.447495,
大阪府,大阪市,1391,港区港晴１丁目３番１２号,大阪市立港晴小学校 正門横,34.656116,135.444839,
大阪府,大阪市,1392,港区港晴１丁目３番１２号,大阪市立港晴小学校 北通用門横,34.656116,135.444839,
大阪府,大阪市,1393,港区港晴２丁目５番,大阪市営八幡屋室町住宅１号館 北西側,34.655003,135.443481,
大阪府,大阪市,1394,港区港晴２丁目８番,港晴南公園 北東側,34.655197,135.441727,
大阪府,大阪市,1395,港区港晴３丁目１１番,港晴東公園 南側,34.6591,135.441635,
大阪府,大阪市,1396,港区港晴４丁目１７番,港晴北公園 東側,34.657387,135.440125,
大阪府,大阪市,1397,港区築港１丁目１０番３８号,大阪市立築港小学校 東通用門横,34.652996,135.435867,
大阪府,大阪市,1398,港区築港１丁目１０番３８号,大阪市立築港小学校 正門横,34.652996,135.435867,
大阪府,大阪市,1399,港区築港２丁目４番,築港西児童遊園 南西側,34.651569,135.433655,
大阪府,大阪市,1400,港区築港４丁目５番,大阪市営一条通住宅１号館 北東側,34.654835,135.430771,
大阪府,大阪市,1401,港区築港３丁目２番,天保山公園 南東側,34.657024,135.432526,
大阪府,大阪市,1402,港区築港３丁目４番,多根介護老人保健施設てんぽーざん駐車場 北側,34.655235,135.434891,
大阪府,大阪市,1403,生野区鶴橋1丁目6番15号,災害避難施設用地東側フェンス,34.663006,135.530273,
大阪府,大阪市,1404,生野区鶴橋5丁目10番先,平野川左岸護岸鉄柵（ちとせ橋北側）,34.664406,135.538849,
大阪府,大阪市,1405,生野区鶴橋3丁目4番50号,大阪市立鶴橋小学校南側鉄柵,34.663918,135.53447,
大阪府,大阪市,1406,生野区鶴橋5丁目19番先,平野川左岸護岸鉄柵（寿橋北側）,34.662781,135.538773,
大阪府,大阪市,1407,生野区鶴橋4丁目1番,北鶴橋第2公園南側敷地,34.665318,135.536453,
大阪府,大阪市,1408,生野区桃谷1丁目2番,桃谷公園野球場（東側フェンス）,34.661522,135.529907,
大阪府,大阪市,1409,生野区桃谷1丁目2番39号,桃谷公園（東側フェンス）,34.659565,135.530563,
大阪府,大阪市,1410,生野区桃谷2丁目20番32号,大阪市立鶴橋小学校東側鉄柵,34.658539,135.532669,
大阪府,大阪市,1411,生野区桃谷3丁目2番40号,北桃谷乳児保育園西側フェンス,34.661842,135.534286,
大阪府,大阪市,1412,生野区桃谷2丁目2番,鶴橋本通商店街南入口植栽,34.661716,135.531265,
大阪府,大阪市,1413,生野区桃谷4丁目1番,ネオコーポ桃谷北側植込,34.661785,135.53656,
大阪府,大阪市,1414,生野区桃谷5丁目5番37号,いくのパーク西側鉄柵,34.659569,135.53801,
大阪府,大阪市,1415,生野区桃谷5丁目7番,平野川左岸護岸鉄柵御幸橋南西側,34.659893,135.539337,
大阪府,大阪市,1416,生野区桃谷5丁目8番,御幸森公園東側フェンス,34.658852,135.539017,
大阪府,大阪市,1417,生野区勝山北5丁目4番,平野川左岸護岸鉄柵万才橋北側,34.656673,135.539429,
大阪府,大阪市,1418,生野区勝山北4丁目9番,大阪市もと鶴橋中学校北東側フェンス,34.656666,135.537155,
大阪府,大阪市,1419,生野区勝山北3丁目7番21号,大阪市立東桃谷小学校東側鉄柵,34.655773,135.534271,
大阪府,大阪市,1420,生野区勝山北3丁目13番44号,大阪市立桃谷中学校西側鉄柵,34.65472,135.532593,
大阪府,大阪市,1421,生野区勝山南3丁目1番19号,大阪市生野区役所北側敷地,34.654057,135.534515,
大阪府,大阪市,1422,生野区勝山南3丁目1番19号,大阪市生野区役所東側敷地,34.654057,135.534515,
大阪府,大阪市,1423,生野区勝山北1丁目1番18号,桃谷南パーキング東側フェンス,34.656548,135.527817,
大阪府,大阪市,1424,生野区勝山南1丁目3番5号,大阪市立勝山小学校北側鉄柵,34.654366,135.527969,
大阪府,大阪市,1425,生野区勝山南1丁目17番,生野モータープール南側フェンス,34.652676,135.526993,
大阪府,大阪市,1426,生野区生野西1丁目18番,猫間川公園南側,34.648781,135.524963,
大阪府,大阪市,1427,生野区生野西2丁目7番,源ヶ橋児童遊園北側フェンス,34.647408,135.526184,
大阪府,大阪市,1428,生野区勝山南4丁目7番,舎利寺中央公園西側敷地,34.652988,135.539307,
大阪府,大阪市,1429,生野区勝山南4丁目15番25号,もと舎利寺小学校南側鉄柵,34.651909,135.539124,
大阪府,大阪市,1430,生野区舎利寺1丁目13番8号,生野消防署南側フェンス,34.650448,135.540192,
大阪府,大阪市,1431,生野区中川6丁目12番,中川6公園北側,34.654099,135.542496,
大阪府,大阪市,1432,生野区勝山北5丁目72番先,平野川左岸護岸鉄柵（俊徳橋西南側）,34.65559,135.538742,
大阪府,大阪市,1433,生野区生野東1丁目1番30号,市営生野東住宅1号館（南側植込み）,34.650452,135.530991,
大阪府,大阪市,1434,生野区生野西3丁目5番7号,生野未来学園（西生野）北側鉄柵,34.651367,135.529007,
大阪府,大阪市,1435,生野区生野西3丁目5番7号,生野未来学園（西生野）南側鉄柵,34.651367,135.529007,
大阪府,大阪市,1436,生野区生野西3丁目7番22号,烏山ガレージ南側ブロック塀,34.649597,135.527679,
大阪府,大阪市,1437,生野区生野西4丁目4番16号,西生野会館老人憩の家南側フェンス,34.647964,135.529541,
大阪府,大阪市,1438,生野区生野東4丁目1番,生野ふれあい児童遊園西側フェンス,34.647633,135.533646,
大阪府,大阪市,1439,生野区生野東3丁目10番,生野東公園南側敷地,34.651257,135.53508,
大阪府,大阪市,1440,生野区生野東1丁目5番,住宅地区改良事業用地南側フェンス,34.650581,135.532227,
大阪府,大阪市,1441,生野区生野東4丁目5番,生野東4公園北側敷地,34.646839,135.53476,
大阪府,大阪市,1442,生野区舎利寺3丁目1番39号,ワン・ワールド・インターナショナルスクール大阪西側鉄柵,34.648003,135.535995,
大阪府,大阪市,1443,生野区林 寺1丁目151番 1,そかい道路西側緑地フェンス,34.64558,135.528854,
大阪府,大阪市,1444,生野区林 寺2丁目14番 3号,アブロードインターナショナルスクール大阪北側鉄柵,34.644901,135.532593,
大阪府,大阪市,1445,生野区林 寺2丁目14番 3号,アブロードインターナショナルスクール大阪南側鉄柵,34.644901,135.532593,
大阪府,大阪市,1446,生野区林 寺2丁目16番 3号,林寺センター北側フェンス,34.644951,135.531326,
大阪府,大阪市,1447,生野区林 寺3丁目10番16号,成恩寺大阪別院北側ブロック塀,34.64436,135.534271,
大阪府,大阪市,1448,生野区田 島3丁目 7番38号,大阪市立田島南小中一貫校第二校地西側鉄柵,34.648472,135.543091,
大阪府,大阪市,1449,生野区田 島3丁目 7番38号,大阪市立田島南小中一貫校第二校地東側鉄柵,34.648472,135.543091,
大阪府,大阪市,1450,生野区谷利寺2丁目12番先,平野川右岸護岸鉄柵田島市営住宅前（湯上橋東南側）,34.65361,135.534439,
大阪府,大阪市,1451,生野区田 島5丁目23番7号,大阪市立田島南小中一貫校北側鉄柵,34.644051,135.543594,
大阪府,大阪市,1452,生野区谷利寺3丁目11番,平野川右岸護岸鉄柵（眼鏡橋東側）,34.65361,135.534439,
大阪府,大阪市,1453,生野区林 寺5丁目132の2番先,平野川左岸護岸鉄柵（庚申橋西南側）,34.644642,135.537704,
大阪府,大阪市,1454,生野区林 寺4丁目 6番,生野南公園東側敷地,34.642857,135.534348,
大阪府,大阪市,1455,生野区林 寺6丁目 6番 7号,大阪自動車整備専門学校（北側鉄柵）,34.642479,135.538254,
大阪府,大阪市,1456,生野区林 寺6丁目 6番 7号,大阪自動車整備専門学校（東側鉄柵）,34.642479,135.538254,
大阪府,大阪市,1457,生野区林 寺5丁目10番18号,ライフ生野林寺北側フェンス,34.644531,135.539017,
大阪府,大阪市,1458,生野区田 島5丁目 7番,新田島公園南側敷地,34.643257,135.541397,
大阪府,大阪市,1459,生野区中川西2丁目 5番,中川西公園北側フェンス,34.661713,135.541183,
大阪府,大阪市,1460,生野区中 川2丁目 4番,中川公園北側敷地,34.661098,135.54335,
大阪府,大阪市,1461,生野区中 川3丁目 4番 3号,大阪市立大池小学校新講堂南側鉄柵,34.659924,135.544296,
大阪府,大阪市,1462,生野区中 川6丁目 3番 6号,大阪市立大池中学校東側鉄柵,34.656082,135.542526,
大阪府,大阪市,1463,生野区中 川5丁目13番,中川南公園北側敷地,34.656666,135.545929,
大阪府,大阪市,1464,生野区新今里2丁目12番,新今里公園東側敷地,34.66251,135.546463,
大阪府,大阪市,1465,生野区新今里2丁目12番,新今里公園西側敷地,34.66251,135.546463,
大阪府,大阪市,1466,生野区新今里4丁目10番街区,平野川分水路護岸植込（東橋東南側）,34.662521,135.549744,
大阪府,大阪市,1467,生野区新今里7丁目 9番25号,大阪市立東生野中学校南側鉄柵,34.660191,135.551163,
大阪府,大阪市,1468,生野区新今里7丁目14番37号,大阪市立東中川小学校西側鉄柵,34.658585,135.550018,
大阪府,大阪市,1469,生野区新今里7丁目14番37号,大阪市立東中川小学校南側鉄柵,34.658585,135.550018,
大阪府,大阪市,1470,生野区中川東1丁目 5番 3号,生野こもれび保育園西側フェンス,34.657879,135.546738,
大阪府,大阪市,1471,生野区小 路2丁目 2番,小路西公園北側フェンス,34.661274,135.553192,
大阪府,大阪市,1472,生野区小 路2丁目24番40号,大阪市立小路小学校北側鉄柵,34.660713,135.554733,
大阪府,大阪市,1473,生野区小 路2丁目24番40号,大阪市立小路小学校東側鉄柵,34.660713,135.554733,
大阪府,大阪市,1474,生野区小 路3丁目19番,小路南公園東側敷地,34.656425,135.555145,
大阪府,大阪市,1475,生野区小路東4丁目1番26号,金光藤蔭高等学校南側鉄塀,34.657104,135.555984,
大阪府,大阪市,1476,生野区小 路2丁目15番35号,大阪市立小路小学校西校舎南側鉄柵,34.660503,135.554291,
大阪府,大阪市,1477,生野区小路東1丁目14番12号,犬理教摂東分教会東側フェンス,34.662487,135.559006,
大阪府,大阪市,1478,生野区小路東2丁目23番,小路東公園西側,34.658905,135.557907,
大阪府,大阪市,1479,生野区小路東3丁目 8番15号,大阪市立東小路小学校東側鉄柵,34.658859,135.559998,
大阪府,大阪市,1480,生野区小路東5丁目 6番40号,おおさかパルコープ北側フェンス,34.656807,135.558868,
大阪府,大阪市,1481,生野区小路東6丁目11番,府道172号線沿い空地西側フェンス,34.657024,135.563248,
大阪府,大阪市,1482,生野区巽 中3丁目12番 5号,大阪市立巽小学校東側フェンス,34.646187,135.551971,
大阪府,大阪市,1483,生野区巽 中1丁目25番,コジマ電気NEW生野店南側フェンス,34.652958,135.554321,
大阪府,大阪市,1484,生野区巽 中3丁目17番20号,大阪市立巽中学校東側ブロック塀,34.646706,135.553726,
大阪府,大阪市,1485,生野区巽 西2丁目11番30号,大阪電鍍化学工業㈱西側ブロック塀,34.648548,135.546661,
大阪府,大阪市,1486,生野区巽 中2丁目22番,伊賀ヶ西公園北側敷地,34.648499,135.553589,
大阪府,大阪市,1487,生野区巽 西3丁目15番,巽西みのり公園南側敷地,34.646301,135.54686,
大阪府,大阪市,1488,生野区巽 西4丁目 6番,巽西公園北側敷地,34.643833,135.547333,
大阪府,大阪市,1489,生野区巽 東2丁目17番1号,市営巽伊賀住宅北側植込み,34.645226,135.554535,
大阪府,大阪市,1490,生野区巽 東1丁目16番,巽伊賀ヶ公園東側フェンス,34.649029,135.555618,
大阪府,大阪市,1491,生野区巽 東3丁目3番12号,大阪市立新生野中学校東側鉄柵,34.652428,135.558411,
大阪府,大阪市,1492,生野区巽 東3丁目8番13号,大阪市立巽東小学校東側フェンス,34.649662,135.558578,
大阪府,大阪市,1493,生野区巽 東4丁目2番47号,大阪府立生野支援学校南側フェンス,34.648643,135.558777,
大阪府,大阪市,1494,生野区巽 東4丁目11番115号,大阪市水道局菱配水場西側フェンス,34.645103,135.557083,
大阪府,大阪市,1495,生野区巽 東3丁目11番,巽東3公園北側フェンス,34.652168,135.559464,
大阪府,大阪市,1496,生野区巽 南1丁目9番,四条西児童遊園北側フェンス,34.640465,135.547073,
大阪府,大阪市,1497,生野区巽 南2丁目10番7号,大阪市立巽南小学校南側鉄柵,34.638725,135.548538,
大阪府,大阪市,1498,生野区巽 南2丁目10番7号,大阪市立巽南小学校北側鉄柵,34.638725,135.548538,
大阪府,大阪市,1499,生野区巽 南3丁目10番,南巽公園南側フェンス,34.641197,135.551407,
大阪府,大阪市,1500,生野区巽 南4丁目2番53号,大阪市立新巽中学校北側フェンス,34.639553,135.549759,
大阪府,大阪市,1501,生野区巽 南5丁目4番14号,㈱中西製作所東側ブロック塀,34.638393,135.552338,
大阪府,大阪市,1502,生野区巽 南4丁目2番53号,大阪市立新巽中学校東側フェンス,34.639553,135.549759,
大阪府,大阪市,1503,生野区巽 北1丁目30番29号,大阪市立北巽小学校南側塀,34.653561,135.547501,
大阪府,大阪市,1504,生野区巽 北4丁目6番148,田辺モータープール南側フェンス,34.65461,135.556976,
大阪府,大阪市,1505,生野区巽 中1丁目5番,巽中央公園北側敷地,34.651665,135.549728,
大阪府,大阪市,1506,生野区巽 中1丁目8番13号,田辺モータープール北側フェンス,34.653008,135.55101,
大阪府,大阪市,1507,生野区巽 北1丁目21番,巽北西公園西側敷地,34.653683,135.545898,
大阪府,大阪市,1508,生野区巽 中1丁目20番,巽西足代公園西側敷地,34.651703,135.552933,
大阪府,大阪市,1509,生野区巽 西1丁目7番,巽公園西側敷地,34.65152,135.54744,
大阪府,大阪市,1510,福島区福島７丁目10番,上福島公園 北西側,34.698311,135.48494,
大阪府,大阪市,1511,福島区福島６丁目15番１号,関西電力送配電福島変電所 南側 フェンス,34.700512,135.488525,
大阪府,大阪市,1512,福島区福島７丁目23番,上福島北公園 南側,34.700703,135.486069,
大阪府,大阪市,1513,福島区福島８丁目12番６号,福島年金事務所 南側 金網,34.6964,135.482269,
大阪府,大阪市,1514,福島区福島７丁目４番33号,上福島小学校 南側 鉄柵,34.697041,135.48558,
大阪府,大阪市,1515,福島区福島５丁目16番,福島公園 東側入口左,34.695923,135.485291,
大阪府,大阪市,1516,福島区福島１丁目７番,福島天満宮なにわ筋向い地下入口南 歩道植込み,34.695366,135.487518,
大阪府,大阪市,1517,福島区福島１丁目１番60号,中之島合同庁舎（大阪高等検察庁）北東側植込み,34.695385,135.490021,
大阪府,大阪市,1518,福島区福島３丁目７番39号,藤和堂島ハイツ 鉄柵,34.692642,135.485992,
大阪府,大阪市,1519,福島区福島４丁目５番６号,福島小学校 南側 正門横 鉄柵,34.69334,135.483383,
大阪府,大阪市,1520,福島区福島４丁目１番,下福島公園運動場 南東角,34.689899,135.482452,
大阪府,大阪市,1521,福島区玉川２丁目13番16号,玉川小学校 東側 正門右 鉄柵,34.691917,135.48056,
大阪府,大阪市,1522,福島区玉川２丁目３番16号,ユニライフ福島 西側 児童公園 鉄柵,34.69083,135.480728,
大阪府,大阪市,1523,福島区玉川１丁目４番11号,下福島中学校 南西角通用門右ブロック塀,34.688091,135.482285,
大阪府,大阪市,1524,福島区玉川４丁目５番17号,玉川コミュニティセンター 東側 花壇,34.689869,135.47876,
大阪府,大阪市,1525,福島区玉川４丁目11番,大阪メトロ第５号線「玉川駅」５号出入口 地上東側・西側支柱部分,34.689224,135.476639,
大阪府,大阪市,1526,福島区野田６丁目４番13号,野田６交差点 南東 鉄柵,34.685089,135.470261,
大阪府,大阪市,1527,福島区野田５丁目13番22号,野田小学校 西側 鉄柵,34.68652,135.473587,
大阪府,大阪市,1528,福島区野田５丁目９番８号,野田コミュニティセンター 入口右 鉄柵,34.684978,135.473831,
大阪府,大阪市,1529,福島区野田５丁目６番,野田緑道 南側,34.684765,135.472336,
大阪府,大阪市,1530,福島区野田２丁目８番,大野東公園 南側 鉄柵,34.686161,135.477875,
大阪府,大阪市,1531,福島区野田３丁目12番,大阪メトロ第５号線「玉川駅」３号出入口 地上北側・西側支柱部分,34.688812,135.475739,
大阪府,大阪市,1532,福島区吉野３丁目17番23号,福島区民センター等複合施設 北側フェンス,34.691875,135.472794,
大阪府,大阪市,1533,福島区吉野３丁目10番５号,吉野小学校 通用門右 鉄柵,34.689911,135.473206,
大阪府,大阪市,1534,福島区吉野１丁目15番,中江町公園 南側,34.691799,135.477768,
大阪府,大阪市,1535,福島区吉野２丁目15番,大阪メトロ第５号線「野田阪神駅」７号出入口 地上北側・南側支柱部分,34.693157,135.475479,
大阪府,大阪市,1536,福島区吉野３丁目17番５号,西野田幼稚園 正門横 鉄柵,34.690762,135.472824,
大阪府,大阪市,1537,福島区吉野４丁目12番,吉野町公園 北側,34.689751,135.470978,
大阪府,大阪市,1538,福島区吉野４丁目16番１号,押谷産業（株）駐車場 東側 金網,34.687656,135.471497,
大阪府,大阪市,1539,福島区吉野５丁目９番４号,野田中学校 正門右 鉄柵,34.686523,135.469223,
大阪府,大阪市,1540,福島区吉野５丁目９番,新家公園 北側,34.687153,135.468903,
大阪府,大阪市,1541,福島区大開１丁目８番１号,区役所前 南側 植込み,34.6922,135.472565,
大阪府,大阪市,1542,福島区大開１丁目14番,大阪メトロ第５号線「野田阪神駅」６号出入口 地上東側・西側支柱部分,34.694004,135.474319,
大阪府,大阪市,1543,福島区大開２丁目10番28号,大開小学校 講堂通用門右 鉄柵,34.692791,135.470917,
大阪府,大阪市,1544,福島区大開２丁目18番,西野田工科高校体育館 東側 鉄柵,34.694145,135.468765,
大阪府,大阪市,1545,福島区大開３丁目７番38号,ＡＧＣ硝子建材㈱東側入口南 金網,34.692738,135.468262,
大阪府,大阪市,1546,福島区大開４丁目１番,福山通運㈱社宅前公園 南側 金網,34.69545,135.463898,
大阪府,大阪市,1547,福島区鷺洲５丁目７番,鷺洲北公園 東側 鉄柵,34.70047,135.47937,
大阪府,大阪市,1548,福島区鷺洲２丁目４番,鷺洲中公園 東側 鉄柵,34.696625,135.48111,
大阪府,大阪市,1549,福島区鷺洲２丁目１５番１０号,妙壽寺 西側 壁,34.699097,135.482468,
大阪府,大阪市,1550,福島区鷺洲３丁目５番,誠パーキング 北側 鉄柵,34.697102,135.478363,
大阪府,大阪市,1551,福島区鷺洲５丁目６番８号,鷺洲小学校 正門右 鉄柵,34.69857,135.479202,
大阪府,大阪市,1552,福島区鷺洲６丁目１番１３号,八阪中学校 南側 正門左 鉄柵,34.700806,135.477951,
大阪府,大阪市,1553,福島区鷺洲５丁目６番,鷺洲上公園 西側,34.699318,135.47908,
大阪府,大阪市,1554,福島区鷺洲２丁目４番,鷺洲中公園 北西側 植込み,34.696625,135.48111,
大阪府,大阪市,1555,福島区海老江２丁目９番,海老江上児童遊園地 南側 ブロック塀,34.697838,135.473663,
大阪府,大阪市,1556,福島区海老江３丁目１２番,海老江上公園 南側,34.700085,135.473053,
大阪府,大阪市,1557,福島区海老江１丁目６番１９号,海老江東小学校 西側 鉄柵,34.699158,135.474915,
大阪府,大阪市,1558,福島区海老江１丁目６番１９号,海老江東小学校 南門横鉄柵,34.699158,135.474915,
大阪府,大阪市,1559,福島区海老江１丁目５番,海老江上一児童遊園 西側 鉄柵,34.697254,135.475937,
大阪府,大阪市,1560,福島区海老江１丁目８番８号,福島育成園 西側 鉄柵,34.699551,135.474915,
大阪府,大阪市,1561,福島区海老江５丁目３番２２号,海老江ひばり保育園 金網,34.696064,135.473541,
大阪府,大阪市,1562,福島区海老江７丁目１５番,海老江公園 南側,34.695637,135.470093,
大阪府,大阪市,1563,福島区海老江６丁目４番,海老江中公園 北側 鉄柵,34.698921,135.470779,
大阪府,大阪市,1564,福島区海老江８丁目１番１０号,海老江西小学校 正門右 鉄柵,34.69725,135.469986,
大阪府,大阪市,1565,福島区海老江６丁目２番２２号,福島区在宅サービスセンター正門右 鉄柵,34.697994,135.471115,
大阪府,大阪市,1566,西区江戸堀１－２２－２５,日本高等学校野球連盟 北側,34.688869,135.493134,
大阪府,大阪市,1567,西区江戸堀１－２１－２８,西船場小学校 正門,34.688545,135.49379,
大阪府,大阪市,1568,西区京町堀１－１１,西船場公園 西側,34.687775,135.494446,
大阪府,大阪市,1569,西区京町堀３－７,江戸堀公園 西側,34.684273,135.486496,
大阪府,大阪市,1570,西区京町堀３－７,江戸堀公園 東側,34.684273,135.486496,
大阪府,大阪市,1571,西区江戸堀２－８－２９,花乃井中学校 正門,34.686462,135.489044,
大阪府,大阪市,1572,西区江戸堀２－８－２９,花乃井中学校 南門,34.686462,135.489044,
大阪府,大阪市,1573,西区京町堀２－１１,花乃井公園 南側,34.685612,135.489517,
大阪府,大阪市,1574,西区靭本町１－９,靭公園東園 東側,34.6857815,135.4960202,
大阪府,大阪市,1575,西区靭本町１－１９－１３,鞴幼稚園 東側,34.6839818,135.4940867,
大阪府,大阪市,1576,西区靭本町１－９,鞴公園東園 西側,34.6857815,135.4960202,
大阪府,大阪市,1577,西区西本町３－１,大阪メトロ阿波座事務所 南側,34.6821106,135.4878823,
大阪府,大阪市,1578,西区靭本町２－１,靭公園西園 北西側,34.6837979,135.4913159,
大阪府,大阪市,1579,西区阿波座１－８,新町浜公園 南側,34.681053,135.49556,
大阪府,大阪市,1580,西区阿波座２－３－３５,明治小学校 正門,34.680614,135.49147,
大阪府,大阪市,1581,西区阿波座２－３－３５,明治小学校 南門,34.680614,135.49147,
大阪府,大阪市,1582,西区立売堀４－２,薩摩堀公園 東側,34.680725,135.488235,
大阪府,大阪市,1583,西区立売堀５－４,烏津公園 西側,34.679501,135.485764,
大阪府,大阪市,1584,西区立売堀６－７－１８,ノアインドアステージ株式会社 南側,34.679035,135.483871,
大阪府,大阪市,1585,西区新町１－１５,新町北公園 北側,34.678315,135.495695,
大阪府,大阪市,1586,西区新町２－６,新町南公園 東側,34.676145,135.493175,
大阪府,大阪市,1587,西区新町３－１,立売堀公園 東側,34.677902,135.490556,
大阪府,大阪市,1588,西区新町３－１６,日本交通株式会社本社営業所 南側,34.675907,135.487822,
大阪府,大阪市,1589,西区新町４－５－１４,西区役所 玄関前,34.675997,135.485825,
大阪府,大阪市,1590,西区新町４－５,新町西公園 北側,34.676655,135.486457,
大阪府,大阪市,1591,西区新町１－１５,新町北公園 西側,34.678091,135.494263,
大阪府,大阪市,1592,西区新町２－６,新町南公園 北側,34.676653,135.492802,
大阪府,大阪市,1593,西区北堀江１－１４,オグロモータープール 東側フェンス,34.67318,135.494659,
大阪府,大阪市,1594,西区南堀江１－１３,堀江公園 北側,34.672528,135.494729,
大阪府,大阪市,1595,西区北堀江３－２－１６,堀江小学校 東側,34.674091,135.489899,
大阪府,大阪市,1596,西区北堀江３－２－３１,堀江小学校 正門,34.675076,135.489655,
大阪府,大阪市,1597,西区北堀江３－３,阿弥陀池公園 南側,34.673813,135.489929,
大阪府,大阪市,1598,西区北堀江４－２,大阪メトロ西長堀駅 吸気筒前,34.674702,135.486389,
大阪府,大阪市,1599,西区北堀江４－９,土佐公園 東側,34.674271,135.484451,
大阪府,大阪市,1600,西区北堀江４－９,堀江中学校体育館 入口鉄柵,34.674271,135.484451,
大阪府,大阪市,1601,西区北堀江４－１５,堀江中学校グランド 西側鉄柵,34.673843,135.483215,
大阪府,大阪市,1602,西区南堀江１－６,新南堀江パーキング 東側フェンス,34.6699157,135.4958812,
大阪府,大阪市,1603,西区南堀江２－８,南堀江公園 北側,34.670788,135.490809,
大阪府,大阪市,1604,西区南堀江３－５－７,もと堀江中学校 東側フェンス,34.670204,135.490067,
大阪府,大阪市,1605,西区南堀江３－５－７,もと堀江中学校 西側フェンス,34.670204,135.490067,
大阪府,大阪市,1606,西区南堀江３－１,高台橋公園 東側,34.672459,135.489838,
大阪府,大阪市,1607,西区南堀江４−９,日吉公園 東側,34.671112,135.483734,
大阪府,大阪市,1608,西区南堀江４−９−１９,日吉小学校 北側ブロック塀,34.670727,135.484192,
大阪府,大阪市,1609,西区南堀江４−９−１９,日吉小学校 正門鉄柵,34.670727,135.484192,
大阪府,大阪市,1610,西区南堀江４−１２−２６,水道局西部水道センター 西側フェンス,34.672352,135.483627,
大阪府,大阪市,1611,西区南堀江４−８−２４,日吉幼稚園 西側,34.670437,135.482635,
大阪府,大阪市,1612,西区千代崎１−３,松島公園 北側,34.676197,135.48053,
大阪府,大阪市,1613,西区千代崎２−２１−１８,西保育所 北側ブロック塀,34.672836,135.478256,
大阪府,大阪市,1614,西区千代崎３−１−４３,西中学校 正門,34.671909,135.478775,
大阪府,大阪市,1615,西区千代崎３−１−４３,西中学校 西門,34.671909,135.478775,
大阪府,大阪市,1616,西区江之子島１−１−９,エルベロワイヤル１６ 南側鉄柵,34.684528,135.484268,
大阪府,大阪市,1617,西区江之子島２−１−６４,西大阪治水事務所 北側鉄柵,34.680908,135.483475,
大阪府,大阪市,1618,西区川口１−５−１９,本田小学校 西側鉄柵,34.681483,135.481385,
大阪府,大阪市,1619,西区本田２−１−１０,大阪掖済会病院 玄関前植込み,34.678097,135.479297,
大阪府,大阪市,1620,西区川口３−６−１４,すみれ苑 南側,34.681297,135.477524,
大阪府,大阪市,1621,西区本田１−９−３,竹林寺 西側ブロック塀,34.676918,135.480026,
大阪府,大阪市,1622,西区本田３−７−２,西区老人福祉センター 玄関前,34.677692,135.474243,
大阪府,大阪市,1623,西区本田３−８,本田公園 北側,34.67815,135.474258,
大阪府,大阪市,1624,西区本田４−７−１８,藤原運輸㈱ 北側フェンス,34.679753,135.472545,
大阪府,大阪市,1625,西区千代崎２−１２,不二モータープール 東側フェンス,34.673244,135.477554,
大阪府,大阪市,1626,西区九条１−１−１７,茨住吉神社 東側,34.67503,135.477692,
大阪府,大阪市,1627,西区九条南２−６−２,九条東小学校 正門左側花壇,34.673962,135.472977,
大阪府,大阪市,1628,西区九条２−６−２,九条東小学校 南西フェンス（中央大通側）,34.675484,135.472977,
大阪府,大阪市,1629,西区九条南２−１３−１７,九条南小学校 正門,34.672543,135.472717,
大阪府,大阪市,1630,西区九条南２−１９,九条南公園 東側,34.672237,135.472534,
大阪府,大阪市,1631,西区九条南２−１３−１７,九条南小学校 西側,34.672543,135.472717,
大阪府,大阪市,1632,西区九条南１−１２−５４,大阪市消防局 電光掲示板横植込み,34.670341,135.473999,
大阪府,大阪市,1633,西区九条南４−１９,九条北公園 東側,34.675777,135.467514,
大阪府,大阪市,1634,西区九条南４−７−３８,九条北小学校 正門,34.676872,135.468384,
大阪府,大阪市,1635,西区九条南４−７−３８,九条北小学校 西側,34.676872,135.468384,
大阪府,大阪市,1636,西区九条南４−２７−２５,建設局九条抽水所 鉄柵,34.675915,135.465714,
大阪府,大阪市,1637,西区九条２−１９−１８,九条幼稚園 正門,34.675938,135.47168,
大阪府,大阪市,1638,西区境川２−１−５２,増谷ボルト フェンス,34.674244,135.466736,
大阪府,大阪市,1639,西区九条２−２０,九条東公園 南側,34.675854,135.471207,
大阪府,大阪市,1640,西区九条南３−１−７,鈴の音保育園 正門フェンス,34.674782,135.47142,
大阪府,大阪市,1641,西成区花園北2丁目16番26号,もと大阪市立弘治小学校 北側柵,34.644283,135.497086,
大阪府,大阪市,1642,西成区花園北2丁目16番26号,もと大阪市立弘治小学校 南側柵,34.644283,135.497086,
大阪府,大阪市,1643,西成区花園北2丁目16番26号,もと大阪市立弘治小学校 西側柵,34.644283,135.497086,
大阪府,大阪市,1644,西成区梅南1丁目2番,弘治南公園 東側柵,34.642513,135.495636,
大阪府,大阪市,1645,西成区長橋2丁目3番21号,大阪市立長橋小学校 正門横,34.647472,135.491669,
大阪府,大阪市,1646,西成区長橋3丁目9番23号,大阪市立鶴見橋中学校 南側,34.648315,135.486099,
大阪府,大阪市,1647,西成区南開2丁目5番,西成住宅地区改良事業用地（出城西住宅）北側柵,34.650829,135.48732,
大阪府,大阪市,1648,西成区中開2丁目1番16号,大阪市営中開東住宅 西側,34.652752,135.492615,
大阪府,大阪市,1649,西成区萩之茶屋1丁目11番22号,萩之茶屋北住宅1号館 南西側,34.647629,135.499741,
大阪府,大阪市,1650,西成区花園北1丁目8番32号,いまみや小中一貫校 正門横,34.64846,135.498154,
大阪府,大阪市,1651,西成区萩之茶屋1丁目11番,萩之茶屋1丁目ふれあい広場 北側フェンス,34.647606,135.499435,
大阪府,大阪市,1652,西成区花園北1丁目8番32号,いまみや小中一貫校 東側柵,34.64846,135.498154,
大阪府,大阪市,1653,西成区太子1丁目15番17号,西成区保健福祉センター分館 北側塀,34.646622,135.503052,
大阪府,大阪市,1654,西成区長橋1丁目6番28号,もと大阪市立長橋第５保育所 西側柵,34.648399,135.495407,
大阪府,大阪市,1655,西成区花園北1丁目8番32号,いまみや小中一貫校 北側柵,34.64846,135.498154,
大阪府,大阪市,1656,西成区長橋1丁目4番,長橋１公園 北側,34.64943,135.496134,
大阪府,大阪市,1657,西成区天下茶屋1丁目16番5号,もと大阪市立今宮小学校 北側柵,34.641289,135.500214,
大阪府,大阪市,1658,西成区天下茶屋1丁目16番5号,もと大阪市立今宮小学校 東側柵,34.641289,135.500214,
大阪府,大阪市,1659,西成区天下茶屋3丁目23番,天下茶屋駅東出口前 枠込み,34.636391,135.497055,
大阪府,大阪市,1660,西成区天下茶屋1丁目28番,南海高架下東側歩道（天下茶屋１丁目28番）枠込み,34.641186,135.498032,
大阪府,大阪市,1661,西成区天下茶屋東１丁目23番,大阪市建装局道路予定地（蜆筋線）北側柵,34.642334,135.502075,
大阪府,大阪市,1662,西成区楠2丁目1番29号,大阪市立楠小学校 西側柵,34.639471,135.491348,
大阪府,大阪市,1663,西成区楠2丁目1番29号,大阪市立楠小学校 南側塀,34.638952,135.491761,
大阪府,大阪市,1664,西成区楠3丁目3番,楠第３公園 北側,34.638955,135.489449,
大阪府,大阪市,1665,西成区松1丁目5番,松通東公園 南側,34.641438,135.494263,
大阪府,大阪市,1666,西成区花園南2丁目4番,楠東児童遊園地 北側柵,34.638838,135.496388,
大阪府,大阪市,1667,西成区旭3丁目5番39号,もと大阪市立松之宮小学校 正門横,34.645184,135.488161,
大阪府,大阪市,1668,西成区旭3丁目5番39号,もと大阪市立松之宮小学校 西側柵,34.644711,135.487733,
大阪府,大阪市,1669,西成区鶴見橋3丁目8番,松之宮公園 西側柵,34.646347,135.486786,
大阪府,大阪市,1670,西成区鶴見橋2丁目9番,旭北公園 西側柵,34.645424,135.49057,
大阪府,大阪市,1671,西成区梅南3丁目2番25号,大阪市立まつば小学校 西側柵,34.64222,135.488937,
大阪府,大阪市,1672,西成区梅南3丁目2番25号,大阪市立まつば小学校 東側柵,34.64222,135.488937,
大阪府,大阪市,1673,西成区梅南3丁目3番17号,大阪市立梅南中学校 南側柵,34.642097,135.488297,
大阪府,大阪市,1674,西成区松3丁目2番,松通公園 北側,34.640194,135.48912,
大阪府,大阪市,1675,西成区玉出中2丁目13番48号,大阪市立玉出小学校 正門横,34.624577,135.491486,
大阪府,大阪市,1676,西成区玉出中2丁目13番48号,大阪市立玉出小学校 北通用門横,34.624577,135.491486,
大阪府,大阪市,1677,西成区玉出西2丁目20番70号,社会福祉法人 みなはや福祉会 玉出西保育園 北側柵,34.624931,135.48819,
大阪府,大阪市,1678,西成区玉出西1丁目15番37号,大阪市立玉出中学校 東門横,34.627605,135.488205,
大阪府,大阪市,1679,西成区玉出西1丁目9番,玉出西公園 南東角,34.62698,135.489182,
大阪府,大阪市,1680,西成区玉出中2丁目13番,玉出南公園 東側,34.624432,135.491852,
大阪府,大阪市,1681,西成区岸里1丁目5番20号,西成区役所 西側植込み,34.634983,135.494125,
大阪府,大阪市,1682,西成区岸里1丁目1番50号,西成区民センター 南側柵,34.634346,135.494675,
大阪府,大阪市,1683,西成区潮路1丁目4番,西皿池公園 東側,34.637115,135.493393,
大阪府,大阪市,1684,西成区天神ノ森1丁目16番,天神ノ森公園 西側,34.631874,135.499634,
大阪府,大阪市,1685,西成区岸里東2丁目12番2号,大阪市営岸之里住宅2号館 南側,34.630795,135.496719,
大阪府,大阪市,1686,西成区千本中1丁目8番22号,大阪市立岸里小学校 南側柵,34.633228,135.491806,
大阪府,大阪市,1687,西成区千本中1丁目8番22号,大阪市立岸里小学校 東側柵,34.633228,135.491806,
大阪府,大阪市,1688,西成区岸里3丁目6番,南海公園 東側,34.630302,135.493668,
大阪府,大阪市,1689,西成区岸里3丁目6番,南海公園 西側,34.630302,135.493668,
大阪府,大阪市,1690,西成区千本中2丁目8番8号,大阪市立千本小学校 正門横,34.631721,135.489166,
大阪府,大阪市,1691,西成区千本中2丁目8番8号,大阪市立千本小学校 南通用門横,34.631721,135.489166,
大阪府,大阪市,1692,西成区千本南1丁目21番,田端公園 北側,34.629223,135.490265,
大阪府,大阪市,1693,西成区千本中2丁目10番,大阪市営千本中住宅2号館 北西のポンプ場柵,34.631947,135.486862,
大阪府,大阪市,1694,西成区千本北2丁目21番,千本西公園 東側,34.635048,135.486618,
大阪府,大阪市,1695,西成区千本北2丁目10番,橘千本北公園 西側,34.637356,135.486176,
大阪府,大阪市,1696,西成区津守3丁目1番66号,もと大阪市立津守小学校 北側柵,34.640774,135.484055,
大阪府,大阪市,1697,西成区津守3丁目1番66号,もと大阪市立津守小学校 東側柵,34.640774,135.484055,
大阪府,大阪市,1698,西成区津守3丁目1番2号,大阪市営中津守住宅 西側,34.640701,135.485352,
大阪府,大阪市,1699,西成区津守1丁目13番,西成公園 北東側柵,34.646507,135.481689,
大阪府,大阪市,1700,西成区津守1丁目6番,中津守公園 東側,34.644672,135.485489,
大阪府,大阪市,1701,西成区南津守6丁目1番14号,大阪市立南津守小学校 正門横,34.628254,135.485519,
大阪府,大阪市,1702,西成区南津守6丁目2番1号,大阪市営南津守住宅 東側,34.628338,135.486252,
大阪府,大阪市,1703,西成区南津守6丁目3番1号,大阪市営南津守第2住宅 北側,34.627426,135.486328,
大阪府,大阪市,1704,西成区南津守2丁目4番1号,大阪市営南津守第4住宅1号館 東側植込み,34.632561,135.477386,
大阪府,大阪市,1705,西成区南津守6丁目1番,南津守中公園 北側,34.627998,135.483307,
大阪府,大阪市,1706,西成区南津守4丁目1番,南津守北公園 南側柵,34.629642,135.483093,
大阪府,大阪市,1707,西成区南津守7丁目10番,南津守中央公園グラウンド 南側,34.625408,135.48381,
大阪府,大阪市,1708,西成区北津守3丁目3番40号,大阪市立北津守小学校 正門横,34.651237,135.482742,
大阪府,大阪市,1709,西成区北津守3丁目3番40号,大阪市立北津守小学校 南門横,34.651237,135.482742,
大阪府,大阪市,1710,西成区北津守4丁目4,西成開発2号公園 北側,34.649975,135.483658,
大阪府,大阪市,1711,西成区北津守2丁目5番2号,大阪市営津守住宅 東側柵,34.653713,135.483322,
大阪府,大阪市,1712,西成区北津守1丁目4番,北津守東公園 南側,34.655235,135.484497,
大阪府,大阪市,1713,西成区山王2丁目10番24号,山王集会所 東側柵,34.646286,135.505646,
大阪府,大阪市,1714,西成区山王3丁目12番4号,飛田ふれあい会館 東側柵,34.643708,135.504422,
大阪府,大阪市,1715,西成区山王2丁目11番,阪神高速道路松原線 高架下山王南広場 西側柵,34.64515,135.504951,
大阪府,大阪市,1716,西成区山王1丁目8番,大阪市建設局道路予定地 北側柵,34.648024,135.507379,
大阪府,大阪市,1717,西成区聖天下1丁目11番35号,大阪市立天下茶屋小学校 正門横,34.637314,135.50116,
大阪府,大阪市,1718,西成区聖天下1丁目10番34号,大阪市立天下茶屋幼稚園 正門横,34.637878,135.501343,
大阪府,大阪市,1719,西成区天下茶屋東1丁目8番,天下茶屋東1丁目児童公園 南側柵,34.642105,135.504852,
大阪府,大阪市,1720,西成区聖天下2丁目11番,阪堺電気軌道北天下茶屋駅 北東柵,34.63483,135.500305,
大阪府,大阪市,1721,西成区天神ノ森1丁目11番,阪堺電気軌道聖天下茶屋駅 北東柵,34.633404,135.499924,
大阪府,大阪市,1722,西淀川区柏里２丁目１３番３３号,柏里小学校正門横,34.710827,135.465973,
大阪府,大阪市,1723,西淀川区柏里３丁目１番,市営柏里第2住宅8号館北側,34.712414,135.467331,
大阪府,大阪市,1724,西淀川区柏里３丁目１７番,市営柏里住宅1号棟西側,34.712906,135.465088,
大阪府,大阪市,1725,西淀川区花川２丁目３番,花川西公園西側,34.706448,135.465256,
大阪府,大阪市,1726,西淀川区柏里１丁目９番,花川公園北角,34.709682,135.469543,
大阪府,大阪市,1727,西淀川区野里２丁目２１番１３号,野里小学校通用門横,34.710739,135.460892,
大阪府,大阪市,1728,西淀川区野里３丁目３番１５号,淀商業高等学校南東側,34.709492,135.459091,
大阪府,大阪市,1729,西淀川区野里３丁目３番１５号,淀商業高等学校南西側,34.709492,135.459091,
大阪府,大阪市,1730,西淀川区野里１丁目９番,野里公園北側,34.708401,135.463242,
大阪府,大阪市,1731,西淀川区野里２丁目１０番,野里西公園南側,34.70948,135.459793,
大阪府,大阪市,1732,西淀川区歌島２丁目５番１８号,歌島小学校通用門横,34.714249,135.461334,
大阪府,大阪市,1733,西淀川区歌島３丁目７番,北之町公園南側,34.713726,135.46109,
大阪府,大阪市,1734,西淀川区歌島４丁目８番１号,市営歌島北住宅1号館南側,34.719151,135.461655,
大阪府,大阪市,1735,西淀川区歌島１丁目２０番,歌島三角公園,34.716606,135.463821,
大阪府,大阪市,1736,西淀川区歌島４丁目４番,市営歌島住宅1号棟南側,34.717457,135.461502,
大阪府,大阪市,1737,西淀川区御幣島１丁目２番１０号,区役所西側,34.711246,135.455872,
大阪府,大阪市,1738,西淀川区御幣島１丁目９番４号,御幣島二丁目バス停前,34.713554,135.456039,
大阪府,大阪市,1739,西淀川区御幣島１丁目５番,大野川緑陰道路鉄柵,34.712677,135.457565,
大阪府,大阪市,1740,西淀川区千舟１丁目４番４５号,大阪日野自動車（株）北側,34.709145,135.453125,
大阪府,大阪市,1741,西淀川区千舟２丁目８番,千舟公園南西側,34.711094,135.452377,
大阪府,大阪市,1742,西淀川区千舟１丁目２番,大野川緑陰道路鉄柵,34.709465,135.45517,
大阪府,大阪市,1743,西淀川区御幣島６丁目５番２５号,香簑小学校正門横,34.720737,135.453156,
大阪府,大阪市,1744,西淀川区御幣島６丁目５番２５号,香簑小学校正門横　東側通用門横,34.720737,135.453156,
大阪府,大阪市,1745,西淀川区御幣島３丁目５番５号,御幣島小学校西側,34.716675,135.456512,
大阪府,大阪市,1746,西淀川区竹島２丁目２番,竹島南公園南側,34.723503,135.453537,
大阪府,大阪市,1747,西淀川区御幣島６丁目８番,市営御幣島住宅５号棟東側,34.720432,135.455261,
大阪府,大阪市,1748,西淀川区御幣島３丁目７番,御幣島東公園北側,34.717499,135.457932,
大阪府,大阪市,1749,西淀川区竹島３丁目７番,竹島公園東側,34.726723,135.453003,
大阪府,大阪市,1750,西淀川区佃１丁目２１番１２号,佃小学校正門横,34.716879,135.446665,
大阪府,大阪市,1751,西淀川区佃１丁目２１番１２号,佃小学校正門横　北門横,34.717089,135.447432,
大阪府,大阪市,1752,西淀川区佃２丁目６番,新佃公園北西側,34.714712,135.44734,
大阪府,大阪市,1753,西淀川区佃２丁目６番,新佃公園南東側,34.714182,135.44745,
大阪府,大阪市,1754,西淀川区佃１丁目１８番,東佃公園東側,34.718736,135.448873,
大阪府,大阪市,1755,西淀川区佃２丁目２番,市営佃住宅７号棟北側,34.713248,135.446115,
大阪府,大阪市,1756,西淀川区佃２丁目１５番３０号,佃西小学校正門横,34.714433,135.444473,
大阪府,大阪市,1757,西淀川区佃３丁目１２番,ハンシン建設南側,34.712649,135.444484,
大阪府,大阪市,1758,西淀川区佃２丁目１５番９３号,佃中学校東側,34.716938,135.445831,
大阪府,大阪市,1759,西淀川区佃３丁目１９番,佃３丁目バス停前,34.713744,135.442496,
大阪府,大阪市,1760,西淀川区佃５丁目７番,佃公園南側鉄柵,34.711016,135.434663,
大阪府,大阪市,1761,西淀川区佃４丁目８番２号,関西鉄工（株）仙倉庫南側,34.712896,135.440088,
大阪府,大阪市,1762,西淀川区佃５丁目７番,佃公園北側,34.711636,135.434685,
大阪府,大阪市,1763,西淀川区大和田４丁目３番２４号,大和田小学校正門横,34.706602,135.445222,
大阪府,大阪市,1764,西淀川区大和田３丁目７番１６号,グランピア千船第2モータープール西側,34.707947,135.446657,
大阪府,大阪市,1765,西淀川区大和田１丁目１番,大和田元自転車保管所,34.70757,135.45073,
大阪府,大阪市,1766,西淀川区大和田４丁目４番,大和田中央公園北側,34.706085,135.443381,
大阪府,大阪市,1767,西淀川区大和田２丁目４番,市営大和田第３住宅６号館西側,34.704338,135.442613,
大阪府,大阪市,1768,西淀川区大和田６丁目１３番６号,淀中学校西門横,34.705593,135.441422,
大阪府,大阪市,1769,西淀川区大和田６丁目８番,大和田６丁目バス停前,34.704395,135.440948,
大阪府,大阪市,1770,西淀川区大和田５丁目２０番,大和田北公園南西側,34.708271,135.443234,
大阪府,大阪市,1771,西淀川区大和田５丁目２番,市営大和田第１住宅２号棟前,34.706201,135.442179,
大阪府,大阪市,1772,西淀川区姫里２丁目８番２４号,姫里小学校正門横,34.706459,135.458298,
大阪府,大阪市,1773,西淀川区姫里２丁目８番２４号,西通用門横,34.706459,135.458298,
大阪府,大阪市,1774,西淀川区姫里３丁目１０番,大野川緑陰道路鉄橋,34.707794,135.455414,
大阪府,大阪市,1775,西淀川区姫里１丁目４番２５号,ヨドコウ姫里第３モータープール東側,34.704567,135.460907,
大阪府,大阪市,1776,西淀川区姫里３丁目７番,上町公園南側,34.706013,135.456284,
大阪府,大阪市,1777,西淀川区姫島１丁目１０番４号,姫島小学校正門横,34.7015,135.455597,
大阪府,大阪市,1778,西淀川区姫島１丁目１０番４号,通用門横,34.7015,135.455597,
大阪府,大阪市,1779,西淀川区姫島３丁目１３番,姫島街園東側,34.700703,135.448853,
大阪府,大阪市,1780,西淀川区姫島３丁目１４番,姫島浜公園東側,34.699913,135.447861,
大阪府,大阪市,1781,西淀川区姫島３丁目６番,南姫島公園南側,34.699211,135.450363,
大阪府,大阪市,1782,西淀川区姫島６丁目９番,大野川緑陰道路鉄橋,34.703655,135.447403,
大阪府,大阪市,1783,西淀川区姫島４丁目２１番,北姫島公園南角,34.704678,135.449768,
大阪府,大阪市,1784,西淀川区姫島４丁目１４番,姫島公園南側,34.704315,135.452179,
大阪府,大阪市,1785,西淀川区姫島６丁目１０番５号,西淀中学校正門横,34.702259,135.446625,
大阪府,大阪市,1786,西淀川区姫島４丁目１番,阪神姫島駅前バス停前,34.704727,135.456375,
大阪府,大阪市,1787,西淀川区福町２丁目５番２３号,福小学校正門横,34.697922,135.441605,
大阪府,大阪市,1788,西淀川区福町１丁目１１番４１号,福町東公園南側,34.698681,135.44519,
大阪府,大阪市,1789,西淀川区福町２丁目２０番,大野川緑陰道路鉄橋,34.694759,135.439606,
大阪府,大阪市,1790,西淀川区福町３丁目３番,福町北公園西側,34.702011,135.444443,
大阪府,大阪市,1791,西淀川区百島１丁目１番２３号,大野百島名人越の家前,34.697655,135.440201,
大阪府,大阪市,1792,西淀川区大野２丁目４番１１７号,大野下水処理場東側,34.702099,135.437256,
大阪府,大阪市,1793,西淀川区出来島２丁目２番２４号,出来島小学校正門横,34.70454,135.437225,
大阪府,大阪市,1794,西淀川区出来島３丁目２番,出来島西公園南側,34.705204,135.434128,
大阪府,大阪市,1795,西淀川区出来島１丁目３番,市営出来島第二住宅２号棟北側,34.706835,135.439576,
大阪府,大阪市,1796,西淀川区出来島１丁目１１番,出来島公園南側,34.708271,135.439228,
大阪府,大阪市,1797,西淀川区出来島２丁目９番,阪神出来島駅西側,34.706734,135.437069,
大阪府,大阪市,1798,西淀川区中島１丁目１１番２０号,川北小学校正門横,34.704047,135.42946,
大阪府,大阪市,1799,西淀川区中島１丁目１１番２０号,川北小学校通用門横,34.704765,135.429769,
大阪府,大阪市,1800,西淀川区中島１丁目９番２５号,川北コミュニティ会館西側,34.70565,135.431463,
大阪府,大阪市,1801,西淀川区中島１丁目４２番,川北中央公園西側,34.703775,135.423961,
大阪府,大阪市,1802,西淀川区中島１丁目２３番,開発公園・中央南側,34.70565,135.427122,
大阪府,大阪市,1803,西淀川区中島１丁目２２番,中島公園北側,34.700282,135.426205,
大阪府,大阪市,1804,西淀川区中島１丁目２４番,中島中公園南側,34.703213,135.427378,
大阪府,大阪市,1805,西淀川区中島１丁目３番,中島東公園北西側,34.705915,135.431872,
大阪府,大阪市,1806,都島区東野田町1-10-19,桜宮小学校正門横,34.696686,135.527359,
大阪府,大阪市,1807,都島区東野田町1-2-5,桜宮幼稚園東南側外壁,34.695148,135.527679,
大阪府,大阪市,1808,都島区片町1-1,片町1丁目児童遊園北側,34.692673,135.52652,
大阪府,大阪市,1809,都島区東野田町1-10-19,桜宮小学校南側通用門横,34.696686,135.527359,
大阪府,大阪市,1810,都島区東野田町4-15-14,府立東高等学校正門左塀横,34.70002,135.528137,
大阪府,大阪市,1811,都島区片町2-5,片町2丁目児童遊園南フェンス,34.696438,135.531876,
大阪府,大阪市,1812,都島区中野町3-10-5,中野小学校正門横,34.702919,135.523987,
大阪府,大阪市,1813,都島区中野町3-10-5,中野小学校南門横,34.702919,135.523987,
大阪府,大阪市,1814,都島区中野町5-7,中野公園北側植込み,34.705784,135.521301,
大阪府,大阪市,1815,都島区中野町3-9-33,都島中学校北東側通用門横,34.702469,135.525955,
大阪府,大阪市,1816,都島区中野町2-16-20,都島区役所北側植込み,34.701317,135.528412,
大阪府,大阪市,1817,都島区中野町4-2-24,市営桜宮住宅東南角,34.701881,135.524078,
大阪府,大阪市,1818,都島区中野町4-20-45,都島中野幼稚園南側偵察欄,34.704876,135.523087,
大阪府,大阪市,1819,都島区中野町5-10,蓮美小学校敷地グラウンド南側メス火,34.706326,135.521713,
大阪府,大阪市,1820,都島区東野田町5-16-10,桜宮中学校正門横,34.701893,135.536285,
大阪府,大阪市,1821,都島区東野田町5-10,桜之宮東公園南側 施設及卓球用柱木東側フェンス,34.700588,135.535309,
大阪府,大阪市,1822,都島区東野田町3-3-30,市営都島住宅1号棟側フェンス,34.697433,135.535583,
大阪府,大阪市,1823,都島区都島南通2-5-1,桜宮中学校東側フェンス,34.701168,135.533707,
大阪府,大阪市,1824,都島区都島区東野田町5-16-10,桜宮中学校東側フェンス,34.701893,135.536285,
大阪府,大阪市,1825,都島区都島本通4-24-20,東都島小学校南側通用門横,34.708225,135.534409,
大阪府,大阪市,1826,都島区都島本通4-19,蓮美小学校敷地グラウンド南側フェンス,34.707787,135.531311,
大阪府,大阪市,1827,都島区都島中通2-22,都島公園北側,34.705589,135.531189,
大阪府,大阪市,1828,都島区都島本通4-12-4,水道局東橋水道センター柱横,34.707256,135.53212,
大阪府,大阪市,1829,都島区都島中通3-23-1,水道局所有地フェンス,34.704395,135.53627,
大阪府,大阪市,1830,都島区都島本通3-10-3,都島小学校正門横,34.707058,135.527451,
大阪府,大阪市,1831,都島区都島本通3-10-3,都島小学校南東側通用門横,34.707058,135.527451,
大阪府,大阪市,1832,都島区都島本通3-12,本三児童遊園南西側,34.707199,135.529648,
大阪府,大阪市,1833,都島区都島本通2-13-22,市営総合医療センター北側植込み,34.708454,135.523514,
大阪府,大阪市,1834,都島区善源寺町1-5-64,都島工業高等学校南通用門横,34.709526,135.525162,
大阪府,大阪市,1835,都島区善源寺町1-11,善源寺橋公園南側,34.711819,135.52327,
大阪府,大阪市,1836,都島区都島本通1-20,かすみえ公園東側部分北角,34.71027,135.522705,
大阪府,大阪市,1837,都島区都島北通1-1,都島木通農業水門跡前,34.709335,135.526688,
大阪府,大阪市,1838,都島区善源寺町1-11,善源寺橋公園北側,34.711819,135.52327,
大阪府,大阪市,1839,都島区都島北通1-13,都島北一公園西側,34.710812,135.527832,
大阪府,大阪市,1840,都島区内代町1-1,内代常通児童遊園南側,34.708805,135.535034,
大阪府,大阪市,1841,都島区内代町3-4-6,内代小学校東門横,34.7132,135.536774,
大阪府,大阪市,1842,都島区内代町3-3,内代公園北側,34.713146,135.536331,
大阪府,大阪市,1843,都島区内代町3-4-6,内代小学校南側,34.7132,135.536774,
大阪府,大阪市,1844,都島区内代町2-15-30,市営内代第2住宅東側植込み,34.711815,135.535843,
大阪府,大阪市,1845,都島区御幸町1-1-10,高倉中学校南側通用門横,34.712963,135.532532,
大阪府,大阪市,1846,都島区御幸町1-7,蓮美南児童遊園南側フェンス,34.713959,135.534439,
大阪府,大阪市,1847,都島区高倉町1-6,都島郵便局東側発着扉付近,34.712959,135.529434,
大阪府,大阪市,1848,都島区都島北通2-4,都島北通公園北側,34.709332,135.533798,
大阪府,大阪市,1849,都島区御幸町1-1-10,高倉中学校東側,34.712963,135.532532,
大阪府,大阪市,1850,都島区高倉町3-3-10,高倉小学校正門横,34.718498,135.533096,
大阪府,大阪市,1851,都島区高倉町3-3-10,高倉小学校南側通用門横,34.718498,135.533096,
大阪府,大阪市,1852,都島区御幸町2-9,御幸北児童遊園北側,34.716778,135.533188,
大阪府,大阪市,1853,都島区御幸町2-4,高倉中央公園西側,34.715435,135.533325,
大阪府,大阪市,1854,都島区御幸町2-6-5,市営御幸住宅5号棟前側マンション,34.716068,135.534103,
大阪府,大阪市,1855,都島区友渕町1-5-151,友渕中学校正門横,34.715702,135.526077,
大阪府,大阪市,1856,都島区友渕町1-5-151,友渕中学校南側通用門横,34.715702,135.526077,
大阪府,大阪市,1857,都島区友渕町1-5,ベルパークシティO棟北側,34.716236,135.526138,
大阪府,大阪市,1858,都島区友渕町1-5,ベルパークシティD棟南側,34.716236,135.526138,
大阪府,大阪市,1859,都島区友渕町1-5,ベルパークシティK棟西側,34.716236,135.526138,
大阪府,大阪市,1860,都島区友渕町1-3-123,友渕小学校南通用門横,34.719181,135.5271,
大阪府,大阪市,1861,都島区友渕町1-3-187,友渕小学校分校正門横,34.715885,135.523285,
大阪府,大阪市,1862,都島区友渕町1-3-1,市営友渕住宅1号棟北側植込み,34.715652,135.522629,
大阪府,大阪市,1863,都島区友渕町1-3-123,友渕小学校東通用門横,34.719181,135.5271,
大阪府,大阪市,1864,都島区毛馬町2-5-13,毛馬保育所入口横,34.722256,135.527908,
大阪府,大阪市,1865,都島区大東町2-7先,城北緑道公園南東,34.724659,135.528885,
大阪府,大阪市,1866,都島区毛馬町2-11-111,大東小学校正門横,34.723564,135.525543,
大阪府,大阪市,1867,都島区毛馬町2-11-111,大東小学校南東角通用門横,34.723564,135.525543,
大阪府,大阪市,1868,都島区毛馬町5-22-28,桜宮高等学校南側フェンス,34.728012,135.524261,
大阪府,大阪市,1869,都島区毛馬町5-5,毛馬東公園南側,34.725609,135.52533,
大阪府,大阪市,1870,都島区毛馬町5-22-28,桜宮高等学校正門横,34.728012,135.524261,
大阪府,大阪市,1871,都島区毛馬町5-12,市営毛馬東住宅6号棟北側植込み,34.72636,135.524429,
大阪府,大阪市,1872,都島区毛馬町5-9-22,市営毛馬東住宅3号棟南側植,34.726643,135.525497,
大阪府,大阪市,1873,都島区毛馬町2-11,毛馬南公園南側,34.722195,135.522324,
大阪府,大阪市,1874,都島区毛馬町1-22,毛馬西公園西向遊歩道横,34.718571,135.520432,
大阪府,大阪市,1875,都島区毛馬町3-5-39,淀川小学校正門横,34.721714,135.521667,
大阪府,大阪市,1876,都島区毛馬町3-5-39,淀川小学校東側通用門横,34.721714,135.521667,
大阪府,大阪市,1877,都島区毛馬町4-1,毛馬中央公園北東側,34.722561,135.521622,
大阪府,大阪市,1878,都島区毛馬町4-8,市営毛馬西住宅4号棟ポンプ前側,34.723194,135.520676,
大阪府,大阪市,1879,阿倍野区天王寺町北１－４－２,ＪＲ天王寺鉄道案南面,34.64621,135.521729,
大阪府,大阪市,1880,阿倍野区天王寺町北１－４－２,ＪＲ天王寺鉄道東側北面,34.64621,135.521729,
大阪府,大阪市,1881,阿倍野区天王寺町北３－２,高松保育園南面,34.645782,135.52684,
大阪府,大阪市,1882,阿倍野区天王寺町北３－６－３,市営高松住宅西面,34.645519,135.527527,
大阪府,大阪市,1883,阿倍野区天王寺町北３－１７,高松公園西面,34.643417,135.52449,
大阪府,大阪市,1884,阿倍野区阿倍野区天王寺町南１－３－１０,ホームセンターニトリ天王寺店 北側 南側,34.644424,135.520599,
大阪府,大阪市,1885,阿倍野区天王寺町南１－５,はちの子ちびっこ広場東側入口横,34.643154,135.521576,
大阪府,大阪市,1886,阿倍野区天王寺町南１－７,市建設局道路予定地南面,34.642284,135.522614,
大阪府,大阪市,1887,阿倍野区天王寺町南３－９－１７,高架下高松南苑入口横,34.64019,135.525711,
大阪府,大阪市,1888,阿倍野区天王寺町南３－１２,高松南公園北面,34.63958,135.526413,
大阪府,大阪市,1889,阿倍野区三明町１－２－２４,三明保育園前歩道の植え込み,34.642849,135.519226,
大阪府,大阪市,1890,阿倍野区三明町２－９,三明町公園東面,34.639645,135.519028,
大阪府,大阪市,1891,阿倍野区美章園１－５－５２,市立文の里中学校南面,34.640171,135.521942,
大阪府,大阪市,1892,阿倍野区美章園２－１３,美章園公園南面,34.639225,135.525406,
大阪府,大阪市,1893,阿倍野区三明町２－４－２３,府立天王寺高等学校西面,34.639439,135.52179,
大阪府,大阪市,1894,阿倍野区阿倍野筋２－２,近鉄南駐車場東面フェンス,34.643227,135.513733,
大阪府,大阪市,1895,阿倍野区松崎町１－２－３５,大阪シティバス阿倍野東バス転回地,34.645176,135.518585,
大阪府,大阪市,1896,阿倍野区松崎町２－５,市営松崎第１住宅北面,34.643215,135.517105,
大阪府,大阪市,1897,阿倍野区松崎町３－１１－１２,市立常盤小学校北面,34.640678,135.517227,
大阪府,大阪市,1898,阿倍野区松崎町４－１１,Osaka Metro文の里駅２号出口前歩道上植栽内,34.637543,135.51741,
大阪府,大阪市,1899,阿倍野区旭町１－５－７,大阪公立大学医学部附属病院東側,34.647244,135.508644,
大阪府,大阪市,1900,阿倍野区旭町３－３,金塚ふれあい西公園北西側,34.643851,135.507729,
大阪府,大阪市,1901,阿倍野区阿倍野筋３－１３－２３,あべのフォルサ北面,34.643616,135.510162,
大阪府,大阪市,1902,阿倍野区旭町３－４－４６,市立金塚小学校南門西側,34.641934,135.507438,
大阪府,大阪市,1903,阿倍野区文の里１－１－４０,阿倍野区役所西面,34.638794,135.518265,
大阪府,大阪市,1904,阿倍野区文の里３－６,文の里公園西面,34.636463,135.521744,
大阪府,大阪市,1905,阿倍野区文の里３－１５－７,明浄学院高等学校南面,34.635849,135.521408,
大阪府,大阪市,1906,阿倍野区昭和町１－６－６,文の里会館南面,34.634495,135.519534,
大阪府,大阪市,1907,阿倍野区文の里４－１８,市建設局道路予定地西面,34.633339,135.522903,
大阪府,大阪市,1908,阿倍野区阿倍野筋４－７－１７,王子福祉会館北面,34.640316,135.513351,
大阪府,大阪市,1909,阿倍野区阿倍野筋４丁目２番先,Osaka Metro阿倍野駅駐輪場南面,34.64082,135.511887,
大阪府,大阪市,1910,阿倍野区阪南町１－１１－３９,常盤文化会館入口北面,34.638466,135.515488,
大阪府,大阪市,1911,阿倍野区阪南町１－１１－３９,常盤文化会館南面,34.638466,135.515488,
大阪府,大阪市,1912,阿倍野区阪南町１－１９,阪南西公園東面,34.63752,135.512604,
大阪府,大阪市,1913,阿倍野区阪南町１－２６－３０,市立苗代小学校西面,34.635777,135.516312,
大阪府,大阪市,1914,阿倍野区阪南町１－３１,府立阿倍野高等学校西面,34.635075,135.514084,
大阪府,大阪市,1915,阿倍野区阪南町１－４９,阪南中公園西面,34.633621,135.514786,
大阪府,大阪市,1916,阿倍野区阪南町１－４７－１６,阿倍野郵便局南面,34.633968,135.515701,
大阪府,大阪市,1917,阿倍野区阿倍野筋４－１９,丸山地域コミュニティ用地北面,34.640625,135.510559,
大阪府,大阪市,1918,阿倍野区阿倍野筋５－１３－１７,望之門保育園西面,34.63789,135.509583,
大阪府,大阪市,1919,阿倍野区丸山通１－４－４３,市立丸山小学校正門西側,34.637623,135.509048,
大阪府,大阪市,1920,阿倍野区丸山通１－４－４３,市立丸山小学校西面,34.637623,135.509048,
大阪府,大阪市,1921,阿倍野区松虫通３－２,聖天山公園北面,34.635223,135.50238,
大阪府,大阪市,1922,阿倍野区松虫通３－４－４５,市立松虫中学校正門横,34.635471,135.505249,
大阪府,大阪市,1923,阿倍野区昭和町３－２－４,市立阿倍野中学校正門横,34.629914,135.518626,
大阪府,大阪市,1924,阿倍野区昭和町３－２－４,市立阿倍野中学校南面,34.627909,135.518339,
大阪府,大阪市,1925,阿倍野区桃ヶ池町１－６,桃ヶ池公園南西面,34.630821,135.521454,
大阪府,大阪市,1926,阿倍野区桃ヶ池町２－３－１７,市立昭和中学校西面,34.627048,135.520844,
大阪府,大阪市,1927,阿倍野区長池町１９,長池公園東面北角,34.622879,135.518478,
大阪府,大阪市,1928,阿倍野区長池町２０－２６,市立長池小学校西面,34.621983,135.517166,
大阪府,大阪市,1929,阿倍野区西田辺町１－１０,長池公園西面南角,34.619884,135.517258,
大阪府,大阪市,1930,阿倍野区長池町１４,長池公園北面北東入口付近,34.6236,135.519424,
大阪府,大阪市,1931,阿倍野区西田辺町１－１０,長池公園西面北角,34.619884,135.517258,
大阪府,大阪市,1932,阿倍野区西田辺町２－１７,西田辺会館入口横,34.617397,135.515106,
大阪府,大阪市,1933,阿倍野区阪南町２－１７－２１,市立阿倍野小学校正門横,34.631824,135.512833,
大阪府,大阪市,1934,阿倍野区王子町３－２－１６,天理教阿倍野分教会西面,34.630341,135.509645,
大阪府,大阪市,1935,阿倍野区王子町３－８,北畠公園西面,34.628652,135.509414,
大阪府,大阪市,1936,阿倍野区阪南町３－２２－８,むつみこども園東面,34.628849,135.511749,
大阪府,大阪市,1937,阿倍野区阪南町３－３４,新阪南公園西面,34.62767,135.515045,
大阪府,大阪市,1938,阿倍野区晴明通３,晴明通児童遊園南面,34.633469,135.507828,
大阪府,大阪市,1939,阿倍野区晴明通１０－３４,市立晴明丘小学校南面,34.632637,135.504181,
大阪府,大阪市,1940,阿倍野区橋本町７,市立晴明丘小学校講堂兼体育館北面,34.632868,135.502982,
大阪府,大阪市,1941,阿倍野区相生通２－７,晴明丘相生公園北面,34.63044,135.503433,
大阪府,大阪市,1942,阿倍野区阿倍野元町１５,晴明丘公園西面,34.62957,135.507706,
大阪府,大阪市,1943,阿倍野区北畠１－８,市立阪南中学校グラウンド北面,34.626713,135.50647,
大阪府,大阪市,1944,阿倍野区北畠１－１８,晴明丘中央公園西面,34.625942,135.505249,
大阪府,大阪市,1945,阿倍野区北畠２－４－１,府立住吉高等学校北面,34.627537,135.504669,
大阪府,大阪市,1946,阿倍野区北畠２－４－１,府立住吉高等学校南面,34.627537,135.504669,
大阪府,大阪市,1947,阿倍野区帝塚山１－２－１０,関西電力帝塚山変電所東面,34.624004,135.504318,
大阪府,大阪市,1948,阿倍野区帝塚山１－１６,市営帝塚山住宅南面,34.625565,135.498749,
大阪府,大阪市,1949,阿倍野区北畠３－５,市営北畠第一住宅東面,34.628826,135.499924,
大阪府,大阪市,1950,阿倍野区王子町４－１,阪南公園東面北側,34.626087,135.510574,
大阪府,大阪市,1951,阿倍野区阪南町５－７－４０,市立阪南小学校正門東側,34.62479,135.512268,
大阪府,大阪市,1952,阿倍野区阪南町５－７－４０,市立阪南小学校東南角側,34.62479,135.512268,
大阪府,大阪市,1953,阿倍野区播磨町１－５－２５,近畿財務局阿倍野合同宿舎南面,34.624516,135.511246,
大阪府,大阪市,1954,阿倍野区播磨町１－１５－１３,樋口松之助商店工場南面,34.62289,135.509186,
大阪府,大阪市,1955,阿倍野区阪南町６－３,阪南播磨公園北面,34.620956,135.511795,
大阪府,大阪市,1956,阿倍野区播磨町３－４,播磨大領公園 ,34.618147,135.508543,
大阪府,大阪市,1957,阿倍野区播磨町２－７,市水道局住吉配水場東面,34.619953,135.509186,
大阪府,大阪市,1958,阿倍野区播磨町３－１,サンヴァリエ西田辺11号棟南面,34.619125,135.509842,
大阪府,大阪市,1959,鶴見区緑４丁目３番,念法真教急刷寺　参拝者用駐車場南側フェンス,34.716694,135.565262,
大阪府,大阪市,1960,鶴見区緑３丁目７番９号,中村商事㈱　西側ブロック塀,34.715393,135.567505,
大阪府,大阪市,1961,鶴見区緑１丁目１７番,緑第１公園　南側植え込み,34.71431,135.56189,
大阪府,大阪市,1962,鶴見区緑１丁目１０番１４号,市営緑住宅３号館　東側植え込み,34.712204,135.562302,
大阪府,大阪市,1963,鶴見区緑１丁目３番５号,市営緑住宅６号館　西側植え込み,34.709862,135.561203,
大阪府,大阪市,1964,鶴見区緑２丁目３番,大阪市立みどり小学校　講堂北門東側鉄柵,34.710087,135.563293,
大阪府,大阪市,1965,鶴見区鶴見６丁目６番１１号,大阪市立緑中学校　西門北側鉄柵,34.708469,135.563995,
大阪府,大阪市,1966,鶴見区鶴見４丁目１４番１０号,大阪市立鶴見小学校　東門北側鉄柵,34.705162,135.563919,
大阪府,大阪市,1967,鶴見区鶴見５丁目９番３号,市営鶴見北住宅３号館　北側公園植え込み,34.706059,135.565506,
大阪府,大阪市,1968,鶴見区鶴見４丁目７番,鶴見北中央公園　南東側植え込み,34.704811,135.561523,
大阪府,大阪市,1969,鶴見区鶴見４丁目１番,今福鶴見駅３番出口入口　北西側植え込み,34.702728,135.560471,
大阪府,大阪市,1970,鶴見区鶴見４丁目１４番１０号,大阪市立鶴見小学校　西門南側鉄柵,34.705162,135.563919,
大阪府,大阪市,1971,鶴見区鶴見３丁目１３番,グリーンビュー鶴見　北東角公園北側植え込み,34.701965,135.566055,
大阪府,大阪市,1972,鶴見区鶴見１丁目２番７号,市営鶴見住宅７号館　東側植え込み,34.697922,135.560028,
大阪府,大阪市,1973,鶴見区鶴見１丁目６番,鶴見中央公園　南東側フェンス,34.698032,135.564453,
大阪府,大阪市,1974,鶴見区鶴見２丁目２１番６号,市営鶴見第２住宅６号館　西側花壇,34.699986,135.566589,
大阪府,大阪市,1975,鶴見区鶴見２丁目１７番２２号,大阪市立鶴見南小学校　正門東側鉄柵,34.699261,135.565506,
大阪府,大阪市,1976,鶴見区鶴見２丁目４番,近畿倉庫第６ガレージ　北側フェンス,34.700153,135.561935,
大阪府,大阪市,1977,鶴見区放出東１丁目１９番,放出北児童遊園　北側歩道フェンス,34.695374,135.564011,
大阪府,大阪市,1978,鶴見区今津北１丁目５番３５号,大阪市立極本小学校　西門南側鉄柵,34.694653,135.568726,
大阪府,大阪市,1979,鶴見区今津北１丁目３番５５号,大阪市立今津中学校　南側鉄柵西端,34.695129,135.566879,
大阪府,大阪市,1980,鶴見区今津北１丁目６番,極本公園　南側,34.694378,135.566895,
大阪府,大阪市,1981,鶴見区放出東２丁目２番,放出公園　南東角,34.692669,135.560654,
大阪府,大阪市,1982,鶴見区今津北１丁目５番３５号,大阪市立極本小学校　東側鉄柵,34.694653,135.568726,
大阪府,大阪市,1983,鶴見区放出東３丁目２番６号,市営放出東住宅６号館　東側花壇,34.690586,135.560257,
大阪府,大阪市,1984,鶴見区今津中１丁目９番３２号,極本福祉会館　西側フェンス,34.690453,135.566406,
大阪府,大阪市,1985,鶴見区放出東３丁目２１番,ＪＲ　放出駅　北側学研都市線沿いフェンス,34.688244,135.562576,
大阪府,大阪市,1986,鶴見区放出東３丁目３４番,ＪＲ　放出駅　南側　歩道フェンス,34.687794,135.562851,
大阪府,大阪市,1987,鶴見区今津中２丁目３番,今津公園　南側フェンス,34.691174,135.57048,
大阪府,大阪市,1988,鶴見区今津中２丁目３番,今津公園　北東角,34.691174,135.57048,
大阪府,大阪市,1989,鶴見区今津中３丁目５番,市営今津中住宅１号館　公園東側植え込み,34.692223,135.573975,
大阪府,大阪市,1990,鶴見区今津北４丁目４番,今津東公園　南西角,34.695717,135.5793,
大阪府,大阪市,1991,鶴見区今津南３丁目３番,今津南公園　南東角,34.68964,135.575516,
大阪府,大阪市,1992,鶴見区今津中４丁目１番４８号,大阪市立今津小学校　正門南側　鉄柵,34.69313,135.576675,
大阪府,大阪市,1993,鶴見区今津中４丁目１番４８号,大阪市立今津小学校　北門西側　フェンス,34.69313,135.576675,
大阪府,大阪市,1994,鶴見区今津北３丁目５番２０号,友栄食品興業㈱　南側フェンス,34.694656,135.574753,
大阪府,大阪市,1995,鶴見区諸口３丁目４４号,大阪市立茨田中学校　西側フェンス,34.702785,135.576523,
大阪府,大阪市,1996,鶴見区諸口１丁目１２番,市営茨田南住宅　第３集会所北側フェンス,34.70129,135.575348,
大阪府,大阪市,1997,鶴見区諸口２丁目１４番,諸口中公園　東側植え込み,34.701324,135.582443,
大阪府,大阪市,1998,鶴見区諸口１丁目７１号,大阪市立茨田南小学校　西側ブロック塀,34.699123,135.576614,
大阪府,大阪市,1999,鶴見区諸口２丁目６番１号,市営諸口南住宅１号館　北側植え込み,34.699177,135.579727,
大阪府,大阪市,2000,鶴見区安田２丁目８号,大阪市立茨田小学校　北側フェンス,34.703957,135.59198,
大阪府,大阪市,2001,鶴見区諸口４丁目３番１号,市営諸口住宅１号館　東側花壇,34.702538,135.58046,
大阪府,大阪市,2002,鶴見区中茶屋１丁目１７番２０号,市営茨田諸口東住宅　１号館西側フェンス,34.702274,135.585541,
大阪府,大阪市,2003,鶴見区徳庵２丁目５番１号,市営徳庵住宅１号館　西側フェンス,34.698929,135.582855,
大阪府,大阪市,2004,鶴見区中茶屋１丁目４１号,市営中茶屋住宅１号館　東側フェンス,34.700752,135.584976,
大阪府,大阪市,2005,鶴見区中茶屋１丁目７番３号,市営中茶屋住宅３号館　東自転車置き場東側フェンス,34.700733,135.586197,
大阪府,大阪市,2006,鶴見区茨田大宮3丁目7番61号,大阪市立茨田東小学校 西通用門横鉄柵,34.707653,135.594482,
大阪府,大阪市,2007,鶴見区茨田大宮4丁目28番19号,市営茨田大宮住宅１９号館 南側植え込み,34.713875,135.59845,
大阪府,大阪市,2008,鶴見区茨田大宮3丁目7番61号,大阪市立茨田東小学校 東通用門遊歩道（北側）,34.707653,135.594482,
大阪府,大阪市,2009,鶴見区茨田大宮2丁目7番,茨田大宮西公園 東側植え込み,34.712132,135.59317,
大阪府,大阪市,2010,鶴見区茨田大宮3丁目8番地内,市営茨田大宮第3住宅3号館東側シティバス停前,34.708317,135.596375,
大阪府,大阪市,2011,鶴見区浜4丁目16番,浜北公園 北西角,34.712219,135.584656,
大阪府,大阪市,2012,鶴見区浜3丁目19番,シティハス浜4丁目（南行き）東側フェンス,34.710079,135.583191,
大阪府,大阪市,2013,鶴見区浜3丁目8番66号,大阪市立茨田北小学校 正門横ブロック塀,34.708664,135.586243,
大阪府,大阪市,2014,鶴見区茨田大宮1丁目10番1号,市営茨田大宮西住宅1号館 西側植え込み,34.710392,135.58931,
大阪府,大阪市,2015,鶴見区安田1丁目11番35号,有料老人ホーム 貴美苑 北側歩道フェンス,34.705292,135.586853,
大阪府,大阪市,2016,鶴見区浜1丁目1番,花博記念公園鶴見緑地南第2駐車場 南側石垣,34.705811,135.581284,
大阪府,大阪市,2017,鶴見区焼野1丁目南10番,焼野南さくら公園 南側,34.715645,135.583801,
大阪府,大阪市,2018,鶴見区緑地公園,ローソン鶴見緑地駅前店 東側水路フェンス,34.713146,135.57959,
大阪府,大阪市,2019,鶴見区焼野1丁目2番（277）,焼野住宅（焼野バス（シティバス・京阪）転回地 手摺）,34.716232,135.583267,
大阪府,大阪市,2020,鶴見区焼野1丁目3番44号,大阪市立焼野小学校 正門横鉄柵【左側】,34.716782,135.584274,
大阪府,大阪市,2021,鶴見区焼野2丁目南5番,焼野南公園 南側,34.714657,135.585007,
大阪府,大阪市,2022,鶴見区横堤5丁目10番,日産産業（株）川山モータープール 北側フェンス,34.705639,135.572845,
大阪府,大阪市,2023,鶴見区横堤5丁目13番61号,大阪市立茨田西小学校 西通用門西側鉄柵,34.707241,135.573181,
大阪府,大阪市,2024,鶴見区諸口6丁目7番,市営諸口北住宅 児童遊園東側植え込み,34.706528,135.578568,
大阪府,大阪市,2025,鶴見区横堤4丁目12番4号,市営横堤北住宅2号館 西側植え込み,34.705822,135.569641,
大阪府,大阪市,2026,鶴見区横堤5丁目4番,Osaka Metro長7号線「横堤駅」5号出入口 地上余剰南側,34.704369,135.574188,
大阪府,大阪市,2027,鶴見区諸口6丁目4番2号,市営諸口北住宅2号館 西側花壇,34.70554,135.576569,
大阪府,大阪市,2028,鶴見区横堤1丁目11番83号,大阪市立横堤小学校 正門南側鉄柵,34.700958,135.570374,
大阪府,大阪市,2029,鶴見区横堤2丁目3番,横堤南公園 西側平地,34.698467,135.569855,
大阪府,大阪市,2030,鶴見区横堤3丁目8番5号,市営横堤住宅5号館 西側フェンス,34.702061,135.572327,
大阪府,大阪市,2031,鶴見区横堤1丁目11番1号,市営横堤第2住宅 北側植え込み,34.701118,135.566956,
大阪府,大阪市,2032,鶴見区横堤3丁目10番1号,市営横堤第1住宅 東側花壇,34.703373,135.57402,
大阪府,大阪市,2033,鶴見区横堤3丁目10番1号,市営横堤第1住宅 西側花壇,34.703373,135.57402,
