prefecture,city,number,address,name,lat,long,note
大阪府,大阪狭山市,1,狭山3丁目2571-1先,市立東小学校 西側,34.5064147,135.5540911,
大阪府,大阪狭山市,2,狭山3丁目2421先,狭山第5公園 北側,34.5064147,135.5540911,
大阪府,大阪狭山市,3,池之原2丁目1403-4先,狭山池北堤駐車場入口,34.50276,135.5467188,
大阪府,大阪狭山市,4,大学堂1丁目402-1先,狭山池公園南西側入口,34.471485,135.539902,緯度経度は怪しい
大阪府,大阪狭山市,5,狭山2丁目974-114先,さやか公園駐車場 南向側,34.502281,135.552765,緯度経度は怪しい
大阪府,大阪狭山市,6,狭山2丁目856-4先,狭山第1公園 東側,34.5009317,135.5548061,
大阪府,大阪狭山市,7,半田6丁目1088-4先,北村自治会館 西側,34.5003544,135.5535197,
大阪府,大阪狭山市,8,今熊1丁目88-4先,市立公民館駐車場西側フェンス,34.4970956,135.5434753,
大阪府,大阪狭山市,9,今熊1丁目106先,市立公民館前,34.4975245,135.5432046,
大阪府,大阪狭山市,10,今熊1丁目22先,市立西小学校前,34.497227,135.544922,
大阪府,大阪狭山市,11,今熊1丁目80先,市立老人福祉センター 南側,34.4962012,135.5428673,
大阪府,大阪狭山市,12,茨美木3丁目1311-1先,三津屋川 ガードレール,34.503662,135.555695,緯度経度は怪しい
大阪府,大阪狭山市,13,今熊3丁目504-1先,下今熊地区会館前,34.4921493,135.5409048,
大阪府,大阪狭山市,14,今熊3丁目442先,トマト農園販売所 北側,34.492344,135.542709,緯度経度は怪しい
大阪府,大阪狭山市,15,大野西1270-1先,masked,34.4720702,135.5399373,
大阪府,大阪狭山市,16,大野中231先,市立第二青少年運動広場 南東側,34.4711073,135.5471082,
大阪府,大阪狭山市,17,大野中180-1先,喫茶店タイム 西側,34.4689937,135.5471486,
大阪府,大阪狭山市,18,大野西571-3先,大野公民館 東側,34.469273,135.542343,緯度経度は怪しい
大阪府,大阪狭山市,19,大野西705-4先,masked,34.470898,135.540161,緯度経度は怪しい
大阪府,大阪狭山市,20,半田1丁目39-3先,ディークラディア金剛 東向側,34.4985331,135.5584045,
大阪府,大阪狭山市,21,半田1丁目138-1先,狭山神社前,34.4957753,135.5576302,
大阪府,大阪狭山市,22,半田1丁目42-1先,イオン金剛店 西向側,34.497787,135.557648,緯度経度は怪しい
大阪府,大阪狭山市,23,半田2丁目284-1先,カラオケのこ 西向側,34.4920025,135.557823,
大阪府,大阪狭山市,24,半田1丁目595-19先,金剛駅西口 南側,34.4948552,135.5591056,
大阪府,大阪狭山市,25,半田3丁目167-1先,川司児童遊園 東側,34.4925005,135.5529115,
大阪府,大阪狭山市,26,半田2丁目274-1先,市立半田幼稚園前,34.4921192,135.5562718,
大阪府,大阪狭山市,27,山本北127-2先,グリーンハイツ棟 東側,34.5122565,135.5352203,
大阪府,大阪狭山市,28,山本東541先,城前測量設計 北側フェンス,34.5113558,135.5406754,
大阪府,大阪狭山市,29,山本南159-1先,masked,34.5059004,135.5376807,
大阪府,大阪狭山市,30,山本北1202-1先,masked,34.5107513,135.533949,
大阪府,大阪狭山市,31,池之原4丁目680-4先,池之原会館前,34.5051218,135.5419643,
大阪府,大阪狭山市,32,池之原2丁目1144-1先,池之原中交差点 南東側,34.50276,135.5467188,
大阪府,大阪狭山市,33,岩室3丁目292-4先,岩室交差点 北東側,34.5024481,135.5399956,
大阪府,大阪狭山市,34,池尻自由丘1丁目341先,防災倉庫敷地西側フェンス,34.5160051,135.5458342,
大阪府,大阪狭山市,35,池尻自由丘1丁目36-7先,西池尻連絡所跡地フェンス,34.5160051,135.5458342,
大阪府,大阪狭山市,36,池尻中1丁目1-1先,狭山駅 西側,34.5160686,135.548528,
大阪府,大阪狭山市,37,池尻中1丁目1-1先,狭山駅 北側,34.5160686,135.548528,
大阪府,大阪狭山市,38,池尻中1丁目1-1先,狭山駅 東側,34.5160686,135.548528,
大阪府,大阪狭山市,39,池尻中1丁目1-1先,狭山駅 東向側,34.5160686,135.548528,
大阪府,大阪狭山市,40,池尻中1丁目1-1先,狭山駅 東北側,34.5160686,135.548528,
大阪府,大阪狭山市,41,池尻自由丘1丁目1先,狭山駅 北側,34.5162267,135.5473823,
大阪府,大阪狭山市,42,池尻自由丘2丁目8先,新池フェンス,34.5124857,135.546393,
大阪府,大阪狭山市,43,東野中4丁目619-1先,ヤマト運送狭山支所 東側,34.5238462,135.5587731,
大阪府,大阪狭山市,44,東野中3丁目710-9先,東野第7公園 東側,34.5216618,135.5571888,
大阪府,大阪狭山市,45,東野西1丁目915-31先,東野第10公園 南側,34.5202358,135.5553572,
大阪府,大阪狭山市,46,東野東1丁目57-1先,市立市民ふれあいの里入口,34.5195954,135.5604599,
大阪府,大阪狭山市,47,東野町1丁目968-20先,東野第4公園 東側,34.51997,135.554886,緯度経度は怪しい
大阪府,大阪狭山市,48,東野中2丁目999先,東野第1公園 西側,34.5186749,135.5572708,
大阪府,大阪狭山市,49,東野中1丁目25-1先,市立斎場北側駐車場,34.5176341,135.5585151,
大阪府,大阪狭山市,50,東茱萸木2丁目1869-87先,東葉美木第3公園 東側,34.4874142,135.5562106,
大阪府,大阪狭山市,51,茱萸木2丁目1955-1,濁り池フェンス 南側,34.4921213,135.5502574,
大阪府,大阪狭山市,52,東茱萸木2丁目865先,市立第七小学校前,34.4861444,135.5545692,
大阪府,大阪狭山市,53,茱萸木6丁目985-2先,市立南青少年運動場 北東側,34.4841679,135.552104,
大阪府,大阪狭山市,54,東茱萸木4-1126先,市循環バス　軽本病院バス停前,34.4833289,135.5553837,
大阪府,大阪狭山市,55,茱萸木1丁目514先,市循環バス　草沢バス停前,34.4975674,135.5493727,
大阪府,大阪狭山市,56,茱萸木8丁目1590-4,東葉東木第7公園 東側,34.4758286,135.5531524,
大阪府,大阪狭山市,57,西山台1丁目1-8先,西山台北バス停,34.4902955,135.5426819,
大阪府,大阪狭山市,58,西山台3丁目2-1先,市立南第一小学校 東側,34.4872446,135.5414826,
大阪府,大阪狭山市,59,茱萸木4丁目88-315先,市立ふれあいスポーツ広場前,34.488473,135.5475262,
大阪府,大阪狭山市,60,西山台3丁目2-2先,南第一小学校前バス停前,34.4869975,135.5427567,
大阪府,大阪狭山市,61,西山台3丁目5-25先,恵明ビル 東側,34.4854041,135.5438377,
大阪府,大阪狭山市,62,西山台2丁目7-3先,西山台第3公園 北側,34.4860499,135.5461785,
大阪府,大阪狭山市,63,西山台3丁目13-6先,masked,34.4839868,135.5450049,
大阪府,大阪狭山市,64,大野台1丁目14-1先,大野台第1公園 北側,34.4851185,135.5500823,
大阪府,大阪狭山市,65,大野台2丁目1先,コノミヤ狭山店 東側,34.4830754,135.5448022,
大阪府,大阪狭山市,66,大野台2丁目1先,消防署ニュータウン出張所 西側,34.4830754,135.5448022,
大阪府,大阪狭山市,67,大野台1丁目31-1先,大野台第3公園 西側,34.4813874,135.5495698,
大阪府,大阪狭山市,68,大野台3丁目2-1先,市立南中学校前,34.4795964,135.5460093,
大阪府,大阪狭山市,69,大野台7丁目1先,東大池公園 東側,34.4845444,135.5372102,
大阪府,大阪狭山市,70,大野台4丁目27-14先,大野台４丁目自治会館 西側,34.4756776,135.543281,
大阪府,大阪狭山市,71,西山台4丁目1-1先,子育て支援センター 西向側,34.4878965,135.5408412,
大阪府,大阪狭山市,72,西山台4丁目2先,masked,34.4854451,135.5399373,
大阪府,大阪狭山市,73,西山台4丁目1先,masked,34.4873343,135.5402195,
大阪府,大阪狭山市,74,西山台4丁目2先,masked,34.4854451,135.5399373,
大阪府,大阪狭山市,75,西山台4丁目2先,masked,34.4854451,135.5399373,
大阪府,大阪狭山市,76,西山台4丁目3先,masked,34.484905,135.538758,
大阪府,大阪狭山市,77,西山台4丁目3先,masked,34.484905,135.538758,
大阪府,大阪狭山市,78,今熊3丁目681-1先,市循環バス　三都神社前バス停前,34.4904773,135.538758,
大阪府,大阪狭山市,79,西山台5丁目5先,西山台第５公園 南側,34.4889948,135.5386457,
大阪府,大阪狭山市,80,西山台5丁目4先,西山台第２モータープール 北西側,34.4884321,135.5380946,
大阪府,大阪狭山市,81,西山台5丁目4先,西山台第２モータープール 南東側,34.4884321,135.5380946,
大阪府,大阪狭山市,82,西山台5丁目19-12先,市立こども園前,34.4877083,135.5375787,
大阪府,大阪狭山市,83,西山台5丁目2先,masked,34.4870074,135.5378735,
大阪府,大阪狭山市,84,西山台5丁目2先,masked,34.4870074,135.5378735,
大阪府,大阪狭山市,85,大野台5丁目7先,大野台第７公園 北側,34.4809152,135.5400847,
大阪府,大阪狭山市,86,大野台5丁目2-7先,西山台円穴バス停前,34.4821442,135.5410446,
大阪府,大阪狭山市,87,大野台5丁目10-4先,大野台第５丁目バス停前,34.4799061,135.5406174,
大阪府,大阪狭山市,88,大野台6丁目20先,大野台第８公園 東側,34.4792864,135.5371365,
大阪府,大阪狭山市,89,大野台3丁目23-1先,市立南第二小学校 北側,34.4776598,135.5410215,
大阪府,大阪狭山市,90,大野台3丁目23-1先,市立南第二小学校前,34.4776598,135.5410215,
大阪府,大阪狭山市,91,大野台3丁目23-1先,市立南第二小学校 南側,34.4776598,135.5410215,
大阪府,大阪狭山市,92,東池尻1丁目2147-1先,南海狭山コーポ 北西側,34.5067814,135.5602768,
大阪府,大阪狭山市,93,狭山5丁目2213-23先,狭山連園ハイツ 西側,34.5058714,135.5572792,
大阪府,大阪狭山市,94,狭山4丁目2311-1先,市立子育て支援世代間交流センター 北向側,34.5043695,135.5564087,
大阪府,大阪狭山市,95,狭山5丁目2252-3先,サンプラザ狭山店 北側,34.503397,135.5586441,
大阪府,大阪狭山市,96,狭山1丁目2384-1先,市役所前,34.5037106,135.5556395,
大阪府,大阪狭山市,97,金剛2丁目9-1先,ひつ池公園 西側,34.49913,135.559402,緯度経度は怪しい
大阪府,大阪狭山市,98,金剛2丁目3-1先,すり鉢池公園 西側,34.4975512,135.5602972,
大阪府,大阪狭山市,99,東池尻5丁目1938先,masked,34.513329,135.55809,緯度経度は怪しい
大阪府,大阪狭山市,100,池尻北2丁目20-7先,市立北小学校前,34.5147476,135.5544644,
大阪府,大阪狭山市,101,池尻7丁目23先,池尻第２公園 南側,34.4985643,135.5514738,
大阪府,大阪狭山市,102,東池尻1丁目2198-1先,青葉医院　西側,34.5074967,135.5587363,
大阪府,大阪狭山市,103,東池尻7丁目864-25先,masked,34.508965,135.559311,緯度経度は怪しい
大阪府,大阪狭山市,104,東池尻2丁目1234先,東池尻児童遊園 北側,34.510794,135.5569528,
大阪府,大阪狭山市,105,東池尻3丁目1006先,masked,34.5104734,135.5547341,
大阪府,大阪狭山市,106,池尻1丁目7-6先,masked,34.4985643,135.5514738,
大阪府,大阪狭山市,107,池尻中2丁目8先,池尻保育園前,34.5114276,135.5518056,
大阪府,大阪狭山市,108,池尻中3丁目32-11先,池尻コミュニティホール前,34.5108017,135.5484754,
大阪府,大阪狭山市,109,池尻2丁目14先,バストラル狭山 東向側,34.4985643,135.5514738,
大阪府,大阪狭山市,110,池尻中2丁目961-5先,狭山池博物館 北側,34.510361,135.551895,緯度経度は怪しい
大阪府,大阪狭山市,111,池尻中2丁目29-15先,㈱セゾン 西側,34.5102056,135.5520268,
大阪府,大阪狭山市,112,池尻中3丁目28先,狭山池北交差点 北東側,34.5077851,135.5484143,
大阪府,大阪狭山市,113,茱萸木4丁目1351-1先,カーサベルデⅡ 南向側,34.492756,135.547211,緯度経度は怪しい
大阪府,大阪狭山市,114,茱萸木2丁目397先,市立第三中学校前,34.4909411,135.5514064,
大阪府,大阪狭山市,115,東茱萸木1-1757-249先,masked,34.488522,135.55481,緯度経度は怪しい
大阪府,大阪狭山市,116,東茱萸木1丁目1757-114先,masked,34.488522,135.55481,緯度経度は怪しい
大阪府,大阪狭山市,117,東茱萸木1丁目1757-220先,東葉東木第２公園 東側,34.488522,135.55481,緯度経度は怪しい
大阪府,大阪狭山市,118,茱萸木5-496-1先,masked,34.4890775,135.5494875,
大阪府,大阪狭山市,119,東茱萸木1丁目532-4先,スカイハイツ前緑地,34.4893946,135.5515581,
