prefecture,city,number,address,name,lat,long,note
大阪府,岸和田市,1,岸城町1-21,市立図書館西側フェンス,34.4589658,135.373985,
大阪府,岸和田市,2,岸城町10-1,岸和田高校グラウンド堺（元睦会館側）,34.4583413,135.3718436,
大阪府,岸和田市,3,岸城町10-1,岸和田高校グラウンド堺（岸高プール前）,34.4583413,135.3718436,
大阪府,岸和田市,4,岸城町7-1,府道堺阪南線本庁側（歩道橋前）,34.4607091,135.3702712,
大阪府,岸和田市,5,岸城町9-1,岸和田城本丸堀端（裁判所跡駐車場フェンス）,34.4588131,135.3708072,
大阪府,岸和田市,6,岸城町10-1,岸和田高校グラウンド堺（岸城神社前）,34.4583413,135.3718436,
大阪府,岸和田市,7,岸城町16-1,蛸地蔵駅上りホーム海側堺,34.4562471,135.3696454,
大阪府,岸和田市,8,岸城町23-30先,岸城町スポーツ広場フェンス,34.4576298,135.3688214,
大阪府,岸和田市,9,宮本町31,城見橋交差点北側古城川フェンス,34.460508,135.3743889,
大阪府,岸和田市,10,宮本町,南海電鉄高架下作業班倉庫前,34.4604136,135.3762986,
大阪府,岸和田市,11,堺町1-1,中央地区公民館東側植込,34.4616915,135.3729567,
大阪府,岸和田市,12,堺町1-10,中央小学校西側フェンス,34.4621599,135.3725341,
大阪府,岸和田市,13,本町6-1,市役所別館紀州街道側塀,34.4610181,135.3699089,
大阪府,岸和田市,14,北町14-20,砂町モータープールフェンス,34.4647439,135.3726011,
大阪府,岸和田市,15,堺町1-1,中央地区公民館大阪側,34.4616915,135.3729567,
大阪府,岸和田市,16,魚屋町82-1先,古城川緑道,34.4635704,135.3715246,
大阪府,岸和田市,17,大北町交差点西側,府道臨海線緑地,34.4656406,135.3674588,
大阪府,岸和田市,18,中北町10－30,中北町児童公園,34.4644557,135.3679082,
大阪府,岸和田市,19,中北町,浜工業公園（中北町防潮堤横）,34.4639222,135.3685135,
大阪府,岸和田市,20,大北町,古城川緑道,34.4656406,135.3674588,
大阪府,岸和田市,21,大北町,浜工業公園（大北町防潮堤横）,34.4656406,135.3674588,
大阪府,岸和田市,22,中之浜町7−1,浜幼稚園南門フェンス,34.4618565,135.3668247,
大阪府,岸和田市,23,大手町13−15,市営浜プール西側フェンス,34.4641272,135.3660901,
大阪府,岸和田市,24,紙屋町12−20,浜小学校裏門ネットフェンス,34.4626946,135.366638,
大阪府,岸和田市,25,紙屋町12−20,浜小学校正門鉄柵,34.4626946,135.366638,
大阪府,岸和田市,26,中之浜町10−9,浜保育所西側フェンス,34.4616718,135.365861,
大阪府,岸和田市,27,大工町16,浜公園フェンス,34.4598345,135.3646215,
大阪府,岸和田市,28,中町3,中町公園西側鉄柵,34.4606274,135.3678526,
大阪府,岸和田市,29,大工町,浜工業公園（大工町公園出入口）,34.460137,135.3654292,
大阪府,岸和田市,30,南町249-20,南町第2児童遊園フェンス,34.4573222,135.3648763,
大阪府,岸和田市,31,南町160-7,南町エコ広場フェンス,34.4572276,135.3645481,
大阪府,岸和田市,32,南町1736-1,吉野モータース モータープールフェンス,34.4572276,135.3645481,
大阪府,岸和田市,33,南町1541-6,南町ちびっこ広場,34.4572276,135.3645481,
大阪府,岸和田市,34,南上町1丁目21,南公園 西側フェンス,34.4539471,135.3681463,
大阪府,岸和田市,35,南上町1丁目20,南公園 東側植込み前,34.4542891,135.368587,
大阪府,岸和田市,36,南上町2丁目11,鴨田池青少年広場 西側フェンス,34.4521529,135.3724059,
大阪府,岸和田市,37,南上町2丁目12,鴨田池青少年広場 東側通路,34.4525663,135.3726997,
大阪府,岸和田市,38,南上町2丁目3-1,城内小学校北側フェンス,34.4534605,135.3719698,
大阪府,岸和田市,39,南上町1丁目42,古城川（南西側）鉄柵,34.4556586,135.37292,
大阪府,岸和田市,40,上町20-3,masked,34.456081,135.3757495,
大阪府,岸和田市,41,上町33-5,城内保育所東側入口横フェンス,34.4541032,135.3770238,
大阪府,岸和田市,42,南上町1丁目32,シルバー人材センター会議室北西側フェンス,34.454441,135.3702761,
大阪府,岸和田市,43,並松町5,朝陽公園（東側）,34.4654417,135.3774004,
大阪府,岸和田市,44,並松町5,朝陽公園（西側）,34.4654417,135.3774004,
大阪府,岸和田市,45,並松町7,masked,34.4666897,135.3776942,
大阪府,岸和田市,46,並松町15－10,光陽地区公民館北側鉄柵,34.4672221,135.3764729,
大阪府,岸和田市,47,港緑町4,岸和田カンカンベイサイドモール北側歩道脇緑道,34.469662,135.3710105,
大阪府,岸和田市,48,港緑町5,コーナン臨海店旧防潮堤側緑道,34.468662,135.3730669,
大阪府,岸和田市,49,臨海町21－1,市営朝陽プール入口前,34.4717166,135.3748393,
大阪府,岸和田市,50,上野町東１－１,牛ノ口運動広場前フェンス,34.4657755,135.3816223,
大阪府,岸和田市,51,上野町東１－４０,和泉大宮２号踏切西側水路防止柵,34.4664521,135.3834755,
大阪府,岸和田市,52,上野町西１－２８,朝陽小学校大阪側フェンス,34.4665092,135.378899,
大阪府,岸和田市,53,上野町東２４－１０,大阪地方検察庁岸和田支部前フェンス,34.4697009,135.3845267,
大阪府,岸和田市,54,上野町西１４－２５,ドラッグスギ岸和田上野店西側外塀,34.469107,135.3820189,
大阪府,岸和田市,55,上野町西１０－２１,関西精機(株)正面横フェンス,34.4682594,135.3808244,
大阪府,岸和田市,56,上野町東４－１,大同生命(株)岸和田営業所ビル南側壁,34.4668133,135.3807754,
大阪府,岸和田市,57,下野町1丁目4先,野村第2児童遊園,34.4732453,135.3816608,
大阪府,岸和田市,58,下野町2丁目1,岸和田共同墓地西花壇,34.4719449,135.3800447,
大阪府,岸和田市,59,下野町3丁目2-2,masked,34.4702958,135.379503,
大阪府,岸和田市,60,下野町5丁目3-8,ふれあいセンター朝陽西側空地,34.4676755,135.3780982,
大阪府,岸和田市,61,岸野町1,朝陽児童遊園,34.4698082,135.3758579,
大阪府,岸和田市,62,下野町2丁目13,下野町2丁目公園,34.4725672,135.3776207,
大阪府,岸和田市,63,下野町2丁目13-18,野村中学校臨海側フェンス,34.4723784,135.3774371,
大阪府,岸和田市,64,沼町32-1,大阪ガス 西側フェンス,34.4658833,135.3782084,
大阪府,岸和田市,65,沼町370-12,沼町児童遊園,34.4637215,135.3786491,
大阪府,岸和田市,66,沼町25-13,沼町会館入口左側ブロック塀,34.4638973,135.38069,
大阪府,岸和田市,67,沼町27-13,南勇機械工業（株）,34.465056,135.3813882,
大阪府,岸和田市,68,野田町1丁目,岸和田駅中央改札口山側バス乗場向い植樹帯,34.4587291,135.3774738,
大阪府,岸和田市,69,野田町1丁目,岸和田駅南改札口和歌山側高架下フェンス,34.4587291,135.3774738,
大阪府,岸和田市,70,野田町1丁目5-5,福祉総合センター南側柵,34.4591708,135.3787789,
大阪府,岸和田市,71,野田町2丁目19-19,岸城中学校西側フェンス,34.4562837,135.3795635,
大阪府,岸和田市,72,野田町2丁目19-19,岸城中学校南側フェンス,34.4562837,135.3795635,
大阪府,岸和田市,73,野田町2丁目20,野田公園フェンス,34.455153,135.3796774,
大阪府,岸和田市,74,野田町2丁目3-9,あぶらじん前水路安全柵,34.457326,135.3828088,
大阪府,岸和田市,75,別所町2丁目19－13,masked,34.4596551,135.3858368,
大阪府,岸和田市,76,別所町3丁目13－20,いずみの農協本店駐車場西側ロープフェンス,34.457524,135.3862061,
大阪府,岸和田市,77,別所町3丁目5,宮の池公園（警察署側）,34.456753,135.3849665,
大阪府,岸和田市,78,別所町2丁目1－19,東光小学校表通りフェンス,34.4589896,135.3821566,
大阪府,岸和田市,79,別所町2丁目1－30,東光小学校西側体育館入口横フェンス,34.4589839,135.38126,
大阪府,岸和田市,80,別所町3丁目33－1,産業高等学校大阪側テニスコートフェンス,34.4604961,135.3894435,緯度経度は怪しい
大阪府,岸和田市,81,別所町1丁目1－33,岸和田駅東側ティア岸和田フェンス,34.460952,135.3793499,
大阪府,岸和田市,82,別所町1丁目1－33,岸和田駅西側ティア岸和田フェンス,34.460952,135.3793499,
大阪府,岸和田市,83,別所町3丁目33－1,産業高等学校山側駐輪場フェンス,34.4604961,135.3894435,緯度経度は怪しい
大阪府,岸和田市,84,藤井町2丁目6-35,masked,34.4625156,135.3839078,
大阪府,岸和田市,85,藤井町1丁目5-45先,藤井町1丁目南海高架下フェンス,34.4646959,135.3827862,
大阪府,岸和田市,86,藤井町1丁目22,藤井町1丁目児童遊園,34.4681296,135.3873174,
大阪府,岸和田市,87,藤井町2丁目18-9,㈱上野慶商店,34.4643171,135.3863159,
大阪府,岸和田市,88,藤井町3丁目6-6,光陽中学校南側フェンス,34.4631985,135.3865171,
大阪府,岸和田市,89,藤井町3丁目6-6,光陽中学校西側フェンス,34.4631985,135.3865171,
大阪府,岸和田市,90,藤井町3丁目6-6,光陽中学校西南側フェンス,34.4631985,135.3865171,
大阪府,岸和田市,91,土生町1510-36,旭公園フェンス,34.4422918,135.3883912,
大阪府,岸和田市,92,極楽寺町472-1,葛城グラウンドテニス場駐車場フェンス,34.4369167,135.3857012,
大阪府,岸和田市,93,土生町333-6,門前葛城線土生町333-6先フェンス,34.439126,135.4025629,
大阪府,岸和田市,94,土生町7丁目1440-1,関西電力(株)土生変電所ブロック塀,34.4422767,135.3906971,
大阪府,岸和田市,95,土生町7丁目1491,旭小学校正門大阪側フェンス,34.4422767,135.3906971,
大阪府,岸和田市,96,土生町7丁目1081-2,土生神社駐車場大阪側水路柵,34.4422767,135.3906971,
大阪府,岸和田市,97,畑町435-7先,東土生バス停,34.4383786,135.380412,緯度経度は怪しい
大阪府,岸和田市,98,土生町6丁目1545-1,道の池第2公園フェンス,34.4451222,135.385995,
大阪府,岸和田市,99,土生町５丁目１２,masked,34.4451845,135.3812935,
大阪府,岸和田市,100,行遇町,行遇町都計道路用地公園,34.4383648,135.3918726,
大阪府,岸和田市,101,畑町３６８－１,村崎善一氏所有農地,34.4383786,135.380412,緯度経度は怪しい
大阪府,岸和田市,102,畑町２丁目２３８,波多野山側歩道柵,34.4429272,135.3836442,
大阪府,岸和田市,103,行遇町１－２０１先,行遇町入口道路柵,34.4381525,135.3909878,
大阪府,岸和田市,104,畑町３丁目１２－１,太田小学校東側歩道柵,34.4418878,135.3876064,
大阪府,岸和田市,105,極楽寺町５７７－１,極楽寺町旧泥場池,34.4369167,135.3857012,緯度経度は怪しい
大阪府,岸和田市,106,流木町１０２６－４,流木慰霊塔入口南側フェンス,34.429347,135.3898154,
大阪府,岸和田市,107,流木町１４７,ＮＴＴ南大阪支店東岸和田別館前柵,34.4360587,135.3915189,
大阪府,岸和田市,108,真上町55,修斉保育所南側防音壁,34.4276834,135.4048165,
大阪府,岸和田市,109,八田町260,masked,34.4320913,135.4028682,
大阪府,岸和田市,110,土生町64－1,葛城町進入路（旧）喫茶ピーターパン横駐車場フェンス,34.4333089,135.4040022,
大阪府,岸和田市,111,真上町209－2,府道岸和田港塔原線真上町下りバス停横歩道,34.4288691,135.404512,緯度経度は怪しい
大阪府,岸和田市,112,土生滝町524－2,修斉小学校校門横フェンス,34.4238722,135.410705,緯度経度は怪しい
大阪府,岸和田市,113,土生滝町434－4,府道岸和田港塔原線 土生滝下りバス停横歩道,34.4237399,135.4093261,
大阪府,岸和田市,114,阿間河滝町1627,masked,34.4193156,135.4080673,緯度経度は怪しい
大阪府,岸和田市,115,北阪町555,北阪町八幡池側面,34.4166779,135.4203895,緯度経度は怪しい
大阪府,岸和田市,116,河合町876付近,河合橋安全柵,34.4052886,135.4140155,
大阪府,岸和田市,117,河合町1786－1,長谷川幹夫氏空地,34.3972672,135.4145083,緯度経度は怪しい
大阪府,岸和田市,118,河合町478,河合町ちびっこ広場,34.404433,135.411001,緯度経度は怪しい
大阪府,岸和田市,119,河合町1874－1,東葛城幼稚園フェンス（南側）,34.4067032,135.4155742,
大阪府,岸和田市,120,上白原町74－3,松本正幸氏畑地,34.4079804,135.4247835,
大阪府,岸和田市,121,神於町219－2,国道170号線法敷,34.407946,135.4225237,
大阪府,岸和田市,122,春木泉町1-5,春木保育所(浜側),34.4753176,135.3815481,
大阪府,岸和田市,123,春木泉町20-48,春木台場青少年広場テニスコート(和歌山側),34.4769055,135.3787385,
大阪府,岸和田市,124,春木泉町3,春木泉浜公園(浜側),34.477792,135.3823219,
大阪府,岸和田市,125,春木泉町1,UR都市機構春木団地出入口(和歌山側),34.4764541,135.3830257,
大阪府,岸和田市,126,春木泉町3,春木泉町会館(和歌山側),34.477792,135.3823219,
大阪府,岸和田市,127,春木泉町1,UR都市機構春木団地出入口(大阪側),34.4764541,135.3830257,
大阪府,岸和田市,128,春木泉町3,春木泉浜公園(大阪側),34.477792,135.3823219,
大阪府,岸和田市,129,春木大小路町3－19,masked,34.4807016,135.3826519,
大阪府,岸和田市,130,春木宮川町11－13,春木小学校南側グランド通用門側鉄柵,34.4798063,135.3879052,
大阪府,岸和田市,131,春木宮川町11－13,春木小学校南側鉄柵,34.4798063,135.3879052,
大阪府,岸和田市,132,春木宮川町11－52,春木幼稚園東側ネットフェンス,34.4794401,135.3886745,
大阪府,岸和田市,133,春木若松町315－1,春木駅周辺整備用地,34.4785764,135.3915787,
大阪府,岸和田市,134,春木若松町555－11,春木緑地,34.4785764,135.3915787,
大阪府,岸和田市,135,若松町20－18,春木駅西駐輪場フェンス,34.8353648,135.6282094,緯度経度は怪しい
大阪府,岸和田市,136,春木旭町8,南海春木駅東側フェンス,34.4767962,135.3920931,
大阪府,岸和田市,137,春木旭町31,城北小学校西側アルミフェンス,34.4755984,135.3947449,緯度経度は怪しい
大阪府,岸和田市,138,春木旭町234番地87,春木旭町児童遊園,34.4774331,135.39393,
大阪府,岸和田市,139,春木旭町33,北中学校西側花壇下,34.478038,135.3955465,
大阪府,岸和田市,140,春木旭町32,北中学校ゲートボールコート北側フェンス,34.477331,135.3964283,
大阪府,岸和田市,141,春木旭町38,ビレッジハウス旭入口北側フェンス,34.478158,135.3970162,
大阪府,岸和田市,142,春木旭町12,masked,34.4759456,135.3957925,
大阪府,岸和田市,143,八幡町7-1,ビレッジハウス春木南側緑地帯,34.4825676,135.3905758,
大阪府,岸和田市,144,松風町10-65,春木中学校西側フェンス,34.4840848,135.3854893,
大阪府,岸和田市,145,松風町10-65,春木中学校東側ブロック塀,34.4840848,135.3854893,
大阪府,岸和田市,146,八幡町12,市営春木プール南側フェンス,34.4821595,135.3887868,
大阪府,岸和田市,147,松風町1-5,masked,34.4827713,135.3835388,
大阪府,岸和田市,148,八幡町13,八幡山公園鉄柵,34.4835787,135.3881986,
大阪府,岸和田市,149,松風町10-65,春木中学校南側フェンス,34.4840848,135.3854893,
大阪府,岸和田市,150,磯上町5丁目759-3,山本氏空地フェンス,34.4885911,135.3915787,
大阪府,岸和田市,151,磯上町3丁目933-19,磯上町3丁目緑地(岸和田工業センター協同組合緑地),34.4710822,135.3795305,緯度経度は怪しい
大阪府,岸和田市,152,磯上町3丁目556-2,masked,34.4710822,135.3795305,緯度経度は怪しい
大阪府,岸和田市,153,磯上町1丁目9-4付近,府道牛滝山貝塚線側道,34.4842339,135.3920655,
大阪府,岸和田市,154,磯上町2丁目4番1号,大芝小学校正門前,34.4854921,135.388369,
大阪府,岸和田市,155,磯上町1丁目201-1,masked,34.4799739,135.3959467,緯度経度は怪しい
大阪府,岸和田市,156,磯上町1丁目122-3,大芝地区公民館西側金網塀,34.4846814,135.3927544,
大阪府,岸和田市,157,磯上町4丁目295-4,松田公園,34.4868765,135.3951056,
大阪府,岸和田市,158,磯上町1丁目2022,磯上町神弥ちびっこ広場,34.4846814,135.3927544,
大阪府,岸和田市,159,荒木町１丁目７－１６,NTT西日本春木電話中継所山側鉄柵,34.4734495,135.3969537,
大阪府,岸和田市,160,荒木町１丁目２２－２５,荒木町バス停前フェンス,34.4722557,135.3993805,
大阪府,岸和田市,161,荒木町２丁目,masked,34.4745741,135.3998086,
大阪府,岸和田市,162,荒木町２丁目,masked,34.4745741,135.3998086,
大阪府,岸和田市,163,荒木町２丁目４－３３,新条小学校プール側フェンス,34.4756037,135.4001944,
大阪府,岸和田市,164,中井町３丁目１７,中井公園,34.4782976,135.4075989,
大阪府,岸和田市,165,中井町２丁目１３－６,masked,34.4782843,135.4039792,
大阪府,岸和田市,166,荒木町２丁目４－３３,新条小学校フェンス,34.4756037,135.4001944,
大阪府,岸和田市,167,小松里町2243,小松里第一公園,34.463699,135.4015723,
大阪府,岸和田市,168,小松里町464-1,JR久米田駅南駐輪場,34.4646021,135.4045426,
大阪府,岸和田市,169,小松里町911-7,小松里町空地,34.4622754,135.403676,
大阪府,岸和田市,170,額原町1001,市民病院入口バス停横,34.4616207,135.3957842,
大阪府,岸和田市,171,小松里町768-1,八木南小学校グラウンド入口西側フェンス,34.4598632,135.4050384,
大阪府,岸和田市,172,小松里町1153-2,masked,34.4596773,135.4072694,
大阪府,岸和田市,173,額原町200-1,masked,34.4584989,135.4004647,
大阪府,岸和田市,174,額原町303,masked,34.4550601,135.4075732,緯度経度は怪しい
大阪府,岸和田市,175,額原町238,masked,34.4571714,135.3997134,
大阪府,岸和田市,176,大町373-2,久米田駅北側柵内,34.465766,135.4057629,緯度経度は怪しい
大阪府,岸和田市,177,小松里町960-1,NTT山直交換所パイプ柵,34.4633265,135.4074292,
大阪府,岸和田市,178,池尻町339-2,八木市民センター植込,34.4630765,135.4126474,
大阪府,岸和田市,179,大町4丁目10-1,八木運動広場横,34.466584,135.4104818,
大阪府,岸和田市,180,大町3丁目21-10,八木幼稚園園舎入口横フェンス,34.4675952,135.4113745,
大阪府,岸和田市,181,大町3丁目22-1,八木小学校正門横フェンス,34.4684198,135.4108304,
大阪府,岸和田市,182,東大路町208,市営今木プールフェンス,34.4682552,135.4165782,
大阪府,岸和田市,183,池尻町133-43,調整池フェンス,34.4615274,135.4180775,
大阪府,岸和田市,184,西大路町181-21,西大路町緑地フェンス,34.4729229,135.4145097,
大阪府,岸和田市,185,池尻町98,吉川病院前ブロック塀,34.4602979,135.415258,
大阪府,岸和田市,186,池尻町418先,田治米畑町緑歩道柵,34.4601453,135.4134836,
大阪府,岸和田市,187,池尻町705,久米田中学校正門横鉄柵,34.457903,135.409791,
大阪府,岸和田市,188,池尻町705,久米田中学校西側フェンス（公園向い）,34.457903,135.409791,
大阪府,岸和田市,189,池尻町671-20歩道,久米田池交流資料館前歩道フェンス,34.4579619,135.4117966,
大阪府,岸和田市,190,小松里町1054-1,久米田バスセンター駐車場入口右側横,34.4628061,135.4090675,
大阪府,岸和田市,191,額原町382,masked,34.4580135,135.4060193,
大阪府,岸和田市,192,池尻町934,久米田古墳公園周遊池フェンス,34.459274,135.4116239,
大阪府,岸和田市,193,田治米町580-1,masked,34.4593165,135.4184413,
大阪府,岸和田市,194,田治米町675-2,田治米町菅原神社前,34.4611576,135.425095,緯度経度は怪しい
大阪府,岸和田市,195,田治米町460,山直北小学校フェンス,34.4604247,135.4260661,
大阪府,岸和田市,196,田治米町195-1,花田多嘉子氏所有地,34.4612732,135.4241066,
大阪府,岸和田市,197,田治米町153-1,JFE継手（株）フェンス,34.4628201,135.4242667,
大阪府,岸和田市,198,田治米町250,masked,34.4663695,135.4286823,緯度経度は怪しい
大阪府,岸和田市,199,田治米町250,masked,34.4663695,135.4286823,緯度経度は怪しい
大阪府,岸和田市,200,岡山町185,東出公園前入口横,34.4566235,135.4265289,
大阪府,岸和田市,201,岡山町119-7,河合茂行氏所有地横府道223号線歩道フェンス,34.4581664,135.4230914,
大阪府,岸和田市,202,岡山町398,岡山町398前川沿いフェンス,34.456408,135.4223298,
大阪府,岸和田市,203,岡山町238-93,岡山町山出第2児童遊園,34.4546927,135.4262685,
大阪府,岸和田市,204,岡山町1210-5,masked,34.4538296,135.4235145,
大阪府,岸和田市,205,岡山町450-1,久米田青少年会館入口左側網,34.4557546,135.421315,
大阪府,岸和田市,206,岡山町810,岡山町有松尾池前ガードレール,34.4490761,135.4205072,
大阪府,岸和田市,207,三田町889-1,防火水槽ネットフェンス,34.4520774,135.4264513,
大阪府,岸和田市,208,三田町1714-1,小倉若頭提灯吊場,34.4516016,135.4290523,緯度経度は怪しい
大阪府,岸和田市,209,三田町944-1,和田病院,34.4536566,135.4288606,
大阪府,岸和田市,210,三田町715-1,山直市民センター玄関前フェンス,34.4519207,135.4306095,
大阪府,岸和田市,211,三田町985,三田町公民館前祭礼用花用柱,34.4554591,135.4294505,
大阪府,岸和田市,212,三田町643-1先,水道企業団三田立杭前,34.452548,135.4319153,
大阪府,岸和田市,213,三田町1036,masked,34.4584744,135.4287302,
大阪府,岸和田市,214,摩湯町バス停留所前,府道岡山三林線摩湯町歩道敷フェンス,34.4632568,135.4345074,緯度経度は怪しい
大阪府,岸和田市,215,摩湯町461−2,市道摩湯寺田線フェンス,34.4643007,135.4328643,
大阪府,岸和田市,216,摩湯町100,摩湯神社ネットフェンス,34.4632568,135.4345074,緯度経度は怪しい
大阪府,岸和田市,217,東ヶ丘町808−338,東ヶ丘第3公園,34.4451453,135.3630794,緯度経度は怪しい
大阪府,岸和田市,218,東ヶ丘町808−662,東ヶ丘町東山公園,34.4451453,135.3630794,緯度経度は怪しい
大阪府,岸和田市,219,東ヶ丘町808−945,東ヶ丘第2公園,34.4451453,135.3630794,緯度経度は怪しい
大阪府,岸和田市,220,東ヶ丘町808−681,東ヶ丘第1公園,34.4451453,135.3630794,緯度経度は怪しい
大阪府,岸和田市,221,包近町385-32,包近町第2児童遊園,34.4488891,135.4411008,
大阪府,岸和田市,222,包近町664-1,池田昌敏氏（柿畑）,34.4460125,135.4333307,
大阪府,岸和田市,223,包近町,新池北堤,34.4460125,135.4333307,緯度経度は怪しい
大阪府,岸和田市,224,包近町490-1,包近公園北側入口横フェンス,34.4476158,135.4340368,
大阪府,岸和田市,225,山直中町781,久米田牛滝線沿水路防止柵,34.4398382,135.4368608,緯度経度は怪しい
大阪府,岸和田市,226,山直中町,山直中町今池埋立地,34.4398382,135.4368608,
大阪府,岸和田市,227,山直中町1031-32,翠ヶ丘ちびっこ広場,34.4388906,135.4351557,
大阪府,岸和田市,228,稲葉町347,masked,34.4366366,135.4383842,
大阪府,岸和田市,229,稲葉町20,山直南小学校正門横フェンス,34.4340903,135.4370301,
大阪府,岸和田市,230,稲葉町122,稲葉町青年会場フェンス,34.4318139,135.4388281,
大阪府,岸和田市,231,積川町5-1,岡本俊彦氏耕作地,34.4218832,135.4462755,緯度経度は怪しい
大阪府,岸和田市,232,稲葉町134-36前,府道岸和田牛滝山貝塚線歩道フェンス,34.431009,135.4393321,
大阪府,岸和田市,233,積川町326,東出武彦氏事務所フェンス,34.4259329,135.4391562,
大阪府,岸和田市,234,積川町168,岡本倖佑氏所有地,34.426077,135.4424292,
大阪府,岸和田市,235,岸の丘町1丁目,岸の丘公園,34.4298407,135.429948,緯度経度は怪しい
大阪府,岸和田市,236,額原町,masked,34.4573065,135.4009844,
大阪府,岸和田市,237,上松町1125-4,桜ヶ丘児童遊園フェンス,34.4504041,135.3968692,緯度経度は怪しい
大阪府,岸和田市,238,上松町,上松西町会館横フェンス建掛け,34.4504041,135.3968692,緯度経度は怪しい
大阪府,岸和田市,239,上松町,上松台第1公園法面建掛け,34.4504041,135.3968692,緯度経度は怪しい
大阪府,岸和田市,240,上松町,上松台第2公園法面建掛け,34.4504041,135.3968692,緯度経度は怪しい
大阪府,岸和田市,241,下松町4丁目6-1,常盤幼稚園フェンス,34.4549052,135.3977392,
大阪府,岸和田市,242,上松町,上松東第1公園法面建掛け,34.4504041,135.3968692,緯度経度は怪しい
大阪府,岸和田市,243,西之内町565番地7,西之内町健康遊園フェンス,34.466049,135.3921665,
大阪府,岸和田市,244,西之内町528-3,関西電力(株)旧岸和田電力所跡正面入口右側金網堺,34.466049,135.3921665,
大阪府,岸和田市,245,西之内町45,中央公園第1駐車場植込み,34.4677997,135.3965753,
大阪府,岸和田市,246,西之内町42-35,中央公園西側交番所横,34.4700013,135.3967595,緯度経度は怪しい
大阪府,岸和田市,247,加守町4丁目6-18,宮前町みんなの広場,34.4704728,135.3897465,
大阪府,岸和田市,248,宮前町7-1,大宮小学校北側フェンス,34.4686093,135.3876182,
大阪府,岸和田市,249,西之内町56-16,西之内町会館入口左側鉄柵,34.4650436,135.392589,
大阪府,岸和田市,250,下松町1255,桜台プール入口,34.4514229,135.403924,緯度経度は怪しい
大阪府,岸和田市,251,尾生町4丁目18-17,masked,34.4462905,135.4116585,
大阪府,岸和田市,252,尾生町1060-28,光明第2ちびっこ広場,34.4379351,135.4133322,緯度経度は怪しい
大阪府,岸和田市,253,尾生町4丁目15-3,masked,34.4481601,135.4108898,
大阪府,岸和田市,254,尾生町3丁目3659,尾生町実行組合フェンス,34.450501,135.4103919,
大阪府,岸和田市,255,尾生町564,光明小学校裏門横フェンス,34.4436804,135.4124341,
大阪府,岸和田市,256,尾生町474-1,福田児童遊園,34.4397267,135.4136026,
大阪府,岸和田市,257,尾生町2625,福田バス停手前水路柵,34.4375742,135.4136446,
大阪府,岸和田市,258,尾生町4丁目4036,尾生町実行組合フェンス,34.4471291,135.4127441,
大阪府,岸和田市,259,内畑町166-3,山滝中学校フェンス,34.4177714,135.4397843,
大阪府,岸和田市,260,内畑町1100,澤周三氏所有空地,34.4159789,135.4395376,緯度経度は怪しい
大阪府,岸和田市,261,内畑町1041,山滝小学校正門 南側,34.4133906,135.438347,
大阪府,岸和田市,262,内畑町883-1,NTT内畑局フェンス,34.4115574,135.4397475,
大阪府,岸和田市,263,内畑町1033先,山滝支所前歩道柵,34.4121444,135.4380033,
大阪府,岸和田市,264,内畑町997,masked,34.4106439,135.4383068,
大阪府,岸和田市,265,内畑町1400-1,大植善彦氏 材木置場前,34.4117804,135.4386863,緯度経度は怪しい
大阪府,岸和田市,266,大沢町296,下大沢バス停前,34.3778844,135.4450986,緯度経度は怪しい
大阪府,岸和田市,267,大沢町440,大沢山荘入口横フェンス,34.389974,135.4385139,緯度経度は怪しい
大阪府,岸和田市,268,大沢町,上大沢バス停下,34.3778844,135.4450986,緯度経度は怪しい
大阪府,岸和田市,269,大沢町1222,牛滝バス停下,34.3778844,135.4450986,緯度経度は怪しい
大阪府,岸和田市,270,相川町８７,masked,34.3869395,135.427486,緯度経度は怪しい
大阪府,岸和田市,271,塔原町６１５－１,葛城上地区公民館記念碑横,34.3783905,135.4292644,
大阪府,岸和田市,272,塔原町３４０－１,堀田英治氏所有地内,34.3754642,135.4298897,緯度経度は怪しい
大阪府,岸和田市,273,吉井町1丁目5-2,masked,34.4803235,135.3954751,
大阪府,岸和田市,274,吉井町2丁目,吉井町第2児童遊園（磯上山直線高架下フェンス）,34.4819662,135.3983389,
大阪府,岸和田市,275,吉井町1丁目21-1,城北地区公民館入口山側フェンス,34.4790708,135.3989953,
大阪府,岸和田市,276,吉井町3丁目13南海線沿道路,吉井町3丁目市道フェンス,34.4839684,135.3967957,
大阪府,岸和田市,277,吉井町3丁目21,府営若葉ヶ丘町公園,34.4819151,135.3995881,
大阪府,岸和田市,278,吉井町4丁目,masked,34.4822061,135.4012784,
大阪府,岸和田市,279,吉井町3丁目23,masked,34.4841918,135.3983389,
大阪府,岸和田市,280,加守町1丁目5,府公社加守団地前広場,34.4741846,135.3848099,
大阪府,岸和田市,281,加守町1丁目16,加守町1丁目会館フェンス,34.4745511,135.3855543,
大阪府,岸和田市,282,加守町2丁目14－20,加守町2丁目集会所,34.4727018,135.3867113,
大阪府,岸和田市,283,加守町2丁目334－1,加守町2丁目ちびっこ広場南側フェンス,34.4714195,135.3857012,
大阪府,岸和田市,284,加守町3丁目4－19,加守町3丁目会館フェンス,34.4737836,135.3873033,
大阪府,岸和田市,285,加守町4丁目6－18,男女共同参画センター・大宮地区公民館フェンス,34.4704728,135.3897465,
大阪府,岸和田市,286,加守町4丁目28,masked,34.4712562,135.3929013,
大阪府,岸和田市,287,下池田町2丁目13,masked,34.4704497,135.4039975,
大阪府,岸和田市,288,下池田町1丁目387－7,久米田駅西ロータリー歩道柵,34.4682788,135.4024542,
大阪府,岸和田市,289,下池田町1丁目19－16,masked,34.4676505,135.4053278,
大阪府,岸和田市,290,下池田町3丁目13,masked,34.4690435,135.4077459,
大阪府,岸和田市,291,下池田町3丁目6－4,八木北小学校西南側フェンス,34.4705975,135.4071571,
大阪府,岸和田市,292,箕土路町2丁目1,箕土路町公園北側,34.4721278,135.4059819,
大阪府,岸和田市,293,箕土路町2丁目6－1,箕土路青少年会館西側フェンス,34.4723295,135.4077746,
大阪府,岸和田市,294,下池田町3丁目6－4,八木北小学校プールフェンス,34.4705975,135.4071571,
大阪府,岸和田市,295,下池田町1丁目9,下池田町公園西側,34.4684536,135.4023807,
大阪府,岸和田市,296,天神山町1丁目,後谷池横道路防護柵,34.4295379,135.3962813,
大阪府,岸和田市,297,流木町472,流木配水場柵,34.4316013,135.3941604,緯度経度は怪しい
大阪府,岸和田市,298,天神山町1丁目4-4,masked,34.4307337,135.3954265,
大阪府,岸和田市,299,天神山町1丁目1-1,天神山小学校横通路フェンス,34.4295663,135.3932228,
大阪府,岸和田市,300,天神山町2丁目,天神山町2丁目交差点歩道フェンス,34.429506,135.3986328,
大阪府,岸和田市,301,天神山町2丁目,天神山保育園横柵,34.429506,135.3986328,
大阪府,岸和田市,302,天神山町3丁目,天神山町3丁目公園前道路柵,34.4271199,135.4001025,
大阪府,岸和田市,303,門前町2丁目2519-5,門前公園前フェンス,34.4404489,135.4024542,
大阪府,岸和田市,304,上松町650-17,masked,34.4492551,135.3994218,
大阪府,岸和田市,305,門前町2丁目355,泉光寺入口左側ブロック前,34.4404489,135.4024542,
大阪府,岸和田市,306,作才町343-2先,楓の木こども園南西歩道柵,34.4525001,135.3857012,緯度経度は怪しい
大阪府,岸和田市,307,上松町441-2,山下町公民館前フェンス,34.4460123,135.3984553,
大阪府,岸和田市,308,上松町1358-3,星和南入口因阪ガス調整室フェンス,34.4450112,135.4006049,
大阪府,岸和田市,309,上松町511-30,星和南公園フェンス,34.4450525,135.4024725,緯度経度は怪しい
大阪府,岸和田市,310,土生町2丁目,東区2号公園金網フェンス,34.4495091,135.380412,
大阪府,岸和田市,311,土生町2丁目,城南公園西側,34.4495091,135.380412,
大阪府,岸和田市,312,土生町2丁目5-4,環境事務所別館前,34.4511291,135.3780888,
大阪府,岸和田市,313,土生町2丁目,今池公園東側,34.4495091,135.380412,
大阪府,岸和田市,314,作才町1丁目7-15,中央体育館東側フェンス,34.4553896,135.3832845,
大阪府,岸和田市,315,作才町,東岸和田公園北側,34.4525001,135.3857012,緯度経度は怪しい
大阪府,岸和田市,316,作才町,作才町ロケット公園西側,34.4525001,135.3857012,緯度経度は怪しい
大阪府,岸和田市,317,作才町1227,作才町1227駐車場,34.4525001,135.3857012,
大阪府,岸和田市,318,土生町4丁目1-1,JR東岸和田駅南側駐輪場(海側),34.4494875,135.385913,
大阪府,岸和田市,319,土生町4丁目1-1,JR東岸和田駅北側駐輪場(海側),34.4494875,135.385913,
大阪府,岸和田市,320,土生町12丁目10-1,土生中学校フェンス,34.4444176,135.3965064,
大阪府,岸和田市,321,土生町4丁目4405,土生公園フェンス,34.449018,135.385995,
大阪府,岸和田市,322,土生町4丁目1-1,JR東岸和田駅南側駐輪場(山側),34.4494875,135.385913,
大阪府,岸和田市,323,土生町13丁目694-1,中島池公園前道路柵,34.4440425,135.39393,
大阪府,岸和田市,324,土生町482-8,中島池北児童遊園前道路柵,34.4437592,135.3975181,緯度経度は怪しい
大阪府,岸和田市,325,土生町8丁目14-29,masked,34.4438551,135.3900378,
大阪府,岸和田市,326,八阪町2丁目217-1,関電送電線鉄塔用地フェンス,34.4563491,135.3892276,
大阪府,岸和田市,327,上松町4丁目5-20,上松町公民館前ブロック塀,34.452249,135.3931807,
大阪府,岸和田市,328,上松町21,ときわ公園内フェンス,34.4541048,135.3902495,
大阪府,岸和田市,329,下松町4丁目17-1,桜台市民センター,34.4538167,135.3948804,
大阪府,岸和田市,330,下松町内,市営下松駅自転車等駐車場,34.4514229,135.403924,緯度経度は怪しい
大阪府,岸和田市,331,下松町3丁目6-12,いずみの農協南摂守支店駐車場ネットフェンス,34.4554148,135.3958977,
大阪府,岸和田市,332,八阪町内,国道26号線歩行者用地下道側壁,34.4560631,135.3898154,緯度経度は怪しい
大阪府,岸和田市,333,上松町3丁目7-21,岸和田消防署裏フェンス,34.4486264,135.3952073,
大阪府,岸和田市,334,上松町21,ときわ公園調整池フェンス,34.4541048,135.3902495,
