prefecture,city,number,address,name,lat,long
大阪府,東大阪市,101-1,善根寺町1丁目3番,masked,34.7003129,135.6505604
大阪府,東大阪市,101-2,善根寺町3丁目3番,善根寺児童遊園 南側,34.6978471,135.6428531
大阪府,東大阪市,101-3,善根寺町4丁目8番3号,元丸二倉庫 南側 水路 南側,34.7012999,135.6404955
大阪府,東大阪市,101-4,善根寺町5丁目3番,象印マホービン(株) 西側,34.7018688,135.6446448
大阪府,東大阪市,101-5,善根寺町5丁目4番,象印マホービン(株) 南側,34.7012201,135.6466374
大阪府,東大阪市,101-6,善根寺町5丁目6番,善根寺会館北側水路柵 北側,34.6996462,135.647051
大阪府,東大阪市,101-7,善根寺町6丁目1番32号,masked,34.7001228,135.6482362
大阪府,東大阪市,102-1,布市町1丁目7番32号,masked,34.6939954,135.6399631
大阪府,東大阪市,102-2,布市町1丁目9番1号,masked,34.6943441,135.6418264
大阪府,東大阪市,102-3,布市町2丁目1番40号,株式会社リサイクル 東側,34.6905079,135.639346
大阪府,東大阪市,102-4,布市町2丁目5番37号,布市自治会館 東側,34.6933312,135.6394043
大阪府,東大阪市,102-5,布市町3丁目5番34号,masked,34.6934951,135.6355773
大阪府,東大阪市,102-6,元町2丁目5番18号,元町自治会館 南側 南側,34.6970346,135.6337505
大阪府,東大阪市,102-7,布市町4丁目1番,フクビ化学工業南側網(市管理地) 南側,34.6955688,135.6397731
大阪府,東大阪市,103-1,日下町4丁目1番,日下第3公園 北側,34.6913738,135.6423551
大阪府,東大阪市,103-2,日下町6丁目3番6号,孔舎衙小学校 南側,34.6952748,135.6445923
大阪府,東大阪市,103-3,日下町5丁目4番,ナカトミサニーハイツ北側畑 南側,34.695374,135.6426518
大阪府,東大阪市,103-4,日下町6丁目3番6号,孔舎衙小学校 北側,34.6962672,135.644764
大阪府,東大阪市,103-5,池之端町11番,日新高等学校 東側,34.6959127,135.6522833
大阪府,東大阪市,103-6,日下町6丁目3番6号,孔舎衙小学校 西側,34.6956276,135.6444904
大阪府,東大阪市,103-7,日下町6丁目9番23号,masked,34.6946858,135.6477667
大阪府,東大阪市,103-8,池之端町5番21号,日下自治会館北分室 北側,34.6968284,135.6486268
大阪府,東大阪市,104-1,日下町2丁目3番38号,日下自治会館 東側,34.6917687,135.6475833
大阪府,東大阪市,104-2,日下町3丁目5番,石切変電所 西側,34.6914293,135.644366
大阪府,東大阪市,104-3,日下町7丁目2番,孔舎衙東小学校 北側,34.6950647,135.6488253
大阪府,東大阪市,104-4,日下町7丁目6番46号,masked,34.6933345,135.6494177
大阪府,東大阪市,104-5,日下町3丁目7番,日下川歩道柵 北側,34.6923484,135.6456343
大阪府,東大阪市,104-6,日下町7丁目8番,日新高等学校 南側,34.6934676,135.6522538
大阪府,東大阪市,104-7,日下町8丁目1番16号,masked,34.6924034,135.6533261
大阪府,東大阪市,105-1,北石切町17番,芝ヶ丘児童遊園 西側,34.6890796,135.6497713
大阪府,東大阪市,105-2,北石切町21番,masked,34.6907045,135.6508564
大阪府,東大阪市,105-3,中石切町4丁目10番3号,石切中学校 東側,34.688487,135.6459571
大阪府,東大阪市,105-4,北石切町1番7号,石切公民分館 南側,34.6866038,135.6487361
大阪府,東大阪市,105-5,中石切町4丁目10番3号,石切中学校 南側,34.6883944,135.6449164
大阪府,東大阪市,105-6,中石切町5丁目1番55号,masked,34.6874843,135.6431822
大阪府,東大阪市,105-7,中石切町5丁目4番,中石切公園 東側,34.6887165,135.6393873
大阪府,東大阪市,106-1,中石切町1丁目1番,石切公園 南側,34.6836129,135.6468451
大阪府,東大阪市,106-2,中石切町1丁目5番,ひかり公園 北側,34.6848566,135.6445341
大阪府,東大阪市,106-3,中石切町1丁目6番50号,石切小学校 北側,34.6840519,135.644745
大阪府,東大阪市,106-4,中石切町2丁目2番25号,石切幼稚園 南側,34.6845115,135.6478625
大阪府,東大阪市,106-5,中石切町3丁目8番,芝水防倉庫 北側,34.6874881,135.6394646
大阪府,東大阪市,106-6,中石切町3丁目4番4号,masked,34.6849461,135.6427721
大阪府,東大阪市,106-7,中石切町1丁目6番50号,石切小学校 東側,34.6835492,135.645246
大阪府,東大阪市,107-1,東石切町2丁目4番,東石切公園 東側,34.6808163,135.6517707
大阪府,東大阪市,107-2,東石切町2丁目9番24号,masked,34.682915,135.6492784
大阪府,東大阪市,107-3,東石切町3丁目1番5号,masked,34.6832221,135.6538447
大阪府,東大阪市,107-4,東石切町4丁目6番,今池グラウンド 北側,34.6847031,135.6510602
大阪府,東大阪市,107-5,東石切町4丁目13番31号,ふれあいルーム 東側,34.6867793,135.6534507
大阪府,東大阪市,107-6,東石切町6丁目6番,桂川児童遊園 東側,34.6876825,135.6510441
大阪府,東大阪市,107-7,日下町1丁目6番,水道局日下中区配水池 南側,34.6879812,135.6550768
大阪府,東大阪市,108-1,上石切町2丁目8番,石切東小学校 東側,34.6856631,135.6579123
大阪府,東大阪市,108-2,上石切町1丁目1209番地,上石切モータープール 西側,34.6808459,135.6533158
大阪府,東大阪市,108-3,上石切町1丁目6-48,東石切会館別館 西側前 東側,34.6824317,135.6536605
大阪府,東大阪市,108-4,上石切町2丁目1番,朝日プラザ生駒西C棟 西側前 東側,34.6842418,135.6549944
大阪府,東大阪市,108-5,上石切町2丁目9番,朝日プラザ生駒西D棟 西側前 東側,34.6858355,135.6563789
大阪府,東大阪市,108-6,上石切町2丁目8番,石切東小学校 北側,34.6860601,135.6579284
大阪府,東大阪市,108-7,上石切町2丁目1番,石切駅E自転車駐車場 西側,34.6843918,135.6543936
大阪府,東大阪市,109-1,西石切町1丁目3番,額田グランド 南側,34.6791447,135.6453649
大阪府,東大阪市,109-2,西石切町1丁目7番,老人憩いの広場 西側,34.6822744,135.6435064
大阪府,東大阪市,109-3,西石切町1丁目7番,西石切第一公園 南側,34.6817671,135.6441019
大阪府,東大阪市,109-4,西石切町3丁目8番19号,masked,34.6818374,135.638934
大阪府,東大阪市,109-5,西石切町3丁目8番39号,西石切会館 東側,34.682275,135.6400042
大阪府,東大阪市,109-6,西石切町3丁目9番,新石切駅第2自転車駐車場 東側,34.6800087,135.641885
大阪府,東大阪市,109-7,西石切町7丁目1番,辰野枚岡第二ビル付帯駐車場 南側,34.6819141,135.6350835
大阪府,東大阪市,110-1,新町19番,二藤レール(株)第四工場 南側,34.6708819,135.6350556
大阪府,東大阪市,110-2,新町19番,二藤レール(株)第四工場 東側,34.6714995,135.6353882
大阪府,東大阪市,110-3,宝町1番,宝町南公園 北側,34.6741181,135.6399175
大阪府,東大阪市,110-4,南荘町2番26号,枚岡西小学校 西側,34.6743518,135.6409613
大阪府,東大阪市,110-5,南荘町2番26号,枚岡西小学校 南側,34.6740165,135.6415675
大阪府,東大阪市,110-6,東山町1番,木ノ本伸線(株) 南側,34.6767378,135.6414856
大阪府,東大阪市,110-7,南荘町14番2号,東消防署額田出張所 北側,34.6766924,135.6447966
大阪府,東大阪市,110-8,南荘町14番20号,額田会館 東側,34.6761839,135.6460309
大阪府,東大阪市,111-1,山手町4番,額田駅前自転車駐車場 西側,34.6758922,135.6515106
大阪府,東大阪市,111-2,山手町6番,額田山荘児童遊園 東側,34.6780176,135.652779
大阪府,東大阪市,111-3,額田町5番,若宮公園 南側,34.6788758,135.649647
大阪府,東大阪市,111-4,東豊浦町4番2号,メゾン寿 西側前 東側フェンス 東側,34.6720679,135.6498736
大阪府,東大阪市,111-5,立花町12番28号,枚岡東小学校 北側,34.674714,135.6499521
大阪府,東大阪市,111-6,立花町12番28号,枚岡東小学校プール 北側,34.6735096,135.6501077
大阪府,東大阪市,111-7,豊浦町5番,枚岡中央公園 北側,34.6724538,135.6467179
大阪府,東大阪市,111-8,豊浦町9番,楠丸池公園 東側,34.6714732,135.6484502
大阪府,東大阪市,112-1,出雲井町2番,枚岡駅前交番(神社境内) 東側,34.6699652,135.6487265
大阪府,東大阪市,112-2,出雲井町6番,シャルマンコーホ枚岡公園H棟西側空地 東側,34.6678486,135.6492125
大阪府,東大阪市,112-3,箱殿町8番25号,枚岡中学校 東側,34.6713165,135.6437987
大阪府,東大阪市,112-4,箱殿町8番10号,枚岡幼稚園 南側,34.6705367,135.6433543
大阪府,東大阪市,112-5,箱殿町8番25号,枚岡中学校 西側,34.6713782,135.6418997
大阪府,東大阪市,112-6,箱殿町8番25号,枚岡中学校 南側,34.6706767,135.6420124
大阪府,東大阪市,112-7,鳥居町9番8号,法定外水路(豊浦川)沿い柵 北側,34.6703682,135.6448415
大阪府,東大阪市,112-8,鷹殿町18番1号,枚岡樟風高校 北側,34.6697756,135.6362637
大阪府,東大阪市,113-1,河内町1番1号,縄手北中学校 南側,34.6651642,135.6439542
大阪府,東大阪市,113-2,河内町1番1号,縄手北中学校 北側,34.6665672,135.644158
大阪府,東大阪市,113-3,河内町2番6号,縄手東小学校 西側,34.6670012,135.6451793
大阪府,東大阪市,113-4,五条町9番45号,五条老人センター 南側,34.6670473,135.6487292
大阪府,東大阪市,113-5,五条町3番5号,masked,34.6650777,135.64746
大阪府,東大阪市,113-6,五条町6番17号,五条会館 西側,34.6660678,135.6478264
大阪府,東大阪市,114-1,鷹殿町1番2号,市立東体育館 東側,34.6682217,135.6402155
大阪府,東大阪市,114-2,鷹殿町18番1号,枚岡樟風高校 西側,34.6692594,135.6354108
大阪府,東大阪市,114-3,鷹殿町20番,恵生会病院 西側駐車場 西側,34.6700406,135.6346104
大阪府,東大阪市,114-4,喜里川町4番20号,masked,34.6658663,135.6410329
大阪府,東大阪市,114-5,喜里川町10番2号,masked,34.6667725,135.6417995
大阪府,東大阪市,114-6,喜里川町11番1号,縄手北中学校 南水路 南側,34.6652805,135.6432994
大阪府,東大阪市,114-7,鷹殿町25番,鷹殿町交差点西の里道 南側,34.6679368,135.6337507
大阪府,東大阪市,115-1,旭町2番4号,縄手北小学校 北側,34.6667865,135.6395197
大阪府,東大阪市,115-2,旭町2番4号,縄手北小学校 南側,34.6658026,135.6393426
大阪府,東大阪市,115-3,旭町21番3号,瓢箪山マンション 東側,34.6675014,135.6376679
大阪府,東大阪市,115-4,旭町21番3号,瓢箪山マンション 南側,34.6668175,135.6373299
大阪府,東大阪市,115-5,昭和町9,旭町児童遊園 北側,34.6648235,135.6386391
大阪府,東大阪市,115-6,昭和町21番8号,泉屋第2駐車場 西側,34.6631203,135.6348469
大阪府,東大阪市,115-7,桜町9-5,白鳩チルドレンセンター東大阪 東側,34.6626067,135.6347013
大阪府,東大阪市,116-1,新池島町3丁目11番8号,関西電力(株) 中河内変電所 南側,34.65555,135.6265914
大阪府,東大阪市,116-2,新池島町4丁目4,新池島ポンプ場 西側,34.6616567,135.6262105
大阪府,東大阪市,116-3,新池島町1丁目1番,長門川堤防 北より 北側,34.6612328,135.632574
大阪府,東大阪市,116-4,新池島町4丁目3番,新池島北児童遊園 西側,34.661913,135.6281846
大阪府,東大阪市,116-5,新池島町1丁目,長門川堤防 南より 東側,34.6562872,135.632555
大阪府,東大阪市,116-6,新池島町2丁目11番,新池島児童遊園 南側,34.6586202,135.6304884
大阪府,東大阪市,116-7,新池島町4丁目,新池島北児童遊園 北側,34.6613445,135.6281823
大阪府,東大阪市,116-8,若草町7番22号,masked,34.6590266,135.6330389
大阪府,東大阪市,117-1,昭和町4番,瓢箪山駅南駅前広場 植込み 北側,34.6618941,135.6398622
大阪府,東大阪市,117-2,神田町2番,瓢箪山駅前第1自転車駐車場 南側,34.6608963,135.6393319
大阪府,東大阪市,117-3,神田町10番,神田広場 西側,34.6616617,135.6364052
大阪府,東大阪市,117-4,神田町10番14号,東大阪市シルバー人材センター 北側,34.66188,135.6370717
大阪府,東大阪市,117-5,神田町10番,神田広場 南側,34.6613043,135.6366573
大阪府,東大阪市,117-6,御幸町3-34,介護老人保健施設 五十忠 南側,34.6580179,135.6392518
大阪府,東大阪市,117-7,御幸町5番,大ハモータープール 北側,34.6599499,135.6380537
大阪府,東大阪市,118-1,四条町12番36号,フクダ精工株() 西側,34.6587976,135.6425855
大阪府,東大阪市,118-2,瓢箪山町3番16号,喫茶メイプル駐車場 東側,34.661133,135.6408497
大阪府,東大阪市,118-3,四条町12番,四条町第一公園 西側,34.6579714,135.6431072
大阪府,東大阪市,118-4,瓢箪山町5番19号,(有)小野製作所 南側,34.6599287,135.6413948
大阪府,東大阪市,118-5,四条町12番8号,(株)ロブテックス本社 東側,34.6592149,135.6439472
大阪府,東大阪市,118-6,四条町19番,柄池公園 西側,34.6597224,135.6451448
大阪府,東大阪市,118-7,四条町19番,柄池公園 北側,34.6599254,135.6454559
大阪府,東大阪市,119-1,南四条町1番1号,東部地域仮設庁舎 北側,34.6584613,135.6402089
大阪府,東大阪市,119-2,南四条町3番26号,縄手中学校 東側,34.6562999,135.6411927
大阪府,東大阪市,119-3,南四条町1番1号,東部地域仮設庁舎 南側,34.6579812,135.6400897
大阪府,東大阪市,119-4,南四条町3番2号,縄手小学校 北側,34.6572065,135.6402139
大阪府,東大阪市,119-5,南四条町3番2号,縄手小学校 西側,34.6562975,135.6396936
大阪府,東大阪市,119-6,南四条町3番26号,縄手中学校 南側,34.6556424,135.6397819
大阪府,東大阪市,119-7,南四条町10番18号,masked,34.6562624,135.642883
大阪府,東大阪市,120-1,上四条町18-12,市立郷土博物館 駐車場 西側,34.6606957,135.6512089
大阪府,東大阪市,120-2,上四条町10番26号,masked,34.6563245,135.6475393
大阪府,東大阪市,120-3,上四条町10番,大池公園 北側,34.6573567,135.6461663
大阪府,東大阪市,120-4,上四条町10番,大池公園 南側,34.6567831,135.6460268
大阪府,東大阪市,120-5,上四条町14番25号,上四条小学校 南側,34.6582632,135.6470484
大阪府,東大阪市,120-6,上四条町14番25号,上四条小学校 南側,34.6581705,135.6482822
大阪府,東大阪市,120-7,上四条町14番25号,上四条小学校体育館 東側,34.6589516,135.6475741
大阪府,東大阪市,121-1,池島町2丁目6番3号,慈眼寺 東側,34.6520887,135.6328757
大阪府,東大阪市,121-2,池島町2丁目6番3号,慈眼寺 西側,34.6520622,135.6325914
大阪府,東大阪市,121-3,池島町3丁目5番,池島学園(前期) 西側,34.6530091,135.6304321
大阪府,東大阪市,121-4,池島町3丁目6番30号,池島学園(前期) 南側,34.6528991,135.6308336
大阪府,東大阪市,121-5,池島町3丁目6番30号,池島学園(前期) 北側,34.6538214,135.6308765
大阪府,東大阪市,121-6,池島町8丁目7番,池島学園(後期)南側 南側,34.652347,135.6287235
大阪府,東大阪市,121-7,池島町8丁目7番,池島学園(後期)北側 北側,34.6532163,135.6289434
大阪府,東大阪市,122-1,下六万寺町3丁目3番,下六万寺墓地 西側,34.6541891,135.6363301
大阪府,東大阪市,122-2,六万寺町2丁目3番17号,くすは縄手南校(前期) 北側,34.6510842,135.6412312
大阪府,東大阪市,122-3,下六万寺町3丁目,長門川北側(六万寺中交差点付近) 北側,34.6543436,135.6391474
大阪府,東大阪市,122-4,六万寺町2丁目3番17号,くすは縄手南校(前期) 南側,34.6500913,135.6405821
大阪府,東大阪市,122-5,下六万寺町1丁目3番,六万寺公園 南側,34.6506757,135.6380466
大阪府,東大阪市,122-6,下六万寺町1丁目10番40号,シティパーク瓢箪山 北側,34.6522117,135.635073
大阪府,東大阪市,122-7,下六万寺町2丁目4番,長門川南側(下六万寺墓地東南付近) 南側,34.6541585,135.6378639
大阪府,東大阪市,123-1,六万寺町2丁目3番17号,くすは縄手南校(前期) 東側,34.6502766,135.641993
大阪府,東大阪市,123-2,六万寺町3丁目4番,縄手中学校プール 南側,34.6544694,135.6421302
大阪府,東大阪市,123-3,六万寺町1丁目5番37号,永塚工業(株) 南側,34.650277,135.6444308
大阪府,東大阪市,123-4,六万寺町1丁目5番37号,永塚工業(株) 西側,34.6511552,135.644243
大阪府,東大阪市,123-5,六万寺町1丁目13,桜井児童遊園 南側,34.6519713,135.6468029
大阪府,東大阪市,123-6,六万寺町2丁目3番18号,縄手南こども園 北側,34.6514844,135.6421225
大阪府,東大阪市,123-7,六万寺町3丁目4番,縄手中学校グランド 北側,34.6556785,135.6413684
大阪府,東大阪市,123-8,六万寺町3丁目6番14号,枚岡カトリック幼稚園 東側,34.6555019,135.6429247
大阪府,東大阪市,124-1,横小路町4丁目4,くすは縄手南校(後期) 第3グランド 南側,34.6481959,135.6395461
大阪府,東大阪市,124-2,横小路町3丁目4番,masked,34.6484902,135.6421243
大阪府,東大阪市,124-3,横小路町3丁目12番,くすは縄手南校(後期) 北側,34.6452249,135.6412573
大阪府,東大阪市,124-4,横小路町2丁目4番,masked,34.6486947,135.6434152
大阪府,東大阪市,124-5,横小路町4丁目9番29号,和田金属工業(株) 南側,34.646169,135.639401
大阪府,東大阪市,124-6,横小路町4丁目4番,丸昌化学工業(株) 駐車場 西側,34.6489947,135.6385403
大阪府,東大阪市,124-7,横小路町4丁目3番30号,日高鉄工(株) 南側,34.6480425,135.6403839
大阪府,東大阪市,201-1,鴻池徳庵町4番,木村商事(株)南側五箇水路 北側,34.6968417,135.5860093
大阪府,東大阪市,201-2,鴻池徳庵町2番,東大阪市徳庵第二公園 南側,34.6976942,135.5877236
大阪府,東大阪市,201-3,鴻池徳庵町6番,個人ガレージ 北側,34.6983555,135.5852687
大阪府,東大阪市,201-4,鴻池徳庵町7番,masked,34.697302,135.5844182
大阪府,東大阪市,201-5,鴻池徳庵町8番,ユタカモータープール南側五箇水路 北側,34.6968638,135.5833654
大阪府,東大阪市,202-1,西鴻池町1丁目1番,鴻池新田駅北側タクシー乗場前緑地 東側,34.6989944,135.5980967
大阪府,東大阪市,202-2,西鴻池町1丁目1番,鴻池新田駅 西側駐輪場 南側,34.6989151,135.5966805
大阪府,東大阪市,202-3,西鴻池町1丁目2番25号,鴻池生活科学専門学校 北側,34.6995316,135.5976121
大阪府,東大阪市,202-4,西鴻池町2丁目5番33号,城東工科高等学校 東側,34.6986403,135.5956769
大阪府,東大阪市,202-5,西鴻池町2丁目5番33号,城東工科高等学校 南側,34.6977847,135.5951512
大阪府,東大阪市,202-6,鴻池本町6番地,鴻池本町公園 東側,34.6994994,135.6006299
大阪府,東大阪市,202-7,鴻池元町2番1号,鴻池グラナリーコート 西側,34.698545,135.5988542
大阪府,東大阪市,203-1,中鴻池町2丁目7番33号,西部(株) 西側,34.6956834,135.5964845
大阪府,東大阪市,203-2,中鴻池町3丁目9番,中鴻池住宅9号棟東側歩道柵 西側,34.6963741,135.6028496
大阪府,東大阪市,203-3,中鴻池町3丁目10番,寺嶋公園 西側,34.696287,135.6011432
大阪府,東大阪市,203-4,南鴻池町1丁目3番18号,成和小学校 東側,34.6946422,135.6009292
大阪府,東大阪市,203-5,南鴻池町1丁目3番18号,成和小学校 西側,34.6944349,135.5997597
大阪府,東大阪市,203-6,南鴻池町1丁目8番,西楠風荘公園 南側,34.6936968,135.5987409
大阪府,東大阪市,203-7,南鴻池町2丁目12番地,東楠風荘公園 南側,34.6941202,135.6034512
大阪府,東大阪市,203-8,東鴻池町4丁目6番,鴻池児童遊園 西側,34.6939995,135.6059259
大阪府,東大阪市,204-1,東鴻池町1丁目10番8号,東鴻池住宅 4号棟 西側,34.6965128,135.6122194
大阪府,東大阪市,204-2,東鴻池町5丁目7番20号,鴻池東小学校正門 東側,34.6958064,135.6114063
大阪府,東大阪市,204-3,鴻池町1丁目3番,東大阪鴻池住宅 12号棟 北側駐車 北側,34.7004819,135.6044175
大阪府,東大阪市,204-4,鴻池町1丁目16番,東大阪鴻池住宅 1号棟 南側駐車場 南側,34.6982948,135.6045058
大阪府,東大阪市,204-5,鴻池町1丁目18番,東大阪鴻池住宅 鴻北公園 北側,34.7001438,135.6051205
大阪府,東大阪市,204-6,鴻池町1丁目19番,鴻北児童遊園 南側,34.7001362,135.6061171
大阪府,東大阪市,204-7,鴻池町1丁目27番,白鴻園児童遊園 北側,34.6982736,135.6058471
大阪府,東大阪市,204-8,鴻池町2丁目6番37号,(株)三共製作所 東側駐車場 東側,34.6969643,135.6070276
大阪府,東大阪市,205-1,加納5丁目8番,加納北公園 東側,34.699015,135.6311878
大阪府,東大阪市,205-2,加納7丁目22番,アメリア 駐車場東側 東側,34.7000226,135.6253027
大阪府,東大阪市,205-3,加納7丁目26番,加納北第3公園 南側,34.7009903,135.6254818
大阪府,東大阪市,205-4,加納7丁目20番,加納公園 東側,34.6985046,135.6256407
大阪府,東大阪市,205-5,加納7丁目25番8号,アメリア管理棟 西側,34.7006771,135.622319
大阪府,東大阪市,205-6,加納7丁目26番,加納北第2公園 南側,34.7008514,135.6243794
大阪府,東大阪市,205-7,加納8丁目26番,masked,34.6999353,135.6202184
大阪府,東大阪市,206-1,加納1丁目1番8号,西濃運輸株式会社前 西側,34.6938027,135.6183615
大阪府,東大阪市,206-2,川田2丁目22番4号,加納西第2公園 北側,34.6921097,135.6202893
大阪府,東大阪市,206-3,加納3丁目6番8号,加納小学校 南側,34.6944895,135.6248909
大阪府,東大阪市,206-4,加納2丁目24番24号,加納水利組合事務所 南側,34.6948079,135.6231345
大阪府,東大阪市,206-5,加納3丁目6番8号,加納小学校 西側,34.6949394,135.6244671
大阪府,東大阪市,206-6,加納7丁目3番,大東線No.13号 鉄塔 北側,34.697496,135.6219693
大阪府,東大阪市,206-7,加納3丁目6番8号,加納小学校 北側,34.6957509,135.6251699
大阪府,東大阪市,207-1,三島3丁目11番,三島西公園 東側,34.6933679,135.5945306
大阪府,東大阪市,207-2,三島1丁目28番,三島東公園 東側,34.6931454,135.5987611
大阪府,東大阪市,207-3,新庄2丁目7番12号,masked,34.6916576,135.6009179
大阪府,東大阪市,207-4,新庄南1番33号,盾津中学校 東側,34.6868495,135.6064367
大阪府,東大阪市,207-5,新庄2丁目18番6号,masked,34.6917383,135.6032638
大阪府,東大阪市,207-6,新庄2丁目3番3号,masked,34.6893559,135.6019033
大阪府,東大阪市,207-7,新庄南5番,新庄南(本庄東)公園 北側,34.6878369,135.6037407
大阪府,東大阪市,207-8,新庄南1番33号,盾津中学校 北側,34.6872553,135.6061685
大阪府,東大阪市,208-1,本庄1丁目8番2号,弥栄小学校 北側,34.6827675,135.609087
大阪府,東大阪市,208-2,本庄1丁目8番2号,弥栄小学校 南側,34.6820264,135.6095376
大阪府,東大阪市,208-3,角田1丁目13番,角田公園 北側,34.6809584,135.6177849
大阪府,東大阪市,208-4,箕輪3丁目1番,箕輪公園 南側,34.6851677,135.6135452
大阪府,東大阪市,208-5,角田2丁目3番8号,角田総合老人センター 東側,34.6823645,135.6136191
大阪府,東大阪市,208-6,本庄1丁目8番2号,弥栄小学校 西側,34.6820661,135.6086257
大阪府,東大阪市,208-7,中野1丁目18番4号,中野公民館 西側,34.6808665,135.6091999
大阪府,東大阪市,208-8,横枕8番6号,masked,34.6802942,135.607842
大阪府,東大阪市,209-1,東鴻池町2丁目3番,東鴻池第2住宅 東側,34.6912827,135.6172662
大阪府,東大阪市,209-2,川田2丁目1番,北宮小学校プール 西側,34.6892606,135.619557
大阪府,東大阪市,209-3,川田2丁目3番7号,北宮小学校 西側,34.6885769,135.6197494
大阪府,東大阪市,209-4,川田3丁目2番26号,盾津東中学校 北側,34.6902083,135.6246471
大阪府,東大阪市,209-5,川田3丁目2番26号,盾津東中学校 西側,34.68911,135.6237351
大阪府,東大阪市,209-6,吉原2丁目2番,吉原公園 北側,34.6861625,135.6223363
大阪府,東大阪市,209-7,中新開1丁目11番20号,諏訪神社 西側,34.6827627,135.6184854
大阪府,東大阪市,209-8,今米1丁目4番,今米公園 東側,34.6811319,135.6257751
大阪府,東大阪市,210-1,菱江2丁目2番,菱江南公園 北側,34.675246,135.6113505
大阪府,東大阪市,210-2,菱江3丁目6番,菱江中公園 北側,34.6773174,135.6157982
大阪府,東大阪市,210-3,菱江5-2-34,東大阪市立障害児者支援センターレ 西側,34.6710736,135.6081609
大阪府,東大阪市,210-4,菱江3丁目6番,菱江中公園 南側,34.6768497,135.615868
大阪府,東大阪市,210-5,菱江1丁目13番25号,三菱ふそう自動車販売 南側,34.671334,135.6137971
大阪府,東大阪市,210-6,菱江1丁目28番,菱江東公園 北側,34.6739492,135.6159219
大阪府,東大阪市,210-7,菱江2丁目2番,菱江南公園 西側,34.6746813,135.6108731
大阪府,東大阪市,211-1,吉田本町1丁目6番10号,英田中学校 西側,34.6723065,135.6219992
大阪府,東大阪市,211-2,島之内2丁目6番,島之内公園 西側,34.6767801,135.619576
大阪府,東大阪市,211-3,島之内2丁目11番1,東大阪島之内住宅 1号棟 東側,34.6783191,135.6212043
大阪府,東大阪市,211-4,東大阪市吉田本町1-10-30,しまのうち保育園 南側,34.674823,135.6215442
大阪府,東大阪市,211-5,吉田本町1丁目6番10号,英田中学校 北側,34.6730873,135.6224713
大阪府,東大阪市,211-6,吉田本町1丁目8番,吉田春日児童遊園 西側,34.6733463,135.6208115
大阪府,東大阪市,211-7,吉田本町1丁目8番,吉田春日児童遊園 北側,34.6741139,135.6213909
大阪府,東大阪市,211-8,島之内2丁目8番,東大阪島之内住宅 9号棟 西側 西側,34.6771718,135.6207895
大阪府,東大阪市,212-1,松原1丁目1番27号,英田北小学校 北側,34.6738431,135.6259772
大阪府,東大阪市,212-2,松原1丁目1番6号,英田公民分館北分室 南側,34.6717071,135.625868
大阪府,東大阪市,212-3,松原2丁目6番32号,フジ矢(株)前 南側,34.672144,135.6315534
大阪府,東大阪市,212-4,水走1丁目5番34号,masked,34.6742176,135.6300831
大阪府,東大阪市,212-5,水走1丁目6番6号,(株)カナモト 東側,34.6758103,135.630565
大阪府,東大阪市,212-6,水走2丁目15番45号,大津神社 西側,34.6795785,135.6268684
大阪府,東大阪市,212-7,松原1丁目1番27号,英田北小学校 西側,34.6733799,135.6257251
大阪府,東大阪市,212-8,水走1丁目17番,Honda Cars大阪水走店 駐車場 西側,34.6798927,135.629409
大阪府,東大阪市,213-1,岩田町6丁目5番35号,masked,34.666546,135.6027447
大阪府,東大阪市,213-2,岩田町6丁目6番,岩田西公園 西側,34.6677997,135.6037085
大阪府,東大阪市,213-3,西岩田1丁目1番,岩田西小学校 北側,34.6664536,135.6051196
大阪府,東大阪市,213-4,西岩田1丁目11-314-4,西岩田自治会館 北側,34.6661864,135.602492
大阪府,東大阪市,213-5,西岩田4丁目4番31号,西岩田第一公園 東側,34.666792,135.6003352
大阪府,東大阪市,213-6,西岩田四丁目7,西岩田第二公園 西側,34.6695891,135.5992431
大阪府,東大阪市,213-7,西岩田4丁目1番36号,ナミテイ株式会社 北側,34.6705722,135.6025417
大阪府,東大阪市,213-8,西岩田4丁目4番38号,休日診療所 南側,34.6666703,135.5993817
大阪府,東大阪市,214-1,稲葉1丁目1番9号,消防局北側フェンス 北側,34.669658,135.6099129
大阪府,東大阪市,214-2,稲葉1丁目1番9号,消防局西側フェンス 西側,34.6694043,135.6097118
大阪府,東大阪市,214-3,菱屋東2丁目5番,菱屋東第1公園 東側,34.6690141,135.6091665
大阪府,東大阪市,214-4,菱屋東2丁目5番,菱屋東第1公園 西側,34.6690935,135.6085549
大阪府,東大阪市,214-5,菱屋東2丁目5番,菱屋東第1公園 北側,34.6692722,135.6088687
大阪府,東大阪市,214-6,菱屋東2丁目7番,ロイヤルホスト駐車場 西側,34.6704209,135.6091398
大阪府,東大阪市,214-7,菱屋東2丁目11番,八劔神社 北側玉垣,34.6700368,135.6074519
大阪府,東大阪市,215-1,岩田4丁目8番,岩田公園 南側,34.6634777,135.6059968
大阪府,東大阪市,215-2,岩田町1丁目12番,岩田東公園 北側,34.6647035,135.6096538
大阪府,東大阪市,215-3,岩田町4丁目4,若江岩田駅前ロータリー 北側,34.6633508,135.6078036
大阪府,東大阪市,215-4,岩田町4丁目8番,岩田公園 北側,34.6638042,135.6062301
大阪府,東大阪市,215-5,岩田町5丁目7番36号,東大阪市消費生活センター 西側,34.6661352,135.6095453
大阪府,東大阪市,215-6,岩田町5丁目12番,岩田西小学校 東側畑 南側,34.6650421,135.6053916
大阪府,東大阪市,215-7,岩田町5丁目16番50号,西野モータープール 東側,34.6683587,135.60716
大阪府,東大阪市,216-1,稲葉1丁目9番24号,masked,34.6682362,135.6152662
大阪府,東大阪市,216-2,稲葉1丁目12番1号,玉川小学校 西側,34.6691075,135.6122971
大阪府,東大阪市,216-3,稲葉1丁目12番1号,玉川小学校 南側,34.6684986,135.6125948
大阪府,東大阪市,216-4,稲葉1丁目11番,稲葉市民グラウンド 北側,34.6702147,135.6134042
大阪府,東大阪市,216-5,稲葉3丁目1番32号,masked,34.6667711,135.6154169
大阪府,東大阪市,216-6,稲葉1丁目2番12号,稲葉第3公園 東側,34.6685503,135.6104242
大阪府,東大阪市,216-7,菱屋東1丁目4番22号,masked,34.6653402,135.6146392
大阪府,東大阪市,216-8,稲葉2丁目156番地,masked,34.6684361,135.6166976
大阪府,東大阪市,217-1,稲葉3丁目,花園駅前ロータリー 南側,34.6630538,135.6170731
大阪府,東大阪市,217-2,吉田1丁目5番27号,英田公民分館分室 南側,34.6643071,135.6195757
大阪府,東大阪市,217-3,吉田2丁目5番,吉田公園 西側,34.669504,135.6184914
大阪府,東大阪市,217-4,吉田2丁目6番22号,春日神社 玉垣 東側,34.6666244,135.6201833
大阪府,東大阪市,217-5,吉田2丁目9番26号,masked,34.6651765,135.6222863
大阪府,東大阪市,217-6,吉田2丁目10番,天理教前モーターブール 南側,34.6655938,135.6205784
大阪府,東大阪市,217-7,吉田3丁目2番43号,masked,34.6671344,135.6200693
大阪府,東大阪市,218-1,吉田5丁目15番16号,英田南小学校 西側,34.6664637,135.6229408
大阪府,東大阪市,218-2,吉田4丁目4番29号,日本鋲螺(株) 東側,34.6692438,135.6220765
大阪府,東大阪市,218-3,吉田4丁目4番32号,日本鋲螺(株) 北側,34.6691333,135.6211582
大阪府,東大阪市,218-4,吉田5丁目15番16号,英田南小学校 北側,34.6667328,135.6231232
大阪府,東大阪市,218-5,吉田6丁目1番,東花園駅前広場(ロータリー北側) 南側,34.6631659,135.6263238
大阪府,東大阪市,218-6,吉田6丁目1番,東花園駅前広場 西側,34.6629144,135.6259482
大阪府,東大阪市,218-7,吉田6丁目2番,新家第1公園 北側,34.6641403,135.6262364
大阪府,東大阪市,218-8,吉田6丁目2番,新家第1公園 南側,34.6637388,135.6266548
大阪府,東大阪市,219-1,吉田7丁目4番,新家第2公園 南側,34.6644607,135.6291329
大阪府,東大阪市,219-2,吉田7丁目8番,吉田東児童遊園 南側,34.6660245,135.6292279
大阪府,東大阪市,219-3,吉田8丁目2番,吉田8丁目信号前 緑地 西側,34.6647915,135.6300176
大阪府,東大阪市,219-4,吉田7丁目3番,メゾン光陽斜め前 緑地 東側,34.6633344,135.6294477
大阪府,東大阪市,219-5,吉田8丁目3番,新家第3公園 東側,34.6648049,135.6311263
大阪府,東大阪市,219-6,吉田8丁目4番,旧吉田8丁目バス停前 緑地 東側,34.6661938,135.6306628
大阪府,東大阪市,219-7,吉田8丁目7番,旧ヤマザキパン店前 緑地 北側,34.6669125,135.6311349
大阪府,東大阪市,220-1,瓜生堂2丁目7番11号,岡本化学工業所 南側,34.6595699,135.6048176
大阪府,東大阪市,220-2,岩田町3丁目2番,天理教西成大教会 西側,34.6622383,135.6074966
大阪府,東大阪市,220-3,瓜生堂1丁目6番1号,玉美小学校 南側,34.6615719,135.6051869
大阪府,東大阪市,220-4,瓜生堂1丁目6番1号,玉美小学校 西側,34.661583,135.6038405
大阪府,東大阪市,220-5,瓜生堂1丁目8番10号,masked,34.6617041,135.6031661
大阪府,東大阪市,220-6,瓜生堂1丁目13番,若江岩田パークマンション前 北側植 北側,34.6625328,135.5994736
大阪府,東大阪市,220-7,瓜生堂1丁目11番,スーパーマルハチ北側 植え込み 北側,34.662554,135.6001525
大阪府,東大阪市,220-8,瓜生堂2丁目26番,瓜生堂公園 南側,34.6606145,135.6045434
大阪府,東大阪市,221-1,花園本町1丁目3番29号,花園北小学校 東側,34.661189,135.6197313
大阪府,東大阪市,221-2,花園本町2丁目7番41号,花園小学校 西側,34.6582038,135.6188823
大阪府,東大阪市,221-3,花園本町1丁目8番,花園駅前南墓地 東側,34.6616841,135.6173549
大阪府,東大阪市,221-4,花園本町1丁目11番4号,masked,34.661214,135.6164483
大阪府,東大阪市,221-5,花園本町1丁目3番29号,花園北小学校 南側,34.6609728,135.6192083
大阪府,東大阪市,221-6,花園本町1丁目3番29号,花園北小学校 西側,34.661178,135.6185726
大阪府,東大阪市,221-7,花園西町1丁目18番6号,松葉幼稚園 東側,34.661242,135.6155167
大阪府,東大阪市,222-1,花園本町2丁目7番41号,花園小学校 北側,34.6582832,135.6198694
大阪府,東大阪市,222-2,東大阪市玉串町東1丁目1,市場児童遊園 西側,34.657328,135.619673
大阪府,東大阪市,222-3,花園本町2丁目5番,花園公園 東側,34.6597223,135.619707
大阪府,東大阪市,222-4,花園東町2丁目14番27号,masked,34.6610102,135.6220627
大阪府,東大阪市,222-5,花園東町2丁目16番,花園東町公園 東側,34.6601817,135.6232856
大阪府,東大阪市,222-6,花園東町3丁目1番25号,府立 花園高等学校 西側,34.6587485,135.6220752
大阪府,東大阪市,222-7,花園東町3丁目1番25号,府立 花園高等学校 東側,34.6587926,135.6244597
大阪府,東大阪市,222-8,玉串町東1丁目11番,東大阪玉串住宅1号棟 東側 東側,34.6569538,135.6207992
大阪府,東大阪市,223-1,若江本町1丁目1番18号,ハイマート若江2号棟駐車場 西側,34.6579898,135.6083521
大阪府,東大阪市,223-2,若江本町2丁目1番3号,忠霊塔 東側,34.6593304,135.6064142
大阪府,東大阪市,223-3,若江本町2丁目7番,若江本町北公園 南側,34.6586136,135.6042524
大阪府,東大阪市,223-4,若江本町3丁目5番29号,(株)極東製作所 西側,34.6572216,135.6064419
大阪府,東大阪市,223-5,若江北町2丁目2番2号,masked,34.6590157,135.602953
大阪府,東大阪市,223-6,若江北町3丁目1番7号,若江本町公園 南側,34.6569617,135.6030122
大阪府,東大阪市,223-7,若江本町2丁目7番,若江本町北公園 北側,34.6588916,135.6044026
大阪府,東大阪市,223-8,若江北町3丁目3番16号,若江幼稚園 南側,34.6546094,135.6034451
大阪府,東大阪市,224-1,若江東町2丁目3番,関西電力(株) 花園変電所 北側,34.658337,135.6128049
大阪府,東大阪市,224-2,若江東町2丁目3番,関西電力(株) 花園変電所 西側,34.6576972,135.611901
大阪府,東大阪市,224-3,玉串町西1丁目4番52号,花園中学校 北側,34.6569045,135.6153763
大阪府,東大阪市,224-4,玉串町西1丁目4番52号,花園中学校 西側,34.6562691,135.6145233
大阪府,東大阪市,224-5,花園西町2丁目7番9号,新花西自治会館 南側,34.6583827,135.61574
大阪府,東大阪市,224-6,玉串町西1丁目4番,はなぞの生協診療所 西畑 南側,34.655316,135.6152398
大阪府,東大阪市,224-7,若江東町2丁目7番,ライオンズマンション若江東 南側,34.6551304,135.6122214
大阪府,東大阪市,225-1,若江南町5丁目1番10号,若江中学校 東側,34.6514388,135.6016214
大阪府,東大阪市,225-2,若江南町5丁目1番10号,若江中学校 南側,34.6508562,135.6004144
大阪府,東大阪市,225-3,若江南町5丁目1番10号,若江中学校 北側 西側,34.6520276,135.6005256
大阪府,東大阪市,225-4,若江南町2丁目1番,若江公園 北側,34.6545706,135.6047716
大阪府,東大阪市,225-5,若江南町5丁目1番10号,若江中学校 西側,34.6516947,135.5994917
大阪府,東大阪市,225-6,若江南町2丁目9番54号,若江小学校 南側,34.6537511,135.602182
大阪府,東大阪市,225-7,若江南町2丁目9番54号,若江小学校 北側,34.6546557,135.6022464
大阪府,東大阪市,226-1,花園本町2丁目7番41号,花園小学校 南側,34.6574812,135.6190634
大阪府,東大阪市,226-2,玉串元町2丁目4番23号,masked,34.6524855,135.6182264
大阪府,東大阪市,226-3,玉串元町1丁目7番16号,masked,34.653371,135.6183213
大阪府,東大阪市,226-4,玉串元町2丁目6番,masked,34.651386,135.6191781
大阪府,東大阪市,226-5,玉串町西2丁目4番12号,玉串小学校 南側,34.6527062,135.613647
大阪府,東大阪市,226-6,玉串町西2丁目4番12号,玉串小学校 東側,34.6531055,135.6153475
大阪府,東大阪市,226-7,玉串町西2丁目4番12号,玉串小学校 南側,34.6525495,135.6147118
大阪府,東大阪市,226-8,玉串町西3丁目1番,玉串西団地3号棟 南側道路 北側,34.6512669,135.6141299
大阪府,東大阪市,301-1,徳庵本町7番,橋本第一公園 南側,34.6946645,135.5826288
大阪府,東大阪市,301-2,稲田上町1丁目1番,JR徳庵駅 西側の北寄 西側,34.6931204,135.5816598
大阪府,東大阪市,301-3,稲田上町2丁目2番,近畿車輛(株) 南側,34.6937364,135.5843974
大阪府,東大阪市,301-4,稲田上町1丁目3番,JR徳庵駅前広場 植込 東側,34.6913528,135.5815048
大阪府,東大阪市,301-5,稲田上町2丁目6番,近畿車輛(株) 西側,34.6924622,135.5866346
大阪府,東大阪市,301-6,稲田上町2丁目6番,近畿車輛(株) 南側の西寄り 南側,34.6920674,135.5869752
大阪府,東大阪市,301-7,稲田上町2丁目6番,近畿車輛(株) 南側の東寄り 南側,34.6925372,135.5883887
大阪府,東大阪市,302-1,稲田新町1丁目3番,東大阪稲田住宅 ゲートボール場 東側,34.6909883,135.5848661
大阪府,東大阪市,302-2,稲田新町1丁目5番,東大阪稲田住宅 18号棟 東側,34.6893683,135.5847749
大阪府,東大阪市,302-3,七軒家6番,菱屋東公園 東側,34.685663,135.5925608
大阪府,東大阪市,302-4,七軒家6番,菱屋東公園 西側,34.6852836,135.5909193
大阪府,東大阪市,302-5,稲田新町3丁目11番32号,日本坩堝(株) 大阪工場 南側,34.6887454,135.590796
大阪府,東大阪市,302-6,七軒家6番,菱屋東公園 南側,34.6851226,135.5917535
大阪府,東大阪市,302-7,七軒家17番33号,楠根東小学校 東側,34.6864349,135.590873
大阪府,東大阪市,302-8,七軒家19番15号,平和興産(株) 西側 塀,34.6852953,135.5887581
大阪府,東大阪市,303-1,森河内西2丁目1番,新喜多公園 南側,34.6843847,135.5682364
大阪府,東大阪市,303-2,森河内西2丁目11番1号,市営住宅横の公園 西側,34.6861157,135.5712373
大阪府,東大阪市,303-3,森河内西2丁目32番1号,八幡神社 南側,34.6859456,135.567319
大阪府,東大阪市,303-4,森河内西2丁目1番,新喜多公園 北側,34.6842888,135.5688117
大阪府,東大阪市,303-5,森河内西2丁目11番,市営島町住宅 南側,34.6860187,135.5716834
大阪府,東大阪市,303-6,森河内西2丁目31番1号,フタバ学園(幼稚園) 南側,34.6856331,135.5670455
大阪府,東大阪市,303-7,森河内西2丁目32番1号,八幡神社 東側,34.6860669,135.5677106
大阪府,東大阪市,304-1,森河内東1丁目10番,布施公園 西側,34.6795094,135.5699917
大阪府,東大阪市,304-2,森河内東1丁目23番4号,阪口工作所(株) 南側,34.6816911,135.5673386
大阪府,東大阪市,304-3,森河内西1丁目7番30号,万代 森河内店 北側,34.6812481,135.5668856
大阪府,東大阪市,304-4,森河内東1丁目32番24号,森河内小学校 南側の東寄り 南側,34.6820971,135.5705384
大阪府,東大阪市,304-5,森河内東1丁目32番24号,森河内小学校 西側,34.6838219,135.5688057
大阪府,東大阪市,304-6,森河内東1丁目10番,布施公園野球場の東側 東側,34.6793727,135.5711129
大阪府,東大阪市,304-7,森河内東1丁目10番,布施公園 西側の北寄り 西側,34.6805417,135.5700132
大阪府,東大阪市,305-1,稲田本町1丁目1番43号,楠根小学校 東側,34.6828723,135.580223
大阪府,東大阪市,305-2,稲田本町2丁目6番34号,楠根中学校 西側,34.6844697,135.5800229
大阪府,東大阪市,305-3,稲田本町2丁目6番34号,楠根中学校 東側,34.6849351,135.5812487
大阪府,東大阪市,305-4,稲田本町2丁目6番34号,楠根中学校 西側,34.6855637,135.5801087
大阪府,東大阪市,305-5,楠根2丁目10番5号,稲田変電所 南側,34.6852702,135.5827526
大阪府,東大阪市,305-6,稲田本町1丁目1番43号,楠根小学校 東側,34.6837457,135.579531
大阪府,東大阪市,305-7,川俣1丁目12番,川俣公園 北側,34.6809166,135.5753178
大阪府,東大阪市,305-8,川俣3丁目4番,川俣ポンプ場 西側,34.6817485,135.5784066
大阪府,東大阪市,306-1,高井田中5丁目2番5号,高井田中学校 東側,34.677279,135.5698108
大阪府,東大阪市,306-2,高井田中5丁目2番5号,高井田中学校 西側,34.6774378,135.5686896
大阪府,東大阪市,306-3,高井田本通6丁目1番7号,高井田西小学校 北側,34.6764074,135.5672906
大阪府,東大阪市,306-4,高井田本通6丁目1番7号,高井田西小学校 西側,34.6758162,135.5669205
大阪府,東大阪市,306-5,高井田本通6丁目1番7号,高井田西小学校 南側,34.6755339,135.5679075
大阪府,東大阪市,306-6,高井田西3丁目4番12号,春日鋼業(株) 西側,34.6732091,135.5636165
大阪府,東大阪市,306-7,高井田西6丁目2番26号,高井田ポンプ場 北側,34.6791965,135.5640268
大阪府,東大阪市,307-1,西堤学園町2丁目6番14号,西堤小学校 南側,34.6739468,135.582436
大阪府,東大阪市,307-2,西堤西4番,長瀬川緑地公園 東側,34.6774402,135.5742845
大阪府,東大阪市,307-3,西堤本通東3丁目5番22号,日本郵便(株)東大阪寮 東側,34.6769635,135.5799258
大阪府,東大阪市,307-4,西堤本通西3丁目7番18号,(株)フィッシングタックルオンライン 東側,34.6764151,135.5788254
大阪府,東大阪市,307-5,西堤西4番,長瀬川緑地公園 東側,34.678499,135.5740672
大阪府,東大阪市,307-6,西堤学園町2丁目6番14号,西堤小学校 西側,34.674238,135.5809501
大阪府,東大阪市,307-7,西堤学園町2丁目6番14号,西堤小学校 北側,34.6747674,135.5810949
大阪府,東大阪市,307-8,御厨2丁目1番37号,梅田真空包装株式会社 第2工場 南側,34.6733644,135.5850963
大阪府,東大阪市,308-1,長田3丁目2番,長田東公園 西側,34.6765684,135.592347
大阪府,東大阪市,308-2,藤戸新田1丁目3番45号,藤戸小学校 東側,34.6744415,135.5874535
大阪府,東大阪市,308-3,長田東3丁目4番,長田北公園 西側,34.6804289,135.593683
大阪府,東大阪市,308-4,長田東3丁目4番,長田北公園 北側,34.6812229,135.5938815
大阪府,東大阪市,308-5,長田中3丁目2番,長田中公園 西側,34.6807341,135.5888945
大阪府,東大阪市,308-6,長田西2丁目3番,長田公園 南側,34.6776517,135.5859017
大阪府,東大阪市,308-7,藤戸新田1丁目2番,楠根川緑地公園 東側,34.6737393,135.5881406
大阪府,東大阪市,308-8,藤戸新田1丁目3番45号,藤戸小学校 南側 塀,34.6735239,135.5875823
大阪府,東大阪市,309-1,荒本北1丁目1番1号,東大阪市役所 南側,34.6789253,135.6009538
大阪府,東大阪市,309-2,荒本北1丁目3番,東大阪春宮住宅1号棟 北側 北側,34.6820551,135.5996958
大阪府,東大阪市,309-3,荒本北1丁目3番,東大阪春宮住宅 3号棟 北側 北側,34.6820463,135.5980543
大阪府,東大阪市,309-4,荒本北1丁目3番,東大阪春宮住宅 3号棟 西側 西側,34.6818081,135.597711
大阪府,東大阪市,309-5,荒本北1丁目2番,春宮公園 南側,34.6799678,135.6011022
大阪府,東大阪市,309-6,荒本北1丁目5番50号,JAグリーン大阪 本店 南側,34.6789513,135.5978103
大阪府,東大阪市,309-7,本庄中1丁目45番地,本庄南公園 南側,34.6823485,135.6020322
大阪府,東大阪市,310-1,新家2丁目11番,新家中町公園 西側,34.6732679,135.5937341
大阪府,東大阪市,310-2,新家1丁目4番,意岐部変電所 東側,34.6726324,135.5922281
大阪府,東大阪市,310-3,新家2丁目11番52号,意岐部小学校 北側,34.6735432,135.5945766
大阪府,東大阪市,310-4,新家2丁目11番52号,意岐部小学校 南側,34.6720256,135.5943889
大阪府,東大阪市,310-5,新家2丁目11番52号,意岐部小学校 東側,34.6733006,135.5950541
大阪府,東大阪市,310-6,御厨6丁目5-16,大阪精密機械(株) 北側,34.6714384,135.5917556
大阪府,東大阪市,310-7,新家東町3番46号,東意岐部変電所 東側,34.6756574,135.597346
大阪府,東大阪市,311-1,荒本5駅,荒本駅タクシーロータリー 北側植え 西側,34.6784752,135.6034738
大阪府,東大阪市,311-2,荒本1丁目8番15号,荒本住宅15棟 西側,34.6722596,135.604253
大阪府,東大阪市,311-3,荒本2丁目5番,荒本公園 南側,34.6735811,135.6033839
大阪府,東大阪市,311-4,菱屋東3丁目6番23号,荒本住宅24棟 西側,34.6740007,135.6055372
大阪府,東大阪市,311-5,荒本西2丁目2番,荒本西公園 西側,34.674188,135.5987067
大阪府,東大阪市,311-6,荒本西1丁目3番46号,意岐部東小学校 北側,34.6736143,135.5998703
大阪府,東大阪市,311-7,荒本西1丁目3番46号,意岐部東小学校 西側,34.6717834,135.5991193
大阪府,東大阪市,312-1,長栄寺15番26号,高井田東小学校 西側,34.6678189,135.570785
大阪府,東大阪市,312-2,高井田中1丁目5番16号,(旧)東大阪市療育センター 東側,34.6703463,135.5709421
大阪府,東大阪市,312-3,長栄寺12番30号,長栄中学校 西側,34.6666149,135.5692767
大阪府,東大阪市,312-4,長栄寺12番30号,長栄中学校 東側,34.6671487,135.5706607
大阪府,東大阪市,312-5,長栄寺15番26号,高井田東小学校 南側,34.6672851,135.5710881
大阪府,東大阪市,312-6,長栄寺15番26号,高井田東小学校 北側,34.6679954,135.571182
大阪府,東大阪市,312-7,長栄寺12番30号,長栄中学校 南側,34.6664825,135.5700384
大阪府,東大阪市,313-1,高井田元町1丁目5番1号,鴨高田神社 南側,34.6653576,135.5726825
大阪府,東大阪市,313-2,高井田元町1丁目5番1号,鴨高田神社 北側,34.6661363,135.5730473
大阪府,東大阪市,313-3,高井田元町1丁目13番17号,関西電力 永和変電所 東側,34.6676643,135.5726698
大阪府,東大阪市,313-4,高井田元町1丁目,近鉄河内永和 北側 南側,34.6644751,135.573514
大阪府,東大阪市,313-5,新喜多2丁目5番32号,新喜多中学校 南寄 東側,34.6727151,135.5755441
大阪府,東大阪市,313-6,菱屋西6丁目2番23号,グラフィック・アーツ・大阪 北側,34.66926,135.5770625
大阪府,東大阪市,313-7,菱屋西6丁目8番,小阪第2公園 東側,34.6678191,135.5800642
大阪府,東大阪市,313-8,新喜多2丁目5番32号,新喜多中学校 北寄 東側,34.673668,135.5752276
大阪府,東大阪市,314-1,御厨栄町4丁目1番10号,大阪商業大学 東側,34.6672156,135.5868688
大阪府,東大阪市,314-2,御厨中1丁目3番,御厨公園 北側,34.6687857,135.5858952
大阪府,東大阪市,314-3,御厨1丁目4番29号,天神社 南側,34.6718659,135.5848933
大阪府,東大阪市,314-4,御厨中1丁目3番,御厨公園 南側,34.6684018,135.5857342
大阪府,東大阪市,314-5,御厨栄町2丁目12番2号,栄町公園 西側,34.6683739,135.5824746
大阪府,東大阪市,314-6,御厨栄町4丁目1番10号,大阪商業大学 北側,34.6674715,135.5858602
大阪府,東大阪市,314-7,御厨栄町4丁目1番10号,大阪商業大学 南側,34.6654022,135.5853828
大阪府,東大阪市,314-8,御厨栄町4丁目1番16号,大阪府中河内府税事務所 北側,34.667264,135.5835457
大阪府,東大阪市,315-1,御厨2丁目3番4号,東大阪市文化創造館 南側,34.6655297,135.5903579
大阪府,東大阪市,315-2,御厨南1丁目4番,大阪商業大学高等学校 西側,34.6659199,135.5870207
大阪府,東大阪市,315-3,御厨南1丁目4番,大阪商業大学高等学校テニスコート 東側,34.6667053,135.5886998
大阪府,東大阪市,315-4,御厨南1丁目4番,大阪商業大学高等学校体育館 南側,34.6662861,135.5880882
大阪府,東大阪市,315-5,御厨南1丁目4番,大阪商業大学高等学校 南側,34.6658273,135.5873426
大阪府,東大阪市,315-6,御厨中2丁目1番,布施運輸(株) 西隣畑 北側,34.6681246,135.5904842
大阪府,東大阪市,315-7,御厨南2丁目3番4号,東大阪市文化創造館 北側,34.6663503,135.5904598
大阪府,東大阪市,316-1,足代北2丁目15番,足代北公園 北側,34.6677733,135.561655
大阪府,東大阪市,316-2,足代北2丁目15番,足代北公園 西側,34.6675041,135.5612446
大阪府,東大阪市,316-3,足代北2丁目15番8号,進修幼稚園 南側,34.6671954,135.5614596
大阪府,東大阪市,316-4,足代新町19番17号,関電 足代変電所 南側,34.6642991,135.5583657
大阪府,東大阪市,316-5,足代新町19番17号,関電 足代変電所 東側,34.664405,135.5584502
大阪府,東大阪市,316-6,足代新町23番,足代公園 東側,34.6651586,135.5585595
大阪府,東大阪市,316-7,足代新町23番,足代公園 北側,34.6657167,135.5579547
大阪府,東大阪市,317-1,長堂1丁目2番,東振興業ビル 東側植込 東側,34.66453,135.5630066
大阪府,東大阪市,317-2,長堂1丁目4番,布施駅北側駐車場出入口東側植込 東側,34.6651022,135.5639036
大阪府,東大阪市,317-3,長堂1丁目17番8号,長堂小学校 東寄 南側,34.6669775,135.5646386
大阪府,東大阪市,317-4,長堂1丁目17番8号,長堂小学校 西側,34.6675819,135.5632492
大阪府,東大阪市,317-5,長堂1丁目17番8号,長堂小学校 北側,34.6678378,135.5644669
大阪府,東大阪市,317-6,長堂3丁目10番,長堂東公園 北側,34.6666586,135.5678026
大阪府,東大阪市,317-7,長堂3丁目10番,長堂東公園 南側,34.6659306,135.5674915
大阪府,東大阪市,318-1,足代南2丁目1番31号,広小路駐車場 西側,34.6610144,135.5631746
大阪府,東大阪市,318-2,三ノ瀬1丁目6番53号,三ノ瀬公民分館 西側,34.6597079,135.5631673
大阪府,東大阪市,318-3,足代2丁目1番,布施駅 南自転車駐車場 植込 北側,34.6632789,135.5635227
大阪府,東大阪市,318-4,三ノ瀬1丁目7番7号,旧三ノ瀬小学校 東側,34.6591493,135.5655168
大阪府,東大阪市,318-5,三ノ瀬1丁目7番7号,旧三ノ瀬小学校 南側,34.6586154,135.5650072
大阪府,東大阪市,318-6,荒川2丁目32番40号,布施中学校 北側,34.6587289,135.5675345
大阪府,東大阪市,318-7,荒川2丁目32番40号,布施中学校 西側,34.6585127,135.5666225
大阪府,東大阪市,319-1,荒川3丁目29番,近鉄俊徳道駅 西側,34.6588085,135.5713481
大阪府,東大阪市,319-2,荒川3丁目23番7号,荒川小学校 南側,34.6607017,135.5705214
大阪府,東大阪市,319-3,荒川2丁目32番40号,布施中学校グランド 南側,34.6578243,135.568264
大阪府,東大阪市,319-4,俊徳町3丁目32番,俊徳道駅前広場 東側,34.6585686,135.5719932
大阪府,東大阪市,319-5,荒川3丁目20番18号,都留弥神社 北側,34.6623556,135.5703863
大阪府,東大阪市,319-6,荒川3丁目23番7号,荒川小学校 北側 塀,34.6618533,135.5697919
大阪府,東大阪市,319-7,荒川3丁目23番7号,荒川小学校 東側 網,34.6614959,135.5708218
大阪府,東大阪市,320-1,岸田堂西2丁目9番3号,岸田堂ポンプ場 北側,34.6549354,135.5597313
大阪府,東大阪市,320-2,岸田堂西2丁目6番,岸田堂北公園 南側,34.6535562,135.5607741
大阪府,東大阪市,320-3,寺前町1丁目5番,たちばなの里 南東側空地 西側,34.6558143,135.5652657
大阪府,東大阪市,320-4,寺前町2丁目1番6号,布施小学校 西側,34.655639,135.5658005
大阪府,東大阪市,320-5,寺前町2丁目1番6号,布施小学校 北側,34.6557206,135.5662538
大阪府,東大阪市,320-6,寺前町2丁目1番6号,布施小学校 東側,34.6554647,135.5668922
大阪府,東大阪市,320-7,寿町1丁目6番,JR長瀬駅前広場 北側,34.6497111,135.5698879
大阪府,東大阪市,321-1,長瀬町3丁目1番54号,長瀬青少年運動広場 北側,34.6527118,135.571999
大阪府,東大阪市,321-2,俊徳町5丁目3番4号,松井金属 南側,34.6527716,135.574396
大阪府,東大阪市,321-3,俊徳町5丁目11番,イースタンビラ 東側 東側,34.6529052,135.5698557
大阪府,東大阪市,321-4,俊徳町5丁目11番,俊德公園 南側,34.6527574,135.5686782
大阪府,東大阪市,321-5,太平寺2丁目1番39号,布施中学校夜間学級 南側,34.6547721,135.5697392
大阪府,東大阪市,321-6,太平寺2丁目1番39号,布施中学校夜間学級 東側,34.6554252,135.5698465
大阪府,東大阪市,321-7,太平寺2丁目1番39号,布施中学校夜間学級 北側,34.655787,135.5694495
大阪府,東大阪市,322-1,寿町3丁目17番16号,トライ寿町店 南側,34.6510585,135.5631534
大阪府,東大阪市,322-2,渋川町2丁目2番31号,masked,34.6476045,135.5631796
大阪府,東大阪市,322-3,柏田西3丁目7番44号,柏田小学校 北側,34.6457348,135.567314
大阪府,東大阪市,322-4,柏田西3丁目7番44号,柏田小学校 南側,34.6442608,135.5679068
大阪府,東大阪市,322-5,柏田西3丁目9番2号,柏田公民分館分室 東側,34.6448199,135.5670887
大阪府,東大阪市,322-6,柏田西3丁目11番28号,柏田中学校 北側,34.6440959,135.5657157
大阪府,東大阪市,322-7,柏田西3丁目11番28号,柏田中学校 南側,34.6429463,135.5650961
大阪府,東大阪市,323-1,柏田本町12番,柏田公園 南側,34.6458496,135.5717774
大阪府,東大阪市,323-2,衣摺2丁目4番,衣摺公園 東側,34.6432596,135.5741591
大阪府,東大阪市,323-3,衣摺5丁目8番51号,長瀬西小学校 北側,34.6416539,135.5706072
大阪府,東大阪市,323-4,衣摺5丁目18番25号,玄甫興業 北側,34.6395247,135.5690429
大阪府,東大阪市,323-5,衣摺4丁目17番14号,masked,34.6391939,135.5739896
大阪府,東大阪市,323-6,衣摺5丁目8番51号,長瀬西小学校 東側,34.6413228,135.5708594
大阪府,東大阪市,323-7,衣摺3丁目7番6号,(有)古谷商店 東側,34.6414501,135.5768978
大阪府,東大阪市,323-8,衣摺5丁目8番51号,長瀬西小学校(南寄り) 西側,34.6407094,135.5694459
大阪府,東大阪市,324-1,長瀬町2丁目6番3号,長瀬斎場 南側,34.6485698,135.5746516
大阪府,東大阪市,324-2,長瀬町3丁目7番40号,長瀬青少年センター 東側,34.6496821,135.572562
大阪府,東大阪市,324-3,長瀬町3丁目4番3号,長瀬人権文化センター 東側,34.6512453,135.572828
大阪府,東大阪市,324-4,長瀬町3丁目8番,市営住宅23棟 西側,34.6494443,135.5704751
大阪府,東大阪市,324-5,菱屋西1丁目24番,近鉄長瀬駅南西側フェンス 南側,34.6495952,135.5775372
大阪府,東大阪市,324-6,吉松2丁目13番15号,長瀬北小学校 北側,34.6483791,135.5753889
大阪府,東大阪市,324-7,吉松2丁目13番15号,長瀬北小学校 東側,34.6465389,135.5760058
大阪府,東大阪市,325-1,源氏ヶ丘1番,近鉄大阪線 線路敷(長瀬駅寄) 西 西側,34.6474195,135.5792192
大阪府,東大阪市,325-2,源氏ヶ丘5番,源氏ヶ丘広場 北側,34.6461333,135.5779023
大阪府,東大阪市,325-3,源氏ヶ丘5番,源氏ヶ丘広場 南側,34.6457538,135.5779077
大阪府,東大阪市,325-4,金岡1丁目2番,金岡公園 東側南寄(源氏ヶ丘自治会 東側,34.6433826,135.5801339
大阪府,東大阪市,325-5,源氏ヶ丘21番,近鉄大阪線 線路敷(弥刀駅寄) 西側,34.6432715,135.5820466
大阪府,東大阪市,325-6,源氏ヶ丘14番,近鉄大阪線 線路敷 西側,34.645363,135.5805954
大阪府,東大阪市,325-7,金岡1丁目2番,金岡公園(テニスコート) 北側,34.6440887,135.5787284
大阪府,東大阪市,326-1,金岡1丁目17番,弥刀駅西第1自転車駐車場(南) 東側,34.64031,135.5830836
大阪府,東大阪市,326-2,金岡1丁目23番9号,金岡中学校 東寄 南側,34.6410276,135.5808952
大阪府,東大阪市,326-3,金岡1丁目23番9号,金岡中学校 西寄 南側,34.641405,135.5798733
大阪府,東大阪市,326-4,金岡1丁目23番9号,金岡中学校 北側,34.6422524,135.5806028
大阪府,東大阪市,326-5,大蓮東1丁目2番,金岡公園(野球場) 西側,34.6424619,135.5774919
大阪府,東大阪市,326-6,金岡1丁目21番4号,長瀬川 川沿い 西側,34.6410852,135.5821426
大阪府,東大阪市,326-7,金岡1丁目23番9号,金岡中学校体育館 北側,34.6416212,135.5814933
大阪府,東大阪市,327-1,大蓮南5丁目8番9号,大蓮公民分館跡地 東側,34.6350975,135.5714914
大阪府,東大阪市,327-2,大蓮北4丁目3番51号,長瀬南小学校 東側,34.6364992,135.5733321
大阪府,東大阪市,327-3,大蓮北4丁目3番51号,長瀬南小学校 北側,34.6370774,135.5729459
大阪府,東大阪市,327-4,大蓮北4丁目7番43号,長瀬中学校 東側,34.6380171,135.5713596
大阪府,東大阪市,327-5,大蓮北4丁目7番43号,長瀬中学校 北側,34.638357,135.5703672
大阪府,東大阪市,327-6,大蓮北4丁目3番51号,長瀬南小学校 北側,34.6370333,135.571932
大阪府,東大阪市,327-7,大蓮南5丁目8番50号,大蓮小学校 北側,34.6359581,135.5712566
大阪府,東大阪市,328-1,大蓮東3丁目6番,大蓮東公園 北側,34.6359435,135.5820252
大阪府,東大阪市,328-2,大蓮南2丁目8番32号,大蓮こども園 北側,34.6330063,135.5812577
大阪府,東大阪市,328-3,大蓮南2丁目8番32号,大蓮こども園 西側,34.6327592,135.5805121
大阪府,東大阪市,328-4,西久宝寺751-1,ずんどう屋八尾西久宝寺店 北側,34.6324567,135.5831819
大阪府,東大阪市,328-5,大蓮北1丁目1番11号,万代 大蓮北店 北側,34.6395612,135.5788669
大阪府,東大阪市,328-6,大蓮北2丁目17番11号,masked,34.6369339,135.5778292
大阪府,東大阪市,328-7,大蓮東4丁目6-7,コノミヤ大蓮東店 南側,34.6339887,135.5868185
大阪府,東大阪市,328-8,大蓮北3丁目1番28号,(株)竹中庭園緑化 東側,34.6379783,135.5777584
大阪府,東大阪市,329-1,金岡2丁目3番,弥刀駅西第1自転車駐車場(北) 東側,34.6396474,135.5837973
大阪府,東大阪市,329-2,金岡3丁目19番,金岡南公園 南側,34.6362213,135.585761
大阪府,東大阪市,329-3,金岡3丁目22番,金岡交通安全ミニ広場 南側,34.6367104,135.5850164
大阪府,東大阪市,329-4,大蓮東2丁目11番,大蓮公園(東側) 西側,34.6384567,135.583663
大阪府,東大阪市,329-5,大蓮東2丁目12番8号,長瀬東小学校 北側,34.6378596,135.583909
大阪府,東大阪市,329-6,大蓮東2丁目12番8号,長瀬東小学校 南側,34.6371137,135.583917
大阪府,東大阪市,329-7,大蓮東2丁目12番8号,長瀬東小学校 西側,34.6373234,135.5826296
大阪府,東大阪市,330-1,西岩田3丁目4番5号,市立東大阪医療センター 西側,34.6655774,135.5959037
大阪府,東大阪市,330-2,御厨東2丁目9番45号,意岐部中学校 北側,34.6682863,135.5950038
大阪府,東大阪市,330-3,御厨東2丁目9番45号,意岐部中学校 東側,34.6681937,135.5960445
大阪府,東大阪市,330-4,御厨東2丁目9番45号,意岐部中学校 北側,34.6682422,135.5940919
大阪府,東大阪市,330-5,御厨東2丁目1番,五百石公園 北側,34.6656978,135.5954161
大阪府,東大阪市,330-6,西岩田3丁目3番2号,市立環境衛生検査センター 北側,34.6681712,135.5973368
大阪府,東大阪市,330-7,西岩田3丁目4番5号,市立東大阪医療センター 南側,34.6652421,135.5969712
大阪府,東大阪市,330-8,西岩田3丁目5番24号,第三ガーデンハイツ 南側,34.6637163,135.5969395
大阪府,東大阪市,331-1,永和2丁目13番,永和公園 北側,34.660632,135.5741402
大阪府,東大阪市,331-2,永和2丁目15番25号,旧永和小学校 西側,34.6599661,135.5747767
大阪府,東大阪市,331-3,永和2丁目1番,永和公園 西側,34.6603496,135.5739364
大阪府,東大阪市,331-4,永和2丁目15番25号,旧永和小学校 北側,34.6606324,135.5753721
大阪府,東大阪市,331-5,永和2丁目15番25号,旧永和小学校 南側,34.6595602,135.5749108
大阪府,東大阪市,331-6,菱屋西4丁目2番,楠橋学園 北側,34.6640722,135.5772604
大阪府,東大阪市,331-7,菱屋西4丁目4番,長瀬川 川沿い 西側,34.6616827,135.578664
大阪府,東大阪市,332-1,小阪本町1丁目4番,小阪駅南側 東淀進捗 南側,34.6636975,135.5814149
大阪府,東大阪市,332-2,小阪1丁目11番18号,小阪第2児童遊園 北側,34.6610841,135.58382
大阪府,東大阪市,332-3,小阪1丁目10番7号,徳利屋 南側,34.6621342,135.5838801
大阪府,東大阪市,332-4,小阪1丁目15番,中小阪公園 東側,34.6611369,135.5827401
大阪府,東大阪市,332-5,小阪1丁目16番,中小阪公園 南側,34.6609074,135.582091
大阪府,東大阪市,332-6,小阪1丁目17番,中小阪児童遊園 東側,34.6613434,135.584013
大阪府,東大阪市,332-7,小阪3丁目15番,小阪神社 西側,34.6606803,135.5848569
大阪府,東大阪市,333-1,小阪2丁目1番,小阪児童遊園 北側,34.6639962,135.5849635
大阪府,東大阪市,333-2,小阪2丁目1番,近鉄グランドマンション 南側,34.6639512,135.5908398
大阪府,東大阪市,333-3,小阪2丁目15番,弥栄高校 北グランド 東側,34.6630244,135.5887347
大阪府,東大阪市,333-4,小阪3丁目15番,布施高校 南グランド 西側,34.6605711,135.5868114
大阪府,東大阪市,333-5,小阪4丁目13番,八戸ノ里南第2自転車駐車場 西側,34.6613485,135.5887345
大阪府,東大阪市,333-6,小阪5丁目3番5号,八戸の里小学校 北側,34.6631018,135.5899782
大阪府,東大阪市,333-7,小阪5丁目3番5号,八戸の里小学校 南側,34.6620516,135.5908499
大阪府,東大阪市,334-1,菱屋西3丁目3番7号,徳栄公園運動場 西側,34.6626478,135.5786527
大阪府,東大阪市,334-2,菱池内4丁目6番,長瀬川 川沿い 西側,34.6605193,135.5788437
大阪府,東大阪市,334-3,菱屋西4丁目10番7号,桜橋小学校 北側,34.6588274,135.5782345
大阪府,東大阪市,334-4,菱池西4丁目10番7号,桜橋小学校 西側,34.6583795,135.5779234
大阪府,東大阪市,334-5,菱池西4丁目10番7号,桜橋小学校 東側,34.6585252,135.5792189
大阪府,東大阪市,334-6,菱池西4丁目11番31号,菱池西浄水場 東側,34.6572901,135.5789059
大阪府,東大阪市,334-7,菱池西4丁目11番31号,菱池西浄水場 南側,34.6572063,135.5783856
大阪府,東大阪市,335-1,中小阪1丁目11番,小阪公園 北側,34.6576684,135.5829871
大阪府,東大阪市,335-2,中小阪1丁目21番15号,中小阪小学校 北側,34.6579947,135.5850226
大阪府,東大阪市,335-3,中小阪1丁目21番15号,中小阪小学校 南側,34.6570791,135.5853753
大阪府,東大阪市,335-4,中小阪2丁目3番22号,弥栄神社 西側,34.6589575,135.5858646
大阪府,東大阪市,335-5,中小阪1丁目11番,大和公園 北側,34.6578935,135.5834082
大阪府,東大阪市,335-6,宝持1丁目7番5号,中小阪中学校 北側,34.6567224,135.5877767
大阪府,東大阪市,335-7,宝持1丁目7番5号,中小阪中学校 南側,34.6558972,135.5873369
大阪府,東大阪市,336-1,中小阪4-7-60,東大阪市立総合体育館(東大阪アリーナ) 東側,34.6580855,135.5941922
大阪府,東大阪市,336-2,中小阪1丁目7番,八戸の里公園 西側,34.6583776,135.5906926
大阪府,東大阪市,336-3,中小阪4丁目7番,八戸の里公園 南側,34.6568553,135.5918084
大阪府,東大阪市,336-4,中小阪5丁目17番8号,八戸の里小学校 北側,34.6603434,135.5934272
大阪府,東大阪市,336-5,中小阪5丁目17番8号,八戸の里小学校 南側,34.6595712,135.5932207
大阪府,東大阪市,336-6,中小阪5丁目17番8号,八戸の里小学校 東側,34.6599617,135.594138
大阪府,東大阪市,336-7,若江内新町1丁目1番6号,上小阪浄水場(水防庁舎) 東側,34.659766,135.5949681
大阪府,東大阪市,336-8,若江西新町3丁目1番8号,アリン学園 東側,34.6568958,135.5980499
大阪府,東大阪市,337-1,横枕町1丁目7番,近畿大阪線 線路脇 東側,34.6536174,135.575134
大阪府,東大阪市,337-2,菱池内2丁目8番,近畿大阪線 線路脇 東側,34.6509241,135.5769771
大阪府,東大阪市,337-3,菱屋西2丁目8番,長瀬川 川沿い 西側,34.6545145,135.5786479
大阪府,東大阪市,337-4,横枕町1丁目1番,近畿大阪線 線路脇 東側,34.6525289,135.5758623
大阪府,東大阪市,337-5,菱屋西2丁目4番12号,椎名家 東側,34.653843,135.5785646
大阪府,東大阪市,337-6,菱屋西2丁目7番,長瀬川 川沿い 西側,34.6518086,135.578106
大阪府,東大阪市,337-7,菱屋西2丁目8番,長瀬公園 東側,34.651211,135.5777282
大阪府,東大阪市,338-1,上小阪2丁目6番5号,上小阪中学校 東側,34.6539913,135.5826098
大阪府,東大阪市,338-2,上小阪1丁目17番,阪本病院 東側,34.6527936,135.5825696
大阪府,東大阪市,338-3,上小阪2丁目6番5号,上小阪中学校 北側,34.6549224,135.582186
大阪府,東大阪市,338-4,上小阪2丁目6番5号,上小阪中学校 西側,34.6540928,135.5817032
大阪府,東大阪市,338-5,上小阪2丁目6番5号,上小阪中学校 南側,34.6532323,135.5822718
大阪府,東大阪市,338-6,小岩江1丁目9番5号,masked,34.6520109,135.5817828
大阪府,東大阪市,338-7,上小阪7番17号,阪本病院 西側,34.6531643,135.5816549
大阪府,東大阪市,339-1,上小阪3丁目16番,上小阪小学校 北側,34.653843,135.5847643
大阪府,東大阪市,339-2,上小阪3丁目15番,上小阪小学校 南側,34.6530333,135.5841366
大阪府,東大阪市,339-3,上小阪3丁目15番,上小阪小学校 東側,34.6529715,135.5854885
大阪府,東大阪市,339-4,上小阪4丁目7番22号,弥栄神社 西側,34.6538743,135.5873315
大阪府,東大阪市,339-5,上小阪4丁目11番,八坂神社 南側,34.6532872,135.5866464
大阪府,東大阪市,339-6,小岩江3丁目4番1号,近畿大学 西側,34.6521121,135.5861344
大阪府,東大阪市,339-7,小岩江4丁目2番,上小阪公園 南側,34.652595,135.5844135
大阪府,東大阪市,340-1,新上小阪20-23,市営上小阪住宅 西側,34.649365,135.5918952
大阪府,東大阪市,340-2,菱江3丁目12-10,文化財菱江庄栄文化財収蔵所 東側,34.6474626,135.5896709
大阪府,東大阪市,340-3,新上小阪2番14号,上小阪配水場 北側,34.6526589,135.5917335
大阪府,東大阪市,340-4,新上小阪5番85号,近畿大学Eキャンパス 北側,34.6510022,135.5931192
大阪府,東大阪市,340-5,新上小阪5番85号,近畿大学Eキャンパス 南側,34.6506271,135.5903002
大阪府,東大阪市,340-6,新上小阪7番,東大阪新上小阪住宅 集会所 南側,34.6496829,135.5903527
大阪府,東大阪市,340-7,新上小阪2番14号,上小阪配水場 東側,34.6525463,135.5931149
大阪府,東大阪市,341-1,小岩江1丁目10番,神明神社 東側,34.6503793,135.5823646
大阪府,東大阪市,341-2,小岩江1丁目19番25号,masked,34.6486507,135.5804676
大阪府,東大阪市,341-3,小岩江1丁目25番19号,masked,34.6487125,135.5827246
大阪府,東大阪市,341-4,小岩江1-1,小岩江基地 北側,34.6506248,135.5792877
大阪府,東大阪市,341-5,小岩江21-28,ニッサク株式会社 東側,34.6490855,135.5844146
大阪府,東大阪市,341-6,小岩江21番9番50号,masked,34.6497609,135.5834288
大阪府,東大阪市,341-7,小岩江3丁目11番48号,近畿大学附属幼稚園跡地 南側,34.6487465,135.5856518
大阪府,東大阪市,342-1,近江堂1丁目4番,新中小阪 南側,34.6480215,135.5820763
大阪府,東大阪市,342-2,友井1丁目1番37号,弥刀小学校 東側,34.6457064,135.5826093
大阪府,東大阪市,342-3,近江堂2丁目8番19号,古出企画 南側,34.6456648,135.5832948
大阪府,東大阪市,342-4,近江堂3丁目4番27号,弥刀中学校 西側,34.6461771,135.5856446
大阪府,東大阪市,342-5,友井1丁目1番37号,弥刀小学校 南側,34.6448734,135.5820246
大阪府,東大阪市,342-6,友井1丁目1番37号,弥刀小学校 東側,34.6450455,135.58181
大阪府,東大阪市,342-7,友井1丁目1番37号,弥刀小学校 東側,34.6448977,135.5826549
大阪府,東大阪市,343-1,近江堂3丁目2番付近,近江堂第1公園 東側,34.6473579,135.5856231
大阪府,東大阪市,343-2,友井2丁目12番12号,弥刀西小学校 東側,34.6450314,135.5888496
大阪府,東大阪市,343-3,近江堂3丁目4番27号,弥刀中学校 東側,34.6465323,135.5872593
大阪府,東大阪市,343-4,近江堂3丁目4番27号,弥刀中学校 南側,34.6456828,135.5861757
大阪府,東大阪市,343-5,近江堂3丁目12番15号,西新清掃(株) 東側,34.6467824,135.5897887
大阪府,東大阪市,343-6,友井2丁目12番12号,弥刀西小学校 西側,34.6444356,135.5873583
大阪府,東大阪市,343-7,友井4丁目6番32号,masked,34.6406376,135.5865638
大阪府,東大阪市,343-8,金物町3番,金物町1公園 西側,34.6438151,135.5936022
