prefecture,city,number,address,name,lat,long,note
大阪府,枚方市,1-1,大垣内町２丁目1,市役所別館西側入口,34.8145392,135.6510705,
大阪府,枚方市,1-2,大垣内町２丁目5,市役所本館南側駐車場,34.8140865,135.6511444,
大阪府,枚方市,1-3,岡東町14,市営岡東町自動車駐車場,34.8136699,135.6482631,
大阪府,枚方市,1-4,岡東町8,第３分館駐車場前,34.8153733,135.6510705,
大阪府,枚方市,1-5,岡東町8,公用車駐車場,34.8153733,135.6510705,
大阪府,枚方市,1-6,岡東町7,ニッペパーク岡東中央西側,34.814689,135.6501839,
大阪府,枚方市,1-7,大垣内町２丁目12,商工会議所前,34.8124432,135.651957,
大阪府,枚方市,2-1,東田宮１丁目7,大阪体操クラブ前,34.808529,135.6537302,
大阪府,枚方市,2-2,東田宮１丁目2,枚方保育所,34.8103544,135.6522526,
大阪府,枚方市,2-3,朝日丘町2,枚方市役所分室,34.8104306,135.6511767,
大阪府,枚方市,2-4,朝日丘町17,サンメゾン枚方ヒルズアイ南端,34.8102696,135.6478198,
大阪府,枚方市,2-5,田宮本町11,枚方第二小学校正門,34.8071823,135.6501839,
大阪府,枚方市,2-6,田宮本町11,枚方第二小学校裏門,34.8071823,135.6501839,
大阪府,枚方市,2-7,西田宮町12,枚方中学校正門,34.80593530000001,135.6470072,
大阪府,枚方市,3-1,枚方上之町12,枚方上之町小規模公園354,34.8086875,135.6436091,
大阪府,枚方市,3-2,伊加賀北町7,プラネ枚方公園前,34.8090227,135.6417625,
大阪府,枚方市,3-3,岡山手町11,坊主池公園,34.8086944,135.6458991,
大阪府,枚方市,3-4,高塚町25,高塚町中央公園,34.8054791,135.6436437,
大阪府,枚方市,3-5,枚方上之町11,府営枚方上之町住宅,34.8089227,135.644274,
大阪府,枚方市,3-6,枚方元町4,枚方元町小規模公園243,34.8120736,135.6423534,
大阪府,枚方市,3-7,高塚町16,鷹塚山配水場前,34.806235,135.6452343,
大阪府,枚方市,3-8,枚方上之町11,枚方幼稚園,34.8089227,135.644274,
大阪府,枚方市,4-1,伊加賀本町1,伊原接骨鍼灸院(伊加賀本町1-2)前,34.8093509,135.6376262,
大阪府,枚方市,4-2,桜町4,小桜橋,34.8108406,135.635115,
大阪府,枚方市,4-3,伊加賀本町12,恩地食品(株)北東駐車場,34.809335,135.6342756,
大阪府,枚方市,4-4,堤町7,伊加賀公園入口（枚方公園青少年ｾﾝﾀー近辺）,34.8114001,135.6377,
大阪府,枚方市,4-5,新町１丁目13,枚方壱番館前,34.8158728,135.644274,
大阪府,枚方市,4-6,三矢町6,三矢公園,34.8147894,135.6419102,
大阪府,枚方市,4-7,堤町3,枚方公園駅前（京都方面）ロータリー,34.8116603,135.6391772,
大阪府,枚方市,5-1,伊加賀南町10,菊丘公園向かい,34.8061785,135.6413193,
大阪府,枚方市,5-2,伊加賀寿町17,よつ葉ホームクリニック横,34.8083245,135.6362967,
大阪府,枚方市,5-3,伊加賀緑町3,(株)大気社（ｻﾝｴｽ工業）枚方工場東側,34.8071841,135.6328994,
大阪府,枚方市,5-4,伊加賀東町3,枚方公園駅前（大阪方面）ロータリー,34.8111007,135.6394727,
大阪府,枚方市,5-5,伊加賀南町2,青島歯科クリニック前,34.8097365,135.6386693,
大阪府,枚方市,5-6,菊丘町9,国道１号線高架下,34.8032413,135.6427966,
大阪府,枚方市,5-7,伊加賀南町10,おおさかパルコープ枚方公園店向かい,34.8061785,135.6413193,
大阪府,枚方市,6-1,伊加賀西町47,大寿会病院西側水路,34.8041688,135.6235949,
大阪府,枚方市,6-2,伊加賀栄町9,伊加賀栄公園,34.80594019999999,135.6351889,
大阪府,枚方市,6-3,伊加賀西町53,伊加賀小学校正門,34.8050456,135.6258101,
大阪府,枚方市,6-4,伊加賀西町53,伊加賀小学校裏門,34.8050456,135.6258101,
大阪府,枚方市,6-5,出口１丁目3,出口ふれあい公園,34.8030143,135.6271393,
大阪府,枚方市,6-6,伊加賀西町65,読売新聞販売店南側向い,34.8060079,135.6281362,
大阪府,枚方市,6-7,伊加賀西町1,伊加賀西郵便局南側向い（歩道橋ﾌｪﾝｽ）,34.8071729,135.6237057,緯度経度は怪しい
大阪府,枚方市,6-8,出口２丁目10,理髪店前,34.8023584,135.6238903,
大阪府,枚方市,7-1,出口３丁目6,ローソン（友田ビル）前,34.7992579,135.6274346,
大阪府,枚方市,7-2,出口３丁目1,出口３丁目第２小規模公園106(光善寺ｽｶｲﾊｲﾂ前),34.8008403,135.6287639,
大阪府,枚方市,7-3,出口３丁目22,出口３丁目22-1向い,34.7999957,135.6267701,
大阪府,枚方市,7-4,出口３丁目43,シャーメゾンパルＡ,34.80041260000001,135.6238903,
大阪府,枚方市,7-5,出口５丁目40,さだ中学校裏門,34.7956227,135.6234473,
大阪府,枚方市,7-6,出口６丁目1,出口西公園東側川沿い,34.8014958,135.6204939,
大阪府,枚方市,7-7,出口６丁目8,シティアーク枚方前,34.79889780000001,135.6198294,
大阪府,枚方市,7-8,出口４丁目5,枚方淀川公園スカイハイツ向い,34.8018665,135.6214537,
大阪府,枚方市,8-1,北中振３丁目19,枚方警察さだ交番前,34.7989941,135.6291331,
大阪府,枚方市,8-2,北中振３丁目27,蹉?生涯学習市民センター前,34.7973244,135.6286131,
大阪府,枚方市,8-3,北中振３丁目28,レジデンス藤前,34.7971122,135.6295762,
大阪府,枚方市,8-4,北中振３丁目39,南中振2丁目76-10近辺,34.7954635,135.6290098,
大阪府,枚方市,8-5,北中振３丁目43,ハイブリッジビル南約100m,34.7959504,135.6279516,
大阪府,枚方市,8-6,走谷２丁目8,伊加賀栄町19ー9近辺,34.8041635,135.634118,
大阪府,枚方市,8-7,走谷２丁目25,走谷公園,34.8013818,135.6328255,
大阪府,枚方市,9-1,北中振１丁目37,ファミールハイツ近辺,34.7983521,135.6347827,
大阪府,枚方市,9-2,北中振１丁目7,マサミ薬局東入る約100ｍ駐車場向い,34.7998849,135.6330471,
大阪府,枚方市,9-3,走谷１丁目23,小規模公園352西側,34.8034352,135.6375461,緯度経度は怪しい
大阪府,枚方市,9-4,走谷１丁目20,レオパレス前,34.8033334,135.6376027,緯度経度は怪しい
大阪府,枚方市,9-5,走谷１丁目1,小規模公園322,34.8034927,135.6370894,
大阪府,枚方市,9-6,北中振１丁目18,北中振１丁目18-2近辺,34.7975541,135.6303885,
大阪府,枚方市,9-7,北中振２丁目11,さだ小学校正門,34.7967979,135.6354104,
大阪府,枚方市,10-1,翠香園町8,翠香園ふれあい公園南側,34.7995977,135.6365814,
大阪府,枚方市,10-2,翠香園町30,さだ東小学校正門,34.8012527,135.6405806,
大阪府,枚方市,10-3,東中振２丁目9,東中振西公園,34.79661919999999,135.6386602,
大阪府,枚方市,10-4,東中振１丁目20,東中振中央公園,34.7981871,135.6411715,
大阪府,枚方市,10-5,翠香園町8,翠香園ふれあい公園東側,34.7995977,135.6365814,
大阪府,枚方市,10-6,翠香園町15,サンマンションアトレ香里ケ丘向かい,34.7999422,135.6397385,
大阪府,枚方市,10-7,東中振２丁目23,東中振2丁目23-11西側,34.7962202,135.637183,
大阪府,枚方市,11-1,南中振２丁目85,南中振２丁目小規模公園59,34.7949774,135.6279516,
大阪府,枚方市,11-2,南中振２丁目4,南中振公園,34.7937797,135.6292808,
大阪府,枚方市,11-3,南中振２丁目46,関西電力光善寺変電所南側,34.79315630000001,135.6262532,
大阪府,枚方市,11-4,南中振２丁目8,南中振2丁目8-56近辺,34.7920155,135.6286162,
大阪府,枚方市,11-5,南中振２丁目19,寝屋川市上下水道局香里浄水場東側,34.7907359,135.6280992,
大阪府,枚方市,11-6,南中振２丁目29,カンセンエキスパンダー工業（株）前,34.7906738,135.6260686,
大阪府,枚方市,11-7,南中振２丁目19,寝屋川市上下水道局香里浄水場南側,34.7907359,135.6280992,
大阪府,枚方市,12-1,香里園東之町20,第二中学校東側門,34.7878773,135.6429443,
大阪府,枚方市,12-2,香里園東之町20,第二中学校南側グランド,34.7878773,135.6429443,
大阪府,枚方市,12-3,香里園東之町15,セジュール香里Ⅰ近辺,34.7864546,135.6431824,緯度経度は怪しい
大阪府,枚方市,12-4,香里園町26,香里園ローンテニスクラブ,34.7870943,135.6388079,
大阪府,枚方市,12-5,香里園山之手町50,洋花園造園土木管理裏,34.7883208,135.6379955,
大阪府,枚方市,12-6,香里園桜木町60,香里園桜木町60-1近辺,34.7911152,135.6396943,緯度経度は怪しい
大阪府,枚方市,12-7,香里園町12,ＮＴＴ西日本 大阪支店香里ビル,34.7860258,135.6352627,
大阪府,枚方市,12-8,南中振１丁目38,香里園山之手町26番街区北側,34.79313339999999,135.636666,
大阪府,枚方市,13-1,山之上１丁目32,山之上小学校正門,34.7997099,135.6529914,
大阪府,枚方市,13-2,山之上２丁目21,ＪＡ北河内川越支店近辺,34.7990668,135.6572029,
大阪府,枚方市,13-3,山之上１丁目12,京阪バス山之上バス停西側駐車場前,34.8008569,135.6557991,
大阪府,枚方市,13-4,山之上北町7,関西電力（株）枚方南変電所前,34.804351,135.6543213,
大阪府,枚方市,13-5,山之上北町33,山之上北町第3小規模公園140,34.80219140000001,135.6518832,
大阪府,枚方市,13-6,山之上東町11,チャーム枚方山之上近辺,34.8025107,135.6569813,
大阪府,枚方市,13-7,山之上１丁目32,山之上小学校北側門近辺,34.7997099,135.6529914,
大阪府,枚方市,14-1,香里ヶ丘１丁目1,南部生涯学習市民センター前水路沿い,34.7959213,135.6588358,
大阪府,枚方市,14-2,香里ヶ丘１丁目14,公団香里ヶ丘住宅Ｅ22棟近辺,34.7921956,135.6611377,
大阪府,枚方市,14-3,香里ヶ丘１丁目22,公団香里ヶ丘住宅Ｅ10棟近辺,34.7929085,135.659903,
大阪府,枚方市,14-4,香里ヶ丘１丁目10,Ｅ地区集会所横公園,34.7935252,135.6604183,
大阪府,枚方市,14-5,茄子作北町7,枚方寝屋川消防組合川越出張所駐車場,34.7893112,135.6589763,
大阪府,枚方市,14-6,茄子作北町53,茄子作北町第2小規模公園92,34.7909008,135.6638905,
大阪府,枚方市,14-7,藤田町3,京阪バス宮ノ前橋バス停近辺,34.7971411,135.6583113,
大阪府,枚方市,15-1,香里ヶ丘２丁目5,開成小学校東側門,34.7926621,135.656501,
大阪府,枚方市,15-2,香里ヶ丘２丁目8,香里団地保育所前,34.7923534,135.6519495,
大阪府,枚方市,15-3,香里ヶ丘２丁目5,京阪バス開成小学校前バス停向い,34.7926621,135.656501,
大阪府,枚方市,15-4,香里ヶ丘２丁目1,トップワールド香里ヶ丘店前,34.7938959,135.6589982,
大阪府,枚方市,15-5,香里ヶ丘３丁目4,藤田川保育所前,34.7912207,135.6574342,
大阪府,枚方市,15-6,香里ヶ丘２丁目2,京阪バス香里橋バス停向い,34.79407339999999,135.6580454,
大阪府,枚方市,15-7,香里ヶ丘３丁目12,こもれび生活館駐車場,34.7919239,135.6552878,
大阪府,枚方市,16-1,山之上５丁目52,山之上5丁目第3小規模公園51,34.7985344,135.6496668,
大阪府,枚方市,16-2,香里ヶ丘６丁目7,五常公園,34.7980594,135.6466194,
大阪府,枚方市,16-3,香里ヶ丘６丁目9,五常小学校東側門,34.7979712,135.6479537,
大阪府,枚方市,16-4,東中振１丁目64,ひらかた聖徳園東側出入口,34.7968465,135.6427966,
大阪府,枚方市,16-5,香里ヶ丘６丁目18,枚方市水道局大池配水場,34.7971993,135.6458487,
大阪府,枚方市,16-6,東中振１丁目33,東中振南公園,34.7971493,135.6436091,
大阪府,枚方市,16-7,香里ヶ丘８丁目6,淀見公園,34.7924544,135.6438308,
大阪府,枚方市,17-1,香里ヶ丘９丁目1,南谷公園（公団Ｄ２６棟近辺）,34.7885175,135.6473766,緯度経度は怪しい
大阪府,枚方市,17-2,香里ヶ丘９丁目4,公団Ｄ２４棟近辺,34.7905288,135.6471712,
大阪府,枚方市,17-3,香里ヶ丘９丁目5,京阪バス香里ヶ丘９丁目バス停,34.7897302,135.6483924,
大阪府,枚方市,17-4,香里ヶ丘９丁目15,公団D９棟近辺,34.78895250000001,135.6473397,
大阪府,枚方市,17-5,香里ヶ丘１０丁目5,香里小学校通用門近辺,34.7852562,135.6467686,
大阪府,枚方市,17-6,香里ヶ丘１０丁目5,香里小学校東側,34.7852562,135.6467686,
大阪府,枚方市,17-7,香里ヶ丘１０丁目5,香里小学校正門近辺,34.7852562,135.6467686,
大阪府,枚方市,18-1,香里ヶ丘４丁目2,香里ヶ丘中央公園東側,34.7902808,135.6514493,
大阪府,枚方市,18-2,香里ヶ丘４丁目3,京阪バス新香里バス停,34.7895964,135.6519356,
大阪府,枚方市,18-3,香里ヶ丘４丁目15,香里ヶ丘4丁目10-6近辺,34.7885795,135.6507068,
大阪府,枚方市,18-4,香里ヶ丘１１丁目1,香陽小学校正門入口,34.7866559,135.648928,
大阪府,枚方市,18-5,東香里３丁目30,東香里公園,34.784009,135.6521048,
大阪府,枚方市,18-6,東香里３丁目37,東香里中学校近辺,34.7852197,135.6553557,
大阪府,枚方市,18-7,東香里新町11,京阪バス新高田バス停近辺,34.7832579,135.6592408,
大阪府,枚方市,18-8,香里ヶ丘１１丁目20,香陽公園,34.785856,135.6517354,
大阪府,枚方市,19-1,東香里南町53,旭ケ丘東公園,34.7773362,135.6546908,
大阪府,枚方市,19-2,東香里１丁目24,東香里病院近辺,34.7801642,135.6573192,
大阪府,枚方市,19-3,東香里元町36,東香里元町第４小規模公園226南側,34.7842857,135.6549863,
大阪府,枚方市,19-4,東香里３丁目37,東香里中学校南側門,34.7852197,135.6553557,
大阪府,枚方市,19-5,東香里南町26,旭ヶ丘中央公園,34.7763175,135.6527698,
大阪府,枚方市,19-6,東香里南町44,東香里小学校正門,34.7777327,135.6535825,
大阪府,枚方市,19-7,東香里南町44,東香里小学校裏門近辺,34.7777327,135.6535825,
大阪府,枚方市,20-1,茄子作１丁目3,京阪バス茄子作住宅バス停西側,34.7885776,135.660639,
大阪府,枚方市,20-2,茄子作１丁目42,京阪バス東香里新町バス停近辺,34.7862519,135.6589763,
大阪府,枚方市,20-3,茄子作東町43,鉄板焼金太近辺,34.7858185,135.6685095,
大阪府,枚方市,20-4,茄子作１丁目6,茄子作1丁目6番10号　茄子作住宅東側,34.7873272,135.6619321,
大阪府,枚方市,20-5,茄子作３丁目15,春日神社裏池前,34.7848447,135.6630406,
大阪府,枚方市,20-6,茄子作３丁目35,カーテン＆じゅうたん王国近辺,34.7811255,135.6629667,
大阪府,枚方市,20-7,茄子作４丁目5,茄子作ちびっこ広場(春日神社前)　<広場49>,34.7843374,135.6646664,
大阪府,枚方市,21-1,釈尊寺町7,京阪バス釈尊寺バス停横,34.7879084,135.6682138,
大阪府,枚方市,21-2,釈尊寺町7,釈尊寺町3-33近辺,34.7879084,135.6682138,
大阪府,枚方市,21-3,釈尊寺町25,釈尊寺団地２号橋南（水路西側ﾌｪﾝｽ）,34.7940155,135.6636318,
大阪府,枚方市,21-4,釈尊寺町25,釈尊寺団地１号橋横（水路西側ﾌｪﾝｽ）,34.7940155,135.6636318,
大阪府,枚方市,21-5,茄子作東町6,国道168号沿い（茄子作東町6-33近辺）,34.78779,135.6693224,
大阪府,枚方市,21-6,釈尊寺町30,川越小学校正門,34.7904756,135.6686573,
大阪府,枚方市,21-7,茄子作東町35,北田ハイツ近辺,34.7839635,135.6694703,
大阪府,枚方市,22-1,村野南町1,府住宅供給公社村野団地Ａ２棟近辺,34.7977515,135.6651098,
大阪府,枚方市,22-2,村野南町1,府住宅供給公社村野団地Ａ１棟向い水路,34.7977515,135.6651098,
大阪府,枚方市,22-3,村野南町3,府営村野住宅Ｂ２８棟前駐車場南側,34.7965111,135.664223,
大阪府,枚方市,22-4,村野南町2,府営村野住宅B１２棟前,34.7974284,135.6650292,
大阪府,枚方市,22-5,村野南町3,村野南町公園西側,34.7965111,135.664223,
大阪府,枚方市,22-6,村野南町3,村野南町公園南側,34.7965111,135.664223,
大阪府,枚方市,22-7,村野西町5,サプリ村野,34.8035003,135.6612671,
大阪府,枚方市,23-1,村野本町1,京阪電鉄交野線村野駅,34.8023906,135.6638535,
大阪府,枚方市,23-2,村野本町39,印田町39-27南側,34.8027457,135.6670775,
大阪府,枚方市,23-3,村野東町27,村野東町公園,34.8002368,135.6720572,
大阪府,枚方市,23-4,村野本町30,桜丘小学校正門,34.8033823,135.6707267,
大阪府,枚方市,23-5,村野本町30,桜丘小学校東側,34.8033823,135.6707267,
大阪府,枚方市,23-6,村野本町24,村野本町24-59西側,34.79958980000001,135.6682138,
大阪府,枚方市,23-7,村野本町12,村野本町会館,34.8014234,135.6661445,
大阪府,枚方市,23-8,桜丘町45,奥野駐車場前,34.8061215,135.6685095,
大阪府,枚方市,24-1,星丘１丁目16,ヴィアラッティア前,34.8058109,135.659937,
大阪府,枚方市,24-2,星丘２丁目17,星丘２丁目17-29向い,34.8091468,135.6628189,
大阪府,枚方市,24-3,星丘１丁目14,京阪電鉄星ヶ丘駅近辺,34.8042529,135.6620403,緯度経度は怪しい
大阪府,枚方市,24-4,星丘２丁目29,星ヶ丘テニスクラブ横駐車場,34.809638,135.6652576,
大阪府,枚方市,24-5,星丘４丁目8,社会保険星ヶ丘住宅西側,34.8104996,135.6686573,
大阪府,枚方市,24-6,星丘１丁目26,星丘1丁目26-13東側線路沿い,34.804641,135.6617843,緯度経度は怪しい
大阪府,枚方市,24-7,星丘３丁目18,養護老人ホーム松風荘南側遊園,34.8069999,135.664962,
大阪府,枚方市,25-1,星丘４丁目8,星丘4丁目第３小規模公園147,34.8104996,135.6686573,
大阪府,枚方市,25-2,星丘４丁目31,桜丘北小学校南側,34.8083586,135.6730919,
大阪府,枚方市,25-3,星丘４丁目31,桜丘北小学校西側門,34.8083586,135.6730919,
大阪府,枚方市,25-4,桜丘町5,公団桜丘団地入口（黒い低フェンス）,34.8073053,135.6683616,
大阪府,枚方市,25-5,桜丘町35,桜丘中学校北西,34.806199,135.6706528,
大阪府,枚方市,25-6,池之宮２丁目23,池之宮西公園,34.8118322,135.670505,
大阪府,枚方市,25-7,池之宮２丁目5,小規模公園278西側,34.8119099,135.6726485,
大阪府,枚方市,25-8,池之宮３丁目3,池之宮3丁目3-19南側,34.8117376,135.6753094,
大阪府,枚方市,26-1,宮之阪１丁目9,宮之阪１丁目ちびっこ広場52(宮之阪駅南ｶﾞｰﾄﾞ下),34.8136722,135.6566118,
大阪府,枚方市,26-2,宮之阪４丁目3,宮之阪集会所付近,34.8121175,135.6586808,
大阪府,枚方市,26-3,宮之阪３丁目16,大阪府立精神医療センター正門,34.8139241,135.6615627,
大阪府,枚方市,26-4,宮之阪３丁目21,宮之阪公園,34.8129553,135.6583852,
大阪府,枚方市,26-5,宮之阪４丁目8,宮之阪サクラ保育園,34.8112157,135.658533,
大阪府,枚方市,26-6,宮之阪４丁目19,宮之阪東公園前,34.8117637,135.662006,
大阪府,枚方市,26-7,宮之阪１丁目17,府道枚方茨木線（宮之阪１丁目17-７前）,34.8147274,135.6555774,
大阪府,枚方市,27-1,禁野本町1丁目7,府営枚方禁野本町住宅東側,34.81906530000001,135.6560946,
大阪府,枚方市,27-2,中宮本町12,中宮平和ロード沿い西向き（中宮本町12-７前）,34.8190002,135.6614149,
大阪府,枚方市,27-3,中宮西之町1,百済寺児童遊園,34.814514,135.659992,
大阪府,枚方市,27-4,中宮西之町4,中宮平和ロード沿い南西向き（中宮西之町4-11前）,34.8157846,135.6628928,
大阪府,枚方市,27-5,中宮西之町10,明倫小学校北側,34.8168618,135.6600847,
大阪府,枚方市,27-6,中宮西之町10,明倫小学校正門,34.8168618,135.6600847,
大阪府,枚方市,27-7,中宮西之町10,明倫小学校東側,34.8168618,135.6600847,
大阪府,枚方市,28-1,西禁野１丁目1,滝本佛光堂裏広場,34.8189161,135.6512182,
大阪府,枚方市,28-2,禁野本町1丁目3,イズミヤ第二駐車場前,34.818784,135.6535086,
大阪府,枚方市,28-3,西禁野２丁目1,天津橋北詰（百万両ビル近辺）,34.8180036,135.651957,
大阪府,枚方市,28-4,西禁野１丁目2,コンビニ向い,34.819497,135.6520309,
大阪府,枚方市,28-5,西禁野１丁目16,矢橋大理石枚方寮北側,34.8231574,135.6510705,
大阪府,枚方市,28-6,西禁野２丁目30,西禁野２丁目小規模公園158,34.8214143,135.6543952,
大阪府,枚方市,28-7,西禁野２丁目32,花ぞの不動産駐車場,34.8204913,135.6531392,
大阪府,枚方市,29-1,磯島元町20,府道京都守口線磯島歩道橋近辺,34.8242337,135.6482631,
大阪府,枚方市,29-2,渚西３丁目25,渚西中学校正門近辺,34.8328154,135.6512182,
大阪府,枚方市,29-3,磯島北町37,教育文化センター,34.8270563,135.6504794,
大阪府,枚方市,29-4,磯島北町3,磯島小学校校門横,34.8261867,135.6476721,
大阪府,枚方市,29-5,磯島茶屋町3,日野橋（欄干）,34.8241482,135.6495929,
大阪府,枚方市,29-6,渚西１丁目40,コンビニ横,34.8296477,135.653769,
大阪府,枚方市,29-7,御殿山町1,大阪ガス向い（線路沿い）,34.8286665,135.653792,
大阪府,枚方市,30-1,津田西町3丁目10,津田南小学校裏門,34.8052779,135.6967505,
大阪府,枚方市,30-2,津田駅前1丁目15,市営津田自転車駐輪場,34.8016993,135.6970938,
大阪府,枚方市,30-3,津田駅前2丁目8,JR津田駅地下通路東側水路,34.801432,135.6983775,
大阪府,枚方市,30-4,津田駅前2丁目25,津田東自転車駐車場近辺,34.8003039,135.6995608,
大阪府,枚方市,30-5,津田南町1丁目17,津田南町西公園,34.8004087,135.7022233,
大阪府,枚方市,30-6,津田駅前１丁目15,JR津田駅西側（津田駅前１丁目15-8近辺 ）,34.8016993,135.6970938,
大阪府,枚方市,30-7,津田西町3丁目10,津田南小学校正門,34.8052779,135.6967505,
大阪府,枚方市,31-1,渚東町33,渚東公園,34.8327352,135.6621908,
大阪府,枚方市,31-2,渚東町18,甲斐田川沿い（渚東町27-14前）,34.831183,135.6626711,
大阪府,枚方市,31-3,渚東町2,第一中学校（ネオハイツ丹治近辺）,34.8301923,135.6612671,
大阪府,枚方市,31-4,渚東町2,第一中学校正門,34.8301923,135.6612671,
大阪府,枚方市,31-5,上野１丁目6,殿山第一小学校裏門,34.8296506,135.6600847,
大阪府,枚方市,31-6,上野２丁目3,中宮浄水場東側,34.8280396,135.6611193,
大阪府,枚方市,31-7,上野２丁目9,公団中宮第三団地ポンプ室,34.8266027,135.658415,
大阪府,枚方市,32-1,御殿山町15,公団中宮第三団地６４号棟近辺,34.8269706,135.6575724,
大阪府,枚方市,32-2,禁野本町2丁目14,京阪バス市民病院前バス停横,34.820694,135.658828,
大阪府,枚方市,32-3,中宮北町20,枚方市水道局東側（京阪バス外大西門バス停近辺）,34.8252025,135.6600847,
大阪府,枚方市,32-4,中宮北町1,禁野保育所西側,34.824324,135.659502,
大阪府,枚方市,32-5,御殿山南町3,薬局前（歩道向き）,34.8244954,135.6582376,
大阪府,枚方市,32-6,中宮北町4,禁野小学校正門,34.8226932,135.6606759,
大阪府,枚方市,32-7,中宮北町4,禁野小学校裏門,34.8226932,135.6606759,
大阪府,枚方市,33-1,中宮山戸町5,木村米穀店向い（車道向き設置）,34.8175453,135.6638535,
大阪府,枚方市,33-2,中宮山戸町12,アパートメントタイム前,34.8184574,135.6659967,
大阪府,枚方市,33-3,中宮山戸町22,中宮小学校正門,34.8160262,135.6658489,
大阪府,枚方市,33-4,中宮東之町1,中宮公園,34.8191277,135.6651837,
大阪府,枚方市,33-5,堂山１丁目2,中宮中学校 ｸﾞﾗﾝﾄﾞ前,34.8156476,135.6683616,
大阪府,枚方市,33-6,堂山２丁目18,堂山公園北側,34.8176362,135.6705789,
大阪府,枚方市,33-7,松丘町1,松丘町6-18近辺（月極モータープール）,34.8149286,135.6646664,
大阪府,枚方市,33-8,堂山１丁目15,中宮中学校東側（水路沿い）,34.8161534,135.6696181,
大阪府,枚方市,34-1,甲斐田新町1,甲須公園,34.8207644,135.6761965,
大阪府,枚方市,34-2,甲斐田新町24,甲斐田新町23-6前水路,34.8220587,135.6755312,
大阪府,枚方市,34-3,須山町34,カレッジコートキタハラ前水路,34.8232075,135.6725745,
大阪府,枚方市,34-4,須山町55,須山公園,34.8205586,135.6731659,
大阪府,枚方市,34-5,甲斐田新町47,（株）大豊製作所西側,34.8241231,135.6744224,
大阪府,枚方市,34-6,田口３丁目16,山田東小学校正門,34.8244287,135.6778227,
大阪府,枚方市,34-7,田口３丁目7,山田東小学校裏門プール側,34.8249345,135.6790794,
大阪府,枚方市,35-1,甲斐田町1,山田小学校東側門,34.8244595,135.669692,
大阪府,枚方市,35-2,甲斐田町13,甲斐田町13-15前鉄柵,34.8254144,135.6711702,
大阪府,枚方市,35-3,甲斐田町17,甲斐田支部会館前,34.8262631,135.6699876,
大阪府,枚方市,35-4,甲斐田町22,甲斐田町22-21近辺,34.8249267,135.6684355,
大阪府,枚方市,35-5,甲斐田東町31,山田保育所,34.8259633,135.6717615,
大阪府,枚方市,35-6,堂山３丁目7,都丘27-5付近,34.8191619,135.6708746,
大阪府,枚方市,35-7,須山町18,須山中央公園,34.8215464,135.6719832,
大阪府,枚方市,36-1,出屋敷元町１丁目36,出屋敷元町１丁目小規模公園272,34.8227286,135.6859548,
大阪府,枚方市,36-2,田口１丁目66,山田神社,34.82783680000001,135.6776749,
大阪府,枚方市,36-3,田口１丁目28,田口1丁目28-5東側水路,34.826579,135.6753834,
大阪府,枚方市,36-4,田口５丁目1,穂谷川資源循環センター,34.82991680000001,135.6837369,
大阪府,枚方市,36-5,田口５丁目11,京阪バス国道田ノ口バス停近辺(新世病院前),34.8272075,135.683589,
大阪府,枚方市,36-6,田口５丁目11,元木工具向い,34.8272075,135.683589,
大阪府,枚方市,36-7,出屋敷元町２丁目10,京阪バス出屋敷バス停近辺,34.8271953,135.6873596,
大阪府,枚方市,37-1,交北２丁目30,交北小学校正門,34.8309027,135.6770835,
大阪府,枚方市,37-2,交北３丁目10,交北北公園,34.8304236,135.6821104,緯度経度は怪しい
大阪府,枚方市,37-3,交北３丁目2,府営枚方田ノ口住宅Ｂ7-2棟前,34.8322143,135.6778227,
大阪府,枚方市,37-4,交北３丁目2,府営枚方田ノ口住宅Ｂ21棟近辺,34.8322143,135.6778227,
大阪府,枚方市,37-5,片鉾本町1,甲斐田公園,34.8285013,135.6716876,
大阪府,枚方市,37-6,北片鉾町4,片鉾橋近辺,34.8372676,135.6712415,
大阪府,枚方市,37-7,交北４丁目1248,まりも会わかたけ前,34.8299698,135.6781815,
大阪府,枚方市,38-1,車塚１丁目1,輝きプラザきらら東側,34.8335643,135.6709091,
大阪府,枚方市,38-2,黄金野１丁目5,阪今池公園,34.8396012,135.6648142,
大阪府,枚方市,38-3,小倉町13,小倉保育園東側,34.8351047,135.6628282,
大阪府,枚方市,38-4,小倉町29,小倉小学校正門,34.8362653,135.6648142,
大阪府,枚方市,38-5,小倉町29,小倉小学校裏門前,34.8362653,135.6648142,
大阪府,枚方市,38-6,渚栄町6,渚公園前川沿い（渚栄町6-26近辺）,34.8329438,135.6607498,
大阪府,枚方市,38-7,渚栄町27,渚栄公園（北側）,34.8348612,135.6602325,
大阪府,枚方市,38-8,黄金野２丁目5,こぐま緑道（黄金野２丁目8-10近辺）,34.8385104,135.6688051,
大阪府,枚方市,39-1,三栗１丁目17,三栗東公園南側,34.8358057,135.6597153,
大阪府,枚方市,39-2,三栗１丁目26,三栗南公園(北側),34.8348612,135.6573507,
大阪府,枚方市,39-3,三栗１丁目7,府営枚方三栗住宅南踏切,34.8371279,135.6610084,
大阪府,枚方市,39-4,三栗２丁目12,駐車場前鉄柵,34.8402641,135.6617104,
大阪府,枚方市,39-5,三栗２丁目5,京阪バス三栗府営住宅前バス停,34.8383396,135.659937,
大阪府,枚方市,39-6,三栗２丁目5,府営枚方三栗住宅３号棟近辺,34.8383396,135.659937,
大阪府,枚方市,39-7,三栗２丁目10,府道京都守口線歩道鉄柵（古紙リサイクルステーション向い）,34.8393691,135.6610538,
大阪府,枚方市,40-1,牧野阪１丁目14,京阪電鉄高架下（牧野坂1丁目14-18近辺）,34.8431116,135.6647403,
大阪府,枚方市,40-2,牧野阪１丁目20,京阪電鉄高架下（牧野駅F駐輪センター東側）,34.8422777,135.6647403,
大阪府,枚方市,40-3,西牧野２丁目1,西牧野小学校正門,34.8430579,135.6605281,
大阪府,枚方市,40-4,西牧野２丁目1,西牧野小学校裏門前（水路沿い）,34.8430579,135.6605281,
大阪府,枚方市,40-5,西牧野３丁目13,西牧野3丁目第２小規模公園62,34.8464185,135.661341,
大阪府,枚方市,40-6,西牧野４丁目1,牧野阪歩道橋近辺,34.8450966,135.6643708,
大阪府,枚方市,40-7,牧野阪２丁目4,牧野さくら橋（京阪バス京阪牧野駅前バス停前）,34.8439322,135.6654886,
大阪府,枚方市,41-1,牧野阪２丁目1,牧野東駐輪場東側入口(防垣内橋近辺）,34.8421672,135.6652576,
大阪府,枚方市,41-2,牧野阪２丁目10,駐車場（牧野阪2丁目10-33）向い（川沿い）,34.8431223,135.6667357,
大阪府,枚方市,41-3,牧野阪２丁目15,牧野公園（阪会館近辺）,34.841989,135.6685095,
大阪府,枚方市,41-4,宇山町1,牧野公園（京阪バス歯科大学前バス停）,34.8418537,135.6690961,
大阪府,枚方市,41-5,牧野下島町2,牧野松園ボウル向い,34.84587,135.666514,
大阪府,枚方市,41-6,牧野阪２丁目6,京阪牧野駅西側（橋欄干）,34.8444124,135.6663662,
大阪府,枚方市,41-7,宇山町4,牧野生涯学習市民センター,34.843319,135.668419,
大阪府,枚方市,42-1,宇山東町7,宇山東公園遊水地東側の斜面,34.8434073,135.6719093,
大阪府,枚方市,42-2,牧野本町１丁目22,牧野本町会館前,34.84082679999999,135.6726485,
大阪府,枚方市,42-3,牧野本町１丁目26,西野医院前駐車場,34.8401639,135.6728702,
大阪府,枚方市,42-4,東牧野町8,片鉾橋北近辺（堤防）,34.8368061,135.6746442,
大阪府,枚方市,42-5,牧野本町１丁目4,牧野ハイツ向い,34.8408031,135.6704458,
大阪府,枚方市,42-6,牧野本町１丁目2,府営枚方牧野住宅南西側,34.8387597,135.6711702,
大阪府,枚方市,42-7,宇山東町18,京阪バス関西医大前バス停,34.8413685,135.6738311,
大阪府,枚方市,43-1,招提中町１丁目24,ハイツ家村近辺,34.8396065,135.681519,
大阪府,枚方市,43-2,招提中町１丁目53,平野小学校正門,34.83747530000001,135.6795969,
大阪府,枚方市,43-3,招提中町１丁目53,平野小学校通用門,34.83747530000001,135.6795969,
大阪府,枚方市,43-4,招提南町１丁目45,招提南町１丁目ちびっこ広場179,34.8337141,135.6816299,
大阪府,枚方市,43-5,招提中町１丁目50,府営枚方東牧野住宅 集会所近辺,34.8375932,135.678488,
大阪府,枚方市,43-6,東牧野町11,府営枚方東牧野住宅１号棟近辺,34.8369482,135.6772313,
大阪府,枚方市,43-7,招提中町1丁目44,牧野ハイム付近,34.8358711,135.6800404,
大阪府,枚方市,43-8,東牧野町33,ラ・ブリース京阪牧野向かい（小規模公園415）,34.8397641,135.6771574,
大阪府,枚方市,44-1,招提南町３丁目9,緑地（中堀珠算塾招提教場（招堤南町3丁目4-13）近辺）,34.831599,135.6854373,
大阪府,枚方市,44-2,招提南町３丁目3,日置公園横緑地(めら眼科斜め向かい),34.8313529,135.6847443,
大阪府,枚方市,44-3,招提南町３丁目12,府営枚方招提住宅23号棟近辺,34.8326115,135.6850676,
大阪府,枚方市,44-4,招提南町３丁目18,府営枚方招提住宅14号棟近辺,34.8331951,135.6884687,
大阪府,枚方市,44-5,招提南町３丁目12,府営枚方招提住宅18号棟近辺,34.8326115,135.6850676,
大阪府,枚方市,44-6,招提南町３丁目19,府営枚方招提住宅８号棟集会所,34.8315413,135.6872857,
大阪府,枚方市,44-7,招提東町２丁目1,招提中学校正門近辺,34.835277,135.6887645,緯度経度は怪しい
大阪府,枚方市,45-1,招提北町１丁目2260,JA北河内営農センター北側水路沿い,34.8469705,135.6839552,
大阪府,枚方市,45-2,招提中町２丁目20,招提公民館別館前（招提中町２丁目20-16近辺）,34.8397413,135.684698,
大阪府,枚方市,45-3,招提中町３丁目2,京阪バス招提バス停近辺,34.83897040000001,135.6880251,
大阪府,枚方市,45-4,招提元町２丁目38,京阪バス関西記念病院前バス停近辺（タイヤ館枚方近辺）,34.8449563,135.6845501,
大阪府,枚方市,45-5,招提元町２丁目8,招提元町２丁目小規模公園38,34.8432457,135.6823322,
大阪府,枚方市,45-6,招提元町４丁目1,サカイ引越センター前,34.8384738,135.6916482,
大阪府,枚方市,45-7,招提元町３丁目14,招提土地改良区倉庫入口近辺,34.8439468,135.685997,
大阪府,枚方市,46-1,招提平野町6,招提保育園グラウンド近辺,34.8411538,135.6800404,
大阪府,枚方市,46-2,養父丘１丁目6,ショウフウ（養父丘１丁目６-17）向い,34.8420383,135.6759008,
大阪府,枚方市,46-3,養父丘１丁目3,スーパーコノミヤ駐車場,34.8411899,135.6770835,
大阪府,枚方市,46-4,養父丘２丁目7,殿山第二小学校 会館との二入口,34.8424798,135.6795969,
大阪府,枚方市,46-5,宇山東町10,宇山東公園,34.8427657,135.6732398,
大阪府,枚方市,46-6,養父丘２丁目22,養父丘２丁目小規模公園25,34.8431925,135.6810015,
大阪府,枚方市,46-7,養父丘２丁目28,養父丘２丁目小規模公園49（佐藤病院南）,34.84397670000001,135.6808167,
大阪府,枚方市,47-1,上島町5,京阪電鉄踏切近辺（広報板横）,34.8487532,135.6694703,
大阪府,枚方市,47-2,上島東町4,牧野小学校正門,34.8497511,135.6760486,
大阪府,枚方市,47-3,上島東町4,牧野小学校裏門,34.8497511,135.6760486,
大阪府,枚方市,47-4,上島東町4,牧野小学校単独調理場東側,34.8497511,135.6760486,
大阪府,枚方市,47-5,養父西町28,京阪電鉄線路沿い,34.8486107,135.6697659,
大阪府,枚方市,47-6,養父元町2,美容院ミモザ前,34.8466576,135.6732398,
大阪府,枚方市,47-7,養父東町1,第三中学校北西側(プール横),34.847242,135.67664,
大阪府,枚方市,47-8,南船橋２丁目8,府営船橋住宅会館西側,34.8500359,135.6812233,
大阪府,枚方市,48-1,牧野北町6,上島南公園南側,34.8484822,135.6659967,
大阪府,枚方市,48-2,牧野北町6,上島南公園北側,34.8484822,135.6659967,
大阪府,枚方市,48-3,牧野北町7,上島東公園,34.8490881,135.6676226,
大阪府,枚方市,48-4,牧野北町6,府公社牧野Ｂ団地Ａ７棟北,34.8484822,135.6659967,
大阪府,枚方市,48-5,牧野北町8,上島北公園(府営牧野北住宅Ｂ２棟近辺),34.8513619,135.6679238,
大阪府,枚方市,48-6,牧野北町9,府営牧野北住宅第一集会所西（川沿い）,34.8498649,135.6665879,
大阪府,枚方市,48-7,牧野北町6,府公社牧野団地A２棟西（川沿い）,34.8484822,135.6659967,
大阪府,枚方市,49-1,船橋本町１丁目13,二の宮公園（シャングリ・ラ近辺）,34.8526164,135.680484,
大阪府,枚方市,49-2,西船橋１丁目6,船橋川ちびっこ広場近辺,34.8514154,135.6777858,
大阪府,枚方市,49-3,船橋本町１丁目837,船橋土地改良区会館,34.8521734,135.6797651,
大阪府,枚方市,49-4,船橋本町２丁目7,2nd STREET枚方くずは店近辺,34.8544082,135.6831785,
大阪府,枚方市,49-5,船橋本町２丁目51,にしうえファミリークリニック近辺,34.8521743,135.682554,
大阪府,枚方市,49-6,船橋本町１丁目746,コーポ船橋近辺,34.851521,135.6806266,
大阪府,枚方市,49-7,北船橋町65,樟葉西小学校南へ約100ｍ(空き地近辺）,34.8549829,135.6801883,
大阪府,枚方市,50-1,楠葉並木１丁目11,樟葉西小学校正門,34.857221,135.6790055,
大阪府,枚方市,50-2,楠葉並木１丁目11,樟葉西小学校北・給食調理場近辺,34.857221,135.6790055,
大阪府,枚方市,50-3,楠葉並木２丁目29,枚方市役所北部支所駐車場近辺,34.859623,135.681519,
大阪府,枚方市,50-4,楠葉並木２丁目30,天満川自転車駐車場近辺,34.8607776,135.6794121,
大阪府,枚方市,50-5,楠葉花園町5,センチュリータウン２番館近辺（電話ボックス横）,34.8581577,135.674889,
大阪府,枚方市,50-6,楠葉並木１丁目6,第一東洋マンション近辺（川沿い）,34.8573136,135.6770835,
大阪府,枚方市,50-7,楠葉花園町15,くずは北駐輪場B棟南西側コンクリート柵,34.8603707,135.678121,
大阪府,枚方市,50-8,楠葉並木１丁目38,ダイソー北側（川沿い）,34.8573149,135.6830992,
大阪府,枚方市,51-1,楠葉中之芝１丁目18,大阪市水道局楠葉取水場北側,34.8737843,135.6798187,
大阪府,枚方市,51-2,町楠葉１丁目32,町楠葉1丁目32-3近辺,34.8662975,135.6783402,
大阪府,枚方市,51-3,楠葉中町24,楠葉中町第２小規模公園90(北楠葉交番近辺),34.869863,135.6808906,
大阪府,枚方市,51-4,楠葉中之芝２丁目,楠葉台場跡史跡公園南側鉄柵,34.87761860000001,135.6816668,
大阪府,枚方市,51-5,楠葉中町27,楠葉中町西公園（楠葉中町29-10近辺）,34.8681828,135.680484,
大阪府,枚方市,51-6,楠葉中町39,まつもと歯科前の植え込み,34.8674488,135.6808536,
大阪府,枚方市,51-7,楠葉中町67,楠葉中町東公園,34.86777319999999,135.6827758,
大阪府,枚方市,51-8,町楠葉1丁目9,枚方市町楠葉自転車駐輪場近辺（水路沿い）,34.8631046,135.6780445,
大阪府,枚方市,52-1,楠葉丘２丁目1,市民の森（鏡伝池）緑地南側,34.8643041,135.6895408,
大阪府,枚方市,52-2,楠葉野田３丁目13,樟葉北小学校正門,34.8687392,135.6862506,
大阪府,枚方市,52-3,楠葉野田３丁目13,樟葉北小学校裏門,34.8687392,135.6862506,
大阪府,枚方市,52-4,北楠葉町1,北楠葉町第２小規模公園161,34.8701746,135.679523,
大阪府,枚方市,52-5,楠葉野田３丁目40,登公園近辺,34.8683045,135.6877293,
大阪府,枚方市,52-6,北楠葉町36,北楠葉区自治会館,34.8706604,135.6841437,
大阪府,枚方市,52-7,楠葉丘２丁目10,市民の森（鏡伝池）緑地北側近辺,34.8655961,135.6900003,
大阪府,枚方市,53-1,南楠葉１丁目26,楠葉野保育所前,34.8621532,135.6791533,
大阪府,枚方市,53-2,南楠葉１丁目68,サンディ道路向かい,34.8644019,135.6799665,
大阪府,枚方市,53-3,南楠葉１丁目9,月極駐車場前（楠葉野田1丁目9-8近辺）,34.8620535,135.6816668,
大阪府,枚方市,53-4,南楠葉２丁目40,樟葉小学校正門近辺,34.8646623,135.6843283,
大阪府,枚方市,53-5,南楠葉２丁目40,樟葉幼稚園正門,34.8646623,135.6843283,
大阪府,枚方市,53-6,楠葉野田２丁目46,楠葉野田2丁目ちびっこ広場23,34.8669858,135.684698,
大阪府,枚方市,53-7,楠葉野田１丁目25,ドラッグストア「ライフォート」向かい,34.8657525,135.6803361,
大阪府,枚方市,53-8,南楠葉２丁目61,日の出駐車場東側,34.863137,135.6840326,
大阪府,枚方市,54-1,楠葉朝日１丁目6,藤原交差点近辺(水路）,34.8572352,135.683589,
大阪府,枚方市,54-2,楠葉朝日２丁目4,楠葉朝日２丁目10-4（水路沿い）,34.8594876,135.6841065,
大阪府,枚方市,54-3,楠葉朝日３丁目14,楠葉東公園(消火栓後ろ),34.8606847,135.6914263,
大阪府,枚方市,54-4,楠葉美咲１丁目25,樟葉南小学校正門,34.8551677,135.6878772,
大阪府,枚方市,54-5,楠葉朝日３丁目11,楠葉朝日３丁目8-24（水路沿い）,34.8605316,135.6897257,
大阪府,枚方市,54-6,楠葉朝日１丁目15,面取公園,34.8561374,135.6852894,
大阪府,枚方市,54-7,楠葉面取２丁目5,東山公園北側,34.8538449,135.6909087,緯度経度は怪しい
大阪府,枚方市,55-1,東山１丁目7,船橋土地改良区所有地(東山１丁目20-5近辺),34.851707,135.6897725,
大阪府,枚方市,55-2,東船橋２丁目148,山原公園南側,34.85164390000001,135.6873114,
大阪府,枚方市,55-3,東船橋１丁目28,船橋公園スーパー駐車場側（控え必要）,34.8531293,135.6840326,
大阪府,枚方市,55-4,東山１丁目68,船橋小学校正門横(左緑色ﾌｪﾝｽ),34.8508476,135.6887645,
大阪府,枚方市,55-5,東山２丁目38,東山２丁目第４小規模公園225,34.84824220000001,135.6919618,
大阪府,枚方市,55-6,東山２丁目47,中の池公園（京阪バス中の池公園バス停近辺）,34.8483091,135.6917221,
大阪府,枚方市,55-7,東山２丁目47,中の池公園駐車場フェンス,34.8483091,135.6917221,
大阪府,枚方市,55-8,東山１丁目42,中の谷公園北側入口,34.8508476,135.6887645,
大阪府,枚方市,56-1,高野道１丁目23,スーパー万代前  川沿い,34.8458398,135.7003004,
大阪府,枚方市,56-2,高野道２丁目10,高野台入口(高野道2丁目10-1近辺),34.848336,135.6980077,
大阪府,枚方市,56-3,高野道２丁目15,高野道南公園,34.8484778,135.7005962,
大阪府,枚方市,56-4,高野道２丁目20,枚方ハイツ11号棟近辺,34.8500035,135.700892,
大阪府,枚方市,56-5,高野道２丁目43,高野道東公園,34.8483891,135.6993389,
大阪府,枚方市,56-6,高野道２丁目20,高野道公園,34.8500035,135.700892,
大阪府,枚方市,56-7,高野道２丁目44,京阪バス高野道バス停近辺,34.846706,135.7005222,
大阪府,枚方市,57-1,長尾家具町２丁目2,京阪バス車谷公園バス停近辺,34.844698,135.7083954,
大阪府,枚方市,57-2,長尾家具町２丁目1,車谷公園東側,34.8448239,135.7101333,
大阪府,枚方市,57-3,長尾家具町２丁目39,笹谷公園,34.8408762,135.7084271,
大阪府,枚方市,57-4,長尾家具町４丁目4,船橋川沿いガードレール（シャーメゾンレーヴ前）,34.8365495,135.7091653,
大阪府,枚方市,57-5,長尾家具町４丁目15,獅子口公園(電話ボックスの前),34.8368726,135.706699,
大阪府,枚方市,57-6,北山１丁目71,北山1丁目小規模公園 (北山自治会集会所近辺),34.8400221,135.706883,
大阪府,枚方市,57-7,長尾家具町４丁目19,家具町集会所近辺,34.8389122,135.7060097,
大阪府,枚方市,58-1,長尾元町６丁目18,長尾元町６丁目小規模公園310,34.8282656,135.7128007,
大阪府,枚方市,58-2,長尾元町３丁目21,トンボ池西側鉄柵,34.8280307,135.7066611,
大阪府,枚方市,58-3,長尾元町３丁目59,長尾元町公園(長尾元町３丁目45-15近辺),34.8303741,135.7055516,
大阪府,枚方市,58-4,長尾元町５丁目14,池田泉州銀行枚方北支店前 (踏切下・長尾元町５丁目14-1近辺),34.8247896,135.7113582,
大阪府,枚方市,58-5,長尾荒阪１丁目,市道沿い鉄柵（かとうクリニック近辺）,34.8310717,135.7136145,
大阪府,枚方市,58-6,長尾元町６丁目56,京阪バス長尾元町７丁目バス停横,34.8336764,135.7110993,緯度経度は怪しい
大阪府,枚方市,58-7,長尾播磨谷１丁目3867,新宇治橋交差点近辺（八田川沿い）,34.8271116,135.7138788,
大阪府,枚方市,58-8,長尾荒阪１丁目,府道長尾八幡線ST-CREATE近辺,34.8310717,135.7136145,
大阪府,枚方市,59-1,長尾台１丁目6,長尾台北公園(長尾台1丁目16-1近辺),34.8211229,135.7166477,
大阪府,枚方市,59-2,藤阪東町３丁目9,藤阪東町南公園,34.8186458,135.7145762,
大阪府,枚方市,59-3,長尾宮前１丁目12,京阪バス長尾台郵便局バス停,34.8231552,135.7127268,
大阪府,枚方市,59-4,藤阪東町４丁目15,はっぴーらいふ枚方前ガードレール,34.8182711,135.7126158,
大阪府,枚方市,59-5,藤阪東町３丁目10,菅原東小学校裏門,34.8181327,135.7139104,
大阪府,枚方市,59-6,長尾台４丁目1,責谷橋近辺,34.8218594,135.7188672,
大阪府,枚方市,59-7,長尾台４丁目34,長尾台4丁目34-1 ﾄﾞﾋ電気近辺 船橋川緑道,34.8196314,135.7217528,
大阪府,枚方市,59-8,藤阪東町１丁目2,枚方公済病院フェンス（ヘルパーステーション東側）,34.818244,135.709122,
大阪府,枚方市,60-1,藤阪中町13,菅原小学校正門,34.8232156,135.7079925,
大阪府,枚方市,60-2,藤阪中町13,菅原小学校南西側,34.8232156,135.7079925,
大阪府,枚方市,60-3,藤阪北町1,藤阪北町西公園(柴野マンション近辺）,34.8239871,135.7033697,
大阪府,枚方市,60-4,藤阪元町３丁目13,コーポブルーム向い,34.8190602,135.7039244,
大阪府,枚方市,60-5,藤阪元町３丁目25,駐車場向いガードレール,34.8204472,135.7042202,
大阪府,枚方市,60-6,藤阪元町３丁目19,藤阪公園,34.820669,135.7031848,
大阪府,枚方市,60-7,長尾元町１丁目40,多田製茶近辺,34.8244682,135.709287,緯度経度は怪しい
大阪府,枚方市,61-1,田口山２丁目6,本覚寺近辺,34.8296465,135.6915003,
大阪府,枚方市,61-2,山田池公園1,京阪グランド入口近辺,34.8221688,135.6887973,緯度経度は怪しい
大阪府,枚方市,61-3,山田池北町12,京阪バス春日山バス停近辺,34.8255696,135.6950497,
大阪府,枚方市,61-4,田口山３丁目10,田口山幼稚園東側,34.8269736,135.6967505,
大阪府,枚方市,61-5,山田池東町32,北谷川西公園,34.8238194,135.6973791,
大阪府,枚方市,61-6,田口山3丁目38,田口山3丁目38-19南,34.8292072,135.693275,
大阪府,枚方市,61-7,田口山１丁目22,田口山１丁目小規模公園41,34.8304992,135.6900214,
大阪府,枚方市,62-1,津田西町１丁目33,津田小学校正門近辺,34.8078303,135.6983775,
大阪府,枚方市,62-2,津田西町１丁目1,国道３０７号線コーナン向かい河川フェンス,34.8104749,135.6954934,
大阪府,枚方市,62-3,津田西町２丁目20,喫茶 「ライムライト」向い,34.8060616,135.6980077,
大阪府,枚方市,62-4,野村中町25,代々池公園東側,34.80952389999999,135.6937186,
大阪府,枚方市,62-5,大峰元町２丁目2,第三学校給食共同調理場近辺,34.8136,135.6875814,
大阪府,枚方市,62-6,大峰南町23,津田第二団地前信号近辺,34.8120159,135.6891341,
大阪府,枚方市,62-7,大峰東町20,野村北町5-1近辺,34.8122453,135.6929792,
大阪府,枚方市,63-1,春日西町１丁目31,ドゥベスト株式会社（春日北町２丁目33-1）向い,34.8074397,135.6819071,
大阪府,枚方市,63-2,春日東町２丁目3,ビレッジハウス春日南側入口,34.8022146,135.6915742,
大阪府,枚方市,63-3,春日北町４丁目20,春日東野幼稚園,34.80448519999999,135.6880251,
大阪府,枚方市,63-4,春日東町２丁目7,ビレッジハウス春日北側フェンス,34.8028565,135.6916851,
大阪府,枚方市,63-5,春日元町２丁目13,ロイヤルハイツ前,34.8011867,135.6876554,
大阪府,枚方市,63-6,春日西町３丁目30,北商陸運（株）春日倉庫近辺,34.8024064,135.6819625,
大阪府,枚方市,63-7,春日元町２丁目1,春日元町２丁目１-１向い,34.8016942,135.6860288,
大阪府,枚方市,64-1,津田元町１丁目22,津田元町１丁目20-36向い,34.8062662,135.7010399,
大阪府,枚方市,64-2,津田北町１丁目32,津田中学校正門（京阪バス津田中学校前バス停前）,34.8105255,135.6997087,
大阪府,枚方市,64-3,津田北町３丁目30,津田病院東約50ｍ,34.8139826,135.712135,
大阪府,枚方市,64-4,津田北町２丁目25,津田生涯学習市民センター近辺（国道307号沿い・植込み）,34.8097451,135.7036285,
大阪府,枚方市,64-5,津田北町２丁目33,コンビニ西側ガードレール,34.8102506,135.7048859,
大阪府,枚方市,64-6,津田北町２丁目2,日本郵便（株）枚方東支店近辺,34.8104801,135.7032587,緯度経度は怪しい
大阪府,枚方市,64-7,津田元町４丁目14,大和ハウス西側ガードレール,34.8031038,135.6995238,
大阪府,枚方市,64-8,津田山手１丁目50,京阪バスくにみ坂南バス停近辺（調整池フェンス）,34.8044008,135.7054776,
大阪府,枚方市,65-1,尊延寺２丁目5,杉責谷1丁目4612-27南側,34.8075736,135.7262664,
大阪府,枚方市,65-2,氷室台１丁目20,氷室台１丁目小規模公園88北側,34.8110054,135.7298184,
大阪府,枚方市,65-3,尊延寺１丁目1,京阪バス氷室台バス停近辺,34.806337,135.7250824,
大阪府,枚方市,65-4,尊延寺２丁目19,京阪バスむろ谷橋バス停近辺,34.8054948,135.7269694,
大阪府,枚方市,65-5,尊延寺３丁目1,氷室小学校南側,34.8040518,135.7269324,
大阪府,枚方市,65-6,尊延寺５丁目36,尊延寺公園,34.7993411,135.7280424,
大阪府,枚方市,65-7,尊延寺６丁目9,尊延寺６丁目小規模公園249,34.8034049,135.7311505,
大阪府,枚方市,66-1,杉３丁目1,新上渡場橋近辺,34.8129126,135.7182383,
大阪府,枚方市,66-2,杉１丁目3,杉１丁目小規模公園31,34.8115056,135.7181274,
大阪府,枚方市,66-3,杉２丁目3,杉老人集会所近辺,34.8129771,135.719977,
大阪府,枚方市,66-4,杉２丁目20,北川造園材料置場前（信号機近辺）,34.8107919,135.7221967,
大阪府,枚方市,66-5,長尾台３丁目16,大阪国際大学正門前バスロータリー,34.8168861,135.7162038,
大阪府,枚方市,66-6,杉３丁目50,京阪バス杉山手バス停近辺,34.8147535,135.716369,緯度経度は怪しい
大阪府,枚方市,66-7,杉山手３丁目15,杉山手南公園(松陽台自治会集会所近辺),34.8144549,135.7226776,
大阪府,枚方市,67-1,藤阪西町2,藤阪ハイツＢ３棟西（山田池公園裏入口近辺）,34.8202985,135.6967505,
大阪府,枚方市,67-2,藤阪西町1,藤阪西公園(京阪バス藤阪ハイツバス停近辺),34.8214111,135.6967505,
大阪府,枚方市,67-3,藤阪元町２丁目51,藤阪ハイツＤ３棟近辺,34.8211162,135.7008181,
大阪府,枚方市,67-4,藤阪西町6,NTT西日本 牧野藤阪RT-BOX,34.819904,135.7004483,
大阪府,枚方市,67-5,藤阪元町２丁目50,藤阪元町２丁目小規模公園47 (ﾌﾙーﾚ藤阪内),34.8214226,135.7013358,
大阪府,枚方市,67-6,藤阪南町１丁目40,藤阪小学校正門,34.81637449999999,135.6991171,
大阪府,枚方市,67-7,藤阪南町２丁目1,ＪＲ学研都市線藤阪駅前,34.8144855,135.702741,
大阪府,枚方市,68-1,長尾西町１丁目4,長尾西町公園,34.8317358,135.6995608,
大阪府,枚方市,68-2,長尾西町２丁目45,西長尾小学校グランド入口近辺,34.8322058,135.700892,
大阪府,枚方市,68-3,長尾西町２丁目45,西長尾小学校(西長尾集会所近辺),34.8322058,135.700892,
大阪府,枚方市,68-4,長尾西町３丁目4,長尾西町3丁目4-13前水路沿い,34.8342362,135.7011509,
大阪府,枚方市,68-5,長尾西町２丁目45,松美ヶ丘住宅入口（長尾西町２丁目14-34近辺）,34.8322058,135.700892,
大阪府,枚方市,68-6,長尾北町３丁目3,長尾中学校正門近辺,34.8351684,135.7085843,
大阪府,枚方市,68-7,長尾北町３丁目2,船橋川沿い（長尾小学校近辺）,34.8341048,135.7102116,緯度経度は怪しい
大阪府,枚方市,69-1,高田１丁目13,葉月企画（高田１丁目11-25）近辺,34.7765942,135.6611193,
大阪府,枚方市,69-2,高田２丁目15,春日小学校（京阪バス野口バス停近辺）,34.7801387,135.6612671,
大阪府,枚方市,69-3,高田２丁目24,府営枚方高田住宅南側,34.7802326,135.6593458,
大阪府,枚方市,69-4,高田２丁目25,春日公園,34.7798042,135.6602325,
大阪府,枚方市,69-5,茄子作４丁目34,コーポ広野近辺（川沿い）,34.7835387,135.6700615,
大阪府,枚方市,69-6,茄子作４丁目51,茄子作南公園,34.7823096,135.6682877,
大阪府,枚方市,69-7,茄子作４丁目52,茄子作4丁目52-11近辺,34.78196,135.6684355,
大阪府,枚方市,70-1,西船橋１丁目1,西船橋１丁目1-23近辺（船橋川堤防下）,34.8510769,135.6756051,
大阪府,枚方市,70-2,西船橋２丁目53,楠葉中宮線側道（肥田歯科医院近辺）,34.8519108,135.6741637,
大阪府,枚方市,70-3,西船橋２丁目7,グリーンタウンくずは近辺 川沿い,34.8544197,135.6750138,
大阪府,枚方市,70-4,西船橋２丁目43,楠葉西中学校プール近辺,34.8531296,135.6725006,
大阪府,枚方市,70-5,西船橋２丁目43,楠葉西中学校正門,34.8531296,135.6725006,
大阪府,枚方市,70-6,樋之上町9,府営枚方樋之上住宅入口信号近辺,34.8529012,135.6683616,
大阪府,枚方市,70-7,樋之上町5,樋之上町小規模公園96,34.8541915,135.6708746,
大阪府,枚方市,71-1,長尾東町３丁目31,東長尾公園,34.8255056,135.7219747,
大阪府,枚方市,71-2,長尾東町１丁目47,長尾東町１丁目小規模公園154,34.8232238,135.7209389,
大阪府,枚方市,71-3,長尾東町２丁目41,長尾東町２丁目小規模公園19,34.8260772,135.7207909,
大阪府,枚方市,71-4,長尾東町３丁目9,長尾東町3丁目小規模公園20,34.8249044,135.720051,
大阪府,枚方市,71-5,長尾東町３丁目2,長尾サニーハイツ遊水池北側,34.8253125,135.7191184,
大阪府,枚方市,71-6,長尾東町３丁目2,長尾サニーハイツ遊水池南側,34.8253125,135.7191184,
大阪府,枚方市,71-7,長尾東町１丁目3,シャンテー長尾西側,34.8265665,135.7151681,
大阪府,枚方市,72-1,御殿山町1,御殿山自転車駐車場入口（ｺﾄﾌﾞｷ近辺),34.8286665,135.653792,
大阪府,枚方市,72-2,御殿山町16,コンビニ北側,34.8285673,135.6577202,
大阪府,枚方市,72-3,渚元町9,渚元町ちびっこ広場25（渚の院会館横）,34.8318848,135.6578603,
大阪府,枚方市,72-4,御殿山町2,御殿山駅近辺（黒田川沿い）,34.8292374,135.6540258,
大阪府,枚方市,72-5,渚元町3,渚橋北（渚元町3-18近辺）,34.8322739,135.6557991,
大阪府,枚方市,72-6,渚元町7,レオパレス潮騒（渚元町7-15）西側,34.8332361,135.6566857,
大阪府,枚方市,72-7,御殿山町16,御殿山町16-26近辺,34.8285673,135.6577202,
大阪府,枚方市,73-1,長尾谷町１丁目73,長尾西中学校西側,34.8284705,135.6979708,
大阪府,枚方市,73-2,長尾谷町１丁目73,長尾西中学校東側,34.8284705,135.6979708,
大阪府,枚方市,73-3,長尾谷町３丁目5,長尾谷町３丁目第２小規模公園77（藤阪ﾊﾟ-ｸﾊｲﾂ３号棟近辺）,34.8221367,135.6998566,
大阪府,枚方市,73-4,招提大谷２丁目19,（株）ダイフレックス東側水路沿い,34.83191559999999,135.6963068,
大阪府,枚方市,73-5,長尾谷町２丁目6,masked,34.8238485,135.6991289,
大阪府,枚方市,73-6,長尾谷町２丁目500,けやきざか公園,34.8251173,135.7005962,
大阪府,枚方市,73-7,招提大谷３丁目40,府営枚方招提第二住宅２号棟東側駐車場,34.8299763,135.6957152,
大阪府,枚方市,73-8,長尾谷町１丁目11,薬師谷西緑地,34.82933939999999,135.7012147,
大阪府,枚方市,74-1,山之上西町6,山之上西町6-26向い,34.8035968,135.6478198,
大阪府,枚方市,74-2,山之上西町8,さつき丘会館前フェンス,34.8031761,135.6481154,
大阪府,枚方市,74-3,山之上西町9,山之上西町小規模公園 66,34.8028763,135.6498884,
大阪府,枚方市,74-4,山之上西町16,さつき丘中央公園近辺,34.8014649,135.6487802,
大阪府,枚方市,74-5,山之上西町34,京阪バスさつき丘バス停近辺,34.8025209,135.6448649,
大阪府,枚方市,74-6,山之上５丁目37,さつき丘南公園,34.799547,135.6492974,
大阪府,枚方市,74-7,山之上西町16,さつき丘中央公園近辺,34.8014649,135.6487802,
大阪府,枚方市,75-1,香里ヶ丘７丁目5,香里ヶ丘西公園北側,34.7929667,135.6473766,
大阪府,枚方市,75-2,香里ヶ丘５丁目3,第四中学校正門近辺,34.7941906,135.6510238,
大阪府,枚方市,75-3,香里ヶ丘８丁目27,さだ山公園,34.7915849,135.6436878,
大阪府,枚方市,75-4,香里ヶ丘７丁目5,香里ヶ丘西公園南側,34.7929667,135.6473766,
大阪府,枚方市,75-5,香里ヶ丘５丁目4,香里ケ丘5丁目小規模公園182,34.7927216,135.651102,
大阪府,枚方市,75-6,香里ヶ丘５丁目3,第四中学校東側,34.7941906,135.6510238,
大阪府,枚方市,75-7,宮之下町13,山田神社近辺川沿い,34.7960225,135.6560207,
大阪府,枚方市,76-1,磯島茶屋町24,磯島茶屋町公園北側（磯島茶屋町24-28近辺）,34.8254847,135.6511444,
大阪府,枚方市,76-2,西禁野２丁目17,西禁野２丁目17-4近辺（川沿い）,34.8237061,135.654543,
大阪府,枚方市,76-3,磯島茶屋町19,エルツインA棟近辺,34.826634,135.6523634,
大阪府,枚方市,76-4,西禁野２丁目17,渚南町集会所,34.8237061,135.654543,
大阪府,枚方市,76-5,渚南町3,渚南町ちびっこ広場51,34.82533129999999,135.655208,
大阪府,枚方市,76-6,渚南町24,御殿山土地改良区会館前,34.8272452,135.6549863,
大阪府,枚方市,76-7,渚南町46,磯島茶屋町公園近辺（御殿山駅寄り）,34.8240911,135.6514399,
大阪府,枚方市,77-1,北山１丁目66,水道局・北山配水場横 関西電力鉄塔,34.839407,135.7032587,
大阪府,枚方市,77-2,北山１丁目79,京阪バス北山中央バス停向かい（大阪工大）,34.8428573,135.7053297,
大阪府,枚方市,77-3,北山１丁目41,ポエムノール集会所,34.8395362,135.7012618,
大阪府,枚方市,77-4,北山１丁目26,北山中央公園,34.84112229999999,135.7022972,
大阪府,枚方市,77-5,北山１丁目48,北山緑地（北山１丁目48-11近辺）,34.8385247,135.6987473,
大阪府,枚方市,77-6,北山１丁目62,北山南公園,34.8377113,135.6998566,
大阪府,枚方市,77-7,北山１丁目55,京阪バスぽえむ南橋バス停近辺,34.8360969,135.6983036,
大阪府,枚方市,78-1,尊延寺５丁目29,京阪バス境橋バス停近辺,34.7990952,135.7308545,
大阪府,枚方市,78-2,穂谷２丁目11,京阪バス穂谷バス停近辺,34.7936521,135.7294484,
大阪府,枚方市,78-3,穂谷２丁目2,穂谷２丁目3-10近辺,34.7963,135.7291524,
大阪府,枚方市,78-4,穂谷２丁目7,三之宮神社近辺,34.7944949,135.7288564,
大阪府,枚方市,78-5,宗谷１丁目11,宗谷１丁目第2小規模公園142,34.8001692,135.7338147,
大阪府,枚方市,78-6,宗谷１丁目12,宗谷１丁目12-3近辺,34.7994774,135.7335187,
大阪府,枚方市,78-7,宗谷１丁目14,消防署(氷室出張所）近辺,34.8005033,135.7348509,
大阪府,枚方市,78-8,宗谷２丁目16,三陽台入口（宗谷２丁目15-6）前,34.7980983,135.7378114,
大阪府,枚方市,78-9,宗谷２丁目27,宗谷２丁目27-14近辺,34.796603,135.7351469,
大阪府,枚方市,79-1,南中振１丁目61,平田駐車場近辺,34.7938078,135.6326778,
大阪府,枚方市,79-2,南中振1丁目8,蹉?神社鳥居横,34.79286,135.63061,
大阪府,枚方市,79-3,南中振1丁目41,しみず商店前,34.793704,135.6354843,
大阪府,枚方市,79-4,南中振1丁目64,南中振1丁目第2小規模公園273,34.7933567,135.6340441,
大阪府,枚方市,79-5,南中振1丁目7,蹉?神社月極駐車場,34.7932982,135.6317178,
大阪府,枚方市,79-6,南中振1丁目20,南中振1丁目小規模公園324,34.7902182,135.6334902,
大阪府,枚方市,79-7,南中振1丁目13,安井工務店（南中振１丁目13-15）近辺,34.791812,135.6310531,
大阪府,枚方市,80-1,伊加賀西町71,伊加賀西町東公園,34.8064855,135.6303146,
大阪府,枚方市,80-2,伊加賀西町56,伊加賀西町北公園,34.80730140000001,135.6260316,
大阪府,枚方市,80-3,伊加賀西町2,スーパーバンク伊加賀公園,34.8080961,135.6264009,
大阪府,枚方市,80-4,伊加賀西町33,リバティパーク進入路前,34.8089659,135.6292069,
大阪府,枚方市,80-5,伊加賀西町30,伊加賀西町公園西側,34.8094791,135.6298715,
大阪府,枚方市,80-6,伊加賀西町30,伊加賀西町公園東側,34.8094791,135.6298715,
大阪府,枚方市,80-7,伊加賀西町43,小規模公園426南西側,34.8065262,135.6245585,
