prefecture,city,number,address,name,lat,long
大阪府,茨木市,1,大住町11,茨木市立斎場第2駐車場西側金網,34.8235163,135.5756987
大阪府,茨木市,1,東宮町1,茨木公民館東側水路柵,34.8223863,135.5742972
大阪府,茨木市,1,片桐町8,茨木小学校西門南側の塀,34.8206818,135.5714944
大阪府,茨木市,1,上泉町10,上泉町北児童遊園東側金網,34.8239438,135.5716419
大阪府,茨木市,1,宮元町5,天理教島上分教会入口南側水路柵,34.8204419,135.5742972
大阪府,茨木市,1,田中町1,田中第2児童遊園北側フェンス,34.8257235,135.5708306
大阪府,茨木市,1,宮元町7,仲辻ビル東側水路柵,34.8213719,135.574961
大阪府,茨木市,1,片桐町8,茨木小学校南東フェンス,34.8206818,135.5714944
大阪府,茨木市,2,学園南町17-33,東雲幼稚園南側の鉄柵,34.81408150000001,135.5915798
大阪府,茨木市,2,学園南町16-24,日本特殊機械(株)南側歩道フェンス,34.8128816,135.593182
大阪府,茨木市,2,新堂一丁目16,山科橋東詰堤防下ガードレール,34.810523,135.5914127
大阪府,茨木市,2,新堂三丁目5-22,コインランドリー北側水路鉄柵,34.8096481,135.5942352
大阪府,茨木市,2,新堂三丁目9-10,新堂児童遊園北側フェンス,34.8092139,135.5958316
大阪府,茨木市,2,目垣一丁目3-9,松城荘東側水路鉄柵,34.8065692,135.5939493
大阪府,茨木市,2,目垣一丁目1,目垣バス停(阪急茨木行き)西側ガードレール,34.8067617,135.5922982
大阪府,茨木市,3,別院町1-21,丸屋ビルアネックス東側水路鉄柵,34.8187256,135.5748708
大阪府,茨木市,3,別院町7,奥村駐車場南側歩道植栽,34.8153063,135.5740021
大阪府,茨木市,3,大手町8,大手町月極駐車場南側鉄柵,34.81548860000001,135.5701668
大阪府,茨木市,3,主原町8,主原町児童遊園南側フェンス,34.8103007,135.5714206
大阪府,茨木市,3,主原町7,主原第2児童遊園南側金網,34.8106695,135.5717424
大阪府,茨木市,3,新庄町12,茨木高校正門東側道路鉄柵,34.8133573,135.5702344
大阪府,茨木市,3,別院町7,別院町自転車駐車場北側フェンス,34.8153063,135.5740021
大阪府,茨木市,4,駅前三丁目9,おにクル南側歩道鉄柵,34.815876,135.5692962
大阪府,茨木市,4,駅前一丁目1,茨木駅前交番南側道路鉄柵,34.8159751,135.5628146
大阪府,茨木市,4,駅前四丁目8,近鉄バス市役所前バス停付近の歩道鉄柵,34.8181374,135.5692817
大阪府,茨木市,4,駅前四丁目7,養精中学校正門東側植栽,34.8179439,135.5679542
大阪府,茨木市,4,上中条一丁目7,茨木区検察庁東側水路鉄柵,34.8198172,135.5681017
大阪府,茨木市,4,駅前四丁目7-60,養精中学校グラウンド西側フェンス,34.8178634,135.5681996
大阪府,茨木市,4,上中条二丁目3,マンションコスミオン上中条東側水路鉄柵,34.8214942,135.5679358
大阪府,茨木市,5,西駅前町1,JR茨木西口駐車場西側フェンス,34.8149097,135.5614277
大阪府,茨木市,5,西駅前町6,りそな銀行北側歩道鉄柵,34.8154524,135.5610222
大阪府,茨木市,5,春日一丁目12,松下モータース駐車場北側水路鉄柵,34.8194434,135.5642668
大阪府,茨木市,5,中穂積一丁目3-43,三島府民センター東側植栽,34.8179181,135.5581983
大阪府,茨木市,5,春日二丁目1-2,春日丘高校南側歩道,34.8177414,135.5603461
大阪府,茨木市,5,中穂積一丁目4,中穂積東公園北側金網,34.8175782,135.5571878
大阪府,茨木市,5,中穂積一丁目,中穂積一丁目児童遊園北側鉄柵,34.8173649,135.5576302
大阪府,茨木市,5,中穂積一丁目1,中穂積南公園南側金網,34.8156581,135.5577711
大阪府,茨木市,6,上穂積二丁目12-13,西幼稚園西側金網,34.8250878,135.5603039
大阪府,茨木市,6,春日三丁目7,春日三丁目児童遊園西側フェンス,34.8215035,135.5663317
大阪府,茨木市,6,春日五丁目1,月極モータープール東側鉄柵,34.8226407,135.5639718
大阪府,茨木市,6,上穂積二丁目7-1,上穂積二丁目児童遊園東側金網,34.8239462,135.5589575
大阪府,茨木市,6,上穂積三丁目6,上穂積公民館北側道路鉄柵,34.82369449999999,135.556598
大阪府,茨木市,6,上穂積四丁目6,上穂積四丁目児童遊園東側金網,34.8274078,135.5598423
大阪府,茨木市,6,上穂東町5-5,春日小学校北側の塀,34.82318619999999,135.5609668
大阪府,茨木市,6,上穂東町5-5,春日小学校南側金網,34.82318619999999,135.5609668
大阪府,茨木市,7,郡四丁目17,旧関西電力(株)物流センター西側水路鉄柵,34.83418230000001,135.5561556
大阪府,茨木市,7,郡山二丁目3,郡山児童遊園南側金網,34.8334846,135.5501099
大阪府,茨木市,7,郡三丁目7,郡第2児童遊園西側金網,34.829113,135.556303
大阪府,茨木市,7,郡五丁目26-23,郡小学校南側歩道鉄柵,34.8349337,135.5514687
大阪府,茨木市,7,郡五丁目20,プリベイル田中南側道路鉄柵,34.8324774,135.5533538
大阪府,茨木市,7,郡五丁目12-11,郡コミュニティセンター正門北側植栽,34.83444470000001,135.553418
大阪府,茨木市,7,下井町11,新豊川橋東側道路ガードレール,34.8365288,135.5478246
大阪府,茨木市,8,北春日丘一丁目6,長池西側道路ガードレール,34.820514,135.550825
大阪府,茨木市,8,見付山二丁目5-4,西中学校西門南側の塀,34.8207256,135.5535382
大阪府,茨木市,8,北春日丘一丁目4,浪速コーポ前道路鉄柵,34.8186963,135.5502574
大阪府,茨木市,8,北春日丘一丁目6,masked,34.820514,135.550825
大阪府,茨木市,8,見付山二丁目1,ダイエー上穂積店西側歩道鉄柵,34.8208529,135.5561556
大阪府,茨木市,8,見付山一丁目1,茨木レックスマンションA棟西側水路鉄柵,34.8188378,135.556303
大阪府,茨木市,8,見付山二丁目5-4,西中学校正門西側の塀,34.8207256,135.5535382
大阪府,茨木市,9,南春日丘六丁目7,masked,34.8174239,135.5333041
大阪府,茨木市,9,南春日丘二丁目2,春光園バス停歩道鉄柵,34.8164361,135.547456
大阪府,茨木市,9,南春日丘二丁目4,松沢池児童遊園前水路鉄柵,34.8178958,135.5441388
大阪府,茨木市,9,南春日丘五丁目1,沢池多世代交流センター東側道路鉄柵,34.8161391,135.5365469
大阪府,茨木市,9,南春日丘二丁目9,久保モータープール東側歩道鉄柵,34.8154934,135.5448022
大阪府,茨木市,9,南春日丘四丁目1,春日丘公園南側水路鉄柵,34.8174948,135.5422234
大阪府,茨木市,9,南春日丘六丁目5,月極駐車場南側水路鉄柵,34.817818,135.5353677
大阪府,茨木市,9,南春日丘七丁目3,南春日丘七丁目第二児童遊園南側金網,34.8180757,135.5307985
大阪府,茨木市,10,下穂積三丁目5,菜洗池西側歩道鉄柵,34.8134384,135.5548284
大阪府,茨木市,10,中穂積三丁目3-43,春日丘小学校南側植栽,34.8157642,135.5543841
大阪府,茨木市,10,中穂積三丁目3-43,春日丘小学校北門前歩道鉄柵,34.8157642,135.5543841
大阪府,茨木市,10,中穂積三丁目8,中穂積児童遊園東側金網,34.8166842,135.5532801
大阪府,茨木市,10,中穂積三丁目15,第二田中マンション南側水路鉄柵,34.8157126,135.5501099
大阪府,茨木市,10,中穂積三丁目4,春日丘橋西側水路鉄柵,34.815214,135.552433
大阪府,茨木市,10,南春日丘一丁目20,プライムタウンA棟東側道路鉄柵,34.8123225,135.5461178
大阪府,茨木市,10,紫明園1,紫明園北第二児童遊園南側フェンス,34.8147308,135.5509946
大阪府,茨木市,11,庄一丁目1,千歳橋北西堤防ガードレール,34.8252423,135.5786867
大阪府,茨木市,11,庄二丁目26-5,庄栄小学校南側水路鉄柵,34.8267922,135.5809085
大阪府,茨木市,11,庄一丁目9,庄第4児童遊園西側フェンス,34.8262219,135.5790181
大阪府,茨木市,11,庄二丁目25-27,庄栄小学校正門北側水路鉄柵,34.8273163,135.5811869
大阪府,茨木市,11,庄一丁目27-1,エスポワールセゾン東側道路鉄柵,34.8276108,135.5770091
大阪府,茨木市,11,橋の内二丁目7,オークタウン9号棟西側水路鉄柵,34.8220863,135.5824115
大阪府,茨木市,11,橋の内二丁目7,オークタウン19号棟北側水路鉄柵,34.8220863,135.5824115
大阪府,茨木市,11,庄一丁目28,庄一丁目児童遊園南側道路鉄柵,34.8278241,135.5785755
大阪府,茨木市,12,三島町3,三島公園北側道路ガードレール,34.8310861,135.578723
大阪府,茨木市,12,三島丘一丁目4,疣水神社西側道路鉄柵,34.8329435,135.5771739
大阪府,茨木市,12,三島丘二丁目30,三島丘公園東側入口フェンス,34.8355748,135.5809361
大阪府,茨木市,12,三島町2,三島南公園西側柵,34.8301577,135.5783701
大阪府,茨木市,12,三島丘二丁目2,masked,34.8321706,135.5810836
大阪府,茨木市,12,三島丘二丁目5,三島丘第3児童遊園北西フェンス,34.8317796,135.5818951
大阪府,茨木市,12,三島丘二丁目11,三島丘二丁目北児童遊園東側水路鉄柵,34.8339438,135.5808623
大阪府,茨木市,13,春日四丁目1,倍賀神社南側石塀,34.8238096,135.5650043
大阪府,茨木市,13,西田中町3,農園リヴェール南側道路鉄柵,34.8243388,135.5673642
大阪府,茨木市,13,西田中町1,保育所南側ブロック塀,34.8251917,135.5655942
大阪府,茨木市,13,西田中町6,西田中ヒルズ西側水路鉄柵,34.8253589,135.5692817
大阪府,茨木市,13,畑田町2,畑田コミュニティセンター南側水路鉄柵,34.8263868,135.5642668
大阪府,茨木市,13,畑田町14,masked,34.8301716,135.5641931
大阪府,茨木市,13,五日市二丁目3,巡礼橋東詰道路東側ガードレール,34.8319607,135.562497
大阪府,茨木市,14,耳原一丁目4,耳原一丁目児童遊園東側金網,34.8381797,135.5651518
大阪府,茨木市,14,耳原二丁目20-55,耳原小学校南東角の塀,34.8389425,135.5620593
大阪府,茨木市,14,耳原二丁目20-55,耳原小学校北側の塀,34.8389425,135.5620593
大阪府,茨木市,14,上野町3,パレットマンション南側水路鉄柵,34.8344406,135.5610959
大阪府,茨木市,14,耳原三丁目12,幣久良橋東詰北側歩道鉄柵,34.8394842,135.5601373
大阪府,茨木市,14,十日市町6-22,Page One東側水路鉄柵,34.8417,135.5678576
大阪府,茨木市,14,上野町12,masked,34.8358452,135.5596211
大阪府,茨木市,14,南耳原二丁目14,(株)国際興業大阪北摂営業所南側水路鉄柵,34.8359581,135.5651518
大阪府,茨木市,15,東太田三丁目5,東太田三丁目第2児童遊園東側水路鉄柵,34.8392302,135.5831493
大阪府,茨木市,15,太田東芝町1,太田東芝町児童遊園北側金網,34.8399158,135.5776903
大阪府,茨木市,15,東太田四丁目7,東太田東公園西側フェンス,34.841382, 135.584079
大阪府,茨木市,15,高田町1-22先,向かいのビルの歩道鉄柵,34.8432004,135.5807916
大阪府,茨木市,15,東太田三丁目2,マンションアネックス西村南側水路鉄柵,34.8574383,135.5193776
大阪府,茨木市,15,東太田三丁目8,ヘアースタジオマツモト南側歩道鉄柵,34.8403964,135.581305
大阪府,茨木市,15,東太田四丁目1,東太田四丁目児童遊園南側金網,34.841451,135.582098
大阪府,茨木市,15,東太田一丁目6,ダイキ北側道路ガードレール,34.83905740000001,135.5737071
大阪府,茨木市,16,永代町2,阪急茨木西口駐車場西側水路鉄柵,34.81626860000001,135.5748873
大阪府,茨木市,16,永代町8,阪急茨木北口駐車場南側フェンス,34.8186197,135.5757724
大阪府,茨木市,16,末広町7,東中学校東側塀,34.8194774,135.5797558
大阪府,茨木市,16,戸伏町13,旧戸伏浄水場フェンス,34.8234575,135.5778378
大阪府,茨木市,16,竹橋町10,竹橋公園西側金網,34.8216686,135.5763625
大阪府,茨木市,16,中村町2,中村公園北側フェンス,34.8191151,135.5810836
大阪府,茨木市,16,末広町7,東中学校南側ブロック塀,34.8194774,135.5797558
大阪府,茨木市,16,中村町2,中村公園東側植栽,34.8191151,135.5810836
大阪府,茨木市,17,玉櫛一丁目15,メゾンプルミエール南西水路鉄柵,34.8006096,135.5716419
大阪府,茨木市,17,玉櫛二丁目3,masked,34.8023986,135.573117
大阪府,茨木市,17,水尾二丁目1,水尾二丁目児童遊園北側金網,34.8064303,135.572822
大阪府,茨木市,17,水尾三丁目1-51,玉櫛小学校北側塀,34.8045808,135.5731412
大阪府,茨木市,17,水尾三丁目1-51,玉櫛小学校北門東側金網,34.8045808,135.5731412
大阪府,茨木市,17,水尾三丁目3,水尾三丁目児童遊園東側金網,34.8045297,135.5750348
大阪府,茨木市,17,玉水町3,玉水町児童遊園東側フェンス,34.8074194,135.5713469
大阪府,茨木市,18,真砂二丁目4,若園公園テニスコート南側金網,34.8003586,135.5813787
大阪府,茨木市,18,真砂三丁目16,真砂四号公園北側金網,34.7978223,135.5814525
大阪府,茨木市,18,真砂三丁目7,真砂三号公園北側金網,34.7977751,135.5795345
大阪府,茨木市,18,若園町6-41,南中学校北門横のフェンス,34.8014708,135.5786769
大阪府,茨木市,18,若園町10,若園北公園西側金網,34.8031575,135.5796082
大阪府,茨木市,18,真砂玉島台4,真砂玉島台児童遊園北側鉄柵,34.799213,135.5843297
大阪府,茨木市,18,若園町6-41,南中学校西門西側水路鉄柵,34.8014708,135.5786769
大阪府,茨木市,18,真砂二丁目11,ベラディール 東側水路鉄柵,34.7989791,135.5812865
大阪府,茨木市,19,安威三丁目19,masked,34.8531804,135.5645618
大阪府,茨木市,19,安威二丁目1-8,masked,34.8481122,135.5664053
大阪府,茨木市,19,安威二丁目21-23,安威小学校正門西側ブロック塀,34.8495118,135.5640261
大阪府,茨木市,19,安威二丁目21-23,安威小学校東側塀,34.8495118,135.5640261
大阪府,茨木市,19,安威二丁目28-16,北幼稚園北側金網,34.8494124,135.5623243
大阪府,茨木市,19,東安威二丁目13,安威バス停東側歩道鉄柵,34.8544366,135.567143
大阪府,茨木市,19,安威二丁目5,是推橋西側交差点西側道路鉄柵,34.8509335,135.5669217
大阪府,茨木市,20,沢良宜浜二丁目20,さわらぎ二号公園北側金網,34.7929473,135.5705355
大阪府,茨木市,20,小柳町14,小柳公園東側金網,34.795442,135.5800509
大阪府,茨木市,20,島一丁目5,masked,34.7937735,135.5771739
大阪府,茨木市,20,沢良宜浜一丁目1,沢良宜橋交差点東側歩道鉄柵,34.7955071,135.5683967
大阪府,茨木市,20,沢良宜浜三丁目13,沢良宜浜公園西側金網,34.7934791,135.5726007
大阪府,茨木市,20,島三丁目8,南市民体育館駐車場北側植栽,34.7904447,135.5737071
大阪府,茨木市,20,新和町13-50,葦原小学校正門南側の塀,34.7958349,135.5762836
大阪府,茨木市,20,横江一丁目8,沢良宜浜区画整理公園南側植栽,34.7905265,135.5666267
大阪府,茨木市,21,平田一丁目8-20,平田中学校正門東側水路鉄柵,34.8057548,135.5871012
大阪府,茨木市,21,平田二丁目12,平田公園南側水路ガードレール,34.8063894,135.5884613
大阪府,茨木市,21,野々宮二丁目4,野々宮自治会館西側の塀,34.7962368,135.5893467
大阪府,茨木市,21,玉島二丁目11-23,玉島小学校正門横の塀(フェンス),34.798817,135.5881385
大阪府,茨木市,21,平田台5,平田台6号棟東側水路鉄柵,34.806288,135.585215
大阪府,茨木市,21,平田二丁目6-14,masked,34.8063948,135.5903135
大阪府,茨木市,21,星見町19-11,NTT星見ビル北側フェンス,34.8075606,135.5887193
大阪府,茨木市,22,鮎川二丁目13,masked,34.8205472,135.5925196
大阪府,茨木市,22,鮎川二丁目5-23,東小学校正門西側の塀,34.8205957,135.590186
大阪府,茨木市,22,鮎川二丁目5-23,東小学校南西角水路鉄柵,34.8205957,135.590186
大阪府,茨木市,22,橋の内一丁目2-22,西慶寺南側歩道鉄柵,34.8200984,135.585976
大阪府,茨木市,22,鮎川二丁目5-23,東小学校西側フェンス,34.8205957,135.590186
大阪府,茨木市,22,橋の内三丁目9,林駐車場北側水路鉄柵,34.8215803,135.587207
大阪府,茨木市,22,橋の内三丁目15-1,第2林モータープール北側水路鉄柵,34.8208446,135.5879553
大阪府,茨木市,23,中河原町8,中河原バス停(下り)歩道鉄柵,34.8402005,135.5549021
大阪府,茨木市,23,豊原町9,豊原町児童遊園西側鉄柵,34.8390112,135.5461291
大阪府,茨木市,23,東福井二丁目4-20,福井小学校南門東側塀,34.845173, 135.552679
大阪府,茨木市,23,東福井二丁目5,福井宮の前バス停(下り)歩道鉄柵,34.846791,135.551924
大阪府,茨木市,23,東福井三丁目17,上福井バス停(山手台行き)歩道鉄柵,34.8034947,135.577469
大阪府,茨木市,23,西福井一丁目14,福井バス停(粟生団地行き)歩道鉄柵,34.8420663,135.5524691
大阪府,茨木市,23,西福井二丁目3,masked,34.8414908,135.5478983
大阪府,茨木市,24,桑原,桑原橋バス停(上り)歩道鉄柵,34.8598043,135.5617596
大阪府,茨木市,24,桑原353-1,桑原自治会館東側フェンス(道路向き設置),34.8628871,135.5625773
大阪府,茨木市,24,桑原,桑原奥条サンサン児童遊園東側フェンス,34.8598043,135.5617596
大阪府,茨木市,24,桑原,サニータウン入口歩道鉄柵,34.8598043,135.5617596
大阪府,茨木市,24,大門寺,masked,34.8698729,135.554681
大阪府,茨木市,24,生保,生保バス停西側ガードレール,34.8753498,135.5617596
大阪府,茨木市,25,大岩347-1先,農協石河支所向かい側のガードレール,34.8752377,135.5442493
大阪府,茨木市,25,大岩534,国見株集会所前鉄柵,34.8771177,135.5420293
大阪府,茨木市,25,大岩,旧大岩バス停鉄柵,34.8810727,135.5452445
大阪府,茨木市,25,大岩,masked,34.8810727,135.5452445
大阪府,茨木市,25,大岩,大岩東児童遊園東側金網,34.8810727,135.5452445
大阪府,茨木市,26,車作,せせらぎ公園南側フェンス,34.8914601,135.5605797
大阪府,茨木市,26,車作,車作バス停北側鉄柵,34.8914601,135.5605797
大阪府,茨木市,26,車作1,車作自治会館前の鉄柵,34.8914601,135.5605797
大阪府,茨木市,26,車作,旧車作クラブ北側道路ガードレール,34.8914601,135.5605797
大阪府,茨木市,26,車作,板谷バス停(忍頂寺行き)横ガードレール,34.8914601,135.5605797
大阪府,茨木市,26,安元,masked,34.8899526,135.5452445
大阪府,茨木市,26,安元,masked,34.8899526,135.5452445
大阪府,茨木市,27,忍頂寺,忍頂寺自治会館南側ガードレール,34.8988316,135.5452445
大阪府,茨木市,27,忍頂寺,masked,34.8988316,135.5452445
大阪府,茨木市,27,清阪,清阪地区入口のガードレール,34.9130447,135.5664792
大阪府,茨木市,27,下音羽163,見山公民館前歩道鉄柵,34.9017361,135.5402492
大阪府,茨木市,27,下音羽,茨木農村婦人の家南側ガードレール,34.9049709,135.5417063
大阪府,茨木市,27,長谷,長谷口バス停(上り)横ガードレール,34.9124554,135.542296
大阪府,茨木市,27,下音羽,masked,34.9049709,135.5417063
大阪府,茨木市,28,銭原,稲葉庄バス停(上り)横ガードレール,34.918379,135.5322724
大阪府,茨木市,28,銭原,株()車川組前ガードレール,34.918379,135.5322724
大阪府,茨木市,28,銭原,車川庄バス停(上り)横ガードレール,34.918379,135.5322724
大阪府,茨木市,28,銭原,銭原児童遊園南側ガードレール,34.918379,135.5322724
大阪府,茨木市,28,銭原,銭原クラブ前バス停(上り)ガードレール,34.918379,135.5322724
大阪府,茨木市,28,銭原,銭原バス停北側鉄柵,34.918379,135.5322724
大阪府,茨木市,29,上音羽,上音羽口バス停(下り) 横鉄柵郵便ポストの横,34.9051574,135.5228404
大阪府,茨木市,29,上音羽,桜の苑1前ガードレール,34.9051574,135.5228404
大阪府,茨木市,29,上音羽,上音羽児童遊園金網,34.9051574,135.5228404
大阪府,茨木市,29,上音羽,上音羽クラブ裏出入口ガードレール,34.9051574,135.5228404
大阪府,茨木市,29,上音羽,masked,34.9051574,135.5228404
大阪府,茨木市,29,上音羽,masked,34.9051574,135.5228404
大阪府,茨木市,30,泉原,南条バス停(下り)横ガードレール,34.88749749999999,135.5134103
大阪府,茨木市,30,泉原,北辰出張所前歩道鉄柵,34.88749749999999,135.5134103
大阪府,茨木市,30,泉原,masked,34.88749749999999,135.5134103
大阪府,茨木市,30,泉原,masked,34.88749749999999,135.5134103
大阪府,茨木市,30,泉原,泉原老人集会所金網,34.88749749999999,135.5134103
大阪府,茨木市,30,泉原,千提寺ロバス停(上り)歩道鉄柵,34.88749749999999,135.5134103
大阪府,茨木市,30,千提寺,集落センター東側道路ガードレール,34.8850419,135.5369891
大阪府,茨木市,31,佐保,masked,34.8718189,135.5275562
大阪府,茨木市,31,佐保,馬場新橋北側歩道鉄柵,34.8718189,135.5275562
大阪府,茨木市,31,佐保,masked,34.8718189,135.5275562
大阪府,茨木市,31,佐保,masked,34.8718189,135.5275562
大阪府,茨木市,31,佐保,免山バス停(上り)前ガードレール,34.8718189,135.5275562
大阪府,茨木市,31,佐保,免山バス停(下り)前鉄柵,34.8718189,135.5275562
大阪府,茨木市,31,佐保,馬場バス停南側鉄柵,34.8718189,135.5275562
大阪府,茨木市,32,宿久庄五丁目14,豊川小学校南通用門付近の白いフェンス,34.8394188,135.5274088
大阪府,茨木市,32,清水一丁目14,masked,34.8375447,135.5307248
大阪府,茨木市,32,宿久庄四丁目16,宿久庄四丁目児童遊園北側フェンス,34.8450101,135.530209
大阪府,茨木市,32,南清水町3,南清水町交差点南東,34.8358895,135.5330094
大阪府,茨木市,32,宿久庄四丁目,masked,34.8426477,135.5305038
大阪府,茨木市,32,宿久庄五丁目14-5,豊川小学校西通用門付近の白いフェンス,34.8401796,135.5272338
大阪府,茨木市,33,藤の里二丁目16,豊川コミュニティセンター南側フェンス,34.8370979,135.5368417
大阪府,茨木市,33,豊川一丁目6,鍛冶屋橋北側道路東側鉄柵,34.8341687,135.5396111
大阪府,茨木市,33,豊川四丁目4,豊川いのち愛ゆめセンター正門東側歩道鉄柵,34.832145,135.5327146
大阪府,茨木市,33,豊川四丁目4,豊川いのち愛ゆめセンター南側歩道鉄柵,34.832145,135.5327146
大阪府,茨木市,33,藤の里一丁目8,藤の里公園東側フェンス,34.8386752,135.545097
大阪府,茨木市,33,豊川四丁目32,さいのもと保育園北側ガードレール,34.8340935,135.5289562
大阪府,茨木市,33,宿久庄一丁目3,宿久庄東村児童遊園金網,34.8410572,135.5430331
大阪府,茨木市,34,沢良宜西三丁目11,沢良宜西三丁目第2児童遊園東側フェンス,34.7941788,135.5630869
大阪府,茨木市,34,沢良宜西二丁目10-15,シャロームC棟東側水路鉄柵,34.7967528,135.5642639
大阪府,茨木市,34,沢良宜西三丁目8,天王中学校北側道路鉄柵,34.7952324,135.5620545
大阪府,茨木市,34,沢良宜西三丁目1,沢良宜西区画整理一号公園南側金網,34.7976615,135.562202
大阪府,茨木市,34,沢良宜西三丁目8,天王中学校正門南側金網,34.7952324,135.5620545
大阪府,茨木市,34,沢良宜西四丁目7,グローバル・サイト茨木東側水路鉄柵,34.7915362,135.5633819
大阪府,茨木市,34,大正町9,ライオンズマンション北側水路鉄柵,34.7932072,135.5597916
大阪府,茨木市,35,松ケ本町5,レジオン小島北側歩道鉄柵,34.8133081,135.5602848
大阪府,茨木市,35,松ヶ本町1,松ヶ本町自転車駐車場北側フェンス,34.8182619,135.5736333
大阪府,茨木市,35,下穂積一丁目4,ローレルコート茨木レジデンス南側水路鉄柵,34.8116101,135.5568929
大阪府,茨木市,35,下穂積一丁目6-14,穂積小学校東側水路鉄柵,34.8103524,135.5563406
大阪府,茨木市,35,下穂積二丁目6-22,穂積小学校正門東側鉄柵,34.8087328,135.5557366
大阪府,茨木市,35,下穂積二丁目6-22,穂積小学校西門前水路鉄柵,34.8087328,135.5557366
大阪府,茨木市,35,下穂積四丁目5,竹ヶ池南側金網,34.8117983,135.5524691
大阪府,茨木市,35,穂積台9,穂積台第二児童遊園北側金網,34.8107332,135.5483406
大阪府,茨木市,36,並木町2,西田モータープール西側歩道鉄柵,34.8083922,135.5773952
大阪府,茨木市,36,玉瀬町6,玉瀬北公園南側金網,34.8062069,135.5801984
大阪府,茨木市,36,水尾四丁目7-16,水尾小学校正門横の塀(フェンス),34.8042462,135.5789351
大阪府,茨木市,36,玉瀬町1-5,masked,34.8078686,135.5802814
大阪府,茨木市,36,玉瀬町14,玉瀬南公園西側金網,34.8049109,135.5811574
大阪府,茨木市,36,玉瀬町25,内瀬土地区画整理1号公園東側金網,34.8042416,135.5819689
大阪府,茨木市,36,玉瀬町41,カーサ・アルコⅡ北西側水路鉄柵,34.8048125,135.5836657
大阪府,茨木市,37,総持寺台1-26,アプロ東側道路鉄柵,34.8247673,135.5863586
大阪府,茨木市,37,総持寺台3,総持寺団地3号棟西側鉄柵,34.8240973,135.5857315
大阪府,茨木市,37,総持寺台6,総持寺団地6号棟西側鉄柵,34.8233317,135.585879
大阪府,茨木市,37,中総持寺町3-3,masked,34.8249144,135.5841924
大阪府,茨木市,37,中総持寺町9,k'sコート西側ガードレール,34.8273664,135.5852888
大阪府,茨木市,37,橋の内二丁目7,橋の内北公園西側金網,34.8220863,135.5824115
大阪府,茨木市,37,橋の内二丁目2,masked,34.823384,135.5826939
大阪府,茨木市,38,新中条町1,デイリーカナートイズミヤ北側道路鉄柵,34.810861,135.564944
大阪府,茨木市,38,新中条町7-12,中条小学校正門南側金網,34.8091598,135.5650365
大阪府,茨木市,38,奈良町7,シャイン・ビ・グラッド東側歩道鉄柵,34.8074286,135.5644143
大阪府,茨木市,38,奈良町5,奈良町第1児童遊園南側金網,34.8073841,135.562202
大阪府,茨木市,38,奈良町17,奈良東公園東側歩道鉄柵,34.8074663,135.5672167
大阪府,茨木市,38,小川町5-10,masked,34.808352,135.5692305
大阪府,茨木市,38,小川町2,市民体育館北側植裁,34.8104885,135.5701668
大阪府,茨木市,38,岩倉町2,岩倉公園北側道路鉄柵,34.810104,135.5611696
大阪府,茨木市,39,稲葉町15,masked,34.81088039999999,135.5754036
大阪府,茨木市,39,舟木町18-30,西川印刷所西側水路鉄柵,34.8135155,135.5749678
大阪府,茨木市,39,舟木町10,大池コミュニティセンター東側水路鉄柵,34.8137215,135.5790181
大阪府,茨木市,39,舟木町1-11,林泉第3ビル東側水路鉄柵,34.8143105,135.5745293
大阪府,茨木市,39,舟木町18,クレール舟木南側水路鉄柵,34.8138731,135.5750232
大阪府,茨木市,39,双葉町11,双葉町駐車場南側フェンス,34.8155641,135.5757724
大阪府,茨木市,39,双葉町14-17,シャンピアコート茨木西側水路鉄柵,34.8154585,135.5778786
大阪府,茨木市,40,大池一丁目12,大池西公園南側植栽,34.8103166,135.5791656
大阪府,茨木市,40,大池一丁目5-8,大池小学校東門の塀,34.812614,135.5805949
大阪府,茨木市,40,大池二丁目14,大池公園西側金網,34.8095205,135.5819689
大阪府,茨木市,40,大池二丁目17,masked,34.8087022,135.5836657
大阪府,茨木市,40,大池二丁目29,masked,34.8122784,135.5837395
大阪府,茨木市,40,園田町4,イオン第1駐車場北側金網,34.8143569,135.5811574
大阪府,茨木市,40,園田町1,牟禮墓地北側歩道植栽,34.8145482,135.5796082
大阪府,茨木市,40,大池一丁目5-8,大池小学校正門西側フェンス,34.812614,135.5805949
大阪府,茨木市,41,中津町15,イオン駐輪場南側水路鉄柵,34.8162083,135.5801984
大阪府,茨木市,41,中津町22-25,スギ薬局西側水路鉄柵,34.8149467,135.5833679
大阪府,茨木市,41,中津町10-15,中津小学校正門横の塀,34.8158111,135.5842394
大阪府,茨木市,41,寺田町1,サンアベニュー東側水路鉄柵,34.8185192,135.5846248
大阪府,茨木市,41,五十鈴町1,先鉾橋バス停(茨木行き)歩道鉄柵,34.8164052,135.5872808
大阪府,茨木市,41,中津町4,イオン第3駐車場北側金網,34.8174483,135.5810836
大阪府,茨木市,41,五十鈴町4-15,masked,34.8149462,135.5880905
大阪府,茨木市,42,井口台11先,井口台東児童公園の向かい側の歩道(奥)の鉄柵,34.831792,135.5429594
大阪府,茨木市,42,井口台12先,井口台西児童公園南側フェンス,34.832147,135.5422223
大阪府,茨木市,42,井口台3先,井口台南児童遊園北側・入口横のフェンス,34.8300064,135.5411903
大阪府,茨木市,42,新郡山二丁目2,郡山団地・阪急バス停付近(横)の歩道の鉄柵,34.8313209,135.5448022
大阪府,茨木市,42,新郡山二丁目1,A-1棟西側法面,34.8318762,135.5448022
大阪府,茨木市,42,新郡山二丁目30-18,郡山小学校正門南側植栽,34.8307992,135.5428752
大阪府,茨木市,42,新郡山二丁目10,タイムズ茨木新郡山前フェンス,34.8297025,135.5444152
大阪府,茨木市,43,沢良宜西一丁目1,南茨木駅東口道路鉄柵,34.8015172,135.5651518
大阪府,茨木市,43,沢良宜西一丁目4,パロスサワラギ南側水路鉄柵,34.8005415,135.5654467
大阪府,茨木市,43,天王二丁目10-24,日伸マンション前歩道鉄柵,34.8012498,135.5624662
大阪府,茨木市,43,沢良宜西一丁目16-1,沢良宜西会館西側金網,34.7990174,135.5635717
大阪府,茨木市,43,天王二丁目3,ベストライフ南茨木南側鉄柵,34.8027907,135.5630869
大阪府,茨木市,43,天王二丁目1,モノレール南茨木駅西側北階段下道路鉄柵,34.8036107,135.5642668
大阪府,茨木市,43,天王二丁目13-57,天王小学校東門の塀,34.7992223,135.5627459
大阪府,茨木市,43,天王一丁目7,アズ・メイプ・リバティ東側道路鉄柵,34.8032107,135.5627919
大阪府,茨木市,44,東奈良三丁目14,南茨木駅北自転車駐車場西側道路鉄柵,34.8591772,135.5189355
大阪府,茨木市,44,東奈良一丁目2,シルバー人材センター北側公園西側鉄柵,34.8164607,135.5577777
大阪府,茨木市,44,東奈良二丁目1,おおさかや酒店南側歩道鉄柵,34.8163589,135.5685016
大阪府,茨木市,44,東奈良二丁目5-36,東奈良小学校西側ブロック塀,34.8163589,135.5685016
大阪府,茨木市,44,東奈良二丁目18,文化財資料館玄関向かいの「小川」の鉄柵,34.8321896,135.5824853
大阪府,茨木市,44,美沢町7,美沢ハイタウンA棟西側水路鉄柵,34.799959,135.5678067
大阪府,茨木市,44,東奈良三丁目15,阪急オアシス入口東側水路鉄柵,34.8046839,135.5767313
大阪府,茨木市,44,美沢町1,美沢ハイタウンG棟東側道路鉄柵,34.8006299,135.5698718
大阪府,茨木市,45,山手台新町二丁目11,山手台新町中央公園南側鉄柵,34.8660515,135.5551233
大阪府,茨木市,45,山手台五丁目11,山手台東公園西側金網,34.8654166,135.5495201
大阪府,茨木市,45,山手台四丁目6,桑原運動公園フェンス,34.8618501,135.5586625
大阪府,茨木市,45,山手台七丁目10,山手台北3号児童遊園西側金網,34.8702631,135.5472348
大阪府,茨木市,45,山手台四丁目8,山手台小学校正門東の金網,34.8634113,135.5554183
大阪府,茨木市,45,山手台六丁目12,山手台西公園西側フェンス,34.8680689,135.5480457
大阪府,茨木市,45,山手台五丁目27,緑地公園フェンス,34.8660351,135.5467925
大阪府,茨木市,46,太田一丁目1,ハイツ弥栄南側駐車場の歩道鉄柵,34.8391734,135.5757724
大阪府,茨木市,46,太田一丁目18,太田一丁目児童遊園北側金網,34.8405784,135.5727114
大阪府,茨木市,46,太田二丁目6-1,太田公民館分室東側金網,34.8420008,135.5745016
大阪府,茨木市,46,太田二丁目12,ファミリーマート駐車場北側歩道鉄柵,34.8433586,135.5740021
大阪府,茨木市,46,花園一丁目13,太田池東側ガードレール,34.8448868,135.5747601
大阪府,茨木市,46,花園一丁目21,太田小学校西側の塀,34.8464779,135.5744447
大阪府,茨木市,46,高田町14,くすの木公園西側金網,34.8456508,135.5801984
大阪府,茨木市,47,白川二丁目7,masked,34.8165219,135.6027404
大阪府,茨木市,47,白川一丁目11,白川西公園東側金網,34.8176584,135.5990872
大阪府,茨木市,47,鮎川四丁目28,シャングリラ鮎川東側水路鉄柵,34.8185192,135.5967257
大阪府,茨木市,47,鮎川三丁目16,鮎川第一児童遊園西側金網,34.8199406,135.5969471
大阪府,茨木市,47,鮎川四丁目23,masked,34.81591179999999,135.5969471
大阪府,茨木市,47,白川一丁目4,白川小学校正門横の塀,34.8164826,135.5986444
大阪府,茨木市,47,白川二丁目24,白川中央公園南側金網,34.8170616,135.6026297
大阪府,茨木市,47,白川三丁目1,masked,34.8166138,135.6052868
大阪府,茨木市,48,東宇野辺町1,東洋製缶(株)正門東側道路鉄柵,34.8056862,135.55881
大阪府,茨木市,48,宇野辺二丁目6,宇野辺二丁目第三児童遊園金網,34.8040016,135.5542386
大阪府,茨木市,48,宇野辺一丁目,モノレール宇野辺駅前自転車駐車場北側金網,34.8068238,135.5564505
大阪府,茨木市,48,宇野辺一丁目6,吉野工業所南側歩道鉄柵,34.8072504,135.5555657
大阪府,茨木市,48,宇野辺二丁目2,シャンボール茨木南側児童遊園金網,34.803704,135.5560081
大阪府,茨木市,48,宇野辺二丁目10,北向溝橋西側鉄柵,34.8026351,135.5553445
大阪府,茨木市,48,宇野辺二丁目4,masked,34.803995,135.5548284
大阪府,茨木市,49,北春日丘二丁目1,NHK春日丘寮南側道路鉄柵,34.8188418,135.5464976
大阪府,茨木市,49,北春日丘二丁目9,松沢池バス停東側道路鉄柵,34.8190683,135.5450094
大阪府,茨木市,49,北春日丘三丁目12-23,西小学校正門東側の塀,34.8213633,135.5362935
大阪府,茨木市,49,北春日丘三丁目12-23,西小学校西側柵,34.8213633,135.5362935
大阪府,茨木市,49,北春日丘三丁目12-23,西小学校敷地の東端(グラウンド側) 擁壁の白いフェンス,34.8213633,135.5362935
大阪府,茨木市,49,北春日丘四丁目11,サンライズ春日丘南側道路ガードレール,34.8214658,135.5318302
大阪府,茨木市,49,北春日丘四丁目11,マンションBERG南側道路ガードレール,34.8214658,135.5318302
大阪府,茨木市,50,五日市一丁目1,大和紙器(株)西側ガードレール,34.8324023,135.5696505
大阪府,茨木市,50,南耳原二丁目1,かに道楽東側水路鉄柵,34.83661010000001,135.5689867
大阪府,茨木市,50,西太田町9-4,西太田町西児童遊園北側金網,34.8372526,135.5705355
大阪府,茨木市,50,西太田町25,masked,34.8385766,135.570093
大阪府,茨木市,50,西河原北町9,西河原コミュニティセンター北側水路鉄柵,34.8355765,135.5714206
大阪府,茨木市,50,城の前町1,西河原公園駐車場付近,34.836196,135.5750348
大阪府,茨木市,50,東太田一丁目5,太田南公園西側フェンス,34.839293,135.5743709
大阪府,茨木市,51,南安威二丁目4,府営安威団地 B2・B13棟間の植栽,34.843843,135.5614646
大阪府,茨木市,51,南安威二丁目4,府営安威団地 B1・B3棟間の植栽,34.843843,135.5614646
大阪府,茨木市,51,南安威二丁目4,府営安威団地 B8棟南側の植栽,34.843843,135.5614646
大阪府,茨木市,51,南安威三丁目10,北中学校南門東側水路鉄柵,34.8433133,135.559105
大阪府,茨木市,51,南安威三丁目10,北中学校正門北側ブロック塀,34.8433133,135.559105
大阪府,茨木市,51,南安威三丁目10,北中学校北西角塀,34.8433133,135.559105
大阪府,茨木市,51,西安威一丁目5,西安威一丁目児童遊園東側金網,34.8461545,135.5595474
大阪府,茨木市,52,総持寺駅前町2-14,総持寺南側道路前鉄柵,34.8286625,135.581632
大阪府,茨木市,52,総持寺一丁目2-20,コインパーキング横鉄柵,34.8291329,135.5792676
大阪府,茨木市,52,総持寺二丁目15,masked,34.8312453,135.5861741
大阪府,茨木市,52,総持寺一丁目1,行岡学園南側道路鉄柵,34.8280108,135.5804935
大阪府,茨木市,52,総持寺駅前町15,総持寺公園入口西側の金網,34.8292109,135.5849199
大阪府,茨木市,52,総持寺二丁目2-15,総持寺保育所東側金網,34.8295813,135.5858128
大阪府,茨木市,52,総持寺駅前町6,大紅ビル東側阪急電鉄金網,34.8271697,135.5842559
大阪府,茨木市,53,東中条町2-13,合同庁舎西側道路鉄柵,34.81492,135.5692727
大阪府,茨木市,53,東中条町10,東中条町児童遊園西側金網,34.8121686,135.5689867
大阪府,茨木市,53,東中条町13-13,ジオグランデ茨木東中条西側水路鉄柵,34.8117978,135.5690576
大阪府,茨木市,53,下中条町3,下中条町児童遊園南側金網,34.8133841,135.5658892
大阪府,茨木市,53,下中条町7,コート中条西側歩道鉄柵,34.8127641,135.5654467
大阪府,茨木市,53,西中条町10,リバティー西中条東側道路鉄柵,34.8125062,135.5636769
大阪府,茨木市,53,西中条町2,JR茨木南自転車駐車場南側フェンス,34.8144571,135.5630869
大阪府,茨木市,53,東中条町6,ステイツグラン茨木B棟東側水路鉄柵,34.8135575,135.5689867
大阪府,茨木市,54,山手台一丁目2,山手台南公園西側金網,34.8572915,135.556598
大阪府,茨木市,54,山手台二丁目2,山手台二丁目第2駐車場東側歩道鉄柵,34.8592096,135.5589575
大阪府,茨木市,54,山手台三丁目27,保育園前バス停の公園金網,34.8606803,135.5544598
大阪府,茨木市,54,山手台三丁目30,ショッピングモール北側水路金網,34.8619127,135.552764
大阪府,茨木市,54,山手台一丁目19,山手台南2号児童遊園西側金網,34.855084,135.5585888
大阪府,茨木市,54,山手台二丁目3,テニスクラブ管理事務所南側金網,34.8599841,135.5579252
大阪府,茨木市,54,山手台三丁目15,masked,34.8584334,135.5536487
大阪府,茨木市,55,真砂一丁目9,タナカモータープール南側道路鉄柵,34.8002248,135.5770416
大阪府,茨木市,55,真砂一丁目16,真砂二号公園東側金網,34.7984039,135.576215
大阪府,茨木市,55,真砂一丁目22,真砂一丁目児童遊園西側金網,34.7974874,135.5743709
大阪府,茨木市,55,真砂一丁目11,平和堂西側広場フェンス,34.8005418,135.5775428
大阪府,茨木市,55,沢良宜東町1,玉分団屯所北西歩道鉄柵,34.7997897,135.5704618
大阪府,茨木市,55,沢良宜東町19,沢良宜橋バス停北側植栽,34.7964693,135.5692817
大阪府,茨木市,55,沢良宜東町11,沢良宜東町児童遊園南側金網,34.7975535,135.5716419
大阪府,茨木市,56,大同町1,masked,34.8085108,135.585215
大阪府,茨木市,56,星見町1,アルコバレーノ南側水路鉄柵,34.8104352,135.5869857
大阪府,茨木市,56,五十鈴町11-11,masked,34.814042,135.5877709
大阪府,茨木市,56,桑田町13-22,中津コミュニティセンター南側金網,34.8129815,135.5860266
大阪府,茨木市,56,桑田町24-21,シニアプラザいばらき北側水路鉄柵,34.8106733,135.5862321
大阪府,茨木市,56,五十鈴町6,コスモ五十鈴西側歩道鉄柵,34.8144604,135.5872808
大阪府,茨木市,56,星見町4,茨木市民農園西側鉄柵,34.8102793,135.5884613
大阪府,茨木市,57,水尾一丁目17,masked,34.8094068,135.5767313
大阪府,茨木市,57,水尾一丁目14,小山モータープール東側水路鉄柵,34.8089613,135.576215
大阪府,茨木市,57,水尾一丁目8,masked,34.8086325,135.5745922
大阪府,茨木市,57,水尾二丁目11,アクティブハイツ北側の田の東側歩道鉄柵,34.8064542,135.5768051
大阪府,茨木市,57,水尾二丁目14,ニチモグリーンタウン北側水路鉄柵,34.8051294,135.5772477
大阪府,茨木市,57,水尾三丁目10,水尾東公園東側金網,34.8036048,135.5769526
大阪府,茨木市,57,水尾三丁目16,水尾東児童遊園南側金網,34.8044315,135.5775428
大阪府,茨木市,58,蔵垣内一丁目3,LOGI 'Q南茨木 南門北側道路鉄柵,34.7979351,135.5564505
大阪府,茨木市,58,蔵垣内二丁目11,レーラッハアインス東側田の南側鉄柵,34.7946406,135.5560818
大阪府,茨木市,58,蔵垣内三丁目15,蔵垣内児童遊園西側金網,34.7928926,135.5571141
大阪府,茨木市,58,丑寅二丁目19,masked,34.7950526,135.5595474
大阪府,茨木市,58,蔵垣内三丁目22,コーポラスクマモト西側道路の東側鉄柵,34.7932281,135.5581464
大阪府,茨木市,58,蔵垣内一丁目3,LOGI 'Q南茨木 北門東側道路鉄柵,34.7979351,135.5564505
大阪府,茨木市,58,丑寅二丁目6,丑寅公園西側植栽,34.7975105,135.560211
大阪府,茨木市,59,鮎川一丁目7,新鮮や駐車場南側水路鉄柵,34.8160595,135.5931837
大阪府,茨木市,59,学園町5,ジオ茨木学園町南側歩道金網,34.816849,135.59097
大阪府,茨木市,59,鮎川一丁目8,鮎川公園西側水路鉄柵,34.8165796,135.5932574
大阪府,茨木市,59,鮎川一丁目11,ジオ茨木学園町2番館東側道路ガードレール,34.816871,135.5920768
大阪府,茨木市,59,学園町1,浪商幼稚園南側歩道鉄柵,34.8157626,135.5898725
大阪府,茨木市,59,鮎川一丁目20,東コミュニティセンター東側ガードレール,34.8182958,135.592003
大阪府,茨木市,59,学園町4,立体駐車場北側水路鉄柵,34.8184449,135.5911176
大阪府,茨木市,60,彩都あさぎ五丁目,あさぎ里山公園内池の西側木柵,34.8515543,135.5281457
大阪府,茨木市,60,彩都やまぶき四丁目,岩阪橋西側歩道鉄柵,34.8600828,135.5219563
大阪府,茨木市,60,彩都あさぎ五丁目,彩都西小学校北側フェンス,34.8515543,135.5281457
大阪府,茨木市,60,彩都あさぎ一丁目1,彩都西駅自転車駐車場南側フェンス,34.855276,135.5238719
大阪府,茨木市,60,彩都あさぎ四丁目1,彩都あさぎ三丁目バス停南側ガードレール,34.8474074,135.5256047
大阪府,茨木市,60,彩都あさぎ四丁目,彩都西中学校北側フェンス,34.848637,135.5284404
大阪府,茨木市,60,彩都やまぶき四丁目,はしご橋北側道路の西側鉄柵,34.8600828,135.5219563
大阪府,茨木市,60,彩都やまぶき二丁目1,類彩都ビル南側歩道鉄柵,34.8565339,135.5229878
大阪府,茨木市,61,西河原一丁目17-10,三島中学校正門西側の塀,34.8296415,135.5759568
大阪府,茨木市,61,西河原二丁目5,西河原公園西側柵,34.8309967,135.5742972
大阪府,茨木市,61,西河原一丁目18,グレーシィ茨木東側道路鉄柵,34.829155,135.5775428
大阪府,茨木市,61,三咲町5,トヨタカローラ新大阪西側歩道鉄柵,34.8312362,135.5714944
大阪府,茨木市,61,西河原二丁目18,西河原公園テニスコート横鉄柵,34.8317368,135.5754695
大阪府,茨木市,61,西河原二丁目7,三島コミュニティセンター前鉄柵,34.830428,135.5754774
大阪府,茨木市,61,西河原一丁目8,ファミリーマート西側歩道鉄柵,34.8275926,135.5744447
大阪府,茨木市,62,美穂ケ丘19,美穂ヶ丘バス停南側道路鉄柵,34.8225434,135.5284404
大阪府,茨木市,62,美穂ケ丘13,美穂ヶ丘公園北側フェンス,34.8236665,135.5272614
大阪府,茨木市,62,美穂ケ丘12,美穂ヶ丘児童遊園東側フェンス,34.8242091,135.5284404
大阪府,茨木市,62,美穂ケ丘19,朝日プラザ千里北C棟南西側フェンス,34.8225434,135.5284404
大阪府,茨木市,62,美穂ケ丘19,朝日プラザ千里北C棟南東側フェンス,34.8225434,135.5284404
大阪府,茨木市,62,美穂ケ丘5,ジョイントビル花千里北側道路フェンス,34.82179410000001,135.527114
大阪府,茨木市,62,美穂ケ丘13,美穂ヶ丘公園北側道路鉄柵,34.8236665,135.5272614
