prefecture,city,number,address,name,lat,long
大阪府,豊中市,1_1,立花町2丁目4番,立花町2丁目児童遊園鉄柵,34.7830608,135.4591503
大阪府,豊中市,1_2,岡町北1丁目1番,阪急岡町駅西側ﾛｰﾀﾘｰ植込み,34.7788746,135.4646691
大阪府,豊中市,1_3,岡町北3丁目4番2号,岡町図書館鉄柵,34.7803369,135.4635339
大阪府,豊中市,1_4,岡町北3丁目13番,轟木公園南側金網塀,34.78128,135.460254
大阪府,豊中市,1_5,岡町北3丁目13番7号,人権平和ｾﾝﾀｰ豊中老人憩の家金網塀,34.781765,135.4604882
大阪府,豊中市,1_6,岡町北3丁目4番1号,克明小学校北側植込み,34.7812765,135.4635009
大阪府,豊中市,1_7,立花町2丁目2番,岡町北住宅集会所東側金網塀,34.782293,135.4595918
大阪府,豊中市,1_8,末広町3丁目11番,岡町北公園北側金網塀,34.782933,135.4614313
大阪府,豊中市,2_1,立花町1丁目10番1号,第五中学校南側金網塀,34.7850228,135.4568786
大阪府,豊中市,2_2,玉井町1丁目1番,阪急豊中駅西側阪急ﾊﾞｽ降車場鉄柵,34.7870961,135.4614313
大阪府,豊中市,2_3,玉井町2丁目10番,玉井町2丁目公園金網塀,34.7867579,135.4572372
大阪府,豊中市,2_4,玉井町3丁目11番,久保公園北西側入口横金網塀,34.7874466,135.4543678
大阪府,豊中市,2_5,玉井町3丁目11番,久保公園南西側金網塀,34.7874466,135.4543678
大阪府,豊中市,2_6,立花町1丁目10番1号,第五中学校北側金網塀,34.7850228,135.4568786
大阪府,豊中市,2_7,立花町1丁目10番1号,第五中学校西側金網塀,34.7850228,135.4568786
大阪府,豊中市,3_1,箕輪1丁目1番1号,箕輪小学校南側金網塀,34.78253249999999,135.4545786
大阪府,豊中市,3_2,箕輪1丁目1番1号,箕輪小学校東側金網塀,34.78253249999999,135.4545786
大阪府,豊中市,3_3,山ﾉ上町8番,山ﾉ上公園西側市道ｶﾞｰﾄﾞﾚｰﾙ,34.7816126,135.4549564
大阪府,豊中市,3_4,箕輪1丁目24番,箕輪橋北西側千里川堤防金網柵,34.7870515,135.4523078
大阪府,豊中市,3_5,走井1丁目2番,浄行寺西側ｶﾞｰﾄﾞﾚｰﾙ,34.7816431,135.4520136
大阪府,豊中市,3_6,箕輪3丁目7番,箕輪3丁目公園西側金網塀,34.785919,135.4477467
大阪府,豊中市,3_7,走井3丁目,走井西交差点北側歩道鉄柵,34.7831319,135.4489238
大阪府,豊中市,4_1,蛍池中町1丁目1番1号,蛍池ｾﾝﾀｰ西側金網塀,34.7913383,135.4505643
大阪府,豊中市,4_2,蛍池中町1丁目10番,麻田公園東側金網塀,34.7913858,135.4490709
大阪府,豊中市,4_3,蛍池中町1丁目15番1号,蛍池小学校北側金網塀,34.7896871,135.4481329
大阪府,豊中市,4_4,蛍池南町2丁目2番,蛍池南町2丁目第1公園植込み,34.7905942,135.4518664
大阪府,豊中市,4_5,蛍池南町1丁目21番,千里川下河原歩道橋西側鉄柵,34.7897112,135.4552703
大阪府,豊中市,4_6,蛍池中町1丁目15番1号,蛍池小学校西側金網塀,34.7896871,135.4481329
大阪府,豊中市,4_7,蛍池南町2丁目13番,蛍池南公園南側金網塀,34.7886871,135.4517928
大阪府,豊中市,5_1,蛍池北町2丁目3番,蛍池北公園金網塀,34.7982225,135.4452457
大阪府,豊中市,5_2,蛍池中町4丁目2番,蛍池公園南側金網塀,34.796534,135.4475996
大阪府,豊中市,5_3,蛍池中町4丁目7番,蛍池中町4丁目山所池南東側金網塀,34.7950818,135.4471582
大阪府,豊中市,5_4,蛍池中町4丁目7番1号,第十八中学校西側金網塀,34.7952132,135.4465973
大阪府,豊中市,5_5,蛍池中町4丁目7番1号,第十八中学校東側金網塀,34.7952132,135.4465973
大阪府,豊中市,5_6,蛍池西町1丁目16番,蛍池西町歩道橋南歩道鉄柵,34.7936534,135.444363
大阪府,豊中市,5_7,蛍池西町1丁目18番5号,蛍池こども園東門南側金網塀,34.793878,135.4458341
大阪府,豊中市,5_8,蛍池中町4丁目3番,蛍池公園東側植込み,34.7964366,135.4469376
大阪府,豊中市,6_1,待兼山町23番,国道石橋ﾊﾞｽ停留所北側歩道鉄柵,34.8081425,135.4485559
大阪府,豊中市,6_2,石橋麻田町5番,石橋麻田児童遊園北側金網塀,34.810536,135.4484824
大阪府,豊中市,6_3,待兼山町1番,大阪大学待兼山庭園北側金網塀,34.807564,135.448441
大阪府,豊中市,6_4,石橋麻田町5番,阪急電鉄｢野｣踏切横軌道金網塀,34.810536,135.4484824
大阪府,豊中市,6_5,石橋麻田町5番,石橋麻田児童遊園南側金網塀,34.810536,135.4484824
大阪府,豊中市,7_1,清風荘1丁目9番,待兼山荘向かい歩道奥鉄柵,34.8021951,135.4502479
大阪府,豊中市,7_2,蛍池東町1丁目3番,阪急蛍池駅南側踏切横軌道金網塀,34.7941486,135.4502479
大阪府,豊中市,7_3,蛍池東町4丁目14番,蛍池東公園金網塀,34.7996921,135.4508365
大阪府,豊中市,7_4,刀根山3丁目3番,箕輪池北側金網塀,34.7922576,135.4513849
大阪府,豊中市,7_5,刀根山5丁目2番1号,刀根山小学校北側金網塀,34.7966535,135.4516365
大阪府,豊中市,7_6,刀根山5丁目3番,市営刀根山住宅B1棟南側金網塀,34.79620269999999,135.4528964
大阪府,豊中市,7_7,刀根山6丁目9番1号,大阪府立刀根山高等学校北側金網塀,34.7987358,135.4532183
大阪府,豊中市,7_8,刀根山5丁目3番,市営刀根山住宅B3棟北東側金網塀,34.79620269999999,135.4528964
大阪府,豊中市,8_1,刀根山3丁目7番,蛍池南側ｶﾞｰﾄﾞﾚｰﾙ,34.7927131,135.4549564
大阪府,豊中市,8_2,千里園3丁目12番,千里園三丁目公園北側道路鉄柵,34.7955574,135.4617257
大阪府,豊中市,8_3,千里園2丁目7番,千里園2丁目公園金網塀,34.7937687,135.460254
大阪府,豊中市,8_4,千里園3丁目1番,千里川橋東側鉄柵,34.7927823,135.4617257
大阪府,豊中市,8_5,千里園3丁目1番,千本人道橋北側千里川堤防鉄柵,34.7927823,135.4617257
大阪府,豊中市,8_6,千里園1丁目5番,千里川ﾊﾞｽ停向かい阪急電鉄高架下鉄柵,34.7906288,135.4552507
大阪府,豊中市,8_7,刀根山1丁目4番地先,蛍池東側金網塀,34.7936308,135.4567958
大阪府,豊中市,8_8,千里園3丁目15番20号,吉田小児科医院前ｶﾞｰﾄﾞﾚｰﾙ,34.795682,135.4639414
大阪府,豊中市,9_1,本町1丁目1番,阪急豊中駅前広場内鉄柵,34.78737,135.4616
大阪府,豊中市,9_2,本町9丁目10番,本町北公園南東側金網塀,34.7957276,135.465405
大阪府,豊中市,9_3,本町1丁目7番12号,大池小学校南側金網塀,34.7883939,135.4638137
大阪府,豊中市,9_4,本町2丁目5番,草野ﾏﾝｼｮﾝ前千里川金網塀,34.7906046,135.4576051
大阪府,豊中市,9_5,本町5丁目7番,観音池公園北側植込み,34.7881572,135.4661409
大阪府,豊中市,9_6,本町7丁目4番,稲荷山公園南側鉄柵,34.79051330000001,135.4664353
大阪府,豊中市,9_7,本町9丁目5番,住友化学株式会社豊中社宅4号棟北側金網塀,34.7937018,135.4667297
大阪府,豊中市,9_8,本町9丁目10番,春日橋東側ｶﾞｰﾄﾞﾚｰﾙ,34.7957276,135.465405
大阪府,豊中市,10_1,上野西2丁目5番12号,大阪府立豊中高等学校北西門金網塀,34.7957827,135.4705474
大阪府,豊中市,10_2,上野西2丁目5番12号,大阪府立豊中高等学校南側ｺﾝｸﾘｰﾄ塀,34.7957827,135.4705474
大阪府,豊中市,10_3,上野西3丁目12番,上野西3丁目第2公園東側金網塀,34.7986866,135.4696796
大阪府,豊中市,10_4,上野西3丁目7番,豊州池東側金網塀,34.7972794,135.4680753
大阪府,豊中市,10_5,上野西4丁目3番,ｻﾝﾎｰﾄﾗｰｽﾞﾏﾝｼｮﾝ前千里川ｶﾞｰﾄﾞﾚｰﾙ,34.7966189,135.4664353
大阪府,豊中市,10_6,上野西3丁目7番,豊州池南側金網塀,34.7972794,135.4680753
大阪府,豊中市,10_7,上野東1丁目3番,豊中ｳｴﾉﾊｲﾂ北側ｶﾞｰﾄﾞﾚｰﾙ,34.7907294,135.472323
大阪府,豊中市,10_8,上野東1丁目9番,上野東1丁目西公園金網塀(豊松園ﾊｲﾂ),34.7897364,135.4743839
大阪府,豊中市,11_1,上野東2丁目19番,上野東2丁目農園西側鉄柵,34.7925458,135.4777698
大阪府,豊中市,11_2,上野坂2丁目2番,上野公園北側金網塀,34.80082410000001,135.4723966
大阪府,豊中市,11_3,上野坂1丁目4番3号,上野会館東側金網塀,34.7986394,135.4770434
大阪府,豊中市,11_4,上野坂2丁目6番,一般財団法人豊中市医療保健ｾﾝﾀｰ北西鉄柵,34.8018309,135.472323
大阪府,豊中市,11_5,上野東3丁目5番,青池南側鉄柵,34.7965718,135.4742924
大阪府,豊中市,11_6,上野坂2丁目19番,上野坂公園南側金網塀,34.8029227,135.4740895
大阪府,豊中市,11_7,上野東2丁目2番,堀田公園北側金網塀,34.7937763,135.4729118
大阪府,豊中市,11_8,上野東2丁目11番,上野東2丁目第2公園東側金網塀,34.7953214,135.4777698
大阪府,豊中市,12_1,桜の町6丁目14番,少路会館前ｶﾞｰﾄﾞﾚｰﾙ,34.8034027,135.4679072
大阪府,豊中市,12_2,桜の町7丁目5番1号,桜井谷東小学校北側金網塀,34.80480970000001,135.4698115
大阪府,豊中市,12_3,柴原町3丁目11番1号,桜井谷小学校西側校門横植込み,34.8037831,135.4629398
大阪府,豊中市,12_4,桜の町7丁目1番,中道橋北側ｶﾞｰﾄﾞﾚｰﾙ,34.80548100000001,135.4682015
大阪府,豊中市,12_5,柴原町3丁目11番1号,桜井谷小学校東側金網塀,34.8037831,135.4629398
大阪府,豊中市,12_6,柴原町4丁目14番,大阪ﾓﾉﾚｰﾙ柴原駅ﾛｰﾀﾘｰ北側歩道鉄柵,34.8019759,135.4581938
大阪府,豊中市,12_7,柴原町5丁目1番,見徳山公園金網塀,34.8015326,135.4608427
大阪府,豊中市,12_8,柴原町5丁目13番,赤坂下池北側金網塀,34.8041657,135.461137
大阪府,豊中市,13_1,向丘2丁目1番,野畑南公園駐車場南側金網塀,34.8080961,135.4702622
大阪府,豊中市,13_2,永楽荘1丁目5番,ﾎ-ｷ谷池公園金網塀,34.8117514,135.4655522
大阪府,豊中市,13_3,向丘3丁目1番1号,野畑小学校ｸﾞﾗﾝﾄﾞ南西側歩道鉄柵,34.812115,135.4736939
大阪府,豊中市,13_4,春日町4丁目8番,府営豊中春日住宅2棟南側植込み,34.8124062,135.4693791
大阪府,豊中市,13_5,春日町4丁目10番,府営豊中春日住宅第一自動車保管場所金網塀,34.8115797,135.4687903
大阪府,豊中市,13_6,向丘2丁目1番,野畑南公園北側金網塀,34.8080961,135.4702622
大阪府,豊中市,13_7,春日町4丁目17番,堤山橋南側金網塀,34.8117269,135.4713662
大阪府,豊中市,13_8,向丘3丁目1番1号,野畑小学校南側金網塀,34.812115,135.4736939
大阪府,豊中市,14_1,西緑丘2丁目4番,野畑排水場東側金網塀,34.8111469,135.4771809
大阪府,豊中市,14_2,西緑丘3丁目6番,西緑丘新池公園東側鉄柵,34.8127411,135.4773281
大阪府,豊中市,14_3,西緑丘1丁目7番,府営西緑丘住宅北側処理槽金網塀,34.8111003,135.4749727
大阪府,豊中市,14_4,緑丘4丁目33番,清谷池公園南側植込み,34.8147891,135.480567
大阪府,豊中市,14_5,西緑丘2丁目11番1号,第十一中学校東側金網塀,34.8097039,135.4798041
大阪府,豊中市,14_6,緑丘4丁目1番,ｲｵﾝﾀｳﾝ豊中緑丘南側鉄柵,34.8130713,135.4789476
大阪府,豊中市,14_7,緑丘2丁目21番,緑丘公園東側金網塀,34.8061028,135.4818921
大阪府,豊中市,14_8,少路1丁目15番,羽鷹上池公園北側鉄柵,34.8050781,135.4736479
大阪府,豊中市,14_9,少路2丁目4番,阪急ｵｱｼｽ豊中少路店東側歩道鉄柵,34.8067077,135.4737215
大阪府,豊中市,15_1,新千里西町2丁目24番,西町3丁目ﾊﾞｽ停留所横植込み,34.8093397,135.4904633
大阪府,豊中市,15_2,新千里西町3丁目13番,西町3丁目第3公園東側金網塀,34.8145296,135.4888861
大阪府,豊中市,15_3,新千里西町2丁目23番1号,西丘小学校南側金網塀,34.8109925,135.4887389
大阪府,豊中市,15_4,新千里西町2丁目23番1号,西丘小学校北側植込み,34.8109925,135.4887389
大阪府,豊中市,15_5,新千里西町2丁目2番,新千里消防署北東側緑地鉄柵,34.8085856,135.4899906
大阪府,豊中市,15_6,新千里西町3丁目1番,UR都市機構C1棟南側歩道鉄柵,34.8131858,135.4917485
大阪府,豊中市,15_7,新千里西町3丁目2番,新千里西町商店街西側金網塀,34.81204570000001,135.4908741
大阪府,豊中市,15_8,新千里西町2丁目23番,千里西町公園南側階段右横植込み,34.8104698,135.4889598
大阪府,豊中市,16_1,新千里北町1丁目23番1号,千里北町公園野球場駐車場東側鉄柵,34.8156612,135.4964059
大阪府,豊中市,16_2,新千里北町1丁目18番1号,北丘聖愛園入口横植込み,34.8153443,135.4966219
大阪府,豊中市,16_3,新千里北町2丁目19番1号,北丘小学校南側金網塀,34.8196315,135.4957127
大阪府,豊中市,16_4,新千里北町2丁目19番1号,北丘小学校北側金網塀,34.8196315,135.4957127
大阪府,豊中市,16_5,新千里北町3丁目4番,北町2丁目ﾊﾞｽ停留所東側歩道鉄柵,34.8177484,135.4986449
大阪府,豊中市,16_6,新千里北町2丁目40番,つつじ橋東南側鉄柵,34.8184116,135.4998031
大阪府,豊中市,16_7,新千里北町3丁目4番,府営新千里北町住宅B38棟東側植込み,34.8177484,135.4986449
大阪府,豊中市,16_8,新千里北町3丁目4番,ひらど公園西側植込み,34.8177484,135.4986449
大阪府,豊中市,17_1,新千里東町1丁目3番,せんちゅうﾊﾟﾙ２階西SENRITOよみうり側通路鉄柵,34.8099152,135.4949766
大阪府,豊中市,17_2,新千里東町1丁目2番,千里文化ｾﾝﾀｰｺﾗﾎﾞ東側ｽﾛｰﾌﾟ鉄柵,34.8113889,135.4939667
大阪府,豊中市,17_3,新千里東町1丁目1番,せんちゅうﾊﾟﾙ２階西ｵﾄｶﾘﾃ跡地側歩道橋鉄柵,34.8080582,135.4939667
大阪府,豊中市,17_4,新千里東町2丁目2番,長谷南橋鉄柵,34.8090665,135.4970594
大阪府,豊中市,17_5,新千里東町2丁目4番,ﾒｿﾞﾝ千里D5棟南側歩道鉄柵,34.8114937,135.4972067
大阪府,豊中市,17_6,新千里東町1丁目5番,千里阪急百貨店前歩道橋鉄柵,34.80873040000001,135.4960285
大阪府,豊中市,17_7,新千里東町3丁目1番1号,東丘小学校東側植込み,34.8125071,135.501676
大阪府,豊中市,17_8,新千里東町2丁目5番,豊中八中前ﾊﾞｽ停横植込み,34.8125792,135.4995633
大阪府,豊中市,18_1,上新田1丁目9番,竹林会館前ｶﾞ-ﾄﾞﾚ-ﾙ,34.8007452,135.4964703
大阪府,豊中市,18_2,上新田1丁目17番6号,上新田天神社東側歩道鉄柵,34.8035238,135.4971961
大阪府,豊中市,18_3,上新田1丁目24番,上新田1丁目公園鉄柵,34.8019385,135.4946268
大阪府,豊中市,18_4,上新田1丁目19番,ﾘﾊﾞｰｶﾞｰﾃﾞﾝ千里中央東側歩道鉄柵,34.805178,135.496794
大阪府,豊中市,18_5,上新田2丁目8番,潤心会館北西側歩道植込み,34.8039031,135.4997105
大阪府,豊中市,18_6,上新田2丁目19番1号,新田小学校南側金網塀,34.8050654,135.4989245
大阪府,豊中市,18_7,上新田2丁目19番,新田小学校北門西側ｶﾞｰﾄﾞﾚｰﾙ,34.8045355,135.4989741
大阪府,豊中市,18_8,上新田2丁目5番,上新田ﾊﾞｽ停留所横歩道鉄柵,34.8023732,135.5000051
大阪府,豊中市,19_1,上新田4丁目24番,ﾏﾝﾊｲﾑ桃山台南側道路鉄柵,34.797835,135.499566
大阪府,豊中市,19_2,上新田3丁目7番1号,しんでんこども園西側金網塀,34.7987518,135.4968532
大阪府,豊中市,19_3,上新田4丁目4番,上新田4丁目第3公園金網塀,34.8019411,135.501478
大阪府,豊中市,19_4,上新田4丁目7番,ﾃﾞｨｰﾚｽﾃｨｱ豊中千里中央公園前歩道鉄柵,34.8031036,135.5030983
大阪府,豊中市,19_5,上新田4丁目9番1号,新田南小学校東側植込み,34.8013522,135.5009717
大阪府,豊中市,19_6,上新田4丁目9番1号,新田南小学校西側金網塀,34.8013522,135.5009717
大阪府,豊中市,19_7,上新田4丁目16番,南千里ｵﾘｰﾌﾞヴｨﾗ前緑地帯,34.8005988,135.5036875
大阪府,豊中市,19_8,上新田4丁目6番,新田配水場入口金網塀,34.8042141,135.5030983
大阪府,豊中市,20_1,新千里南町1丁目3番,千里南町公園歩道鉄柵,34.8030281,135.4905796
大阪府,豊中市,20_2,新千里南町2丁目1番,府営新千里南町住宅B21棟東側市道鉄柵,34.8001565,135.4930831
大阪府,豊中市,20_3,新千里南町2丁目5番,市立火葬場東側道路鉄柵,34.7964768,135.4932303
大阪府,豊中市,20_4,新千里南町2丁目4番,くじら公園南側金網塀,34.7973034,135.4938194
大阪府,豊中市,20_5,新千里南町2丁目13番1号,南丘小学校西側金網塀,34.8002099,135.4909928
大阪府,豊中市,20_6,新千里南町1丁目3番,南丘小学校北側歩道鉄柵,34.8030281,135.4905796
大阪府,豊中市,20_7,新千里南町1丁目5番,豊中九中前ﾊﾞｽ停南側歩道鉄柵(青雲高校側),34.804376,135.4877818
大阪府,豊中市,21_1,東豊中町4丁目8番,東豊中4丁目東公園金網塀,34.7986783,135.4852049
大阪府,豊中市,21_2,東豊中町5丁目1番1号,東豊中小学校西側ｽﾛ-ﾌﾟ鉄柵,34.7962979,135.4843123
大阪府,豊中市,21_3,東豊中町5丁目2番,東豊中第二団地128号棟北側植込み,34.795536,135.484573
大阪府,豊中市,21_4,東豊中町5丁目2番,東豊中第二団地136号棟北側植込み,34.795536,135.484573
大阪府,豊中市,21_5,東豊中町5丁目2番,東豊中第二団地124号棟南側植込み,34.795536,135.484573
大阪府,豊中市,21_6,東豊中町5丁目2番,東豊中第二団地104号棟南側植込み,34.795536,135.484573
大阪府,豊中市,21_7,東豊中町5丁目2番,ゆたかこども園西側歩道鉄柵,34.795536,135.484573
大阪府,豊中市,22_1,栗ケ丘町15番,わかば公園東側金網塀,34.786919,135.4750463
大阪府,豊中市,22_2,熊野町4丁目3番27号,熊野田会館東側金網塀,34.7894561,135.4789341
大阪府,豊中市,22_3,栗ヶ丘町1番,第三中学校南側ﾊﾞｽ停横金網塀,34.7853662,135.4742367
大阪府,豊中市,22_4,夕日丘1丁目12番,夕日丘公園東側鉄柵,34.7842696,135.476224
大阪府,豊中市,22_5,夕日丘1丁目4番,ﾎｰﾑｾﾝﾀｰｺｰﾅﾝ東側歩道鉄柵,34.7840182,135.4770337
大阪府,豊中市,22_6,赤阪1丁目1番,八坂橋交差点北側天竺川歩道鉄柵,34.7863911,135.4765737
大阪府,豊中市,22_7,赤阪1丁目5番22号,熊野田小学校東側金網塀,34.787562,135.4765921
大阪府,豊中市,22_8,熊野町1丁目3番,旭ｹ丘団地前ﾊﾞｽ停留所横鉄柵,34.7877699,135.4799045
大阪府,豊中市,23_1,東泉丘1丁目1番,東泉丘1丁目東公園金網塀(ｸﾘｰﾆﾝｸﾞ店南隣),34.7897414,135.4870455
大阪府,豊中市,23_2,東泉丘1丁目5番,東泉丘1丁目東公園(千里泉ヶ丘ｽｶｲﾊｲﾂ前)金網塀,34.7890119,135.4871191
大阪府,豊中市,23_3,東泉丘1丁目6番,ﾒｿﾞﾝﾄﾞｰﾙ千里泉丘1号館前歩道鉄柵,34.7886018,135.4865301
大阪府,豊中市,23_4,西泉丘1丁目2番,熊野町児童遊園(ﾒﾛﾃﾞｨﾊｲﾑ豊中向かい)鉄柵,34.7871804,135.4831436
大阪府,豊中市,23_5,西泉丘1丁目9番,旭丘こども園東側歩道鉄柵,34.7853081,135.4829964
大阪府,豊中市,23_6,西泉丘1丁目14番,泉丘小学校北東側歩道鉄柵,34.7858414,135.4850577
大阪府,豊中市,23_7,西泉丘2丁目2432の2,第十七中学校南側金網塀,34.7827881,135.4866406
大阪府,豊中市,23_8,西泉丘3丁目1番,清水谷池西側歩道鉄柵,34.7830516,135.4886317
大阪府,豊中市,24_1,旭丘2番,熊野田公園北側金網塀,34.7847488,135.4801254
大阪府,豊中市,24_2,旭丘1番,ｱﾙﾋﾞｽ旭ｹ丘1-10号棟西側歩道金網塀,34.7850451,135.4783587
大阪府,豊中市,24_3,旭丘1番,ｱﾙﾋﾞｽ旭ｹ丘1-6号棟北側駐車場植込み,34.7850451,135.4783587
大阪府,豊中市,24_4,旭丘2番,ｱﾙﾋﾞｽ旭ｹ丘ﾊﾞｽﾛｰﾀﾘｰ東側植込み,34.7847488,135.4801254
大阪府,豊中市,24_5,旭丘6番,ｱﾙﾋﾞｽ旭ｹ丘6-1号棟北側鉄柵,34.7858466,135.4813032
大阪府,豊中市,24_6,旭丘7番,ｱﾙﾋﾞｽ旭ｹ丘7-6号棟西側植込み,34.7844524,135.4818921
大阪府,豊中市,24_7,旭丘2番,旭ｹ丘ﾊﾞｽ停留所鉄柵,34.7847488,135.4801254
大阪府,豊中市,25_1,中桜塚4丁目1番1号,大阪府立桜塚高等学校北側ｺﾝｸﾘｰﾄ塀外側植込み,34.7823815,135.4723534
大阪府,豊中市,25_2,中桜塚4丁目1番1号,大阪府立桜塚高等学校南側金網塀,34.7823815,135.4723534
大阪府,豊中市,25_3,中桜塚5丁目13番,府営桜塚住宅1棟西側ｶﾞｰﾄﾞﾚｰﾙ,34.7828356,135.4740159
大阪府,豊中市,25_4,中桜塚5丁目14番,府営桜塚住宅3棟南側金網塀,34.782413,135.4746047
大阪府,豊中市,25_5,中桜塚5丁目20番,下原公園西側金網塀,34.7807149,135.4758422
大阪府,豊中市,25_6,中桜塚5丁目23番,府営桜塚住宅4棟西側植込み,34.782052,135.4759296
大阪府,豊中市,25_7,中桜塚5丁目20番,下原公園東側金網塀,34.7807149,135.4758422
大阪府,豊中市,26_1,中桜塚3丁目1番1号,豊中市役所第二庁舎北側駐車場金網塀,34.7813117,135.4705473
大阪府,豊中市,26_2,北桜塚1丁目3番,大門公園北側駐車場金網塀,34.7832199,135.4671712
大阪府,豊中市,26_3,北桜塚1丁目4番,NTT東側大門公園金網塀,34.7827419,135.4664353
大阪府,豊中市,26_4,北桜塚2丁目6番1号,桜塚小学校南側金網塀,34.7852793,135.4676496
大阪府,豊中市,26_5,北桜塚4丁目6番,大曽公園北側金網塀,34.7859461,135.4718814
大阪府,豊中市,26_6,中桜塚3丁目1番1号,豊中市役所第二庁舎東側駐輪場金網塀,34.7813117,135.4705473
大阪府,豊中市,26_7,岡上の町2丁目1番,岡上の町2丁目阪急ｵｱｼｽ向かい金網塀,34.7838466,135.4637536
大阪府,豊中市,26_8,北桜塚4丁目11番18号,豊中市上下水道局西側駐車場金網塀,34.7879978,135.470288
大阪府,豊中市,27_1,中桜塚1丁目17番,阪急岡町駅南側阪急高架下金網塀,34.7777519,135.4658466
大阪府,豊中市,27_2,中桜塚1丁目24番,萩の寺公園西側公園鉄柵,34.774131,135.467024
大阪府,豊中市,27_3,中桜塚1丁目24番,萩の寺公園延命橋植込み,34.774131,135.467024
大阪府,豊中市,27_4,中桜塚1丁目2番,阪急岡町駅北側高架下歩道鉄柵,34.7794174,135.4658466
大阪府,豊中市,27_5,中桜塚1丁目20番11号,阪急高架下ふれあい広場金網塀,34.7758987,135.4663801
大阪府,豊中市,27_6,中桜塚2丁目25番,桜塚公園南側金網塀,34.7798058,135.4684959
大阪府,豊中市,27_7,中桜塚2丁目25番,桜塚公園西側金網塀,34.7798058,135.4684959
大阪府,豊中市,28_1,中桜塚4丁目15番,大塚公園北側鉄柵,34.7794847,135.4726174
大阪府,豊中市,28_2,南桜塚2丁目2番1号,南桜塚小学校北側金網塀,34.7784277,135.4717077
大阪府,豊中市,28_3,南桜塚2丁目2番1号,南桜塚小学校南側植込み,34.7784277,135.4717077
大阪府,豊中市,28_4,夕日丘3丁目14番,広田橋北西側天竺川堤防金網塀,34.7799199,135.4806407
大阪府,豊中市,28_5,南桜塚4丁目19番,皿池公園北側金網塀,34.7788607,135.4790948
大阪府,豊中市,28_6,南桜塚4丁目5番,ﾘﾍﾞｰﾙ南桜塚前歩道鉄柵,34.7783108,135.4753408
大阪府,豊中市,28_7,南桜塚4丁目19番,皿池公園東側鉄柵,34.7788607,135.4790948
大阪府,豊中市,28_8,夕日丘3丁目10番,ﾗｲｵﾝｽﾞﾏﾝｼｮﾝ服部緑地南側鉄柵,34.7794483,135.4793156
大阪府,豊中市,29_1,東寺内町11番,阪急ｵｱｼｽ横遊園地,34.7749668,135.4964276
大阪府,豊中市,29_2,東寺内町1番,東寺内町第1公園西側鉄柵,34.776743,135.499936
大阪府,豊中市,29_3,東寺内町13番,寺内北公園南側植込み,34.7751965,135.4970594
大阪府,豊中市,29_4,東寺内町13番,寺内北公園北東側公園鉄柵,34.7751965,135.4970594
大阪府,豊中市,29_5,東寺内町10番,寺内南公園北東側金網塀,34.7721549,135.4958812
大阪府,豊中市,29_6,東寺内町10番,寺内南公園西側金網塀,34.7721549,135.4958812
大阪府,豊中市,29_7,東寺内町13番,寺内北公園西側植込み,34.7751965,135.4970594
大阪府,豊中市,30_1,北条町2丁目16番1号,北条小学校北西側金網塀,34.7691258,135.4841955
大阪府,豊中市,30_2,北条町2丁目16番1号,北条小学校北東側金網塀,34.7691258,135.4841955
大阪府,豊中市,30_3,北条町1丁目2番,北条北児童遊園鉄柵,34.7682856,135.4814504
大阪府,豊中市,30_4,北条町1丁目18番,北条町1丁目第1公園北側緑地,34.7661646,135.4818185
大阪府,豊中市,30_5,北条町2丁目16番1号,北条小学校体育館南側金網塀,34.7691258,135.4841955
大阪府,豊中市,30_6,北条町3丁目3番,北条町3丁目3番5号宅前歩道鉄柵,34.7650703,135.4835117
大阪府,豊中市,30_7,北条町3丁目17番,北条公園北側金網塀,34.7657065,135.4856467
大阪府,豊中市,30_8,北条町2丁目16番1号,北条小学校東側金網塀,34.7691258,135.4841955
大阪府,豊中市,31_1,長興寺南1丁目5番,長興寺公園西側鉄柵,34.7737491,135.4735742
大阪府,豊中市,31_2,長興寺南2丁目6番,長興寺中池南側金網塀,34.7718288,135.4746783
大阪府,豊中市,31_3,城山町1丁目9番1号,さわ病院芝蘭荘横金網塀,34.770539,135.4768134
大阪府,豊中市,31_4,服部本町4丁目5番7号,第四中学校北側金網塀,34.7684604,135.4761467
大阪府,豊中市,31_5,服部本町4丁目5番7号,第四中学校体育館西側金網塀,34.7684604,135.4761467
大阪府,豊中市,31_6,服部本町5丁目2番,市立服部図書館西側歩道鉄柵,34.7686723,135.4777698
大阪府,豊中市,31_7,曽根東町6丁目5番,ｼﾃｨｺｰﾄ曽根東町6号棟向かい阪急高架下駐車場金網塀,34.767696,135.4717342
大阪府,豊中市,31_8,曽根東町6丁目13番,中豊島小学校東側水路木柵,34.7678128,135.4737951
大阪府,豊中市,32_1,服部本町1丁目5番,天竺川橋北側天竺川堤防金網塀,34.7634909,135.4787267
大阪府,豊中市,32_2,服部本町3丁目8番,服部本町3丁目8番天竺川堤防金網塀,34.766119,135.4796101
大阪府,豊中市,32_3,服部本町2丁目5番7号,服部こども園北側金網塀,34.7650029,135.4771896
大阪府,豊中市,32_4,服部本町2丁目13番,天竺小橋北西側天竺川堤防鉄柵,34.7653926,135.4793892
大阪府,豊中市,32_5,服部本町2丁目5番7号,服部こども園西側金網塀,34.7650029,135.4771896
大阪府,豊中市,32_6,服部元町1丁目2番17号,服部天神宮駐車場南側金網塀,34.7629084,135.4759337
大阪府,豊中市,32_7,服部元町1丁目13番,田代ﾋﾞﾙ向かい阪急軌道金網塀,34.7650561,135.4751935
大阪府,豊中市,33_1,服部南町2丁目3番,住吉神社東側天竺川堤防金網塀,34.7629001,135.4788003
大阪府,豊中市,33_2,服部南町5丁目8番,服部南町5丁目8番天竺川堤防鉄柵,34.7585609,135.478874
大阪府,豊中市,33_3,服部南町3丁目10番24号,NTT大阪支店服部別館西側鉄柵,34.758528,135.4762316
大阪府,豊中市,33_4,服部南町2丁目11番,松林寺橋北西側天竺川堤防鉄柵,34.7615119,135.4788003
大阪府,豊中市,33_5,服部南町5丁目6番,夢の鳥保育園西側金網塀,34.7592906,135.4788003
大阪府,豊中市,33_6,服部南町5丁目10番,服部南児童遊園鉄柵,34.757941,135.4784323
大阪府,豊中市,33_7,服部南町5丁目2番,服部南町5丁目2番天竺川堤防鉄柵,34.7604012,135.4788003
大阪府,豊中市,34_1,小曽根1丁目2番1号,小曽根小学校南側金網塀,34.7637135,135.4842554
大阪府,豊中市,34_2,浜1丁目29番,浜1丁目農園東側歩道鉄柵,34.7616027,135.4832172
大阪府,豊中市,34_3,小曽根2丁目14番,市営小曽根住宅1棟南側金網塀,34.76131549999999,135.4872664
大阪府,豊中市,34_4,小曽根3丁目4番,神崎刀根山線浜交差点北東歩道鉄柵,34.7578089,135.4841743
大阪府,豊中市,34_5,浜1丁目2番,天竺川橋東南歩道鉄柵,34.763165,135.4799781
大阪府,豊中市,34_6,浜2丁目1番,松林寺橋横天竺川堤防鉄柵,34.7601172,135.4793892
大阪府,豊中市,34_7,浜2丁目17番,神崎刀根山線浜2丁目ｽｷﾞ薬局前歩道鉄柵,34.7595169,135.4835117
大阪府,豊中市,34_8,浜2丁目14番1号,第十二中学校ﾌﾟｰﾙ北側金網塀,34.7598325,135.4824258
大阪府,豊中市,35_1,浜4丁目2番1号,小曽根電力所東側歩道鉄柵,34.7560173,135.4810281
大阪府,豊中市,35_2,小曽根4丁目7番1号,高川こども園東側金網塀,34.755445,135.4843827
大阪府,豊中市,35_3,小曽根5丁目8番,小曽根南公園鉄柵,34.7544862,135.4864565
大阪府,豊中市,35_4,豊南町東1丁目1番1号,高川小学校南側植込み,34.7539392,135.4855938
大阪府,豊中市,35_5,豊南町東1丁目1番1号,高川小学校北側植込み,34.7539392,135.4855938
大阪府,豊中市,35_6,豊南町西1丁目1番,日電橋北天竺川堤防金網塀,34.7535822,135.4802726
大阪府,豊中市,35_7,浜3丁目5番,名神高架下公園(名神天竺児童遊園)前ｶﾞｰﾄﾞﾚｰﾙ,34.7572695,135.4795365
大阪府,豊中市,36_1,庄内東町1丁目10番,庄内駅東側阪急軌道金網塀,34.7502193,135.4749876
大阪府,豊中市,36_2,庄内東町3丁目1番,野田公園金網塀,34.752589,135.476733
大阪府,豊中市,36_3,庄内東町3丁目4番,庄内東町3丁目4番8号宅前天竺川堤防金網塀,34.75207109999999,135.4788003
大阪府,豊中市,36_4,庄内東町3丁目5番,庄内東町3丁目第2児童遊園西側鉄柵,34.7517998,135.4782115
大阪府,豊中市,36_5,庄内東町4丁目7番,豊南橋北側天竺川堤防金網塀,34.749714,135.4785059
大阪府,豊中市,36_6,庄内東町6丁目4番,阪急電鉄軌道金網塀(河木ﾓｰﾀｰﾌﾟｰﾙ西南向かい),34.7461589,135.4766657
大阪府,豊中市,36_7,庄内東町6丁目8番,庄内東町6丁目8番9号宅前天竺川横植込み金網塀,34.7457229,135.4784323
大阪府,豊中市,37_1,豊南町東3丁目9番,豊南東公園西側鉄柵,34.7506048,135.4858675
大阪府,豊中市,37_2,豊南町東4丁目7番,豊南町東4丁目公園鉄柵,34.7476696,135.4844687
大阪府,豊中市,37_3,豊南町西1丁目10番,日電橋東側歩道鉄柵,34.7527491,135.4802726
大阪府,豊中市,37_4,豊南町西2丁目19番1号,豊南小学校南側金網塀,34.7496229,135.4810685
大阪府,豊中市,37_5,豊南町西2丁目19番1号,豊南小学校東側金網塀,34.7496229,135.4810685
大阪府,豊中市,37_6,豊南町西4丁目29番,豊南公園金網塀,34.7474342,135.4806407
大阪府,豊中市,37_7,豊南町西5丁目15番,砂畑橋北側天竺川堤防金網塀,34.7469661,135.4790212
大阪府,豊中市,38_1,豊南町南1丁目4番,長島公園南側金網塀,34.7452901,135.4799045
大阪府,豊中市,38_2,豊南町南1丁目3番,府営豊中豊南住宅5棟前天竺川堤防金網塀,34.7457164,135.4790212
大阪府,豊中市,38_3,豊南町南1丁目8番,府営豊中豊南住宅2棟北側芝生,34.7460909,135.4796837
大阪府,豊中市,38_4,豊南町南2丁目5番,道田小橋北側天竺川堤防金網塀,34.7440049,135.4799781
大阪府,豊中市,38_5,豊南町南5丁目1番,豊南町南公園金網塀,34.7446698,135.4826283
大阪府,豊中市,38_6,豊南町南5丁目1番1号,吉村油化学北門南東側道路鉄柵,34.7444017,135.4825127
大阪府,豊中市,38_7,豊南町南5丁目13番,二軒家公園金網塀,34.7417654,135.4826752
大阪府,豊中市,39_1,庄内東町6丁目18番,天竺川児童遊園金網塀,34.7437402,135.4788003
大阪府,豊中市,39_2,三国1丁目3番,三国北児童遊園西側金網塀,34.7427584,135.4796837
大阪府,豊中市,39_3,三国1丁目4番,三国ｾﾝﾀｰ前ｶﾞｰﾄﾞﾚｰﾙ,34.7419188,135.4802726
大阪府,豊中市,39_4,三国1丁目5番,三国1丁目公園金網塀,34.7422966,135.4806407
大阪府,豊中市,39_5,三国2丁目3番,三国公園南西側金網塀,34.7403516,135.4810778
大阪府,豊中市,39_6,三国1丁目10番,三国公園南側金網塀,34.7404816,135.481524
大阪府,豊中市,39_7,三国2丁目1番1号,市営三国住宅駐車場南側金網塀,34.7397621,135.4795058
大阪府,豊中市,40_1,庄内西町3丁目7番,ｲｽﾞﾐﾔ庄内店東側阪急軌道金網塀,34.7483707,135.4743839
大阪府,豊中市,40_2,庄内幸町3丁目12番,庄内幸町ひろば東側金網塀,34.7485578,135.4699678
大阪府,豊中市,40_3,庄内幸町4丁目29番,庄内ｺﾗﾎﾞｾﾝﾀｰ北側歩道鉄柵,34.7465366,135.4707038
大阪府,豊中市,40_4,庄内西町4丁目25番,庄内西町3丁目交差点南東側歩道鉄柵,34.7470371,135.4725438
大阪府,豊中市,40_5,庄内西町4丁目17番,庄内西町公園北側金網塀,34.7460201,135.4735006
大阪府,豊中市,40_6,庄内幸町4丁目29番,庄内ｺﾗﾎﾞｾﾝﾀｰ南側歩道鉄柵,34.7465366,135.4707038
大阪府,豊中市,40_7,庄内幸町5丁目1番,庄内幸町5丁目1番地先遊歩道鉄柵,34.7452354,135.4722494
大阪府,豊中市,40_8,庄内幸町5丁目8番1号,旧庄内出張所東側鉄柵,34.7440164,135.4722039
大阪府,豊中市,41_1,大黒町1丁目2番15号,庄内南小学校南側金網塀,34.7417028,135.4713975
大阪府,豊中市,41_2,大黒町1丁目2番15号,庄内南小学校西側金網塀,34.7417028,135.4713975
大阪府,豊中市,41_3,大黒町3丁目2番,市営島江住宅2棟南側金網塀,34.7402564,135.470483
大阪府,豊中市,41_4,大黒町3丁目13番18号,庄内南ｾﾝﾀｰ北側金網塀及びﾌﾞﾛｯｸ塀,34.7391178,135.4683258
大阪府,豊中市,41_5,島江町1丁目3番,庄本交差点南東歩道鉄柵,34.7429376,135.4674611
大阪府,豊中市,41_6,日出町1丁目2番,日出町公園金網塀,34.7445993,135.4764448
大阪府,豊中市,41_7,三和町1丁目3番,府営庄内住宅3棟西側金網塀,34.7425457,135.4737951
大阪府,豊中市,41_8,三和町2丁目6番,三和自治会館前市道金網塀,34.7406016,135.4769601
大阪府,豊中市,42_1,千成町1丁目6番,千成町児童遊園金網塀,34.7379218,135.4712926
大阪府,豊中市,42_2,千成町2丁目8番,千成町2丁目8番歩道鉄柵,34.7356776,135.4701886
大阪府,豊中市,42_3,千成町2丁目2番,千成小学校跡地東側歩道鉄柵,34.7376246,135.473059
大阪府,豊中市,42_4,千成町2丁目4番,千成ｾﾝﾀｰ前緑道鉄柵,34.7364622,135.4714398
大阪府,豊中市,42_5,千成町1丁目7番,千成北公園西側金網塀,34.7380413,135.4698942
大阪府,豊中市,42_6,千成町2丁目7番,神崎刀根山線千成町2丁目ｽｰﾊﾟｰ南側歩道鉄柵,34.7356679,135.4710718
大阪府,豊中市,42_7,神州町1番,三和町ﾊﾞｽ停横歩道鉄柵,34.7389545,135.4783587
大阪府,豊中市,43_1,大島町1丁目2番,洲到止第2踏切北側阪急軌道金網塀,34.7376184,135.4673184
大阪府,豊中市,43_2,大島町2丁目1番,大島町2丁目公園鉄柵,34.7364947,135.4684959
大阪府,豊中市,43_3,大島町1丁目23番,大島･島江共同墓地西側緑道,34.735158,135.4637861
大阪府,豊中市,43_4,大島町3丁目10番2,つるやｺﾞﾙﾌｾﾝﾀｰ神崎川東側歩道鉄柵,34.733471,135.468033
大阪府,豊中市,43_5,大島町2丁目6番,洲到止八幡宮南側歩道鉄柵,34.7344572,135.4675392
大阪府,豊中市,43_6,大島町2丁目6番,洲到止八幡宮北側石柵,34.7344572,135.4675392
大阪府,豊中市,43_7,大島町3丁目10番,つるやｺﾞﾙﾌｾﾝﾀｰ神崎川南側歩道鉄柵,34.73282,135.4680544
大阪府,豊中市,44_1,庄本町2丁目1番,阪急庄本踏切道横軌道金網塀,34.7423613,135.4620936
大阪府,豊中市,44_2,庄本町2丁目4番,庄内歩路2号線東側歩道鉄柵,34.7414477,135.4631238
大阪府,豊中市,44_3,庄本町2丁目9番,庄内西小学校交差点歩道鉄柵,34.7394717,135.462903
大阪府,豊中市,44_4,庄本町4丁目1番,庄内西小学校南西側金網塀,34.7385805,135.4618728
大阪府,豊中市,44_5,庄本町4丁目1番,庄本小公園植込み,34.7385805,135.4618728
大阪府,豊中市,44_6,二葉町1丁目3番,阪急島江踏切道北側軌道金網塀,34.7389875,135.4659202
大阪府,豊中市,44_7,二葉町2丁目3番,二葉公園西側鉄柵,34.7371146,135.4626087
大阪府,豊中市,45_1,庄内宝町1丁目1番,寸賀尻橋南東側道路鉄柵,34.74822109999999,135.4626087
大阪府,豊中市,45_2,庄内宝町1丁目3番,ｱﾈｼｽ庄内宝町西側歩道鉄柵,34.7469749,135.4623144
大阪府,豊中市,45_3,庄内栄町5丁目10番1号,第七中学校南側金網塀,34.7451211,135.4658328
大阪府,豊中市,45_4,庄内栄町5丁目10番1号,第七中学校北側金網塀,34.7451211,135.4658328
大阪府,豊中市,45_5,庄内栄町3丁目23番,中川ﾓｰﾀｰﾌﾟｰﾙ北側金網塀,34.7471013,135.4666561
大阪府,豊中市,45_6,庄内栄町3丁目1番,寸賀尻橋西側水路鉄柵,34.749171,135.4678336
大阪府,豊中市,45_7,庄内栄町5丁目2番,府営庄内西住宅東側金網塀,34.7446961,135.4676128
大阪府,豊中市,46_1,稲津町1丁目9番,三田池公園北側歩道鉄柵,34.7544603,135.4761504
大阪府,豊中市,46_2,稲津町1丁目11番,稲津横断歩道橋さくら広場側金網塀,34.7534206,135.4760032
大阪府,豊中市,46_3,野田町1番1号,旧野田小学校職員通用門歩道鉄柵,34.7530151,135.4743977
大阪府,豊中市,46_4,野田町1番1号,旧野田小学校西側ｺﾝｸﾘｰﾄ塀,34.7530151,135.4743977
大阪府,豊中市,46_5,野田町32番3号,くりのみ幼稚園ﾌｪﾝｽ,34.7541179,135.4700482
大阪府,豊中市,46_6,庄内幸町1丁目6番,庄内北公園東側植込み,34.752587,135.4696735
大阪府,豊中市,46_7,庄内西町1丁目7番,大阪音楽大学ｺﾝｻｰﾄｾﾝﾀｰ東側歩道鉄柵,34.75335889999999,135.4721022
大阪府,豊中市,46_8,庄内西町2丁目18番,庄内西町2丁目南交差点南西側歩道鉄柵,34.7504435,135.4721022
大阪府,豊中市,47_1,庄内栄町1丁目1番,ﾋﾟｱｽｱﾛ-ｲ-ｽﾄｻｲﾄﾞ南側歩道鉄柵,34.7541428,135.467024
大阪府,豊中市,47_2,庄内栄町2丁目10番,宮前橋南側水路鉄柵,34.75072040000001,135.465773
大阪府,豊中市,47_3,庄内栄町2丁目20番1号,旧島田小学校南側金網塀,34.7494652,135.4649017
大阪府,豊中市,47_4,庄内栄町2丁目11番,島田西公園鉄柵,34.7500036,135.4646691
大阪府,豊中市,47_5,庄内栄町1丁目13番,宮前橋北側水路鉄柵,34.7512757,135.465773
大阪府,豊中市,47_6,庄内栄町2丁目20番1号,旧島田小学校東門金網塀,34.7494652,135.4649017
大阪府,豊中市,47_7,名神口3丁目1番,赤穂橋北側水路鉄柵,34.7504613,135.4608427
大阪府,豊中市,48_1,上津島1丁目7番,府営豊中上津島住宅1棟前鉄柵,34.7540642,135.4614313
大阪府,豊中市,48_2,上津島2丁目3番,下二十橋南側水路鉄柵,34.7565754,135.460254
大阪府,豊中市,48_3,上津島2丁目15番,有料老人ﾎｰﾑ｢はっぴｰらいふ豊中｣前道路鉄柵,34.7565943,135.4584881
大阪府,豊中市,48_4,今在家町17番,福井橋南側水路鉄柵,34.7524048,135.4608427
大阪府,豊中市,48_5,上津島3丁目4番,豊島西小学校北側金網塀,34.75916369999999,135.4583409
大阪府,豊中市,48_6,利倉1丁目13番,春日橋水路鉄柵,34.7629666,135.4596654
大阪府,豊中市,48_7,利倉3丁目2番,村合橋南側水路鉄柵,34.7611591,135.4599597
大阪府,豊中市,49_1,服部寿町2丁目20番,ｽﾄﾚｰｼﾞｻｰﾋﾞｽ(株)前鉄柵,34.7582775,135.471403
大阪府,豊中市,49_2,服部寿町3丁目7番,市営服部寿住宅南側歩道鉄柵,34.7591504,135.4693055
大阪府,豊中市,49_3,服部寿町2丁目19番9号,服部寿ｾﾝﾀｰ金網塀,34.75903720000001,135.4710235
大阪府,豊中市,49_4,服部寿町3丁目12番,ふれあい緑地遊戯広場北西側金網塀,34.75926949999999,135.4679072
大阪府,豊中市,49_5,服部寿町4丁目8番,ふれあい緑地ﾃﾆｽｺｰﾄ金網塀,34.7581654,135.4673184
大阪府,豊中市,49_6,服部寿町3丁目12番,ふれあい緑地遊戯広場北側金網塀,34.75926949999999,135.4679072
大阪府,豊中市,49_7,服部寿町3丁目12番,ふれあい緑地遊戯広場南側金網塀,34.75926949999999,135.4679072
大阪府,豊中市,50_1,服部豊町1丁目7番,掛腰踏切道南側ﾓｰﾀﾌﾟｰﾙ前阪急軌道金網塀,34.7652013,135.4746047
大阪府,豊中市,50_2,服部西町2丁目15番,服部西町2丁目公園南側金網塀,34.7614526,135.4714398
大阪府,豊中市,50_3,服部西町1丁目1番,阪急服部天神駅西改札口南側軌道金網塀,34.7633257,135.4747519
大阪府,豊中市,50_4,服部西町3丁目6番5号,豊島小学校東側植込み,34.7623883,135.4711546
大阪府,豊中市,50_5,服部西町3丁目6番5号,豊島小学校北側金網塀,34.7623883,135.4711546
大阪府,豊中市,50_6,服部西町3丁目6番5号,豊島小学校南側金網塀,34.7623883,135.4711546
大阪府,豊中市,50_7,服部西町2丁目15番,服部西町2丁目公園東側金網塀,34.7614526,135.4714398
大阪府,豊中市,50_8,服部豊町1丁目14番,豊橋南側水路鉄柵,34.7664728,135.4725438
大阪府,豊中市,51_1,服部西町4丁目12番1号,市立豊島体育館東側鉄柵,34.7632658,135.4675906
大阪府,豊中市,51_2,服部西町4丁目7番,江頭橋南側水路鉄柵,34.7614192,135.4664721
大阪府,豊中市,51_3,服部西町4丁目13番,市立武道館ひびき北側鉄柵,34.76226510000001,135.4668769
大阪府,豊中市,51_4,服部西町4丁目3番,ﾏﾘﾝﾌｰﾄﾞ豊島温水ﾌﾟｰﾙ北東側水路鉄柵,34.7625813,135.4665089
大阪府,豊中市,51_5,服部西町4丁目13番,青少年交流文化館いぶき南側水路鉄柵,34.76226510000001,135.4668769
大阪府,豊中市,51_6,利倉東1丁目6番,北部農協南豊島支店前駐車場金網塀,34.7649662,135.464154
大阪府,豊中市,51_7,利倉東1丁目16番,利倉東1丁目児童遊園入口北側鉄柵,34.7654462,135.4614313
大阪府,豊中市,52_1,曽根南町1丁目4番,豊島公園北入口横鉄柵,34.768513,135.468918
大阪府,豊中市,52_2,曽根南町1丁目4番,豊島公園西入口北側鉄柵,34.768513,135.468918
大阪府,豊中市,52_3,曽根南町2丁目19番1号,豊島北小学校南側金網塀,34.7660028,135.4651705
大阪府,豊中市,52_4,曽根南町2丁目19番1号,豊島北小学校西側金網塀,34.7660028,135.4651705
大阪府,豊中市,52_5,曽根南町2丁目19番2号,てしまこども園金網塀,34.7660003,135.4668935
大阪府,豊中市,52_6,曽根南町2丁目9番,山中造園西側植樹帯,34.7671316,135.4628295
大阪府,豊中市,52_7,曽根南町1丁目3番,ﾏﾝｼｮﾝﾗｲﾑﾗｲﾄ向かい水路鉄柵,34.7660303,135.4717342
大阪府,豊中市,52_8,曽根南町1丁目4番,豊島公園南入口前水路鉄柵,34.768513,135.468918
大阪府,豊中市,53_1,曽根東町1丁目2番,阪急曽根駅北高架下駐輪場金網塀,34.7730144,135.4676128
大阪府,豊中市,53_2,曽根東町3丁目1番,阪急曽根駅前北側高架下道路北側歩道鉄柵,34.7706517,135.4679072
大阪府,豊中市,53_3,曽根東町3丁目2番,曽根駅前ﾋﾞﾙｿﾈｺｰﾄ北側歩道鉄柵,34.7713426,135.4682015
大阪府,豊中市,53_4,曽根東町3丁目9番,市立文化芸術ｾﾝﾀｰ西南向かい金網塀,34.769151,135.4687167
大阪府,豊中市,53_5,曽根西町1丁目6番1号,第一中学校西側金網塀,34.769135,135.4671666
大阪府,豊中市,53_6,曽根西町1丁目6番1号,第一中学校東側金網塀,34.769135,135.4671666
大阪府,豊中市,53_7,曽根東町1丁目9番,三井住友銀行南側歩道鉄柵,34.7720335,135.4684959
大阪府,豊中市,53_8,曽根東町3丁目7番,中央公民館西側歩道鉄柵,34.7698711,135.4695263
大阪府,豊中市,54_1,原田元町1丁目17番1号,原田小学校西側金網塀,34.7737955,135.4605943
大阪府,豊中市,54_2,岡町南3丁目5番,三幸商事東側ｶﾞｰﾄﾞﾚｰﾙ,34.77671580000001,135.4587824
大阪府,豊中市,54_3,原田元町1丁目17番1号,原田小学校北側金網塀,34.7737955,135.4605943
大阪府,豊中市,54_4,原田元町1丁目17番1号,原田小学校南側金網塀,34.7737955,135.4605943
大阪府,豊中市,54_5,原田元町1丁目11番,原田公園北側歩道鉄柵,34.7746373,135.4584881
大阪府,豊中市,54_6,原田元町2丁目22番1号,原田こども園南側ﾌｪﾝｽ,34.771943,135.4597527
大阪府,豊中市,54_7,原田元町3丁目13番,原田介護予防ｾﾝﾀｰ南前植込み,34.7699062,135.4596654
大阪府,豊中市,54_8,勝部2丁目3番,勝部2丁目児童遊園西側歩道鉄柵,34.7760295,135.4547357
大阪府,豊中市,55_1,宮山町2丁目1番1号,第二中学校南側金網塀,34.8061338,135.4614828
大阪府,豊中市,55_2,宮山町2丁目3番,宮山第1公園鉄柵,34.8073477,135.46202
大阪府,豊中市,55_3,宮山町2丁目1番1号,第二中学校西側金網塀,34.8061338,135.4614828
大阪府,豊中市,55_4,宮山町3丁目10番,赤坂上池公園南側植込,34.8081981,135.460254
大阪府,豊中市,55_5,宮山町4丁目27番,宮山町4丁目第2公園北側植込み,34.8097946,135.4635653
大阪府,豊中市,55_6,宮山町4丁目8番3号,市営宮山北住宅3棟北西側金網塀,34.809726,135.4624179
大阪府,豊中市,55_7,宮山町3丁目24番,柴原浄水場南側歩道鉄柵,34.8082219,135.4578994
大阪府,豊中市,56_1,東豊中町6丁目2番1号,東豊台小学校西側入口横ｺﾝｸﾘｰﾄ塀,34.7955154,135.4793294
大阪府,豊中市,56_2,東豊中町6丁目12番,ｼｬﾚｰﾙ東豊中21号棟南側歩道鉄柵,34.7963823,135.482481
大阪府,豊中市,56_3,東豊中町6丁目11番,ｼｬﾚｰﾙ東豊中7号棟北側植込み,34.7966013,135.4814504
大阪府,豊中市,56_4,東豊中町6丁目5番,ｼｬﾚｰﾙ東豊中5号棟東側歩道鉄柵,34.79605850000001,135.4802726
大阪府,豊中市,56_5,東豊中町6丁目12番,豊中東豊中郵便局東側歩道鉄柵,34.7963823,135.482481
大阪府,豊中市,56_6,東豊中町6丁目9番,ｼｬﾚｰﾙ東豊中17号棟北側駐車場前植込み,34.7950006,135.4818921
大阪府,豊中市,56_7,東豊中町6丁目22番,関西電力熊野変電所向い歩道鉄柵,34.7928758,135.4793892
大阪府,豊中市,57_1,長興寺北2丁目3番,住吉公園鉄柵,34.7778275,135.4783587
大阪府,豊中市,57_2,長興寺北3丁目16番,緑橋横天竺川堤防金網塀,34.7767179,135.481524
大阪府,豊中市,57_3,長興寺南3丁目5番2号,豊中市文書館金網塀,34.775008,135.4772741
大阪府,豊中市,57_4,城山町3丁目4番,OPH服部緑地南側植込み,34.7703381,135.4777698
大阪府,豊中市,57_5,城山町3丁目4番,OPH服部緑地北西側金網塀,34.7703381,135.4777698
大阪府,豊中市,57_6,長興寺南4丁目3番19号,履正社高校前交差点南側歩道鉄柵,34.7746965,135.480168
大阪府,豊中市,57_7,城山町4丁目1番1号,緑地小学校西側歩道鉄柵,34.7717579,135.4800794
大阪府,豊中市,57_8,城山町4丁目9番,西願寺橋北側天竺川堤防鉄柵,34.7695832,135.480199
大阪府,豊中市,58_1,春日町5丁目7番,春日町5丁目公園金網,34.8180556,135.4732062
大阪府,豊中市,58_2,春日町5丁目1番,豊中野畑住宅街区記念会館前歩道鉄柵,34.81432,135.471176
大阪府,豊中市,58_3,春日町5丁目1番,野畑住宅前ﾊﾞｽ停留所東側ｶﾞｰﾄﾞﾚｰﾙ,34.81432,135.471176
大阪府,豊中市,58_4,春日町5丁目12番,春日北公園北側金網塀,34.815145,135.4729118
大阪府,豊中市,58_5,北緑丘1丁目1番1号,第十四中学校西側金網塀,34.8169472,135.4752288
大阪府,豊中市,58_6,北緑丘1丁目2番,北緑丘団地3号棟南東金網塀,34.8183739,135.4760032
大阪府,豊中市,58_7,北緑丘1丁目6番,北緑丘団地6号棟北側駐車場鉄柵,34.819294,135.476532
大阪府,豊中市,59_1,新千里南町3丁目2番,上新田住宅前ﾊﾞｽ停留所横歩道鉄柵,34.7972908,135.4949976
大阪府,豊中市,59_2,新千里南町3丁目6番9号,北大阪急行電鉄株式会社技術部西側金網塀,34.7931635,135.4966859
大阪府,豊中市,59_3,新千里南町3丁目9番4号,白鳩ﾁﾙﾄﾞﾚﾝｾﾝﾀｰ南丘西側植込み,34.7938975,135.493946
大阪府,豊中市,59_4,新千里南町3丁目12番,中天竺橋東側ｶﾞｰﾄﾞﾚｰﾙ,34.7948467,135.4931567
大阪府,豊中市,59_5,東泉丘3丁目368の1,東泉丘小学校西側金網塀,34.7879671,135.4907269
大阪府,豊中市,59_6,東泉丘3丁目5番,ｼｰｱｲﾊｲﾂ千里桃山台北側歩道鉄柵,34.7886059,135.4894015
大阪府,豊中市,59_7,東泉丘4丁目1番,東泉丘4丁目第1公園西側ｶﾞｰﾄﾞﾚｰﾙ,34.7851708,135.4877449
大阪府,豊中市,59_8,東泉丘4丁目5番,東泉丘下五郎谷池金網塀,34.786314,135.4895488
大阪府,豊中市,60_1,利倉西1丁目1番22号,西治ﾊｲﾂ駐車場西側鉄柵,34.761456,135.453339
大阪府,豊中市,60_2,利倉西1丁目8番,猪名川ｴｸｾﾙﾊｲﾂ東側ｶﾞｰﾄﾞﾚｰﾙ,34.7633513,135.4528228
大阪府,豊中市,60_3,利倉西2丁目21番,猪名川風致公園北東側入口南側鉄柵,34.7607037,135.4505422
大阪府,豊中市,60_4,利倉西2丁目13番,利倉西第1住宅東側ｶﾞｰﾄﾞﾚｰﾙ,34.7592492,135.4535585
大阪府,豊中市,60_5,利倉西2丁目2番,小林ﾓｰﾀｰﾌﾟｰﾙ北側歩道鉄柵,34.7608083,135.4537792
大阪府,豊中市,60_6,利倉西2丁目8番,遊園地西側歩道鉄柵,34.7597166,135.4520136
大阪府,豊中市,60_7,利倉西2丁目18番,松田医院向かい鉄柵,34.7591322,135.4514986
大阪府,豊中市,61_1,熊野町3丁目6番,第十五中学校北側歩道鉄柵,34.7922815,135.4863829
大阪府,豊中市,61_2,東豊中町5丁目37番,二ﾉ切公園駐車場南側植込み,34.7953896,135.491454
大阪府,豊中市,61_3,東泉丘2丁目1番,千里緑地第4区ﾊﾞｲｸｼｮｯﾌﾟ東側金網塀,34.794184,135.4902115
大阪府,豊中市,61_4,東泉丘2丁目16番,油田池公園北側歩道鉄柵,34.7901421,135.488518
大阪府,豊中市,61_5,熊野町2丁目1番,熊野町ﾊﾞｽ停留所向い歩道鉄柵,34.7881196,135.4829227
大阪府,豊中市,61_6,熊野町3丁目8番1号,第十五中学校西側金網塀,34.7914992,135.4857126
大阪府,豊中市,61_7,熊野町3丁目18番,NSﾘﾉﾍﾞｰｼｮﾝ社東側歩道鉄柵,34.7923587,135.4856467
大阪府,豊中市,61_8,熊野町2丁目10番,谷田橋横天竺川堤防金網塀,34.7892188,135.4862073
大阪府,豊中市,62_1,柴原町2丁目14番,第十三中学校西側ｶﾞｰﾄﾞﾚｰﾙ,34.7988346,135.4601068
大阪府,豊中市,62_2,刀根山元町7番,刀根山公園南側金網塀,34.7978256,135.4570165
大阪府,豊中市,62_3,上野西4丁目7番,上野西4丁目児童公園金網塀,34.79896859999999,135.4673184
大阪府,豊中市,62_4,柴原町1丁目1番,柴原町1丁目公園金網塀,34.7963717,135.4634917
大阪府,豊中市,62_5,柴原町2丁目14番1号,第十三中学校東側金網塀,34.7989543,135.4594262
大阪府,豊中市,62_6,桜の町1丁目2番,ﾊｲﾂ桜の町前千里川ｶﾞｰﾄﾞﾚｰﾙ,34.796631,135.4652579
大阪府,豊中市,62_7,桜の町1丁目8番,ﾉｳｽｳｴｽﾄヴｨﾗ前千里川ｶﾞｰﾄﾞﾚｰﾙ,34.797496,135.4654786
大阪府,豊中市,63_1,西緑丘3丁目17番,野畑東公園南側植込み,34.8145599,135.475856
大阪府,豊中市,63_2,北緑丘2丁目1番,北緑丘団地ﾊﾞｽﾀｰﾐﾅﾙ西側歩道鉄柵,34.8157111,135.4767287
大阪府,豊中市,63_3,北緑丘2丁目1番,北緑丘団地23号棟西側階段上通路鉄柵,34.8157111,135.4767287
大阪府,豊中市,63_4,北緑丘2丁目2番1号,北緑丘こども園駐車場鉄柵,34.8163499,135.4783507
大阪府,豊中市,63_5,北緑丘2丁目3番,北緑丘小学校前ﾊﾞｽ停留所横歩道鉄柵,34.8165635,135.4800518
大阪府,豊中市,63_6,北緑丘3丁目1番,千里緑丘住宅2棟西側歩道植込み,34.8160693,135.4842479
大阪府,豊中市,63_7,北緑丘2丁目6番,北緑丘2丁目第2公園金網塀,34.81768,135.479446
大阪府,豊中市,64_1,東豊中町1丁目27番,東豊中1丁目第7公園東側鉄柵,34.8035769,135.477917
大阪府,豊中市,64_2,東豊中町3丁目15番,深谷池西側鉄柵,34.8025801,135.4821439
大阪府,豊中市,64_3,東豊中町1丁目36番,東豊中1丁目第5公園北側鉄柵,34.8002788,135.4781379
大阪府,豊中市,64_4,東豊中町3丁目11番1号,東豊会館西側植込み,34.8012961,135.4809212
大阪府,豊中市,64_5,東豊中町3丁目10番,三ｯ池西側鉄柵,34.7997741,135.4812922
大阪府,豊中市,64_6,東豊中町2丁目1番,東豊中2丁目第3公園東側鉄柵,34.8020228,135.480567
大阪府,豊中市,64_7,東豊中町4丁目1番,東豊中4丁目西公園北側植込み,34.796964,135.480842
大阪府,豊中市,65_1,寺内2丁目1番,寺内2交差点南側歩道鉄柵,34.777159,135.493834
大阪府,豊中市,65_2,寺内2丁目6番,緑地公園駅ﾋﾞﾙ西側歩道鉄柵,34.7753706,135.4938194
大阪府,豊中市,65_3,寺内1丁目3番,ﾊﾟｰｸﾊｲﾑ豊中緑地公園北側歩道鉄柵,34.7751121,135.4920522
大阪府,豊中市,65_4,寺内1丁目10番,寺内1丁目児童遊園東側鉄柵,34.7726196,135.4914632
大阪府,豊中市,65_5,寺内2丁目10番,豊中警察署寺内交番向い歩道金網塀,34.7734269,135.4938194
大阪府,豊中市,65_6,寺内2丁目15番1号,寺内小学校北東側金網塀,34.7716364,135.494469
大阪府,豊中市,65_7,寺内2丁目15番1号,寺内小学校正門西側金網塀,34.7716364,135.494469
