prefecture,city,number,address,name,lat,long,note
大阪府,豊能町,1-1,余野・木代,旧切畑口バス停付近,34.922595,135.494055,
大阪府,豊能町,1-2,余野・木代,南の谷国道423号線池田寄,34.927446,135.492517,
大阪府,豊能町,1-3,余野・木代,走落神社鳥居付近,34.918656,135.499119,
大阪府,豊能町,1-4,余野・木代,福田入口バス停付近（府道沿い）,34.912888,135.507384,
大阪府,豊能町,1-5,余野・木代,豊能町役場前付近NTT,34.918955,135.493753,
大阪府,豊能町,1-6,余野・木代,希望ヶ丘入り口付近(府道沿い),34.91587,135.504724,
大阪府,豊能町,1-7,余野・木代,中央公民館(対面),34.917721,135.494526,
大阪府,豊能町,1-8,余野・木代,小泉橋欄干,34.920497,135.493968,
大阪府,豊能町,2-1,川尻,北の谷(町道沿い),34.916513,135.485979,
大阪府,豊能町,2-2,川尻,北の谷(茨城能勢線4号沿い),34.917088,135.483593,
大阪府,豊能町,2-3,川尻,消防団格納庫付近防火水槽,34.914096,135.484626,
大阪府,豊能町,2-4,川尻,川尻自治会集会所付近,34.911417,135.484422,
大阪府,豊能町,2-5,川尻,高山上がり口（府道沿い),34.90654,135.48202,
大阪府,豊能町,2-6,川尻,川尻バス停付近,34.90993,135.486397,
大阪府,豊能町,3-1,切畑,西野集荷場前,34.925416,135.497966,
大阪府,豊能町,3-2,切畑,西野（町道沿い),34.929863,135.50228,
大阪府,豊能町,3-3,切畑,消防団格納庫付近,34.92723,135.508602,
大阪府,豊能町,3-4,切畑,中ノ東集落入り口付近,34.925798,135.513264,
大阪府,豊能町,3-5,切畑,大円集落センター,34.920602,135.520207,
大阪府,豊能町,3-6,切畑,旧小松バス停,34.919092,135.521596,
大阪府,豊能町,4-1,野間口,眼鏡橋付近,34.931343,135.490054,
大阪府,豊能町,4-2,野間口,城山橋付近,34.931691,135.488163,
大阪府,豊能町,4-3,野間口,旧ふれあい文化センター分館跡地横公園,34.933346,135.485424,
大阪府,豊能町,4-4,野間口,町営駐車場付近,34.931268,135.483639,
大阪府,豊能町,4-5,野間口,浄光寺入り口付近,34.933076,135.485425,
大阪府,豊能町,5-1,高山,茨城能勢線4号沿い,34.891365,135.488334,
大阪府,豊能町,5-2,高山,高山老人クラブ付近防火水槽,34.888423,135.488018,
大阪府,豊能町,5-3,高山,西方寺前,34.88874,135.486082,
大阪府,豊能町,5-4,高山,北摂興業付近T字路府道沿,34.884685,135.487997,
大阪府,豊能町,5-5,高山,高山コミュニティセンター入り口付近,34.887487,135.489258,
大阪府,豊能町,6-1,牧・寺田,旧牧バス停付近,34.939572,135.495209,
大阪府,豊能町,6-2,牧・寺田,国道423線沿い,34.938079,135.492903,
大阪府,豊能町,6-3,牧・寺田,牧（町道沿い）,34.938788,135.498168,
大阪府,豊能町,6-4,牧・寺田,寺田集荷所フェンス,34.93681,135.508076,
大阪府,豊能町,6-5,牧・寺田,寺田（町道沿い民地）,34.936033,135.505284,
大阪府,豊能町,7-1,希望ヶ丘,希望ヶ丘内2丁目バス停付近（対面）,34.917384,135.5059,
大阪府,豊能町,7-2,希望ヶ丘,希望ヶ丘内3丁目バス停付近（対面）,34.915761,135.510733,
大阪府,豊能町,7-3,希望ヶ丘,希望ヶ丘内4丁目バス停付近（対面）,34.912994,135.511686,
大阪府,豊能町,7-4,希望ヶ丘,希望ヶ丘中央公園入口,34.917277,135.50962,
大阪府,豊能町,7-5,希望ヶ丘,希望ヶ丘6丁目13パンダ公園,34.917119,135.508186,
大阪府,豊能町,7-6,希望ヶ丘,ふたば園フェンス,34.916276,135.508104,
大阪府,豊能町,7-7,希望ヶ丘,阪急バス豊能営業所対面緑地,34.910344,135.511998,
大阪府,豊能町,7-8,希望ヶ丘,希望ヶ丘5号公園対面調整池,34.913872,135.510067,
大阪府,豊能町,8-1,吉川,豊悠福祉会出口付近(国道沿い),34.911707,135.446221,
大阪府,豊能町,8-2,吉川,吉川小学校通学路三差路付近,34.914881,135.4455,
大阪府,豊能町,8-3,吉川,オイスカ関西研修センター,34.914485,135.445743,
大阪府,豊能町,8-4,吉川,山浦橋欄干,34.912128,135.445478,
大阪府,豊能町,8-5,吉川,保育所前バス停付近,34.910184,135.444661,
大阪府,豊能町,8-6,吉川,町営駐車場付近,34.910204,135.447149,
大阪府,豊能町,9-1,光風台１～４丁目,能勢電光風台駅前（駅正面右側）,34.900226,135.432043,
大阪府,豊能町,9-2,光風台１～４丁目,光風台1丁目17番地防火水槽,34.9011,135.433789,
大阪府,豊能町,9-3,光風台１～４丁目,光風台中央公園（自治会館側）,34.900039,135.434093,
大阪府,豊能町,9-4,光風台１～４丁目,光風台中央公園（自治会館反対側）,34.899495,135.436274,
大阪府,豊能町,9-5,光風台１～４丁目,光風台4丁目9公園,34.897988,135.433259,
大阪府,豊能町,10-1,光風台5・6丁目,光風台6丁目2号公園,34.898492,135.441152,
大阪府,豊能町,10-2,光風台5・6丁目,光風台6丁目18公園,34.897795,135.437641,
大阪府,豊能町,10-3,光風台5・6丁目,光風台1丁目1信号付近（6丁目側）,34.898964,135.438957,
大阪府,豊能町,10-4,光風台5・6丁目,西公民館府道沿法面,34.901367,135.441271,
大阪府,豊能町,10-5,光風台5・6丁目,光風台排水池,34.899959,135.446302,
大阪府,豊能町,10-6,ときわ台,ときわ台駅前,34.905781,135.438075,
大阪府,豊能町,10-7,ときわ台,ときわ台自治会集会所駐車場横,34.905261,135.439858,
大阪府,豊能町,10-8,ときわ台,ときわ台3丁目16番地防火水槽,34.904482,135.443407,
大阪府,豊能町,10-9,ときわ台,電話局前,34.902888,135.442765,
大阪府,豊能町,10-10,ときわ台,吉川中央線（ときわ台駅～吉川支所間カーブ付近）,34.903691,135.438014,
大阪府,豊能町,10-11,ときわ台,ときわ台6丁目防火水槽,34.901736,135.43821,
大阪府,豊能町,11-1,東ときわ台,吉川中学校（オアシス前）,34.901709,135.444586,
大阪府,豊能町,11-2,東ときわ台,東ときわ台2丁目2号公園,34.900187,135.443942,
大阪府,豊能町,11-3,東ときわ台,東ときわ台3丁目自治会館付近,34.901877,135.445511,
大阪府,豊能町,11-4,東ときわ台,東ときわ台4丁目12番地付近緑地,34.902848,135.44783,
大阪府,豊能町,11-5,東ときわ台,ふれあい広場（国道側）,34.90345,135.443515,
大阪府,豊能町,11-6,東ときわ台,東ときわ台6丁目中央公園入口,34.900837,135.449923,
大阪府,豊能町,11-7,東ときわ台,東ときわ台9丁目バス停付近緑地,34.898681,135.448984,
大阪府,豊能町,11-8,東ときわ台,総合駐車場フェンス,34.901592,135.44274,
大阪府,豊能町,11-9,東ときわ台,吉川中学校（光風台5丁目14対面付近）,34.900167,135.443946,
大阪府,豊能町,12-1,新光風台保の谷,新光風台5丁目1番地付近,34.905199,135.432041,
大阪府,豊能町,12-2,新光風台保の谷,新光風台5丁目バス停付近,34.90709,135.432671,
大阪府,豊能町,12-3,新光風台保の谷,加圧ポンプ場,34.903519,135.429674,
大阪府,豊能町,12-4,新光風台保の谷,シートス前,34.908179,135.427489,
大阪府,豊能町,12-5,新光風台保の谷,ポプラ公園対面,34.910406,135.429075,
大阪府,豊能町,12-6,新光風台保の谷,さくら公園,34.90537,135.430947,
大阪府,豊能町,12-7,新光風台保の谷,新光風台3丁目保ノ谷進入口付近,34.911742,135.428213,
