prefecture,city,number,address,name,lat,long,note
大阪府,阪南市,1-1,山中渓543－39先,垣原住宅入口滑下橋すぐのフェンス,34.3367665,135.2650044,
大阪府,阪南市,1-2,山中渓1367－1,山中渓向田橋ガードレール,34.326008,135.271576,緯度経度は怪しい
大阪府,阪南市,1-3,山中渓454先,山中渓道和歌山貝塚線ガードパイプ,34.3331835,135.2688626,
大阪府,阪南市,1-4,山中渓134－1,JR山中渓駅前フェンス,34.326008,135.271576,緯度経度は怪しい
大阪府,阪南市,2-1,自然田165,桜ヶ丘東鳥取109号線沿いガードパイプ,34.349026,135.260956,緯度経度は怪しい
大阪府,阪南市,2-2,和泉鳥取880－2,和泉鳥取住民センターフェンス,34.346493,135.262039,緯度経度は怪しい
大阪府,阪南市,2-3,和泉鳥取1455,鳥取東中学校和歌山貝塚線沿いフェンス,34.3464071,135.264964,
大阪府,阪南市,2-4,自然田317－3,大阪ガス施設用地フェンス,34.3463331,135.2583481,
大阪府,阪南市,2-5,自然田440－1先,自然田和歌山貝塚線ガードパイプ（セブンイレブン前）,34.3422584,135.2614722,
大阪府,阪南市,2-6,自然田1068－2,JR和泉鳥取駅前ガードレール,34.336857,135.2547,緯度経度は怪しい
大阪府,阪南市,3-1,自然田771－3,和泉緑ヶ丘線市道ガードパイプ,34.340412,135.257629,緯度経度は怪しい
大阪府,阪南市,3-2,緑ヶ丘1－866－281,緑ヶ丘第1号公園フェンス,34.33881,135.259506,緯度経度は怪しい
大阪府,阪南市,3-3,緑ヶ丘1－619－37,大正不動産㈱倉庫前,34.33881,135.259506,緯度経度は怪しい
大阪府,阪南市,3-4,緑ヶ丘2－866－190,緑ヶ丘公園フェンス,34.336296,135.261963,緯度経度は怪しい
大阪府,阪南市,4-1,自然田1454,旧東鳥取小学校正門横フェンス,34.3488705,135.2490812,
大阪府,阪南市,4-2,自然田1541－6,増尾裕司宅ブロック塀,34.3499331,135.2555011,
大阪府,阪南市,4-3,自然田1623－1,古野順也宅ブロック塀,34.3479065,135.2537777,
大阪府,阪南市,4-4,自然田1429－1,奥野清治所有駐車場フェンス,34.348134,135.2508524,
大阪府,阪南市,4-5,自然田1312－2先,市道東鳥取92号線ガードレール,34.344105,135.251602,緯度経度は怪しい
大阪府,阪南市,4-6,自然田1660先,尾崎自然田線市道ガードパイプ,34.3463379,135.2540129,
大阪府,阪南市,4-7,自然田1493－2,鳥取市市道尾崎自然田線ガードレール,34.350044,135.252213,緯度経度は怪しい
大阪府,阪南市,4-8,自然田766－14,阪南市立第2光風園児童遊園フェンス,34.341164,135.256866,緯度経度は怪しい
大阪府,阪南市,5-1,鳥取中452－34先,沢田児童遊園フェンス,34.3544306,135.2503483,
大阪府,阪南市,5-2,下出548－1,上井小学校裏フェンス,34.3554854,135.2475785,
大阪府,阪南市,5-3,鳥取中293－2,鳥取中住民センターフェンス,34.3517984,135.2510325,
大阪府,阪南市,5-4,鳥取中319－4先,鳥取中東鳥取74号線市道ガードパイプ,34.3506457,135.2490234,
大阪府,阪南市,5-5,自然田1464,東鳥取公民館フェンス,34.3497411,135.2498876,
大阪府,阪南市,6-1,桑畑352,桑畑住民センター前児童遊園フェンス,34.3305581,135.2417163,
大阪府,阪南市,6-2,桑畑144－1,阪上広己宅前ガードレール,34.318405,135.254837,緯度経度は怪しい
大阪府,阪南市,6-3,桑畑399先,下川橋北側ガードレール,34.333256,135.24353,緯度経度は怪しい
大阪府,阪南市,6-4,石田97先,井関池の下のガードレール,34.341496,135.246918,緯度経度は怪しい
大阪府,阪南市,7-1,石田1050,祐道寺ブロック塀,34.3449595,135.24648,
大阪府,阪南市,7-2,石田259前,キリン堂阪南石田店前ガードパイプ,34.3468766,135.2443257,
大阪府,阪南市,7-3,石田635,水木所有駐車場ブロック塀,34.3480303,135.2477789,
大阪府,阪南市,8-1,黒田5－3,黒田住民センターフェンス,34.3552755,135.2401667,
大阪府,阪南市,8-2,黒田468-1,たんぽぽ園フェンス,34.3556312,135.2435246,
大阪府,阪南市,8-3,黒田341,鳥取中学校ブロック塀,34.3537644,135.242362,
大阪府,阪南市,8-4,尾崎町35-1先,阪南市役所前道路沿いガードパイプ,34.3596161,135.239698,
大阪府,阪南市,8-5,黒田143-3,北浦吾郎宅ブロック塀,34.3571979,135.2382583,
大阪府,阪南市,8-6,黒田493-1,阿形淳一宅ブロック塀,34.356621,135.2432254,
大阪府,阪南市,8-7,黒田240-1先,阪南郵便局横道路沿いガードパイプ,34.3547826,135.2389885,
大阪府,阪南市,8-8,鳥取中95-1,マクドナルド隣空地,34.3535039,135.240347,
大阪府,阪南市,9-1,鳥取中174-1,西日本電信電話(株)所有ガードパイプ,34.3564223,135.2451171,
大阪府,阪南市,9-2,下出698-3,下出住民センター駐車場フェンス,34.3597799,135.2451612,
大阪府,阪南市,9-3,鳥取中187-1,笠松産婦人科小児科専用駐車場フェンス,34.357185,135.245163,緯度経度は怪しい
大阪府,阪南市,9-4,下出727-4,大阪信用金庫尾崎支店フェンス,34.3610277,135.2443181,
大阪府,阪南市,9-5,下出684,下出市道尾崎 白熊線ガードパイプ(西村向かい),34.3584945,135.2463157,
大阪府,阪南市,9-6,下出241-2,東鳥取7号線沿いガードレール(コンシェルジュ カラオケ付近),34.363979,135.244537,緯度経度は怪しい
大阪府,阪南市,9-7,下出262-59,下出第1児童遊園横フェンス,34.3619513,135.2465618,
大阪府,阪南市,9-8,下出167-1,オークワ尾崎店北口進入路フェンス,34.3620679,135.2445861,
大阪府,阪南市,9-9,下出36-2,尾崎東住民センターブロック塀,34.3613719,135.2417303,
大阪府,阪南市,9-10,下出37-3,尾崎駅山側フェンス,34.361263,135.240982,緯度経度は怪しい
大阪府,阪南市,9-11,尾崎町35-1,市役所皿田池7碑前フェンス,34.3596161,135.239698,
大阪府,阪南市,9-12,下出17,阪南市民病院駐車場フェンス,34.360966,135.242203,緯度経度は怪しい
大阪府,阪南市,10-1,さつき台1-4,さつき台汚水処理場ガードパイプ,34.341705,135.251968,緯度経度は怪しい
大阪府,阪南市,10-2,さつき台1-35,さつき台東鳥取222号線沿ガードレール,34.340481,135.251343,緯度経度は怪しい
大阪府,阪南市,10-3,さつき台1-25,さつき台1号公園ガードレール,34.339859,135.250122,緯度経度は怪しい
大阪府,阪南市,10-4,さつき台1-24,さつき台住民センターガードレール,34.339355,135.249741,緯度経度は怪しい
大阪府,阪南市,10-5,さつき台2-9,さつき台幼稚園フェンス,34.337276,135.250229,緯度経度は怪しい
大阪府,阪南市,10-6,さつき台2-5,さつき台東鳥取228号ガードレール,34.337032,135.248428,緯度経度は怪しい
大阪府,阪南市,11-1,石田600-1,東鳥取小学校フェンス,34.3497866,135.2473563,
大阪府,阪南市,11-2,石田600-1,石田保育所前ブロック塀,34.3497866,135.2473563,
大阪府,阪南市,11-3,石田600-6,府営石田団地内9棟前駐車場横カーブミラー下,34.3510615,135.2446852,
大阪府,阪南市,11-4,石田600-6,府営石田団地内13棟前植え込み,34.3510615,135.2446852,
大阪府,阪南市,11-5,石田600-6,府営石田団地内道路フェンス 17棟前,34.3510615,135.2446852,
大阪府,阪南市,11-6,石田600-6,府営石田団地 27棟横,34.3510615,135.2446852,
大阪府,阪南市,11-7,石田600-6,府営石田団地内道路フェンス 22棟後方,34.3510615,135.2446852,
大阪府,阪南市,11-8,石田600-6,府営石田団地 19棟前 市道側フェンス,34.3510615,135.2446852,
大阪府,阪南市,11-9,石田600-1,石田保育所市道側フェンス,34.3497866,135.2473563,
大阪府,阪南市,12-1,尾崎町6-1,尾崎鉄筋住宅周辺フェンス(1棟横),34.367435,135.24295,緯度経度は怪しい
大阪府,阪南市,12-2,尾崎町7-1,泉南尼崎団地周辺フェンス（1棟横）,34.369534,135.244476,緯度経度は怪しい
大阪府,阪南市,12-3,尾崎町7-3,泉南尼崎団地内（汚水処理場前植込み）,34.369438,135.244003,緯度経度は怪しい
大阪府,阪南市,12-4,尾崎町8-8-5,福島北児童遊園フェンス,34.372219,135.247894,緯度経度は怪しい
大阪府,阪南市,12-5,尾崎町5-30-22,福島住民センターフェンス,34.368412,135.247635,緯度経度は怪しい
大阪府,阪南市,12-6,尾崎町5-33-14,飛鳥ゆめ学舎沿いフェンス,34.369064,135.247421,緯度経度は怪しい
大阪府,阪南市,12-7,尾崎町8-38,福島第3児童遊園フェンス（マリンタウン）,34.374706,135.248108,緯度経度は怪しい
大阪府,阪南市,13-1,尾崎町4-229-1,五色園前ガードレール,34.365799,135.244461,緯度経度は怪しい
大阪府,阪南市,13-2,尾崎町111-2,尾崎駅北1号踏切海側フェンス,34.361084,135.23764,緯度経度は怪しい
大阪府,阪南市,13-3,尾崎町1-69-1,北浦モータース横駐車場フェンス,34.359562,135.235016,緯度経度は怪しい
大阪府,阪南市,13-4,尾崎町1-18-15,地域交流館体育施設前ガードパイプ,34.361382,135.2388,緯度経度は怪しい
大阪府,阪南市,13-5,尾崎町1-550,えびの児童遊園フェンス,34.359562,135.235016,緯度経度は怪しい
大阪府,阪南市,14-1,尾崎町19-1,府道鳥取見泉佐野線沿いガードパイプ,34.361084,135.23764,緯度経度は怪しい
大阪府,阪南市,14-2,鳥取65-1,阪南水道センター庁舎駐車場前ブロック,34.355755,135.234375,緯度経度は怪しい
大阪府,阪南市,14-3,新町296,新町児遊園ブロック塀,34.3590365,135.2344904,
大阪府,阪南市,15-1,鳥取1211,鳥取ノ荘駅ガード下手前フェンス,34.3501648,135.2325581,
大阪府,阪南市,15-2,鳥取70,アルン西鳥取夢学舎フェンス,34.3551918,135.2344048,
大阪府,阪南市,15-3,鳥取72,西鳥取小学校フェンス,34.3554648,135.234404,
大阪府,阪南市,15-4,鳥取223-16,西鳥取30号線市道ガードレール,34.3525104,135.2360408,
大阪府,阪南市,15-5,鳥取668-10,畑中利勝宅ブロック塀,34.3516406,135.2311955,
大阪府,阪南市,15-6,鳥取754-26,西鳥取77号線市道ガードレール,34.3485572,135.2269801,
大阪府,阪南市,15-7,鳥取657-7,鳥取ノ荘駅自転車等駐車場,34.351097,135.231628,緯度経度は怪しい
大阪府,阪南市,15-8,鳥取1184,正行寺前市道ガードパイプ,34.3529266,135.2307935,
大阪府,阪南市,15-9,鳥取119-4先,市道西鳥取27号線池詰町田橋ブロック,34.353722,135.234558,緯度経度は怪しい
大阪府,阪南市,15-10,鳥取84-1先,市道西鳥取線新町墓地前ガードパイプ,34.356686,135.23233,緯度経度は怪しい
大阪府,阪南市,16-1,光陽台1-2-3,光陽台児童遊園フェンス,34.349316,135.233719,緯度経度は怪しい
大阪府,阪南市,16-2,光陽台1-17-24,阪南市立総合体育館プールフェンス等,34.346924,135.236984,緯度経度は怪しい
大阪府,阪南市,16-3,光陽台3-21,光陽台3丁目市道ガードレール,34.342182,135.238983,緯度経度は怪しい
大阪府,阪南市,16-4,光陽台2-9-1,光陽台外周市道ガードパイプ,34.345276,135.238647,緯度経度は怪しい
大阪府,阪南市,16-5,光陽台2-2-1,光陽台住民センターフェンス,34.346256,135.239151,緯度経度は怪しい
大阪府,阪南市,16-6,光陽台3-19,光陽台3号公園フェンス,34.341583,135.237579,緯度経度は怪しい
大阪府,阪南市,16-7,光陽台4-28,光陽台4号公園フェンス,34.33984,135.237106,緯度経度は怪しい
大阪府,阪南市,17-1,鳥取三井538-171,鳥取三井団地北児童遊園フェンス,34.34565,135.235001,緯度経度は怪しい
大阪府,阪南市,17-2,舞1-910-1,舞北児童遊園フェンス,34.346455,135.230423,緯度経度は怪しい
大阪府,阪南市,17-3,鳥取三井538-173,鳥取三井団地南児童遊園フェンス,34.34565,135.235001,緯度経度は怪しい
大阪府,阪南市,17-4,舞4-102-1,舞4丁目市道さくら並木,34.341003,135.229568,緯度経度は怪しい
大阪府,阪南市,17-5,舞3-31-6,あたごプラザフェンス,34.343472,135.231796,緯度経度は怪しい
大阪府,阪南市,17-6,舞4-1573-235,舞4丁目市道フェンス,34.341003,135.229568,緯度経度は怪しい
大阪府,阪南市,17-7,舞3-1542-168,舞1号公園フェンス,34.342548,135.23262,緯度経度は怪しい
大阪府,阪南市,17-8,舞3-871-419,舞3丁目東児童遊園フェンス,34.342548,135.23262,緯度経度は怪しい
大阪府,阪南市,17-9,舞4-871-20,舞4丁目13番市道ガードレール,34.341003,135.229568,緯度経度は怪しい
大阪府,阪南市,17-10,舞5-1542-409,舞2号公園フェンス,34.339424,135.233643,緯度経度は怪しい
大阪府,阪南市,18-1,貝掛1414,タクミ技研前ガードレール,34.3435639,135.2187428,
大阪府,阪南市,18-2,貝掛779,市道下荘1号線釈迦坊川ガードパイプ,34.344148,135.223287,
大阪府,阪南市,18-3,貝掛1464-1,指出森神社前三角地フェンス(市道貝掛線),34.3433469,135.2170663,
大阪府,阪南市,18-4,貝掛1198先,和泉学園合宿前ガードレール,34.3413682,135.2219755,
大阪府,阪南市,19-1,箱作1049,箱作住民センターフェンス,34.3418395,135.2107692,
大阪府,阪南市,19-2,箱作2264,市道下荘24号線ガードレール(箱作西公園前),34.3388567,135.2079881,
大阪府,阪南市,19-3,箱作251-1,南海箱作駅山側自転車置場フェンス,34.3415743,135.2132768,
大阪府,阪南市,19-4,箱作337,箱作駅前広場丁目側歩道ガードパイプ,34.3401704,135.2118051,
大阪府,阪南市,19-5,箱作295-8,NTT箱作機械室前フェンス,34.3419975,135.2119558,
大阪府,阪南市,19-6,箱作945,箱作東住民センターブロック塀,34.3430766,135.2122979,
大阪府,阪南市,19-7,箱作1383-1,明治橋左側道路沿ガードパイプ,34.341162,135.2086097,
大阪府,阪南市,19-8,箱作1523-5,大弘自動車工業フェンス,34.3391631,135.2094594,
大阪府,阪南市,19-9,箱作1653,加茂神社西側ぐやぐ部屋前ガードパイプ,34.3401704,135.2118051,
大阪府,阪南市,19-10,箱作446-73,万葉台住民センターフェンス,34.3351034,135.2163744,
大阪府,阪南市,19-11,箱作441-47,万葉台児童遊園前道路ガードレール,34.3357826,135.2152313,
大阪府,阪南市,20-1,箱作2863,西波第2低区配水池前歩道ガードパイプ,34.3350837,135.2075079,
大阪府,阪南市,20-2,箱作2861-73,鴻和住民センターフェンス,34.3330105,135.2057111,
大阪府,阪南市,20-3,箱作2874-313,東和苑児童遊園横ガードレール,34.330536,135.207748,緯度経度は怪しい
大阪府,阪南市,20-4,箱作2875-1,はつめ公園攀壁前,34.3327365,135.2090001,
大阪府,阪南市,20-5,箱作1586-21,池谷池コミュニティバス停前フェンス,34.332912,135.21109,緯度経度は怪しい
大阪府,阪南市,20-6,箱作1174-3,住谷団地入口の畑ガードパイプ,34.336571,135.212387,緯度経度は怪しい
大阪府,阪南市,20-7,箱作2316,学校給食センター入口フェンス,34.3370528,135.2055464,
大阪府,阪南市,21-1,箱の浦382-67,南山中住民センターフェンス,34.3318675,135.1942894,
大阪府,阪南市,21-2,箱作2485-1,市道下荘134号線ガードレール,34.33429,135.20018,緯度経度は怪しい
大阪府,阪南市,21-3,箱の浦2492-193,箱の浦団地内ゲートボール場西側道路フェンス,34.335678,135.196701,緯度経度は怪しい
大阪府,阪南市,21-4,箱の浦60-1,箱の浦中央駅西側道路沿い,34.332352,135.195297,緯度経度は怪しい
大阪府,阪南市,21-5,箱の浦1-76,箱の浦住民センター前石垣,34.3350324,135.1970291,
大阪府,阪南市,21-6,箱の浦50-1,箱の浦中央線西側道路ガードパイプ,34.333263,135.194702,緯度経度は怪しい
大阪府,阪南市,21-7,箱の浦2492-1,箱の浦線第3号道路沿ガードレール,34.335678,135.196701,緯度経度は怪しい
大阪府,阪南市,21-8,箱作2047-3,メデケタマイ駐車場フェンス,34.3347461,135.2019918,
大阪府,阪南市,22-1,桃の木4-423-46,デイリーカナートはやし前道路北側歩道ガードパイプ,34.333405,135.22142,緯度経度は怪しい
大阪府,阪南市,22-2,桃の木台5-423-25,桃の木台2丁目歩道ガードパイプ,34.327347,135.220428,緯度経度は怪しい
大阪府,阪南市,22-3,桃の木台6-423-63,桃の木台6丁目歩道ガードパイプ,34.321808,135.214462,緯度経度は怪しい
大阪府,阪南市,22-4,桃の木台5-423-33,桃の木台小学校南側歩道フェンス,34.327347,135.220428,緯度経度は怪しい
大阪府,阪南市,22-5,桃の木台4-423-55,桃の木台3丁目バス停歩道ガードパイプ,34.330387,135.219818,緯度経度は怪しい
大阪府,阪南市,22-6,桃の木台2-423-25,桃の木台2丁目バス停歩道ガードパイプ,34.331432,135.21637,緯度経度は怪しい
大阪府,阪南市,22-7,桃の木台4-423-56,桃の木台4丁目バス停歩道ガードパイプ,34.330387,135.219818,緯度経度は怪しい
大阪府,阪南市,22-8,桃の木台5-9-9,桃の木台西住民センター敷地内植込み,34.327518,135.216812,緯度経度は怪しい
大阪府,阪南市,22-9,桃の木台3-10-22,桃の木台3丁目市道ガードパイプ,34.329216,135.224121,緯度経度は怪しい
大阪府,阪南市,22-10,桃の木台7-38-1,桃の木台7丁目市道2号線ガードパイプ,34.327789,135.226868,緯度経度は怪しい
