prefecture,city,number,address,name,lat,long
大阪府,高槻市,1-1,本町3番,高槻小学校正門,34.8452034,135.6254522
大阪府,高槻市,1-2,本町3番,高槻幼稚園,34.845549,135.6266699
大阪府,高槻市,1-3,本町3番,高槻小学校南側,34.8440917,135.6257633
大阪府,高槻市,1-4,城東町3番,水路,34.8428875,135.6276787
大阪府,高槻市,1-5,城東町15番,masked,34.8415996,135.6288734
大阪府,高槻市,1-6,京口町12番,大阪国道事務所,34.8474549,135.6266627
大阪府,高槻市,1-7,京口町1番,理安寺西側,34.8476885,135.6227011
大阪府,高槻市,2-1,沢良木町18番,松原小学校東側,34.8463277,135.6323963
大阪府,高槻市,2-2,沢良木町18番,松原小学校北側,34.8466667,135.6313396
大阪府,高槻市,2-3,沢良木町18番,松原小学校南側,34.8454626,135.6312054
大阪府,高槻市,2-4,沢良木町2番,大阪医科薬科大学東,34.8466557,135.6299716
大阪府,高槻市,2-5,沢良木町11番,masked,34.8485708,135.6306878
大阪府,高槻市,2-6,沢良木町2番,私立高槻高等学校,34.8485642,135.6280726
大阪府,高槻市,2-7,松原町1番,八丁畷第一駐輪センター南側,34.8515378,135.6269208
大阪府,高槻市,2-8,藤の里町14番,藤の里公園,34.8438443,135.630845
大阪府,高槻市,3-1,永楽町10番,第六中学校正門,34.8470849,135.6385541
大阪府,高槻市,3-2,永楽町10番,第六中学校南側,34.8454385,135.6377574
大阪府,高槻市,3-3,永楽町8番,生駒湯東側水路,34.8455288,135.6360478
大阪府,高槻市,3-4,明野町1番,あべりあ児童遊園,34.8483441,135.6324466
大阪府,高槻市,3-5,明野町29番,水路,34.8469934,135.636139
大阪府,高槻市,3-6,野田3丁目27番,野田三丁目水路柵（２７番街区西側）,34.8499083,135.6396446
大阪府,高槻市,3-7,永楽町10番,第六中学校東側,34.845914,135.6387337
大阪府,高槻市,3-8,野田4丁目1番,かえで遊園,34.8487801,135.6409439
大阪府,高槻市,4-1,城内町1番,城内公民館西側,34.8448718,135.6222031
大阪府,高槻市,4-2,城内町3番,高槻城公園南出入口西側,34.8421301,135.6221824
大阪府,高槻市,4-3,城内町1番,高槻城公園北出入口西側,34.8433893,135.6219624
大阪府,高槻市,4-4,城内町1番11号,障がい者福祉センター前,34.844896,135.6234101
大阪府,高槻市,4-5,城内町2番13号,槻の木高等学校西門,34.8435698,135.6206642
大阪府,高槻市,4-6,出丸町4番,水路,34.8414246,135.619138
大阪府,高槻市,4-7,土橋町3番,トワヴェール東側水路柵,34.8411737,135.6240706
大阪府,高槻市,5-1,紺屋町1番,クロスパル高槻駐車場出口南側,34.8522822,135.6195417
大阪府,高槻市,5-2,大学町2番,大阪医科薬科大西側,34.8511589,135.6240183
大阪府,高槻市,5-3,高槻町21番,阪急高槻市駅城北第一駐輪センター,34.8484628,135.6201734
大阪府,高槻市,5-4,大学町2番,大阪医科薬科大南側,34.8512517,135.6258046
大阪府,高槻市,5-5,大学町1番,大阪医科薬科大学病院新本館北側歩道柵,34.8533592,135.6241756
大阪府,高槻市,5-6,八丁畷町1番,変電所前歩道柵,34.8552631,135.626316
大阪府,高槻市,5-7,八丁畷町15番,JR線路脇,34.8562415,135.6278743
大阪府,高槻市,5-8,城北町2丁目1番,阪急高槻市駅高架下広場,34.8491317,135.6218586
大阪府,高槻市,5-9,白梅町,JR高槻駅南自転車駐車場東側,34.8534104,135.6213613
大阪府,高槻市,5-10,城北町2丁目9番,ばら児童遊園,34.8503481,135.6254358
大阪府,高槻市,6-1,牧田町2番,バス停富田団地東,34.8224526,135.6080975
大阪府,高槻市,6-2,牧田町5番,50棟北,34.8224075,135.6048721
大阪府,高槻市,6-3,牧田町5番,47棟北東,34.821737,135.6056553
大阪府,高槻市,6-4,牧田町7番,スーパーオアシス,34.8219957,135.6041453
大阪府,高槻市,6-5,牧田町7番,派出所西水路,34.8212971,135.6031721
大阪府,高槻市,6-6,牧田町8番,玉川小学校北側,34.8204581,135.6042684
大阪府,高槻市,6-7,牧田町8番,玉川幼稚園東側,34.8189851,135.6047536
大阪府,高槻市,7-1,上土室6丁目10番,土室小学校正門,34.8487655,135.5776323
大阪府,高槻市,7-2,上土室1丁目5番,西尾駐車場北側柵,34.8523186,135.5806885
大阪府,高槻市,7-3,上土室1丁目12番,小池谷下の池,34.8524771,135.582727
大阪府,高槻市,7-4,塚原6丁目25番,すいせん公園,34.8491105,135.5742704
大阪府,高槻市,7-5,塚原4丁目21番,ばら児童遊園,34.852004,135.5738076
大阪府,高槻市,7-6,塚原6丁目3番,塚原東公園,34.8525114,135.575661
大阪府,高槻市,7-7,上土室5丁目1番,番山古墳南,34.8506942,135.5817426
大阪府,高槻市,8-1,芥川2丁目25番,芥川小学校正門,34.8544027,135.6135071
大阪府,高槻市,8-2,真上町1丁目2番,芥川小学校北門,34.8554064,135.6143171
大阪府,高槻市,8-3,天神町1丁目15番,天神町公園,34.8588679,135.6170711
大阪府,高槻市,8-4,紫町2番,紫町公園,34.8550482,135.609378
大阪府,高槻市,8-5,紫町2番,日本たばこ医薬研究所東北角,34.854384,135.6123719
大阪府,高槻市,8-6,真上町1丁目11番,㈱アルトナー高槻寮北側水路,34.8564293,135.6124551
大阪府,高槻市,8-7,芥川町1丁目1番,JR高槻駅西口北側歩道,34.8508469,135.6157145
大阪府,高槻市,8-8,芥川町2丁目14番,芥川商店街入口北側,34.8526225,135.6155156
大阪府,高槻市,9-1,芥川4丁目20番,芥川公民館,34.8520423,135.6085536
大阪府,高槻市,9-2,殿町15番,殿町かんな児童遊園,34.8552151,135.606998
大阪府,高槻市,9-3,南芥川町1番,バス停JR高槻駅西付近,34.850453,135.6145624
大阪府,高槻市,9-4,南芥川町7番,京都信用金庫高槻支店東側柵,34.8503737,135.612489
大阪府,高槻市,9-5,南芥川町22番,南芥川第一公園,34.8489349,135.6096035
大阪府,高槻市,9-6,殿町15番,コープ野村高槻,34.8555007,135.6057716
大阪府,高槻市,10-1,川西町1丁目34番,川西小学校正門,34.8506715,135.6045449
大阪府,高槻市,10-2,川西町1丁目29番,ひまわり児童遊園,34.8485065,135.6038918
大阪府,高槻市,10-3,川西町1丁目25番,さるびあ児童遊園,34.8480398,135.6047421
大阪府,高槻市,10-4,川西町2丁目33番,川西中学校正門,34.8462666,135.6047459
大阪府,高槻市,10-5,清福寺町21番,フレリーク南,34.8540542,135.6033479
大阪府,高槻市,10-6,清福寺町7番,水路,34.8524027,135.604094
大阪府,高槻市,10-7,朝日町177番,女瀬川道路,34.842944,135.5962638
大阪府,高槻市,10-8,川西町2丁目10番,川西滞留所南側,34.8476034,135.6061405
大阪府,高槻市,11-1,安満西の町27番,磐手小学校正門,34.8617251,135.6295671
大阪府,高槻市,11-2,安満西の町27番,磐手小学校グラウンド南側,34.8599542,135.6286694
大阪府,高槻市,11-3,安満中の町7番,つばき児童遊園,34.8603563,135.631568
大阪府,高槻市,11-4,安満中の町20番,うのはな児童遊園,34.8605986,135.633243
大阪府,高槻市,11-5,安満新町4番,バス停安満新町,34.8577103,135.6286196
大阪府,高槻市,11-6,別所中の町4番,バス停別所,34.8603927,135.6257727
大阪府,高槻市,11-7,別所本町16番,別所本町公園,34.8626576,135.6259721
大阪府,高槻市,11-8,別所中の町4番,イトーピア高槻西道路柵,34.8600758,135.6252174
大阪府,高槻市,11-9,紅茸町5番1号,第八中学校西側フェンス,34.8645424,135.6268129
大阪府,高槻市,12-1,古曽部町4丁目11番,バス停古曽部防災公園,34.8639761,135.6213055
大阪府,高槻市,12-2,美しが丘1丁目4番,美しが丘第一公園,34.8658343,135.6225634
大阪府,高槻市,12-3,美しが丘2丁目4番,大谷池北市道ガードレール西側,34.8657727,135.6171239
大阪府,高槻市,12-4,古曽部町3丁目3番,古曽部町自治会館,34.8595988,135.6209107
大阪府,高槻市,12-5,美しが丘2丁目10番,名神高速道路南側フェンス,34.8666703,135.6160926
大阪府,高槻市,12-6,古曽部町3丁目23番,遊水池,34.8627764,135.623496
大阪府,高槻市,13-1,成合中の町5番,成合公民館南西水路柵,34.8733338,135.6241265
大阪府,高槻市,13-2,成合中の町8番,成合中の町8番知内安全柵,34.8744104,135.624923
大阪府,高槻市,13-3,成合中の町,バス停成合,34.871709,135.6248891
大阪府,高槻市,13-4,成合北の町,あべりあ児童遊園,34.8757886,135.6244971
大阪府,高槻市,13-5,成合東の町9番,成合東の町9番地内安全柵,34.8734077,135.6255904
大阪府,高槻市,13-6,成合北の町,弥生橋南,34.8759195,135.6216113
大阪府,高槻市,14-1,大字川久保,川久保交流センター,34.9015793,135.6239679
大阪府,高槻市,14-2,大字川久保,バス停川久保峠,34.8964398,135.622195
大阪府,高槻市,14-3,大字川久保,上落合橋,34.9008714,135.6226322
大阪府,高槻市,15-1,宮之川原4丁目20番,清水小学校正門,34.8660488,135.5998151
大阪府,高槻市,15-2,宮之川原4丁目18番,バス停宮之川原,34.8652672,135.5991915
大阪府,高槻市,15-3,宮之川原4丁目3番,浦堂認定こども園,34.8635401,135.5996299
大阪府,高槻市,15-4,宮之川原元町32番,バス停伏原,34.8695482,135.5978152
大阪府,高槻市,15-5,塚脇2丁目,バス停塚脇,34.8706501,135.5933199
大阪府,高槻市,15-6,浦堂2丁目,バス停服部図書館前,34.8651386,135.6034777
大阪府,高槻市,15-7,西之川原1丁目34番,バス停西之川原,34.8670086,135.5944704
大阪府,高槻市,16-1,大字原,原公民館南側,34.8941255,135.599052
大阪府,高槻市,16-2,大字原,八坂神社,34.8964485,135.6001024
大阪府,高槻市,16-3,大字原,バス停上の口西100ｍ竹やぶ前,34.8850178,135.5966843
大阪府,高槻市,16-4,大字原330番地先,浄圓寺付近市道,34.8899799,135.5966602
大阪府,高槻市,16-5,大字原,バス停原大橋,34.8996325,135.6016351
大阪府,高槻市,16-6,大字原,バス停原立石,34.8869023,135.5999775
大阪府,高槻市,17-1,大字萩谷,萩谷公民館,34.8945691,135.5767081
大阪府,高槻市,17-2,大字萩谷,バス停萩谷北側,34.8964513,135.5773196
大阪府,高槻市,17-3,大字萩谷,バス停下萩谷,34.8904704,135.5762969
大阪府,高槻市,18-1,如是町2番,如是小学校正門南側,34.8363527,135.6047817
大阪府,高槻市,18-2,如是町2番,如是小学校東側,34.8362955,135.6071449
大阪府,高槻市,18-3,如是町7番,如是中学校東側水路,34.8347478,135.6047363
大阪府,高槻市,18-4,如是町16番,masked,34.8336107,135.6054725
大阪府,高槻市,18-5,登美の里町24番,バス停富田東,34.8327273,135.6003911
大阪府,高槻市,18-6,登美の里町24番,五百住小学校西,34.8340273,135.5999915
大阪府,高槻市,18-7,登美の里町24番,五百住小学校正門,34.8346262,135.6009034
大阪府,高槻市,18-8,東五百住町3丁目5番,如是保育所（バス停登美の里町）,34.8364979,135.5992306
大阪府,高槻市,18-9,津之江町2丁目21番,ローズコーポ津之江北水路柵,34.8385885,135.6082987
大阪府,高槻市,19-1,芝生町2丁目49番,第三中学校正門,34.8325601,135.6080458
大阪府,高槻市,19-2,芝生町2丁目50番,バス停三中前,34.8325556,135.6099395
大阪府,高槻市,19-3,芝生町2丁目10－30,芝生保育所正門東側,34.8314372,135.6063523
大阪府,高槻市,19-4,芝生町2丁目31番,masked,34.8302449,135.6071421
大阪府,高槻市,19-5,芝生町2丁目35番,masked,34.8286099,135.6093882
大阪府,高槻市,19-6,芝生町2丁目15番,masked,34.8286776,135.6069555
大阪府,高槻市,19-7,津之江町3丁目67番,さざんか公園,34.8373189,135.606888
大阪府,高槻市,19-8,津之江町3丁目29番,masked,34.8346479,135.6070385
大阪府,高槻市,20-1,桜ヶ丘南町7番23号,桜ヶ丘公民館南側,34.8367253,135.5963925
大阪府,高槻市,20-2,桜ヶ丘南町4番,小寺池緑道,34.8347043,135.5960956
大阪府,高槻市,20-3,富田町1丁目7番,かとれあ児童遊園,34.8371245,135.5946632
大阪府,高槻市,20-4,桜ヶ丘南町7番,桜ヶ丘公民館グラウンド東側,34.8368039,135.5969286
大阪府,高槻市,20-5,桜ヶ丘北町34番,阪急電鉄フェンス,34.8383135,135.5988494
大阪府,高槻市,20-6,富田町1丁目4番,岡部モータープール,34.8366514,135.5949586
大阪府,高槻市,21-1,富田町1丁目34番,masked,34.8337503,135.5891798
大阪府,高槻市,21-2,大畑町4番,第四中学校東門,34.8393043,135.5928008
大阪府,高槻市,21-3,富田町1丁目18番,NTT西日本㈱北大阪支店富田別館,34.8354257,135.5914356
大阪府,高槻市,21-4,富田町1丁目25番,かえで児童遊園,34.8347644,135.5900013
大阪府,高槻市,21-5,宮田町1丁目41番,宮田町第1公民館,34.8436753,135.5867741
大阪府,高槻市,21-6,宮田町1丁目11番,㈱酉島製作所グラウンド北,34.8415765,135.5893936
大阪府,高槻市,21-7,宮田町2丁目25番,デセンシア寺西東側水路柵,34.8446078,135.5897262
大阪府,高槻市,21-8,大畑町9番,大畑パーキング南,34.836751,135.5912702
大阪府,高槻市,21-9,大畑町,JR富田北口バス乗り場,34.8378033,135.5922734
大阪府,高槻市,22-1,氷室町4丁目4番,バス停阿武野校前,34.8505562,135.5880635
大阪府,高槻市,22-2,氷室町4丁目4番,阿武野小学校西門,34.8517976,135.5876289
大阪府,高槻市,22-3,岡本町14番,名神下交差点南東,34.8538898,135.5883051
大阪府,高槻市,22-4,氷室町2丁目1番,巡礼橋北水路,34.8461085,135.5913671
大阪府,高槻市,22-5,土室町52番,すみれ児童遊園,34.8444391,135.5850821
大阪府,高槻市,22-6,土室町14番,バス停土室南側,34.8501197,135.5831427
大阪府,高槻市,22-7,土室町48番,バス停土室南,34.8447668,135.5839521
大阪府,高槻市,22-8,岡本町68番,岡本町第一公園,34.8557809,135.5928237
大阪府,高槻市,22-9,氷室町2丁目33番,氷室大橋北,34.8507021,135.5912286
大阪府,高槻市,23-1,春日町8番,スカイハイツ辻﨑南東,34.8398018,135.6282689
大阪府,高槻市,23-2,春日町8番,春日町公園,34.8391568,135.6278103
大阪府,高槻市,23-3,春日町8番,スカイハイツ辻﨑北,34.8400396,135.628277
大阪府,高槻市,23-4,春日町22番,市立春日保育所,34.8366245,135.6273093
大阪府,高槻市,23-5,春日町14番,ふれあい児童遊園,34.8385068,135.6292842
大阪府,高槻市,23-6,若松町22番,あじさい児童遊園,34.8353973,135.6292244
大阪府,高槻市,23-7,若松町22番,若松小学校南水路,34.8344638,135.6296402
大阪府,高槻市,24-1,登町9番,桜台小学校正門東側,34.8298426,135.6247501
大阪府,高槻市,24-2,登町12番,府公社下田部A1棟北東側,34.8302025,135.6235322
大阪府,高槻市,24-3,登町12番,下田部団地児童遊園南東側,34.829774,135.623798
大阪府,高槻市,24-4,登町17番,masked,34.8277889,135.6224005
大阪府,高槻市,24-5,登町17番,バス停下田部団地,34.8284545,135.6211686
大阪府,高槻市,24-6,登町53番,A15棟東水路,34.8282501,135.6243518
大阪府,高槻市,24-7,西冠3丁目29番,水路,34.8314826,135.6219034
大阪府,高槻市,24-8,北大樋町15番,北大樋第二公園,34.8270347,135.626971
大阪府,高槻市,25-1,大塚町1丁目4番,南大冠小学校正門,34.8258984,135.634858
大阪府,高槻市,25-2,大塚町1丁目20番,南大冠公民館前水路,34.8225127,135.6328967
大阪府,高槻市,25-3,大塚町1丁目23番,加門産業西側安全柵,34.8211224,135.6327188
大阪府,高槻市,25-4,深沢町2丁目7番,masked,34.8288631,135.6342532
大阪府,高槻市,25-5,深沢本町2番,水路安全柵,34.828111,135.6361115
大阪府,高槻市,25-6,深沢町1丁目2番,エスポワール濱北水路,34.8302829,135.6320036
大阪府,高槻市,25-7,深沢町2丁目2番,水路安全柵,34.8313065,135.6353352
大阪府,高槻市,25-8,深沢町2丁目2番,masked,34.8309432,135.6341175
大阪府,高槻市,25-9,深沢本町30番,深沢本町公園,34.8264342,135.6371796
大阪府,高槻市,26-1,五領町12番,五領小学校正門,34.8615694,135.6532017
大阪府,高槻市,26-2,梶原1丁目5番,かえで公園（バス停梶原）,34.8651752,135.6495968
大阪府,高槻市,26-3,神内2丁目17番,神内かんなび公園,34.8708632,135.6579333
大阪府,高槻市,26-4,神内2丁目26番,上牧駅前公園,34.8729757,135.6602648
大阪府,高槻市,26-5,上牧町1丁目6番,道路柵,34.8644963,135.6601952
大阪府,高槻市,26-6,上牧北駅前町8番,五領保育所前水路,34.869461,135.658465
大阪府,高槻市,26-7,萩之庄1丁目6番,バス停萩之庄西側,34.8622963,135.6428681
大阪府,高槻市,26-8,萩之庄5丁目21番,ヴィレッジハウス萩之庄宿舎,34.8578118,135.6455656
大阪府,高槻市,26-9,神内2丁目1番,阪急上牧駅前,34.8717985,135.6606292
大阪府,高槻市,27-1,道鵜町3丁目20番,五領中学校正門南側,34.8569811,135.6560023
大阪府,高槻市,27-2,道鵜町5丁目5番,ポンプ場北水路,34.8525449,135.650262
大阪府,高槻市,27-3,道鵜町4丁目,バス停道鵜町北口,34.8574422,135.6524265
大阪府,高槻市,27-4,道鵜町4丁目19番,バス停道鵜町,34.8555167,135.6521485
大阪府,高槻市,27-5,道鵜町5丁目5番,道鵜町公園,34.8541185,135.6511325
大阪府,高槻市,27-6,前島1丁目12番,バスロータリー東側歩道,34.8475736,135.6474256
大阪府,高槻市,28-1,三島江1丁目11番,㈱平成運輸倉庫,34.803381,135.6109972
大阪府,高槻市,28-2,三島江1丁目13番,三箇牧小学校西側水路,34.80535,135.6129521
大阪府,高槻市,28-3,三島江1丁目5番,バス停西面口,34.8039344,135.6062616
大阪府,高槻市,28-4,三島江3丁目21番,水路,34.8007435,135.6111285
大阪府,高槻市,28-5,三島江4丁目11番,木村モータープール南西水路,34.7984903,135.6085375
大阪府,高槻市,28-6,西面南1丁目,高架下ガードレール,34.802957,135.6045282
大阪府,高槻市,28-7,西面中2丁目2番,西面公民館,34.8048909,135.6025224
大阪府,高槻市,28-8,西面中2丁目7番,西ノ川中央広場,34.8060874,135.5988078
大阪府,高槻市,29-1,唐崎中4丁目11番,唐崎中四丁目11番地南側水路,34.8144631,135.6137658
大阪府,高槻市,29-2,唐崎中4丁目28番,柴山鋼業㈱南東水路,34.8130033,135.6094509
大阪府,高槻市,29-3,唐崎西1丁目3番,水路フェンス,34.8175471,135.607593
大阪府,高槻市,29-4,唐崎中2丁目1番,京阪バス停唐崎東側フェンス,34.8151237,135.6153644
大阪府,高槻市,29-5,唐崎中2丁目4番,鷲打橋西交差点,34.8163888,135.6175386
大阪府,高槻市,29-6,唐崎中3丁目1番,新洋ケミカル(有)大阪営業所西側水路,34.8145614,135.6144659
大阪府,高槻市,29-7,唐崎西1丁目25番,バス停西切・京阪バス停西切,34.8155586,135.6070002
大阪府,高槻市,30-1,昭和台町1丁目1番,富田小学校東門,34.8297109,135.5915891
大阪府,高槻市,30-2,昭和台町1丁目1番,富田小学校西門,34.830116,135.5900763
大阪府,高槻市,30-3,昭和台町2丁目18番,昭和台南公園,34.827813,135.5882471
大阪府,高槻市,30-4,富田町2丁目5番,富田保育所,34.8325855,135.5909147
大阪府,高槻市,30-5,富田町2丁目5番,富寿栄公園,34.8329234,135.5899424
大阪府,高槻市,30-6,富田町2丁目7番,富寿栄団地15棟西側フェンス,34.8317834,135.5890474
大阪府,高槻市,30-7,富田町4丁目7番,喫茶クローバー前,34.8311437,135.5916972
大阪府,高槻市,30-8,昭和台町1丁目6番,昭和台北公園,34.8293937,135.5880832
大阪府,高槻市,31-1,南総持寺町3番,masked,34.8252587,135.586682
大阪府,高槻市,31-2,南総持寺町5番,31棟南側,34.8248635,135.5871353
大阪府,高槻市,31-3,南総持寺町6番,37棟南側公園,34.8256817,135.5889673
大阪府,高槻市,31-4,南総持寺町7番,30棟東側,34.8248048,135.5890719
大阪府,高槻市,31-5,南総持寺町8番,19棟北側,34.8237578,135.5884989
大阪府,高槻市,31-6,南総持寺町8番,46棟南側,34.8237898,135.5900358
大阪府,高槻市,32-1,富田町5丁目17番,富田公民館西水路,34.8307683,135.5948142
大阪府,高槻市,32-2,富田町5丁目3番,こすもす公園,34.8327047,135.5954715
大阪府,高槻市,32-3,富田町5丁目27番,コインパーキング西側水路,34.8324495,135.5998866
大阪府,高槻市,32-4,富田町3丁目4番,阪急富田駅南側,34.834968,135.5928182
大阪府,高槻市,32-5,富田町3丁目18番,あさがお児童遊園西水路,34.8344198,135.5923676
大阪府,高槻市,32-6,西五百住町1番,小寺池図書館,34.8354668,135.5948953
大阪府,高槻市,32-7,西五百住町11番,西五百住町やまもも児童遊園南側,34.8340377,135.5977269
大阪府,高槻市,33-1,大字田能,樫田幼稚園南,34.9554445,135.589766
大阪府,高槻市,33-2,大字田能,バス停樫田校前,34.9551665,135.5904754
大阪府,高槻市,33-3,大字田能,バス停田能,34.9583738,135.5901117
大阪府,高槻市,33-4,大字田能,バス停森林センター前,34.9418328,135.5988108
大阪府,高槻市,33-5,大字出灰,バス停出灰,34.9354213,135.6030305
大阪府,高槻市,33-6,大字中畑,バス停中畑,34.9602415,135.6084394
大阪府,高槻市,33-7,大字杉生,バス停杉生,34.9697986,135.5787611
大阪府,高槻市,33-8,大字二料,バス停二料,34.942857,135.5699725
大阪府,高槻市,34-1,郡家本町52番,第二中学校東門,34.8566024,135.5973435
大阪府,高槻市,34-2,郡家本町43番,バス停二中前,34.8575488,135.5975957
大阪府,高槻市,34-3,郡家本町43番,関電鉄塔,34.8561006,135.5993498
大阪府,高槻市,34-4,大蔵司2丁目51番,水道部清水受水場,34.8634102,135.5984058
大阪府,高槻市,34-5,大蔵司3丁目2番,バス停大蔵司,34.8599216,135.5986606
大阪府,高槻市,34-6,南平台1丁目9番,南平台南公園,34.8588454,135.594404
大阪府,高槻市,34-7,南平台1丁目1番,道路柵,34.8608522,135.594598
大阪府,高槻市,35-1,日吉台一番町24番,日吉台小学校正門,34.8699674,135.6139152
大阪府,高槻市,35-2,日吉台七番町14番,新日吉台北公園,34.8719946,135.6194183
大阪府,高槻市,35-3,日吉台七番町26番,日吉台七番町朝顔公園,34.8743043,135.6174732
大阪府,高槻市,35-4,日吉台一番町18番,日吉台南公園,34.8700853,135.6161147
大阪府,高槻市,35-5,日吉台五番町11番,日吉台東公園東側,34.8730286,135.6167514
大阪府,高槻市,35-6,日吉台五番町11番,日吉台東公園西側,34.8725797,135.6163062
大阪府,高槻市,35-7,日吉台六番町37番,新日吉台公園,34.8700678,135.6192994
大阪府,高槻市,35-8,日吉台七番町1番,つばき公園,34.8724876,135.6224072
大阪府,高槻市,36-1,松が丘2丁目,すいせん児童遊園,34.8745509,135.600344
大阪府,高槻市,36-2,松が丘1丁目19番,しょうぶ公園,34.8724874,135.6000302
大阪府,高槻市,36-3,松が丘1丁目1番,バス停学園前,34.8719588,135.6012462
大阪府,高槻市,36-4,松が丘2丁目1番,だりや公園,34.8752254,135.6012354
大阪府,高槻市,36-5,松が丘2丁目8番,関電鉄塔,34.877283,135.6004057
大阪府,高槻市,36-6,松が丘2丁目32番,松が丘東公園,34.8752848,135.5976649
大阪府,高槻市,36-7,東城山町11番,貯水池西側,34.8738571,135.5975244
大阪府,高槻市,36-8,黄金の里1丁目7番,さつき児童遊園,34.8730143,135.5940241
大阪府,高槻市,37-1,淀の原町55番,淀の原町公民館前,34.8702718,135.6647946
大阪府,高槻市,37-2,淀の原町36番,さくら公園,34.8706338,135.6658608
大阪府,高槻市,37-3,淀の原町58番,淀の原公園,34.868476,135.6674674
大阪府,高槻市,37-4,東上牧1丁目3番,金光大阪高等学校西側水路,34.8689361,135.6620727
大阪府,高槻市,37-5,東上牧1丁目3番,金光大阪高等学校南側塀,34.8688094,135.6634728
大阪府,高槻市,37-6,東上牧1丁目2番,㈱ニチレイフーズ関西工場,34.8726712,135.6646122
大阪府,高槻市,37-7,東上牧2丁目31番,宮前橋,34.865994,135.6626014
大阪府,高槻市,37-8,東上牧3丁目13番,上牧東公園西側,34.8668752,135.6665693
大阪府,高槻市,38-1,栄町1丁目24番,柳川小学校北水路,34.8256954,135.5955434
大阪府,高槻市,38-2,栄町1丁目12番,masked,34.8273291,135.5963964
大阪府,高槻市,38-3,西町1番7号,ビレッジハウス西町宿舎,34.8249388,135.5939503
大阪府,高槻市,38-4,西町2番,柳川小学校西門,34.8251015,135.5951853
大阪府,高槻市,38-5,西町16番,バス停西町,34.8226899,135.5945472
大阪府,高槻市,38-6,西町62番,ひなぎく公園南側水路,34.8227542,135.5976337
大阪府,高槻市,38-7,北柳川町9番,柳川水路北側,34.825657,135.59186
大阪府,高槻市,38-8,柳川町1丁目9番,水路,34.8237546,135.5921803
大阪府,高槻市,39-1,玉川2丁目,集会前広場,34.8137771,135.6023754
大阪府,高槻市,39-2,玉川2丁目6番,6棟南側,34.8128409,135.6021857
大阪府,高槻市,39-3,玉川2丁目31番,31棟東側,34.8123829,135.6012443
大阪府,高槻市,39-4,玉川2丁目,20棟東側水路,34.8113903,135.6059542
大阪府,高槻市,39-5,玉川2丁目13番,13棟南側,34.8125772,135.6038174
大阪府,高槻市,39-6,玉川1丁目12番,うのはな児童遊園,34.8141259,135.6036279
大阪府,高槻市,39-7,玉川4丁目1番,かんな公園,34.8117034,135.6012657
大阪府,高槻市,40-1,桃園町2番,市役所東側,34.8460847,135.6177516
大阪府,高槻市,40-2,桃園町3番,桃園小学校西側,34.8445812,135.6152124
大阪府,高槻市,40-3,桃園町3番,桃園小学校南側,34.844535,135.6158623
大阪府,高槻市,40-4,城西町10番,城西町たんぽぽ公園,34.8410641,135.6144007
大阪府,高槻市,40-5,上田辺町2番,JR高槻駅西口南側市道,34.8499411,135.6156683
大阪府,高槻市,40-6,明田町5番,水路,34.8473665,135.6155238
大阪府,高槻市,40-7,紺屋町5番,高槻駅前郵便局東側,34.8504217,135.6192641
大阪府,高槻市,40-8,紺屋町1番,総合市民交流センター西側歩道柵,34.8516398,135.6186365
大阪府,高槻市,40-9,紺屋町,みずき児童遊園,34.8481139,135.6196621
大阪府,高槻市,41-1,宮野町10番,北大冠小学校正門,34.8512106,135.6359813
大阪府,高槻市,41-2,宮野町3番,あやめ公園,34.8531104,135.6359383
大阪府,高槻市,41-3,宮野町10番,北大冠小学校南側,34.8504908,135.636223
大阪府,高槻市,41-4,宮野町10番,大冠北第2コミュニティセンター,34.8505248,135.6372484
大阪府,高槻市,41-5,天王町9番,天王町公園東側,34.8517752,135.633335
大阪府,高槻市,41-6,天王町25番,あやめ児童遊園西側,34.8497898,135.6335389
大阪府,高槻市,41-7,野田2丁目1番,サニーハイツ東側水路,34.8534895,135.6386005
大阪府,高槻市,41-8,緑町1番,ル・ヴェール高槻北側水路,34.8535231,135.6321164
大阪府,高槻市,42-1,城南町3丁目1番,西大冠小学校東側,34.8380808,135.624104
大阪府,高槻市,42-2,城南町3丁目1番,西大冠小学校西側,34.8381909,135.6229775
大阪府,高槻市,42-3,城南町2丁目30番,城南中学校北側,34.8396664,135.6259711
大阪府,高槻市,42-4,城南町2丁目30番,城南中学校西門,34.8387307,135.6254859
大阪府,高槻市,42-5,城南町2丁目30番,城南中学校東門,34.8386294,135.6264676
大阪府,高槻市,42-6,西冠2丁目12番,水路,34.8347098,135.6243433
大阪府,高槻市,42-7,西冠2丁目11番,大阪合同通運㈱前水路,34.8345307,135.6266868
大阪府,高槻市,42-8,西冠1丁目15番,㈱アクティオ高槻営業所前歩道,34.8334622,135.6226173
大阪府,高槻市,42-9,西冠1丁目1番,山本商店（すみれ）西水路,34.8366116,135.6207096
大阪府,高槻市,43-1,竹の内町60番,竹の内小学校正門,34.8247941,135.6273162
大阪府,高槻市,43-2,竹の内町60番,竹の内小学校東門,34.8242613,135.6281423
大阪府,高槻市,43-3,南大樋町1番,マイシティー高槻北水路,34.8251948,135.6266617
大阪府,高槻市,43-4,大塚町5丁目5番,藤原医院前水路,34.8223721,135.6318949
大阪府,高槻市,43-5,大塚町5丁目1番,矢崎化工㈱大阪工場北水路,34.827589,135.6300901
大阪府,高槻市,43-6,竹の内町61番,第十中学校正門,34.8217732,135.6271231
大阪府,高槻市,43-7,辻子3丁目68番,すいせん児童遊園,34.8300301,135.628824
大阪府,高槻市,44-1,柱本新町10番,柱本小学校北側,34.7933611,135.6009264
大阪府,高槻市,44-2,柱本新町10番,柱本小学校西側,34.7925483,135.6003953
大阪府,高槻市,44-3,柱本新町10番,柱本小学校正門,34.7931291,135.602265
大阪府,高槻市,44-4,柱本新町10番,柱本保育園,34.7942849,135.6006258
大阪府,高槻市,44-5,柱本3丁目20番,バス停柱本,34.7930372,135.6052686
大阪府,高槻市,44-6,柱本6丁目19番,柱本南公園,34.7914163,135.5992769
大阪府,高槻市,44-7,柱本新町1番,masked,34.7964145,135.6008124
大阪府,高槻市,45-1,津之江北町7番,津之江小学校東側,34.8431974,135.6061702
大阪府,高槻市,45-2,津之江北町11番,津之江小学校裏門水路,34.843679,135.604706
大阪府,高槻市,45-3,津之江北町25番,清水池公園池北側花壇,34.8443174,135.6094833
大阪府,高槻市,45-4,津之江北町31番,津之江北公園北側,34.8430646,135.6080956
大阪府,高槻市,45-5,東五百住町1丁目1番,道路,34.8391168,135.5994472
大阪府,高槻市,45-6,東五百住町2丁目35番,道路,34.8389473,135.6023636
大阪府,高槻市,45-7,川西町3丁目13番,水路,34.8445686,135.6065091
大阪府,高槻市,46-1,大冠町2丁目40番,冠小学校南東側,34.8332967,135.6372938
大阪府,高槻市,46-2,大冠町2丁目40番,冠小学校北門,34.8345312,135.6368084
大阪府,高槻市,46-3,大冠町2丁目24番,冠中学校北側,34.832435,135.6373128
大阪府,高槻市,46-4,東和町29番,冠中学校グランド東側,34.8313811,135.6381654
大阪府,高槻市,46-5,辻子1丁目25番,北大冠水路西側,34.8384555,135.6347869
大阪府,高槻市,46-6,辻子1丁目7番,うのはな児童遊園,34.834831,135.6328253
大阪府,高槻市,46-7,辻子2丁目4番,さつき児童遊園,34.8320152,135.631571
大阪府,高槻市,47-1,安岡寺町6丁目2番,北清水小学校南坂,34.880506,135.6035085
大阪府,高槻市,47-2,安岡寺町6丁目2番,北清水小学校南口,34.880462,135.6048174
大阪府,高槻市,47-3,安岡寺町4丁目5番,水路,34.8781002,135.6030488
大阪府,高槻市,47-4,安岡寺町4丁目19番,北清水スポーツセンター前,34.8789021,135.6052055
大阪府,高槻市,47-5,安岡寺町4丁目51番,安岡寺東公園,34.8781357,135.6075157
大阪府,高槻市,47-6,安岡寺町5丁目19番,安岡寺北公園,34.8837118,135.6030436
大阪府,高槻市,47-7,安岡寺町4丁目13番,安岡寺413号線東側柵,34.8798693,135.6030885
大阪府,高槻市,48-1,真上町2丁目16番,真上公民館,34.8578344,135.6086262
大阪府,高槻市,48-2,真上町3丁目13番,信号西側病院駐車場,34.8602278,135.6052756
大阪府,高槻市,48-3,真上町3丁目7番,水路柵,34.8591111,135.6087434
大阪府,高槻市,48-4,真上町4丁目11番,高槻グリーンハイツ西側道路ガードレール,34.8609775,135.6072736
大阪府,高槻市,48-5,緑が丘2丁目1番,緑が丘公園南石垣,34.8627366,135.6055304
大阪府,高槻市,48-6,真上町5丁目31番,真上中央公園,34.863727,135.6095117
大阪府,高槻市,48-7,緑が丘3丁目1番,緑が丘3丁目交差点南西角,34.8619462,135.6041539
大阪府,高槻市,48-8,緑が丘1丁目10番,名神高速道路南側フェンス,34.8627444,135.6073379
大阪府,高槻市,48-9,真上町5丁目32番,あべりあ児童遊園,34.8633053,135.6121284
大阪府,高槻市,49-1,郡家新町68番,郡家小学校正門,34.8512112,135.5974057
大阪府,高槻市,49-2,郡家新町62番,かんな児童遊園,34.8502118,135.5981313
大阪府,高槻市,49-3,郡家新町48番,今城塚公民館フェンス,34.8524817,135.5948244
大阪府,高槻市,49-4,郡家新町10番,水路柵,34.8474837,135.6000066
大阪府,高槻市,49-5,今城町23番,バス停サンスター前,34.8469532,135.6023093
大阪府,高槻市,49-6,氷室町1丁目26番,妙見橋,34.8489742,135.5923913
大阪府,高槻市,49-7,宮田町3丁目44番,女瀬川ガードレール,34.8452598,135.594977
大阪府,高槻市,49-8,今城町25番,三島高校南側水路柵,34.8455678,135.5983593
大阪府,高槻市,49-9,郡家新町41番,水路,34.8530487,135.5996274
大阪府,高槻市,50-1,栄町3丁目11番,寿栄小学校正門,34.8265771,135.6019156
大阪府,高槻市,50-2,栄町3丁目11番,寿栄小学校南側,34.8257558,135.6010546
大阪府,高槻市,50-3,栄町2丁目49番,こすもす児童遊園北側,34.8268139,135.5993071
大阪府,高槻市,50-4,栄町2丁目13番,栄町自治会集会所,34.8277716,135.6010716
大阪府,高槻市,50-5,栄町3丁目11番,寿栄小学校西側,34.8262232,135.599999
大阪府,高槻市,50-6,川添1丁目1番,柳川中学校西門,34.8230922,135.5988124
大阪府,高槻市,50-7,川添1丁目16番,たんぽぽ公園東側,34.8252533,135.6011486
大阪府,高槻市,51-1,赤大路町15番,赤大路小学校東水路,34.8356485,135.5865023
大阪府,高槻市,51-2,赤大路町15番,赤大路小学校グラウンド西,34.8340345,135.5846006
大阪府,高槻市,51-3,赤大路町31番,masked,34.8374273,135.5854051
大阪府,高槻市,51-4,赤大路町37番,masked,34.8377612,135.5853687
大阪府,高槻市,51-5,富田丘町29番,さつき児童遊園,34.8355549,135.5880647
大阪府,高槻市,51-6,富田丘町13番,道路柵,34.8379968,135.5868404
大阪府,高槻市,51-7,北昭和台町11番,阪急電鉄フェンス,34.8306004,135.5876016
大阪府,高槻市,52-1,南庄所町3番,庄所コミュニティセンター西側水路,34.8369004,135.6142607
大阪府,高槻市,52-2,南庄所町3番,庄所コミュニティセンター南側,34.8366407,135.6152538
大阪府,高槻市,52-3,南庄所町25番,バス停二十,34.8315477,135.6155555
大阪府,高槻市,52-4,庄所町13番,水路柵,34.8383826,135.6142642
大阪府,高槻市,52-5,高西町5番,西日本電信電話㈱南高槻ビル東側水路柵,34.8392257,135.6181361
大阪府,高槻市,52-6,高西町23番,田中駐車場北側,34.8375609,135.6180074
大阪府,高槻市,53-1,南平台5丁目20番,南平台小学校正門,34.8625906,135.590099
大阪府,高槻市,53-2,南平台5丁目59番,バス停南平台小学校前,34.8640706,135.5905657
大阪府,高槻市,53-3,南平台5丁目21番,埋蔵文化財調査センター,34.862393,135.5878942
大阪府,高槻市,53-4,南平台5丁目38番,南平台第四公園,34.867346,135.5878175
大阪府,高槻市,53-5,南平台5丁目1番,南平台中央公園,34.8611175,135.5884359
大阪府,高槻市,53-6,南平台2丁目11番,西野々上池西側,34.8580123,135.590991
大阪府,高槻市,53-7,霊仙寺町1丁目8番,NTT西日本㈱北大阪支店萩谷別館,34.8760436,135.5810814
大阪府,高槻市,53-8,萩谷月見台2番,バス停月見台南,34.8792274,135.5808567
大阪府,高槻市,54-1,芝谷町3番,芝谷中学校正門,34.8703665,135.6094811
大阪府,高槻市,54-2,芝谷町4番,芝谷町中央公園北側,34.871359,135.6092284
大阪府,高槻市,54-3,芝谷町19番,バス停芝谷町,34.8669945,135.6066782
大阪府,高槻市,54-4,寺谷町4番,寺谷町南公園,34.8699285,135.6121124
大阪府,高槻市,54-5,寺谷町37番,寺谷町北公園,34.8752432,135.6083778
大阪府,高槻市,54-6,真上町6丁目8番,藤和コアティ高槻ハイタウン北東,34.8686384,135.6136784
大阪府,高槻市,54-7,真上町6丁目35番,バス停芝谷東,34.8681915,135.6102123
大阪府,高槻市,54-8,芝谷町3番,芝谷中学校東側,34.8693435,135.6105523
大阪府,高槻市,54-9,真上町6丁目4番,新真上第二公園,34.8676836,135.6126195
大阪府,高槻市,55-1,日吉台三番町4番,北日吉台小学校正門,34.877992,135.6102739
大阪府,高槻市,55-2,日吉台四番町25番,日吉台中央公園西側,34.8747905,135.6126425
大阪府,高槻市,55-3,寺谷町55番,バス停寺谷町,34.8789097,135.6082866
大阪府,高槻市,55-4,日吉台四番町25番,日吉台中央公園南側,34.87426,135.6127731
大阪府,高槻市,55-5,弥生が丘町9番,すみれ児童遊園,34.8762703,135.6178045
大阪府,高槻市,55-6,弥生が丘町42番,弥生が丘公園,34.8778293,135.6177475
大阪府,高槻市,55-7,高見台4番,高見台第二公園,34.8816265,135.6078761
大阪府,高槻市,56-1,芝生町3丁目30番,芝生小学校南側水路,34.825538,135.6089705
大阪府,高槻市,56-2,芝生町3丁目16番,丸橋小学校南側,34.826572,135.6099611
大阪府,高槻市,56-3,芝生町1丁目7番,ばら公園南側フェンス,34.8292129,135.6127133
大阪府,高槻市,56-4,芝生町4丁目1番,バス停芝生西口,34.8248396,135.6108038
大阪府,高槻市,56-5,川添2丁目19番,フレンドマート北水路,34.824648,135.6045872
大阪府,高槻市,56-6,川添2丁目20番,こすもす公園,34.8236968,135.6040937
大阪府,高槻市,56-7,栄町4丁目14番,たんぽぽ公園,34.8256303,135.6041427
大阪府,高槻市,57-1,天川町28番,天川町たんぽぽ公園,34.8451355,135.6355812
大阪府,高槻市,57-2,天川町20番,masked,34.8432745,135.6334431
大阪府,高槻市,57-3,天川町20番,関電鉄塔,34.8426408,135.6337332
大阪府,高槻市,57-4,東天川3丁目16番,バス停大冠校前,34.841885,135.6365273
大阪府,高槻市,57-5,日向町11番,さつき荘北水路柵,34.8415117,135.6319315
大阪府,高槻市,57-6,日向町6番,関電鉄塔,34.8400873,135.6317559
大阪府,高槻市,57-7,日向町30番,大冠小学校南水路,34.8406345,135.6337022
大阪府,高槻市,57-8,天川町1番,masked,34.8453751,135.6333544
大阪府,高槻市,58-1,牧田町14番,富田団地79棟南側,34.8205412,135.602477
大阪府,高槻市,58-2,牧田町14番,富田団地90棟南側,34.8206293,135.6007787
大阪府,高槻市,58-3,牧田町14番,富田団地90棟西,34.8207511,135.6000997
大阪府,高槻市,58-4,牧田町15番,バス停富田団地,34.8223653,135.599685
大阪府,高槻市,58-5,牧田町15番,あさがお公園,34.82246,135.598965
大阪府,高槻市,58-6,牧田町26番3号,玉川牧田コミュニティセンター,34.8201472,135.5993476
大阪府,高槻市,58-7,川添1丁目18番,バス停富田団地中央,34.8225545,135.6024747
大阪府,高槻市,59-1,阿武野2丁目1番,阿武山小学校正門,34.8609217,135.5769723
大阪府,高槻市,59-2,阿武野2丁目10番,阿武野配水池西側フェンス,34.8602997,135.5778975
大阪府,高槻市,59-3,阿武野1丁目10番,バス停上の池公園,34.857081,135.5802005
大阪府,高槻市,59-4,奈佐原2丁目11番,ザ・ダイソー・やまや北側道路柵,34.8610654,135.5801239
大阪府,高槻市,59-5,大和1丁目24番,大和北公園,34.8611867,135.573326
大阪府,高槻市,59-6,奈佐原4丁目20番,バス停大阪医科薬科大学（薬学部）,34.8631281,135.5762635
大阪府,高槻市,59-7,大和2丁目9番,市道ガードレール,34.8612746,135.5722021
大阪府,高槻市,60-1,山手町1丁目5番,山手町公民館,34.8603866,135.6366814
大阪府,高槻市,60-2,山手町1丁目11番,山手橋南側,34.8614721,135.6384986
大阪府,高槻市,60-3,高垣町8番,安満遺跡公園北東サブエントランス水路,34.8584627,135.6346973
大阪府,高槻市,60-4,高垣町21番,水路,34.8570601,135.6366804
大阪府,高槻市,60-5,高垣町50番,阪急電鉄フェンス,34.8566375,135.6370935
大阪府,高槻市,60-6,高垣町61番,高垣町公園,34.8599839,135.6396031
大阪府,高槻市,60-7,高垣町17番,歩道柵,34.857967,135.6364372
大阪府,高槻市,61-1,安岡寺町1丁目61番,安岡寺小学校西入口,34.8726943,135.6027474
大阪府,高槻市,61-2,安岡寺町1丁目60番,安岡寺小学校北門,34.8733615,135.6039365
大阪府,高槻市,61-3,安岡寺町1丁目60番,安岡寺小学校南入口,34.8718407,135.6036861
大阪府,高槻市,61-4,安岡寺町1丁目2番,水路,34.8708049,135.601155
大阪府,高槻市,61-5,安岡寺町1丁目19番,あさがお児童遊園東,34.8737393,135.6032717
大阪府,高槻市,61-6,安岡寺町2丁目13番,安岡寺町2丁目13番地内水路柵,34.8758901,135.6032094
大阪府,高槻市,61-7,安岡寺町1丁目36番,めぐみの家北側,34.8737477,135.6079447
大阪府,高槻市,62-1,登町2番,府公社下田部C団地25棟東側公園,34.8292474,135.6208344
大阪府,高槻市,62-2,登町18番,masked,34.8257671,135.6204447
大阪府,高槻市,62-3,登町17番,masked,34.8269512,135.6212311
大阪府,高槻市,62-4,登町21番,masked,34.8248344,135.6198806
大阪府,高槻市,62-5,登町3番,A20棟西水路花壇,34.8283727,135.6196546
大阪府,高槻市,62-6,堤町3番,堤運動広場体育館正門,34.8275622,135.6181771
大阪府,高槻市,62-7,下田部町2丁目55番,水路,34.8311035,135.6194001
大阪府,高槻市,63-1,寿町2丁目8番,サンコーポ高槻ことぶき,34.8300476,135.5988219
大阪府,高槻市,63-2,寿町2丁目20番,寿町2丁目20番地内南側水路柵,34.8316177,135.6000039
大阪府,高槻市,63-3,寿町2丁目37番,しょうぶ児童遊園,34.830492,135.6016647
大阪府,高槻市,63-4,寿町3丁目4番,すいせん児童遊園北水路,34.8315606,135.6034305
大阪府,高槻市,63-5,寿町3丁目26番,水路,34.8304678,135.604847
大阪府,高槻市,63-6,寿町3丁目34番,水路,34.829301,135.6037377
大阪府,高槻市,63-7,寿町3丁目35番,さつき公園,34.8293197,135.6026997
大阪府,高槻市,64-1,津之江町1丁目19番,津之江1丁目さつき児童遊園,34.8432224,135.6109135
大阪府,高槻市,64-2,津之江町1丁目11番,城西橋西詰北側,34.8405586,135.6116044
大阪府,高槻市,64-3,津之江町1丁目36番,水路,34.8406733,135.6074028
大阪府,高槻市,64-4,津之江町1丁目37番,水路,34.8394783,135.607469
大阪府,高槻市,64-5,津之江町1丁目55番,水路,34.8394562,135.6057282
大阪府,高槻市,64-6,津之江町1丁目86番,水路,34.8405684,135.6054287
大阪府,高槻市,64-7,津之江町1丁目88番,しょうぶ児童遊園,34.8399796,135.6044505
大阪府,高槻市,65-1,松が丘3丁目9番,水路,34.8784159,135.6013547
大阪府,高槻市,65-2,松が丘3丁目30番,バス停松が丘南側,34.8798531,135.6016825
大阪府,高槻市,65-3,松が丘4丁目13番,うのはな児童遊園,34.8817668,135.5999904
大阪府,高槻市,65-4,清水台1丁目7番,北清水公民館東水路,34.878444,135.5983116
大阪府,高槻市,65-5,清水台1丁目7番,清水台第一公園入口,34.8787097,135.5979069
大阪府,高槻市,65-6,清水台2丁目1番,清水台第三公園,34.8794939,135.5957395
大阪府,高槻市,65-7,清水台1丁目,調整池,34.8774359,135.5980106
大阪府,高槻市,65-8,清水台2丁目4番,城山配水池南フェンス,34.8814624,135.5958635
大阪府,高槻市,66-1,西真上1丁目35番,こすもす児童遊園,34.8581835,135.6057878
大阪府,高槻市,66-2,西真上1丁目31番,殿町交差点北側,34.8562861,135.6070281
大阪府,高槻市,66-3,名神町14番,みどりが丘病院西側水路,34.8593944,135.604984
大阪府,高槻市,66-4,西真上2丁目17番,真上小学校正門,34.8581868,135.6006477
大阪府,高槻市,66-5,大蔵司1丁目1番,バス停名神町,34.8595942,135.6002582
大阪府,高槻市,66-6,西真上2丁目22番,道路柵,34.858475,135.6020482
大阪府,高槻市,66-7,大蔵司1丁目7番,ヴィレッジハウス服部宿舎,34.8581003,135.5986715
大阪府,高槻市,67-1,上土室3丁目14番,バス停上の池公園南,34.8551112,135.5796623
大阪府,高槻市,67-2,上土室4丁目5番,上土室公園,34.8534441,135.5786614
大阪府,高槻市,67-3,上土室4丁目,バス停日赤病院南,34.8533985,135.5768401
大阪府,高槻市,67-4,上土室2丁目8番,上土室二丁目ひなげし公園,34.8530527,135.5831377
大阪府,高槻市,67-5,奈佐原1丁目2番,阿武山中学校南側,34.8581475,135.5830814
大阪府,高槻市,67-6,奈佐原1丁目1番,四番街408棟東側,34.8580879,135.581415
大阪府,高槻市,67-7,奈佐原1丁目9番,阿武野橋西詰,34.8589234,135.5842867
大阪府,高槻市,68-1,奥天神町2丁目13番,つばき児童遊園,34.8635057,135.614096
大阪府,高槻市,68-2,天神町2丁目19番,元天神山第一配水池北側,34.8604588,135.6155202
大阪府,高槻市,68-3,天神町2丁目31番,第2天神山荘西側水路,34.8612748,135.6151106
大阪府,高槻市,68-4,奥天神町2丁目13番,市道真上町520号線フェンス,34.8624235,135.6133487
大阪府,高槻市,68-5,天神町2丁目6番,うのはな児童遊園,34.8578495,135.6148544
大阪府,高槻市,68-6,月見町3番,なでしこ児童遊園,34.8577567,135.6136796
大阪府,高槻市,68-7,月見町5番,道路柵,34.8572,135.6124888
大阪府,高槻市,68-8,月見町13番,月見町第一公園,34.8590334,135.6109826
大阪府,高槻市,69-1,阿武野1丁目6番,バス停日赤病院前,34.8553036,135.5755573
大阪府,高槻市,69-2,阿武野1丁目15番,バス停大和,34.8603503,135.575189
大阪府,高槻市,69-3,塚原1丁目12番,塚原中央公園,34.8556102,135.5748945
大阪府,高槻市,69-4,塚原2丁目,塚原第二公園,34.8560667,135.5683355
大阪府,高槻市,69-5,塚原2丁目,さるぴあ児童遊園,34.8577119,135.5717619
大阪府,高槻市,69-6,塚原3丁目16番,あさがお児童遊園,34.8551739,135.5683776
大阪府,高槻市,70-1,白梅町7番,関西大学高槻ミューズキャンパス北側フェンス,34.8557209,135.622397
大阪府,高槻市,70-2,白梅町1番,JR高槻駅北側地下通路外側,34.8520833,135.617664
大阪府,高槻市,70-3,白梅町5番,弁天公園,34.8542109,135.6216561
大阪府,高槻市,70-4,古曽部町2丁目5番,メゾン高槻古曽部西側水路,34.8560785,135.6238925
大阪府,高槻市,70-5,古曽部町2丁目16番,ヴィラソレーユ高槻北側,34.8573708,135.6236985
大阪府,高槻市,70-6,古曽部町1丁目1番,高槻市シルバー人材センター,34.8549961,135.6190869
大阪府,高槻市,70-7,古曽部町1丁目4番,愛仁会高槻病院,34.8552468,135.6206086
