prefecture,city,number,address,name,lat,long,note
埼玉県,さいたま市,1-1-1,西区大字峰岸14番地5,穂積神社遊園地 入口フェンス,35.929054,139.557648,緯度経度は怪しい
埼玉県,さいたま市,1-1-2,西区大字峰岸68番地,masked,35.93248,139.555527,緯度経度は怪しい
埼玉県,さいたま市,1-1-3,西区大字峰岸83番地8,峰岸北公園 東側フェンス,35.93248,139.555527,緯度経度は怪しい
埼玉県,さいたま市,1-1-4,西区大字宝来413番地,masked,35.926792,139.55452,緯度経度は怪しい
埼玉県,さいたま市,1-1-5,西区大字宝来880番地1,北部配水場 東側フェンス,35.923031,139.556458,緯度経度は怪しい
埼玉県,さいたま市,1-1-6,西区大字宝来1280番地2,中宝来自治会館 北側水路フェンス,35.922459,139.559616,緯度経度は怪しい
埼玉県,さいたま市,1-1-7,西区大字宝来1062番地,大宮国際カントリー 入口看板の反対側水路フェンス,35.920719,139.555923,緯度経度は怪しい
埼玉県,さいたま市,1-2-1,西区大字中釘1506番地1,市立指扇北小学校 北側正門 水路フェンス,35.932861,139.57132,緯度経度は怪しい
埼玉県,さいたま市,1-2-2,西区大字中釘2060番地,中釘自治会館 東側ブロック塀,35.938263,139.571457,緯度経度は怪しい
埼玉県,さいたま市,1-2-3,西区大字高木1572番地6,高木天神公園 南側フェンス,35.938393,139.576187,緯度経度は怪しい
埼玉県,さいたま市,1-2-4,西区西大宮4丁目25番地2,高木第二最終処分場水処理施設 南側フェンス,35.9308973,139.5775059,
埼玉県,さいたま市,1-2-5,西区大字中釘1241番地,秋葉の森総合公園 駐車場入口脇の植込み,35.934654,139.564987,緯度経度は怪しい
埼玉県,さいたま市,1-2-6,西区西大宮4丁目49番地,西大宮4丁目第一公園 西側フェンス,35.932396,139.576645,緯度経度は怪しい
埼玉県,さいたま市,1-2-7,西区大字高木567番地3,市立指扇保育園 東側フェンス,35.927971,139.570801,緯度経度は怪しい
埼玉県,さいたま市,1-2-8,西区大字中釘806番地,秋葉神社公園 南側フェンス,35.930702,139.564728,緯度経度は怪しい
埼玉県,さいたま市,1-3-1,西区西大宮3丁目4番地2,西区役所西側駐車場 南側の植込み,35.9252445,139.5798299,
埼玉県,さいたま市,1-3-2,西区大字指扇1653番地1,古茂塚北公園 北側の植込み,35.917908,139.582886,緯度経度は怪しい
埼玉県,さいたま市,1-3-3,西区大字清河寺619番地3,清河寺バス停 東側道路フェンス,35.934799,139.584106,緯度経度は怪しい
埼玉県,さいたま市,1-3-4,西区西大宮1丁目43番地,西大宮1丁目第二公園 北側フェンス,35.923676,139.575012,緯度経度は怪しい
埼玉県,さいたま市,1-3-5,西区大字清河寺1260番地1,三共リース(株) 道路向かい側の路肩,35.93198,139.588974,緯度経度は怪しい
埼玉県,さいたま市,1-3-6,西区西大宮3丁目48番地,西消防署 南側フェンス,35.929474,139.580673,緯度経度は怪しい
埼玉県,さいたま市,1-3-7,西区西大宮1丁目5番地2,西大宮1丁目第一公園 北側フェンス,35.923607,139.5813297,
埼玉県,さいたま市,1-3-8,西区西大宮3丁目12番地2,西大宮3丁目第一公園 西側フェンス,35.9262096,139.5801678,
埼玉県,さいたま市,1-4-1,西区大字内野本郷965番地1,内野本郷大空公園 西側フェンス,35.937561,139.592224,緯度経度は怪しい
埼玉県,さいたま市,1-4-2,西区大字西新井124番地,大宮花の丘農林公苑 西側駐車場南側フェンス,35.939819,139.589905,緯度経度は怪しい
埼玉県,さいたま市,1-4-3,西区大字西新井64番地5,西新井自治会館 西側正門 右側フェンス,35.939011,139.586533,緯度経度は怪しい
埼玉県,さいたま市,1-4-4,西区大字内野本郷971番地63,上野原北公園 東側フェンス,35.938427,139.591812,緯度経度は怪しい
埼玉県,さいたま市,1-4-5,西区大字内野本郷693番地16,共栄橋付近 歩道フェンス,35.937901,139.594086,緯度経度は怪しい
埼玉県,さいたま市,1-4-6,西区大字内野本郷550番地6,セキ薬局・ミニストップの間 歩道植込み,35.935642,139.593903,緯度経度は怪しい
埼玉県,さいたま市,1-4-7,西区大字内野本郷449番地1,内野本郷バス停向かい側 歩道植込み,35.934547,139.592422,緯度経度は怪しい
埼玉県,さいたま市,1-5-1,西区宮前町1634番地,宮前町二丁目自治会館 西側,35.92947,139.595383,緯度経度は怪しい
埼玉県,さいたま市,1-5-2,西区宮前町1467番地,市立宮前中学校 北西側フェンス,35.929565,139.59819,緯度経度は怪しい
埼玉県,さいたま市,1-5-3,西区宮前町822番地2,(株)日新化成 向かい側道路フェンス,35.929073,139.584137,緯度経度は怪しい
埼玉県,さいたま市,1-5-4,西区宮前町1467番地,市立宮前中学校 南西側フェンス,35.929565,139.59819,緯度経度は怪しい
埼玉県,さいたま市,1-5-5,西区宮前町832番地1,masked,35.926125,139.589905,緯度経度は怪しい
埼玉県,さいたま市,1-5-6,西区宮前町1102番地1,宮前IC付近 道路フェンス,35.92725,139.589035,緯度経度は怪しい
埼玉県,さいたま市,1-5-7,西区宮前町376番地4,宮前公園 西側フェンス,35.924,139.595184,緯度経度は怪しい
埼玉県,さいたま市,1-6-1,西区三橋6丁目1558番地,市立大宮西中学校 西側フェンス,35.919586,139.589874,緯度経度は怪しい
埼玉県,さいたま市,1-6-2,西区三橋6丁目1709番地3,三橋プール 南側フェンス,35.921919,139.5852141,
埼玉県,さいたま市,1-6-3,西区三橋6丁目1587番地,総合療育センターひまわり学園 西側入口 左側フェンス,35.920925,139.590118,緯度経度は怪しい
埼玉県,さいたま市,1-6-4,西区宮前町541番地11,県南交通前交差点 北東向側フェンス,35.924973,139.588959,緯度経度は怪しい
埼玉県,さいたま市,1-6-5,西区三橋6丁目1181番地5,シティハイツ大宮三橋 8号棟西側フェンス,35.9171841,139.5852798,
埼玉県,さいたま市,1-6-6,西区三橋6丁目1181番地7,西第二公園 南側フェンス,35.916924,139.585587,緯度経度は怪しい
埼玉県,さいたま市,1-6-7,西区三橋6丁目1048番地1,西第三公園 南側フェンス(西部文化センターの向い側),35.917885,139.591019,緯度経度は怪しい
埼玉県,さいたま市,1-6-8,西区三橋6丁目1587番地,総合療育センターひまわり学園 南側フェンス,35.920925,139.590118,緯度経度は怪しい
埼玉県,さいたま市,1-7-1,西区三橋6丁目381番地1,市立三橋西保育園 入口西側フェンス,35.9128889,139.5860514,
埼玉県,さいたま市,1-7-2,西区三橋6丁目605番地2,県営大宮三橋西団地1号棟 南側フェンス,35.916424,139.589478,緯度経度は怪しい
埼玉県,さいたま市,1-7-3,西区三橋5丁目560番地4,三橋5丁目公園 西側フェンス,35.911041,139.594635,緯度経度は怪しい
埼玉県,さいたま市,1-7-4,西区三橋6丁目1218番地,三橋6丁目児童公園 東側植え込み,35.915203,139.585632,緯度経度は怪しい
埼玉県,さいたま市,1-7-5,西区三橋6丁目260番地,三橋6丁目南公園 北側フェンス,35.912514,139.591232,緯度経度は怪しい
埼玉県,さいたま市,1-7-6,西区三橋5丁目20番地2,三橋総合公園 北側駐車場入口 右側,35.914188,139.59404,緯度経度は怪しい
埼玉県,さいたま市,1-7-7,西区三橋5丁目790番地5,三橋総合公園 南側進入口の先のフェンス内,35.909534,139.595825,緯度経度は怪しい
埼玉県,さいたま市,1-8-1,西区三橋5丁目1359番地,市立大宮西小学校 校門横フェンス,35.904217,139.590866,緯度経度は怪しい
埼玉県,さいたま市,1-8-2,西区三橋5丁目936番地2,青葉公園 北側フェンス,35.906685,139.593475,緯度経度は怪しい
埼玉県,さいたま市,1-8-3,西区大字水判土388番地1,水判土公園チビッコ広場 北側,35.902039,139.590469,緯度経度は怪しい
埼玉県,さいたま市,1-8-4,西区三橋5丁目938番地,三橋5丁目自治会館 西側ブロック塀,35.906685,139.593475,緯度経度は怪しい
埼玉県,さいたま市,1-8-5,西区三橋5丁目1862番地,三橋5丁目東公園 入口,35.904205,139.595261,緯度経度は怪しい
埼玉県,さいたま市,1-8-6,西区三橋5丁目2212番地1,三橋5丁目南公園 東側フェンス,35.901672,139.594208,緯度経度は怪しい
埼玉県,さいたま市,1-8-7,西区大字水判土62番地1,水判土交差点 北側市有地 (馬防柵),35.898724,139.590897,緯度経度は怪しい
埼玉県,さいたま市,1-9-1,西区大字佐知川299番地16,春光園うえみず 入口西側フェンス,35.903896,139.587372,緯度経度は怪しい
埼玉県,さいたま市,1-9-2,西区大字佐知川228番地118,佐知川原公園 東側フェンス,35.905983,139.587494,緯度経度は怪しい
埼玉県,さいたま市,1-9-3,西区大字佐知川385番地19,佐知川原第3公園 北側フェンス,35.905643,139.586243,緯度経度は怪しい
埼玉県,さいたま市,1-9-4,西区大字佐知川221番地1,市立大宮西小学校 南西角フェンス,35.90369,139.590057,緯度経度は怪しい
埼玉県,さいたま市,1-9-5,西区大字佐知川1123番地1,masked,35.900265,139.583954,緯度経度は怪しい
埼玉県,さいたま市,1-9-6,西区大字佐知川1123番地1,masked,35.900265,139.583954,緯度経度は怪しい
埼玉県,さいたま市,1-9-7,西区大字佐知川粕田44番地,佐知川公園 東側フェンス,35.902847,139.583389,緯度経度は怪しい
埼玉県,さいたま市,1-10-1,西区プラザ46番18号,大宮プラザ自治会館入口フェンス(中央通り側),35.9071221,139.5792292,
埼玉県,さいたま市,1-10-2,西区プラザ339番25号,プラザ3号公園 西側フェンス,35.907539,139.578201,緯度経度は怪しい
埼玉県,さいたま市,1-10-3,西区プラザ444番57号,プラザ1号公園 北側フェンス,35.907539,139.578201,緯度経度は怪しい
埼玉県,さいたま市,1-10-4,西区プラザ754番28号,プラザ中央公園 北側フェンス,35.907539,139.578201,緯度経度は怪しい
埼玉県,さいたま市,1-10-5,西区プラザ36番,愛徳幼稚園 西向側(水路側)フェンス,35.906045,139.5778966,
埼玉県,さいたま市,1-10-6,西区プラザ754番28号,プラザ中央公園 南側フェンス,35.907539,139.578201,緯度経度は怪しい
埼玉県,さいたま市,1-10-7,西区プラザ620番87号,プラザ2号公園 北側フェンス,35.907539,139.578201,緯度経度は怪しい
埼玉県,さいたま市,1-10-8,西区大字佐知川1471番地1,金山墓地 北側ブロック塀,35.901707,139.578186,緯度経度は怪しい
埼玉県,さいたま市,1-11-1,西区大字指扇325番地17,五味貝戸東公園 北側入口フェンス,35.909416,139.585571,緯度経度は怪しい
埼玉県,さいたま市,1-11-2,西区大字指扇1185番地6,下戸緑地公園南側,35.911564,139.579773,緯度経度は怪しい
埼玉県,さいたま市,1-11-3,西区大字指扇636番地2,井戸尻公園 東側フェンス,35.908787,139.57988,緯度経度は怪しい
埼玉県,さいたま市,1-11-4,西区大字指扇1078番地,県営大宮指扇団地 北西側水路フェンス,35.912338,139.579285,緯度経度は怪しい
埼玉県,さいたま市,1-11-5,西区大字指扇291番地,指扇道下公園 西側フェンス,35.909008,139.585434,緯度経度は怪しい
埼玉県,さいたま市,1-11-6,西区大字指扇1570番地13,古茂塚第二公園 南側フェンス,35.916065,139.58168,緯度経度は怪しい
埼玉県,さいたま市,1-11-7,西区大字指扇104番地9,青葉西公園 東側フェンス,35.908276,139.588547,緯度経度は怪しい
埼玉県,さいたま市,1-11-8,西区大字指扇331番地,五味貝戸自治会館 東側ブロック塀,35.909008,139.585434,緯度経度は怪しい
埼玉県,さいたま市,1-12-1,西区西大宮1丁目49番地34,市立指扇小学校 西側正門横フェンス,35.9221842,139.5722706,
埼玉県,さいたま市,1-12-2,西区大字指扇3363番地7,大西公園 南側フェンス(LM大宮指扇第2の北側),35.918468,139.577301,緯度経度は怪しい
埼玉県,さいたま市,1-12-3,西区大字指扇領別所109番地3,宮脇公園 西側フェンス,35.923187,139.567398,緯度経度は怪しい
埼玉県,さいたま市,1-12-4,西区大字宝来1656番地39,指扇駅北口ロータリー 中央植え込み,35.917316,139.564911,緯度経度は怪しい
埼玉県,さいたま市,1-12-5,西区大字指扇領別所382番地110,住友2号公園 南側フェンス,35.9221,139.564026,緯度経度は怪しい
埼玉県,さいたま市,1-12-6,西区大字指扇領別所109番地48,住友3号公園 北側フェンス,35.923187,139.567398,緯度経度は怪しい
埼玉県,さいたま市,1-12-7,西区大字高木300番地31,指扇団地公園 南側フェンス,35.92598,139.56958,緯度経度は怪しい
埼玉県,さいたま市,1-12-8,西区大字宝来1760番地11,大宮宝来ハイツ公園 南側フェンス,35.919125,139.558456,緯度経度は怪しい
埼玉県,さいたま市,1-13-1,西区大字指扇2804番地1,赤羽自治会館入口付近フェンス,35.916328,139.570984,緯度経度は怪しい
埼玉県,さいたま市,1-13-2,西区大字指扇2856番地245,指扇台東公園 西側フェンス,35.916344,139.572159,緯度経度は怪しい
埼玉県,さいたま市,1-13-3,西区大字指扇2826番地3,鎮守公園 東側フェンス,35.916344,139.572159,緯度経度は怪しい
埼玉県,さいたま市,1-13-4,西区大字指扇2617番地2,赤羽根第1公園 南東側フェンス,35.916573,139.567383,緯度経度は怪しい
埼玉県,さいたま市,1-13-5,西区大字指扇2809番地1,指扇氷川神社 南側入口付近,35.916344,139.572159,緯度経度は怪しい
埼玉県,さいたま市,1-13-6,西区大字指扇1958番地143,やよい公園 東側フェンス,35.914452,139.574799,緯度経度は怪しい
埼玉県,さいたま市,1-13-7,西区大字指扇1958番地269,わかば公園 南側フェンス,35.914452,139.574799,緯度経度は怪しい
埼玉県,さいたま市,1-14-1,西区大字土屋1766番地1,市立土屋中学校 西側フェンス,35.911091,139.571518,緯度経度は怪しい
埼玉県,さいたま市,1-14-2,西区大字土屋1752番地5,大宮土屋ハイツ公園 西側フェンス,35.911747,139.568466,緯度経度は怪しい
埼玉県,さいたま市,1-14-3,西区大字指扇2285番地,琵琶島公園 北東側フェンス,35.912777,139.572601,緯度経度は怪しい
埼玉県,さいたま市,1-14-4,西区大字土屋258番地1,市立土屋中学校グランド 北東側フェンス,35.911091,139.571518,緯度経度は怪しい
埼玉県,さいたま市,1-14-5,西区大字土屋262番地1,市立土屋中学校 南東側フェンス,35.911091,139.571518,緯度経度は怪しい
埼玉県,さいたま市,1-14-6,西区大字土屋217番地,土屋公園 東側フェンス,35.909801,139.569824,緯度経度は怪しい
埼玉県,さいたま市,1-14-7,西区大字指扇1118番地46,下戸公園 西側フェンス,35.90966,139.578537,緯度経度は怪しい
埼玉県,さいたま市,1-14-8,西区大字指扇2220番地2,さいたま春日部線沿い 道路フェンス,35.913387,139.574432,緯度経度は怪しい
埼玉県,さいたま市,1-15-1,西区大字西遊馬1601番地,大宮武蔵野高等学校 東側正門隣水路フェンス,35.909317,139.560532,緯度経度は怪しい
埼玉県,さいたま市,1-15-2,西区大字西遊馬1969番地7,西遊馬団地 遊水池フェンス(西遊馬団地2号棟の北側),35.918285,139.553085,緯度経度は怪しい
埼玉県,さいたま市,1-15-3,西区大字西遊馬1962番地6,西遊馬団地公園 北側,35.906818,139.561447,緯度経度は怪しい
埼玉県,さいたま市,1-15-4,西区大字西遊馬1441番地1,西遊馬上サ自治会館 入口左側,35.912121,139.561172,緯度経度は怪しい
埼玉県,さいたま市,1-15-5,西区大字西遊馬899番地3,西遊馬公園管理事務所 西側フェンス,35.904137,139.561264,緯度経度は怪しい
埼玉県,さいたま市,1-15-6,西区大字西遊馬980番地1,西遊馬本村自治会館 北側フェンス,35.909027,139.564423,緯度経度は怪しい
埼玉県,さいたま市,1-15-7,西区大字西遊馬1556番地5,西遊馬北公園 南側フェンス,35.911991,139.56398,緯度経度は怪しい
埼玉県,さいたま市,1-16-1,西区大字飯田新田189番地2,市立馬宮西小学校 北側正門横フェンス,35.885693,139.559006,緯度経度は怪しい
埼玉県,さいたま市,1-16-2,西区湯木町1丁目53番地3,湯木自治会館 南側フェンス,35.8951519,139.5553738,
埼玉県,さいたま市,1-16-3,西区大字飯田新田318番地,飯田新田集会場 西側ブロック塀,35.886154,139.553116,緯度経度は怪しい
埼玉県,さいたま市,1-16-4,西区大字飯田新田560番地3,さいたまふじみ野所沢線沿い 道路フェンス,35.883953,139.556061,緯度経度は怪しい
埼玉県,さいたま市,1-16-5,西区大字飯田新田189番地2,市立馬宮西小学校 東側フェンス,35.885693,139.559006,緯度経度は怪しい
埼玉県,さいたま市,1-16-6,西区大字植田谷本村新田179番地4,masked,35.883282,139.560532,緯度経度は怪しい
埼玉県,さいたま市,1-16-7,西区塚本町2丁目152番地,塚本公園 北側フェンス,35.876247,139.561462,緯度経度は怪しい
埼玉県,さいたま市,1-17-1,西区大字二ツ宮589番地1,市立馬宮中学校 西側正門横フェンス,35.89872,139.579361,緯度経度は怪しい
埼玉県,さいたま市,1-17-2,西区大字西遊馬307番地1,西消防署西遊馬出張所 北東側フェンス,35.903496,139.575287,緯度経度は怪しい
埼玉県,さいたま市,1-17-3,西区大字西遊馬533番地1,馬宮コミュニティセンター 正面入口脇,35.905651,139.571976,緯度経度は怪しい
埼玉県,さいたま市,1-17-4,西区大字西遊馬189番地1,市立馬宮東小学校 南側フェンス,35.904213,139.571411,緯度経度は怪しい
埼玉県,さいたま市,1-17-5,西区大字西遊馬119番地,市立馬宮保育園 東側フェンス,35.901653,139.573914,緯度経度は怪しい
埼玉県,さいたま市,1-17-6,西区大字二ツ宮466番地,二ツ宮氷川神社 向かい側水路フェンス,35.897102,139.580566,緯度経度は怪しい
埼玉県,さいたま市,1-17-7,西区大字二ツ宮43番地2,masked,35.892509,139.57785,緯度経度は怪しい
埼玉県,さいたま市,1-18-1,西区大字中野林173番地2,植水公民館・植水支所 東側フェンス,35.893837,139.591293,緯度経度は怪しい
埼玉県,さいたま市,1-18-2,西区大字飯田341番地1,観音堂西側ブロック塀,35.89661,139.585144,緯度経度は怪しい
埼玉県,さいたま市,1-18-3,西区大字中野林225番地1,市立植水小学校 北側フェンス,35.894073,139.594513,緯度経度は怪しい
埼玉県,さいたま市,1-18-4,西区大字中野林225番地1,市立植水小学校 西側正門横フェンス,35.894073,139.594513,緯度経度は怪しい
埼玉県,さいたま市,1-18-5,西区大字中野林463番地2,大宮みどりが丘幼稚園南側(向い側) フェンス,35.894207,139.586929,緯度経度は怪しい
埼玉県,さいたま市,1-18-6,西区大字中野林790番地12,masked,35.890186,139.579437,緯度経度は怪しい
埼玉県,さいたま市,1-18-7,西区大字中野林880番地1,masked,35.887791,139.580765,緯度経度は怪しい
埼玉県,さいたま市,1-19-1,西区大字島根602番地,masked,35.885128,139.59465,緯度経度は怪しい
埼玉県,さいたま市,1-19-2,西区大字植田谷本516番地17,前通北公園 南西側フェンス,35.893169,139.595688,緯度経度は怪しい
埼玉県,さいたま市,1-19-3,西区大字植田谷本605番地,masked,35.891045,139.595016,緯度経度は怪しい
埼玉県,さいたま市,1-19-4,西区大字植田谷本137番地1,加茂川団地16号棟東側フェンス,35.887135,139.596832,緯度経度は怪しい
埼玉県,さいたま市,1-19-5,西区大字植田谷本137番地1,加茂川団地21号棟西側 調整池フェンス,35.887135,139.596832,緯度経度は怪しい
埼玉県,さいたま市,1-19-6,西区大字植田谷本137番地1,加茂川団地2号棟 南側フェンス,35.887135,139.596832,緯度経度は怪しい
埼玉県,さいたま市,1-19-7,西区大字島根458番地,masked,35.885574,139.598602,緯度経度は怪しい
埼玉県,さいたま市,2-1-1,北区別所町42番地1,市立大宮別所小学校西側フェンス,35.9545164289669,139.597127052425,
埼玉県,さいたま市,2-1-2,北区別所町34番地,神明公園北側フェンス,35.9545500139825,139.598579506706,
埼玉県,さいたま市,2-1-3,北区別所町67番地,庚申公園南側フェンス,35.9579094640482,139.598497506095,
埼玉県,さいたま市,2-1-4,北区別所町75番地,東公園西側フェンス,35.9602995374483,139.596399634122,
埼玉県,さいたま市,2-1-5,北区別所町95番地,別所公園南側フェンス,35.957140382065,139.594534201242,
埼玉県,さいたま市,2-1-6,北区別所町119番地,小山公園北側フェンス,35.9603778386647,139.590926450915,
埼玉県,さいたま市,2-1-7,北区別所町1000番地38,別所北公園南側フェンス,35.9539184013586,139.593989731084,
埼玉県,さいたま市,2-1-8,北区別所町1125番地20,滝宮公園南側フェンス,35.9586133724478,139.599498393571,
埼玉県,さいたま市,2-2-1,北区吉野町2丁目251番地5,吉野緑地公園北側,35.9593577296147,139.612216550023,
埼玉県,さいたま市,2-2-2,北区吉野町1丁目408番地1,浅間公園北側フェンス,35.9569933398513,139.610642608214,
埼玉県,さいたま市,2-2-3,北区吉野町2丁目18番地7,吉野団地公園東側フェンス,35.9540659668408,139.603922421991,
埼玉県,さいたま市,2-2-4,北区吉野町2丁目25番地1,諏訪公園東側フェンス,35.95534926662,139.602506051051,
埼玉県,さいたま市,2-2-5,北区吉野町2丁目213番地,つつじヶ丘公園西側フェンス,35.9580417475144,139.604547602943,
埼玉県,さいたま市,2-2-6,北区吉野町2丁目195番地1,宮原コミュニティセンター南側駐車場入口付近,35.9581739576531,139.600834796107,
埼玉県,さいたま市,2-2-7,北区吉野町2丁目236番地1,神山公園北側フェンス,35.9625728823406,139.609556515051,
埼玉県,さいたま市,2-3-1,北区今羽町596番地,市立泰平中学校西側フェンス,35.9488107495946,139.625695207864,
埼玉県,さいたま市,2-3-2,北区今羽町477番地24,今羽町団地中央公園西側入口横フェンス,35.9476657578512,139.623706060193,
埼玉県,さいたま市,2-3-3,北区今羽町244番地2,masked,35.9543079925918,139.621843862814,
埼玉県,さいたま市,2-3-4,北区今羽町477番地32,今羽町団地西公園南側フェンス,35.9481527791879,139.622849250878,
埼玉県,さいたま市,2-3-5,北区今羽町628番地,市立泰平小学校西側フェンス,35.9500648869542,139.625242538748,
埼玉県,さいたま市,2-3-6,北区今羽町114番地2,今羽中公園東側,35.951353633875,139.621853954275,
埼玉県,さいたま市,2-3-7,北区今羽町477番地3,リ・コンフェリーレ今羽町南 中島都市下水路北側,35.9473646117148,139.622207987386,
埼玉県,さいたま市,2-4-1,北区宮原町4丁目66番地4,宮原公民館東側,35.9470580903784,139.61128047623,
埼玉県,さいたま市,2-4-2,北区宮原町4丁目42番地,松原公園南側フェンス,35.9460382518901,139.615073222954,
埼玉県,さいたま市,2-4-3,北区吉野町1丁目8番地5,前谷公園西側,35.9473254903682,139.618648918651,
埼玉県,さいたま市,2-4-4,北区吉野町1丁目42番地,仲原公園西側フェンス,35.9517252592297,139.617503546379,
埼玉県,さいたま市,2-4-5,北区吉野町1丁目379番地1,吉野公園西側フェンス,35.9526847435327,139.611532110945,
埼玉県,さいたま市,2-4-6,北区吉野町1丁目385番地1,夷屋公園東側フェンス,35.9525070409342,139.609176077729,
埼玉県,さいたま市,2-4-7,北区吉野町1丁目379番地1,吉野公園南側フェンス,35.9527189142051,139.613300581656,
埼玉県,さいたま市,2-4-8,北区宮原町4丁目42番地,松原公園北側植込み,35.9472880981308,139.613674449804,
埼玉県,さいたま市,2-5-1,北区宮原町4丁目102番地6,市立宮原小学校西側フェンス,35.948593327729,139.606176160073,
埼玉県,さいたま市,2-5-2,北区宮原町4丁目115番地,鍛治公園東側フェンス,35.9495442693176,139.603403859714,
埼玉県,さいたま市,2-5-3,北区宮原町4丁目121番地,領家北公園北側 入口右側フェンス,35.9511448846326,139.606024859389,
埼玉県,さいたま市,2-5-4,北区宮原町4丁目129番地,市立宮原中学校北側フェンス,35.9528089826294,139.606201782266,
埼玉県,さいたま市,2-5-5,北区宮原町4丁目91番地,領家中央公園南側フェンス,35.9494883596778,139.609058236431,
埼玉県,さいたま市,2-5-6,北区宮原町4丁目19番地,領家南公園東側フェンス,35.9475068915092,139.608873179669,
埼玉県,さいたま市,2-5-7,北区宮原町4丁目98番地2,宮原4丁目公園東側入口右側フェンス,35.9469307541077,139.605662824688,
埼玉県,さいたま市,2-6-1,北区奈良町125番地6,市立奈良保育園西側フェンス,35.9491887007191,139.597874294059,
埼玉県,さいたま市,2-6-2,北区奈良町136番地先,奈良町BC団地4号棟西向側フェンス,35.9501750470709,139.595462696821,
埼玉県,さいたま市,2-6-3,北区奈良町136番地50,奈良町BC団地3号棟南側奈良公園フェンス,35.9500406585085,139.597288693492,
埼玉県,さいたま市,2-6-4,北区奈良町165番地3,奈良北公園北側フェンス,35.9529714657313,139.594125391096,
埼玉県,さいたま市,2-6-5,北区奈良町162番地8,松本医院北側水路フェンス,35.9537706791058,139.594354337081,
埼玉県,さいたま市,2-6-6,北区奈良町135番地3,masked,35.9488606565318,139.597252076173,
埼玉県,さいたま市,2-6-7,北区奈良町134番地2,masked,35.9483164322947,139.597709945159,
埼玉県,さいたま市,2-7-1,北区奈良町91番地1,市立大宮北高等学校北側フェンス,35.9463310771365,139.600808308103,
埼玉県,さいたま市,2-7-2,北区奈良町79番地78,奈良団地第2公園東側 入口左側フェンス,35.9458026960987,139.599683233615,
埼玉県,さいたま市,2-7-3,北区奈良町91番地1,市立大宮北高等学校東側フェンス,35.9456248870191,139.601694913462,
埼玉県,さいたま市,2-7-4,北区奈良町94番地2,奈良町自治会館東側フェンス,35.9478773554527,139.601718600421,
埼玉県,さいたま市,2-7-5,北区奈良町79番地135,奈良団地第1公園西側フェンス,35.9445106241431,139.599351295042,
埼玉県,さいたま市,2-7-6,北区奈良町91番地1,市立大宮北高等学校南側フェンス,35.9439379660177,139.600999538144,
埼玉県,さいたま市,2-7-7,北区奈良町30番地10,さいたま市ふれあい広場西側フェンス,35.9464902386595,139.60384555915,
埼玉県,さいたま市,2-8-1,北区日進町3丁目209番地,市立日進北小学校西側正門横フェンス,35.9368905889885,139.60288890104,
埼玉県,さいたま市,2-8-2,北区日進町3丁目278番地2,西谷第2公園内北側フェンス,35.9355729466471,139.6004207704,
埼玉県,さいたま市,2-8-3,北区日進町3丁目209番地,市立日進北小学校北側フェンス,35.9373498869346,139.604338366732,
埼玉県,さいたま市,2-8-4,北区日進町3丁目389番地,masked,35.9376624507714,139.598773979006,
埼玉県,さいたま市,2-8-5,北区日進町3丁目478番地2,宇賀神会計事務所南側畑,35.9380297730535,139.60643326583,
埼玉県,さいたま市,2-8-6,北区日進町3丁目698番地,県営大宮日進あかしや団地東側フェンス,35.9397565100151,139.60394992728,
埼玉県,さいたま市,2-8-7,北区日進町3丁目717番地,県営大宮日進さつき団地南側フェンス,35.9391474534775,139.605165220891,
埼玉県,さいたま市,2-9-1,北区日進町2丁目1915番地4,産業振興会館北側入口付近,35.9335254866878,139.608989402406,
埼玉県,さいたま市,2-9-2,北区日進町3丁目32番地8,西谷第1公園西側入口右側フェンス,35.9335846219521,139.601171695193,
埼玉県,さいたま市,2-9-3,北区日進町2丁目1125番地,日進駅第1自転車駐車場 北側フェンス,35.9323170055642,139.607416433477,
埼玉県,さいたま市,2-9-4,北区日進町3丁目209番地,市立日進北小学校南側フェンス,35.9360442363507,139.603734225736,
埼玉県,さいたま市,2-9-5,北区日進町2丁目1464番地,番場公園東側フェンス,35.9342546873126,139.599276567287,
埼玉県,さいたま市,2-9-6,北区日進町2丁目1499番地,上加自然の森北西角木柵,35.9333596229905,139.600134901205,
埼玉県,さいたま市,2-9-7,北区日進町2丁目1464番地,番場公園東側フェンス(花と木の広場入口付近),35.931103249388,139.600006211619,
埼玉県,さいたま市,2-9-8,北区日進町2丁目1916番地2他,うねうね公園北側入口付近 鉄塔横,35.935334781325,139.608727830013,
埼玉県,さいたま市,2-10-1,北区宮原町3丁目282番地,宮原町3丁目自治会館南側入口横フェンス,35.9389825734328,139.611986807102,
埼玉県,さいたま市,2-10-2,北区宮原町3丁目364番地1 北中ビル南側,宮原駅東口公園,35.9411877977732,139.609716459763,
埼玉県,さいたま市,2-10-3,北区宮原町3丁目,宮原駅西口ロータリー植込み,35.9399628360306,139.608963342035,
埼玉県,さいたま市,2-10-4,北区宮原町3丁目547番地付近,宮原ロイヤルハイツ東側 水路フェンス,35.939832719321,139.607971837646,
埼玉県,さいたま市,2-10-5,北区東大成町2丁目741番地,ロイヤルシティ北側 東大成2丁目北公園北側フェンス,35.9342164980825,139.612467789611,
埼玉県,さいたま市,2-10-6,北区宮原町3丁目439番地2,masked,35.9422018310643,139.606946940966,
埼玉県,さいたま市,2-10-7,北区宮原町3丁目581番地先,サンパーク宮原西No4  西側水路フェンス,35.9385726177024,139.608574917689,
埼玉県,さいたま市,2-11-1,北区宮原町2丁目39番地,宮原町2丁目自治会館西側入口横フェンス,35.9414506408235,139.6140237845,
埼玉県,さいたま市,2-11-2,北区宮原町2丁目39番地,宮原町2丁目自治会館東側入口横フェンス,35.9417255114019,139.614894217616,
埼玉県,さいたま市,2-11-3,北区宮原町2丁目74番地,宮原南公園東側フェンス,35.9406221175382,139.61834750541,
埼玉県,さいたま市,2-11-4,北区宮原町2丁目79番地,宮原公園北側フェンス,35.9419463723745,139.616953886217,
埼玉県,さいたま市,2-11-5,北区宮原町2丁目98番地,原殿公園南側フェンス,35.9456757943259,139.617597811119,
埼玉県,さいたま市,2-11-6,北区宮原町2丁目125番地,東宮原ぼうさい広場南側,35.9431467114584,139.620961718756,
埼玉県,さいたま市,2-11-7,北区宮原町2丁目98番地,原殿公園北側フェンス,35.9461446522821,139.617289385371,
埼玉県,さいたま市,2-11-8,北区宮原町2丁目125番地,東宮原ぼうさい広場西側駐車場入口付近,35.9429344398344,139.619282499742,
埼玉県,さいたま市,2-12-1,北区本郷町1番地,市立大砂土小学校東側フェンス,35.9376680476081,139.628104827973,
埼玉県,さいたま市,2-12-2,北区本郷町1番地,市立大砂土小学校北側東寄りフェンス,35.9382561799803,139.627481085909,
埼玉県,さいたま市,2-12-3,北区本郷町1番地,市立大砂土小学校西側フェンス,35.9376453235975,139.626418561451,
埼玉県,さいたま市,2-12-4,北区本郷町92番地1,本郷第6公園北側フェンス,35.9390848582226,139.625594186509,
埼玉県,さいたま市,2-12-5,北区本郷町286番地,大宮災害対策庫北側フェンス,35.9392408345934,139.630416333346,
埼玉県,さいたま市,2-12-6,北区本郷町655番地1,本郷第4公園南側フェンス,35.9421261316663,139.622801943585,
埼玉県,さいたま市,2-12-7,北区本郷町655番地1,本郷第4公園西側フェンス,35.9423387455424,139.622385509416,
埼玉県,さいたま市,2-12-8,北区本郷町92番地1,本郷第6公園南側フェンス,35.9385558975644,139.625976840829,
埼玉県,さいたま市,2-13-1,北区本郷町1122番地,本郷会館入口東側,35.9439467288548,139.626901367393,
埼玉県,さいたま市,2-13-2,北区本郷町890番地1,本郷第1公園北側入口左側フェンス,35.9469881742453,139.623262802804,
埼玉県,さいたま市,2-13-3,北区本郷町1157番地1,本郷第5公園北側入口左側フェンス,35.9461273977162,139.628791032897,
埼玉県,さいたま市,2-13-4,北区本郷町1257番地1,本郷第3公園東側フェンス,35.9440911535878,139.630355274354,
埼玉県,さいたま市,2-13-5,北区本郷町1457番地,本郷第2公園東側フェンス,35.9409744535261,139.631913974841,
埼玉県,さいたま市,2-13-6,北区本郷町1457番地,本郷第2公園西側フェンス,35.9405286609078,139.631648986068,
埼玉県,さいたま市,2-13-7,北区本郷町1157番地,本郷第5公園南側フェンス,35.9458473132423,139.629296429891,
埼玉県,さいたま市,2-14-1,北区見沼3丁目75番地,市立土呂中学校東側正門左側フェンス,35.9391436435009,139.638006907654,
埼玉県,さいたま市,2-14-2,北区土呂町2丁目15番地,神明西公園西側フェンス,35.9322170526856,139.633711615602,
埼玉県,さいたま市,2-14-3,北区土呂町2丁目24番地1,彩の国さいたま人づくり広域連合 自治人材開発センター入口左側フェンス,35.9295803594516,139.632885195901,
埼玉県,さいたま市,2-14-4,北区土呂町2丁目42番地,大宮弁天公園西側フェンス,35.9288520320465,139.635845950092,
埼玉県,さいたま市,2-14-5,北区土呂町2丁目83番地2,見沼公園西側フェンス,35.935265682817,139.637134243282,
埼玉県,さいたま市,2-14-6,北区見沼3丁目75番地,市立土呂中学校西側フェンス,35.9390526398559,139.636590770294,
埼玉県,さいたま市,2-14-7,北区土呂町2丁目49番地,見晴公園西側,35.9303689755267,139.638216448403,
埼玉県,さいたま市,2-14-8,北区見沼2丁目94番地,見沼グリーンセンター南側,35.9315809443047,139.639630695929,
埼玉県,さいたま市,2-15-1,北区土呂町352番地,市立植竹中学校西側正門横フェンス,35.9339247681519,139.626396338982,
埼玉県,さいたま市,2-15-2,北区土呂町352番地,市立植竹中学校東側フェンス,35.9341118042226,139.628187499305,
埼玉県,さいたま市,2-15-3,北区土呂町1丁目13番地,富士見公園北側,35.9320030351412,139.631209055381,
埼玉県,さいたま市,2-15-4,北区土呂町1丁目42番地,土呂公園西側フェンス,35.9345597233789,139.630336198571,
埼玉県,さいたま市,2-15-5,北区土呂町1丁目42番地,土呂公園東側フェンス,35.9350526929273,139.631477146674,
埼玉県,さいたま市,2-15-6,北区土呂町352番地,市立植竹中学校南側フェンス,35.9328933573955,139.627067642918,
埼玉県,さいたま市,2-15-7,北区土呂町1丁目36番地16,土呂西公園東側入口左側フェンス,35.9339504472754,139.628810547462,
埼玉県,さいたま市,2-15-8,北区本郷町1562番地1,本郷第7公園南側フェンス,35.9385837090593,139.633662357465,
埼玉県,さいたま市,2-16-1,北区宮原町1丁目852番地1,プラザノース正面北区役所側入口付近,35.9307689451745,139.620423642056,
埼玉県,さいたま市,2-16-2,北区宮原町1丁目87番地4,宮原町1丁目南公園南側入口横フェンス,35.9334265569436,139.619833676102,
埼玉県,さいたま市,2-16-3,北区宮原町1丁目555番地1,中島東公園南側フェンス,35.937636180815,139.621435752713,
埼玉県,さいたま市,2-16-4,北区宮原町1丁目428番地,masked,35.9369384643394,139.620216134617,
埼玉県,さいたま市,2-16-5,北区宮原町1丁目246番地,宮原1丁目子供公園北側フェンス,35.935294931839,139.619734668498,
埼玉県,さいたま市,2-16-6,北区宮原町1丁目852番地1,プラザノース東側(図書館側)入口付近,35.9315910143708,139.62106499646,
埼玉県,さいたま市,2-16-7,北区宮原町1丁目184番地24,加茂宮公園西側フェンス,35.9361554116003,139.623710742569,
埼玉県,さいたま市,2-16-8,北区宮原町1丁目224番地先,JAさいたま あぐりセンター駐車場西側水路フェンス,35.9360157038393,139.620788170985,
埼玉県,さいたま市,2-17-1,北区東大成町2丁目12番地,市立東大成小学校東側正門横フェンス,35.924579108556,139.619548175899,
埼玉県,さいたま市,2-17-2,北区東大成町2丁目12番地,市立東大成小学校北側フェンス,35.9253914534076,139.618624000641,
埼玉県,さいたま市,2-17-3,北区東大成町2丁目12番地,市立東大成小学校西側フェンス,35.9244395338931,139.618410485336,
埼玉県,さいたま市,2-17-4,北区東大成町2丁目445番地1,水道総合センター東側,35.9292924030445,139.61992768536,
埼玉県,さいたま市,2-17-5,北区東大成町2丁目736番地1先,陶芸会館北向側駐車場フェンス,35.9340664692556,139.613817981749,
埼玉県,さいたま市,2-17-6,北区東大成町2丁目390番地,砂久保遊園地西側入口横フェンス,35.9284401585657,139.616987588112,
埼玉県,さいたま市,2-17-7,北区東大成町2丁目404番地2,東大成2丁目公園南側入口横フェンス,35.9281900955635,139.618726700444,
埼玉県,さいたま市,2-18-1,北区日進町2丁目576番地,みどり公園南側フェンス,35.9290386440099,139.609127970816,
埼玉県,さいたま市,2-18-2,北区日進町2丁目111番地1,松原東公園北側入口横水路フェンス,35.9308730585658,139.61142038625,
埼玉県,さいたま市,2-18-3,北区日進町2丁目203番地,松原第1公園西側フェンス,35.9312155876375,139.609684145846,
埼玉県,さいたま市,2-18-4,北区日進町2丁目634番地,松原中央公園東側フェンス,35.9298942475103,139.609400948443,
埼玉県,さいたま市,2-18-5,北区日進町2丁目702番地,松原第3公園南側フェンス,35.9311045469245,139.608720401426,
埼玉県,さいたま市,2-18-6,北区日進町2丁目384番地,松原第2公園西側フェンス,35.9291536411331,139.609749352998,
埼玉県,さいたま市,2-18-7,北区日進町2丁目1125番地22,日進駅南口自転車駐車場南側フェンス,35.9314262428517,139.606663921424,
埼玉県,さいたま市,2-19-1,北区日進町2丁目918番地,市立日進小学校西側正門横フェンス,35.925052702572,139.606930449066,
埼玉県,さいたま市,2-19-2,北区日進町2丁目480番地,埼玉大学附属特別支援学校北側フェンス,35.9266047671734,139.611159812231,
埼玉県,さいたま市,2-19-3,北区大成町4丁目712番地,(有)大成精密西向側雑木林,35.9283729556843,139.614175156823,
埼玉県,さいたま市,2-19-4,北区日進町2丁目480番地,埼玉大学附属特別支援学校西側フェンス,35.9263230208055,139.609467091369,
埼玉県,さいたま市,2-19-5,北区日進町2丁目918番地,市立日進小学校北側フェンス,35.9257328935433,139.607720515038,
埼玉県,さいたま市,2-19-6,北区日進町2丁目918番地,市立日進小学校南側フェンス,35.924297654797,139.607216840189,
埼玉県,さいたま市,2-19-7,北区日進町2丁目1185番地,上加公園北側フェンス,35.9279764178762,139.604538497263,
埼玉県,さいたま市,2-19-8,北区大成町4丁目714番地3,大成4丁目西公園東側フェンス,35.9290443418902,139.614759436553,
埼玉県,さいたま市,2-20-1,北区日進町1丁目551番地,日進町1丁目自治会館西側,35.9236229070738,139.604216491988,
埼玉県,さいたま市,2-20-2,北区日進町1丁目551番地,日進町1丁目自治会館南側,35.9235128868344,139.604564430661,
埼玉県,さいたま市,2-20-3,北区日進町1丁目701番地1,旧日進学校給食センター南側正門横フェンス,35.9249252401608,139.597925077291,
埼玉県,さいたま市,2-20-4,北区日進町1丁目701番地1,旧日進学校給食センター東側フェンス,35.9248533407183,139.598491112574,
埼玉県,さいたま市,2-20-5,北区日進町1丁目756番地1,下加公園北側フェンス,35.9259362737393,139.602712907079,
埼玉県,さいたま市,2-20-6,北区日進町1丁目311番地,日進公園北側,35.9223420765917,139.60372585553,
埼玉県,さいたま市,2-20-7,北区日進町1丁目800番地1,市立日進西保育園西側フェンス,35.9263137788382,139.604044609472,
埼玉県,さいたま市,2-21-1,北区日進町1丁目312番地2,日進公園コミュニティセンター南側フェンス,35.9216790943575,139.605022262948,
埼玉県,さいたま市,2-21-2,北区日進町1丁目40番地2,農業・食品産業技術総合研究機構南側フェンス,35.9145019378844,139.604257642431,
埼玉県,さいたま市,2-21-3,北区日進町1丁目107番地,朝日カーメンテナンス(株)東側フェンス,35.919255699814,139.596608866013,
埼玉県,さいたま市,2-21-4,北区日進町1丁目40番地12,公務員宿舎RT棟南側フェンス,35.9172705877048,139.597701219744,
埼玉県,さいたま市,2-21-5,北区日進町1丁目40番地12,公務員宿舎RJ棟南東側,35.9179845898275,139.601340062603,
埼玉県,さいたま市,2-21-6,北区日進町1丁目40番地2,農業・食品産業技術総合研究機構北側フェンス,35.9184782478493,139.604627462112,
埼玉県,さいたま市,2-21-7,北区日進町1丁目40番地2,農業・食品産業技術総合研究機構東側フェンス,35.9169875206499,139.605048044751,
埼玉県,さいたま市,2-22-1,北区櫛引町2丁目503番地,市立日進中学校西側フェンス,35.9212596746952,139.608493488666,
埼玉県,さいたま市,2-22-2,北区大成町4丁目228番地2,大成4丁目公園南側フェンス,35.9199641178929,139.613173711736,
埼玉県,さいたま市,2-22-3,北区大成町4丁目265番地,masked,35.9205593087409,139.612116715421,
埼玉県,さいたま市,2-22-4,北区大成町4丁目414番地,稲荷第2公園西側フェンス,35.9235297932511,139.614257556975,
埼玉県,さいたま市,2-22-5,北区櫛引町2丁目503番地,市立日進中学校東側フェンス,35.9212778454987,139.610553287961,
埼玉県,さいたま市,2-22-6,北区櫛引町2丁目817番地,大宮三島公園北側フェンス,35.9224124472283,139.606845446643,
埼玉県,さいたま市,2-22-7,北区櫛引町2丁目482番地2,櫛引公園南側フェンス,35.9207771164283,139.607973052561,
埼玉県,さいたま市,2-22-8,北区櫛引町2丁目503番地,市立日進中学校南側フェンス,35.9207774249252,139.609971057711,
埼玉県,さいたま市,2-23-1,北区東大成町1丁目483番地,masked,35.9196573529899,139.622491516302,
埼玉県,さいたま市,2-23-2,北区東大成町1丁目159番地,masked,35.9214195465148,139.621158665527,
埼玉県,さいたま市,2-23-3,北区東大成町1丁目159番地,県営大宮長山団地6棟東側植込み,35.9213055412189,139.621881563746,
埼玉県,さいたま市,2-23-4,北区東大成町1丁目159番地,県営大宮長山団地5棟東側植込み,35.9216680942639,139.621748844677,
埼玉県,さいたま市,2-23-5,北区東大成町1丁目159番地,県営大宮長山団地3棟西側駐輪場植込み,35.9215650344512,139.619489247358,
埼玉県,さいたま市,2-23-6,北区東大成町1丁目350番地先,masked,35.9199773185499,139.620138980249,
埼玉県,さいたま市,2-23-7,北区東大成町1丁目631番地1,仲仙道公園東側入口横フェンス,35.9203574591636,139.624163427281,
埼玉県,さいたま市,2-24-1,北区植竹町1丁目593番地1,高齢者生きがい活動センター西側入口横フェンス,35.9275565449329,139.623672601318,
埼玉県,さいたま市,2-24-2,北区植竹町1丁目102番地1,鈴浦公園南側フェンス,35.9240479045181,139.626990328623,
埼玉県,さいたま市,2-24-3,北区植竹町1丁目145番地,東植竹公園東側フェンス,35.9229143734585,139.625936010987,
埼玉県,さいたま市,2-24-4,北区植竹町1丁目467番地,植竹北公園西側フェンス,35.9264351722811,139.622885987412,
埼玉県,さいたま市,2-24-5,北区植竹町1丁目241番地,こまどり公園南側フェンス,35.9225746759832,139.623971313949,
埼玉県,さいたま市,2-24-6,北区植竹町1丁目334番地,masked,35.924922301764,139.626841005147,
埼玉県,さいたま市,2-24-7,北区植竹町1丁目345番地3,源太郎公園北側フェンス,35.9264441514739,139.625609412951,
埼玉県,さいたま市,2-25-1,北区植竹町2丁目1番地,市立植竹小学校西側正門横フェンス,35.9298183919841,139.62509534904,
埼玉県,さいたま市,2-25-2,北区植竹町2丁目1番地,市立植竹小学校南側フェンス,35.9289512638377,139.626110526154,
埼玉県,さいたま市,2-25-3,北区植竹町2丁目68番地,県立特別支援学校 大宮ろう学園北側フェンス,35.9319580813493,139.624793169988,
埼玉県,さいたま市,2-25-4,北区植竹町2丁目85番地,masked,35.9306610613531,139.62766523792,
埼玉県,さいたま市,2-25-5,北区盆栽町185番地,(公財)鉄道弘済会コリノ大宮公園南側フェンス,35.924090037757,139.629706717525,
埼玉県,さいたま市,2-25-6,北区盆栽町267番地1,盆栽四季の家南側駐車場入口横,35.9264963976312,139.63339520454,
埼玉県,さいたま市,2-25-7,北区盆栽町430番地,盆栽西公園北側フェンス,35.927270418052,139.627659612268,
埼玉県,さいたま市,3-1-1,大宮区大成町2丁目282番地,大成小学校北側フェンス,35.9151199030517,139.614112993302,
埼玉県,さいたま市,3-1-2,大宮区大成町2丁目176番地,大成2丁目公園東側フェンス,35.9137011761151,139.615684168361,
埼玉県,さいたま市,3-1-3,大宮区大成町2丁目478番地1,精進場第2公園東側フェンス,35.914367742409,139.611123564014,
埼玉県,さいたま市,3-1-4,大宮区大成町3丁目241番地,大成3丁目公園東側フェンス,35.9186717692957,139.617033029472,
埼玉県,さいたま市,3-1-5,大宮区大成町3丁目254番地2,駐車場西側歩道,35.9190076983344,139.617936521983,
埼玉県,さいたま市,3-1-6,大宮区大成町2丁目310番地,大成小学校西側フェンス,35.9145411352991,139.613362363404,
埼玉県,さいたま市,3-1-7,大宮区大成町3丁目562番地,精進場公園東側フェンス,35.9177254820738,139.612637745285,
埼玉県,さいたま市,3-1-8,大宮区大成町3丁目562番地,精進場公園西側フェンス,35.9180551808454,139.61199615083,
埼玉県,さいたま市,3-2-1,大宮区大成町2丁目379番地,大成中学校東側正門横フェンス,35.9129637162515,139.613710870628,
埼玉県,さいたま市,3-2-2,大宮区大成町1丁目205番地,八幡神社南側フェンス,35.9089836442561,139.614921093952,
埼玉県,さいたま市,3-2-3,大宮区大成町1丁目205番地,八幡自治会館北側勝手口前,35.9095662289961,139.614800832623,
埼玉県,さいたま市,3-2-4,大宮区大成町1丁目5番地,市営桜木駐車場北側西寄りフェンス,35.9105751275969,139.617611039804,
埼玉県,さいたま市,3-2-5,大宮区大成町2丁目269番地,大成小学校南側フェンス,35.9137299514312,139.614259316439,
埼玉県,さいたま市,3-2-6,大宮区大成町1丁目465番地,埼玉県視覚障害者福祉センター南側フェンス,35.9092159213162,139.612605870999,
埼玉県,さいたま市,3-2-7,大宮区大成町2丁目379番地,大成中学校グランド西側フェンス下,35.9127770787079,139.611520016751,
埼玉県,さいたま市,3-3-1,大宮区櫛引町1丁目406番地,櫛引町1丁目自治会館,35.9110948229297,139.609816570511,
埼玉県,さいたま市,3-3-2,大宮区櫛引町1丁目779番地2,渋谷コート3号館南側歩道,35.9151597775697,139.60551345541,
埼玉県,さいたま市,3-3-3,大宮区櫛引町1丁目9番地,渋谷マンション北側フェンス,35.9067384964498,139.612255453777,
埼玉県,さいたま市,3-3-4,大宮区櫛引町1丁目440番地1,熊野下公園北側,35.9122044535634,139.609718163526,
埼玉県,さいたま市,3-3-5,大宮区櫛引町1丁目654番地,櫛引氷川神社西側ブロック塀,35.9137054754245,139.607374405242,
埼玉県,さいたま市,3-3-6,大宮区櫛引町1丁目810番地,masked,35.9150287125203,139.607176407293,
埼玉県,さいたま市,3-3-7,大宮区櫛引町1丁目826番地,県営大宮櫛引団地1号棟東側フェンス,35.915848985991,139.609468573176,
埼玉県,さいたま市,3-3-8,大宮区櫛引町1丁目528番地,ハローワーク大宮駐車場入口横フェンス,35.9095270275872,139.610828871308,
埼玉県,さいたま市,3-4-1,大宮区三橋1丁目664番地,大宮なみき幼稚園西側正門横フェンス,35.908013948797,139.602891780446,
埼玉県,さいたま市,3-4-2,大宮区三橋1丁目55番地,大平公園南側正門横フェンス,35.9085888145895,139.606009697712,
埼玉県,さいたま市,3-4-3,大宮区三橋1丁目55番地,大平公園東側フェンス,35.9090685304722,139.606451941383,
埼玉県,さいたま市,3-4-4,大宮区三橋1丁目629番地4,三橋1丁目西公園東側柵,35.9089039522098,139.601873671921,
埼玉県,さいたま市,3-4-5,大宮区三橋1丁目850番地1,masked,35.9133624200018,139.600761558325,
埼玉県,さいたま市,3-4-6,大宮区三橋1丁目850番地1,masked,35.9143900441331,139.600442547329,
埼玉県,さいたま市,3-4-7,大宮区三橋1丁目55番地,大平公園北西角フェンス,35.9092570690958,139.604730116527,
埼玉県,さいたま市,3-4-8,大宮区三橋1丁目745番地2,三橋三島公園南側フェンス,35.9074135475478,139.60273963278,
埼玉県,さいたま市,3-5-1,大宮区三橋2丁目20番地,三橋小学校西側フェンス,35.9039928202928,139.603880682435,
埼玉県,さいたま市,3-5-2,大宮区三橋2丁目20番地,三橋小学校北側フェンス三橋公民館隣,35.9040605067581,139.605061024547,
埼玉県,さいたま市,3-5-3,大宮区三橋2丁目20番地,三橋小学校南側正門横フェンス,35.9028972089122,139.604569822902,
埼玉県,さいたま市,3-5-4,大宮区三橋2丁目929番地,三橋保育園南側ブロック塀,35.9020051468664,139.605845955007,
埼玉県,さいたま市,3-5-5,大宮区三橋2丁目250番地,並木公園東側フェンス,35.9010045689038,139.602115246113,
埼玉県,さいたま市,3-5-6,大宮区三橋2丁目250番地,並木公園西側フェンス,35.9009094753162,139.601506112128,
埼玉県,さいたま市,3-5-7,大宮区三橋2丁目428番地2,三橋2丁目公園北入口横フェンス,35.9045420227573,139.599729465169,
埼玉県,さいたま市,3-5-8,大宮区三橋1丁目1300番地,三橋中学校北西角フェンス,35.9050499351389,139.602296914095,
埼玉県,さいたま市,3-6-1,大宮区三橋4丁目96番地,大宮国際中等教育学校東側中央フェンス(柵),35.8962582181517,139.600063865365,
埼玉県,さいたま市,3-6-2,大宮区三橋4丁目96番地,大宮国際中等教育学校東側南寄りフェンス(柵),35.895361773531,139.60040202986,
埼玉県,さいたま市,3-6-3,大宮区三橋4丁目3番地,釣具店Growth南側水路フェンス,35.8986329889812,139.5985929587,
埼玉県,さいたま市,3-6-4,大宮区三橋4丁目96番地,大宮国際中等教育学校北側フェンス(柵),35.8965752452486,139.598505096138,
埼玉県,さいたま市,3-6-5,大宮区三橋4丁目258番地,三橋天神公園西側フェンス,35.895225084465,139.601589482922,
埼玉県,さいたま市,3-6-6,大宮区三橋2丁目565番地2,masked,35.8979312787183,139.599831308753,
埼玉県,さいたま市,3-6-7,大宮区三橋4丁目904番地,masked,35.8901858894084,139.603138288471,
埼玉県,さいたま市,3-6-8,大宮区三橋2丁目580番地2,並木南公園南側入口横フェンス,35.8976529861691,139.600409053909,
埼玉県,さいたま市,3-7-1,大宮区三橋3丁目52番地,さいたま市立三つ和会館県道側フェンス,35.8978705840662,139.609034775111,
埼玉県,さいたま市,3-7-2,大宮区上小町1043番地,かみこ公園北側フェンス,35.8980810526643,139.611806175692,
埼玉県,さいたま市,3-7-3,大宮区三橋3丁目118番地,みつわ公園東側フェンス,35.8964800618853,139.610083311956,
埼玉県,さいたま市,3-7-4,大宮区上小町1208番地1,いずみ高校テニスコート西側柵,35.895858133078,139.610905899154,
埼玉県,さいたま市,3-7-5,大宮区三橋3丁目118番地,みつわ公園北側角地,35.8963633516196,139.609751091711,
埼玉県,さいたま市,3-7-6,大宮区三橋3丁目85番地,ジョイナステニスアカデミー南側壁(柵),35.8973349307847,139.605925451816,
埼玉県,さいたま市,3-7-7,大宮区三橋2丁目736番地,三橋2丁目南公園北側,35.8988065192242,139.603874935644,
埼玉県,さいたま市,3-8-1,大宮区上小町845番地4,上小保育園東側正門横フェンス,35.9000740158544,139.611571195753,
埼玉県,さいたま市,3-8-2,大宮区上小町1110番地,小村田神社公園,35.8991092862233,139.614058998706,
埼玉県,さいたま市,3-8-3,大宮区上小町422番地,かみこ幼稚園南向側フェンス,35.9027052154767,139.608960424602,
埼玉県,さいたま市,3-8-4,大宮区上小町1096番地,山本第1月極駐車場北側フェンス,35.8996209852315,139.613030213571,
埼玉県,さいたま市,3-8-5,大宮区上小町1036番地2,西南公園南側,35.8984260610147,139.613264165179,
埼玉県,さいたま市,3-8-6,大宮区上小町615番地4,県道新方須賀さいたま線 内海工務店前,35.9013484828468,139.609905350495,
埼玉県,さいたま市,3-8-7,大宮区上小町535番地,アルファクラブ武蔵野ビル東側フェンス,35.9029646217542,139.613739939941,
埼玉県,さいたま市,3-9-1,大宮区上小町1337番地,上小小学校北西側,35.8970004932391,139.616029101044,
埼玉県,さいたま市,3-9-2,大宮区上小町1337番地,上小小学校東側フェンス,35.8968243934046,139.617540679414,
埼玉県,さいたま市,3-9-3,大宮区上小町1337番地,上小小学校南西側フェンス,35.8958628477912,139.616840201468,
埼玉県,さいたま市,3-9-4,大宮区上小町1043番地,かみこ公園南側フェンス,35.8974288761231,139.611920763751,
埼玉県,さいたま市,3-9-5,大宮区桜木町4丁目609番地,masked,35.8979035860584,139.618054860339,
埼玉県,さいたま市,3-9-6,大宮区中央区本町東6丁目11番1号先,埼玉精神神経センター北東側フェンス,35.8946293508151,139.617632596407,
埼玉県,さいたま市,3-9-7,大宮区桜木町4丁目534番地,大宮配水場管理棟北側正門横フェンス,35.8958312221695,139.618755028969,
埼玉県,さいたま市,3-10-1,大宮区桜木町4丁目219番地,桜木中学校北側正門横フェンス,35.9055043260121,139.616373117595,
埼玉県,さいたま市,3-10-2,大宮区桜木町4丁目219番地,桜木中学校西側南フェンス,35.904392769346,139.616157680298,
埼玉県,さいたま市,3-10-3,大宮区桜木町4丁目219番地,桜木中学校西側北寄りフェンス,35.9052183299246,139.615724349267,
埼玉県,さいたま市,3-10-4,大宮区桜木町4丁目174番地,桜木公園北側フェンス,35.905404818492,139.614238392199,
埼玉県,さいたま市,3-10-5,大宮区桜木町4丁目328番地9,桜木小学校西側北寄りフェンス,35.9031528180345,139.616117307924,
埼玉県,さいたま市,3-10-6,大宮区桜木町4丁目328番地9,桜木小学校西側西門横フェンス,35.9028356282221,139.616361346633,
埼玉県,さいたま市,3-10-7,大宮区桜木町4丁目926番地先,桜四条公園北側フェンス,35.9039274423441,139.61503247942,
埼玉県,さいたま市,3-11-1,大宮区桜木町1丁目7番地7,鐘塚公園東側,35.9053639516179,139.621246955275,
埼玉県,さいたま市,3-11-2,大宮区桜木町1丁目7番地8,鐘塚公園北側,35.9061074828898,139.620036373368,
埼玉県,さいたま市,3-11-3,大宮区桜木町3丁目172番地13,桜木神明公園東側フェンス,35.914816723745,139.618568370414,
埼玉県,さいたま市,3-11-4,大宮区桜木町1丁目213番地1,桜木1丁目公園南側フェンス,35.9027406036554,139.622265415955,
埼玉県,さいたま市,3-11-5,大宮区桜木町3丁目1番地1,市営桜木駐車場北側東寄りフェンス,35.9116013515062,139.618546037467,
埼玉県,さいたま市,3-11-6,大宮区桜木町2丁目462番地,桜成公園西側フェンス,35.9086663287614,139.617237531838,
埼玉県,さいたま市,3-11-7,大宮区桜木町3丁目1番地1,市営桜木駐車場東側フェンス,35.9090405298168,139.620550005166,
埼玉県,さいたま市,3-12-1,大宮区大門町2丁目119番地,大宮門街(かどまち)正面入口前フェンス,35.9069799896372,139.62748113365,
埼玉県,さいたま市,3-12-2,大宮区大門町1丁目13番地先,高島屋北側歩道フェンス,35.9065158759416,139.626266197686,
埼玉県,さいたま市,3-12-3,大宮区下町3丁目47番地先,さいたま市民会館おおみや北側氷川参道沿い,35.9035318416283,139.631197943314,
埼玉県,さいたま市,3-12-4,大宮区大門町2丁目79番地先,EIGHT BURGER前植え込み,35.9068104817375,139.627921741591,
埼玉県,さいたま市,3-12-5,大宮区大門町3丁目45番地,富士火災大宮ビル前,35.9074806442474,139.630798470575,
埼玉県,さいたま市,3-12-6,大宮区東町1丁目16番地2,大宮東町第一生命ビル前,35.9075015318794,139.631748782839,
埼玉県,さいたま市,3-12-7,大宮区下町3丁目8番地先,masked,35.9050445591875,139.631093501344,
埼玉県,さいたま市,3-12-8,大宮区吉敷町1丁目120番地1,山丸公園中央付近,35.9026230516917,139.630199540238,
埼玉県,さいたま市,3-13-1,大宮区宮町3丁目84番地,大宮北小学校西側正門南寄りフェンス,35.9111767716802,139.627103195301,
埼玉県,さいたま市,3-13-2,大宮区高鼻町1丁目339番地,masked,35.9133743995276,139.630485067099,
埼玉県,さいたま市,3-13-3,大宮区高鼻町1丁目194番地,masked,35.9115919193362,139.629846109756,
埼玉県,さいたま市,3-13-4,大宮区宮町2丁目90番地,宇治病院北側フェンス,35.9100415327455,139.62852109874,
埼玉県,さいたま市,3-13-5,大宮区宮町3丁目84番地,大宮北小学校北側フェンス,35.912144425169,139.627722147218,
埼玉県,さいたま市,3-13-6,大宮区宮町3丁目113番地3,大宮北公民館東側フェンス,35.9112409777773,139.628754779025,
埼玉県,さいたま市,3-13-7,大宮区高鼻町1丁目440番地先,masked,35.9163625844733,139.627986467449,
埼玉県,さいたま市,3-14-1,大宮区土手町3丁目24番地,masked,35.9155178339145,139.625877647129,
埼玉県,さいたま市,3-14-2,大宮区土手町1丁目154番地,masked,35.9146860937251,139.621956575689,
埼玉県,さいたま市,3-14-3,大宮区土手町1丁目153番地,masked,35.9148198995614,139.622445074705,
埼玉県,さいたま市,3-14-4,大宮区土手町1丁目153番地,masked,35.915098712284,139.622359460669,
埼玉県,さいたま市,3-14-5,大宮区土手町3丁目184番地,大宮税務署西側フェンス,35.9169773648663,139.625877492732,
埼玉県,さいたま市,3-14-6,大宮区土手町2丁目97番地,多子稲荷神社西側,35.9147005192882,139.626775607649,
埼玉県,さいたま市,3-14-7,大宮区土手町3丁目285番地,北大宮駅線路南側広告看板フェンス裏手,35.9176091319686,139.624901201298,
埼玉県,さいたま市,3-15-1,大宮区寿能町1丁目21番地,大宮北中学校南側正門横ブロック塀,35.9206629877752,139.632436316022,
埼玉県,さいたま市,3-15-2,大宮区寿能町1丁目31番地1,大宮公園駅前ハイツ南側フェンス,35.9224979828461,139.631397134928,
埼玉県,さいたま市,3-15-3,大宮区寿能町2丁目195番地1,masked,35.9212956641093,139.636371251079,
埼玉県,さいたま市,3-15-4,大宮区寿能町2丁目195番地1,masked,35.9218261400737,139.636121608286,
埼玉県,さいたま市,3-15-5,大宮区寿能町2丁目140番地,寿能保育園南側入口横フェンス,35.9208381650364,139.63676731097,
埼玉県,さいたま市,3-15-6,大宮区寿能町2丁目155番地,寿能公園南側フェンス,35.9211032328048,139.638750375966,
埼玉県,さいたま市,3-15-7,大宮区高鼻町4丁目130番地,公園緑地協会本部東側フェンス,35.9209843682966,139.63166260466,
埼玉県,さいたま市,3-16-1,大宮区堀の内町3丁目145番地,大宮東小学校西側正門横フェンス,35.9135927156328,139.634861534393,
埼玉県,さいたま市,3-16-2,大宮区堀の内町2丁目276番地2,水路フェンス,35.9131957791939,139.637946283142,
埼玉県,さいたま市,3-16-3,大宮区堀の内町3丁目145番地,大宮東小学校南側フェンス,35.9131509356106,139.635933509382,
埼玉県,さいたま市,3-16-4,大宮区堀の内町3丁目367番地,堀の内町3丁目自治会館南側フェンス,35.9174135739384,139.637944775434,
埼玉県,さいたま市,3-16-5,大宮区高鼻町1丁目170番地先,旧大宮図書館西側氷川参道沿い,35.9112683355573,139.631017057889,
埼玉県,さいたま市,3-16-6,大宮区堀の内町3丁目145番地,大宮東小学校東側フェンス,35.9135394319568,139.636550251276,
埼玉県,さいたま市,3-16-7,大宮区高鼻町2丁目405番地,埼玉県大宮公園事務所入口横フェンス,35.9162149774607,139.631620971639,
埼玉県,さいたま市,3-17-1,大宮区堀の内町1丁目123番地2,大宮東中学校南側正門フェンス,35.90774197677,139.635141158814,
埼玉県,さいたま市,3-17-2,大宮区天沼町1丁目148番地1,白菊保育園東側フェンス,35.9060096585771,139.640149926939,
埼玉県,さいたま市,3-17-3,大宮区天沼町1丁目194番地,天沼児童センター西側フェンス,35.9061524496445,139.636773723123,
埼玉県,さいたま市,3-17-4,大宮区堀の内町1丁目50番地先,駐車場東側水路フェンス,35.9111204435666,139.641799888307,
埼玉県,さいたま市,3-17-5,大宮区堀の内町1丁目99番地,大宮東中学校北側東寄りフェンス,35.9092457143581,139.635656808654,
埼玉県,さいたま市,3-17-6,大宮区堀の内町1丁目410番地2,masked,35.9104046831699,139.637491130069,
埼玉県,さいたま市,3-17-7,大宮区堀の内町1丁目99番地,大宮東中学校東側フェンス,35.9090120839151,139.636312398867,
埼玉県,さいたま市,3-17-8,大宮区堀の内町1丁目182番地2,堀の内1丁目公園フェンス,35.9096289993675,139.638547579013,
埼玉県,さいたま市,3-18-1,大宮区堀の内町1丁目615番地,大宮開成高等学校南側フェンス東側入口の端から,35.9113596832859,139.645409724437,
埼玉県,さいたま市,3-18-2,大宮区天沼町1丁目760番地,第二東中学校西側フェンス,35.9090711051747,139.644435613001,
埼玉県,さいたま市,3-18-3,大宮区堀の内町2丁目612番地,芝川公園北側フェンス,35.9114785412302,139.647826139026,
埼玉県,さいたま市,3-18-4,大宮区天沼町1丁目760番地,第二東中学校南側フェンス西側寄り,35.9080194021835,139.646204909269,
埼玉県,さいたま市,3-18-5,大宮区堀の内町1丁目615番地,大宮開成高等学校北東側フェンス,35.9123672014684,139.646047642573,
埼玉県,さいたま市,3-18-6,大宮区堀の内町1丁目606番地先,グランドシティサウスタワー向かい西側水路フェンス,35.9112589794223,139.642196205144,
埼玉県,さいたま市,3-18-7,大宮区堀の内町1丁目577番地1,堀の内ポンプ場北西側フェンス,35.9123515887847,139.641129807265,
埼玉県,さいたま市,3-19-1,大宮区天沼町2丁目1077番地,芝川小学校南側正門横フェンス,35.9045932362108,139.644703391665,
埼玉県,さいたま市,3-19-2,大宮区天沼町1丁目347番地,masked,35.90467267066,139.643462055081,
埼玉県,さいたま市,3-19-3,大宮区天沼町1丁目523番地2,ドルミ公園北側,35.9087452182259,139.643088260861,
埼玉県,さいたま市,3-19-4,大宮区天沼町1丁目337番地,masked,35.9090125532931,139.642009603432,
埼玉県,さいたま市,3-19-5,大宮区天沼町2丁目930番地,masked,35.9024519387283,139.642313876249,
埼玉県,さいたま市,3-19-6,大宮区天沼町2丁目999番地3,masked,35.9041770432253,139.64410136879,
埼玉県,さいたま市,3-19-7,大宮区天沼町2丁目1062番地14先,masked,35.9020284318766,139.645246112728,
埼玉県,さいたま市,3-20-1,大宮区天沼町2丁目362番地,大宮南中学校西側正門横フェンス,35.8989476199771,139.636228003991,
埼玉県,さいたま市,3-20-2,大宮区天沼町2丁目179番地,なかよし公園北側フェンス,35.9035099124842,139.63887842394,
埼玉県,さいたま市,3-20-3,大宮区天沼町2丁目323番地,大宮高等学校西側正門北寄りフェンス,35.9003692636797,139.636151363808,
埼玉県,さいたま市,3-20-4,大宮区天沼町2丁目362番地,大宮南中学校グラウンド西側フェンス,35.8983583597595,139.637903546587,
埼玉県,さいたま市,3-20-5,大宮区天沼町2丁目438番地1,天沼保育園南側フェンス,35.8986526850112,139.639652129839,
埼玉県,さいたま市,3-20-6,大宮区天沼町2丁目725番地2,masked,35.9014708292944,139.639946038971,
埼玉県,さいたま市,3-20-7,大宮区大原7丁目1番1号,masked,35.9009147593843,139.642006272808,
埼玉県,さいたま市,3-21-1,大宮区吉敷町3丁目87番地,大宮南小学校北側フェンス,35.9010442129772,139.633658977064,
埼玉県,さいたま市,3-21-2,大宮区吉敷町3丁目87番地,大宮南小学校東側フェンス,35.9004659742642,139.634618465522,
埼玉県,さいたま市,3-21-3,大宮区吉敷町3丁目87番地,大宮南小学校西側フェンス,35.9007059266661,139.633108909997,
埼玉県,さいたま市,3-21-4,大宮区吉敷町1丁目124番地1,大宮区役所北西側植栽,35.9021240108543,139.629844203252,
埼玉県,さいたま市,3-21-5,大宮区吉敷町4丁目197番地3,ほこすぎ橋東広場フェンス,35.8969473385885,139.632940136343,
埼玉県,さいたま市,3-21-6,大宮区吉敷町1丁目46番地先,大宮区役所東側氷川参道沿い,35.901755714737,139.631279675383,
埼玉県,さいたま市,3-21-7,大宮区吉敷町4丁目223番地2,大宮南公民館北側フェンス,35.8984962572892,139.636024958229,
埼玉県,さいたま市,3-21-8,大宮区吉敷町4丁目87番地1,一の鳥居ひろば西側外柵,35.8978542031475,139.631343207242,
埼玉県,さいたま市,3-22-1,大宮区北袋町1丁目190番地,日商岩井大宮平和台マンションB北側,35.8951963943492,139.640872747826,
埼玉県,さいたま市,3-22-2,大宮区北袋町1丁目190番地,日商岩井大宮平和台マンションA北側,35.8945318075984,139.639341369135,
埼玉県,さいたま市,3-22-3,大宮区北袋町1丁目190番地,平和台公園東側フェンス,35.894908653841,139.641697377619,
埼玉県,さいたま市,3-22-4,大宮区北袋町2丁目81番地,首都高速新都心出口横植栽,35.8963272341268,139.643434019985,
埼玉県,さいたま市,3-22-5,大宮区北袋町2丁目237番地,北袋天神公園東側,35.8942740967271,139.645222694931,
埼玉県,さいたま市,3-22-6,大宮区北袋町2丁目158番地,北袋ふれあい公園北側植栽,35.8956440502971,139.644024196731,
埼玉県,さいたま市,3-22-7,大宮区北袋町2丁目401番地2,北袋公園北側フェンス,35.8912484027407,139.645056056485,
埼玉県,さいたま市,3-22-8,大宮区北袋町1丁目700番地,シントシティ南側植栽,35.8906707759705,139.636755502966,
埼玉県,さいたま市,4-1-1,見沼区東大宮2丁目45番地,市立見沼小学校東側正門横フェンス,35.9489571640912,139.633361798287,
埼玉県,さいたま市,4-1-2,見沼区東大宮2丁目15番地,堀の内公園東側フェンス,35.9464560614107,139.637239486727,
埼玉県,さいたま市,4-1-3,見沼区東大宮2丁目15番地,堀の内公園西側フェンス,35.9459750914638,139.636566295761,
埼玉県,さいたま市,4-1-4,見沼区東大宮2丁目42番地,東北原公園西側フェンス,35.9489127237107,139.634009156562,
埼玉県,さいたま市,4-1-5,見沼区東大宮2丁目49番地8,masked,35.9507847107509,139.634235579687,
埼玉県,さいたま市,4-1-6,見沼区東大宮3丁目4番地1,masked,35.9510229488798,139.631225578058,
埼玉県,さいたま市,4-1-7,見沼区東大宮3丁目5番地1,masked,35.9523256606353,139.631666339422,
埼玉県,さいたま市,4-2-1,見沼区東大宮4丁目40番地3,東大宮4丁目自治会館北側入口横フェンス,35.9525268768469,139.636522557979,
埼玉県,さいたま市,4-2-2,見沼区東大宮4丁目11番地,原際公園南側入口西側の植込み,35.9482759595301,139.638193381259,
埼玉県,さいたま市,4-2-3,見沼区東大宮4丁目26番地11,東大宮駅第1自転車駐車場西側フェンス,35.9508284967756,139.639901644675,
埼玉県,さいたま市,4-2-4,見沼区東大宮4丁目66番地,原中公園南側フェンス入口の西側,35.9521266872481,139.639290782111,
埼玉県,さいたま市,4-2-5,見沼区東大宮4丁目66番地,原中公園東側フェンス,35.9523112392746,139.639712350393,
埼玉県,さいたま市,4-2-6,見沼区東大宮4丁目42番地,中北原公園北西側フェンス,35.951733983925,139.635266345667,
埼玉県,さいたま市,4-2-7,見沼区東大宮4丁目42番地,中北原公園南東側フェンス,35.9514341964319,139.635591115395,
埼玉県,さいたま市,4-3-1,見沼区東大宮1丁目13番地14,東大宮自治会館入口横フェンス,35.9438911384884,139.641079953218,
埼玉県,さいたま市,4-3-2,見沼区東大宮1丁目4番地,稲荷公園南側フェンス,35.943962870673,139.639949191825,
埼玉県,さいたま市,4-3-3,見沼区東大宮1丁目26番地,築地公園西側フェンス,35.9421429625375,139.640209886352,
埼玉県,さいたま市,4-3-4,見沼区東大宮5丁目17番地,立山公園西側フェンス,35.9453808534547,139.64130246631,
埼玉県,さいたま市,4-3-5,見沼区東大宮5丁目42番地1,東大宮中央公園北側フェンス,35.9498709710863,139.64463074131,
埼玉県,さいたま市,4-3-6,見沼区東大宮5丁目42番地1,東大宮中央公園東側フェンス,35.9486913876522,139.644852028701,
埼玉県,さいたま市,4-3-7,見沼区東大宮7丁目5番地18,市立東大宮放課後児童クラブ入口横フェンス,35.9468539676627,139.645504841445,
埼玉県,さいたま市,4-3-8,見沼区東大宮7丁目38番地,登戸公園西側フェンス,35.9446382655475,139.644552845924,
埼玉県,さいたま市,4-4-1,見沼区島町533番地2,市立島小学校北側体育館横フェンス,35.9469727754582,139.652916509573,
埼玉県,さいたま市,4-4-2,見沼区島町533番地2,市立島小学校裏北門横フェンス,35.9473823053563,139.651698259844,
埼玉県,さいたま市,4-4-3,見沼区東大宮6丁目12番地,大宮大原公園西側フェンス,35.9525409710901,139.646468446662,
埼玉県,さいたま市,4-4-4,見沼区東大宮6丁目42番地,藁田島公園西側フェンス,35.9522892556603,139.650109914166,
埼玉県,さいたま市,4-4-5,見沼区東大宮6丁目42番地,藁田島公園南側フェンス,35.9514125179106,139.649923489619,
埼玉県,さいたま市,4-4-6,見沼区東大宮6丁目61番地1,一本松公園東側フェンス,35.9479545025153,139.649117417594,
埼玉県,さいたま市,4-4-7,見沼区島町606番地3,三番関公園南側入口横,35.9466866024966,139.653697403397,
埼玉県,さいたま市,4-4-8,見沼区堀崎町1432番地,上ノ台公園西側フェンス,35.9433152770165,139.649067444305,
埼玉県,さいたま市,4-5-1,見沼区丸ヶ崎町45番地1,春岡幼稚園正門北,35.9579465471835,139.651359561249,
埼玉県,さいたま市,4-5-2,見沼区丸ヶ崎町42番地,有無公園南西側フェンス,35.9570628193882,139.651614127987,
埼玉県,さいたま市,4-5-3,見沼区丸ヶ崎町42番地,有無公園北東側フェンス,35.9573821143972,139.651941322549,
埼玉県,さいたま市,4-5-4,見沼区丸ヶ崎町23番地,中原公園西側フェンス,35.9555726245169,139.649112922766,
埼玉県,さいたま市,4-5-5,見沼区丸ヶ崎町23番地,中原公園東側フェンス,35.9553918397105,139.649656435435,
埼玉県,さいたま市,4-5-6,見沼区丸ヶ崎町13番地13,市立東大宮保育園西側フェンス,35.9535791473603,139.651115719501,
埼玉県,さいたま市,4-5-7,見沼区丸ヶ崎町8番地3,氷川神社北西側ブロック塀,35.9536692270039,139.649897321494,
埼玉県,さいたま市,4-6-1,見沼区春野2丁目2番1号,市立春野中学校北側校門横,35.9570094439471,139.663606883306,
埼玉県,さいたま市,4-6-2,見沼区春野2丁目2番1号,市立春野中学校西側歩道沿い,35.956802321262,139.662338867385,
埼玉県,さいたま市,4-6-3,見沼区春野3丁目16番,上ノ前公園南側入口横フェンス,35.9610494937493,139.656935313332,
埼玉県,さいたま市,4-6-4,見沼区大字丸ヶ崎1904番地1,薬師堂前広場南側,35.9627113031531,139.65806335973,
埼玉県,さいたま市,4-6-5,見沼区春野3丁目9番,上ノ前西公園南側入口横フェンス,35.9607979983681,139.656245291549,
埼玉県,さいたま市,4-6-6,見沼区春野3丁目14番8号,市立春野図書館駐車場北側フェンス,35.9593533515175,139.659701469958,
埼玉県,さいたま市,4-6-7,見沼区大字丸ヶ崎2054番地先,ベスタック(株)南側フェンス,35.963541346888,139.664355022496,
埼玉県,さいたま市,4-7-1,見沼区春野1丁目10番1号,市立春野小学校北側,35.9572564976886,139.667409425731,
埼玉県,さいたま市,4-7-2,見沼区春野1丁目10番1号,市立春野小学校東側校門近く,35.9570849187363,139.668480695167,
埼玉県,さいたま市,4-7-3,見沼区春野1丁目10番1号,市立春野小学校南側フェンス,35.9562628406845,139.668105149656,
埼玉県,さいたま市,4-7-4,見沼区春野1丁目5番1号,アーバンみらい東大宮内郵便局南側,35.9543758429514,139.669240702801,
埼玉県,さいたま市,4-7-5,見沼区深作2丁目7番地,観音寺下公園西側,35.9526022238251,139.667744072134,
埼玉県,さいたま市,4-7-6,見沼区深作2丁目7番地,観音寺下公園東側,35.9516795629796,139.668880797268,
埼玉県,さいたま市,4-7-7,見沼区深作2丁目36番地,大宮戸崎公園南側入口横フェンス,35.9487840832583,139.672169028224,
埼玉県,さいたま市,4-8-1,見沼区深作1丁目5番地1,春岡公民館西側入口横フェンス,35.9503463586102,139.664433340354,
埼玉県,さいたま市,4-8-2,見沼区深作3丁目8番地,海崎公園南側入口横フェンス,35.9538940895531,139.660074696791,
埼玉県,さいたま市,4-8-3,見沼区深作1丁目4番地,西郭公園北側フェンス,35.9512042539801,139.663864505908,
埼玉県,さいたま市,4-8-4,見沼区深作1丁目21番地,中ノ島公園西側入口横フェンス,35.9480027147246,139.666168327133,
埼玉県,さいたま市,4-8-5,見沼区大字宮ヶ谷塔765番地,春おか広場南側フェンス,35.9429756699571,139.670723711946,
埼玉県,さいたま市,4-8-6,見沼区宮ヶ谷塔3丁目236番地,氷川神社社務所西側フェンス,35.9394778857337,139.675940710214,
埼玉県,さいたま市,4-8-7,見沼区卸町1丁目58番地,イタリア料理あらじん南側水路フェンス,35.9467876885744,139.674167422413,
埼玉県,さいたま市,4-9-1,見沼区春岡2丁目29番地1,市立春岡小学校東側正門横フェンス,35.9492544193067,139.663045724291,
埼玉県,さいたま市,4-9-2,見沼区春岡2丁目29番地1,市立春岡小学校北側フェンス,35.9500663587749,139.662047103469,
埼玉県,さいたま市,4-9-3,見沼区春岡2丁目29番地1,市立春岡小学校西側フェンス,35.9487709525808,139.661595530765,
埼玉県,さいたま市,4-9-4,見沼区大字深作236番地9,新田公園西側入口横フェンス,35.9539081855376,139.653300930173,
埼玉県,さいたま市,4-9-5,見沼区春岡2丁目19番地1,入ノ山公園西側,35.9509173227643,139.659240719158,
埼玉県,さいたま市,4-9-6,見沼区春岡3丁目30番地1,西原公園西側入口横,35.9497340581531,139.656406330516,
埼玉県,さいたま市,4-9-7,見沼区春岡2丁目42番地1,稲荷台公園西側フェンス,35.9472060364608,139.662968647418,
埼玉県,さいたま市,4-9-8,見沼区春岡3丁目42番地1,春岡中央公園南側植込み,35.9470978113412,139.658844730676,
埼玉県,さいたま市,4-10-1,見沼区島町148番地,ふれあい広場第14号北側フェンス,35.9418774266326,139.655672687718,
埼玉県,さいたま市,4-10-2,見沼区島町235番地1,島町自治会館東側フェンス,35.9420532031121,139.655745004875,
埼玉県,さいたま市,4-10-3,見沼区島町951番地,島町自然の森西側フェンス,35.9429380141281,139.655788469897,
埼玉県,さいたま市,4-10-4,見沼区島町951番地,島町自然の森北側フェンス,35.9433153952776,139.655967188274,
埼玉県,さいたま市,4-10-5,見沼区島町1086番地1,薬王寺内雑木林南側,35.9423140397309,139.65874983859,
埼玉県,さいたま市,4-10-6,見沼区島町2丁目6番地10号,島町地蔵公園西側,35.9448884074783,139.65830689947,
埼玉県,さいたま市,4-10-7,見沼区大字小深作262番地1,masked,35.9415572459764,139.661662124834,
埼玉県,さいたま市,4-11-1,見沼区堀崎町128番地1,さいたま市大宮武道館 西側入口横,35.9351913078362,139.654977453039,
埼玉県,さいたま市,4-11-2,見沼区堀崎町12番地1,堀崎公園南側フェンス,35.9352260697645,139.65356784213,
埼玉県,さいたま市,4-11-3,見沼区堀崎町12番地1,堀崎公園テニスコート北側フェンス,35.937353405572,139.652495484562,
埼玉県,さいたま市,4-11-4,見沼区堀崎町48番地1,さいたま市職員研修センター北側フェンス,35.9350229371797,139.657235205999,
埼玉県,さいたま市,4-11-5,見沼区堀崎町1200番地252,堀崎町団地集会所北側フェンス,35.9406967250657,139.652262868617,
埼玉県,さいたま市,4-11-6,見沼区堀崎町556番地2,堀崎南公園南側フェンス,35.9360347803662,139.655649964196,
埼玉県,さいたま市,4-11-7,見沼区堀崎町1200番地69,堀崎団地第2公園西側フェンス,35.9410656750859,139.65121361131,
埼玉県,さいたま市,4-11-8,見沼区堀崎町467番地7,堀崎町自警消防団建物南側 私有地,35.9385876272207,139.65571374387,
埼玉県,さいたま市,4-12-1,見沼区大和田町2丁目998番地,市立大砂土東小学校南側正門横フェンス,35.9364554133905,139.646321668434,
埼玉県,さいたま市,4-12-2,見沼区大和田町2丁目998番地,市立大砂土東小学校北側裏門横フェンス,35.9379504162879,139.646414128691,
埼玉県,さいたま市,4-12-3,見沼区大和田町2丁目998番地,市立大砂土東小学校東側フェンス,35.9372622580333,139.647697527725,
埼玉県,さいたま市,4-12-4,見沼区大和田町2丁目1068番地1,大和田北緑地公園東側入口横フェンス,35.9353708357025,139.64782896121,
埼玉県,さいたま市,4-12-5,見沼区東大宮7丁目42番地,砂中央公園北側フェンス,35.9407169666013,139.646705877992,
埼玉県,さいたま市,4-12-6,見沼区大和田町2丁目1439番地,北山公園西側フェンス,35.9312836223311,139.648392963322,
埼玉県,さいたま市,4-12-7,見沼区東大宮7丁目42番地,砂中央公園東側フェンス,35.9402115223232,139.647359118596,
埼玉県,さいたま市,4-12-8,見沼区大和田町2丁目1045番地1,松の子の森自然緑地東側柵,35.9354845766096,139.646893400231,
埼玉県,さいたま市,4-13-1,見沼区東大宮1丁目100番地1,市立大砂土中学校南側正門横フェンス,35.9369170350182,139.644510803748,
埼玉県,さいたま市,4-13-2,見沼区東大宮1丁目100番地1,市立大砂土中学校北側フェンス,35.9381847551737,139.644795624139,
埼玉県,さいたま市,4-13-3,見沼区東大宮1丁目100番地1,市立大砂土中学校東側フェンス,35.9373353193103,139.645760444894,
埼玉県,さいたま市,4-13-4,見沼区東大宮1丁目78番地,本村公園東側フェンス,35.9395934220569,139.64278238167,
埼玉県,さいたま市,4-13-5,見沼区大和田町2丁目335番地4,天神山公園南東側フェンス,35.9294817463521,139.642561509474,
埼玉県,さいたま市,4-13-6,見沼区大和田町2丁目306番地5,masked,35.9307432518587,139.64427081249,
埼玉県,さいたま市,4-13-7,見沼区大和田町2丁目233番地1,masked,35.931730647755,139.642552671222,
埼玉県,さいたま市,4-14-1,見沼区大和田町1丁目356番地,県立大宮商業高等学校東側正門横フェンス,35.9276223858962,139.646400317564,
埼玉県,さいたま市,4-14-2,見沼区大和田町1丁目396番地,大和田自治会館 正面フェンス,35.9263144261504,139.645973203283,
埼玉県,さいたま市,4-14-3,見沼区大和田町1丁目285番地,大和田緑地公園東側フェンス,35.9213593143748,139.646359430052,
埼玉県,さいたま市,4-14-4,見沼区大和田町1丁目301番地1,大和田公園遊園地東側入口横フェンス,35.9226359313695,139.645587610348,
埼玉県,さいたま市,4-14-5,見沼区大和田町1丁目52番地1,大和田公園大宮体育館北側入口西側フェンス,35.9246119276132,139.643126505394,
埼玉県,さいたま市,4-14-6,見沼区大和田町1丁目1738番地10,大和田1丁目北公園南側フェンス,35.9283928759232,139.654406039955,
埼玉県,さいたま市,4-14-7,見沼区大和田町1丁目1387番地1,市営大和田駅南自転車駐車場西側フェンス,35.9273614318025,139.650189825425,
埼玉県,さいたま市,4-15-1,見沼区大字蓮沼1070番地,市立蓮沼小学校西側正門横フェンス,35.9346819512061,139.660014002069,
埼玉県,さいたま市,4-15-2,見沼区大字蓮沼1070番地,市立蓮沼小学校北側裏門横フェンス,35.9348969425822,139.661850528541,
埼玉県,さいたま市,4-15-3,見沼区大字蓮沼936番地,蓮沼公園北側フェンス,35.9330111068538,139.655606858547,
埼玉県,さいたま市,4-15-4,見沼区風渡野2丁目6番地1,風の子第二公園 東側フェンス,35.9353281687192,139.671948087039,
埼玉県,さいたま市,4-15-5,見沼区大字風渡野571番地,七里駅第2自転車駐車場北側フェンス,35.9356963336266,139.666454914655,
埼玉県,さいたま市,4-15-6,見沼区風渡野1丁目2番地2,風の子公園 西側植込み,35.9383163231914,139.669066754613,
埼玉県,さいたま市,4-15-7,見沼区大字蓮沼1085番地12先,masked,35.9326715532193,139.664714539892,
埼玉県,さいたま市,4-15-8,見沼区大字蓮沼1225番地34先,masked,35.9314947282839,139.665068131062,
埼玉県,さいたま市,4-16-1,見沼区大字小深作268番地19,市立春里中学校東側正門横フェンス,35.9405428072128,139.665235603918,
埼玉県,さいたま市,4-16-2,見沼区大字小深作268番地19,市立春里中学校西側フェンス,35.9410382581317,139.663626296997,
埼玉県,さいたま市,4-16-3,見沼区大字小深作268番地19,市立春里中学校南側フェンス,35.9399458590811,139.66485259831,
埼玉県,さいたま市,4-16-4,見沼区大字小深作367番地14,小深作北公園南側入口横フェンス,35.9448742551925,139.666081697256,
埼玉県,さいたま市,4-16-5,見沼区大字小深作604番地先,神明神社北東側フェンス,35.9423663572862,139.668467819481,
埼玉県,さいたま市,4-16-6,見沼区大字小深作562番地9,大宮七里ハウス西側,35.941735006127,139.665756792897,
埼玉県,さいたま市,4-16-7,見沼区大字小深作256番地,masked,35.9399064290324,139.659949283909,
埼玉県,さいたま市,4-16-8,見沼区大字小深作710番地1先,岡本きもの教室西側フェンス,35.9373102621168,139.673477539188,
埼玉県,さいたま市,4-17-1,見沼区大字東宮下312番地,市立七里小学校北東側正門横フェンス,35.9293711572785,139.676910373723,
埼玉県,さいたま市,4-17-2,見沼区大字東宮下312番地,市立七里小学校北西側フェンス,35.9296386216683,139.675768269519,
埼玉県,さいたま市,4-17-3,見沼区東宮下2丁目181番地,東宮下親水公園北西側入口横,35.9333622843897,139.681634611322,
埼玉県,さいたま市,4-17-4,見沼区大字東宮下654番地37,神宮台第1公園南側フェンス,35.9333408624157,139.676536824211,
埼玉県,さいたま市,4-17-5,見沼区大字東宮下619番地1,神宮台第2公園東側フェンス,35.9319703556291,139.676859261289,
埼玉県,さいたま市,4-17-6,見沼区大字新堤40番地,市立七里東保育園北西側フェンス,35.9312197530745,139.671241621011,
埼玉県,さいたま市,4-17-7,見沼区大字東門前1番地4,谷中公園南側入口横フェンス,35.9290495109267,139.667341045433,
埼玉県,さいたま市,4-17-8,見沼区大字新堤152番地,県営大宮東宮下団地児童会集会所南側,35.9274366882158,139.671919353499,
埼玉県,さいたま市,4-18-1,見沼区大字大谷1634番地2,市立大谷中学校北側正門東寄り,35.9260151850527,139.667481475688,
埼玉県,さいたま市,4-18-2,見沼区大字大谷1634番地2,市立大谷中学校北側正門西寄り,35.9257314026988,139.666410250813,
埼玉県,さいたま市,4-18-3,見沼区大字大谷1634番地2,市立大谷中学校西側南門横フェンス,35.9246880692984,139.666446796132,
埼玉県,さいたま市,4-18-4,見沼区大字大谷1634番地2,市立大谷中学校南西側フェンス,35.9243521732015,139.667314404515,
埼玉県,さいたま市,4-18-5,見沼区見沼区蓮沼下特定土地区画整理事業地内,蓮沼ふれあい広場 南側,35.9229779566204,139.661959815988,
埼玉県,さいたま市,4-18-6,見沼区大字大谷1664番地4,県営大宮七里第二団地1号棟東側,35.924879028857,139.668707803538,
埼玉県,さいたま市,4-18-7,見沼区大字大谷1822番地2,県営大宮七里団地3号棟西側植込み,35.9249416079995,139.670113589194,
埼玉県,さいたま市,4-18-8,見沼区大字大谷1822番地2,県営大宮七里団地RL棟西側フェンス,35.9236050021102,139.672101893269,
埼玉県,さいたま市,4-19-1,見沼区大和田町1丁目1230番地92,市立大和田保育園東側入口横ブロック塀,35.924573386094,139.652362352715,
埼玉県,さいたま市,4-19-2,見沼区大和田町1丁目1230番地92,市立大和田保育園南側フェンス,35.9242714366942,139.652300873758,
埼玉県,さいたま市,4-19-3,見沼区大和田町1丁目1275番地4,南新田公園東側植込み,35.925261652444,139.651413309069,
埼玉県,さいたま市,4-19-4,見沼区大和田町1丁目1889番地13,大和田1丁目公園西側フェンス,35.9257835705591,139.655596104277,
埼玉県,さいたま市,4-19-5,見沼区大和田町1丁目1508番地,masked,35.924314656657,139.654860147555,
埼玉県,さいたま市,4-19-6,見沼区大和田町1丁目1469番地先,(有)ライフステージ西側水路フェンス,35.9226122344498,139.654811336855,
埼玉県,さいたま市,4-19-7,見沼区大和田町1丁目1153番地,masked,35.9217482233494,139.652647478653,
埼玉県,さいたま市,4-20-1,見沼区大字南中丸357番地,市立大宮八幡中学校北側正門横フェンス,35.9196023690445,139.653095701922,
埼玉県,さいたま市,4-20-2,見沼区大字南中丸357番地,市立大宮八幡中学校西側フェンス,35.9192444538038,139.652140688858,
埼玉県,さいたま市,4-20-3,見沼区大字南中丸357番地,市立大宮八幡中学校南側フェンス,35.9185451719809,139.652661522862,
埼玉県,さいたま市,4-20-4,見沼区大字南中丸1280番地29,青葉北公園西側フェンス,35.9209793377723,139.657287396497,
埼玉県,さいたま市,4-20-5,見沼区大字南中丸777番地6先,南中丸第3公園東側水路フェンス,35.9166757180389,139.655746010895,
埼玉県,さいたま市,4-20-6,見沼区大字南中丸834番地4,南中丸第1公園西側フェンス,35.915981498712,139.656655038371,
埼玉県,さいたま市,4-20-7,見沼区大字南中丸1111番地50,青葉南公園東側フェンス,35.9169134110766,139.660447234697,
埼玉県,さいたま市,4-20-8,見沼区大字南中丸296番地,八幡公園東側フェンス,35.9177633840553,139.651368207379,
埼玉県,さいたま市,4-21-1,見沼区大字南中野563番地,うてな中野公園南西側,35.9119945565276,139.656366190608,
埼玉県,さいたま市,4-21-2,見沼区大字南中野563番地,うてな中野公園北東側,35.9124013448627,139.656560289028,
埼玉県,さいたま市,4-21-3,見沼区大字中川1131番地1,第二産業道路「高井」バス停前,35.9131903384367,139.652720566835,
埼玉県,さいたま市,4-21-4,見沼区大字南中丸31番地,masked,35.9102127840148,139.651829452625,
埼玉県,さいたま市,4-21-5,見沼区大字南中丸734番地61先,masked,35.9120224102389,139.658212234677,
埼玉県,さいたま市,4-21-6,見沼区大字南中丸584番地,南中丸集会所ゲートボール場入口横,35.9158359443989,139.654713212239,
埼玉県,さいたま市,4-21-7,見沼区大字南中野740番地,道半山北公園西側フェンス,35.9151045779418,139.648094788662,
埼玉県,さいたま市,4-22-1,見沼区大字大谷18番地,市立大谷小学校東側門横フェンス,35.9213209712086,139.666588393916,
埼玉県,さいたま市,4-22-2,見沼区大字大谷18番地,市立大谷小学校南側門横フェンス,35.9207270163192,139.665377384221,
埼玉県,さいたま市,4-22-3,見沼区大字大谷240番地29先,南平台第1公園北向側フェンス,35.9210715644616,139.670125197892,
埼玉県,さいたま市,4-22-4,見沼区大字大谷597番地3,思い出の里児童公園北側フェンス,35.9187493999692,139.677130852902,
埼玉県,さいたま市,4-22-5,見沼区大字大谷724番地52,masked,35.9183408943651,139.67328257999,
埼玉県,さいたま市,4-22-6,見沼区大字大谷156番地,生協大谷公園西側フェンス,35.9188624957602,139.667047086887,
埼玉県,さいたま市,4-22-7,見沼区大字南中野975番地2,グリーンライフ猿花キャンプ場西側入口左横,35.9164970539488,139.664031419529,
埼玉県,さいたま市,4-22-8,見沼区大字大谷1271番地,七里コミュニティセンター第2駐車場 西側フェンス,35.9207087161911,139.674515662887,
埼玉県,さいたま市,4-23-1,見沼区大字東宮下215番地1,市立東宮下小学校西側フェンス,35.9260721219987,139.67706913387,
埼玉県,さいたま市,4-23-2,見沼区大字大谷1812番地,県営大宮東宮下団地27号棟前広場西側フェンス,35.9266442749666,139.670945988882,
埼玉県,さいたま市,4-23-3,見沼区大字大谷1974番地1,県営大宮東宮下団地24号棟前公園東側フェンス,35.9263202358424,139.673897828483,
埼玉県,さいたま市,4-23-4,見沼区大字大谷1985番地,市立七里保育園北側水路フェンス,35.9267868295991,139.675446238477,
埼玉県,さいたま市,4-23-5,見沼区大字膝子795番地1,膝子公園東側入口横フェンス,35.9242895219224,139.681754998352,
埼玉県,さいたま市,4-23-6,見沼区大字大谷483番地1,さいたま市環境整備センター入口横,35.9213075721174,139.681703731949,
埼玉県,さいたま市,4-23-7,見沼区大字膝子734番地先,masked,35.9220943059284,139.683827040356,
埼玉県,さいたま市,4-24-1,見沼区大字御蔵551番地,市立片柳中学校東側正門横フェンス,35.9067431732874,139.674602402836,
埼玉県,さいたま市,4-24-2,見沼区大字御蔵526番地1,masked,35.9081952212799,139.673510970642,
埼玉県,さいたま市,4-24-3,見沼区大字御蔵1064番地1,特別養護老人ホーム あおぞら 南側,35.9005709661536,139.671674809151,
埼玉県,さいたま市,4-24-4,見沼区大字山172番地,山自治会館西側入口,35.9030963436046,139.679575289663,
埼玉県,さいたま市,4-24-5,見沼区大字御蔵1149番地,御蔵南公園 外縁斜面,35.8996857341285,139.668734397421,
埼玉県,さいたま市,4-24-6,見沼区大字片柳1438番地2,masked,35.901853382608,139.688106121511,
埼玉県,さいたま市,4-24-7,見沼区片柳1丁目222番地先,ふれあい農園片柳直売所駐車場北側の水路フェンス,35.8971151801376,139.692993491783,
埼玉県,さいたま市,4-25-1,見沼区さいたま市見沼区東新井117-2,片柳公民館北側フェンス,35.9098652771112,139.670868710919,
埼玉県,さいたま市,4-25-2,見沼区大字東新井244番地1,市立片柳小学校西側フェンス,35.9101860257217,139.67011032921,
埼玉県,さいたま市,4-25-3,見沼区大字御蔵1567番地1,配水場北側フェンス,35.9084838120715,139.666994130643,
埼玉県,さいたま市,4-25-4,見沼区大字笹丸172番地,masked,35.9113841484512,139.674597454389,
埼玉県,さいたま市,4-25-5,見沼区染谷3丁目147番地1,片柳コミュニティセンター南側フェンス,35.9089065644477,139.684166172834,
埼玉県,さいたま市,4-25-6,見沼区染谷3丁目88番地,染谷ふれあい公園南側入口横,35.9102123016201,139.684070211095,
埼玉県,さいたま市,4-25-7,見沼区染谷1丁目237番地,(株)八雲造園南西側,35.912095727516,139.683847626729,
埼玉県,さいたま市,4-26-1,見沼区大字東新井710番地5,市立海老沼小学校西側正門横フェンス,35.9081335833673,139.659631185584,
埼玉県,さいたま市,4-26-2,見沼区大字東新井710番地5,市立海老沼小学校北側フェンス,35.9089080576918,139.66053777433,
埼玉県,さいたま市,4-26-3,見沼区大字東新井710番地5,市立海老沼小学校南側入口横フェンス,35.9073333235901,139.660093492161,
埼玉県,さいたま市,4-26-4,見沼区大字南中野66番地62,代官山公園北側フェンス,35.9062805262505,139.658328031393,
埼玉県,さいたま市,4-26-5,見沼区大字東新井710番地84,海老沼中公園東側,35.9060957832135,139.659965015194,
埼玉県,さいたま市,4-26-6,見沼区大字東新井710番地49,海老沼中央公園南側フェンス,35.9038846485871,139.663834055409,
埼玉県,さいたま市,4-26-7,見沼区大字東新井710番地50先,大宮東新井団地「団地東」バス停水路脇フェンス,35.9062640252689,139.663088797647,
埼玉県,さいたま市,4-27-1,見沼区大字東新井710番地78,市立片柳児童センター西側フェンス,35.9047263986843,139.664467736021,
埼玉県,さいたま市,4-27-2,見沼区大字東新井710番地78,市立片柳児童センター正面入口横フェンス,35.9045227741796,139.664715445076,
埼玉県,さいたま市,4-27-3,見沼区大字東新井710番地77,大ヶ谷戸公園東側フェンス,35.905045735372,139.665040605407,
埼玉県,さいたま市,4-27-4,見沼区大字東新井866番地42,海老沼南公園南側フェンス,35.9014345518108,139.663840055035,
埼玉県,さいたま市,4-27-5,見沼区大字御蔵1393番地1,鎌倉公園南東側フェンス,35.903803089152,139.66583369406,
埼玉県,さいたま市,4-27-6,見沼区大字中川142番地1,中山神社前,35.8999484882436,139.662928397374,
埼玉県,さいたま市,4-27-7,見沼区大字東新井881番地先,マルヤ東新井店西側水路フェンス,35.9020488930828,139.664472537588,
埼玉県,さいたま市,4-28-1,見沼区大字中川字天神597番地1,中川第一公園北東側植込み内,35.8997620482205,139.654226782698,
埼玉県,さいたま市,4-28-2,見沼区大字上山口新田188番地9,masked,35.8966526096048,139.653621196259,
埼玉県,さいたま市,4-28-3,見沼区大字中川字天神599番地,中川第一公園南側法面内,35.8994643768987,139.654072693817,
埼玉県,さいたま市,4-28-4,見沼区大字上山口新田508番地1,埼玉県荒川左岸南部流域下水道 さいたま新都心浄化プラント 正面入口左側フェンス,35.90143621019,139.648468961515,
埼玉県,さいたま市,4-28-5,見沼区大字中川898番地,masked,35.9036006734601,139.653991798882,
埼玉県,さいたま市,4-28-6,見沼区大字中川1042番地,ドゥベスト(株)埼玉(営)車庫南西側フェンス,35.9081272700251,139.649458060628,
埼玉県,さいたま市,4-28-7,見沼区大字中川702−4,中川自治会ふれあい広場北側,35.9029190387054,139.654991396031,
埼玉県,さいたま市,4-28-8,見沼区大字中川802番地5,中川西公園東側フェンス,35.9077541619384,139.651321770858,
埼玉県,さいたま市,5-1-1,中央区円阿弥4丁目3番7号,市立与野西北小学校正門東側フェンス,35.8873654000304,139.608696781663,
埼玉県,さいたま市,5-1-2,中央区円阿弥5丁目385番地7,円阿弥キララ公園,35.8924801670071,139.606985891007,
埼玉県,さいたま市,5-1-3,中央区円阿弥7丁目4番1号,県立いずみ高等学校北側フェンス,35.8949139708447,139.610510863601,
埼玉県,さいたま市,5-1-4,中央区円阿弥5丁目1番23号,円阿弥自治会集会所東側フェンス,35.8907811289113,139.609284836306,
埼玉県,さいたま市,5-1-5,中央区円阿弥3丁目62番地1,(有)協栄金型西向側畑,35.8885208871024,139.612423071009,
埼玉県,さいたま市,5-1-6,中央区八王子1丁目518番地,浅間神社西側,35.8858373054477,139.612458103731,
埼玉県,さいたま市,5-1-7,中央区八王子2丁目618番地2,masked,35.8830903735531,139.611767186694,
埼玉県,さいたま市,5-2-1,中央区本町東5丁目23番14号,市立与野八幡小学校西側正門フェンス,35.8907649166335,139.621408958119,
埼玉県,さいたま市,5-2-2,中央区本町西5丁目1251番地3,飲食店駐車場北側植え込み,35.8889304468996,139.614387460445,
埼玉県,さいたま市,5-2-3,中央区本町東5丁目23番14号,市立与野八幡小学校南西角フェンス,35.8896532305831,139.622036973792,
埼玉県,さいたま市,5-2-4,中央区本町東6丁目1000番地,大宮配水場第3取水場西側フェンス,35.8931527261895,139.617502790459,
埼玉県,さいたま市,5-2-5,中央区本町西6丁目3番1号西側,学校給食センター西側植え込み,35.8922716861596,139.613733692309,
埼玉県,さいたま市,5-2-6,中央区本町東6丁目109番地1,上町氷川神社南西角フェンス,35.8913345266991,139.617441374772,
埼玉県,さいたま市,5-2-7,中央区本町西4丁目17番6号,masked,35.8895838528594,139.616488333261,
埼玉県,さいたま市,5-3-1,中央区上落合4丁目1120番地,上落合公園北門左側フェンス,35.8932820694903,139.623144680998,
埼玉県,さいたま市,5-3-2,中央区上落合4丁目1120番地,上落合公園西側フェンス,35.8928910361785,139.622971472327,
埼玉県,さいたま市,5-3-3,中央区本町東7丁目896番地1,(有)与野自動車東側フェンス,35.8914955679747,139.621015665207,
埼玉県,さいたま市,5-3-4,中央区上落合6丁目1034番地6,焼肉屋くいどん大宮店付近交差点北東側道路植え込み,35.8947701126188,139.622182226516,
埼玉県,さいたま市,5-3-5,中央区上落合4丁目1120番地,上落合公園南門,35.8928273874567,139.623995049985,
埼玉県,さいたま市,5-3-6,中央区本町東7丁目14番6号,masked,35.8926610809593,139.620756673962,
埼玉県,さいたま市,5-3-7,中央区上落合4丁目1150番地先,マルエツ与野店東向側植え込み,35.8918284637709,139.623443833664,
埼玉県,さいたま市,5-4-1,中央区上落合7丁目1003番地5,上落合北公園西側植え込み,35.8961519291367,139.622887296758,
埼玉県,さいたま市,5-4-2,中央区上落合9丁目899番地20,後原児童遊園地東側フェンス,35.9016452007244,139.622465850203,
埼玉県,さいたま市,5-4-3,中央区上落合7丁目998番地,上落合7丁目公園東側植え込み,35.8972146341193,139.624815321562,
埼玉県,さいたま市,5-4-4,中央区上落合8丁目11番20号,あおぞら保育園南側フェンス,35.8990540340122,139.620776803606,
埼玉県,さいたま市,5-4-5,中央区上落合9丁目935番地11,上落合九丁目公園植え込み,35.9010658586683,139.624395216104,
埼玉県,さいたま市,5-4-6,中央区上落合8丁目971番地28,興和ジェネリック(株)関東支店南東側道路植え込み,35.8974958631187,139.621423365509,
埼玉県,さいたま市,5-4-7,中央区上落合7丁目1003番地5,上落合北公園南側植え込み,35.8958102439165,139.623357553599,
埼玉県,さいたま市,5-5-1,中央区上落合4丁目14番24号,市立上落合小学校給食室北側フェンス,35.8942327939431,139.625940503608,
埼玉県,さいたま市,5-5-2,中央区上落合4丁目14番24号,市立上落合小学校南側南門右側フェンス,35.8935897071423,139.626212020547,
埼玉県,さいたま市,5-5-3,中央区上落合6丁目17番1号,masked,35.8954080988768,139.626649494528,
埼玉県,さいたま市,5-5-4,中央区上落合5丁目20番21号,masked,35.8952399931888,139.628381549699,
埼玉県,さいたま市,5-5-5,中央区上落合5丁目846番地1,上落合5丁目整圧器室西側フェンス,35.8989284475724,139.626018872558,
埼玉県,さいたま市,5-5-6,中央区上落合2丁目7番6号,与野郵政宿舎6号棟東側フェンス,35.8910839331531,139.627176248239,
埼玉県,さいたま市,5-5-7,中央区上落合2丁目527番地4,北与野駅北口右側フェンス,35.890541519615,139.628288983584,
埼玉県,さいたま市,5-6-1,中央区上落合2丁目9番10号,市立上落合保育園西側正門フェンス,35.8896365297645,139.626109002478,
埼玉県,さいたま市,5-6-2,中央区上落合3丁目1177番地4,八幡児童遊園北側フェンス,35.8916971847677,139.624038345038,
埼玉県,さいたま市,5-6-3,中央区上落合2丁目1318番地,北与野駅南口ロータリー植え込み,35.8902721328293,139.628566817212,
埼玉県,さいたま市,5-6-4,中央区上落合2丁目426番地,北与野駅南西側遊歩道植え込み,35.8896990308281,139.6277572625,
埼玉県,さいたま市,5-6-5,中央区上落合3丁目13番26号東側,マンション東側与野中央通り植え込み,35.8882801376462,139.62482578837,
埼玉県,さいたま市,5-6-6,中央区上落合3丁目1214番地2,ビッグ・エーさいたま上落合店東側道路植え込み,35.890065943764,139.624039093452,
埼玉県,さいたま市,5-6-7,中央区上落合2丁目352番地4,結婚式場ステラ・デル・アンジェロ南側道路植え込み,35.8886058115487,139.629351776982,
埼玉県,さいたま市,5-7-1,中央区上落合1丁目7番33号,市立下落合小学校東側正門左側フェンス,35.890053475721,139.631983425841,
埼玉県,さいたま市,5-7-2,中央区新都心2番地2先,ホテルブリランテ武蔵野西側道植え込み,35.8904904872056,139.632763007589,
埼玉県,さいたま市,5-7-3,中央区上落合1丁目7番33号,市立下落合小学校南西角フェンス,35.8888072930146,139.631129924358,
埼玉県,さいたま市,5-7-4,中央区新都心3番地1先,さいたま新都心郵便局西側道路植え込み,35.8882546668705,139.635504965363,
埼玉県,さいたま市,5-7-5,中央区新都心5番地2先,小池ビル南側道植え込み,35.8923826858654,139.629827151174,
埼玉県,さいたま市,5-7-6,中央区下落合3丁目21番10号,市立与野東中学校南東角フェンス,35.8874707555356,139.633317903376,
埼玉県,さいたま市,5-7-7,中央区下落合3丁目937番地先,国道17号・赤山東線交差点北東水路防護フェンス,35.8863182590099,139.631138134954,
埼玉県,さいたま市,5-8-1,中央区下落合1712NW,スカイレジデンシャルタワーノースウィング西側植え込み,35.8847069756846,139.636480495844,
埼玉県,さいたま市,5-8-2,中央区下落合3丁目8番2号,masked,35.8852446747142,139.632158637847,
埼玉県,さいたま市,5-8-3,中央区大字下落合1002番地9,県道さいたま北袋線路肩,35.8868888574262,139.635279970525,
埼玉県,さいたま市,5-8-4,中央区下落合3丁目882番地,稲荷町児童遊園地西門右側フェンス,35.8844776288919,139.634156232713,
埼玉県,さいたま市,5-8-5,中央区大字下落合字大原1084-1,大原陸橋西側高架下フェンス,35.8839323418384,139.631792688924,
埼玉県,さいたま市,5-8-6,中央区大字下落合1088番地37,たつみ通り植え込み,35.8818489836519,139.637292648414,
埼玉県,さいたま市,5-8-7,中央区大字下落合1652番地4東側,旧中山道沿い植え込み,35.8832583086168,139.641078403303,
埼玉県,さいたま市,5-8-8,中央区大字下落合1000番地2,月極駐車場北側植え込み,35.8866794755394,139.634134880202,
埼玉県,さいたま市,5-9-1,中央区下落合5丁目7番10号,中央区役所本館駐車場植え込み,35.8836030854742,139.62680654532,
埼玉県,さいたま市,5-9-2,中央区下落合6丁目193番地2,武蔵野銀行与野支店西側道路植え込み,35.8824307777056,139.627526956062,
埼玉県,さいたま市,5-9-3,中央区下落合4丁目73番地7,法務局前交差点公園南東角,35.8857567329302,139.625805436241,
埼玉県,さいたま市,5-9-4,中央区下落合5丁目11番10号,下落合プール東側駐輪場フェンス,35.8849365069403,139.627477387706,
埼玉県,さいたま市,5-9-5,中央区下落合5丁目8番10号,与野体育館東側植え込み,35.884565840163,139.62640730674,
埼玉県,さいたま市,5-9-6,中央区下落合5丁目4番17号,下落合公民館東側,35.8845077825657,139.628821560744,
埼玉県,さいたま市,5-9-7,中央区下落合4丁目378番地4,ハイム・ユリー北側植え込み,35.8882286943192,139.627872824024,
埼玉県,さいたま市,5-10-1,中央区本町東3丁目5番43号,与野本町コミュニティセンター正門右側フェンス,35.8835190709092,139.624092758966,
埼玉県,さいたま市,5-10-2,中央区本町東4丁目14番7号,大和町自治会館北側,35.8868936347543,139.62205582421,
埼玉県,さいたま市,5-10-3,中央区本町東3丁目5番23号,市立与野本町小学校北側フェンス,35.8840733322524,139.622459276369,
埼玉県,さいたま市,5-10-4,中央区本町東3丁目5番23号,市立与野本町小学校正門左側フェンス,35.8833301472737,139.622441863926,
埼玉県,さいたま市,5-10-5,中央区本町東2丁目112番地1,与野本町駅前西口ロータリー南側,35.8811575660961,139.625601795534,
埼玉県,さいたま市,5-10-6,中央区本町東2丁目3番地,与野本町駅東口左側,35.8815613987748,139.625985725041,
埼玉県,さいたま市,5-10-7,中央区本町東1丁目189番地3,エクレール与野本町II南西側道路植え込み,35.8786966914048,139.624904620385,
埼玉県,さいたま市,5-11-1,中央区本町西2丁目8番1号,埼玉県立与野高等学校正門北側,35.8846139391493,139.619088329172,
埼玉県,さいたま市,5-11-2,中央区本町西3丁目9番2号,masked,35.8865857737041,139.61576492496,
埼玉県,さいたま市,5-11-3,中央区本町西1丁目1949番地,与野公園南側入口植え込み,35.8797911214752,139.61852219286,
埼玉県,さいたま市,5-11-4,中央区本町西1丁目1670番地1,与野公園バラ園南側植え込み,35.8807957256682,139.617299638,
埼玉県,さいたま市,5-11-5,中央区本町西1丁目1670番地1,与野公園内児童遊園北側,35.8825947397665,139.618371525438,
埼玉県,さいたま市,5-11-6,中央区本町西2丁目8番1号,埼玉県立与野高等学校校舎北西側,35.8846753552717,139.617948673062,
埼玉県,さいたま市,5-11-7,中央区本町西1丁目1670番地1,与野公園南東側入口植え込み,35.8811156571503,139.619541985771,
埼玉県,さいたま市,5-12-1,中央区桜丘2丁目6番28号,西与野コミュニティホール駐車場東側植え込み,35.8821720600512,139.615347596729,
埼玉県,さいたま市,5-12-2,中央区八王子3丁目430番地,月極パーキング中宿II西側フェンス,35.8817408331638,139.6125205359,
埼玉県,さいたま市,5-12-3,中央区桜丘2丁目1740番地1,masked,35.8806050117379,139.616055618422,
埼玉県,さいたま市,5-12-4,中央区桜丘1丁目2番8号,masked,35.8780777071867,139.616334190039,
埼玉県,さいたま市,5-12-5,中央区桜丘1丁目2番13号,masked,35.8791293892827,139.616483051215,
埼玉県,さいたま市,5-12-6,中央区桜丘1丁目2番13号,masked,35.8787343882085,139.615866026873,
埼玉県,さいたま市,5-12-7,中央区八王子3丁目30番1号,あしすとリハ与野東側フェンス,35.882985171015,139.613130785612,
埼玉県,さいたま市,5-13-1,中央区八王子4丁目2番1号,市立八王子中学校北側正門フェンス,35.8789337796021,139.608915512041,
埼玉県,さいたま市,5-13-2,中央区八王子4丁目338番地1,八王子野球場東側,35.8805558171652,139.609004744823,
埼玉県,さいたま市,5-13-3,中央区八王子4丁目354番地,八王子野球場北西角,35.8812252246647,139.607504239793,
埼玉県,さいたま市,5-13-4,中央区八王子5丁目12番17号,市立八王子保育園西側フェンス,35.8806341666679,139.605235912817,
埼玉県,さいたま市,5-13-5,中央区八王子4丁目161番地1,八王子サッカー場北東角フェンス,35.8793464234806,139.610567539697,
埼玉県,さいたま市,5-13-6,中央区八王子5丁目176番地2先,かやのき団地1号棟東向側フェンス(白神川),35.8791166329932,139.607505573433,
埼玉県,さいたま市,5-13-7,中央区八王子3丁目29番地,masked,35.8784757932157,139.613292004563,
埼玉県,さいたま市,5-14-1,中央区上峰2丁目3番5号,上峰コミュニティホール正面玄関西側植え込み,35.8740601913888,139.616450242466,
埼玉県,さいたま市,5-14-2,中央区上峰2丁目316番地1,masked,35.876430152811,139.616686874103,
埼玉県,さいたま市,5-14-3,中央区上峰2丁目246番地1,ガスト与野上峰店東側空地,35.875128623564,139.619052406525,
埼玉県,さいたま市,5-14-4,中央区上峰2丁目15番,水とふれあいの広場南側フェンス,35.8764005556303,139.614381741773,
埼玉県,さいたま市,5-14-5,中央区上峰2丁目106番地2,諏訪神社南東コンクリート擁壁,35.8738096947542,139.616392563053,
埼玉県,さいたま市,5-14-6,中央区上峰1丁目13番,上峰ふれあい公園東側植え込み,35.8718113898659,139.617626242179,
埼玉県,さいたま市,5-14-7,中央区上峰1丁目15番4号,(株)アイチコーポレーション南側ブロック塀,35.8721681720956,139.618851961979,
埼玉県,さいたま市,5-15-1,中央区鈴谷8丁目10番33号,市立与野西中学校北側正門右側フェンス,35.8781600118514,139.623546014486,
埼玉県,さいたま市,5-15-2,中央区鈴谷8丁目10番33号,市立与野西中学校東側東門左側フェンス,35.8780325363228,139.624877232978,
埼玉県,さいたま市,5-15-3,中央区鈴谷8丁目10番33号,市立与野西中学校西側西門左側フェンス,35.8775740652443,139.623193493817,
埼玉県,さいたま市,5-15-4,中央区上峰3丁目15番1号西側,県道宗岡さいたま線彩の国さいたま芸術劇場西側植え込み,35.8765885197913,139.621131311774,
埼玉県,さいたま市,5-15-5,中央区上峰3丁目11番1号,後藤精工(株)東側フェンス,35.875046103506,139.622335466624,
埼玉県,さいたま市,5-15-6,中央区鈴谷7丁目5番12号,保健所東側植え込み,35.8732106560362,139.624838147428,
埼玉県,さいたま市,5-15-7,中央区鈴谷7丁目5番12号,保健所南側植え込み,35.8735526982035,139.623431027347,
埼玉県,さいたま市,5-16-1,中央区鈴谷6丁目132番地3,レックスパーク鈴谷駐車場南側フェンス,35.8741846755942,139.632473873628,
埼玉県,さいたま市,5-16-2,中央区鈴谷9丁目385番地4,小井戸児童遊園地東側フェンス,35.8764535420922,139.627791378257,
埼玉県,さいたま市,5-16-3,中央区鈴谷6丁目16,コンテナ与野本町北側フェンス,35.8766874879796,139.63116582254,
埼玉県,さいたま市,5-16-4,中央区鈴谷9丁目246番地7,「餃子の王将」東側植え込み,35.8790208048566,139.626988000941,
埼玉県,さいたま市,5-16-5,中央区鈴谷6丁目454番地,埼京線高架下資材置場フェンス,35.8761607404274,139.627817052766,
埼玉県,さいたま市,5-16-6,中央区鈴谷7丁目8番8号,「肉匠坂井」西側植え込み,35.8747627118532,139.624859330888,
埼玉県,さいたま市,5-16-7,中央区鈴谷6丁目4番1号先,里見通り北側用水路フェンス,35.8739344670683,139.63075841179,
埼玉県,さいたま市,5-17-1,中央区下落合7丁目11番9号,向原児童センター正面右側フェンス,35.8813025665042,139.63161594172,
埼玉県,さいたま市,5-17-2,中央区新中里4丁目1309番地3,中央公園植え込み,35.8782482074152,139.63055273038,
埼玉県,さいたま市,5-17-3,中央区下落合7丁目253番地1先,与野中央通り線・たつみ通り線交差点北東水路防護フェンス,35.879481554803,139.629885407195,
埼玉県,さいたま市,5-17-4,中央区下落合7丁目219番地18,与野中央通り線・福原通り線交差点南東側道路植え込み,35.8812335882687,139.628141749907,
埼玉県,さいたま市,5-17-5,中央区下落合7丁目2番14号,埼玉機器(株)南側フェンス,35.8799452418625,139.631832803529,
埼玉県,さいたま市,5-17-6,中央区新中里4丁目5番12号,masked,35.8778336946423,139.633356751203,
埼玉県,さいたま市,5-17-7,中央区新中里4丁目1275番地,中央公園南門右側,35.8769097768459,139.632196879308,
埼玉県,さいたま市,5-18-1,中央区新中里3丁目15番1先,東縁高沼用水路東縁フェンス,35.8760353711425,139.634189549206,
埼玉県,さいたま市,5-18-2,中央区新中里5丁目22番17号北側,たつみ通り植え込み,35.8812299515207,139.635976638937,
埼玉県,さいたま市,5-18-3,中央区新中里5丁目8番47号,masked,35.8778220272413,139.63688305097,
埼玉県,さいたま市,5-18-4,中央区新中里3丁目20番30号,島忠ホームズ与野店東側フェンス,35.8771069467474,139.63591975226,
埼玉県,さいたま市,5-18-5,中央区新中里3丁目423番地3,与野中央通り植え込み,35.8746632550242,139.633264494512,
埼玉県,さいたま市,5-18-6,中央区新中里5丁目1225番地2,国道17号・たつみ通り交差点南東側植え込み,35.8805596682542,139.633983298721,
埼玉県,さいたま市,5-18-7,中央区新中里3丁目398番地2,与野中央通り植え込み,35.8762675096556,139.632321432591,
埼玉県,さいたま市,5-19-1,中央区新中里1丁目6番28号,市立大戸小学校東側正門左側フェンス,35.8722879914985,139.636563600867,
埼玉県,さいたま市,5-19-2,中央区新中里1丁目6番28号,市立大戸小学校西側西門左側フェンス,35.8724866030105,139.635329883804,
埼玉県,さいたま市,5-19-3,中央区新中里1丁目13番11号,中里郵政宿舎2号棟北側フェンス,35.8747584094139,139.636962488354,
埼玉県,さいたま市,5-19-4,中央区新中里1丁目6番28号,市立大戸小学校南側南門左側フェンス,35.871602719273,139.635915134517,
埼玉県,さいたま市,5-19-5,中央区新中里1丁目10番1号,県営与野中里団地2号棟正面玄関南側植え込み,35.873425171422,139.636317706898,
埼玉県,さいたま市,5-19-6,中央区新中里1丁目4番9号,与野大戸郵政宿舎南西角フェンス,35.8704954556736,139.635881337114,
埼玉県,さいたま市,5-19-7,中央区新中里2丁目8番6号,特別養護老人ホームきりしき西側フェンス,35.8721343395618,139.633684472908,
埼玉県,さいたま市,5-20-1,中央区鈴谷5丁目1番1号,市立鈴谷小学校西側正門右側フェンス,35.8709312240903,139.630774029693,
埼玉県,さいたま市,5-20-2,中央区鈴谷5丁目1番1号,市立鈴谷小学校東側東門左側フェンス,35.8708668884758,139.632288452371,
埼玉県,さいたま市,5-20-3,中央区鈴谷2丁目707番地,masked,35.8703388285048,139.626417282645,
埼玉県,さいたま市,5-20-4,中央区鈴谷5丁目1番1号,市立鈴谷小学校北側フェンス,35.8715299301672,139.631705719721,
埼玉県,さいたま市,5-20-5,中央区鈴谷2丁目578番地,鈴谷東公園西側,35.868357054247,139.631185544413,
埼玉県,さいたま市,5-20-6,中央区鈴谷2丁目578番地,南与野駅西口右側フェンス,35.8677979002653,139.630780342864,
埼玉県,さいたま市,5-20-7,中央区鈴谷1丁目510番地,鈴谷清掃工場南西側フェンス,35.8657408228548,139.632154678767,
埼玉県,さいたま市,5-20-8,中央区鈴谷2丁目621番地2,与野鈴谷郵便局北東側フェンス,35.8702333181137,139.629762542923,
埼玉県,さいたま市,5-21-1,中央区大戸6丁目2番25号,市立与野南小学校北側正門左側フェンス,35.8671174400762,139.635682643018,
埼玉県,さいたま市,5-21-2,中央区大戸6丁目2番25号,市立与野南小学校西側フェンス,35.8669896115386,139.634143527672,
埼玉県,さいたま市,5-21-3,中央区大戸5丁目629番地2,伊達コーポ北側歩道フェンス,35.8705561287986,139.638317125393,
埼玉県,さいたま市,5-21-4,中央区大戸6丁目1463番地112,はま寿司南与野店南西道路植え込み,35.8673705883988,139.633209187681,
埼玉県,さいたま市,5-21-5,中央区大戸6丁目1490番地2先,がってん寿司南与野店前道路植え込み,35.8694054202339,139.632970192756,
埼玉県,さいたま市,5-21-6,中央区大戸5丁目563番地,masked,35.8684016050383,139.638455288367,
埼玉県,さいたま市,5-21-7,中央区大戸4丁目438番地4,ファミリーマートさいたま大戸四丁目店南側道路植え込み,35.8662189613341,139.6421305639,
埼玉県,さいたま市,5-22-1,中央区大戸2丁目6番25号,市立与野南中学校北側正門右側フェンス,35.8659623511095,139.633762961436,
埼玉県,さいたま市,5-22-2,中央区大戸1丁目33番12号,特別養護老人ホーム緑水苑与野フェンス,35.8619378476441,139.63632465724,
埼玉県,さいたま市,5-22-3,中央区大戸2丁目13番,大戸公園北側フェンス,35.8643067961939,139.634542781884,
埼玉県,さいたま市,5-22-4,中央区大戸3丁目16番2号,masked,35.8653846148409,139.639112563135,
埼玉県,さいたま市,5-22-5,中央区大戸1丁目18番8号,南大戸橋北側フェンス,35.8598689031924,139.637536897739,
埼玉県,さいたま市,5-22-6,中央区大戸3丁目14番21号,大戸氷川神社東側,35.8655777250446,139.63763912601,
埼玉県,さいたま市,5-22-7,中央区大戸1丁目67番地,別所沼会館北西道路路肩,35.8582245728519,139.639812080016,
埼玉県,さいたま市,6-1-1,桜区大字白鍬511番地,市立白鍬保育園西側正門左側フェンス,35.8848085598755,139.603732790043,
埼玉県,さいたま市,6-1-2,桜区大字白鍬776番地9,白鍬電建内調整池北側フェンス,35.8843607256326,139.607654388128,
埼玉県,さいたま市,6-1-3,桜区大字白鍬771番地9,白鍬第三公園北側,35.884334590938,139.609100417182,
埼玉県,さいたま市,6-1-4,桜区大字白鍬635番地1,ミニコープ白鍬駐車場向かい側空き地南西側,35.8876046168402,139.604779849612,
埼玉県,さいたま市,6-1-5,桜区大字白鍬691番地15,白鍬第二公園西側フェンス,35.8855817751728,139.60727389528,
埼玉県,さいたま市,6-1-6,桜区大字白鍬335番地1,白鍬公園西側,35.8809005883428,139.604186530882,
埼玉県,さいたま市,6-1-7,桜区大字白鍬752,ドラッグストアセキ白鍬店南側水路フェンス,35.8818205573006,139.606498553929,
埼玉県,さいたま市,6-2-1,桜区大字五関282番地,市立大久保中学校西側正門右側フェンス,35.8668403952216,139.596654446643,
埼玉県,さいたま市,6-2-2,桜区大字五関839番地2,大久保公民館東側正門右側フェンス,35.8700592117385,139.598049707473,
埼玉県,さいたま市,6-2-3,桜区大字五関21番地,市立大久保小学校北側門右側フェンス,35.8725150193504,139.598794497513,
埼玉県,さいたま市,6-2-4,桜区大字在家135番地,masked,35.8776294957132,139.59750591567,
埼玉県,さいたま市,6-2-5,桜区大字宿618番地,埼玉県大久保浄水場東側水路フェンス,35.8727844892185,139.592717146283,
埼玉県,さいたま市,6-2-6,桜区塚本140番地12,masked,35.8711919103108,139.594297353935,
埼玉県,さいたま市,6-2-7,桜区大字五関586番地1,マンション北側水路フェンス,35.8670996664657,139.595946523989,
埼玉県,さいたま市,6-3-1,桜区大字神田541番地1,市立神田小学校東側金網フェンス,35.8753564740185,139.608301768092,
埼玉県,さいたま市,6-3-2,桜区大字神田723番地1,神田会館南向側墓地ブロック塀,35.8748769094728,139.611374762686,
埼玉県,さいたま市,6-3-3,桜区大字神田38,神田第一公園西側入口 左側フェンス,35.8740716191136,139.611698832163,
埼玉県,さいたま市,6-3-4,桜区大字神田95番地,masked,35.8743943281627,139.610399338951,
埼玉県,さいたま市,6-3-5,桜区大字神田541番地1,市立神田小学校南側フェンス,35.8741112358511,139.607801845131,
埼玉県,さいたま市,6-3-6,桜区大字白鍬105番地1,マンション北側フェンス,35.8762437153714,139.605270537968,
埼玉県,さいたま市,6-3-7,桜区大字白鍬91-1,masked,35.8751468020585,139.604663582629,
埼玉県,さいたま市,6-3-8,桜区大字神田764,アパート西側水路フェンス,35.8761744334589,139.61385166264,
埼玉県,さいたま市,6-4-1,桜区大字上大久保861番地1,市立上大久保中学校西側正門左側フェンス,35.8717580085075,139.61586427258,
埼玉県,さいたま市,6-4-2,桜区大字上大久保904番地4,作田排水路第一調整池南側フェンス,35.8732600657448,139.612146501978,
埼玉県,さいたま市,6-4-3,桜区大字上大久保432番地,西部総合病院院内保育所さくらの家西側ブロック塀,35.8716173097194,139.613044747754,
埼玉県,さいたま市,6-4-4,桜区栄和4丁目25番27号,masked,35.8686067555052,139.615873547416,
埼玉県,さいたま市,6-4-5,桜区大字上大久保861番地1,市立上大久保中学校西側フェンス,35.8729445456176,139.615125143806,
埼玉県,さいたま市,6-4-6,桜区栄和4丁目10番18号,ケーズデンキ埼大通り店南側ガードフェンス,35.8684135175314,139.617327825005,
埼玉県,さいたま市,6-4-7,桜区大字上大久保639番地1,旧埼玉県衛生研究所南側正門右側植え込み,35.8679203554212,139.612743258532,
埼玉県,さいたま市,6-5-1,桜区大字上大久保940番地3,市立上大久保保育園南側フェンス,35.8691450572462,139.609359710667,
埼玉県,さいたま市,6-5-2,桜区大字上大久保308番地1,物流センター西側フェンス,35.8713090000185,139.610718941491,
埼玉県,さいたま市,6-5-3,桜区大字上大久保212番地,masked,35.8668802777159,139.61185085314,
埼玉県,さいたま市,6-5-4,桜区大字上大久保680番地,上大久保児童遊園西側フェンス,35.8662184986495,139.611892226384,
埼玉県,さいたま市,6-5-5,桜区大字上大久保977番地6,masked,35.8684779458923,139.60948948874,
埼玉県,さいたま市,6-5-6,桜区大字上大久保140番地1,埼大前公園東側,35.8657557840315,139.607936253657,
埼玉県,さいたま市,6-5-7,桜区大字上大久保140番地3,埼大前公園北側植栽,35.865781750823,139.607604535144,
埼玉県,さいたま市,6-6-1,桜区大字大久保領家331番地,市立大久保東小学校北側金網フェンス,35.871798298326,139.603235340075,
埼玉県,さいたま市,6-6-2,桜区大字大久保領家331番地,市立大久保東小学校南側金網フェンス,35.8705957616159,139.603676238153,
埼玉県,さいたま市,6-6-3,桜区大字大久保領家406番地1,masked,35.8687383822178,139.604250342761,
埼玉県,さいたま市,6-6-4,桜区大字大久保領家131番地6,大久保東公民館南側掲示板脇植込内,35.8694730708185,139.608066364164,
埼玉県,さいたま市,6-6-5,桜区大字神田436番地,masked,35.8736368171717,139.604632483682,
埼玉県,さいたま市,6-6-6,桜区大字大久保領家606番地,masked,35.8656115383565,139.603542569405,
埼玉県,さいたま市,6-6-7,桜区大字神田315-1,神田なかよし広場南側フェンス,35.8723795520886,139.603083271774,
埼玉県,さいたま市,6-6-8,桜区大字大久保領家579番地1,大久保領家公園北側,35.8665263257613,139.605586180521,
埼玉県,さいたま市,6-7-1,桜区大字下大久保1676番地1,浦和西体育館駐車場北側西寄り植込内,35.8590763785811,139.601490015766,
埼玉県,さいたま市,6-7-2,桜区大字下大久保1029番地,諏訪社北側ブロック塀,35.8612248885983,139.601900201776,
埼玉県,さいたま市,6-7-3,桜区大字下大久保814番地2,masked,35.86520242522,139.606009421419,
埼玉県,さいたま市,6-7-4,桜区大字下大久保640番地1先,埼玉大学国際交流会館4号館入口北側付近フェンス,35.8625188865012,139.605547928402,
埼玉県,さいたま市,6-7-5,桜区大字下大久保727番地1,市立老人福祉センター寿楽荘北側フェンス,35.8632140431305,139.603204789688,
埼玉県,さいたま市,6-7-6,桜区大字下大久保455番地1先,(株)ケイルート東向側フェンス「埼大裏」バス停付近,35.8600499230542,139.605402191915,
埼玉県,さいたま市,6-7-7,桜区大字下大久保291番地,埼玉大学東側フェンス(埼玉障害者職業センター向側),35.8614540364406,139.609623287703,
埼玉県,さいたま市,6-8-1,桜区道場2丁目11番27号,栄和公民館北側フェンス,35.8589026267973,139.613295620053,
埼玉県,さいたま市,6-8-2,桜区栄和5丁目22番,第2冨田駐車場南側ポール,35.8670714497055,139.614802618793,
埼玉県,さいたま市,6-8-3,桜区道場2丁目18番,十石田バス停東側水路フェンス,35.858008544284,139.609806802182,
埼玉県,さいたま市,6-8-4,桜区栄和6丁目5番22号,駐車場北側フェンス,35.858722178136,139.609538066901,
埼玉県,さいたま市,6-8-5,桜区道場2丁目4番13号,masked,35.8593130409864,139.615838256772,
埼玉県,さいたま市,6-8-6,桜区栄和6丁目17番10号,masked,35.8615925874912,139.612849374323,
埼玉県,さいたま市,6-8-7,桜区町谷2丁目5番,町谷2丁目公園西側垣根,35.8603446353087,139.619964386837,
埼玉県,さいたま市,6-8-8,桜区道場2丁目1番,サクラディア北東側水路(暗渠)フェンス,35.8603721527933,139.617255748732,
埼玉県,さいたま市,6-9-1,桜区栄和1丁目7番1号,市立栄和小学校東側正門左側フェンス,35.8619429219214,139.618008308472,
埼玉県,さいたま市,6-9-2,桜区中島4丁目地内,中島西公園西側フェンス,35.8647285930662,139.619360445031,
埼玉県,さいたま市,6-9-3,桜区栄和3丁目16番,栄和3丁目公園西側ガードパイプ,35.866764528535,139.617386781221,
埼玉県,さいたま市,6-9-4,桜区栄和3丁目17番1号,栄和3丁目第一公園西側,35.8657058870239,139.617077608167,
埼玉県,さいたま市,6-9-5,桜区栄和1丁目1番1号,アパート東側水路フェンス,35.8615592537894,139.620200744943,
埼玉県,さいたま市,6-9-6,桜区栄和1丁目11番15号,masked,35.8613982826323,139.61612886523,
埼玉県,さいたま市,6-9-7,桜区栄和3丁目4番11号,masked,35.8679925266442,139.619255773627,
埼玉県,さいたま市,6-10-1,桜区中島1丁目28番1号,市立中島小学校西側正門右側ネットフェンス,35.8652723997009,139.623360402303,
埼玉県,さいたま市,6-10-2,桜区山久保2丁目16番,山久保2丁目公園北側,35.8710885281781,139.621995355707,
埼玉県,さいたま市,6-10-3,桜区中島1丁目28番1号,市立中島小学校東側フェンス,35.8656633065499,139.624702559508,
埼玉県,さいたま市,6-10-4,桜区中島3丁目12番27号,masked,35.863272381918,139.621546503864,
埼玉県,さいたま市,6-10-5,桜区西堀10丁目11番,栄楽観光バス駐車場北側フェンス,35.8647725874128,139.628625011371,
埼玉県,さいたま市,6-10-6,桜区中島2丁目6番,東京ガス浦和整圧所北側水路フェンス,35.8672177794212,139.621621604758,
埼玉県,さいたま市,6-10-7,桜区中島3丁目2番1号,masked,35.8634536838912,139.624142853995,
埼玉県,さいたま市,6-10-8,桜区山久保1丁目11番1号,ロヂャース北側駐車場入り口付近,35.8695200220484,139.621692886844,
埼玉県,さいたま市,6-11-1,桜区町谷1丁目19番1号,市立土合中学校南側正門右側フェンス,35.8597886187213,139.623559886061,
埼玉県,さいたま市,6-11-2,桜区南元宿2丁目1番12号,ブエノビエント東側フェンス,35.861638331941,139.629676009952,
埼玉県,さいたま市,6-11-3,桜区西堀9丁目16番2号,masked,35.862257637568,139.631487818699,
埼玉県,さいたま市,6-11-4,桜区南元宿2丁目6番26号,メルディア南元宿2丁目東側水路フェンス,35.8628089894972,139.628347148607,
埼玉県,さいたま市,6-11-5,桜区町谷1丁目2番24号,廣済堂さいたま第3工場北側ガードパイプ,35.8579320355618,139.624441474253,
埼玉県,さいたま市,6-11-6,桜区南元宿2丁目17番14号,中元児童遊園 南元宿第二自治会掲示板横,35.8619497005289,139.626169909818,
埼玉県,さいたま市,6-11-7,桜区町谷1丁目7番,駐車場北側水路フェンス,35.858517978963,139.622932002969,
埼玉県,さいたま市,6-12-1,桜区西堀7丁目21番1号,市立土合小学校西側フェンス,35.857176088138,139.62663584307,
埼玉県,さいたま市,6-12-2,桜区南元宿1丁目8番7号,南元宿自治会館北側フェンス,35.8604380982894,139.626193109329,
埼玉県,さいたま市,6-12-3,桜区西堀8丁目26番26号,西堀ひかわ幼稚園東側ブロック,35.8590253903544,139.632599262403,
埼玉県,さいたま市,6-12-4,桜区西堀7丁目9番1号,マミーマート東側路肩フェンス南,35.8592798155541,139.630491877425,
埼玉県,さいたま市,6-12-5,桜区西堀1丁目16番,須黒稲荷公園南側フェンス,35.8560562329595,139.634798549031,
埼玉県,さいたま市,6-12-6,桜区西堀6丁目5番38号,masked,35.8561468796121,139.630945615173,
埼玉県,さいたま市,6-12-7,桜区西堀6丁目12番28号,masked,35.8551462341803,139.629627844509,
埼玉県,さいたま市,6-12-8,桜区西堀8丁目1番3号,masked,35.858042056281,139.63588210744,
埼玉県,さいたま市,6-13-1,桜区道場4丁目3番1号,プラザウエスト敷地入り口北側,35.8575517448378,139.608695887663,
埼玉県,さいたま市,6-13-2,桜区道場3丁目21番,大谷場高木線沿いファミリーマート道場店反対車線側フェンス,35.8556272569271,139.611982356692,
埼玉県,さいたま市,6-13-3,桜区町谷3丁目6番3号,masked,35.8572291958997,139.621471676546,
埼玉県,さいたま市,6-13-4,桜区道場3丁目3番21号,masked,35.8540577312885,139.616022671344,
埼玉県,さいたま市,6-13-5,桜区道場1丁目9番,道場1丁目公園西側,35.8568926701415,139.61494714589,
埼玉県,さいたま市,6-13-6,桜区町谷4丁目29番31号,(有)境商店北側ブロック塀,35.8547992080692,139.616989095063,
埼玉県,さいたま市,6-13-7,桜区町谷4丁目8番22号,masked,35.8557908602915,139.621028198556,
埼玉県,さいたま市,6-14-1,桜区新開2丁目18番1号,市立新開小学校東側正門横左側フェンス,35.8509330610841,139.618792139625,
埼玉県,さいたま市,6-14-2,桜区桜田1丁目17番9号,masked,35.8495385054861,139.622666439785,
埼玉県,さいたま市,6-14-3,桜区新開1丁目11番6号,masked,35.846733107213,139.62115087105,
埼玉県,さいたま市,6-14-4,桜区新開1丁目6番35号,真光寺墓地東側ブロック塀,35.8475560145117,139.621752588834,
埼玉県,さいたま市,6-14-5,桜区新開2丁目21番,浦和卸売市場駐車場東側フェンス,35.8527746786565,139.617478640125,
埼玉県,さいたま市,6-14-6,桜区田島9丁目23番,masked,35.84433091945,139.621450189762,
埼玉県,さいたま市,6-14-7,桜区新開1丁目14番,新開公園北側,35.8473760311537,139.619875470742,
埼玉県,さいたま市,6-15-1,桜区西堀4丁目2番35号,土合支所東側入口右側フェンス,35.8520241245761,139.628071998065,
埼玉県,さいたま市,6-15-2,桜区田島4丁目25番26号,masked,35.8483796938619,139.628374768219,
埼玉県,さいたま市,6-15-3,桜区西堀3丁目13番7号,masked,35.8519981122919,139.632467180226,
埼玉県,さいたま市,6-15-4,桜区西堀3丁目4番20号,masked,35.8540795588716,139.63450985648,
埼玉県,さいたま市,6-15-5,桜区西堀3丁目17番28号,masked,35.8534369927353,139.630093458579,
埼玉県,さいたま市,6-15-6,桜区田島4丁目8番21号,田島駐車場東側フェンス,35.8505222412991,139.632623352465,
埼玉県,さいたま市,6-15-7,桜区田島4丁目14番17号,masked,35.8490930322904,139.630828585105,
埼玉県,さいたま市,6-15-8,桜区西堀4丁目7番1号,イトーピア西浦和北側正門左側フェンス,35.8516385630158,139.626148352455,
埼玉県,さいたま市,6-16-1,桜区田島5丁目10番15号,西浦和駅北側ロータリー沿いフェンス,35.8444724777103,139.62807263787,
埼玉県,さいたま市,6-16-2,桜区田島5丁目4番1号,masked,35.8470178779835,139.628178889267,
埼玉県,さいたま市,6-16-3,桜区田島3丁目27番6号,田島公民館西側フェンス,35.8454689721316,139.633128610465,
埼玉県,さいたま市,6-16-4,桜区田島3丁目4番5号,株式会社近藤組関東支店西側フェンス,35.8474501774161,139.632563340612,
埼玉県,さいたま市,6-16-5,桜区田島3丁目31番,田島東広場南側,35.8454842928126,139.634321083211,
埼玉県,さいたま市,6-16-6,桜区田島5丁目6番8号,マンション南側水路フェンス,35.8460682093942,139.627014056093,
埼玉県,さいたま市,6-16-7,桜区田島3丁目15番11号先,masked,35.8469840310279,139.630754791454,
埼玉県,さいたま市,6-16-8,桜区田島1丁目12番10号,犬の学校ミナクル前植え込み,35.8408982345577,139.634314495201,
埼玉県,さいたま市,6-17-1,桜区田島2丁目16番7号,市立田島保育園西側入口右側ブロック塀,35.8432680371259,139.631119261094,
埼玉県,さいたま市,6-17-2,桜区田島6丁目2番1号,田島団地2-1号棟東側フェンス,35.841697421598,139.631750913433,
埼玉県,さいたま市,6-17-3,桜区田島6丁目1番10号,田島団地1-10号棟北側フェンス,35.843389445973,139.629517208554,
埼玉県,さいたま市,6-17-4,桜区田島6丁目1番12号,田島団地1-12号棟北側フェンス,35.8433633340413,139.628155975784,
埼玉県,さいたま市,6-17-5,桜区田島6丁目3番7号,田島団地3-7号棟東側,35.8394859523219,139.631956094076,
埼玉県,さいたま市,6-17-6,桜区田島6丁目1番6号,田島団地1-6号棟南側,35.8419907764004,139.630072293417,
埼玉県,さいたま市,6-17-7,桜区田島6丁目2番16号,田島団地2-16号棟南側,35.8398599753629,139.629954523706,
埼玉県,さいたま市,6-18-1,桜区田島10丁目12番1号,市立田島小学校東側正門右側金網フェンス,35.8381272662564,139.623889678489,
埼玉県,さいたま市,6-18-2,桜区田島8丁目9番1号,masked,35.8435735034628,139.625362753885,
埼玉県,さいたま市,6-18-3,桜区田島10丁目9番,すみれパーキング東側ガードパイプ,35.8385746200556,139.625039620952,
埼玉県,さいたま市,6-18-4,桜区田島7丁目16番,(株)ヤマキュー中古車センター南側更地,35.8389703363958,139.627565768264,
埼玉県,さいたま市,6-18-5,桜区田島10丁目13番1号,市立田島中学校東側金網フェンス,35.8392248846773,139.62298882738,
埼玉県,さいたま市,6-18-6,桜区田島8丁目20番1号,さいたま市道路維持課分室北側フェンス,35.8421896855529,139.623506493501,
埼玉県,さいたま市,6-18-7,桜区田島7丁目2番23号,(財)埼玉県下水道公社西側正門左側フェンス,35.842753562454,139.626362309504,
埼玉県,さいたま市,7-1-1,浦和区大原3丁目1番11号,市立大原中学校西側正門左側フェンス,35.8926261628574,139.648053119909,
埼玉県,さいたま市,7-1-2,浦和区大原3丁目1番11号,市立大原中学校グラウンド南側フェンス,35.8922958460451,139.649888903377,
埼玉県,さいたま市,7-1-3,浦和区大原3丁目10番1号,埼玉県障害者交流センター 西南側斜面,35.8931290304374,139.649585573337,
埼玉県,さいたま市,7-1-4,浦和区大原2丁目1番,大原テニス場東側準用河川希皇山川フェンス,35.8899181440302,139.651866586785,
埼玉県,さいたま市,7-1-5,浦和区大原3丁目1番11号,市立大原中学校北側フェンス,35.8942607355183,139.647583290944,
埼玉県,さいたま市,7-1-6,浦和区上木崎5丁目17番,上木崎足立神社公園南側道路沿い,35.8894773144937,139.646063456524,
埼玉県,さいたま市,7-1-7,浦和区上木崎5丁目3番8号,masked,35.8875131795011,139.648783109164,
埼玉県,さいたま市,7-2-1,浦和区木崎3丁目1番1号,県立浦和西高等学校西側フェンス,35.889637828588,139.65270439722,
埼玉県,さいたま市,7-2-2,浦和区木崎3丁目1番1号,県立浦和西高等学校東側フェンス,35.8893108190342,139.655115402279,
埼玉県,さいたま市,7-2-3,浦和区木崎4丁目23番,木崎4丁目公園西側,35.8887593154649,139.66144120734,
埼玉県,さいたま市,7-2-4,浦和区上木崎7丁目19番,みぬま幼稚園駐車場北側フェンス,35.8902080890019,139.648136068821,
埼玉県,さいたま市,7-2-5,浦和区木崎2丁目18番13号,masked,35.8883093116622,139.655460462069,
埼玉県,さいたま市,7-2-6,浦和区上木崎7丁目29番,皇山第一公園南西側フェンス,35.8906057470776,139.650007889397,
埼玉県,さいたま市,7-2-7,浦和区木崎4丁目18番1号,masked,35.8866275491793,139.661435513506,
埼玉県,さいたま市,7-3-1,浦和区上木崎3丁目4番3号,市立上木崎小学校北側正門左側フェンス,35.8878698920752,139.64241569414,
埼玉県,さいたま市,7-3-2,浦和区上木崎1丁目14番,上木崎一丁目公園入口右側フェンス,35.8888737390586,139.634487598903,
埼玉県,さいたま市,7-3-3,浦和区上木崎3丁目4番3号,市立上木崎小学校西側フェンス,35.8875204948436,139.641656032572,
埼玉県,さいたま市,7-3-4,浦和区上木崎2丁目7番,上木崎2丁目公園南側フェンス,35.8900167178315,139.640901012171,
埼玉県,さいたま市,7-3-5,浦和区上木崎3丁目4番3号,市立上木崎小学校体育館東側フェンス,35.8882555521462,139.643310629592,
埼玉県,さいたま市,7-3-6,浦和区上木崎3丁目4番3号,市立上木崎小学校南側南門左側フェンス,35.8873117276668,139.642551167836,
埼玉県,さいたま市,7-3-7,浦和区上木崎2丁目5番,新都心大橋高架下西側フェンス,35.887925139597,139.638317301768,
埼玉県,さいたま市,7-3-8,浦和区上木崎1丁目13番,上木崎1丁目西公園北側道路沿い,35.8883818263449,139.633208059994,
埼玉県,さいたま市,7-4-1,浦和区針ヶ谷3丁目4番14号,針ヶ谷公民館 駐車場フェンス,35.8828499929739,139.641862993846,
埼玉県,さいたま市,7-4-2,浦和区上木崎4丁目5番,上木崎大けやき公園西側植込み,35.8850000933949,139.644567554821,
埼玉県,さいたま市,7-4-3,浦和区上木崎4丁目5番,上木崎大けやき公園南側植込み,35.8845846888445,139.64452479074,
埼玉県,さいたま市,7-4-4,浦和区針ヶ谷3丁目2番,針ヶ谷3丁目子供広場北側フェンス,35.8824765327942,139.640882260581,
埼玉県,さいたま市,7-4-5,浦和区針ヶ谷3丁目17番,masked,35.884646707141,139.642759363109,
埼玉県,さいたま市,7-4-6,浦和区針ヶ谷3丁目1番,針ヶ谷3丁目子供広場東側フェンス,35.8823952384333,139.640605234784,
埼玉県,さいたま市,7-4-7,浦和区上木崎4丁目4番18号,masked,35.8862122054932,139.644676325791,
埼玉県,さいたま市,7-5-1,浦和区針ヶ谷4丁目2番12号,市立常盤北小学校東側フェンス,35.8787859590834,139.639849906543,
埼玉県,さいたま市,7-5-2,浦和区針ヶ谷4丁目7番,針ヶ谷四丁目公園西側フェンス,35.8814718776226,139.63885422339,
埼玉県,さいたま市,7-5-3,浦和区針ヶ谷4丁目1番,針ヶ谷西公園東側,35.8773583325906,139.637960787438,
埼玉県,さいたま市,7-5-4,浦和区針ヶ谷4丁目1番9号,市立常盤中学校南東側フェンス,35.8774004764612,139.640502708545,
埼玉県,さいたま市,7-5-5,浦和区針ヶ谷4丁目1番9号,市立常盤中学校南側フェンス,35.8769457068728,139.639412052051,
埼玉県,さいたま市,7-5-6,浦和区針ヶ谷4丁目1番,針ヶ谷西公園西側,35.8775316852254,139.637754478827,
埼玉県,さいたま市,7-5-7,浦和区針ヶ谷4丁目2番12号,市立常盤北小学校東側フェンス,35.8794011912304,139.639556136097,
埼玉県,さいたま市,7-6-1,浦和区針ヶ谷1丁目4番3号,市立針ヶ谷保育園西側入口左側フェンス,35.8796190507976,139.64197731337,
埼玉県,さいたま市,7-6-2,浦和区針ヶ谷1丁目3番7号,JR東北本線線路沿いフェンス (グランシャリオ浦和向い),35.8798700285872,139.641158359028,
埼玉県,さいたま市,7-6-3,浦和区針ヶ谷1丁目18番2号,さいたま市水道局針ヶ谷庁舎南側壁面,35.8789036212637,139.645726080207,
埼玉県,さいたま市,7-6-4,浦和区針ヶ谷1丁目18番2号,さいたま市水道局針ヶ谷庁舎東側フェンス,35.8791013459101,139.645995958392,
埼玉県,さいたま市,7-6-5,浦和区針ヶ谷1丁目10番2号,masked,35.8801210272136,139.643466729514,
埼玉県,さいたま市,7-6-6,浦和区針ヶ谷1丁目15番,針ヶ谷第2駐車場フェンス,35.8803560298139,139.644682793084,
埼玉県,さいたま市,7-6-7,浦和区針ヶ谷1丁目4番21号,針ケ谷1丁目公園北側フェンス,35.8792218361436,139.642320934373,
埼玉県,さいたま市,7-7-1,浦和区領家6丁目14番13号,領家立野公園南側道路沿い植込み,35.880129379756,139.6483578914,
埼玉県,さいたま市,7-7-2,浦和区領家7丁目2番1号,市立針ヶ谷小学校南側入口右側フェンス,35.8808245456242,139.648626071622,
埼玉県,さいたま市,7-7-3,浦和区針ヶ谷1丁目21番24号,双恵幼稚園東側フェンス,35.8803982946429,139.646639150046,
埼玉県,さいたま市,7-7-4,浦和区領家7丁目2番1号,市立針ヶ谷小学校東側フェンス,35.8815040649269,139.650037504389,
埼玉県,さいたま市,7-7-5,浦和区領家6丁目10番7号,浦和ふれあいの里西側フェンス,35.8806176800553,139.647627111249,
埼玉県,さいたま市,7-7-6,浦和区領家7丁目20番16号,masked,35.883205132709,139.648722108664,
埼玉県,さいたま市,7-7-7,浦和区領家7丁目20番16号,masked,35.8829487759394,139.648594668651,
埼玉県,さいたま市,7-8-1,浦和区領家4丁目19番4号,市立木崎小学校北側正門右側フェンス,35.8831004855946,139.652573264418,
埼玉県,さいたま市,7-8-2,浦和区領家4丁目19番4号,市立木崎小学校西側旧正門左側フェンス,35.8827836718494,139.651801124456,
埼玉県,さいたま市,7-8-3,浦和区皇山町41番,埼玉自動車交通浦和営業所・マル酸液化ガス有限会社北側ブロック塀(県道側),35.8881799029136,139.65204002197,
埼玉県,さいたま市,7-8-4,浦和区皇山町18番1号,聖フランソア幼稚園西側フェンス,35.8852724874711,139.653382304807,
埼玉県,さいたま市,7-8-5,浦和区領家4丁目21番,長覚院児童遊園南側フェンス,35.8817585449423,139.653697931647,
埼玉県,さいたま市,7-8-6,浦和区領家4丁目21番21号,領家公民館東側フェンス,35.8819897789185,139.653905740681,
埼玉県,さいたま市,7-8-7,浦和区領家4丁目2番26号,masked,35.87932685197,139.656392587432,
埼玉県,さいたま市,7-8-8,浦和区皇山町18番1号,聖フランソア幼稚園北側フェンス,35.8857240382227,139.654454776341,
埼玉県,さいたま市,7-9-1,浦和区大東2丁目13番16号,大東公民館西側フェンス,35.8833040570352,139.662522690735,
埼玉県,さいたま市,7-9-2,浦和区大東2丁目12番1号,市営領家大東団地北側フェンス,35.8841421480059,139.661277072604,
埼玉県,さいたま市,7-9-3,浦和区木崎1丁目12番,浦和石橋公園北側フェンス,35.8846169880485,139.662233448169,
埼玉県,さいたま市,7-9-4,浦和区大東1丁目4番街区,駐車場西側市道ガードパイプ,35.8813385285875,139.656497760427,
埼玉県,さいたま市,7-9-5,浦和区大東2丁目12番1号,市営領家大東団地西側フェンス,35.8834872698866,139.661364880003,
埼玉県,さいたま市,7-9-6,浦和区大東1丁目9番13号,神明児童遊園東側フェンス,35.8817674936945,139.6587276389,
埼玉県,さいたま市,7-9-7,浦和区大東2丁目12番1号,市営領家大東団地南側フェンス,35.8831144399889,139.662286852942,
埼玉県,さいたま市,7-10-1,浦和区大東3丁目14番1号,市立大東小学校東側フェンス,35.8835550350338,139.664980530559,
埼玉県,さいたま市,7-10-2,浦和区大東3丁目14番1号,市立大東小学校グラウンド南側フェンス,35.8824905380066,139.664392674002,
埼玉県,さいたま市,7-10-3,浦和区大東3丁目17番,大東北児童公園北側フェンス,35.8838247421274,139.665514478427,
埼玉県,さいたま市,7-10-4,浦和区大東3丁目30番,大東東児童公園東側,35.8819530629156,139.667623778354,
埼玉県,さいたま市,7-10-5,浦和区大東3丁目3番,大東南児童公園東側フェンス,35.880002681184,139.666537811751,
埼玉県,さいたま市,7-10-6,浦和区大東3丁目3番,大東南児童公園西側フェンス,35.8801152815709,139.665906394607,
埼玉県,さいたま市,7-10-7,浦和区大東2丁目3番36号,masked,35.8805058480987,139.66233432631,
埼玉県,さいたま市,7-11-1,浦和区瀬ヶ崎2丁目17番1号,市立木崎中学校南側正門左側フェンス,35.878551142766,139.660718465264,
埼玉県,さいたま市,7-11-2,浦和区瀬ヶ崎2丁目17番1号,市立木崎中学校東側フェンス,35.8788855120021,139.662210666446,
埼玉県,さいたま市,7-11-3,浦和区瀬ヶ崎2丁目6番,瀬ケ崎2丁目第一公園東側フェンス,35.8785945859163,139.65996637291,
埼玉県,さいたま市,7-11-4,浦和区瀬ヶ崎2丁目17番1号,市立木崎中学校南側 正門右側フェンス,35.8786264420316,139.662066915261,
埼玉県,さいたま市,7-11-5,浦和区瀬ヶ崎4丁目26番,中耕地公園東側フェンス,35.8762610419436,139.667389441213,
埼玉県,さいたま市,7-11-6,浦和区瀬ヶ崎4丁目23番,道祖土小学校Bグラウンド北側フェンス,35.8754106962163,139.667635964128,
埼玉県,さいたま市,7-11-7,浦和区瀬ヶ崎4丁目13番5号,第二武笠ビル西側駐車場フェンス,35.8771852877704,139.664614583357,
埼玉県,さいたま市,7-12-1,浦和区領家3丁目15番10号,南箇公民館東側フェンス,35.8769465103347,139.658182704122,
埼玉県,さいたま市,7-12-2,浦和区瀬ヶ崎5丁目23番,前島第一公園西側フェンス,35.874270530078,139.664038024278,
埼玉県,さいたま市,7-12-3,浦和区瀬ヶ崎1丁目23番,瀬ケ崎公園西側フェンス,35.8760848238876,139.660356909751,
埼玉県,さいたま市,7-12-4,浦和区瀬ヶ崎5丁目14番,前島台第三公園北側フェンス,35.8744493855973,139.663292993974,
埼玉県,さいたま市,7-12-5,浦和区駒場2丁目5番,駒場緑地北西側植込み,35.8734198965067,139.662673811273,
埼玉県,さいたま市,7-12-6,浦和区領家3丁目6番,masked,35.8752412171636,139.659080954446,
埼玉県,さいたま市,7-12-7,浦和区駒場2丁目5番,駒場緑地北東側フェンス,35.873196191534,139.665752733785,
埼玉県,さいたま市,7-13-1,浦和区領家1丁目4番15号,市立本太中学校東側正門右側ブロック塀,35.8738752140551,139.659129240063,
埼玉県,さいたま市,7-13-2,浦和区領家1丁目4番15号,市立本太中学校北側フェンス,35.8735643970318,139.658052161609,
埼玉県,さいたま市,7-13-3,浦和区領家1丁目3番,市立本太中学校球技コート西側フェンス,35.8723774352302,139.659988223506,
埼玉県,さいたま市,7-13-4,浦和区領家2丁目2番,領家2丁目公園西側植込み,35.8755732021395,139.652448609629,
埼玉県,さいたま市,7-13-5,浦和区駒場2丁目5番6号,浦和駒場体育館北側北門フェンス,35.872868070568,139.661518396257,
埼玉県,さいたま市,7-13-6,浦和区駒場2丁目1番1号,駒場運動公園南側入口右手植込み,35.8699476191506,139.664176673772,
埼玉県,さいたま市,7-13-7,浦和区領家1丁目10番,ヴィレーナ浦和領家駐車場北側ブロック塀,35.8758025608587,139.657095804592,
埼玉県,さいたま市,7-14-1,浦和区領家5丁目3番3号,県立浦和高等学校西側正門右側フェンス,35.8780145016078,139.650554550693,
埼玉県,さいたま市,7-14-2,浦和区領家5丁目3番3号,県立浦和高等学校北側フェンス,35.8788020514012,139.651834796177,
埼玉県,さいたま市,7-14-3,浦和区領家5丁目3番3号,県立浦和高等学校グラウンド南側フェンス,35.8767709448681,139.652715226626,
埼玉県,さいたま市,7-14-4,浦和区元町3丁目16番,元町3丁目公園北側フェンス,35.8754876017633,139.651570806085,
埼玉県,さいたま市,7-14-5,浦和区領家5丁目3番3号,県立浦和高等学校グラウンド西側塀,35.8774647635259,139.65102228932,
埼玉県,さいたま市,7-14-6,浦和区領家5丁目3番3号,県立浦和高等学校テニスコート東側フェンス,35.878654969814,139.653043313203,
埼玉県,さいたま市,7-14-7,浦和区北浦和1丁目4番16号,masked,35.8746391235617,139.646662519132,
埼玉県,さいたま市,7-14-8,浦和区元町3丁目16番,元町3丁目公園西南隅切り側フェンス,35.8752938087323,139.651329600513,
埼玉県,さいたま市,7-15-1,浦和区北浦和2丁目18番3号,市立北浦和小学校北側フェンス (北浦和公民館前あたり),35.8773853340145,139.647887495944,
埼玉県,さいたま市,7-15-2,浦和区北浦和2丁目18番3号,市立北浦和小学校北側植込み,35.8776298958247,139.648607683424,
埼玉県,さいたま市,7-15-3,浦和区北浦和2丁目20番,北浦和東公園南側,35.8786966750782,139.647933169935,
埼玉県,さいたま市,7-15-4,浦和区北浦和2丁目18番3号,市立北浦和小学校西側フェンス,35.8763663730787,139.648182909176,
埼玉県,さいたま市,7-15-5,浦和区北浦和3丁目22番8号,masked,35.8781762672237,139.643905954263,
埼玉県,さいたま市,7-15-6,浦和区北浦和2丁目3番3号,masked,35.8771810069776,139.645628696002,
埼玉県,さいたま市,7-15-7,浦和区北浦和2丁目20番,北浦和東公園東側,35.8789582437465,139.647874526732,
埼玉県,さいたま市,7-16-1,浦和区常盤9丁目30番1号,常盤公民館右側フェンス,35.8711044068248,139.643317924084,
埼玉県,さいたま市,7-16-2,浦和区北浦和5丁目6番36号,国際交流基金日本語国際センター北側フェンス,35.874785500773,139.641005406794,
埼玉県,さいたま市,7-16-3,浦和区北浦和5丁目3番,北浦和5丁目第2公園北側フェンス,35.8741516659831,139.642297334854,
埼玉県,さいたま市,7-16-4,浦和区北浦和5丁目1番,市営北浦和自転車駐車場東側フェンス,35.8743521202283,139.643374733608,
埼玉県,さいたま市,7-16-5,浦和区北浦和5丁目4番,市営北浦和駐車場東側入口左側フェンス,35.873555844288,139.641992115679,
埼玉県,さいたま市,7-16-6,浦和区北浦和5丁目12番11号,和光建設(株)西側フェンス,35.8756557960635,139.639802144628,
埼玉県,さいたま市,7-16-7,浦和区常盤9丁目30番22号,浦和ふれあい館北側フェンス,35.8713043570568,139.642655882073,
埼玉県,さいたま市,7-16-8,浦和区北浦和5丁目4番,市営北浦和駐車場北側フェンス,35.873764426096,139.641321391066,
埼玉県,さいたま市,7-17-1,浦和区常盤9丁目30番9号,市立常盤小学校正門東側フェンス,35.8682969425666,139.643682748338,
埼玉県,さいたま市,7-17-2,浦和区常盤9丁目30番9号,市立常盤小学校西側フェンス,35.868308758002,139.642492413788,
埼玉県,さいたま市,7-17-3,浦和区常盤9丁目30番9号,市立常盤小学校東側フェンス,35.8686193081446,139.644857231067,
埼玉県,さいたま市,7-17-4,浦和区常盤9丁目30番,浦和北公園西側,35.8692612439901,139.642402757843,
埼玉県,さいたま市,7-17-5,浦和区常盤3丁目15番,JR東北本線線路沿いフェンス(線路西側、北浦和駅と浦和橋の中間辺り),35.8701071384407,139.64797588273,
埼玉県,さいたま市,7-17-6,浦和区常盤3丁目4番,ブリュッケ常盤東側フェンス,35.8685560297409,139.649626041016,
埼玉県,さいたま市,7-17-7,浦和区常盤9丁目30番,浦和北公園東側,35.8694557021234,139.644766992194,
埼玉県,さいたま市,7-18-1,浦和区元町1丁目28番17号,市立浦和高等学校西側西門横フェンス,35.8710028371693,139.656183746099,
埼玉県,さいたま市,7-18-2,浦和区元町1丁目28番17号,市立浦和高等学校 東側ブロック塀,35.8703846366269,139.658790487848,
埼玉県,さいたま市,7-18-3,浦和区元町1丁目29番,浦和総合運動場北側フェンス,35.8698316202748,139.656603283942,
埼玉県,さいたま市,7-18-4,浦和区元町2丁目29番,浦和トーユーハイツ向かい駐車場フェンス,35.8732332333062,139.654255833609,
埼玉県,さいたま市,7-18-5,浦和区元町2丁目21番18号,元町たいよう保育園 北西側フェンス,35.8729211736241,139.652201590293,
埼玉県,さいたま市,7-18-6,浦和区元町1丁目4番7号,駐車場北側パイプフェンス,35.8703967807675,139.650769273844,
埼玉県,さいたま市,7-18-7,浦和区元町2丁目3番,埼玉りそな銀行専用駐車場西側フェンス,35.872056031428,139.647925053605,
埼玉県,さいたま市,7-18-8,浦和区元町1丁目28番17号,市立浦和高等学校北側フェンス,35.8717980048643,139.657906219077,
埼玉県,さいたま市,7-19-1,浦和区元町1丁目29番,浦和総合運動場 西側入口南側フェンス,35.869324550275,139.656620356151,
埼玉県,さいたま市,7-19-2,浦和区本太4丁目24番,浦和総合運動場内テニスコート南側フェンス,35.868929346734,139.65639920518,
埼玉県,さいたま市,7-19-3,浦和区本太4丁目25番,市営浦和球場 南側フェンス,35.8685049820239,139.658050680218,
埼玉県,さいたま市,7-19-4,浦和区本太4丁目25番,市営浦和球場 東側門横北側フェンス,35.8692422501196,139.659145582312,
埼玉県,さいたま市,7-19-5,浦和区本太5丁目30番,masked,35.8677573087876,139.661664415934,
埼玉県,さいたま市,7-19-6,浦和区本太4丁目25番,本太4丁目公園東側,35.8686606643142,139.659118174233,
埼玉県,さいたま市,7-19-7,浦和区本太3丁目27番,三角稲荷神社東側,35.8669014014892,139.652814474393,
埼玉県,さいたま市,7-20-1,浦和区本太2丁目26番25号,市立本太小学校東側 正門横フェンス,35.8651626377289,139.658184164127,
埼玉県,さいたま市,7-20-2,浦和区本太4丁目3番,市立本太小学校体育館南側フェンス,35.8655176678038,139.65706874837,
埼玉県,さいたま市,7-20-3,浦和区本太4丁目3番23号,市立本太公民館 北側フェンス,35.8669010574126,139.657875265264,
埼玉県,さいたま市,7-20-4,浦和区本太3丁目20番,高架下三角稲荷公園 南側フェンス,35.8663843725225,139.652801915948,
埼玉県,さいたま市,7-20-5,浦和区本太5丁目10番11号,さいたま市消防団本太分団北側フェンス,35.8672605985064,139.660108220151,
埼玉県,さいたま市,7-20-6,浦和区本太5丁目12番,グランパレス本太東側空地,35.8673240121995,139.661586507023,
埼玉県,さいたま市,7-20-7,浦和区本太4丁目12番3号,masked,35.866871683289,139.655734832031,
埼玉県,さいたま市,7-21-1,浦和区常盤9丁目3番,常盤児童公園東側フェンス,35.866923980078,139.646999419,
埼玉県,さいたま市,7-21-2,浦和区常盤2丁目13番,新浦和橋南側高架下フェンス,35.8663669959258,139.650786600319,
埼玉県,さいたま市,7-21-3,浦和区常盤2丁目13番,新浦和橋北側高架下フェンス,35.8665613470124,139.650563689878,
埼玉県,さいたま市,7-21-4,浦和区常盤2丁目4番,新浦和橋南側高架下フェンス,35.8664088495828,139.651580133841,
埼玉県,さいたま市,7-21-5,浦和区常盤5丁目8番17号,NTT東日本常盤ビル東側フェンス,35.8655024411884,139.647969552802,
埼玉県,さいたま市,7-21-6,浦和区常盤5丁目8番17号,NTT東日本常盤ビル北側フェンス,35.8662798537365,139.647972504005,
埼玉県,さいたま市,7-21-7,浦和区常盤5丁目8番17号,NTT東日本常盤ビル南側歩道,35.864713086717,139.647704528006,
埼玉県,さいたま市,7-21-8,浦和区常盤2丁目2番,JR東北本線線路沿いフェンス(線路西側、浦和駅から約900m北),35.8656723106432,139.65256135818,
埼玉県,さいたま市,7-22-1,浦和区常盤6丁目4番4号,市役所セントラルガーデン東側,35.8612952772017,139.646652953232,
埼玉県,さいたま市,7-22-2,浦和区仲町4丁目23番,さいたま市水道局土合浄水場第6号取水場フェンス,35.8598399932762,139.641292971766,
埼玉県,さいたま市,7-22-3,浦和区常盤8丁目18番4号,市立仲町小学校グラウンド 南側陸橋付近フェンス,35.8631255859929,139.641359788506,
埼玉県,さいたま市,7-22-4,浦和区常盤6丁目9番44号,埼玉大学附属小学校東側フェンス,35.8625258207552,139.643565173498,
埼玉県,さいたま市,7-22-5,浦和区常盤8丁目18番4号,市立仲町小学校正門北側,35.8640957945843,139.641361767326,
埼玉県,さいたま市,7-22-6,浦和区高砂4丁目12番9号,masked,35.8576052936199,139.645282899446,
埼玉県,さいたま市,7-22-7,浦和区常盤6丁目4番4号,市役所第二別館北側フェンス,35.8624528728098,139.644748701086,
埼玉県,さいたま市,7-22-8,浦和区常盤6丁目14番,さいたま市水道局水道庁舎西南フェンス,35.8624042402159,139.641697920427,
埼玉県,さいたま市,7-23-1,浦和区常盤4丁目1番12号,仲町公民館西側ブロック塀,35.8614361862927,139.649713336559,
埼玉県,さいたま市,7-23-2,浦和区仲町3丁目5番8号,危機管理防災センター北側フェンス,35.8597490136184,139.64863002298,
埼玉県,さいたま市,7-23-3,浦和区常盤1丁目8番,常盤公園東側フェンス,35.8626616526492,139.651312753452,
埼玉県,さいたま市,7-23-4,浦和区仲町1丁目8番,JR東北本線線路沿いガードパイプ,35.8619468441693,139.655071155387,
埼玉県,さいたま市,7-23-5,浦和区仲町2丁目6番,仲町公園北側入口西側フェンス,35.8614764242315,139.652471895967,
埼玉県,さいたま市,7-23-6,浦和区仲町3丁目5番8号,危機管理防災センター西側フェンス,35.8592111418302,139.648018635772,
埼玉県,さいたま市,7-23-7,浦和区常盤1丁目2番,JR東北本線線路沿いフェンス,35.8638080012575,139.6537822956,
埼玉県,さいたま市,7-23-8,浦和区常盤1丁目8番,常盤公園南側フェンス,35.8618845214256,139.650901295005,
埼玉県,さいたま市,7-24-1,浦和区本太2丁目12番31号,市立仲本小学校西側フェンス,35.8609129152669,139.661003302348,
埼玉県,さいたま市,7-24-2,浦和区本太2丁目12番31号,市立仲本小学校北側フェンス,35.8622224428325,139.660790970282,
埼玉県,さいたま市,7-24-3,浦和区本太2丁目12番31号,市立仲本小学校南側フェンス,35.8603698499067,139.661944426327,
埼玉県,さいたま市,7-24-4,浦和区東仲町28番16号,市立東仲町保育園西側フェンス,35.8605807966875,139.659956666245,
埼玉県,さいたま市,7-24-5,浦和区東高砂町10番,浦和駅東口パルコ北側緑地部,35.8590450422689,139.658556920697,
埼玉県,さいたま市,7-24-6,浦和区本太2丁目16番12号,masked,35.8644275434267,139.660139853402,
埼玉県,さいたま市,7-24-7,浦和区東高砂町148番6,浦和駅東口駅前市民広場西側フェンス,35.8582043987368,139.658584342848,
埼玉県,さいたま市,7-24-8,浦和区東仲町2番26号,JR東北本線線路沿いフェンス,35.8604372692379,139.656470563163,
埼玉県,さいたま市,7-25-1,浦和区東岸町8番,浦和消防署日の出出張所西側フェンス,35.8540159183624,139.66201024961,
埼玉県,さいたま市,7-25-2,浦和区東岸町18番,東岸町第一公園,35.8522768329951,139.665630249412,
埼玉県,さいたま市,7-25-3,浦和区東岸町1番,NPCアトレ浦和自動二輪駐車場東側フェンス,35.8555091203179,139.659960733918,
埼玉県,さいたま市,7-25-4,浦和区前地1丁目1番11号,前地1丁目第一公園,35.8556439224901,139.666685727943,
埼玉県,さいたま市,7-25-5,浦和区前地2丁目11番,masked,35.856453379678,139.664590318127,
埼玉県,さいたま市,7-25-6,浦和区前地2丁目13番,前地パーキングA 北側ブロック&フェンス,35.8562121045331,139.662686118553,
埼玉県,さいたま市,7-25-7,浦和区東岸町16番5号,masked,35.8527793274841,139.66466054642,
埼玉県,さいたま市,7-25-8,浦和区東岸町1番28号,JR東北本線線路沿いフェンス,35.8551304829155,139.660410631222,
埼玉県,さいたま市,7-26-1,浦和区岸町4丁目1番29号,市立高砂小学校西側フェンス,35.8559868528978,139.655899393112,
埼玉県,さいたま市,7-26-2,浦和区岸町4丁目1番29号,市立高砂小学校南側フェンス,35.8559281931562,139.657075030459,
埼玉県,さいたま市,7-26-3,浦和区高砂1丁目11番,コルソ東側前植樹帯,35.8581404231494,139.656197309131,
埼玉県,さいたま市,7-26-4,浦和区高砂1丁目9番,高砂1丁目公園,35.8568783215036,139.656537482485,
埼玉県,さいたま市,7-26-5,浦和区高砂2丁目15番,玉蔵院北側フェンス,35.8592633102173,139.652681430372,
埼玉県,さいたま市,7-26-6,浦和区高砂2丁目15番,浦和中央公園,35.8587796895695,139.652528511626,
埼玉県,さいたま市,7-26-7,浦和区岸町1丁目15番,masked,35.8521093638962,139.663512975575,
埼玉県,さいたま市,7-26-8,浦和区高砂3丁目37番1号,埼玉県庁第三庁舎西側,35.8569014812205,139.647398107482,
埼玉県,さいたま市,7-27-1,浦和区岸町5丁目1番3号,岸町公民館西側,35.8520551042486,139.654142155749,
埼玉県,さいたま市,7-27-2,浦和区岸町6丁目5番12号,市立岸町保育園西側フェンス,35.8536474550167,139.651585127302,
埼玉県,さいたま市,7-27-3,浦和区岸町3丁目8番45号,県立浦和第一女子高等学校北側フェンス,35.8529723284499,139.659366401806,
埼玉県,さいたま市,7-27-4,浦和区岸町3丁目8番45号,県立浦和第一女子高等学校西側フェンス,35.8526059186176,139.657561224525,
埼玉県,さいたま市,7-27-5,浦和区岸町5丁目20番4号,市立岸町小学校北側フェンス,35.8515326968061,139.650796693571,
埼玉県,さいたま市,7-27-6,浦和区岸町5丁目20番4号,市立岸町小学校南側入口右側フェンス,35.8504511105616,139.65045917693,
埼玉県,さいたま市,7-27-7,浦和区岸町3丁目17番,調公園わんぱく広場,35.8530792199525,139.656949695596,
埼玉県,さいたま市,7-27-8,浦和区岸町3丁目17番25号,調神社西側フェンス,35.8529367974716,139.655110368528,
埼玉県,さいたま市,7-28-1,浦和区本太1丁目8番16号,浦和専門学校東校舎駐車場フェンス,35.8619965577228,139.664272186167,
埼玉県,さいたま市,7-28-2,浦和区本太1丁目41番7号,足利銀行浦和家族寮B棟北側ブロック塀,35.8635488920084,139.660813563246,
埼玉県,さいたま市,7-28-3,浦和区本太5丁目15番,本太坂下交差点ガードパイプ,35.8674195225281,139.663465921544,
埼玉県,さいたま市,7-28-4,浦和区本太1丁目12番21号,藤右衛門川通り沿い植込み (グリーンハイツ前),35.8639603142797,139.665493580658,
埼玉県,さいたま市,7-28-5,浦和区前地3丁目17番,藤右衛門川通り沿い植込み(ココス浦和店東側),35.8614230644804,139.66661693972,
埼玉県,さいたま市,7-28-6,浦和区前地3丁目14番22号,前地3丁目第一公園,35.8603453712747,139.665224941624,
埼玉県,さいたま市,7-28-7,浦和区本太1丁目8番,プライムコート北側ガードパイプ,35.8613025232124,139.664400331391,
埼玉県,さいたま市,7-28-8,浦和区前地3丁目10番,どんぐり山児童遊園フェンス,35.8601756542611,139.665422612292,
埼玉県,さいたま市,8-1-1,南区別所2丁目5番34号,市立浦和別所小学校北側正門右側フェンス,35.8498585334162,139.647558474491,
埼玉県,さいたま市,8-1-2,南区別所2丁目5番34号,市立浦和別所小学校南側フェンス,35.848672185565,139.648378164552,
埼玉県,さいたま市,8-1-3,南区別所3丁目12番4号,masked,35.8546998757727,139.646944102397,
埼玉県,さいたま市,8-1-4,南区別所2丁目14番9号,masked,35.852001690375,139.645952000207,
埼玉県,さいたま市,8-1-5,南区別所2丁目5番34号,市立浦和別所小学校プール北側植込み,35.8498599837434,139.648498959622,
埼玉県,さいたま市,8-1-6,南区別所2丁目15番6号,別所中央公園東側フェンス,35.8514548717106,139.646548369366,
埼玉県,さいたま市,8-1-7,南区別所2丁目38番,別所二丁目公園東側入口の右側,35.8506717997255,139.644253597058,
埼玉県,さいたま市,8-2-1,南区別所5丁目21番13号,別所公民館東側フェンス,35.8496573199577,139.64367145373,
埼玉県,さいたま市,8-2-2,南区別所5丁目23番,セイコーハウス西側の花と緑の散歩道西側,35.8492566486619,139.64302951494,
埼玉県,さいたま市,8-2-3,南区別所5丁目14番,花と緑の散歩道東側,35.8517028863227,139.641604324327,
埼玉県,さいたま市,8-2-4,南区別所5丁目13番,ヤクルト駐車場西側の花と緑の散歩道東側,35.8522194398217,139.641486941685,
埼玉県,さいたま市,8-2-5,南区別所6丁目13番,ペアパレス武蔵浦和西側の花と緑の散歩道東側,35.8487965344905,139.643670846397,
埼玉県,さいたま市,8-2-6,南区別所6丁目10番,清光ハイツ西側の花と緑の散歩道東側,35.8477962350759,139.64482503379,
埼玉県,さいたま市,8-2-7,南区別所5丁目8番,花と緑の散歩道東側,35.8534449869726,139.64131082987,
埼玉県,さいたま市,8-3-1,南区鹿手袋1丁目4番14号先,鹿手袋1丁目自治会集会所入口右側植込み手前,35.8545739987667,139.637671706284,
埼玉県,さいたま市,8-3-2,南区関2丁目8番24号先,masked,35.8493089830091,139.634709861992,
埼玉県,さいたま市,8-3-3,南区別所4丁目2番5号,埼玉大学教育学部附属中学校南側ブロック塀,35.8550077653382,139.644398639621,
埼玉県,さいたま市,8-3-4,南区別所4丁目16番,別所沼公園南側の駐車場入口の西側,35.8547248632867,139.639997733314,
埼玉県,さいたま市,8-3-5,南区別所4丁目2番5号,埼玉大学教育学部附属中学校北側正門の右側,35.856498803637,139.64339175677,
埼玉県,さいたま市,8-3-6,南区関1丁目12番19号,サンハイツ南側水路フェンス,35.851027809177,139.635506247819,
埼玉県,さいたま市,8-3-7,南区鹿手袋1丁目1番1号先,浦和スプリングレーン南側水路の転落防止柵,35.8533380534842,139.638545742914,
埼玉県,さいたま市,8-4-1,南区鹿手袋4丁目1番12号,市立武蔵浦和保育園東側フェンス,35.8487770736372,139.642367069119,
埼玉県,さいたま市,8-4-2,南区鹿手袋4丁目1番7号,埼玉建産連会館の北側入口保育園寄り植込み,35.8488985615358,139.641848878883,
埼玉県,さいたま市,8-4-3,南区鹿手袋4丁目21番29号先,masked,35.8490945758847,139.636641617407,
埼玉県,さいたま市,8-4-4,南区鹿手袋4丁目27番1号,埼玉県障がい者共同作業所正門入口右側フェンス,35.8475807316053,139.639002099927,
埼玉県,さいたま市,8-4-5,南区鹿手袋7丁目18番3号,ライオンズステージ武蔵浦和南側排水溝フェンス,35.8452213495978,139.635947987125,
埼玉県,さいたま市,8-4-6,南区鹿手袋3丁目8番9号先,エステイトマンション西側道路反対側の水路跡フェンス,35.8506381679383,139.63699617983,
埼玉県,さいたま市,8-4-7,南区鹿手袋3丁目11番1号,さいたま市浦和西部まちづくり事務所東側コンクリート塀裏側自転車置き場との間,35.850367421933,139.640121236992,
埼玉県,さいたま市,8-4-8,南区鹿手袋4丁目1番7号,埼玉建産連会館の北側入口保育園反対側植込み,35.8489762516109,139.641393232857,
埼玉県,さいたま市,8-5-1,南区別所7丁目14番28号,市立浦和大里小学校南側正門右側フェンス,35.8445441059397,139.643118929754,
埼玉県,さいたま市,8-5-2,南区別所7丁目14番28号,市立浦和大里小学校東側フェンス,35.8454944010028,139.644839005249,
埼玉県,さいたま市,8-5-3,南区四谷2丁目9番,四谷公園内南側植込み,35.8422334919611,139.636340626625,
埼玉県,さいたま市,8-5-4,南区別所7丁目15番,サウスピア駐車場棟入口脇植込み,35.8461789910161,139.64519562901,
埼玉県,さいたま市,8-5-5,南区鹿手袋6丁目4番,鹿手袋さくら公園入口右側,35.8456097249805,139.638757822272,
埼玉県,さいたま市,8-5-6,南区鹿手袋5丁目17-41,鹿手袋5丁目公園フェンス,35.8450604426084,139.640770768916,
埼玉県,さいたま市,8-5-7,南区別所7丁目14-38,別所大里公園植え込み,35.8456112561486,139.64326262282,
埼玉県,さいたま市,8-5-8,南区鹿手袋5丁目2番27号,masked,35.8463232923525,139.63991306665,
埼玉県,さいたま市,8-6-1,南区沼影1丁目7番,武蔵浦和駅西口広場植え込み,35.8445479120743,139.645250736828,
埼玉県,さいたま市,8-6-2,南区白幡5丁目4番,リブレ白幡第1駐車場南側水路跡フェンス,35.8437670198462,139.650707328707,
埼玉県,さいたま市,8-6-3,南区白幡5丁目17番,武蔵浦和臨時第二駐輪場東側フェンス,35.8436853307723,139.648449632817,
埼玉県,さいたま市,8-6-4,南区白幡5丁目18番,ケイ・エス・ワイコインパーキング南側水路フェンス,35.8442975853925,139.648606185241,
埼玉県,さいたま市,8-6-5,南区別所7丁目1番,武蔵浦和駅前ハイツ北側歩道植込み,35.8466999429874,139.648606813829,
埼玉県,さいたま市,8-6-6,南区白幡4丁目13番24号,masked,35.8422102302933,139.654190758426,
埼玉県,さいたま市,8-6-7,南区白幡5丁目19番25号,聖みどり病院北側田島通り沿いフェンス,35.8452157583,139.648119503052,
埼玉県,さいたま市,8-6-8,南区白幡6丁目19番,ベルメゾン武蔵浦和北側水路フェンス,35.8408461947876,139.652127973466,
埼玉県,さいたま市,8-7-1,南区沼影2丁目8番36号,市立沼影小学校西側正門右側フェンス,35.8385139970331,139.645633152334,
埼玉県,さいたま市,8-7-2,南区沼影2丁目8番36号,市立沼影小学校南側T字路向かい側フェンス,35.8384987395296,139.646600884313,
埼玉県,さいたま市,8-7-3,南区沼影2丁目8番36号,市立沼影小学校東側フェンス,35.8390273292212,139.647324149404,
埼玉県,さいたま市,8-7-4,南区沼影1丁目27番8号,駐車場北側ブロック塀,35.8430010390115,139.642687336564,
埼玉県,さいたま市,8-7-5,南区沼影2丁目5番,沼影市民プール北西側水路柵,35.8405432432106,139.645085509523,
埼玉県,さいたま市,8-7-6,南区沼影2丁目6番,沼影市民プール北東側水路柵,35.8408781300636,139.64643723066,
埼玉県,さいたま市,8-7-7,南区沼影2丁目5番,沼影市民プール北側水路柵,35.8413922485048,139.645448478339,
埼玉県,さいたま市,8-8-1,南区曲本4丁目5番7号,曲本保育園南側フェンス,35.8378229184728,139.642021835626,
埼玉県,さいたま市,8-8-2,南区曲本4丁目2-31,駐車場西側フェンス,35.838829735634,139.639554561846,
埼玉県,さいたま市,8-8-3,南区曲本4丁目4番,西浦和公園東側,35.8380912495776,139.641287287084,
埼玉県,さいたま市,8-8-4,南区沼影2丁目1番先,さいたま市沼影ポンプ場南側の西側入口手前の転落防止フェンス,35.8395095343985,139.642088631778,
埼玉県,さいたま市,8-8-5,南区沼影2丁目12番,沼影二丁目公園の南側フェンス,35.838664994408,139.643694965277,
埼玉県,さいたま市,8-8-6,南区沼影1丁目30番,沼影一丁目第二公園の北側,35.8416643935929,139.642378694763,
埼玉県,さいたま市,8-8-7,南区沼影2丁目2番先,エステート浦和4号棟向かいの転落防止フェンス,35.8394983887471,139.643244439869,
埼玉県,さいたま市,8-8-8,南区沼影2丁目4番7号,さいたま県土整備事務所東側のフェンス,35.8409798924116,139.64447718596,
埼玉県,さいたま市,8-9-1,南区曲本2丁目7番11号,西浦和公民館東側入口,35.8376229438813,139.639065241253,
埼玉県,さいたま市,8-9-2,南区曲本3丁目6番12号,masked,35.8372073269966,139.638782990533,
埼玉県,さいたま市,8-9-3,南区四谷1丁目3番,四谷一丁目公園東側,35.8399061668756,139.63374323084,
埼玉県,さいたま市,8-9-4,南区曲本2丁目4番,西浦和けやき公園西側掲示板左側,35.8382775368696,139.634730279382,
埼玉県,さいたま市,8-9-5,南区四谷3丁目7番34号,四ッ谷会館北側ブロック塀,35.841714335556,139.638397378397,
埼玉県,さいたま市,8-9-6,南区四谷3丁目4,四谷3丁目公園入り口,35.8403644129122,139.63763542858,
埼玉県,さいたま市,8-9-7,南区曲本2丁目11-13先,鉄塔フェンス(京北線No.97),35.8369148457735,139.63629687968,
埼玉県,さいたま市,8-9-8,南区四谷3丁目13−20,メディカルホームまどか武蔵浦和フェンス,35.839441298064,139.637662491843,
埼玉県,さいたま市,8-10-1,南区松本3丁目12番8号,まつもと幼稚園東側フェンス,35.8339851896701,139.62799992179,
埼玉県,さいたま市,8-10-2,南区内谷1丁目1番10号先,コーテック浦和工場西側水路フェンス,35.8340047373194,139.631022560154,
埼玉県,さいたま市,8-10-3,南区松本2丁目9番,松本2丁目公園西側,35.834706981722,139.627101143142,
埼玉県,さいたま市,8-10-4,南区松本1丁目15番8号,masked,35.8369545130094,139.62617126259,
埼玉県,さいたま市,8-10-5,南区松本2丁目22番,松本二丁目第一公園北側,35.8356826321765,139.624510107216,
埼玉県,さいたま市,8-10-6,南区松本4丁目17番,masked,35.832025629041,139.630850043666,
埼玉県,さいたま市,8-10-7,南区内谷1丁目5番22号,masked,35.8320172534288,139.632250021557,
埼玉県,さいたま市,8-10-8,南区内谷1丁目11番15号先,ライオンズマンション武蔵浦和北西側畑横の水路フェンス,35.8305014879286,139.632268345274,
埼玉県,さいたま市,8-11-1,南区曲本1丁目3番5号,市立西浦和小学校北側正門金網フェンス,35.8387424953672,139.629959922028,
埼玉県,さいたま市,8-11-2,南区曲本1丁目3番5号,市立西浦和小学校東側東門金網フェンス,35.8378892288008,139.630997090228,
埼玉県,さいたま市,8-11-3,南区曲本1丁目11番8号,masked,35.8362714587092,139.633184263993,
埼玉県,さいたま市,8-11-4,南区内谷2丁目2番9号,masked,35.8347915868468,139.634735535806,
埼玉県,さいたま市,8-11-5,南区曲本1丁目12番5号先,masked,35.8358014663571,139.633166184163,
埼玉県,さいたま市,8-11-6,南区内谷2丁目15番11号,masked,35.8327718854804,139.635359198771,
埼玉県,さいたま市,8-11-7,南区内谷3丁目11番7号,masked,35.8342389552945,139.638748507465,
埼玉県,さいたま市,8-12-1,南区内谷6丁目10番1号,市立内谷中学校西側正門右側鉄柵塀,35.8348250542146,139.647081474686,
埼玉県,さいたま市,8-12-2,南区内谷6丁目10番1号,市立内谷中学校北西角フェンス,35.8358417051134,139.646804694707,
埼玉県,さいたま市,8-12-3,南区内谷6丁目10番1号,市立内谷中学校東側裏門右側フェンス,35.8359226134788,139.648533948763,
埼玉県,さいたま市,8-12-4,南区内谷6丁目3番,内谷6丁目第一公園内フェンス,35.8372614890731,139.646851293982,
埼玉県,さいたま市,8-12-5,南区内谷5丁目3番13号先,内谷5丁目集会所南側(田圃の南側)転落防止柵,35.8323193839873,139.642930611333,
埼玉県,さいたま市,8-12-6,南区内谷4丁目12番12号先,空き地南東側フェンス,35.8339743977569,139.644389962602,
埼玉県,さいたま市,8-12-7,南区内谷4丁目5番,内谷4丁目公園西側鉄柵,35.8354727473417,139.642078949062,
埼玉県,さいたま市,8-12-8,南区内谷6丁目6番,内谷橋公園西側北西,35.8368080581819,139.651224827333,
埼玉県,さいたま市,8-13-1,南区辻3丁目10番15号,市立辻保育園西側ブロック塀,35.8394014201761,139.6572781949,
埼玉県,さいたま市,8-13-2,南区白幡6丁目15番,白幡配水場水といこいの広場南側フェンス,35.8388772531328,139.652340558948,
埼玉県,さいたま市,8-13-3,南区白幡6丁目15番16号,白幡配水場北側フェンス,35.8396371011426,139.65205002541,
埼玉県,さいたま市,8-13-4,南区辻3丁目6番,山口第一公園南側フェンス,35.8401718060371,139.65678997764,
埼玉県,さいたま市,8-13-5,南区白幡4丁目9番,グランメール白幡南東側水路フェンス,35.8402709367138,139.653917710833,
埼玉県,さいたま市,8-13-6,南区白幡6丁目3番先,六辻水辺公園中央部コンクリート疑木柵右端,35.8361361481272,139.654011589171,
埼玉県,さいたま市,8-13-7,南区辻3丁目2番30号,六辻交番北側側道内植込み,35.8396009837374,139.659885322948,
埼玉県,さいたま市,8-13-8,南区白幡4丁目8番,ざ・ほわいときんぐ北西側水路フェンス,35.8413230097342,139.65496144706,
埼玉県,さいたま市,8-14-1,南区白幡3丁目1番2号,市立白幡保育園正門右側フェンス,35.8447213394701,139.655681050867,
埼玉県,さいたま市,8-14-2,南区白幡3丁目10番,白幡緑道東側,35.8465412411088,139.651340518499,
埼玉県,さいたま市,8-14-3,南区根岸5丁目18番10号,masked,35.8424957172884,139.65634047586,
埼玉県,さいたま市,8-14-4,南区根岸5丁目9番1号,masked,35.8435181933022,139.658302169097,
埼玉県,さいたま市,8-14-5,南区根岸5丁目14番4号,埼玉ダイハツ販売(株)浦和店北側フェンス西側,35.8442010199634,139.655516820936,
埼玉県,さいたま市,8-14-6,南区白幡3丁目1番2号,市立白幡保育園北側フェンス,35.8449272683398,139.655539776157,
埼玉県,さいたま市,8-14-7,南区白幡3丁目9番12号,南浦和センチュリーマンション国道側ブロック塀,35.8453639551988,139.65173222408,
埼玉県,さいたま市,8-14-8,南区根岸5丁目19番10号,レクサスさいたま南 東側フェンス,35.8415693892529,139.658299919247,
埼玉県,さいたま市,8-15-1,南区白幡2丁目19番39号,県立浦和商業高等学校東側フェンス,35.8498686041245,139.652565791925,
埼玉県,さいたま市,8-15-2,南区白幡2丁目19番,白幡沼西側白幡緑道,35.8488735265166,139.650130559949,
埼玉県,さいたま市,8-15-3,南区白幡2丁目16番8号,醫王寺入口壁,35.8478261911183,139.653189506337,
埼玉県,さいたま市,8-15-4,南区白幡2丁目18番,市立白幡中学校武道場北側フェンス,35.8497988663787,139.653424179984,
埼玉県,さいたま市,8-15-5,南区白幡2丁目8番12,第2けやき駐車場西側フェンス,35.8495557072367,139.655437998237,
埼玉県,さいたま市,8-15-6,南区別所1丁目26番10号,パウンドマンション前白幡緑道南側入口,35.847931075223,139.650541794241,
埼玉県,さいたま市,8-15-7,南区白幡2丁目19番,白幡緑道北側入口,35.8503466983479,139.65031682024,
埼玉県,さいたま市,8-16-1,南区白幡1丁目1番22号,市立南浦和小学校北側フェンス,35.846022551071,139.65753933012,
埼玉県,さいたま市,8-16-2,南区白幡1丁目1番22号,市立南浦和小学校西側ブロック,35.8457873690435,139.657217254202,
埼玉県,さいたま市,8-16-3,南区白幡1丁目16番13号,白幡自治会館東側フェンス,35.8468386498017,139.654135845942,
埼玉県,さいたま市,8-16-4,南区白幡1丁目13番5号,masked,35.8465665022663,139.655937206316,
埼玉県,さいたま市,8-16-5,南区根岸1丁目7番,根岸前公園北側,35.8439753992617,139.66297359248,
埼玉県,さいたま市,8-16-6,南区根岸1丁目7番,さいたま文化センター南側歩道植込み,35.8429720350488,139.66406813838,
埼玉県,さいたま市,8-16-7,南区根岸1丁目16番,神明丸公園西側フェンス,35.8458400823473,139.662831333885,
埼玉県,さいたま市,8-17-1,南区南本町2丁目25番27号,市立岸中学校北側正門右側フェンス,35.8505464389894,139.664862895918,
埼玉県,さいたま市,8-17-2,南区南本町2丁目25番27号,市立岸中学校西側フェンス,35.8496963102146,139.664363617774,
埼玉県,さいたま市,8-17-3,南区南本町2丁目25番27号,市立岸中学校東側フェンス,35.8495759110728,139.666182846204,
埼玉県,さいたま市,8-17-4,南区南本町2丁目19番,根岸北原公園東側,35.8484737819188,139.665368348517,
埼玉県,さいたま市,8-17-5,南区南本町2丁目13番,北原公園西側入口右側,35.8480547145831,139.667291129285,
埼玉県,さいたま市,8-17-6,南区南本町1丁目5番,みずほ銀行南浦和支店北側西口NPCパーキング北側フェンス,35.8464515845395,139.668406292657,
埼玉県,さいたま市,8-17-7,南区南本町1丁目18番,一ツ木公園北側植込み,35.8446556693706,139.666200255578,
埼玉県,さいたま市,8-18-1,南区文蔵2丁目30番,南浦和幼稚園向かい道路植込み,35.8429597426242,139.66655794686,
埼玉県,さいたま市,8-18-2,南区文蔵2丁目31番,郷前公園北側フェンス,35.8434671102423,139.666039020867,
埼玉県,さいたま市,8-18-3,南区文蔵1丁目8番3号南浦和コーポ向かい,JR線路沿いのフェンス,35.8434268191015,139.673454252939,
埼玉県,さいたま市,8-18-4,南区文蔵1丁目19番22号,文蔵第一自治会館北側フェンス,35.8432438681507,139.670983426458,
埼玉県,さいたま市,8-18-5,南区文蔵1丁目1番,水深公園西側,35.8453812521486,139.670267239674,
埼玉県,さいたま市,8-18-6,南区文蔵1丁目1番,水深公園北側,35.845478983442,139.670352393006,
埼玉県,さいたま市,8-18-7,南区文蔵1丁目6番,南浦和陸橋下北側フェンス,35.8436960562999,139.672377686155,
埼玉県,さいたま市,8-19-1,南区根岸2丁目19番3号,市立南浦和保育園南側ブロック塀,35.839894905285,139.665143233924,
埼玉県,さいたま市,8-19-2,南区根岸2丁目19番3号,市立南浦和保育園東側フェンス,35.8399735929641,139.665465639245,
埼玉県,さいたま市,8-19-3,南区根岸3丁目4番3号,浦和若竹幼稚園よいこのひろば南側フェンス,35.8399057270894,139.663927979089,
埼玉県,さいたま市,8-19-4,南区根岸3丁目9番,根岸西児童公園東側,35.8393939018872,139.662561967786,
埼玉県,さいたま市,8-19-5,南区辻1丁目28番4号,わたなべ動物病院南側フェンス,35.837807231485,139.6629222461,
埼玉県,さいたま市,8-19-6,南区根岸2丁目18番,よいこの観察園 フェンス,35.8402189292416,139.664300806413,
埼玉県,さいたま市,8-19-7,南区根岸3丁目9番,根岸西児童公園南側,35.83915393876,139.662164530031,
埼玉県,さいたま市,8-20-1,南区辻6丁目1番33号,市立南浦和中学校東側正門右側フェンス,35.835384979294,139.657498155844,
埼玉県,さいたま市,8-20-2,南区辻6丁目1番33号,市立南浦和中学校西側フェンス,35.8343663716694,139.656457377854,
埼玉県,さいたま市,8-20-3,南区辻6丁目3番28号,市立辻小学校東側正門右側フェンス,35.8337033588781,139.658750874077,
埼玉県,さいたま市,8-20-4,南区辻5丁目9番,辻中道公園東側入口フェンス,35.8333948323275,139.660813999006,
埼玉県,さいたま市,8-20-5,南区辻6丁目3番28号,市立辻小学校北側フェンス,35.8335880508188,139.658237533228,
埼玉県,さいたま市,8-20-6,南区辻2丁目20番1号,辻公会堂フェンス,35.8372819846344,139.661507158271,
埼玉県,さいたま市,8-20-7,南区辻2丁目9番18号,masked,35.8356163620124,139.662947077024,
埼玉県,さいたま市,8-20-8,南区辻4丁目8番7号,浦和つくし幼稚園西門フェンス,35.8363982224716,139.657155320363,
埼玉県,さいたま市,8-21-1,南区辻8丁目7番,市立辻南小学校東側正門左側フェンス,35.8318312779347,139.665728623659,
埼玉県,さいたま市,8-21-2,南区辻8丁目19番10号,辻8丁目緑道パステルハイム向かい,35.830611265864,139.661363372518,
埼玉県,さいたま市,8-21-3,南区辻8丁目26番1号,masked,35.8314994732246,139.660371597032,
埼玉県,さいたま市,8-21-4,南区辻8丁目7番,市立辻南小学校北側フェンス,35.8323432002684,139.664217782904,
埼玉県,さいたま市,8-21-5,南区辻8丁目7番,市立辻南小学校東側フェンス,35.8323415993557,139.664939241056,
埼玉県,さいたま市,8-21-6,南区辻7丁目13番5号,サイデン化学(株)浦和工場厚生施設西側正門左側フェンス,35.833031432345,139.664897382576,
埼玉県,さいたま市,8-21-7,南区辻7丁目4番4号,masked,35.8348036501362,139.665339606708,
埼玉県,さいたま市,8-22-1,南区文蔵4丁目19番3号,文蔵公民館東側,35.837956093384,139.669967953579,
埼玉県,さいたま市,8-22-2,南区文蔵4丁目19番3号,文蔵公民館西側,35.8379213602816,139.669151322378,
埼玉県,さいたま市,8-22-3,南区文蔵4丁目23,文蔵4丁目第2公園,35.837390915395,139.668294318965,
埼玉県,さいたま市,8-22-4,南区文蔵4丁目8番9号,ラ・シェール北側六辻水辺公園水路柵,35.8397210760367,139.670606486904,
埼玉県,さいたま市,8-22-5,南区辻1丁目19番,辻児童公園北側,35.8375860069304,139.665008743982,
埼玉県,さいたま市,8-22-6,南区文蔵4丁目25番,六辻水辺公園植込み,35.8395700017283,139.669142279788,
埼玉県,さいたま市,8-22-7,南区文蔵4丁目10番,masked,35.8386729553735,139.671114394394,
埼玉県,さいたま市,8-23-1,南区文蔵5丁目16番29号,市立文蔵小学校西側正門右側フェンス,35.8348947068654,139.672941941297,
埼玉県,さいたま市,8-23-2,南区文蔵5丁目16番29号,市立文蔵小学校北門右側,35.8354326388185,139.674032048833,
埼玉県,さいたま市,8-23-3,南区文蔵5丁目16番29号,市立文蔵小学校東側東門左側フェンス,35.8352100581806,139.674753089081,
埼玉県,さいたま市,8-23-4,南区辻7丁目2番3号先,南浦和ハイツ東側水路フェンス,35.8353384692685,139.66830299731,
埼玉県,さいたま市,8-23-5,南区文蔵5丁目25番,文蔵5丁目第一公園入口左側の植込み,35.8355979676452,139.672357183974,
埼玉県,さいたま市,8-23-6,南区文蔵5丁目6番6号,masked,35.8334747267417,139.676772283416,
埼玉県,さいたま市,8-23-7,南区文蔵5丁目4番,文蔵南公園の西側柵,35.8354962237826,139.675634283515,
埼玉県,さいたま市,8-24-1,南区文蔵3丁目7番14号,市立文蔵保育園北側フェンス,35.8401174797258,139.675534033539,
埼玉県,さいたま市,8-24-2,南区文蔵3丁目22番5号,masked,35.8398976311583,139.67409142238,
埼玉県,さいたま市,8-24-3,南区文蔵3丁目9番1号先,メゾン南浦和藤井ビル東側の道路反対側のガードパイプ,35.8390164150626,139.675344046205,
埼玉県,さいたま市,8-24-4,南区文蔵3丁目20番4号先,masked,35.8406273989022,139.673644072108,
埼玉県,さいたま市,8-24-5,南区文蔵3丁目3番1号先,六辻水辺公園南側水路柵,35.8411150081471,139.675197194232,
埼玉県,さいたま市,8-24-6,南区文蔵3丁目23番,駐車場西側フェンス,35.8395294344178,139.673415249009,
埼玉県,さいたま市,8-24-7,南区文蔵3丁目7番14号,市立文蔵保育園東側フェンス,35.840017213844,139.675781308274,
埼玉県,さいたま市,8-25-1,南区南浦和3丁目37番,南浦和団地55号棟集会所東側,35.8460187526635,139.675722942816,
埼玉県,さいたま市,8-25-2,南区南浦和3丁目38番,舟山公園南側交差点突当り,35.8472082907643,139.675061438531,
埼玉県,さいたま市,8-25-3,南区南浦和3丁目30番,もみじ公園東側フェンス,35.8463565879462,139.673343866444,
埼玉県,さいたま市,8-25-4,南区南浦和3丁目18番,コンフォール南浦和23号棟東側フェンス,35.8486825202084,139.674301700813,
埼玉県,さいたま市,8-25-5,南区南浦和3丁目47番,さくら公園北側入口の右側,35.8445692479067,139.674044334761,
埼玉県,さいたま市,8-25-6,南区南浦和3丁目36番11号,市立大谷場保育園南側正門フェンス,35.8462406196964,139.674389051865,
埼玉県,さいたま市,8-25-7,南区南浦和3丁目41番,南浦和橋バス停脇植込み,35.8445285492666,139.676267673958,
埼玉県,さいたま市,8-25-8,南区南浦和3丁目41番15号,コンフォール南浦和15号棟南側植込み,35.8443523556754,139.674840946038,
埼玉県,さいたま市,8-26-1,南区大谷場2丁目13番55号,masked,35.8528093022231,139.674008922959,
埼玉県,さいたま市,8-26-2,南区大谷場2丁目2番32号,南浦和公民館正面入り口南側フェンス,35.8542062576225,139.672222146416,
埼玉県,さいたま市,8-26-3,南区大谷場2丁目14番,ブラッツ南浦和向かい側藤右衛門川フェンス,35.8528912601979,139.675874640489,
埼玉県,さいたま市,8-26-4,南区南浦和2丁目16番,大谷場公園北側入口左側,35.8511260971305,139.671555466064,
埼玉県,さいたま市,8-26-5,南区南浦和2丁目2番,御嶽公園東側入口右側,35.8499824708958,139.668768092135,
埼玉県,さいたま市,8-26-6,南区南浦和2丁目43番,浦和弁天公園北側,35.8478627627479,139.671545598695,
埼玉県,さいたま市,8-26-7,南区南浦和2丁目12番17,南浦和たいよう保育園フェンス,35.8517217343489,139.674481741614,
埼玉県,さいたま市,8-27-1,南区南浦和1丁目18番3号,市立大谷場小学校西側正門パイプフェンス,35.8530272022703,139.667644130062,
埼玉県,さいたま市,8-27-2,南区南浦和1丁目18番3号,市立大谷場小学校東側フェンス,35.8522745376121,139.669586294924,
埼玉県,さいたま市,8-27-3,南区南浦和1丁目18番3号,市立大谷場小学校北門入口左側フェンス,35.85334549415,139.668121981162,
埼玉県,さいたま市,8-27-4,南区大谷場1丁目20番,masked,35.8561268289877,139.671206837257,
埼玉県,さいたま市,8-27-5,南区南浦和1丁目12番,葉根木公園西側,35.8539454295668,139.669570791209,
埼玉県,さいたま市,8-27-6,南区大谷場1丁目8番,浦和競馬場南側フェンス,35.8559429082038,139.670173646771,
埼玉県,さいたま市,8-27-7,南区大谷場1丁目8番,浦和競馬場第4コーナー駐車場北側フェンス,35.8583860048666,139.668262216756,
埼玉県,さいたま市,8-28-1,南区太田窪5丁目10番6号,市立谷田小学校東側ブロック塀,35.856694678221,139.678381247654,
埼玉県,さいたま市,8-28-2,南区太田窪5丁目21番,市立谷田小学校グラウンド東側塀,35.8559131347486,139.679021175969,
埼玉県,さいたま市,8-28-3,南区太田窪5丁目21番,市立谷田小学校グラウンド西側フェンス,35.8550740470718,139.678370672151,
埼玉県,さいたま市,8-28-4,南区太田窪2丁目15番12号,masked,35.861150617555,139.671383071052,
埼玉県,さいたま市,8-28-5,南区太田窪4丁目22番,浦和競馬場南東側フェンス,35.857588134034,139.673528462349,
埼玉県,さいたま市,8-28-6,南区太田窪5丁目28番,クリーニングたばこ鈴木商店向かい側フェンス,35.8534495362778,139.676137040452,
埼玉県,さいたま市,8-28-7,南区太田窪5丁目1番,masked,35.8557022686689,139.674084734849,
埼玉県,さいたま市,8-28-8,南区太田窪2丁目21番19号,浦和競馬場第3コーナー外側駐車場西側ブロック塀,35.8598350508078,139.669612933208,
埼玉県,さいたま市,8-29-1,南区大字大谷口1089-1,谷田公民館北東側フェンス,35.8618033087021,139.677330798999,
埼玉県,さいたま市,8-29-2,南区大字大谷口1176番地1,市営大谷口細野団地91市-4号棟西側入口の右側フェンス,35.8587914866024,139.680572035251,
埼玉県,さいたま市,8-29-3,南区大字大谷口988番地,大谷口細野公園南側植込み,35.8603521774407,139.680582770771,
埼玉県,さいたま市,8-29-4,南区大字大谷口1208番地2,masked,35.8609215030398,139.676691089623,
埼玉県,さいたま市,8-29-5,南区大字大谷口983番地8,masked,35.8616460919666,139.680681603693,
埼玉県,さいたま市,8-29-6,南区大字大谷口5077番地,masked,35.8573105078543,139.685780989842,
埼玉県,さいたま市,8-29-7,南区大字大谷口1511-1先,畑東側,35.8564003006144,139.682634353596,
埼玉県,さいたま市,8-29-8,南区大字大谷口1511-1先,畑西側,35.8561448945153,139.68237497798,
埼玉県,さいたま市,8-30-1,南区大字広ヶ谷戸21番地,市立大谷口中学校東側フェンス,35.8628080180504,139.683766386648,
埼玉県,さいたま市,8-30-2,南区大字広ヶ谷戸24番地,市立大谷口小学校南門入口右側フェンス,35.8617124979345,139.682518997104,
埼玉県,さいたま市,8-30-3,南区大字広ヶ谷戸21番地,市立大谷口中学校グラウンド西側フェンス,35.8633089645983,139.682165845759,
埼玉県,さいたま市,8-30-4,南区大字大谷口860番地2,masked,35.8661698756413,139.681774284859,
埼玉県,さいたま市,8-30-5,南区大字大谷口920番地7,masked,35.8641126070286,139.682169524046,
埼玉県,さいたま市,8-30-6,南区大字広ヶ谷戸162番地先,広ヶ谷戸子供広場北西側,35.8600970037786,139.684457864694,
埼玉県,さいたま市,8-30-7,南区大字広ヶ谷戸130番地1,介護老人福祉施設こもれびの丘 フェンス,35.8606846349365,139.686988957611,
埼玉県,さいたま市,8-31-1,南区大字大谷口5339番地,東浦和公民館南側,35.8611333360148,139.695065747665,
埼玉県,さいたま市,8-31-2,南区大字大谷口5230番地,東中尾公園南側,35.8621725435826,139.693937395825,
埼玉県,さいたま市,8-31-3,南区大字大谷口5230番地,東中尾公園東側フェンス,35.8624428371228,139.694231681572,
埼玉県,さいたま市,8-31-4,南区大字大谷口2391番1,大谷口向特別緑地保全地区,35.8606046158646,139.692896882119,
埼玉県,さいたま市,8-31-5,南区大字大谷口2257番地先,さいたま・川口線武蔵野線交差部南側路肩フェンス,35.8585991122643,139.690363975668,
埼玉県,さいたま市,8-31-6,南区大字大谷口2522番地7先,浦和大谷口郵便局南東側さいたま・川口線沿い道路フェンス,35.8601901721939,139.687668501626,
埼玉県,さいたま市,8-31-7,南区大字大谷口5155番地,篠堤公園西側フェンス,35.8576009804139,139.687453566611,
埼玉県,さいたま市,8-32-1,南区大字大谷口5437番地,市立向小学校西側フェンス,35.8582162151067,139.695763272189,
埼玉県,さいたま市,8-32-2,南区大字大谷口5437番地,市立向小学校東門右側フェンス,35.8575369424004,139.696773340896,
埼玉県,さいたま市,8-32-3,南区大字大谷口5461番地,浦和向公園北側入口と入口の間,35.8573019888919,139.69490654051,
埼玉県,さいたま市,8-32-4,南区大字大谷口5732番地,明花公園北側入口,35.8549956276282,139.693350200304,
埼玉県,さいたま市,8-32-5,南区大字大谷口5700番地先,大谷口公園北側フェンス,35.8540864084193,139.691477916969,
埼玉県,さいたま市,8-32-6,南区大字大谷口1819番地19,さいたま・川口線ヒューマンスクエア浦和メイフルの南側,35.8573006352837,139.690971066603,
埼玉県,さいたま市,8-32-7,南区大字大谷口5732番地,明花公園東側,35.854831451397,139.69447981069,
埼玉県,さいたま市,8-33-1,南区大字太田窪2500番地1,市立善前小学校南側正門右側フェンス,35.8530895921725,139.685480911166,
埼玉県,さいたま市,8-33-2,南区大字太田窪2500番地1,市立善前小学校グラウンド北側フェンス,35.8546019797454,139.686158683662,
埼玉県,さいたま市,8-33-3,南区大字太田窪1836番地1,浦和東部下水道事務所藤右衛門中継ポンプ場南側,35.8520686332173,139.676656578861,
埼玉県,さいたま市,8-33-4,南区大字太田窪2244番地143,不動入公園東側フェンス,35.8497421577072,139.684298756302,
埼玉県,さいたま市,8-33-5,南区大字太田窪2634番地,大島台公園南東側の植込み,35.852570905727,139.69027748007,
埼玉県,さいたま市,8-33-6,南区大字太田窪3204番地,善前南公園西側,35.8554623123585,139.688009195848,
埼玉県,さいたま市,8-33-7,南区大字円正寺508番地,円正寺第一公園西側フェンス,35.8512809628204,139.693392268386,
埼玉県,さいたま市,8-33-8,南区大字太田窪3514番地10,調整池東側フェンス,35.8499929290895,139.695095939631,
埼玉県,さいたま市,9-1-1,緑区大字三室2614番地2,大古里公民館駐車場北側,35.8871164156505,139.673090016148,
埼玉県,さいたま市,9-1-2,緑区大字三室字大古里888,三葉公園北側,35.8888792107804,139.669713886827,
埼玉県,さいたま市,9-1-3,緑区大字三室字中原後地内,山﨑緑地南側,35.8941277949389,139.666047374797,
埼玉県,さいたま市,9-1-4,緑区大字三室2391番地8,北宿公園北側,35.8895832483373,139.676332931085,
埼玉県,さいたま市,9-1-5,緑区大字三室2618番地1,北宿南公園北側,35.8871068289454,139.67517359263,
埼玉県,さいたま市,9-1-6,緑区大字三室636番地21,大古里公園西側,35.8910956713583,139.673377085138,
埼玉県,さいたま市,9-1-7,緑区大字三室473番地,山崎第三公園南側,35.8914408955336,139.666624815135,
埼玉県,さいたま市,9-1-8,緑区大字三室984番地1,原前公園北側,35.8856702742341,139.672257683105,
埼玉県,さいたま市,9-2-1,緑区馬場1丁目38番地2,市立三室中学校東側フェンス,35.8878209772173,139.684642137038,
埼玉県,さいたま市,9-2-2,緑区大字三室2415番地,老人福祉センター和楽荘西側(北宿バス停そば),35.8897804129565,139.677194636982,
埼玉県,さいたま市,9-2-3,緑区宮本1丁目21番地,宮本第四公園南側,35.8904808857432,139.694554947013,
埼玉県,さいたま市,9-2-4,緑区宮本1丁目4番地,宮本第一公園南側,35.8879926829611,139.69081380523,
埼玉県,さいたま市,9-2-5,緑区宮本2丁目14番地,宮本第三公園(ひかわ公園)北側,35.8873923913388,139.693034684699,
埼玉県,さいたま市,9-2-6,緑区大字三室2460番地1,さいたま市立病院南側フェンス,35.8905454100917,139.677982685783,
埼玉県,さいたま市,9-2-7,緑区馬場1丁目24番地,馬場西公園北側,35.8877865729507,139.681850514004,
埼玉県,さいたま市,9-2-8,緑区馬場2丁目28番地,馬場東公園南側,35.8907004304653,139.688057704043,
埼玉県,さいたま市,9-3-1,緑区大字上野田16番地,市立野田小学校正門南側,35.9007231789792,139.704524151419,
埼玉県,さいたま市,9-3-2,緑区大字大崎317番地,クリーンセンター大崎南側フェンス西端,35.8793280334739,139.711124615842,
埼玉県,さいたま市,9-3-3,緑区大字大崎3170番地,大崎公園東側フェンス,35.8844426914442,139.715176631541,
埼玉県,さいたま市,9-3-4,緑区大字大崎2437番地1,masked,35.8917163080788,139.707698653797,
埼玉県,さいたま市,9-3-5,緑区大字南部領辻3591番地,さぎ山記念公園南側公園,35.9060726134516,139.699572845627,
埼玉県,さいたま市,9-3-6,緑区大字大門1980番地,masked,35.8898134450922,139.718834360532,
埼玉県,さいたま市,9-3-7,緑区大字大崎2550番地3,市立美園中学校東側フェンス,35.8916220082064,139.713953376864,
埼玉県,さいたま市,9-3-8,緑区大字南部領辻3591番地,さぎ山記念公園東側入口,35.9081165597991,139.701022996967,
埼玉県,さいたま市,9-4-1,緑区大字大門1189番地,市立大門小学校東側フェンス,35.8813107935567,139.733983112298,
埼玉県,さいたま市,9-4-2,緑区大字大門1189番地,市立大門小学校北側フェンス,35.8819696385311,139.733288737755,
埼玉県,さいたま市,9-4-3,緑区大字北原1597番地,masked,35.8818363591726,139.718130584179,
埼玉県,さいたま市,9-4-4,緑区大字間宮703番地,間宮ふれあい公園入口通路右側生垣,35.885849917919,139.720577241977,
埼玉県,さいたま市,9-4-5,緑区大字間宮158番地,氷川下子供広場西側,35.8806804526463,139.728431588326,
埼玉県,さいたま市,9-4-6,緑区大門第二特定土地区画整理内,大門第二特定土地区画整理内B調整池北側フェンス,35.8771241674427,139.736318275143,
埼玉県,さいたま市,9-4-7,緑区大門第二特定土地区画整理内,大門第二特定土地区画整理内B調整池南側,35.8763786814822,139.737458447216,
埼玉県,さいたま市,9-4-8,緑区大字大門1703番地,大門上みなみ公園東側,35.8839794512683,139.72730226474,
埼玉県,さいたま市,9-5-1,緑区大字大間木472番地,緑消防署北側ブロック塀,35.8744569123682,139.693366030507,
埼玉県,さいたま市,9-5-2,緑区大字大間木749番地,大間木1丁目第一公園東側,35.8724979707789,139.694016765261,
埼玉県,さいたま市,9-5-3,緑区大間木2丁目23番地29,大間木水深調整池東側フェンス,35.8749631200075,139.692606531216,
埼玉県,さいたま市,9-5-4,緑区大字大間木560番地先,内谷・会ノ谷調整池東側フェンス,35.8729278313797,139.696456566879,
埼玉県,さいたま市,9-5-5,緑区大字大牧1446番地45,梅所第三公園南側フェンス,35.8776710363347,139.698996977505,
埼玉県,さいたま市,9-5-6,緑区大字大間木560番地先,内谷・会ノ谷調整池南側フェンス,35.8724651596452,139.696287262402,
埼玉県,さいたま市,9-5-7,緑区大字大間木576番地1,masked,35.8720706854321,139.698315513443,
埼玉県,さいたま市,9-5-8,緑区大間木3丁目37番地4,水深中央公園東側,35.8772115459841,139.691252967922,
埼玉県,さいたま市,9-6-1,緑区芝原2丁目5番地,市立芝原小学校西側正門右側フェンス,35.881895636802,139.690797372191,
埼玉県,さいたま市,9-6-2,緑区松木3丁目39番地,宮本第二公園南側,35.8848247715352,139.691523469024,
埼玉県,さいたま市,9-6-3,緑区芝原1丁目24番地,芝原西公園西側,35.8782569225687,139.685942280629,
埼玉県,さいたま市,9-6-4,緑区芝原3丁目7番地,芝原中央公園北側,35.8791655968867,139.694207323454,
埼玉県,さいたま市,9-6-5,緑区芝原1丁目7番地,芝原北公園北側フェンス,35.8809449017422,139.688760423998,
埼玉県,さいたま市,9-6-6,緑区芝原2丁目5番地,市立芝原小学校正門左端フェンス,35.8824768137953,139.691705418447,
埼玉県,さいたま市,9-6-7,緑区芝原2丁目23番地,芝原東公園南側フェンス,35.8820430332642,139.695925871411,
埼玉県,さいたま市,9-7-1,緑区大字三室1994番地,市立三室小学校北側正門右側フェンス,35.8842099468942,139.682193588676,
埼玉県,さいたま市,9-7-2,緑区大字三室1994番地,市立三室小学校南側フェンス,35.8828726082893,139.682249514325,
埼玉県,さいたま市,9-7-3,緑区大字三室1652番地,masked,35.8833568739293,139.678060078618,
埼玉県,さいたま市,9-7-4,緑区大字三室1994番地,市立三室小学校東側フェンス,35.8812727301501,139.677315002454,
埼玉県,さいたま市,9-7-5,緑区松木1丁目24番地,松木西公園東側フェンス,35.881077373013,139.683372428362,
埼玉県,さいたま市,9-7-6,緑区大字三室1629番地6,市立三室保育園南側ブロック塀,35.8824873014635,139.678790662955,
埼玉県,さいたま市,9-7-7,緑区松木2丁目25番地,松木南公園東側フェンス,35.8814405153775,139.686724735543,
埼玉県,さいたま市,9-8-1,緑区大字三室1137番地5,浦和三室シルバーワークプラザ北側,35.8839191801808,139.670807526814,
埼玉県,さいたま市,9-8-2,緑区大字三室1137番地1,三室ふれあいパーク東側フェンス,35.8838713094088,139.671267381868,
埼玉県,さいたま市,9-8-3,緑区大字三室1400番地,西宿特別緑地保全地区北東側,35.8837099282919,139.672241826972,
埼玉県,さいたま市,9-8-4,緑区大字三室1400番地,西宿特別緑地保全地区西側,35.8835758479209,139.671399453301,
埼玉県,さいたま市,9-8-5,緑区大字三室1137番地6,三室すこやか遊具敷地南側フェンス,35.8835623310098,139.670734601982,
埼玉県,さいたま市,9-8-6,緑区大字三室1400番地,西宿特別緑地保全地区南側,35.8832768997251,139.672089083411,
埼玉県,さいたま市,9-8-7,緑区大字三室1198番地13,masked,35.8818850611765,139.670228222975,
埼玉県,さいたま市,9-9-1,緑区道祖土1丁目1番1号,市立道祖土小学校正門横フェンス,35.8753407732036,139.669359211582,
埼玉県,さいたま市,9-9-2,緑区道祖土1丁目1番1号,市立道祖土小学校北側フェンス,35.8756449445287,139.668545814491,
埼玉県,さいたま市,9-9-3,緑区大字三室1262番地2,masked,35.8791189291908,139.675966173993,
埼玉県,さいたま市,9-9-4,緑区道祖土3丁目13番15号,道祖土第一公園南側,35.8778157311056,139.673818101809,
埼玉県,さいたま市,9-9-5,緑区道祖土1丁目158-2,道祖土一丁目公園東側フェンス,35.8788676659767,139.668200130485,
埼玉県,さいたま市,9-9-6,緑区大字三室1280番地,三室グリーンゴルフ場北側フェンス,35.8801940621723,139.674674549325,
埼玉県,さいたま市,9-9-7,緑区道祖土2丁目12番31号,masked,35.8796691332343,139.671106934138,
埼玉県,さいたま市,9-10-1,緑区大字中尾1251番地2,masked,35.8737924994207,139.684854182502,
埼玉県,さいたま市,9-10-2,緑区大字中尾3710,中尾不動谷・駒前A調整池フェンス,35.878230907021,139.677818790204,
埼玉県,さいたま市,9-10-3,緑区大字中尾3710,中尾不動谷・駒前A調整池フェンス,35.8765244168169,139.676309308204,
埼玉県,さいたま市,9-10-4,緑区大字中尾1429番地,masked,35.872521181347,139.686487679541,
埼玉県,さいたま市,9-10-5,緑区大字中尾1140番地27,駒前第二公園西側,35.8760812071206,139.682196515745,
埼玉県,さいたま市,9-10-6,緑区大字中尾1401番地2,masked,35.874347472041,139.6855985713,
埼玉県,さいたま市,9-10-7,緑区大字中尾925番地,特別養護老人ホーム浦和しぶや苑北側フェンス,35.8749821091941,139.681408985513,
埼玉県,さいたま市,9-10-8,緑区大字中尾1107番地3,国道463号歩道鉄柵(東浦和中学校北側),35.8757895020064,139.682961888304,
埼玉県,さいたま市,9-11-1,緑区原山2丁目33番,原山市民プール(駒場運動公園)南側壁面,35.871438367835,139.668929825904,
埼玉県,さいたま市,9-11-2,緑区原山3丁目15番31号,養護老人ホーム尚和園西側フェンス,35.8721558657083,139.675127674396,
埼玉県,さいたま市,9-11-3,緑区原山3丁目8番,小太田公園西側フェンス,35.8713084134037,139.672674791242,
埼玉県,さいたま市,9-11-4,緑区原山2丁目18番8号,埼玉職業能力開発促進センター北側フェンス,35.8705900520343,139.667703032068,
埼玉県,さいたま市,9-11-5,緑区原山2丁目229番74地内,駒場運動公園東側(原山市民プール西側道路),35.8723526988588,139.66788640712,
埼玉県,さいたま市,9-11-6,緑区原山3丁目6番,原山公園西側フェンス,35.8733843777636,139.672333275277,
埼玉県,さいたま市,9-11-7,緑区原山2丁目33番,原山市民プール(駒場運動公園)南側壁面,35.8716297368611,139.669401852313,
埼玉県,さいたま市,9-12-1,緑区太田窪1丁目10番22号,市立原山中学校西側フェンス,35.8660040832851,139.666705012491,
埼玉県,さいたま市,9-12-2,緑区太田窪1丁目10番22号,市立原山中学校南側フェンス,35.8663975730181,139.66785238823,
埼玉県,さいたま市,9-12-3,緑区太田窪1丁目10番22号,市立原山中学校東側フェンス,35.8669230997547,139.667753406303,
埼玉県,さいたま市,9-12-4,緑区太田窪1丁目2番2号,藤右衛門川通り植栽野立,35.8631098589779,139.665853915128,
埼玉県,さいたま市,9-12-5,緑区太田窪1丁目10番22号,市立原山中学校西側桜並木自治会掲示板右横,35.8668492431997,139.666035403557,
埼玉県,さいたま市,9-12-6,緑区太田窪1丁目19番27号,masked,35.8635029115867,139.667070230589,
埼玉県,さいたま市,9-12-7,緑区太田窪1丁目10番22号,市立原山中学校北側壁面,35.8679504858067,139.667126496418,
埼玉県,さいたま市,9-13-1,緑区原山1丁目30番12号,市立原山小学校北側正門フェンス,35.8665462611789,139.670067867947,
埼玉県,さいたま市,9-13-2,緑区原山1丁目30番12号,市立原山小学校グラウンド南側裏門フェンス,35.8655132246244,139.670660413191,
埼玉県,さいたま市,9-13-3,緑区原山1丁目30番12号,市立原山小学校北側フェンス,35.8665701207137,139.671180032415,
埼玉県,さいたま市,9-13-4,緑区原山1丁目8番20号,masked,35.8692496802283,139.671148882261,
埼玉県,さいたま市,9-13-5,緑区原山4丁目17番20号,薬師会館西側上部フェンス、下部コンクリート塀,35.8682031865728,139.674223395701,
埼玉県,さいたま市,9-13-6,緑区原山1丁目25番21号,大谷口緑道植栽野立,35.8664738244894,139.67452937782,
埼玉県,さいたま市,9-13-7,緑区太田窪3丁目19番,諏訪入公園東側,35.8621870241325,139.67616540974,
埼玉県,さいたま市,9-14-1,緑区大字中尾2596番地1,市立中尾小学校正門西側フェンス,35.8679884915014,139.683479812338,
埼玉県,さいたま市,9-14-2,緑区原山4丁目6番25号,坊ノ在家団地西側フェンス,35.871370728116,139.676864654237,
埼玉県,さいたま市,9-14-3,緑区大字中尾2596番地1,市立中尾小学校西側フェンス,35.8682659172096,139.681392682351,
埼玉県,さいたま市,9-14-4,緑区原山4丁目8番11号,masked,35.8699091407474,139.679047752579,
埼玉県,さいたま市,9-14-5,緑区原山4丁目33番39号,masked,35.8667834019834,139.680408757835,
埼玉県,さいたま市,9-14-6,緑区大字中尾2596番地1,市立中尾小学校西側フェンス,35.8680601398791,139.681606020883,
埼玉県,さいたま市,9-14-7,緑区原山4丁目33番13-2号,原山4丁目第一公園,35.8679175435905,139.679688123681,
埼玉県,さいたま市,9-14-8,緑区大字中尾2596番地1,市立中尾小学校北側グラウンド脇フェンス外,35.8689957611559,139.682918137803,
埼玉県,さいたま市,9-15-1,緑区大字中尾975番地1,緑区役所西側掲示板の右側法敷,35.8708280139733,139.683787528114,
埼玉県,さいたま市,9-15-2,緑区大字中尾983番地,駒前公園東側フェンス,35.8703607963496,139.685566659433,
埼玉県,さいたま市,9-15-3,緑区大字中尾2275番地,中丸公園南側,35.8656317669956,139.69143685969,
埼玉県,さいたま市,9-15-4,緑区大字中尾1804番地,masked,35.8710247283801,139.689279879072,
埼玉県,さいたま市,9-15-5,緑区大字中尾1828番地16,中尾第三公園北側フェンス,35.8712544016363,139.687422010312,
埼玉県,さいたま市,9-15-6,緑区大字中尾3077番地,中尾第二公園西側フェンス,35.867570307564,139.688584178637,
埼玉県,さいたま市,9-15-7,緑区大字中尾2021番地,中尾第一公園東側フェンス,35.8688062661013,139.6917161274,
埼玉県,さいたま市,9-16-1,緑区東浦和8丁目11番地5,市立尾間木小学校東側正門左側フェンス,35.869349353345,139.697437437303,
埼玉県,さいたま市,9-16-2,緑区東浦和3丁目24番地2,masked,35.8657775397676,139.696668071847,
埼玉県,さいたま市,9-16-3,緑区東浦和3丁目20番地1,東浦和第六公園(大北公園)北側,35.8673574024954,139.697691764332,
埼玉県,さいたま市,9-16-4,緑区東浦和8丁目15番地1,尾間木内谷公園東側,35.8690675568841,139.695349296079,
埼玉県,さいたま市,9-16-5,緑区東浦和8丁目11番地5,市立尾間木小学校北側フェンス,35.8691804578582,139.696657135038,
埼玉県,さいたま市,9-16-6,緑区東浦和8丁目1番地15,masked,35.8717098310785,139.699400836748,
埼玉県,さいたま市,9-16-7,緑区東浦和3丁目7番地,尾間木配水場北側フェンス,35.8653541069803,139.697798159193,
埼玉県,さいたま市,9-16-8,緑区東浦和8丁目19番地1,東浦和まちづくり事務所南側フェンス,35.8672542618118,139.695372482613,
埼玉県,さいたま市,9-17-1,緑区東浦和2丁目57番地2,井沼方自治会館西側塀,35.861244764971,139.696107714251,
埼玉県,さいたま市,9-17-2,緑区東浦和2丁目2番地1,東谷公園東側,35.8633511790975,139.70073989205,
埼玉県,さいたま市,9-17-3,緑区東浦和2丁目74−23,馬堤緑地南側フェンス,35.8628151264373,139.696617350183,
埼玉県,さいたま市,9-17-4,緑区東浦和2丁目15番地1,井沼方公園南側,35.8617928269674,139.701459891055,
埼玉県,さいたま市,9-17-5,緑区東浦和2丁目48番地3,馬堤公園北側,35.8611799244007,139.697745030331,
埼玉県,さいたま市,9-17-6,緑区東浦和2丁目51番地14,井沼方第2調整池西側フェンス,35.8600374775639,139.695926212942,
埼玉県,さいたま市,9-17-7,緑区東浦和2丁目32番地1,井沼方南公園北側,35.8591268456177,139.698629113053,
埼玉県,さいたま市,9-18-1,緑区東浦和4丁目29番地1,市立尾間木中学校 正門北側フェンス,35.8698074456849,139.697942952275,
埼玉県,さいたま市,9-18-2,緑区東浦和4丁目29番地1,市立尾間木中学校 南側フェンス,35.8690524116809,139.699247396823,
埼玉県,さいたま市,9-18-3,緑区東浦和4丁目31番地1,東浦和第一公園(赤堀公園)東側,35.8700661809924,139.700083651077,
埼玉県,さいたま市,9-18-4,緑区東浦和4丁目4番地1,東浦和中央公園西側フェンス,35.8648824545371,139.700805995227,
埼玉県,さいたま市,9-18-5,緑区東浦和4丁目4番地1,東浦和中央公園東側フェンス,35.8654185930276,139.702137658225,
埼玉県,さいたま市,9-18-6,緑区東浦和1丁目1番地,東浦和駅前バスロータリー生垣内,35.8646157425819,139.704699646028,
埼玉県,さいたま市,9-18-7,緑区東浦和1丁目19番地1,東浦和南公園北側,35.8623995733424,139.704414336657,
埼玉県,さいたま市,9-19-1,緑区東浦和6丁目12番地3,市立大牧小学校西側正門右側フェンス,35.8721226799181,139.706491055694,
埼玉県,さいたま市,9-19-2,緑区東浦和6丁目12番地3,市立大牧小学校西側フェンス,35.8736034741125,139.706385703579,
埼玉県,さいたま市,9-19-3,緑区東浦和7丁目36番地9,梅所第一公園南側,35.8727179296793,139.70304102501,
埼玉県,さいたま市,9-19-4,緑区東浦和7丁目46番地23,梅所第二公園東側,35.872256861095,139.701360272252,
埼玉県,さいたま市,9-19-5,緑区東浦和5-5-8,吉場公園東側,35.8655521661609,139.707010011153,
埼玉県,さいたま市,9-19-6,緑区東浦和5-30-1,大六天公園南側,35.8690100321758,139.70636689639,
埼玉県,さいたま市,9-19-7,緑区東浦和5丁目20番地,大間木氷川神社東側入口右側,35.8668205926038,139.705021642468,
埼玉県,さいたま市,9-19-8,緑区東浦和7丁目16−8,和田公園東側,35.8702073937417,139.703515998255,
埼玉県,さいたま市,9-20-1,緑区大字大間木1681番地10,附島自治会館東側フェンス通船堀大橋下,35.8601978350358,139.712633165883,
埼玉県,さいたま市,9-20-2,緑区大字下山口新田4番地,masked,35.8623907388635,139.716023997766,
埼玉県,さいたま市,9-20-3,緑区大字大間木1545番地,東浦和団地管理事務所東向側フェンス,35.8609124896288,139.706231991566,
埼玉県,さいたま市,9-20-4,緑区大字大間木地内,大間木公園西側フェンス,35.8641430609529,139.709312457979,
埼玉県,さいたま市,9-20-5,緑区大字大間木1920番地,masked,35.8618397544005,139.709913089337,
埼玉県,さいたま市,9-20-6,緑区大字大間木1545番地,masked,35.8599588439924,139.707236239299,
埼玉県,さいたま市,9-20-7,緑区大字大間木1741番地先,東浦和駅前通り沿い南浦和越谷線との交差点手前,35.8592313764343,139.7092345195,
埼玉県,さいたま市,9-21-1,緑区美園5丁目33番地,市立美園小学校西門左側,35.8912103971793,139.734638459033,
埼玉県,さいたま市,9-21-2,緑区浦和東部第二地区内,浦和美園4丁目公園西側フェンス,35.8960616789793,139.731403671368,
埼玉県,さいたま市,9-21-3,緑区浦和東部第一特定土地区画整理内,美園台公園南東側フェンス,35.894830570063,139.724454431767,
埼玉県,さいたま市,9-21-4,緑区大字下野田405番地,美園西口ふれあい公園東側フェンス,35.8921688851238,139.724123994304,
埼玉県,さいたま市,9-21-5,緑区大字大門2577番地,大門上中央公園東側フェンス,35.8880597661147,139.726529230223,
埼玉県,さいたま市,9-21-6,緑区美園4丁目19番地1,美園コミュニティセンターブロック塀,35.8947799557879,139.727833091666,
埼玉県,さいたま市,9-21-7,緑区美園5丁目33番地,市立美園小学校北門左側,35.8909808380042,139.735645515908,
埼玉県,さいたま市,9-21-8,緑区美園5丁目42番地,美園5丁目第二公園北西側,35.8939598213676,139.733520787838,
埼玉県,さいたま市,9-22-1,緑区美園2丁目12番地11,市立美園北小学校南西側,35.9006703154879,139.722452918351,
埼玉県,さいたま市,9-22-2,緑区美園2丁目12番地11,市立美園北小学校南東側,35.9007467174865,139.723991459825,
埼玉県,さいたま市,9-22-3,緑区美園3丁目4番地,美園3丁目第一公園北東側フェンス,35.8998012324817,139.729914640424,
埼玉県,さいたま市,9-22-4,緑区美園3丁目21番地,美園3丁目第二公園南西側フェンス,35.8969115050005,139.725468177563,
埼玉県,さいたま市,9-22-5,緑区浦和東部第一特定土地区画整理内,美園台公園北東側フェンス,35.8959240197763,139.724891825265,
埼玉県,さいたま市,9-22-6,緑区美園1丁目27番地,美園一丁目第二公園南側フェンス,35.9079000058373,139.716433821533,
埼玉県,さいたま市,9-22-7,緑区美園1丁目4番地,美園一丁目第一公園南西側フェンス,35.9082812389034,139.713294515969,
埼玉県,さいたま市,9-22-8,緑区美園1丁目4番地,美園一丁目第一公園北西側フェンス,35.9086547328161,139.713274341529,
埼玉県,さいたま市,9-23-1,緑区美園6丁目15番地,市立美園南中学校北東側ブロック塀,35.8859607658813,139.737250519348,
埼玉県,さいたま市,9-23-2,緑区美園6丁目15番地,市立美園南中学校南西側植栽,35.8847434798731,139.736210407429,
埼玉県,さいたま市,9-23-3,緑区東大門1丁目9番地,大門坂下公園北側フェンス,35.8825737249966,139.737160467375,
埼玉県,さいたま市,9-23-4,緑区東大門3丁目10番地,外町東公園西側フェンス,35.8842984014762,139.741840381579,
埼玉県,さいたま市,9-23-5,緑区東大門2丁目12番地,外町西公園北側フェンス,35.8833716050558,139.739340208899,
埼玉県,さいたま市,9-23-6,緑区美園6丁目14番地,さいたま市大門中継ポンプ場南側フェンス,35.8844569959341,139.737397097898,
埼玉県,さいたま市,9-23-7,緑区美園6丁目31番地,浦和東部第二地区9号公園北側,35.8881669531404,139.732386078552,
埼玉県,さいたま市,9-23-8,緑区大字大門1345番地,大門第一公園北側,35.8835114243748,139.733773025415,
埼玉県,さいたま市,10-1-1,岩槻区並木1丁目4番（420番地13）,並木下公園北側フェンス,35.9447658033657,139.683464674976,
埼玉県,さいたま市,10-1-2,岩槻区並木1丁目28番（2977番地）,岩槻スカイハイツ児童公園内ベンチ後ろ,35.9451201433687,139.683125489479,
埼玉県,さいたま市,10-1-3,岩槻区並木1丁目27番1号,masked,35.9470232117307,139.683556626797,
埼玉県,さいたま市,10-1-4,岩槻区並木2丁目1番（3073番地1）,エクレール岩槻Ⅰ番館駐車場　向かい側フェンス,35.9472529006811,139.682357387361,
埼玉県,さいたま市,10-1-5,岩槻区並木2丁目8番（3073番地）,エクレール第4岩槻　北側フェンス,35.9504984935768,139.682709261741,
埼玉県,さいたま市,10-1-6,岩槻区並木2丁目3番（3073番地6）,並木第一公園西側入口前（エクレール岩槻Ⅰ番館東側）,35.9481551506719,139.683378242412,
埼玉県,さいたま市,10-1-7,岩槻区並木2丁目3番（3073番地）,エクレールマンション駐車場前,35.9492276907803,139.683343515172,
埼玉県,さいたま市,10-2-1,岩槻区西原6番25号,西原小学校北側フェンス (位置情報が見つかりませんでした),35.9529292573761,139.68282614407,
埼玉県,さいたま市,10-2-2,岩槻区西原4番39号（3974番地2）,西本町自治会館東側フェンス,35.951690692308,139.686278121637,
埼玉県,さいたま市,10-2-3,岩槻区西町3丁目1番24号,西町保育園北側フェンス,35.9530671851092,139.686262933116,
埼玉県,さいたま市,10-2-4,岩槻区西原台2丁目3番（4058番地）,西原児童公園前フェンス,35.9489278803461,139.684989190942,
埼玉県,さいたま市,10-2-5,岩槻区西町2丁目4番,西町2丁目第二公園西側入口フェンス,35.9529104283105,139.688249736451,
埼玉県,さいたま市,10-2-6,岩槻区本町1丁目1番1号,岩槻駅西口線路脇フェンス,35.9500981810983,139.692405013273,
埼玉県,さいたま市,10-2-7,岩槻区西町2丁目4番57号,岩槻無線中継所北側フェンス,35.9532756220819,139.690710382734,
埼玉県,さいたま市,10-2-8,岩槻区西原6番25号,西原小学校南側フェンス (位置情報が見つかりませんでした),35.952243323957,139.683601868195,
埼玉県,さいたま市,10-3-1,岩槻区西町1丁目5番（6039番地1）,masked,35.9526118136756,139.695119910877,
埼玉県,さいたま市,10-3-2,岩槻区大学岩槻5129番地1,緑ヶ丘公園南側フェンス,35.9574600270363,139.687544434347,
埼玉県,さいたま市,10-3-3,岩槻区西町4丁目1番5号,あすなろ薬局　駐車場北側フェンス,35.9552656734599,139.688606382651,
埼玉県,さいたま市,10-3-4,岩槻区西町5丁目4番（5824番地1）,齋藤西町月極有料駐車場南側フェンス (位置情報が見つかりませんでした),35.9554523197276,139.691458974446,
埼玉県,さいたま市,10-3-5,岩槻区西町5丁目3番,西町児童公園東側フェンス,35.9549323867749,139.69149637625,
埼玉県,さいたま市,10-3-6,岩槻区大字岩槻5188番地,岩槻自転車保管所東側フェンス,35.9576022992197,139.68654398438,
埼玉県,さいたま市,10-3-7,岩槻区西町5丁目1番26号,masked,35.9539662056413,139.693377001646,
埼玉県,さいたま市,10-4-1,岩槻区美幸町3番18号（6241-1）,美幸保育園東側フェンス,35.9604878834523,139.691016375247,
埼玉県,さいたま市,10-4-2,岩槻区美幸町2番15号,masked,35.9594375410814,139.691529451862,
埼玉県,さいたま市,10-4-3,岩槻区日の出町9番30号,masked,35.9613156889428,139.694812392101,
埼玉県,さいたま市,10-4-4,岩槻区愛宕町4番,masked,35.9535947300666,139.695211982438,
埼玉県,さいたま市,10-4-5,岩槻区愛宕町6番,愛宕ふれあい広場西側フェンス (位置情報が見つかりませんでした),35.955178845328,139.696653478707,
埼玉県,さいたま市,10-4-6,岩槻区宮町1丁目5番29号,三町公民館南側フェンス,35.9577109356123,139.698072131099,
埼玉県,さいたま市,10-4-7,岩槻区日の出町1番（6102番地1）,masked,35.9571201395748,139.69563742445,
埼玉県,さいたま市,10-5-1,岩槻区大字南辻124番地3,人間総合科学大学向かいのフェンス（66街区）,35.9603467567643,139.698690032365,
埼玉県,さいたま市,10-5-2,岩槻区宮町1丁目5番,はくつる幼稚園向かい側フェンス,35.9587806812181,139.698916965781,
埼玉県,さいたま市,10-5-3,岩槻区江川区画整理事業地内5街区9画地,江川第一公園南側フェンス,35.9678145984505,139.694787292539,
埼玉県,さいたま市,10-5-4,岩槻区宮町2丁目7番（427番地1）,宮の杜ふれあい公園 植え込み,35.9573851907936,139.702871960508,
埼玉県,さいたま市,10-5-5,岩槻区江川区画整理事業地内28街区,江川第四公園 南側フェンス,35.9647777428635,139.699463264844,
埼玉県,さいたま市,10-5-6,岩槻区宮町2丁目14番,宮町児童公園西側フェンス,35.9597653345186,139.705809936243,
埼玉県,さいたま市,10-5-7,岩槻区江川区画整理事業地内40街区6画地,江川第二公園南側フェンス,35.9644557030781,139.695094950156,
埼玉県,さいたま市,10-5-8,岩槻区南辻87番地3,江川第五公園 南側フェンス,35.9616957332047,139.702978177036,
埼玉県,さいたま市,10-6-1,岩槻区本町3丁目2番5号,ワッツ東館南側国旗掲揚塔前,35.9494962183044,139.693902110494,
埼玉県,さいたま市,10-6-2,岩槻区本町1丁目8番15号,岩槻第2区自治会館西側フェンス,35.9476708423356,139.691135578697,
埼玉県,さいたま市,10-6-3,岩槻区本町4丁目9番,三峰神社こども広場道路側フェンス (位置情報が見つかりませんでした),35.9471430599281,139.697869338471,
埼玉県,さいたま市,10-6-4,岩槻区本町2丁目1番12号,新町自治会館南側フェンス,35.9471589038614,139.696106519728,
埼玉県,さいたま市,10-6-5,岩槻区本町6丁目5番（189番5）,岩槻区役所旧庁舎南側駐車場東側フェンス,35.9502737878057,139.701143516418,
埼玉県,さいたま市,10-6-6,岩槻区本町5丁目6番45号,岩槻小学校西側フェンス,35.9535389359994,139.697979473768,
埼玉県,さいたま市,10-6-7,岩槻区本町5丁目6番45号,岩槻小学校東側フェンス,35.9534093906402,139.699323370904,
埼玉県,さいたま市,10-7-1,岩槻区本丸2丁目4番,群峰団地公園東側,35.9570322855732,139.704929220974,
埼玉県,さいたま市,10-7-2,岩槻区本丸2丁目19番（276番地360）,大同東野公園東側フェンス (位置情報が見つかりませんでした),35.9567151567987,139.705820714867,
埼玉県,さいたま市,10-7-3,岩槻区本丸1丁目21番（7054番地56）,大同新正寺公園東側フェンス,35.9546022033474,139.701514105534,
埼玉県,さいたま市,10-7-4,岩槻区本丸3丁目17番1号,岩槻本丸公民館南側,35.9537551436105,139.705523611945,
埼玉県,さいたま市,10-7-5,岩槻区太田3丁目4番（7436番地）,岩槻城址公園大型バス専用駐車場東側,35.9527293367537,139.711678674843,
埼玉県,さいたま市,10-7-6,岩槻区本丸4丁目27番（488番地26）,グリーンタウン公園南側フェンス (位置情報が見つかりませんでした),35.9556006319814,139.710986839922,
埼玉県,さいたま市,10-7-7,岩槻区本丸3丁目28番,大栄グリーンタウン遊水地東側フェンス,35.9563866381965,139.710063388476,
埼玉県,さいたま市,10-8-1,岩槻区東町1丁目9番14号,masked,35.9427871465966,139.69935150407,
埼玉県,さいたま市,10-8-2,岩槻区東町1丁目9番（1527番地、1528番地）,万代書店岩槻店駐車場向かい側植込み,35.9427974810757,139.698438715934,
埼玉県,さいたま市,10-8-3,岩槻区東町1丁目5番12号,masked,35.9448388994232,139.697712105118,
埼玉県,さいたま市,10-8-4,岩槻区仲町1丁目17番3号,太田小学校北側フェンス,35.9482501441479,139.703311194877,
埼玉県,さいたま市,10-8-5,岩槻区仲町1丁目14番35号,岩槻中学校南側フェンス,35.9489931509899,139.704350517643,
埼玉県,さいたま市,10-8-6,岩槻区太田1丁目4番1号,岩槻商業高等学校西側フェンス,35.9500219292984,139.704685831001,
埼玉県,さいたま市,10-8-7,岩槻区太田3丁目1番1号（1番地3）,市民会館いわつき東側,35.9509571496732,139.70948419808,
埼玉県,さいたま市,10-9-1,岩槻区城町1丁目6番（1044番地1）,城町竹林公園東側,35.9452201531785,139.70919897145,
埼玉県,さいたま市,10-9-2,岩槻区城町1丁目6番（1044番地1）,城町竹林公園西側,35.9452221923658,139.708384488022,
埼玉県,さいたま市,10-9-3,岩槻区仲町2丁目12番（1429番地2）,masked,35.9462174349302,139.706401452614,
埼玉県,さいたま市,10-9-4,岩槻区城町1丁目4番1号,masked,35.9471274030792,139.708102487994,
埼玉県,さいたま市,10-9-5,岩槻区仲町2丁目13番8号,林道町公民館北側ブロック塀（住吉神社境内） (位置情報が見つかりませんでした),35.9473893289912,139.706726908983,
埼玉県,さいたま市,10-9-6,岩槻区仲町2丁目1番,仲町りんどう公園北側フェンス,35.944518797493,139.703047516317,
埼玉県,さいたま市,10-9-7,岩槻区城町2丁目7番（1722番地）,原田たばこ店南向側駐車場,35.9489067895321,139.712388425872,
埼玉県,さいたま市,10-10-1,岩槻区城南1丁目3番38号,岩槻高等学校南側フェンス,35.9411483524353,139.702462946341,
埼玉県,さいたま市,10-10-2,岩槻区城南1丁目3番38号,岩槻高等学校東側フェンス,35.9421919169214,139.704464540044,
埼玉県,さいたま市,10-10-3,岩槻区城南4丁目1番39号,南彩農協岩槻城南支店駐車場西側フェンス,35.9419623259803,139.708712161781,
埼玉県,さいたま市,10-10-4,岩槻区城南4丁目1番39号,南彩農協岩槻城南支店駐車場南側フェンス,35.9418337535529,139.709105953165,
埼玉県,さいたま市,10-10-5,岩槻区府内1丁目8番1号,療育センターひなぎく(旧岩槻区役所府内別館)南側フェンス,35.943503347861,139.71065146198,
埼玉県,さいたま市,10-10-6,岩槻区府内2丁目4番(923番地6),東急団地公園南側,35.9445263172545,139.71256535578,
埼玉県,さいたま市,10-10-7,岩槻区府内2丁目4番(923番地6),東急団地公園北側,35.9449645222541,139.712901874772,
埼玉県,さいたま市,10-11-1,岩槻区大字長宮825番地5,川通公園 南側水路フェンス,35.9513636143946,139.729915433033,
埼玉県,さいたま市,10-11-2,岩槻区大字大野島116番地,大野島神明神社北側フェンス,35.9445510147559,139.726747331623,
埼玉県,さいたま市,10-11-3,岩槻区大字長宮47番地,長宮運動広場西側フェンス,35.9482209142595,139.720574487295,
埼玉県,さいたま市,10-11-4,岩槻区大字長宮497番地1,masked,35.9475638026872,139.727049001755,
埼玉県,さいたま市,10-11-5,岩槻区大字長宮435番地,川通中学校西側フェンス,35.9478791447157,139.730633942942,
埼玉県,さいたま市,10-11-6,岩槻区大字大野島428番地,川通小学校西側フェンス (位置情報が見つかりませんでした),35.9417696811646,139.730462621223,
埼玉県,さいたま市,10-11-7,岩槻区大字増長650番地1,masked,35.9460670792915,139.739402354596,
埼玉県,さいたま市,10-12-1,岩槻区大字大口87番地,masked,35.94335614861,139.740102643298,
埼玉県,さいたま市,10-12-2,岩槻区大字大谷474番地3,masked,35.9393460964382,139.739262563761,
埼玉県,さいたま市,10-12-3,岩槻区大字大谷297番地1,masked,35.936145009538,139.737548917041,
埼玉県,さいたま市,10-12-4,岩槻区大字大戸136番地1,株式会社フジダン 東側フェンス,35.9348226388394,139.735727813466,
埼玉県,さいたま市,10-12-5,岩槻区大字大戸1673番地,大戸自治会館 西側フェンス,35.931863060562,139.737681863787,
埼玉県,さいたま市,10-12-6,岩槻区大字新方須賀1080番地1,masked,35.9298729498604,139.73829289753,
埼玉県,さいたま市,10-12-7,岩槻区大字新方須賀1006番地,森田木工所 北側水路フェンス,35.9303841188408,139.741919969799,
埼玉県,さいたま市,10-13-1,岩槻区大字横根656番地2,横根上自治会館東側 (位置情報が見つかりませんでした),35.9287709494471,139.693097930985,
埼玉県,さいたま市,10-13-2,岩槻区大字柏崎1327番地2,小宮種苗農場東側,35.9384096140305,139.700131739705,
埼玉県,さいたま市,10-13-3,岩槻区大字真福寺454番地,柏陽中学校北側フェンス,35.9359851585371,139.702461815254,
埼玉県,さいたま市,10-13-4,岩槻区大字柏崎762番地,柏崎小学校東側フェンス,35.9336611825011,139.702068217805,
埼玉県,さいたま市,10-13-5,岩槻区大字真福寺3番地1,グリーンウッドゴルフ場南側フェンス,35.9341262316097,139.7108145729,
埼玉県,さいたま市,10-13-6,岩槻区大字浮谷1862番地,masked,35.9304205173511,139.704051545908,
埼玉県,さいたま市,10-13-7,岩槻区大字浮谷2441番地,masked,35.9280083802166,139.714350185944,
埼玉県,さいたま市,10-13-8,岩槻区大字真福寺454番地,柏陽中学校西側フェンス,35.9338401653827,139.703040990874,
埼玉県,さいたま市,10-14-1,岩槻区加倉2丁目18番（410番地9）,masked,35.9433227650925,139.683820650289,
埼玉県,さいたま市,10-14-2,岩槻区加倉5丁目11番1号（1056番地2）,加倉ふれあい公園北側フェンス,35.9390217706118,139.692065129793,
埼玉県,さいたま市,10-14-3,岩槻区加倉4丁目19番37号,加倉自治会館北側,35.9433606519371,139.68900063005,
埼玉県,さいたま市,10-14-4,岩槻区加倉4丁目10番1号,日本郵便株式会社岩槻郵便局東側フェンス,35.942674362012,139.69550553861,
埼玉県,さいたま市,10-14-5,岩槻区加倉4丁目4番（1720番地27）,大日本開発岩槻団地公園 西側フェンス,35.9423113251311,139.693341580195,
埼玉県,さいたま市,10-14-6,岩槻区加倉2丁目1528-1,加倉高架下こども広場北側フェンス,35.9446372121376,139.685523160474,
埼玉県,さいたま市,10-14-7,岩槻区大字谷下225番地,谷下久伊豆神社北側フェンス,35.932062605131,139.688231759243,
埼玉県,さいたま市,10-15-1,岩槻区大字黒谷1353番地,和土小学校南側フェンス,35.9251237339926,139.720208349597,
埼玉県,さいたま市,10-15-2,岩槻区大字笹久保810番地,八幡神社西側フェンス,35.9231078468519,139.71676194608,
埼玉県,さいたま市,10-15-3,岩槻区大字笹久保1393番地,老人福祉センター槻寿苑運動広場北側,35.9194709063223,139.711799655521,
埼玉県,さいたま市,10-15-4,岩槻区大字黒谷636番地1,masked,35.9254576635518,139.726894968488,
埼玉県,さいたま市,10-15-5,岩槻区大字笹久保577番地,城南中学校北側フェンス,35.9151844011653,139.726566132586,
埼玉県,さいたま市,10-15-6,岩槻区大字笹久保922番地1,NTT東日本和土電話交換センター東側フェンス,35.9185392414679,139.72043280164,
埼玉県,さいたま市,10-15-7,岩槻区大字笹久保新田1348番地,岩槻南部公民館南側植え込み,35.9160621591709,139.715981925485,
埼玉県,さいたま市,10-16-1,岩槻区大字村国229番地,岩槻文化公園内 陸上競技場北側（駐車場前）,35.9456002990359,139.720772631547,
埼玉県,さいたま市,10-16-2,岩槻区大字飯塚1000番地,株式会社丸忠産業東側 (位置情報が見つかりませんでした),35.9384410106068,139.721923933642,
埼玉県,さいたま市,10-16-3,岩槻区大字飯塚1289番地3,飯塚自治会館入口（飯塚神社境内）,35.9349484834397,139.725129367975,
埼玉県,さいたま市,10-16-4,岩槻区大字南下新井1191番地,城南小学校北側フェンス,35.9361449312077,139.712757209117,
埼玉県,さいたま市,10-16-5,岩槻区大字南下新井1048番地,多ケ谷商店南側,35.9335588874399,139.718049382383,
埼玉県,さいたま市,10-16-6,岩槻区大字南下新井907番地8,南下新井配水場西側フェンス,35.9318971302037,139.721512977105,
埼玉県,さいたま市,10-16-7,岩槻区大字南下新井230番地1,和土商店街入口水路フェンス,35.9299535230193,139.726190096253,
埼玉県,さいたま市,10-17-1,岩槻区大字尾ヶ崎1824番地,尾ヶ崎自治会館西側フェンス（八幡神社境内） (位置情報が見つかりませんでした),35.9168036343574,139.726344453662,
埼玉県,さいたま市,10-17-2,岩槻区美園東3丁目2番7号,尾ヶ崎新田自治会館南側フェンス,35.9039467458978,139.72670652788,
埼玉県,さいたま市,10-17-3,岩槻区美園東2丁目29番地,美園東2丁目第二公園北側フェンス,35.9019374470314,139.732508625254,
埼玉県,さいたま市,10-17-4,岩槻区大字尾ヶ崎1252番地,新和小学校体育館北側柵,35.9113689038554,139.732772765547,
埼玉県,さいたま市,10-17-5,岩槻区美園東1丁目24番地1,美園東1丁目公園南側フェンス,35.8998794104387,139.735880515786,
埼玉県,さいたま市,10-17-6,岩槻区美園東2丁目4番地,美園東2丁目第一公園川側フェンス,35.9007732692208,139.729535388372,
埼玉県,さいたま市,10-17-7,岩槻区美園東3丁目17番地,美園東3丁目公園北側フェンス,35.9060156362139,139.728194198572,
埼玉県,さいたま市,10-18-1,岩槻区大字末田2878番地,岩槻地殻活動観測施設西側フェンス,35.9288102545251,139.734579895331,
埼玉県,さいたま市,10-18-2,岩槻区大字末田2168番地,masked,35.9250119781,139.740151884017,
埼玉県,さいたま市,10-18-3,岩槻区大字末田2590番地付近,末田大用水中組橋 西側フェンス,35.9229882297209,139.740525591778,
埼玉県,さいたま市,10-18-4,岩槻区大字末田1965番地1,末田公民館東側フェンス(鷲宮神社境内),35.925072115169,139.741934173337,
埼玉県,さいたま市,10-18-5,岩槻区大字高曽根1232番地,高曽根自治会館南側(薬師堂境内) (位置情報が見つかりませんでした),35.9233555525441,139.738144671017,
埼玉県,さいたま市,10-18-6,岩槻区大字野孫777番地1,masked,35.9154638932892,139.738353459552,
埼玉県,さいたま市,10-18-7,岩槻区大字末田331番地,masked,35.9107146901827,139.750441516621,
埼玉県,さいたま市,10-19-1,岩槻区大字鹿室640番地,新堀排水路記念碑前フェンス,35.9971669852092,139.696825640351,
埼玉県,さいたま市,10-19-2,岩槻区古ヶ場1丁目2番地1,北部工業団地記念公園 北東側フェンス,35.9779435632208,139.692798198454,
埼玉県,さいたま市,10-19-3,岩槻区大字相野原267番地1,相野原配水場 南側フェンス,35.9875649759273,139.699365225589,
埼玉県,さいたま市,10-19-4,岩槻区古ヶ場2丁目5番地,白水児童公園 南側フェンス,35.9799355562704,139.695493452791,
埼玉県,さいたま市,10-19-5,岩槻区大字表慈恩寺1657番地,西尾精肉店前東側フェンス,35.9779833625009,139.70084438624,
埼玉県,さいたま市,10-19-6,岩槻区大字裏慈恩寺505番地,慈恩寺中学校 北側フェンス,35.9852170752904,139.703928724929,
埼玉県,さいたま市,10-19-7,岩槻区大字鹿室1119番地,伊勢久々講前(和泉三社境内鳥居向かって左),35.9900369592702,139.701900249359,
埼玉県,さいたま市,10-19-8,岩槻区大字裏慈恩寺712番地,masked,35.9887174568209,139.710791331241,
埼玉県,さいたま市,10-20-1,岩槻区上野6丁目6番地7,鷲宮児童公園 東側フェンス,35.9776320421078,139.696759375953,
埼玉県,さいたま市,10-20-2,岩槻区大字表慈恩寺1622番地1,masked,35.9742764826673,139.700768859195,
埼玉県,さいたま市,10-20-3,岩槻区大字慈恩寺259番地,慈恩寺小学校正門横フェンス,35.9816676755079,139.708456474834,
埼玉県,さいたま市,10-20-4,岩槻区大字表慈恩寺684番地1,桜山中学校南側フェンス,35.9712961686471,139.711053326672,
埼玉県,さいたま市,10-20-5,岩槻区大字慈恩寺904番地1,岩槻北部公民館西側,35.980336448729,139.71406919762,
埼玉県,さいたま市,10-20-6,岩槻区大字慈恩寺117番地2,岩槻北陵高校南側フェンス,35.9777044440836,139.712855039568,
埼玉県,さいたま市,10-20-7,岩槻区大字慈恩寺117番地2,岩槻北陵高校西側フェンス,35.9785578036204,139.713378365103,
埼玉県,さいたま市,10-21-1,岩槻区大字徳力136番地4,徳力小学校正門横,35.9744015310533,139.717243326616,
埼玉県,さいたま市,10-21-2,岩槻区大字徳力713番地3,masked,35.9728394050651,139.719749005976,
埼玉県,さいたま市,10-21-3,岩槻区大字徳力687番地,masked,35.9721286474459,139.719970567294,
埼玉県,さいたま市,10-21-4,岩槻区大字徳力425番地1,masked,35.9712628460934,139.718562961254,
埼玉県,さいたま市,10-21-5,岩槻区大字徳力265番地1,開智学園遊水池フェンス,35.9701523884687,139.71492253757,
埼玉県,さいたま市,10-21-6,岩槻区大字徳力625番地3,masked,35.9697074829858,139.721102212644,
埼玉県,さいたま市,10-21-7,岩槻区大字徳力580番地2,masked,35.9690886077385,139.720117723173,
埼玉県,さいたま市,10-22-1,岩槻区大字小溝921番地116,masked,35.982822031311,139.723604209004,
埼玉県,さいたま市,10-22-2,岩槻区大字小溝876番地,masked,35.981791704257,139.72536919758,
埼玉県,さいたま市,10-22-3,岩槻区大字小溝97番地138,三角公園向かい側堤防跡(岩槻ゴルフセンター西側),35.9797435810944,139.725125363262,
埼玉県,さいたま市,10-22-4,岩槻区大字小溝97番地,masked,35.9778954632467,139.723496590771,
埼玉県,さいたま市,10-22-5,岩槻区大字小溝265番地1,遊水池東側フェンス(7号筋),35.9756284565512,139.723902914282,
埼玉県,さいたま市,10-22-6,岩槻区大字小溝26番地184,ドリームパーク西側フェンス,35.9759638493042,139.72283084146,
埼玉県,さいたま市,10-22-7,岩槻区大字小溝26番地39,masked,35.9742706032341,139.723012723354,
埼玉県,さいたま市,10-23-1,岩槻区上野2丁目11番地1,松山児童公園 南側植込み,35.9718670904303,139.700556558647,
埼玉県,さいたま市,10-23-2,岩槻区諏訪4丁目3番地,岩槻諏訪公園野球場西側フェンス,35.9684411672186,139.704379763892,
埼玉県,さいたま市,10-23-3,岩槻区諏訪3丁目3番地,masked,35.9699919488905,139.706368063849,
埼玉県,さいたま市,10-23-4,岩槻区諏訪2丁目6番地,東岩槻小学校西側フェンス,35.9697826386179,139.708494819552,
埼玉県,さいたま市,10-23-5,岩槻区諏訪2丁目4番地,ひばり児童公園西側フェンス,35.9691211476999,139.70935804201,
埼玉県,さいたま市,10-23-6,岩槻区諏訪4丁目3番地,岩槻諏訪公園東側フェンス,35.9683345621573,139.705919230021,
埼玉県,さいたま市,10-23-7,岩槻区諏訪3丁目3番地,masked,35.9682726194075,139.708038835296,
埼玉県,さいたま市,10-24-1,岩槻区上野1丁目10番地,上野南児童公園北側,35.9693671120538,139.700668739458,
埼玉県,さいたま市,10-24-2,岩槻区大字上野59番地,masked,35.9680024795459,139.701548492062,
埼玉県,さいたま市,10-24-3,岩槻区上里2丁目2番地,上里小学校西側フェンス,35.9656836422682,139.703876008685,
埼玉県,さいたま市,10-24-4,岩槻区東岩槻1丁目12番地,東岩槻駅線路北側フェンス(歩道橋下),35.962865578866,139.710684161561,
埼玉県,さいたま市,10-24-5,岩槻区上里2丁目2番地,上里小学校東側フェンス,35.9648273520859,139.705616199229,
埼玉県,さいたま市,10-24-6,岩槻区東岩槻3丁目9番地,かなりや児童公園西側フェンス,35.9640294642327,139.707376992145,
埼玉県,さいたま市,10-24-7,岩槻区東岩槻1丁目12番地1,東岩槻駅北口前フェンス,35.9635108736829,139.711958272177,
埼玉県,さいたま市,10-25-1,岩槻区東岩槻6丁目7番地,こばと児童公園西側(ふれあいプラザいわつき隣),35.9616129712137,139.716155929088,
埼玉県,さいたま市,10-25-2,岩槻区東岩槻4丁目3番地,ロイヤルハイツ吉岡B東側向かいフェンス,35.9633670362509,139.713678183779,
埼玉県,さいたま市,10-25-3,岩槻区南平野3丁目30番地,南平野第三公園 南側フェンス,35.950775855152,139.716828951294,
埼玉県,さいたま市,10-25-4,岩槻区東岩槻5丁目12番地,うぐいす児童公園西側フェンス,35.960422954301,139.712348807568,
埼玉県,さいたま市,10-25-5,岩槻区南平野3丁目5番地,南平野第二公園 南側フェンス,35.9557766748417,139.714771833594,
埼玉県,さいたま市,10-25-6,岩槻区南平野2丁目26番地,南平野公園西側(さいたまコープ向かい) (位置情報が見つかりませんでした),35.9551227535757,139.71716179291,
埼玉県,さいたま市,10-25-7,岩槻区南平野2丁目5番地,南平野第五公園 北側フェンス,35.9587379606911,139.719105797678,
埼玉県,さいたま市,10-25-8,岩槻区南平野1丁目32,南平野第一公園 北側フェンス,35.9579775656132,139.712625478347,
埼玉県,さいたま市,10-26-1,岩槻区大字岩槻6869番地2,ターゲットバードゴルフ場西側柵沿い,35.9692857267564,139.695161705483,
埼玉県,さいたま市,10-26-2,岩槻区大字掛158番地2,masked,35.9689846575535,139.683065773629,
埼玉県,さいたま市,10-26-3,岩槻区大字岩槻3750番地,西原中学校北側フェンス,35.956474257585,139.681450969743,
埼玉県,さいたま市,10-26-4,岩槻区大字岩槻6619番地,城北小学校北側フェンス,35.9625940920563,139.6930693094,
埼玉県,さいたま市,10-26-5,岩槻区大字本宿392番地1,城北中学校正門南側フェンス,35.9648853257083,139.689838904036,
埼玉県,さいたま市,10-26-6,岩槻区大字平林寺1481番地1,masked,35.9631767099217,139.685411564916,
埼玉県,さいたま市,10-26-7,岩槻区大字岩槻6619番地,城北小学校南側フェンス,35.9611724359245,139.693232024801,
埼玉県,さいたま市,10-27-1,岩槻区大字馬込200番地,第六天神社こども広場,35.9662773964305,139.667766636249,
埼玉県,さいたま市,10-27-2,岩槻区大字馬込200番地,第六天神社東側フェンス,35.9666130900006,139.668318529582,
埼玉県,さいたま市,10-27-3,岩槻区大字平林寺351番地,河合小学校南側フェンス,35.9665677230412,139.672276921206,
埼玉県,さいたま市,10-27-4,岩槻区大字平林寺351番地,河合小学校北側フェンス,35.9672217511991,139.672362518567,
埼玉県,さいたま市,10-27-5,岩槻区大字平林寺562番地,masked,35.9670914862759,139.676773362904,
埼玉県,さいたま市,10-27-6,岩槻区大字平林寺603番地,平林寺公民館入口手前フェンス,35.9644742327367,139.676514657299,
埼玉県,さいたま市,10-27-7,岩槻区大字平林寺351番地,河合小学校体育館東側フェンス,35.9677992571941,139.672314224336,
埼玉県,さいたま市,10-28-1,岩槻区大字釣上新田961番地2,釣上水田1号水路フェンス,35.8883478525053,139.741483270836,
埼玉県,さいたま市,10-28-2,岩槻区大字釣上新田1504番地1,釣上新田第一公園南側フェンス,35.8979375669259,139.738015148486,
埼玉県,さいたま市,10-28-3,岩槻区大字釣上新田1421番地,東武リズム幼稚園南側フェンス,35.8943835805062,139.737893903141,
埼玉県,さいたま市,10-28-4,岩槻区大字釣上新田1374番地1,masked,35.896730133772,139.741722059672,
埼玉県,さいたま市,10-28-5,岩槻区大字釣上新田195番地,masked,35.8849080438568,139.747169881721,
埼玉県,さいたま市,10-28-6,岩槻区大字釣上新田1287番地1,masked,35.8953437837034,139.742076916084,
埼玉県,さいたま市,10-28-7,岩槻区大字釣上新田1077番地1,水路フェンス,35.8934088066042,139.742577054894,
