prefecture,city,number,address,name,lat,long,note
埼玉県,三芳町,1-1,大字北永井350番地,三芳中学校前,35.829294,139.5150963,
埼玉県,三芳町,1-2,大字北永井343番地,三芳小学校前,35.8305893,139.5185203,
埼玉県,三芳町,1-3,大字上富414番地5,上富第3区第2集会所,35.8284974,139.5151283,
埼玉県,三芳町,1-4,大字藤久保1118番地1,三芳町運動公園駐車場北側,35.8274619,139.5259556,
埼玉県,三芳町,1-5,大字藤久保1047番地1,三芳町浄水場,35.8301438,139.5241045,
埼玉県,三芳町,1-6,大字北永井285番地1,北永井第1区集会所,35.8342579,139.5161145,
埼玉県,三芳町,1-7,大字藤久保1054番地5,藤久保第4区集会所前,35.8328133,139.5310668,
埼玉県,三芳町,2-1,大字上富1909番地1,上富第1区集会所,35.8408009,139.4970233,
埼玉県,三芳町,2-2,大字上富1490番地1,木ノ宮第3子供広場北側,35.8364152,139.498543,
埼玉県,三芳町,2-3,大字上富188番地4,消防団第2分団車庫前,35.8310919,139.5024604,
埼玉県,三芳町,2-4,大字上富317番地1,上富中・下子供広場,35.8267496,139.5066247,
埼玉県,三芳町,2-5,大字上富1152番地,masked,35.8272432,139.5052822,
埼玉県,三芳町,2-6,大字上富1002番地1,天理教三芳分教会前,35.8213106,139.5117981,
埼玉県,三芳町,2-7,大字上富866番地,masked,35.8182588,139.5149689,
埼玉県,三芳町,2-8,大字上富1552番地21,木ノ宮第1子供広場東側,35.8368367,139.4947003,
埼玉県,三芳町,3-1,大字竹間沢4番地2,通西子供広場,35.8254961,139.5329312,
埼玉県,三芳町,3-2,大字竹間沢555番地1,竹間沢公民館,35.8276582,139.5432343,
埼玉県,三芳町,3-3,大字竹間沢601番地1,masked,35.8248017,139.5444813,
埼玉県,三芳町,3-4,大字竹間沢877番地,消防団第5分団車庫北側,35.8236333,139.5474705,
埼玉県,三芳町,3-5,大字竹間沢550番地1,竹間沢小学校体育館入口側フェンス,35.8269714,139.5449005,
埼玉県,三芳町,3-6,大字竹間沢550番地1,竹間沢小学校東側フェンス,35.8281761,139.54401,
埼玉県,三芳町,3-7,大字竹間沢285番地3,(株)T&K前,35.8270381,139.5394567,
埼玉県,三芳町,4-1,大字藤久保200番地42,マミ-マ-ト屋上駐車場出入口前空き地,35.8416301,139.5284038,
埼玉県,三芳町,4-2,大字藤久保7230番地,図書館駐車場,35.8394717,139.5301471,
埼玉県,三芳町,4-3,大字藤久保5068番地,藤久保第1公園,35.8376003,139.5289988,
埼玉県,三芳町,4-4,大字藤久保7407番地1,富士塚第1公園,35.8393108,139.5282803,
埼玉県,三芳町,4-5,大字藤久保5245番地,藤久保第2区集会所前,35.8389745,139.5329138,
埼玉県,三芳町,4-6,大字藤久保7232番地1,三芳町保健センタ-,35.8403617,139.5300028,
埼玉県,三芳町,4-7,大字藤久保7349番地,旧三芳郵政宿舎前,35.8426593,139.5301551,
埼玉県,三芳町,5-1,大字藤久保3929番地2,藤久保第3区集会所前,35.8465901,139.5258115,
埼玉県,三芳町,5-2,大字藤久保6597番地,北松原第2公園(北側),35.846351,139.5272699,
埼玉県,三芳町,5-3,大字藤久保4003番地1,masked,35.8479578,139.5290849,
埼玉県,三芳町,5-4,大字藤久保3803番地5,社協の家,35.8450399,139.5280914,
埼玉県,三芳町,5-5,大字藤久保6597番地,北松原第2公園(南側),35.8459031,139.5276132,
埼玉県,三芳町,5-6,大字藤久保82番地2,桑村整骨院前駐車場,35.8430298,139.5287031,
埼玉県,三芳町,5-7,大字藤久保3982番地1,masked,35.8478156,139.5277636,
埼玉県,三芳町,6-1,大字藤久保378番地7,俣埜公園前,35.837849,139.5370044,
埼玉県,三芳町,6-2,大字藤久保310番地,masked,35.840332,139.5365443,
埼玉県,三芳町,6-3,大字藤久保718番地8,masked,35.8363901,139.5332797,
埼玉県,三芳町,6-4,大字藤久保333番地26,masked,35.8389215,139.5344513,
埼玉県,三芳町,6-5,大字藤久保341番地201,俣埜ポケットパ-ク,35.837234,139.5329747,
埼玉県,三芳町,6-6,大字藤久保745番地2,masked,35.8361888,139.5306077,
埼玉県,三芳町,6-7,大字藤久保380番地1,masked,35.8360503,139.536984,
埼玉県,三芳町,7-1,大字北永井761番地1,北永井第2区集会所前,35.8380771,139.5197111,
埼玉県,三芳町,7-2,大字北永井843番地13,中ノ久保第4子供広場,35.8407198,139.5197913,
埼玉県,三芳町,7-3,大字北永井803番地4,北永井児童館前広場,35.8399142,139.5188065,
埼玉県,三芳町,7-4,大字北永井867番地33,中ノ久保子供広場,35.8417566,139.5220212,
埼玉県,三芳町,7-5,大字北永井754番地6,(有)花匠前フェンス,35.8360955,139.5164484,
埼玉県,三芳町,7-6,大字北永井755番地,masked,35.8360623,139.5156223,
埼玉県,三芳町,7-7,大字北永井862番地51,中ノ久保第2子供広場,35.841629,139.522977,
埼玉県,三芳町,8-1,大字藤久保610番地1,三芳東中学校東側フェンス,35.831681,139.5393727,
埼玉県,三芳町,8-2,大字藤久保410番地2,唐沢小学校フェンス,35.8330594,139.5374359,
埼玉県,三芳町,8-3,大字藤久保610番地1,三芳東中学校北側フェンス,35.8321398,139.5375542,
埼玉県,三芳町,8-4,大字藤久保420番地2,藤久保中学校東側フェンス,35.8345938,139.5410841,
埼玉県,三芳町,8-5,大字藤久保595番地11,藤久保第4区第2集会所,35.8307061,139.5361856,
埼玉県,三芳町,8-6,大字藤久保420番地2,藤久保中学校北側フェンス,35.8350504,139.5395338,
埼玉県,三芳町,8-7,大字藤久保526番地9,唐沢子供公園前,35.8315444,139.5429621,
埼玉県,三芳町,9-1,大字藤久保913番地1,藤久保第5区第2集会所,35.8355089,139.5233683,
埼玉県,三芳町,9-2,大字藤久保916番地1,防災倉庫フェンス,35.8358182,139.5241071,
埼玉県,三芳町,9-3,大字藤久保946番地20,(株)細川洋行前掲示板,35.8331647,139.5227187,
埼玉県,三芳町,9-4,大字藤久保855番地102,藤久保第5区第3集会所前,35.8385098,139.5232275,
埼玉県,三芳町,9-5,大字藤久保855番地87,北新埜第1子供広場西側,35.8384021,139.5225433,
埼玉県,三芳町,9-6,大字藤久保855番地355,北新埜第2子供広場西側,35.836245,139.5228169,
埼玉県,三芳町,9-7,大字北永井681番地131,ひらの公園前,35.8373085,139.521249,
埼玉県,三芳町,10-1,大字藤久保449番地6,みよし台第1区集会所,35.8334883,139.5431412,
埼玉県,三芳町,10-2,みよし台4番地,唐沢公園東側,35.8329759,139.544534,
埼玉県,三芳町,10-3,みよし台4番地,唐沢公園南側,35.832604,139.5442993,
埼玉県,三芳町,10-4,みよし台14番地,新開公園北側,35.8317221,139.5449263,
埼玉県,三芳町,10-5,みよし台14番地,新開公園西側,35.8314084,139.5449169,
埼玉県,三芳町,10-6,みよし台2番地,サンライトマンションA棟東側フェンス,35.8341902,139.5456999,
埼玉県,三芳町,10-7,みよし台2番地,サンライトマンションB棟北側駐車場フェンス,35.8343033,139.5447142,
埼玉県,三芳町,11-1,大字藤久保8番地3,藤久保第6区集会所前掲示板,35.8430858,139.5243005,
埼玉県,三芳町,11-2,大字藤久保16番地62,富士塚第1公園子供広場西側,35.8420651,139.5257292,
埼玉県,三芳町,11-3,大字藤久保16番地62,富士塚第1公園子供広場東側,35.8422694,139.5258258,
埼玉県,三芳町,11-4,大字藤久保40番地8,富士塚第3公園子供広場,35.8431965,139.5269355,
埼玉県,三芳町,11-5,大字藤久保3847番地39,masked,35.8438154,139.527351,
埼玉県,三芳町,11-6,大字藤久保6429番地,元氣保育園駐車場隣空き地,35.8441138,139.5263625,
埼玉県,三芳町,11-7,大字藤久保6357番地,masked,35.8454608,139.5261975,
埼玉県,三芳町,12-1,大字北永井892番地17,北永井第3区集会所,35.8438817,139.5155291,
埼玉県,三芳町,12-2,大字北永井885番地1,ふれあいの森,35.8451361,139.5161511,
埼玉県,三芳町,12-3,大字北永井994番地1,北永井第3区第2集会所東側,35.8504309,139.5100479,
埼玉県,三芳町,12-4,大字北永井871番地7,三芳団地子供広場,35.8432441,139.5201977,
埼玉県,三芳町,12-5,大字北永井947番地3,宮本ゲ-トボ-ル場,35.8449689,139.5148258,
埼玉県,三芳町,12-6,大字北永井883番地19,宮本第2子供広場,35.8445698,139.5166286,
埼玉県,三芳町,12-7,大字北永井926番地,北永井稲荷神社前,35.8414845,139.5120051,
