prefecture,city,number,address,name,lat,long,note
埼玉県,八潮市,1-1,大字八條4020,阿弥陀堂前道路東側フェンス,35.8534019,139.8391296,
埼玉県,八潮市,1-2,大字八條3984-1,民家西側塀,35.8508843,139.8391292,
埼玉県,八潮市,1-3,大字八條1172-2,八條北小学校入口付近植込み,35.8508492,139.8341719,
埼玉県,八潮市,1-4,大字八條1101,民家東側塀,35.849896,139.8350764,
埼玉県,八潮市,1-5,大字八條3906,民家東側塀,35.8484992,139.8403279,
埼玉県,八潮市,1-6,大字八條1509,(有)ゼスト埼玉営業所北側フェンス,35.8471581,139.8379044,
埼玉県,八潮市,1-7,大字八條3838,民家東側塀,35.8461819,139.8407286,
埼玉県,八潮市,2-1,大字八條1567八潮団地内,masked,35.8455017,139.8356725,
埼玉県,八潮市,2-2,大字八條1567八潮団地内,10号棟北側,35.8452255,139.833237,
埼玉県,八潮市,2-3,大字八條1567八潮団地内,八条保育所入口,35.8438971,139.8353613,
埼玉県,八潮市,2-4,大字八條1567八潮団地内,19号棟西側,35.8436884,139.8347069,
埼玉県,八潮市,2-5,大字八條1567八潮団地内,バスターミナル付近植込み,35.8433318,139.8356081,
埼玉県,八潮市,2-6,大字新町30,北公園東側フェンス,35.8388474,139.8337045,
埼玉県,八潮市,2-7,大字新町30,北公園西側駐車場入口付近植込み,35.8399216,139.8325619,
埼玉県,八潮市,3-1,大字小作田908,伊草西児童公園南側,35.830031,139.8270768,
埼玉県,八潮市,3-2,大字伊草910-5,倉田包装(株)北側塀,35.832014,139.8310911,
埼玉県,八潮市,3-3,大字伊草172,民家西側塀,35.8308347,139.8301617,
埼玉県,八潮市,3-4,大字伊草377伊草団地内,1号棟東側,35.8290774,139.8272823,
埼玉県,八潮市,3-5,大字伊草377伊草団地内,5号棟西側,35.8278748,139.8257133,
埼玉県,八潮市,3-6,大字伊草377伊草団地内,伊草団地管理組合集会所前,35.827778,139.8275654,
埼玉県,八潮市,3-7,大字伊草377伊草団地内,10号棟西側,35.82677,139.8271027,
埼玉県,八潮市,4-1,大字八條2483-1,民家南側駐車場,35.8392691,139.8360856,
埼玉県,八潮市,4-2,大字八條2678-1,幸之宮児童遊園,35.8370694,139.8388386,
埼玉県,八潮市,4-3,大字八條2838-1,広瀬病院北側駐車場フェンス,35.8361257,139.8361496,
埼玉県,八潮市,4-4,大字鶴ヶ曽根1,八條小学校東側フェンス,35.835909,139.8390469,
埼玉県,八潮市,4-5,大字八條2753-25,幸之宮第三幼児公園東側フェンス,35.8373829,139.8338857,
埼玉県,八潮市,4-6,大字鶴ヶ曽根901-2,八條小橋交差点北側,35.8324722,139.8317509,
埼玉県,八潮市,4-7,大字鶴ヶ曽根58-2,コジマデンキ南側フェンス,35.8341677,139.8375314,
埼玉県,八潮市,5-1,大字鶴ヶ曽根167,サンナップ(株)物流センター東側フェンス,35.8313805,139.838837,
埼玉県,八潮市,5-2,大字鶴ヶ曽根191,民家東側塀,35.8308005,139.8406973,
埼玉県,八潮市,5-3,大字鶴ヶ曽根1816-2,ソーラーパネル南側フェンス,35.8285967,139.8428025,
埼玉県,八潮市,5-4,大字鶴ヶ曽根420-2,やしお生涯楽習館駐車場北側,35.8269554,139.8376604,
埼玉県,八潮市,5-5,大字鶴ヶ曽根419,富士産業(株)東側フェンス,35.8276002,139.8395306,
埼玉県,八潮市,5-6,大字鶴ヶ曽根1535-1,エイトアリーナ西側植込み,35.8254717,139.8418857,
埼玉県,八潮市,5-7,大字鶴ヶ曽根1422-1,直売所駐車場西側フェンス,35.8244042,139.8382257,
埼玉県,八潮市,6-1,緑町三丁目19,松之木公園西側,35.8264706,139.8299769,
埼玉県,八潮市,6-2,緑町三丁目11-1,民家北側塀,35.8276366,139.8309619,
埼玉県,八潮市,6-3,緑町一丁目10-1,中井掘児童公園南側,35.8267211,139.8340026,
埼玉県,八潮市,6-4,緑町二丁目8-2,グリーンパーク第3八潮北側フェンス,35.8253689,139.8298207,
埼玉県,八潮市,6-5,緑町四丁目1-13,masked,35.8251008,139.8282786,
埼玉県,八潮市,6-6,緑町二丁目14,小作田児童公園南側,35.8235222,139.8314199,
埼玉県,八潮市,6-7,緑町四丁目19-1,八幡中学校西側フェンス,35.8223135,139.8273031,
埼玉県,八潮市,7-1,大字二丁目36,民家東側塀,35.8239641,139.843537,
埼玉県,八潮市,7-2,大字二丁目171,細谷製作所(株)西側塀,35.8217194,139.8457265,
埼玉県,八潮市,7-3,大字木曽根906,島倉鉄工所(株)草加工場西側塀,35.8215674,139.8514724,
埼玉県,八潮市,7-4,大字木曽根1092,上木曽根会館西側フェンス,35.8199218,139.8550514,
埼玉県,八潮市,7-5,大字二丁目1122,(株)原田製作所埼玉工場塀,35.8192685,139.8562329,
埼玉県,八潮市,7-6,大字二丁目1195,民家北側塀,35.8210029,139.8587807,
埼玉県,八潮市,7-7,大字木曽根682-1,テクノフロント(株)南側塀,35.8174755,139.8497608,
埼玉県,八潮市,8-1,大字二丁目1005-1,田中商店南側塀,35.8147419,139.8474892,
埼玉県,八潮市,8-2,大字南川崎822,潮止小学校西口フェンス,35.814312,139.8522389,
埼玉県,八潮市,8-3,大字南川崎740,民家西側塀,35.8116734,139.8548089,
埼玉県,八潮市,8-4,大字南川崎563-3外,区画整理施行者管理地 単管パイプ,35.8128517,139.8574076,
埼玉県,八潮市,8-5,大字伊勢野50,民家南側塀,35.810068,139.8586917,
埼玉県,八潮市,8-6,大字伊勢野110,佐藤医院北側交差点付近水路フェンス,35.8097901,139.8564842,
埼玉県,八潮市,8-7,大字南川崎867-3,東京特殊精線(株)向側水路フェンス,35.811585,139.8514858,
埼玉県,八潮市,9-1,中央二丁目14,中馬場児童公園南側,35.8189997,139.8370442,
埼玉県,八潮市,9-2,八潮二丁目8-5,民家東側塀,35.8168117,139.8383893,
埼玉県,八潮市,9-3,八潮一丁目8,若柳児童公園東側,35.8176214,139.840786,
埼玉県,八潮市,9-4,八潮一丁目22-4,民家西側塀,35.8152423,139.841358,
埼玉県,八潮市,9-5,八潮四丁目3,木曽根児童公園西側,35.8122286,139.8410837,
埼玉県,八潮市,9-6,八潮一丁目27,八潮車庫向側,35.8133192,139.8429425,
埼玉県,八潮市,9-7,大字木曽根435,(有)ワーム前ガードレール,35.8159566,139.8425395,
埼玉県,八潮市,10-1,大瀬三丁目9-1,大瀬小学校北側入口フェンス,35.8093589,139.8499969,
埼玉県,八潮市,10-2,大瀬六丁目5-1,八潮駅北側フェンス,35.8079573,139.8449266,
埼玉県,八潮市,10-3,大瀬六丁目3-1,やしお駅前公園南側フェンス,35.8055226,139.8440964,
埼玉県,八潮市,10-4,大字大瀬393-4,民家西側水路フェンス,35.8016244,139.8472012,
埼玉県,八潮市,10-5,大字木曽根322,老人福祉センター寿楽荘西側フェンス,35.8116717,139.8466284,
埼玉県,八潮市,10-6,大字大瀬263,民家東側塀,35.8046679,139.8525136,
埼玉県,八潮市,10-7,大字大瀬974-1,民家西側塀,35.8026359,139.8523702,
埼玉県,八潮市,10-8,大瀬三丁目9-1,大瀬小学校南側入口フェンス,35.8084192,139.8499352,
埼玉県,八潮市,11-1,大字大瀬1542-2,民家脇フェンス(旧下大瀬公民館南側フェンス),35.7981986,139.8561174,
埼玉県,八潮市,11-2,大字古新田236-2,民家東側水路フェンス,35.7973436,139.8518275,
埼玉県,八潮市,11-3,大字大瀬1407-30,民家西側塀,35.7982136,139.8570956,
埼玉県,八潮市,11-4,大字大瀬1516,中川小学校北側フェンス,35.7982786,139.8546423,
埼玉県,八潮市,11-5,大字古新田1126,民家北側塀,35.7944341,139.8521958,
埼玉県,八潮市,11-6,大字大瀬1623,加藤建設工業(株)南側塀,35.7960516,139.8558967,
埼玉県,八潮市,11-7,大字大瀬1832,民家西側塀,35.7949826,139.8571566,
埼玉県,八潮市,12-1,大字浮塚248-1,(株)ジョイフル観光北側フェンス,35.7990307,139.8239615,
埼玉県,八潮市,12-2,大字浮塚223-1,民家西側塀(氷川神社前),35.7975238,139.8229939,
埼玉県,八潮市,12-3,大字浮塚488,浮塚公民館前塀(民家西側塀),35.7952138,139.8258823,
埼玉県,八潮市,12-4,大字浮塚626-8,メゾンパーク南八潮入口フェンス,35.796898,139.8274682,
埼玉県,八潮市,12-5,大字浮塚717-1,ルネ綾瀬入口,35.7934485,139.8267844,
埼玉県,八潮市,12-6,大字浮塚1048,田原工務店北側道路フェンス,35.7980411,139.8329815,
埼玉県,八潮市,12-7,大字浮塚723,八潮診療所前南側フェンス,35.7941883,139.8282929,
埼玉県,八潮市,13-1,茜町一丁目5-4,八潮南部中央地区葛西調整池フェンス,35.8045385,139.8407743,
埼玉県,八潮市,13-2,大字垳408-5,大曽根小学校入口フェンス,35.8042625,139.8359368,
埼玉県,八潮市,13-3,大字大曽根1518,大曽根保育所東側フェンス,35.8004649,139.8306631,
埼玉県,八潮市,13-4,大字垳392,ふれあい桜橋バス停横水路フェンス,35.801454,139.8386508,
埼玉県,八潮市,13-5,大字垳143-1,民家前南側フェンス,35.8011991,139.8409238,
埼玉県,八潮市,13-6,大字垳225,民家北側フェンス,35.8001483,139.8439006,
埼玉県,八潮市,13-7,大字垳534-16,垳川堤防,35.7993241,139.8359546,
埼玉県,八潮市,14-1,大字大曽根343,蓮台寺南側塀,35.8081272,139.8285388,
埼玉県,八潮市,14-2,大字大曽根360,民家西側塀,35.8076919,139.8269326,
埼玉県,八潮市,14-3,大字大曽根1105,豊田不動産北側塀,35.806105,139.82606,
埼玉県,八潮市,14-4,大字大曽根827,大曽根中公民館西側,35.8057182,139.8280847,
埼玉県,八潮市,14-5,大字大曽根1182,民家南側塀,35.8042459,139.8231367,
埼玉県,八潮市,14-6,大字大曽根1322-1,白山印刷(株)東側水路前フェンス,35.8028117,139.8230162,
埼玉県,八潮市,14-7,大字大曽根886,民家東塀,35.8030295,139.8271737,
埼玉県,八潮市,15-1,大字大曽根57-21,第6児童公園向いフェンス(マンハイム八潮前),35.8107266,139.829403,
埼玉県,八潮市,15-2,中央三丁目27,諏訪児童公園西側フェンス,35.8185466,139.8298106,
埼玉県,八潮市,15-3,中央三丁目18-11,民家前畑内,35.8183509,139.8319966,
埼玉県,八潮市,15-4,八潮三丁目5,中馬場児童交通公園南側,35.8171495,139.8351961,
埼玉県,八潮市,15-5,八潮七丁目14,大原児童公園東側,35.8166575,139.831975,
埼玉県,八潮市,15-6,八潮七丁目 31-3,民家南側塀,35.8147549,139.8340952,
埼玉県,八潮市,15-7,八潮七丁目 42-1,大原小学校入口フェンス,35.8142645,139.8318296,
埼玉県,八潮市,16-1,八潮八丁目23,西袋汚水中継ポンプ場西側フェンス,35.8119365,139.8284339,
埼玉県,八潮市,16-2,中央四丁目21-16,八幡小学校北側フェンス,35.8181552,139.8272676,
埼玉県,八潮市,16-3,大字西袋1296-5,柳之宮バス停前北側フェンス,35.818306,139.8237835,
埼玉県,八潮市,16-4,大字上馬場427-3,(有)ミサト製作所西側フェンス,35.8195691,139.8240779,
埼玉県,八潮市,16-5,大字上馬場1402,おざわスイミングスクール北側フェンス,35.8170755,139.824819,
埼玉県,八潮市,16-6,中央四丁目21-16,八幡小学校南側フェンス,35.8173505,139.8274446,
埼玉県,八潮市,16-7,八潮八丁目10-1,旧八潮市立保健センター跡地入口フェンス,35.8154087,139.828714,
埼玉県,八潮市,17-1,大字西袋625,西袋陣屋公園西側,35.8199414,139.8170156,
埼玉県,八潮市,17-2,大字西袋77-1,(株)南千住エンジニアリング西側畑,35.8186677,139.8212979,
埼玉県,八潮市,17-3,大字南後谷837,民家西側塀,35.8247104,139.8223582,
埼玉県,八潮市,17-4,大字西袋333,レンゴー(株)守衛室向い水路フェンス,35.8179304,139.8154614,
埼玉県,八潮市,17-5,大字南後谷865,民家北側塀,35.823932,139.8222008,
埼玉県,八潮市,17-6,大字柳之宮140,柳之宮小学校入口フェンス(正門),35.8232267,139.8224092,
埼玉県,八潮市,17-7,大字柳之宮211-3,アイダドミールIIB西側フェンス,35.821466,139.8230229,
埼玉県,八潮市,18-1,八潮三丁目19-3,民家北側フェンス,35.8155956,139.836014,
埼玉県,八潮市,18-2,八潮六丁目10-3,民家西側塀,35.8119502,139.8320481,
埼玉県,八潮市,18-3,八潮三丁目31,文化スポーツセンター北側塀,35.8130039,139.8365962,
埼玉県,八潮市,18-4,大字大曽根122,masked,35.8094375,139.8328669,
埼玉県,八潮市,18-5,大字木曽根230-1,モリタハイツ東側塀,35.8090256,139.8315239,
埼玉県,八潮市,18-6,八潮五丁目9-1,大原中学校体育館北側フェンス,35.8098009,139.8370295,
埼玉県,八潮市,18-7,八潮六丁目27-5,市営大原団地2号棟南側フェンス,35.8100647,139.8347496,
埼玉県,八潮市,19-1,大字木曽根1425-9,下木曽根会館入口フェンス,35.8179045,139.8617267,
埼玉県,八潮市,19-2,大字南川崎116,民家北側塀,35.8156296,139.8627016,
埼玉県,八潮市,19-3,大字木曽根1274,そば「やぶ富」西側フェンス,35.8161289,139.8558222,
埼玉県,八潮市,19-4,大字南川崎523,ゆまにて(勤労者福祉・スポーツセンター)入口,35.8145329,139.857104,
埼玉県,八潮市,19-5,大字南川崎870,専稱寺東側水路フェンス,35.8147383,139.8607784,
埼玉県,八潮市,19-6,大字南川崎337-1,民家東側塀,35.8134946,139.8619508,
埼玉県,八潮市,19-7,大字南川崎210-1,特別養護老人ホーム前バス停フェンス,35.8118493,139.8604109,
埼玉県,八潮市,20-1,中央三丁目5,上馬場児童公園東側,35.8211435,139.8314279,
埼玉県,八潮市,20-2,緑町一丁目23-20,民家西側塀,35.825403,139.8359574,
埼玉県,八潮市,20-3,中央一丁目1-2,八潮中学校入口東側植込み,35.8237601,139.8374095,
埼玉県,八潮市,20-4,緑町二丁目20-1,ルミナス八潮西側葛西用水フェンス,35.8229423,139.8291861,
埼玉県,八潮市,20-5,緑町一丁目42,小作田東児童公園南側,35.8240701,139.8343593,
埼玉県,八潮市,20-6,中央一丁目2-1,八潮市役所東側,35.8220457,139.8402904,
埼玉県,八潮市,20-7,中央一丁目9,中央公園入口,35.8214324,139.838757,
埼玉県,八潮市,21-1,大字南後谷425-1,山口証券印刷(株)埼玉工場南側フェンス,35.828306,139.8183153,
埼玉県,八潮市,21-2,大字南後谷678,南後谷緑の広場西側(資料館北側),35.8268568,139.8204821,
埼玉県,八潮市,21-3,緑町五丁目37,後谷東児童公園西側,35.8260967,139.8246616,
埼玉県,八潮市,21-4,大字南後谷898,東武紙工(株)フェンス(ライオンズマンション草加東向かい),35.8258647,139.8194886,
埼玉県,八潮市,21-5,大字南後谷477,オートバックス八潮店南側塀,35.8280622,139.8197437,
埼玉県,八潮市,21-6,大字南後谷450,(株)フルートこうよう館南側フェンス,35.830074,139.819465,
埼玉県,八潮市,21-7,大字南後谷58,共栄クリーンサービス向いフェンス,35.8280634,139.8162211,
