prefecture,city,number,address,name,lat,long,note
埼玉県,北本市,1-1,中丸10丁目419番地1,中丸公民館入口左側,None,None,緯度経度は怪しい
埼玉県,北本市,1-2,中丸10丁目55番地,北本市健康増進センター北側入口右側,36.029869,139.551987,緯度経度は怪しい
埼玉県,北本市,1-3,山中2丁目128番地,東中学校正門左側,36.033318,139.548798,緯度経度は怪しい
埼玉県,北本市,1-4,中丸9丁目25番地,中丸スポーツ広場正門入口左側,36.026249,139.553467,緯度経度は怪しい
埼玉県,北本市,1-5,中丸8丁目123番地,カインズ北本店北西側植栽,36.020786,139.556107,緯度経度は怪しい
埼玉県,北本市,1-6,北中丸2丁目117番地,鈴木商店南東40m先向側畑地,36.032726,139.553192,緯度経度は怪しい
埼玉県,北本市,2-1,朝日1丁目72番地3,ウチダ自動車南西140m先畑地,36.040066,139.552444,緯度経度は怪しい
埼玉県,北本市,2-2,朝日2丁目238番地1,ワコーレ・シャトルバス発着所ロータリー内西側,36.0402434,139.5557479,
埼玉県,北本市,2-3,朝日2丁目238番地1,ワコーレA棟南側植栽,36.0402434,139.5557479,
埼玉県,北本市,2-4,朝日2丁目238番地1,ワコーレA棟北西側植栽(入口左側),36.0402434,139.5557479,
埼玉県,北本市,2-5,朝日2丁目389番地,ワコーレE棟南向側植栽(水路左岸),36.038628,139.554749,緯度経度は怪しい
埼玉県,北本市,2-6,朝日2丁目157番地,白山神社県道312号線側,36.03722,139.55571,緯度経度は怪しい
埼玉県,北本市,3-1,宮内7丁目145番地1,中丸小学校正門右側,36.0371639,139.5447422,
埼玉県,北本市,3-2,宮内6丁目277番地3,宮内スポーツ広場南東側(洗車場北東側),None,None,緯度経度は怪しい
埼玉県,北本市,3-3,宮内4丁目136番地,宮内氷川神社南側(参道入口右側),36.043667,139.539337,緯度経度は怪しい
埼玉県,北本市,3-4,宮内4丁目345番地,民具収蔵庫(旧学校給食センター)南側,36.047298,139.541519,緯度経度は怪しい
埼玉県,北本市,3-5,宮内7丁目147番地,北本リサイクル事業協同組合入口右側,36.036465,139.544891,緯度経度は怪しい
埼玉県,北本市,3-6,宮内5丁目115番地2,宮内5丁目公園県道311号線側,36.041634,139.539673,緯度経度は怪しい
埼玉県,北本市,3-7,古市場1丁目169番地,北本総合公園正門左側植栽(体育センター入口向側),36.044098,139.550491,緯度経度は怪しい
埼玉県,北本市,4-1,深井4丁目45番地1,北小学校正門右側,36.0465622,139.5299742,
埼玉県,北本市,4-2,深井8丁目226番地1,深井田代バス停北西100m先十字路南側畑地東側,36.047016,139.53392,緯度経度は怪しい
埼玉県,北本市,4-3,深井3丁目3番地4,深井3丁目公園,36.0484727,139.5229544,
埼玉県,北本市,4-4,深井2丁目102番地5,深井2丁目公園南側,36.0461391,139.52565,
埼玉県,北本市,4-5,深井3丁目137番地1,仕出し弁当ポパイ食向側畑地,36.047581,139.527054,緯度経度は怪しい
埼玉県,北本市,4-6,深井7丁目228番地,桜国屋駐車場北側入口右側,36.052074,139.528824,緯度経度は怪しい
埼玉県,北本市,4-7,深井4丁目155番地1,北部公民館南側入口右側,36.044548,139.532761,緯度経度は怪しい
埼玉県,北本市,5-1,宮内3丁目12番地1,岡田ハイツ西側畑地,36.041492,139.533051,緯度経度は怪しい
埼玉県,北本市,5-2,東間8丁目59番地1,美容室すくすく南東50m先右側駐車場,36.044708,139.529572,緯度経度は怪しい
埼玉県,北本市,5-3,宮内1丁目354番地,島田燃料店東向側路肩,36.03846,139.537857,緯度経度は怪しい
埼玉県,北本市,5-4,東間8丁目168番地,旧あづまストアー交差点東側花壇北側,36.04398,139.530991,緯度経度は怪しい
埼玉県,北本市,5-5,東間8丁目229番地1,東間公園北側,36.04365689999999,139.532171,
埼玉県,北本市,5-6,宮内3丁目167番地2,宮内緑地公園東側,36.040794,139.534531,緯度経度は怪しい
埼玉県,北本市,5-7,東間8丁目230番地79,東間ニュータウン公園北西側,36.0431839,139.5325823,
埼玉県,北本市,6-1,東間5丁目90番地1,サンマンション北本管理棟北向側,36.042587,139.52594,緯度経度は怪しい
埼玉県,北本市,6-2,東間6丁目67番地2,東間6丁目わくわく公園東側,36.042694,139.527756,緯度経度は怪しい
埼玉県,北本市,6-3,東間4丁目23番地8,斉藤自動車板金塗装南西100m先右側ごみ集積所奥,36.03894,139.53186,緯度経度は怪しい
埼玉県,北本市,6-4,東間5丁目90番地3,サンマンション東間公園南東側,36.042587,139.52594,緯度経度は怪しい
埼玉県,北本市,6-5,東間2丁目226番地,岩崎畳店北西50m先左側空地東側,36.037304,139.534851,緯度経度は怪しい
埼玉県,北本市,6-6,東間1丁目6番地,浅間神社旧中山道側駐車場北側,36.035976,139.532166,緯度経度は怪しい
埼玉県,北本市,6-7,東間2丁目62番地6,柳井マンション西側,36.0347387,139.5342412,
埼玉県,北本市,7-1,本宿1丁目10番地1,解脱会御霊地東側(スズキ販売北側),36.029125,139.536652,緯度経度は怪しい
埼玉県,北本市,7-2,本宿7丁目66番地,本宿7丁目公園北西側,36.026264,139.541214,緯度経度は怪しい
埼玉県,北本市,7-3,北本3丁目87番地先,加藤建設工業東南100m先右側,36.034931,139.536942,緯度経度は怪しい
埼玉県,北本市,7-4,本宿4丁目213番地,国道17号北本四丁目交差点南西130m先南側フェンス,None,None,緯度経度は怪しい
埼玉県,北本市,7-5,北本2丁目31番地,北本2丁目公園北東側,36.032581,139.536346,緯度経度は怪しい
埼玉県,北本市,7-6,本宿2丁目83番地2,西松屋北東50m先駐車場北側,36.028809,139.538895,緯度経度は怪しい
埼玉県,北本市,7-7,本宿8丁目77番地1,石戸踏切東側駐車場南東側,None,None,緯度経度は怪しい
埼玉県,北本市,7-8,北本1丁目44番地,北本駅東口駅前ロータリー内(川越観光北本駅東口バス停向側),36.03101,139.535797,緯度経度は怪しい
埼玉県,北本市,8-1,中丸6丁目82番地,中丸公園東側(東小学校正門右側),36.020836,139.551315,緯度経度は怪しい
埼玉県,北本市,8-2,中丸6丁目215番地1,みんなの家・北本中丸南東側,36.019115,139.551224,緯度経度は怪しい
埼玉県,北本市,8-3,中丸7丁目28番地3,ホテルD100m南西先右側空地(三角地),36.016338,139.551605,緯度経度は怪しい
埼玉県,北本市,8-4,中丸4丁目51番地1,中丸緑地公園東側,36.02507,139.548721,緯度経度は怪しい
埼玉県,北本市,8-5,中丸3丁目92番地,中丸氷川神社東側,36.027004,139.54509,緯度経度は怪しい
埼玉県,北本市,8-6,中丸4丁目118番地2,グループホーム愛の家北本西側,36.023812,139.5490633,
埼玉県,北本市,8-7,中丸2丁目321番地,中丸2丁目遊園地北側,36.024471,139.546051,緯度経度は怪しい
埼玉県,北本市,9-1,二ッ家1丁目47番地,北本二ツ家郵便局北西40m先西側遊水池前,None,None,緯度経度は怪しい
埼玉県,北本市,9-2,中丸5丁目696番地,やじりはら公園南側,36.022762,139.548233,緯度経度は怪しい
埼玉県,北本市,9-3,二ッ家4丁目156番地2,100えんハウスレモン南側,36.010639,139.552902,緯度経度は怪しい
埼玉県,北本市,9-4,二ッ家2丁目221番地,三井団地公園北西側,36.017216,139.551712,緯度経度は怪しい
埼玉県,北本市,9-5,二ッ家1丁目322番地,県営二ツ家団地2号棟西向側植栽(ハイデンス立体駐車場裏),36.01495,139.549789,緯度経度は怪しい
埼玉県,北本市,9-6,二ッ家4丁目10番地7,二ツ家4丁目バス停右脇,36.010639,139.552902,緯度経度は怪しい
埼玉県,北本市,9-7,中丸1丁目7番地3,県営中丸団地1号棟西向側(北本中央緑地),36.021091,139.543304,緯度経度は怪しい
埼玉県,北本市,10-1,二ッ家1丁目383番地3,二ツ家1丁目公園北側(マリオン北本側),36.013035,139.549805,緯度経度は怪しい
埼玉県,北本市,10-2,大字下石戸下471番地42,南団地遊水池北側(五味工務店前),36.014702,139.543762,緯度経度は怪しい
埼玉県,北本市,10-3,二ッ家1丁目323番地,下石戸公園西側,36.014545,139.54921,緯度経度は怪しい
埼玉県,北本市,10-4,下石戸6丁目184番地,南団地中央公園南西側,36.01347,139.544327,緯度経度は怪しい
埼玉県,北本市,10-5,下石戸6丁目211番地,南団地東三角公園南側,36.012154,139.545883,緯度経度は怪しい
埼玉県,北本市,10-6,下石戸6丁目47番地,南団地西公園西側,36.012646,139.543076,緯度経度は怪しい
埼玉県,北本市,10-7,下石戸5丁目117番地,東原団地公園北側,36.017155,139.545074,緯度経度は怪しい
埼玉県,北本市,11-1,緑3丁目387番地,南小学校正門左側,36.021305,139.538406,緯度経度は怪しい
埼玉県,北本市,11-2,緑4丁目198番地,佐久間鉄工斜向かい(旧教育センター敷地南側),36.019527,139.540268,緯度経度は怪しい
埼玉県,北本市,11-3,大字下石戸下568番地1,石戸浄水場南100m先東側畑地西側,36.015076,139.539368,緯度経度は怪しい
埼玉県,北本市,11-4,大字下石戸下538番地4,久保土地区画整理事務所南東側,36.013744,139.540131,緯度経度は怪しい
埼玉県,北本市,11-5,緑3丁目26番地,ゲオ北本店駐車場南西側,36.02375,139.537109,緯度経度は怪しい
埼玉県,北本市,11-6,大字下石戸下597番地,久保まんまる公園南入口左側,36.016239,139.541916,緯度経度は怪しい
埼玉県,北本市,11-7,下石戸1丁目252番地,セブンイレブン北本緑1丁目店南280m先東側林(社入口北側),36.021523,139.535599,緯度経度は怪しい
埼玉県,北本市,12-1,本町1丁目111番地,北本市役所南側夜間通用口前植栽,36.027164,139.53035,緯度経度は怪しい
埼玉県,北本市,12-2,本町3丁目179番地,高松ビル向側植栽,36.026882,139.532715,緯度経度は怪しい
埼玉県,北本市,12-3,本町3丁目52番地,旧中央保育所南側,36.023754,139.532166,緯度経度は怪しい
埼玉県,北本市,12-4,本町4丁目232番地,ストリートフレイバー北東側(みなみ第2幼稚園西向側),36.022408,139.530777,緯度経度は怪しい
埼玉県,北本市,12-5,緑1丁目163番地1,解脱会第2駐車場東側入口左側,36.024784,139.534729,緯度経度は怪しい
埼玉県,北本市,12-6,緑2丁目3番地,解脱会宝物館駐車場南西側,36.027386,139.534882,緯度経度は怪しい
埼玉県,北本市,12-7,本町1丁目1番地,北本中学校正門右側,36.028198,139.529129,緯度経度は怪しい
埼玉県,北本市,13-1,西高尾1丁目228番地4,市役所入口バス停(北側)脇植栽,36.029716,139.529251,緯度経度は怪しい
埼玉県,北本市,13-2,中央2丁目22番地1,解脱会第5駐車場北西側,36.029182,139.530838,緯度経度は怪しい
埼玉県,北本市,13-3,西高尾1丁目131番地,西高尾1丁目三角公園北側,36.032055,139.529404,緯度経度は怪しい
埼玉県,北本市,13-4,西高尾1丁目160番地2,西高尾1丁目公園(西高尾バス停脇),36.031483,139.528442,緯度経度は怪しい
埼玉県,北本市,13-5,中央2丁目50番地3,サンロード向側植栽,36.030327,139.531326,緯度経度は怪しい
埼玉県,北本市,13-6,中央2丁目158番地3,駅西口多目的広場(B区画ロータリー側),36.0312619,139.5332336,
埼玉県,北本市,13-7,西高尾3丁目103番地1,デイサービスなごやか北本東側,36.030764,139.5268704,
埼玉県,北本市,13-8,本町1丁目1番地,北本中学校部室裏,36.028198,139.529129,緯度経度は怪しい
埼玉県,北本市,14-1,西高尾8丁目71番地2,西高尾郵便局前バス停(南側)脇,36.030094,139.520508,緯度経度は怪しい
埼玉県,北本市,14-2,西高尾7丁目136番地,西高尾7丁目集会所西側,36.031818,139.519974,緯度経度は怪しい
埼玉県,北本市,14-3,本町8丁目39番地2,本町8丁目公園西側(真福寺入口バス停脇),36.0236307,139.5273117,
埼玉県,北本市,14-4,西高尾4丁目208番地4,ながしま洋品店西側向側植栽,36.0289607,139.5271641,
埼玉県,北本市,14-5,西高尾4丁目213番地,アキュール東側水路脇,36.028831,139.525482,緯度経度は怪しい
埼玉県,北本市,14-6,西高尾4丁目198番地3,グリーンハイム西側駐車場前植栽,36.028702,139.526291,緯度経度は怪しい
埼玉県,北本市,14-7,本町7丁目14番地,西小学校正門北側斜向い,36.027096,139.524338,緯度経度は怪しい
埼玉県,北本市,15-1,高尾1丁目755番地,総合福祉センター南側植栽,36.027924,139.52037,緯度経度は怪しい
埼玉県,北本市,15-2,高尾2丁目111番地,高尾2丁目交差点南東畑地北側,36.027267,139.513947,緯度経度は怪しい
埼玉県,北本市,15-3,高尾5丁目156番地,民謡教室志之路会向側畑地,36.030361,139.510468,緯度経度は怪しい
埼玉県,北本市,15-4,高尾6丁目331番地,高尾さくら公園駐車場東側,36.024483,139.508438,緯度経度は怪しい
埼玉県,北本市,15-5,高尾9丁目454番地,野外活動センター入口右側,36.02195,139.506516,緯度経度は怪しい
埼玉県,北本市,15-6,石戸2丁目97番地,岡村塗装工業裏北側向畑地,36.024765,139.519684,緯度経度は怪しい
埼玉県,北本市,15-7,荒井1丁目122番地,荒井上手公会堂北側栗畑東側,36.02232,139.515152,緯度経度は怪しい
埼玉県,北本市,16-1,荒井3丁目92番地,荒井公園北側,36.017426,139.516159,緯度経度は怪しい
埼玉県,北本市,16-2,石戸8丁目83番地,原公会堂南西側畑地,36.017006,139.524063,緯度経度は怪しい
埼玉県,北本市,16-3,荒井1丁目338番地1,荒井交差点北西側植栽,36.019842,139.5160191,
埼玉県,北本市,16-4,荒井3丁目176番地1,メディカルセンター入口交差点南東側畑地,36.016785,139.517685,緯度経度は怪しい
埼玉県,北本市,16-5,石戸宿1丁目138番地,石戸宿1丁目交差点北100m西側畑,36.00967,139.51796,緯度経度は怪しい
埼玉県,北本市,16-6,石戸宿3丁目225番地,北本市子供公園入口右側,36.00602,139.511139,緯度経度は怪しい
埼玉県,北本市,16-7,石戸宿4丁目34番地47,石戸宿4丁目公園東側,36.004589,139.511734,緯度経度は怪しい
埼玉県,北本市,16-8,石戸4丁目173番地,チサン第3中央公園南側,36.021721,139.521271,緯度経度は怪しい
埼玉県,北本市,17-1,栄7番地,公団1街区23号棟Big-A北本団地店西側,36.01593,139.53241,緯度経度は怪しい
埼玉県,北本市,17-2,栄7番地,公団商店街東側公園西側入口右側,36.01593,139.53241,緯度経度は怪しい
埼玉県,北本市,17-3,栄7番地,公団2街区23号棟北東向側(水路右岸),36.01593,139.53241,緯度経度は怪しい
埼玉県,北本市,17-4,栄7番地,公団4街区4号棟南西側,36.01593,139.53241,緯度経度は怪しい
埼玉県,北本市,17-5,栄7番地,公団3街区4号棟北側,36.01593,139.53241,緯度経度は怪しい
埼玉県,北本市,17-6,栄7番地,公団1街区3号棟東側(水路右岸),36.01593,139.53241,緯度経度は怪しい
埼玉県,北本市,17-7,栄13番地,学習センター建物入口右側,36.013371,139.533112,緯度経度は怪しい
