prefecture,city,number,address,name,lat,long,note
埼玉県,吉川市,1-1,平沼316番地,県道越谷流山線芳川神社北側道路植樹帯,35.8857545,139.842361,
埼玉県,吉川市,1-2,平沼73番地,吉川小学校正門北側フェンス,35.8843652,139.8402725,
埼玉県,吉川市,1-3,平沼73番地,吉川小学校北側駐車場入口付近フェンス,35.8846433,139.8390038,
埼玉県,吉川市,1-4,大字保28番地1付近,月の公園西側植栽,35.8796525,139.8407269,
埼玉県,吉川市,1-5,平沼一丁目22番地4,NTT東日本電話交換センタ-南側フェンス,35.8851268,139.845343,
埼玉県,吉川市,1-6,平沼一丁目16番地8,武蔵野銀行正面前いちょう通り西側道路植樹帯,35.8847016,139.8440468,
埼玉県,吉川市,1-7,平沼一丁目4番地4,ロ-ソンストア100前いちょう通り東側道路植樹帯,35.8824134,139.844092,
埼玉県,吉川市,1-8,保一丁目33番地,保公園東側植栽,35.8825516,139.8463842,
埼玉県,吉川市,2-1,吉川二丁目34番地5,山一不動産西側県道葛飾吉川松伏線,35.8962694,139.8398362,
埼玉県,吉川市,2-2,吉川二丁目1番地13,保健センタ-正面入り口付近,35.8909355,139.8421038,
埼玉県,吉川市,2-3,吉川1568番地,民家西側ブロック塀,35.8866825,139.8395948,
埼玉県,吉川市,2-4,吉川一丁目79番地,二郷半用水路さくら通り東側フェンス(香取橋),35.8904938,139.8454398,
埼玉県,吉川市,2-5,吉川二丁目38番地10,木売落し西側ガ-ドレ-ル,35.8971919,139.8422618,
埼玉県,吉川市,2-6,吉川一丁目14番地21,おひさま保育園南方交差点付近いちょう通り西側道路植樹帯,35.8882328,139.843632,
埼玉県,吉川市,3-1,須賀367番地1,新川橋西側T字路ガ-ドレ-ル,35.8999189,139.8378343,
埼玉県,吉川市,3-2,川藤694番地1,武輝神社南側,35.9059185,139.839714,
埼玉県,吉川市,3-3,川藤592番地2付近,コミュニティ協議会広報掲示板横ガ-ドレ-ル,35.9020708,139.8359877,
埼玉県,吉川市,3-4,川藤518番地1,よこまちの杜西側フェンス,35.9018632,139.8388096,
埼玉県,吉川市,3-5,川藤14番地1,彩凛会南側,35.8984851,139.842012,
埼玉県,吉川市,3-6,川藤3394番地2,県道川藤野田線飯島不動産北側農地西側フェンス,35.9015452,139.8479714,
埼玉県,吉川市,3-7,川藤3252番地1,元店舗東側農地県道川藤野田線飯島不動産北側農地西側フェンス,35.9037984,139.8522276,
埼玉県,吉川市,4-1,拾壱軒538番地1,飯島鋼管入口北側ブロック塀,35.9244434,139.8380721,
埼玉県,吉川市,4-2,南広島980番地2,民家ブロック塀北側,35.9162784,139.8448537,
埼玉県,吉川市,4-3,南広島843番地,県道中井松伏線消防団第3分団機材置場東側植栽帯,35.918385,139.8468631,
埼玉県,吉川市,4-4,南広島1490番地1,旭小学校正門北側フェンス,35.9172436,139.8502026,
埼玉県,吉川市,4-5,川藤2529番地付近,県道中井松伏線(川藤北交差点)北東植樹帯,35.9114355,139.8499492,
埼玉県,吉川市,5-1,上内川1605番地1,吉川市民農園北側フェンス,35.9282513,139.8511969,
埼玉県,吉川市,5-2,下内川437番地,正覚院東側空地,35.9248391,139.8607115,
埼玉県,吉川市,5-3,下内川740番地付近,下内川公会堂西側敷地,35.9235726,139.858712,
埼玉県,吉川市,5-4,下内川1649番地,民家付近西側水路フェンス,35.9209602,139.8575071,
埼玉県,吉川市,5-5,八子新田357番地2,恵鏡庵東側水路フェンス,35.9167951,139.8641035,
埼玉県,吉川市,5-6,八子新田589番地1,農業集落排水施設八鍋クリ-ンセンタ-東側水路フェンス,35.9136641,139.8653286,
埼玉県,吉川市,6-1,上笹塚40番地2,県道三郷松伏線(鍋小路交差点)南西ガ-ドレ-ル,35.9066872,139.8669193,
埼玉県,吉川市,6-2,深井新田2251番地,防火水槽敷地,35.904807,139.8724341,
埼玉県,吉川市,6-3,上笹塚三丁目136番地1,東中学校正門西側植樹帯,35.903456,139.8659165,
埼玉県,吉川市,6-4,上笹塚一丁目67番地1,屋外市民プ-ル正面入口東側フェンス,35.9033574,139.8591359,
埼玉県,吉川市,6-5,会野谷496番地,吉川市水道課事務所フェンス,35.8993887,139.8587378,
埼玉県,吉川市,6-6,関新田1118番地,県道三郷松伏線民家東側フェンス,35.8991329,139.8694306,
埼玉県,吉川市,6-7,平方新田1369番地2,平方新田集会所東側ブロック塀,35.8986223,139.8751599,
埼玉県,吉川市,7-1,中井二丁目47番地1,JAさいかつ三輪野江支店東側植樹帯,35.8956468,139.8623843,
埼玉県,吉川市,7-2,中井三丁目263付近,県道加藤平沼線(皿沼橋)北側フェンス,35.8904362,139.8706624,
埼玉県,吉川市,7-3,中島一丁目426番地,亀田屋商店南西側ガ-ドレ-ル,35.8809971,139.8717051,
埼玉県,吉川市,7-4,加藤438番地,東部市民サ-ビスセンタ-敷地内植樹帯,35.88665,139.8805191,
埼玉県,吉川市,7-5,吉屋二丁目180番地,浄幽寺入口南側ブロック塀,35.890464,139.8794966,
埼玉県,吉川市,7-6,吉屋707番地,礎電線入口西側水路フェンス,35.8936932,139.8806176,
埼玉県,吉川市,7-7,加藤635番地1,三輪野江小学校正門西側フェンス,35.8854436,139.881991,
埼玉県,吉川市,8-1,飯島30番地1,県道三郷松伏線東側路肩,35.8800447,139.8874666,
埼玉県,吉川市,8-2,土場161番地,土場集会所南側フェンス,35.8764588,139.8810939,
埼玉県,吉川市,8-3,三輪野江1371番地2,三輪神社東側フェンス,35.8757099,139.8841802,
埼玉県,吉川市,8-4,三輪野江1447番地,市道3-475民家付近防災倉庫前,35.8727486,139.8830492,
埼玉県,吉川市,8-5,三輪野江1928番地2,定勝寺入口信号南東側フェンス,35.8697076,139.8858612,
埼玉県,吉川市,8-6,三輪野江二丁目153番地,民家北側ブロック塀,35.8684812,139.8762184,
埼玉県,吉川市,8-7,二ツ沼二丁目2番地,二ツ沼集会所西側耕作地,35.875043,139.8743612,
埼玉県,吉川市,9-1,木売一丁目6番地1,吉川駅南口ロ-タリ-南側植樹帯,35.8762156,139.8432186,
埼玉県,吉川市,9-2,高富二丁目1番地3,丸和運輸機関けやき通り東側フェンス,35.8728839,139.8449192,
埼玉県,吉川市,9-3,高富一丁目22番地6,観龍院上霊園北西側ブロック塀,35.871862,139.8416003,
埼玉県,吉川市,9-4,木売三丁目5番地付近,二郷半緑道内西側植栽,35.8745623,139.8469201,
埼玉県,吉川市,9-5,高富一丁目16番地,高富公園南側植栽,35.8709448,139.8443589,
埼玉県,吉川市,9-6,美南一丁目18番地,美南1丁目公園東側植栽,35.8718628,139.8501634,
埼玉県,吉川市,9-7,美南五丁目3番地1,ワンダ-ランド南側公園内,35.8683017,139.8472696,
埼玉県,吉川市,9-8,美南一丁目24番地,美南一丁目第4公園東側植栽,35.8712662,139.8533331,
埼玉県,吉川市,10-1,保429番地1,吉川幼稚園駐車場東側フェンス,35.8837296,139.8484594,
埼玉県,吉川市,10-2,保672番地,南中学校正門南側フェンス,35.8824616,139.8510996,
埼玉県,吉川市,10-3,保764番地,ほのぼの公園西側植栽,35.8837614,139.8508145,
埼玉県,吉川市,10-4,保672番地,南中学校北側フェンス,35.8833102,139.852898,
埼玉県,吉川市,10-5,中野115番地2,上第二大場川(保中野北橋)東側フェンス,35.8817338,139.8545305,
埼玉県,吉川市,10-6,中野283番地1,駐車場東側フェンス,35.8846426,139.8603844,
埼玉県,吉川市,10-7,保928番地1,なまずの里公園西側植栽,35.8836229,139.8574644,
埼玉県,吉川市,11-1,上内川200番地,内川神社バス停東側敷地,35.93738,139.8385656,
埼玉県,吉川市,11-2,旭6番地4,旭地区センタ-西側植栽,35.9309928,139.8406092,
埼玉県,吉川市,11-3,上内川569番地1,上新堀コミュニティセンタ-北側ブロック塀,35.9355454,139.8433832,
埼玉県,吉川市,11-4,上内川620番地,民家向側水路フェンス,35.9333588,139.8457282,
埼玉県,吉川市,11-5,上内川1165番地3,新用水路東側フェンス,35.9327314,139.8514667,
埼玉県,吉川市,11-6,上内川3021番地,旭公園球場球場フェンス,35.930994,139.8443404,
埼玉県,吉川市,12-1,吉川団地1番10号,関小学校正門北側フェンス,35.8929401,139.8463833,
埼玉県,吉川市,12-2,吉川団地5番6号,吉川整形外科向側植栽,35.8895691,139.8484966,
埼玉県,吉川市,12-3,吉川団地2番3号,磯久クリニック向側植栽,35.8940095,139.8473371,
埼玉県,吉川市,12-4,吉川団地5番16号,よしかわフラワ-保育園北側フェンス,35.8912089,139.8471394,
埼玉県,吉川市,12-5,吉川団地2番13号,2番13号南側植栽,35.8927985,139.8482972,
埼玉県,吉川市,12-6,吉川団地5番2号,5番1号向側公園広場植栽,35.8904089,139.8483064,
埼玉県,吉川市,13-1,中央三丁目50番地4,老人福祉センタ-西側植樹帯,35.8918251,139.8588798,
埼玉県,吉川市,13-2,中央三丁目8番地1,中井沼公園南側植栽,35.890017,139.8631994,
埼玉県,吉川市,13-3,中央三丁目2番地11,栄町3区町会防犯・防災センタ-敷地内,35.8888084,139.8597192,
埼玉県,吉川市,13-4,中央三丁目26番地1,栄小学校北西側植栽帯,35.8915364,139.8559273,
埼玉県,吉川市,13-5,新栄一丁目2番地,ネオポリス第一公園北側フェンス,35.8943269,139.8601834,
埼玉県,吉川市,13-6,中央三丁目26番地1,栄小学校南側フェンス,35.89069,139.857664,
埼玉県,吉川市,13-7,小松川527番地1,テルミック第1倉庫南側駐車場東側ガ-ドレ-ル,35.8819812,139.8643406,
埼玉県,吉川市,14-1,中央二丁目21番地1,中央中学校正門西側フェンス,35.8893715,139.8512237,
埼玉県,吉川市,14-2,栄町698番地1,東武バス吉川車庫バス停南側フェンス,35.8855936,139.848138,
埼玉県,吉川市,14-3,中央一丁目2番地4,さくら通りセイムス前植樹帯,35.8883827,139.8461933,
埼玉県,吉川市,14-4,栄町876番地5,サンフィ-ルド吉川遊水池向側保緑道植栽,35.8849165,139.8533158,
埼玉県,吉川市,14-5,中央二丁目21番地1,中央中学校南側フェンス,35.8893574,139.8539327,
埼玉県,吉川市,14-6,栄町1432番地1,県道加藤平沼線(名倉建設)北側フェンス,35.8867354,139.8555507,
埼玉県,吉川市,14-7,中央二丁目21番地1,中央中学校北側フェンス,35.8908969,139.8522697,
埼玉県,吉川市,14-8,栄町913番地3付近,越谷吉川線南側道路植樹帯,35.8869169,139.8501317,
埼玉県,吉川市,15-1,高久一丁目9番地22,けやき通り西側道路植樹帯(みさと吉川教会、シルジャナ付近),35.8703012,139.8451027,
埼玉県,吉川市,15-2,道庭二丁目9番地2,けやき通り(ドラッグセイムス)東側道路植樹帯,35.8613886,139.8450208,
埼玉県,吉川市,15-3,高久一丁目32番地,高久第2公園北側フェンス,35.8662711,139.8412246,
埼玉県,吉川市,15-4,中曽根二丁目4番地,中曽根小学校正門北側フェンス,35.8671358,139.8463321,
埼玉県,吉川市,15-5,中曽根二丁目12番地7,けやき通り民家東側ブロック塀,35.8645695,139.8450948,
埼玉県,吉川市,15-6,中曽根二丁目8番地,中曽根公園南側植栽,35.8648731,139.8476705,
埼玉県,吉川市,15-7,中曽根一丁目15番地4,民家西側ブロック塀,35.8634701,139.8405457,
埼玉県,吉川市,15-8,道庭一丁目6番地,道庭公園西側フェンス,35.8611337,139.8429239,
埼玉県,吉川市,16-1,中野164番地1,久保田製缶南側フェンス前,35.8823434,139.8588019,
埼玉県,吉川市,16-2,中野388番地4,中野2区会館北側掲示板,35.8815642,139.8604862,
埼玉県,吉川市,16-3,木売新田208番地1,木売新田交差点北西フェンス,35.8777746,139.8561001,
埼玉県,吉川市,16-4,木売新田95-3付近,北谷小学校付近ガ-ドレ-ル,35.8763441,139.8587383,
埼玉県,吉川市,16-5,中曽根917番地1,吉川美南駅東口ロ-タリ-駐輪場フェンス,35.8689897,139.8586997,
埼玉県,吉川市,16-6,中曽根1382番地1,中新田集会所西側フェンス,35.8708206,139.8645046,
埼玉県,吉川市,16-7,木売新田153番地1,南配水場北側フェンス,35.8787706,139.8615701,
埼玉県,吉川市,17-1,保53番地1,民家西側ブロック塀,35.8805855,139.8419304,
埼玉県,吉川市,17-2,保一丁目28番地,いちょう通り(保第2公園)東側フェンス,35.8800828,139.8438736,
埼玉県,吉川市,17-3,保68番地1,民家北側ブロック塀,35.8786547,139.8422708,
埼玉県,吉川市,17-4,木売一丁目,吉川駅北側ロ-タリ-植樹帯,35.8767992,139.8436047,
埼玉県,吉川市,17-5,保611番地,JAさいかつ吉川支店西側植樹帯,35.8793115,139.8471143,
埼玉県,吉川市,17-6,保480番地5付近,二郷半用水路(一之橋)さくら通り西側フェンス,35.88155,139.8467284,
埼玉県,吉川市,17-7,保577番地,中央公民館東側植樹帯,35.879538,139.8517594,
埼玉県,吉川市,17-8,木売一丁目9番地6,吉川駅北口第1自転車駐車場前植樹帯,35.8768549,139.8459842,
埼玉県,吉川市,18-1,きよみ野一丁目6番地7,吉川運動公園(吉川運動公園バス停)西側植樹帯,35.8962241,139.8564147,
埼玉県,吉川市,18-2,きよみ野一丁目1番地,市民交流センタ-おあしす北側植樹帯,35.8962982,139.8537228,
埼玉県,吉川市,18-3,きよみ野一丁目13番地,きよみ野第2公園北側植樹帯,35.8950162,139.8545033,
埼玉県,吉川市,18-4,きよみ野二丁目22番地,第一保育所東側植樹帯,35.8945646,139.8513716,
埼玉県,吉川市,18-5,きよみ野四丁目10番地,永田公園南側植樹帯,35.8979315,139.8528526,
埼玉県,吉川市,18-6,きよみ野三丁目10番地,東武バス折返し所西側植樹帯,35.89768,139.8501593,
埼玉県,吉川市,18-7,きよみ野四丁目10番地,永田公園北側植樹帯,35.8998196,139.8522732,
埼玉県,吉川市,18-8,きよみ野四丁目4番地,きよみ野東バス停植栽帯,35.8990852,139.8544807,
埼玉県,吉川市,18-9,きよみ野五丁目8番地9,ウッドパ-ク吉川きよみ野東側道路植樹帯,35.8976768,139.8556478,
埼玉県,吉川市,19-1,美南二丁目13番地6,美南一丁目バス停南側植樹帯,35.87081,139.849942,
埼玉県,吉川市,19-2,美南五丁目24番地3,吉川ムサシノ幼稚園駐車場南側フェンス,35.8649257,139.849493,
埼玉県,吉川市,19-3,美南二丁目33番地,吉川美南駅西口周辺,35.8676623,139.8584775,
埼玉県,吉川市,19-4,美南四丁目17番地,美南地区公民館入口東側フェンス,35.8638501,139.8524324,
埼玉県,吉川市,19-5,美南五丁目17番地4,駅南ポンプ場南側植栽,35.8675796,139.8493785,
埼玉県,吉川市,19-6,美南三丁目12番地12,イオンタウン吉川美南(アネックス館)北側植樹帯,35.8659583,139.855773,
埼玉県,吉川市,19-7,美南二丁目5番地,美南中央公園東側植樹帯,35.8690599,139.8527181,
埼玉県,吉川市,19-8,美南二丁目26番地,美南2丁目公園西側フェンス,35.8690186,139.855055,
