prefecture,city,number,address,name,lat,long,note
埼玉県,川口市,1-1,青木2-1-1,川口市役所西側附近,35.807274,139.72377,緯度経度は怪しい
埼玉県,川口市,1-2,栄町2-7-14,masked,35.802456,139.72319,緯度経度は怪しい
埼玉県,川口市,1-3,幸町1-2,幸一ミレニアム公園附近,35.805725,139.721313,緯度経度は怪しい
埼玉県,川口市,1-4,栄町1-6,栄町1丁目公園附近,35.803291,139.727844,緯度経度は怪しい
埼玉県,川口市,1-5,栄町1-12,アロッジオウチダ附近,35.802231,139.727798,緯度経度は怪しい
埼玉県,川口市,1-6,栄町1-19-15,川口栄町第2市街地住宅附近,35.803566,139.729706,緯度経度は怪しい
埼玉県,川口市,1-7,栄町1-2-19,栄町保育所附近,35.804527,139.727097,緯度経度は怪しい
埼玉県,川口市,1-8,栄町2-1,栄町サン緑地附近,35.803223,139.721725,緯度経度は怪しい
埼玉県,川口市,2-1,幸町3-8-33,幸栄公民館入口附近,35.805706,139.718384,緯度経度は怪しい
埼玉県,川口市,2-2,幸町2-8-13,民家附近,35.807774,139.718597,緯度経度は怪しい
埼玉県,川口市,2-3,幸町2-5,幸町第1公園附近,35.806324,139.719406,緯度経度は怪しい
埼玉県,川口市,2-4,栄町3-11-24,コミュニティプラザ東側附近,35.803963,139.719757,緯度経度は怪しい
埼玉県,川口市,2-5,幸町3-6,幸町3丁目あかつき公園附近,35.805672,139.716415,緯度経度は怪しい
埼玉県,川口市,2-6,幸町3-1,幸町自転車駐輪場附近,35.804832,139.715454,緯度経度は怪しい
埼玉県,川口市,2-7,栄町3-6,川口駅東口バス停④番のりば附近,35.802383,139.717957,緯度経度は怪しい
埼玉県,川口市,2-8,幸町2-10,幸町2丁目公園西側附近,35.808685,139.718399,緯度経度は怪しい
埼玉県,川口市,3-1,本町3-9,本町公園東側附近,35.801331,139.722885,緯度経度は怪しい
埼玉県,川口市,3-2,本町3-5,本町緑地附近,35.799213,139.722626,緯度経度は怪しい
埼玉県,川口市,3-3,本町3-10,本三公園西側附近,35.802109,139.723053,緯度経度は怪しい
埼玉県,川口市,3-4,本町4-1-11,㈱カト-薬院前附近,35.800991,139.720398,緯度経度は怪しい
埼玉県,川口市,3-5,本町3-4-3,ソフィア川口ブラン附近,35.799774,139.722427,緯度経度は怪しい
埼玉県,川口市,3-6,本町3-11,本町3丁目月極臨時駐車場附近,35.801872,139.724411,緯度経度は怪しい
埼玉県,川口市,3-7,本町4-7,本町四丁目公園附近,35.800339,139.719757,緯度経度は怪しい
埼玉県,川口市,3-8,本町4-2-12,シティプレイスビル附近,35.801918,139.71936,緯度経度は怪しい
埼玉県,川口市,4-1,川口1-1,キュポ・ラ本館棟附近,35.800743,139.718475,緯度経度は怪しい
埼玉県,川口市,4-2,川口1-2,リビオタワ-川口ミドリノ附近,35.79858,139.718842,緯度経度は怪しい
埼玉県,川口市,4-3,金山町3,金山町公園附近,35.798119,139.721298,緯度経度は怪しい
埼玉県,川口市,4-4,川口1-5-14,スカイフロントタワ-川口附近,35.796169,139.720291,緯度経度は怪しい
埼玉県,川口市,4-5,金山町14,金山町緑地附近,35.796116,139.722641,緯度経度は怪しい
埼玉県,川口市,4-6,川口1-3,南寿町公園附近,35.797062,139.718582,緯度経度は怪しい
埼玉県,川口市,4-7,金山町6,川口神社公園附近,35.798103,139.722672,緯度経度は怪しい
埼玉県,川口市,4-8,川口1-1,キュポ・ラ分譲住宅棟附近,35.800743,139.718475,緯度経度は怪しい
埼玉県,川口市,5-1,本町2-5,本町二丁目公園附近,35.800877,139.725708,緯度経度は怪しい
埼玉県,川口市,5-2,本町1-5,本一公園附近,35.796268,139.724487,緯度経度は怪しい
埼玉県,川口市,5-3,本町2-1-8,民家附近,35.797894,139.725235,緯度経度は怪しい
埼玉県,川口市,5-4,本町2-4-6,本町小学校南側附近,35.799686,139.724716,緯度経度は怪しい
埼玉県,川口市,5-5,本町2-4-6,本町小学校西側附近,35.799686,139.724716,緯度経度は怪しい
埼玉県,川口市,5-6,本町1-8,本町1丁目広場遊園附近,35.794701,139.723816,緯度経度は怪しい
埼玉県,川口市,5-7,本町2-12-45,佐々木ビル附近,35.80167,139.72905,緯度経度は怪しい
埼玉県,川口市,6-1,元郷2-15-20,元郷南小学校グラウンド北側附近,35.798161,139.731033,緯度経度は怪しい
埼玉県,川口市,6-2,元郷2-11,元郷第7公園附近,35.794865,139.731735,緯度経度は怪しい
埼玉県,川口市,6-3,元郷3-15-23,元郷3丁目公園附近,35.794094,139.735931,緯度経度は怪しい
埼玉県,川口市,6-4,元郷3-22-23,伊藤鉄工㈱附近,35.792389,139.736008,緯度経度は怪しい
埼玉県,川口市,6-5,元郷2-15-20,元郷南小学校南側附近,35.798161,139.731033,緯度経度は怪しい
埼玉県,川口市,6-6,元郷4-11,元郷避難広場西側附近,35.796753,139.735336,緯度経度は怪しい
埼玉県,川口市,6-7,元郷2-15-3,サミットストア-川口エルザタワ-店前植込附近,35.796741,139.729401,緯度経度は怪しい
埼玉県,川口市,6-8,元郷2-15-3,川口第1クリニック前植込附近,35.796741,139.729401,緯度経度は怪しい
埼玉県,川口市,7-1,元郷1-2,芝川公園附近,35.80035,139.729446,緯度経度は怪しい
埼玉県,川口市,7-2,末広1-21,末広1丁目第1公園附近,35.80275,139.735825,緯度経度は怪しい
埼玉県,川口市,7-3,末広1-26,末広1丁目第2公園附近,35.802071,139.737915,緯度経度は怪しい
埼玉県,川口市,7-4,元郷1-31,元郷第5公園西側附近,35.80027,139.734146,緯度経度は怪しい
埼玉県,川口市,7-5,元郷1-8-4,元郷住宅附近,35.799747,139.731857,緯度経度は怪しい
埼玉県,川口市,7-6,元郷1-31,元郷第5公園南側附近,35.80027,139.734146,緯度経度は怪しい
埼玉県,川口市,7-7,元郷1-2,川口元郷地下自転車駐輪場附近,35.80035,139.729446,緯度経度は怪しい
埼玉県,川口市,7-8,末広1-21-17,末広1丁目第1公園附近,35.802483,139.736099,緯度経度は怪しい
埼玉県,川口市,8-1,朝日1-3,朝日中央公園西側附近,35.809616,139.7323,緯度経度は怪しい
埼玉県,川口市,8-2,朝日1-1,朝日1丁目公園附近,35.807922,139.731171,緯度経度は怪しい
埼玉県,川口市,8-3,朝日1-3,朝日中央公園北側附近,35.809616,139.7323,緯度経度は怪しい
埼玉県,川口市,8-4,朝日1-11-3,十二月田中学校正門附近,35.806507,139.734268,緯度経度は怪しい
埼玉県,川口市,8-5,朝日1-11-3,十二月田中学校東側附近,35.806507,139.734268,緯度経度は怪しい
埼玉県,川口市,8-6,朝日1-11-1,十二月田小学校西側附近,35.806229,139.734222,緯度経度は怪しい
埼玉県,川口市,8-7,朝日1-20,朝日1丁目東公園附近,35.807392,139.736816,緯度経度は怪しい
埼玉県,川口市,8-8,朝日1-1-15,masked,35.807987,139.731842,緯度経度は怪しい
埼玉県,川口市,9-1,朝日2-3,朝日町北公園西側附近,35.814674,139.730728,緯度経度は怪しい
埼玉県,川口市,9-2,朝日2-16,朝日町公園西側附近,35.811813,139.733231,緯度経度は怪しい
埼玉県,川口市,9-3,朝日2-16,朝日町公園南側附近,35.811813,139.733231,緯度経度は怪しい
埼玉県,川口市,9-4,朝日3-16,朝日高層住宅附近,35.810272,139.739441,緯度経度は怪しい
埼玉県,川口市,9-5,朝日3-10-10,朝日三丁目北バス停附近,35.811981,139.737061,緯度経度は怪しい
埼玉県,川口市,9-6,朝日3-17,朝日3丁目公園附近,35.80954,139.73848,緯度経度は怪しい
埼玉県,川口市,9-7,朝日2-3,朝日町北公園南側附近,35.814674,139.730728,緯度経度は怪しい
埼玉県,川口市,9-8,朝日2-1,朝日2丁目公園附近,35.810665,139.730667,緯度経度は怪しい
埼玉県,川口市,10-1,朝日4-21,川口市朝日環境センタ-東側附近,35.812885,139.743439,緯度経度は怪しい
埼玉県,川口市,10-2,朝日4-1,永井駐車場附近,35.81168,139.738724,緯度経度は怪しい
埼玉県,川口市,10-3,朝日4-12,二軒在家公園西側附近,35.811142,139.743866,緯度経度は怪しい
埼玉県,川口市,10-4,朝日4-18,朝日西小学校グラウンド附近,35.80983,139.741211,緯度経度は怪しい
埼玉県,川口市,10-5,朝日4-17-12,朝日西小学校東側附近,35.810215,139.742432,緯度経度は怪しい
埼玉県,川口市,10-6,朝日4-17-12,朝日西小学校西側附近,35.810215,139.742432,緯度経度は怪しい
埼玉県,川口市,10-7,朝日4-17-12,朝日西小学校北側附近,35.810215,139.742432,緯度経度は怪しい
埼玉県,川口市,11-1,朝日5-14-22,朝日東高層住宅附近,35.805859,139.748428,緯度経度は怪しい
埼玉県,川口市,11-2,朝日5-15-1,朝日東小学校正門附近,35.806587,139.749283,緯度経度は怪しい
埼玉県,川口市,11-3,朝日5-15,朝日東小学校グラウンド南側附近,35.806587,139.749283,緯度経度は怪しい
埼玉県,川口市,11-4,朝日6-15,朝日6丁目日の出公園附近,35.80619,139.744751,緯度経度は怪しい
埼玉県,川口市,11-5,朝日5-4,朝日東第2公園附近,35.810608,139.746567,緯度経度は怪しい
埼玉県,川口市,11-6,弥平2-16,弥平町公園西側附近,35.801502,139.750702,緯度経度は怪しい
埼玉県,川口市,11-7,弥平2-3,南平児童交通公園附近,35.804325,139.748428,緯度経度は怪しい
埼玉県,川口市,12-1,末広3-11,末広3丁目公園北側附近,35.804028,139.743362,緯度経度は怪しい
埼玉県,川口市,12-2,末広3-11,末広3丁目公園南側附近,35.804028,139.743362,緯度経度は怪しい
埼玉県,川口市,12-3,末広3-2-6,朝日町三丁目バス停附近,35.808601,139.741364,緯度経度は怪しい
埼玉県,川口市,12-4,末広3-7-21,南平福祉会館附近,35.805828,139.743576,緯度経度は怪しい
埼玉県,川口市,12-5,末広3-11,末広3丁目公園東側附近,35.804028,139.743362,緯度経度は怪しい
埼玉県,川口市,12-6,末広2-6,末広2丁目公園北側附近,35.805389,139.73761,緯度経度は怪しい
埼玉県,川口市,12-7,末広2-6,末広2丁目公園南側附近,35.805389,139.73761,緯度経度は怪しい
埼玉県,川口市,13-1,新井町15,新井町公園西側附近,35.801819,139.740067,緯度経度は怪しい
埼玉県,川口市,13-2,元郷5-28,元郷第3公園附近,35.799679,139.740906,緯度経度は怪しい
埼玉県,川口市,13-3,元郷6-2-1,元郷小学校南側附近,35.80035,139.74147,緯度経度は怪しい
埼玉県,川口市,13-4,元郷6-2-1,元郷小学校北側附近,35.80035,139.74147,緯度経度は怪しい
埼玉県,川口市,13-5,弥平1-8,弥平1丁目公園西側附近,35.801613,139.746048,緯度経度は怪しい
埼玉県,川口市,13-6,新井町15,新井町公園東側附近,35.801819,139.740067,緯度経度は怪しい
埼玉県,川口市,13-7,元郷5-21,元郷第4公園附近,35.797546,139.738129,緯度経度は怪しい
埼玉県,川口市,13-8,弥平1-8,弥平1丁目公園東側附近,35.801613,139.746048,緯度経度は怪しい
埼玉県,川口市,14-1,領家2-29,領家第6公園東側附近,35.795345,139.745132,緯度経度は怪しい
埼玉県,川口市,14-2,領家1-15,領家第8公園附近,35.796803,139.741989,緯度経度は怪しい
埼玉県,川口市,14-3,領家2-5,領家中学校テニスコ-ト南側附近,35.79385,139.739685,緯度経度は怪しい
埼玉県,川口市,14-4,領家2-11-15,領家中学校附近,35.793701,139.741516,緯度経度は怪しい
埼玉県,川口市,14-5,領家2-14-11,松葉幼稚園南側稲荷神社附近,35.795147,139.742386,緯度経度は怪しい
埼玉県,川口市,14-6,領家2-3,領家第9公園附近,35.79377,139.739044,緯度経度は怪しい
埼玉県,川口市,14-7,領家2-29,領家第6公園南側附近,35.795345,139.745132,緯度経度は怪しい
埼玉県,川口市,15-1,弥平4-13,弥平4丁目公園附近,35.797245,139.756592,緯度経度は怪しい
埼玉県,川口市,15-2,東領家1-4,領家第7公園附近,35.797771,139.746292,緯度経度は怪しい
埼玉県,川口市,15-3,東領家1-8-3,元郷中学校北側附近,35.799664,139.747208,緯度経度は怪しい
埼玉県,川口市,15-4,東領家2-28,東スポ-ツセンタ-　テニスコ-ト附近,35.79821,139.750183,緯度経度は怪しい
埼玉県,川口市,15-5,東領家2-27-1,東スポ-ツセンタ-東側附近,35.797733,139.750046,緯度経度は怪しい
埼玉県,川口市,15-6,東領家3-2,領家第5公園附近,35.79335,139.750015,緯度経度は怪しい
埼玉県,川口市,15-7,東領家3-10-11,民家附近,35.795448,139.754471,緯度経度は怪しい
埼玉県,川口市,16-1,東領家4-6,花の枝橋附近,35.793205,139.75621,緯度経度は怪しい
埼玉県,川口市,16-2,東領家4-12,飯塚児童公園附近,35.794434,139.757446,緯度経度は怪しい
埼玉県,川口市,16-3,東領家5-20,稲荷橋附近,35.791359,139.754333,緯度経度は怪しい
埼玉県,川口市,16-4,東領家5-8,領家第4公園西側附近,35.789112,139.752853,緯度経度は怪しい
埼玉県,川口市,16-5,東領家5-4-1,東領家住宅附近,35.78727,139.752426,緯度経度は怪しい
埼玉県,川口市,17-1,領家3-9-2,領家四丁目バス停附近,35.792858,139.745056,緯度経度は怪しい
埼玉県,川口市,17-2,領家3-14-1,領家小学校北側附近,35.791981,139.74791,緯度経度は怪しい
埼玉県,川口市,17-3,領家3-14-1,領家小学校西側附近,35.791981,139.74791,緯度経度は怪しい
埼玉県,川口市,17-4,領家4-7,榎木橋バス停附近,35.788818,139.746475,緯度経度は怪しい
埼玉県,川口市,17-5,領家4-3,椰木ノ原公園附近,35.79237,139.741806,緯度経度は怪しい
埼玉県,川口市,17-6,領家3-17-29,㈲城南紙工社附近,35.789318,139.747864,緯度経度は怪しい
埼玉県,川口市,17-7,領家5-7,NET47附近,35.788246,139.742081,緯度経度は怪しい
埼玉県,川口市,18-1,川口3-1,川口駅西口緑地帯附近,35.800964,139.716476,緯度経度は怪しい
埼玉県,川口市,18-2,飯塚1-4,川口住宅4号棟附近,35.798767,139.716461,緯度経度は怪しい
埼玉県,川口市,18-3,川口2-8,masked,35.799191,139.717026,緯度経度は怪しい
埼玉県,川口市,18-4,飯塚1-4,川口住宅北側公園附近,35.798767,139.716461,緯度経度は怪しい
埼玉県,川口市,18-5,飯塚1-7,飯塚氷川公園附近,35.798801,139.715622,緯度経度は怪しい
埼玉県,川口市,18-6,川口2-15,西寿町公園附近,35.796448,139.714905,緯度経度は怪しい
埼玉県,川口市,18-7,飯塚1-3-26,ジェム川口プライムアベニュ-附近,35.799999,139.715118,緯度経度は怪しい
埼玉県,川口市,18-8,飯塚1-9,飯塚1丁目第2月極臨時駐車場附近,35.798923,139.713943,緯度経度は怪しい
埼玉県,川口市,19-1,川口6-3-3,妙仙寺附近,35.802933,139.710983,緯度経度は怪しい
埼玉県,川口市,19-2,川口3-3-2,コモディ　イイダ　川口リプレ店附近,35.80109,139.715195,緯度経度は怪しい
埼玉県,川口市,19-3,川口6-1,ヘア-サロンこぶし附近,35.803307,139.711761,緯度経度は怪しい
埼玉県,川口市,19-4,飯塚2-3-3,市立西公民館附近,35.801811,139.713013,緯度経度は怪しい
埼玉県,川口市,19-5,川口4-10,リリアパ-ク錦町広場北側附近,35.803841,139.715347,緯度経度は怪しい
埼玉県,川口市,19-6,川口4-10,リリアパ-ク錦町広場西側附近,35.803841,139.715347,緯度経度は怪しい
埼玉県,川口市,19-7,川口3-2,リプレ川口一番街7号棟附近,35.802456,139.715195,緯度経度は怪しい
埼玉県,川口市,19-8,飯塚1-1,飯塚1丁目公園附近,35.800858,139.714569,緯度経度は怪しい
埼玉県,川口市,20-1,飯塚3-14,飯塚3丁目公園南側附近,35.799019,139.708984,緯度経度は怪しい
埼玉県,川口市,20-2,飯塚2-11-1,飯塚小学校東側附近,35.799084,139.712158,緯度経度は怪しい
埼玉県,川口市,20-3,飯塚2-11-1,飯塚小学校南側附近,35.799084,139.712158,緯度経度は怪しい
埼玉県,川口市,20-4,飯塚3-14,飯塚3丁目公園東側附近,35.799019,139.708984,緯度経度は怪しい
埼玉県,川口市,20-5,飯塚3-11-6,飯塚ポンプ室附近,35.800163,139.709671,緯度経度は怪しい
埼玉県,川口市,20-6,飯塚4-5-2,飯塚西住宅附近,35.797821,139.710083,緯度経度は怪しい
埼玉県,川口市,20-7,飯塚4-16-12,飯塚4丁目住宅附近,35.795532,139.713425,緯度経度は怪しい
埼玉県,川口市,21-1,飯原町8-10,県営川口飯原団地附近,35.797667,139.7060483,
埼玉県,川口市,21-2,緑町1,masked,35.805649,139.697113,緯度経度は怪しい
埼玉県,川口市,21-3,原町14-9,原町住宅附近,35.8001482,139.7060159,
埼玉県,川口市,21-4,宮町12,宮町公園南側附近,35.803665,139.699341,緯度経度は怪しい
埼玉県,川口市,21-5,宮町16-1,西中学校附近,35.8011346,139.7029392,
埼玉県,川口市,21-6,緑町4,かわきん橋附近,35.804588,139.696793,緯度経度は怪しい
埼玉県,川口市,21-7,飯原町6-50,原町小学校北側附近,35.7995418,139.7041653,
埼玉県,川口市,22-1,南町2-5,関東農政局土地改良技術事務所附近,35.804043,139.705978,緯度経度は怪しい
埼玉県,川口市,22-2,南町1-11,南町1丁目緑地附近,35.80204,139.705338,緯度経度は怪しい
埼玉県,川口市,22-3,南町1-9-20,川口市保健センタ-西側附近,35.802845,139.702545,緯度経度は怪しい
埼玉県,川口市,22-4,南町2-5,南町公園グラウンド南側附近,35.804043,139.705978,緯度経度は怪しい
埼玉県,川口市,22-5,南町2-5,南町公園グラウンド西側附近,35.804043,139.705978,緯度経度は怪しい
埼玉県,川口市,22-6,南町2-6,南町2丁目公園附近,35.804825,139.704453,緯度経度は怪しい
埼玉県,川口市,22-7,南町1-2-26,民家附近,35.803242,139.703705,緯度経度は怪しい
埼玉県,川口市,23-1,川口5-10,仲町1丁目公園東側附近,35.805485,139.710281,緯度経度は怪しい
埼玉県,川口市,23-2,川口5-10,仲町1丁目公園北側附近,35.805485,139.710281,緯度経度は怪しい
埼玉県,川口市,23-3,川口6-5,仙太郎第2公園西側附近,35.804249,139.710266,緯度経度は怪しい
埼玉県,川口市,23-4,南町2-3-1,飯仲小学校北側附近,35.804047,139.707977,緯度経度は怪しい
埼玉県,川口市,23-5,南町2-3-1,飯仲小学校西側附近,35.804047,139.707977,緯度経度は怪しい
埼玉県,川口市,23-6,川口6-9-29,市立西スポ-ツセンタ-西側附近,35.804897,139.708786,緯度経度は怪しい
埼玉県,川口市,23-7,川口6-6,仙太郎第1公園西側附近,35.803368,139.709625,緯度経度は怪しい
埼玉県,川口市,24-1,並木1-8,並木町南公園附近,35.811024,139.7117,緯度経度は怪しい
埼玉県,川口市,24-2,並木元町1,並木元町北公園北側附近,35.808853,139.71376,緯度経度は怪しい
埼玉県,川口市,24-3,並木元町1,Ario西側附近,35.808853,139.71376,緯度経度は怪しい
埼玉県,川口市,24-4,並木1-8-29,並木南保育所附近,35.811279,139.712036,緯度経度は怪しい
埼玉県,川口市,24-5,並木元町1,Ario西側立体駐車場附近,35.808853,139.71376,緯度経度は怪しい
埼玉県,川口市,24-6,並木1-24-1,並木小学校西側附近,35.811909,139.713364,緯度経度は怪しい
埼玉県,川口市,24-7,並木1-24-1,並木小学校南側附近,35.811909,139.713364,緯度経度は怪しい
埼玉県,川口市,24-8,並木元町1,Ario東側附近,35.808853,139.71376,緯度経度は怪しい
埼玉県,川口市,25-1,西川口5-9-6,masked,35.808655,139.704422,緯度経度は怪しい
埼玉県,川口市,25-2,西川口3-24-13,西福寺西側附近,35.810318,139.7034,緯度経度は怪しい
埼玉県,川口市,25-3,西川口3-18,南消防署横曽根分署西側附近,35.812256,139.704681,緯度経度は怪しい
埼玉県,川口市,25-4,西川口4-8,西川口4丁目公園北側附近,35.809986,139.70755,緯度経度は怪しい
埼玉県,川口市,25-5,西川口5-1-6,北町耐火住宅南側附近,35.809166,139.705688,緯度経度は怪しい
埼玉県,川口市,25-6,西川口5-1-6,北町耐火住宅東側附近,35.809166,139.705688,緯度経度は怪しい
埼玉県,川口市,25-7,西川口3-6,北町公園附近,35.812435,139.706131,緯度経度は怪しい
埼玉県,川口市,26-1,西川口5-6-1,仲町小学校北側附近,35.807125,139.703857,緯度経度は怪しい
埼玉県,川口市,26-2,仲町5,仲町ふれあい公園附近,35.8059428,139.7040013,
埼玉県,川口市,26-3,西川口5-6-1,仲町小学校南側附近,35.807125,139.703857,緯度経度は怪しい
埼玉県,川口市,26-4,西川口5-6-1,仲町小学校東側附近,35.807125,139.703857,緯度経度は怪しい
埼玉県,川口市,26-5,仲町2-25,masked,35.8064234,139.7078923,
埼玉県,川口市,26-6,仲町10-16,横曽根公民館附近,35.8074748,139.7054482,
埼玉県,川口市,26-7,西川口5-13-6,仲町耐火住宅附近,35.808388,139.703217,緯度経度は怪しい
埼玉県,川口市,27-1,西川口6-19,masked,35.806927,139.698517,緯度経度は怪しい
埼玉県,川口市,27-2,西川口2-15-12,民家附近,35.810402,139.700317,緯度経度は怪しい
埼玉県,川口市,27-3,西川口6-16,仲町公園西側附近,35.808037,139.699524,緯度経度は怪しい
埼玉県,川口市,27-4,西川口6-8-30,(有)伍輪製作所附近,35.806793,139.701523,緯度経度は怪しい
埼玉県,川口市,27-5,西川口6-18,ララガ-デン北側附近,35.806873,139.698975,緯度経度は怪しい
埼玉県,川口市,27-6,西川口6-16-32,西川口自転車等保管場所附近,35.808411,139.699585,緯度経度は怪しい
埼玉県,川口市,27-7,西川口6-16,仲町公園南側附近,35.808037,139.699524,緯度経度は怪しい
埼玉県,川口市,28-1,西川口1-39,西川口西公園附近,35.814877,139.699478,緯度経度は怪しい
埼玉県,川口市,28-2,西川口2-16-27,メゾンサラ附近,35.810299,139.699081,緯度経度は怪しい
埼玉県,川口市,28-3,西川口2-13,仁志町児童遊園東側附近,35.812309,139.700211,緯度経度は怪しい
埼玉県,川口市,28-4,西川口1-4,西川口パ-クハウス附近,35.81443,139.704651,緯度経度は怪しい
埼玉県,川口市,28-5,西川口1-31,西川口中公園南側附近,35.814644,139.701233,緯度経度は怪しい
埼玉県,川口市,28-6,西川口2-16-1,仲町中学校附近,35.812054,139.699799,緯度経度は怪しい
埼玉県,川口市,28-7,西川口2-18,masked,35.812923,139.699326,緯度経度は怪しい
埼玉県,川口市,29-1,並木3-16,並木町西公園附近,35.81781,139.702774,緯度経度は怪しい
埼玉県,川口市,29-2,並木4-2,プロシ-ド西川口附近,35.81929,139.709091,緯度経度は怪しい
埼玉県,川口市,29-3,並木4-21,並木4丁目公園南側附近,35.823242,139.708679,緯度経度は怪しい
埼玉県,川口市,29-4,並木2-8,並木町東児童遊園西側附近,35.816612,139.709,緯度経度は怪しい
埼玉県,川口市,29-5,並木4-21,並木4丁目公園東側附近,35.823242,139.708679,緯度経度は怪しい
埼玉県,川口市,29-6,並木4-25-1,並木4丁目住宅附近,35.823887,139.708817,緯度経度は怪しい
埼玉県,川口市,29-7,並木2-8,並木町東児童遊園東側附近,35.816612,139.709,緯度経度は怪しい
埼玉県,川口市,29-8,並木3-33,並木町北公園西側附近,35.818581,139.706345,緯度経度は怪しい
埼玉県,川口市,30-1,西青木2-3-53,幸並中学校南側附近,35.816223,139.711243,緯度経度は怪しい
埼玉県,川口市,30-2,西青木2-3-53,幸並中学校北側附近,35.816223,139.711243,緯度経度は怪しい
埼玉県,川口市,30-3,西青木2-13-1,川口県税事務所南側附近,35.815487,139.713577,緯度経度は怪しい
埼玉県,川口市,30-4,西青木2-13-1,川口県税事務所東側附近,35.815487,139.713577,緯度経度は怪しい
埼玉県,川口市,30-5,西青木3-5-4,青木保育所附近,35.818436,139.710419,緯度経度は怪しい
埼玉県,川口市,30-6,西青木3-15-10,masked,35.819942,139.714417,緯度経度は怪しい
埼玉県,川口市,30-7,西青木2-3-11,ＮＴＴ川口支店青木営業所附近,35.816971,139.710098,緯度経度は怪しい
埼玉県,川口市,31-1,中青木3-18-7,青木公民館附近,35.815575,139.718521,緯度経度は怪しい
埼玉県,川口市,31-2,中青木3-10-20,中青木公園南側附近,35.813782,139.718445,緯度経度は怪しい
埼玉県,川口市,31-3,並木1-26-1,芝西中学校陽春分校南側附近,35.811958,139.713608,緯度経度は怪しい
埼玉県,川口市,31-4,西青木1-1-1,青木北小学校北側附近,35.813755,139.7155,緯度経度は怪しい
埼玉県,川口市,31-5,並木1-26-1,芝西中学校陽春分校北側附近,35.811958,139.713608,緯度経度は怪しい
埼玉県,川口市,31-6,並木1-26-1,芝西中学校陽春分校正門附近,35.811958,139.713608,緯度経度は怪しい
埼玉県,川口市,31-7,中青木3-10-20,中青木公園東側附近,35.813782,139.718445,緯度経度は怪しい
埼玉県,川口市,32-1,中青木2-18,青三北公園附近,35.812439,139.720917,緯度経度は怪しい
埼玉県,川口市,32-2,中青木1-1,青三南公園附近,35.807148,139.721039,緯度経度は怪しい
埼玉県,川口市,32-3,中青木2-22,青木町3丁目広場遊園附近,35.811531,139.722229,緯度経度は怪しい
埼玉県,川口市,32-4,中青木2-3,青三公園附近,35.809963,139.718048,緯度経度は怪しい
埼玉県,川口市,32-5,中青木2-20-31,川口市文化財課中青木分室東側附近,35.809914,139.72197,緯度経度は怪しい
埼玉県,川口市,32-6,中青木2-20-31,川口市文化財課中青木分室南側附近,35.809914,139.72197,緯度経度は怪しい
埼玉県,川口市,32-7,中青木2-21-5,青木中央小学校附近,35.810028,139.722,緯度経度は怪しい
埼玉県,川口市,33-1,青木2-11-33,青木東公民館附近,35.809689,139.728882,緯度経度は怪しい
埼玉県,川口市,33-2,青木1-4-4,南青木保育所附近,35.80669,139.724869,緯度経度は怪しい
埼玉県,川口市,33-3,青木2-15,masked,35.809875,139.729691,緯度経度は怪しい
埼玉県,川口市,33-4,青木1-15,青木1丁目公園東側附近,35.805855,139.729279,緯度経度は怪しい
埼玉県,川口市,33-5,青木2-8,青木2丁目第3公園北側附近,35.808147,139.726929,緯度経度は怪しい
埼玉県,川口市,33-6,青木1-15-5,青木橋スカイハイツ附近,35.805737,139.728714,緯度経度は怪しい
埼玉県,川口市,33-7,青木2-8,青木2丁目第3公園西側附近,35.808147,139.726929,緯度経度は怪しい
埼玉県,川口市,33-8,青木2-3,青木2丁目第2公園附近,35.809223,139.724762,緯度経度は怪しい
埼玉県,川口市,34-1,青木3-5-1,埼京日酸㈱附近,35.811272,139.723907,緯度経度は怪しい
埼玉県,川口市,34-2,青木4-27,青木4丁目公園南側附近,35.815033,139.728699,緯度経度は怪しい
埼玉県,川口市,34-3,青木3-17-11,青木三丁目分室西側附近,35.813915,139.727325,緯度経度は怪しい
埼玉県,川口市,34-4,青木4-24,青木町2丁目公園附近,35.81432,139.726456,緯度経度は怪しい
埼玉県,川口市,34-5,青木4-7,青木4丁目公用車置場附近,35.813808,139.722855,緯度経度は怪しい
埼玉県,川口市,34-6,青木4-24-16,旧青木東保育所附近,35.814789,139.726273,緯度経度は怪しい
埼玉県,川口市,34-7,青木4-20-3,道路維持課分室附近,35.816978,139.726379,緯度経度は怪しい
埼玉県,川口市,35-1,青木5-1-1,青木中学校正門附近,35.815975,139.720764,緯度経度は怪しい
埼玉県,川口市,35-2,青木5-1-1,青木中学校北側附近,35.815975,139.720764,緯度経度は怪しい
埼玉県,川口市,35-3,青木5-21,オ-トレ-ス場附近,35.819363,139.724823,緯度経度は怪しい
埼玉県,川口市,35-4,中青木4-9-32,民家附近,35.815639,139.717468,緯度経度は怪しい
埼玉県,川口市,35-5,青木5-13,川口市上下水道局西側附近,35.820118,139.722672,緯度経度は怪しい
埼玉県,川口市,35-6,青木5-21,オ-トレ-ス場附近,35.819363,139.724823,緯度経度は怪しい
埼玉県,川口市,35-7,青木5-9,増田児童公園附近,35.82082,139.720398,緯度経度は怪しい
埼玉県,川口市,36-1,上青木1-6-43,上青木南小学校附近,35.822041,139.718903,緯度経度は怪しい
埼玉県,川口市,36-2,上青木2-1,堅川樋門公園附近,35.823315,139.723724,緯度経度は怪しい
埼玉県,川口市,36-3,上青木2-12-14,民家附近,35.827728,139.724228,緯度経度は怪しい
埼玉県,川口市,36-4,上青木2-18-30,安楽寺附近,35.828548,139.722748,緯度経度は怪しい
埼玉県,川口市,36-5,上青木2-27,上青木氷川公園,35.829033,139.725311,緯度経度は怪しい
埼玉県,川口市,36-6,上青木3-1-40,川口市立高校テニスコ-ト附近,35.827251,139.718979,緯度経度は怪しい
埼玉県,川口市,36-7,上青木3-1-40,川口市立高校南側駐車場附近,35.827251,139.718979,緯度経度は怪しい
埼玉県,川口市,36-8,上青木3-16,上青木南公園東側附近,35.826305,139.721344,緯度経度は怪しい
埼玉県,川口市,37-1,上青木西1-2-25,生涯学習プラザ北側附近,35.823906,139.712082,緯度経度は怪しい
埼玉県,川口市,37-2,上青木西2-8-18,上青木公民館附近,35.825768,139.716614,緯度経度は怪しい
埼玉県,川口市,37-3,西青木4-8-1,青木町公園相撲場附近,35.820686,139.709641,緯度経度は怪しい
埼玉県,川口市,37-4,西青木4-8-1,青木町公園第1駐車場附近,35.820686,139.709641,緯度経度は怪しい
埼玉県,川口市,37-5,西青木4-8-1,青木町公園テニス場附近,35.820686,139.709641,緯度経度は怪しい
埼玉県,川口市,37-6,西青木4-8-1,青木町公園野球場附近,35.820686,139.709641,緯度経度は怪しい
埼玉県,川口市,37-7,西青木5-3-4,青木町公園体育武道センタ-附近,35.821564,139.713898,緯度経度は怪しい
埼玉県,川口市,37-8,上青木西2-12,中央通り公園南側附近,35.823521,139.716309,緯度経度は怪しい
埼玉県,川口市,38-1,上青木西3-8-25,上青木小学校東側附近,35.828999,139.717407,緯度経度は怪しい
埼玉県,川口市,38-2,上青木西3-9-1,上青木中学校附近,35.826942,139.716019,緯度経度は怪しい
埼玉県,川口市,38-3,上青木西4-27,上青木西公園附近,35.827797,139.712845,緯度経度は怪しい
埼玉県,川口市,38-4,上青木西5-4-15,サマックスピアニ-附近,35.830994,139.714951,緯度経度は怪しい
埼玉県,川口市,38-5,上青木西5-11-1,上青木住宅附近,35.832432,139.715881,緯度経度は怪しい
埼玉県,川口市,38-6,上青木西3-8-25,上青木小学校北側附近,35.828999,139.717407,緯度経度は怪しい
埼玉県,川口市,38-7,上青木西5-7,上青木北西公園附近,35.832432,139.714584,緯度経度は怪しい
埼玉県,川口市,39-1,上青木5-20-11,masked,35.832645,139.725723,緯度経度は怪しい
埼玉県,川口市,39-2,上青木4-17,上青木北公園南側附近,35.831863,139.720886,緯度経度は怪しい
埼玉県,川口市,39-3,上青木5-5,上青木保育所附近,35.83176,139.724304,緯度経度は怪しい
埼玉県,川口市,39-4,上青木4-17,上青木北公園東側附近,35.831863,139.720886,緯度経度は怪しい
埼玉県,川口市,39-5,上青木4-2-10,B-SAT川口放送衛星管制センタ-附近,35.830818,139.717575,緯度経度は怪しい
埼玉県,川口市,39-6,上青木4-13,上青木スポ-ツ広場南側附近,35.830498,139.720261,緯度経度は怪しい
埼玉県,川口市,39-7,上青木5-14-3,masked,35.833206,139.723358,緯度経度は怪しい
埼玉県,川口市,40-1,前川3-23,前川第2公園東側附近,35.838768,139.711914,緯度経度は怪しい
埼玉県,川口市,40-2,前川2-13,前川第6公園南側附近,35.83765,139.714951,緯度経度は怪しい
埼玉県,川口市,40-3,前川1-20,前川第5公園附近,35.834778,139.711502,緯度経度は怪しい
埼玉県,川口市,40-4,前川3-4-27,前川住宅東側附近,35.836643,139.711273,緯度経度は怪しい
埼玉県,川口市,40-5,上青木6-16,上青木公園附近,35.835339,139.719193,緯度経度は怪しい
埼玉県,川口市,40-6,前上町10-1,前川東小学校東側附近,35.8349344,139.7151972,
埼玉県,川口市,40-7,前川2-13,前川第6公園北側附近,35.83765,139.714951,緯度経度は怪しい
埼玉県,川口市,40-8,前上町10-1,前川東小学校北側附近,35.8349344,139.7151972,
埼玉県,川口市,41-1,南前川1-15,前川南グラウンド北側附近,35.826679,139.709686,緯度経度は怪しい
埼玉県,川口市,41-2,南前川1-13,川口工業高等学校旧体育館附近,35.826958,139.708282,緯度経度は怪しい
埼玉県,川口市,41-3,南前川1-7-4,堅前橋ポンプ場附近,35.829426,139.706299,緯度経度は怪しい
埼玉県,川口市,41-4,南前川1-15,前川南グラウンド南側附近,35.826679,139.709686,緯度経度は怪しい
埼玉県,川口市,41-5,南前川2-4,masked,35.831558,139.706589,緯度経度は怪しい
埼玉県,川口市,41-6,南前川2-15-2,前川南保育所附近,35.831657,139.709366,緯度経度は怪しい
埼玉県,川口市,41-7,南前川1-16-5,六円橋バス停附近グリ-ンベルト,35.828091,139.710327,緯度経度は怪しい
埼玉県,川口市,42-1,前川4-3,前川橋附近,35.83683,139.705795,緯度経度は怪しい
埼玉県,川口市,42-2,本前川3-4,前川町第2公園附近,35.844139,139.708313,緯度経度は怪しい
埼玉県,川口市,42-3,本前川2-11,前川小学校裏門附近,35.842052,139.704849,緯度経度は怪しい
埼玉県,川口市,42-4,前川4-32-10,前川4丁目住宅附近,35.840157,139.709045,緯度経度は怪しい
埼玉県,川口市,42-5,前川4-12-12,前川保育所附近,35.838417,139.707535,緯度経度は怪しい
埼玉県,川口市,42-6,前川3-51,前川北公園附近,35.84198,139.713318,緯度経度は怪しい
埼玉県,川口市,42-7,前川4-22,前川第3公園西側附近,35.836285,139.708328,緯度経度は怪しい
埼玉県,川口市,42-8,前川1-8,前川第4公園附近,35.834351,139.709305,緯度経度は怪しい
埼玉県,川口市,43-1,芝高木1-15-18,芝高木住宅Ｂ棟附近,35.842072,139.701157,緯度経度は怪しい
埼玉県,川口市,43-2,芝下3-30,芝高木第3公園南側附近,35.840683,139.702744,緯度経度は怪しい
埼玉県,川口市,43-3,芝東町3-1,芝東中学校南側附近,35.8436635,139.7006405,
埼玉県,川口市,43-4,芝高木2-12,芝スポ-ツセンタ-第1グランド西側附近,35.843536,139.696869,緯度経度は怪しい
埼玉県,川口市,43-5,芝東町16,㈲宮野商事南側附近,35.84367,139.703461,緯度経度は怪しい
埼玉県,川口市,43-6,芝高木2-9-1,芝中央小学校正門附近,35.842228,139.697144,緯度経度は怪しい
埼玉県,川口市,43-7,芝高木2-9-1,芝中央小学校西側附近,35.842228,139.697144,緯度経度は怪しい
埼玉県,川口市,44-1,芝下2-16-8,県営川口芝下団地西側附近,35.837856,139.702759,緯度経度は怪しい
埼玉県,川口市,44-2,芝下2-9-3,民家附近,35.838707,139.701309,緯度経度は怪しい
埼玉県,川口市,44-3,芝下2-1-1,消防本部附近,35.835152,139.701859,緯度経度は怪しい
埼玉県,川口市,44-4,芝1-31-8,旧あさひあ～と附近,35.835201,139.703796,緯度経度は怪しい
埼玉県,川口市,44-5,芝1-19,芝杉橋公園附近,35.834862,139.702133,緯度経度は怪しい
埼玉県,川口市,44-6,芝1-41,芝1丁目公園附近,35.833176,139.704956,緯度経度は怪しい
埼玉県,川口市,44-7,芝下2-29,芝中継ポンプ場附近,35.838604,139.704865,緯度経度は怪しい
埼玉県,川口市,45-1,芝中田2-30,芝中田東公園東側附近,35.828762,139.705521,緯度経度は怪しい
埼玉県,川口市,45-2,芝中田1-28,芝中田西公園北側附近,35.830399,139.69899,緯度経度は怪しい
埼玉県,川口市,45-3,芝中田1-37,芝中田南公園西側附近,35.828793,139.700531,緯度経度は怪しい
埼玉県,川口市,45-4,芝中田1-32-6,masked,35.830944,139.70015,緯度経度は怪しい
埼玉県,川口市,45-5,芝中田1-37,芝中田南公園南側附近,35.828793,139.700531,緯度経度は怪しい
埼玉県,川口市,45-6,芝中田1-28,芝中田西公園南側附近,35.830399,139.69899,緯度経度は怪しい
埼玉県,川口市,45-7,芝中田2-3,芝中田北公園附近,35.830513,139.701904,緯度経度は怪しい
埼玉県,川口市,46-1,芝新町10,masked,35.829178,139.694351,緯度経度は怪しい
埼玉県,川口市,46-2,芝5-18-1,ｃｈａｒｍａｎｔＭ附近,35.830574,139.694794,緯度経度は怪しい
埼玉県,川口市,46-3,芝新町5-1,㈱須賀建設前附近グリ-ンベルト,35.828981,139.6924016,
埼玉県,川口市,46-4,芝新町12-30,masked,35.8284882,139.6958407,
埼玉県,川口市,46-5,芝新町18-30,masked,35.8282137,139.6971816,
埼玉県,川口市,46-6,芝5-13-23,エ-ユ-ハイム附近,35.830189,139.69368,緯度経度は怪しい
埼玉県,川口市,46-7,芝5-4,堀代公園附近,35.831085,139.691788,緯度経度は怪しい
埼玉県,川口市,47-1,芝2812-1,民家附近,35.8354498,139.6912371,
埼玉県,川口市,47-2,芝4-19,芝地区住宅市街地総合整備事業用地附近,35.833763,139.693954,緯度経度は怪しい
埼玉県,川口市,47-3,芝4-24,芝4丁目広場附近,35.835129,139.694397,緯度経度は怪しい
埼玉県,川口市,47-4,芝3-7-12,安東病院附近,35.836391,139.695557,緯度経度は怪しい
埼玉県,川口市,47-5,芝4-26-31,masked,35.834564,139.695435,緯度経度は怪しい
埼玉県,川口市,47-6,芝4-17-15,民家附近,35.835289,139.693192,緯度経度は怪しい
埼玉県,川口市,47-7,芝2797,芝神戸公園附近,35.8357427,139.6914412,
埼玉県,川口市,48-1,芝3-10,芝子供広場東側附近,35.836369,139.696732,緯度経度は怪しい
埼玉県,川口市,48-2,芝2-28-1,芝2丁目住宅附近,35.832462,139.700287,緯度経度は怪しい
埼玉県,川口市,48-3,芝3-10,芝子供広場西側附近,35.836369,139.696732,緯度経度は怪しい
埼玉県,川口市,48-4,芝3-17-1,芝南小学校西側附近,35.83427,139.69873,緯度経度は怪しい
埼玉県,川口市,48-5,芝3-17-1,芝南小学校北側附近,35.83427,139.69873,緯度経度は怪しい
埼玉県,川口市,48-6,芝下1-11,芝児童交通公園南側附近,35.83733,139.699631,緯度経度は怪しい
埼玉県,川口市,48-7,芝下1-11,芝児童交通公園東側附近,35.83733,139.699631,緯度経度は怪しい
埼玉県,川口市,49-1,芝宮根町20,業務ス-パ-附近,35.841076,139.695862,緯度経度は怪しい
埼玉県,川口市,49-2,芝4475,masked,35.8433155,139.6917556,
埼玉県,川口市,49-3,芝5336,民家附近,35.8390656,139.6947586,
埼玉県,川口市,49-4,芝4516,ト-タルステ-ジサ-カス附近,35.843981,139.6916446,
埼玉県,川口市,49-5,芝宮根町20-31,芝高木保育所附近,35.84144879999999,139.6967613,
埼玉県,川口市,49-6,芝4497,芝東第8公園南側附近,35.8432488,139.6938748,
埼玉県,川口市,49-7,芝5379,芝羽尽公園附近,35.83885120000001,139.6958638,
埼玉県,川口市,50-1,芝西1-20,芝塚越公園附近,35.837425,139.685226,緯度経度は怪しい
埼玉県,川口市,50-2,芝4813-1,小泉児童公園附近,35.8400878,139.6918027,
埼玉県,川口市,50-3,芝6247,芝支所附近,35.8436802,139.6900085,
埼玉県,川口市,50-4,芝5218,芝小学校南側附近,35.8380893,139.6923213,
埼玉県,川口市,50-5,芝6299,氷室神社附近,35.8403477,139.6894381,
埼玉県,川口市,50-6,芝5218,芝小学校北側附近,35.8380893,139.6923213,
埼玉県,川口市,50-7,芝6377,民家附近,35.8396496,139.6905177,
埼玉県,川口市,51-1,芝西1-5,芝広面公園東側附近,35.835011,139.684814,緯度経度は怪しい
埼玉県,川口市,51-2,芝樋ノ爪2-3,芝樋ノ爪第2大栄駐車場附近,35.83205,139.686722,緯度経度は怪しい
埼玉県,川口市,51-3,芝西1-9-15,民家附近,35.836006,139.68428,緯度経度は怪しい
埼玉県,川口市,51-4,芝樋ノ爪1-1,セブンイレブン川口芝樋ノ爪一丁目店附近,35.830452,139.688477,緯度経度は怪しい
埼玉県,川口市,51-5,芝樋ノ爪2-10-48,芝樋ノ爪小学校東側附近,35.834461,139.687561,緯度経度は怪しい
埼玉県,川口市,51-6,芝樋ノ爪1-12-8,芝保育所附近,35.833031,139.688782,緯度経度は怪しい
埼玉県,川口市,51-7,芝樋ノ爪2-10-48,芝樋ノ爪小学校正門附近,35.834461,139.687561,緯度経度は怪しい
埼玉県,川口市,52-1,芝園町1,蕨駅第4自転車置場附近,35.83234,139.68576,緯度経度は怪しい
埼玉県,川口市,52-2,芝園町2,芝園ハイツ附近,35.8302581,139.6868301,
埼玉県,川口市,52-3,芝園町3-7,芝園保育所附近,35.832798,139.6822221,
埼玉県,川口市,52-4,芝園町3-8,芝西中学校陽春分校南側附近,35.8320371,139.6828171,
埼玉県,川口市,52-5,芝園町3-8,芝西中学校陽春分校裏側附近,35.8320371,139.6828171,
埼玉県,川口市,52-6,芝園町3-17,教育研究所芝園分室南側附近,35.830847,139.6859421,
埼玉県,川口市,52-7,芝園町3-17,教育研究所芝園分室東側附近,35.830847,139.6859421,
埼玉県,川口市,53-1,芝富士2-14,芝富士2丁目公園西側附近,35.837128,139.678146,緯度経度は怪しい
埼玉県,川口市,53-2,芝富士1-2-23,保谷ゴム工業附近,35.83379,139.682159,緯度経度は怪しい
埼玉県,川口市,53-3,芝富士1-7,芝富士1丁目公園東側附近,35.833496,139.681168,緯度経度は怪しい
埼玉県,川口市,53-4,芝富士2-7-30,シャルム蕨附近,35.836704,139.680267,緯度経度は怪しい
埼玉県,川口市,53-5,芝富士2-17-1,芝富士小学校南側附近,35.83622,139.676941,緯度経度は怪しい
埼玉県,川口市,53-6,芝富士1-7,芝富士1丁目公園西側附近,35.833496,139.681168,緯度経度は怪しい
埼玉県,川口市,53-7,芝富士2-17-1,芝富士小学校正門附近,35.83622,139.676941,緯度経度は怪しい
埼玉県,川口市,54-1,芝塚原1-11-13,芝西中学校北側附近,35.837975,139.680817,緯度経度は怪しい
埼玉県,川口市,54-2,芝塚原1-11-13,芝西中学校西側附近,35.837975,139.680817,緯度経度は怪しい
埼玉県,川口市,54-3,芝塚原1-8,芝塚原公園北側附近,35.837666,139.682312,緯度経度は怪しい
埼玉県,川口市,54-4,芝西2-21,芝後谷第2公園附近,35.841854,139.684769,緯度経度は怪しい
埼玉県,川口市,54-5,芝西2-12,芝後谷公園附近,35.841057,139.686661,緯度経度は怪しい
埼玉県,川口市,54-6,芝塚原2-13,芝塚原第2公園西側附近,35.839603,139.683289,緯度経度は怪しい
埼玉県,川口市,54-7,芝西2-20-3,芝西小学校正門附近,35.840672,139.684143,緯度経度は怪しい
埼玉県,川口市,55-1,小谷場1156,小谷場中学校北側附近,35.8474839,139.6797974,
埼玉県,川口市,55-2,小谷場515,小谷場公園附近,35.8447406,139.678954,
埼玉県,川口市,55-3,芝6963‐29,藤右ヱ門橋附近,35.8462327,139.6861255,
埼玉県,川口市,55-4,小谷場228‐1,ア-バン富田Ｅ附近,35.8449656,139.6836113,
埼玉県,川口市,55-5,芝6950,吉沢月極駐車場前附近,35.8444889,139.685051,
埼玉県,川口市,55-6,芝7219,島忠ホ-ムズ川口店第1駐車場附近,35.8466303,139.6882878,
埼玉県,川口市,55-7,小谷場874,民家附近,35.8458002,139.6816064,
埼玉県,川口市,55-8,小谷場1156,小谷場中学校南側附近,35.8474839,139.6797974,
埼玉県,川口市,56-1,伊刈976,野島伊刈駐車場附近,35.8471769,139.6959434,
埼玉県,川口市,56-2,伊刈200,西部土地区画整理事務所附近,35.8479788,139.6994639,
埼玉県,川口市,56-3,伊刈850,鶴ヶ丸公園附近,35.8452971,139.6924742,
埼玉県,川口市,56-4,芝4783-1,埼玉日産自動車(株)川口芝店附近,35.846832,139.69165,緯度経度は怪しい
埼玉県,川口市,56-5,伊刈1129-10,高橋塗装店附近,35.8451664,139.6993518,
埼玉県,川口市,56-6,伊刈335,masked,35.8460577,139.7021768,
埼玉県,川口市,56-7,伊刈11,伊刈力神社公園附近,35.8464599,139.7040783,
埼玉県,川口市,57-1,柳崎1-6,柳崎第5公園南側附近,35.849831,139.702927,緯度経度は怪しい
埼玉県,川口市,57-2,柳崎2-7-32,masked,35.851532,139.69696,緯度経度は怪しい
埼玉県,川口市,57-3,柳崎1-19-10,ロ-ソン川口柳崎一丁目店附近,35.852608,139.700287,緯度経度は怪しい
埼玉県,川口市,57-4,柳崎1-27,柳崎第2公園附近,35.853893,139.701096,緯度経度は怪しい
埼玉県,川口市,57-5,柳崎3-12-37,アンビックス附近,35.855152,139.699326,緯度経度は怪しい
埼玉県,川口市,57-6,柳崎4-4-1,柳崎小学校正門附近,35.855507,139.700836,緯度経度は怪しい
埼玉県,川口市,57-7,柳崎4-21,柳崎第7公園南側附近,35.859825,139.700821,緯度経度は怪しい
埼玉県,川口市,57-8,柳崎2-21-33,広和産業㈱附近,35.85104,139.699951,緯度経度は怪しい
埼玉県,川口市,58-1,柳崎5-6,柳崎第3公園附近,35.859329,139.704758,緯度経度は怪しい
埼玉県,川口市,58-2,木曽呂1547-6,masked,35.8605544,139.7126763,
埼玉県,川口市,58-3,北園町11-1,芝北公民館北側附近,35.85548900000001,139.7035443,
埼玉県,川口市,58-4,北園町30,北園第2公園附近,35.854324,139.706497,緯度経度は怪しい
埼玉県,川口市,58-5,柳根町14,柳根町公園附近,35.852249,139.706177,緯度経度は怪しい
埼玉県,川口市,58-6,在家町6,在家公園附近,35.854355,139.709747,緯度経度は怪しい
埼玉県,川口市,58-7,在家町27-16,アゼイリアパ-キング附近,35.857404,139.708701,
埼玉県,川口市,58-8,北園町2-1,川口信用金庫柳崎支店附近,35.8533191,139.7035071,
埼玉県,川口市,59-1,安行領根岸442,根岸さくら公園南側附近,35.846542,139.70549,緯度経度は怪しい
埼玉県,川口市,59-2,安行領根岸366,そば処根ぎし附近,35.843731,139.718094,緯度経度は怪しい
埼玉県,川口市,59-3,安行領根岸374-1,岸川中学校プ-ル附近,35.8455228,139.7077713,
埼玉県,川口市,59-4,安行領根岸356-6,masked,35.8452623,139.7051647,
埼玉県,川口市,59-5,安行領根岸374-1,岸川中学校正門附近,35.8455228,139.7077713,
埼玉県,川口市,59-6,安行領根岸461,㈲鈴木オ-トサ-ビス有料駐車場附近,35.8472821,139.7072165,
埼玉県,川口市,59-7,柳根町21-18,民家附近,35.8488458,139.7057967,
埼玉県,川口市,60-1,安行領根岸1576,東堀園附近,35.8478541,139.7141794,
埼玉県,川口市,60-2,安行領根岸1,根岸体育館附近,35.8428333,139.7148887,
埼玉県,川口市,60-3,新井宿700,グリ-ンセンタ-第2駐車場附近,35.843871,139.7291289,
埼玉県,川口市,60-4,安行領根岸1920,根岸台高層住宅東側附近,35.8460203,139.7193166,
埼玉県,川口市,60-5,安行領根岸2459,神根浄水場第8号取水井附近,35.8417381,139.7234199,
埼玉県,川口市,60-6,安行領根岸1023-1,根岸ふれあい公園西側附近,35.8475353,139.710724,
埼玉県,川口市,60-7,安行領根岸2985,県営川口根岸団地附近,35.8390765,139.7194543,
埼玉県,川口市,60-8,安行領根岸171-1,地蔵橋附近,35.8419043,139.7157374,
埼玉県,川口市,61-1,道合1389,道合高層住宅附近,35.850842,139.717667,緯度経度は怪しい
埼玉県,川口市,61-2,道合1420-1,県営川口道合団地附近,35.8537851,139.7186137,
埼玉県,川口市,61-3,安行領根岸877-1,根岸北住宅北側附近,35.8514909,139.7110461,
埼玉県,川口市,61-4,道合15-14,masked,35.85154480000001,139.712888,
埼玉県,川口市,61-5,道合1221,大徳寺附近,35.8494969,139.7215167,
埼玉県,川口市,61-6,神戸790-1,神根耐火住宅附近,35.8517322,139.7176457,
埼玉県,川口市,61-7,道合1,放山こども広場附近,35.848835,139.71698,緯度経度は怪しい
埼玉県,川口市,61-8,安行領在家323,在家小学校南側附近,35.8540063,139.7116954,
埼玉県,川口市,62-1,道合1111,神根小学校附近,35.84739,139.7247209,
埼玉県,川口市,62-2,西新井宿180,医療センタ-正門附近,35.8433903,139.7305714,
埼玉県,川口市,62-3,西新井宿878-3,グリ-ンメモリアル川口入口附近,35.847947,139.7330594,
埼玉県,川口市,62-4,新井宿700,グリ-ンセンタ-北側附近,35.843871,139.7291289,
埼玉県,川口市,62-5,神戸29,神根公民館附近,35.8501984,139.7255635,
埼玉県,川口市,62-6,神戸281,矢作園芸附近,35.8524706,139.7249259,
埼玉県,川口市,62-7,新井宿700,グリ-ンセンタ-神明橋附近,35.843871,139.7291289,
埼玉県,川口市,62-8,西新井宿1065-1,川口かがやきの里附近,35.85162,139.731323,緯度経度は怪しい
埼玉県,川口市,63-1,桜町2-12-10,桜町小学校北側附近,35.840904,139.739578,緯度経度は怪しい
埼玉県,川口市,63-2,赤山986-5,川口市めぐりの森附近,35.8473404,139.7415494,
埼玉県,川口市,63-3,赤山122,民家附近,35.8487955,139.7494518,
埼玉県,川口市,63-4,赤山1384-1,県営川口赤山団地集会所横貯水槽附近,35.842777,139.7437078,
埼玉県,川口市,63-5,新井宿94,イオンスタイル新井宿駅前附近,35.843266,139.737015,緯度経度は怪しい
埼玉県,川口市,63-6,赤山1143,江川運動公園広場管理事務所附近,35.8448072,139.7425523,
埼玉県,川口市,63-7,新井宿556,門下町バス停附近,35.8446678,139.7456123,
埼玉県,川口市,64-1,石神1440,神根東小学校東側附近,35.8539529,139.7411628,
埼玉県,川口市,64-2,石神1515-1,神根中学校西側附近,35.8555608,139.7395761,
埼玉県,川口市,64-3,神戸641-9,石神稲荷丸公園附近,35.8576748,139.7323085,
埼玉県,川口市,64-4,石神243-6,masked,35.8553189,139.7296177,
埼玉県,川口市,64-5,石神1440,神根東小学校北側附近,35.8539529,139.7411628,
埼玉県,川口市,64-6,石神2005-1,大興建設寮附近,35.8563101,139.7460184,
埼玉県,川口市,64-7,石神1787-1,メゾン仲道Ｆ附近,35.8563213,139.7426697,
埼玉県,川口市,65-1,木曽呂382-2,木曽呂小学校附近,35.8606583,139.7256785,
埼玉県,川口市,65-2,木曽呂390-1,木曽呂公園附近,35.859489,139.725113,緯度経度は怪しい
埼玉県,川口市,65-3,源左衛門新田300,神根西原公園附近,35.863403,139.725266,緯度経度は怪しい
埼玉県,川口市,65-4,東内野56-127,東内野住宅第1公園附近,35.87162,139.722855,緯度経度は怪しい
埼玉県,川口市,65-5,東内野241-7,masked,35.8703905,139.7215263,
埼玉県,川口市,65-6,東内野12-1,masked,35.865211,139.72522,緯度経度は怪しい
埼玉県,川口市,65-7,源左衛門新田79-4,東野第4公園附近,35.8638952,139.732954,
埼玉県,川口市,65-8,木曽呂643-2,セブンイレブン川口木曽呂店附近,35.8614991,139.725878,
埼玉県,川口市,66-1,差間496-2,エス・オ-・エム株式会社附近,35.8696677,139.7271834,
埼玉県,川口市,66-2,差間1-16,差間中公園北側附近,35.873959,139.729614,緯度経度は怪しい
埼玉県,川口市,66-3,差間2-27-8,masked,35.875675,139.727844,緯度経度は怪しい
埼玉県,川口市,66-4,差間430,差間小学校附近,35.867836,139.729584,緯度経度は怪しい
埼玉県,川口市,66-5,北原台3-7,行衛大通り公園東側附近,35.867302,139.733704,緯度経度は怪しい
埼玉県,川口市,66-6,差間3-30,差間箕輪前公園附近,35.870552,139.728302,緯度経度は怪しい
埼玉県,川口市,66-7,北原台3-23,北原台公園東側附近,35.868362,139.730606,緯度経度は怪しい
埼玉県,川口市,66-8,差間3-16-17,戸塚西公民館南側附近,35.869911,139.730515,緯度経度は怪しい
埼玉県,川口市,67-1,北原台1-22,行衛北公園附近,35.869339,139.737823,緯度経度は怪しい
埼玉県,川口市,67-2,北原台1-8,行衛往環通り公園東側附近,35.869431,139.740982,緯度経度は怪しい
埼玉県,川口市,67-3,戸塚3-16,戸塚中台公園南側附近,35.868031,139.748306,緯度経度は怪しい
埼玉県,川口市,67-4,戸塚4-22,戸塚4丁目公園北側附近,35.866951,139.742462,緯度経度は怪しい
埼玉県,川口市,67-5,北原台2-3-12,県営川口行衛団地2号棟附近,35.867455,139.739426,緯度経度は怪しい
埼玉県,川口市,67-6,戸塚3-13-55,戸塚小学校東側附近,35.869034,139.747757,緯度経度は怪しい
埼玉県,川口市,67-7,北原台2-16,行衛野伝場公園東側附近,35.866508,139.737,緯度経度は怪しい
埼玉県,川口市,67-8,戸塚3-13-55,戸塚小学校西側附近,35.869034,139.747757,緯度経度は怪しい
埼玉県,川口市,68-1,東川口1-15,東川口自転車駐車場附近,35.875523,139.743011,緯度経度は怪しい
埼玉県,川口市,68-2,東川口2-23,戸塚佐藤第2公園附近,35.876278,139.752625,緯度経度は怪しい
埼玉県,川口市,68-3,戸塚1-1,東川口駅南口ロ-タリ-附近,35.874718,139.744308,緯度経度は怪しい
埼玉県,川口市,68-4,戸塚東1-16,戸塚杉本公園北側附近,35.874554,139.751938,緯度経度は怪しい
埼玉県,川口市,68-5,戸塚1-20,戸塚西台公園西側附近,35.872974,139.741226,緯度経度は怪しい
埼玉県,川口市,68-6,戸塚2-8,戸塚緑地第2西側附近,35.87281,139.746017,緯度経度は怪しい
埼玉県,川口市,68-7,戸塚1-4-7,プル-ト東川口店附近,35.872051,139.744461,緯度経度は怪しい
埼玉県,川口市,68-8,戸塚東1-3-22,東京電力パワ-グリッド㈱川口戸塚変電所附近,35.873367,139.749298,緯度経度は怪しい
埼玉県,川口市,69-1,東川口3-11,戸塚榎戸公園南側附近,35.878857,139.74736,緯度経度は怪しい
埼玉県,川口市,69-2,東川口5-21,東川口5丁目北公園西側附近,35.883999,139.745605,緯度経度は怪しい
埼玉県,川口市,69-3,東川口4-14,戸塚柳公園附近,35.880325,139.742172,緯度経度は怪しい
埼玉県,川口市,69-4,東川口1-7-5,一本木坂附近,35.878784,139.740326,緯度経度は怪しい
埼玉県,川口市,69-5,東川口3-12-1,戸塚北小学校附近,35.879051,139.746246,緯度経度は怪しい
埼玉県,川口市,69-6,東川口3-11,戸塚榎戸公園東側附近,35.878857,139.74736,緯度経度は怪しい
埼玉県,川口市,69-7,東川口6-4,戸塚佐藤公園,35.877239,139.755936,緯度経度は怪しい
埼玉県,川口市,69-8,東川口3-11,戸塚榎戸公園西側附近,35.878857,139.74736,緯度経度は怪しい
埼玉県,川口市,70-1,戸塚東2-18-20,戸塚東小学校南側附近,35.87122,139.755676,緯度経度は怪しい
埼玉県,川口市,70-2,戸塚東2-7,戸塚下ヶ戸公園附近,35.871262,139.751556,緯度経度は怪しい
埼玉県,川口市,70-3,戸塚東2-18-20,戸塚東小学校東側正門附近,35.87122,139.755676,緯度経度は怪しい
埼玉県,川口市,70-4,戸塚東4-11,戸塚藤谷公園附近,35.873005,139.757126,緯度経度は怪しい
埼玉県,川口市,70-5,戸塚東3-7-1,戸塚公民館西側附近,35.867466,139.753754,緯度経度は怪しい
埼玉県,川口市,70-6,戸塚東3-10,戸塚赤道公園北側附近,35.867767,139.753799,緯度経度は怪しい
埼玉県,川口市,70-7,戸塚東4-30,戸塚中谷公園北側附近,35.869865,139.761292,緯度経度は怪しい
埼玉県,川口市,70-8,戸塚東3-34-5,戸塚保育所北側附近,35.870365,139.756866,緯度経度は怪しい
埼玉県,川口市,71-1,長蔵3-14,長蔵3丁目公園附近,35.860554,139.763977,緯度経度は怪しい
埼玉県,川口市,71-2,長蔵2-25,長蔵記念公園西側附近,35.859512,139.760056,緯度経度は怪しい
埼玉県,川口市,71-3,戸塚鋏町3-1,戸塚中学校正門附近,35.8646855,139.7555527,
埼玉県,川口市,71-4,戸塚鋏町19-11,masked,35.865483,139.761732,
埼玉県,川口市,71-5,藤兵衛新田239-1,戸塚綾瀬小学校附近,35.868565,139.7648086,
埼玉県,川口市,71-6,長蔵2-12,長蔵2丁目公園附近,35.860729,139.758957,緯度経度は怪しい
埼玉県,川口市,71-7,長蔵1-12,長蔵1丁目公園北側附近,35.860008,139.754974,緯度経度は怪しい
埼玉県,川口市,71-8,戸塚鋏町12,戸塚はさみ公園附近,35.866879,139.759598,緯度経度は怪しい
埼玉県,川口市,72-1,西立野355,masked,35.8577569,139.7542346,
埼玉県,川口市,72-2,西立野550,民家附近,35.8580314,139.7514301,
埼玉県,川口市,72-3,戸塚5-5,戸塚中台第2公園東側附近,35.864983,139.748016,緯度経度は怪しい
埼玉県,川口市,72-4,戸塚南1-10,西立野調節池東側附近,35.860184,139.749939,緯度経度は怪しい
埼玉県,川口市,72-5,戸塚南3-4,戸塚立山公園入口附近,35.862743,139.747894,緯度経度は怪しい
埼玉県,川口市,72-6,戸塚6-14,戸塚はさみ第2公園南側附近,35.862701,139.754669,緯度経度は怪しい
埼玉県,川口市,72-7,西立野420,百観音公園西側附近,35.8569563,139.7491644,
埼玉県,川口市,72-8,戸塚南4-10,戸塚南小学校東側附近,35.863407,139.74408,緯度経度は怪しい
埼玉県,川口市,73-1,安行出羽4-1,安行東小学校南側附近,35.85247,139.767136,緯度経度は怪しい
埼玉県,川口市,73-2,安行出羽2-4,安行出羽北公園南側附近,35.852669,139.764572,緯度経度は怪しい
埼玉県,川口市,73-3,安行出羽4-13,安行出羽公園南側附近,35.854313,139.768509,緯度経度は怪しい
埼玉県,川口市,73-4,安行吉蔵57,masked,35.8508215,139.7712761,
埼玉県,川口市,73-5,安行出羽3-1-10,グリ-ンステ-ジ出羽Ｂ附近,35.855282,139.765213,緯度経度は怪しい
埼玉県,川口市,73-6,安行藤八719,安行藤八西公園附近,35.858849,139.760925,緯度経度は怪しい
埼玉県,川口市,73-7,安行藤八840-10,安行藤八団地緑道遊水池広場南側附近,35.85796,139.755753,緯度経度は怪しい
埼玉県,川口市,73-8,安行藤八46-4,安行若葉台公園附近,35.855106,139.763382,緯度経度は怪しい
埼玉県,川口市,74-1,安行領家378-1,神明社公園東側附近,35.8449354,139.7580465,
埼玉県,川口市,74-2,安行領家880,安行スポ-ツセンタ-入口附近,35.8477386,139.7650006,
埼玉県,川口市,74-3,安行領家1100,川口市営植物取引センタ-駐車場附近,35.8486638,139.7643959,
埼玉県,川口市,74-4,安行492-1,北部区画整理事務所附近,35.8543962,139.7552454,
埼玉県,川口市,74-5,安行1015,埼玉県花と緑の振興センタ-附近,35.848939,139.7560739,
埼玉県,川口市,74-6,安行725-1,安行ふれあい広場附近,35.853001,139.755112,緯度経度は怪しい
埼玉県,川口市,74-7,安行153-15,masked,35.8532032,139.7592466,
埼玉県,川口市,75-1,安行慈林1005,安行慈林南公園附近,35.836319,139.745651,緯度経度は怪しい
埼玉県,川口市,75-2,安行慈林971,masked,35.8359717,139.7474271,
埼玉県,川口市,75-3,安行吉岡1700,緑ヶ丘第2公園附近,35.834487,139.7583291,
埼玉県,川口市,75-4,安行慈林356,慈林小学校入口附近,35.8409103,139.7504089,
埼玉県,川口市,75-5,安行慈林633,安行慈林上公園南側附近,35.843452,139.746674,緯度経度は怪しい
埼玉県,川口市,75-6,安行慈林1131,安行慈林第1公園西側附近,35.840092,139.752487,緯度経度は怪しい
埼玉県,川口市,75-7,安行吉岡1556,県営川口安行吉岡団地1号棟西側附近,35.8356518,139.7561819,
埼玉県,川口市,75-8,安行吉岡1284,安行天沼公園入口附近,35.8411076,139.7562735,
埼玉県,川口市,76-1,安行原2563,(株)川口本間運輸附近,35.8388593,139.7568619,
埼玉県,川口市,76-2,安行原1721-1,安行原自然の森附近,35.84161,139.767776,緯度経度は怪しい
埼玉県,川口市,76-3,安行原930-58,安行原第2公園附近,35.840759,139.770126,緯度経度は怪しい
埼玉県,川口市,76-4,安行原1570,山田植木生産部入り口附近,35.8373736,139.7690648,
埼玉県,川口市,76-5,安行原2105,masked,35.8425231,139.7660366,
埼玉県,川口市,76-6,安行原1258,川口安行原団地附近,35.84161,139.767776,緯度経度は怪しい
埼玉県,川口市,76-7,安行原1271-48,下田動物病院附近,35.8404883,139.7716022,
埼玉県,川口市,76-8,安行原2020,安行小学校附近,35.839573,139.765869,緯度経度は怪しい
埼玉県,川口市,77-1,安行北谷641-2,masked,35.8384262,139.7723827,
埼玉県,川口市,77-2,安行北谷592,安行北谷町会会館附近,35.839867,139.775909,緯度経度は怪しい
埼玉県,川口市,77-3,安行北谷625,masked,35.8412331,139.7779375,
埼玉県,川口市,77-4,安行北谷681,安行北谷公園附近,35.8392358,139.7771091,
埼玉県,川口市,77-5,安行原1407,フラットヒルズⅡ附近,35.837276,139.774765,緯度経度は怪しい
埼玉県,川口市,77-6,安行小山456,社会福祉法人香の里附近,35.8360514,139.7751913,
埼玉県,川口市,77-7,安行小山2,(株)たかまる商店附近,35.8346361,139.7780691,
埼玉県,川口市,78-1,峯1304,新郷峯八幡公園附近,35.83215790000001,139.7690232,
埼玉県,川口市,78-2,新堀1274,越戸橋附近,35.827419,139.783798,緯度経度は怪しい
埼玉県,川口市,78-3,峯361,新郷東小学校東側表門附近,35.8299917,139.7760133,
埼玉県,川口市,78-4,峯361,新郷東小学校西側裏門附近,35.8299917,139.7760133,
埼玉県,川口市,78-5,峯868-1,松本東駐車場附近,35.8322529,139.7736545,
埼玉県,川口市,78-6,新堀62,masked,35.8297339,139.7708452,
埼玉県,川口市,78-7,峯55-16,辰井川フェンス(児童遊園向い側)附近,35.83161560000001,139.7819925,
埼玉県,川口市,78-8,峯1603,峯八幡宮バスタ-ミナル緑地附近,35.8354709,139.7680211,
埼玉県,川口市,79-1,前野宿72,緑ヶ丘第1公園東側附近,35.835625,139.759583,緯度経度は怪しい
埼玉県,川口市,79-2,東貝塚111,新郷浄水場第4号取水井附近,35.837319,139.764579,
埼玉県,川口市,79-3,大竹74-13,東本郷運動広場東側附近,35.8296545,139.7667544,
埼玉県,川口市,79-4,東本郷1687‐2,民家附近,35.831272,139.759048,緯度経度は怪しい
埼玉県,川口市,79-5,大竹283-2,大竹公園南側附近,35.831478,139.763321,緯度経度は怪しい
埼玉県,川口市,79-6,前野宿227-12,ソ-マパ-キング向かい側附近,35.8323252,139.7618072,
埼玉県,川口市,79-7,大竹230,masked,35.8330959,139.7624331,
埼玉県,川口市,80-1,東本郷944-1,新郷支所附近,35.825855,139.764557,緯度経度は怪しい
埼玉県,川口市,80-2,東本郷860-2,いずみ荘附近,35.8277374,139.7675142,
埼玉県,川口市,80-3,東本郷1313,新郷小学校附近,35.8284526,139.765071,
埼玉県,川口市,80-4,東本郷1301-1,新郷浄水場入口附近,35.829517,139.763702,緯度経度は怪しい
埼玉県,川口市,80-5,東本郷1184,新郷公民館駐車場附近,35.8272075,139.7622929,
埼玉県,川口市,80-6,東本郷1146-1,masked,35.826462,139.761292,緯度経度は怪しい
埼玉県,川口市,80-7,東本郷1616-2,東本郷台公園東側附近,35.829147,139.76062,緯度経度は怪しい
埼玉県,川口市,81-1,榛松1-7,榛松第一公園北側附近,35.820225,139.772522,緯度経度は怪しい
埼玉県,川口市,81-2,榛松3-6,榛松第3公園附近,35.823853,139.777679,緯度経度は怪しい
埼玉県,川口市,81-3,榛松500,㈱南北伸銅所川口工場附近,35.8221001,139.7705403,
埼玉県,川口市,81-4,榛松2-10-1,榛松中学校北側附近,35.821259,139.774078,緯度経度は怪しい
埼玉県,川口市,81-5,榛松2-10-1,榛松中学校東側附近,35.821259,139.774078,緯度経度は怪しい
埼玉県,川口市,81-6,榛松3-45,新郷ふれあい公園北側附近,35.824455,139.780624,緯度経度は怪しい
埼玉県,川口市,81-7,榛松3-30,榛松第4公園東側附近,35.822994,139.779938,緯度経度は怪しい
埼玉県,川口市,82-1,本蓮3-13,新郷高畑公園附近,35.816494,139.761673,緯度経度は怪しい
埼玉県,川口市,82-2,本蓮2-24-1,masked,35.817589,139.763092,緯度経度は怪しい
埼玉県,川口市,82-3,東本郷80,新郷スポ-ツセンタ-附近,35.8178533,139.7651281,
埼玉県,川口市,82-4,本蓮4-3-5,川口板金㈱本蓮第二工場附近,35.814289,139.761017,緯度経度は怪しい
埼玉県,川口市,82-5,本蓮1-20,蓮沼公園附近,35.821426,139.762161,緯度経度は怪しい
埼玉県,川口市,82-6,東本郷1060-1,東部区画整理事務所附近,35.823162,139.763306,緯度経度は怪しい
埼玉県,川口市,82-7,東本郷630,東本郷小学校南側附近,35.8228915,139.7657726,
埼玉県,川口市,83-1,江戸袋1-27,江戸袋第3公園附近,35.815914,139.757812,緯度経度は怪しい
埼玉県,川口市,83-2,江戸3-18,江戸袋公園南側附近,35.817703,139.752869,緯度経度は怪しい
埼玉県,川口市,83-3,江戸3-12-1,新郷南小学校西側西門附近,35.819904,139.752518,緯度経度は怪しい
埼玉県,川口市,83-4,江戸2-10,江戸袋第二公園附近,35.819218,139.749634,緯度経度は怪しい
埼玉県,川口市,83-5,江戸3-12-1,新郷南小学校東側プ-ル附近,35.819904,139.752518,緯度経度は怪しい
埼玉県,川口市,83-6,江戸1-18,新郷西沼公園北側附近,35.821335,139.754807,緯度経度は怪しい
埼玉県,川口市,83-7,赤井1-23,赤井第2公園附近,35.825523,139.748596,緯度経度は怪しい
埼玉県,川口市,84-1,赤井3-7,辰井公園附近,35.824459,139.753403,緯度経度は怪しい
埼玉県,川口市,84-2,赤井4-14,赤井公園南側附近,35.828346,139.748734,緯度経度は怪しい
埼玉県,川口市,84-3,赤井4-9,毛長川フェンス(パ-クデイズ)附近,35.83054,139.748734,緯度経度は怪しい
埼玉県,川口市,84-4,赤井542,赤井町会会館附近,35.8287774,139.7540226,
埼玉県,川口市,84-5,赤井3-2,マルフク産業(株)川口営業所2号附近,35.826675,139.752487,緯度経度は怪しい
埼玉県,川口市,84-6,赤井1234,県立川口特別支援学校附近,35.833389,139.7504889,
埼玉県,川口市,84-7,赤井1421,前野宿川公園附近,35.8325077,139.751153,
埼玉県,川口市,84-8,東本郷2-20-47,東中学校西側附近,35.825237,139.756165,緯度経度は怪しい
埼玉県,川口市,85-1,鳩ヶ谷本町3-29,鳩ヶ谷本町3丁目子供の遊び場附近,35.833313,139.745071,緯度経度は怪しい
埼玉県,川口市,85-2,鳩ヶ谷本町3-25,旭町口バス停附近,35.834415,139.743271,緯度経度は怪しい
埼玉県,川口市,85-3,鳩ヶ谷本町3-27,masked,35.834248,139.744675,緯度経度は怪しい
埼玉県,川口市,85-4,鳩ヶ谷本町4-1,わだ歯科医院向い側フェンス附近,35.830658,139.742462,緯度経度は怪しい
埼玉県,川口市,85-5,鳩ヶ谷本町4-4-33,民家附近,35.83065,139.743744,緯度経度は怪しい
埼玉県,川口市,85-6,鳩ヶ谷本町4-8-5,鳩ヶ谷中学校正門附近,35.832748,139.744659,緯度経度は怪しい
埼玉県,川口市,85-7,鳩ヶ谷本町4-13,masked,35.831547,139.747757,緯度経度は怪しい
埼玉県,川口市,86-1,坂下町4-3-14,東消防署南側附近,35.829277,139.737564,緯度経度は怪しい
埼玉県,川口市,86-2,坂下町3-18-9,民家附近,35.827629,139.744873,緯度経度は怪しい
埼玉県,川口市,86-3,坂下町2-16,坂下町2丁目公園北側フェンス附近,35.828587,139.745728,緯度経度は怪しい
埼玉県,川口市,86-4,坂下町3-2-2,鳩ヶ谷公民館,35.829826,139.740524,緯度経度は怪しい
埼玉県,川口市,86-5,坂下町2-17,masked,35.82822,139.746735,緯度経度は怪しい
埼玉県,川口市,86-6,坂下町3-35,沼公園西側附近,35.827858,139.741959,緯度経度は怪しい
埼玉県,川口市,86-7,坂下町3-35,沼公園北側附近,35.827858,139.741959,緯度経度は怪しい
埼玉県,川口市,87-1,三ツ和1-20,細沼公園北側附近,35.823929,139.74086,緯度経度は怪しい
埼玉県,川口市,87-2,三ツ和2-23,三ツ和平柳公園東側附近,35.822849,139.742081,緯度経度は怪しい
埼玉県,川口市,87-3,三ツ和1-14-3,鳩ヶ谷庁舎前附近,35.826805,139.741013,緯度経度は怪しい
埼玉県,川口市,87-4,三ツ和1-26,鵜の渕公園西側附近,35.825993,139.743134,緯度経度は怪しい
埼玉県,川口市,87-5,三ツ和2-16,小渕公園東側附近,35.824722,139.744003,緯度経度は怪しい
埼玉県,川口市,87-6,三ツ和3-21-1,鳩ヶ谷スポ-ツセンタ-附近,35.821472,139.743591,緯度経度は怪しい
埼玉県,川口市,87-7,三ツ和3-9,高土手公園西側附近,35.823395,139.746368,緯度経度は怪しい
埼玉県,川口市,88-1,八幡木1-5,台公園北側附近,35.820938,139.745865,緯度経度は怪しい
埼玉県,川口市,88-2,八幡木1-26-1,八幡木中学校南側附近,35.818634,139.74881,緯度経度は怪しい
埼玉県,川口市,88-3,八幡木1-25-2,八幡木1丁目集会所附近,35.817745,139.748169,緯度経度は怪しい
埼玉県,川口市,88-4,八幡木2-7,谷下公園東側附近,35.81554,139.749924,緯度経度は怪しい
埼玉県,川口市,88-5,八幡木2-26,八幡木平柳公園北側附近,35.813511,139.748306,緯度経度は怪しい
埼玉県,川口市,88-6,八幡木3-9,大塚公園南側附近,35.81308,139.753098,緯度経度は怪しい
埼玉県,川口市,88-7,八幡木3-17,上新田公園運動広場北側附近,35.811001,139.750961,緯度経度は怪しい
埼玉県,川口市,89-1,南鳩ヶ谷1-8,三ツ和公園北側附近,35.821312,139.738953,緯度経度は怪しい
埼玉県,川口市,89-2,南鳩ヶ谷4-2,南鳩ヶ谷駅東口ロ-タリ-附近,35.81625,139.736755,緯度経度は怪しい
埼玉県,川口市,89-3,南鳩ヶ谷2-1-1,中居小学校体育館側附近,35.817986,139.74263,緯度経度は怪しい
埼玉県,川口市,89-4,南鳩ヶ谷2-21,中居公園北側附近,35.81575,139.743637,緯度経度は怪しい
埼玉県,川口市,89-5,南鳩ヶ谷3-10,白鷺橋際附近,35.818066,139.739014,緯度経度は怪しい
埼玉県,川口市,89-6,南鳩ヶ谷4-24,前田東公園西側附近,35.812904,139.738907,緯度経度は怪しい
埼玉県,川口市,89-7,南鳩ヶ谷3-18,有明橋際附近,35.815727,139.740662,緯度経度は怪しい
埼玉県,川口市,89-8,南鳩ヶ谷1-8,三ツ和公園南側附近,35.821312,139.738953,緯度経度は怪しい
埼玉県,川口市,90-1,南鳩ヶ谷6-11,ロ-ソン川口南鳩ヶ谷六丁目店附近,35.818012,139.733719,緯度経度は怪しい
埼玉県,川口市,90-2,南鳩ヶ谷5-17-1,民家附近,35.816109,139.733826,緯度経度は怪しい
埼玉県,川口市,90-3,南鳩ヶ谷5-20-1,南鳩ヶ谷小学校体育館入口附近,35.814404,139.73381,緯度経度は怪しい
埼玉県,川口市,90-4,南鳩ヶ谷5-27-1,前田西野球場北側附近,35.815624,139.732315,緯度経度は怪しい
埼玉県,川口市,90-5,南鳩ヶ谷6-4,ヒュ-マンライフケア武南附近,35.817722,139.736084,緯度経度は怪しい
埼玉県,川口市,90-6,南鳩ヶ谷6-17,コモディイイダ南鳩ヶ谷店西側附近,35.819866,139.730911,緯度経度は怪しい
埼玉県,川口市,90-7,南鳩ヶ谷6-9,千歳橋際附近,35.819443,139.733994,緯度経度は怪しい
埼玉県,川口市,91-1,南鳩ヶ谷8-4,ペットサロン「アニ-」向い側附近,35.818272,139.730133,緯度経度は怪しい
埼玉県,川口市,91-2,南鳩ヶ谷8-9-20,前田住宅集会所附近,35.819,139.728439,緯度経度は怪しい
埼玉県,川口市,91-3,鳩ヶ谷緑町1-6,鳩ヶ谷緑町1丁目公園東側附近,35.816994,139.728378,緯度経度は怪しい
埼玉県,川口市,91-4,鳩ヶ谷緑町1-9,masked,35.816456,139.729858,緯度経度は怪しい
埼玉県,川口市,91-5,前田1251,はとがや南マンション東側附近,35.8155071,139.7297981,
埼玉県,川口市,91-6,鳩ヶ谷緑町2-10,鳩ヶ谷緑町2丁目公園東側附近,35.819225,139.727402,緯度経度は怪しい
埼玉県,川口市,91-7,鳩ヶ谷緑町2-10,鳩ヶ谷緑町2丁目公園西側附近,35.819225,139.727402,緯度経度は怪しい
埼玉県,川口市,92-1,南鳩ヶ谷7-4,東京電力(株)鳩ケ谷変電所西側附近,35.822254,139.736618,緯度経度は怪しい
埼玉県,川口市,92-2,辻840-4,masked,35.82515980000001,139.7333108,
埼玉県,川口市,92-3,南鳩ヶ谷7-22-1,辻小学校正門附近,35.822109,139.733566,緯度経度は怪しい
埼玉県,川口市,92-4,辻2972-1,沼田公園南側入口附近,35.825397,139.730118,緯度経度は怪しい
埼玉県,川口市,92-5,南鳩ヶ谷7-31,汐入橋際附近,35.822029,139.730057,緯度経度は怪しい
埼玉県,川口市,92-6,辻1245,沼田公園北側入口附近,35.8257871,139.7359467,
埼玉県,川口市,92-7,辻1141,(株)埼玉ウェ-ブ附近,35.8272221,139.735395,
埼玉県,川口市,92-8,南鳩ヶ谷7-21,辻公園内東側附近,35.821571,139.733963,緯度経度は怪しい
埼玉県,川口市,93-1,辻635-1,masked,35.8273482,139.7284741,
埼玉県,川口市,93-2,辻594-4,masked,35.8260838,139.7278219,
埼玉県,川口市,93-3,里1218,鳩ケ谷ケアセンタ-そよ風附近,35.8319881,139.732489,
埼玉県,川口市,93-4,里1085,水路フェンス(割烹大和向い側)附近,35.8325195,139.7285957,
埼玉県,川口市,93-5,里1465,masked,35.8297474,139.729099,
埼玉県,川口市,93-6,里1478,里公民館附近,35.8285755,139.7308157,
埼玉県,川口市,93-7,里1616,フレア鳩ヶ谷西側附近,35.8308932,139.7344631,
埼玉県,川口市,93-8,里1510-3,masked,35.8289133,139.7315129,
埼玉県,川口市,94-1,里331,里土地区画整理事務所隣ﾃﾆｽｺｰﾄ南側附近,35.8351758,139.7276249,
埼玉県,川口市,94-2,里621,里中学校正門附近,35.8380326,139.731569,
埼玉県,川口市,94-3,里621,里中学校北西側フェンス附近,35.8380326,139.731569,
埼玉県,川口市,94-4,里645-1,里小学校南側フェンス附近,35.835751,139.7332,緯度経度は怪しい
埼玉県,川口市,94-5,里225-1,県立鳩ヶ谷高等学校西側附近,35.8383316,139.7258564,
埼玉県,川口市,94-6,里1084,里第二公園南側フェンス(鳩ヶ谷高校北側)附近,35.8328159,139.7284252,
埼玉県,川口市,94-7,里1191,里みどりヶ丘公園南側附近,35.8420961,139.7256689,
埼玉県,川口市,95-1,坂下町1-6,見沼的場公園附近,35.834084,139.735214,緯度経度は怪しい
埼玉県,川口市,95-2,桜町1-3-28,masked,35.835487,139.737808,緯度経度は怪しい
埼玉県,川口市,95-3,鳩ヶ谷本町1-1,鳩ヶ谷本町ふれあい広場附近,35.832207,139.739182,緯度経度は怪しい
埼玉県,川口市,95-4,鳩ヶ谷本町1-6-3,鳩ヶ谷小学校正門附近,35.832771,139.738663,緯度経度は怪しい
埼玉県,川口市,95-5,鳩ヶ谷本町1-9-21,スカイパル鳩ヶ谷本町前附近,35.834904,139.736282,緯度経度は怪しい
埼玉県,川口市,95-6,桜町1-2,桜町湧水公園附近,35.835918,139.738144,緯度経度は怪しい
埼玉県,川口市,95-7,坂下町1-11,鳩ヶ谷駅東口ロ-タリ-附近,35.831127,139.736816,緯度経度は怪しい
埼玉県,川口市,96-1,桜町5-2,町谷公園西側附近,35.837898,139.739563,緯度経度は怪しい
埼玉県,川口市,96-2,桜町2-12,桜町小学校入口附近,35.841293,139.738586,緯度経度は怪しい
埼玉県,川口市,96-3,桜町5-5-39,地蔵院西側附近,35.838131,139.740677,緯度経度は怪しい
埼玉県,川口市,96-4,桜町6-4-5,鳩ヶ谷福祉センタ-北側フェンス附近,35.836887,139.739716,緯度経度は怪しい
埼玉県,川口市,96-5,桜町6-10,フロ-レス10番館向い側附近,35.837406,139.741455,緯度経度は怪しい
埼玉県,川口市,96-6,桜町6-11-10,桜保育所附近,35.838577,139.742615,緯度経度は怪しい
埼玉県,川口市,96-7,桜町6-15,masked,35.836346,139.743652,緯度経度は怪しい
埼玉県,川口市,97-1,桜町4-4,コンフォ-ル東鳩ヶ谷桜広場附近,35.839756,139.744537,緯度経度は怪しい
埼玉県,川口市,97-2,桜町3-3,masked,35.839806,139.741425,緯度経度は怪しい
埼玉県,川口市,97-3,桜町3-8,masked,35.841324,139.740845,緯度経度は怪しい
埼玉県,川口市,97-4,桜町3-14,落合公園北側附近,35.841244,139.741913,緯度経度は怪しい
埼玉県,川口市,97-5,桜町4-1,鳩ヶ谷浄水場東側附近,35.840397,139.742416,緯度経度は怪しい
埼玉県,川口市,97-6,桜町4-4,だんだん公園西側附近,35.839756,139.744537,緯度経度は怪しい
埼玉県,川口市,97-7,桜町4-4,コンフォ-ル東鳩ヶ谷集会所附近,35.839756,139.744537,緯度経度は怪しい
