prefecture,city,number,address,name,lat,long,note
埼玉県,幸手市,1-1,中3丁目5-32,masked,36.079058,139.722134,
埼玉県,幸手市,1-2,中3丁目11-41,幸手小学校前,36.075702,139.721634,
埼玉県,幸手市,1-3,中2丁目7-2,県道幸手停車場線脇,36.072878,139.719352,
埼玉県,幸手市,1-4,中3-20,中3丁目児童公園,36.074957,139.721698,
埼玉県,幸手市,1-5,中1丁目18-11,天神神社前,36.075418,139.716973,
埼玉県,幸手市,1-6,中1丁目1-23,幸手駅東口駅前広場,36.074696,139.715332,
埼玉県,幸手市,1-7,中4丁目6,日第41号踏切道側,36.079352,139.715603,
埼玉県,幸手市,2-1,北1丁目2-31,宝持寺裏水路脇フェンス,36.084228,139.716182,
埼玉県,幸手市,2-2,北1丁目17-59,県立幸手桜高等学校脇フェンス南西側,36.085456,139.718071,
埼玉県,幸手市,2-3,北1丁目7-4,幸手中学校前,36.082232,139.718068,
埼玉県,幸手市,2-4,北1丁目10-28,ベルク北店内防火水槽脇,36.08148,139.72187,
埼玉県,幸手市,2-5,北2丁目10-10,県道さいたま幸手線脇,36.085537,139.721488,
埼玉県,幸手市,2-6,北2丁目17-7,共和タクシ-前,36.08401,139.723229,
埼玉県,幸手市,2-7,北1丁目17-59,県立幸手桜高等学校グラウンド裏フェンス北東側,36.087129,139.720015,
埼玉県,幸手市,3-1,外国府間679,国道4号外国府間信号機西側先,36.100986,139.722426,
埼玉県,幸手市,3-2,高須賀445-1,行幸橋バス停側,36.096865,139.721067,
埼玉県,幸手市,3-3,高須賀96,常福寺前ガ-ドレ-ル,36.095306,139.717986,
埼玉県,幸手市,3-4,松石11-2,松石集会所前,36.098234,139.709123,
埼玉県,幸手市,3-5,円藤内479,行幸小学校前,36.094426,139.71091,
埼玉県,幸手市,3-6,千塚238-15,マルコ-ストア側,36.089882,139.709904,
埼玉県,幸手市,3-7,千塚909-2,セブンイレブン幸手千塚店側,36.090863,139.702562,
埼玉県,幸手市,4-1,西2丁目11-7,ひまわり歯科医院東側先,36.085848,139.715001,
埼玉県,幸手市,4-2,西1丁目11-18,新井庫三商店倉庫前,36.083055,139.715461,
埼玉県,幸手市,4-3,下川崎391-2,西中学校前,36.083267,139.709694,
埼玉県,幸手市,4-4,下川崎225-2,安楽院東側ガ-ドレ-ル,36.083866,139.704144,
埼玉県,幸手市,4-5,中川崎364-1,川崎公会堂前,36.079152,139.703411,
埼玉県,幸手市,4-6,中5丁目21,県道幸手久喜線幸橋側信号機西側先,36.0750497,139.7083252,
埼玉県,幸手市,4-7,中5丁目4-51,牛村病院前フェンス,36.077562,139.714387,
埼玉県,幸手市,4-8,下川崎242,長倉小学校横フェンス,36.085902,139.709398,
埼玉県,幸手市,5-1,香日向4丁目5-2,幸手市コミュニティセンタ-正面入口,36.086898,139.702465,
埼玉県,幸手市,5-2,香日向4丁目5-1,旧香日向小学校前,36.086831,139.700978,
埼玉県,幸手市,5-3,香日向1丁目16,中央通りイト-ピアホ-ムサ-ビス反対側,36.086642,139.699113,
埼玉県,幸手市,5-4,香日向3丁目13,千塚西公園中央通り沿い,36.087294,139.695636,
埼玉県,幸手市,5-5,香日向2丁目26,かえで通り突当たり市道739号,36.084435,139.695452,
埼玉県,幸手市,5-6,香日向1丁目19,ゆりのき通り突当たり市道739号,36.084357,139.698572,
埼玉県,幸手市,5-7,香日向2丁目7,中川崎公園北側,36.085412,139.696984,
埼玉県,幸手市,6-1,南3丁目5,幸手駅西口駅前広場,36.074507,139.714539,
埼玉県,幸手市,6-2,南2丁目2-37,南2丁目幼児公園側,36.071083,139.712164,
埼玉県,幸手市,6-3,南2丁目8-1,まちづくり事業課事務所脇,36.068098,139.709588,
埼玉県,幸手市,6-4,上高野778,マルエツ幸手上高野店4号沿い,36.06718,139.716739,
埼玉県,幸手市,6-5,上高野1194,南公民館前,36.062057,139.712885,
埼玉県,幸手市,6-6,南1丁目9-8,前田食品倉庫前,36.071214,139.717811,
埼玉県,幸手市,6-7,上高野1丁目4,調節池フェンス,36.066411,139.719512,
埼玉県,幸手市,6-8,上高野1308-1,ジョイフル本田駐車場フェンス,36.06046,139.715514,
埼玉県,幸手市,7-1,幸手5270-1,田沼駐車場前フェンス,36.063178,139.721868,
埼玉県,幸手市,7-2,緑台1丁目17,東武上高野小公園前,36.06467,139.721789,
埼玉県,幸手市,7-3,緑台1丁目49,東武中央公園前,36.064921,139.723966,
埼玉県,幸手市,7-4,東1丁目11-19,スカイフ-ズ西側先,36.06906,139.720618,
埼玉県,幸手市,7-5,緑台1丁目24,幸手東交番北側先,36.068288,139.724878,
埼玉県,幸手市,7-6,緑台2丁目1-7,中央公民館脇,36.06944,139.726096,
埼玉県,幸手市,7-7,緑台2丁目5-25,図書館前,36.068288,139.728313,
埼玉県,幸手市,8-1,東2丁目8-10,ビッグエ-駐車場フェンス,36.069713,139.724568,
埼玉県,幸手市,8-2,東2丁目24-15,農協低温常温倉庫前,36.073629,139.724246,
埼玉県,幸手市,8-3,東2丁目36-24,幸手耳鼻咽喉科駐車場反対側,36.072033,139.727481,
埼玉県,幸手市,8-4,幸手1958-1,児童館前,36.071409,139.729827,
埼玉県,幸手市,8-5,幸手1961-2,日本保健医療大学北キャンパス前,36.07274,139.730639,
埼玉県,幸手市,8-6,東3丁目8-3,幸手商工会前,36.075132,139.723986,
埼玉県,幸手市,8-7,東3丁目16-6,グル-プホ-ムフロ-ラ幸手南側先,36.075999,139.726753,
埼玉県,幸手市,9-1,東4丁目25,東第2公園前,36.075726,139.729087,
埼玉県,幸手市,9-2,東4丁目6-8,市役所南側,36.077612,139.725645,
埼玉県,幸手市,9-3,東4丁目6-8,市役所前,36.078126,139.725187,
埼玉県,幸手市,9-4,東4丁目28-13,東4丁目交差点しだれ桜前,36.07818,139.729996,
埼玉県,幸手市,9-5,東5丁目20,東5丁目2区公園前,36.07937,139.730392,
埼玉県,幸手市,9-6,東5丁目12,東5丁目遊水池前,36.079962,139.728202,
埼玉県,幸手市,9-7,東5丁目3-27,東5-2町内会館南側先,36.080867,139.72578,
埼玉県,幸手市,10-1,権現堂3051-2,メゾンドスリジエ東側,36.085144,139.725706,
埼玉県,幸手市,10-2,北3丁目9-5,北3丁目集会所前,36.086735,139.726112,
埼玉県,幸手市,10-3,北3丁目6,権現堂河岸前ガ-ドレ-ル,36.08597,139.730144,
埼玉県,幸手市,10-4,権現堂117,中田商会西側先,36.082142,139.732196,
埼玉県,幸手市,10-5,権現堂180,権現堂集落農業センタ-前ガ-ドレ-ル,36.0828322,139.7342521,
埼玉県,幸手市,10-6,内国府間867,北公民館前,36.091,139.722683,
埼玉県,幸手市,10-7,内国府間641,関東梯子(株),36.088562,139.72099,
埼玉県,幸手市,11-1,上吉羽1054-1,権現堂第一揚水機場北先,36.07977,139.739077,
埼玉県,幸手市,11-2,上吉羽715,岡田自動車販売前民家前,36.077068,139.736338,
埼玉県,幸手市,11-3,神明内570,権現堂川小学校前,36.074902,139.742063,
埼玉県,幸手市,11-4,神明内1466,神明内集会所前,36.071868,139.744718,
埼玉県,幸手市,11-5,木立1513,老人福祉センタ-前,36.074026,139.750582,
埼玉県,幸手市,11-6,神明内184,市営サッカ-場前,36.076309,139.745554,
埼玉県,幸手市,11-7,木立1779-5,ひばりヶ丘桜泉園前,36.084516,139.748101,
埼玉県,幸手市,11-8,木立328,(株)東久前フェンス,36.078527,139.751891,
埼玉県,幸手市,12-1,上宇和田382-1,上宇和田バス停前,36.07422,139.764944,
埼玉県,幸手市,12-2,中島154-2,中島集会所前,36.07867,139.776695,
埼玉県,幸手市,12-3,下吉羽201-5,香取神社参道,36.0704335,139.764373,
埼玉県,幸手市,12-4,下吉羽399,吉羽バス停北側先,36.065174,139.764242,
埼玉県,幸手市,12-5,惣新田2600,中島土地改良区事務所前,36.062068,139.764682,
埼玉県,幸手市,12-6,下宇和田1228,東公民館東側入口,36.066551,139.768005,
埼玉県,幸手市,12-7,惣新田2176,喜光工業資材置場前フェンス,36.060663,139.779544,
埼玉県,幸手市,12-8,惣新田1212,旧吉田幼稚園前,36.05523,139.773854,
埼玉県,幸手市,12-9,惣新田1965,国道4号バイパス芝原交差点西側先,36.053397,139.771381,
埼玉県,幸手市,13-1,中野569-2,県道惣新田幸手線埼葛広域農道交差点脇,36.058504,139.757979,
埼玉県,幸手市,13-2,平野294,第二浄水場前(水道部),36.065467,139.753376,
埼玉県,幸手市,13-3,平須賀2414,市民文化体育館前,36.06786,139.73716,
埼玉県,幸手市,13-4,神扇1581,神扇天神八幡神社,36.060206,139.74831,
埼玉県,幸手市,13-5,平須賀394,八代小学校前,36.054472,139.74318,
埼玉県,幸手市,13-6,戸島321,旧消防団機具庫,36.051722,139.741547,
埼玉県,幸手市,13-7,平須賀2丁目489,日本保健医療大学南キャンパス前,36.058838,139.729334,
埼玉県,幸手市,13-8,天神島254,トット保育園,36.065098,139.727758,
埼玉県,幸手市,13-9,戸島見立2945-1,水路橋上,36.04539,139.727937,
埼玉県,幸手市,14-1,栄2番90,さかえ小学校裏,36.060402,139.721833,
埼玉県,幸手市,14-2,栄1番8,栄1-8号棟前,36.058835,139.71979,
埼玉県,幸手市,14-3,栄2番10,栄2-10号棟前(公園脇),36.058509,139.720518,
埼玉県,幸手市,14-4,栄3番9,栄3-9号棟集会所前,36.056793,139.720208,
埼玉県,幸手市,14-5,栄6番9,栄6-9号棟前,36.053729,139.719739,
埼玉県,幸手市,14-6,栄4番15,栄4-15号棟斜め前,36.055397,139.721091,
埼玉県,幸手市,14-7,吉野41-8-4,中継ポンプ場前,36.056672,139.722944,
