prefecture,city,number,address,name,lat,long,note
埼玉県,所沢市,1-1,東町5-22,トコトコスクエア　西側,35.7890903,139.469366,
埼玉県,所沢市,1-2,東町5-22,トコトコスクエア　南側,35.7886753,139.4699588,
埼玉県,所沢市,1-3,東町24,七世橋　北西側,35.7913884,139.4724258,
埼玉県,所沢市,1-4,日吉町12,所沢駅西口ロ-タリ-西側(ワルツ側),35.7864803,139.4724426,
埼玉県,所沢市,1-5,日吉町12,所沢駅西口ロ-タリ-東側(駅側),35.7864272,139.4727256,
埼玉県,所沢市,1-6,日吉町13,所沢駅西口入口交差点先,35.7868096,139.4706892,
埼玉県,所沢市,1-7,東町18,日東地域こども広場　南側,35.7908853,139.4725,
埼玉県,所沢市,2-1,元町7-37,所沢小学校東側,35.7888809,139.4663693,
埼玉県,所沢市,2-2,寿町9-7,寿町公園南側,35.7887453,139.4667885,
埼玉県,所沢市,2-3,元町20(地番604-2),実蔵院東側,35.790806,139.463623,緯度経度は怪しい
埼玉県,所沢市,2-4,元町7-32,市立所沢保育園北側,35.7893799,139.4660976,
埼玉県,所沢市,2-5,元町7-37,所沢小学校西側,35.7880072,139.4651246,
埼玉県,所沢市,2-6,元町9-18,ＮＴＴ東日本所沢元町ビル　(東側フェンス),35.7885163,139.4642754,
埼玉県,所沢市,2-7,金山町9-7,まなべ整骨院南側,35.7901009,139.460128,
埼玉県,所沢市,2-8,元町27-1(地番702番地),元町コミュニティ広場,35.7918691,139.4646144,
埼玉県,所沢市,3-1,宮本町1-17-15,所沢市消防団第一分団詰所東側,35.7946488,139.4583136,
埼玉県,所沢市,3-2,宮本町1-16-8,masked,35.793259,139.4587627,
埼玉県,所沢市,3-3,御幸町13-4(地番742-12),鳥居橋東側,35.7925777,139.4701084,
埼玉県,所沢市,3-4,宮本町1-16-8,masked,35.7936451,139.458933,
埼玉県,所沢市,3-5,宮本町1-1-2,旧庁舎駐車場　北側,35.7933001,139.4642866,
埼玉県,所沢市,3-6,宮本町1-2-6,神明社東側鳥居脇,35.7943506,139.4635505,
埼玉県,所沢市,3-7,宮本町1-1-2,旧庁舎駐車場　東側,35.7927784,139.4645943,
埼玉県,所沢市,4-1,北有楽町26-20,明峰小学校南側,35.7960859,139.4646065,
埼玉県,所沢市,4-2,宮本町2-21-4,所沢市上下水道局庁舎西側植栽,35.7978003,139.4599992,
埼玉県,所沢市,4-3,北有楽町26-20,明峰小学校西側,35.7966956,139.46383,
埼玉県,所沢市,4-4,北有楽町26-20,明峰小学校東側,35.7970241,139.4655506,
埼玉県,所沢市,4-5,宮本町2-17,根岸公園北側,35.7973916,139.4614501,
埼玉県,所沢市,4-6,北有楽町26-20,明峰小学校北側,35.797451,139.4644188,
埼玉県,所沢市,4-7,宮本町2-7-7,所沢第一浄水場西側,35.796651,139.4630482,
埼玉県,所沢市,5-1,くすのき台1-3,長者久保公園東側,35.7884339,139.4751561,
埼玉県,所沢市,5-2,旭町17,七世橋　南東側,35.7915309,139.4734154,
埼玉県,所沢市,5-3,くすのき台1-10,所沢駅東口第2自転車駐車場北側,35.7877116,139.475706,
埼玉県,所沢市,5-4,旭町20-18,旭町公民館,35.7918589,139.4741068,
埼玉県,所沢市,5-5,くすのき台1-10,所沢駅東口第2自転車駐車場東側,35.787654,139.4759527,
埼玉県,所沢市,5-6,旭町22-8,昌平寺入口西,35.7918419,139.4749723,
埼玉県,所沢市,5-7,くすのき台1-3,長者久保公園西側,35.7884644,139.4744775,
埼玉県,所沢市,6-1,西所沢1-13-3,masked,35.7893507,139.4575564,
埼玉県,所沢市,6-2,西所沢1-14,西所沢会館北側,35.7899873,139.4579096,
埼玉県,所沢市,6-3,西所沢2-12(地番670-1),市営西所沢北団地西側,35.7942165,139.4538419,
埼玉県,所沢市,6-4,西所沢1-20-9付近(地番680-3付近),西所沢駅第3駐車場北側河川敷,35.7915764,139.4543748,
埼玉県,所沢市,6-5,西所沢2-9,西所沢公園西側,35.7918473,139.4555314,
埼玉県,所沢市,6-6,西所沢2-3-20,masked,35.7926799,139.4575016,
埼玉県,所沢市,6-7,西所沢2-3-20,masked,35.7930956,139.4570335,
埼玉県,所沢市,6-8,西所沢2-3-20,masked,35.7928106,139.4569584,
埼玉県,所沢市,7-1,星の宮1-16,星の宮交差点　南東側,35.7885709,139.4608171,
埼玉県,所沢市,7-2,星の宮2-3,ベルヴィザグラン反対側　植栽,35.7862466,139.4623229,
埼玉県,所沢市,7-3,星の宮1-3-5,ベルヴィザグラン南側植栽,35.7864886,139.4622363,
埼玉県,所沢市,7-4,星の宮1-13-25,ＮＴＴ東日本埼玉西メンテナンスセンタ-西側,35.7881181,139.4632602,
埼玉県,所沢市,7-5,星の宮1-6-12,第二所沢児童クラブ,35.7876543,139.464021,
埼玉県,所沢市,7-6,星の宮2-6,星の宮2丁目こども広場　東側,35.7871466,139.4597602,
埼玉県,所沢市,7-7,星の宮1-3-10付近(地番1-983-2),ファミリ-マ-ト所沢星の宮店付近,35.7868299,139.4618627,
埼玉県,所沢市,8-1,並木1-1-1,所沢市役所北側,35.7997374,139.4680362,
埼玉県,所沢市,8-2,並木3-1,所沢市役所バス停脇植栽,35.8002881,139.4685548,
埼玉県,所沢市,8-3,並木2-3,所沢パ-クタウン公園通り団地1号棟東側,35.802108,139.4640218,
埼玉県,所沢市,8-4,並木2-4,航空公園駅東口ロ-タリ-北側,35.7991402,139.4663166,
埼玉県,所沢市,8-5,並木2-4,航空公園駅東口ロ-タリ-南側,35.7986995,139.4668166,
埼玉県,所沢市,8-6,並木4-1,国立障害者リハビリテ-ションセンタ-　南側,35.8043994,139.4632552,
埼玉県,所沢市,8-7,並木1-9,市民文化センタ-バス停脇,35.8009602,139.4734616,
埼玉県,所沢市,9-1,並木7-2,東部浄水場東側,35.8066628,139.4798887,
埼玉県,所沢市,9-2,並木8-7,masked,35.8105111,139.4772859,
埼玉県,所沢市,9-3,並木7-1,所沢パ-クタウングリ-ン並木14号棟北側,35.808729,139.4773253,
埼玉県,所沢市,9-4,並木8-1,所沢パ-クタウン並木通り団地2号棟西側,35.8088987,139.4754679,
埼玉県,所沢市,9-5,並木8-1,所沢パ-クタウン並木通り団地ﾊﾞｽ折返し場東側,35.8093772,139.4778095,
埼玉県,所沢市,9-6,並木8-5,masked,35.8119018,139.4785399,
埼玉県,所沢市,9-7,並木8-3,並木まちづくりセンタ-,35.8125581,139.4741202,
埼玉県,所沢市,10-1,下新井1286-1,所沢カルチャ-パ-ク第2駐車場,35.802366,139.4899174,
埼玉県,所沢市,10-2,こぶし町11-25,masked,35.7997319,139.4829044,
埼玉県,所沢市,10-3,こぶし町18,こぶし団地　中央公園,35.8010152,139.4850901,
埼玉県,所沢市,10-4,下新井1231-2,若松小学校東側,35.7994901,139.4898543,
埼玉県,所沢市,10-5,下新井1296-1,所沢カルチャ-パ-ク　グラウンド前,35.8011658,139.4916015,
埼玉県,所沢市,10-6,若松町720-1,秩父学園入口バス停北側,35.8013258,139.4800318,
埼玉県,所沢市,10-7,下新井1231-2,若松小学校　北側,35.7999537,139.4894192,
埼玉県,所沢市,10-8,若松町2053,若松西公園　西側,35.8033819,139.4837239,
埼玉県,所沢市,11-1,緑町4-3,中砂公園西側,35.8071049,139.4533854,
埼玉県,所沢市,11-2,緑町4-3,中砂公園東側,35.8073569,139.4538918,
埼玉県,所沢市,11-3,緑町4-11,緑町緑地　ニュ-パ-クマンション新所沢近く,35.8049571,139.4491453,
埼玉県,所沢市,11-4,緑町4-10,上砂公園東側,35.8056639,139.4504972,
埼玉県,所沢市,11-5,緑町4-29,プラザシティ新所沢けやき通り第2　33号棟北側,35.8076505,139.4489915,
埼玉県,所沢市,11-6,緑町4-28,プラザシティ新所沢けやき通り第2　37号棟東側,35.8073252,139.4486371,
埼玉県,所沢市,11-7,緑町4-42-12,masked,35.8090433,139.4494951,
埼玉県,所沢市,12-1,向陽町2124,向陽中学校東側,35.810448,139.4469864,
埼玉県,所沢市,12-2,向陽町2001-1,緑町四丁目バス停(ところバス)北側　川沿い,35.8093928,139.4511615,
埼玉県,所沢市,12-3,向陽町2087,向陽第1公園　北東側,35.8105967,139.4514601,
埼玉県,所沢市,12-4,向陽町2124,向陽中学校南側,35.8093691,139.4461281,
埼玉県,所沢市,12-5,向陽町2104-18,masked,35.8090585,139.4492902,
埼玉県,所沢市,12-6,青葉台1289,グランシ-ドミズホ側　砂川掘雨水幹線,35.8081312,139.4445084,
埼玉県,所沢市,12-7,青葉台1271,青葉台公園西側植栽,35.8070117,139.4411673,
埼玉県,所沢市,12-8,青葉台1287,masked,35.8066657,139.443622,
埼玉県,所沢市,13-1,緑町1-21,新所沢駅西口広場噴水脇植栽,35.8062329,139.4555712,
埼玉県,所沢市,13-2,緑町1-7,中央公園南側(公園内),35.8033786,139.4522588,
埼玉県,所沢市,13-3,緑町1-6,プラザシティ新所沢けやき通り18号棟南側植栽,35.8058965,139.4536165,
埼玉県,所沢市,13-4,緑町1-8,緑町緑地　交差点「中央公園前」　北側,35.8038442,139.4509514,
埼玉県,所沢市,13-5,緑町2-6,松葉公園南側,35.804248,139.4566545,
埼玉県,所沢市,13-6,緑町1-5,プラザシティ新所沢けやき通り1号棟北側植栽,35.8051257,139.4542952,
埼玉県,所沢市,13-7,緑町1-8-3,新所沢まちづくりセンタ-東側植栽,35.8042916,139.4517763,
埼玉県,所沢市,14-1,緑町3-5,桃の木公園北西側,35.8016609,139.4500154,
埼玉県,所沢市,14-2,緑町3-16-7,新所沢コミュニティセンタ-北側,35.8025934,139.4493464,
埼玉県,所沢市,14-3,緑町3-17-55,プラザシティ新所沢けやき通り第三団地55号棟南側,35.8011819,139.4481131,
埼玉県,所沢市,14-4,緑町3-24,緑町緑地　所沢緑町ガ-デンハウス西側,35.8040147,139.4487592,
埼玉県,所沢市,14-5,緑町3-26,中道公園南側,35.8032444,139.4481141,
埼玉県,所沢市,14-6,緑町3-5,桃の木公園南東側,35.8013583,139.4505046,
埼玉県,所沢市,14-7,緑町3-26,中道公園北側,35.8037242,139.4482249,
埼玉県,所沢市,15-1,泉町1861-1,こどもと福祉の未来館　東側,35.8036759,139.459287,
埼玉県,所沢市,15-2,けやき台2-44-1,所沢中学校南側,35.7974248,139.4582258,
埼玉県,所沢市,15-3,けやき台2-29-1,かにや所沢けやき台店北側,35.7999234,139.4561236,
埼玉県,所沢市,15-4,けやき台2-44-2,市立教育センタ-西側,35.7989521,139.4569536,
埼玉県,所沢市,15-5,けやき台2-18-1,上新井東公園南側,35.7967965,139.4557551,
埼玉県,所沢市,15-6,けやき台1-13-11,所沢中央消防署　駐車場東側,35.7976235,139.4546799,
埼玉県,所沢市,15-7,けやき台1-5-1,上新井西公園西側,35.7995495,139.4542505,
埼玉県,所沢市,15-8,けやき台1-38,清進小学校西側,35.800949,139.4527281,
埼玉県,所沢市,16-1,花園1-2336,月極駐車場向側の畑,35.8139014,139.4554913,
埼玉県,所沢市,16-2,北所沢町2259-1,北所沢中央公園西側,35.8098573,139.4541047,
埼玉県,所沢市,16-3,花園4-2585,花園緑地西側,35.8168777,139.4615135,
埼玉県,所沢市,16-4,花園3-2383-5,masked,35.8161831,139.4597344,
埼玉県,所沢市,16-5,花園2-2400-4,ラ-ク所沢北側,35.8166696,139.4548904,
埼玉県,所沢市,16-6,花園2-2405-7,花園西公園,35.8153917,139.4560907,
埼玉県,所沢市,16-7,花園2-2409-77,花園あじさい公園　西側,35.8144958,139.4567214,
埼玉県,所沢市,16-8,花園4-2585,花園緑地南側,35.8167113,139.4616759,
埼玉県,所沢市,17-1,弥生町1876-20,弥生町歩道橋西側,35.806566,139.4605647,
埼玉県,所沢市,17-2,並木5-1,美原小学校　南側,35.8084153,139.462318,
埼玉県,所沢市,17-3,並木5-2,美原中学校,35.809411,139.4665556,
埼玉県,所沢市,17-4,弥生町2868,長青寺東側植栽,35.8047723,139.4622297,
埼玉県,所沢市,17-5,並木5-3,所沢市民体育館,35.8110778,139.4650455,
埼玉県,所沢市,17-6,弥生町1867-4,弥生公園南側,35.8034197,139.4609859,
埼玉県,所沢市,17-7,並木5-1,美原小学校　西側,35.8092135,139.4616502,
埼玉県,所沢市,18-1,西新井町17-35,熊野神社北側(Ｒ463沿い),35.79529,139.4741551,
埼玉県,所沢市,18-2,西新井町19-26付近(地番201-1付近),三上企画南側河川敷,35.7935402,139.472667,
埼玉県,所沢市,18-3,西新井町13,河川敷,35.7947336,139.4777088,
埼玉県,所沢市,18-4,西新井町6-9,市立西新井保育園西側,35.7935122,139.4748636,
埼玉県,所沢市,18-5,西新井町20-2(地番422-2),西新井駐車場南側,35.7940051,139.4717942,
埼玉県,所沢市,18-6,東新井町115,東新井町自衛消防機具置場西側,35.7950627,139.4805017,
埼玉県,所沢市,18-7,東新井町288,境橋北側,35.7958798,139.4826765,
埼玉県,所沢市,19-1,上安松1224-1,保健センタ-北側,35.7926276,139.4806556,
埼玉県,所沢市,19-2,上安松1286-7,所沢サン・アビリティ-ズ南側,35.7901672,139.4856637,
埼玉県,所沢市,19-3,牛沼54,うしぬま荘グラウンド　南側,35.7950655,139.4909414,
埼玉県,所沢市,19-4,牛沼313-4,牛沼けやき公園,35.7962794,139.4836088,
埼玉県,所沢市,19-5,牛沼21,牛沼小学校　東側,35.7946637,139.4932079,
埼玉県,所沢市,19-6,牛沼372,加美橋北側,35.7953118,139.4851536,
埼玉県,所沢市,19-7,牛沼605-1,東中学校北側,35.7966237,139.4950218,
埼玉県,所沢市,20-1,上安松944-28,篠山公園西側,35.7880982,139.4889557,
埼玉県,所沢市,20-2,上安松1160-1,所沢陸橋西側,35.7895937,139.4814929,
埼玉県,所沢市,20-3,上安松895,松井小学校西側,35.7890886,139.4892138,
埼玉県,所沢市,20-4,上安松895,松井小学校南側,35.7886579,139.4898562,
埼玉県,所沢市,20-5,上安松976-4,篠山西緑地,35.789465,139.4868297,
埼玉県,所沢市,20-6,上安松1160-1,所沢陸橋北側,35.7897028,139.4817283,
埼玉県,所沢市,20-7,上安松895,松井小学校東側,35.7895064,139.4907453,
埼玉県,所沢市,20-8,上安松395-10,谷戸公園　北西側,35.7851883,139.4870939,
埼玉県,所沢市,21-1,上安松1,西武池袋線秋津駅北側自転車置場,35.7788567,139.4966809,
埼玉県,所沢市,21-2,下安松380-2,日向橋　向側,35.7821434,139.4985399,
埼玉県,所沢市,21-3,上安松97-1,松戸橋公園　東側,35.7811154,139.4935463,
埼玉県,所沢市,21-4,下安松467,長源寺慈光幼稚園第1駐車場北側,35.784519,139.4964319,
埼玉県,所沢市,21-5,下安松482,安松神社西側,35.7852174,139.495328,
埼玉県,所沢市,21-6,下安松465,長源寺慈光幼稚園運動場西,35.7842543,139.4971432,
埼玉県,所沢市,21-7,下安松466-1,慈光幼稚園駐車場東側,35.7838197,139.4969676,
埼玉県,所沢市,21-8,下安松412-1,中新井会館北側,35.7835172,139.4979379,
埼玉県,所沢市,22-1,下安松196,清流公園南側,35.7851566,139.5094457,
埼玉県,所沢市,22-2,下安松196,清流公園東側,35.785544,139.5095222,
埼玉県,所沢市,22-3,下安松734-1,中原公園　東側,35.7884702,139.5007434,
埼玉県,所沢市,22-4,下安松286-24,桂木公園,35.7829525,139.5031344,
埼玉県,所沢市,22-5,下安松561,masked,35.7882744,139.4969776,
埼玉県,所沢市,22-6,下安松604-1,トランクル-ム東側畑,35.7910071,139.4965916,
埼玉県,所沢市,22-7,下安松786,愛宕山バス停脇,35.790548,139.5018686,
埼玉県,所沢市,22-8,下安松755-1,安松小学校西側,35.7873094,139.5026162,
埼玉県,所沢市,23-1,松郷267-1,老人ホ-ム亀鶴園北側,35.7989525,139.4998944,
埼玉県,所沢市,23-2,松郷92-1,松郷保育園　東側,35.7920715,139.4987606,
埼玉県,所沢市,23-3,松郷81-27,松郷公園,35.794247,139.4987737,
埼玉県,所沢市,23-4,松郷77,masked,35.7935029,139.4994388,
埼玉県,所沢市,23-5,松郷118-2,松郷西公園　北側,35.7927114,139.4940875,
埼玉県,所沢市,23-6,松郷92-1,松郷南公園西側,35.7921412,139.4975604,
埼玉県,所沢市,23-7,松郷76-4,愛宕山団地3号棟西側,35.7932163,139.500469,
埼玉県,所沢市,24-1,東所沢和田2-19-19,安松中学校東側,35.7940621,139.5089021,
埼玉県,所沢市,24-2,東所沢和田2-19-19,安松中学校西側(プ-ル側),35.7939837,139.5072955,
埼玉県,所沢市,24-3,東所沢和田1-23,和田東公園南側,35.791661,139.5139737,
埼玉県,所沢市,24-4,東所沢和田3-25-9,masked,35.7950109,139.5056952,
埼玉県,所沢市,24-5,下安松163-2,丸政園東向側河川敷,35.78624,139.5104664,
埼玉県,所沢市,24-6,東所沢和田2-13,和田北公園南側,35.7944514,139.510775,
埼玉県,所沢市,24-7,東所沢和田1-39,和田小学校西側,35.7907803,139.5079156,
埼玉県,所沢市,24-8,東所沢和田1-39,和田小学校東側,35.7914961,139.5092123,
埼玉県,所沢市,25-1,東所沢2-26-1,東所沢小学校東側,35.7998848,139.5145772,
埼玉県,所沢市,25-2,東所沢2-26-1,東所沢小学校北側,35.799937,139.51355,
埼玉県,所沢市,25-3,東所沢2-40,新郷公園南側,35.801177,139.5159184,
埼玉県,所沢市,25-4,東所沢3-31,亀ヶ谷公園南側,35.803966,139.5176366,
埼玉県,所沢市,25-5,東所沢1-37,東所沢駅前交番南側,35.794879,139.5133555,
埼玉県,所沢市,25-6,東所沢3-16,明改原公園東側,35.8021507,139.518613,
埼玉県,所沢市,25-7,東所沢1-33,原中公園　北側,35.7986405,139.5198076,
埼玉県,所沢市,25-8,東所沢1-7,郷土窪公園北側,35.7966956,139.5139067,
埼玉県,所沢市,26-1,東所沢4-16-4,市立やなぎ児童館北側,35.8043525,139.5205754,
埼玉県,所沢市,26-2,坂之下964,柳瀬小学校西側,35.805829,139.5219206,
埼玉県,所沢市,26-3,南永井833,クリ-ンプラザ南永井　北向う側,35.8188707,139.5313765,
埼玉県,所沢市,26-4,日比田207,見沢園南側,35.8065141,139.5077681,
埼玉県,所沢市,26-5,城972-1,柳瀬まちづくりセンタ-第2駐車場西側,35.8044752,139.5225723,
埼玉県,所沢市,26-6,亀ヶ谷278-1,柳瀬民俗資料館南側,35.8069265,139.5164759,
埼玉県,所沢市,26-7,城861,城公民館,35.8014768,139.5292203,
埼玉県,所沢市,26-8,本郷33-5,山下造園植木場,35.7985879,139.523334,
埼玉県,所沢市,27-1,中新井435,ひまわり保育園北側フェンス,35.8195422,139.4718062,
埼玉県,所沢市,27-2,中新井1-93-1,伸栄小学校東側,35.8162157,139.4649929,
埼玉県,所沢市,27-3,中新井1-93-1,伸栄小学校北側,35.8167573,139.4642366,
埼玉県,所沢市,27-4,中新井1-93-1,伸栄小学校西側,35.8165528,139.4636499,
埼玉県,所沢市,27-5,中新井1-831,masked,35.8149281,139.4664493,
埼玉県,所沢市,27-6,中新井578付近,とめの里駐車場,35.8181495,139.4730512,
埼玉県,所沢市,27-7,中新井431-44,栗の木公園東側,35.8184743,139.4718128,
埼玉県,所沢市,28-1,中新井3-18-8,市立中新井保育園南側,35.8154579,139.4739588,
埼玉県,所沢市,28-2,中新井3-23,富士見公園東側,35.8167552,139.476154,
埼玉県,所沢市,28-3,中新井3-23,富士見公園南側,35.8160375,139.4761017,
埼玉県,所沢市,28-4,中新井4-10-6,中新井公園南側,35.8138059,139.4732945,
埼玉県,所沢市,28-5,中新井4-33-1,浅海原公園西側,35.8136542,139.4759265,
埼玉県,所沢市,28-6,中新井5-17-8,津久井公園北側,35.81813,139.47788,
埼玉県,所沢市,28-7,中新井4-28-7,中新井緑地,35.8149149,139.4770908,
埼玉県,所沢市,29-1,中富南3-4,武野原公園南側,35.8133429,139.4949181,
埼玉県,所沢市,29-2,中富南2-20,道傍公園南側,35.8113989,139.4939247,
埼玉県,所沢市,29-3,中富南4-4,中富南コミュニティセンタ-南側,35.8122576,139.4981314,
埼玉県,所沢市,29-4,中富南4-16,道傍東公園南側,35.813697,139.4989495,
埼玉県,所沢市,29-5,南永井61-1,masked,35.8109511,139.5011184,
埼玉県,所沢市,29-6,中富南1-4,北新田公園東側,35.8105943,139.4910319,
埼玉県,所沢市,29-7,中富南4-24,中富南公園　南東側,35.8163575,139.501594,
埼玉県,所沢市,30-1,中富807-1,中富交差点北側,35.8173746,139.4849319,
埼玉県,所沢市,30-2,中富1548-1,中富民俗資料館　北側,35.8119321,139.4830648,
埼玉県,所沢市,30-3,中富367,中富会館　東側,35.8185407,139.4889344,
埼玉県,所沢市,30-4,中富1004-1,中富小学校　正門,35.8195587,139.4878968,
埼玉県,所沢市,30-5,中富1614-2,市民武道館入口,35.8145972,139.4827943,
埼玉県,所沢市,30-6,中富531-2,中富南三丁目バス停南側,35.8140756,139.4889587,
埼玉県,所沢市,30-7,中富743-1,ところバス・ニュ-タウン北バス停東側,35.8198327,139.478455,
埼玉県,所沢市,31-1,神米金404,富岡中学校　北側,35.8245285,139.4601059,
埼玉県,所沢市,31-2,下富618,富岡小学校入口前畑,35.8277238,139.4675699,
埼玉県,所沢市,31-3,下富866-1,旧第3学校給食センタ-,35.8352027,139.4619498,
埼玉県,所沢市,31-4,下富599-2,下富片側交差点北側,35.8257985,139.4715513,
埼玉県,所沢市,31-5,下富1290-1,十四軒公園　東側,35.8263048,139.4616905,
埼玉県,所沢市,31-6,神米金190,masked,35.8238674,139.4655757,
埼玉県,所沢市,31-7,神米金389,郊外マンション管理事務所前,35.8211217,139.4628841,
埼玉県,所沢市,31-8,下富647-5,富岡小学校　北側,35.8295014,139.4673046,
埼玉県,所沢市,32-1,下富1256-97,柳野公園西側,35.8258784,139.4564522,
埼玉県,所沢市,32-2,下富1190-10,西公園東側,35.826718,139.45368,
埼玉県,所沢市,32-3,下富1043-72,雪見原西公園北側,35.832585,139.4507232,
埼玉県,所沢市,32-4,下富1056-122,フラワ-ヒル調整池北側,35.83235,139.4544892,
埼玉県,所沢市,32-5,北岩岡117-1,富岡まちづくりセンタ-,35.8235726,139.4498576,
埼玉県,所沢市,32-6,北岩岡192,masked,35.8217704,139.4447575,
埼玉県,所沢市,32-7,下富1140-24,調節池南側,35.8293203,139.4545327,
埼玉県,所沢市,33-1,岩岡町676,西富小学校東側,35.8168222,139.4440977,
埼玉県,所沢市,33-2,岩岡町676,西富小学校西側,35.8159652,139.4432125,
埼玉県,所沢市,33-3,北中3-101-1,北中公園南側,35.8110357,139.4392298,
埼玉県,所沢市,33-4,北中3-101-1,北中公園西側,35.811288,139.4389092,
埼玉県,所沢市,33-5,北中4-774-2,北中運動場　東側駐車場裏,35.815666,139.4397025,
埼玉県,所沢市,33-6,北中4-774-2,北中運動場　西側,35.8163207,139.4369855,
埼玉県,所沢市,33-7,北中4-774-2,北中運動場南側　フェンス,35.8157932,139.4376507,
埼玉県,所沢市,34-1,東狭山ケ丘5-893,狭山ケ丘中学校　南側,35.8161826,139.4280458,
埼玉県,所沢市,34-2,東狭山ヶ丘6-2777-1,宮前小学校西側,35.8173183,139.425463,
埼玉県,所沢市,34-3,東狭山ヶ丘3-715-1,堀之内公園　北側,35.8133963,139.4227484,
埼玉県,所沢市,34-4,東狭山ヶ丘3-2873-1,新田荘南向側,35.8122838,139.4245965,
埼玉県,所沢市,34-5,東狭山ヶ丘6-2807-1,並木病院西側梅畑(宮前小南側),35.8149289,139.4263632,
埼玉県,所沢市,34-6,東狭山ケ丘4-2633,小手指車両基地　西側向側,35.8067969,139.425267,
埼玉県,所沢市,34-7,東狭山ヶ丘6-2777-1,宮前小学校東側,35.8174608,139.4268778,
埼玉県,所沢市,35-1,東狭山ヶ丘1-74,東狭山ケ丘北公園　東側,35.8161138,139.4191746,
埼玉県,所沢市,35-2,東狭山ヶ丘2-2914-40,地蔵下第3公園北側,35.8093393,139.4244676,
埼玉県,所沢市,35-3,東狭山ヶ丘1-25,東狭山ヶ丘中央公園南側,35.8128401,139.4172511,
埼玉県,所沢市,35-4,東狭山ヶ丘2-2902-60,地蔵下第1公園　西側,35.8085991,139.4217044,
埼玉県,所沢市,35-5,東狭山ケ丘1-12-1,月極駐車場隣地,35.8117139,139.4174631,
埼玉県,所沢市,35-6,東狭山ヶ丘2-2985,所沢自動車学校東側,35.8105926,139.421123,
埼玉県,所沢市,35-7,東狭山ケ丘1-63,愛宕前公園　西側,35.8148906,139.4200501,
埼玉県,所沢市,35-8,東狭山ヶ丘1-28,東狭山ケ丘南公園　西側,35.812836,139.4190592,
埼玉県,所沢市,36-1,若狭1-2946,若狭小学校北側,35.8084467,139.4207458,
埼玉県,所沢市,36-2,若狭1-2946,若狭小学校南側,35.8075451,139.4198583,
埼玉県,所沢市,36-3,若狭2-2605-2,若狭東公園南側,35.8041318,139.4220246,
埼玉県,所沢市,36-4,若狭4-2496-6,狭山ヶ丘コミュニティセンタ-第2駐車場入口,35.8066178,139.4169521,
埼玉県,所沢市,36-5,若狭4-2522-1,市民の森南側,35.80367,139.4161913,
埼玉県,所沢市,36-6,若狭1-2930,狭山ケ丘緑地　跨道橋　西側,35.8076066,139.4221401,
埼玉県,所沢市,36-7,若狭1-2937,若狭地蔵市民の森北側,35.8069479,139.419562,
埼玉県,所沢市,36-8,若狭1-2643-1,若狭の森公園　北側,35.8058918,139.4221836,
埼玉県,所沢市,37-1,狭山ケ丘2-2-3,狭山ケ丘第1緑地　サンロ-ド商店街そば,35.8124805,139.4143657,
埼玉県,所沢市,37-2,和ヶ原2-595-9,和ケ原北公園　北側,35.8085399,139.4068676,
埼玉県,所沢市,37-3,狭山ケ丘2-60-40,狭山ケ丘公園,35.8098566,139.4115721,
埼玉県,所沢市,37-4,狭山ヶ丘1-3003-52,みどり保育園南側,35.8095856,139.4141341,
埼玉県,所沢市,37-5,狭山ヶ丘1-53-2,狭山ケ丘第1緑地　武州ガス前,35.8088779,139.412929,
埼玉県,所沢市,37-6,狭山ケ丘1-35-16,狭山ケ丘第1緑地　月極有料駐車場そば,35.8114266,139.4139038,
埼玉県,所沢市,37-7,狭山ヶ丘2-8-3,masked,35.8117328,139.414007,
埼玉県,所沢市,37-8,和ケ原2-209-1,タイヤ館入間店　向側,35.8076867,139.4056881,
埼玉県,所沢市,38-1,西狭山ヶ丘1-2432,西狭山ヶ丘公園　北西側,35.8034897,139.4108083,
埼玉県,所沢市,38-2,和ヶ原1-692-2,私立こでまり幼稚園西側墓地,35.8076089,139.4137971,
埼玉県,所沢市,38-3,和ケ原1-175,和ケ原自動車排出ガス測定局,35.8056739,139.4093681,
埼玉県,所沢市,38-4,和ヶ原1-159,和ヶ原公園　西側,35.8073898,139.4084186,
埼玉県,所沢市,38-5,和ヶ原1-117,masked,35.8070151,139.4116567,
埼玉県,所沢市,38-6,和ヶ原1-222-1,こどもひろば東側,35.8056076,139.406766,
埼玉県,所沢市,38-7,和ケ原1-156,和ケ原公園の並　畑北側,35.807695,139.4086494,
埼玉県,所沢市,39-1,林1-38-2,masked,35.7996319,139.3961799,
埼玉県,所沢市,39-2,林2-200-2,株式会社ディ-・エス・アイ・テクノロジ-　南側,35.8026433,139.3952894,
埼玉県,所沢市,39-3,和ヶ原3-95-8,林小学校西側,35.8035531,139.4017101,
埼玉県,所沢市,39-4,林1-61-1,masked,35.8008964,139.3936378,
埼玉県,所沢市,39-5,林2-88,所沢商業高校テニスコ-ト東側,35.8009999,139.4024555,
埼玉県,所沢市,39-6,林3-556-5,エネオスＧＳ狭山ヶ丘ＳＳ東向側(Ｒ463植栽),35.8096317,139.4028489,
埼玉県,所沢市,39-7,林2-126-1,masked,35.8028476,139.3977944,
埼玉県,所沢市,39-8,和ヶ原3-290-1,タナカ理容室北側駐車場,35.8055249,139.4037409,
埼玉県,所沢市,40-1,三ヶ島5-791-4,三ヶ島小学校北側,35.7931923,139.4037452,
埼玉県,所沢市,40-2,三ヶ島1-1035-1,masked,35.7897676,139.4143933,
埼玉県,所沢市,40-3,三ヶ島4-2408-1,粕谷園植木場,35.8006529,139.4114695,
埼玉県,所沢市,40-4,三ヶ島5-1639-1,三ヶ島まちづくりセンタ-,35.7978692,139.4039841,
埼玉県,所沢市,40-5,三ヶ島3-1407-1,三ヶ島中学校　北側,35.7962051,139.4065963,
埼玉県,所沢市,40-6,三ヶ島5-1691,中氷川神社北側,35.7899529,139.3976639,
埼玉県,所沢市,40-7,三ヶ島5-1974-4,市立三ケ島保育園,35.796428,139.3975677,
埼玉県,所沢市,40-8,堀之内1729-2,山田うどん堀ノ内店向側,35.7900971,139.391634,
埼玉県,所沢市,40-9,三ヶ島3-1407-1,三ヶ島中学校　西側,35.7957534,139.4067856,
埼玉県,所沢市,41-1,北野2-12-1,埋蔵文化財調査センタ-東側,35.7971047,139.4222974,
埼玉県,所沢市,41-2,北野南1-19,西部加圧ポンプ場,35.7843985,139.4257805,
埼玉県,所沢市,41-3,北野南1-5-1,小手指まちづくりセンタ-入口,35.7882986,139.4275021,
埼玉県,所沢市,41-4,北野2-14-13,ロイヤルこころの里病院東側,35.7937466,139.4187765,
埼玉県,所沢市,41-5,北野3-23-2,所沢中央消防署三ヶ島分署東側,35.7916478,139.4153914,
埼玉県,所沢市,41-6,北野2-4-1,北野小学校　東側,35.7961608,139.4259764,
埼玉県,所沢市,41-7,北野南3-6-16,masked,35.7880799,139.4164729,
埼玉県,所沢市,42-1,小手指町1-4-3,下原公園北側,35.8011217,139.4393561,
埼玉県,所沢市,42-2,小手指町1-14-8,中山西公園南側,35.802054,139.4374343,
埼玉県,所沢市,42-3,小手指町1-28-3,こばと児童館東側,35.8052728,139.4374877,
埼玉県,所沢市,42-4,小手指町1-22-5,小手指東公園東側,35.8021063,139.4413683,
埼玉県,所沢市,42-5,小手指町1-47,小手指駅北口ロ-タリ-,35.8011143,139.4377984,
埼玉県,所沢市,42-6,小手指町1-25-23,ルポパルク緑地,35.8038315,139.4409671,
埼玉県,所沢市,42-7,小手指町2-8,松岡公園南側,35.80366,139.4345455,
埼玉県,所沢市,42-8,小手指町1-19,中山公園北側,35.80098,139.4410221,
埼玉県,所沢市,43-1,小手指町4-3,北野公園　西側,35.7982037,139.4331947,
埼玉県,所沢市,43-2,小手指町4-3,北野公園市民プ-ル南側,35.7977893,139.4337044,
埼玉県,所沢市,43-3,小手指町4-3,北野公園東側,35.7980539,139.4350166,
埼玉県,所沢市,43-4,小手指町5-224,はとや所沢店　駐車場前,35.7956139,139.4341918,
埼玉県,所沢市,43-5,小手指町4-22-2,市立小手指公民館分館,35.7975963,139.4382048,
埼玉県,所沢市,43-6,小手指町5-16-9,木下硝子店東側,35.7948084,139.438415,
埼玉県,所沢市,43-7,上新井3-49,台公園南側,35.797216,139.4427138,
埼玉県,所沢市,43-8,上新井3-49,台公園北側,35.7975342,139.4427212,
埼玉県,所沢市,44-1,上新井4-10,上新井北原公園　南側,35.7985841,139.4442774,
埼玉県,所沢市,44-2,上新井5-36-7,上新井小学校東側,35.7968177,139.4511285,
埼玉県,所沢市,44-3,上新井4-56,西窪公園　北側,35.801913,139.4437396,
埼玉県,所沢市,44-4,上新井5-61,上の台公園東側,35.7964154,139.448172,
埼玉県,所沢市,44-5,上新井5-68,東桃木窪公園西側,35.7982507,139.4482495,
埼玉県,所沢市,44-6,上新井5-36-7,上新井小学校西側,35.7969248,139.4496493,
埼玉県,所沢市,44-7,上新井5-40-3,所沢市体験農場南側,35.7948819,139.4520585,
埼玉県,所沢市,44-8,上新井4-20-1,桃木窪中央公園　東側,35.7993333,139.4467167,
埼玉県,所沢市,45-1,小手指元町3-28-11,小手指中学校　西側,35.7914932,139.4287983,
埼玉県,所沢市,45-2,小手指元町2-29-2,小手指小学校北側,35.7917726,139.4361871,
埼玉県,所沢市,45-3,小手指南2-14-3,ＪＡいるま野所沢西支店北側,35.7905944,139.4355295,
埼玉県,所沢市,45-4,小手指元町3-28-26,小手指中学校入口,35.7901768,139.4306429,
埼玉県,所沢市,45-5,小手指南2-14-3,ＪＡいるま野所沢西支店南側,35.7902185,139.4351988,
埼玉県,所沢市,45-6,小手指元町2-5,歩道橋,35.7956917,139.4333821,
埼玉県,所沢市,45-7,小手指元町3-15-9,宮後公園　北側,35.7925457,139.4296365,
埼玉県,所沢市,45-8,小手指元町2-29-2,小手指小学校東側,35.7916836,139.4363151,
埼玉県,所沢市,46-1,小手指南5-20-1,椿峰小学校南側,35.7836774,139.4310044,
埼玉県,所沢市,46-2,小手指南4-15-1,市立小手指保育園南側,35.7872109,139.4308176,
埼玉県,所沢市,46-3,小手指南3-42,小谷公園南側(第6集会所向側),35.7867911,139.4366082,
埼玉県,所沢市,46-4,小手指南6-15,高峰公園南側,35.7811031,139.4282487,
埼玉県,所沢市,46-5,小手指南5-2,海谷公園　西側,35.7874165,139.4330773,
埼玉県,所沢市,46-6,小手指南3-42,小谷公園西側,35.7868731,139.4358554,
埼玉県,所沢市,46-7,小手指南3-57-9,椿峰コミュニティ会館本館北側,35.7853347,139.4338284,
埼玉県,所沢市,46-8,小手指南5-2,海谷公園　北側,35.7876384,139.4334046,
埼玉県,所沢市,47-1,上新井3-4,上新井公園　北側,35.7947974,139.4431648,
埼玉県,所沢市,47-2,上新井2-77-1,上新井西前公園　南側,35.793027,139.4445914,
埼玉県,所沢市,47-3,小手指台3-2,梨子ノ木戸公園　南側,35.7899074,139.444725,
埼玉県,所沢市,47-4,山口888-2,所沢山口団地1号棟西側,35.7894396,139.4413088,
埼玉県,所沢市,47-5,上新井2-15-1,masked,35.7922625,139.4516827,
埼玉県,所沢市,47-6,上新井2-66-1,masked,35.7945107,139.4475425,
埼玉県,所沢市,47-7,小手指台31,バス停　大六天北　西側,35.7930676,139.4415204,
埼玉県,所沢市,47-8,上新井2-67-7,上新井会館西側フェンス,35.7939876,139.4458766,
埼玉県,所沢市,48-1,山口182-2,所沢中央消防署山口分署　南側,35.7852703,139.4535848,
埼玉県,所沢市,48-2,山口57-4,春の台公園南側,35.7842737,139.4549261,
埼玉県,所沢市,48-3,山口356,市立老人憩の家　さくら荘　北側,35.787981,139.4478438,
埼玉県,所沢市,48-4,山口232,西所沢駅第4自転車駐車場西側,35.7875337,139.4549467,
埼玉県,所沢市,48-5,山口657,泉小学校東側,35.7836338,139.4487559,
埼玉県,所沢市,48-6,山口657,泉小学校西側,35.7833954,139.4476087,
埼玉県,所沢市,48-7,山口289-1,桑の実西所沢保育園東側,35.7884263,139.4539317,
埼玉県,所沢市,48-8,山口57,もりや着付教室向かい,35.7839555,139.4558184,
埼玉県,所沢市,49-1,山口1028-73,椿峰公園北側,35.7866799,139.4427005,
埼玉県,所沢市,49-2,山口689,岩崎上町自治会館西側,35.7835283,139.4458786,
埼玉県,所沢市,49-3,山口710,市立山口保育園南側,35.785522,139.4460654,
埼玉県,所沢市,49-4,山口732-6,masked,35.7871035,139.4461074,
埼玉県,所沢市,49-5,山口1028-73,椿峰公園南側,35.7863181,139.4427542,
埼玉県,所沢市,49-6,山口928隣,調整池　南側フェンス,35.7871923,139.4455521,
埼玉県,所沢市,49-7,山口896,masked,35.7886198,139.4415294,
埼玉県,所沢市,50-1,山口5004,山口まちづくりセンタ-東側,35.7843785,139.4393955,
埼玉県,所沢市,50-2,山口1426-1,masked,35.7791398,139.4394047,
埼玉県,所沢市,50-3,山口5050,椿峰中央公園西側,35.7830373,139.4363756,
埼玉県,所沢市,50-4,山口1284-2,masked,35.7813845,139.4411253,
埼玉県,所沢市,50-5,山口5050,椿峰中央公園北側,35.7841493,139.4369998,
埼玉県,所沢市,50-6,山口5057,椿峰コミュニティ会館別館北側,35.7822675,139.4359832,
埼玉県,所沢市,50-7,山口5004,山口まちづくりセンタ-南側,35.7840338,139.4388581,
埼玉県,所沢市,51-1,上山口138-1,川辺公園,35.7760472,139.4245015,
埼玉県,所沢市,51-2,上山口72,上山口中学校東側,35.7796712,139.4264664,
埼玉県,所沢市,51-3,上山口81-34,高橋公園,35.777893,139.4260733,
埼玉県,所沢市,51-4,上山口2039-7,調整池南側,35.7731666,139.4239107,
埼玉県,所沢市,51-5,上山口1578,バス停「上山口」　裏,35.7757044,139.4208651,
埼玉県,所沢市,51-6,上山口2178-6,ライオンズ整形外科クリニック　北側フェンス,35.7703357,139.4175332,
埼玉県,所沢市,51-7,上山口115,市立山口西保育園南側,35.7758101,139.4276207,
埼玉県,所沢市,51-8,上山口1233,狭山湖運動場　東側フェンス,35.7775485,139.4177754,
埼玉県,所沢市,52-1,山口1550,山口小学校正門北側,35.7794384,139.4345189,
埼玉県,所沢市,52-2,山口1550,山口小学校裏門北側,35.7801882,139.4342095,
埼玉県,所沢市,52-3,山口1517-1,ファッション市場サンキ西側,35.7779383,139.435007,
埼玉県,所沢市,52-4,山口2801,masked,35.7756984,139.4356052,
埼玉県,所沢市,52-5,山口5267,図書館椿峰分館,35.7812073,139.4313193,
埼玉県,所沢市,52-6,山口1526-45,児泉公園北側,35.7773245,139.4335199,
埼玉県,所沢市,52-7,大字山口5115-1,椿峰75街区緑地　西側,35.7786768,139.4331096,
埼玉県,所沢市,52-8,山口2788-4,町谷自治会館,35.776563,139.4365698,
埼玉県,所沢市,53-1,山口2744,調整池,35.7773628,139.4402213,
埼玉県,所沢市,53-2,荒幡169-1,masked,35.7815173,139.4523867,
埼玉県,所沢市,53-3,荒幡1014-19,田畑南公園西側,35.7762108,139.4413017,
埼玉県,所沢市,53-4,荒幡485-5,光蔵寺北側,35.7763496,139.4525004,
埼玉県,所沢市,53-5,荒幡657-1,荒幡会館,35.778068,139.4478418,
埼玉県,所沢市,53-6,荒幡262-1,本村公園南側,35.7811575,139.4477263,
埼玉県,所沢市,53-7,荒幡684-3,荒幡小学校第2ベ-ス　北側,35.778308,139.446234,
埼玉県,所沢市,53-8,荒幡615,荒幡小学校南側遊水地東側,35.775407,139.4491535,
埼玉県,所沢市,54-1,久米2204-3,久米下水ポンプ場,35.7818669,139.4567531,
埼玉県,所沢市,54-2,久米1488,所沢中央自動車教習所西側,35.7834201,139.4624403,
埼玉県,所沢市,54-3,久米2168-1,三恵第53管理駐車場北側,35.7804233,139.4578279,
埼玉県,所沢市,54-4,久米1354,masked,35.7833317,139.4588139,
埼玉県,所沢市,54-5,久米2229-1,吾妻まちづくりセンタ-　東側,35.7792686,139.4563051,
埼玉県,所沢市,54-6,久米2229-1,吾妻まちづくりセンタ-西側,35.7794603,139.4554623,
埼玉県,所沢市,54-7,久米1354,masked,35.7828817,139.4593253,
埼玉県,所沢市,55-1,東住吉671-1,所沢駅西口区画整理事務所　西側,35.7839269,139.469622,
埼玉県,所沢市,55-2,西住吉1-2,シャ-メゾントコロザワ北側植栽,35.7867517,139.4686814,
埼玉県,所沢市,55-3,南住吉18,南小学校北側,35.7833904,139.4670849,
埼玉県,所沢市,55-4,東住吉19,所沢都市計画事業所沢駅西口土地区画整理事業　2号公園　南側,35.7838466,139.4702034,
埼玉県,所沢市,55-5,南住吉18,南小学校南側,35.7823127,139.4681351,
埼玉県,所沢市,55-6,南住吉18,南小学校東側,35.783227,139.4678237,
埼玉県,所沢市,55-7,南住吉18,南小学校西側,35.7826496,139.466542,
埼玉県,所沢市,56-1,北秋津62-5,上川原公園　西側,35.775899,139.4761157,
埼玉県,所沢市,56-2,くすのき台1-14,所沢駅東口ロ-タリ-,35.7865189,139.474358,
埼玉県,所沢市,56-3,北秋津700,masked,35.7819001,139.4771883,
埼玉県,所沢市,56-4,くすのき台3-9-1,北の台公園北側,35.7881385,139.4781116,
埼玉県,所沢市,56-5,北秋津144-5,北秋津歩道橋北側,35.7809719,139.4720615,
埼玉県,所沢市,56-6,北秋津370-1,北秋津自衛消防隊詰所　左側,35.780711,139.4778814,
埼玉県,所沢市,56-7,北秋津733-10,市立北秋津保育園東側,35.7853037,139.4764923,
埼玉県,所沢市,56-8,くすのき台3-9-1,北の台公園南側,35.7879019,139.4783048,
埼玉県,所沢市,57-1,北秋津876-6,茨原東公園　東側,35.787017,139.4829872,
埼玉県,所沢市,57-2,北秋津623,北秋津小学校西側,35.7834947,139.4792723,
埼玉県,所沢市,57-3,北秋津623,北秋津小学校北側,35.7839982,139.4798972,
埼玉県,所沢市,57-4,北秋津623,北秋津小学校東側,35.7837603,139.4806124,
埼玉県,所沢市,57-5,北秋津689,masked,35.7827924,139.4776978,
埼玉県,所沢市,57-6,北秋津623,北秋津小学校南側,35.7825836,139.4801353,
埼玉県,所沢市,57-7,北秋津876-5,茨原西公園西側,35.7878519,139.4810596,
埼玉県,所沢市,58-1,久米1538-2,特別養護老人ホ-ムところの苑入口,35.7795548,139.4668909,
埼玉県,所沢市,58-2,久米2011-1,masked,35.7786133,139.4644316,
埼玉県,所沢市,58-3,久米1470,南陵中学校東側,35.7818482,139.4652969,
埼玉県,所沢市,58-4,久米1527-1,久米下組集会所東側,35.7792898,139.4685278,
埼玉県,所沢市,58-5,久米1470,南陵中学校南側,35.781435,139.4642669,
埼玉県,所沢市,58-6,久米1470,南陵中学校北側,35.7828837,139.4640604,
埼玉県,所沢市,58-7,久米1923-2,久米水天宮入口,35.7770789,139.4595702,
埼玉県,所沢市,59-1,松が丘2-150,南大谷公園北側,35.7715006,139.4549546,
埼玉県,所沢市,59-2,松が丘2-119,masked,35.7734548,139.4572972,
埼玉県,所沢市,59-3,松が丘1-1-8,松が丘9号緑地　将軍塚バス停脇,35.7752928,139.4669417,
埼玉県,所沢市,59-4,松が丘1-49-4,松が丘5号緑地　悲田処跡バス停西側,35.7760841,139.4630125,
埼玉県,所沢市,59-5,松が丘1-31-14,悲田処跡公園　南側,35.775026,139.4642442,
埼玉県,所沢市,59-6,松が丘1-23-9,松が丘中央公園南東側,35.7742562,139.4598999,
埼玉県,所沢市,59-7,松が丘1-23-7,松が丘中央会館　北側,35.7732812,139.4588904,
埼玉県,所沢市,60-1,本郷297-1,市立柳瀬保育園　西側,35.7942662,139.5191595,
埼玉県,所沢市,60-2,本郷671,本郷生活改善センタ-,35.7931666,139.5231697,
埼玉県,所沢市,60-3,本郷855-68,西前公園,35.7886112,139.5197659,
埼玉県,所沢市,60-4,本郷1016-1,旧柳瀬保育園入口,35.7902206,139.5191156,
埼玉県,所沢市,60-5,東所沢5-17-1,モアステ-ジ東所沢前,35.7961812,139.5205774,
埼玉県,所沢市,60-6,東所沢5-8,名古屋公園南側,35.7950641,139.5172609,
埼玉県,所沢市,60-7,東所沢5-24,タクシ-乗り場入口,35.794255,139.5138558,
埼玉県,所沢市,61-1,小手指町3-29,宇治公園西側,35.798495,139.4382707,
埼玉県,所沢市,61-2,小手指町3-10-3,松岡南公園東側,35.8012853,139.4344067,
埼玉県,所沢市,61-3,小手指町3-37,小手指駅南口第1自転車駐車場東側,35.8013301,139.4347537,
埼玉県,所沢市,61-4,小手指町3-11-12,緑野北公園南側,35.8003183,139.434288,
埼玉県,所沢市,61-5,小手指町3-34,小手指駅南口ロ-タリ-,35.8003354,139.437289,
埼玉県,所沢市,61-6,小手指町3-23-1,長野公園西側,35.7985554,139.436767,
埼玉県,所沢市,61-7,北野新町1-2,砂川堀北野第三調整池,35.8027983,139.4304604,
埼玉県,所沢市,62-1,美原町2-2966-5,所沢北高校西方向かい,35.8115916,139.4618559,
埼玉県,所沢市,62-2,美原町2-2938-2,市立北所沢保育園　西側,35.8112495,139.4578973,
埼玉県,所沢市,62-3,美原町5-2022,新所沢駅東口第1自転車駐車場,35.8087533,139.4565256,
埼玉県,所沢市,62-4,美原町3-2968-3,美原中央公園,35.8119644,139.4609438,
埼玉県,所沢市,62-5,美原町5-2025-13,下水路,35.8099108,139.4565463,
埼玉県,所沢市,62-6,美原町5-2357-38,下水路,35.8108664,139.4576242,
埼玉県,所沢市,62-7,美原町4-2989-2,ヤオコ-所沢美原店駐車場東側,35.8156714,139.4624225,
