prefecture,city,number,address,name,lat,long,note
埼玉県,春日部市,1-1,粕壁東3丁目2番,春日部市教育センター東側植込み,35.9795037,139.7594769,
埼玉県,春日部市,1-2,粕壁東2丁目16番,八幡神社東側(県道側)金網,35.9824364,139.763234,
埼玉県,春日部市,1-3,粕壁東2丁目8番,市民文化会館・市立図書館北側駐車場フェンス,35.9828448,139.7599762,
埼玉県,春日部市,1-4,粕壁東3丁目2番19号,粕壁小学校南東側フェンス,35.9783402,139.7602014,
埼玉県,春日部市,1-5,粕壁東1丁目15番29号,エクレール春日部III前鉄道柵,35.9783019,139.7571631,
埼玉県,春日部市,1-6,粕壁東1丁目8番,まちなみ公園,35.9806472,139.755838,
埼玉県,春日部市,1-7,粕壁1丁目1番,春日部駅東口ロータリー,35.9803622,139.753179,
埼玉県,春日部市,1-8,粕壁1丁目4番26号地先,歯科医院前 古利根川沿い植込み,35.9829474,139.7550218,
埼玉県,春日部市,2-1,粕壁東4丁目1番18号,八坂神社前ガードレール,35.9797157,139.7629618,
埼玉県,春日部市,2-2,粕壁東4丁目6番22号,民家前ガードパイプ,35.9820349,139.7656019,
埼玉県,春日部市,2-3,粕壁東6丁目14番,粕壁東第4公園東側生垣南寄り,35.9775257,139.7674243,
埼玉県,春日部市,2-4,緑町2丁目10番地3,川久保公園駐車場入口北側植込み,35.9786647,139.7720567,
埼玉県,春日部市,2-5,粕壁東6丁目1番1号,春日部女子高校体育館前金網,35.9790683,139.7661332,
埼玉県,春日部市,2-6,粕壁東6丁目12番,春日部女子高校南側金網,35.978331,139.7680761,
埼玉県,春日部市,2-7,緑町2丁目9番5号,民家塀,35.9778345,139.7702064,
埼玉県,春日部市,2-8,粕壁東6丁目6番,粕壁ポンプ場西側柵,35.9812913,139.7693339,
埼玉県,春日部市,3-1,緑町3丁目1番55号,ヤナギ管材(株)東側柵の北寄り,35.9740471,139.7665455,
埼玉県,春日部市,3-2,緑町3丁目8番24号,民家北側ブロック塀,35.9758268,139.7720179,
埼玉県,春日部市,3-3,緑町4丁目13番,masked,35.9726059,139.7723403,
埼玉県,春日部市,3-4,緑町5丁目4番,緑小学校正門横柵,35.9701654,139.7714991,
埼玉県,春日部市,3-5,緑町4丁目13番,masked,35.9728685,139.7734427,
埼玉県,春日部市,3-6,緑町5丁目9番,緑中学校正門左側金網,35.9670093,139.7706988,
埼玉県,春日部市,3-7,緑町3丁目3番17号,ハーモニー春日部入口左側生垣,35.9742946,139.7688786,
埼玉県,春日部市,4-1,緑町6丁目2番,元新宿ふれあい広場フェンス,35.9704842,139.7667207,
埼玉県,春日部市,4-2,緑町6丁目6番7号,整体施術院西側鉄道柵,35.9684632,139.7649395,
埼玉県,春日部市,4-3,緑町1丁目7番4,桐箱製作所柵,35.9728238,139.7661158,
埼玉県,春日部市,4-4,南4丁目10番,南4丁目ちびっこ広場入口左側金網,35.9674684,139.7631982,
埼玉県,春日部市,4-5,南4丁目6番3号,民家前鉄道柵,35.9687907,139.7646625,
埼玉県,春日部市,4-6,南3丁目18番22号,ひかり第2幼稚園ユリノキ通り側入口右フェンス下,35.9708552,139.7627476,
埼玉県,春日部市,4-7,南3丁目18番,ユリノキ・大池通り交差点東側緑地帯,35.9702244,139.7608963,
埼玉県,春日部市,5-1,大沼4丁目110番地,西部第六区画整理記念館前道路フェンス,35.9680869,139.7583212,
埼玉県,春日部市,5-2,大沼5丁目44番地,上沖小学校東側正門右フェンス,35.9660475,139.7577972,
埼玉県,春日部市,5-3,大沼5丁目146番地,大沼第五公園北側フェンス,35.9649771,139.7562689,
埼玉県,春日部市,5-4,一ノ割4丁目3番3号,民家東側ブロック塀,35.9632014,139.762194,
埼玉県,春日部市,5-5,大沼6丁目92番地,大沼第六公園西側入口右フェンス,35.9638821,139.7523604,
埼玉県,春日部市,5-6,大沼3丁目71番地,大沼第三公園北側入口左フェンス,35.9676158,139.7522478,
埼玉県,春日部市,5-7,大沼4丁目39番地,大沼第四公園北側入口生垣,35.9687174,139.7573762,
埼玉県,春日部市,5-8,南5丁目8番地,大池親水公園大池通り側植込み,35.9660263,139.7621808,
埼玉県,春日部市,6-1,南1丁目9番,酒店前内谷陸橋下東武鉄道金網,35.9777349,139.7576333,
埼玉県,春日部市,6-2,南1丁目20番,春日部コミュニティセンター駐車場南側ガードレール,35.975952,139.7597739,
埼玉県,春日部市,6-3,南3丁目11番24号,県営春日部南団地1号棟南側道路フェンス,35.972245,139.7607503,
埼玉県,春日部市,6-4,南1丁目12番23号,粕壁南公民館駐輪場植込み,35.9756197,139.7591646,
埼玉県,春日部市,6-5,南1丁目11番47号,南1丁目第一公園北東側生垣,35.9761013,139.7576038,
埼玉県,春日部市,6-6,南2丁目2番,南二丁目ちびっこ広場入口左側金網,35.9739402,139.7583756,
埼玉県,春日部市,6-7,南2丁目4番地30号,JA南彩春日部支店駐車場敷地北側フェンス,35.9715966,139.7583965,
埼玉県,春日部市,7-1,中央1丁目42番,春日部駅西口公衆トイレ前植込み,35.979322,139.7527762,
埼玉県,春日部市,7-2,中央6丁目2番,春日部市役所前入口右側道路フェンス,35.9756819,139.7526336,
埼玉県,春日部市,7-3,中央7丁目2番地1,春日部市役所 北入口西側水路フェンス,35.9743309,139.7554946,
埼玉県,春日部市,7-4,中央7丁目5番,中央町第二公園西側生垣,35.9725809,139.7559788,
埼玉県,春日部市,7-5,中央8丁目6番,中央町第三公園南側水路金網,35.9695181,139.7543884,
埼玉県,春日部市,7-6,谷原3丁目3番,谷原第四公園北西側生垣,35.9713755,139.749334,
埼玉県,春日部市,7-7,中央6丁目2番,旧春日部市役所立体駐車場北西側生垣,35.972647,139.7497612,
埼玉県,春日部市,8-1,粕壁3丁目8番1号,第9保育所,35.9835857,139.7505828,
埼玉県,春日部市,8-2,梅田1丁目81番地1,ヤマサ(∧サ)倉庫春日部久喜線側金網,35.9867537,139.7477849,
埼玉県,春日部市,8-3,粕壁5912番地,浜川戸公園南側植込み,35.9829718,139.7460912,
埼玉県,春日部市,8-4,粕壁1丁目8番,写真館隣 神明神社入口右側,35.9814217,139.7524286,
埼玉県,春日部市,8-5,粕壁4丁目4番15号,春日部中学校正門左側植込み,35.9851243,139.746591,
埼玉県,春日部市,8-6,梅田本町1丁目1番1号,春日部工業高校グラウンド脇県道側ネットフェンス,35.9888883,139.7451052,
埼玉県,春日部市,8-7,梅田本町1丁目13番,東武鉄道春日部グラウンド県道側フェンス,35.9919591,139.7445155,
埼玉県,春日部市,8-8,粕壁6033番地2,古隅田川沿い遊歩道ベンチ前フェンス,35.9846106,139.7437851,
埼玉県,春日部市,9-1,栄町3丁目165番地,谷中公園東側水路金網,35.9912339,139.7357061,
埼玉県,春日部市,9-2,栄町1丁目397番地1,深町第二公園武里・内牧線側生垣,35.9866689,139.7380103,
埼玉県,春日部市,9-3,梅田3丁目156番地,七曲公園東側フェンス,35.9879171,139.7378806,
埼玉県,春日部市,9-4,南栄町6番,南栄町中央児童公園入口左手柵,35.9808405,139.7348147,
埼玉県,春日部市,9-5,梅田本町2丁目,北春日部駅西口ロータリー内正面,35.9904123,139.7436272,
埼玉県,春日部市,9-6,栄町2丁目212番地,内牧栄町会館,35.9882327,139.7327701,
埼玉県,春日部市,9-7,栄町2丁目127番地,塚内公園東側入口右手(石垣上の垣根),35.9858932,139.7317111,
埼玉県,春日部市,9-8,栄町1丁目230番地,深町公園北側入口左側柵,35.9861372,139.7356658,
埼玉県,春日部市,10-1,浜川戸1丁目20番3,北部浄水場北側フェンス,35.9830369,139.7419874,
埼玉県,春日部市,10-2,粕壁6823番地,第3保育所入口フェンス,35.9792614,139.745302,
埼玉県,春日部市,10-3,粕壁6918番地1,粕壁市民センター北側,35.97777,139.742538,
埼玉県,春日部市,10-4,粕壁6946番地1,八木崎駅北側植込み,35.9784542,139.7416681,
埼玉県,春日部市,10-5,粕壁5539番地,春日部高校正門横柵,35.9790884,139.7422849,
埼玉県,春日部市,10-6,八木崎町5番,浜川戸第二公園北側生垣,35.9778646,139.7393634,
埼玉県,春日部市,10-7,浜川戸2丁目9番,西部第三土地区画整理記念館フェンス,35.9819826,139.7391191,
埼玉県,春日部市,11-1,中央1丁目5番,中央町第四公園トイレ裏生垣,35.9783081,139.7497407,
埼玉県,春日部市,11-2,中央2丁目13番,中央町第七公園(市役所通り沿い)フェンス,35.9774493,139.7490683,
埼玉県,春日部市,11-3,中央4丁目1番,八木崎小学校正門右側金網,35.9753435,139.7469821,
埼玉県,春日部市,11-4,中央4丁目1番,八木崎小学校南側角金網,35.973798,139.7468319,
埼玉県,春日部市,11-5,谷原1丁目3番,谷原第一公園東側フェンス,35.9721469,139.7461224,
埼玉県,春日部市,11-6,中央3丁目10番7号,足利銀行春日部支店前道路フェンス,35.9740077,139.7440731,
埼玉県,春日部市,11-7,中央3丁目7番,中央町第五公園北西側生垣,35.9759538,139.7433268,
埼玉県,春日部市,11-8,中央2丁目24番,総合福祉センター駐車場南側植込み,35.9772176,139.7451489,
埼玉県,春日部市,12-1,谷原2丁目10番,谷原第三公園生垣,35.9694637,139.7466281,
埼玉県,春日部市,12-2,大沼1丁目76番地,春日部地方庁舎北側フェンス(耐震貯水槽付近・ユリノキ通り側),35.9685541,139.746754,
埼玉県,春日部市,12-3,大沼7丁目12番地,大沼運動公園東側水路フェンス北寄り,35.9655147,139.7502427,
埼玉県,春日部市,12-4,一ノ割1731番地,西部浄水場入口右側塀,35.9627109,139.7500396,
埼玉県,春日部市,12-5,大沼7丁目12番地,市民体育館正門右側金網,35.9655494,139.7475712,
埼玉県,春日部市,12-6,大沼1丁目79番地,大沼第二公園南側防災倉庫前生垣,35.9670567,139.746166,
埼玉県,春日部市,12-7,谷原2丁目12番1号,上谷原区画整理記念館入口左側金網,35.9692066,139.7451353,
埼玉県,春日部市,13-1,豊町1丁目11番,新方袋第二公園東側金網,35.9722229,139.7387832,
埼玉県,春日部市,13-2,豊町1丁目6番,新方袋第三公園隣遊水地金網,35.9719086,139.7405259,
埼玉県,春日部市,13-3,豊町2丁目12番,豊町第二公園南側生垣,35.9687049,139.7418241,
埼玉県,春日部市,13-4,豊町1丁目2番2号,新方袋集会所北側道路フェンス,35.9742221,139.7392489,
埼玉県,春日部市,13-5,豊町5丁目14番1号,豊春第二公民館入口フェンス,35.9686421,139.7364463,
埼玉県,春日部市,13-6,豊町5丁目12番,豊町第四公園北東側フェンス,35.9699384,139.7371072,
埼玉県,春日部市,13-7,南中曽根800番地15,民家隣広場北側金網,35.9721841,139.7347302,
埼玉県,春日部市,14-1,南中曽根1074番地,立野小学校体育館前柵,35.9665079,139.7388928,
埼玉県,春日部市,14-2,谷原新田2097番地1,春日部市消防本部北側植込み,35.9650699,139.7445343,
埼玉県,春日部市,14-3,豊町4丁目4番,豊町第三公園北側フェンス,35.9668736,139.7389074,
埼玉県,春日部市,14-4,増富455番地9,豊春第二十五公園,35.961913,139.7343284,
埼玉県,春日部市,14-5,豊町6丁目12番地,南中曽根第五公園脇スポーツ広場西側金網,35.9663262,139.7380439,
埼玉県,春日部市,14-6,豊町6丁目26番,豊春第八公園,35.9653264,139.7358033,
埼玉県,春日部市,14-7,豊町6丁目7番,豊春第九公園,35.9664052,139.7363906,
埼玉県,春日部市,15-1,上大増新田140番地,大増中学校正門横金網,35.9622393,139.7418498,
埼玉県,春日部市,15-2,上大増新田140番地,大増中学校南側金網,35.9606979,139.7412168,
埼玉県,春日部市,15-3,谷原新田1818番地2,民家前交差点付近フェンス,35.957939,139.7464333,
埼玉県,春日部市,15-4,下大増新田61番地,春日部高等技術専門校前道路フェンス,35.9570037,139.7434398,
埼玉県,春日部市,15-5,上大増新田170番地3,豊春地区集会所西側金網,35.9612249,139.7378083,
埼玉県,春日部市,15-6,増富243番地,豊春第十八公園フェンス,35.9601262,139.733469,
埼玉県,春日部市,15-7,増富158番地,豊春第七公園生垣,35.9586981,139.7308167,
埼玉県,春日部市,16-1,南中曽根416番地,南中曽根第七公園垣根,35.9695512,139.7322147,
埼玉県,春日部市,16-2,道順川戸37番地,豊春小学校裏門横生垣植込み,35.9684475,139.7314633,
埼玉県,春日部市,16-3,道順川戸37番地,豊春小学校正門横生垣,35.9676529,139.7308089,
埼玉県,春日部市,16-4,増富605番地,増富遊水池南東側金網,35.9647945,139.7319733,
埼玉県,春日部市,16-5,上蛭田700番地33,民家向かい豊春第一公園柵,35.9653527,139.7310842,
埼玉県,春日部市,16-6,上蛭田178番地,豊春駅東口植込み,35.9677081,139.7261434,
埼玉県,春日部市,16-7,上蛭田405番地8,民家南側塀,35.9677424,139.7282723,
埼玉県,春日部市,17-1,上蛭田85番地6,豊春市民センター前遊水池金網,35.9662186,139.7247769,
埼玉県,春日部市,17-2,上蛭田567番地,民家前畑フェンス,35.9664407,139.7266611,
埼玉県,春日部市,17-3,上蛭田573番地3,民家前畑県道沿い金網,35.9657921,139.7276186,
埼玉県,春日部市,17-4,上蛭田82番地,第8保育所南西側フェンス,35.9657112,139.724623,
埼玉県,春日部市,17-5,下蛭田344番地,豊春第二公園,35.9622379,139.7260365,
埼玉県,春日部市,17-6,下蛭田202番地3,下蛭田集会所防災倉庫左側,35.9622924,139.721096,
埼玉県,春日部市,17-7,増戸604番地2,民家前道路フェンス,35.9571161,139.7251641,
埼玉県,春日部市,17-8,増富59番地,増富自治会館柵,35.9613537,139.7275756,
埼玉県,春日部市,18-1,上蛭田179番地24,masked,35.9703564,139.7254261,
埼玉県,春日部市,18-2,上蛭田151番地23,マルヤ駐車場横植込み,35.9688343,139.7249278,
埼玉県,春日部市,18-3,道口蛭田169番地6,カーアーク豊春(駐車場)道路フェンス,35.9674552,139.7231981,
埼玉県,春日部市,18-4,道口蛭田136番地1,ルネ春日部内第1遊水池広場金網,35.9665854,139.7228976,
埼玉県,春日部市,18-5,道口蛭田215番地,豊春第十公園南側金網,35.965448,139.7203599,
埼玉県,春日部市,18-6,花積152番地7,民家南側道路フェンス,35.9643265,139.7185431,
埼玉県,春日部市,18-7,花積506番地2,民家前ガードパイプ,35.964672,139.713918,
埼玉県,春日部市,19-1,新方袋99番地,民家北側道路待避所付近,35.9795601,139.7279901,
埼玉県,春日部市,19-2,南中曽根757番地,清秀幼稚園正門横ブロック塀,35.973845,139.7321752,
埼玉県,春日部市,19-3,新方袋1090番地,宮川小学校裏門横柵,35.976758,139.7262923,
埼玉県,春日部市,19-4,南中曽根107番地,豊春中学校正門横フェンス,35.9739496,139.7277405,
埼玉県,春日部市,19-5,南中曽根262番地134,川面公園入口東側フェンス,35.9752523,139.7248912,
埼玉県,春日部市,19-6,南中曽根262番地42,古隅田公園やじま橋南植込み,35.973784,139.7254809,
埼玉県,春日部市,19-7,南中曽根149番地1,豊春中学校南西側フェンス,35.972772,139.7260185,
埼玉県,春日部市,20-1,内牧4401番地2,masked,35.994664,139.7272213,
埼玉県,春日部市,20-2,内牧2415番地2,内牧小学校正門横生垣,35.9940335,139.7277013,
埼玉県,春日部市,20-3,内牧5033番地,四方谷第一公園ぐるぐるパーク南側植込み,35.9931096,139.7345498,
埼玉県,春日部市,20-4,内牧1914番地,民家前畑,35.9884226,139.727342,
埼玉県,春日部市,20-5,内牧1498番地,内牧南公民館金網,35.9839962,139.7284156,
埼玉県,春日部市,20-6,内牧4185番地先,共栄大学前バス停脇道路フェンス,35.9942185,139.7217391,
埼玉県,春日部市,20-7,内牧3137番地1,特別養護老人ホーム彩光苑前民家植木場,35.9943942,139.7179945,
埼玉県,春日部市,21-1,小渕905番地1,小渕小学校正門左側柵,35.998739,139.7499294,
埼玉県,春日部市,21-2,小渕1043番地3先,小渕小学校南側フェンス,35.997372,139.7490052,
埼玉県,春日部市,21-3,小渕317番地,さいたま春日部市場西側金網(入口左手),35.9948761,139.7576608,
埼玉県,春日部市,21-4,小渕493番地,小渕団地10号棟県道側金網,35.9944429,139.7551635,
埼玉県,春日部市,21-5,小渕2060番地2,桃園幼稚園西側金網,35.9936642,139.7459842,
埼玉県,春日部市,21-6,小渕932番地5,米久「かがやき」西側柵,35.9910769,139.7475381,
埼玉県,春日部市,21-7,小渕2159番地,高齢者福祉センター「幸楽荘」西側道路フェンス,35.9977643,139.7452909,
埼玉県,春日部市,22-1,小渕875番地1,小渕放置自転車集積所西側フェンス,35.9904336,139.7523965,
埼玉県,春日部市,22-2,八丁目539番地,民家西側石塀,35.9886984,139.7544574,
埼玉県,春日部市,22-3,八丁目520番地1先,八丁目(中)交差点南側フェンス(スシロー前),35.9875435,139.7570766,
埼玉県,春日部市,22-4,八丁目59番地9先,民家前古利根川堤防植込み,35.9841177,139.7540952,
埼玉県,春日部市,22-5,小渕733番地1先,民家前古利根川フェンス,35.9888939,139.7498124,
埼玉県,春日部市,22-6,八丁目21番地先,助産院前古利根川フェンス,35.9852095,139.7520531,
埼玉県,春日部市,22-7,小渕718番地先,民家前古利根川柵,35.9869264,139.750956,
埼玉県,春日部市,23-1,不動院野1484番地38,masked,35.9965036,139.7703768,
埼玉県,春日部市,23-2,八丁目776番地,春日部特別支援学校前道路フェンス,35.9887608,139.7612433,
埼玉県,春日部市,23-3,八丁目353番地1,幸松小学校正門横柵,35.9860949,139.7601434,
埼玉県,春日部市,23-4,八丁目195番地,民家塀,35.9846653,139.7612746,
埼玉県,春日部市,23-5,八丁目127番地1,民家塀,35.9835125,139.7573904,
埼玉県,春日部市,23-6,小渕73番地1,幸松第二公民館前道路フェンス,35.9890833,139.7568753,
埼玉県,春日部市,23-7,小渕137番地4,春日部サンハイツ2号棟南側植込み,35.9908904,139.7581343,
埼玉県,春日部市,23-8,不動院野364番地,東不動院野集会場向い空き地,36.0023308,139.7737347,
埼玉県,春日部市,24-1,樋籠586番地,「介護老人保健施設ウイステリア」植込み,35.9888544,139.7748559,
埼玉県,春日部市,24-2,樋籠475番地,天神神社前,35.9875381,139.7715214,
埼玉県,春日部市,24-3,牛島336番地先,水防倉庫敷地前道路フェンス,35.9846202,139.7696,
埼玉県,春日部市,24-4,樋堀181番地1,東中学校正門横ふじ墓苑塀,35.9850763,139.766806,
埼玉県,春日部市,24-5,樋籠79番地1,民家塀,35.9871536,139.7640737,
埼玉県,春日部市,24-6,樋籠234番地,東部浄水場金網,35.9879767,139.7676906,
埼玉県,春日部市,24-7,樋籠363番地,春日部東高校東側塀,35.9895057,139.7706257,
埼玉県,春日部市,25-1,牛島736番地,牛島幼稚園柵,35.9873019,139.7748977,
埼玉県,春日部市,25-2,牛島1276番地,第6保育所金網,35.9838468,139.77868,
埼玉県,春日部市,25-3,牛島1576番地,藤の牛島駅北側,35.9804207,139.7780149,
埼玉県,春日部市,25-4,牛島1577番地1先,魚元南側牛島月極駐車場柵,35.9797701,139.7777219,
埼玉県,春日部市,25-5,牛島60番地,民家前,35.9791986,139.7768356,
埼玉県,春日部市,25-6,牛島1613番地,牛島人道橋東側道路フェンス,35.980018,139.7736418,
埼玉県,春日部市,25-7,牛島813番地,宝光院塀,35.9838011,139.7737158,
埼玉県,春日部市,26-1,藤塚1520番地211,民家前遊水池西側金網,35.9772769,139.7802851,
埼玉県,春日部市,26-2,藤塚2290番地,民家北側塀,35.9735693,139.7805755,
埼玉県,春日部市,26-3,藤塚1203番地,民家東側空き地ユリノキ通り沿い黄土色柵,35.9734065,139.7777718,
埼玉県,春日部市,26-4,本田町2丁目288番地付近,藤塚新田公園生垣,35.9701444,139.7753454,
埼玉県,春日部市,26-5,本田町2丁目319番地先,水辺の園しおり西側古利根川堤防,35.9699831,139.7738662,
埼玉県,春日部市,26-6,藤塚1452番地,masked,35.9748356,139.7753741,
埼玉県,春日部市,26-7,藤塚1670番地1,藤塚公民館駐車場西側金網,35.9755871,139.7787892,
埼玉県,春日部市,26-8,藤塚2009番地,藤塚野口公園西側水路金網,35.9764658,139.7810956,
埼玉県,春日部市,27-1,本田町2丁目140番地,藤塚第三公園東側生垣,35.968295,139.7765738,
埼玉県,春日部市,27-2,本田町1丁目160番地,藤塚第二公園北側生垣,35.9676611,139.778713,
埼玉県,春日部市,27-3,藤塚412番地,masked,35.9652809,139.7767397,
埼玉県,春日部市,27-4,本田町2丁目227番地,本田町区画整理記念館西側フェンス,35.966167,139.7758084,
埼玉県,春日部市,27-5,藤塚428番地1,第5保育所西側金網,35.964392,139.7746264,
埼玉県,春日部市,27-6,藤塚448番地35,藤塚第七公園北側金網,35.962776,139.7766134,
埼玉県,春日部市,27-7,藤塚82番地2,藤塚小学校北側金網,35.9633138,139.781318,
埼玉県,春日部市,28-1,六軒町332番地,アパート「サニークレスト」西側道路フェンス,35.9722017,139.7821775,
埼玉県,春日部市,28-2,六軒町272番地1,民家前道路フェンス,35.9659694,139.7854246,
埼玉県,春日部市,28-3,六軒町433番地,藤塚第四公園西側フェンス,35.9698848,139.7842829,
埼玉県,春日部市,28-4,藤塚2171番地312,藤塚第五公園水路金網,35.9702233,139.7827397,
埼玉県,春日部市,28-5,藤塚2697番地1,六軒町区画整理記念館前道路フェンス,35.9670527,139.7841828,
埼玉県,春日部市,28-6,六軒町145番地,藤塚第一公園北側金網,35.9664149,139.7822204,
埼玉県,春日部市,28-7,藤塚2315番地1,ホーマック春日部店東側金網,35.9712367,139.7801943,
埼玉県,春日部市,29-1,豊野町2丁目14番,豊野町第4緑地北側柵(大日本ピーアール前),35.9617567,139.7902962,
埼玉県,春日部市,29-2,豊野町2丁目34番,豊野町第一公園北側フェンス,35.9582483,139.7934934,
埼玉県,春日部市,29-3,赤沼475番地,薬師沼親水公園内憩いの家北西側植込み,35.9540254,139.7941397,
埼玉県,春日部市,29-4,銚子口999番地,豊野市民センター入口右側柵,35.9573221,139.7889536,
埼玉県,春日部市,29-5,豊野町1丁目6番,豊野町第三公園西側柵,35.9582084,139.7886968,
埼玉県,春日部市,29-6,銚子口1150番地,豊野小学校正門横フェンス,35.9596353,139.7854025,
埼玉県,春日部市,29-7,銚子口130番地,豊野中学校正門横金網,35.9642451,139.7851093,
埼玉県,春日部市,30-1,赤沼1313番地,赤沼新町集会所東側フェンス,35.9538077,139.8038191,
埼玉県,春日部市,30-2,赤沼1736番地,ハイビック株式会社正門向かいガードレール,35.9587428,139.7963009,
埼玉県,春日部市,30-3,赤沼1332番地,民家ブロック塀,35.9513144,139.8029177,
埼玉県,春日部市,30-4,赤沼770番地,赤沼香取神社北側ブロック塀,35.950694,139.8008254,
埼玉県,春日部市,30-5,赤沼770番地,赤沼香取神社西側ブロック塀,35.949871,139.8008039,
埼玉県,春日部市,30-6,赤沼217番地,民家南側ブロック塀,35.9481161,139.7992848,
埼玉県,春日部市,30-7,赤沼704番地2,株式会社筒屋県道側塀,35.9525926,139.8004373,
埼玉県,春日部市,31-1,大枝933番地,民家西側ブロック塀,35.9424336,139.779761,
埼玉県,春日部市,31-2,大枝1031番地,大枝ふれあい広場フェンス,35.9408861,139.7817401,
埼玉県,春日部市,31-3,大枝895番地4,民家北側ブロック塀,35.9399712,139.7786837,
埼玉県,春日部市,31-4,大枝826番地,メゾン千間台I西側会之堀川フェンス,35.9399655,139.7770623,
埼玉県,春日部市,31-5,大枝898番地5,民家塀,35.9404816,139.7788141,
埼玉県,春日部市,31-6,大枝863番地,池の端集会所フェンス,35.9413363,139.7787573,
埼玉県,春日部市,31-7,大枝800番地,大枝橋南側会之堀川フェンス,35.9419008,139.7767053,
埼玉県,春日部市,32-1,大枝743番地2,大枝薬師堂会館前芝生部分,35.9434942,139.7753209,
埼玉県,春日部市,32-2,大枝486番地,大枝公園北西側,35.9423172,139.7746268,
埼玉県,春日部市,32-3,大枝685番地,武里ゴルフセンター駐車場向かい,35.9424013,139.7734511,
埼玉県,春日部市,32-4,大枝742番地2,民家西側水路柵,35.9437186,139.7746149,
埼玉県,春日部市,32-5,大枝360番地,武里第十公園東側金網,35.9393403,139.7756117,
埼玉県,春日部市,32-6,大枝372番地先,大枝人道橋横金網,35.9379326,139.7748372,
埼玉県,春日部市,32-7,大枝330番地1,「スーパーマルサン武里店」駐車場角南側金網,35.9402223,139.7739808,
埼玉県,春日部市,33-1,大畑457番地1,大畑会館北東側 道路予定地,35.9464971,139.7720221,
埼玉県,春日部市,33-2,大畑177番地2,民家南東側畑 4号沿いブロックフェンス,35.9463004,139.7755996,
埼玉県,春日部市,33-3,大畑214番地5先,民家前県道沿い空き地,35.9499392,139.7735919,
埼玉県,春日部市,33-4,大畑201番地,月極大畑駐車場付近道路フェンス,35.9472636,139.7735333,
埼玉県,春日部市,33-5,大場450番地,武里駅東口駐車場金網,35.9487454,139.7710444,
埼玉県,春日部市,33-6,大畑16番地6,武里第十四公園,35.9491807,139.7736826,
埼玉県,春日部市,33-7,大場1218番地1先,武里橋南東側会之堀川フェンス,35.9507285,139.7710742,
埼玉県,春日部市,34-1,備後東4丁目12番16号,民家南側塀,35.9554643,139.7769351,
埼玉県,春日部市,34-2,備後東3丁目23番12号,ニューハイツタテノ駐車場南側柵,35.955711,139.774103,
埼玉県,春日部市,34-3,備後東6丁目2番1号,正善小学校北側フェンス,35.9524535,139.7736566,
埼玉県,春日部市,34-4,備後東6丁目2番1号,正善小学校体育館側東側フェンス,35.9520453,139.7740428,
埼玉県,春日部市,34-5,備後東6丁目13番1号,民家北側ブロック塀,35.9495083,139.7753565,
埼玉県,春日部市,34-6,備後東6丁目16番5号,南部浄水場北側金網,35.9508066,139.7718654,
埼玉県,春日部市,34-7,備後東6丁目2番1号,正善小学校南側フェンス,35.9517718,139.7718327,
埼玉県,春日部市,35-1,備後東3丁目1番,美容室向いガードレール,35.9582524,139.7711373,
埼玉県,春日部市,35-2,備後東8丁目635の2,備後第二公園西側柵,35.9522291,139.7697558,
埼玉県,春日部市,35-3,備後東7丁目38番,武里東公民館西側フェンス,35.9528766,139.7719518,
埼玉県,春日部市,35-4,備後東8丁目24番,備後第一公園南側柵,35.9549057,139.7715768,
埼玉県,春日部市,35-5,備後東8丁目30番11号,民家向かい東武鉄道金網,35.9541387,139.769175,
埼玉県,春日部市,35-6,備後東8丁目11番12号,「のびのび保育恵夢」向かい東武鉄道金網,35.9557709,139.7686957,
埼玉県,春日部市,35-7,備後東8丁目1番,理容室向い鉄道金網,35.956652,139.7684048,
埼玉県,春日部市,36-1,備後東1丁目23番21号,民家北側金網,35.9624145,139.7679047,
埼玉県,春日部市,36-2,備後東1丁目27番17号,備後香取神社西側金網,35.9624033,139.7684686,
埼玉県,春日部市,36-3,備後東1丁目27番17号,備後香取神社入口横柵,35.9624837,139.7689782,
埼玉県,春日部市,36-4,備後東1丁目13番,備後宮田ちびっこ広場防球ネット,35.961643,139.7706161,
埼玉県,春日部市,36-5,備後東1丁目21番49号,民家西側有料駐車場ガードレール,35.960954,139.7685562,
埼玉県,春日部市,36-6,備後東2丁目2番,備後宮田第2ちびっこ広場東武鉄道側ガードレール,35.9593185,139.7676338,
埼玉県,春日部市,36-7,備後東1丁目22番32号,春日部内科クリニック向かい東武鉄道柵,35.9609421,139.7671466,
埼玉県,春日部市,37-1,緑町6丁目12番地1,民家南側畑フェンス,35.9664466,139.7676136,
埼玉県,春日部市,37-2,緑町6丁目13番地22号,第5小暮荘前鉄道柵,35.96572510000001,139.766119,
埼玉県,春日部市,37-3,南4丁目21番1号,居酒屋やすらぎ前鉄道金網,35.9659479,139.7653,
埼玉県,春日部市,37-4,一ノ割1丁目30番17号,円福寺一ノ割会館前石塀,35.9627609,139.7637473,
埼玉県,春日部市,37-5,一ノ割1丁目29番39号,リビングショップ「エリザー」南側畑,35.9615532,139.7627667,
埼玉県,春日部市,37-6,一ノ割1丁目11番,一ノ割駅舎西側鉄道敷金網,35.9638187,139.7657671,
埼玉県,春日部市,37-7,南4丁目23番地,米店向かい駐車場フェンス,35.9645969,139.7624472,
埼玉県,春日部市,38-1,備後西5丁目6番11号,武里小学校西側フェンス,35.9548195,139.7615832,
埼玉県,春日部市,38-2,備後西1丁目13番1号,第4保育所西側金網,35.9587161,139.7654041,
埼玉県,春日部市,38-3,備後西1丁目13番2号,武里市民センター前植込み,35.9591165,139.766116,
埼玉県,春日部市,38-4,備後西1丁目13番2号,武里市民センター南側グラウンド脇生垣,35.9581026,139.7664245,
埼玉県,春日部市,38-5,備後西1丁目6番13号,民家前東武鉄道柵,35.9575176,139.7678553,
埼玉県,春日部市,38-6,備後西5丁目5番2号,武里小学校東側柵,35.955083,139.7630997,
埼玉県,春日部市,38-7,一ノ割2丁目9番14号,セジュール大和柵,35.9579264,139.7630545,
埼玉県,春日部市,39-1,備後西2丁目4番28号,備後角英団地第2遊水池広場南側金網,35.9561772,139.7672668,
埼玉県,春日部市,39-2,備後西2丁目2番16号,「ぼっか」(飲食店)前東武鉄道柵,35.9552879,139.7686444,
埼玉県,春日部市,39-3,備後西3丁目2番1号,備後小学校東側鉄道柵,35.9535743,139.7691459,
埼玉県,春日部市,39-4,備後西3丁目2番1号,備後小学校正門横水路金網,35.9530097,139.7681321,
埼玉県,春日部市,39-5,備後西2丁目28番,備後西ちびっ子広場北側,35.956934,139.765525,
埼玉県,春日部市,39-6,備後西3丁目6番1号,民家西側ブロック塀,35.9519712,139.7658046,
埼玉県,春日部市,39-7,備後西4丁目3番,備後須賀第2ちびっこ広場南西側フェンス,35.9534587,139.7648262,
埼玉県,春日部市,40-1,一ノ割3丁目7番1号,NTT武里ビル 入口左側フェンス,35.9576793,139.7621236,
埼玉県,春日部市,40-2,一ノ割3丁目4番22号,民家西側ブロック塀,35.9588709,139.7611703,
埼玉県,春日部市,40-3,一ノ割947番地2,一ノ割公園東側フェンス,35.9587145,139.7592757,
埼玉県,春日部市,40-4,武里中野51番地,宝性院東側ブロック塀,35.9530023,139.7614291,
埼玉県,春日部市,40-5,武里中野89番地1,中野運動公園南側金網,35.9550871,139.7596109,
埼玉県,春日部市,40-6,薄谷128番地5,AZUMA設計前道路フェンス,35.9547296,139.7557397,
埼玉県,春日部市,40-7,薄谷3番地,武里中学校北門横水路金網,35.9573704,139.7588359,
埼玉県,春日部市,41-1,武里中野746番地,春日部南中学校西側水路金網,35.9506832,139.7575777,
埼玉県,春日部市,41-2,武里中野746番地,春日部南中学校正門横柵,35.949832,139.7581517,
埼玉県,春日部市,41-3,武里中野字南317番地2,畑向かい水路金網,35.9516652,139.7571433,
埼玉県,春日部市,41-4,大場1699番地2,民家西側水路柵,35.9475851,139.7570341,
埼玉県,春日部市,41-5,武里中野640番地29,民家前道路フェンス,35.9482922,139.7560846,
埼玉県,春日部市,41-6,増田新田391番地59,みどり第二公園,35.9479572,139.7529853,
埼玉県,春日部市,41-7,増田新田391番地49,みどり第一公園東側フェンス,35.9491992,139.7550693,
埼玉県,春日部市,42-1,大場153番地先,民家東側水路金網,35.9492995,139.7614171,
埼玉県,春日部市,42-2,大場776番地1,masked,35.9503656,139.7651285,
埼玉県,春日部市,42-3,大場1277番地1,ドラッグストアセキ武里店県道側フェンス,35.9494861,139.7673235,
埼玉県,春日部市,42-4,大場1096番地,武里駅西口ロータリー,35.9496209,139.7700914,
埼玉県,春日部市,42-5,大場822番地,武里西小学校東側フェンス,35.9466821,139.7652814,
埼玉県,春日部市,42-6,大場822番地,武里西小学校体育館側柵,35.9460936,139.7637418,
埼玉県,春日部市,42-7,大場1522番地1,民家東側水路金網,35.9480426,139.7627398,
埼玉県,春日部市,43-1,大枝89番地 武里団地,武里南小学校北側体育館門右側植込み,35.9438017,139.7715573,
埼玉県,春日部市,43-2,大枝89番地 武里団地,武里南小学校正門左側フェンス,35.9438169,139.7702189,
埼玉県,春日部市,43-3,大枝89番地 武里団地,1街区 4棟跡地東側鉄道向かい生垣,35.9452435,139.7715573,
埼玉県,春日部市,43-4,大枝89番地 武里団地,1街区12棟西側生垣,35.9454694,139.7697763,
埼玉県,春日部市,43-5,大枝89番地 武里団地,1街区30棟西側けやき通り沿い,35.9454433,139.7681992,
埼玉県,春日部市,43-6,大枝89番地 武里団地,1街区34棟東側,35.946655,139.7690092,
埼玉県,春日部市,43-7,大畑292番地,内科隣駐車場フェンス,35.9476894,139.7702817,
埼玉県,春日部市,44-1,大枝89番地 武里団地,武里大枝市民センター前植込み,35.9426768,139.7704201,
埼玉県,春日部市,44-2,大枝89番地 武里団地,武里南小学校グラウンド南東側敷地(東武伊勢崎線沿い道路脇),35.9427246,139.7722547,
埼玉県,春日部市,44-3,大枝89番地 武里団地,4街区12棟西側けやき通り沿い,35.9422404,139.768344,
埼玉県,春日部市,44-4,大枝89番地 武里団地,3街区16棟東側生垣,35.9416779,139.7711389,
埼玉県,春日部市,44-5,大枝89番地 武里団地,3街区27棟東側生垣,35.9413891,139.770058,
埼玉県,春日部市,44-6,大枝89番地 武里団地,4街区 5棟東側植込み,35.9407051,139.7694894,
埼玉県,春日部市,44-7,大枝89番地 武里団地,4街区 1棟けやき通り沿い,35.939591,139.7710102,
埼玉県,春日部市,45-1,大枝89番地 武里団地,5街区15棟東側生垣,35.93854,139.7723995,
埼玉県,春日部市,45-2,大枝232番地 武里団地,5街区17棟西側金網,35.9381277,139.7728485,
埼玉県,春日部市,45-3,大枝89番地 武里団地,masked,35.9383293,139.7718121,
埼玉県,春日部市,45-4,大枝89番地 武里団地,6街区14棟東側植込み,35.9385335,139.7694116,
埼玉県,春日部市,45-5,大枝89番地 武里団地,6街区11棟東側植込み,35.9394542,139.7695296,
埼玉県,春日部市,45-6,大枝89番地 武里団地,5街区 9棟南側公園生垣,35.9388245,139.7708251,
埼玉県,春日部市,45-7,大枝89番地 武里団地,5街区12棟東側生垣,35.9391915,139.7718014,
埼玉県,春日部市,46-1,大枝89番地 武里団地,ゆっく武里駐車場北側生垣,35.9435541,139.76718,
埼玉県,春日部市,46-2,大枝89番地 武里団地,こはる薬局西側空き地,35.9427072,139.7673302,
埼玉県,春日部市,46-3,大枝89番地 武里団地,近隣公園(武里南地区公民館前),35.943654,139.7660266,
埼玉県,春日部市,46-4,大枝89番地 武里団地,8街区14棟西側,35.9463987,139.7679618,
埼玉県,春日部市,46-5,大場656番地1,谷中小記念館南側フェンス,35.9436602,139.76356,
埼玉県,春日部市,46-6,大枝89番地 武里団地,8街区 1棟東側けやき通り沿い,35.9450302,139.7666461,
埼玉県,春日部市,46-7,大場128番地,かすかべ環境防災研究センター正門横道路フェンス,35.9460725,139.7581982,
埼玉県,春日部市,47-1,大枝89番地 武里団地,6街区 6棟西側サウススポーツパーク東中央,35.9408766,139.7673436,
埼玉県,春日部市,47-2,大枝89番地 武里団地,6街区 5棟東側けやき通り沿い,35.9411003,139.7680544,
埼玉県,春日部市,47-3,大枝89番地 武里団地,認定こども園ふたば南側柵,35.9401448,139.7673302,
埼玉県,春日部市,47-4,大枝89番地 武里団地,6街区16棟北側公園柵,35.9394238,139.7679659,
埼玉県,春日部市,47-5,大枝89番地 武里団地,6街区21棟南側水路金網,35.9399971,139.7661366,
埼玉県,春日部市,47-6,千間1丁目111番地,大畑人道橋左側道路フェンス,35.937263,139.7673266,
埼玉県,春日部市,47-7,千間1丁目99番地,武里第六公園西側フェンス,35.9364507,139.7667731,
埼玉県,春日部市,48-1,米島756番地,川辺小学校正門脇金網,35.9732423,139.8112289,
埼玉県,春日部市,48-2,米島756番地,川辺小学校南側フェンス,35.9728342,139.809759,
埼玉県,春日部市,48-3,米島358番地253,米島ニュータウン第2遊水池西側金網,35.9747884,139.8091542,
埼玉県,春日部市,48-4,米島358番地222,外谷津第二公園南側生垣,35.9760517,139.8094975,
埼玉県,春日部市,48-5,米島358番地269,民家前植込み,35.9766009,139.8082503,
埼玉県,春日部市,48-6,米島358番地279,庄和幼稚園駐車場南側柵,35.9767398,139.8110505,
埼玉県,春日部市,48-7,東中野1220番地,中野ふれあい公園入口金網,35.9733972,139.8150162,
埼玉県,春日部市,49-1,米島962番地100,殖産自治会館南側フェンス,35.979215,139.8136388,
埼玉県,春日部市,49-2,新宿新田324番地8,マカロニほうれん荘前東武鉄道柵,35.9809112,139.8124794,
埼玉県,春日部市,49-3,米島962番地138,第6分団車庫前植込み,35.9794731,139.8119352,
埼玉県,春日部市,49-4,米島847番地10,三栄団地内遊水池南側フェンス(民家東側),35.9773147,139.8141552,
埼玉県,春日部市,49-5,米島961番地1,サイクルショップ東側ブロック塀,35.979058,139.8162026,
埼玉県,春日部市,49-6,米島968番地2,埼玉みずほ農協庄和東支店入口横花壇,35.9787456,139.8149319,
埼玉県,春日部市,49-7,米島1153番地3,民家東側ブロック塀,35.9774534,139.8100252,
埼玉県,春日部市,50-1,米島962番地22,新生公園西側フェンス,35.9797068,139.8149227,
埼玉県,春日部市,50-2,新宿新田327番地318,動物病院前東武鉄道柵,35.9810448,139.81378,
埼玉県,春日部市,50-3,新宿新田324番地1,旧ヨーク・マート南桜井店前東武鉄道柵,35.9809554,139.8117283,
埼玉県,春日部市,50-4,新宿新田274番地9,民家東側東武鉄道柵,35.9809071,139.818325,
埼玉県,春日部市,50-5,新宿新田325番地5,ファッションセンターしまむら前東武鉄道柵,35.9811879,139.8136628,
埼玉県,春日部市,50-6,新宿新田258番地3,こばとグラウンド北側金網,35.9834139,139.8178125,
埼玉県,春日部市,50-7,新宿新田327番地382,ヘアーサロンサクタ前東武鉄道柵,35.9808595,139.8175557,
埼玉県,春日部市,51-1,東中野1563番地,新宿新田集会所入口参道東側畑金網,35.9757132,139.8222876,
埼玉県,春日部市,51-2,新宿新田222番地,パークアベニュー南桜井遊水池東側金網,35.9781427,139.8224942,
埼玉県,春日部市,51-3,新宿新田351番地1,新宿新田調整池金網フェンス,35.9775118,139.8198509,
埼玉県,春日部市,51-4,新宿新田355番地259,民家前歩道植込み,35.9750837,139.821031,
埼玉県,春日部市,51-5,新宿新田352番地8,masked,35.9772387,139.8195,
埼玉県,春日部市,51-6,新宿新田225番地49,リーベ公園北側フェンス下,35.9783646,139.8205699,
埼玉県,春日部市,51-7,新宿新田350番地2,民家東側道沿いブロック塀,35.9787434,139.8195129,
埼玉県,春日部市,52-1,東中野654番地,中野小学校正門右側フェンス,35.9733325,139.8221599,
埼玉県,春日部市,52-2,東中野1515番地,民家ブロック塀,35.9738315,139.8186865,
埼玉県,春日部市,52-3,東中野1522番地1,民家北側道沿いブロック塀,35.9750014,139.8193254,
埼玉県,春日部市,52-4,新宿新田109番地,旧シンザカヤ向い側江戸川堤防,35.9711545,139.8252933,
埼玉県,春日部市,52-5,東中野848番地1,クリーンセンター庄和北側道路フェンス,35.9699061,139.8192472,
埼玉県,春日部市,52-6,東中野45番地,ミニ工業団地内県浄水場排水処理施設フェンス,35.9667127,139.8246895,
埼玉県,春日部市,52-7,新宿新田100番地,埼玉県浄水場西側フェンス,35.9668251,139.8280865,
埼玉県,春日部市,53-1,飯沼216番地,飯沼中学校正門脇東側フェンス,35.9687583,139.8101733,
埼玉県,春日部市,53-2,飯沼80番地2,民家前(県道沿い)水路フェンス,35.9685864,139.8137993,
埼玉県,春日部市,53-3,赤崎250番地,民家前生垣,35.9554433,139.8052842,
埼玉県,春日部市,53-4,飯沼307番地,民家裏道路フェンス,35.9679536,139.8057061,
埼玉県,春日部市,53-5,赤崎1635番地,民家隣田んぼ沿いフェンス,35.9654143,139.8027942,
埼玉県,春日部市,53-6,赤崎467番地2,赤崎集会所向い側民家地内,35.9599481,139.8037639,
埼玉県,春日部市,54-1,米崎357番地,庄和南公民館北側道沿い植込み,35.9740192,139.8041846,
埼玉県,春日部市,54-2,米島119番地,民家前歩道植込み,35.9762891,139.8032422,
埼玉県,春日部市,54-3,米島233番地,歯科交差点南西側駐車場前歩道植込み,35.976414,139.8059755,
埼玉県,春日部市,54-4,米島261番地191,米島サニータウン団地内遊水池金網,35.9772491,139.806095,
埼玉県,春日部市,54-5,米島1185番地先,南桜井駅南口ロータリー,35.9800944,139.808695,
埼玉県,春日部市,54-6,米島278番地1,民家北側ブロック塀,35.9797677,139.8054332,
埼玉県,春日部市,54-7,米島69番地2,庄和すずらん幼稚園県道側金網南方に隣接するブロック塀,35.9771486,139.8009647,
埼玉県,春日部市,55-1,永沼2250番地1,葛飾中学校裏門左側,35.976886,139.7906745,
埼玉県,春日部市,55-2,永沼1819番地1,民家北側ガードレール,35.9726386,139.7943229,
埼玉県,春日部市,55-3,水角1211番地1,コスモ石油ガソリンスタンド北側ガードレール,35.9663949,139.7948575,
埼玉県,春日部市,55-4,永沼1157番地1,民家南方向、広域農道沿い三角地帯,35.9729699,139.7915274,
埼玉県,春日部市,55-5,永沼634番地2,コンビニ前ガードパイプ,35.9762803,139.7876756,
埼玉県,春日部市,55-6,永沼203番地1,民家西側畑柵,35.9742094,139.7861254,
埼玉県,春日部市,55-7,永沼1979番地3,野損橋東側ガードレール,35.9810352,139.7965967,
埼玉県,春日部市,56-1,大衾82番地,民家北側フェンス,35.9808775,139.7989708,
埼玉県,春日部市,56-2,大衾277番地60,大衾地区住民コミュニティ広場脇道路フェンス,35.9808722,139.8034594,
埼玉県,春日部市,56-3,大衾196番地12,大衾公園南側フェンス,35.9826743,139.8026252,
埼玉県,春日部市,56-4,金崎1040番地1,平松谷橋道路フェンス,35.9865229,139.8032495,
埼玉県,春日部市,56-5,大衾455番地1,庄和浄水場入口右側フェンス,35.9835444,139.8046517,
埼玉県,春日部市,56-6,大衾240番地24,民家前東武鉄道柵,35.9799479,139.80314,
埼玉県,春日部市,56-7,大衾68番地,民家前東武鉄道柵,35.9796441,139.8004172,
埼玉県,春日部市,57-1,大衾496番地1,庄和保健センター入口左側フェンス,35.9844307,139.8071211,
埼玉県,春日部市,57-2,大衾496番地1,桜川小学校正門右側,35.9844134,139.8082959,
埼玉県,春日部市,57-3,大衾496番地216,桜台二区中央公園前歩道植込み,35.9834187,139.807502,
埼玉県,春日部市,57-4,西金野井388番地288,風早第4公園東側フェンス,35.9867335,139.8059035,
埼玉県,春日部市,57-5,大衾496番地1,桜川小学校北側フェンス,35.9859239,139.8082101,
埼玉県,春日部市,57-6,大衾600番地2,南桜井団地内みどり公園北側柵,35.9822648,139.8110043,
埼玉県,春日部市,57-7,米島1186番地3,南桜井駅北口ロータリー付近東武鉄道柵,35.9806574,139.8090571,
埼玉県,春日部市,58-1,西金野井256番地2,庄和第1保育所正門左側フェンス,35.9855349,139.80977,
埼玉県,春日部市,58-2,西金野井100番地2,県営庄和尾ケ崎団地1号棟西側フェンス,35.984257,139.8106462,
埼玉県,春日部市,58-3,西金野井69番地15,ガーデンタウン内遊水池北側金網,35.9824266,139.8129528,
埼玉県,春日部市,58-4,西金野井42番地1,県営西金野井団地1号棟東側フェンス,35.986855,139.8132961,
埼玉県,春日部市,58-5,西金野井1680番地2,犬塚・谷頭わんぱく公園東側フェンス,35.9824868,139.8215968,
埼玉県,春日部市,58-6,西金野井1757番地,民家前畑,35.9858726,139.8175627,
埼玉県,春日部市,58-7,西金野井1798番地1,民家物置前塀,35.9873391,139.8165842,
埼玉県,春日部市,59-1,西金野井880番地5,西金野井北区集会所東側ガードレール,35.9929807,139.8136918,
埼玉県,春日部市,59-2,西金野井645番地,民家東側香取神社鳥居植込み,35.9907209,139.8133517,
埼玉県,春日部市,59-3,西金野井577番地2 73-1,4号街区公園西側フェンス,35.9908215,139.8110637,
埼玉県,春日部市,59-4,西金野井1063番地1先,馬場墓地北側空き地 北側道路沿い,35.9903426,139.8145082,
埼玉県,春日部市,59-5,西金野井394番地5,NTT庄和電話交換センター 西側フェンス,35.9886115,139.8075956,
埼玉県,春日部市,59-6,西金野井596番地6,5号街区公園北側フェンス,35.9891974,139.812483,
埼玉県,春日部市,59-7,西金野井377番地31,東急南桜井団地内遊水池東側フェンス,35.9890044,139.8058222,
埼玉県,春日部市,60-1,下柳21番地1,南桜井小入口(民家)沿いブロック塀,35.9925712,139.7950744,
埼玉県,春日部市,60-2,下柳1130番地1,稲荷神社北西方向ガードレール付近,35.9824078,139.7819026,
埼玉県,春日部市,60-3,上柳1720番地先,上柳区駐車場南側道路沿い,35.9976428,139.7878018,
埼玉県,春日部市,60-4,下柳371番地,下柳区民センター茶色柵,35.987544,139.7906274,
埼玉県,春日部市,60-5,下柳1554番地1,(有)加藤タイル工業敷地,35.985191,139.7867418,
埼玉県,春日部市,60-6,金崎839番地1,庄和総合支所入口右側,35.9923987,139.8032314,
埼玉県,春日部市,60-7,金崎52番地3,庄和郵便局前県道北側フェンス,35.9926549,139.7994091,
埼玉県,春日部市,60-8,上柳1022番地,道の駅庄和県道交差点ポケットパーク,35.9978186,139.7956097,
埼玉県,春日部市,61-1,神間653番地4,旧富多小学校入口電話ボックス右側植込み,36.0107537,139.8000529,
埼玉県,春日部市,61-2,下吉妻1番地1,民家南西側ガードレール,36.0106413,139.8053464,
埼玉県,春日部市,61-3,椚567番地2,橋本橋ポンプ小屋南側ガードレール,36.0033313,139.8060587,
埼玉県,春日部市,61-4,立野413番地3,(有)飯塚商事倉庫東隣水田県道フェンス,36.0091797,139.792008,
埼玉県,春日部市,61-5,立野1番地1,商店北側県道沿い敷地,36.0033676,139.7953468,
埼玉県,春日部市,61-6,立野892番地4,富多橋脇県道フェンス,36.0047534,139.7837226,
埼玉県,春日部市,62-1,上吉妻1番地,江戸川小中学校正門脇金網,36.0189338,139.8043846,
埼玉県,春日部市,62-2,神間1065番地1,旧庄和北公民館入口脇ガードレール,36.0230407,139.8020996,
埼玉県,春日部市,62-3,榎468番地1,(株)さくらフーズ東側フェンス,36.012939,139.7926185,
埼玉県,春日部市,62-4,下吉妻431番地1,民家南東側ガードレール,36.0127847,139.8084065,
埼玉県,春日部市,62-5,榎158番地3,民家前ガードレール,36.0105867,139.7845388,
埼玉県,春日部市,62-6,神間352番地1,民家前県道ガードレール,36.0162448,139.7977801,
埼玉県,春日部市,62-7,榎943番地2,榎集会所向い道路脇フェンス前,36.0149265,139.7879981,
埼玉県,春日部市,63-1,西宝珠花593番地2,大凧文化交流センター正門脇,36.0312494,139.8101032,
埼玉県,春日部市,63-2,西宝珠花690番地,西宝珠花集会所南側フェンス,36.031349,139.8124425,
埼玉県,春日部市,63-3,西宝珠花384番地,民家先県道沿いガードレール,36.0288006,139.8105663,
埼玉県,春日部市,63-4,上吉妻1230番地1,自動車屋向い側江戸川堤防敷地,36.0254587,139.812414,
埼玉県,春日部市,63-5,西宝珠花70番地,大凧文化保存会上若組事務所北側,36.0304644,139.8136529,
埼玉県,春日部市,63-6,西親野井479番地1,親野井神社脇,36.0356538,139.8092107,
埼玉県,春日部市,63-7,塚崎136番地,ポンプ店前道路フェンス,36.0298089,139.8056234,
埼玉県,春日部市,64-1,倉常531番地1,商店北側ブロック塀,36.0293686,139.7877404,
埼玉県,春日部市,64-2,倉常911番地,倉常会館南側ガードレール,36.0209943,139.7825837,
埼玉県,春日部市,64-3,倉常1048番地,電設屋北側県道路肩,36.021601,139.7900123,
埼玉県,春日部市,64-4,倉常1230番地,民家前ガードレール,36.0167075,139.7851988,
埼玉県,春日部市,64-5,木崎12番地1,民家前畑県道沿い,36.026818,139.8008274,
埼玉県,春日部市,64-6,木崎142番地,木崎区集会所西側県道路肩,36.031219,139.795959,緯度経度は怪しい
