prefecture,city,number,address,name,lat,long,note
埼玉県,杉戸町,1-1,大字下野897番地地先,下野集会所際,36.0571944,139.7030552,
埼玉県,杉戸町,1-2,高野台西5丁目16番地,高野台小学校,36.0540281,139.705473,
埼玉県,杉戸町,1-3,高野台西5丁目8番地,天神児童公園内,36.0558149,139.7080051,
埼玉県,杉戸町,1-4,高野台西2丁目7番地13,上新田(かみしんでん)集会所際,36.054024,139.708939,緯度経度は怪しい
埼玉県,杉戸町,1-5,高野台西1丁目1番地,杉戸高野台駅西口前,36.0513536,139.7142705,
埼玉県,杉戸町,1-6,高野台西4丁目1番地3,西近隣公園内入口前,36.0508674,139.7069852,
埼玉県,杉戸町,1-7,高野台西2丁目1番地13,高野台ビルPART1T字路,36.0523404,139.7108561,
埼玉県,杉戸町,2-1,大字下高野329番地,日光御成街道一里塚,36.0506304,139.700964,
埼玉県,杉戸町,2-2,高野台南5丁目1番地2,西小学校校庭南側,36.047943,139.7107246,
埼玉県,杉戸町,2-3,高野台南1丁目13番地1,西幼稚園,36.0495349,139.7102703,
埼玉県,杉戸町,2-4,高野台南3丁目4番地2,幸手都市ガス倉庫前,36.0462783,139.715912,
埼玉県,杉戸町,2-5,高野台南4丁目3番地,凸版印刷(株)総合研究所前,36.0437788,139.7118591,
埼玉県,杉戸町,2-6,大字下高野530番地,後宿児童公園内,36.0429794,139.7046091,
埼玉県,杉戸町,2-7,大字高野台西4丁目1番地1,西近隣公園際,36.0489051,139.7080185,
埼玉県,杉戸町,3-1,高野台東1丁目8番地1,杉戸高野台駅東口前,36.051501,139.714987,
埼玉県,杉戸町,3-2,高野台東1丁目18番地,東丁張児童公園内,36.0489106,139.7155044,
埼玉県,杉戸町,3-3,大字茨島731番地1付近,特別養護老人ホ-ムはなみずき裏,36.0502914,139.7184742,
埼玉県,杉戸町,3-4,大字大島29番地1,高野農村センタ-入口際,36.0473341,139.7203943,
埼玉県,杉戸町,3-5,大字大島197番地2,水路フェンス,36.0506436,139.7239971,
埼玉県,杉戸町,3-6,大字大島477番地8,カルスタすぎと際,36.0464504,139.7257898,
埼玉県,杉戸町,3-7,大字下高野2756番地,小谷堀(こやぼり)集会所際,36.0434218,139.7198629,
埼玉県,杉戸町,4-1,大字下高野1878番地地先,ファミリ-マ-ト高野台南店地先,36.0415889,139.7119163,
埼玉県,杉戸町,4-2,大字下高野835番地地先,ロ-ソン杉戸下高野店横,36.0378607,139.7127398,
埼玉県,杉戸町,4-3,大字下高野591番地5地先,むさし堤団地集会所際公園内,36.0373857,139.7086199,
埼玉県,杉戸町,4-4,大字下高野623番地131,大栄団地集会所際,36.0366401,139.7098903,
埼玉県,杉戸町,4-5,大字下高野487番地1,白百合幼稚園グラウンド際,36.0407542,139.7082728,
埼玉県,杉戸町,4-6,大字杉戸432番地,埼玉県杉戸県土整備事務所横,36.0342701,139.71598,
埼玉県,杉戸町,4-7,大字杉戸848番地2,県営舎人団地前,36.0342528,139.7184047,
埼玉県,杉戸町,5-1,杉戸3丁目9番10号,ココティすぎと先,36.0274432,139.7293738,
埼玉県,杉戸町,5-2,杉戸3丁目46番地地先,割烹高橋屋先,36.0265639,139.7269803,
埼玉県,杉戸町,5-3,杉戸4丁目16番18号,NTT杉戸電話交換局別館,36.0290913,139.7248106,
埼玉県,杉戸町,5-4,杉戸1丁目10番21号,杉戸町商工会館前,36.0337478,139.7251709,
埼玉県,杉戸町,5-5,杉戸5丁目1107番地,上田児童公園内,36.0321756,139.7230396,
埼玉県,杉戸町,5-6,杉戸2丁目15番38号地先,鈴木コ-ポ横防火水槽前,36.0306506,139.7276294,
埼玉県,杉戸町,5-7,杉戸2丁目13番12号,旧三井住友信託銀行杉戸支店横,36.0292431,139.7292233,
埼玉県,杉戸町,6-1,内田1丁目1751番地地先,杉戸中学校,36.0337211,139.7296163,
埼玉県,杉戸町,6-2,杉戸7丁目1番2号地先,鈴木モ-タ-ス際,36.0336574,139.7258721,
埼玉県,杉戸町,6-3,大字杉戸2458番地,八幡神社内,36.0386765,139.7233406,
埼玉県,杉戸町,6-4,大字杉戸2199番地,中央幼稚園前,36.0387179,139.728376,
埼玉県,杉戸町,6-5,大字杉戸3009番地63地先,フレッシュ会館際,36.0428393,139.7279034,
埼玉県,杉戸町,6-6,大字杉戸2828番地39,フレッシュタウン公園内((株)シコ-裏),36.0407472,139.7308771,
埼玉県,杉戸町,6-7,大字杉戸2820番地1,masked,36.0413061,139.7321242,
埼玉県,杉戸町,7-1,清地2丁目278番地地先,清地橋際,36.0248396,139.7352063,
埼玉県,杉戸町,7-2,清地1丁目9番19号,流灯ふれあい館前,36.0266521,139.7313901,
埼玉県,杉戸町,7-3,清地1丁目229番地地先,旧鶴牧せんべい店斜前,36.0267056,139.7334683,
埼玉県,杉戸町,7-4,清地2丁目555番地2,清地第二児童公園際,36.0266985,139.7360765,
埼玉県,杉戸町,7-5,清地2丁目502番地,役場内,36.0256833,139.7363554,
埼玉県,杉戸町,7-6,清地3丁目790番地,新井板金際,36.023655,139.7390313,
埼玉県,杉戸町,7-7,清地3丁目4579番地2,南側散策道ポケットパ-ク際,36.0206885,139.7441838,
埼玉県,杉戸町,8-1,倉松1丁目297番地1地先,杉戸内田団地裏水路フェンス,36.0310223,139.7327648,
埼玉県,杉戸町,8-2,内田2丁目2011番地地先,杉戸内田団地入口際,36.0311017,139.7304424,
埼玉県,杉戸町,8-3,内田2丁目9番28号,杉戸小学校四ツ角,36.0331021,139.7315929,
埼玉県,杉戸町,8-4,倉松1丁目321番地地先,県営杉戸倉松団地前水路際,36.0323646,139.7353451,
埼玉県,杉戸町,8-5,内田3丁目10番15号,masked,36.0361832,139.7331676,
埼玉県,杉戸町,8-6,内田3丁目2301番地1地先,元内田保育園前,36.0361229,139.7310029,
埼玉県,杉戸町,8-7,大字杉戸2617番地地先,細井自動車裏水路際,36.037568,139.731329,
埼玉県,杉戸町,9-1,大字倉松600番地1,杉戸第二小学校,36.0336984,139.7465536,
埼玉県,杉戸町,9-2,大字倉松702-3付近,コ-プみらいコ-プデリ杉戸センタ-際,36.0299144,139.7458603,
埼玉県,杉戸町,9-3,清地4丁目544番地地先,杉戸高校テニスコ-ト際,36.0291503,139.7336937,
埼玉県,杉戸町,9-4,倉松3丁目374番地地先,masked,36.0327163,139.7395307,
埼玉県,杉戸町,9-5,大字本島2574番地地先,倉松川留八橋際,36.0361234,139.7413455,
埼玉県,杉戸町,9-6,大字倉松854番地1地先,倉松公園入口際,36.0368193,139.7484191,
埼玉県,杉戸町,9-7,大字清地433番地,香取神社境内地,36.0323658,139.752128,
埼玉県,杉戸町,10-1,大字堤根4759番地,杉戸南中学校,36.0254502,139.7447247,
埼玉県,杉戸町,10-2,清地6丁目925番地地先,高田水道工業所前,36.0265435,139.7416085,
埼玉県,杉戸町,10-3,清地5丁目681番地地先,masked,36.027472,139.7401963,
埼玉県,杉戸町,10-4,清地5丁目649番地地先,三田美容室際,36.0285363,139.7385721,
埼玉県,杉戸町,10-5,清地5丁目640番地,朝日バス倉松停留所際,36.0300829,139.7404845,
埼玉県,杉戸町,10-6,清地5丁目684番地,清地児童公園,36.027738,139.7391769,
埼玉県,杉戸町,10-7,大字清地1780番地,すぎと幼稚園・すぎと保育園前,36.0296393,139.7494632,
埼玉県,杉戸町,11-1,大字本島636番地地先,香取神社前,36.045851,139.7502643,
埼玉県,杉戸町,11-2,大字遠野438番地地先,masked,36.0523986,139.7489965,
埼玉県,杉戸町,11-3,大字佐左ヱ門1488番地,佐左ェ門集会所,36.0440242,139.7560386,
埼玉県,杉戸町,11-4,大字佐左ヱ門319番地2地先,幸手領第3揚水機場際,36.0377285,139.7572697,
埼玉県,杉戸町,11-5,大字佐左ヱ門1293番地1地先,松田寺入口際,36.0413711,139.7603475,
埼玉県,杉戸町,11-6,大字佐左ヱ門1120番地地先,masked,36.0376862,139.7642475,
埼玉県,杉戸町,11-7,大字遠野174番地,無量院前,36.0504706,139.7513076,
埼玉県,杉戸町,12-1,大字並塚840番地地先,朝日バス藤搦停留所際,36.0314276,139.7578344,
埼玉県,杉戸町,12-2,大字並塚1116番地地先,朝日バス並塚停留所際,36.0331295,139.7621446,
埼玉県,杉戸町,12-3,大字並塚105番地4地先,田宮農村センタ-,36.0310635,139.7673052,
埼玉県,杉戸町,12-4,大字並塚2089番地1地先,岩田ガソリンスタンド際,36.034395,139.7724767,
埼玉県,杉戸町,12-5,大字才羽758番地地先,内谷(うちや)集会所際,36.0261054,139.7744547,
埼玉県,杉戸町,12-6,大字才羽823番地,アグリパ-クゆめすぎと内,36.0251147,139.769787,
埼玉県,杉戸町,12-7,大字才羽1993番地地先,槐橋際,36.0267215,139.7625779,
埼玉県,杉戸町,13-1,大字大塚626番地地先,安戸落伝平橋際,36.0105572,139.7700146,
埼玉県,杉戸町,13-2,大字北蓮沼253番地1地先,JA埼玉みずほ農協元北蓮沼倉庫前,36.014129,139.7742933,
埼玉県,杉戸町,13-3,大字北蓮沼345番地1,元東小学校,36.0163617,139.7768712,
埼玉県,杉戸町,13-4,大字北蓮沼1241番地2地先,香取神社前,36.0185989,139.7779078,
埼玉県,杉戸町,13-5,大字大塚358番地地先,八坂神社際,36.0153656,139.7809279,
埼玉県,杉戸町,14-1,大字堤根4428番地,上蔵久(かみくらきゅう)集会所,36.0189566,139.7480649,
埼玉県,杉戸町,14-2,大字堤根4061番地地先,堤根南交差点際,36.015339,139.7514422,
埼玉県,杉戸町,14-3,大字本郷1235番地地先,すきすきすぎ-と36際,36.0016153,139.7522683,
埼玉県,杉戸町,14-4,大字本郷203番地地先,倉松川堤根橋際,36.0072718,139.7659915,
埼玉県,杉戸町,14-5,大字本郷431番地7地先,サンポ-食品裏,36.0052507,139.755555,
埼玉県,杉戸町,14-6,大字堤根3856番地13地先,杉戸町シルバ-人材センタ-前,36.010504,139.7555709,
埼玉県,杉戸町,14-7,大字堤根4089番地1地先,南公民館テニスコ-ト際,36.01614,139.7530725,
埼玉県,杉戸町,14-8,大字堤根4853番地,宮内(くない)集会所際,36.0262442,139.7509222,
埼玉県,杉戸町,15-1,大字目沼198番地地先,目沼集会所際,36.0520891,139.782102,
埼玉県,杉戸町,15-2,大字目沼427番地2,杉戸町環境センタ-入口,36.0527375,139.7862608,
埼玉県,杉戸町,15-3,大字木津内524番地,杉戸町ふれあいセンタ-エコ・スポいずみ,36.0522437,139.7876368,
埼玉県,杉戸町,15-4,大字目沼407番地1地先,竹山百貨店前(元豊岡小学校),36.0513703,139.7871982,
埼玉県,杉戸町,15-5,大字宮前103番地地先,JH株式会社前(元JA豊岡支店),36.0456634,139.7925545,
埼玉県,杉戸町,15-6,大字宮前80番地1地先,泉保育園駐車場脇,36.0439025,139.7908983,
埼玉県,杉戸町,15-7,大字宮前225番地1,宮前集会所際,36.0466067,139.7905568,
埼玉県,杉戸町,16-1,大字宮前1番地,泉小学校,36.0420349,139.7924812,
埼玉県,杉戸町,16-2,大字鷲巣747番地地先,古谷商店前,36.0450227,139.7942685,
埼玉県,杉戸町,16-3,大字鷲巣118番地2地先,木野川団地入口際,36.042106,139.7997563,
埼玉県,杉戸町,16-4,大字鷲巣644番地3,鷲巣集会所際,36.0403109,139.7945019,
埼玉県,杉戸町,16-5,大字木野川87番地1,masked,36.0404941,139.8041287,
埼玉県,杉戸町,16-6,大字木野川441番地地先,木野川児童公園前,36.0384218,139.8023196,
埼玉県,杉戸町,16-7,大字木野川315番地1,元木野川第二雑排水処理施設,36.0368135,139.8007102,
埼玉県,杉戸町,17-1,大字椿488番地1地先,船渡橋際,36.0344239,139.7755249,
埼玉県,杉戸町,17-2,大字椿436番地1地先,鍋田商店前,36.0353672,139.7814035,
埼玉県,杉戸町,17-3,大字屏風200番地3,屏風フットサル場,36.0487159,139.78292,
埼玉県,杉戸町,17-4,大字屏風349番地地先,masked,36.0441632,139.7851352,
埼玉県,杉戸町,17-5,大字椿633番地地先,消防団第7分団横,36.0384408,139.7850253,
埼玉県,杉戸町,17-6,大字椿349番地,給食センタ-前,36.0343259,139.7862819,
埼玉県,杉戸町,17-7,大字深輪317番地1地先,深輪産業団地地区センタ-,36.0392111,139.7917835,
