prefecture,city,number,address,name,lat,long,note
埼玉県,東松山市,1-1,松葉町1丁目1番58号,市役所本庁舎東側植込み,36.0421634,139.3999757,
埼玉県,東松山市,1-2,松葉町1丁目1番16号,松山第一小学校北側フェンス,36.0429026,139.3986009,
埼玉県,東松山市,1-3,本町1丁目3番36号先,上沼公園西側、上沼旅館北,36.042328,139.403687,緯度経度は怪しい
埼玉県,東松山市,1-4,本町1丁目4番17号先,上沼公園北東側,36.0441185,139.4052846,
埼玉県,東松山市,1-5,加美町12番2号,加美町自治会公会堂,36.0470957,139.4053069,
埼玉県,東松山市,1-6,小松原町6番地,小松原町公園南側,36.045322,139.407822,緯度経度は怪しい
埼玉県,東松山市,1-7,小松原町16番地,諏訪公園南側,36.044369,139.410858,緯度経度は怪しい
埼玉県,東松山市,2-8,材木町23番2号先,東松山市商工会駐車場入口,36.038944,139.4034755,
埼玉県,東松山市,2-9,材木町1番13号,(株)大丸縫製西側,36.040849,139.4010618,
埼玉県,東松山市,2-10,材木町5番12号先,東松山市文書庫南側,36.0413053,139.4048125,
埼玉県,東松山市,2-11,材木町6番18号先,材木町第一公園西側,36.040695,139.403473,緯度経度は怪しい
埼玉県,東松山市,2-12,材木町1番24号,市役所立体駐車場北側,36.041275,139.400848,緯度経度は怪しい
埼玉県,東松山市,2-13,松葉町1丁目26番,八幡神社付近庚申塔西側,36.0412113,139.3978472,
埼玉県,東松山市,2-14,材木町1番24号,市役所立体駐車場西側,36.041275,139.400848,緯度経度は怪しい
埼玉県,東松山市,3-15,本町2丁目10番10号先,下沼公園東側,36.0380155,139.4053431,
埼玉県,東松山市,3-16,箭弓町1丁目19番19号先,東電箭弓変電所北側,36.0336759,139.4041833,
埼玉県,東松山市,3-17,神明町2丁目5番7号先,しんめい広場北側,36.0327251,139.4071143,
埼玉県,東松山市,3-18,箭弓町1丁目7番先,箭弓町第一公園東側(税務署前),36.0368618,139.4032446,
埼玉県,東松山市,3-19,箭弓町1丁目7番先,箭弓町第一公園西側,36.0368618,139.4032446,
埼玉県,東松山市,3-20,箭弓町1丁目5339番地3,東松山駅東口ロータリー南東側(植え込み),36.035595,139.402512,緯度経度は怪しい
埼玉県,東松山市,3-21,箭弓町1丁目5258番地1,箭弓町広場(ピオパーク)南側(植え込み),36.035595,139.402512,緯度経度は怪しい
埼玉県,東松山市,4-22,松本町1丁目542番地4,ポケットパーク北側,36.039833,139.409744,緯度経度は怪しい
埼玉県,東松山市,4-23,松本町1丁目4695番地11,松本町一丁目緑地南側,36.039833,139.409744,緯度経度は怪しい
埼玉県,東松山市,4-24,御茶山町7番地3,すぱーく東松山西側,36.0351638,139.4095451,
埼玉県,東松山市,4-25,六反町4番地,東中学校南側(正門西),36.035484,139.414108,緯度経度は怪しい
埼玉県,東松山市,4-26,六反町12番地,六反町児童公園西側,36.035431,139.415649,緯度経度は怪しい
埼玉県,東松山市,4-27,松本町1丁目9番9号先,松山市民活動センター駐車場北側,36.03904259999999,139.4111561,
埼玉県,東松山市,4-28,砂田町7番地,砂田第2公園北側,36.041656,139.41333,緯度経度は怪しい
埼玉県,東松山市,5-29,松葉町2丁目6番11号,松山中学校南側,36.0425377,139.3967294,
埼玉県,東松山市,5-30,松葉町2丁目6番11号,松山中学校北側,36.0425377,139.3967294,
埼玉県,東松山市,5-31,松葉町2丁目5番36号,県営滝の本団地北側,36.0412253,139.3949783,
埼玉県,東松山市,5-32,松葉町2丁目4番56号,東和銀行森林公園出張所西側,36.0401885,139.395863,
埼玉県,東松山市,5-33,松葉町3丁目11番15号,(有)武蔵スバル商会東側フェンス,36.0391844,139.3924962,
埼玉県,東松山市,5-34,松葉町2丁目10番24号,個人宅前駐車場北側,36.0437521,139.3955086,
埼玉県,東松山市,5-35,松山町2丁目1番17号,個人宅南側フェンス,36.0421475,139.3905166,
埼玉県,東松山市,6-36,松山町1丁目6番10号,松山高等学校南側(正門西),36.0454207,139.3964406,
埼玉県,東松山市,6-37,松山町3丁目5番53号先,市ノ川公会堂北側,36.0478615,139.3926614,
埼玉県,東松山市,6-38,松山町2丁目6番22号先,前山公園北側,36.04552990000001,139.3881685,
埼玉県,東松山市,6-39,松山町2丁目7番48号,個人宅北側,36.04494560000001,139.3872219,
埼玉県,東松山市,6-40,大字市ノ川649番地1,市ノ川氷川公園北側,36.05143,139.392929,緯度経度は怪しい
埼玉県,東松山市,6-41,大字市ノ川569番地1,市の川通線第一公園北側フェンス,36.048103,139.390915,緯度経度は怪しい
埼玉県,東松山市,6-42,松山町1丁目15番41号先,いちのかわ保育園駐車場東側,36.04779389999999,139.3968902,
埼玉県,東松山市,7-43,美原町1丁目12番,加美町公園南側,36.034794,139.389786,緯度経度は怪しい
埼玉県,東松山市,7-44,大字松山2416番地8,市民病院駐車場東側,36.054077,139.405319,緯度経度は怪しい
埼玉県,東松山市,7-45,大字松山1804番地59,白坂団地内児童公園南側,36.056679,139.404099,緯度経度は怪しい
埼玉県,東松山市,7-46,大字松山1895番地2,北中学校南側フェンス,36.0585429,139.4009824,
埼玉県,東松山市,7-47,大字野田457番地3,野田自治会館,36.059422,139.389297,緯度経度は怪しい
埼玉県,東松山市,7-48,大字野田1306番地1,県立東松山特別支援学校東側,36.053509,139.385269,緯度経度は怪しい
埼玉県,東松山市,7-49,大字市ノ川30番地,市の川小学校南側フェンス,36.05154,139.398239,緯度経度は怪しい
埼玉県,東松山市,8-50,御茶山町12番地,御茶山町児童公園西側,36.034096,139.410583,緯度経度は怪しい
埼玉県,東松山市,8-51,御茶山町14番地14,東松山市民文化センター駐車場東側,36.034168,139.411652,緯度経度は怪しい
埼玉県,東松山市,8-52,六軒町12番地7,福島駐車場北側,36.03446539999999,139.4164838,
埼玉県,東松山市,8-53,五領町14番地3,県営五領団地3号棟北側,36.0314672,139.4180502,
埼玉県,東松山市,8-54,五領町8番地,五領町近隣公園北側,36.031731,139.415543,緯度経度は怪しい
埼玉県,東松山市,8-55,五領町8番地,五領町近隣公園南側,36.031731,139.415543,緯度経度は怪しい
埼玉県,東松山市,8-56,御茶山町19番地4,個人宅西側空き地,36.032761,139.40889,緯度経度は怪しい
埼玉県,東松山市,9-57,大字柏崎710番地1,個人宅北側畑地,36.025555,139.417282,緯度経度は怪しい
埼玉県,東松山市,9-58,山崎町21番地,東松山市上下水道庁舎東側,36.026649,139.426376,緯度経度は怪しい
埼玉県,東松山市,9-59,大字柏崎182番地1,(株)タカハシ北側空き地,36.02264,139.426926,緯度経度は怪しい
埼玉県,東松山市,9-60,山崎町11番地,山崎町児童公園北側,36.029026,139.424332,緯度経度は怪しい
埼玉県,東松山市,9-61,五領町12番地89先(12-97),五領町北児童公園北東側,36.0294175,139.4179835,
埼玉県,東松山市,9-62,新宿町21番地,新宿町児童公園東側,36.032341,139.421143,緯度経度は怪しい
埼玉県,東松山市,9-63,新宿町14番地,新宿小学校西側(正門南),36.033337,139.420044,緯度経度は怪しい
埼玉県,東松山市,10-64,箭弓町1丁目5292番地2,東松山駅西口駅舎西側,36.035595,139.402512,緯度経度は怪しい
埼玉県,東松山市,10-65,箭弓町3丁目8番地9号,個人宅西側防火水槽用地,36.03619260000001,139.3986916,
埼玉県,東松山市,10-66,箭弓町3丁目13番26号,ボッシュ(株)東側,36.0356708,139.3962202,
埼玉県,東松山市,10-67,箭弓町3丁目13番26号,ボッシュ(株)西側,36.0356708,139.3962202,
埼玉県,東松山市,10-68,箭弓町3丁目9番2号,まきの木公園西側,36.0372954,139.3990428,
埼玉県,東松山市,10-69,箭弓町2丁目12番13号先,東松山駅西口駐車場南側,36.0333308,139.4014388,
埼玉県,東松山市,10-70,幸町1936番19,幸町第二街区公園入口西側,36.030422,139.400055,緯度経度は怪しい
埼玉県,東松山市,11-71,和泉町1639番地84,和泉町第一街区公園南側,36.03244,139.392792,緯度経度は怪しい
埼玉県,東松山市,11-72,美土里町2番地2先,松美子供広場東側,36.0368177,139.3913294,
埼玉県,東松山市,11-73,美土里町1664-1,ボッシュ(株)社員駐車場南東側,36.034794,139.389786,緯度経度は怪しい
埼玉県,東松山市,11-74,和泉町2番22号,松山女子高等学校北側,36.0332587,139.3958929,
埼玉県,東松山市,11-75,美土里町6番66号,美土里町集会所北側,36.0356931,139.3879966,
埼玉県,東松山市,11-76,幸町1949番地5,幸町第一街区公園県道側生垣,36.030422,139.400055,緯度経度は怪しい
埼玉県,東松山市,11-77,美土里町2041番地1,ボッシュ(株)社員駐車場北東側,36.034794,139.389786,緯度経度は怪しい
埼玉県,東松山市,12-78,松葉町4丁目8番36号先,市民体育館北駐車場北側,36.0421386,139.3874012,
埼玉県,東松山市,12-79,松葉町4丁目8番22号,市民体育館入口,36.041373,139.3873744,
埼玉県,東松山市,12-80,松葉町4丁目7番19号,(有)原留運輸倉庫西側,36.0388318,139.3870602,
埼玉県,東松山市,12-81,大字石橋1665番地5,焼肉いきな黒塀東松山店北側空き地,36.03783,139.380783,緯度経度は怪しい
埼玉県,東松山市,12-82,大字石橋1525番地2,個人宅南側,36.035858,139.381531,緯度経度は怪しい
埼玉県,東松山市,12-83,大字石橋1555番地1,個人宅南側畑,36.035858,139.381531,緯度経度は怪しい
埼玉県,東松山市,12-84,大字石橋1747番地81,関越自動車道側道法面,36.038879,139.373505,緯度経度は怪しい
埼玉県,東松山市,13-85,大字東平1727番地11,やきとり店西側空き地,36.0688718,139.4075906,緯度経度は怪しい
埼玉県,東松山市,13-86,大字東平1551番地,日本製紙ケミカル(株)入口南側,36.066654,139.406525,緯度経度は怪しい
埼玉県,東松山市,13-87,大字東平1514番地1,東平幼稚園向かい梅林,36.063126,139.407059,緯度経度は怪しい
埼玉県,東松山市,13-88,大字東平567番地1,平野市民活動センター北側フェンス,36.05999,139.401627,緯度経度は怪しい
埼玉県,東松山市,13-89,大字東平855番地1,松山第二小学校東入口北側,36.059708,139.404694,緯度経度は怪しい
埼玉県,東松山市,13-90,大字野田750番地1,個人宅西側,36.057743,139.390289,緯度経度は怪しい
埼玉県,東松山市,13-91,大字東平567番地1,平野市民活動センター入口北側,36.05999,139.401627,緯度経度は怪しい
埼玉県,東松山市,14-92,大字東平1358番地1,個人宅南側梨園法面,36.0634,139.41304,緯度経度は怪しい
埼玉県,東松山市,14-93,大字東平1007番地1,熊野神社子供広場南側,36.062027,139.412048,緯度経度は怪しい
埼玉県,東松山市,14-94,殿山町17番地,殿山北公園南側,36.05822089999999,139.4154699,
埼玉県,東松山市,14-95,沢口町23番地,沢口北公園北側,36.058842,139.41127,緯度経度は怪しい
埼玉県,東松山市,14-96,沢口町3番地,沢口南公園西側,36.056595,139.411377,緯度経度は怪しい
埼玉県,東松山市,14-97,殿山町31番地1先,月中橋下流月中川東側フェンス,36.0607612,139.4144809,
埼玉県,東松山市,14-98,殿山町5番地,殿山南公園西側,36.056129,139.414749,緯度経度は怪しい
埼玉県,東松山市,15-99,大字大谷3402番地,大岡市民活動センター東入口南側,36.081421,139.391632,緯度経度は怪しい
埼玉県,東松山市,15-100,大字大谷3202番地1,旧大岡公民館東側,36.076714,139.397247,緯度経度は怪しい
埼玉県,東松山市,15-101,大字大谷3018番地1先,個人宅向かい路肩,36.074657,139.401428,緯度経度は怪しい
埼玉県,東松山市,15-102,大字大谷5308番地1,モンゼン商店前畑地,36.076588,139.387131,緯度経度は怪しい
埼玉県,東松山市,15-103,大字大谷2409番地1,個人宅北側法面,36.072407,139.390518,緯度経度は怪しい
埼玉県,東松山市,15-104,大字大谷3699番地,大岡小学校西側,36.081619,139.396378,緯度経度は怪しい
埼玉県,東松山市,15-105,大字大谷1891番地1先,保健事業(株)北側,36.068497,139.398376,緯度経度は怪しい
埼玉県,東松山市,15-106,大字大谷1133番地1,東松山ぼたん園附属管理地,36.0644732,139.3857942,
埼玉県,東松山市,16-107,大字大谷4838番地1,上岡地蔵前バス停,36.098961,139.392654,緯度経度は怪しい
埼玉県,東松山市,16-108,大字岡1736番地1,上岡集会所向かい,36.097363,139.397308,緯度経度は怪しい
埼玉県,東松山市,16-109,大字大谷4385番地18先,個人宅横路肩,36.091648,139.395493,緯度経度は怪しい
埼玉県,東松山市,16-110,大字岡1179番地1,神光谷バス停横空き地,36.092731,139.401215,緯度経度は怪しい
埼玉県,東松山市,16-111,大字岡283番地先,東松山病院前バス停路肩,36.085918,139.404739,緯度経度は怪しい
埼玉県,東松山市,16-112,大字岡1220番地2,中岡集会所南側フェンス,36.094147,139.402161,緯度経度は怪しい
埼玉県,東松山市,16-113,大字大谷3980番地4,個人宅南側畑地,36.083603,139.404587,緯度経度は怪しい
埼玉県,東松山市,17-114,大字新郷35番地3,工業団地入口交差点南側空き地,36.032478,139.366989,緯度経度は怪しい
埼玉県,東松山市,17-115,大字下唐子1590番地1,松山電化サービス西側畑地,36.030006,139.362122,緯度経度は怪しい
埼玉県,東松山市,17-116,大字石橋2201番地6,石橋第一街区公園,36.03051,139.367676,緯度経度は怪しい
埼玉県,東松山市,17-117,大字新郷642番地,唐子小学校南側(正門東),36.029961,139.365524,緯度経度は怪しい
埼玉県,東松山市,17-118,大字下唐子1604番地,唐子市民活動センター南側,36.028194,139.365662,緯度経度は怪しい
埼玉県,東松山市,17-119,大字下唐子1169番1,唐子中央公園西側駐車場フェンス,36.027046,139.36409,緯度経度は怪しい
埼玉県,東松山市,17-120,大字下唐子437番地,高本集会所前子供広場,36.013535,139.365051,緯度経度は怪しい
埼玉県,東松山市,18-121,大字石橋1384番地1,個人宅北側,36.034775,139.377014,緯度経度は怪しい
埼玉県,東松山市,18-122,大字石橋1330番地2地先,個人宅北側ゴミステーション脇,36.033428,139.377762,緯度経度は怪しい
埼玉県,東松山市,18-123,大字石橋1150番地1,青鳥小学校北東側,36.031231,139.382065,緯度経度は怪しい
埼玉県,東松山市,18-124,大字石橋601番地2,個人宅前南側交差点,36.027267,139.375107,緯度経度は怪しい
埼玉県,東松山市,18-125,大字石橋260番地1,石橋集会所入口バス停西側,36.025249,139.37735,緯度経度は怪しい
埼玉県,東松山市,18-126,大字石橋331番地,南中学校西入口南側,36.0240561,139.3811251,緯度経度は怪しい
埼玉県,東松山市,18-127,大字坂東山13番,ばんどう山第2公園南側,36.015842,139.376236,緯度経度は怪しい
埼玉県,東松山市,19-128,大字神戸722番地15,個人宅南側畑地,36.023029,139.352112,緯度経度は怪しい
埼玉県,東松山市,19-129,大字神戸932番地1,市民健康増進センター駐車場北側,36.01889,139.351242,緯度経度は怪しい
埼玉県,東松山市,19-130,大字神戸1305番地,個人宅南側,36.017998,139.34938,緯度経度は怪しい
埼玉県,東松山市,19-131,大字神戸874番地3,神戸公会堂西側,36.01889,139.351242,緯度経度は怪しい
埼玉県,東松山市,19-132,大字神戸1346番地1先,たかはし屋西側空き地,36.014767,139.3526,緯度経度は怪しい
埼玉県,東松山市,19-133,大字神戸1645番地1,個人宅北側三角地,36.0161681,139.3500865,緯度経度は怪しい
埼玉県,東松山市,19-134,大字神戸2272番地,クリーンセンター東側,36.016659,139.347305,緯度経度は怪しい
埼玉県,東松山市,20-135,大字下唐子1927番地1,関口産業社員寮南側,36.035378,139.351791,緯度経度は怪しい
埼玉県,東松山市,20-136,大字上唐子1253番地1,ラーメン店東側栗畑,36.032551,139.35022,緯度経度は怪しい
埼玉県,東松山市,20-137,大字上唐子1062番地,上唐子集会所北側,36.034988,139.34491,緯度経度は怪しい
埼玉県,東松山市,20-138,大字上唐子779番地1,個人宅西側法面,36.032673,139.345154,緯度経度は怪しい
埼玉県,東松山市,20-139,大字上唐子960番地1,個人宅向かい空き地,36.034405,139.342773,緯度経度は怪しい
埼玉県,東松山市,20-140,大字上唐子1323番地1,上二運動場広場南東側(物置前),36.03849,139.344971,緯度経度は怪しい
埼玉県,東松山市,20-141,大字上唐子1496番地3,ダンススクール北側,36.038383,139.332047,緯度経度は怪しい
埼玉県,東松山市,21-142,あずま町2丁目22番地2,七清水せせらぎ公園南側,36.004791,139.404816,緯度経度は怪しい
埼玉県,東松山市,21-143,あずま町1丁目19番地,川風公園南側,36.008083,139.408859,緯度経度は怪しい
埼玉県,東松山市,21-144,大字高坂1333番地2,高坂駅東口スロープ前フェンス,36.005253,139.400467,緯度経度は怪しい
埼玉県,東松山市,21-145,高坂3丁目24番地1,やつるぎ公園南側,36.0020117,139.4036055,
埼玉県,東松山市,21-146,大字早俣459番地1,早俣集会所用地東側,36.004128,139.421234,緯度経度は怪しい
埼玉県,東松山市,21-147,高坂6丁目4番地1,どんぐりやま公園東側,35.9947882,139.4005667,
埼玉県,東松山市,21-148,大字宮鼻172番地1,個人宅南側畑地,35.997101,139.40802,緯度経度は怪しい
埼玉県,東松山市,21-149,大字大黒部34番地,(株)ときわ光学研究所高坂工場南側,35.997883,139.403656,緯度経度は怪しい
埼玉県,東松山市,21-150,あずま町1丁目1番地1,川風の散歩道南側,36.0066669,139.4029929,
埼玉県,東松山市,22-151,大字毛塚875番地,個人宅南側畑地,35.996426,139.394989,緯度経度は怪しい
埼玉県,東松山市,22-152,大字西本宿1679番地,西本宿第一子供広場北側,35.998623,139.3909,緯度経度は怪しい
埼玉県,東松山市,22-153,大字西本宿533番地1,関口鉄工所南側路肩,36.001789,139.387344,緯度経度は怪しい
埼玉県,東松山市,22-154,元宿2丁目24番地,中通公園西側,36.002724,139.391418,緯度経度は怪しい
埼玉県,東松山市,22-155,元宿1丁目4番地,上後原公園西側,36.004375,139.395508,緯度経度は怪しい
埼玉県,東松山市,22-156,元宿2丁目6番地1,高坂図書館南側,36.0049574,139.3933806,
埼玉県,東松山市,22-157,大字西本宿2464番地,西本宿不燃物等埋立地北側公園東側,36.00877,139.387466,緯度経度は怪しい
埼玉県,東松山市,23-158,白山台17番地,白山中学校入口,35.994801,139.3853,緯度経度は怪しい
埼玉県,東松山市,23-159,桜山台5番地,桜山小学校北側,35.993965,139.388702,緯度経度は怪しい
埼玉県,東松山市,23-160,桜山台9番地,ゆすらうめ公園西側,35.993076,139.387573,緯度経度は怪しい
埼玉県,東松山市,23-161,桜山台71番地1,中丸緑地北側,35.9949379,139.3887998,緯度経度は怪しい
埼玉県,東松山市,23-162,大字田木828番地2,個人宅北側畑地,35.9893,139.390945,緯度経度は怪しい
埼玉県,東松山市,23-163,桜山台81番地,かりん緑地(公園内植栽前),35.988445,139.384415,緯度経度は怪しい
埼玉県,東松山市,23-164,大字田木428番地1,個人宅北側,35.98716,139.396088,緯度経度は怪しい
埼玉県,東松山市,24-165,大字岩殿30番地75先,月ヶ丘会館公園北側,36.001015,139.382446,緯度経度は怪しい
埼玉県,東松山市,24-166,大字岩殿18番地4,道平造園東側,35.999691,139.383713,緯度経度は怪しい
埼玉県,東松山市,24-167,松風台8番地2,高坂丘陵市民活動センター北側,35.9943865,139.3825937,
埼玉県,東松山市,24-168,旗立台1番地,千年谷公園駐車場入口北側,35.990906,139.383316,緯度経度は怪しい
埼玉県,東松山市,24-169,松風台15番地75先,松の木橋北側交差点北西側,35.9923783,139.3797116,
埼玉県,東松山市,24-170,大字岩殿311番地1,岩殿学生会館東空き地,35.999561,139.378159,緯度経度は怪しい
埼玉県,東松山市,24-171,松風台11番地,かきの木公園西側,35.992779,139.38176,緯度経度は怪しい
埼玉県,東松山市,24-172,大字岩殿991番地3,弁天沼西側,36.003994,139.373596,緯度経度は怪しい
埼玉県,東松山市,25-173,大字上野本776番地6,個人宅東東上線ガード沿い法面,36.026318,139.40239,緯度経度は怪しい
埼玉県,東松山市,25-174,大字上野本520番地,金谷公会堂(氷川神社)南側,36.029488,139.39537,緯度経度は怪しい
埼玉県,東松山市,25-175,大字上野本1959番地先,不動沼南側法面,36.029892,139.39119,緯度経度は怪しい
埼玉県,東松山市,25-176,大字上野本58番地1,個人宅西側柿畑,36.027561,139.390244,緯度経度は怪しい
埼玉県,東松山市,25-177,大字下青鳥138番地1,個人宅南側畑地,36.025303,139.388031,緯度経度は怪しい
埼玉県,東松山市,25-178,大字上野本1300番地1,比企広域市町村圏組合南側,36.023506,139.404877,緯度経度は怪しい
埼玉県,東松山市,25-179,大字下青鳥765番地1,個人宅東側空き地,36.017124,139.399933,緯度経度は怪しい
埼玉県,東松山市,26-180,若松町1丁目18番1号,わかまつ保育園正面,36.02825139999999,139.4082476,
埼玉県,東松山市,26-181,若松町2丁目1番22号先,個人宅南側空き地,36.02744240000001,139.4094159,
埼玉県,東松山市,26-182,若松町1丁目3番13号,個人宅南側フェンス,36.0298273,139.4077226,
埼玉県,東松山市,26-183,若松町1丁目1011番,五領沼公園東側,36.029415,139.408081,緯度経度は怪しい
埼玉県,東松山市,26-184,若松町2丁目7番先,旧松山光風寮跡空き地南側,36.0289631,139.4118179,
埼玉県,東松山市,26-185,若松町2丁目14番,若松町公会堂東側フェンス,36.0264775,139.4099126,
埼玉県,東松山市,26-186,若松町2丁目18番1号先,駐車場東407号バイパス路肩,36.0266731,139.4153469,
埼玉県,東松山市,27-187,大字上野本1196番地3,上野本第一地区公会堂駐車場北側ゴミステーション,36.024403,139.405228,緯度経度は怪しい
埼玉県,東松山市,27-188,大字上野本1809番地2,八幡神社東側,36.022141,139.410324,緯度経度は怪しい
埼玉県,東松山市,27-189,大字下野本610番地,野本市民活動センター西側,36.017654,139.411819,緯度経度は怪しい
埼玉県,東松山市,27-190,大字下野本784番地1,個人宅南側,36.02021209999999,139.4147454,
埼玉県,東松山市,27-191,大字下野本1452番地1先,ト-ツ-創研西側,36.021309,139.420593,緯度経度は怪しい
埼玉県,東松山市,27-192,大字下押垂219番地1,個人宅南側,36.009331,139.416321,緯度経度は怪しい
埼玉県,東松山市,27-193,大字下野本1157番地1,野本コミュニティセンター西側,36.015926,139.426437,緯度経度は怪しい
埼玉県,東松山市,28-194,大字古凍28番地1,農業共済組合駐車場フェンス,36.0176846,139.4315264,
埼玉県,東松山市,28-195,大字古凍593番地1先,個人宅北側,36.016514,139.434982,緯度経度は怪しい
埼玉県,東松山市,28-196,大字古凍604番地3,個人宅南側三角地,36.0086874,139.4491425,緯度経度は怪しい
埼玉県,東松山市,28-197,大字古凍730番地,環境センター入口南西側,36.012592,139.438721,緯度経度は怪しい
埼玉県,東松山市,28-198,大字古凍966番地1,(株)柴崎運輸向かい畑地,36.008022,139.43811,緯度経度は怪しい
埼玉県,東松山市,28-199,大字今泉277番地,今泉公会堂南側,36.0094269,139.4358071,
埼玉県,東松山市,28-200,大字今泉237番地,旧北関東物流(株)東松山営業所 東側フェンス,36.010487,139.435196,緯度経度は怪しい
埼玉県,東松山市,29-201,大字松山2681番地1,岩鼻運動公園野球場西側車道沿い,36.049271,139.410706,緯度経度は怪しい
埼玉県,東松山市,29-202,大字松山2551番地1,東松山消防署北分署北側,36.050419,139.406403,緯度経度は怪しい
埼玉県,東松山市,29-203,大字松山2819番地9,市営諏訪下団地西側,36.046284,139.409775,緯度経度は怪しい
埼玉県,東松山市,29-204,大字松山2688番地,きらめき市民大学南側,36.048183,139.412262,緯度経度は怪しい
埼玉県,東松山市,29-205,大字松山1684番地11,市営向台住宅西側,36.055508,139.410812,緯度経度は怪しい
埼玉県,東松山市,29-206,大字松山1147番地1,個人宅北側畑地,36.047237,139.415741,緯度経度は怪しい
埼玉県,東松山市,29-207,大字松山1461番地1,岩鼻運動公園陸上競技場東側駐車場入口,36.052959,139.414719,緯度経度は怪しい
埼玉県,東松山市,30-208,大字東平1957番地21,東平新田自治会館駐車場,36.071877,139.411957,緯度経度は怪しい
埼玉県,東松山市,30-209,大字東平1842番地102,東洋機械(株)南西側旧調整池,36.067879,139.409943,緯度経度は怪しい
埼玉県,東松山市,30-210,大字東平1877番地2,月中自治会駐車場南側,36.067879,139.409943,緯度経度は怪しい
埼玉県,東松山市,30-211,大字東平1417番地2,東平松原街区公園北側,36.064911,139.409653,緯度経度は怪しい
埼玉県,東松山市,30-212,大字東平1333番地2,個人宅東側向かい,36.065144,139.414383,緯度経度は怪しい
埼玉県,東松山市,30-213,大字東平1249番地10,月中自治会駐車場南側,36.06591,139.416199,緯度経度は怪しい
埼玉県,東松山市,30-214,大字東平2190番地1,広場西側,36.072636,139.417816,緯度経度は怪しい
