prefecture,city,number,address,name,lat,long,note
埼玉県,熊谷市,1-1,仲町19番地,市民ホール 南側,36.1472844,139.3827316,
埼玉県,熊谷市,1-2,仲町67番地1,八木橋百貨店 東側,36.1455289,139.3823331,
埼玉県,熊谷市,1-3,本町1丁目12番地,千形児童遊園 西側,36.1459005,139.3844501,
埼玉県,熊谷市,1-4,本町2丁目68番地,コミュニティひろば 南西側,36.1440246,139.3866025,
埼玉県,熊谷市,1-5,本町2丁目6番地,コミュニティひろば 駐車場 東側,36.1445913,139.3876018,
埼玉県,熊谷市,1-6,宮町2丁目39番地1,市役所前,36.1467031,139.3883555,
埼玉県,熊谷市,1-7,宮町2丁目37番地2,中央公園 北側,36.1484453,139.3909274,
埼玉県,熊谷市,2-1,鎌倉町248番地,星川 北側,36.1438722,139.3827278,
埼玉県,熊谷市,2-2,鎌倉町138番地,星川 南側,36.1438059,139.3827233,
埼玉県,熊谷市,2-3,星川1丁目28番地,星川 北側,36.1430038,139.3856241,
埼玉県,熊谷市,2-4,星川1丁目38番地,星川 南側,36.1429417,139.3855938,
埼玉県,熊谷市,2-5,本町1丁目174番地,市営本町駐車場 南側,36.1440503,139.3842819,
埼玉県,熊谷市,2-6,本町1丁目174番地,市営本町駐車場 北側,36.1444773,139.3845265,
埼玉県,熊谷市,2-7,鎌倉町41番地,鎌倉陸橋高架下 子供広場 東側,36.1437384,139.3808014,
埼玉県,熊谷市,3-1,中西4丁目2535番地1,土地区画整理事務所管理地,36.1490664,139.3981149,
埼玉県,熊谷市,3-2,中西4丁目2524番地7,土地区画整理事務所北,36.1481788,139.3995713,
埼玉県,熊谷市,3-3,末広3丁目4番1号,熊谷東小学校 西側,36.1454622,139.3954468,
埼玉県,熊谷市,3-4,末広3丁目4番1号,熊谷東小学校 南側,36.1446933,139.3959162,
埼玉県,熊谷市,3-5,末広4丁目4番22号,銀座保育所 北側,36.1459439,139.3996444,
埼玉県,熊谷市,3-6,末広4丁目14番1号,(株)リケン 北側,36.1448679,139.3994741,
埼玉県,熊谷市,3-7,上之2589番地1,(有)三協自動車整備工場 西側,36.1468984,139.4048721,
埼玉県,熊谷市,4-1,末広2丁目131番地,熊谷女子高校 北側,36.145444,139.3922431,
埼玉県,熊谷市,4-2,末広2丁目121番地,熊谷女子高校 テニスコート 東南側,36.1450411,139.3937237,
埼玉県,熊谷市,4-3,末広2丁目131番地,熊谷女子高校 西側,36.1446643,139.3913795,
埼玉県,熊谷市,4-4,末広2丁目131番地,熊谷女子高校 南側,36.1439278,139.3920232,
埼玉県,熊谷市,4-5,末広2丁目133番地,埼玉県産業技術総合センター北部研究所 南側,36.1434285,139.393852,
埼玉県,熊谷市,4-6,筑波3丁目21番地5,星川 北側,36.141179,139.3915925,
埼玉県,熊谷市,4-7,筑波3丁目73番地,星川 南側,36.1411209,139.3915722,
埼玉県,熊谷市,5-1,銀座3丁目1番地,東公園 南側,36.142437,139.3955505,
埼玉県,熊谷市,5-2,銀座3丁目1番地,東公園 東側,36.1426666,139.3959609,
埼玉県,熊谷市,5-3,銀座2丁目137番地,駅東第1公園,36.1384149,139.3962514,
埼玉県,熊谷市,5-4,銀座4丁目701番地42,熊谷南団地子供広場,36.1389753,139.3985286,
埼玉県,熊谷市,5-5,銀座7丁目154番地,駅東第3公園 西側,36.1362597,139.3990133,
埼玉県,熊谷市,5-6,銀座7丁目286番地,駅東第4公園 北側,36.1357364,139.3991715,
埼玉県,熊谷市,5-7,銀座6丁目9番地,平戸中継ポンプ場 西側,36.1388183,139.4015976,
埼玉県,熊谷市,6-1,伊勢町104番地,伊勢町ふれあい公園 西側,36.1448726,139.3720704,
埼玉県,熊谷市,6-2,宮本町98番地1,鎌倉陸橋高架下 南子供広場 西側,36.1424307,139.3802758,
埼玉県,熊谷市,6-3,伊勢町113番地,伊勢町ふれあい公園 東側,36.1444134,139.3736208,
埼玉県,熊谷市,6-4,見晴町460番地,見晴公園 北側,36.1411117,139.3731434,
埼玉県,熊谷市,6-5,見晴町430番地,荒川土手,36.1393664,139.3753554,
埼玉県,熊谷市,6-6,榎町343番地,熊谷南小学校 西側,36.1389529,139.37842,
埼玉県,熊谷市,6-7,榎町343番地,熊谷南小学校 北側(正門東),36.1393861,139.3796002,
埼玉県,熊谷市,7-1,桜町1丁目6番地10,熊谷地方気象台 南側,36.1499734,139.3804863,
埼玉県,熊谷市,7-2,本石1丁目10番地,本石公園 北側,36.14887,139.3795046,
埼玉県,熊谷市,7-3,本石1丁目10番地,本石公園 南側,36.1485473,139.3793061,
埼玉県,熊谷市,7-4,本石2丁目137番地1,イオン 北側 駐車場入口,36.1461489,139.3773051,
埼玉県,熊谷市,7-5,本石2丁目150番地1,イオン 東南側 駐車場入口,36.1452306,139.3796037,
埼玉県,熊谷市,7-6,本石2丁目135番地2,イオン 南側 植木場,36.1446721,139.3794126,
埼玉県,熊谷市,7-7,本石2丁目135番地2,イオン 西側 植木場,36.1456749,139.377299,
埼玉県,熊谷市,8-1,桜町2丁目8番15号,東京電力(株)熊谷変電所 南側,36.1519031,139.3813222,
埼玉県,熊谷市,8-2,石原3丁目1番地1,石原小学校 西側,36.1516089,139.376392,
埼玉県,熊谷市,8-3,石原3丁目1番地1,石原小学校 北側,36.1524384,139.377422,
埼玉県,熊谷市,8-4,石原1丁目132番地,日産サティオ埼玉北販売(株) 北側,36.1522411,139.3734409,
埼玉県,熊谷市,8-5,石原1750番地19,かめの道遊歩道 東側,36.1488255,139.3714468,
埼玉県,熊谷市,8-6,石原2026番地1,かめの道遊歩道 東側,36.1470213,139.3722193,
埼玉県,熊谷市,8-7,石原1652番地,石原公園 北側,36.1486068,139.37212,
埼玉県,熊谷市,9-1,石原1134番地24,石原羽黒子供公園広場 東側,36.1533916,139.3660089,
埼玉県,熊谷市,9-2,石原1531番地,民家前 南側,36.1481485,139.3688772,
埼玉県,熊谷市,9-3,石原1013番地,民家前 南側,36.1493404,139.3637491,
埼玉県,熊谷市,9-4,石原849番地,民家前,36.1511805,139.3686542,
埼玉県,熊谷市,9-5,赤城町1丁目167番地,松風公園 東側,36.1468662,139.3644981,
埼玉県,熊谷市,9-6,赤城町2丁目120番地,堤公園 南側,36.1458068,139.3670312,
埼玉県,熊谷市,9-7,月見町2丁目174番地,荒川中学校 西側,36.145311,139.3702172,
埼玉県,熊谷市,10-1,中央1丁目148番地,箱田第4公園 東側,36.1544075,139.3917316,
埼玉県,熊谷市,10-2,中央1丁目148番地,箱田第4公園 西側,36.1547648,139.3910503,
埼玉県,熊谷市,10-3,中央1丁目1番地,熊谷西小学校 北側,36.1532884,139.3895362,
埼玉県,熊谷市,10-4,中央1丁目1番地,熊谷西小学校 南側,36.1519889,139.3891232,
埼玉県,熊谷市,10-5,箱田4丁目3番10号,箱田神社 西側,36.1489201,139.3886069,
埼玉県,熊谷市,10-6,箱田1丁目6番,駐車場パーキング066西側,36.1491919,139.3827434,
埼玉県,熊谷市,10-7,箱田6丁目3番1号,民家前,36.1522108,139.3858985,
埼玉県,熊谷市,11-1,肥塚2丁目7番1号,肥塚稲荷神社 南側,36.1575178,139.3880159,
埼玉県,熊谷市,11-2,肥塚2丁目8番14号,肥塚公民館  北側,36.1590116,139.3875175,
埼玉県,熊谷市,11-3,肥塚4丁目37番地,肥塚出口公園 東側,36.1618085,139.3891793,
埼玉県,熊谷市,11-4,肥塚4丁目198番地,調整池 東側,36.1622286,139.39044,
埼玉県,熊谷市,11-5,肥塚4丁目158番地,肥塚中島公園 北側,36.1632434,139.3856361,
埼玉県,熊谷市,11-6,肥塚702番地1,雀宮第4公園 西側,36.1609828,139.390817,
埼玉県,熊谷市,11-7,肥塚393番地,雀宮第2公園 南側,36.160034,139.3937133,
埼玉県,熊谷市,11-8,肥塚936番地1,masked,36.1681645,139.3943669,
埼玉県,熊谷市,12-1,上川上611番地,民家前 北側,36.1640438,139.4015606,
埼玉県,熊谷市,12-2,上川上335番地,民家前,36.1638056,139.4050029,
埼玉県,熊谷市,12-3,上之3980番地9,民家前,36.1542262,139.4158738,
埼玉県,熊谷市,12-4,上之3177番地,熊谷東中学校 西側,36.1461487,139.4140556,
埼玉県,熊谷市,12-5,上之531番地2,成田公民館 前,36.153939,139.4093874,
埼玉県,熊谷市,12-6,上之2810番地,成田星宮小学校 北側,36.1543758,139.4061174,
埼玉県,熊谷市,12-7,上之970番地16,上之原山簡易児童公園 西側,36.1594349,139.4034975,
埼玉県,熊谷市,12-8,上之792番地5,民家前,36.1563718,139.4054619,
埼玉県,熊谷市,13-1,原島315番地,くまぴあ 南側,36.1689661,139.3675932,
埼玉県,熊谷市,13-2,原島315番地,くまぴあ 西側,36.1704342,139.3660322,
埼玉県,熊谷市,13-3,代681番地,大幡小学校 南側,36.1691261,139.3739646,
埼玉県,熊谷市,13-4,代681番地,大幡小学校 北側,36.1706981,139.3746298,
埼玉県,熊谷市,13-5,柿沼780番地1,大幡公園 西側,36.1668327,139.3780333,
埼玉県,熊谷市,13-6,柿沼533番地,民家前 西側 植木場,36.1686249,139.3842996,
埼玉県,熊谷市,13-7,原島674番地1,東部第四水源 西側,36.1676123,139.3706522,
埼玉県,熊谷市,14-1,佐谷田371番地3,佐谷田公園 北側,36.1338613,139.4089301,
埼玉県,熊谷市,14-2,平戸493番地,平戸公園前,36.1413287,139.4088588,
埼玉県,熊谷市,14-3,佐谷田1030番地,佐谷田小学校 西側,36.1337194,139.4137378,
埼玉県,熊谷市,14-4,佐谷田340番地4,JAくまがや佐久良支店前,36.1327369,139.4085901,
埼玉県,熊谷市,14-5,佐谷田3800番地3,熊谷外科病院南側畑,36.1313743,139.4017158,
埼玉県,熊谷市,14-6,佐谷田3089番地,民家前 北西側畑,36.1282949,139.4102647,
埼玉県,熊谷市,14-7,佐谷田3650番地,中央工業車両置場,36.1266068,139.4046549,
埼玉県,熊谷市,14-8,佐谷田3963番地,民家前,36.1329153,139.3980835,
埼玉県,熊谷市,14-9,佐谷田3789番地,元荒川通り線沿い畑,36.1309142,139.4011041,
埼玉県,熊谷市,15-1,久下4820番地,熊久公園前,36.1285731,139.4000462,
埼玉県,熊谷市,15-2,久下1348番地,民家前,36.1224333,139.4092668,
埼玉県,熊谷市,15-3,久下1丁目167番地,久下第2公園南側,36.1168287,139.4276745,
埼玉県,熊谷市,15-4,久下808番地,久下小学校 南側,36.1210569,139.41857,
埼玉県,熊谷市,15-5,太井2043番地,民家前,36.1221066,139.4238449,
埼玉県,熊谷市,15-6,太井1208番地3,民家前,36.1227052,139.4272369,
埼玉県,熊谷市,15-7,久下4丁目171番地,久下第4公園 南側,36.1195663,139.4339919,
埼玉県,熊谷市,15-8,久下3丁目103番地,久下第3公園 北側,36.1165771,139.4301579,
埼玉県,熊谷市,15-9,久下1丁目42番地,久下第1公園 東側,36.1146272,139.4266096,
埼玉県,熊谷市,16-1,玉井2丁目24番地,玉井在家第2公園 東側,36.1786235,139.3373732,
埼玉県,熊谷市,16-2,玉井5丁目71番地,玉井在家第3公園 南側,36.1773129,139.3394782,
埼玉県,熊谷市,16-3,玉井1973番地374,玉井緑地ゲートボール場 北側,36.179659,139.3441748,
埼玉県,熊谷市,16-4,玉井3丁目69番地,玉井在家第1公園 東側,36.1799746,139.3406764,
埼玉県,熊谷市,16-5,玉井1973番地22,玉井緑地テニスコート 北側,36.1768921,139.3428377,
埼玉県,熊谷市,16-6,高柳116番地1,玉井小学校 西側,36.1732368,139.3443444,
埼玉県,熊谷市,16-7,玉井南2丁目88番地,玉井稲荷木第2公園 北西側,36.1764585,139.3467422,
埼玉県,熊谷市,17-1,小島623番地1,熊谷運動公園テニスコート 駐車場東側,36.1564725,139.3491722,
埼玉県,熊谷市,17-2,小島157番地,熊谷運動公園 アクアピア入口 東側,36.154167,139.344962,
埼玉県,熊谷市,17-3,小島547番地1,熊谷運動公園 宮塚古墳通沿い,36.152343,139.3485354,
埼玉県,熊谷市,17-4,瀬南68番地,広瀬川原公園 北側,36.1455723,139.3549226,
埼玉県,熊谷市,17-5,川原明戸376番地,丸樋橋東側空地,36.1442078,139.3176471,
埼玉県,熊谷市,17-6,大麻生891番地6,民家前 植木場側,36.1464842,139.3322867,
埼玉県,熊谷市,17-7,大麻生51番地,大麻生小学校 正門北側,36.1497426,139.3404115,
埼玉県,熊谷市,17-8,広瀬800番地6,熊谷商業高校前,36.148782,139.3569853,
埼玉県,熊谷市,17-9,広瀬800番地197,広瀬団地第1子供広場 北側,36.1481615,139.3546745,
埼玉県,熊谷市,18-1,小曽根281番地1,小曽根神社 東側,36.172516,139.3910147,
埼玉県,熊谷市,18-2,小曽根992番地,小曽根公園 南側,36.1739292,139.3869418,
埼玉県,熊谷市,18-3,今井1365番地,民家前,36.1830898,139.3887496,
埼玉県,熊谷市,18-4,上中条2160番地,民家前,36.1904724,139.4009364,
埼玉県,熊谷市,18-5,上中条1600番地,日向島農村広場 北側,36.1863766,139.4158089,
埼玉県,熊谷市,18-6,上中条1154番地,JAくまがや旧中条支店 前,36.1816147,139.4058851,
埼玉県,熊谷市,18-7,上中条1022番地4,岡田屋酒店南 畑,36.1794534,139.4045827,
埼玉県,熊谷市,18-8,上中条459番地1,中島農村広場 西側,36.1714583,139.415862,
埼玉県,熊谷市,18-9,大塚214番地,大塚農村広場 南側,36.1680839,139.4207163,
埼玉県,熊谷市,19-1,下奈良407番地1,民家前 東側畑,36.1821721,139.3826434,
埼玉県,熊谷市,19-2,下奈良561番地1,集福寺簡易児童公園 北側,36.1870605,139.3806172,
埼玉県,熊谷市,19-3,下奈良778番地3,市営中妻団地公園 東側,36.1879877,139.3849174,
埼玉県,熊谷市,19-4,四方寺140番地3,四方寺農村広場前,36.1868962,139.39342,
埼玉県,熊谷市,19-5,中奈良898番地,奈良中央公園 東側,36.1901993,139.3777538,
埼玉県,熊谷市,19-6,上奈良1038番地,奈良中学校 北側,36.1830651,139.3676102,
埼玉県,熊谷市,19-7,中奈良898番地,奈良中央公園 西側,36.1903119,139.3771638,
埼玉県,熊谷市,19-8,上奈良1038番地,奈良中学校 西側,36.1829612,139.3660116,
埼玉県,熊谷市,20-1,下増田882番地4,下増田公園 北側,36.2076613,139.3399302,
埼玉県,熊谷市,20-2,西別府583番地1,老人福祉センター別府荘 南側,36.1951027,139.3389271,
埼玉県,熊谷市,20-3,別府2丁目83番地,別府第1公園 東側,36.1858369,139.3331497,
埼玉県,熊谷市,20-4,別府5丁目51番地,別府第3公園 西側,36.1806506,139.3347081,
埼玉県,熊谷市,20-5,別府4丁目44番地,別府第2公園 東側,36.1822425,139.339941,
埼玉県,熊谷市,20-6,別府4丁目44番地,別府第2公園 西側,36.1830998,139.3391417,
埼玉県,熊谷市,20-7,東別府814番地,民家前 南側畑,36.1864321,139.3438976,
埼玉県,熊谷市,20-8,西別府2252番地1,別府公民館 駐車場東側,36.1940771,139.3361883,
埼玉県,熊谷市,20-9,別府5丁目51番地,別府第3公園 東側,36.1799405,139.3359633,
埼玉県,熊谷市,21-1,三ヶ尻2995番地,三尻中学校正門 西側,36.1606176,139.3209133,
埼玉県,熊谷市,21-2,御稜威ヶ原284番地,みいずが原公園 北東側,36.1571106,139.3008096,
埼玉県,熊谷市,21-3,御稜威ヶ原823番地10,みいずが原上林公園 北東側,36.1646796,139.2989254,
埼玉県,熊谷市,21-4,御稜威ヶ原284番地,みいずが原公園 南西側,36.1564349,139.2998011,
埼玉県,熊谷市,21-5,三ヶ尻2862番地1,三尻小学校 正門北西側,36.158699,139.3186471,
埼玉県,熊谷市,21-6,三ヶ尻3710番地4,三尻西部自治会館前,36.1527758,139.3142887,
埼玉県,熊谷市,21-7,三ヶ尻2995番地,三尻中学校 東門南側,36.1602625,139.3220827,
埼玉県,熊谷市,21-8,三ヶ尻5361番地,(株)本間製作所前,36.1636482,139.3135852,
埼玉県,熊谷市,22-1,万吉572番地358,万吉石田公園 東側,36.1266546,139.369352,
埼玉県,熊谷市,22-2,万吉2502番地115,万吉弥太郎公園 南側,36.1275018,139.3720302,
埼玉県,熊谷市,22-3,万吉986番地,氷川神社 北側,36.1215723,139.3651271,
埼玉県,熊谷市,22-4,万吉2103番地,吉岡小学校 正門右側,36.1200177,139.3699884,
埼玉県,熊谷市,22-5,村岡399番地2,ダイヤパレス東側 畑,36.1245303,139.373071,
埼玉県,熊谷市,22-6,村岡332番地,民家前 西側,36.1228555,139.3755453,
埼玉県,熊谷市,22-7,楊井1817番地,吉岡浄水場 東側,36.1112437,139.3731023,
埼玉県,熊谷市,22-8,楊井147番地1,民家前 北側,36.104665,139.3855487,
埼玉県,熊谷市,23-1,下川上507番地,masked,36.164022,139.4305673,
埼玉県,熊谷市,23-2,下川上155番地,民家前,36.1597891,139.4313282,
埼玉県,熊谷市,23-3,池上733番地,旧星宮小学校 南側,36.1569292,139.4318143,
埼玉県,熊谷市,23-4,池上691番地11,民家前,36.1561045,139.4284776,
埼玉県,熊谷市,23-5,池上915番地4,民家前,36.156661,139.4229615,
埼玉県,熊谷市,23-6,下川上1555番地8,(株)デンユウ前,36.1573547,139.4185287,
埼玉県,熊谷市,23-7,下川上5番地,星宮公民館前,36.1590605,139.4231287,
埼玉県,熊谷市,24-1,万平町1丁目1番地,万平公園 南側,36.1353605,139.390766,
埼玉県,熊谷市,24-2,万平町1丁目1番地,万平公園 北側,36.1362487,139.3905299,
埼玉県,熊谷市,24-3,曙町1丁目30番地,民家前 北側,36.1375402,139.3926174,
埼玉県,熊谷市,24-4,曙町2丁目68番地,大里広域市町村圏組合 西側,36.134945,139.393341,緯度経度は怪しい
埼玉県,熊谷市,24-5,曙町4丁目8番地1,曙公園 東側,36.1353992,139.3950525,
埼玉県,熊谷市,24-6,万平町1丁目144番地,荒川土手,36.1348044,139.3891849,
埼玉県,熊谷市,24-7,曙町5丁目63番地,曙第2公園 西側,36.1369939,139.3949202,
埼玉県,熊谷市,25-1,宮前町1丁目29番地,宮前公園 北側,36.1417264,139.3828473,
埼玉県,熊谷市,25-2,桜木町1丁目4番地,熊谷駅南口 ロータリー 北側,36.138915,139.388272,
埼玉県,熊谷市,25-3,桜木町2丁目33番地2,熊谷市立文化センター 北側,36.1374869,139.3866475,
埼玉県,熊谷市,25-4,桜木町2丁目33番地1,桜木小学校 北側,36.1366026,139.3878535,
埼玉県,熊谷市,25-5,河原町2丁目173番地,荒川公園 東側,36.1362111,139.3859039,
埼玉県,熊谷市,25-6,河原町2丁目173番地,荒川公園 西側,36.1367743,139.383742,
埼玉県,熊谷市,25-7,河原町1丁目211番地,荒川土手,36.1371526,139.3816801,
埼玉県,熊谷市,26-1,中央2丁目219番地,箱田第1公園 北側,36.1539569,139.3943297,
埼玉県,熊谷市,26-2,中央3丁目103番地,富士見中学校 東側,36.155923,139.3956338,
埼玉県,熊谷市,26-3,中央3丁目169番地,箱田第2公園 北側,36.1561186,139.3966503,
埼玉県,熊谷市,26-4,上之1306番地,市立雀宮児童館前,36.1601865,139.3968376,
埼玉県,熊谷市,26-5,上之1100番地200,上之京成第2子供広場,36.1585636,139.4016347,
埼玉県,熊谷市,26-6,上之1100番地201,上之京成第3子供広場,36.15694,139.4004646,
埼玉県,熊谷市,26-7,上之1774番地2,上之公園 南側,36.1536589,139.3980344,
埼玉県,熊谷市,27-1,新堀649番地,籠原南第2公園 北側,36.1720278,139.3308432,
埼玉県,熊谷市,27-2,籠原南1丁目303番地,籠原南第1公園 東側,36.1728348,139.3277697,
埼玉県,熊谷市,27-3,新堀1124番地,籠原保育所前,36.1749494,139.3248404,
埼玉県,熊谷市,27-4,新堀1143番地,籠原小学校 校門横,36.1744695,139.3179448,
埼玉県,熊谷市,27-5,新堀1154番地12,籠原第1公園 南側,36.1740152,139.3151379,
埼玉県,熊谷市,27-6,新堀1240番地2,籠原第3公園 前,36.1757058,139.3138718,
埼玉県,熊谷市,27-7,新堀新田650番地23,籠原第2公園 南側,36.1725278,139.3125471,
埼玉県,熊谷市,28-1,新堀898番地,新堀第3公園 西側,36.1779474,139.3336041,
埼玉県,熊谷市,28-2,新堀923番地1,新堀第5公園 南西側,36.1787092,139.3320789,
埼玉県,熊谷市,28-3,新堀844番地,新堀第4公園 南東側,36.1769037,139.3310966,
埼玉県,熊谷市,28-4,新堀603番地,新堀第1公園 南西側,36.1748284,139.3334014,
埼玉県,熊谷市,28-5,新堀794番地,新堀第2公園 南側,36.1757713,139.3326081,
埼玉県,熊谷市,28-6,新堀182番地,新堀小学校校庭 東側,36.1739717,139.3386944,
埼玉県,熊谷市,28-7,新堀182番地,新堀小学校 南側,36.173136,139.3374766,
埼玉県,熊谷市,29-1,久保島888番地,玉井中学校 南側,36.167205,139.345878,
埼玉県,熊谷市,29-2,久保島888番地,玉井中学校 北側,36.1690802,139.3455347,
埼玉県,熊谷市,29-3,久保島610番地120,久保島籠原東子供広場 北側,36.166683,139.340652,緯度経度は怪しい
埼玉県,熊谷市,29-4,久保島96番地,熊谷運動公園第2野球場 駐車場北側,36.1579012,139.3437386,
埼玉県,熊谷市,29-5,久保島1687番地1,民家前 西側畑,36.1608492,139.3449519,
埼玉県,熊谷市,29-6,久保島505番地,太平洋陸送(株) 北側,36.1644376,139.3456721,
埼玉県,熊谷市,29-7,久保島7番地1,熊谷運動公園テニスコート 駐車場北側,36.1579884,139.3486357,
埼玉県,熊谷市,30-1,箱田5丁目17番,国際十王交通(株)箱田車庫前,36.1519916,139.3931862,
埼玉県,熊谷市,30-2,中西3丁目2378番地1,中西公園 北側,36.1510616,139.3961604,
埼玉県,熊谷市,30-3,箱田5丁目13番1号,埼玉県熊谷児童相談所,36.1503268,139.3921555,
埼玉県,熊谷市,30-4,中西1丁目13番10号,民家前,36.1509618,139.3938967,
埼玉県,熊谷市,30-5,箱田5丁目8番2号,JAくまがや本店 北側,36.1514122,139.3917779,
埼玉県,熊谷市,30-6,中西2丁目2番23号,恩曽建材(株) 東側,36.1478661,139.3933347,
埼玉県,熊谷市,30-7,箱田5丁目6番1号,県立熊谷図書館 北側,36.1508073,139.3912989,
埼玉県,熊谷市,31-1,石原634番地1,上石第一土地区画整理地内8街画4画地 南側,36.1544352,139.3674169,
埼玉県,熊谷市,31-2,石原189番地,アサミ不動産(株) 国道側,36.1587829,139.3651617,
埼玉県,熊谷市,31-3,大原1丁目5番36号,母子健康センター前,36.1529174,139.3797059,
埼玉県,熊谷市,31-4,大原4丁目1番3号,民家前,36.15358,139.3732488,
埼玉県,熊谷市,31-5,大原3丁目4番1号,大原中学校西側 校門横,36.1538391,139.3759035,
埼玉県,熊谷市,31-6,大原3丁目3番1号,熊谷農業高等学校東側,36.1551807,139.3782858,
埼玉県,熊谷市,31-7,大原1丁目9番1号,熊谷高等学校東側,36.1551515,139.3817996,
埼玉県,熊谷市,31-8,円光2丁目9番40号,メモリアル彩雲 南側,36.1583558,139.3812469,
埼玉県,熊谷市,32-1,新島259番地5,(株)長井電機 南側,36.1608876,139.3627311,
埼玉県,熊谷市,32-2,新島263番地1,国際十王交通(株) 新島車庫 東側,36.1605831,139.3641209,
埼玉県,熊谷市,32-3,原島1331番地,原島伊奈利子供広場,36.1627514,139.3695348,
埼玉県,熊谷市,32-4,新島112番地,畑,36.1642679,139.3579597,
埼玉県,熊谷市,32-5,原島1031番地,水道庁舎北側,36.1621353,139.3720776,
埼玉県,熊谷市,32-6,原島834番地,大幡中学校東側,36.1635319,139.3761564,
埼玉県,熊谷市,32-7,柿沼905番地2,柿沼前原子供広場,36.1646909,139.3806144,
埼玉県,熊谷市,32-8,柿沼678番地1,民家前 西側,36.16423,139.3817104,
埼玉県,熊谷市,33-1,拾六間825番地8,外原北緑地前,36.1742028,139.3061193,
埼玉県,熊谷市,33-2,拾六間825番地46,外原西公園 北側,36.1737131,139.3059888,
埼玉県,熊谷市,33-3,美土里町3丁目29番地,(有)池田デンキ 南側,36.1693618,139.3154501,
埼玉県,熊谷市,33-4,美土里町1丁目20番地,美土里町公園 南側,36.1696677,139.3138483,
埼玉県,熊谷市,33-5,拾六間788番地29,寿公園 北側,36.1707825,139.3081729,
埼玉県,熊谷市,33-6,拾六間825番地46,外原西公園 南側,36.1733645,139.3061551,
埼玉県,熊谷市,33-7,拾六間770番地,(株)埼玉電算センター前,36.1727256,139.3099569,
埼玉県,熊谷市,34-1,籠原南3丁目141番地,籠原南第3公園東側,36.1713139,139.3252902,
埼玉県,熊谷市,34-2,拾六間138番地2,西部第4水源井前,36.1682982,139.3275818,
埼玉県,熊谷市,34-3,拾六間218番地,根岸ハウジング前,36.1688115,139.3228023,
埼玉県,熊谷市,34-4,籠原南3丁目76番地,籠原南第4公園南側,36.1697321,139.3255773,
埼玉県,熊谷市,34-5,籠原南3丁目15番地4,熊谷市立籠原体育館 入口,36.1707078,139.3274846,
埼玉県,熊谷市,34-6,籠原南2丁目279番地,籠原南第5公園西側,36.1677821,139.3299231,
埼玉県,熊谷市,34-7,拾六間111番地1,文化創造館 職員駐車場前,36.165852,139.3285633,
埼玉県,熊谷市,35-1,小八林1714番地1,旧小八林集会所敷地,36.074431,139.4278053,
埼玉県,熊谷市,35-2,小八林103番地7,春日文化センター,36.0764449,139.4263313,
埼玉県,熊谷市,35-3,小八林1422番地1,民家前,36.0794028,139.4334817,
埼玉県,熊谷市,35-4,小八林1508番地2,民家前 南 歩道防護柵,36.0774577,139.4343365,
埼玉県,熊谷市,35-5,船木台1丁目4番地,大境公園,36.0742397,139.4213315,
埼玉県,熊谷市,35-6,船木台3丁目4番地4,大里ふれあいセンター,36.077346,139.4174505,
埼玉県,熊谷市,35-7,船木台5丁目13番地4,楓山公園,36.0786705,139.4143828,
埼玉県,熊谷市,36-1,相上1812番地,桜リバーサイドパーク,36.0919503,139.4174233,
埼玉県,熊谷市,36-2,玉作3396番地1,ゴミ集積所東側 畑,36.0891076,139.4208603,
埼玉県,熊谷市,36-3,玉作3776番地,玉作集会所,36.0893632,139.4236093,
埼玉県,熊谷市,36-4,箕輪1番地,JAくまがや吉見支店前,36.0891935,139.4125999,
埼玉県,熊谷市,36-5,箕輪246番地1,箕輪集会所,36.0846098,139.4154613,
埼玉県,熊谷市,36-6,冑山104番地1,理容カトウ北側,36.0779068,139.4092049,
埼玉県,熊谷市,36-7,冑山214番地1,真澄沼公園 東側,36.0780088,139.4106324,
埼玉県,熊谷市,37-1,津田1062番地2,津田集会所,36.1012214,139.4165171,
埼玉県,熊谷市,37-2,向谷75番地1,民家前入口東畑,36.0991994,139.4127526,
埼玉県,熊谷市,37-3,高本23番地1,バス停北側 畑,36.0991919,139.4053612,
埼玉県,熊谷市,37-4,沼黒780番地1,正福寺 東側ブロック塀,36.1006525,139.4037215,
埼玉県,熊谷市,37-5,吉所敷580番地5,吉所敷集会所,36.103766,139.4024847,
埼玉県,熊谷市,37-6,津田新田1183番地1,大里穀類乾燥調製施設,36.1050092,139.4173455,
埼玉県,熊谷市,37-7,津田新田1273番地1,天水集会所東フェンス,36.1054651,139.4208318,
埼玉県,熊谷市,38-1,上恩田420番地1,旧上恩田集会所跡地,36.1172306,139.3820145,
埼玉県,熊谷市,38-2,中恩田135番地,替津田集会所,36.1088687,139.3935063,
埼玉県,熊谷市,38-3,中恩田451番地,民家前 西側 畑,36.1129011,139.3842489,
埼玉県,熊谷市,38-4,下恩田633番地1,下恩田集会所,36.1108712,139.3854922,
埼玉県,熊谷市,38-5,手島184番地1,手島集会所 西側 畑,36.1217134,139.3891281,
埼玉県,熊谷市,38-6,小泉9番地2,常永寺 入口,36.1111627,139.3997267,
埼玉県,熊谷市,38-7,屈戸35番地1,屈戸集会所,36.1147906,139.4014876,
埼玉県,熊谷市,38-8,中曽根1347番地2,民家前 北西側 空き地,36.1062721,139.4010373,
埼玉県,熊谷市,39-1,妻沼1492番地4,妻沼小学校 西側フェンス,36.2284296,139.3772864,
埼玉県,熊谷市,39-2,妻沼1837番地1,民家前 南側フェンス,36.2277523,139.3697535,
埼玉県,熊谷市,39-3,妻沼2485番地,瑞林寺 東側ブロック,36.2310242,139.3766514,
埼玉県,熊谷市,39-4,妻沼2589番地,masked,36.2351452,139.37269,
埼玉県,熊谷市,39-5,妻沼1420番地,元坂田医院 東側フェンス,36.222182,139.3776503,
埼玉県,熊谷市,39-6,妻沼1706番地1,妻沼勤労福祉会館南側フェンス,36.2222109,139.3764438,
埼玉県,熊谷市,39-7,妻沼1973番地42,masked,36.2259019,139.3721048,
埼玉県,熊谷市,40-1,妻沼351番地2,民家前 東側フェンス,36.2239736,139.379671,
埼玉県,熊谷市,40-2,妻沼658番地4,民家前 西側水路フェンス,36.2260189,139.3837876,
埼玉県,熊谷市,40-3,妻沼5058番地,能美防災(株)妻沼工場 南側フェンス,36.2215812,139.3896106,
埼玉県,熊谷市,40-4,妻沼東1丁目1番地,妻沼中央公民館 北側フェンス,36.2230909,139.3828742,
埼玉県,熊谷市,40-5,妻沼東2丁目15番地,妻沼東2丁目ふれあい公園 南側,36.2205219,139.3819545,
埼玉県,熊谷市,40-6,妻沼東3丁目91番地,妻沼東3丁目芦際公園 東側,36.2212904,139.3873054,
埼玉県,熊谷市,40-7,妻沼東4丁目70番地,妻沼東4丁目境堀公園 南側,36.218881,139.3859363,
埼玉県,熊谷市,41-1,弥藤吾35番地3,市道予定地(東側),36.2218113,139.3722133,
埼玉県,熊谷市,41-2,弥藤吾2450番地,妻沼行政センター 南側庭園内,36.2228761,139.3687578,
埼玉県,熊谷市,41-3,弥藤吾1053番地97,妻沼南団地公園1内 西側,36.2091449,139.3732227,
埼玉県,熊谷市,41-4,弥藤吾1801番地,民家前 北側ブロック,36.2179009,139.3743729,
埼玉県,熊谷市,41-5,弥藤吾1214番地,弥藤吾新田公民館 西側フェンス,36.2106077,139.3683286,
埼玉県,熊谷市,41-6,弥藤吾480番地,妻沼高校正門西側フェンス,36.2168705,139.3811239,
埼玉県,熊谷市,41-7,弥藤吾583番地7,ヤマト運輸東側畑内(県道きわ東側),36.2148912,139.3775757,
埼玉県,熊谷市,42-1,出来島106番地1,民家前 北側ブロック,36.23776,139.3496065,
埼玉県,熊谷市,42-2,妻沼台236番地1,民家前 西側ブロック,36.2357961,139.3656328,
埼玉県,熊谷市,42-3,妻沼台35番地1,イチムラ(株) 東側フェンス,36.2298047,139.3677045,
埼玉県,熊谷市,42-4,妻沼台137番地1,旧男沼小学校 南側フェンス,36.2342658,139.3533138,
埼玉県,熊谷市,42-5,男沼118番地,男沼地域コミュニティセンター 南東フェンス,36.2326311,139.3564081,
埼玉県,熊谷市,42-6,間々田639番地2,民家前 南側フェンス,36.2348745,139.3404289,
埼玉県,熊谷市,42-7,間々田243番地,民家前 西側ブロック,36.2318374,139.3471873,
埼玉県,熊谷市,43-1,妻沼小島1915番地1,民家前 北側ブロック,36.2516584,139.3485021,
埼玉県,熊谷市,43-2,妻沼小島1855番地1,上小島集出荷所前 北側フェンス,36.2508686,139.352159,
埼玉県,熊谷市,43-3,妻沼小島2812番地1,民家前 北側ブロック,36.2491399,139.3586913,
埼玉県,熊谷市,43-4,妻沼小島2770番地,医王寺 北側フェンス,36.2480003,139.3611685,
埼玉県,熊谷市,43-5,妻沼小島2698番地1,民家前 南側ブロック塀前,36.2467527,139.3652836,
埼玉県,熊谷市,44-1,飯塚1427番地2,旧JAくまがや太田支店前フェンス,36.2153386,139.3510267,
埼玉県,熊谷市,44-2,道ヶ谷戸212番地1,道ヶ谷戸愛児園第二園舎 北側,36.2105738,139.3552214,
埼玉県,熊谷市,44-3,八木田664番地,八木田集出荷所東側植え込み前,36.2172419,139.3649296,
埼玉県,熊谷市,44-4,市ノ坪106番地,民家前 西側フェンス,36.2143515,139.341998,
埼玉県,熊谷市,44-5,永井太田1438番地,masked,36.2255878,139.3459484,
埼玉県,熊谷市,44-6,永井太田483番地1,前新田集会所 北側フェンス,36.2192057,139.342539,
埼玉県,熊谷市,44-7,上江袋328番地,日本食材(株)従業員専用駐車場 北側フェンス,36.2063519,139.3602869,
埼玉県,熊谷市,44-8,上江袋426番地,上江袋丸南集出所 東側フェンス,36.2056947,139.3560121,
埼玉県,熊谷市,45-1,上根593番地2,上根営農センター 北側フェンス,36.2086576,139.3793984,
埼玉県,熊谷市,45-2,上根523番地3,民家前 北側ブロック,36.2107157,139.3784355,
埼玉県,熊谷市,45-3,江波416番地1,masked,36.2064108,139.3867756,
埼玉県,熊谷市,45-4,江波116番地85,江波台集会所西側 遊水池南側フェンス,36.2104879,139.3895184,
埼玉県,熊谷市,45-5,田島240番地1,民家前 北側フェンス,36.2022245,139.3768448,
埼玉県,熊谷市,45-6,田島1番地1,県北エルピーガス北側歩道沿い,36.2038362,139.3744736,
埼玉県,熊谷市,45-7,西野278番地24,西野八重洲苑公園北側フェンス,36.2035421,139.3715239,
埼玉県,熊谷市,46-1,善ケ島75番地1,民家前 東畑,36.2201228,139.3962326,
埼玉県,熊谷市,46-2,善ケ島1509番地,遊園地(善ケ島)南側フェンス,36.2206382,139.4003391,
埼玉県,熊谷市,46-3,善ケ島568番地3,NPO法人三山の家グループホームあすか村 南側フェンス,36.2155299,139.4033512,
埼玉県,熊谷市,46-4,善ケ島187番地,龍泉寺墓地 西側ブロック,36.2159426,139.3997329,
埼玉県,熊谷市,46-5,善ケ島1295番地1,善ヶ島西部第二公園 東側フェンス,36.22216,139.393663,
埼玉県,熊谷市,46-6,八ツ口873番地,民家前 北側ブロック,36.213715,139.3902571,
埼玉県,熊谷市,46-7,八ツ口921番地,八ツ口集会所西側,36.2140692,139.3911848,
埼玉県,熊谷市,47-1,上須戸690番地1,JAくまがや穀類乾燥調製施設北側フェンス,36.2105959,139.3938554,
埼玉県,熊谷市,47-2,上須戸857番地,民家前 北側ブロック,36.2034157,139.3974649,
埼玉県,熊谷市,47-3,上須戸1111番地81,上須戸ハイツ公園 南側フェンス,36.2083897,139.3988969,
埼玉県,熊谷市,47-4,西城874番地,民家前 北側ブロック,36.2003792,139.3923689,
埼玉県,熊谷市,47-5,西城428番地45,西城台団地遊水地フェンス,36.2027259,139.3816439,
埼玉県,熊谷市,47-6,西城84番地1,長慶寺南側墓地 西側ブロック,36.2013592,139.3931546,
埼玉県,熊谷市,47-7,西城513番地5,西城新田コミュニティセンター 北側フェンス,36.2009024,139.3840526,
埼玉県,熊谷市,48-1,葛和田922番地,老人憩いの家めぬま荘 東側フェンス,36.2019517,139.4191307,
埼玉県,熊谷市,48-2,葛和田1793番地1,向野コミュニティセンター西側フェンス,36.2082817,139.4131538,
埼玉県,熊谷市,48-3,俵瀬154番地,民家前 東側ブロック,36.2007701,139.4301477,
埼玉県,熊谷市,48-4,日向863番地,民家前 南側ブロック,36.1947772,139.4109822,
埼玉県,熊谷市,48-5,日向1354番地59,日向団地公園 東側フェンス,36.1989424,139.4026305,
埼玉県,熊谷市,48-6,日向1060番地,民家前 南側畑,36.1991953,139.4088603,
埼玉県,熊谷市,48-7,弁財154番地2,弁財地区掲示板東側 水路敷地内,36.2091146,139.4078936,
埼玉県,熊谷市,48-8,大野261番地,大野自治会館 南側墓地のフェンス,36.214972,139.4087582,
埼玉県,熊谷市,49-1,成沢490番地1,くまがや農協江南支店 東側フェンス,36.1266663,139.3460961,
埼玉県,熊谷市,49-2,樋春438番地1,民家前 北東側道路脇 芝生広場,36.1297149,139.3504981,
埼玉県,熊谷市,49-3,樋春152番地,食材供給施設敷地内 西側フェンス沿い,36.1331752,139.3478268,
埼玉県,熊谷市,49-4,御正新田320番地1,民家前 畑,36.1236207,139.3554279,
埼玉県,熊谷市,49-5,三本1850番地2,民家前 北側 ブロック,36.1306186,139.3258443,
埼玉県,熊谷市,49-6,上新田221番地1,諏訪神社東側 空き地,36.1311588,139.3184026,
埼玉県,熊谷市,49-7,押切794番地1,民家前 北側道路脇畑,36.1334539,139.3237833,
埼玉県,熊谷市,49-8,押切382番地1,下押切公園西側駐車場脇,36.133676,139.3402183,
埼玉県,熊谷市,50-1,板井671番地,農業研修センター敷地内 避難場所掲示板,36.1079784,139.3187734,
埼玉県,熊谷市,50-2,塩142番地1,塩集会所前 フェンス,36.1028563,139.3181421,
埼玉県,熊谷市,50-3,板井889番地1,板井農業集落排水処理施設西道路フェンス,36.1070485,139.3240586,
埼玉県,熊谷市,50-4,板井696番地1,民家前 北側道路脇 畑,36.1081222,139.3160693,
埼玉県,熊谷市,50-5,板井1616番地5,江南総合公園北駐車場 東側フェンス,36.110088,139.3101004,
埼玉県,熊谷市,50-6,柴117番地2先,民家前 南側道路脇,36.1154722,139.3260095,
埼玉県,熊谷市,50-7,千代193番地1,小久保装飾店 北側 県道沿,36.119056,139.3265032,
埼玉県,熊谷市,50-8,板井855番地4,民家前 北側ブロック,36.1118796,139.3234884,
埼玉県,熊谷市,51-1,須賀広243番地1,須賀広集落センター 西側フェンス,36.1058548,139.3418567,
埼玉県,熊谷市,51-2,須賀広355番地5,須賀広農業集落排水処理場 フェンス,36.1046335,139.346228,
埼玉県,熊谷市,51-3,野原66番地1,野原西部集会所前 フェンス,36.1035391,139.3523616,
埼玉県,熊谷市,51-4,野原787番地7,民家前 西側畑 北側部分,36.1026628,139.3642084,
埼玉県,熊谷市,51-5,小江川1847番地,くまがや農協旧小原支店 南側,36.1046632,139.3330982,
埼玉県,熊谷市,51-6,小江川830番地1先,民家前 南側道路脇,36.1019795,139.3330435,
埼玉県,熊谷市,51-7,小江川928番地1,岡部自動車工業 北側 道路脇 畑,36.1010057,139.338954,
埼玉県,熊谷市,51-8,小江川1759番地1,塩農業集落排水処理場 フェンス,36.1045385,139.3246203,
埼玉県,熊谷市,52-1,須賀広624番地1,大沼公園 北側 道路脇,36.1104596,139.3351015,
埼玉県,熊谷市,52-2,江南中央1丁目4番地,原谷公園 西側フェンス,36.1143401,139.3341935,
埼玉県,熊谷市,52-3,江南中央3丁目4番地2,山神公園 北側フェンス,36.1155493,139.3407249,
埼玉県,熊谷市,52-4,江南中央3丁目15番地,いなげや 東側 緑道,36.113948,139.3409356,
埼玉県,熊谷市,52-5,江南中央2丁目3番地1,江南体育館 正門脇,36.1152648,139.3358518,
埼玉県,熊谷市,52-6,千代268番地1,文化会館西方 民家前畑,36.1173054,139.3313822,
埼玉県,熊谷市,52-7,押切2424番地1,江南中学校柔道場 フェンス,36.1191002,139.3362308,
埼玉県,熊谷市,53-1,御正新田1321番地1,大坂集会所 北側フェンス,36.1166886,139.3609638,
埼玉県,熊谷市,53-2,御正新田1282番地2,民家前 東側道路脇空き地,36.1161989,139.3581958,
埼玉県,熊谷市,53-3,御正新田1179番地1,民家前 南側,36.1180623,139.3547599,
埼玉県,熊谷市,53-4,成沢1083番地2,民家前 北西側畑南側,36.1185215,139.3513962,
埼玉県,熊谷市,53-5,成沢1151番地,南成沢公園入口付近 東側,36.1146114,139.3486834,
埼玉県,熊谷市,53-6,押切2591番地1,埼玉県農業技術研究センター 西門フェンス,36.1113679,139.3505431,
埼玉県,熊谷市,53-7,押切2477番地1,民家前 北側 道路脇空き地,36.1136556,139.3433055,
