prefecture,city,number,address,name,lat,long,note
埼玉県,狭山市,1-1,狭山31番2号,入間第二用水路,35.8679688,139.4167874,
埼玉県,狭山市,1-2,狭山1885番地1,峰公園東側,35.8644147,139.4192342,
埼玉県,狭山市,1-3,狭山9番8号,峰公民館内,35.8646537,139.4186475,
埼玉県,狭山市,1-4,狭山565番地6,粕谷自動車北側畑,35.8668078,139.4198913,
埼玉県,狭山市,1-5,狭山709番地3,県道126号と交差する西武新宿線北側,35.8669645,139.4241013,
埼玉県,狭山市,1-6,狭山19番16号,グリューネンラオム狭山6号棟東側,35.8678582,139.4219243,
埼玉県,狭山市,1-7,狭山1885番地1,峰公園西側,35.8642516,139.4188694,
埼玉県,狭山市,2-1,入間川2丁目32番7号,市民会館入口交差点、南東側歩道植込,35.8633264,139.4080578,
埼玉県,狭山市,2-2,入間川2丁目23番32号,菅一自治会館南側,35.8606621,139.4084032,
埼玉県,狭山市,2-3,入間川2丁目33番1号,市民会館西側,35.8620729,139.4092032,
埼玉県,狭山市,2-4,入間川2丁目7番23号,入間川東小学校西側,35.8598724,139.4129993,
埼玉県,狭山市,2-5,入間川2丁目2番25号,中央図書館南側,35.8583269,139.4113297,
埼玉県,狭山市,2-6,入間川3丁目3533番地2,狭山市中央公共駐車場北側,35.8584448,139.408468,
埼玉県,狭山市,2-7,入間川2丁目7番41号,入間川幼稚園,35.8595262,139.4145001,
埼玉県,狭山市,3-1,入間川3丁目4465番地,入間川第3子供広場,35.8547546,139.4045721,
埼玉県,狭山市,3-2,入間川4丁目16番4号,コミュニティセンター前,35.8537554,139.402639,
埼玉県,狭山市,3-3,入間川3丁目3897番地,入間川第1子供広場,35.8559666,139.4075641,
埼玉県,狭山市,3-4,入間川4丁目14番8号,中央児童館東側,35.8517248,139.4017414,
埼玉県,狭山市,3-5,入間川3丁目35番9号,下諏訪自治会館広場,35.8571798,139.402896,
埼玉県,狭山市,3-6,稲荷山1丁目38番地1,稲荷山公園踏切前植込,35.845426,139.3982927,
埼玉県,狭山市,3-7,稲荷山1丁目7番地,稲荷山公園駅ロータリー内,35.8451039,139.3989297,
埼玉県,狭山市,4-1,鵜ノ木4795番地3,masked,35.8518724,139.39247,
埼玉県,狭山市,4-2,鵜ノ木6番46号,入間川中学校正門東側,35.8527271,139.3938187,
埼玉県,狭山市,4-3,鵜ノ木5番3号,鵜ノ木浄水場正面入口左側,35.8541594,139.3981567,
埼玉県,狭山市,4-4,鵜ノ木5番9号,入間川小学校西側,35.8545122,139.3961219,
埼玉県,狭山市,4-5,鵜ノ木4621番地52,鵜ノ木児童遊園地,35.8525594,139.3976453,
埼玉県,狭山市,4-6,鵜ノ木4721番地21,鵜ノ木第2児童公園,35.8513941,139.3946452,
埼玉県,狭山市,4-7,鵜ノ木7番10号,鵜ノ木台団地,35.8518219,139.3958153,
埼玉県,狭山市,5-1,入間川1丁目23番5号,市役所庁舎南側入口右側,35.852037,139.4133825,
埼玉県,狭山市,5-2,入間川1丁目23番5号,市役所庁舎東側入口左側,35.8527239,139.4129479,
埼玉県,狭山市,5-3,入間川1丁目23番5号,市役所庁舎北玄関前,35.8534207,139.4118992,
埼玉県,狭山市,5-4,入間川1丁目23番5号,市役所庁舎正面入口右側,35.8521804,139.4119341,
埼玉県,狭山市,5-5,富士見1丁目1番18号,富士見集会所駐車場南側,35.8544976,139.4135349,
埼玉県,狭山市,5-6,入間川1丁目3475番地16,市役所北側上諏訪線交差点脇緑地,35.8555113,139.4106362,
埼玉県,狭山市,5-7,入間川1丁目23番5号,市役所庁舎北西側,35.8531892,139.4109524,
埼玉県,狭山市,5-8,富士見1丁目2980番地1,富士見1丁目公園入口右側,35.8535408,139.4173088,
埼玉県,狭山市,6-1,祇園2802番地1,狭山市駅東口ロータリー内,35.8565341,139.4136503,
埼玉県,狭山市,6-2,祇園7番,祇園公園南側,35.8567576,139.415791,
埼玉県,狭山市,6-3,祇園26番35号,狭山市駅東口ドラッグストアセキ狭山支店南側,35.8573615,139.4150495,
埼玉県,狭山市,6-4,祇園7番1号,狭山市駅東口自転車駐車場北側,35.8567966,139.4153102,
埼玉県,狭山市,6-5,入間川1754番地5,中央中学校西側,35.8603825,139.4179734,
埼玉県,狭山市,6-6,入間川1752番地1,中央中学校正門左側,35.8603925,139.4200469,
埼玉県,狭山市,6-7,祇園14番3号,祇園保育所東側,35.8574296,139.4190091,
埼玉県,狭山市,7-1,中央2丁目194番地4,平野公園,35.8578598,139.4284827,
埼玉県,狭山市,7-2,沢1119番地7,沢自治会集会所前,35.8650396,139.4291773,
埼玉県,狭山市,7-3,中央2丁目45番,下向沢公園,35.8595323,139.4297315,
埼玉県,狭山市,7-4,入間川1108番地,新狭山小学校正門右側,35.8646449,139.4317103,
埼玉県,狭山市,7-5,入間川1108番地,新狭山小学校正門左側,35.8649666,139.4310773,
埼玉県,狭山市,7-6,中央2丁目1183番地39,中向沢公園(通称三角公園),35.8582489,139.4274446,
埼玉県,狭山市,7-7,中央2丁目1293番地3,中央ふれあい緑地,35.8589749,139.4260821,
埼玉県,狭山市,8-1,富士見2丁目20番1号,コーセー正門南側,35.8439721,139.4220781,
埼玉県,狭山市,8-2,富士見2丁目5番1号,狭山工業高校北側,35.8491653,139.4205904,
埼玉県,狭山市,8-3,富士見2丁目5番1号,狭山工業高校東側,35.8492436,139.4214219,
埼玉県,狭山市,8-4,富士見1丁目6472番地10,富士見1丁目第3号公園,35.8493428,139.4159302,
埼玉県,狭山市,8-5,富士見2丁目5番1号,狭山工業高校正門左側,35.8480782,139.4194639,
埼玉県,狭山市,8-6,富士見2丁目6176番地,富士見2丁目2号児童遊園地,35.8466387,139.4219278,
埼玉県,狭山市,8-7,富士見2丁目15番2号,山本製作所南側,35.8465555,139.4253788,
埼玉県,狭山市,8-8,富士見2丁目20番1号,コーセー北側,35.8465659,139.4190391,
埼玉県,狭山市,9-1,中央4丁目17番1号,富士見小学校東側,35.8513319,139.424858,
埼玉県,狭山市,9-2,入間川1500番地37,上窪公園,35.853201,139.4257471,
埼玉県,狭山市,9-3,中央4丁目16番16号,富士見小学校正門手前右側,35.8502445,139.4236775,
埼玉県,狭山市,9-4,中央4丁目17番1号,富士見小学校南側,35.8501971,139.4251263,
埼玉県,狭山市,9-5,入間川1465番地2,市営中平野団地北側,35.8528855,139.4270408,
埼玉県,狭山市,9-6,入間川1417番地5,下平野児童公園南側,35.8489947,139.4319353,
埼玉県,狭山市,9-7,入間川1416番地1,下平野ふれあい緑地南東側,35.8504781,139.431025,
埼玉県,狭山市,10-1,中央3丁目1354番地22,狭山台ハイツ中央公園北側,35.8544768,139.4269833,
埼玉県,狭山市,10-2,狭山台3丁目23番地1,3街区4号棟西側,35.8572207,139.4298107,
埼玉県,狭山市,10-3,狭山台3丁目23番地1,狭山台交番隣公園西側,35.8586598,139.4309748,
埼玉県,狭山市,10-4,中央3丁目1354番地18,西武狭山台ハイツH棟東側植込,35.8543899,139.4291183,
埼玉県,狭山市,10-5,狭山台3丁目7番地1,狭山台公民館南側,35.8554634,139.4295475,
埼玉県,狭山市,10-6,狭山台3丁目24番地,保健センター南側植込,35.8552665,139.4312807,
埼玉県,狭山市,10-7,狭山台3丁目22番地,狭山台8号公園東側,35.8529392,139.4323294,
埼玉県,狭山市,11-1,狭山台1丁目21番地,狭山元気プラザ東側,35.8625079,139.436126,
埼玉県,狭山市,11-2,狭山台1丁目21番地,狭山元気プラザ西側,35.8617993,139.4345757,
埼玉県,狭山市,11-3,狭山台1丁目15番地,狭山台2号公園南側,35.8597114,139.4327048,
埼玉県,狭山市,11-4,狭山台1丁目31番地1,1街区西側狭山台1丁目バス停,35.8606961,139.4349671,
埼玉県,狭山市,11-5,狭山台2丁目1番地1,2街区公園西側,35.8585705,139.4318606,
埼玉県,狭山市,11-6,狭山台2丁目1番地1,2街区側狭山台2丁目バス停,35.8592249,139.4350068,
埼玉県,狭山市,11-7,狭山台2丁目1番地2,狭山台二交差点歩道橋東側下,35.8565675,139.4337123,
埼玉県,狭山市,12-1,狭山台4丁目26番地,狭山台中学校正門側,35.8537218,139.4342133,
埼玉県,狭山市,12-2,狭山台2丁目19番地,狭山台5号公園南側,35.8568564,139.4360479,
埼玉県,狭山市,12-3,狭山台3丁目26番地4,5街区側ショッピングセンター前バス停,35.8557751,139.4326466,
埼玉県,狭山市,12-4,狭山台4丁目25番地,狭山台小学校正門側,35.8533827,139.4336286,
埼玉県,狭山市,12-5,狭山台4丁目25番地,狭山台小学校運動場西側,35.8516522,139.4336125,
埼玉県,狭山市,12-6,狭山台4丁目40番地,狭山台6号公園北側,35.8510728,139.4360385,
埼玉県,狭山市,12-7,狭山台4丁目15番地,狭山台7号公園東側,35.8498923,139.4340711,
埼玉県,狭山市,13-1,大字北入曽755番地4,御狩場小学校体育館入口,35.8463435,139.4280512,
埼玉県,狭山市,13-2,大字北入曽925番地2,入間野歩道橋東駐車場東側,35.8409191,139.4247835,
埼玉県,狭山市,13-3,大字北入曽755番地4,御狩場小学校西側,35.8453608,139.4271768,
埼玉県,狭山市,13-4,大字北入曽755番地4,御狩場小学校北側,35.8460696,139.4276543,
埼玉県,狭山市,13-5,大字北入曽586番地3,三芳野児童公園,35.8457575,139.4365188,
埼玉県,狭山市,13-6,大字北入曽893番地2,北入曽公園南側,35.839484,139.4264384,
埼玉県,狭山市,13-7,大字北入曽541番地13,水押第2児童公園東側,35.8450456,139.4342631,
埼玉県,狭山市,13-8,大字北入曽843番地4,御狩場児童公園南側,35.8410034,139.4276621,
埼玉県,狭山市,14-1,大字北入曽380番地44,北入曽中原公園,35.840932,139.4295204,
埼玉県,狭山市,14-2,大字南入曽428番地3,入曽地域交流センター(西側),35.8325855,139.4312778,
埼玉県,狭山市,14-3,大字南入曽531番地2,入間野神社東側畑,35.8363555,139.4274854,
埼玉県,狭山市,14-4,大字水野476番地2,入曽郵便局西側畑,35.8304581,139.4307215,
埼玉県,狭山市,14-5,大字水野210番地1,ますだや酒店東道路南側,35.8367875,139.436801,
埼玉県,狭山市,14-6,大字南入曽567番地,入曽駅旧東口改札付近,35.8324661,139.4275405,
埼玉県,狭山市,14-7,大字南入曽419番地9,入曽診療所入口駐車場,35.8345304,139.4308672,
埼玉県,狭山市,14-8,大字南入曽428番地3,入曽地域交流センター(掲示板脇),35.8324235,139.4317083,
埼玉県,狭山市,15-1,大字北入曽980番地,入間野小学校南側,35.8401565,139.422864,
埼玉県,狭山市,15-2,大字北入曽1321番地,北上自治会集会所東側,35.8374149,139.4238553,
埼玉県,狭山市,15-3,大字南入曽703番地1,北の前児童公園南側,35.8337439,139.4206618,
埼玉県,狭山市,15-4,大字南入曽879番地12,入曽第7区自治会館西側,35.8334422,139.4232679,
埼玉県,狭山市,15-5,大字北入曽1028番地1,入間野中学校南西側,35.8382956,139.4204712,
埼玉県,狭山市,15-6,大字南入曽737番地1,老人福祉センター不老荘歩道側植込,35.8340589,139.4179296,
埼玉県,狭山市,15-7,大字南入曽914番地2,狭山モータースクール南側,35.8310196,139.4210728,
埼玉県,狭山市,16-1,大字水野1175番地1,上水野児童広場,35.8277721,139.4171575,
埼玉県,狭山市,16-2,大字水野1246番地2,あきくさ保育園北側水路,35.8212029,139.4194218,
埼玉県,狭山市,16-3,大字水野1179番地2,三商自治会館入口,35.8223325,139.4202865,
埼玉県,狭山市,16-4,大字水野1106番地1,本堀バス停南駐車場北側,35.8226232,139.4211443,
埼玉県,狭山市,16-5,大字水野1222番地3,新水野公園東側,35.8202253,139.4208271,
埼玉県,狭山市,16-6,大字水野1319番地,三商児童遊園地,35.820819,139.4174944,
埼玉県,狭山市,16-7,大字水野1222番地3,新水野公園南側,35.8200415,139.4208163,
埼玉県,狭山市,17-1,大字水野891番地4,水野公民館東側,35.8227108,139.4250224,
埼玉県,狭山市,17-2,大字水野815番地1,南小学校東側,35.82868,139.4236583,
埼玉県,狭山市,17-3,大字水野574番地1,入曽駅南側踏切西側T字路,35.8310424,139.4274897,
埼玉県,狭山市,17-4,大字水野709番地37,若葉台児童園南側,35.8224691,139.4278092,
埼玉県,狭山市,17-5,大字水野水野815番地1,南小学校南側,35.8270429,139.4237144,
埼玉県,狭山市,17-6,大字水野495番地56,月見野公園東側,35.8260624,139.4325486,
埼玉県,狭山市,17-7,大字水野567番地1,水野交差点東側駐車場西側,35.828627,139.4288596,
埼玉県,狭山市,17-8,大字水野766番地2,若葉台児童公園西側,35.8240588,139.4258468,
埼玉県,狭山市,18-1,大字水野606番地107,フラワーヒル東公園東側,35.8306489,139.4490619,
埼玉県,狭山市,18-2,大字北入曽1502番地1,特別養護老人ホーム福寿の里入口,35.8301213,139.4419582,
埼玉県,狭山市,18-3,大字北入曽1508番地136,フラワーヒル西公園南側,35.8288516,139.4451305,
埼玉県,狭山市,18-4,大字水野188番地2,みよし団地児童遊園地南側,35.8320618,139.4415865,
埼玉県,狭山市,18-5,大字水野218番地17,東急台自治会集会所東側緑地,35.8314149,139.4411847,
埼玉県,狭山市,18-6,大字北入曽1447番地2,東急4条通り入曽運動広場北側,35.8272661,139.4367509,
埼玉県,狭山市,18-7,大字水野384番地46,東急3条通り狭山児童遊園地北側,35.8281467,139.4366692,
埼玉県,狭山市,19-1,大字南入曽30番地1,山王保育所東側,35.8435373,139.4426729,
埼玉県,狭山市,19-2,大字南入曽157番地,山王中学校駐輪場前,35.8443312,139.4416199,
埼玉県,狭山市,19-3,大字南入曽250番地1,山王小学校西側入口向い畑,35.8408629,139.4369911,
埼玉県,狭山市,19-4,大字南入曽55番地,山王小学校正門西側,35.8401922,139.4383822,
埼玉県,狭山市,19-5,大字南入曽55番地,山王小学校正門東側,35.8404858,139.4388422,
埼玉県,狭山市,19-6,大字堀兼2220番地1,堀兼神社,35.8416957,139.4478753,
埼玉県,狭山市,19-7,大字水野156番地4,下水野子供遊園地,35.838481,139.4369174,
埼玉県,狭山市,20-1,大字青柳1778番地1,新狭山ハイツ5号棟東側,35.8638221,139.443709,
埼玉県,狭山市,20-2,大字青柳63番地18,新狭山ハイツ3号公園,35.8649412,139.4456338,
埼玉県,狭山市,20-3,大字中新田143番地,愛宕神社入口東側,35.8680057,139.4597361,
埼玉県,狭山市,20-4,大字堀兼1234番地,堀兼小学校東側,35.8605358,139.4457737,
埼玉県,狭山市,20-5,大字堀兼360番地,農村環境改善センター,35.8593506,139.4499267,
埼玉県,狭山市,20-6,大字堀兼1237番地,堀兼中学校北側,35.8611674,139.4433838,
埼玉県,狭山市,20-7,大字上赤坂292番地,上赤坂交差点南側,35.8545605,139.4582628,
埼玉県,狭山市,20-8,大字堀兼2484番地3,堀兼・上赤坂公園西側,35.8451367,139.4535824,
埼玉県,狭山市,21-1,大字加佐志513番地2,老人福祉センター寿荘浄化設備,35.8638275,139.4418306,
埼玉県,狭山市,21-2,大字青柳124番地88,つつじ苑北公園,35.868452,139.4485941,
埼玉県,狭山市,21-3,大字青柳124番地132,つつじ苑南公園,35.8677304,139.449152,
埼玉県,狭山市,21-4,大字青柳1615番地1,旭台公園,35.8831958,139.456133,
埼玉県,狭山市,21-5,大字青柳428番地1,狭山博愛,35.8699894,139.4456579,
埼玉県,狭山市,21-6,大字青柳475番地,青柳氷川神社(青柳バス停脇),35.8705518,139.4473166,
埼玉県,狭山市,21-7,大字青柳615番地2,青新集会所西側畑,35.8710428,139.4480213,
埼玉県,狭山市,22-1,新狭山3丁目1番地,新狭山駅南口ロータリー内,35.8737035,139.433839,
埼玉県,狭山市,22-2,新狭山3丁目3番地,三ツ木公園東側,35.8750923,139.436481,
埼玉県,狭山市,22-3,大字東三ツ木8番地1,東三ツ木自治会館,35.8715291,139.4342187,
埼玉県,狭山市,22-4,大字東三ツ木339番地1,東三ツ木バス停付近信号北側,35.8709255,139.433225,
埼玉県,狭山市,22-5,大字東三ツ木102番地121,西武新狭山団地内江丸橋公園,35.8702306,139.4405893,
埼玉県,狭山市,22-6,大字東三ツ木62番地19,下ノ沢公園,35.871088,139.4364364,
埼玉県,狭山市,22-7,大字東三ツ木102番地119,西武新狭山団地内むかい公園,35.8706262,139.4382933,
埼玉県,狭山市,22-8,新狭山3丁目3番地,三ツ木公園北側,35.874838,139.4356763,
埼玉県,狭山市,23-1,新狭山2丁目4番地4,masked,35.8767337,139.4321564,
埼玉県,狭山市,23-2,新狭山2丁目4番地48,新狭山2丁目2号公園南側,35.8765112,139.4332612,
埼玉県,狭山市,23-3,新狭山2丁目13番地1,中原公園北西側,35.8749625,139.4307677,
埼玉県,狭山市,23-4,新狭山2丁目17番地1,新狭山公民館北側,35.8736241,139.4300792,
埼玉県,狭山市,23-5,新狭山1丁目1番地15,第12自転車駐車場,35.8772432,139.4349643,
埼玉県,狭山市,23-6,新狭山2丁目13番地1,中原公園南東側,35.8742931,139.430639,
埼玉県,狭山市,23-7,新狭山3丁目12番地1,新狭山駅北口,35.8739239,139.4331044,
埼玉県,狭山市,24-1,大字下奥富1019番地,奥富小学校西側(奥富ふれあい館前),35.8780739,139.4223439,
埼玉県,狭山市,24-2,大字下奥富1221番地,至聖病院南側,35.8819711,139.4289459,
埼玉県,狭山市,24-3,大字下奥富1019番地,奥富小学校正門脇,35.8778913,139.4240015,
埼玉県,狭山市,24-4,大字下奥富1140番地1,土地改良記念公園南側水路,35.8805977,139.4246843,
埼玉県,狭山市,24-5,大字上奥富344番地,岩田商店北側交差点,35.8711259,139.4192123,
埼玉県,狭山市,24-6,大字上奥富587番地1,梅宮神社東側水田脇,35.873701,139.4200522,
埼玉県,狭山市,24-7,大字下奥富486番地,奥富神社前,35.8773058,139.4278033,
埼玉県,狭山市,24-8,大字下奥富2552番地1,サンパーク奥富東側,35.879452,139.4178255,
埼玉県,狭山市,25-1,柏原4338番地,川原公園,35.875336,139.4078987,
埼玉県,狭山市,25-2,柏原1699番地1,上宿バス停,35.8848503,139.4039037,
埼玉県,狭山市,25-3,柏原2335番地,第一区自治会館東側,35.8880618,139.411398,
埼玉県,狭山市,25-4,柏原3484番地14,西武柏原ニュータウンバス停,35.889296,139.4153246,
埼玉県,狭山市,25-5,柏原1570番地1,柏原第3区児童公園,35.8821601,139.4042697,
埼玉県,狭山市,25-6,柏原3161番地9,砂間東公園,35.881564,139.4107232,
埼玉県,狭山市,25-7,柏原3467番地1,浄化センター信号機交差点,35.8869103,139.4150837,
埼玉県,狭山市,25-8,柏原3116番地15,柏原中学校正門南側,35.8782273,139.4085108,
埼玉県,狭山市,25-9,柏原622番地,都市緑化植物園・緑の相談所東側,35.8857309,139.3974846,
埼玉県,狭山市,26-1,柏原1153番地1,柏原白鬚神社入口,35.8773866,139.4044931,
埼玉県,狭山市,26-2,柏原1141番地,柏原小学校西側,35.8781737,139.4057527,
埼玉県,狭山市,26-3,柏原954番地,小山台保育園斜向いゴミ集積場付近,35.8760132,139.4014851,
埼玉県,狭山市,26-4,柏原99番地2,奥州道交差点柏団地前,35.8674339,139.3980481,
埼玉県,狭山市,26-5,柏原1141番地,柏原保育所南側,35.8769827,139.4057635,
埼玉県,狭山市,26-6,柏原2878番地39,西宿田第2児童公園,35.865007,139.4006015,
埼玉県,狭山市,26-7,柏原2910番地,河川敷中央公園北側,35.864725,139.4041973,
埼玉県,狭山市,27-1,広瀬3丁目3番7号,市営広瀬団地北側,35.8609717,139.3908036,
埼玉県,狭山市,27-2,広瀬台1丁目521番地90,日生第4公園(今宿遺跡横),35.8680059,139.3950618,
埼玉県,狭山市,27-3,広瀬台2丁目16番地17,武蔵野学院大学駐車場,35.8674794,139.3872593,
埼玉県,狭山市,27-4,つつじ野1758番地1,つつじ野団地1-22号棟西側,35.861763,139.3917009,
埼玉県,狭山市,27-5,広瀬東4丁目4番1号,広瀬小学校東側,35.864129,139.3956253,
埼玉県,狭山市,27-6,広瀬東4丁目4番1号,広瀬小学校正門,35.8630726,139.3954054,
埼玉県,狭山市,27-7,広瀬東4丁目4番1号,広瀬小学校西側,35.8629161,139.3938926,
埼玉県,狭山市,28-1,広瀬2丁目1842番地7,広瀬分署南側,35.8598585,139.3929465,
埼玉県,狭山市,28-2,広瀬東3丁目34番1号,広瀬公民館北側,35.862543,139.3964198,
埼玉県,狭山市,28-3,広瀬東3丁目23番1号,西中学校裏門,35.861253,139.3958808,
埼玉県,狭山市,28-4,広瀬東3丁目23番1号,西中学校正門,35.860277,139.3966559,
埼玉県,狭山市,28-5,広瀬東3丁目250番地1,上広瀬地区子供広場,35.8628771,139.397427,
埼玉県,狭山市,28-6,広瀬2丁目2番13号,広瀬保育所東側,35.8590933,139.3935486,
埼玉県,狭山市,28-7,広瀬東2丁目2029番地9,広瀬東2丁目公園東側,35.8585959,139.3970061,
埼玉県,狭山市,29-1,根岸2丁目17番13号,水富公民館西側,35.8576234,139.3821412,
埼玉県,狭山市,29-2,根岸2丁目22番1号,水富小学校正門脇,35.8581029,139.3825505,
埼玉県,狭山市,29-3,根岸2丁目22番1号,水富幼稚園入口脇,35.8583594,139.3832559,
埼玉県,狭山市,29-4,広瀬2丁目29番2号,市営水富団地北側,35.8578298,139.3876564,
埼玉県,狭山市,29-5,広瀬2丁目14番22号,広瀬神社入口,35.8586332,139.3897803,
埼玉県,狭山市,29-6,根岸1丁目209番地81,下田第1児童遊園地,35.8540928,139.3828709,
埼玉県,狭山市,29-7,広瀬1丁目36番3号,広瀬河川敷公園北側,35.8535875,139.3860608,
埼玉県,狭山市,30-1,大字笹井2592番地1,渋谷設備工業向い,35.8484354,139.3674919,
埼玉県,狭山市,30-2,大字笹井1962番地1,笹井白鬚神社,35.8515577,139.3722361,
埼玉県,狭山市,30-3,笹井1丁目1807番地1,笹井バス停付近信号脇,35.8507861,139.3737808,
埼玉県,狭山市,30-4,大字笹井1700番地,笹井小学校正門南側,35.8531109,139.3703146,
埼玉県,狭山市,30-5,笹井1丁目213番地22,笹井向田公園,35.8539862,139.3807137,
埼玉県,狭山市,30-6,笹井1丁目213番地9,グリーンハイツすべり台公園,35.8530036,139.3801638,
埼玉県,狭山市,30-7,笹井2丁目17番1号,笹井保育所南側,35.8568932,139.3790533,
