prefecture,city,number,address,name,lat,long,note
埼玉県,草加市,1-1,瀬崎6-16,瀬崎氷川公園南側[野立て],35.8109807664216,139.81476915696,
埼玉県,草加市,1-2,瀬崎5-35,旧・瀬崎児童遊園西側(駐車場フェンス)[フェンス],35.8138407087578,139.812229534837,
埼玉県,草加市,1-3,瀬崎6-2-3,㈱カナイグル-プ駐車場西側[フェンス],35.8110724163007,139.809892073027,
埼玉県,草加市,1-4,瀬崎6-4,瀬崎山王公園西側[野立て],35.810997236871,139.811068339459,
埼玉県,草加市,1-5,瀬崎7-9,瀬崎新田公園北側[野立て],35.8091515362626,139.813178305227,
埼玉県,草加市,1-6,瀬崎6-31-1,草加市スポ-ツ健康都市記念体育館南側(河川課)[フェンス],35.8121813340584,139.81976419318,
埼玉県,草加市,1-7,瀬崎6-26-1,東京ガス㈱供給ｾﾝﾀｰ草加西側[フェンス],35.8123395795008,139.816380546913,
埼玉県,草加市,2-1,瀬崎2-37-3,谷塚幼稚園(善福寺)駐車場[フェンス],35.8132091997167,139.803275133875,
埼玉県,草加市,2-2,瀬崎3-3,浅間神社東南側[フェンス],35.8125034210429,139.804451767358,
埼玉県,草加市,2-3,瀬崎3-29,瀬崎浅間公園北側[野立て],35.8116639158835,139.80478925138,
埼玉県,草加市,2-4,谷塚1-1-20,谷塚駅東口交番横[フェンス],35.8143978795883,139.801761016371,
埼玉県,草加市,2-5,瀬崎4-13,瀬崎角田公園北西側[野立て],35.8099318265657,139.807084010507,
埼玉県,草加市,2-6,瀬崎3-45-6,㈲サンセットガァ-ド南側[フェンス],35.8101696293247,139.808571091404,
埼玉県,草加市,2-7,瀬崎4-15-19,アトムリビングテック㈱北側[フェンス],35.8100284339365,139.809820969213,
埼玉県,草加市,3-1,谷塚町573,谷塚駅西口入口際[フェンス],35.814546466707,139.801063245352,
埼玉県,草加市,3-2,谷塚町705-6,谷塚園グリ-ンゴルフ場第2駐車場東側[フェンス],35.8164260394306,139.799485279519,
埼玉県,草加市,3-3,谷塚町752,市民交流活動センタ-駐車場際[フェンス],35.8158985704054,139.797232345642,
埼玉県,草加市,3-4,谷塚町880,谷塚第2児童遊園西側[フェンス],35.8088185988416,139.796407241882,
埼玉県,草加市,3-5,谷塚町1058,やつか保育園北側[フェンス],35.8122805786409,139.796748922583,
埼玉県,草加市,3-6,谷塚町1239,masked,35.8148733489198,139.79689486162,
埼玉県,草加市,3-7,谷塚仲町440,谷塚小学校北東側[フェンス],35.816069440653,139.795170956751,
埼玉県,草加市,3-8,谷塚仲町440,谷塚小学校南側[フェンス],35.8150145026026,139.79477874559,
埼玉県,草加市,4-1,谷塚仲町字蜻蛉162-1ほか,谷塚仲桃の木公園東側[フェンス],35.8093980430378,139.791477848914,
埼玉県,草加市,4-2,谷塚上町70-4,masked,35.8065675674848,139.791186005659,
埼玉県,草加市,4-3,谷塚上町124-5,横手堀ポンプ場北西道路際(水路フェンス)[フェンス],35.8069320954345,139.788294645256,
埼玉県,草加市,4-4,谷塚上町199,やつかかみ保育園北側[フェンス],35.8113888608657,139.788477024415,
埼玉県,草加市,4-5,谷塚上町234,谷塚上町会館東側[フェンス],35.8107956069593,139.789010959733,
埼玉県,草加市,4-6,谷塚上町499,谷塚浄水場際[フェンス],35.8131122118863,139.789092942316,
埼玉県,草加市,4-7,谷塚上町96-1,谷塚上町みなみ公園北側[野立て],35.8062412967927,139.789288611669,
埼玉県,草加市,5-1,氷川町448,氷川小学校正門際[フェンス],35.8214036615818,139.794988355956,
埼玉県,草加市,5-2,氷川町448,氷川小学校南側[フェンス],35.8204230006877,139.795699851208,
埼玉県,草加市,5-3,谷塚町1674-4付近,谷塚みどりポケットパ-ク東側[フェンス],35.8198112834912,139.798591908357,
埼玉県,草加市,5-4,谷塚町1330,masked,35.8172988197802,139.799094345893,
埼玉県,草加市,5-5,谷塚町1364-2,谷塚高架下公園西側(高架下フェンス)[フェンス],35.8186562053173,139.802325662474,
埼玉県,草加市,5-6,氷川町1800-1,氷川第2児童遊園南側(ひかわ保育園東側フェンス)[フェンス],35.8208241801444,139.799485370816,
埼玉県,草加市,5-7,谷塚町1874,masked,35.818595405385,139.79458699966,
埼玉県,草加市,6-1,柳島町743-1,柳島コミュニティセンタ-入口際[野立て],35.8182167715817,139.784562337522,
埼玉県,草加市,6-2,遊馬町813-1,唐沢製作所入口右側[フェンス],35.8218913849829,139.783121800786,
埼玉県,草加市,6-3,柳島町743-1,柳島コミュニティセンタ-駐車場側,35.8180692446734,139.784078246645,
埼玉県,草加市,6-4,新里町759,新里小学校南側[フェンス],35.8177019844839,139.783169598564,
埼玉県,草加市,6-5,新里町759,新里小学校北側[フェンス],35.8189422981246,139.782722734826,
埼玉県,草加市,6-6,新里町759,新里小学校正門際[フェンス],35.817701984599,139.782430989094,
埼玉県,草加市,6-7,遊馬町1018,石井貿易第一配送センタ-北側(水路フェンス)[フェンス],35.8200718325937,139.77849057585,
埼玉県,草加市,7-1,新里町983,新里文化センタ-[野立て],35.8165210874199,139.776905014291,
埼玉県,草加市,7-2,遊馬町2-9ほか,遊馬第7公園南東側[フェンス],35.8180954256833,139.770722771058,
埼玉県,草加市,7-3,新里町字河内通611-1ほか,新里町ふれあい公園東側[フェンス],35.8152510659255,139.781728843781,
埼玉県,草加市,7-4,新里町1316,masked,35.8148004473514,139.779433741985,
埼玉県,草加市,7-5,新里町1355,㈱菊池襖紙工場南側[ブロック],35.8136701335735,139.777888666993,
埼玉県,草加市,7-6,遊馬町421,日理(株)東京流通センタ-入口[フェンス],35.8189914506517,139.775588801596,
埼玉県,草加市,7-7,遊馬町1110-2,遊馬第5公園内[野立て],35.8185938701949,139.777947216761,
埼玉県,草加市,8-1,吉町2-7-28,masked,35.8231805849105,139.812581411854,
埼玉県,草加市,8-2,吉町3-2-47,masked,35.8199715494298,139.806404289596,
埼玉県,草加市,8-3,吉町3-2-52,masked,35.8206775250834,139.805683458404,
埼玉県,草加市,8-4,吉町3-7-25,吉町どんぐり児童遊園東側[野立て],35.8219259927175,139.811299047121,
埼玉県,草加市,8-5,吉町3-9-24,吉町集会所北側[フェンス],35.8211457037898,139.811563654831,
埼玉県,草加市,8-6,吉町4-10-45,草加市吉町浄水場西側［フェンス］,35.8195185760972,139.811551556882,
埼玉県,草加市,8-7,吉町3-9,草加吉町公園南側[野立て],35.8209717841432,139.812603290236,
埼玉県,草加市,9-1,吉町5-3-12,masked,35.8206849564061,139.804333040476,
埼玉県,草加市,9-2,吉町5-4-5,masked,35.8198452169444,139.805090369449,
埼玉県,草加市,9-3,吉町5-6,草加市防災備蓄倉庫東側(高架下フェンス)[フェンス],35.8182103259571,139.802654142511,
埼玉県,草加市,9-4,吉町5-7,草加南ﾐﾆｺﾐｭﾆﾃｨｾﾝﾀｰ東側(高架下フェンス)[フェンス],35.8197709037178,139.802854880311,
埼玉県,草加市,9-5,氷川町50-1,アイコ-ポ東側(高架下フェンス)[フェンス],35.8213091873477,139.802581214352,
埼玉県,草加市,9-6,吉町5-11-33,masked,35.8229143525565,139.803110444274,
埼玉県,草加市,9-7,氷川町40-1,masked,35.8226022370993,139.802681585544,
埼玉県,草加市,10-1,中央1-2-5,高砂小学校西側[フェンス],35.8261622293619,139.807781446203,
埼玉県,草加市,10-2,中央1-2-5,高砂小学校北東側植込み［野立て］,35.8264186863943,139.808909673326,
埼玉県,草加市,10-3,吉町1-1-41,市役所第5駐車場［フェンス］,35.8252268540607,139.807049084381,
埼玉県,草加市,10-4,中央2-16-37,リバ-サイド中央東側(伝右川フェンス)[フェンス],35.827975934159,139.812855452352,
埼玉県,草加市,10-5,吉町1-2,あずま保育園南側[フェンス],35.8247655635918,139.808311268777,
埼玉県,草加市,10-6,吉町1-5-21,㈱戸谷染料商店草加工場東側(伝右川フェンス)[フェンス],35.8252560371273,139.81273677855,
埼玉県,草加市,10-7,吉町1-1-41,草加市公用車管理東側［フェンス］,35.8251714314675,139.807650490518,
埼玉県,草加市,11-1,住吉2-7-23,プレジ-ル住吉東側(伝右川フェンス)[フェンス],35.8312829114423,139.810647085509,
埼玉県,草加市,11-2,住吉2-9-1,中央公民館南側正面入口[野立て],35.8298791860982,139.810129448318,
埼玉県,草加市,11-3,住吉2-10-32,山崎皐月園東側(右川フェンス)[フェンス],35.8297594726593,139.811751306397,
埼玉県,草加市,11-4,中央2-3,草加中央防災広場北側［フェンス］,35.8288751348185,139.808019022857,
埼玉県,草加市,11-5,中央2-9-2,コンフォ-ル草加2号棟東側[野立て],35.8292095482877,139.810282118989,
埼玉県,草加市,11-6,神明2-2-41,masked,35.8331481943257,139.809387724484,
埼玉県,草加市,11-7,神明2-3-39,堀川産業㈱草加事業所東側(伝右川フェンス)[ﾌｪﾝｽ],35.8349752083099,139.808713976505,
埼玉県,草加市,12-1,高砂1-1-1,草加市役所西棟南側［野立て］,35.8251149075629,139.80489251206,
埼玉県,草加市,12-2,高砂1-5-17,ＪＡ草加西側[高架下フェンス],35.8262510137475,139.803484819226,
埼玉県,草加市,12-3,高砂1-7-36,ＮＴＴ東日本草加ビル南側[フェンス],35.8252626487381,139.806605505315,
埼玉県,草加市,12-4,高砂1-12,高架下駐輪場南側(高架下フェンス)[フェンス],35.8249951217431,139.803311438924,
埼玉県,草加市,12-5,氷川町691-1,氷川町ふれあい公園[フェンス],35.8252775116613,139.800199718779,
埼玉県,草加市,12-6,氷川町2222,草加駅西口ロ-タリ-植栽地[野立て],35.8282277431745,139.802891676089,
埼玉県,草加市,12-7,氷川町722-7,masked,35.826139544043,139.802964678322,
埼玉県,草加市,12-8,氷川町2118-5,水道部庁舎南側[野立て],35.8272542410883,139.800172342942,
埼玉県,草加市,13-1,住吉1-5-2,森田医院西側(高架下フェンス)[フェンス],35.8302639223223,139.80366750928,
埼玉県,草加市,13-2,住吉1-8-15,木村青果店西側(高架下フェンス)[フェンス],35.8310887976343,139.803840897502,
埼玉県,草加市,13-3,住吉1-11-64,草加小学校西側[野立て],35.8319475170206,139.804194494538,
埼玉県,草加市,13-4,神明1-6,おせん公園北側(伝右川フェンス)［フェンス］,35.8360378044895,139.806797589055,
埼玉県,草加市,13-5,神明1-3-43,東福寺北側駐車場際[ブロック],35.8340389347531,139.805227976478,
埼玉県,草加市,13-6,神明1-3,神明あじさい公園南側[野立て],35.8330367232371,139.804998212506,
埼玉県,草加市,13-7,神明1-4,月極太昌倉庫駐車場西側(高架下フェンス)[フェンス],35.8347374245495,139.804142023589,
埼玉県,草加市,14-1,八幡町213,masked,35.8501809506591,139.814361891738,
埼玉県,草加市,14-2,八幡町259,八幡ｺﾐｭﾆﾃｨｾﾝﾀｰ南側公園[野立て],35.8489696352164,139.815247135806,
埼玉県,草加市,14-3,弁天4-19,弁天公園東側[野立て],35.8450384384546,139.818880132923,
埼玉県,草加市,14-4,弁天5-1-36,masked,35.8442358405379,139.815593802675,
埼玉県,草加市,14-5,弁天5-11-19,ＮＴＴ弁天電話交換センタ-北側[フェンス],35.8482339278205,139.817382964459,
埼玉県,草加市,14-6,弁天5-22-4,弁天第7公園西側[フェンス],35.8465990224962,139.817784573265,
埼玉県,草加市,14-7,弁天6-20,masked,35.8463139221547,139.813883959879,
埼玉県,草加市,15-1,氷川町1188,masked,35.8294792554598,139.797574481231,
埼玉県,草加市,15-2,氷川町1470,氷川グランドゴルフ場北側[フェンス],35.831217699772,139.797656587202,
埼玉県,草加市,15-3,氷川町2160,氷川上田公園北側[野立て],35.8307395261058,139.801249199864,
埼玉県,草加市,15-4,氷川町2163-12,神明交通(株)東側(高架下フェンス)[フェンス],35.8309847593067,139.803384612707,
埼玉県,草加市,15-5,氷川町2179,久野歯科東側(高架下フェンス)[フェンス],35.8324561109391,139.803498670745,
埼玉県,草加市,15-6,氷川町2179-4,草加中学校グランド南側[フェンス],35.8318839477099,139.802353409069,
埼玉県,草加市,15-7,氷川町2179-4,草加中学校正門入口際[フェンス],35.8332586550929,139.802960256518,
埼玉県,草加市,16-1,西町270,西町小学校南門際[フェンス],35.8275476506684,139.794130660252,
埼玉県,草加市,16-2,西町270,西町小学校北門入口際[フェンス],35.8284094435753,139.794212762842,
埼玉県,草加市,16-3,西町425-2,埼玉県草加保健所入口際[フェンス],35.8290186420095,139.795918672223,
埼玉県,草加市,16-4,西町1406-5,柳島治水緑地北側[フェンス],35.8257233936151,139.789657859829,
埼玉県,草加市,16-5,西町943-1,はなまるうどん草加西町店(駐車場北側)[フェンス],35.8325029598832,139.79590038632,
埼玉県,草加市,16-6,西町1316,西町南公園東側[フェンス],35.8259726498384,139.791658460026,
埼玉県,草加市,16-7,西町1400-1,masked,35.8248731209572,139.790828311611,
埼玉県,草加市,16-8,西町108-2,消防西分署西側［ブロック］,35.8272876269464,139.792123708039,
埼玉県,草加市,17-1,松江2-2,まつばら綾瀬川公園南東側［野立て］,35.8402632587346,139.807641928029,
埼玉県,草加市,17-2,松江3-1-40,ことぶきハイツ西側(綾瀬川左岸)[フェンス],35.8370632469565,139.807262997436,
埼玉県,草加市,17-3,松江3-7-27,masked,35.8385359610601,139.810090337003,
埼玉県,草加市,17-4,松江3-14-33,松江中学校東門入口前[フェンス],35.8376218986889,139.812088979511,
埼玉県,草加市,17-5,松江3-19-27,日本板紙物流(株)南倉庫東側(水路フェンス)[フェンス],35.8366855421135,139.813631310945,
埼玉県,草加市,17-6,弁天2-17-25,㈱フクイ草加工場入口際[フェンス],35.8401708680358,139.811906463631,
埼玉県,草加市,17-7,弁天2-30-10,弁天町会館北側[ブロック],35.8442655661074,139.814544191272,
埼玉県,草加市,18-1,草加1-16-17,コ-ポわかくさ東側(高架下フェンス)[フェンス],35.8364910797829,139.803411971228,
埼玉県,草加市,18-2,草加1-18-13,生活クラブ生協草加生活館東側(伝右川水路フェンス)[フェンス],35.8365876794356,139.802234761794,
埼玉県,草加市,18-3,草加2-19,北浦会館北側[ブロック],35.8360898196871,139.79839286124,
埼玉県,草加市,18-4,草加2-21-1,草加市立病院南側[野立て],35.8350455844893,139.79657027733,
埼玉県,草加市,18-5,草加4-1-1,masked,35.8367140020583,139.799907719891,
埼玉県,草加市,18-6,草加4-5-25,masked,35.8394336538186,139.801021049743,
埼玉県,草加市,18-7,草加5-4-17,ウイング松原東側(高架下フェンス)[フェンス],35.8382967502139,139.803019568083,
埼玉県,草加市,19-1,松江1-1-5,草加市文化会館入口[フェンス],35.8445678300699,139.80515943543,
埼玉県,草加市,19-2,栄町1-3,伝右川浦寺橋北側[フェンス],35.8362607267649,139.80422415448,
埼玉県,草加市,19-3,栄町1-8-1,栄第3公園北側[フェンス],35.8388689173875,139.804598306316,
埼玉県,草加市,19-4,栄町1-6-18,ﾕﾆﾃｸﾉ㈱開発ｾﾝﾀｰ西側(高架下フェンス)[フェンス],35.8374050611122,139.803530604736,
埼玉県,草加市,19-5,栄町1-8-8,ロ-ズタウン草加東側[フェンス],35.8391141318905,139.805647756586,
埼玉県,草加市,19-6,栄町2-3,日東粉化倉庫西側(保線区事務所フェンス)[フェンス],35.839611991639,139.80289180892,
埼玉県,草加市,19-7,栄町3-6-8,草加ｶﾞｰﾃﾞﾝﾊｲﾂ西側(高架下フェンス)[フェンス],35.845155112258,139.799984411603,
埼玉県,草加市,19-8,栄町3-14-12,masked,35.8481993211811,139.800301949576,
埼玉県,草加市,20-1,松原1-1,コンフォ-ル松原10号棟北側[野立て],35.8419529085579,139.800121286968,
埼玉県,草加市,20-2,学園町(獨協大学),獨協大学グランド東北側(伝右川水路フェンス)[フェンス],35.8412916646384,139.798542657759,
埼玉県,草加市,20-3,松原1,松原団地駅西口ロ-タリ-北側植栽地[野立て],35.8431639507925,139.800039161749,
埼玉県,草加市,20-4,松原1-3,栄小学校南西入口門際[フェンス],35.8442858365436,139.797456779864,
埼玉県,草加市,20-5,松原1-3,栄小学校南東入口門際[フェンス],35.844389852441,139.798579157856,
埼玉県,草加市,20-6,松原1-3,栄小学校北東側(隅切りのフェンス)[フェンス],35.8456083243826,139.798086406543,
埼玉県,草加市,20-7,松原2,コンフォ-ル松原20号棟北側植栽地[野立て],35.8427850357375,139.797265154353,
埼玉県,草加市,20-8,松原5-6-1,まつばらきた保育園東側[フェンス],35.8449915277847,139.794632602018,
埼玉県,草加市,22-1,金明町188-1,ライフピア金明北西側(高架下フェンス)[フェンス],35.8556968447636,139.794936110595,
埼玉県,草加市,22-2,金明町833,わかくさ公園南側[野立て],35.8552513208804,139.788423413037,
埼玉県,草加市,22-3,金明町164-2,新田ミニコミュニティセンタ-東側[フェンス],35.8579096133834,139.793941875253,
埼玉県,草加市,22-4,金明町164-2,新田ミニコミュニティセンタ-西側[フェンス],35.857293305345,139.793805053876,
埼玉県,草加市,22-5,金明町502-1,JAグリ-ンホ-ル駐車場入口[フェンス],35.8554221050357,139.792628390032,
埼玉県,草加市,22-6,金明町910,ハ-トランドゴルフクラブ入口[フェンス],35.8567809528793,139.788815634319,
埼玉県,草加市,22-7,金明町1332,金明第2ふれあい広場北側遊歩道側[野立て],35.8590382738874,139.791780097493,
埼玉県,草加市,23-1,松原3-1,松原団地記念公園南側[フェンス],35.8412397569398,139.794299413203,
埼玉県,草加市,23-2,松原3-3-1,栄中学校南東側[フェンス],35.8455487214745,139.793209131317,
埼玉県,草加市,23-3,松原3-3-1,栄中学校北側フェンス[フェンス],35.8462619293975,139.792397023032,
埼玉県,草加市,23-4,松原3-3-1,栄中学校西側[フェンス],35.8456601602125,139.790745432026,
埼玉県,草加市,23-5,松原4,松原団地(南)交差点北東側[野立て],35.8410465964607,139.792529288962,
埼玉県,草加市,23-6,松原4-2-1,松原小学校東門際[フェンス],35.8418192383772,139.791808465174,
埼玉県,草加市,23-7,松原4-4-3,miraton(ミラトン)東側[野立て],35.8430593004057,139.791472454237,
埼玉県,草加市,24-1,青柳5-3-1,県立草加高校グランド東側[フェンス],35.8525664247046,139.814434914859,
埼玉県,草加市,24-2,青柳5-26-11,masked,35.8563638592604,139.812198603684,
埼玉県,草加市,24-3,青柳5-45-3,ラフィナ-トカ-サ前(水路フェンス)[フェンス],35.8582142713504,139.81379615246,
埼玉県,草加市,24-4,八幡町1148,八幡北小学校南際[フェンス],35.8575008594194,139.811687417003,
埼玉県,草加市,24-5,八幡町1148,八幡北小学校北東の角[フェンス],35.8585375826771,139.812688542036,
埼玉県,草加市,24-6,青柳5-3-1,県立草加高校グランド南側[フェンス],35.8516448967736,139.814596584579,
埼玉県,草加市,24-7,八幡町1247ほか,八幡中公園東側[フェンス],35.8547066617879,139.809779602198,
埼玉県,草加市,25-1,旭町2-3-17,江尻駐車場西側[高架下ﾌｪﾝｽ],35.8490482787053,139.798054541997,
埼玉県,草加市,25-2,旭町1-4-33,上州屋草加店前［フェンス］,35.8516850688172,139.800654435456,
埼玉県,草加市,25-3,旭町3-3-11,旭町団地敷地内［野立て］,35.8520641564047,139.797130000915,
埼玉県,草加市,25-4,旭町1-2-6,ミツウロコ石油北側[フェンス],35.8505565532982,139.801353727274,
埼玉県,草加市,25-5,旭町2-1,旭町2丁目児童遊園東側[フェンス],35.8490185066953,139.801992566886,
埼玉県,草加市,25-6,旭町3-3-11,旭町団地管理組合集会場前[フェンス],35.8520275911965,139.797758084221,
埼玉県,草加市,25-7,旭町3-5-2,小山建設西側(高架下フェンス)[フェンス],35.8528671480831,139.796316177482,
埼玉県,草加市,26-1,旭町5-7,旭浄水場東側[フェンス],35.8485501381504,139.792743765895,
埼玉県,草加市,26-2,金明町694-11,masked,35.8525890420146,139.7900129413,
埼玉県,草加市,26-3,旭町6-12-11,新田小学校北側[フェンス],35.8516053428432,139.789659366145,
埼玉県,草加市,26-4,旭町6-12-11,新田小学校プ-ル西側[フェンス],35.8509912932392,139.78895308841,
埼玉県,草加市,26-5,清門1-333,masked,35.8539370757926,139.786713145822,
埼玉県,草加市,26-6,新善町46,masked,35.847108863806,139.791256421508,
埼玉県,草加市,26-7,松原4-6-1,県立草加かがやき特別支援学校正門際[フェンス],35.8460836274167,139.788792722218,
埼玉県,草加市,26-8,清門1-401-1,草加セ-モンプラザ東側[フェンス],35.8535837957381,139.784658051567,
埼玉県,草加市,27-1,清門2-26,清門中央公園東側[フェンス],35.8516426598922,139.781026244266,
埼玉県,草加市,27-2,清門3-12-1,清門幼稚園北側入口際[フェンス],35.8548512158992,139.780734592103,
埼玉県,草加市,27-3,清門3-37,清門小学校東側[フェンス],35.8538933577182,139.778518236915,
埼玉県,草加市,27-4,清門3-37,清門小学校正門際[フェンス],35.8543908499517,139.777761210246,
埼玉県,草加市,27-5,清門3-49-1,新田西文化センタ-入口東側[野立て],35.8526087882196,139.778271975227,
埼玉県,草加市,27-6,清門3-27,清門中公園東側[フェンス],35.8534032907418,139.780470088809,
埼玉県,草加市,27-7,長栄2-14,長栄東公園北側[フェンス],35.8574120835132,139.780971518565,
埼玉県,草加市,27-8,新善町451-1,新善第3公園西側[フェンス],35.8498453985984,139.784163707492,
埼玉県,草加市,28-1,新栄3-3,新栄橋際[フェンス],35.8606504829828,139.767917211548,
埼玉県,草加市,28-2,新栄3-1-2,新栄排水場西側[フェンス],35.8598931010833,139.768881841254,
埼玉県,草加市,28-3,新栄4-959,新栄小学校正門際[ブロック],35.8615693654343,139.770120124776,
埼玉県,草加市,28-4,新栄4-1000,新栄町団地内ﾊﾞｰﾄﾞｻﾝｸﾁｭｱﾘ入口際[フェンス],35.8648549332208,139.770321944466,
埼玉県,草加市,28-5,新栄3-10,新栄道上公園北側[フェンス],35.8598915942732,139.766254124801,
埼玉県,草加市,28-6,新栄4-813,新栄町団地給水塔東側[フェンス],35.8631898809581,139.769319781866,
埼玉県,草加市,28-7,新栄4-813-32,しんえい保育園南側[フェンス],35.8627889319183,139.768088383769,
埼玉県,草加市,29-1,青柳4-23-3,masked,35.8528927528334,139.818312531921,
埼玉県,草加市,29-2,青柳4-31-24,masked,35.8515780562952,139.81878843725,
埼玉県,草加市,29-3,青柳6-23-6,環境業務センタ-南西角[フェンス],35.8517564093865,139.826529242007,
埼玉県,草加市,29-4,青柳6-60,青柳町やなぎ児童遊園西側[野立て],35.8539486661327,139.826602268467,
埼玉県,草加市,29-5,青柳6-45-17,川柳文化センタ-際[フェンス],35.8540081171631,139.822567556553,
埼玉県,草加市,29-6,青柳7-35-1,川柳中学校東側[フェンス],35.8545729019519,139.823343462691,
埼玉県,草加市,29-7,青柳7-2-1,あおやぎ保育園北側[フェンス],35.8537777444202,139.820358506139,
埼玉県,草加市,30-1,柿木町163,市民温水プ-ル北東側入口際[フェンス],35.8586007184083,139.832766014838,
埼玉県,草加市,30-2,柿木町272-1,そうか公園南側入口際[野立て],35.8597897257555,139.828437466219,
埼玉県,草加市,30-3,柿木町294,睦屋ライオン㈱北側[フェンス],35.8613795594833,139.833020781142,
埼玉県,草加市,30-4,柿木町438,柿木児童遊園南側[フェンス],35.8622197962375,139.834610121442,
埼玉県,草加市,30-5,柿木町736,柿木公民館バス停東側［フェンス］,35.8658597022988,139.833402970517,
埼玉県,草加市,30-6,柿木町1110-1,草加東高等学校[フェンス],35.8652815038773,139.828081821434,
埼玉県,草加市,30-7,柿木町1263,柿木公民館入口際(植栽地)[野立て],35.8673994582959,139.833131158091,
埼玉県,草加市,31-1,松江5-8,松江公園南側[フェンス],35.8331853625753,139.819099574651,
埼玉県,草加市,31-2,稲荷3-4,マルエツ草加稲荷店西側第1駐車場際[フェンス],35.8296554451724,139.823480115731,
埼玉県,草加市,31-3,稲荷3-12-1,masked,35.8301533493684,139.821873974134,
埼玉県,草加市,31-4,稲荷3-23-1,稲荷下根公園西側[野立て],35.8315653164912,139.823206341595,
埼玉県,草加市,31-5,稲荷4-5-1,稲荷西公園南側[野立て],35.8335346384407,139.823361520093,
埼玉県,草加市,31-6,稲荷4-9-13,稲荷コミュニティセンタ-北側入口際[野立て],35.8345510673933,139.822021591919,
埼玉県,草加市,31-7,稲荷4-30-9,稲荷東公園南側[野立て],35.8338449994256,139.826302578904,
埼玉県,草加市,32-1,花栗3-22-7,masked,35.83895357253,139.787264503028,
埼玉県,草加市,32-2,花栗1-31-8,二木ゴルフ草加店西側[フェンス],35.8353873606037,139.790816253985,
埼玉県,草加市,32-3,花栗1-6,花栗第6公園入口(ﾀﾞｲｱﾊﾟﾚｽ草加Ⅱ東側)[フェンス],35.8334761915281,139.795571948724,
埼玉県,草加市,32-4,花栗2-4-38,富士倉庫運輸㈱草加営業所北側[フェンス],35.8356233686061,139.786681097464,
埼玉県,草加市,32-5,花栗4-3-1,花栗南小学校北門入口際[フェンス],35.8384463592415,139.794221760686,
埼玉県,草加市,32-6,花栗4-3-1,花栗南小学校西門入口際[フェンス],35.838052609034,139.792834928405,
埼玉県,草加市,32-7,花栗4-3-1,花栗南小学校南側[フェンス],35.8377851560629,139.794527387294,
埼玉県,草加市,32-8,花栗4-18,花栗第9公園南側[フェンス],35.8388401094489,139.790289361259,
埼玉県,草加市,33-1,北谷1-3-20,北谷町交差点西側北入口(民間駐車場ﾌｪﾝｽ)[フェンス],35.8422111159471,139.787529533331,
埼玉県,草加市,33-2,北谷1-1,北谷第6公園東側[フェンス],35.840651447593,139.788468935356,
埼玉県,草加市,33-3,北谷1-9-9,峯分会館敷地内[野立て],35.8402578166348,139.78656259023,
埼玉県,草加市,33-4,北谷1-16-6,masked,35.8412753147934,139.786225220993,
埼玉県,草加市,33-5,北谷1-18-6,寿橋北側(水路フェンス)[フェンス],35.841579821206,139.783707634528,
埼玉県,草加市,33-6,北谷1-12,峯分ふれあい広場南側入口フェンス[フェンス],35.8397707679273,139.785620613633,
埼玉県,草加市,33-7,北谷1-27-21,ゴルフドゥ！草加店北側[フェンス],35.8438091284103,139.786877681178,
埼玉県,草加市,34-1,西町470-4,川井マンション南側[フェンス],35.8298080228339,139.790493075506,
埼玉県,草加市,34-2,西町677,個人駐車場南側[フェンス],35.831061545596,139.788423832736,
埼玉県,草加市,34-3,西町729,masked,35.8317538995828,139.789726976414,
埼玉県,草加市,34-4,西町1005-1,フラワ-幼稚園南側[フェンス],35.8329570744026,139.789380538641,
埼玉県,草加市,34-5,苗塚町192-3,苗塚前公園西側[野立て],35.8325114540777,139.7856959762,
埼玉県,草加市,34-6,苗塚町192-3,苗塚前公園東側[野立て],35.8326507824084,139.786489942045,
埼玉県,草加市,34-7,苗塚町363,苗塚第2公園西側[フェンス],35.8346652854169,139.785696022957,
埼玉県,草加市,34-8,西町841ほか,西町第2ちびっ子広場南側[フェンス],35.8320835398229,139.788028418881,
埼玉県,草加市,35-1,長栄1-762,長栄小学校東側[フェンス],35.8580677222456,139.785102134265,
埼玉県,草加市,35-2,長栄1-762,長栄小学校北側[フェンス],35.8585290972601,139.78455510143,
埼玉県,草加市,35-3,長栄1-805,長栄町ふれあい広場入口[フェンス],35.8594911550883,139.786348374618,
埼玉県,草加市,35-4,長栄1-762,長栄小学校北側[フェンス],35.8586008453265,139.783487152761,
埼玉県,草加市,35-5,金明町1056-2,アパ-ト西側[フェンス],35.8560754859097,139.787471704306,
埼玉県,草加市,35-6,金明町1311-3,金明町グランドゴルフ場南側[フェンス],35.8593203742089,139.78929453815,
埼玉県,草加市,35-7,金明町1217-5,金明第5公園西側[フェンス],35.8584516193007,139.787114559561,
埼玉県,草加市,36-1,手代2-20-3,(手代町50-163)手代仲町児童遊園北側［フェンス］,35.8238366364414,139.815100092017,
埼玉県,草加市,36-2,手代1-19-1,(手代町160-7)中央ポンプ場西側公園入口際[フェンス],35.8251965857896,139.816870295926,
埼玉県,草加市,36-3,手代1-1-1,(手代町732-3)ランジュ草加南側(伝右川フェンス)[フェンス],35.8240818732091,139.813010521423,
埼玉県,草加市,36-4,手代1-29-3,masked,35.8257093535766,139.813129143334,
埼玉県,草加市,36-5,手代3-24,(手代町1038)手代東公園東側(フレンド駐車場)[フェンス],35.8223429215836,139.817682399782,
埼玉県,草加市,36-6,手代3-10,(手代町1026)手代南公園西側[野立て],35.8200243194161,139.814233239587,
埼玉県,草加市,36-7,手代3-19-47,(手代町1034-35)吉町浄水場第4水源池北側[フェンス],35.8221051162331,139.815392084414,
埼玉県,草加市,37-1,中根1-22-17,masked,35.8484849709042,139.805557626317,
埼玉県,草加市,37-2,中根1-28-13,日本化学産業㈱埼玉工場西側(綾瀬川際)[フェンス],35.8471522846086,139.803474045895,
埼玉県,草加市,37-3,中根2-13-10,中根町会館東側[フェンス],35.8477806131624,139.807443146499,
埼玉県,草加市,37-4,中根2-15-18,masked,35.848097164769,139.808289700201,
埼玉県,草加市,37-5,中根2-26,中根公園南側[野立て],35.8494494569512,139.807431829865,
埼玉県,草加市,37-6,松江1-19-10,松江第6公園南側[野立て],35.8444810764857,139.808182633467,
埼玉県,草加市,37-7,中根2-3-14,F-08号水路(グリ-ンコ-ポ草加松原前)[フェンス],35.8466164001854,139.80811198262,
埼玉県,草加市,37-8,八幡町30,昭和西川㈱第1工場南側[ブロック],35.8487287297991,139.808663877688,
埼玉県,草加市,38-1,氷川町255,masked,35.8219899253873,139.799173384222,
埼玉県,草加市,38-2,氷川町286,masked,35.8251663531656,139.799004468118,
埼玉県,草加市,38-3,氷川町448,氷川小学校東側[フェンス],35.8213516568374,139.796301885651,
埼玉県,草加市,38-4,氷川町568-1,氷川コミュニティセンタ-入口東側[野立て],35.8246576727304,139.795175146358,
埼玉県,草加市,38-5,氷川町470-22,氷川区画第2公園[フェンス],35.8245908094876,139.796278949124,
埼玉県,草加市,38-6,氷川町815,masked,35.8266843331785,139.797627932044,
埼玉県,草加市,38-7,氷川町1803,ひかわ保育園北側[フェンス],35.8212699350962,139.799512736018,
埼玉県,草加市,39-1,青柳7-20,青柳ささづか公園西側[フェンス],35.8562375258208,139.817483893724,
埼玉県,草加市,39-2,青柳7-27-10,川柳小学校北側[フェンス],35.8580359219583,139.820504422869,
埼玉県,草加市,39-3,青柳7-27-10,川柳小学校東側[フェンス],35.8572259024078,139.821846376117,
埼玉県,草加市,39-4,青柳7-69,市営総合運動場南東側[フェンス],35.8576569219851,139.825972654131,
埼玉県,草加市,39-5,青柳8-53-7,青柳ゴルフ練習場南側(水路フェンス)[フェンス],35.8590540166443,139.817977108473,
埼玉県,草加市,39-6,青柳5-45,葛西用水西側[フェンス],35.8585379,139.8148972,
埼玉県,草加市,39-7,青柳8-58-10,青柳中学校南側[フェンス],35.8597317581744,139.815416278418,
埼玉県,草加市,40-1,瀬崎1-6-27,masked,35.8157574321915,139.802125863962,
埼玉県,草加市,40-2,瀬崎2-32-1,瀬崎小学校東門際[フェンス],35.8154629497996,139.808182636775,
埼玉県,草加市,40-3,瀬崎2-32-1,瀬崎小学校正門西側[フェンス],35.8150148552783,139.806257844427,
埼玉県,草加市,40-4,瀬崎2-32-1,瀬崎小学校正門東側[フェンス],35.8149999926194,139.806668416349,
埼玉県,草加市,40-5,瀬崎2-47,瀬崎第6公園内南側[野立て],35.8127828948268,139.808168497793,
埼玉県,草加市,40-6,瀬崎5-3-1,瀬崎中学校東側[フェンス],35.8158545995432,139.811280721134,
埼玉県,草加市,40-7,瀬崎1-13-15,並木マンション西側(高架下フェンス)[フェンス],35.8173780180417,139.802517078026,
埼玉県,草加市,41-1,北谷2-23-23,草加健康センタ-西側駐車場[フェンス],35.8409113914801,139.780551603536,
埼玉県,草加市,41-2,北谷2-31-1,みのべ幼稚園北側[ブロック],35.8448475144869,139.780565285752,
埼玉県,草加市,41-3,北谷2-26,北谷第3児童遊園西側[フェンス],35.8423522288892,139.782494478107,
埼玉県,草加市,41-4,原町2-3,原第4公園南側[フェンス],35.8456124388836,139.775612323819,
埼玉県,草加市,41-5,原町1-6-1,原町コミュニティセンタ-東側[野立て],35.8462511136227,139.780100090432,
埼玉県,草加市,41-6,原町2-7-1,草加西高校南側[フェンス],35.8470160380194,139.773067431776,
埼玉県,草加市,41-7,原町1-13-3,県営草加原町団地南側[フェンス],35.8439637668829,139.779133213885,
埼玉県,草加市,41-8,原町3-6-18,㈲ﾏﾙﾏ梱包運輸草加営業所西側[フェンス],35.8487909596778,139.77662480775,
埼玉県,草加市,42-1,新栄1-49,新栄東公園西側[フェンス],35.8540418628625,139.77532595578,
埼玉県,草加市,42-2,新栄2-35,新栄中央公園南西側[野立て],35.8571538797488,139.768704156229,
埼玉県,草加市,42-3,新栄1-33,新栄中学校正門隣[フェンス],35.8565672847917,139.772890799757,
埼玉県,草加市,42-4,新栄1-18,新栄道下公園南東側[野立て],35.854977413729,139.77075496535,
埼玉県,草加市,42-5,新栄2-28-8,masked,35.8589285151254,139.769479460586,
埼玉県,草加市,42-6,長栄3-12,長栄中央公園南側[野立て],35.8587131827994,139.775709259127,
埼玉県,草加市,42-7,長栄4-17-3,masked,35.8594705585668,139.770966220706,
埼玉県,草加市,42-8,新栄1-33,新栄中学校西側[フェンス],35.8560844798835,139.772325940122,
埼玉県,草加市,43-1,旭町4-3-22,新田高架下広場公園北側(高架下フェンス)[フェンス],35.8487928905209,139.797824470675,
埼玉県,草加市,43-2,旭町4-10-15,masked,35.8527510284343,139.795893630487,
埼玉県,草加市,43-3,旭町5-1-3,masked,35.8470744589789,139.7955893223,
埼玉県,草加市,43-4,旭町4-2-27,新田高架下広場公園南西側(高架下フェンス)[フェンス],35.8482087218188,139.798054541997,
埼玉県,草加市,43-5,旭町6-13-20,勤労福祉会館東側[フェンス],35.8514926522953,139.792446756863,
埼玉県,草加市,43-6,旭町6-14-2,あさひ保育園東側[フェンス],35.8513780705546,139.793453873663,
埼玉県,草加市,43-7,旭町6-13-22,日商マンション北側[フェンス],35.8521538962148,139.792592772736,
埼玉県,草加市,44-1,両新田西町55,両新田小学校正門際[フェンス],35.8106757783967,139.785303627061,
埼玉県,草加市,44-2,両新田西町55,両新田小学校西門際[フェンス],35.8109506122649,139.784528515638,
埼玉県,草加市,44-3,両新田西町248,masked,35.8145086842617,139.783384027107,
埼玉県,草加市,44-4,両新田東町13-1,両新田東公園東側[フェンス],35.8097621414833,139.787282440928,
埼玉県,草加市,44-5,両新田西町368-1,両新田中学校北西側[フェンス],35.8157310553356,139.785465207442,
埼玉県,草加市,44-6,新里町128,新里第3公園北側[フェンス],35.809390744364,139.78224877616,
埼玉県,草加市,44-7,新里町106-6,高年者福祉センタ-「ふれあいの里」南側[フェンス],35.8091381943229,139.782659129266,
埼玉県,草加市,45-1,谷塚1-26-14,谷塚第4公園南側[野立て],35.809947828304,139.799271003004,
埼玉県,草加市,45-2,谷塚1-22-17,あんしんホ-ム草加西側[フェンス],35.8096580917972,139.801049453382,
埼玉県,草加市,45-3,谷塚2-18,谷塚西沼田公園北側[フェンス],35.8077265150851,139.797985046577,
埼玉県,草加市,45-4,谷塚2-9-15,谷塚南ﾐﾆｺﾐｭﾆﾃｨｾﾝﾀｰ向側[フェンス],35.808573437182,139.797428710817,
埼玉県,草加市,45-5,谷塚2-12-15,鳳永病院(東武高架フェンス)西側[フェンス],35.8100072614336,139.798103609935,
埼玉県,草加市,45-6,谷塚2-28,谷塚南公園北側[フェンス],35.8057429343847,139.795987709998,
埼玉県,草加市,45-7,谷塚1-19-7,谷塚第10公園西側[フェンス],35.8105495887412,139.801250099066,
埼玉県,草加市,46-1,柳島町66,草加南高等学校[フェンス],35.8195159988889,139.789360054415,
埼玉県,草加市,46-2,谷塚上町62,谷塚中学校北門入口際[ブロック],35.8176878946345,139.78955350849,
埼玉県,草加市,46-3,柳島町130,やなぎしま保育園正門入口際[フェンス],35.8199226645671,139.786488958555,
埼玉県,草加市,46-4,柳島町157-1,県立草加南高校ｸﾞﾗﾝﾄﾞ北側(辰井川東側フェンス)[フェンス],35.8202940156782,139.788285430093,
埼玉県,草加市,46-5,柳島町277,masked,35.8227820675923,139.788768885003,
埼玉県,草加市,46-6,柳島町344,柳島一の橋東側(辰井川フェンス)[フェンス],35.8234846687364,139.787332548592,
埼玉県,草加市,46-7,柳島町525-6,柳島第2公園入口(草加ｽｶｲﾊｲﾂ南側)[フェンス],35.8227226514362,139.784856664715,
埼玉県,草加市,47-1,八幡町1356-2,masked,35.8525253815628,139.808312515901,
埼玉県,草加市,47-2,八幡町473,やはた保育園北側[フェンス],35.8522653418192,139.80603094586,
埼玉県,草加市,47-3,八幡町594-3,八幡第4公園[フェンス],35.852042705694,139.802422678892,
埼玉県,草加市,47-4,八幡町611,総合デリバリ-㈱新田センタ-東側入口[フェンス],35.8522950251508,139.802786207238,
埼玉県,草加市,47-5,八幡町632,槐戸橋東側(水路フェンス)[フェンス],35.8536769861417,139.801476932056,
埼玉県,草加市,47-6,八幡町786,masked,35.8550031242767,139.805959741445,
埼玉県,草加市,47-7,八幡町802,(有)井戸浅水道工事店東側[フェンス],35.8544645350796,139.803475587413,
埼玉県,草加市,48-1,小山1-9-1,masked,35.8376435129127,139.785577493227,
埼玉県,草加市,48-2,小山1-18-15,こやま保育園東側(山田㈱前)[フェンス],35.8378069070375,139.784209290135,
埼玉県,草加市,48-3,小山1-20-2,masked,35.8373315789436,139.783835326664,
埼玉県,草加市,48-4,小山2-8,小山小学校北東側[フェンス],35.83802229008,139.780013602416,
埼玉県,草加市,48-5,小山2-8,小山小学校正門際(南側)[フェンス],35.8373018709377,139.78015041832,
埼玉県,草加市,48-6,小山2-10-15,個人南側(水路フェンス)[フェンス],35.8367745538335,139.781773967046,
埼玉県,草加市,48-7,北谷2-3-31,masked,35.84125303334,139.782868458658,
埼玉県,草加市,49-1,稲荷5-9,稲荷上根公園南側［野立て］,35.8371112527334,139.823193862442,
埼玉県,草加市,49-2,稲荷4-14,明学院南側[フェンス],35.83518440957,139.824027769398,
埼玉県,草加市,49-3,稲荷4-25-1,稲荷北公園南側[野立て],35.8356823133119,139.825770917531,
埼玉県,草加市,49-4,稲荷5-11-1,稲荷小学校南側[フェンス],35.837190887336,139.821609265443,
埼玉県,草加市,49-5,稲荷5-11-1,稲荷小学校東側[フェンス],35.8382904033182,139.822023765465,
埼玉県,草加市,49-6,稲荷5-14,工業団地公園東側[野立て],35.8389967167086,139.820660033095,
埼玉県,草加市,49-7,稲荷6-7,稲荷公園南側[野立て],35.8355931416067,139.829270817103,
埼玉県,草加市,50-1,青柳2-5,青柳公園東側[フェンス],35.8450825468464,139.826015561691,
埼玉県,草加市,50-2,青柳2-7-1,共同組合東部給食センタ-西側植栽地［野立て］,35.8440277694015,139.820742094833,
埼玉県,草加市,50-3,青柳2-16-18,草加煎餅まるそう一福西側(駐車場フェンス)[フェンス],35.8476022667368,139.822448890434,
埼玉県,草加市,50-4,青柳2-27-26,水門南側[フェンス],35.8496756226829,139.823544237252,
埼玉県,草加市,50-5,青柳3-3-1,㈲オガワ電機製作所西側［フェンス］,35.8448229284107,139.826300772967,
埼玉県,草加市,50-6,青柳3-11,青柳東公園西側[フェンス],35.8463017741408,139.829303780181,
埼玉県,草加市,50-7,青柳3-17,なかよしはし西側[フェンス],35.8470449129878,139.824949932335,
