prefecture,city,number,address,name,lat,long,note
埼玉県,越谷市,1-1,大里751-1,masked,35.9209311,139.7819084,
埼玉県,越谷市,1-2,大里489-5,NTT東日本越谷大里ビルフェンス,35.9179443,139.7810913,
埼玉県,越谷市,1-3,大里296地先,大里第二公園向い水路フェンス,35.9191665,139.7832352,
埼玉県,越谷市,1-4,下間久里1135-1地先,メイツ越谷先線路沿い公園,35.9199841,139.7793528,
埼玉県,越谷市,1-5,大里208-1地先,四季の里向かい水路フェンス,35.9171974,139.7848156,
埼玉県,越谷市,1-6,大里554地先,和食レストラン夢庵裏側 側道,35.9213524,139.783677,
埼玉県,越谷市,1-7,大里638-18地先,サイゼリア越谷大里店 南側水路フェンス,35.919101,139.7824174,
埼玉県,越谷市,2-1,下間久里792-1,桜井地区センター駐車場,35.9296811,139.7853808,
埼玉県,越谷市,2-2,下間久里1325,松崎紙工(株)塀,35.9263514,139.7807891,
埼玉県,越谷市,2-3,上間久里63-1,県営間久里団地北側道路フェンス,35.9304895,139.7821177,
埼玉県,越谷市,2-4,上間久里228-6,上間久里ポンプ場フェンス,35.9327306,139.7875821,
埼玉県,越谷市,2-5,上間久里158-4地先,東電大袋変電所東側 遊水池北側フェンス,35.9301303,139.7845594,
埼玉県,越谷市,2-6,下間久里1006-11,アイビーボウル南側フェンス,35.9282727,139.7809591,
埼玉県,越谷市,2-7,大里712-1,太田新聞店隣稲荷神社塀,35.9235479,139.781923,
埼玉県,越谷市,3-1,下間久里226,桜井南小学校南側フェンス,35.9239731,139.7849345,
埼玉県,越谷市,3-2,下間久里487-17地先,東都自治会児童公園西側フェンス,35.9270473,139.7869544,
埼玉県,越谷市,3-3,下間久里226,桜井南小学校西側フェンス,35.9250244,139.7857981,
埼玉県,越谷市,3-4,下間久里226,桜井南小学校北側フェンス,35.9248984,139.7862327,
埼玉県,越谷市,3-5,下間久里318-1,深田保育所西側フェンス,35.9249807,139.7882899,
埼玉県,越谷市,3-6,下間久里365地先,石井酒店向かい駐車場フェンス,35.9266369,139.7891213,
埼玉県,越谷市,3-7,下間久里226,桜井南小学校東側フェンス,35.9240991,139.7871232,
埼玉県,越谷市,4-1,大泊1140,桜井小学校北側フェンス,35.9397563,139.7835436,
埼玉県,越谷市,4-2,大泊500-1,越谷北高等学校北側フェンス,35.9376849,139.789027,
埼玉県,越谷市,4-3,大泊795-6地先,新方川・念仏橋際ガードレール,35.9364615,139.781911,
埼玉県,越谷市,4-4,大泊730-2,桜井交流館フェンス,35.9384343,139.7839837,
埼玉県,越谷市,4-5,大泊885,masked,35.9384759,139.7856247,
埼玉県,越谷市,4-6,大泊611-50地先,大泊児童遊園フェンス,35.9355053,139.7856314,
埼玉県,越谷市,4-7,上間久里214-5,塚田ポンプ場フェンス,35.9337548,139.7877192,
埼玉県,越谷市,5-1,平方1349,桜井保育所西側フェンス,35.9415353,139.7891803,
埼玉県,越谷市,5-2,平方南町16地先,沼田第二公園西側植え込み,35.9418672,139.7834187,
埼玉県,越谷市,5-3,平方1257,masked,35.9437917,139.7904858,
埼玉県,越谷市,5-4,平方2152-1,masked,35.9441947,139.7925278,
埼玉県,越谷市,5-5,大泊347,masked,35.9400183,139.7886946,
埼玉県,越谷市,5-6,大泊16,masked,35.94074,139.7868411,
埼玉県,越谷市,5-7,平方1435-2地先,平方児童遊園フェンス,35.9426543,139.7870811,
埼玉県,越谷市,6-1,平方2784,平方小学校南門フェンス,35.9465326,139.7852039,
埼玉県,越谷市,6-2,平方336,masked,35.9533619,139.7806522,
埼玉県,越谷市,6-3,平方2784,平方小学校北側フェンス,35.947742,139.7843966,
埼玉県,越谷市,6-4,平方2115,平方中学校東側フェンス,35.9475664,139.7901475,
埼玉県,越谷市,6-5,平方2402,平方公園,35.9504082,139.7855925,
埼玉県,越谷市,6-6,平方1762,masked,35.9454126,139.7770503,
埼玉県,越谷市,6-7,平方1834-40,埼玉東部ヤクルト販売(株)平方センターフェンス,35.9429316,139.7859851,
埼玉県,越谷市,6-8,平方3604地先,浅間神社前公園フェンス,35.950248,139.7834143,
埼玉県,越谷市,7-1,弥十郎664-1,弥十郎第二自治会集会所フェンス,35.922287,139.7911589,
埼玉県,越谷市,7-2,弥十郎118,masked,35.9209448,139.7887255,
埼玉県,越谷市,7-3,弥十郎502-1,ヤマト運輸越谷弥十郎営業所西側フェンス,35.9183064,139.7931528,
埼玉県,越谷市,7-4,弥十郎375,明光サッカースクール越谷インドア校東側フェンス,35.921291,139.7938745,
埼玉県,越谷市,7-5,弥十郎770地先,弥十郎ふれあい公園 北側(道路側)フェンス,35.9190087,139.7914169,
埼玉県,越谷市,7-6,弥十郎514地先,弥十郎第二公園北側植え込み,35.9193897,139.7933785,
埼玉県,越谷市,7-7,大沢1664-7地先,masked,35.9161989,139.79314,
埼玉県,越谷市,8-1,大吉464-1,新方地区センター向かい道路フェンス,35.9205058,139.7995175,
埼玉県,越谷市,8-2,向畑449-1,masked,35.9252366,139.8024528,
埼玉県,越谷市,8-3,向畑249-1地先,masked,35.9243399,139.7984401,
埼玉県,越谷市,8-4,大吉1045,masked,35.9218603,139.8036177,
埼玉県,越谷市,8-5,大吉601-1地先,古利根堰管理所フェンス,35.9187298,139.8041792,
埼玉県,越谷市,9-1,北川崎178,新方小学校西側フェンス,35.9314128,139.8094183,
埼玉県,越谷市,9-2,向畑684,masked,35.9269346,139.8077657,
埼玉県,越谷市,9-3,北川崎107,川崎神社フェンス,35.9324627,139.8119878,
埼玉県,越谷市,9-4,向畑969,masked,35.9304096,139.8149543,
埼玉県,越谷市,9-5,大杉470,第二学校給食センター南側フェンス,35.9318193,139.7993199,
埼玉県,越谷市,9-6,船渡500,埼玉県立越谷特別支援学校南側フェンス,35.9317651,139.7948203,
埼玉県,越谷市,9-7,大杉628-1地先,大杉橋たもと 歩道フェンス,35.9281675,139.7946561,
埼玉県,越谷市,10-1,船渡1871,船渡下手組センター地内南側,35.9408291,139.8012509,
埼玉県,越谷市,10-2,船渡1702-3,masked,35.9380185,139.8081416,
埼玉県,越谷市,10-3,船渡1788-3,masked,35.9394228,139.803752,
埼玉県,越谷市,10-4,船渡2095,masked,35.9405599,139.7966519,
埼玉県,越谷市,10-5,船渡167-1地先,masked,35.9376223,139.7932409,
埼玉県,越谷市,11-1,弥栄町2-545-4,弥栄会館前公園内フェンス,35.9182058,139.7969796,
埼玉県,越谷市,11-2,弥栄町1-105-10地先,弥栄町一丁目公園北側フェンス,35.9165729,139.7957672,
埼玉県,越谷市,11-3,弥十郎554-1,マミーマート北側駐車場,35.918553,139.7953283,
埼玉県,越谷市,11-4,弥栄町1-172-40地先,masked,35.9140871,139.8003461,
埼玉県,越谷市,11-5,弥栄町3-52-126地先,お馬公園 東側フェンス,35.9221545,139.7973824,
埼玉県,越谷市,11-6,弥十郎591地先,御料橋バス停沿い道路フェンス,35.9173249,139.7976042,
埼玉県,越谷市,11-7,弥栄町4-1-118地先,弥栄町四丁目公園西側フェンス,35.9261008,139.7948883,
埼玉県,越谷市,12-1,東越谷6-1040,東越谷小学校東側フェンス,35.8996467,139.7995039,
埼玉県,越谷市,12-2,東越谷6-1040,東越谷小学校西側フェンス,35.8992665,139.798144,
埼玉県,越谷市,12-3,東越谷10-32,市立病院バス停付近芝生,35.8974101,139.8062905,
埼玉県,越谷市,12-4,増林6066-1,城ノ上小学校南側フェンス,35.8998964,139.8066889,
埼玉県,越谷市,12-5,東越谷4-2,(株)ウェルシウア東越谷三丁目店駐車場東側フェンス,35.8973957,139.7975864,
埼玉県,越谷市,12-6,花田7-9-19地先,田んぼフェンス,35.9025202,139.807767,
埼玉県,越谷市,12-7,東越谷10-31,越谷市保健所西側フェンス,35.8985822,139.8066126,
埼玉県,越谷市,12-8,東越谷10-20,東越谷十丁目2010公園(にっこにこ公園)北側植え込み,35.8998904,139.8046948,
埼玉県,越谷市,13-1,増林2-512地先,増林小学校西側フェンス,35.908299,139.8171797,
埼玉県,越谷市,13-2,増林3-4-1,増林地区センター北側フェンス,35.9016839,139.820949,
埼玉県,越谷市,13-3,増林3-1,市民球場正面交差点付近植込み,35.9040014,139.8161567,
埼玉県,越谷市,13-4,増林3890-1,元榎本巨峰園跡地フェンス,35.9121877,139.8147048,
埼玉県,越谷市,13-5,増林2-33,総合体育館西側緑地帯,35.9041236,139.8133317,
埼玉県,越谷市,13-6,増林6793-13地先,新方橋バス停沿い逆川フェンス,35.917202,139.8040001,
埼玉県,越谷市,13-7,増林4238,masked,35.9078321,139.8216934,
埼玉県,越谷市,14-1,東越谷8-41-1,増林保育所入口フェンス,35.8929439,139.8045388,
埼玉県,越谷市,14-2,東越谷9-2-9,さいたま地方法務局越谷支局東側フェンス,35.8962531,139.8081321,
埼玉県,越谷市,14-3,東越谷8-19,東越谷八丁目いちょう公園南側フェンス,35.8951121,139.8062028,
埼玉県,越谷市,14-4,増林5670-1,越谷東高等学校北側フェンス,35.8942639,139.8121576,
埼玉県,越谷市,14-5,東越谷9-3160,東中学校西側交差点付近フェンス,35.8931128,139.8098029,
埼玉県,越谷市,14-6,東越谷7-13,東越谷七丁目みどりの公園西側フェンス,35.8934434,139.801672,
埼玉県,越谷市,14-7,東越谷9-8-1地先,東越谷九丁目公園南側フェンス,35.8963893,139.8088965,
埼玉県,越谷市,14-8,増林5857-1,児童発達支援センターフェンス,35.8989914,139.8099667,
埼玉県,越谷市,15-1,増森2-40-1,増森新田センター東側,35.8966801,139.8246248,
埼玉県,越谷市,15-2,増森234,masked,35.89512,139.8158563,
埼玉県,越谷市,15-3,増森1726-1地先,増森本田自治会前フェンス,35.9034059,139.8313066,
埼玉県,越谷市,15-4,増森1-5,動物管理センター 道路側植込み,35.8995966,139.8195578,
埼玉県,越谷市,15-5,増森2-154-3地先,masked,35.8993265,139.827616,
埼玉県,越谷市,15-6,増森2232地先,県道平方・東京線東側フェンス,35.8936774,139.8289772,
埼玉県,越谷市,15-7,中島2-59地先,masked,35.8912844,139.8340427,
埼玉県,越谷市,16-1,東越谷3-10-7,東小林記念会館西側フェンス,35.8936111,139.796743,
埼玉県,越谷市,16-2,東越谷1-5-6,ビジネスサポートセンター(旧 産業雇用支援センター)南側フェンス,35.8916639,139.7940811,
埼玉県,越谷市,16-3,東越谷2-4-6地先,ハローワーク越谷第2駐車場(庁用車駐車場フェンス),35.8905839,139.7947344,
埼玉県,越谷市,16-4,東越谷2-5,東越谷第一公園北側植込み,35.890659,139.7958626,
埼玉県,越谷市,16-5,東越谷2-13,東越谷第一ポンプ場東側フェンス,35.8902742,139.7997158,
埼玉県,越谷市,16-6,東越谷3-16-2,マツヤデンキ駐車場西側フェンス,35.8962667,139.7970924,
埼玉県,越谷市,16-7,東越谷2-21-4,masked,35.8921939,139.7972062,
埼玉県,越谷市,17-1,恩間150-3,大袋保育所北側フェンス,35.9237294,139.7717792,
埼玉県,越谷市,17-2,恩間402-1,埼玉県越谷児童相談所西側フェンス,35.924678,139.7696056,
埼玉県,越谷市,17-3,恩間181-1地先,北部市民会館正面玄関及び第二駐車場植え込み,35.9240486,139.7730188,
埼玉県,越谷市,17-4,袋山1690,masked,35.9196891,139.7762745,
埼玉県,越谷市,17-5,袋山207-3,masked,35.9220587,139.7744254,
埼玉県,越谷市,17-6,袋山1421地先,大袋駅西口第一駐輪場沿い東武線石柱,35.922807,139.7782732,
埼玉県,越谷市,17-7,恩間89-1地先,墓地南側塀,35.9224405,139.7713135,
埼玉県,越谷市,18-1,大竹147,大袋小学校東側フェンス,35.9208411,139.7696514,
埼玉県,越谷市,18-2,恩間433-4地先,児童相談所入口バス停より30m西側,35.9236324,139.7685497,
埼玉県,越谷市,18-3,袋山186,masked,35.9202675,139.7733687,
埼玉県,越谷市,18-4,大竹822地先,武藤学園大袋幼稚園別棟 側溝道路パイプ,35.9248437,139.7654909,
埼玉県,越谷市,18-5,大竹595-1地先,大竹西バス停付近 造成中幹線道路,35.9233463,139.7648927,
埼玉県,越谷市,18-6,袋山1750,大袋東小学校東側フェンス,35.9174763,139.7748897,
埼玉県,越谷市,18-7,袋山1750,大袋東小学校西側フェンス,35.9181866,139.7740233,
埼玉県,越谷市,19-1,大竹195,masked,35.9188464,139.7669688,
埼玉県,越谷市,19-2,南荻島4111-1,貸しレンタルボックス西側フェンス,35.91628,139.7714924,
埼玉県,越谷市,19-3,南荻島4216-9,竹ノ内駐車場フェンス,35.9171805,139.771814,
埼玉県,越谷市,19-4,大竹597地先,西大袋第五公園北側フェンス,35.9224188,139.7643026,
埼玉県,越谷市,19-5,南荻島4300,masked,35.9169288,139.7684081,
埼玉県,越谷市,19-6,南荻島4336-5地先,ぶどうぞの幼稚園北側駐車場紅白ポール,35.9190248,139.7680383,
埼玉県,越谷市,19-7,大竹236,大袋中学校西側フェンス,35.9194332,139.7627151,
埼玉県,越谷市,20-1,大道93-3地先,西大袋第九公園南側フェンス,35.9210514,139.7594272,
埼玉県,越谷市,20-2,三野宮619-3,県道大野島越谷線一乗院入口前フェンス,35.9241236,139.7551278,
埼玉県,越谷市,20-3,三野宮255,masked,35.9273241,139.7522726,
埼玉県,越谷市,20-4,大道623地先,西大袋土地区画整理地内調整池北側フェンス,35.9242934,139.7607283,
埼玉県,越谷市,20-5,大道657-2地先,西大袋土地区画整理地内調整池西側フェンス,35.923073,139.7601636,
埼玉県,越谷市,20-6,大道362,大袋分署北側植込み,35.9179138,139.7617866,
埼玉県,越谷市,20-7,大道749地先,西大袋第三公園フェンス,35.9264274,139.7591623,
埼玉県,越谷市,21-1,袋山323,masked,35.9267753,139.7741292,
埼玉県,越谷市,21-2,恩間394-1,駐車場北側フェンス,35.9281465,139.7702849,
埼玉県,越谷市,21-3,袋山299-1,masked,35.9244684,139.7739744,
埼玉県,越谷市,21-4,袋山1352,masked,35.9249843,139.7744882,
埼玉県,越谷市,21-5,袋山589,masked,35.9280722,139.772485,
埼玉県,越谷市,21-6,袋山810地先,北中学校西側踏切東武線西側石柱,35.9291694,139.7764143,
埼玉県,越谷市,21-7,袋山1347地先,大袋駅西側ロータリーロータリー植え込み,35.9240207,139.7775561,
埼玉県,越谷市,22-1,袋山515,大袋北小学校北側フェンス,35.9315478,139.7725429,
埼玉県,越谷市,22-2,袋山515,大袋北小学校南側フェンス,35.9301796,139.7721888,
埼玉県,越谷市,22-3,袋山475-3,大袋北保育所西側フェンス,35.9287944,139.7714965,
埼玉県,越谷市,22-4,千間台西1-67地先,せんげん台駅西口前ガードレール,35.9357289,139.7739569,
埼玉県,越谷市,22-5,千間台西1-2-1地先,インドアテニススクールせんげん台向かい東武線ガード,35.9347994,139.7746489,
埼玉県,越谷市,22-6,千間台西1-24-1地先,リバーサイドテラス1番館前水路フェンス,35.9377385,139.7701054,
埼玉県,越谷市,22-7,千間台西2-15地先,千間台第三公園西側フェンス,35.9325319,139.7686144,
埼玉県,越谷市,22-8,袋山560地先,順天堂越谷病院向い東武鉄道線路沿い石柱,35.9320303,139.7755469,
埼玉県,越谷市,23-1,袋山870,北中学校北側フェンス,35.9295063,139.7781455,
埼玉県,越谷市,23-2,袋山870,北中学校西側フェンス,35.92839,139.7777029,
埼玉県,越谷市,23-3,袋山2045-1地先,大袋駅南側踏切沿い東武線ガード,35.9231382,139.7783174,
埼玉県,越谷市,23-4,袋山731―2地先,masked,35.9319073,139.7757296,
埼玉県,越谷市,23-5,袋山1118-2地先,大袋駅前フェンス,35.92354,139.7783635,
埼玉県,越谷市,23-6,袋山843-3,ハイツせんげん台東側フェンス,35.9299663,139.7792495,
埼玉県,越谷市,23-7,袋山1128-2地先,大袋駅北側フェンス,35.9253507,139.7777373,
埼玉県,越谷市,24-1,大林298-1地先,大林会館向かい瀬尾第2駐車場フェンス,35.9134852,139.7771198,
埼玉県,越谷市,24-2,北越谷5-5-7地先,宝性院駐車場前東武線フェンス,35.9074633,139.7797415,
埼玉県,越谷市,24-3,大林669,masked,35.9113246,139.7787098,
埼玉県,越谷市,24-4,大林383-2,masked,35.9140157,139.7787929,
埼玉県,越谷市,24-5,大林206-3,梅林公園駐車場植込み,35.9127697,139.7747311,
埼玉県,越谷市,24-6,南荻島4013-8,外野合ポンプ場北側フェンス,35.9141243,139.7726775,
埼玉県,越谷市,24-7,袋山2005地先,袋山第一ふれあい公園北側フェンス,35.9194515,139.7786402,
埼玉県,越谷市,25-1,大林580,大沢北小学校北側フェンス,35.9161097,139.7875487,
埼玉県,越谷市,25-2,大林580,大沢北小学校東側フェンス,35.9162834,139.7887047,
埼玉県,越谷市,25-3,大林580,大沢北小学校南側フェンス,35.9149366,139.7882032,
埼玉県,越谷市,25-4,大林457-31地先,大林新生若草公園南側フェンス,35.9148684,139.7842329,
埼玉県,越谷市,25-5,大沢1588-9地先,masked,35.9147761,139.7909506,
埼玉県,越谷市,25-6,大里122-2,masked,35.9183809,139.7878105,
埼玉県,越谷市,25-7,大里326-1地先,大沢北交流館植込み,35.9162201,139.784995,
埼玉県,越谷市,26-1,小曽川431地先,県道越谷岩槻線小曽川集会所前西高入口バス停沿いフェンス,35.9207075,139.7496245,
埼玉県,越谷市,26-2,野島330地先,県道越谷岩槻線鴨なべ京や向かい水路フェンス,35.9216138,139.7487896,
埼玉県,越谷市,26-3,野島183,masked,35.9235855,139.7503894,
埼玉県,越谷市,26-4,小曽川213-1地先,県道越谷岩槻線しらこばと水上公園入口バス停沿いフェンス,35.9180391,139.7546889,
埼玉県,越谷市,26-5,砂原718地先,県道越谷岩槻線砂原土手バス停沿いフェンス,35.9166524,139.758689,
埼玉県,越谷市,27-1,南荻島190-1,荻島地区センター植込み,35.9069384,139.7658213,
埼玉県,越谷市,27-2,南荻島902,荻島小学校東側フェンス(体育館前),35.9056293,139.7660822,
埼玉県,越谷市,27-3,南荻島883-1,味の素食品(株)埼玉工場東側フェンス,35.9079401,139.7652666,
埼玉県,越谷市,27-4,砂原520,第三学校給食センターフェンス,35.9112742,139.7585801,
埼玉県,越谷市,27-5,南荻島2820,(株)山本製線所塀,35.9155349,139.7677514,
埼玉県,越谷市,27-6,南荻島1507,masked,35.9071856,139.7627011,
埼玉県,越谷市,27-7,南荻島1498,masked,35.9060548,139.7638604,
埼玉県,越谷市,28-1,南荻島3539-2,出津第二ふれあい公園フェンス,35.9084617,139.7730897,
埼玉県,越谷市,28-2,南荻島3337,文教大学北側フェンス,35.9055693,139.7750909,
埼玉県,越谷市,28-3,南荻島3337-1地先,文教大学南側元荒川土手フェンス,35.9042853,139.7748642,
埼玉県,越谷市,28-4,南荻島86,masked,35.9039065,139.7687898,
埼玉県,越谷市,28-5,南荻島365,masked,35.9091084,139.7697865,
埼玉県,越谷市,28-6,南荻島3337,文教大学サブグラウンド西側フェンス,35.9055606,139.7707283,
埼玉県,越谷市,28-7,南荻島610-1,左敷田ポンプ場北側フェンス,35.9116153,139.7716193,
埼玉県,越谷市,29-1,西新井314,荻島南部地区自治会館敷地,35.8898571,139.7579706,
埼玉県,越谷市,29-2,西新井478地先,西教院向かい国道フェンス,35.8934867,139.7554353,
埼玉県,越谷市,29-3,長島249,masked,35.886363,139.7487727,
埼玉県,越谷市,29-4,西新井916,masked,35.8945884,139.7509013,
埼玉県,越谷市,29-5,西新井850-1,埼玉県立越谷西特別支援学校フェンス,35.8886173,139.7527494,
埼玉県,越谷市,29-6,西新井1123-1地先,国道463号 TAX(自動車整備工場)手前水路フェンス,35.8938152,139.7494726,
埼玉県,越谷市,29-7,北後谷201,西部配水場フェンス,35.8831612,139.7627369,
埼玉県,越谷市,30-1,宮本町2-149,masked,35.8918139,139.7792818,
埼玉県,越谷市,30-2,宮本町2-196,masked,35.8932779,139.7789316,
埼玉県,越谷市,30-3,宮本町2-243地先,東京電力(株)越谷宮本変電所西側フェンス,35.8929643,139.774351,
埼玉県,越谷市,30-4,宮本町2-175,masked,35.8913135,139.7772782,
埼玉県,越谷市,30-5,宮本町1-66-4地先,越谷ニューライフ付近東武線フェンス,35.8927089,139.7837608,
埼玉県,越谷市,30-6,宮本町1-1-11地先,ビラ桜付近東武線フェンス,35.8945475,139.7828657,
埼玉県,越谷市,30-7,宮本町2-277,masked,35.8926488,139.777475,
埼玉県,越谷市,31-1,宮本町3-108,宮三児童公園東側フェンス,35.8887106,139.7778519,
埼玉県,越谷市,31-2,宮本町4-1,鈴木組資材置場 北側植込塀,35.8855305,139.77689,
埼玉県,越谷市,31-3,赤山町3-274地先,masked,35.8814965,139.7764184,
埼玉県,越谷市,31-4,宮本町4-39-1地先,スポーツショップオオツカ東側付近水路フェンス,35.8855659,139.7749311,
埼玉県,越谷市,31-5,宮本町4-57-9地先,宮本町四丁目自治会館付近水路フェンス,35.8831506,139.7757723,
埼玉県,越谷市,31-6,宮本町3-1-1地先,越谷第二ポンプ場入り口付近植え込み,35.8906689,139.7802816,
埼玉県,越谷市,31-7,赤山町2-146-6地先,赤山第二公園 北側植込み,35.8852912,139.7803114,
埼玉県,越谷市,31-8,赤山町3-110,赤山町三丁目ふれあい公園フェンス,35.8831462,139.7787389,
埼玉県,越谷市,32-1,宮本町5-85,宮本小学校北門フェンス,35.8908979,139.7738953,
埼玉県,越谷市,32-2,宮本町5-85,宮本小学校南門フェンス,35.8895463,139.7735248,
埼玉県,越谷市,32-3,宮本町5-130-1,ロヂャース越谷店第5駐車場北側フェンス,35.887083,139.7730196,
埼玉県,越谷市,32-4,宮本町5-53,ジョイパーク西側フェンス,35.8918414,139.7732435,
埼玉県,越谷市,32-5,宮本町5-219-18,宮本町五丁目北自治会館隣公園フェンス,35.89246,139.7711742,
埼玉県,越谷市,32-6,宮本町5-250-1,宮本保育所フェンス,35.8912369,139.7711543,
埼玉県,越谷市,32-7,宮本町5-136-18地先,masked,35.8881802,139.7738153,
埼玉県,越谷市,33-1,神明町1-56,神明町一丁目自治会集会所フェンス,35.8958438,139.7748446,
埼玉県,越谷市,33-2,神明町1-84地先,会田家歴代の墓所前空地,35.8972805,139.772622,
埼玉県,越谷市,33-3,神明町2-213地先,神明橋西側県道路フェンス,35.8983403,139.7711878,
埼玉県,越谷市,33-4,神明町2-320,masked,35.9012,139.7695261,
埼玉県,越谷市,33-5,神明町1-118,masked,35.8953333,139.7736361,
埼玉県,越谷市,33-6,神明町2-241,masked,35.8981152,139.7698552,
埼玉県,越谷市,33-7,神明町2-344-1,神明町二丁目ふれあい公園隣駐車場フェンス,35.8995122,139.7684721,
埼玉県,越谷市,34-1,神明町2-385,西中学校西側フェンス,35.8974093,139.7649547,
埼玉県,越谷市,34-2,神明町3-246-3,こばとの里こども園西側フェンス,35.8939837,139.7643912,
埼玉県,越谷市,34-3,神明町3-121地先,エムラインシステム(株)駐車場フェンス,35.8928162,139.7673557,
埼玉県,越谷市,34-4,神明町3-176,神明苑東側フェンス,35.8919338,139.765638,
埼玉県,越谷市,34-5,神明町3-406地先,国道463号線沿い東武環境センター(株)北側国道フェンス,35.8977206,139.7621198,
埼玉県,越谷市,34-6,神明町3-390-2,大西物流(株)倉庫フェンス,35.8960745,139.7643342,
埼玉県,越谷市,34-7,南荻島1409,シマムラ園芸温室前フェンス,35.9021257,139.7643014,
埼玉県,越谷市,35-1,七左町4-248-1,出羽地区センター体育館側植込み,35.8736257,139.7679018,
埼玉県,越谷市,35-2,新川町2-378,三星化学工業(株)埼玉工場塀,35.8763561,139.7589402,
埼玉県,越谷市,35-3,大間野町4-357,masked,35.8678967,139.7730122,
埼玉県,越谷市,35-4,新川町1-198,masked,35.8750528,139.7611708,
埼玉県,越谷市,35-5,谷中町3-100-1,越谷総合技術高校東側フェンス,35.884442,139.7701718,
埼玉県,越谷市,35-6,谷中町3-28,masked,35.88638,139.7714114,
埼玉県,越谷市,35-7,谷中町2-69,出羽小学校北側植込み,35.8803205,139.7735673,
埼玉県,越谷市,35-8,谷中町2-69,出羽小学校南側フェンス,35.8794958,139.7727244,
埼玉県,越谷市,36-1,大間野町2-115,大間野小学校南側フェンス,35.865248,139.7835289,
埼玉県,越谷市,36-2,大間野町2-115,大間野小学校北側フェンス,35.8663815,139.7841264,
埼玉県,越谷市,36-3,大間野町1-100,masked,35.863531,139.7819109,
埼玉県,越谷市,36-4,大間野町1-84地先,大間野町一丁目自治会館付近水路フェンス,35.8622646,139.7821613,
埼玉県,越谷市,36-5,七左町1-184地先,七左保育所前水路フェンス,35.8683706,139.7833477,
埼玉県,越谷市,36-6,七左町1-40,masked,35.8687555,139.7856247,
埼玉県,越谷市,36-7,大間野町2-51-5地先,そば丸仙付近水路フェンス,35.8647706,139.7873819,
埼玉県,越谷市,37-1,大間野町4-176-1,大間野町四丁目自治会館隣フェンス,35.8629964,139.7767053,
埼玉県,越谷市,37-2,大間野町4-30地先,駐車場東側フェンス,35.8623828,139.7790445,
埼玉県,越谷市,37-3,大間野町5-146,小牧幼稚園隣(株)丸善埼玉工場寮塀,35.8613139,139.7754943,
埼玉県,越谷市,37-4,大間野町4-357,武蔵野中学校南側フェンス,35.8658693,139.7725536,
埼玉県,越谷市,37-5,大間野町3-32,高橋製作所(株)南側塀,35.8660224,139.7792499,
埼玉県,越谷市,37-6,大間野町4-74-7地先,masked,35.8654938,139.7780517,
埼玉県,越谷市,37-7,大間野町4-43-1,(有)トライパッケージ北側フェンス,35.8639884,139.7775515,
埼玉県,越谷市,38-1,南越谷4-21-1,南越谷地区センター入口右側フェンス,35.8738363,139.7865062,
埼玉県,越谷市,38-2,蒲生茜町31-8地先,ハイコーポ臼倉前水路フェンス,35.8668713,139.7868008,
埼玉県,越谷市,38-3,蒲生茜町15地先,蒲生駅西口前植込み,35.8668347,139.7909341,
埼玉県,越谷市,38-4,南越谷5-21地先,南越谷第一公園西側フェンス,35.8703837,139.7866554,
埼玉県,越谷市,38-5,南越谷5-21地先,南越谷第一公園北側フェンス,35.8710923,139.7871365,
埼玉県,越谷市,38-6,南越谷4-4,新越谷駅西口前植込み,35.8753141,139.7892949,
埼玉県,越谷市,38-7,南越谷5-16-1地先,ライフピア新越谷先グリーンベルトフェンス,35.8703044,139.7882387,
埼玉県,越谷市,38-8,南越谷4-24-25,南越谷第二公園フェンス,35.8759291,139.7853306,
埼玉県,越谷市,39-1,瓦曽根1-5-43,さくら幼稚園北側フェンス,35.8865674,139.7922281,
埼玉県,越谷市,39-2,瓦曽根1-5-43地先,さくら幼稚園南空地フェンス,35.8859502,139.7920846,
埼玉県,越谷市,39-3,瓦曽根3-11地先,柳田自治会館付近東武線フェンス,35.8823316,139.7884683,
埼玉県,越谷市,39-4,瓦曽根1-20-35地先,サンウイングプラザ付近東武線フェンス,35.8843367,139.7878692,
埼玉県,越谷市,39-5,瓦曽根2-8ー53,ウェルフェアグリーン越谷 西側公園フェンス,35.879439,139.7930143,
埼玉県,越谷市,39-6,瓦曽根2-5-88,masked,35.8856621,139.7934683,
埼玉県,越谷市,39-7,瓦曽根1-6-6地先,瓦曽根一丁目バス停付近フェンス,35.888074,139.7941592,
埼玉県,越谷市,39-8,瓦曽根3-8地先,masked,35.8800983,139.7889574,
埼玉県,越谷市,40-1,南越谷3-26-10,南団地集会所フェンス,35.8799588,139.7863259,
埼玉県,越谷市,40-2,東柳田町8-30地先,赤山本町自治会館付近東武線フェンス,35.883791,139.7878621,
埼玉県,越谷市,40-3,南越谷3-22-3,masked,35.8784714,139.7863511,
埼玉県,越谷市,40-4,南越谷3-19-8地先,有料駐輪場前東武線フェンス,35.876637,139.7894211,
埼玉県,越谷市,40-5,南越谷3-23-22,南部浄水場東側フェンス,35.8763635,139.7856411,
埼玉県,越谷市,40-6,南越谷3-10-4地先,masked,35.8783769,139.7891292,
埼玉県,越谷市,40-7,東柳田町2-12地先,東武鉄道越谷変電所付近東武線フェンス,35.885694,139.7869797,
埼玉県,越谷市,41-1,登戸町33-16,蒲生地区センター東側フェンス,35.8726396,139.7963456,
埼玉県,越谷市,41-2,登戸町15-6,登龍湯駐車場,35.8738105,139.7997863,
埼玉県,越谷市,41-3,登戸町25-9,masked,35.870408,139.7987174,
埼玉県,越谷市,41-4,登戸町24-3,masked,35.8708158,139.7997939,
埼玉県,越谷市,41-5,南越谷1-6-75,ジュネシオン新越谷南側フェンス,35.8697737,139.7918261,
埼玉県,越谷市,41-6,南越谷1-6-86,新越谷スカイハイツ北側フェンス,35.8714801,139.7914889,
埼玉県,越谷市,41-7,南越谷1-6-86地先,新越谷スカイハイツ付近東武線フェンス,35.8708129,139.7909498,
埼玉県,越谷市,41-8,南越谷1-2919地先,ヴァリエ駐車場出口付近東武線フェンス,35.8727623,139.790518,
埼玉県,越谷市,42-1,蒲生東町9-19地先,蒲生東町自治会館西側民間駐車場パイプ柵,35.8707599,139.8039794,
埼玉県,越谷市,42-2,蒲生東町14-4,(株)佐々商店本社工場西側塀,35.8696635,139.8006015,
埼玉県,越谷市,42-3,蒲生4-1地先,蒲生四丁目会館付近葛西用水沿いフェンス,35.8716499,139.8056212,
埼玉県,越谷市,42-4,川柳町2-125,masked,35.8698604,139.8074029,
埼玉県,越谷市,42-5,川柳町1-80,masked,35.8719221,139.8057554,
埼玉県,越谷市,42-6,蒲生4-3地先,伊原橋付近葛西用水沿いフェンス,35.869881,139.8064107,
埼玉県,越谷市,42-7,川柳町1-150,(株)西本商事本社営業所車庫北側フェンス,35.8757316,139.807315,
埼玉県,越谷市,43-1,登戸町42-10,登戸保育所北側フェンス,35.8746847,139.7973692,
埼玉県,越谷市,43-2,登戸町41-23,遠忠食品(株)越谷工場塀,35.8738372,139.7978707,
埼玉県,越谷市,43-3,南越谷2-2地先,東武線高架下1A東側駐車場フェンス,35.8772844,139.789626,
埼玉県,越谷市,43-4,南越谷1-26,南越谷駅北口ロータリー内植込み,35.8763385,139.7899895,
埼玉県,越谷市,43-5,南越谷2-13地先,南越谷公園フェンス,35.877955,139.7948064,
埼玉県,越谷市,43-6,南越谷2-7-6,善立産業株式会社西側フェンス,35.8785176,139.794355,
埼玉県,越谷市,43-7,南越谷1-18,新越谷駅東口ロータリー内植込み,35.8756995,139.7905661,
埼玉県,越谷市,44-1,蒲生旭町1-75,蒲生小学校西側フェンス,35.8680333,139.797166,
埼玉県,越谷市,44-2,蒲生寿町6-82,東武こしがや自動車教習所西側フェンス,35.8694675,139.794463,
埼玉県,越谷市,44-3,蒲生寿町6-82,東武こしがや自動車教習所東側フェンス,35.8693458,139.7956861,
埼玉県,越谷市,44-4,蒲生寿町16地先,蒲生駅東口ロータリー内植込み,35.866583,139.7921846,
埼玉県,越谷市,44-5,蒲生寿町1-38地先,東武興業駐車場付近東武線フェンス,35.8692263,139.7913025,
埼玉県,越谷市,44-6,蒲生旭町1-75,蒲生小学校東側フェンス,35.8684724,139.7987593,
埼玉県,越谷市,44-7,蒲生旭町9-36,中野パーキング東側フェンス,35.8669608,139.7994833,
埼玉県,越谷市,45-1,蒲生西町1-7-20地先,蒲生西町一丁目公会堂付近東武線フェンス,35.8622779,139.7929125,
埼玉県,越谷市,45-2,蒲生西町1-3,西町一丁目広場フェンス,35.8627879,139.7936866,
埼玉県,越谷市,45-3,蒲生西町1-5-22,剣道場北側塀,35.8617867,139.7949942,
埼玉県,越谷市,45-4,蒲生1-15-20,masked,35.8610687,139.7951771,
埼玉県,越谷市,45-5,蒲生1-13-15,(株)金子製作所東側塀,35.8599632,139.7958118,
埼玉県,越谷市,45-6,蒲生西町1-6-12,masked,35.861392,139.7943852,
埼玉県,越谷市,45-7,蒲生西町1-8-55地先,masked,35.8638004,139.792546,
埼玉県,越谷市,46-1,蒲生2-13-9,蒲生第三保育所入口フェンス,35.8610772,139.7998217,
埼玉県,越谷市,46-2,蒲生1-3-25地先,すし徳前水路フェンス,35.8605432,139.7973259,
埼玉県,越谷市,46-3,蒲生本町7,蒲生本町ふれあい公園フェンス,35.8639823,139.7985402,
埼玉県,越谷市,46-4,蒲生本町13-41,清蔵院西側フェンス,35.8621174,139.7957383,
埼玉県,越谷市,46-5,蒲生愛宕町6-50地先,蒲生愛宕町コンビニ付近谷古田用水フェンス,35.8569718,139.8015357,
埼玉県,越谷市,46-6,蒲生1-5-40地先,蒲生郵便局前水路フェンス,35.8594983,139.7983992,
埼玉県,越谷市,46-7,蒲生愛宕町10-4地先,蒲生橋付近水路フェンス,35.8568768,139.7996572,
埼玉県,越谷市,47-1,蒲生3-16,蒲生三丁目第二ふれあい公園北側フェンス,35.8667736,139.8022254,
埼玉県,越谷市,47-2,蒲生3-31,masked,35.8654469,139.8020295,
埼玉県,越谷市,47-3,蒲生3-16-14,植竹工務店南側塀,35.8658346,139.8016771,
埼玉県,越谷市,47-4,蒲生4-7地先,masked,35.867617,139.8074122,
埼玉県,越谷市,47-5,蒲生4-14地先,谷古田橋付近谷古田用水フェンス,35.8659257,139.8039379,
埼玉県,越谷市,47-6,蒲生4-5地先,越谷グリーンゴルフ付近谷古田用水フェンス,35.8691844,139.8048385,
埼玉県,越谷市,47-7,蒲生3-5-58,長瀬産業寮西側フェンス,35.8677135,139.8037489,
埼玉県,越谷市,48-1,南町1-16-6,蒲生南小学校前歩道橋下,35.8629651,139.8047797,
埼玉県,越谷市,48-2,南町3-8,南部第四公園西側フェンス,35.8603955,139.8062074,
埼玉県,越谷市,48-3,伊原2-9,南部第五公園北側フェンス,35.8619098,139.8097204,
埼玉県,越谷市,48-4,蒲生南町4,南部第二公園北側フェンス,35.8589008,139.8041134,
埼玉県,越谷市,48-5,南町1-8,蒲生南小学校東側フェンス,35.8628921,139.8065776,
埼玉県,越谷市,48-6,南町1-8,蒲生南小学校北側フェンス,35.8635725,139.8051051,
埼玉県,越谷市,48-7,南町1-19地先,愛隣幼稚園付近谷古田用水フェンス,35.8622503,139.8029564,
埼玉県,越谷市,48-8,南町2-1,南部第一公園北側フェンス,35.8611091,139.802824,
埼玉県,越谷市,49-1,川柳町2-485,川柳地区センター東側フェンス,35.8674115,139.8139649,
埼玉県,越谷市,49-2,川柳町1-471-1,川柳小学校東側フェンス,35.8735387,139.8137421,
埼玉県,越谷市,49-3,川柳町1-401,明正小学校西側校門フェンス,35.8753577,139.810794,
埼玉県,越谷市,49-4,川柳町2-249,masked,35.8698787,139.8132032,
埼玉県,越谷市,49-5,川柳町3-12-1,川柳公園 西側フェンス,35.8640166,139.8139153,
埼玉県,越谷市,49-6,川柳町5-254,masked,35.8682918,139.8182535,
埼玉県,越谷市,49-7,川柳町4-188,智泉院南公園フェンス,35.8663849,139.8187843,
埼玉県,越谷市,50-1,西方2-12-1,西方小学校東門フェンス,35.8849907,139.7982817,
埼玉県,越谷市,50-2,相模町2-10地先,八条用水路土地改良区付近水路フェンス,35.8862186,139.8009307,
埼玉県,越谷市,50-3,西方2-12-1,西方小学校西門フェンス,35.8845799,139.7964015,
埼玉県,越谷市,50-4,相模町7-3928地先,八条用水バス停付近県道側フェンス,35.8868512,139.799376,
埼玉県,越谷市,50-5,相模町1-316,masked,35.8841306,139.8003603,
埼玉県,越谷市,50-6,相模町4-6-9地先,masked,35.8840596,139.8078766,
埼玉県,越谷市,50-7,流通団地3-2-1,(株)埼玉県東部流通センター南側フェンス,35.8766728,139.8064865,
埼玉県,越谷市,50-8,相模町1-258地先,ロイヤルホームセンター越谷店 南側フェンス,35.8832316,139.8030759,
埼玉県,越谷市,51-1,相模町3-42-1,大相模地区センター東側フェンス,35.8843495,139.8087237,
埼玉県,越谷市,51-2,相模町6-448地先,駐車場フェンス,35.8905281,139.8100586,
埼玉県,越谷市,51-3,相模町3-165,大相模中学校西側フェンス,35.8855661,139.8084095,
埼玉県,越谷市,51-4,相模町3-212-1,県道越谷流山線コンビニエンスストア東側道路フェンス,35.8839251,139.8106676,
埼玉県,越谷市,51-5,相模町5-29,越谷市消防署大相模分署東側フェンス,35.889275,139.8118142,
埼玉県,越谷市,51-6,相模町2-208-2地先,八条用水路馬頭橋付近北側水路フェンス,35.8860414,139.8044726,
埼玉県,越谷市,51-7,相模町3-165,大相模中学校東側フェンス,35.8853836,139.8101207,
埼玉県,越谷市,52-1,大成町6-258-1,masked,35.8870195,139.8234032,
埼玉県,越谷市,52-2,大成町2-1,大相模小学校北側フェンス,35.8866631,139.8211401,
埼玉県,越谷市,52-3,大成町2-196,masked,35.8870145,139.8172942,
埼玉県,越谷市,52-4,大成町1-2240,masked,35.8894374,139.8194657,
埼玉県,越谷市,52-5,大成町2-288-1,大相模保育所南側フェンス,35.8849097,139.8170393,
埼玉県,越谷市,52-6,大成町1-2228-2,masked,35.8897253,139.8213003,
埼玉県,越谷市,52-7,大成町2-1,大相模小学校南側フェンス,35.8862763,139.8194208,
埼玉県,越谷市,53-1,東町3-330,さなえ幼稚園フェンス,35.8782657,139.8347831,
埼玉県,越谷市,53-2,東町3-380-1,masked,35.8786037,139.8367088,
埼玉県,越谷市,53-3,東町5-330地先,千疋自治会館西グラウンドフェンス,35.8748842,139.8366387,
埼玉県,越谷市,53-4,東町2-37地先,masked,35.8819903,139.8311868,
埼玉県,越谷市,53-5,東町2-266-1地先,(株)ポラス暮し科学研究所南水路フェンス,35.882095,139.8351007,
埼玉県,越谷市,53-6,大成町7-188,東福寺霊園塀,35.8869085,139.8296792,
埼玉県,越谷市,53-7,東町2-155地先,masked,35.8848117,139.8351309,
埼玉県,越谷市,54-1,大沢659-1,栄進中学校北側フェンス,35.9068127,139.7832541,
埼玉県,越谷市,54-2,大沢659-1,栄進中学校南側フェンス,35.9059459,139.7838415,
埼玉県,越谷市,54-3,大沢534地先,ラコマート北越谷店前植込み,35.9056311,139.7813683,
埼玉県,越谷市,54-4,大房1006-3,シャルム北越谷B棟北側フェンス,35.9094367,139.7824194,
埼玉県,越谷市,54-5,大房729-3,シャルム北越谷A棟南側フェンス,35.9077922,139.7814305,
埼玉県,越谷市,54-6,北越谷5-8-15地先,masked,35.9058477,139.7798076,
埼玉県,越谷市,54-7,大沢578-1,大沢幼稚園南側フェンス及び塀,35.9036143,139.7820697,
埼玉県,越谷市,55-1,東大沢4-15-15,masked,35.9024828,139.7874152,緯度経度は怪しい
埼玉県,越谷市,55-2,東大沢4-5-2,masked,35.909362,139.7907849,
埼玉県,越谷市,55-3,東大沢4-22-3,masked,35.9125445,139.796387,
埼玉県,越谷市,55-4,東大沢2-16-5地先,ペンギンクリーニング前御料堀フェンス,35.9139091,139.7900412,
埼玉県,越谷市,55-5,花田1-3-16地先,東越谷第七公園 北側植込み,35.9086729,139.7956135,
埼玉県,越谷市,55-6,花田1-12-3,(株)三協運輸サービス越谷家具輸送協同組合フェンス,35.9086129,139.7967847,
埼玉県,越谷市,55-7,東大沢3-1-13,masked,35.9133156,139.792581,
埼玉県,越谷市,55-8,花田2-11,花田第一公園北側植込み,35.9113364,139.7993443,
埼玉県,越谷市,56-1,大沢2-10-21,市立地域スポーツセンター東側植込み,35.9006275,139.7841577,
埼玉県,越谷市,56-2,大沢3-4-50地先,ロ-ヤルシティ北越谷駅前東武線フェンス,35.900946,139.7802363,
埼玉県,越谷市,56-3,大沢3-4地先,北越谷駅東口ロータリー内緑地,35.9023928,139.7802475,
埼玉県,越谷市,56-4,大沢3-29-15地先,坂庭ハイツ向かい水路フェンス,35.9029151,139.7861248,
埼玉県,越谷市,56-5,大沢2-1-29,天理教大沢分教会西側東武線フェンス,35.8985984,139.7811742,
埼玉県,越谷市,56-6,大沢4-15ー9地先,越谷ファミールハイツ南側公園フェンス,35.9015836,139.7879957,
埼玉県,越谷市,56-7,大沢1-2-23地先,元荒川フェンス,35.8956781,139.7834139,
埼玉県,越谷市,57-1,北越谷2-28,北越谷第二公園東側フェンス,35.8987468,139.7757686,
埼玉県,越谷市,57-2,北越谷1-13-1,(有)松沢紙工塀,35.897062,139.7794289,
埼玉県,越谷市,57-3,北越谷1-22,北越谷第三公園西側フェンス,35.8973647,139.7799345,
埼玉県,越谷市,57-4,北越谷2-42地先,北越谷西口駅前広場東側東武線フェンス,35.9014293,139.7797771,
埼玉県,越谷市,57-5,北越谷2-25-2,masked,35.8997016,139.777173,
埼玉県,越谷市,57-6,北越谷2-38-8,スーパーライフ北越谷店南側万代塀,35.8994373,139.7755615,
埼玉県,越谷市,57-7,北越谷1-21-26地先,弘福院向かい東武線フェンス,35.8973775,139.7815454,
埼玉県,越谷市,58-1,北越谷4-8-35,北越谷地区センター植込み,35.901929,139.7763378,
埼玉県,越谷市,58-2,北越谷3-7-29,masked,35.9006094,139.7729767,
埼玉県,越谷市,58-3,北越谷3-15-5,masked,35.9013772,139.7735147,
埼玉県,越谷市,58-4,北越谷4-1地先,北越谷駅西口ロータリー内植込み,35.9020186,139.779291,
埼玉県,越谷市,58-5,北越谷4-11-9,masked,35.902932,139.775098,
埼玉県,越谷市,58-6,北越谷4-10-3,masked,35.9025381,139.7762991,
埼玉県,越谷市,58-7,北越谷4-23地先,北越谷第四公園東側東武線フェンス,35.9035787,139.7794498,
埼玉県,越谷市,59-1,宮前1-18-1,中央中学校北側フェンス,35.9016174,139.7943073,
埼玉県,越谷市,59-2,越ヶ谷2849,吉野電化工業(株)宮前工場入口付近塀,35.9018086,139.7911916,
埼玉県,越谷市,59-3,東越谷5-6,東越谷第四公園北側植込み,35.8976875,139.7933619,
埼玉県,越谷市,59-4,大沢4-17-17,越谷松伏管工事業協同組合 県道側フェンス,35.9020667,139.7886046,
埼玉県,越谷市,59-5,宮前1-18-1,中央中学校西側フェンス,35.8997315,139.7937386,
埼玉県,越谷市,59-6,越ヶ谷2788-1,越ヶ谷高等学校南側フェンス,35.898384,139.7920732,
埼玉県,越谷市,59-7,宮前1-20,東越谷第五公園西側フェンス,35.9017913,139.795986,
埼玉県,越谷市,59-8,宮前1-18-1,中央中学校南側フェンス,35.9007744,139.7958039,
埼玉県,越谷市,60-1,越ヶ谷4-2-1,市役所南側植え込み,35.890315,139.7912339,
埼玉県,越谷市,60-2,越ヶ谷4-2-1,市役所西側植え込み,35.891527,139.789817,
埼玉県,越谷市,60-3,御殿町46地先,宮前橋付近ガードレール,35.8967107,139.7894104,
埼玉県,越谷市,60-4,越ヶ谷4-2-1,市役所北側フェンス,35.8918573,139.7905144,
埼玉県,越谷市,60-5,越ヶ谷4-2-82,埼玉県越谷合同庁舎東側フェンス,35.8927422,139.7910141,
埼玉県,越谷市,60-6,御殿町2-43地先,御殿町ふれあい公園東側フェンス,35.8963585,139.7867486,
埼玉県,越谷市,60-7,御殿町4-33,越谷幼稚園東側フェンス,35.8963554,139.7882124,
埼玉県,越谷市,61-1,中町1-41,越ヶ谷小学校西側フェンス,35.8918278,139.7849096,
埼玉県,越谷市,61-2,中町1-41,越ヶ谷小学校南側校門付近フェンス,35.8921994,139.7864305,
埼玉県,越谷市,61-3,弥生町8地先,越谷駅北側高架下フェンス,35.889888,139.7855443,
埼玉県,越谷市,61-4,越ヶ谷1-14地先,東彩ガス(株)越谷支社付近東武線フェンス,35.8855084,139.7874371,
埼玉県,越谷市,61-5,中町3地先,(有)小島石材店倉庫付近東武線フェンス,35.8927213,139.7839673,
埼玉県,越谷市,61-6,越ヶ谷1-10,カーアーク越ヶ谷一丁目フェンス,35.8880519,139.7886936,
埼玉県,越谷市,61-7,中町1-41,越ヶ谷小学校北側フェンス,35.8924101,139.785135,
埼玉県,越谷市,62-1,赤山町1-119-3,赤山町一丁目自治会館隣公園フェンス,35.8897829,139.7821174,
埼玉県,越谷市,62-2,赤山本町1-5地先,越谷駅西口北側高架下駐輪場フェンス,35.8891017,139.7853617,
埼玉県,越谷市,62-3,赤山町2-58-1,赤山第二保育所南側フェンス,35.8844138,139.7827227,
埼玉県,越谷市,62-4,赤山町1-7-1地先,中島サイクルパーク付近東武線フェンス,35.8899387,139.7850145,
埼玉県,越谷市,62-5,赤山本町4-3地先,越谷駅西口南側東武線フェンス,35.8876738,139.7860102,
埼玉県,越谷市,62-6,赤山町2-114地先,赤山二丁目公園フェンス,35.8868036,139.7819998,
埼玉県,越谷市,62-7,赤山本町3-13,萩原第一幼稚園南側フェンス,35.8870249,139.784443,
埼玉県,越谷市,62-8,宮本町1-148-1地先,越谷スカイマンション東南側児童遊園フェンス,35.8900622,139.7835142,
埼玉県,越谷市,63-1,赤山町4-2-11,赤山保育所東側フェンス,35.8802174,139.783071,
埼玉県,越谷市,63-2,赤山町3-160-1,Big-A西側フェンス,35.8800018,139.7810298,
埼玉県,越谷市,63-3,赤山町5-8-53地先,ヨークマート隣公園 北側フェンス,35.883329,139.7846897,
埼玉県,越谷市,63-4,赤山町4-2-11,赤山保育所西側フェンス,35.8806102,139.7827344,
埼玉県,越谷市,63-5,赤山町3-228-2地先,赤山町三丁目バス停フェンス,35.8808141,139.7780165,
埼玉県,越谷市,63-6,赤山町3-36-1,越谷駅西口第一自転車保管場所フェンス,35.8836594,139.7819363,
埼玉県,越谷市,63-7,赤山町4-10-26地先,ファミリー公園北側フェンス,35.8788253,139.7830893,
埼玉県,越谷市,64-1,千間台東3-7-1,上間久里自治会館北側フェンス,35.9334367,139.779019,
埼玉県,越谷市,64-2,千間台東2-11地先,児童館コスモス前調整池南側緑地,35.9343053,139.7835561,
埼玉県,越谷市,64-3,千間台東3-33-2,上間久里南自治会館前公園フェンス,35.9320232,139.7821456,
埼玉県,越谷市,64-4,千間台東3-24-5地先,間久里第三公園 西側植込み,35.9317114,139.7794652,
埼玉県,越谷市,64-5,千間台東1-14,千間台第一公園東側植込み,35.9345,139.7769668,
埼玉県,越谷市,64-6,千間台東1-60地先,せんげん台駅東口ロータリー内植込み,35.9362026,139.7749766,
埼玉県,越谷市,64-7,千間台東2-707,セブンタウン前水路フェンス,35.9362052,139.7774773,
埼玉県,越谷市,65-1,蒲生西町2-8-8地先,西町二丁目自治会館前(グリーンベルト)フェンス,35.8629131,139.7904958,
埼玉県,越谷市,65-2,蒲生3850-1地先,東京美容科学研究所向かい(グリーンベルト)フェンス,35.8614863,139.7913875,
埼玉県,越谷市,65-3,蒲生西町2-16地先,南越谷第三公園東側(グリーンベルト)フェンス,35.8636978,139.7900185,
埼玉県,越谷市,65-4,蒲生西町2-1-36地先,県道蒲生・岩槻線沿い東武線フェンス,35.8649626,139.7921346,
埼玉県,越谷市,65-5,蒲生西町2-3-16地先,ベルメゾンM-1付近東武線フェンス,35.8632336,139.7924808,
埼玉県,越谷市,65-6,蒲生西町2-12-16地先,出羽橋付近出羽堀沿いフェンス,35.8645417,139.787602,
埼玉県,越谷市,65-7,蒲生西町2-17-27地先,出羽堀沿いフェンス,35.8624821,139.7885657,
埼玉県,越谷市,66-1,千間台西5-4,千間台小学校西側フェンス,35.9320176,139.7636254,
埼玉県,越谷市,66-2,千間台西5-4,千間台小学校北側フェンス,35.9324932,139.7647036,
埼玉県,越谷市,66-3,千間台西6-12,千間台第五公園西側垣根,35.9285696,139.7611996,
埼玉県,越谷市,66-4,千間台西4-3-29地先,せんげん掘公園東側植込み,35.9361793,139.7642361,
埼玉県,越谷市,66-5,千間台西4-2,千間台第四公園東側フェンス,35.9348385,139.7647975,
埼玉県,越谷市,66-6,恩間新田441-1,恩間新田公民館前水路フェンス,35.9412511,139.7588211,
埼玉県,越谷市,66-7,千間台西5-16-8,masked,35.9278626,139.7648031,
埼玉県,越谷市,66-8,千間台西4-2,千間台第四公園西側フェンス,35.9333356,139.7629683,
埼玉県,越谷市,66-9,三野宮814-2,埼玉県立大学正門向かいフェンス,35.9310356,139.7576609,
埼玉県,越谷市,67-1,船渡367-116地先,しらこばと自治会館隣遊水池フェンス,35.9287522,139.7906201,
埼玉県,越谷市,67-2,船渡344-6地先,新方川沿いガードレール,35.9305864,139.790725,
埼玉県,越谷市,67-3,下間久里402-2地先,駐車場パイプ柵,35.9274379,139.7900547,
埼玉県,越谷市,67-4,下間久里595-1,(株)アオキ北側フェンス,35.9300007,139.7889638,
埼玉県,越谷市,67-5,下間久里772,masked,35.9314032,139.7915648,
埼玉県,越谷市,67-6,下間久里633,北部配水場北側フェンス,35.9315091,139.789685,
埼玉県,越谷市,67-7,下間久里564及び563,大場落し排水機場フェンス,35.9274393,139.7920235,
埼玉県,越谷市,68-1,花田4-14-1,花田小学校東側フェンス,35.9056387,139.8022849,
埼玉県,越谷市,68-2,花田5-11,花田第五公園東側フェンス,35.9009727,139.8010306,
埼玉県,越谷市,68-3,花田4-21-2,(株)シティ,35.9052112,139.8048416,
埼玉県,越谷市,68-4,花田3-6-3,masked,35.9077817,139.8003287,
埼玉県,越谷市,68-5,花田4-11,花田第四公園東側フェンス,35.9052876,139.7997879,
埼玉県,越谷市,68-6,花田1-31,東越谷第六公園西側フェンス,35.9043026,139.7943516,
埼玉県,越谷市,68-7,花田1-22,花田一丁目自治会館西側フェンス,35.9062775,139.7969399,
埼玉県,越谷市,68-8,花田4-8-11,業務スーパー越谷店フェンス,35.9027079,139.798987,
埼玉県,越谷市,69-1,新越谷1-85,富士中学校西側駐車場木柵(木杭),35.8768256,139.7820373,
埼玉県,越谷市,69-2,新越谷1-85,富士中学校東側フェンス,35.876291,139.7844734,
埼玉県,越谷市,69-3,赤山町4-9地先,ふれあい広場南側フェンス,35.87786,139.7839219,
埼玉県,越谷市,69-4,谷中町1-1,ロイヤル富士B棟南側フェンス,35.8786657,139.7807752,
埼玉県,越谷市,69-5,谷中町1-53-1,masked,35.8804207,139.7787502,
埼玉県,越谷市,69-6,新越谷2-4地先,七左第三公園西側フェンス,35.8727222,139.780167,
埼玉県,越谷市,69-7,新越谷1-60地先,七左第四公園北側フェンス,35.872234,139.7832613,
埼玉県,越谷市,69-8,新越谷1-32-7地先,ピアシティ駐車場南側フェンス,35.8751206,139.7843077,
埼玉県,越谷市,70-1,東大沢2-1-1,鷺後小学校東側フェンス,35.9114547,139.7874792,
埼玉県,越谷市,70-2,東大沢1-29地先,大沢地区センター駐車場フェンス,35.907835,139.7866891,
埼玉県,越谷市,70-3,東大沢1-46-8地先,東大沢橋メゾンセピア前フェンス,35.9047859,139.7873905,
埼玉県,越谷市,70-4,東大沢5-10,鷺高第五公園(キャンベルタウン公園)南側植込み,35.9062461,139.7893137,
埼玉県,越谷市,70-5,大房1194-15地先,住吉新生自治会館横遊水池フェンス,35.9127992,139.7858436,
埼玉県,越谷市,70-6,東大沢2-1-1,鷺後小学校南側フェンス,35.9104814,139.7884314,
埼玉県,越谷市,70-7,東大沢2-1-1,鷺後小学校西側フェンス,35.9100578,139.7869804,
埼玉県,越谷市,70-8,東大沢5-10,鷺高第五公園(キャンベルタウン公園)北側用水路フェンス,35.9077342,139.7889892,
埼玉県,越谷市,71-1,レイクタウン4-1-4地先,水辺のまちづくり館駐車場植込み,35.8790546,139.8231436,
埼玉県,越谷市,71-2,レイクタウン2-21地先,調節池付近フェンス,35.8831826,139.8211423,
埼玉県,越谷市,71-3,レイクタウン2-13,レイクタウン第二公園植込み,35.88364,139.8187317,
埼玉県,越谷市,71-4,レイクタウン2-7-6,越谷レイクタウンさくら保育園分園,35.8818881,139.8157161,
埼玉県,越谷市,71-5,レイクタウン8-1地先,D’グラフォートレイクタウンF館西側欄干,35.8763706,139.8198028,
埼玉県,越谷市,71-6,レイクタウン8-101地先,越谷レイクタウン駅北口ロータリー内植込み,35.8768694,139.8221114,
埼玉県,越谷市,71-7,レイクタウン8-1地先,D’グラフォートレイクタウンD館西側欄干,35.8785146,139.8192133,
埼玉県,越谷市,71-8,レイクタウン9-39地先,レイクタウン第九公園南側植え込み,35.8796248,139.815689,
埼玉県,越谷市,72-1,レイクタウン7-9,越谷南高校西側道路フェンス,35.8738394,139.8195993,
埼玉県,越谷市,72-2,レイクタウン7-9地先,越谷南高校北側道路フェンス,35.8743523,139.8208975,
埼玉県,越谷市,72-3,レイクタウン7-9,越谷南高校南側道路フェンス,35.8722441,139.8201491,
埼玉県,越谷市,72-4,レイクタウン8-102地先,越谷レイクタウン駅南口ロータリー内植込み,35.875974,139.8222938,
埼玉県,越谷市,72-5,レイクタウン5-35地先,レイクタウン第五公園池側フェンス,35.8718839,139.829961,
埼玉県,越谷市,72-6,レイクタウン6-8地先,レイクタウン第六公園北側フェンス,35.8747303,139.823983,
埼玉県,越谷市,72-7,レイクタウン7-12地先,レイクタウン第七公園南側植え込み,35.8713636,139.8213355,
埼玉県,越谷市,72-8,レイクタウン5-24,東部配水場東側フェンス,35.8746118,139.8309632,
