prefecture,city,number,address,name,lat,long,note
埼玉県,飯能市,1-1,大字飯能223-1,市民会館駐車場北側,35.859251,139.3113513,
埼玉県,飯能市,1-2,大字飯能256-5,市民会館入口西側歩道植込み,35.8579697,139.3102227,
埼玉県,飯能市,1-3,大字飯能271-1先,旧医療施設前ガードレール,35.8561906,139.3108872,
埼玉県,飯能市,1-4,仲町28ー1 (468-3),旧図書館南側フェンス,35.8549006,139.3133061,
埼玉県,飯能市,1-5,仲町21-26 (508-6),飯能小町公園,35.854232,139.3160527,
埼玉県,飯能市,1-6,稲荷町22 (421-1),三丁目三座稲荷神社前フェンス,35.8528167,139.3132654,
埼玉県,飯能市,1-7,稲荷町18 (287-4),P飯能稲荷町-01東側フェンス,35.8513198,139.31423,
埼玉県,飯能市,2-1,大字川寺453-1,土地区画整理事務所南西(仮設住居東側),35.8444583,139.3289049,
埼玉県,飯能市,2-2,大字川寺453-1,土地区画整理事務所西(調整池西側フェンス),35.8450844,139.3289156,
埼玉県,飯能市,2-3,大字川寺388-4,川寺自治会館東側ブロック塀,35.8462122,139.324751,
埼玉県,飯能市,2-4,大字川寺392,神明神社北側,35.8467038,139.3246161,
埼玉県,飯能市,2-5,大字川寺196-1,旧そば店第2駐車場向かい鉄フェンス,35.8485916,139.3257772,
埼玉県,飯能市,2-6,大字川寺153-1,グローリア初穂飯能前 西武鉄道踏切脇,35.8504026,139.3256552,
埼玉県,飯能市,2-7,大字川寺224-1,国道299号沿い 農協斜め向かい,35.849755,139.3284323,
埼玉県,飯能市,3-1,山手町13-8 (181-1),飯能第一小学校北西角フェンス(学童どろんこクラブ),35.8590558,139.3140428,
埼玉県,飯能市,3-2,山手町13-8 (180-1),飯能第一小学校東側バス停脇フェンス,35.8586935,139.3159469,
埼玉県,飯能市,3-3,本町17-13 (168-1),飯能高校南東側フェンス バス停横,35.8577974,139.3182725,
埼玉県,飯能市,3-4,原町122-1,上ノ台公園北東側フェンス,35.8587782,139.3207325,
埼玉県,飯能市,3-5,八幡町12 (129-6),八幡神社(児童遊園)入口,35.8550123,139.3203995,
埼玉県,飯能市,3-6,東町10-13 (48-3),前田自治会館南側フェンス,35.8532125,139.3236241,
埼玉県,飯能市,3-7,東町24 (102-8),塗装店向かい,35.8548756,139.3249478,
埼玉県,飯能市,4-1,仲町11-21 (223-6),飯能駅ビル搬入口西側フェンス,35.8515769,139.3185604,
埼玉県,飯能市,4-2,稲荷町1-3 (279-6),久下稲荷神社社務所(一丁目クラブ)敷地,35.8517476,139.3168778,
埼玉県,飯能市,4-3,稲荷町1-3 (279-8),久下稲荷神社社務所(一丁目クラブ)南側,35.8515303,139.3165057,
埼玉県,飯能市,4-4,南町7-18 (247-2),旧動物病院前ブロック塀(交差点「稲荷分署入口」),35.8493276,139.3164318,
埼玉県,飯能市,4-5,南町1 (229-1),飯能駅南口(コンビニ西側)万年塀,35.8509401,139.3181365,
埼玉県,飯能市,4-6,南町8-35 (261-4),飯能駅南口 交差点「飯能駅前」南西側植込み,35.8497261,139.317781,
埼玉県,飯能市,4-7,稲荷町4 (275-18),久下地蔵公園西側フェンス,35.8506027,139.3151731,
埼玉県,飯能市,5-1,新町17,前田公園北側フェンス,35.8578464,139.3250032,
埼玉県,飯能市,5-2,大字双柳1-1,飯能第一中学校正門横ブロック塀,35.8582894,139.3290875,
埼玉県,飯能市,5-3,大字双柳94-2,飯能市役所正面玄関前植込み,35.8554166,139.327596,
埼玉県,飯能市,5-4,大字双柳371-13,保健センター西側フェンス,35.8556414,139.3300354,
埼玉県,飯能市,5-5,緑町9,橋場公園西側フェンス,35.8531749,139.3312092,
埼玉県,飯能市,5-6,栄町23,東飯能駅東口ロータリー,35.8524826,139.3267878,
埼玉県,飯能市,5-7,栄町13,柿堂公園西側フェンス,35.8516639,139.3284519,
埼玉県,飯能市,5-8,緑町25,水押公園南側フェンス,35.8495915,139.3320341,
埼玉県,飯能市,6-1,大字大河原90-1,材木店西側,35.8553979,139.308002,
埼玉県,飯能市,6-2,大字大河原588-3,大河原自治会館向かいフェンス,35.8575482,139.2954489,
埼玉県,飯能市,6-3,大字飯能442-2,バス停「吾妻峡入口」先 交差点,35.8568763,139.3027876,
埼玉県,飯能市,6-4,大字飯能1206-1,飯能西中学校脇ベンチスペース先,35.857849,139.306625,緯度経度は怪しい
埼玉県,飯能市,6-5,大字飯能360-1,旧市民プール南側,35.8573017,139.3056293,
埼玉県,飯能市,6-6,大字永田65-1,バス停「永田大杉」,35.8608762,139.2949202,
埼玉県,飯能市,6-7,永田台一丁目23-5,永田台一丁目入口Y字路植込み,35.8696835,139.2875275,
埼玉県,飯能市,7-1,大字小岩井21-1,吾妻大橋南側,35.8642364,139.2843844,
埼玉県,飯能市,7-2,大字久須美13-1,バス停「坂上」先,35.8694163,139.2793465,
埼玉県,飯能市,7-3,大字小瀬戸65,飯能第二小学校体育館入口フェンス,35.8659014,139.2722119,
埼玉県,飯能市,7-4,大字小岩井757-1,千歳橋東側,35.8643491,139.2730592,
埼玉県,飯能市,7-5,大字小瀬戸18-2,第二区地区行政センター向かい,35.8665374,139.2701033,
埼玉県,飯能市,7-6,大字小瀬戸169-1,自動車販売店北,35.8696695,139.2660062,
埼玉県,飯能市,7-7,大字小瀬戸349-1,バス停「新寺」先,35.8702096,139.2612855,
埼玉県,飯能市,7-8,大字小瀬戸446-2,野口入ポンプ場フェンス,35.8744461,139.2568824,
埼玉県,飯能市,8-1,大字中山537-1,衣料品店東側交差点,35.8612326,139.3177831,
埼玉県,飯能市,8-2,大字中山475-1,交差点「中山」西側植込み,35.8620483,139.3211204,
埼玉県,飯能市,8-3,大字中山341-3,交差点「中山陸橋(西)」,35.8609751,139.3231454,
埼玉県,飯能市,8-4,大字中山720-1,中山城会館前、掲示板脇,35.8635923,139.3243024,
埼玉県,飯能市,8-5,大字中居116-2,中居自治会館東側,35.8646066,139.3299163,
埼玉県,飯能市,8-6,大字青木249-4,バス停「青木」付近フェンス,35.8627262,139.3312685,
埼玉県,飯能市,8-7,大字青木186-2先,酒店北側,35.8640435,139.3326312,
埼玉県,飯能市,9-1,大字下加治388-1,大川学園北,35.8616319,139.3362728,
埼玉県,飯能市,9-2,大字下加治127-1先,下加治自治会館西側,35.8651228,139.3364321,
埼玉県,飯能市,9-3,大字宮沢204-1,製茶店東側,35.8778943,139.3323971,
埼玉県,飯能市,9-4,大字小久保65-1,精明小学校北側フェンス,35.8661178,139.3423904,
埼玉県,飯能市,9-5,大字小久保55-1,精明地区行政センター東側駐車場フェンス,35.8661797,139.3445687,
埼玉県,飯能市,9-6,大字平松73-1,masked,35.8655976,139.3453087,
埼玉県,飯能市,9-7,大字平松92-2,コンビニ東側,35.8674329,139.3466006,
埼玉県,飯能市,9-8,大字双柳1396-4,masked,35.8618323,139.344325,
埼玉県,飯能市,10-1,大字川崎202-1,建具店西側,35.87389,139.3569566,
埼玉県,飯能市,10-2,大字下川崎341-7,下川崎農業センター東側フェンス,35.8763801,139.3634988,
埼玉県,飯能市,10-3,大字川崎5-1,バス停「川崎」付近,35.8710549,139.3614288,
埼玉県,飯能市,10-4,大字芦苅場782-1先,老人福祉施設西側,35.8673703,139.3561803,
埼玉県,飯能市,10-5,大字芦苅場663-1,坂上地蔵尊向かい,35.8659563,139.3635081,
埼玉県,飯能市,10-6,大字芦苅場150-10,コンビニ東側,35.8641447,139.3673634,
埼玉県,飯能市,11-1,大字双柳649-2,タクシー会社南側,35.8513332,139.3357754,
埼玉県,飯能市,11-2,大字双柳570-1,双柳自治会館北側ブロック塀,35.8562429,139.3354233,
埼玉県,飯能市,11-3,大字双柳1038-36,東原1号公園南側フェンス,35.852018,139.3393695,
埼玉県,飯能市,11-4,大字双柳1194-1,双柳小学校東側フェンス,35.8536012,139.3408521,
埼玉県,飯能市,11-5,大字双柳1194-1,双柳小学校正門横(東側)フェンス,35.8543599,139.3399053,
埼玉県,飯能市,11-6,大字双柳1273-1,昇降機製造社北側フェンス,35.8571172,139.3407365,
埼玉県,飯能市,11-7,大字双柳1151-1先,masked,35.8557107,139.3445563,
埼玉県,飯能市,11-8,大字双柳1493-37,masked,35.8557238,139.3459605,
埼玉県,飯能市,12-1,大字双柳1029-11,バス停「双柳中央」南,35.851228,139.3376146,
埼玉県,飯能市,12-2,大字双柳993-3,双柳地区行政センター西側臨時駐車場,35.8499548,139.340009,
埼玉県,飯能市,12-3,大字双柳970-2,双柳地区行政センター東側,35.8495763,139.3407482,
埼玉県,飯能市,12-4,大字双柳987先,双柳地区行政センター南西,35.8490852,139.3396254,
埼玉県,飯能市,12-5,大字岩沢221-1,税理士事務所前,35.8454061,139.3417721,
埼玉県,飯能市,12-6,大字岩沢268-4,プリント配線製造会社西側フェンス,35.8455064,139.3444687,
埼玉県,飯能市,12-7,大字新光55-1,ガス・石油販売会社北側フェンス,35.8521485,139.3442291,
埼玉県,飯能市,13-1,大字岩沢69-3,コンビニ南側万年塀,35.8469309,139.3360658,
埼玉県,飯能市,13-2,大字岩沢41,旧釣堀跡地フェンス,35.8452649,139.3360499,
埼玉県,飯能市,13-3,大字岩沢522-5先,岩沢陸橋北側白髭白山神社北,35.8437844,139.3390804,
埼玉県,飯能市,13-4,大字岩沢816-1,市営元加治駅自転車駐輪場,35.8408076,139.3450568,
埼玉県,飯能市,13-5,大字岩沢684-2先,岩沢陸橋南側明王寺西,35.8402555,139.3383803,
埼玉県,飯能市,13-6,大字岩沢1078-1,加治東地区行政センター西側駐車場フェンス,35.8377865,139.336377,
埼玉県,飯能市,13-7,大字岩沢1280-18,加治東小学校正門横ガードレール,35.8370025,139.3383673,
埼玉県,飯能市,13-8,大字阿須812-17,ホームセンター向かい,35.8321554,139.3402961,
埼玉県,飯能市,14-1,大字笠縫422-1,リユースショップ向かいフェンス,35.8485259,139.3313398,
埼玉県,飯能市,14-2,大字笠縫304-1,JR六道踏切南、資材置き場(鉄パイプ),35.8442098,139.3318854,
埼玉県,飯能市,14-3,大字笠縫97-2先,正願寺北 道路沿い空き地,35.8420324,139.3294932,
埼玉県,飯能市,14-4,大字川寺500-1,加治小学校北側フェンス,35.8430424,139.3262808,
埼玉県,飯能市,14-5,大字川寺500-1,加治小学校西門横フェンス(鉄塔西側),35.8429641,139.325106,
埼玉県,飯能市,14-6,大字川寺500-1,加治小学校正門南側プール横フェンス,35.8416769,139.3265973,
埼玉県,飯能市,14-7,大字笠縫59-1,加治地区行政センター前フェンス,35.8397438,139.326806,
埼玉県,飯能市,14-8,大字笠縫204-2,JR八高線ガード先 西側フェンス,35.839185,139.3323923,
埼玉県,飯能市,15-1,大字矢颪145-3,矢久橋南側ガードレール,35.8478597,139.3149243,
埼玉県,飯能市,15-2,大字矢颪235-3,バス停「毘沙門天」脇フェンス,35.8458833,139.3143798,
埼玉県,飯能市,15-3,征矢町37-9,矢川橋際(下流側),35.8444698,139.3182185,
埼玉県,飯能市,15-4,征矢町2-5先 (大字矢颪69-3),交差点「矢颪」南側フェンス,35.8436193,139.3172188,
埼玉県,飯能市,15-5,征矢町6-1,征矢町いちご公園東側フェンス,35.8433176,139.3185099,
埼玉県,飯能市,15-6,征矢町31-1先,浄化センター正門向かい,35.8377697,139.3224302,
埼玉県,飯能市,15-7,大字落合312-7,バイク販売店向かい,35.8350322,139.3186415,
埼玉県,飯能市,16-1,美杉台3丁目15-10先 (102),バス停「ひかり橋」(飯能駅南口行き)付近,35.8423812,139.3110304,
埼玉県,飯能市,16-2,美杉台3丁目9-5先 (100),ギャラリー美杉台北、十字路植込み,35.843042,139.3096637,
埼玉県,飯能市,16-3,美杉台1丁目29,美杉台小学校西側フェンス,35.8447361,139.3102705,
埼玉県,飯能市,16-4,美杉台1丁目23-1,美杉台公園管理事務所敷地東側植込み,35.8481848,139.3086338,
埼玉県,飯能市,16-5,美杉台4丁目1先 (103),見晴らし公園南側道路際,35.8445632,139.3070065,
埼玉県,飯能市,16-6,美杉台5丁目3,美杉台中学校南西側角,35.8464302,139.3033865,
埼玉県,飯能市,16-7,美杉台7丁目31,クリーンセンター向かいフェンス(交差点脇),35.8454007,139.2967621,
埼玉県,飯能市,16-8,茜台2丁目8-1,龍崖山公園入口東側フェンス,35.8497732,139.2948349,
埼玉県,飯能市,17-1,大字岩渕504-1,バス停「前ケ貫入口」,35.834399,139.3158258,
埼玉県,飯能市,17-2,大字岩渕178-2,みどり橋南,35.8375929,139.3081959,
埼玉県,飯能市,17-3,大字岩渕31-3,岩渕団地集会所西側,35.8379336,139.304303,
埼玉県,飯能市,17-4,大字岩渕748-4先,岩井堂観音手前,35.8366338,139.3015618,
埼玉県,飯能市,17-5,大字下畑135-1,旧ゴルフ場前植込み,35.8376003,139.299186,
埼玉県,飯能市,17-6,大字下畑193,交差点「下畑」北西側植込み,35.8375698,139.2957059,
埼玉県,飯能市,17-7,大字下畑319-2,老人福祉施設北 市道ガードレール,35.8368846,139.2938663,
埼玉県,飯能市,18-1,大字上畑252-2,寳光寺西、市道ガードレール,35.8385102,139.2830204,
埼玉県,飯能市,18-2,大字苅生18-2,精密加工会社前,35.8488498,139.2764652,
埼玉県,飯能市,18-3,大字下直竹1122-2,南高麗地区行政センター前フェンス,35.8426625,139.2780836,
埼玉県,飯能市,18-4,大字下直竹125,南高麗小学校正門横フェンス,35.8408687,139.2780607,
埼玉県,飯能市,18-5,大字下直竹791-1,申渕公会堂前ガードレール(バス停「申渕」付近),35.844047,139.2657044,
埼玉県,飯能市,18-6,大字上直竹下分33-2先,建築店南、直竹川沿いガードレール,35.8461336,139.2572867,
埼玉県,飯能市,18-7,大字上直竹下分176-2先,上直竹下分自治会館入口向かいガードレール,35.8429353,139.2530623,
埼玉県,飯能市,18-8,大字上直竹上分267,バス停「間野黒指」先,35.8431522,139.2330165,
埼玉県,飯能市,19-1,大字下赤工1-2,扇橋南T字路,35.8679903,139.2609151,
埼玉県,飯能市,19-2,大字下赤工106-1,尾長、金属加工会社西、二差路付近,35.8664166,139.2585387,
埼玉県,飯能市,19-3,大字原市場103-3,バス停「曲竹」先,35.8679816,139.2569818,
埼玉県,飯能市,19-4,大字下赤工410,二之瀬橋西側,35.8679342,139.2502451,
埼玉県,飯能市,19-5,大字下赤工519-4,原市場小学校前電話ボックス東側,35.8686388,139.2472407,
埼玉県,飯能市,19-6,大字原市場289-1,大正橋北、房ケ谷戸観光トイレ東,35.8706312,139.2456843,
埼玉県,飯能市,19-7,大字上赤工241-1,バス停「畑中」横,35.8706737,139.2352432,
埼玉県,飯能市,20-1,大字原市場637-1,原市場中学校北側フェンス,35.86736,139.2340247,
埼玉県,飯能市,20-2,大字原市場631-3,バス停「原市場中学校」横フェンス,35.8670539,139.2347945,
埼玉県,飯能市,20-3,大字原市場1014-4,原市場地区行政センター南東,35.8621989,139.2361749,
埼玉県,飯能市,20-4,大字赤沢77-1,バス停「中屋敷」先,35.8601785,139.2315555,
埼玉県,飯能市,20-5,大字唐竹133-1先,唐竹自治会館南,35.8592146,139.2275648,
埼玉県,飯能市,20-6,大字赤沢256-2,金錫寺向かい,35.862559,139.2238375,
埼玉県,飯能市,20-7,大字赤沢555,製材店向かい,35.8597894,139.2192603,
埼玉県,飯能市,20-8,大字赤沢786-3,バス停「鹿戸」脇,35.856096,139.209945,
埼玉県,飯能市,20-9,大字赤沢894-1,バス停「黒指」脇,35.8566808,139.2056803,
埼玉県,飯能市,21-1,大字中藤下郷189-2,バス停「種木橋」付近,35.8789605,139.246893,
埼玉県,飯能市,21-2,大字中藤下郷357-1,バス停「下郷」前,35.8798433,139.2391297,
埼玉県,飯能市,21-3,大字中藤中郷41-2先,バス停「中郷」手前,35.8828864,139.2363714,
埼玉県,飯能市,21-4,大字中藤中郷406-4,中藤中郷自治会館,35.8802981,139.2315146,
埼玉県,飯能市,21-5,大字中藤上郷31-1,旭橋先丁字路(県道南飯能線沿い),35.8769933,139.2275982,
埼玉県,飯能市,21-6,大字中藤上郷181-2先,養福寺手前ガードレール,35.8830958,139.2225824,
埼玉県,飯能市,21-7,大字南752-4,バス停「中沢」手前,35.8865468,139.208271,
埼玉県,飯能市,21-8,大字南594-5先,ごみ集積所「互美庵」南ガードレール,35.8921507,139.2031752,
埼玉県,飯能市,22-1,大字白子193-1,自動車販売店前,35.8878103,139.2758684,
埼玉県,飯能市,22-2,大字白子395-1,国道299号沿い 飯能消防団第9分団第2部先,35.8922388,139.2692219,
埼玉県,飯能市,22-3,大字平戸53-1,天神橋南,35.8920904,139.2664616,
埼玉県,飯能市,22-4,大字平戸264-2,国道299号沿い 平戸橋入口信号交差点 携帯電話基地局前,35.8912928,139.2621178,
埼玉県,飯能市,22-5,大字虎秀14-5,東吾野地区行政センター前フェンス,35.894054,139.2609322,
埼玉県,飯能市,22-6,大字虎秀497-2,虎秀1号橋下流、ごみ集積所脇,35.8960792,139.2594108,
埼玉県,飯能市,22-7,大字虎秀404-3,ユガテ入口手前ガードレール,35.9063668,139.2626857,
埼玉県,飯能市,22-8,大字井上144-1,国道299号沿い 木工品製造店西側先,35.8979758,139.2506429,
埼玉県,飯能市,22-9,大字井上460-1,国道299号沿い 下平橋北、ごみ集積所付近,35.9051543,139.2473518,
埼玉県,飯能市,23-1,大字長沢1701,阿寺、防火水槽看板脇,35.9211862,139.2486568,
埼玉県,飯能市,23-2,大字長沢1479,風影公会堂手前、郵便ポスト横,35.9250937,139.2417072,
埼玉県,飯能市,23-3,大字井上781-2,国道299号沿い 吾野トンネル手前,35.9087518,139.2412685,
埼玉県,飯能市,23-4,大字坂石町分14-1,南天神橋手前,35.9058176,139.2382583,
埼玉県,飯能市,23-5,大字長沢82,奥武蔵小学校正門横フェンス,35.9122879,139.2303815,
埼玉県,飯能市,23-6,大字長沢240-3,両吾野浄水場入口横,35.9218618,139.2234574,
埼玉県,飯能市,23-7,大字坂石町分332-2,法光寺北側フェンス,35.9091476,139.2249797,
埼玉県,飯能市,23-8,大字坂石224-1,坂石橋手前,35.9130053,139.2213163,
埼玉県,飯能市,24-1,大字坂石512-3,国道299号沿い 梨本自治会入口,35.9166249,139.215522,
埼玉県,飯能市,24-2,大字吾野26-1,国道299号沿い 宿泊施設手前退避スペース植栽,35.9194759,139.2121786,
埼玉県,飯能市,24-3,大字吾野186-1,吾野地区行政センター東側フェンス,35.9218195,139.2073915,
埼玉県,飯能市,24-4,大字吾野270-2,国道299号沿い 携帯電話基地局東側,35.9208661,139.2067042,
埼玉県,飯能市,24-5,大字吾野489-3,国道299号沿い 小床橋入口向かい掲示板脇,35.9221998,139.2015758,
埼玉県,飯能市,24-6,大字吾野622-5,西吾野駅入口,35.9256034,139.2011467,
埼玉県,飯能市,24-7,大字吾野759-2,国道299号沿い 西吾野先退避スペース,35.9291002,139.1981694,
埼玉県,飯能市,25-1,大字南川153-3,旧南川小学校校庭,35.9308914,139.1920843,
埼玉県,飯能市,25-2,大字南川1190-1,県道395号沿い 奥武蔵小学校スクールバス発着所看板先,35.9222361,139.1908463,
埼玉県,飯能市,25-3,大字南川1291-2先,上久通、地蔵橋際ごみ集積所横,35.9196711,139.1848697,
埼玉県,飯能市,25-4,大字南川658-2,国道299号沿い 電気機械部品製造会社先,35.9349922,139.1875692,
埼玉県,飯能市,25-5,大字南川721,畑井自治会館向かい,35.9296905,139.191665,
埼玉県,飯能市,25-6,大字南川580-4,国道299沿い レストラン向かい,35.9384159,139.1831636,
埼玉県,飯能市,25-7,大字坂元1205-3,正丸駅入口,35.9391019,139.1815402,
埼玉県,飯能市,25-8,大字坂元1220-1,国道299号沿い 正丸駅先(高麗川源流標識付近),35.9404959,139.1801375,
埼玉県,飯能市,26-1,大字北川169-1先,製材店先ガードレール,35.932579,139.2023896,
埼玉県,飯能市,26-2,大字北川378-2,高畑林道入口ガードレール,35.9345378,139.1998199,
埼玉県,飯能市,26-3,大字北川620-1,旧北川小学校手前丁字路,35.940175,139.1943099,
埼玉県,飯能市,26-4,大字北川623-1,旧北川小学校校庭,35.9406383,139.1942111,
埼玉県,飯能市,26-5,大字北川633-1先,道路照明灯先ガードレール,35.9419409,139.1960755,
埼玉県,飯能市,26-6,大字北川790-2,空竜入口ガードレール,35.9455946,139.1981812,
埼玉県,飯能市,26-7,大字北川700-1,上吾野簡易水道浄水場前,35.9483912,139.1952991,
埼玉県,飯能市,26-8,大字北川1039-1,上吾野簡易取水口先,35.9504268,139.1906092,
埼玉県,飯能市,27-1,大字下名栗1173-3,masked,35.8513254,139.1988086,
埼玉県,飯能市,27-2,大字下名栗37-2,理容店手前ガードレール,35.8542873,139.1978082,
埼玉県,飯能市,27-3,大字下名栗269先,バス停「名栗川橋」横ガードレール,35.8605108,139.1890304,
埼玉県,飯能市,27-4,大字下名栗861-6,あすなろ会館グラウンド 第11分団詰所横フェンス,35.8612937,139.1870015,
埼玉県,飯能市,27-5,大字下名栗860-1,あすなろ会館グラウンド南東フェンス,35.8615273,139.1875676,
埼玉県,飯能市,27-6,大字下名栗381-2,バス停「浅海戸」横,35.8677625,139.1868988,
埼玉県,飯能市,27-7,大字下名栗487-1,新シ地内三差路、工務店向かい,35.8702278,139.1856224,
埼玉県,飯能市,27-8,大字下名栗537-2,有間橋手前ネットフェンス,35.8719411,139.1866167,
埼玉県,飯能市,28-1,大字上名栗14-1,バス停「鍛冶屋橋」手前,35.8750016,139.1864418,
埼玉県,飯能市,28-2,大字上名栗3136-1,名栗地区行政センター横,35.8822495,139.1816862,
埼玉県,飯能市,28-3,大字上名栗237-1,小殿橋入口フェンス,35.8849094,139.1825606,
埼玉県,飯能市,28-4,大字上名栗2887-4,名栗小学校体育館北側ガードレール,35.8871001,139.1795379,
埼玉県,飯能市,28-5,大字上名栗368-2,バス停「名栗車庫」前,35.8917465,139.1780814,
埼玉県,飯能市,28-6,大字上名栗2833-2,旧名栗中学校北西側ガードレール、ごみ集積所脇,35.8928846,139.1761656,
埼玉県,飯能市,28-7,大字上名栗502-5,商店東側、ごみ集積場先,35.8958117,139.1746369,
埼玉県,飯能市,28-8,大字上名栗876-1,バス停「ひつ沢」東側,35.8969323,139.1702265,
埼玉県,飯能市,29-1,大字上名栗1070-2,諏訪神社先、植込み,35.9029182,139.1616555,
埼玉県,飯能市,29-2,大字上名栗2579-6,浜居場橋南ガードレール,35.9046421,139.1593568,
埼玉県,飯能市,29-3,大字上名栗1203-3,バス停「中海戸」先,35.9059554,139.1577931,
埼玉県,飯能市,29-4,大字上名栗1192-2,バス停「名郷」手前,35.9106968,139.1487111,
埼玉県,飯能市,29-5,大字上名栗1736-1,ふるさと会館入口フェンス,35.9115785,139.147863,
埼玉県,飯能市,29-6,大字上名栗1804-1先,名栗簡易水道浄水場前ゴミ集積所,35.9120969,139.1451116,
埼玉県,飯能市,29-7,大字上名栗1664-1,石神橋先,35.9141867,139.1506624,
埼玉県,飯能市,29-8,大字上名栗1443-3,バス停「湯の沢」先、ごみ集積所脇,35.9210334,139.1511908,
