prefecture,city,number,address,name,lat,long,note
埼玉県,鴻巣市,1-1,本町8丁目7番23号,鴻巣南小学校ブロック塀,36.0542124596128,139.515431479914,
埼玉県,鴻巣市,1-2,人形1丁目3番8号,ブロック塀,36.0537703660534,139.517255068985,
埼玉県,鴻巣市,1-3,人形1丁目3126番地,人形1丁目2号公園柵,36.0522347803077,139.517223160156,
埼玉県,鴻巣市,1-4,本町8丁目2番35号,鴻巣公園元市クラブ前柵,36.0552681750939,139.515642458286,
埼玉県,鴻巣市,1-5,本町8丁目2番73号,鴻巣公園よろずや前フェンス,36.0543792211588,139.513878882513,
埼玉県,鴻巣市,1-6,本町8丁目2番31号,勝願寺ブロック塀,36.0561605748467,139.514025161312,
埼玉県,鴻巣市,1-7,逆川2丁目2990番地4,鴻中陸橋下掲示板脇金網,36.055106444619,139.511607360198,
埼玉県,鴻巣市,2-1,本町5丁目6番,月極駐車場フェンス,36.057105470474,139.513638571705,
埼玉県,鴻巣市,2-2,本町4丁目9番38号,フェンス,36.0582377626295,139.512347605193,
埼玉県,鴻巣市,2-3,本町3丁目3番5号,上尾税務署鴻巣宿舎フェンス,36.0611313035722,139.514421294881,
埼玉県,鴻巣市,2-4,東2丁目4番62号,鴻巣中学校正門通りフェンス,36.0605060532568,139.516746293961,
埼玉県,鴻巣市,2-5,本町6丁目4番56号,鴻巣東小学校鴻秋屋前金網,36.0588747300967,139.515899152464,
埼玉県,鴻巣市,2-6,天神1丁目1番72号,県立鴻巣女子高校正門通りフェンス,36.0595550453876,139.517946876405,
埼玉県,鴻巣市,2-7,天神2丁目3番,市営テニスコート金網,36.0575615653146,139.520960219099,
埼玉県,鴻巣市,3-1,本町1丁目1番,JR鴻巣駅金網,36.0592829664753,139.509909284795,
埼玉県,鴻巣市,3-2,本町1丁目3番,エルミパーク内,36.0603307349276,139.510479212496,
埼玉県,鴻巣市,3-3,加美1丁目2番34号,エンゼル幼稚園線路側フェンス,36.0641267989491,139.506523830028,
埼玉県,鴻巣市,3-4,加美2丁目7番76号,池元院ブロック塀,36.0661412938923,139.506409969551,
埼玉県,鴻巣市,3-5,加美2丁目6番48号,ブロック塀,36.0673217465675,139.506740182165,
埼玉県,鴻巣市,3-6,加美1丁目6番46号,わたまクリニック裏金網,36.0672592834678,139.504790086182,
埼玉県,鴻巣市,3-7,宮地2丁目4番22号,ブロック塀,36.0665668138993,139.509685876731,
埼玉県,鴻巣市,4-1,宮地1丁目7番2号,垣根,36.065603379562,139.512782760464,
埼玉県,鴻巣市,4-2,本町2丁目4番,法要寺正門左側塀,36.0616050725716,139.512154254062,
埼玉県,鴻巣市,4-3,東1丁目9番37号,カラオケ館駐車場北側フェンス,36.0630550116211,139.516554717124,
埼玉県,鴻巣市,4-4,東1丁目6番,東町公園入口右側柵,36.0635166338779,139.514815974735,
埼玉県,鴻巣市,4-5,東1丁目78番地2,東町2号公園フェンス,36.0630064763907,139.515594478729,
埼玉県,鴻巣市,4-6,宮地1丁目2番12号,フェンス,36.0644155228938,139.51262681403,
埼玉県,鴻巣市,4-7,本宮町1番9号,鴻神社石塀,36.0630085782594,139.510936772012,
埼玉県,鴻巣市,5-1,天神3丁目10番,天神3丁目2号公園フェンス,36.0572633330892,139.528272709296,
埼玉県,鴻巣市,5-2,生出塚1丁目12番,上生出塚4号公園内,36.0599951884421,139.526922467137,
埼玉県,鴻巣市,5-3,天神4丁目92番地72,天神4丁目陽光台公園フェンス,36.059247634697,139.521949497062,
埼玉県,鴻巣市,5-4,生出塚2丁目8番,上生出塚3号公園柵,36.0621753515028,139.527635805219,
埼玉県,鴻巣市,5-5,生出塚2丁目32番,上生出塚2号公園柵,36.0624645606828,139.529218443105,
埼玉県,鴻巣市,5-6,ひばり野2丁目18番,ひばり野団地あじさい公園内,36.0646292809429,139.530517140527,
埼玉県,鴻巣市,5-7,ひばり野2丁目6番,ひばり野団地はぎ公園内,36.06616579439,139.529223170494,
埼玉県,鴻巣市,6-1,東3丁目8番17号,鴻巣市役所第二庁舎脇東裏1号公園内,36.0642179894619,139.520470252441,
埼玉県,鴻巣市,6-2,東3丁目6番2号,ブロック塀,36.0639489832959,139.518428639779,
埼玉県,鴻巣市,6-3,中央1番1号,鴻巣市役所駐車場内,36.0662270868664,139.521596682548,
埼玉県,鴻巣市,6-4,中央2番1号,鴻巣保健センターフェンス,36.0655969061533,139.523654089472,
埼玉県,鴻巣市,6-5,宮地5丁目6番,宮地公園内掲示板隣柵,36.0661358982348,139.515112677611,
埼玉県,鴻巣市,6-6,ひばり野1丁目12番,ひばり野団地中央公園内テニスコート脇,36.0670694522798,139.525619095314,
埼玉県,鴻巣市,6-7,ひばり野1丁目20番,ひばり野団地ふじ公園柵,36.0675731873375,139.527373365086,
埼玉県,鴻巣市,6-8,中央30番1号,鴻巣中央小学校西側フェンス,36.0686998676415,139.522135002745,
埼玉県,鴻巣市,7-1,箕田3717番地,ブロック塀,36.0752907718397,139.487305469991,
埼玉県,鴻巣市,7-2,宮前84番地7,関東工業自動車大学校駐車場脇市有地内,36.0734541369008,139.483370748021,
埼玉県,鴻巣市,7-3,箕田408番地,箕田小学校正門脇金網,36.0766629536471,139.483142448003,
埼玉県,鴻巣市,7-4,箕田292番地,ブロック塀,36.0788346314174,139.480241330675,
埼玉県,鴻巣市,7-5,箕田196番地1,ブロック塀,36.0802806146041,139.477902217861,
埼玉県,鴻巣市,7-6,箕田311番地,箕田浄水場前フェンス,36.076866947501,139.479161378752,
埼玉県,鴻巣市,7-7,すみれ野13番,すみれ野中央公園内フェンス,36.0836483841389,139.477019903445,
埼玉県,鴻巣市,8-1,赤見台1丁目15番,赤見台中央公園市民センター脇入口,36.0865541758066,139.479114754084,
埼玉県,鴻巣市,8-2,赤見台1丁目1番,JR北鴻巣駅フェンス,36.0856119025517,139.477018804652,
埼玉県,鴻巣市,8-3,赤見台1丁目15番,赤見台中央公園駅側入口,36.086051894399,139.478934267935,
埼玉県,鴻巣市,8-4,赤見台1丁目1番3号,野口商店脇駐車場フェンス,36.0882116508751,139.47469387809,
埼玉県,鴻巣市,8-5,赤見台2丁目2番,駅前プラザ第2団地25号棟前フェンス,36.0882860611123,139.478249770829,
埼玉県,鴻巣市,8-6,赤見台2丁目2番,駅前プラザ8号棟脇植栽帯前,36.0878270394693,139.476575984196,
埼玉県,鴻巣市,8-7,赤見台1丁目5番,駅前公園内,36.0857541434035,139.477609351706,
埼玉県,鴻巣市,9-1,箕田4193番地,ブロック塀,36.0682964735446,139.50028616206,
埼玉県,鴻巣市,9-2,箕田4173番地2,鴻巣集会所フェンス,36.068887258801,139.499969972256,
埼玉県,鴻巣市,9-3,箕田4201番地,フェンス,36.0687043842917,139.499115874132,
埼玉県,鴻巣市,9-4,箕田3782番地1,masked,36.0727227478099,139.494661072741,
埼玉県,鴻巣市,9-5,箕田3992番地3,ブロック塀,36.0718748745524,139.498367559608,
埼玉県,鴻巣市,9-6,八幡田594番地,八幡田共同墓地ブロック塀,36.0741350837429,139.49523087629,
埼玉県,鴻巣市,9-7,箕田3908番地,ブロック塀,36.0701615264415,139.497318917817,
埼玉県,鴻巣市,10-1,寺谷125番地,鴻巣フラワーセンター前歩道フェンス,36.0812342465236,139.502839583198,
埼玉県,鴻巣市,10-2,市ノ縄250番地1,鴻巣フラワーパレス脇歩道フェンス,36.0770708002851,139.509299008736,
埼玉県,鴻巣市,10-3,八幡田661番地,(株)みたけ食品裏八幡田公園内,36.0750067309877,139.497276080713,
埼玉県,鴻巣市,10-4,八幡田831番地,済生会鴻巣病院前荒句遊園地内,36.0721572636508,139.502345304103,
埼玉県,鴻巣市,10-5,神明3丁目18番10号,鴻巣北小学校正門右側フェンス,36.0713872910146,139.504886859486,
埼玉県,鴻巣市,10-6,箕田4280番地,鴻巣北中学校南側フェンス,36.0706703535203,139.509737931761,
埼玉県,鴻巣市,10-7,神明3丁目4番1号,(株)おおとり・コーポレーション裏金網,36.0700985601115,139.503385743998,
埼玉県,鴻巣市,11-1,大間680番地5,鴻巣駅西口交差点脇フェンス,36.0572906128723,139.505803734014,
埼玉県,鴻巣市,11-2,大間4丁目9番17号,JR側フェンス,36.0598503921418,139.507123840454,
埼玉県,鴻巣市,11-3,大間4丁目14番,逆川公園フェンス,36.0588224451956,139.50509884798,
埼玉県,鴻巣市,11-4,栄町7番18号,ドラッグストアセキ鴻巣栄町店フェンス,36.0619963998587,139.50451005066,
埼玉県,鴻巣市,11-5,大間1丁目3番13号,フェンス,36.0637980923116,139.503794946483,
埼玉県,鴻巣市,11-6,大間3丁目1番54号,フェンス,36.0618379236395,139.503614653311,
埼玉県,鴻巣市,11-7,大間3丁目11番,大間公園柵,36.0608169934136,139.500224706575,
埼玉県,鴻巣市,12-1,宮前625番地1,ブロック塀,36.0675619954121,139.500662145246,
埼玉県,鴻巣市,12-2,宮前547番地1,理研コランダム(株)正門入口フェンス,36.0675114093919,139.497595924069,
埼玉県,鴻巣市,12-3,宮前547番地1,理研コランダム(株)西側通り塀,36.0666456793658,139.496380065242,
埼玉県,鴻巣市,12-4,宮前463番地1,宮前公園入口左側柵,36.0686014867434,139.496349110339,
埼玉県,鴻巣市,12-5,宮前357番地,永林寺ブロック塀,36.0699247714614,139.494779145075,
埼玉県,鴻巣市,12-6,宮前400番地1,ブロック塀,36.0713530009488,139.493870276643,
埼玉県,鴻巣市,12-7,登戸449番地,コミュニティふれあいセンターフェンス,36.0694310290881,139.492782261554,
埼玉県,鴻巣市,13-1,緑町48番地,東急登戸団地みどり公園フェンス,36.0641618905102,139.499431472866,
埼玉県,鴻巣市,13-2,堤町9番地,大間地産1号公園西側フェンス,36.0629705728984,139.497128124039,
埼玉県,鴻巣市,13-3,登戸149番地,田間宮生涯学習センター前植栽帯内,36.0631793306902,139.494537041215,
埼玉県,鴻巣市,13-4,糠田2985番地,田間宮小学校裏金網,36.0648003103736,139.490398159612,
埼玉県,鴻巣市,13-5,糠田1468番地,ブロック塀,36.0651436653133,139.486548276295,
埼玉県,鴻巣市,13-6,糠田1439番地,放光寺裏ブロック塀,36.0641615451087,139.481540481067,
埼玉県,鴻巣市,13-7,糠田2332番地2,糠田新田自治会館ブロック塀,36.0709167362619,139.477771560779,
埼玉県,鴻巣市,14-1,小松4丁目2番27号,小田急マンション公園フェンス,36.0346913539419,139.531216664774,
埼玉県,鴻巣市,14-2,小松3丁目12番5号,ブロック塀,36.037807210531,139.529239010637,
埼玉県,鴻巣市,14-3,小松4丁目5番12号,(有)新井自動車工業ブロック塀,36.0346900545154,139.529393521822,
埼玉県,鴻巣市,14-4,松原4丁目3番4号,masked,36.0363245483716,139.526824745747,
埼玉県,鴻巣市,14-5,小松3丁目4番50号,masked,36.0387293348554,139.526070700828,
埼玉県,鴻巣市,14-6,松原4丁目11番23号,ブロック塀,36.0359240466261,139.523425800236,
埼玉県,鴻巣市,14-7,松原4丁目12番16号,松原会館フェンス,36.0349363770254,139.52444223906,
埼玉県,鴻巣市,15-1,松原1丁目18番,大栄団地1号公園内,36.0431489838069,139.519401937663,
埼玉県,鴻巣市,15-2,小松1丁目2番57号,花岡車輌(株)金網,36.0446279807164,139.520936071065,
埼玉県,鴻巣市,15-3,原馬室2425番地,松原小学校北側入口フェンス,36.0374628310188,139.519574363947,
埼玉県,鴻巣市,15-4,原馬室3460番地1,あたご公民館フェンス,36.0372322266238,139.514777153722,
埼玉県,鴻巣市,15-5,原馬室2425番地,松原小学校東側入口フェンス,36.0363559205773,139.519813080786,
埼玉県,鴻巣市,15-6,松原3丁目17番58号,ブロック塀,36.03821471258,139.521293047073,
埼玉県,鴻巣市,15-7,松原3丁目7番,すみれ公園フェンス,36.0396967073451,139.522928740614,
埼玉県,鴻巣市,16-1,氷川町56番地,氷川町4号公園金網,36.0497337079014,139.511620733825,
埼玉県,鴻巣市,16-2,滝馬室682番地1,中学校給食センター金網,36.0461472467952,139.507523689479,
埼玉県,鴻巣市,16-3,原馬室782番地,畑,36.0446655820013,139.508890850901,
埼玉県,鴻巣市,16-4,原馬室3173番地5,フェンス,36.0391725641804,139.509540647854,
埼玉県,鴻巣市,16-5,原馬室843番地1,JAさいたま旧馬室支所金網,36.0431733937941,139.511156446257,
埼玉県,鴻巣市,16-6,原馬室4150番地,旧馬室公民館跡地ブロック塀,36.0426607429125,139.513914672434,
埼玉県,鴻巣市,16-7,原馬室88番地1,日本フエルト(株)フェンス,36.0489452420839,139.515412525943,
埼玉県,鴻巣市,17-1,逆川1丁目3番1号,フェンス,36.0578145406293,139.509121247843,
埼玉県,鴻巣市,17-2,氷川町4番地,氷川町1号公園金網,36.0539763190377,139.51063209031,
埼玉県,鴻巣市,17-3,逆川2丁目5番2号,ブロック塀,36.0552109307355,139.509443940467,
埼玉県,鴻巣市,17-4,滝馬室937番地,ブロック塀,36.0524660682075,139.505260675765,
埼玉県,鴻巣市,17-5,滝馬室1016番地,中閭遊園地フェンス,36.0508372154868,139.506378246176,
埼玉県,鴻巣市,17-6,滝馬室1139番地1,埼玉県央広域消防本部鴻巣西分署フェンス,36.0508877821605,139.503916517015,
埼玉県,鴻巣市,17-7,氷川町20番地1,エネスタ鴻巣店フェンス,36.0532536798368,139.513040526655,
埼玉県,鴻巣市,18-1,郷地2625番地2,小宮共同墓地ブロック塀,36.072460487238,139.545626940214,
埼玉県,鴻巣市,18-2,笠原2851番地,ブロック塀,36.0684861464374,139.553624983028,
埼玉県,鴻巣市,18-3,笠原1754番地,久伊豆神社ブロック塀,36.0656019323621,139.547858534983,
埼玉県,鴻巣市,18-4,笠原844番地2,二貫野集会所前水路フェンス,36.0594517852088,139.558685305256,
埼玉県,鴻巣市,18-5,郷地951番地,笠原公民館第2駐車場フェンス,36.0645340442197,139.540978849912,
埼玉県,鴻巣市,18-6,郷地585番地2,ブロック塀,36.0688623759769,139.532993617224,
埼玉県,鴻巣市,18-7,郷地380番地4,上郷地第2集会所フェンス,36.0726675617593,139.529144963296,
埼玉県,鴻巣市,18-8,安養寺320番地1,ブロック塀,36.0755892753707,139.516657017278,
埼玉県,鴻巣市,19-1,常光1414番地1,ブロック塀,36.040169038454,139.56139494005,
埼玉県,鴻巣市,19-2,常光1881番地1,ブロック塀,36.0476259231656,139.556287685164,
埼玉県,鴻巣市,19-3,下谷369番地,旧常光小学校フェンス,36.0502543625309,139.547617317654,
埼玉県,鴻巣市,19-4,下谷243番地,常光公民館入口フェンス,36.0503959328938,139.544858875474,
埼玉県,鴻巣市,19-5,上谷436番地,ブロック塀,36.0535399153221,139.540814339876,
埼玉県,鴻巣市,19-6,上谷2004番地,上谷火の見下跡地内,36.0562875376953,139.53604740032,
埼玉県,鴻巣市,19-7,西中曽根112番地,畑内(西中曽根墓地脇),36.0570463159499,139.541024851382,
埼玉県,鴻巣市,19-8,上谷1121番地,ブロック塀,36.0633105716268,139.539939571354,
埼玉県,鴻巣市,20-1,人形2丁目2番103号,人形浄水場フェンス,36.0550092543618,139.519010107535,
埼玉県,鴻巣市,20-2,人形4丁目3番30号,ブロック塀,36.0525631906774,139.523845194813,
埼玉県,鴻巣市,20-3,人形4丁目1番32号,八幡神社裏フェンス,36.0506454381499,139.520966126203,
埼玉県,鴻巣市,20-4,人形3丁目2番97号,(株)こうのす自動車教習所北側金網,36.0535016544953,139.52080509717,
埼玉県,鴻巣市,20-5,人形4丁目6番27号,(株)水野水道裏ブロック塀,36.0487106101499,139.521676514759,
埼玉県,鴻巣市,20-6,人形1丁目8番40号,ブロック塀,36.0481576940338,139.520331794354,
埼玉県,鴻巣市,20-7,人形2丁目2番37号,水資源機構鴻巣宿舎金網,36.0546286061772,139.521714454337,
埼玉県,鴻巣市,21-1,箕田461番地3,ブロック塀,36.0867566340912,139.471902584264,
埼玉県,鴻巣市,21-2,すみれ野105番地1,北鴻巣駅西口駅前広場植栽帯内,36.0857292298665,139.476514375089,
埼玉県,鴻巣市,21-3,赤見台2丁目6番1号,赤見台第二小学校正門脇金網,36.0892032302149,139.475112588406,
埼玉県,鴻巣市,21-4,愛の町530番地,愛の町第一公園フェンス,36.0901816641818,139.472688992245,
埼玉県,鴻巣市,21-5,赤見台2丁目7番3号,フェンス,36.0903176324559,139.474567845405,
埼玉県,鴻巣市,21-6,愛の町538番地,愛の町第二公園フェンス,36.0891101089953,139.473353549328,
埼玉県,鴻巣市,21-7,川面60番地,川面共同集荷所跡地前,36.0949219398333,139.475947042309,
埼玉県,鴻巣市,22-1,寺谷473番地1,JAさいたま鴻巣営農経済センター金網,36.0881601574262,139.493850472244,
埼玉県,鴻巣市,22-2,寺谷425番地,寺谷保育園金網,36.0858111521801,139.498600949777,
埼玉県,鴻巣市,22-3,赤見台3丁目37番地,赤見台近隣公園入口脇柵,36.0868946549711,139.480870107405,
埼玉県,鴻巣市,22-4,赤見台4丁目14番,赤見台さつき公園避難場所案内板脇柵,36.0837887364716,139.481492534265,
埼玉県,鴻巣市,22-5,赤見台4丁目19番1号,赤見台第一小学校正門脇金網,36.0827014929158,139.482467798949,
埼玉県,鴻巣市,22-6,赤見台4丁目25番1号,赤見台中学校南側金網,36.0810986221468,139.485309809285,
埼玉県,鴻巣市,22-7,稲荷町26番32号,箕田公民館フェンス,36.0789928677306,139.486742113569,
埼玉県,鴻巣市,23-1,吹上富士見1丁目1番25号,吹上生涯学習センター植栽帯内,36.1016361484361,139.452499594526,
埼玉県,鴻巣市,23-2,吹上富士見1丁目3番,フェンス,36.101303952821,139.454084452445,
埼玉県,鴻巣市,23-3,吹上富士見1丁目6番1号,吹上中学校裏フェンス,36.101124277132,139.456217311959,
埼玉県,鴻巣市,23-4,吹上富士見1丁目6番1号,吹上中学校テニスコート横金網,36.0992681630049,139.457626648005,
埼玉県,鴻巣市,23-5,吹上富士見1丁目6番1号,吹上中学校正門脇フェンス,36.0999763818293,139.455946579875,
埼玉県,鴻巣市,23-6,吹上富士見2丁目6番,吹上富士見第一児童遊園地内,36.0974165069525,139.458656882663,
埼玉県,鴻巣市,23-7,吹上498番地,吹上保健センターフェンス,36.0977976428847,139.46076183645,
埼玉県,鴻巣市,24-1,吹上本町1丁目1番1,JR吹上駅フェンス,36.1035671542328,139.452749734185,
埼玉県,鴻巣市,24-2,吹上本町2丁目4番8号,ブロック塀,36.1055641226781,139.454697974338,
埼玉県,鴻巣市,24-3,吹上本町1丁目12番,吉見屋たばこ店西側市有地内,36.1021037385541,139.45763397214,
埼玉県,鴻巣市,24-4,筑波1丁目5番,筑波児童公園フェンス,36.102791672946,139.459127918105,
埼玉県,鴻巣市,24-5,鎌塚1丁目1番21号,埼玉県央広域消防本部吹上分署裏金網,36.1073945310245,139.456089345128,
埼玉県,鴻巣市,24-6,吹上本町2丁目9番12号,吹上本町二丁目集会所フェンス,36.1061185288972,139.457790033142,
埼玉県,鴻巣市,24-7,筑波2丁目3番8号,フェンス,36.1000038039145,139.461210210761,
埼玉県,鴻巣市,25-1,北新宿9番地2,JR送電線フェンス,36.1092124572816,139.443881085935,
埼玉県,鴻巣市,25-2,吹上本町3丁目9番1号,ブロック塀,36.1063585317782,139.451608030271,
埼玉県,鴻巣市,25-3,吹上本町5丁目4番7号,高齢者福祉センターコスモスの家フェンス,36.1061615393199,139.448791013026,
埼玉県,鴻巣市,25-4,吹上本町5丁目10番,市有地内,36.1052472911907,139.445632256017,
埼玉県,鴻巣市,25-5,鎌塚5丁目2番20号,ブロック塀,36.1084781049241,139.446719913212,
埼玉県,鴻巣市,25-6,北新宿1038番地,雨水調整池擬木,36.1109465425713,139.440669763471,
埼玉県,鴻巣市,25-7,北新宿706番地66,北新宿第二町内会集会所フェンス,36.1102268924263,139.437586042245,
埼玉県,鴻巣市,26-1,南1丁目6番,吹上駅南口駅前広場植栽帯内,36.103018319097,139.452787833054,
埼玉県,鴻巣市,26-2,南1丁目10番5号,吹上小学校正門脇フェンス,36.1019675358688,139.452101711754,
埼玉県,鴻巣市,26-3,南1丁目10番,南ふれあい公園柵,36.1024102136505,139.450327832617,
埼玉県,鴻巣市,26-4,南1丁目18番13号,足立北部土地改良区フェンス,36.1008696927823,139.448854140242,
埼玉県,鴻巣市,26-5,南2丁目10番,水路フェンス,36.1028628073945,139.445117417107,
埼玉県,鴻巣市,26-6,南1丁目5番45号,富士電機機器制御(株)フェンス,36.1046381207255,139.447915102621,
埼玉県,鴻巣市,26-7,榎戸2丁目7番39号,ブロック塀,36.1042971526271,139.440822441461,
埼玉県,鴻巣市,27-1,大芦1100番地1,ブロック塀,36.0980932850586,139.443997499287,
埼玉県,鴻巣市,27-2,大芦1715番地,歩道フェンス,36.0934232330947,139.442984974747,
埼玉県,鴻巣市,27-3,大芦1455番地,大芦児童遊園地フェンス,36.0954660221118,139.446675015075,
埼玉県,鴻巣市,27-4,大芦923番地1,大芦小学校フェンス,36.0951299497683,139.453093051549,
埼玉県,鴻巣市,27-5,吹上富士見4丁目16番,吹上富士見テニスコートフェンス,36.0978938161134,139.449984851067,
埼玉県,鴻巣市,27-6,吹上富士見4丁目7番,吹上富士見第四児童遊園地内,36.0969348851873,139.456157003725,
埼玉県,鴻巣市,27-7,吹上富士見3丁目4番2号,鴻巣市シルバー人材センター吹上事務所フェンス,36.0962602418678,139.459094963689,
埼玉県,鴻巣市,28-1,明用288番地,ブロック塀,36.091374186578,139.458507619743,
埼玉県,鴻巣市,28-2,小谷1890番地,旧小谷小学校フェンス,36.0849392659886,139.464687517407,
埼玉県,鴻巣市,28-3,小谷1870番地,JAさいたま旧小谷支所金網,36.0854121863011,139.46544307724,
埼玉県,鴻巣市,28-4,小谷2385番地,ブロック塀,36.0809090159414,139.465077860263,
埼玉県,鴻巣市,28-5,小谷683番地,ブロック塀,36.077022554509,139.471337656551,
埼玉県,鴻巣市,28-6,小谷790番地1,フェンス,36.0809944424774,139.474337673294,
埼玉県,鴻巣市,28-7,小谷1995番地,ブロック塀,36.0843803279096,139.469152829646,
埼玉県,鴻巣市,28-8,前砂671番地1,ブロック塀,36.0914091903343,139.466166316255,
埼玉県,鴻巣市,29-1,袋90番地1,FUJI MALL吹上フェンス,36.0974732559997,139.465541100337,
埼玉県,鴻巣市,29-2,袋1666番地,水路金網,36.1009451781232,139.476302650859,
埼玉県,鴻巣市,29-3,下忍4461番地,特別養護老人ホーム吹上苑駐車場フェンス,36.1024889554072,139.467957326265,
埼玉県,鴻巣市,29-4,下忍3939番地2,吹上ふれあいセンターフェンス,36.1012249067228,139.463203410851,
埼玉県,鴻巣市,29-5,下忍3505番地3,下忍汚水中継ポンプ場フェンス,36.1057469125278,139.463945170913,
埼玉県,鴻巣市,29-6,下忍3248番地1,JAさいたま吹上支店ブロック塀,36.1080354719446,139.465345330151,
埼玉県,鴻巣市,29-7,下忍3782番地1,下忍第一公園フェンス,36.1019891738004,139.462241263986,
埼玉県,鴻巣市,30-1,新宿2丁目167番地,masked,36.1145099501386,139.440238027408,
埼玉県,鴻巣市,30-2,新宿1丁目228番地,新宿第一公園フェンス,36.1147152930512,139.442055096519,
埼玉県,鴻巣市,30-3,鎌塚550番地,吹上北中学校西側入口脇,36.1126945237869,139.453598234642,
埼玉県,鴻巣市,30-4,鎌塚183番地,ブロック塀,36.1106257936915,139.454731406588,
埼玉県,鴻巣市,30-5,鎌塚4丁目10番25号,フェンス,36.109763230461,139.449488272998,
埼玉県,鴻巣市,30-6,鎌塚2丁目11番33号,鎌塚保育所フェンス,36.1089046771593,139.453552233196,
埼玉県,鴻巣市,30-7,鎌塚10番地,下忍小学校正門前植栽帯内,36.1078850218311,139.459500529734,
埼玉県,鴻巣市,31-1,屈巣1954番地,ブロック塀,36.0825574988734,139.515590024769,
埼玉県,鴻巣市,31-2,屈巣1984番地,ブロック塀,36.083993092005,139.513766392472,
埼玉県,鴻巣市,31-3,屈巣2159番地1,ブロック塀,36.0865503224508,139.511838046576,
埼玉県,鴻巣市,31-4,屈巣4529番地2,屈巣小学校駐車場フェンス,36.0896029477163,139.510781530903,
埼玉県,鴻巣市,31-5,屈巣4515番地1,屈巣小学校フェンス,36.0915843213434,139.512004929675,
埼玉県,鴻巣市,31-6,屈巣3654番地,ブロック塀,36.0962390655125,139.502694117918,
埼玉県,鴻巣市,31-7,屈巣3837番地,ブロック塀,36.0940406930697,139.505245516066,
埼玉県,鴻巣市,31-8,屈巣2930番地4,フェンス,36.0951218743438,139.502721430539,
埼玉県,鴻巣市,32-1,広田2604番地,ブロック塀,36.1035423868299,139.518999003842,
埼玉県,鴻巣市,32-2,広田851番地1,NTT東日本川里電話交換センターフェンス,36.1048408078305,139.512330035175,
埼玉県,鴻巣市,32-3,広田3141番地1,川里生涯学習センター植栽帯内,36.1075730247296,139.512342110485,
埼玉県,鴻巣市,32-4,広田2247番地1,川里創作館フェンス,36.1112914340194,139.505970710633,
埼玉県,鴻巣市,32-5,広田3517番地3,川里ふれあいセンターフェンス,36.1143857755329,139.509545726331,
埼玉県,鴻巣市,32-6,北根1046番地,ブロック塀,36.1104020732921,139.528734411071,
埼玉県,鴻巣市,32-7,北根1300番地,フェンス,36.1144478232799,139.519989854714,
埼玉県,鴻巣市,32-8,北根1666番地1,防火水槽隣空地内,36.1148325815653,139.514463334676,
埼玉県,鴻巣市,33-1,関新田423番地2,ブロック塀,36.1063661695875,139.533626837248,
埼玉県,鴻巣市,33-2,関新田1323番地1,川里浄水場フェンス,36.0984340543624,139.527306766457,
埼玉県,鴻巣市,33-3,新井194番地2,共和小学校フェンス,36.1010365124103,139.539812757323,
埼玉県,鴻巣市,33-4,新井123番地,野村工務店ブロック塀,36.1002664853514,139.537588985799,
埼玉県,鴻巣市,33-5,境123番地,天満宮前県道フェンス,36.0973885546176,139.544450183595,
埼玉県,鴻巣市,33-6,境438番地,ブロック塀,36.0915123794249,139.544202862472,
埼玉県,鴻巣市,33-7,上会下549番地,ブロック塀,36.0980767460179,139.545855343532,
埼玉県,鴻巣市,33-8,上会下303番地3,ブロック塀,36.0986411162383,139.548834787265,
