prefecture,city,number,address,name,lat,long
福岡県,筑紫野市,1,,本町公園,33.5000915,130.515784
福岡県,筑紫野市,2,,西鉄二日市市営自転車駐車場,33.5018595,130.5166127
福岡県,筑紫野市,3,,西鉄二日市資材置場,33.5011687,130.5181032
福岡県,筑紫野市,4,,高尾川平成橋横,33.4993611,130.5186876
福岡県,筑紫野市,5,,二日市八幡宮横,33.497197,130.51711
福岡県,筑紫野市,6,,六反公民館,33.4977838,130.5140157
福岡県,筑紫野市,7,,塔の原団地（大坪）,33.4940707,130.5137137
福岡県,筑紫野市,8,,二日市小学校,33.4949135,130.5153117
福岡県,筑紫野市,9,,鳥居公民館,33.4939191,130.5166085
福岡県,筑紫野市,10,,ＪＲ二日市駅前交番前,33.4957247,130.5180005
福岡県,筑紫野市,11,,天拝小学校正門,33.494219,130.5018017
福岡県,筑紫野市,12,,武蔵台高校グラウンドバス通り,33.4977926,130.4984683
福岡県,筑紫野市,13,,杉塚公民館,33.5003197,130.5047402
福岡県,筑紫野市,14,,北杉塚公民館前公園,33.5097152,130.5042637
福岡県,筑紫野市,15,,セレモニー筑紫駐車場,33.498786,130.5100681
福岡県,筑紫野市,16,,塔原・原口池堤防,33.4950855,130.5071553
福岡県,筑紫野市,17,,大門高架下駐車場,33.4914624,130.5116659
福岡県,筑紫野市,18,,大門公民館,33.4896838,130.5074343
福岡県,筑紫野市,19,,筑紫野市商工会館斜め前,33.4898851,130.5162851
福岡県,筑紫野市,20,,天拝通公園,33.488274,130.5179953
福岡県,筑紫野市,21,,武蔵公民館,33.4858299,130.5149411
福岡県,筑紫野市,22,,筑紫野市文化会館,33.4848645,130.5207449
福岡県,筑紫野市,23,,筑紫野市生涯学習センター,33.4902242,130.520714
福岡県,筑紫野市,24,,いきいき保育園前,33.4921098,130.5198604
福岡県,筑紫野市,25,,石崎公民館,33.4876724,130.5285371
福岡県,筑紫野市,26,,市役所庁舎入口,33.4885994,130.5260284
福岡県,筑紫野市,27,,JR二日市駅市営自転車駐車場,33.4946435,130.519259
福岡県,筑紫野市,28,,ＮＴＴ西日本二日市ビル,33.4946858,130.5222314
福岡県,筑紫野市,29,,紫ケ丘公園,33.4916209,130.5283248
福岡県,筑紫野市,30,,ひまわり台団地公園,33.4947662,130.5286464
福岡県,筑紫野市,31,,中原３号公園,33.4912104,130.5329378
福岡県,筑紫野市,32,,みどり児童公園,33.4897635,130.5315712
福岡県,筑紫野市,33,,二日市東小学校,33.4906214,130.5254091
福岡県,筑紫野市,34,,県営住宅宝満荘団地,33.4914249,130.5235052
福岡県,筑紫野市,35,,曙町公民館,33.4974325,130.5300499
福岡県,筑紫野市,36,,二日市北小学校,33.4969687,130.5288244
福岡県,筑紫野市,37,,曙町・紫団地,33.4968532,130.5270471
福岡県,筑紫野市,38,,西鉄紫駅バス停,33.4964558,130.5217333
福岡県,筑紫野市,39,,松ヶ浦公園,33.4976404,130.5256616
福岡県,筑紫野市,40,,京町第２団地,33.498222,130.5273216
福岡県,筑紫野市,41,,京町公園,33.503348,130.5262239
福岡県,筑紫野市,42,,京町保育所,33.5039284,130.5226828
福岡県,筑紫野市,43,,京町教育集会所,33.5031024,130.5219411
福岡県,筑紫野市,44,,宮田町(旧セブン・イレブン横),33.5026628,130.5204871
福岡県,筑紫野市,45,,筑邦銀行二日市寮裏,33.5016644,130.5196173
福岡県,筑紫野市,46,,JR天拝山駅自転車駐車場,33.4828777,130.5305299
福岡県,筑紫野市,47,,西鉄朝倉街道駅踏切横,33.4850048,130.5319641
福岡県,筑紫野市,48,,針摺橋北,33.4837413,130.5354971
福岡県,筑紫野市,49,,ゆめタウン筑紫野,33.4832275,130.5390849
福岡県,筑紫野市,50,,筑紫野中学校,33.4855455,130.5401933
福岡県,筑紫野市,51,,上の浦公園,33.4883556,130.5370415
福岡県,筑紫野市,52,,針摺児童公園,33.4859143,130.5336109
福岡県,筑紫野市,53,,朝倉街道１号公園,33.4811686,130.5378581
福岡県,筑紫野市,54,,九州キャタピラ三菱建機販売社員クラブ,33.4809849,130.5436481
福岡県,筑紫野市,55,,大石バス停,33.5189049,130.5642012
福岡県,筑紫野市,56,,吉木小学校正門横,33.5132715,130.5569573
福岡県,筑紫野市,57,,西吉木公民館,33.5110497,130.5560295
福岡県,筑紫野市,58,,都坂団地１号公園下,33.5151473,130.5497566
福岡県,筑紫野市,59,,原公民館,33.5162617,130.5476473
福岡県,筑紫野市,60,,葉光ヶ丘調整池,33.5139637,130.5625769
福岡県,筑紫野市,61,,東吉木・日永田宅前,33.51154074,130.5608152
福岡県,筑紫野市,62,,みかさ台団地塚口古墳公園,33.512024,130.551582
福岡県,筑紫野市,63,,サニータウン宮の森公園,33.5161499,130.5425998
福岡県,筑紫野市,64,,六本松バス停,33.5031523,130.5506738
福岡県,筑紫野市,65,,柚ノ木バス停,33.4981942,130.5481754
福岡県,筑紫野市,66,,上阿志岐東公民館,33.5011911,130.5564942
福岡県,筑紫野市,67,,中阿志岐大宮司橋,33.4975058,130.554845
福岡県,筑紫野市,68,,天山公民館,33.4796818,130.5572564
福岡県,筑紫野市,69,,宮の前駐車場,33.4862575,130.5427659
福岡県,筑紫野市,70,,筑紫農協阿志岐支店,33.4881201,130.5521393
福岡県,筑紫野市,71,,柚須原公民館,33.5318476,130.592772
福岡県,筑紫野市,72,,香園バス停,33.5237564,130.5838334
福岡県,筑紫野市,73,,本道寺公民館,33.5237281,130.5802834
福岡県,筑紫野市,74,,竜岩自然の家,33.525638,130.588518
福岡県,筑紫野市,75,,上西山バス停,33.5072148,130.6061995
福岡県,筑紫野市,76,,下西山大橋,33.5035125,130.594711
福岡県,筑紫野市,77,,浦の下バス停横,33.4925021,130.5900693
福岡県,筑紫野市,78,,山家小学校,33.4856046,130.5802521
福岡県,筑紫野市,79,,山家コミュニティセンター,33.4868095,130.5819394
福岡県,筑紫野市,80,,筑紫野市消防団山家分団５号車車庫,33.482542,130.5777422
福岡県,筑紫野市,81,,山家児童遊園地,33.4793538,130.5739264
福岡県,筑紫野市,82,,株式会社ＳＫＥ前,33.476877,130.5722249
福岡県,筑紫野市,83,,株式会社ＳＫＥ裏,33.4779811,130.5717273
福岡県,筑紫野市,84,,筑紫駅前通１号公園,33.4625292,130.5553042
福岡県,筑紫野市,85,,筑紫駅前通２号公園,33.4606753,130.5584988
福岡県,筑紫野市,86,,ちくし台団地２号公園,33.4645515,130.5442476
福岡県,筑紫野市,87,,筑紫ケ丘団地２号公園,33.4594981,130.5468864
福岡県,筑紫野市,88,,西鉄筑紫駅東口,33.4629721,130.5532954
福岡県,筑紫野市,89,,西鉄筑紫駅西口,33.4628684,130.5525959
福岡県,筑紫野市,90,,筑紫駅西口1号公園,33.45887322,130.5502771
福岡県,筑紫野市,91,,くすのき公園,33.4699975,130.5605321
福岡県,筑紫野市,92,,筑山中学校,33.4646476,130.5522264
福岡県,筑紫野市,93,,河畔公園,33.4630343,130.5571099
福岡県,筑紫野市,94,,岡田隣保館,33.4730539,130.5535663
福岡県,筑紫野市,95,,カミーリヤ,33.4707603,130.5510214
福岡県,筑紫野市,96,,常松お宮,33.47329,130.5457564
福岡県,筑紫野市,97,,桜台団地１号公園,33.4725058,130.5424805
福岡県,筑紫野市,98,,西鉄桜台駅,33.4714951,130.5418778
福岡県,筑紫野市,99,,弥生の杜遊ゆう公園,33.4744498,130.5376924
福岡県,筑紫野市,100,,湯の上公園,33.4733772,130.5361854
福岡県,筑紫野市,101,,永岡八幡宮入口横,33.477429,130.5425554
福岡県,筑紫野市,102,,農業者トレーニングセンター,33.4682996,130.5433409
福岡県,筑紫野市,103,,城山ＪＲガード横三差路,33.4656862,130.5376593
福岡県,筑紫野市,104,,馬市お宮,33.4408357,130.5771471
福岡県,筑紫野市,105,,西小田三差路,33.4489261,130.5672767
福岡県,筑紫野市,106,,隈お宮,33.455271,130.5597548
福岡県,筑紫野市,107,,美しが丘北１号公園,33.4552764,130.5499464
福岡県,筑紫野市,108,,美しが丘北２号公園,33.4528324,130.549713
福岡県,筑紫野市,109,,筑紫東小学校,33.4538634,130.5542214
福岡県,筑紫野市,110,,光が丘２号公園,33.4499643,130.5611439
福岡県,筑紫野市,111,,光が丘３丁目津古駅進入口,33.4481304,130.5655799
福岡県,筑紫野市,112,,光が丘３号公園,33.4500859,130.5557771
福岡県,筑紫野市,113,,原田中町公園,33.4534108,130.540764
福岡県,筑紫野市,114,,原田駅前広場,33.4509055,130.5394582
福岡県,筑紫野市,115,,マルキョウ原田店,33.4502519,130.5417535
福岡県,筑紫野市,116,,筑紫神社前公園,33.4556645,130.5420724
福岡県,筑紫野市,117,,原田２号公園,33.4478083,130.5393403
福岡県,筑紫野市,118,,美しが丘南２号調整池,33.4464718,130.5488929
福岡県,筑紫野市,119,,美しが丘南１号公園,33.4424252,130.5459269
福岡県,筑紫野市,120,,美しが丘南２号公園,33.4430859,130.5416577
福岡県,筑紫野市,121,,原田小学校,33.4451988,130.5453123
福岡県,筑紫野市,122,,むさしケ丘団地東口バス停,33.474508,130.5287608
福岡県,筑紫野市,123,,むさしケ丘公民館,33.4710803,130.5255318
福岡県,筑紫野市,124,,むさしケ丘団地北入口,33.476498,130.5285588
福岡県,筑紫野市,125,,立明寺清流公園,33.4793398,130.5270368
福岡県,筑紫野市,126,,山口コミュニティセンター,33.4712407,130.5196747
福岡県,筑紫野市,127,,山口小学校,33.4687595,130.5171309
福岡県,筑紫野市,128,,萩原公民館,33.4660762,130.5194122
福岡県,筑紫野市,129,,山神水道企業団,33.4607181,130.5029735
福岡県,筑紫野市,130,,山神バス停,33.4518352,130.4901458
福岡県,筑紫野市,131,,平等寺公民館,33.4441243,130.4736013
