prefecture,city,number,address,name,lat,long,note
埼玉県,加須市,1-1,中央1丁目11-41,加須市商工会館北側フェンス,36.1256552,139.5974355,
埼玉県,加須市,1-2,中央2丁目5-19,中央2丁目町内会館フェンス,36.1240918,139.5987791,
埼玉県,加須市,1-3,富士見町347-1,富士パーキングの東側,36.121082,139.595413,緯度経度は怪しい
埼玉県,加須市,1-4,元町1-2,民家北側ブロック塀,36.122208,139.5987949,
埼玉県,加須市,1-5,富士見町376-1,富士見公園南側,None,None,緯度経度は怪しい
埼玉県,加須市,1-6,中央1丁目,加須駅北口ロータリー内植込み,36.125431,139.595993,緯度経度は怪しい
埼玉県,加須市,1-7,富士見町,加須駅南口ロータリー内,36.121082,139.595413,緯度経度は怪しい
埼玉県,加須市,2-1,本町4-25,加須小学校校舎北側フェンス,36.1240946,139.6034867,
埼玉県,加須市,2-2,本町4-25,加須小学校校舎南側フェンス,36.1240946,139.6034867,
埼玉県,加須市,2-3,本町18-27,粕壁屋駐車場北側,36.1262301,139.6030003,
埼玉県,加須市,2-4,東栄1丁目4-3,加須幼稚園南側フェンス,36.1229519,139.6036343,
埼玉県,加須市,2-5,東栄1丁目1372-1,東栄公園東側フェンス,36.121227,139.604614,緯度経度は怪しい
埼玉県,加須市,2-6,東栄2丁目1164-1,駐車場東側畑,36.12405,139.608398,緯度経度は怪しい
埼玉県,加須市,2-7,東栄2丁目15-36,栄楽公園南側フェンス,36.1227509,139.6096713,
埼玉県,加須市,3-1,南町2-19,みどり公園地南側フェンス,36.1206907,139.6010689,
埼玉県,加須市,3-2,南町3-51,加須コミュニティセンター南側フェンス,36.12035669999999,139.600272,
埼玉県,加須市,3-3,南町9-48,民家西側ブロック塀,36.1185707,139.5971436,
埼玉県,加須市,3-4,下高柳1932-1,加須市社会福祉協議会本所東側,36.111195,139.60849,緯度経度は怪しい
埼玉県,加須市,3-5,南町15-86,ミナミハイツ南側フェンス,36.1176732,139.6016961,
埼玉県,加須市,3-6,南町1460-1,南町遊園地南側フェンス,None,None,緯度経度は怪しい
埼玉県,加須市,3-7,久下1775,民家南側ブロック塀,36.1169363,139.6094512,
埼玉県,加須市,4-1,久下1丁目5,久本公園南側フェンス,36.121044,139.608551,緯度経度は怪しい
埼玉県,加須市,4-2,久下1丁目23,久下公園南側野立て,36.11845,139.60994,緯度経度は怪しい
埼玉県,加須市,4-3,久下2丁目9,久下中央公園西側フェンス,36.120747,139.613525,緯度経度は怪しい
埼玉県,加須市,4-4,久下4丁目14,久下南公園東側フェンス,36.116718,139.618561,緯度経度は怪しい
埼玉県,加須市,4-5,久下4丁目50-1,久下浄水場西側フェンス,36.1163306,139.6162592,
埼玉県,加須市,4-6,久下5丁目7,久下東公園南側フェンス,36.12072,139.6185,緯度経度は怪しい
埼玉県,加須市,4-7,久下5丁目15,久下北公園南側フェンス,36.120419,139.621109,緯度経度は怪しい
埼玉県,加須市,5-1,不動岡859-33,開発公園No.36-2フェンス,36.137414,139.5901458,
埼玉県,加須市,5-2,不動岡3丁目,不動岡北みどり公園,36.136265,139.581863,緯度経度は怪しい
埼玉県,加須市,5-3,不動岡2丁目9-18,不動尊西側石塀,36.1355246,139.5858983,
埼玉県,加須市,5-4,不動岡3丁目272,不動岡東いちょう公園,36.136265,139.581863,緯度経度は怪しい
埼玉県,加須市,5-5,不動岡3丁目27-5,不動岡高校発祥之地公園フェンス,36.1368699,139.5815058,
埼玉県,加須市,5-6,不動岡2丁目829-1,不動岡公園東側,36.134571,139.587357,緯度経度は怪しい
埼玉県,加須市,5-7,不動岡2丁目829-1,不動岡公園北側,36.134571,139.587357,緯度経度は怪しい
埼玉県,加須市,6-1,下谷47,民家東側ブロック塀,36.1464826,139.5821362,
埼玉県,加須市,6-2,下谷295,民家北側ブロック塀,36.1500626,139.5871402,
埼玉県,加須市,6-3,下谷1681,商店北側空地,36.1472678,139.5927664,
埼玉県,加須市,6-4,下谷741,民家東側ブロック塀,36.1464314,139.5907258,
埼玉県,加須市,6-5,下谷1316,民家西側垣根,36.1505478,139.593744,
埼玉県,加須市,6-6,下谷1086,土木プラント北側フェンス,36.145753,139.602192,
埼玉県,加須市,7-1,岡古井152-1,民家西側,36.138355,139.578751,緯度経度は怪しい
埼玉県,加須市,7-2,岡古井176,民家南側(県道際)畑,36.140202,139.57222,緯度経度は怪しい
埼玉県,加須市,7-3,岡古井435,阿弥陀堂北西側畑,36.1500192,139.5733236,
埼玉県,加須市,7-4,岡古井380,田地先,36.145309,139.576279,緯度経度は怪しい
埼玉県,加須市,7-5,岡古井1249-1,通殿社敷地,None,None,緯度経度は怪しい
埼玉県,加須市,8-1,上三俣1268,民家フェンス,36.1363105,139.6094124,
埼玉県,加須市,8-2,上三俣2255,パストラルかぞ南側,36.1371403,139.6042607,
埼玉県,加須市,8-3,北小浜1164-1,安野自動車南側空地,None,None,緯度経度は怪しい
埼玉県,加須市,8-4,上三俣590,JAほくさい加須中央支店,36.1296372,139.6069238,
埼玉県,加須市,8-5,上三俣1777,三俣北部集会場西側ブロック塀,36.1430922,139.6143015,
埼玉県,加須市,8-6,北小浜1039-6,北小浜第1調整池東側フェンス,36.130898,139.610352,緯度経度は怪しい
埼玉県,加須市,8-7,睦町1丁目12-20,睦町浄水場フェンス,36.1264457,139.608247,
埼玉県,加須市,9-1,三俣2丁目8-8,三俣二丁目中央きずな公園南側フェンス,36.1310414,139.6042909,
埼玉県,加須市,9-2,三俣2丁目1-1,市役所本庁舎西側植込,36.1314045,139.6017459,
埼玉県,加須市,9-3,下三俣590,加須市民体育館フェンス,36.1358914,139.6008399,
埼玉県,加須市,9-4,諏訪1丁目10,諏訪公園南側フェンス,36.131958,139.598038,緯度経度は怪しい
埼玉県,加須市,9-5,三俣1丁目9,三俣一丁目東公園東側,36.134163,139.598938,緯度経度は怪しい
埼玉県,加須市,9-6,三俣1丁目18-6,三俣一丁目西公園西側,36.1353333,139.5977614,
埼玉県,加須市,9-7,三俣2丁目13,三俣二丁目南公園,36.131626,139.604095,緯度経度は怪しい
埼玉県,加須市,10-1,多門寺489-1,(旧)こぐれ建設資材置場北側,36.13472,139.623032,緯度経度は怪しい
埼玉県,加須市,10-2,多門寺150-3,民家東側ブロック塀,36.1255408,139.6214418,
埼玉県,加須市,10-3,多門寺1031,多門寺又根集会所東側,36.1336934,139.6222585,
埼玉県,加須市,10-4,北篠崎225,医王寺西側ブロック塀(野立て),36.13326199999999,139.6324577,
埼玉県,加須市,10-5,北篠崎1987-1,北篠崎集会所西側フェンス,36.1325924,139.6337527,
埼玉県,加須市,10-6,北篠崎1814-1,(有)ワイズインターナショナル様北側ブロック塀,36.1335291,139.6418983,
埼玉県,加須市,10-7,多門寺576,多門寺集会所東側フェンス,36.1317024,139.6236498,
埼玉県,加須市,11-1,礼羽615,民家南側,36.1272779,139.5841681,
埼玉県,加須市,11-2,礼羽334-1,礼羽遊園地東側フェンス,None,None,緯度経度は怪しい
埼玉県,加須市,11-3,礼羽399,今蓮院北側ネットフェンス,36.1251251,139.5853111,
埼玉県,加須市,11-4,礼羽560,礼羽小学校南門東フェンス,36.1298113,139.5825044,
埼玉県,加須市,11-5,愛宕1丁目400-1,民家南側畑,36.131149,139.586533,緯度経度は怪しい
埼玉県,加須市,11-6,愛宕2丁目20-1,民家西側,36.132442,139.583969,緯度経度は怪しい
埼玉県,加須市,11-7,礼羽151-2,松本こいのぼり工場南側塀,36.124283,139.5914282,
埼玉県,加須市,12-1,土手1丁目4-27,松勘工業(株)南側フェンス,36.1255572,139.5930424,
埼玉県,加須市,12-2,土手1丁目9-5,民家ブロック塀,36.1270365,139.593749,
埼玉県,加須市,12-3,土手2丁目10-31,民家ブロック塀,36.1299069,139.5878791,
埼玉県,加須市,12-4,土手2丁目7-1,民家東側ブロック塀,36.12747660000001,139.5915302,
埼玉県,加須市,12-5,土手2丁目3-28,坂本税理士事務所駐車場北側水路フェンス,36.1282039,139.5883147,
埼玉県,加須市,12-6,土手2丁目8番地13先,民家東側水路フェンス,36.128301,139.5900689,
埼玉県,加須市,12-7,土手2丁目14,土手会館北側ブロック塀,36.128586,139.592377,緯度経度は怪しい
埼玉県,加須市,13-1,馬内50-1,市営諏訪団地跡地,36.135618,139.572891,
埼玉県,加須市,13-2,馬内50-2地先,秋葉団地D棟南側水路フェンス,36.135727,139.573212,緯度経度は怪しい
埼玉県,加須市,13-3,馬内434,(株)フカワ北側塀,36.135471,139.575485,緯度経度は怪しい
埼玉県,加須市,13-4,馬内500-1,秋葉山北側,36.1345927,139.5764436,
埼玉県,加須市,13-5,馬内662-1,民家西側空地,36.132446,139.578995,緯度経度は怪しい
埼玉県,加須市,13-6,馬内887-2,南側畑,None,None,緯度経度は怪しい
埼玉県,加須市,13-7,馬内339,日穀(株)ブロック塀,36.1325316,139.5824049,
埼玉県,加須市,14-1,川口2丁目12-1,川口コミュニティセンター北側フェンス,36.112247,139.6593027,
埼玉県,加須市,14-2,鳩山町7,鳩山公園南側植込み,36.106426,139.656494,緯度経度は怪しい
埼玉県,加須市,14-3,川口3丁目14-1,岡公園北側植込み,36.1114505,139.6633028,
埼玉県,加須市,14-4,川口992-2,天照皇太神社前水路脇フェンス,36.115376,139.655457,緯度経度は怪しい
埼玉県,加須市,14-5,川口3丁目3-5,花彦東公園南側植込み,36.1097874,139.6606057,
埼玉県,加須市,14-6,川口2丁目19,花彦西公園東側植込み,36.112309,139.657257,緯度経度は怪しい
埼玉県,加須市,14-7,川口1丁目3,川口北公園南側植込み,36.115459,139.662216,緯度経度は怪しい
埼玉県,加須市,15-1,南大桑918-1,民家西側畑,36.108864,139.641617,緯度経度は怪しい
埼玉県,加須市,15-2,南大桑727-2,民家ブロック塀,36.1096824,139.6396483,
埼玉県,加須市,15-3,大桑1丁目36,インター3号緑地,36.1229851,139.6394707,
埼玉県,加須市,15-4,南大桑1316-1,民家北側の畑,36.108143,139.649292,緯度経度は怪しい
埼玉県,加須市,15-5,南大桑2693-1,民家南側,36.1146207,139.6448518,
埼玉県,加須市,15-6,南大桑3480,南大桑自治会集会所フェンス,36.1208125,139.6438408,
埼玉県,加須市,15-7,南大桑2881-1,大桑コミュニティセンター西側フェンス,36.11456520000001,139.6403784,
埼玉県,加須市,16-1,南篠崎2丁目1-6,南篠崎コミュニティセンター西側フェンス,36.1210402,139.6221283,
埼玉県,加須市,16-2,南篠崎2丁目8-1,鎮守前公園テニスコート西側フェンス,36.120037,139.624786,緯度経度は怪しい
埼玉県,加須市,16-3,南篠崎738-3,水路北側フェンス,36.116226,139.637375,緯度経度は怪しい
埼玉県,加須市,16-4,南篠崎933-1,南篠崎集会所南側植込み,36.119305,139.632507,緯度経度は怪しい
埼玉県,加須市,16-5,南篠崎998-1,北西集会所北側,36.122098,139.6351736,
埼玉県,加須市,16-6,南篠崎1328-2,民家南側畑,36.123089,139.629471,緯度経度は怪しい
埼玉県,加須市,16-7,南篠崎2387-1,民家空き地,36.1229635,139.6236618,
埼玉県,加須市,17-1,花崎1丁目15,花崎駅南公園南側フェンス,36.108669,139.632477,緯度経度は怪しい
埼玉県,加須市,17-2,花崎1丁目33,六郷公園南側フェンス,36.107212,139.636215,緯度経度は怪しい
埼玉県,加須市,17-3,花崎2丁目16-1,花崎公会堂西側フェンス,36.1105994,139.6250466,
埼玉県,加須市,17-4,花崎2丁目22,花崎城山公園南側フェンス,36.111439,139.627701,緯度経度は怪しい
埼玉県,加須市,17-5,花崎3丁目28,房後公園東側フェンス,36.11319,139.622849,緯度経度は怪しい
埼玉県,加須市,17-6,花崎4丁目4,新立公園東側フェンス,36.11512,139.611801,緯度経度は怪しい
埼玉県,加須市,17-7,花崎4丁目25,花崎愛宕公園西側フェンス,36.11475,139.618332,緯度経度は怪しい
埼玉県,加須市,18-1,花崎北1丁目46,花崎駅北口ロータリー植込み,36.111019,139.634277,緯度経度は怪しい
埼玉県,加須市,18-2,花崎北1丁目28-1,加須市花崎ポンプ場東側フェンス,36.1124343,139.6308839,
埼玉県,加須市,18-3,花崎北2丁目16-1,ライオンズガーデン花崎テニスコートネットフェンス,36.1130063,139.633237,
埼玉県,加須市,18-4,花崎北3丁目1,花崎北小学校西側入口脇フェンス,36.1140159,139.6294896,
埼玉県,加須市,18-5,花崎北3丁目1,花崎北小学校北側入口脇フェンス,36.1140159,139.6294896,
埼玉県,加須市,18-6,花崎北3丁目19-4,取水ポンプ場北側(花崎1号緑地西側),36.114496,139.6271175,
埼玉県,加須市,18-7,花崎北4丁目4,城跡公園西側市道沿,36.112148,139.628693,緯度経度は怪しい
埼玉県,加須市,19-1,大室172,民家東側ブロック塀,36.0991772,139.6200232,
埼玉県,加須市,19-2,大室685,民家北側ブロック塀,36.0978923,139.6204758,
埼玉県,加須市,19-3,船越116,水深コミュニティセンター北側フェンス,36.1013584,139.6229812,
埼玉県,加須市,19-4,船越228-2,地先用水路沿いガードレール,36.102982,139.621582,緯度経度は怪しい
埼玉県,加須市,19-5,南小浜528,民家南側ブロック塀,36.10281,139.612756,
埼玉県,加須市,19-6,油井ケ島459,民家北側ブロック塀,36.0948538,139.610199,
埼玉県,加須市,19-7,油井ケ島1391,民家南側ブロック塀,36.0915363,139.6143402,
埼玉県,加須市,20-1,北辻731,民家北側ブロック塀,36.09521429999999,139.6308801,
埼玉県,加須市,20-2,水深874-1,本村耕地集会所南道路南側駐車場,36.093887,139.636948,緯度経度は怪しい
埼玉県,加須市,20-3,水深2141-1地先水路,加須市水深2141-1地先水路沿い,36.100464,139.639343,緯度経度は怪しい
埼玉県,加須市,20-4,水深2042-26他,開発公園No.11 道路側フェンス,36.1014693,139.6412762,
埼玉県,加須市,20-5,水深1162-1,開発公園No.40 東側フェンス,36.0987456,139.6328084,
埼玉県,加須市,20-6,水深776-1,開発公園No16フェンス,36.0977416,139.6376144,
埼玉県,加須市,20-7,水深2177-17,開発公園No.10 南側フェンス,36.103508,139.637329,緯度経度は怪しい
埼玉県,加須市,21-1,今鉾60-1,民家西側ブロック塀,36.0852097,139.6289729,
埼玉県,加須市,21-2,今鉾126-5,民家南側空地,36.0845351,139.6264069,
埼玉県,加須市,21-3,割目190,民家西側田,36.08413170000001,139.6209837,
埼玉県,加須市,21-4,割目491-1,久伊豆神社西側,36.080078,139.630661,緯度経度は怪しい
埼玉県,加須市,21-5,割目220,民家南側畑,36.08413170000001,139.6209837,
埼玉県,加須市,22-1,下高柳9,開発公園 No65東側フェンス,36.1037515,139.617284,
埼玉県,加須市,22-2,下高柳347-1,民家北側空地,36.108288,139.612671,緯度経度は怪しい
埼玉県,加須市,22-3,下高柳1095,民家北側空地,36.106026,139.606888,緯度経度は怪しい
埼玉県,加須市,22-4,下高柳1643,民家北側(下高柳遊園地南),36.110992,139.603119,緯度経度は怪しい
埼玉県,加須市,22-5,下高柳1551-1,ヘアーサロン北側畑,36.1073498,139.602156,
埼玉県,加須市,22-6,常泉547,民家南側田,36.103882,139.605225,緯度経度は怪しい
埼玉県,加須市,22-7,常泉82,民家東側ブロック塀,36.1057378,139.601537,
埼玉県,加須市,23-1,中樋遣川2047,北瀬田和西集会所前ガードレール,36.1610553,139.6222585,
埼玉県,加須市,23-2,下樋遣川203,民家東側畑,36.1470337,139.6166218,
埼玉県,加須市,23-3,下樋遣川372-1,駐車場南側畑,36.156311,139.614594,緯度経度は怪しい
埼玉県,加須市,23-4,下樋遣川834,樋遣川コミュニティセンター西側フェンス,36.1545002,139.6209408,
埼玉県,加須市,23-5,下樋遣川854-1,民家東側畑,36.153908,139.625107,緯度経度は怪しい
埼玉県,加須市,23-6,下樋遣川1542,民家南側畑,36.157616,139.613678,緯度経度は怪しい
埼玉県,加須市,23-7,町屋新田1208-1,民家南畑,36.157314,139.610199,緯度経度は怪しい
埼玉県,加須市,24-1,上樋遣川5068,民家ブロック塀,36.1524772,139.6371119,
埼玉県,加須市,24-2,下樋遣川5462-1,一両野集会所物置前,36.1507744,139.6322784,
埼玉県,加須市,24-3,古川二丁目6-1,加須北部公園北西入口脇植込み,36.1464862,139.6422729,
埼玉県,加須市,24-4,下樋遣川6671,民家ブロック塀,36.144299,139.641312,緯度経度は怪しい
埼玉県,加須市,24-5,下樋遣川6602-1,民家南側畑,36.143223,139.642059,緯度経度は怪しい
埼玉県,加須市,25-1,上樋遣川4881-1,薬師堂入口畑東側,36.15723,139.636276,緯度経度は怪しい
埼玉県,加須市,25-2,上樋遣川3717,民家東側石塀,36.1703729,139.635984,
埼玉県,加須市,25-3,上樋遣川4405,御室社駐車場内側フェンス,36.1595442,139.6329956,
埼玉県,加須市,25-4,上樋遣川7077,立野八坂神社境内,36.164955,139.633499,緯度経度は怪しい
埼玉県,加須市,25-5,上樋遣川4772,民家宅東側ブロック塀,36.1576634,139.6350852,
埼玉県,加須市,26-1,戸川29,民家西側空地,36.1581859,139.595494,
埼玉県,加須市,26-2,戸川687,工務店西側空地,36.1581859,139.595494,
埼玉県,加須市,26-3,戸川807,地蔵院ブロック塀,36.1582217,139.5917138,
埼玉県,加須市,26-4,戸川1540,理髪店東側,36.1581859,139.595494,
埼玉県,加須市,26-5,戸川1782,戸川集会所南側,36.1589161,139.5975362,
埼玉県,加須市,27-1,志多見427-1,志多見北集会所南側,36.134754,139.54599,緯度経度は怪しい
埼玉県,加須市,27-2,志多見1132-2,別所遊園地西側フェンス,36.1329084,139.5659059,
埼玉県,加須市,27-3,志多見873-1,志多見集会所南側フェンス,36.132622,139.5549124,
埼玉県,加須市,27-4,志多見70,八州商會(株)南側フェンス,36.1369623,139.5360867,
埼玉県,加須市,27-5,志多見633,志多見小学校東側フェンス,36.13228489999999,139.5492361,
埼玉県,加須市,27-6,志多見1639-1,横川興業加須支店南側フェンス,36.1353244,139.5558674,
埼玉県,加須市,27-7,志多見2334-5,さいたま妙松苑北側フェンス,36.1352266,139.560939,
埼玉県,加須市,28-1,平永412-1,志多見土地改良区第3揚水場南側フェンス,36.127712,139.565292,緯度経度は怪しい
埼玉県,加須市,28-2,平永262-1,民家北側ブロック塀,36.1286295,139.567324,
埼玉県,加須市,28-3,平永454-1,民家南側T字路電柱脇,36.12695679999999,139.5613988,
埼玉県,加須市,28-4,平永738,平永集会所,36.1288978,139.5570741,
埼玉県,加須市,28-5,平永1086-1,民家南側フェンス付近,36.1230927,139.5594687,
埼玉県,加須市,29-1,阿良川221-1,民家東側塀,36.12903780000001,139.5389563,
埼玉県,加須市,29-2,阿良川375-1,民家北側塀,36.124092,139.536621,緯度経度は怪しい
埼玉県,加須市,29-3,阿良川655,民家西側ブロック塀,36.1256857,139.5404219,
埼玉県,加須市,29-4,阿良川855,民家西側塀,36.1260376,139.5422383,
埼玉県,加須市,29-5,阿良川919-1,民家ブロック塀,36.1269996,139.5458008,
埼玉県,加須市,30-1,串作347-1,民家西側ブロック塀,36.1380231,139.5271842,
埼玉県,加須市,30-2,串作398-1,民家西側ブロック塀,36.1373184,139.5252752,
埼玉県,加須市,30-3,串作467-1,民家南側ブロック塀フェンス,36.1343267,139.5249033,
埼玉県,加須市,30-4,串作405-1,串作集会所フェンス,36.136868,139.526382,緯度経度は怪しい
埼玉県,加須市,30-5,串作1069-2,民家北側ブロックフェンス,36.1337256,139.530102,
埼玉県,加須市,31-1,大越197-1,民家北西側公園(前田耕地遊園地),36.180634,139.618713,緯度経度は怪しい
埼玉県,加須市,31-2,大越523-1,民家北側空地,36.186962,139.610352,緯度経度は怪しい
埼玉県,加須市,31-3,大越561-1付近,民家東側水路付近,36.1884014,139.6098107,
埼玉県,加須市,31-4,大越835-3,民家南の畑(県道側),36.182568,139.611465,緯度経度は怪しい
埼玉県,加須市,31-5,大越894,民家南側空地,36.1825187,139.6083865,
埼玉県,加須市,32-1,大越1708-1,農業公社東側塀(野立て),36.1755381,139.618313,
埼玉県,加須市,32-2,大越1467-6,民家南側畑,36.184872,139.616638,緯度経度は怪しい
埼玉県,加須市,32-3,大越1991,大越コミュニティセンター東側フェンス,36.1815033,139.6209772,
埼玉県,加須市,32-4,大越3756,野なか公園東側植木,36.1706288,139.6177304,
埼玉県,加須市,32-5,大越2015,民家南側畑,36.1827562,139.6189369,
埼玉県,加須市,32-6,大越2483-1,大越郵便局北側駐車場,None,None,緯度経度は怪しい
埼玉県,加須市,33-1,大越2328,民家東側ブロック塀,36.1764832,139.6287324,
埼玉県,加須市,33-2,大越2884-1,民家東側ブロック塀,36.1746589,139.6306575,
埼玉県,加須市,33-3,大越3387,民家北側ブロック塀,36.1688424,139.6278467,
埼玉県,加須市,33-4,大越3416,民家北側ブロック塀,36.1665217,139.627069,
埼玉県,加須市,33-5,外野434,民家北側ブロック塀,36.17445379999999,139.6355059,
埼玉県,加須市,34-1,騎西36-1,騎西総合支所南,36.1020161,139.5749358,
埼玉県,加須市,34-2,外川54番130,若草第一公園西側フェンス,36.1065197,139.5776478,
埼玉県,加須市,34-3,騎西10,元町裏公園北側,36.099831,139.578796,緯度経度は怪しい
埼玉県,加須市,34-4,騎西52-3,騎西小学校西側,36.1033892,139.571885,
埼玉県,加須市,34-5,騎西1486,新道上公園西側公園内植込み,36.107114,139.5729405,
埼玉県,加須市,34-6,騎西975-1,中央公園東,36.10657370000001,139.575453,
埼玉県,加須市,34-7,外川450-1,萩原公園西側フェンス,36.1034015,139.5797345,
埼玉県,加須市,35-1,下崎263,民家南側ブロック,36.097864,139.5709108,
埼玉県,加須市,35-2,下崎571,民家東側,36.0999825,139.5658561,
埼玉県,加須市,35-3,下崎1128,下崎ふれあいセンター北側フェンス,36.1025116,139.5600271,
埼玉県,加須市,35-4,下崎1798,民家北側フェンス,36.1056313,139.5573,
埼玉県,加須市,35-5,下崎1280,民家北側フェンス,36.1034174,139.5617868,
埼玉県,加須市,36-1,内田ケ谷120-2 西側,民家西側畑,36.11396120000001,139.5454231,
埼玉県,加須市,36-2,内田ケ谷468-1,民家東側空地,36.115719,139.549469,緯度経度は怪しい
埼玉県,加須市,36-3,内田ケ谷662-3,旧田ケ谷幼稚園西側フェンス,36.114063,139.551483,緯度経度は怪しい
埼玉県,加須市,36-4,内田ケ谷1063-1,寄居集会所西側空地,36.109991,139.5625131,
埼玉県,加須市,36-5,道地1380-1,天沼団地北側フェンス,36.1139901,139.5567428,
埼玉県,加須市,36-6,道地1473-1,旧ほくさい農協田ケ谷支店西側ブロック,36.1156379,139.5529981,
埼玉県,加須市,36-7,道地1595,道地集会所駐輪所裏フェンス,36.1188001,139.5494021,
埼玉県,加須市,37-1,上崎2393-1,民家北側ブロック,36.1080143,139.5540951,
埼玉県,加須市,37-2,上崎1904,野原自動車西側ブロック塀,36.1075766,139.5491031,
埼玉県,加須市,37-3,上崎1707-1,民家南側の畑南端道標,36.109051,139.543518,緯度経度は怪しい
埼玉県,加須市,37-4,上崎1850-1,田ケ谷サンスポーツランド野球場北西側,36.1097588,139.5477006,
埼玉県,加須市,37-5,上崎545-5,民家北側ブロック,36.1028114,139.5411163,
埼玉県,加須市,38-1,外田ケ谷404北,民家東側畑,36.1151922,139.5341548,
埼玉県,加須市,38-2,外田ケ谷1144-2,民家北側ブロック,36.1172656,139.5443686,
埼玉県,加須市,38-3,外田ケ谷347,民家東側ブロック,36.1139754,139.5335482,
埼玉県,加須市,38-4,外田ケ谷796,宝性寺前,36.1185669,139.5366111,
埼玉県,加須市,38-5,外田ケ谷546,民家北側(県道側)ブロック,36.1180036,139.5341559,
埼玉県,加須市,39-1,下種足442-1,民家北,36.075794,139.58017,緯度経度は怪しい
埼玉県,加須市,39-2,下種足434-1,民家西側畑,36.076557,139.579315,緯度経度は怪しい
埼玉県,加須市,39-3,中種足397,中種足第2区集出荷所前,36.0809098,139.5750866,
埼玉県,加須市,39-4,中種足755,民家西側ブロック,36.0786956,139.5729408,
埼玉県,加須市,39-5,中種足123,種足小学校南側フェンス,36.0841877,139.5682043,
埼玉県,加須市,39-6,中種足1230-1,ふるさと広場東,36.083969,139.565567,緯度経度は怪しい
埼玉県,加須市,40-1,上種足1518-3,上種足6区集会所前フェンス,36.0846476,139.5564245,
埼玉県,加須市,40-2,上種足800,民家東,36.082935,139.563644,緯度経度は怪しい
埼玉県,加須市,40-3,上種足1172,民家東,36.087444,139.562332,緯度経度は怪しい
埼玉県,加須市,40-4,上種足1394-2,民家南,36.088551,139.55632,緯度経度は怪しい
埼玉県,加須市,40-5,上種足1342-1,民家南,36.088551,139.55632,緯度経度は怪しい
埼玉県,加須市,40-6,上種足3355-1,民家南,36.090202,139.556198,緯度経度は怪しい
埼玉県,加須市,40-7,中種足3334-1,民家南,None,None,緯度経度は怪しい
埼玉県,加須市,41-1,中ノ目214-3,井上商店西側(民家北側ブロック),36.094646,139.553268,緯度経度は怪しい
埼玉県,加須市,41-2,中ノ目669-1,民家前(南),36.0934074,139.5575866,
埼玉県,加須市,41-3,戸室227,民家北側,36.08773,139.5726114,
埼玉県,加須市,41-4,戸室92,戸室第10区集会所前フェンス付近,36.0882446,139.5674879,
埼玉県,加須市,41-5,戸室1057-1,民家南田,36.088844,139.569061,緯度経度は怪しい
埼玉県,加須市,41-6,戸室1006,清水酒造の東,36.0891481,139.572563,
埼玉県,加須市,41-7,西ノ谷1-1,民家南,36.0968256,139.5734682,
埼玉県,加須市,42-1,鴻茎9-1,立山公園西側フェンス,36.0967577,139.5822934,
埼玉県,加須市,42-2,鴻茎2360-2,民家西側ブロック,36.0924241,139.5896739,
埼玉県,加須市,42-3,鴻茎1333,旧JAほくさい鴻茎支店前フェンス,36.08539,139.5943549,
埼玉県,加須市,42-4,鴻茎2083,民家南側フェンス,36.0949071,139.5840073,
埼玉県,加須市,42-5,芋茎1026,民家西側ブロック,36.08207400000001,139.5897604,
埼玉県,加須市,42-6,芋茎355,民家西側ブロック,36.0782384,139.5895959,
埼玉県,加須市,42-7,芋茎108,民家北側ブロック,36.075589,139.5933929,
埼玉県,加須市,42-8,芋茎1828,民家前畑,36.0817131,139.599759,
埼玉県,加須市,43-1,根古屋641-3,民家東側ブロック,36.1023065,139.5838878,
埼玉県,加須市,43-2,牛重161,民家北側ブロック,36.1004098,139.5885233,
埼玉県,加須市,43-3,牛重89-1,民家北側ブロック,36.0976042,139.5936115,
埼玉県,加須市,43-4,牛重452,民家北側ブロック,36.0928317,139.6010565,
埼玉県,加須市,43-5,牛重354,民家東側,36.0934714,139.5989964,
埼玉県,加須市,43-6,牛重739-1,民家西側ブロック,36.088699,139.607315,緯度経度は怪しい
埼玉県,加須市,43-7,根古屋633-10,キャッスルきさい地内,36.1048214,139.5842605,
埼玉県,加須市,44-1,上高柳199,材木店北側ブロック,36.1122293,139.5951504,
埼玉県,加須市,44-2,日出安647-1,県道久喜騎西線と市道(済生会通り)の交差点南西の畑,36.109772,139.586456,緯度経度は怪しい
埼玉県,加須市,44-3,上高柳839,民家北側ブロック,36.1156475,139.5848035,
埼玉県,加須市,44-4,上高柳835,民家西側ブロック,36.1143381,139.5845074,
埼玉県,加須市,44-5,日出安921,民家西側ブロック,36.1108806,139.5879711,
埼玉県,加須市,44-6,日出安836-1,民家南,None,None,緯度経度は怪しい
埼玉県,加須市,44-7,日出安736-3,民家東側,36.110359,139.583817,緯度経度は怪しい
埼玉県,加須市,45-1,正能4,古宮公園東側フェンス,36.1118542,139.5677256,
埼玉県,加須市,45-2,正能14,大道公園西側フェンス,36.11116450000001,139.5751101,
埼玉県,加須市,45-3,戸崎207-1,正能・戸崎工業団地内公園フェンス(北側),36.1146258,139.5705128,
埼玉県,加須市,45-4,戸崎54-5,民家北側ブロック,36.1163746,139.5785136,
埼玉県,加須市,45-5,戸崎280,民家前ブロック,36.11362829999999,139.5669948,
埼玉県,加須市,45-6,戸崎1410,民家北側ブロック,36.1200166,139.569528,
埼玉県,加須市,45-7,日出安1395,高柳コミュニティセンター南側,36.1149901,139.5787357,
埼玉県,加須市,46-1,飯積1147,民家ブロック塀,36.1860146,139.6396899,
埼玉県,加須市,46-2,飯積1452-3,薬店宅 東方の畑,36.186481,139.635345,緯度経度は怪しい
埼玉県,加須市,46-3,飯積1216,かんのん公園西側,36.1854896,139.637558,
埼玉県,加須市,46-4,飯積969-1,明寿屋商店南側畑の塀(東側)の前,36.190723,139.633286,緯度経度は怪しい
埼玉県,加須市,46-5,飯積185,元郷塗装工業(株)工場前フェンス,36.1854896,139.637558,
埼玉県,加須市,47-1,麦倉86-3,(株)三洋工業埼玉工場東側畑,36.195358,139.642822,緯度経度は怪しい
埼玉県,加須市,47-2,麦倉1199-1,西小学校前歩道橋前フェンス(野立て),36.194462,139.651489,緯度経度は怪しい
埼玉県,加須市,47-3,麦倉1199-1,西小学校プール西側ブロック塀,36.194462,139.651489,緯度経度は怪しい
埼玉県,加須市,47-4,麦倉638,土地改良区第一揚水機場前水路敷,36.189861,139.647614,緯度経度は怪しい
埼玉県,加須市,47-5,麦倉1341,民家前畑,36.190918,139.657669,緯度経度は怪しい
埼玉県,加須市,47-6,柳生1198,民家北側(開智未来高西)ブロック塀,36.202419,139.656494,緯度経度は怪しい
埼玉県,加須市,47-47,柳生1782,国道354号線柳生交差点北側,36.199081,139.653687,緯度経度は怪しい
埼玉県,加須市,48-1,麦倉3632,民家西ブロック塀,36.1881225,139.6602706,
埼玉県,加須市,48-2,麦倉3272,民家南フェンス,36.1825365,139.6528515,
埼玉県,加須市,48-3,麦倉3122-1,民家北側休耕地,36.179955,139.654724,緯度経度は怪しい
埼玉県,加須市,48-4,麦倉2447-1,大島集会所前水路敷,36.185737,139.648716,
埼玉県,加須市,48-5,麦倉2426-1,商店西側畑,36.183563,139.646912,緯度経度は怪しい
埼玉県,加須市,48-6,麦倉2337-1,細前共同墓地ブロック塀,36.182743,139.645096,緯度経度は怪しい
埼玉県,加須市,49-1,柳生1946-3,民家西側ブロック塀,36.2016323,139.6558309,
埼玉県,加須市,49-2,柳生2121,民家東畑,36.201904,139.651611,緯度経度は怪しい
埼玉県,加須市,49-3,柳生2413,秋山建設様北側ブロック塀,36.2062128,139.6526522,
埼玉県,加須市,49-4,柳生2099,北川辺郵便局前,36.2043644,139.6586789,
埼玉県,加須市,49-5,柳生2817-1,柿沼ストア前(ポケットパーク脇),36.205135,139.658569,緯度経度は怪しい
埼玉県,加須市,49-6,小野袋1785-3,仕出沼交差点東側用水路敷,36.204094,139.666245,緯度経度は怪しい
埼玉県,加須市,49-7,小野袋1753-1,民家南側駐車場,36.204094,139.666245,緯度経度は怪しい
埼玉県,加須市,50-1,小野袋960-5,民家前ブロック塀,36.2062368,139.6628068,
埼玉県,加須市,50-2,小野袋652,小野袋ゲートボール場,36.204594,139.668488,緯度経度は怪しい
埼玉県,加須市,50-3,柏戸720-3,民家南側畑,36.199581,139.67366,緯度経度は怪しい
埼玉県,加須市,50-4,柏戸2144,服部工業所前ブロック塀,36.1908811,139.6709091,
埼玉県,加須市,50-5,柏戸2037地先,北川辺体育館前フェンス,36.191583,139.6735248,
埼玉県,加須市,50-6,柏戸271,民家前ブロック塀,36.197769,139.682098,緯度経度は怪しい
埼玉県,加須市,51-1,向古河685-1,民家北側畑,36.19384,139.686493,緯度経度は怪しい
埼玉県,加須市,51-2,向古河2549,東小学校南門フェンス,36.185284,139.688568,緯度経度は怪しい
埼玉県,加須市,51-3,向古河2602,印出自動車(有)西ブロック塀,36.1836867,139.6847797,
埼玉県,加須市,51-4,向古河2391,市営住宅前公園フェンス,36.181572,139.685043,緯度経度は怪しい
埼玉県,加須市,51-5,伊賀袋75,浅間神社境内,36.177502,139.682465,緯度経度は怪しい
埼玉県,加須市,51-6,向古河2278-1,民家前(市有地),36.182205,139.680847,緯度経度は怪しい
埼玉県,加須市,51-7,向古河2025-1,市立北川辺幼稚園西フェンス,36.1864162,139.6726741,
埼玉県,加須市,52-1,駒場421,民家裏ブロック塀,36.1785849,139.679652,
埼玉県,加須市,52-2,駒場464,あやめ苑前フェンス,36.17784049999999,139.6784059,
埼玉県,加須市,52-3,駒場423-15地先,民家前フェンス,36.178059,139.67923,緯度経度は怪しい
埼玉県,加須市,52-4,栄58,万无里苑(元小林魚園前)ブロック塀,36.1718963,139.6825431,
埼玉県,加須市,52-5,本郷779-1,電気工事店前ブロック塀,36.1643103,139.6872705,
埼玉県,加須市,52-6,栄309,たばこ店前ブロック塀,36.17288569999999,139.6736653,
埼玉県,加須市,53-1,柳生354-1,加須消防北川辺分署前,36.19252,139.658966,緯度経度は怪しい
埼玉県,加須市,53-2,麦倉1481-1,北川辺総合支所前,36.190456,139.6616258,
埼玉県,加須市,53-3,柳生66-1,国保診療所入口,36.191002,139.667374,緯度経度は怪しい
埼玉県,加須市,53-4,栄2438-3,消防第17分団器具置場東側畑,36.1844964,139.6664972,
埼玉県,加須市,53-5,栄2544,萩原鉄工所北ブロック塀,36.1834003,139.6686144,
埼玉県,加須市,53-6,栄1527-1,土地改良区第二揚水機場前フェンス,36.178959,139.667114,緯度経度は怪しい
埼玉県,加須市,53-7,栄2260-1,南部浄水場跡地フェンス,36.178577,139.661453,緯度経度は怪しい
埼玉県,加須市,54-1,陽光台1丁目600-56地先,新古河駅西口フェンス,36.192535,139.684845,緯度経度は怪しい
埼玉県,加須市,54-2,陽光台1丁目843-56地先,新古河薬局前フェンス,36.19191,139.684967,緯度経度は怪しい
埼玉県,加須市,54-3,陽光台1丁目600-54地先,ウム・ヴェルト新古河事務所前公園,36.192535,139.684845,緯度経度は怪しい
埼玉県,加須市,54-4,陽光台2丁目843-153地先,民家東水路フェンス,36.1916521,139.6831313,
埼玉県,加須市,54-5,陽光台1丁目600-191地先,民家前水路フェンス,36.192535,139.684845,緯度経度は怪しい
埼玉県,加須市,55-1,旗井775,大利根東小学校正門脇フェンス,36.1531584,139.6861835,
埼玉県,加須市,55-2,新川通194,民家西農地,36.1579327,139.6691604,
埼玉県,加須市,55-3,旗井1127-2,民家東側道路,36.149799,139.684128,緯度経度は怪しい
埼玉県,加須市,55-4,中渡47,民家北側植込み,36.1545899,139.6882154,
埼玉県,加須市,55-5,新川通153-1,子供広場北側,36.159439,139.668793,緯度経度は怪しい
埼玉県,加須市,55-6,外記新田14,鷲神社南側ブロック塀,36.1530003,139.6744385,
埼玉県,加須市,56-1,旗井一丁目43-3,民家ブロック塀,36.1414459,139.6909749,
埼玉県,加須市,56-2,旗井118-1,東ヶ丘集会所前フェンス,None,None,緯度経度は怪しい
埼玉県,加須市,56-3,旗井155-1,香林寺池風の子公園西側,36.143845,139.694702,緯度経度は怪しい
埼玉県,加須市,56-4,旗井1715,セブンイレブン(旧井澤スタンド)東側(植樹帯),36.1468395,139.6885849,
埼玉県,加須市,56-5,旗井313-1,どんぐり公園西側,36.143452,139.690643,緯度経度は怪しい
埼玉県,加須市,56-6,旗井556-2,旗井神社東側フェンス,36.1456528,139.6915413,
埼玉県,加須市,56-7,旗井1450-1,大利根子育て支援センター「ぴっぴ」フェンス,36.1467533,139.6835201,
埼玉県,加須市,57-1,細間712,原道コミュニティセンター脇フェンス,36.1583903,139.6525987,
埼玉県,加須市,57-2,細間1070-2地先,民家北側水路敷,36.1544715,139.660694,
埼玉県,加須市,57-3,道目266-3,島田商店南側,36.1468975,139.6467372,
埼玉県,加須市,57-4,道目455,民家北側水路,36.151997,139.647934,緯度経度は怪しい
埼玉県,加須市,57-5,砂原694,旧青木商店前,36.1580294,139.6627724,
埼玉県,加須市,57-6,砂原447,十軒農民センター北側,36.1537891,139.6661655,
埼玉県,加須市,57-7,細間560付近,斉藤製作所西側水路脇ガードレール,36.159663,139.6483377,
埼玉県,加須市,58-1,弥兵衛292-1,民家北東フェンス,36.167915,139.649414,緯度経度は怪しい
埼玉県,加須市,58-2,砂原1072-2,砂原中集会所西フェンス,36.163528,139.650208,緯度経度は怪しい
埼玉県,加須市,58-3,砂原2083-4,弁天様西ガードレール付近(道路敷),36.1678101,139.6395816,
埼玉県,加須市,58-4,弥兵衛476-1地先,弥兵衛集会所北側,36.1708909,139.6505424,
埼玉県,加須市,58-5,佐波258-1,童謡のふる里おおとね道の駅第2駐車場南側道路脇,36.170498,139.644608,緯度経度は怪しい
埼玉県,加須市,58-6,砂原1402-2,砂原下集会所駐車場入口(ガードレール付近),36.162544,139.643616,緯度経度は怪しい
埼玉県,加須市,59-1,北下新井521-1,元和小学校正門脇フェンス,36.14163,139.6695244,
埼玉県,加須市,59-2,琴寄581-1,加須市童謡のふる里大利根図書第2駐車場道路沿い,36.132328,139.673935,緯度経度は怪しい
埼玉県,加須市,59-3,北下新井一丁目4,たなばた公園東側,36.137737,139.684372,緯度経度は怪しい
埼玉県,加須市,59-4,琴寄229-9,善定寺近くの防災無線スピーカー付近,36.12711,139.681335,緯度経度は怪しい
埼玉県,加須市,59-5,琴寄903,運動公園駐車場入口,36.136379,139.668686,緯度経度は怪しい
埼玉県,加須市,59-6,琴寄466-3,転作促進研究施設脇(植樹帯),36.1293515,139.672154,
埼玉県,加須市,59-7,琴寄2295,民家前ガードレール付近,36.1459529,139.6766074,
埼玉県,加須市,60-1,北平野366-1,稲荷神社内,36.1432379,139.6523732,
埼玉県,加須市,60-2,北下新井1635,工務店前,36.1414928,139.6668931,
埼玉県,加須市,60-3,北下新井1679-1,大利根総合支所正門前,36.1407475,139.6641874,
埼玉県,加須市,4-4,北下新井1705-1,大利根中学校東側フェンス,36.1394374,139.6641024,
埼玉県,加須市,60-5,北平野199,蓮花院裏フェンス,36.1439537,139.6559806,
埼玉県,加須市,61-1,阿佐間769,ファミリーグラウンド脇フェンス,36.1328028,139.6566879,
埼玉県,加須市,61-2,間口664-1付近,間口中央交差点南東歩道脇フェンス,36.125744,139.670395,緯度経度は怪しい
埼玉県,加須市,61-3,杓子木202-1,民家前ガードレール付近,36.1382054,139.6493032,
埼玉県,加須市,61-4,阿佐間1408-1,第3浄水場西側フェンス(電柱の間),36.1380197,139.6632852,
埼玉県,加須市,61-5,豊野台1丁目640-16,寺前児童公園北側フェンス,36.1315933,139.6531556,
埼玉県,加須市,61-6,豊野台1丁目345-1,星子沼公園北側道路沿い植込みの中,36.130226,139.652832,緯度経度は怪しい
埼玉県,加須市,61-7,生出313-1,豊野小学校南東フェンス,36.1341112,139.6521455,
埼玉県,加須市,62-1,北大桑516-11,加須スケートパーク駐車場東側フェンス,36.1277438,139.6439166,
埼玉県,加須市,62-2,北大桑933-1,真中畳工業南 旧国道125号沿,36.124607,139.644012,緯度経度は怪しい
埼玉県,加須市,62-3,北大桑805,香取神社東側フェンス,None,None,緯度経度は怪しい
埼玉県,加須市,62-4,間口8-1,北大桑・新井新田地区農業集落排水処理施設前フェンス,36.1228395,139.657384,
埼玉県,加須市,62-5,北大桑1319地先,民家南方道路敷,36.1315121,139.6418916,
埼玉県,加須市,62-6,新井新田234,商店東植樹帯,36.117775,139.662515,
