prefecture,city,number,address,name,lat,long,note
埼玉県,吉見町,1-1,谷口96番地,元木商会東側交差点,36.039906,139.466171,緯度経度は怪しい
埼玉県,吉見町,1-2,東野二丁目11番地,東野第一公園入口東側,36.04063,139.467514,緯度経度は怪しい
埼玉県,吉見町,1-3,東野三丁目15番地6,古名集会所東脇,36.040401,139.47229,緯度経度は怪しい
埼玉県,吉見町,1-4,東野五丁目20番地1,東野ふれあいセンタ-入口,36.03743,139.470901,緯度経度は怪しい
埼玉県,吉見町,1-5,丸貫328番地,牛見堂東側太陽光パネル前,36.046257,139.469193,緯度経度は怪しい
埼玉県,吉見町,1-6,下銀谷23番地1,下銀谷集会所前,36.031845,139.46875,緯度経度は怪しい
埼玉県,吉見町,1-7,万光寺89番地,セブンイレブン吉見町東店交差点,None,None,緯度経度は怪しい
埼玉県,吉見町,1-8,蚊斗谷71番地先,柴崎建設東側(土手下集積所),36.03595,139.48584,緯度経度は怪しい
埼玉県,吉見町,2-1,高尾新田154番地,照稲神社(高蓮集会所)東側,36.033222,139.492218,緯度経度は怪しい
埼玉県,吉見町,2-2,江和井1555番地,東第二小学校西側交差点,36.026546,139.494553,緯度経度は怪しい
埼玉県,吉見町,2-3,大串2843番地,荒川荘入口,36.018951,139.488052,緯度経度は怪しい
埼玉県,吉見町,2-4,江和井282番地5,荒井橋西交差点花壇,36.019825,139.495895,緯度経度は怪しい
埼玉県,吉見町,2-5,飯島新田706番地,飯島新田集会所南側,36.024895,139.4823,緯度経度は怪しい
埼玉県,吉見町,3-1,蚊斗谷132番地,東公民館入口,36.033455,139.483978,緯度経度は怪しい
埼玉県,吉見町,3-2,荒子479番地2,新荒子バス停留所(回転場),36.026066,139.478439,緯度経度は怪しい
埼玉県,吉見町,3-3,荒子758番地,上荒子バス停留所(集積所),36.023876,139.471344,緯度経度は怪しい
埼玉県,吉見町,3-4,大串2244番地,大串毘沙門公園東側,36.022564,139.46756,緯度経度は怪しい
埼玉県,吉見町,3-5,大串756番地1,大串登戸集会所南側,36.027374,139.463669,緯度経度は怪しい
埼玉県,吉見町,3-6,大串583番地1,大串交差点東側,36.026154,139.458633,緯度経度は怪しい
埼玉県,吉見町,4-1,前河内1番地,前河内日吉神社南側,None,None,緯度経度は怪しい
埼玉県,吉見町,4-2,前河内309番地1,南公民館入口,36.026455,139.452408,緯度経度は怪しい
埼玉県,吉見町,4-3,江綱727番地1,江綱集会所南側丁字路,36.021889,139.44664,緯度経度は怪しい
埼玉県,吉見町,4-4,久保田931番地1,消防団1-2詰所北側,36.02697,139.447479,緯度経度は怪しい
埼玉県,吉見町,4-5,江綱1270番地,(有)渡辺興業資材置場入口,36.023209,139.44397,緯度経度は怪しい
埼玉県,吉見町,4-6,南吉見1481番地1,江口集会所西側,36.032795,139.425323,緯度経度は怪しい
埼玉県,吉見町,4-7,久保田1110番地1,久保田中組公民館東側,36.029785,139.446701,緯度経度は怪しい
埼玉県,吉見町,5-1,久保田2435番地6,(株)仙台銘板入口,36.032433,139.450363,緯度経度は怪しい
埼玉県,吉見町,5-2,久保田1737番地,道の駅「いちごの里よしみ」バス停東側,36.036816,139.457565,緯度経度は怪しい
埼玉県,吉見町,5-3,下細谷411番地,吉見町役場東側,36.040497,139.453629,緯度経度は怪しい
埼玉県,吉見町,5-4,下細谷343番地,下細谷集会所北側,36.041275,139.452026,緯度経度は怪しい
埼玉県,吉見町,5-5,下細谷1番地,吉見中学校入口,36.046124,139.449234,緯度経度は怪しい
埼玉県,吉見町,5-6,久保田1725番地1,吉見ヶ丘団地公園,36.036777,139.456451,緯度経度は怪しい
埼玉県,吉見町,6-1,北吉見309番地1,百穴入口岩窟売店前回転場,36.03825,139.420609,緯度経度は怪しい
埼玉県,吉見町,6-2,北吉見765番地1,根古屋集会所前西側道路,36.040073,139.42688,緯度経度は怪しい
埼玉県,吉見町,6-3,南吉見2074番地3,西が丘小学校入口,36.036568,139.430817,緯度経度は怪しい
埼玉県,吉見町,6-4,南吉見511番地1,流川バス停前,36.035213,139.430328,緯度経度は怪しい
埼玉県,吉見町,6-5,南吉見1607番地1,亀の甲バス停前,36.034687,139.43634,緯度経度は怪しい
埼玉県,吉見町,6-6,久米田682番地1,明治牛乳販売所南側交差点,36.036255,139.440704,緯度経度は怪しい
埼玉県,吉見町,6-7,久米田194番地8,久米田バス停前,36.035774,139.446091,緯度経度は怪しい
埼玉県,吉見町,7-1,長谷1236番地41,ネオ通線手押信号機交差点(松ノ平入口),None,None,緯度経度は怪しい
埼玉県,吉見町,7-2,北吉見1340番地1,新吉見団地入口(集積所裏),36.048519,139.423782,緯度経度は怪しい
埼玉県,吉見町,7-3,北吉見1453番地1先,北向地蔵北側,36.047203,139.426483,緯度経度は怪しい
埼玉県,吉見町,7-4,北吉見1717番地1,西部ふれあいセンタ-入口,36.049011,139.425339,緯度経度は怪しい
埼玉県,吉見町,8-1,御所286番地1先,吉見観音入口東側,36.051964,139.440292,緯度経度は怪しい
埼玉県,吉見町,8-2,和名6番地1,西小学校入口(あいさつ坂入口),36.050774,139.436829,緯度経度は怪しい
埼玉県,吉見町,8-3,黒岩3番地3,八丁湖入口交差点南側,36.05722,139.439331,緯度経度は怪しい
埼玉県,吉見町,8-4,和名812番地,消防団2-3詰所西側,36.042522,139.446472,緯度経度は怪しい
埼玉県,吉見町,8-5,和名933番地,医療施設もえぎ野北側丁字路,36.040352,139.445206,緯度経度は怪しい
埼玉県,吉見町,8-6,北吉見2823番地,西公民館入口交差点,36.046207,139.428558,緯度経度は怪しい
埼玉県,吉見町,9-1,長谷868番地1,消防団2-1詰所前,36.06126,139.425797,緯度経度は怪しい
埼玉県,吉見町,9-2,長谷703番地1,大沼入口丁字路,36.05965,139.432755,緯度経度は怪しい
埼玉県,吉見町,9-3,田甲818番地4,小峰商店東側,36.06678,139.428085,緯度経度は怪しい
埼玉県,吉見町,9-4,田甲1105番地,田甲集会所東側,36.067509,139.431519,緯度経度は怪しい
埼玉県,吉見町,9-5,田甲1477番地先,福聚寺東側集積所付近,36.071754,139.43103,緯度経度は怪しい
埼玉県,吉見町,9-6,田甲1901番地,ポンポン山入口町営駐車場,36.069397,139.436417,緯度経度は怪しい
埼玉県,吉見町,9-7,田甲1182番地297,前山団地交差点西側,36.063976,139.432571,緯度経度は怪しい
埼玉県,吉見町,10-1,山ノ下820番地1,稲荷神社東側,36.067745,139.440598,緯度経度は怪しい
埼玉県,吉見町,10-2,中曽根255番地,中曽根集会所前,36.076374,139.4431,緯度経度は怪しい
埼玉県,吉見町,10-3,上砂522番地,上砂ごみ集積所付近,36.07198,139.447739,緯度経度は怪しい
埼玉県,吉見町,10-4,上砂284番地,上砂農村研修所前,36.072128,139.452713,緯度経度は怪しい
埼玉県,吉見町,10-5,松崎151番地,東都モ-ルド工業所前,36.066704,139.449051,緯度経度は怪しい
埼玉県,吉見町,10-6,松崎76番地,松崎集会所西側,36.064762,139.449402,緯度経度は怪しい
埼玉県,吉見町,11-1,地頭方654番地1,広域農道県民ゴルフ場入口,36.068623,139.458527,緯度経度は怪しい
埼玉県,吉見町,11-2,一ツ木182番地,旧原田商店南側,36.062153,139.463181,緯度経度は怪しい
埼玉県,吉見町,11-3,地頭方451番地,北吉見郵便局南側,36.062191,139.45932,緯度経度は怪しい
埼玉県,吉見町,11-4,本沢62番地,玄長庵南側道路丁字路,36.060406,139.452728,緯度経度は怪しい
埼玉県,吉見町,11-5,上細谷98番地,上細谷旧埼玉中央農協倉庫西側,36.05827,139.45079,緯度経度は怪しい
埼玉県,吉見町,11-6,小新井142番地,ふれあい広場北側入口,36.054199,139.453888,緯度経度は怪しい
埼玉県,吉見町,12-1,今泉418番地,今泉揚水場東側,36.052467,139.459686,緯度経度は怪しい
埼玉県,吉見町,12-2,今泉254番地,今泉集会所入口,None,None,緯度経度は怪しい
埼玉県,吉見町,12-3,北下砂214番地1,北下砂集会所北側,36.048492,139.465546,緯度経度は怪しい
埼玉県,吉見町,12-4,中新井892番地,神明神社北側,36.049114,139.457565,緯度経度は怪しい
埼玉県,吉見町,12-5,中新井438番地,KUMON吉見中央教室南側,36.051586,139.450104,緯度経度は怪しい
埼玉県,吉見町,12-6,中新井500番地1,図書交流館入口,36.051071,139.454422,緯度経度は怪しい
