prefecture,city,district,number,address,name,lat,long,note
千葉県,市川市,千葉5区,231,南八幡2丁目20-1勤労福祉センター,南八幡2丁目20-1勤労福祉センター,35.7136337,139.9272993,
千葉県,市川市,千葉5区,232,南八幡2丁目21-2ライオンズマンション市川本八幡,南八幡2丁目21-2ライオンズマンション市川本八幡,35.7124021,139.9263578,
千葉県,市川市,千葉5区,233,南八幡2丁目23-1葛南工業用水道事務所/西側,南八幡2丁目23-1葛南工業用水道事務所/西側,35.7118175,139.9297168,
千葉県,市川市,千葉5区,234,南八幡2丁目23-1葛南工業用水道事務所/南側,南八幡2丁目23-1葛南工業用水道事務所/南側,35.7118175,139.9297168,
千葉県,市川市,千葉5区,235,南八幡2丁目15南八幡公園/東側,南八幡2丁目15南八幡公園/東側,35.7132003,139.9302448,
千葉県,市川市,千葉5区,236,東大和田1丁目2-10市役所分庁舎C棟,東大和田1丁目2-10市役所分庁舎C棟,35.714089,139.9268678,
千葉県,市川市,千葉5区,237,南八幡2丁目15南八幡公園/西側,南八幡2丁目15南八幡公園/西側,35.7132003,139.9302448,
千葉県,市川市,千葉5区,238,masked,masked,35.7178432,139.9291369,
千葉県,市川市,千葉5区,239,masked,masked,35.7178432,139.9291369,
千葉県,市川市,千葉5区,240,南八幡1丁目17公用車専用駐車場,南八幡1丁目17公用車専用駐車場,35.7166,139.9296455,
千葉県,市川市,千葉5区,241,南八幡3丁目23コスモス公園,南八幡3丁目23コスモス公園,35.7165899,139.9258043,
千葉県,市川市,千葉5区,242,南八幡3丁目15-1白菊幼稚園,南八幡3丁目15-1白菊幼稚園,35.7181895,139.9269705,
千葉県,市川市,千葉5区,243,南八幡3丁目9八幡児童公園/南側,南八幡3丁目9八幡児童公園/南側,35.7190981,139.9291176,
千葉県,市川市,千葉5区,244,南八幡3丁目1地先八幡第2駐輪場,南八幡3丁目1地先八幡第2駐輪場,35.7198368,139.9297173,
千葉県,市川市,千葉5区,245,大和田1丁目1-3大和田小学校/正門,大和田1丁目1-3大和田小学校/正門,35.7176706,139.9216368,
千葉県,市川市,千葉5区,246,大和田1丁目1-3大和田小学校/裏門,大和田1丁目1-3大和田小学校/裏門,35.7176706,139.9216368,
千葉県,市川市,千葉5区,247,南八幡5丁目20-3南八幡デイサービスセンター,南八幡5丁目20-3南八幡デイサービスセンター,35.7186654,139.9209684,
千葉県,市川市,千葉5区,248,南八幡5丁目1地先八幡第1駐輪場,南八幡5丁目1地先八幡第1駐輪場,35.7218473,139.9251866,
千葉県,市川市,千葉5区,249,南八幡4丁目1地先JR本八幡駅/南口,南八幡4丁目1地先JR本八幡駅/南口,35.7205183,139.9273193,
千葉県,市川市,千葉5区,250,南八幡4丁目18本八幡公園,南八幡4丁目18本八幡公園,35.7176761,139.924114,
千葉県,市川市,千葉5区,251,大和田1丁目15大和田公園,大和田1丁目15大和田公園,35.7143869,139.9177068,
千葉県,市川市,千葉5区,252,八幡1丁目1-1市役所第1庁舎,八幡1丁目1-1市役所第1庁舎,35.7217888,139.9310307,
千葉県,市川市,千葉5区,253,八幡2丁目17JR本八幡駅/北口,八幡2丁目17JR本八幡駅/北口,35.7217173,139.9274342,
千葉県,市川市,千葉5区,254,八幡4丁目5-7不二女子高校,八幡4丁目5-7不二女子高校,35.7247105,139.9292828,
千葉県,市川市,千葉5区,255,八幡4丁目2葛飾八幡宮参道,八幡4丁目2葛飾八幡宮参道,35.7241765,139.9311088,
千葉県,市川市,千葉5区,256,八幡5丁目19八幡東公園,八幡5丁目19八幡東公園,35.7257321,139.9369822,
千葉県,市川市,千葉5区,257,八幡5丁目1-10市川学園幼稚園,八幡5丁目1-10市川学園幼稚園,35.7230332,139.9318873,
千葉県,市川市,千葉5区,258,八幡1丁目18地先メディアロード,八幡1丁目18地先メディアロード,35.7199364,139.9310834,
千葉県,市川市,千葉5区,259,八幡5丁目9八方橋脇真間川欄干,八幡5丁目9八方橋脇真間川欄干,35.7235441,139.9365297,
千葉県,市川市,千葉5区,260,八幡5丁目8八幡5丁目大和橋公園,八幡5丁目8八幡5丁目大和橋公園,35.7219565,139.9357361,
千葉県,市川市,千葉5区,261,八幡3丁目24-1八幡小学校/北側,八幡3丁目24-1八幡小学校/北側,35.7256736,139.9278603,
千葉県,市川市,千葉5区,262,八幡3丁目24-1八幡小学校/南側,八幡3丁目24-1八幡小学校/南側,35.7256736,139.9278603,
千葉県,市川市,千葉5区,263,八幡3丁目20京成八幡駅/西側,八幡3丁目20京成八幡駅/西側,35.7253876,139.927059,
千葉県,市川市,千葉5区,264,東菅野1丁目12菅野児童公園,東菅野1丁目12菅野児童公園,35.7281507,139.9312812,
千葉県,市川市,千葉5区,265,菅野1丁目15白幡公園,菅野1丁目15白幡公園,35.7289066,139.9262931,
千葉県,市川市,千葉5区,266,八幡3丁目2京成八幡駅/北側,八幡3丁目2京成八幡駅/北側,35.7242673,139.9278267,
千葉県,市川市,千葉5区,267,八幡3丁目2京成八幡駅/南側,八幡3丁目2京成八幡駅/南側,35.7242673,139.9278267,
千葉県,市川市,千葉5区,268,八幡6丁目10-11冨貴島小学校/南側,八幡6丁目10-11冨貴島小学校/南側,35.7267421,139.9375556,
千葉県,市川市,千葉5区,269,八幡6丁目10-11冨貴島小学校/西側,八幡6丁目10-11冨貴島小学校/西側,35.7267421,139.9375556,
千葉県,市川市,千葉5区,270,八幡6丁目35桜見公園,八幡6丁目35桜見公園,35.7315987,139.9408906,
千葉県,市川市,千葉5区,271,東菅野3丁目12-18市営住宅東菅野団地,東菅野3丁目12-18市営住宅東菅野団地,35.7304626,139.9355742,
千葉県,市川市,千葉5区,272,八幡6丁目16地先慈眼橋脇真間川欄干,八幡6丁目16地先慈眼橋脇真間川欄干,35.7291299,139.9368501,
千葉県,市川市,千葉5区,273,八幡6-10-11地先冨貴島小学校脇ガードレール,八幡6-10-11地先冨貴島小学校脇ガードレール,35.7267421,139.9375556,
千葉県,市川市,千葉5区,274,八幡6丁目20冨貴島第2公園,八幡6丁目20冨貴島第2公園,35.7282022,139.938677,
千葉県,市川市,千葉5区,275,八幡6丁目13冨貴島公園,八幡6丁目13冨貴島公園,35.7277925,139.9355328,
千葉県,市川市,千葉5区,276,八幡6-20-18地先八幡排水機場脇ガードレール,八幡6-20-18地先八幡排水機場脇ガードレール,35.7276957,139.9382797,
千葉県,市川市,千葉5区,277,菅野5丁目10菅野5丁目公園,菅野5丁目10菅野5丁目公園,35.733849,139.9231544,
千葉県,市川市,千葉5区,278,東菅野2丁目17-1昭和学院,東菅野2丁目17-1昭和学院,35.733111,139.9304775,
千葉県,市川市,千葉5区,279,東菅野2丁目23終末処理場/南側,東菅野2丁目23終末処理場/南側,35.7356463,139.927803,
千葉県,市川市,千葉5区,280,東菅野2丁目23終末処理場/北側,東菅野2丁目23終末処理場/北側,35.7356463,139.927803,
千葉県,市川市,千葉5区,281,菅野5丁目3-1アルファコート菅野/クボタ独身寮/南側,菅野5丁目3-1アルファコート菅野/クボタ独身寮/南側,35.7336227,139.9247967,
千葉県,市川市,千葉5区,282,菅野5丁目3-1アルファコート菅野/クボタ独身寮/東側,菅野5丁目3-1アルファコート菅野/クボタ独身寮/東側,35.7336227,139.9247967,
千葉県,市川市,千葉5区,283,菅野4丁目12-16菅野保育園,菅野4丁目12-16菅野保育園,35.7329184,139.927163,
千葉県,市川市,千葉5区,284,新田1丁目3胡録神社,新田1丁目3胡録神社,35.7278688,139.9165307,
千葉県,市川市,千葉5区,285,平田2丁目23-12諏訪神社,平田2丁目23-12諏訪神社,35.7277434,139.9180002,
千葉県,市川市,千葉5区,286,菅野2丁目7京成菅野駅/北側,菅野2丁目7京成菅野駅/北側,35.7282163,139.9195717,
千葉県,市川市,千葉5区,287,平田2丁目1市川郵便局,平田2丁目1市川郵便局,35.7252076,139.9218713,
千葉県,市川市,千葉5区,288,菅野6丁目14-1菅野小学校,菅野6丁目14-1菅野小学校,35.7340561,139.9163155,
千葉県,市川市,千葉5区,289,菅野3丁目24-2菅野公民館,菅野3丁目24-2菅野公民館,35.732621,139.916941,
千葉県,市川市,千葉5区,290,菅野3丁目24-2菅野公民館広場/東側,菅野3丁目24-2菅野公民館広場/東側,35.732621,139.916941,
千葉県,市川市,千葉5区,291,菅野3丁目24-1国府台女子学院小学校/東側,菅野3丁目24-1国府台女子学院小学校/東側,35.7319615,139.9152793,
千葉県,市川市,千葉5区,292,菅野3丁目24-1国府台女子学院/北側,菅野3丁目24-1国府台女子学院/北側,35.7324781,139.916017,
千葉県,市川市,千葉5区,293,真間1丁目10京成市川真間駅/北側,真間1丁目10京成市川真間駅/北側,35.7314197,139.9115382,
千葉県,市川市,千葉5区,294,真間3丁目3旧・桜土手公園/中央付近,真間3丁目3旧・桜土手公園/中央付近,35.7352855,139.9134702,
千葉県,市川市,千葉5区,295,真間3丁目3旧・桜土手公園/川側,真間3丁目3旧・桜土手公園/川側,35.7352855,139.9134702,
千葉県,市川市,千葉5区,296,菅野6丁目19菅野西公園,菅野6丁目19菅野西公園,35.7353006,139.914878,
千葉県,市川市,千葉5区,297,市川1丁目19市川八幡神社,市川1丁目19市川八幡神社,35.7318595,139.9085669,
千葉県,市川市,千葉5区,298,市川1丁目2地先市川第4駐輪場,市川1丁目2地先市川第4駐輪場,35.7286909,139.9092188,
千葉県,市川市,千葉5区,299,市川1丁目7千葉銀行市川支店前/植栽,市川1丁目7千葉銀行市川支店前/植栽,35.730002,139.908275,
千葉県,市川市,千葉5区,300,真間2丁目6旧・手児奈橋公園,真間2丁目6旧・手児奈橋公園,35.7369118,139.9102153,
千葉県,市川市,千葉5区,301,市川1丁目27京成市川真間駅/南側,市川1丁目27京成市川真間駅/南側,35.7315228,139.9109843,
千葉県,市川市,千葉5区,302,真間2丁目17真間2丁目歩道/植栽,真間2丁目17真間2丁目歩道/植栽,35.7362123,139.9090628,
千葉県,市川市,千葉5区,303,市川1丁目12市川第6駐輪場,市川1丁目12市川第6駐輪場,35.730878,139.9073194,
千葉県,市川市,千葉5区,304,市川2丁目32-5市川小学校,市川2丁目32-5市川小学校,35.7320887,139.9053876,
千葉県,市川市,千葉5区,305,市川2丁目24あおぎり公園,市川2丁目24あおぎり公園,35.7326278,139.9038591,
千葉県,市川市,千葉5区,306,市川3丁目38地先新根本橋脇真間川欄干,市川3丁目38地先新根本橋脇真間川欄干,35.7374148,139.9057804,
千葉県,市川市,千葉5区,307,市川3丁目28地先根本橋脇 真間川欄干,市川3丁目28地先根本橋脇 真間川欄干,35.7376446,139.9032988,
千葉県,市川市,千葉5区,308,市川3丁目25京成国府台駅前,市川3丁目25京成国府台駅前,35.7361922,139.902178,
千葉県,市川市,千葉5区,309,市川南3丁目14山桜公園,市川南3丁目14山桜公園,35.7306961,139.9035163,
千葉県,市川市,千葉5区,310,市川南2丁目7-7こがね公園,市川南2丁目7-7こがね公園,35.73086, 139.90368,
千葉県,市川市,千葉5区,311,市川南3丁目14すずらん公園/西側,市川南3丁目14すずらん公園/西側,35.7297536,139.9049714,
千葉県,市川市,千葉5区,312,市川南3丁目14すずらん公園/東側,市川南3丁目14すずらん公園/東側,35.7297536,139.9049714,
千葉県,市川市,千葉5区,313,市川南3丁目6東電市川第二変電所,市川南3丁目6東電市川第二変電所,35.7297957,139.9032876,
千葉県,市川市,千葉5区,314,市川南3丁目1市川南第1公園,市川南3丁目1市川南第1公園,35.7289043,139.9045084,
千葉県,市川市,千葉5区,315,市川南4丁目2-11京葉住設(株)跡地,市川南4丁目2-11京葉住設(株)跡地,35.7258866,139.9029507,
千葉県,市川市,千葉5区,316,masked,masked,35.7284375,139.9017936,
千葉県,市川市,千葉5区,317,市川南3丁目9-7山崎製パン(株)本社市川寮,市川南3丁目9-7山崎製パン(株)本社市川寮,35.7292753,139.9033139,
千葉県,市川市,千葉5区,318,市川南4丁目1-15市川南保育園,市川南4丁目1-15市川南保育園,35.7269987,139.9026275,
千葉県,市川市,千葉5区,319,新田4丁目8-15宮田小学校/東側,新田4丁目8-15宮田小学校/東側,35.726849,139.909345,
千葉県,市川市,千葉5区,320,市川南1丁目10地先市川駅南口 ザ・タワーズイースト前駐輪場入口,市川南1丁目10地先市川駅南口 ザ・タワーズイースト前駐輪場入口,35.728843,139.9067956,
千葉県,市川市,千葉5区,321,市川南1丁目8-6市川南第2公園,市川南1丁目8-6市川南第2公園,35.7278911,139.9055937,
千葉県,市川市,千葉5区,322,新田2丁目29地先JR高架下鉄柵,新田2丁目29地先JR高架下鉄柵,35.7266013,139.9125055,
千葉県,市川市,千葉5区,323,新田4丁目4-12地先市川東バイク駐車場,新田4丁目4-12地先市川東バイク駐車場,35.7275958,139.9107241,
千葉県,市川市,千葉5区,324,新田4丁目12新田4丁目児童会館前児童遊園地,新田4丁目12新田4丁目児童会館前児童遊園地,35.726263,139.908476,
千葉県,市川市,千葉5区,325,大洲4丁目18-1大洲小学校/東側,大洲4丁目18-1大洲小学校/東側,35.723506,139.906917,
千葉県,市川市,千葉5区,326,大洲4丁目18-1大洲小学校/正門,大洲4丁目18-1大洲小学校/正門,35.723506,139.906917,
千葉県,市川市,千葉5区,327,大洲4丁目22北越コーポレーション/駐車場,大洲4丁目22北越コーポレーション/駐車場,35.7220036,139.9067411,
千葉県,市川市,千葉5区,328,市川南2丁目8京葉ガス工場跡地,市川南2丁目8京葉ガス工場跡地,35.725241,139.903699,
千葉県,市川市,千葉5区,329,新田4丁目18大洲北公園,新田4丁目18大洲北公園,35.7238006,139.9079325,
千葉県,市川市,千葉5区,330,市川南2丁目4すずかけ公園,市川南2丁目4すずかけ公園,35.7254702,139.9058551,
千葉県,市川市,千葉5区,331,大洲3丁目21-1北越コーポレーション/東側,大洲3丁目21-1北越コーポレーション/東側,35.7229916,139.9041793,
千葉県,市川市,千葉5区,332,大洲4丁目9大洲中学校/グラウンド,大洲4丁目9大洲中学校/グラウンド,35.7212441,139.9073462,
千葉県,市川市,千葉5区,333,大洲4丁目21-5大洲中学校/南側,大洲4丁目21-5大洲中学校/南側,35.7212441,139.9073462,
千葉県,市川市,千葉5区,334,大洲4丁目21-5大洲中学校/東側,大洲4丁目21-5大洲中学校/東側,35.7212441,139.9073462,
千葉県,市川市,千葉5区,335,新田3丁目14新田南公園/西側,新田3丁目14新田南公園/西側,35.7232459,139.913128,
千葉県,市川市,千葉5区,336,新田3丁目14新田南公園/北側,新田3丁目14新田南公園/北側,35.7232459,139.913128,
千葉県,市川市,千葉5区,337,大洲4丁目3-12大洲幼稚園,大洲4丁目3-12大洲幼稚園,35.7210268,139.9094301,
千葉県,市川市,千葉5区,338,平田3丁目28-1平田小学校/西側,平田3丁目28-1平田小学校/西側,35.724203,139.918108,
千葉県,市川市,千葉5区,339,平田3丁目28-1平田小学校/東側,平田3丁目28-1平田小学校/東側,35.724203,139.918108,
千葉県,市川市,千葉5区,340,平田3丁目10-10市川工業高校/南側,平田3丁目10-10市川工業高校/南側,35.7227172,139.9201507,
千葉県,市川市,千葉5区,341,平田3丁目10-10市川工業高校/東側,平田3丁目10-10市川工業高校/東側,35.7227172,139.9201507,
千葉県,市川市,千葉5区,342,平田3丁目5前耕地公園,平田3丁目5前耕地公園,35.7212236,139.9205103,
千葉県,市川市,千葉5区,343,平田1丁目17-10市営住宅平田団地,平田1丁目17-10市営住宅平田団地,35.7254421,139.9202499,
千葉県,市川市,千葉5区,344,新田2丁目7ひなぎく公園,新田2丁目7ひなぎく公園,35.7228588,139.9147843,
千葉県,市川市,千葉5区,345,大和田4丁目11-1鶴指小学校/西側,大和田4丁目11-1鶴指小学校/西側,35.717965,139.915703,
千葉県,市川市,千葉5区,346,大和田4丁目11-1鶴指小学校/東側,大和田4丁目11-1鶴指小学校/東側,35.717965,139.915703,
千葉県,市川市,千葉5区,347,大和田4丁目9-1第八中学校,大和田4丁目9-1第八中学校,35.719168,139.9149,
千葉県,市川市,千葉5区,348,大洲1丁目18大洲防災公園/南側,大洲1丁目18大洲防災公園/南側,35.7189169,139.9104944,
千葉県,市川市,千葉5区,349,大洲1丁目18大洲防災公園/西側,大洲1丁目18大洲防災公園/西側,35.7189169,139.9104944,
千葉県,市川市,千葉5区,350,大洲1丁目18大洲防災公園/東側,大洲1丁目18大洲防災公園/東側,35.7189169,139.9104944,
千葉県,市川市,千葉5区,351,大洲1丁目18大洲防災公園/北側,大洲1丁目18大洲防災公園/北側,35.7189169,139.9104944,
千葉県,市川市,千葉5区,352,大和田4丁目17大和田4丁目公園,大和田4丁目17大和田4丁目公園,35.7170236,139.914473,
千葉県,市川市,千葉5区,353,大洲2丁目3-8大洲保育園,大洲2丁目3-8大洲保育園,35.7160999,139.9117887,
千葉県,市川市,千葉5区,354,大和田5丁目2-10大和田5-2地先ガードレール,大和田5丁目2-10大和田5-2地先ガードレール,35.7142589,139.9149365,
千葉県,市川市,千葉5区,355,大洲2丁目10大洲稲荷神社児童遊園地,大洲2丁目10大洲稲荷神社児童遊園地,35.7171937,139.9089027,
千葉県,市川市,千葉5区,356,大和田5丁目10-3大和田5-10地先ガードレール,大和田5丁目10-3大和田5-10地先ガードレール,35.7147029,139.9142651,
千葉県,市川市,千葉5区,357,稲荷木1丁目14-1稲荷木小学校/正門,稲荷木1丁目14-1稲荷木小学校/正門,35.7115715,139.921765,
千葉県,市川市,千葉5区,358,稲荷木1丁目14-1稲荷木小学校/裏門,稲荷木1丁目14-1稲荷木小学校/裏門,35.7115715,139.921765,
千葉県,市川市,千葉5区,359,稲荷木3丁目2-6市営住宅稲荷木団地,稲荷木3丁目2-6市営住宅稲荷木団地,35.7093521,139.9209003,
千葉県,市川市,千葉5区,360,稲荷木2丁目4稲荷木2丁目公園,稲荷木2丁目4稲荷木2丁目公園,35.709248,139.9225102,
千葉県,市川市,千葉5区,361,稲荷木1丁目26-16稲荷木保育園,稲荷木1丁目26-16稲荷木保育園,35.7116578,139.9246469,
千葉県,市川市,千葉5区,362,大和田2丁目21市川大和田県営住宅,大和田2丁目21市川大和田県営住宅,35.7117498,139.9163434,
千葉県,市川市,千葉5区,363,大和田2丁目18-1秣川排水機場,大和田2丁目18-1秣川排水機場,35.7102959,139.9170862,
千葉県,市川市,千葉5区,364,稲荷木1丁目14-1稲荷木小学校/東側,稲荷木1丁目14-1稲荷木小学校/東側,35.7115715,139.921765,
千葉県,市川市,千葉5区,365,稲荷木1丁目2稲荷木第一公園,稲荷木1丁目2稲荷木第一公園,35.7132833,139.9209637,
千葉県,市川市,千葉5区,366,田尻4丁目12日枝神社,田尻4丁目12日枝神社,35.7034645,139.9330056,
千葉県,市川市,千葉5区,367,田尻4丁目9田尻第2少年広場,田尻4丁目9田尻第2少年広場,35.703146,139.936264,
千葉県,市川市,千葉5区,368,田尻4丁目9ひいらぎ公園,田尻4丁目9ひいらぎ公園,35.7038054,139.9365279,
千葉県,市川市,千葉5区,369,田尻5丁目24地先高谷広場,田尻5丁目24地先高谷広場,35.6987072,139.9362093,
千葉県,市川市,千葉5区,370,田尻3丁目9-15市川藤マンション,田尻3丁目9-15市川藤マンション,35.7062926,139.9396824,
千葉県,市川市,千葉5区,371,田尻3-11-15セブンイレブン原木中山店,田尻3-11-15セブンイレブン原木中山店,35.7047096,139.9391008,
千葉県,市川市,千葉5区,372,原木1丁目3-2原木中山ファミールハイツ2号館,原木1丁目3-2原木中山ファミールハイツ2号館,35.7063803,139.9460719,
千葉県,市川市,千葉5区,373,二俣1丁目9地先ぼたん公園先ガードレール,二俣1丁目9地先ぼたん公園先ガードレール,35.7053592,139.9499879,
千葉県,市川市,千葉5区,374,原木1丁目5-20プリマベーラA,原木1丁目5-20プリマベーラA,35.7066824,139.9446401,
千葉県,市川市,千葉5区,375,二俣1丁目5-1本郷排水機場/北側,二俣1丁目5-1本郷排水機場/北側,35.7066157,139.9476722,
千葉県,市川市,千葉5区,376,原木1丁目1地先北原木橋脇真間川欄干,原木1丁目1地先北原木橋脇真間川欄干,35.7078696,139.9455012,
千葉県,市川市,千葉5区,377,二俣678二俣小学校 北側,二俣678二俣小学校 北側,35.6969262,139.9566549,緯度経度は怪しい
千葉県,市川市,千葉5区,378,二俣678二俣小学校 西側,二俣678二俣小学校 西側,35.6969262,139.9566549,緯度経度は怪しい
千葉県,市川市,千葉5区,379,二俣717二俣新町駅第2駐輪場,二俣717二俣新町駅第2駐輪場,35.6910567,139.9580681,
千葉県,市川市,千葉5区,380,原木4丁目3みとめ公園,原木4丁目3みとめ公園,35.6982946,139.9503384,
千葉県,市川市,千葉5区,381,原木3丁目10-14原木第二排水機場,原木3丁目10-14原木第二排水機場,35.6998211,139.9502442,
千葉県,市川市,千葉5区,382,二俣2丁目8-19二俣竜神社,二俣2丁目8-19二俣竜神社,35.7036889,139.9558816,
千葉県,市川市,千葉5区,383,二俣470番地先二俣470番地先ガードレール,二俣470番地先二俣470番地先ガードレール,35.7004429,139.955069,
千葉県,市川市,千葉5区,384,二俣673-2番地先二俣673-2番地先ガードレール,二俣673-2番地先二俣673-2番地先ガードレール,35.697992,139.9559179,
千葉県,市川市,千葉5区,385,高谷1丁目8-2信篤市民体育館,高谷1丁目8-2信篤市民体育館,35.701709,139.942218,
千葉県,市川市,千葉5区,386,masked,masked,35.698683,139.9392501,
千葉県,市川市,千葉5区,387,高谷2丁目8信篤公園,高谷2丁目8信篤公園,35.6987913,139.9374278,
千葉県,市川市,千葉5区,388,原木1丁目8-1原木幼稚園 西側,原木1丁目8-1原木幼稚園 西側,35.7034814,139.9432742,
千葉県,市川市,千葉5区,389,原木1丁目8-1原木幼稚園 東側,原木1丁目8-1原木幼稚園 東側,35.7034814,139.9432742,
千葉県,市川市,千葉5区,390,masked,masked,35.7009506,139.9472036,
千葉県,市川市,千葉5区,391,原木2丁目16-1信篤小学校,原木2丁目16-1信篤小学校,35.6981545,139.9438835,
千葉県,市川市,千葉5区,392,原木3047原木西浜公園,原木3047原木西浜公園,35.6925905,139.9481184,緯度経度は怪しい
千葉県,市川市,千葉5区,393,masked,masked,35.6956945,139.9432362,
千葉県,市川市,千葉5区,394,妙典2丁目14-2妙典小学校 東側,妙典2丁目14-2妙典小学校 東側,35.6959705,139.9295562,
千葉県,市川市,千葉5区,395,妙典2丁目14-2妙典小学校 北側,妙典2丁目14-2妙典小学校 北側,35.6959705,139.9295562,
千葉県,市川市,千葉5区,396,妙典2丁目14-2妙典小学校 南側,妙典2丁目14-2妙典小学校 南側,35.6959705,139.9295562,
千葉県,市川市,千葉5区,397,妙典1丁目12元新田公園 北側,妙典1丁目12元新田公園 北側,35.698367,139.9252788,
千葉県,市川市,千葉5区,398,妙典1丁目12元新田公園 西側,妙典1丁目12元新田公園 西側,35.698367,139.9252788,
千葉県,市川市,千葉5区,399,妙典1丁目7地先行徳バイパス脇側道ガードレール,妙典1丁目7地先行徳バイパス脇側道ガードレール,35.6976939,139.924116,
千葉県,市川市,千葉5区,400,妙典6丁目1妙典公園 南側,妙典6丁目1妙典公園 南側,35.6945582,139.930457,
千葉県,市川市,千葉5区,401,妙典6丁目1妙典公園 東側,妙典6丁目1妙典公園 東側,35.6945582,139.930457,
千葉県,市川市,千葉5区,402,妙典3丁目25ひだまり公園 東側,妙典3丁目25ひだまり公園 東側,35.6943872,139.9276517,
千葉県,市川市,千葉5区,403,本行徳4寺町公園／東側,本行徳4寺町公園／東側,35.6956016,139.9224129,
千葉県,市川市,千葉5区,404,河原9新宿前公園,河原9新宿前公園,35.6984153,139.9219146,
千葉県,市川市,千葉5区,405,本行徳4寺町公園／北側,本行徳4寺町公園／北側,35.6956016,139.9224129,
千葉県,市川市,千葉5区,406,本塩7上道公園,本塩7上道公園,35.6908454,139.9217093,
千葉県,市川市,千葉5区,407,本塩17-13月島食品工業行徳寮,本塩17-13月島食品工業行徳寮,35.68989,139.9206346,
千葉県,市川市,千葉5区,408,本塩28三町畑公園東側,本塩28三町畑公園東側,35.6891317,139.9186245,
千葉県,市川市,千葉5区,409,本行徳33-1常夜灯公園／西側,本行徳33-1常夜灯公園／西側,35.6904624,139.9149875,
千葉県,市川市,千葉5区,410,本行徳12行徳児童公園,本行徳12行徳児童公園,35.694552,139.9177817,
千葉県,市川市,千葉5区,411,富浜1丁目1-40行徳小学校／西側,富浜1丁目1-40行徳小学校／西側,35.692538,139.923298,
千葉県,市川市,千葉5区,412,富浜1丁目1-40行徳小学校／行徳バイパス側,富浜1丁目1-40行徳小学校／行徳バイパス側,35.692538,139.923298,
千葉県,市川市,千葉5区,413,妙典3丁目6春日神社,妙典3丁目6春日神社,35.6955452,139.9241486,
千葉県,市川市,千葉5区,414,妙典3丁目25ひだまり公園／南側,妙典3丁目25ひだまり公園／南側,35.6943872,139.9276517,
千葉県,市川市,千葉5区,415,妙典4丁目4-1地先地下鉄妙典駅ロータリー,妙典4丁目4-1地先地下鉄妙典駅ロータリー,35.691971,139.9272392,
千葉県,市川市,千葉5区,416,富浜1丁目7白妙公園／東側,富浜1丁目7白妙公園／東側,35.6908515,139.9247976,
千葉県,市川市,千葉5区,417,富浜2丁目5-19行徳地域ふれあい館,富浜2丁目5-19行徳地域ふれあい館,35.6888436,139.9216945,
千葉県,市川市,千葉5区,418,富浜2丁目15すいせん公園,富浜2丁目15すいせん公園,35.6877173,139.9245487,
千葉県,市川市,千葉5区,419,富浜1丁目7白妙公園／北側,富浜1丁目7白妙公園／北側,35.6908515,139.9247976,
千葉県,市川市,千葉5区,420,妙典5丁目22-1妙典中学校／正門,妙典5丁目22-1妙典中学校／正門,35.688277,139.933352,
千葉県,市川市,千葉5区,421,妙典5丁目22-1妙典中学校／西側,妙典5丁目22-1妙典中学校／西側,35.688277,139.933352,
千葉県,市川市,千葉5区,422,妙典5丁目22-1妙典中学校／体育館入口,妙典5丁目22-1妙典中学校／体育館入口,35.688277,139.933352,
千葉県,市川市,千葉5区,423,妙典5丁目12小宮山公園／西側,妙典5丁目12小宮山公園／西側,35.6908369,139.9313512,
千葉県,市川市,千葉5区,424,妙典5丁目12小宮山公園／南側,妙典5丁目12小宮山公園／南側,35.6908369,139.9313512,
千葉県,市川市,千葉5区,425,塩焼1丁目14塩の花公園／西側,塩焼1丁目14塩の花公園／西側,35.6882111,139.928832,
千葉県,市川市,千葉5区,426,塩焼1丁目14塩の花公園／北側,塩焼1丁目14塩の花公園／北側,35.6882111,139.928832,
千葉県,市川市,千葉5区,427,妙典6丁目15小宮山第2公園／西側,妙典6丁目15小宮山第2公園／西側,35.6915954,139.9323283,
千葉県,市川市,千葉5区,428,下妙典861-5ぴあぱーく妙典,下妙典861-5ぴあぱーく妙典,35.6865889,139.9386123,
千葉県,市川市,千葉5区,429,塩焼5丁目9-8塩焼小学校/南側,塩焼5丁目9-8塩焼小学校/南側,35.6838887,139.9299862,
千葉県,市川市,千葉5区,430,塩焼5丁目9-8塩焼小学校/東側,塩焼5丁目9-8塩焼小学校/東側,35.6838887,139.9299862,
千葉県,市川市,千葉5区,431,塩焼5丁目9-1塩焼幼稚園,塩焼5丁目9-1塩焼幼稚園,35.6848623,139.9296818,
千葉県,市川市,千葉5区,432,塩焼5丁目6塩焼中央公園/西側,塩焼5丁目6塩焼中央公園/西側,35.6850486,139.92898,
千葉県,市川市,千葉5区,433,塩焼5丁目6塩焼中央公園/東側,塩焼5丁目6塩焼中央公園/東側,35.6850486,139.92898,
千葉県,市川市,千葉5区,434,塩焼4丁目10モッコク公園,塩焼4丁目10モッコク公園,35.6861553,139.9313432,
千葉県,市川市,千葉5区,435,塩焼4丁目4新場山公園,塩焼4丁目4新場山公園,35.6873982,139.9321033,
千葉県,市川市,千葉5区,436,塩焼4丁目2からたち公園,塩焼4丁目2からたち公園,35.6877533,139.9315977,
千葉県,市川市,千葉5区,437,塩焼5丁目6塩焼中央公園/北側,塩焼5丁目6塩焼中央公園/北側,35.6850486,139.92898,
千葉県,市川市,千葉5区,438,幸1丁目11-1幸小学校/正門,幸1丁目11-1幸小学校/正門,35.6813058,139.9298295,
千葉県,市川市,千葉5区,439,幸1丁目11-1幸小学校/裏門,幸1丁目11-1幸小学校/裏門,35.6813058,139.9298295,
千葉県,市川市,千葉5区,440,幸1丁目1幸中央公園,幸1丁目1幸中央公園,35.6825757,139.9293063,
千葉県,市川市,千葉5区,441,幸1丁目22幸1丁目児童遊園地,幸1丁目22幸1丁目児童遊園地,35.6796453,139.9294816,
千葉県,市川市,千葉5区,442,幸2丁目4行徳南部公園/北側,幸2丁目4行徳南部公園/北側,35.6788614,139.9283013,
千葉県,市川市,千葉5区,443,幸2丁目11やまもも公園,幸2丁目11やまもも公園,35.6786218,139.9253153,
千葉県,市川市,千葉5区,444,宝2丁目8八幡前公園,宝2丁目8八幡前公園,35.6808547,139.9240894,
千葉県,市川市,千葉5区,445,宝1丁目7下道公園,宝1丁目7下道公園,35.6831127,139.9269248,
千葉県,市川市,千葉5区,446,幸2丁目4行徳南部公園/南側,幸2丁目4行徳南部公園/南側,35.6788614,139.9283013,
千葉県,市川市,千葉5区,447,塩焼3丁目11-15塩焼第二保育園,塩焼3丁目11-15塩焼第二保育園,35.685353,139.924587,
千葉県,市川市,千葉5区,448,塩焼3丁目14みこし公園,塩焼3丁目14みこし公園,35.6850138,139.9243116,
千葉県,市川市,千葉5区,449,塩焼3丁目21-12東電塩焼変電所,塩焼3丁目21-12東電塩焼変電所,35.6833738,139.9250355,
千葉県,市川市,千葉5区,450,塩焼2丁目12浜道公園/西側,塩焼2丁目12浜道公園/西側,35.6867269,139.9271026,
千葉県,市川市,千葉5区,451,塩焼2丁目2-28塩焼保育園,塩焼2丁目2-28塩焼保育園,35.688291,139.9265,
千葉県,市川市,千葉5区,452,富浜3丁目10行徳中央公園/西側,富浜3丁目10行徳中央公園/西側,35.6871236,139.9219313,
千葉県,市川市,千葉5区,453,富浜3丁目10行徳中央公園/東側,富浜3丁目10行徳中央公園/東側,35.6871236,139.9219313,
千葉県,市川市,千葉5区,454,富浜3丁目10行徳中央公園/北側,富浜3丁目10行徳中央公園/北側,35.6871236,139.9219313,
千葉県,市川市,千葉5区,455,塩焼2丁目12浜道公園/東側,塩焼2丁目12浜道公園/東側,35.6867269,139.9271026,
千葉県,市川市,千葉5区,456,押切18押切公園／東側,押切18押切公園／東側,35.6862915,139.914977,
千葉県,市川市,千葉5区,457,本塩28三町畑公園／西側,本塩28三町畑公園／西側,35.6891317,139.9186245,
千葉県,市川市,千葉5区,458,関ヶ島8-10徳蔵寺,関ヶ島8-10徳蔵寺,35.6889441,139.9153371,
千葉県,市川市,千葉5区,459,masked,masked,35.6903686,139.9145272,
千葉県,市川市,千葉5区,460,関ヶ島12-16アゼリアマンション前歩道,関ヶ島12-16アゼリアマンション前歩道,35.6889828,139.9176194,
千葉県,市川市,千葉5区,461,伊勢宿3地先旧江戸川歩道,伊勢宿3地先旧江戸川歩道,35.689480, 139.913586,
千葉県,市川市,千葉5区,462,末広1丁目1-31行徳支所,末広1丁目1-31行徳支所,35.685886,139.9161034,
千葉県,市川市,千葉5区,463,末広1丁目1-48第七中学校,末広1丁目1-48第七中学校,35.6863911,139.9171498,
千葉県,市川市,千葉5区,464,行徳駅前1丁目18行徳第1駐輪場／北側,行徳駅前1丁目18行徳第1駐輪場／北側,35.6837602,139.9155653,
千葉県,市川市,千葉5区,465,行徳駅前1丁目18行徳第1駐輪場／南側,行徳駅前1丁目18行徳第1駐輪場／南側,35.6837602,139.9155653,
千葉県,市川市,千葉5区,466,行徳駅前1丁目15南根公園,行徳駅前1丁目15南根公園,35.6834026,139.9162606,
千葉県,市川市,千葉5区,467,行徳駅前3丁目4南沖公園／東側,行徳駅前3丁目4南沖公園／東側,35.6812415,139.9189963,
千葉県,市川市,千葉5区,468,末広2丁目6南場公園,末広2丁目6南場公園,35.6819668,139.9223829,
千葉県,市川市,千葉5区,469,末広1丁目4東沖公園,末広1丁目4東沖公園,35.685111,139.9184454,
千葉県,市川市,千葉5区,470,行徳駅前3丁目4南沖公園／北側,行徳駅前3丁目4南沖公園／北側,35.6812415,139.9189963,
千葉県,市川市,千葉5区,471,新浜1丁目26-1南新浜小学校／正門,新浜1丁目26-1南新浜小学校／正門,35.6745141,139.9164288,
千葉県,市川市,千葉5区,472,新浜1丁目4西浜公園,新浜1丁目4西浜公園,35.6763142,139.9176606,
千葉県,市川市,千葉5区,473,新浜1丁目9新浜1丁目（B）児童遊園地,新浜1丁目9新浜1丁目（B）児童遊園地,35.675565,139.915679,緯度経度は怪しい
千葉県,市川市,千葉5区,474,日之出22-1ソフトタウン行徳B棟公園,日之出22-1ソフトタウン行徳B棟公園,35.6749314,139.9235703,
千葉県,市川市,千葉5区,475,入船9東浜公園,入船9東浜公園,35.6784411,139.9212332,
千葉県,市川市,千葉5区,476,福栄4丁目14福栄公園,福栄4丁目14福栄公園,35.6741705,139.9141814,緯度経度は怪しい
千葉県,市川市,千葉5区,477,福栄4丁目21白鷺公園,福栄4丁目21白鷺公園,35.6699101,139.9148422,
千葉県,市川市,千葉5区,478,福栄4丁目29千鳥公園,福栄4丁目29千鳥公園,35.6677326,139.9144671,
千葉県,市川市,千葉5区,479,日之出2南浜公園,日之出2南浜公園,35.6781343,139.9240167,
千葉県,市川市,千葉5区,480,行徳駅前4丁目5-1新浜小学校,行徳駅前4丁目5-1新浜小学校,35.6800066,139.9162675,
千葉県,市川市,千葉5区,481,行徳駅前4丁目5-2新浜幼稚園及び新浜小学校南側,行徳駅前4丁目5-2新浜幼稚園及び新浜小学校南側,35.6797393,139.9169346,
千葉県,市川市,千葉5区,482,湊新田2丁目4駅前公園／南側,湊新田2丁目4駅前公園／南側,35.6793678,139.9134683,
千葉県,市川市,千葉5区,483,湊新田2丁目4駅前公園／東側,湊新田2丁目4駅前公園／東側,35.6793678,139.9134683,
千葉県,市川市,千葉5区,484,湊新田2丁目4駅前公園／北側,湊新田2丁目4駅前公園／北側,35.6793678,139.9134683,
千葉県,市川市,千葉5区,485,行徳駅前2丁目24行徳第2駐輪場／南側,行徳駅前2丁目24行徳第2駐輪場／南側,35.681681,139.9131709,
千葉県,市川市,千葉5区,486,行徳駅前2丁目24行徳第2駐輪場／北側,行徳駅前2丁目24行徳第2駐輪場／北側,35.681681,139.9131709,
千葉県,市川市,千葉5区,487,湊新田1丁目11胡録公園,湊新田1丁目11胡録公園,35.6812335,139.9093713,
千葉県,市川市,千葉5区,488,押切6-6押切自治会館,押切6-6押切自治会館,35.6856115,139.9123253,
千葉県,市川市,千葉5区,489,押切6押切稲荷神社,押切6押切稲荷神社,35.6857421,139.9121665,
千葉県,市川市,千葉5区,490,押切18押切公園/北側,押切18押切公園/北側,35.6862915,139.914977,
千葉県,市川市,千葉5区,491,押切18押切公園/西側,押切18押切公園/西側,35.6862915,139.914977,
千葉県,市川市,千葉5区,492,湊新田1丁目1-3ニューグランベール/北側,湊新田1丁目1-3ニューグランベール/北側,35.6828118,139.9095832,
千葉県,市川市,千葉5区,493,湊新田1丁目1-3ニューグランベール/南側,湊新田1丁目1-3ニューグランベール/南側,35.6828118,139.9095832,
千葉県,市川市,千葉5区,494,押切5押切ポンプ場,押切5押切ポンプ場,35.6869825,139.9111323,
千葉県,市川市,千葉5区,495,欠真間1丁目6-38南行徳小学校/西側,欠真間1丁目6-38南行徳小学校/西側,35.6805,139.90145,
千葉県,市川市,千葉5区,496,欠真間1丁目6-38南行徳小学校/南側,欠真間1丁目6-38南行徳小学校/南側,35.6805,139.90145,
千葉県,市川市,千葉5区,497,欠真間1丁目6-15南行徳幼稚園,欠真間1丁目6-15南行徳幼稚園,35.6795692,139.900824,
千葉県,市川市,千葉5区,498,香取1丁目5香取公園/北側,香取1丁目5香取公園/北側,35.6807759,139.9046671,
千葉県,市川市,千葉5区,499,香取1丁目5香取公園/南側,香取1丁目5香取公園/南側,35.6807759,139.9046671,
千葉県,市川市,千葉5区,500,香取1丁目5香取公園/東側,香取1丁目5香取公園/東側,35.6807759,139.9046671,
千葉県,市川市,千葉5区,501,香取2丁目19-1香取地域ふれあい館/北側,香取2丁目19-1香取地域ふれあい館/北側,35.679123,139.909988,
千葉県,市川市,千葉5区,502,香取2丁目19-1香取地域ふれあい館/南側,香取2丁目19-1香取地域ふれあい館/南側,35.679123,139.909988,
千葉県,市川市,千葉5区,503,福栄1丁目4桜場公園/東側,福栄1丁目4桜場公園/東側,35.6782686,139.9102057,
千葉県,市川市,千葉5区,504,福栄1丁目4桜場公園/西側,福栄1丁目4桜場公園/西側,35.6782686,139.9102057,
千葉県,市川市,千葉5区,505,福栄1丁目9-21朝日南市川マンション,福栄1丁目9-21朝日南市川マンション,35.677669,139.9086378,
千葉県,市川市,千葉5区,506,香取2丁目1-16行徳郵便局,香取2丁目1-16行徳郵便局,35.6805928,139.9069948,
千葉県,市川市,千葉5区,507,湊新田2丁目4駅前公園/西側,湊新田2丁目4駅前公園/西側,35.6793678,139.9134683,
千葉県,市川市,千葉5区,508,福栄3丁目4-1福栄中学校/正門,福栄3丁目4-1福栄中学校/正門,35.673895,139.910105,
千葉県,市川市,千葉5区,509,福栄3丁目4-1福栄中学校/南側,福栄3丁目4-1福栄中学校/南側,35.673895,139.910105,
千葉県,市川市,千葉5区,510,福栄3丁目4-1福栄中学校/北側,福栄3丁目4-1福栄中学校/北側,35.673895,139.910105,
千葉県,市川市,千葉5区,511,福栄3丁目5-1行徳グランドハイツ,福栄3丁目5-1行徳グランドハイツ,35.6748538,139.909263,
千葉県,市川市,千葉5区,512,福栄3丁目1行徳ハイライズ/公園,福栄3丁目1行徳ハイライズ/公園,35.675112,139.9106476,
千葉県,市川市,千葉5区,513,福栄2丁目14湊新田公園/南側,福栄2丁目14湊新田公園/南側,35.675977,139.9127089,
千葉県,市川市,千葉5区,514,福栄2丁目14湊新田公園/北側,福栄2丁目14湊新田公園/北側,35.675977,139.9127089,
千葉県,市川市,千葉5区,515,福栄3丁目9新浜公園/南側,福栄3丁目9新浜公園/南側,35.6726308,139.9107378,
千葉県,市川市,千葉5区,516,福栄3丁目9新浜公園/西側,福栄3丁目9新浜公園/西側,35.6726308,139.9107378,
千葉県,市川市,千葉5区,517,南行徳2丁目3-1富美浜小学校/正門,南行徳2丁目3-1富美浜小学校/正門,35.671571,139.905425,
千葉県,市川市,千葉5区,518,南行徳2丁目3-1富美浜小学校/裏門,南行徳2丁目3-1富美浜小学校/裏門,35.671571,139.905425,
千葉県,市川市,千葉5区,519,南行徳2丁目2-1福栄小学校,南行徳2丁目2-1福栄小学校,35.6718791,139.9070954,
千葉県,市川市,千葉5区,520,南行徳1丁目7御手浜公園,南行徳1丁目7御手浜公園,35.6731225,139.9055266,
千葉県,市川市,千葉5区,521,南行徳1丁目9地先南行徳第2駐輪場/南側,南行徳1丁目9地先南行徳第2駐輪場/南側,35.6740896,139.9039357,
千葉県,市川市,千葉5区,522,福栄1丁目20東場公園,福栄1丁目20東場公園,35.6752052,139.9066159,
千葉県,市川市,千葉5区,523,福栄4丁目32-2江戸川左岸流域下水道第二終末処理場,福栄4丁目32-2江戸川左岸流域下水道第二終末処理場,35.6695187,139.9097464,
千葉県,市川市,千葉5区,524,南行徳2丁目16満世公園,南行徳2丁目16満世公園,35.6695726,139.9044507,
千葉県,市川市,千葉5区,525,南行徳2丁目2-2南行徳中学校,南行徳2丁目2-2南行徳中学校,35.670988,139.906692,緯度経度は怪しい
千葉県,市川市,千葉5区,526,欠真間2丁目31-5富美浜地域ふれあい館,欠真間2丁目31-5富美浜地域ふれあい館,35.675406,139.9055,
千葉県,市川市,千葉5区,527,相之川4丁目18南行徳第2駐輪場/北側,相之川4丁目18南行徳第2駐輪場/北側,35.6740896,139.9039357,
千葉県,市川市,千葉5区,528,相之川4丁目7地下鉄南行徳駅/ロータリー,相之川4丁目7地下鉄南行徳駅/ロータリー,35.6725701,139.9015569,
千葉県,市川市,千葉5区,529,相之川4丁目1南行徳公園/南側,相之川4丁目1南行徳公園/南側,35.6751793,139.9017953,
千葉県,市川市,千葉5区,530,相之川4丁目1南行徳公園/北側,相之川4丁目1南行徳公園/北側,35.6751793,139.9017953,
千葉県,市川市,千葉5区,531,欠真間2丁目4欠真間公園/南側,欠真間2丁目4欠真間公園/南側,35.6780825,139.9061007,
千葉県,市川市,千葉5区,532,相之川4丁目1南行徳公園/西側,相之川4丁目1南行徳公園/西側,35.6751793,139.9017953,
千葉県,市川市,千葉5区,533,欠真間2丁目4欠真間公園/東側,欠真間2丁目4欠真間公園/東側,35.6780825,139.9061007,
千葉県,市川市,千葉5区,534,相之川1丁目3-7南行徳公民館,相之川1丁目3-7南行徳公民館,35.6802201,139.8991335,
千葉県,市川市,千葉5区,535,相之川1丁目2-19日枝神社,相之川1丁目2-19日枝神社,35.6811165,139.8997927,
千葉県,市川市,千葉5区,536,相之川1丁目5はこべ公園,相之川1丁目5はこべ公園,35.6813381,139.8984158,
千葉県,市川市,千葉5区,537,相之川1丁目7市営住宅相之川第二団地B棟,相之川1丁目7市営住宅相之川第二団地B棟,35.681178,139.8958543,
千葉県,市川市,千葉5区,538,相之川1丁目7相之川西公園,相之川1丁目7相之川西公園,35.6810654,139.8957496,
千葉県,市川市,千葉5区,539,相之川1丁目23市営住宅相之川第三団地,相之川1丁目23市営住宅相之川第三団地,35.6806028,139.8929729,
千葉県,市川市,千葉5区,540,相之川2丁目3相之川公園/北側,相之川2丁目3相之川公園/北側,35.6786964,139.898816,
千葉県,市川市,千葉5区,541,相之川2丁目3相之川公園/南側,相之川2丁目3相之川公園/南側,35.6786964,139.898816,
千葉県,市川市,千葉5区,542,相之川2丁目3相之川公園/東側,相之川2丁目3相之川公園/東側,35.6786964,139.898816,
千葉県,市川市,千葉5区,543,広尾2丁目3番2号広尾防災公園/西側,広尾2丁目3番2号広尾防災公園/西側,35.6786504,139.8900905,
千葉県,市川市,千葉5区,544,新井2丁目7蟹田公園/南側,新井2丁目7蟹田公園/南側,35.6772563,139.8946154,
千葉県,市川市,千葉5区,545,広尾1丁目11広尾公園/北側,広尾1丁目11広尾公園/北側,35.6773928,139.8916535,
千葉県,市川市,千葉5区,546,広尾1丁目11広尾公園/南側,広尾1丁目11広尾公園/南側,35.6773928,139.8916535,
千葉県,市川市,千葉5区,548,広尾1丁目16地先新井緑道,広尾1丁目16地先新井緑道,35.675718,139.8900916,
千葉県,市川市,千葉5区,549,広尾2丁目3番2号広尾防災公園/東側,広尾2丁目3番2号広尾防災公園/東側,35.6786504,139.8900905,
千葉県,市川市,千葉5区,550,新井2丁目7蟹田公園/北側,新井2丁目7蟹田公園/北側,35.6772563,139.8946154,
千葉県,市川市,千葉5区,551,広尾2-9-21地先新井排水機場バス停留所,広尾2-9-21地先新井排水機場バス停留所,35.67628,139.886619,
千葉県,市川市,千葉5区,552,新井1丁目18-13新井小学校/南側,新井1丁目18-13新井小学校/南側,35.6742638,139.8905158,
千葉県,市川市,千葉5区,553,新井1丁目18-13新井小学校/北側,新井1丁目18-13新井小学校/北側,35.6742638,139.8905158,
千葉県,市川市,千葉5区,554,新井1丁目18-13新井小学校/東側,新井1丁目18-13新井小学校/東側,35.6742638,139.8905158,
千葉県,市川市,千葉5区,555,新井1丁目19地先新井緑道,新井1丁目19地先新井緑道,35.674808,139.8896113,
千葉県,市川市,千葉5区,556,新井1丁目11地先新井緑道,新井1丁目11地先新井緑道,35.675916,139.8914427,
千葉県,市川市,千葉5区,557,島尻1-44新井緑道,島尻1-44新井緑道,35.6745708,139.8883172,
千葉県,市川市,千葉5区,558,masked,masked,35.6719014,139.8874465,
千葉県,市川市,千葉5区,559,新井3丁目31-1新井地域ふれあい館/南側,新井3丁目31-1新井地域ふれあい館/南側,35.669751,139.898675,
千葉県,市川市,千葉5区,560,新井3丁目31-1新井地域ふれあい館/北側,新井3丁目31-1新井地域ふれあい館/北側,35.669751,139.898675,
千葉県,市川市,千葉5区,561,南行徳3丁目11中江川添公園/西側,南行徳3丁目11中江川添公園/西側,35.6684025,139.9033051,
千葉県,市川市,千葉5区,562,新井3丁目18北浜公園/東側,新井3丁目18北浜公園/東側,35.67271,139.8964146,
千葉県,市川市,千葉5区,563,新井3丁目15-10市川水道事務所葛南支所,新井3丁目15-10市川水道事務所葛南支所,35.673897,139.8976662,
千葉県,市川市,千葉5区,564,南行徳3丁目11中江川添公園/南側,南行徳3丁目11中江川添公園/南側,35.6684025,139.9033051,
千葉県,市川市,千葉5区,565,新井3丁目18北浜公園/西側,新井3丁目18北浜公園/西側,35.67271,139.8964146,
千葉県,市川市,千葉5区,566,南行徳3丁目11中江川添公園/東側,南行徳3丁目11中江川添公園/東側,35.6684025,139.9033051,
千葉県,市川市,千葉5区,567,新井3丁目18北浜公園/南側,新井3丁目18北浜公園/南側,35.67271,139.8964146,
千葉県,市川市,千葉5区,568,南行徳3丁目6南行徳ハイツA棟,南行徳3丁目6南行徳ハイツA棟,35.6678473,139.9040793,
千葉県,市川市,千葉5区,569,南行徳3丁目8南行徳ハイツC棟,南行徳3丁目8南行徳ハイツC棟,35.6671506,139.9035523,
千葉県,市川市,千葉5区,570,南行徳3丁目5やなぎ公園,南行徳3丁目5やなぎ公園,35.6672266,139.9048198,
千葉県,市川市,千葉5区,571,南行徳4丁目7東海面公園/南側,南行徳4丁目7東海面公園/南側,35.6652397,139.9071982,
千葉県,市川市,千葉5区,572,南行徳4丁目7東海面公園/西側,南行徳4丁目7東海面公園/西側,35.6652397,139.9071982,
千葉県,市川市,千葉5区,573,南行徳4丁目19あすなろ公園,南行徳4丁目19あすなろ公園,35.6637022,139.9070748,
千葉県,市川市,千葉5区,574,南行徳4丁目15なずな公園,南行徳4丁目15なずな公園,35.6648238,139.9047397,
千葉県,市川市,千葉5区,575,南行徳2丁目21-25地先ソコラ南行徳南脇ガードレール,南行徳2丁目21-25地先ソコラ南行徳南脇ガードレール,35.6685206,139.9058035,
千葉県,市川市,千葉5区,576,南行徳4丁目12-9地先南行徳4丁目12番地先ガードレール,南行徳4丁目12-9地先南行徳4丁目12番地先ガードレール,35.6654929,139.9040344,
千葉県,市川市,千葉5区,577,塩浜4丁目5-1塩浜学園,塩浜4丁目5-1塩浜学園,35.664582,139.9148148,
千葉県,市川市,千葉5区,578,塩浜4丁目4塩浜公園,塩浜4丁目4塩浜公園,35.6640805,139.9137348,
千葉県,市川市,千葉5区,579,塩浜4丁目1行徳高校,塩浜4丁目1行徳高校,35.665474,139.9134743,緯度経度は怪しい
千葉県,市川市,千葉5区,580,塩浜4丁目2ハイタウン塩浜9脇バス停前植込み,塩浜4丁目2ハイタウン塩浜9脇バス停前植込み,35.6631623,139.9118574,緯度経度は怪しい
千葉県,市川市,千葉5区,581,塩浜4丁目2塩浜中央公園/東側,塩浜4丁目2塩浜中央公園/東側,35.6621571,139.9115682,緯度経度は怪しい
千葉県,市川市,千葉5区,582,塩浜4丁目9-1塩浜市民体育館,塩浜4丁目9-1塩浜市民体育館,35.661033,139.914494,
千葉県,市川市,千葉5区,583,塩浜3丁目11地先JR市川塩浜駅/ロータリー,塩浜3丁目11地先JR市川塩浜駅/ロータリー,35.6658784,139.9224248,
千葉県,市川市,千葉5区,584,塩浜4丁目2塩浜中央公園/西側,塩浜4丁目2塩浜中央公園/西側,35.6621571,139.9115682,緯度経度は怪しい
千葉県,市川市,千葉5区,585,塩浜2丁目31市川塩浜三番瀬海浜公園,塩浜2丁目31市川塩浜三番瀬海浜公園,35.6637144,139.9254544,
