prefecture,city,number,address,name,lat,long,note
長野県,上田市,1,常田2丁目26番15号,第1投票区,36.3953204,138.2593578,
長野県,上田市,2,常田3丁目290番1号,第1投票区,36.3935564,138.2629941,
長野県,上田市,3,常田2丁目12番18号,第1投票区,36.3921441,138.257705,
長野県,上田市,4,常田2丁目1番10号,第1投票区,36.3950114,138.254108,
長野県,上田市,5,常田2丁目21番18号,第1投票区,36.3961899,138.2565276,
長野県,上田市,6,常田3丁目1番19号,第1投票区,36.398101,138.2597375,
長野県,上田市,7,常田3丁目2番56号,第1投票区,36.3971463,138.2605351,
長野県,上田市,8,材木町2丁目12番47号,第1投票区,36.3946232,138.2666374,
長野県,上田市,9,踏入1丁目6番21号,第2投票区,36.3875819,138.2602195,
長野県,上田市,10,踏入1丁目7番1号,第2投票区,36.3893822,138.2587939,
長野県,上田市,11,常田2丁目12番40号,第2投票区,36.3906619,138.2586341,
長野県,上田市,12,踏入2丁目7番17号,第2投票区,36.3909717,138.2601425,
長野県,上田市,13,踏入2丁目16番47号,第2投票区,36.3884477,138.2648711,
長野県,上田市,14,常入1丁目11番43号,第2投票区,36.390077,138.2678263,
長野県,上田市,15,国分136番地,第2投票区,36.3826793,138.2717067,緯度経度は怪しい
長野県,上田市,16,中央6丁目1番21号,第3投票区,36.4013403,138.2561419,
長野県,上田市,17,中央6丁目5番45号,第3投票区,36.4007761,138.2580185,
長野県,上田市,18,中央2丁目22番20号,第3投票区,36.3997901,138.2586272,
長野県,上田市,19,材木町1丁目2番33号,第3投票区,36.4006036,138.2617062,
長野県,上田市,20,材木町1丁目17号,第3投票区,36.3968025,138.2650165,
長野県,上田市,21,材木町1丁目128番2号,第3投票区,36.3994624,138.2623718,
長野県,上田市,22,中央6丁目5番45号,第3投票区,36.4007761,138.2580185,
長野県,上田市,23,中央6丁目15番26号,第3投票区,36.403408,138.2611114,
長野県,上田市,24,天神1丁目1番1号,第4投票区,36.3963077,138.249568,
長野県,上田市,25,天神1丁目6番1号,第4投票区,36.3974878,138.2496363,
長野県,上田市,26,天神1丁目6番10号,第4投票区,36.3979639,138.2492487,
長野県,上田市,27,天神2丁目4番13号,第4投票区,36.4017509,138.243396,
長野県,上田市,28,天神4丁目17番8号,第4投票区,36.3963187,138.2478048,
長野県,上田市,29,天神4丁目3番3号,第4投票区,36.3976737,138.2461711,
長野県,上田市,30,天神3丁目1925番5号,第4投票区,36.400542,138.2412189,
長野県,上田市,31,中央2丁目20番4号,第5投票区,36.3999083,138.2561152,
長野県,上田市,32,中央2丁目8番11号,第5投票区,36.3999842,138.2538134,
長野県,上田市,33,中央3丁目10番16号,第5投票区,36.4007086,138.2544666,
長野県,上田市,34,大手1丁目6番1号,第5投票区,36.4001399,138.2506414,
長野県,上田市,35,中央2丁目6番16号,第5投票区,36.399452,138.2521731,
長野県,上田市,36,中央2丁目13番17号,第5投票区,36.3987963,138.2545319,
長野県,上田市,37,大手1丁目3番1号,第5投票区,36.3994138,138.2493499,
長野県,上田市,38,大手1丁目11番16号,第5投票区,36.4018575,138.2490725,
長野県,上田市,39,中央3丁目7番1号,第5投票区,36.4028342,138.2538028,
長野県,上田市,40,大手2丁目6258番1号,第5投票区,36.4030163,138.2489947,
長野県,上田市,41,中央3丁目5851番2号,第6投票区,36.4024813,138.2536608,
長野県,上田市,42,上田1664番地,第6投票区,36.4068734,138.2606961,緯度経度は怪しい
長野県,上田市,43,住吉131番地5,第6投票区,36.4021666,138.2690932,
長野県,上田市,44,中央6丁目3番3号,第6投票区,36.4030575,138.2582991,
長野県,上田市,45,中央5丁目10番16号,第6投票区,36.4052014,138.2560274,
長野県,上田市,46,中央5丁目11番1号,第6投票区,36.4058825,138.2559806,
長野県,上田市,47,中央3丁目16番1号,第6投票区,36.4028074,138.2551892,
長野県,上田市,48,中央北2丁目7番51号,第7投票区 ポスター掲示場設置場所,36.4098787,138.2548651,
長野県,上田市,49,緑が丘1丁目27番32号,第7投票区 ポスター掲示場設置場所,36.4140406,138.2504717,
長野県,上田市,50,中央北3丁目3番62号,第7投票区 ポスター掲示場設置場所,36.4151424,138.2534773,
長野県,上田市,51,中央北3丁目1番52号,第7投票区 ポスター掲示場設置場所,36.4125308,138.2543121,
長野県,上田市,52,中央北3丁目3234番18号,第7投票区 ポスター掲示場設置場所,36.4154119,138.2524165,緯度経度は怪しい
長野県,上田市,53,中央北1丁目1番17号,第7投票区 ポスター掲示場設置場所,36.4083902,138.2558029,
長野県,上田市,54,上田1940番地2,第7投票区 ポスター掲示場設置場所,36.4156647,138.2512034,緯度経度は怪しい
長野県,上田市,55,中央4丁目2210番3号,第8投票区 ポスター掲示場設置場所,36.4059077,138.2511722,
長野県,上田市,56,中央4丁目7番10号,第8投票区 ポスター掲示場設置場所,36.4055719,138.2523681,
長野県,上田市,57,中央4丁目13番33号,第8投票区 ポスター掲示場設置場所,36.40719,138.2522201,
長野県,上田市,58,中央西1丁目15番1号,第8投票区 ポスター掲示場設置場所,36.4071419,138.2503848,
長野県,上田市,59,中央西2丁目12番28号,第8投票区 ポスター掲示場設置場所,36.4087526,138.2507549,
長野県,上田市,60,中央西1丁目14番38号,第8投票区 ポスター掲示場設置場所,36.4075906,138.2477655,
長野県,上田市,61,中央西1丁目2番10号,第8投票区 ポスター掲示場設置場所,36.4053091,138.2482807,
長野県,上田市,62,中央西1丁目5番8号,第8投票区 ポスター掲示場設置場所,36.4064782,138.2459639,
長野県,上田市,63,緑が丘1丁目5番21号,第9投票区 ポスター掲示場設置場所,36.4111607,138.2492086,
長野県,上田市,64,緑が丘1丁目4番15号,第9投票区 ポスター掲示場設置場所,36.4114352,138.2483921,
長野県,上田市,65,緑が丘1丁目22番17号,第9投票区 ポスター掲示場設置場所,36.4121819,138.2469914,
長野県,上田市,66,緑が丘1丁目24番4号,第9投票区 ポスター掲示場設置場所,36.412728,138.2483239,
長野県,上田市,67,緑が丘2丁目5番3号,第9投票区 ポスター掲示場設置場所,36.413686,138.2467697,
長野県,上田市,68,緑が丘3丁目4番17号,第9投票区 ポスター掲示場設置場所,36.4149813,138.2464084,
長野県,上田市,69,緑が丘2丁目10番4号,第9投票区 ポスター掲示場設置場所,36.4143824,138.248414,
長野県,上田市,70,緑が丘2丁目12番10号,第9投票区 ポスター掲示場設置場所,36.4145904,138.2499575,
長野県,上田市,71,中央西2丁目3番7号,第10投票区 ポスター掲示場設置場所,36.4085538,138.2455929,
長野県,上田市,72,常磐城1丁目6番16号,第10投票区 ポスター掲示場設置場所,36.4074667,138.2438945,
長野県,上田市,73,常磐城1丁目7番21号,第10投票区 ポスター掲示場設置場所,36.407553,138.2428952,
長野県,上田市,74,常磐城2丁目8番1号,第10投票区 ポスター掲示場設置場所,36.4081836,138.2394245,
長野県,上田市,75,常磐城1802番地,第10投票区 ポスター掲示場設置場所,36.4102176,138.2380391,緯度経度は怪しい
長野県,上田市,76,常磐城3丁目7番1871号,第10投票区 ポスター掲示場設置場所,36.4051343,138.2374643,
長野県,上田市,77,二の丸4番地58号,第10投票区 ポスター掲示場設置場所,36.4050886,138.2446481,
長野県,上田市,78,常磐城4丁目1番11号,第11投票区 ポスター掲示場設置場所,36.4096693,138.2380706,
長野県,上田市,79,常磐城5丁目706番13号,第11投票区 ポスター掲示場設置場所,36.4106371,138.2412189,
長野県,上田市,80,常磐城5丁目771番3号,第11投票区 ポスター掲示場設置場所,36.4106371,138.2412189,
長野県,上田市,81,常磐城5丁目1番44号,第11投票区 ポスター掲示場設置場所,36.4106535,138.2433134,
長野県,上田市,82,緑が丘3丁目9番15号,第11投票区 ポスター掲示場設置場所,36.413656,138.2443171,
長野県,上田市,83,緑が丘3丁目12番15号,第11投票区 ポスター掲示場設置場所,36.4153969,138.243697,
長野県,上田市,84,常磐城5丁目4番34号,第11投票区 ポスター掲示場設置場所,36.4125168,138.2397471,
長野県,上田市,85,常磐城6丁目9番11号,第11投票区 ポスター掲示場設置場所,36.4131471,138.2388863,
長野県,上田市,86,秋和29番地,第12投票区 ポスター掲示場設置場所,36.408888,138.2264958,
長野県,上田市,87,秋和900番地2,第12投票区 ポスター掲示場設置場所,36.4144521,138.2270324,緯度経度は怪しい
長野県,上田市,88,秋和914番地,第12投票区 ポスター掲示場設置場所,36.4141331,138.2321186,
長野県,上田市,89,秋和939番地,第12投票区 ポスター掲示場設置場所,36.4145994,138.2280995,
長野県,上田市,90,秋和940番地,第12投票区 ポスター掲示場設置場所,36.4152083,138.2279411,
長野県,上田市,91,秋和531番地1,第12投票区 ポスター掲示場設置場所,36.4105314,138.2341848,
長野県,上田市,92,秋和259番地,第12投票区 ポスター掲示場設置場所,36.410734,138.2311693,
長野県,上田市,93,上塩尻121番地,第13投票区 ポスター掲示場設置場所,36.4180349,138.2177894,
長野県,上田市,94,上塩尻259番地4,第13投票区 ポスター掲示場設置場所,36.4177983,138.2141869,
長野県,上田市,95,上塩尻262番地12,第13投票区 ポスター掲示場設置場所,36.4183242,138.2114382,
長野県,上田市,96,上塩尻194番地3,第13投票区 ポスター掲示場設置場所,36.4174319,138.2200905,
長野県,上田市,97,上塩尻456番地1,第13投票区 ポスター掲示場設置場所,36.41599,138.2150992,
長野県,上田市,98,上塩尻751番地,第13投票区 ポスター掲示場設置場所,36.4157092,138.2116438,
長野県,上田市,99,上塩尻1508番地,第13投票区 ポスター掲示場設置場所,36.4176704,138.2169653,
長野県,上田市,100,下塩尻31番地,第14投票区 ポスター掲示場設置場所,36.4202687,138.2020454,緯度経度は怪しい
長野県,上田市,101,下塩尻228番地,第14投票区 ポスター掲示場設置場所,36.4202687,138.2020454,緯度経度は怪しい
長野県,上田市,102,下塩尻844番地8,第14投票区 ポスター掲示場設置場所,36.4202687,138.2020454,緯度経度は怪しい
長野県,上田市,103,下塩尻130番地,第14投票区 ポスター掲示場設置場所,36.4181236,138.2035533,
長野県,上田市,104,下塩尻348番地1,第14投票区 ポスター掲示場設置場所,36.416068,138.2085832,緯度経度は怪しい
長野県,上田市,105,大屋549番地7,第15投票区 ポスター掲示場設置場所,36.3697468,138.2919504,
長野県,上田市,106,大屋467番地2,第15投票区 ポスター掲示場設置場所,36.3726072,138.2928715,
長野県,上田市,107,大屋506番地,第15投票区 ポスター掲示場設置場所,36.3690578,138.2955534,緯度経度は怪しい
長野県,上田市,108,大屋454番地,第15投票区 ポスター掲示場設置場所,36.3696213,138.2967143,
長野県,上田市,109,大屋433番地,第15投票区 ポスター掲示場設置場所,36.3692603,138.2988276,
長野県,上田市,110,大屋228番地,第15投票区 ポスター掲示場設置場所,36.3707217,138.2953058,
長野県,上田市,111,大屋86番地1,第15投票区 ポスター掲示場設置場所,36.3742383,138.2935425,
長野県,上田市,112,蒼久保198番地,第16投票区 ポスター掲示場設置場所,36.3826695,138.2896493,緯度経度は怪しい
長野県,上田市,113,蒼久保9番地3,第16投票区 ポスター掲示場設置場所,36.3813158,138.2888174,
長野県,上田市,114,蒼久保161番地1,第16投票区 ポスター掲示場設置場所,36.383053,138.2880536,
長野県,上田市,115,蒼久保500番地9,第16投票区 ポスター掲示場設置場所,36.3867456,138.2890015,
長野県,上田市,116,蒼久保500番地,第16投票区 ポスター掲示場設置場所,36.387513,138.2893402,緯度経度は怪しい
長野県,上田市,117,蒼久保912番地1,第16投票区 ポスター掲示場設置場所,36.3845508,138.2866457,
長野県,上田市,118,蒼久保1056番地28,第16投票区 ポスター掲示場設置場所,36.3798368,138.2810519,
長野県,上田市,119,蒼久保1377番地,第17投票区 ポスター掲示場設置場所,36.377991,138.2834963,緯度経度は怪しい
長野県,上田市,120,蒼久保1266番地1,第17投票区 ポスター掲示場設置場所,36.3787389,138.2844011,
長野県,上田市,121,蒼久保1515番地9,第17投票区 ポスター掲示場設置場所,36.3763315,138.2878169,
長野県,上田市,122,蒼久保1540番地1,第17投票区 ポスター掲示場設置場所,36.3779044,138.2870927,
長野県,上田市,123,蒼久保1766番地,第17投票区 ポスター掲示場設置場所,36.3845508,138.2866457,
長野県,上田市,124,蒼久保1548番地,第17投票区 ポスター掲示場設置場所,36.3782034,138.2878579,
長野県,上田市,125,芳田1815番地1,第17投票区 ポスター掲示場設置場所,36.3769619,138.2903162,
長野県,上田市,126,岩下310番地11,第18投票区 ポスター掲示場設置場所,36.3720319,138.282288,
長野県,上田市,127,岩下81番地,第18投票区 ポスター掲示場設置場所,36.3724797,138.2806567,
長野県,上田市,128,岩下15番地3,第18投票区 ポスター掲示場設置場所,36.3757454,138.2774854,緯度経度は怪しい
長野県,上田市,129,国分1213番地1,第18投票区 ポスター掲示場設置場所,36.3826793,138.2717067,緯度経度は怪しい
長野県,上田市,130,国分1629番地1,第18投票区 ポスター掲示場設置場所,36.3826793,138.2717067,緯度経度は怪しい
長野県,上田市,131,国分1885番地,第18投票区 ポスター掲示場設置場所,36.3809689,138.2677764,緯度経度は怪しい
長野県,上田市,132,国分879番地2,第18投票区 ポスター掲示場設置場所,36.3826793,138.2717067,緯度経度は怪しい
長野県,上田市,133,国分534番地8,第19投票区,36.3788608,138.2775082,
長野県,上田市,134,国分461番地,第19投票区,36.3826793,138.2717067,緯度経度は怪しい
長野県,上田市,135,国分765番地,第19投票区,36.3826772,138.2727474,
長野県,上田市,136,国分741番地7,第19投票区,36.3839804,138.2728282,
長野県,上田市,137,国分1012番地3,第19投票区,36.3826793,138.2717067,緯度経度は怪しい
長野県,上田市,138,小牧72番地5,第20投票区,36.38346,138.2536168,
長野県,上田市,139,小牧575番地,第20投票区,36.3849077,138.2504633,
長野県,上田市,140,諏訪形642番地3,第20投票区,36.3895715,138.2423293,緯度経度は怪しい
長野県,上田市,141,諏訪形961番地,第20投票区,36.3909385,138.243464,
長野県,上田市,142,諏訪形705番地2,第20投票区,36.3904982,138.2457344,
長野県,上田市,143,諏訪形476番地4,第20投票区,36.3897379,138.2490507,
長野県,上田市,144,御所713番地,第20投票区,36.3946439,138.2422953,
長野県,上田市,145,諏訪形987番地,第21投票区,36.3895715,138.2423293,緯度経度は怪しい
長野県,上田市,146,諏訪形1200番地,第21投票区,36.3922893,138.2377592,
長野県,上田市,147,諏訪形1323番地,第21投票区,36.3908385,138.2389511,
長野県,上田市,148,諏訪形934番地,第21投票区,36.3905659,138.2412955,
長野県,上田市,149,諏訪形1378番地8,第21投票区,36.3857614,138.2364455,
長野県,上田市,150,諏訪形1590番地,第21投票区,36.3850214,138.2390612,
長野県,上田市,151,諏訪形1556番地1,第21投票区,36.3895715,138.2423293,緯度経度は怪しい
長野県,上田市,152,諏訪形2922番地,第22投票区,36.3712508,138.2509125,
長野県,上田市,153,諏訪形2910番地,第22投票区,36.3895715,138.2423293,緯度経度は怪しい
長野県,上田市,154,御所691番地4,第23投票区,36.3957001,138.2394209,
長野県,上田市,155,御所375番地5,第23投票区,36.3947562,138.2373264,
長野県,上田市,156,御所623番地1,第23投票区,36.3968021,138.2361603,
長野県,上田市,157,御所207番地,第23投票区,36.3950568,138.2343173,
長野県,上田市,158,御所346番地5,第23投票区,36.3925406,138.2362008,
長野県,上田市,159,御所150番地3,第23投票区,36.3931068,138.2356209,緯度経度は怪しい
長野県,上田市,160,御所288番地2,第23投票区,36.3874952,138.2359891,緯度経度は怪しい
長野県,上田市,161,中之条485番地,第24投票区,36.3959394,138.222394,
長野県,上田市,162,中之条1234番地,第24投票区,36.3994126,138.2315635,
長野県,上田市,163,中之条300番地2,第24投票区,36.3994879,138.2269142,緯度経度は怪しい
長野県,上田市,164,中之条771番地6,第24投票区,36.4452606,138.1904522,緯度経度は怪しい
長野県,上田市,165,中之条454番地7,第24投票区,36.3958338,138.2261951,
長野県,上田市,166,中之条343番地15,第24投票区,36.3938908,138.231051,
長野県,上田市,167,中之条348番地5,第24投票区,36.3994879,138.2269142,緯度経度は怪しい
長野県,上田市,168,中之条1095番地14,第25投票区,36.4015849,138.2239021,
長野県,上田市,169,中之条1095番地44,第25投票区,36.4015849,138.2239021,
長野県,上田市,170,中之条626番地,第25投票区,36.4005114,138.2296045,
長野県,上田市,171,中之条1203番地,第25投票区,36.4014772,138.2275113,
長野県,上田市,172,中之条1203番地70,第25投票区,36.4022915,138.2286758,
長野県,上田市,173,中之条1203番地94,第25投票区,36.4014772,138.2275113,
長野県,上田市,174,中之条1071番地60,第25投票区,36.4026164,138.2223535,
長野県,上田市,175,下之条600番地,第26投票区,36.4023021,138.2132261,
長野県,上田市,176,下之条722番地4,第26投票区,36.4037435,138.2132349,緯度経度は怪しい
長野県,上田市,177,下之条219番地1,第26投票区,36.4037435,138.2132349,緯度経度は怪しい
長野県,上田市,178,下之条795番地2,第26投票区,36.4037435,138.2132349,緯度経度は怪しい
長野県,上田市,179,下之条170番地19,第26投票区,36.4014113,138.2204026,
長野県,上田市,180,下之条149番地9,第26投票区,36.4004041,138.2199988,
長野県,上田市,181,下之条120番地123,第26投票区,36.3989107,138.2204807,緯度経度は怪しい
長野県,上田市,182,上田原656番地9,第27投票区 ポスター掲示場設置場所,36.3942006,138.2188027,
長野県,上田市,183,上田原620番地3,第27投票区 ポスター掲示場設置場所,36.394949,138.2169921,
長野県,上田市,184,上田原566番地4,第27投票区 ポスター掲示場設置場所,36.3952271,138.2141578,
長野県,上田市,185,上田原604番地,第27投票区 ポスター掲示場設置場所,36.3860276,138.2269142,緯度経度は怪しい
長野県,上田市,186,上田原309番地,第27投票区 ポスター掲示場設置場所,36.39729,138.2151261,
長野県,上田市,187,上田原899番地,第28投票区 ポスター掲示場設置場所,36.3913265,138.2297418,
長野県,上田市,188,上田原994番地,第28投票区 ポスター掲示場設置場所,36.3860276,138.2269142,緯度経度は怪しい
長野県,上田市,189,上田原1159番地6,第28投票区 ポスター掲示場設置場所,36.3898789,138.2228051,
長野県,上田市,190,上田原815番地,第28投票区 ポスター掲示場設置場所,36.3933435,138.224575,
長野県,上田市,191,上田原782番地4,第28投票区 ポスター掲示場設置場所,36.3944072,138.2217513,
長野県,上田市,192,上田原518番地,第28投票区 ポスター掲示場設置場所,36.3916007,138.2161346,
長野県,上田市,193,上田原677番地,第28投票区 ポスター掲示場設置場所,36.3900595,138.2176939,
長野県,上田市,194,神畑126番地3,第29投票区 ポスター掲示場設置場所,36.3811918,138.2182088,緯度経度は怪しい
長野県,上田市,195,神畑770番地2,第29投票区 ポスター掲示場設置場所,36.3809069,138.2175353,
長野県,上田市,196,神畑629番地2,第29投票区 ポスター掲示場設置場所,36.3811918,138.2182088,緯度経度は怪しい
長野県,上田市,197,神畑742番地3,第29投票区 ポスター掲示場設置場所,36.3811918,138.2182088,緯度経度は怪しい
長野県,上田市,198,神畑612番地,第29投票区 ポスター掲示場設置場所,36.3835208,138.2164447,
長野県,上田市,199,神畑3番地3,第29投票区 ポスター掲示場設置場所,36.3862521,138.2160469,
長野県,上田市,200,神畑67番地2,第29投票区 ポスター掲示場設置場所,36.3863109,138.2128968,
長野県,上田市,201,上田原1641番地,第30投票区 ポスター掲示場設置場所,36.3860276,138.2269142,緯度経度は怪しい
長野県,上田市,202,上田原1639番地,第30投票区 ポスター掲示場設置場所,36.3860276,138.2269142,緯度経度は怪しい
長野県,上田市,203,上田原1177番地,第30投票区 ポスター掲示場設置場所,36.3869517,138.2244604,緯度経度は怪しい
長野県,上田市,204,上田原1222番地14,第30投票区 ポスター掲示場設置場所,36.3863026,138.2230266,
長野県,上田市,205,上田原1251番地,第30投票区 ポスター掲示場設置場所,36.3859746,138.2204537,
長野県,上田市,206,上田原1260番地30,第30投票区 ポスター掲示場設置場所,36.3865323,138.2200187,
長野県,上田市,207,上田原1382番地1,第30投票区 ポスター掲示場設置場所,36.3860276,138.2269142,緯度経度は怪しい
長野県,上田市,208,小泉2293番地,第31投票区 ポスター掲示場設置場所,36.4048611,138.2040969,緯度経度は怪しい
長野県,上田市,209,小泉3072番地,第31投票区 ポスター掲示場設置場所,36.4107621,138.1998857,緯度経度は怪しい
長野県,上田市,210,小泉3053番地,第31投票区 ポスター掲示場設置場所,36.4100876,138.1976135,緯度経度は怪しい
長野県,上田市,211,小泉3532番地,第31投票区 ポスター掲示場設置場所,36.383707,138.1870785,緯度経度は怪しい
長野県,上田市,212,小泉3335番地3,第31投票区 ポスター掲示場設置場所,36.4161031,138.1920984,緯度経度は怪しい
長野県,上田市,213,築地237番地,第32投票区 ポスター掲示場設置場所,36.3935532,138.2058461,緯度経度は怪しい
長野県,上田市,214,築地379番地2,第32投票区 ポスター掲示場設置場所,36.394543,138.2042559,
長野県,上田市,215,築地516番地1,第32投票区 ポスター掲示場設置場所,36.3960731,138.205775,
長野県,上田市,216,築地640番地4,第32投票区 ポスター掲示場設置場所,36.395521,138.2080251,緯度経度は怪しい
長野県,上田市,217,築地704番地7,第32投票区 ポスター掲示場設置場所,36.3961758,138.2107384,
長野県,上田市,218,築地51番地18,第32投票区 ポスター掲示場設置場所,36.392774,138.2120192,緯度経度は怪しい
長野県,上田市,219,築地102番地4,第32投票区 ポスター掲示場設置場所,36.3915074,138.2109866,
長野県,上田市,220,福田30番地,第33投票区 ポスター掲示場設置場所,36.388468,138.2056616,
長野県,上田市,221,福田454番地1,第33投票区 ポスター掲示場設置場所,36.3851534,138.2023075,
長野県,上田市,222,福田173番地3,第33投票区 ポスター掲示場設置場所,36.3869349,138.2050594,緯度経度は怪しい
長野県,上田市,223,吉田162番地2,第33投票区 ポスター掲示場設置場所,36.3900714,138.2048173,
長野県,上田市,224,福田60番地5,第33投票区 ポスター掲示場設置場所,36.3879884,138.200916,
長野県,上田市,225,吉田364番地5,第33投票区 ポスター掲示場設置場所,36.3861596,138.198316,
長野県,上田市,226,吉田102番地,第33投票区 ポスター掲示場設置場所,36.3913257,138.2071562,
長野県,上田市,227,上野2702番地,第34投票区 掲示場番号227,36.432144,138.2954118,緯度経度は怪しい
長野県,上田市,228,上野1340番地,第34投票区 掲示場番号228,36.4178076,138.2946479,
長野県,上田市,229,上野1280番地4,第34投票区 掲示場番号229,36.4135031,138.2913568,緯度経度は怪しい
長野県,上田市,230,上野436番地1,第34投票区 掲示場番号230,36.4074415,138.2904391,緯度経度は怪しい
長野県,上田市,231,住吉282番地口,第34投票区 掲示場番号231,36.4037811,138.2753549,
長野県,上田市,232,住吉833番地,第34投票区 掲示場番号232,36.4135193,138.2883705,
長野県,上田市,233,上野1100番地,第34投票区 掲示場番号233,36.4106129,138.2934435,緯度経度は怪しい
長野県,上田市,234,上野441番地,第35投票区 掲示場番号234,36.4072731,138.2917431,
長野県,上田市,235,上野242番地,第35投票区 掲示場番号235,36.4051723,138.2961352,
長野県,上田市,236,古里358番地,第35投票区 掲示場番号236,36.4016413,138.2946532,緯度経度は怪しい
長野県,上田市,237,古里199番地,第35投票区 掲示場番号237,36.4012015,138.2910014,
長野県,上田市,238,古里85番地1,第35投票区 掲示場番号238,36.400076,138.2830328,
長野県,上田市,239,古里1973番地2,第35投票区 掲示場番号239,36.3939305,138.2744968,緯度経度は怪しい
長野県,上田市,240,古里1031番地,第36投票区 掲示場番号240,36.3935962,138.2885391,
長野県,上田市,241,古里1004番地,第36投票区 掲示場番号241,36.3931142,138.2884807,
長野県,上田市,242,古里1247番地,第36投票区 掲示場番号242,36.3939305,138.2744968,緯度経度は怪しい
長野県,上田市,243,古里1434番地,第36投票区 掲示場番号243,36.3902966,138.2830467,緯度経度は怪しい
長野県,上田市,244,古里1533番地20,第36投票区 掲示場番号244,36.3897232,138.2785296,
長野県,上田市,245,古里1654番地3,第36投票区 掲示場番号245,36.393134,138.2741419,緯度経度は怪しい
長野県,上田市,246,古里1885番地2,第37投票区 掲示場番号246,36.3969039,138.2725062,
長野県,上田市,247,古里1998番地6,第37投票区 掲示場番号247,36.3989908,138.2752563,
長野県,上田市,248,古里2067番地2,第37投票区 掲示場番号248,36.3939305,138.2744968,緯度経度は怪しい
長野県,上田市,249,古里2240番地2,第37投票区 掲示場番号249,36.3939305,138.2744968,緯度経度は怪しい
長野県,上田市,250,上田1413番地,第38投票区 掲示場番号250,36.406889,138.2650105,
長野県,上田市,251,上田1548番地,第38投票区 掲示場番号251,36.4079571,138.2684789,
長野県,上田市,252,上田1569番地5,第38投票区 掲示場番号252,36.4100843,138.2735836,
長野県,上田市,253,上田309番地2,第38投票区 掲示場番号253,36.4156647,138.2512034,緯度経度は怪しい
長野県,上田市,254,上田1259番地,第38投票区 掲示場番号254,36.4128144,138.2683096,
長野県,上田市,255,上田1047番地1,第38投票区 掲示場番号255,36.4134115,138.2600192,緯度経度は怪しい
長野県,上田市,256,上田1009番地,第38投票区 掲示場番号256,36.4134115,138.2600192,緯度経度は怪しい
長野県,上田市,257,住吉3477番地3,第39投票区 掲示場番号257,36.4105975,138.2765243,緯度経度は怪しい
長野県,上田市,258,住吉3002番地3,第39投票区 掲示場番号258,36.4160568,138.2766433,緯度経度は怪しい
長野県,上田市,259,上田14番地11,第39投票区 掲示場番号259,36.4134115,138.2600192,緯度経度は怪しい
長野県,上田市,260,住吉1597番地1,第39投票区 掲示場番号260,36.4226615,138.2857496,緯度経度は怪しい
長野県,上田市,261,住吉1519番地,第39投票区 掲示場番号261,36.4198687,138.2853976,
長野県,上田市,262,住吉708番地,第39投票区 掲示場番号262,36.4105975,138.2765243,緯度経度は怪しい
長野県,上田市,263,住吉552番地,第39投票区 掲示場番号263,36.409789,138.2787293,
長野県,上田市,264,住吉378番地1,第39投票区 掲示場番号264,36.407921,138.2835232,
長野県,上田市,265,住吉305番地,第39投票区 掲示場番号265,36.4051019,138.2784079,
長野県,上田市,266,芳田3661番地,第40投票区 掲示場番号266,36.3857975,138.2987283,緯度経度は怪しい
長野県,上田市,267,芳田460番地6,第40投票区 掲示場番号267,36.3823497,138.197034,緯度経度は怪しい
長野県,上田市,268,芳田1062番地5,第40投票区 掲示場番号268,36.3997649,138.3073907,
長野県,上田市,269,芳田1127番地,第40投票区 掲示場番号269,36.3857975,138.2987283,緯度経度は怪しい
長野県,上田市,270,芳田1038番地,第40投票区 掲示場番号270,36.4008277,138.3055251,
長野県,上田市,271,漆戸14番地3,第40投票区 掲示場番号271,36.397764,138.3019293,
長野県,上田市,272,林之郷334番地6,第40投票区 掲示場番号272,36.3939924,138.2930466,
長野県,上田市,273,林之郷459番地4,第40投票区 掲示場番号273,36.392813,138.2928715,
長野県,上田市,274,芳田2445番地1,第41投票区のポスター掲示場設置場所,36.3857975,138.2987283,緯度経度は怪しい
長野県,上田市,275,芳田2536番地,第41投票区のポスター掲示場設置場所,36.3857975,138.2987283,緯度経度は怪しい
長野県,上田市,276,芳田1570番地1,第41投票区のポスター掲示場設置場所,36.3857975,138.2987283,緯度経度は怪しい
長野県,上田市,277,芳田1908番地3,第41投票区のポスター掲示場設置場所,36.3857975,138.2987283,緯度経度は怪しい
長野県,上田市,278,芳田1879番地1,第41投票区のポスター掲示場設置場所,36.3857975,138.2987283,緯度経度は怪しい
長野県,上田市,279,芳田1320番地,第41投票区のポスター掲示場設置場所,36.3861726,138.2944232,
長野県,上田市,280,芳田1328番地2,第41投票区のポスター掲示場設置場所,36.3857975,138.2987283,緯度経度は怪しい
長野県,上田市,281,芳田1380番地,第41投票区のポスター掲示場設置場所,36.3839333,138.2926994,緯度経度は怪しい
長野県,上田市,282,殿城3287番地1,第42投票区のポスター掲示場設置場所,36.4116735,138.3240111,緯度経度は怪しい
長野県,上田市,283,殿城2085番地,第42投票区のポスター掲示場設置場所,36.4025567,138.3159294,緯度経度は怪しい
長野県,上田市,284,殿城506番地,第42投票区のポスター掲示場設置場所,36.4116735,138.3240111,緯度経度は怪しい
長野県,上田市,285,殿城5420番地,第42投票区のポスター掲示場設置場所,36.4116735,138.3240111,緯度経度は怪しい
長野県,上田市,286,殿城995番地1,第42投票区のポスター掲示場設置場所,36.4146894,138.3055602,緯度経度は怪しい
長野県,上田市,287,殿城1731番地,第42投票区のポスター掲示場設置場所,36.4116735,138.3240111,緯度経度は怪しい
長野県,上田市,288,殿城1306番地,第42投票区のポスター掲示場設置場所,36.4116735,138.3240111,緯度経度は怪しい
長野県,上田市,289,殿城3996番地,第42投票区のポスター掲示場設置場所,36.4116735,138.3240111,緯度経度は怪しい
長野県,上田市,290,本郷452番地,第43投票区のポスター掲示場設置場所,36.3702161,138.2082615,緯度経度は怪しい
長野県,上田市,291,中野20番地,第43投票区のポスター掲示場設置場所,36.3589606,138.1981653,
長野県,上田市,292,中野461番地,第43投票区のポスター掲示場設置場所,36.3638479,138.193344,
長野県,上田市,293,中野582番地,第43投票区のポスター掲示場設置場所,36.3621399,138.1924707,緯度経度は怪しい
長野県,上田市,294,本郷618番地4,第43投票区のポスター掲示場設置場所,36.3632067,138.1993748,
長野県,上田市,295,中野339番地4,第43投票区のポスター掲示場設置場所,36.3637786,138.1964704,
長野県,上田市,296,中野201番地125,第43投票区のポスター掲示場設置場所,36.36714,138.1939003,緯度経度は怪しい
長野県,上田市,297,中野201番地121,第43投票区のポスター掲示場設置場所,36.3669361,138.1943681,緯度経度は怪しい
長野県,上田市,298,本郷594番地1,第44投票区のポスター掲示場設置場所,36.3608659,138.2010159,
長野県,上田市,299,五加229番地,第44投票区のポスター掲示場設置場所,36.3587158,138.2043083,
長野県,上田市,300,五加1282番地3,第44投票区のポスター掲示場設置場所,36.3640764,138.2070182,
長野県,上田市,301,五加837番地2,第44投票区のポスター掲示場設置場所,36.3640764,138.2070182,
長野県,上田市,302,五加1214番地7,第44投票区のポスター掲示場設置場所,36.363694,138.204726,
長野県,上田市,303,五加1083番地2,第44投票区のポスター掲示場設置場所,36.3640764,138.2070182,
長野県,上田市,304,五加1122番地,第44投票区のポスター掲示場設置場所,36.3647778,138.209331,
長野県,上田市,305,五加744番地3,第44投票区のポスター掲示場設置場所,36.3693276,138.2131276,
長野県,上田市,306,本郷1444番地2,第45投票区のポスター掲示場設置場所,36.3702161,138.2082615,緯度経度は怪しい
長野県,上田市,307,本郷1209番地,第45投票区のポスター掲示場設置場所,36.3702161,138.2082615,緯度経度は怪しい
長野県,上田市,308,小島761番地,第45投票区のポスター掲示場設置場所,36.3736418,138.205775,緯度経度は怪しい
長野県,上田市,309,小島122番地,第45投票区のポスター掲示場設置場所,36.371752,138.2038276,
長野県,上田市,310,保野762番地,第45投票区のポスター掲示場設置場所,36.3726448,138.2006896,
長野県,上田市,311,保野28番地1,第45投票区のポスター掲示場設置場所,36.3709686,138.1961818,
長野県,上田市,312,保野850番地5,第45投票区のポスター掲示場設置場所,36.3732919,138.197073,
長野県,上田市,313,保野222番地,第45投票区のポスター掲示場設置場所,36.3730376,138.1952696,
長野県,上田市,314,舞田257番地,第46投票区のポスター掲示場設置場所,36.3648766,138.1856543,
長野県,上田市,315,舞田620番地1,第46投票区のポスター掲示場設置場所,36.3651515,138.1843557,
長野県,上田市,316,八木沢270番地1,第46投票区のポスター掲示場設置場所,36.362125,138.1804753,
長野県,上田市,317,八木沢153番地2,第46投票区のポスター掲示場設置場所,36.3603126,138.177188,
長野県,上田市,318,八木沢452番地1,第46投票区のポスター掲示場設置場所,36.3603126,138.177188,
長野県,上田市,319,八木沢1169番地,第46投票区のポスター掲示場設置場所,36.3607068,138.1728374,
長野県,上田市,320,八木沢1486番地1,第46投票区のポスター掲示場設置場所,36.3638176,138.1768191,緯度経度は怪しい
長野県,上田市,321,古安曽3795番地,第47投票区 ポスター掲示場設置場所,36.3483429,138.2024181,
長野県,上田市,322,古安曽3894番地2,第47投票区 ポスター掲示場設置場所,36.3477931,138.2040157,
長野県,上田市,323,古安曽1722番地,第47投票区 ポスター掲示場設置場所,36.3380854,138.2144783,緯度経度は怪しい
長野県,上田市,324,古安曽2013番地,第47投票区 ポスター掲示場設置場所,36.3380854,138.2144783,緯度経度は怪しい
長野県,上田市,325,古安曽1118番地6,第47投票区 ポスター掲示場設置場所,36.3470585,138.220259,
長野県,上田市,326,古安曽920番地,第47投票区 ポスター掲示場設置場所,36.3380854,138.2144783,緯度経度は怪しい
長野県,上田市,327,古安曽644番地,第47投票区 ポスター掲示場設置場所,36.3365412,138.2217348,緯度経度は怪しい
長野県,上田市,328,古安曽597番地,第47投票区 ポスター掲示場設置場所,36.334611,138.221102,
長野県,上田市,329,下之郷731番地,第48投票区 ポスター掲示場設置場所,36.3692602,138.2244268,緯度経度は怪しい
長野県,上田市,330,下之郷133番地,第48投票区 ポスター掲示場設置場所,36.3598945,138.2192588,
長野県,上田市,331,下之郷701番地,第48投票区 ポスター掲示場設置場所,36.3602425,138.2182084,
長野県,上田市,332,下之郷525番地,第48投票区 ポスター掲示場設置場所,36.3629184,138.217889,
長野県,上田市,333,下之郷363番地5,第48投票区 ポスター掲示場設置場所,36.3706599,138.2161022,
長野県,上田市,334,下之郷557番地,第48投票区 ポスター掲示場設置場所,36.3602652,138.2171187,
長野県,上田市,335,富士山4390番地,第49投票区 ポスター掲示場設置場所,36.3395833,138.2292143,
長野県,上田市,336,富士山4436番地,第49投票区 ポスター掲示場設置場所,36.3465707,138.234377,緯度経度は怪しい
長野県,上田市,337,富士山4902番地,第49投票区 ポスター掲示場設置場所,36.3465707,138.234377,緯度経度は怪しい
長野県,上田市,338,富士山3234番地1,第49投票区 ポスター掲示場設置場所,36.3465707,138.234377,緯度経度は怪しい
長野県,上田市,339,富士山3658番地,第49投票区 ポスター掲示場設置場所,36.3450416,138.232251,
長野県,上田市,340,富士山3311番地,第49投票区 ポスター掲示場設置場所,36.3450995,138.2283094,緯度経度は怪しい
長野県,上田市,341,富士山3355番地,第49投票区 ポスター掲示場設置場所,36.3465707,138.234377,緯度経度は怪しい
長野県,上田市,342,富士山2712番地1,第49投票区 ポスター掲示場設置場所,36.3465707,138.234377,緯度経度は怪しい
長野県,上田市,343,富士山2757番地4,第49投票区 ポスター掲示場設置場所,36.3535883,138.2290657,
長野県,上田市,344,十人43番地3,第50投票区 ポスター掲示場設置場所,36.3555612,138.1972553,
長野県,上田市,345,新町234番地,第50投票区 ポスター掲示場設置場所,36.350809,138.1913178,
長野県,上田市,346,新町169番地11,第50投票区 ポスター掲示場設置場所,36.3503996,138.1909823,
長野県,上田市,347,新町30番地,第50投票区 ポスター掲示場設置場所,36.3482033,138.1860835,
長野県,上田市,348,前山710番地2,第50投票区 ポスター掲示場設置場所,36.3484654,138.1937552,
長野県,上田市,349,前山359番地6,第50投票区 ポスター掲示場設置場所,36.3431239,138.1954644,
長野県,上田市,350,前山477番地1,第50投票区 ポスター掲示場設置場所,36.3428689,138.1928585,
長野県,上田市,351,前山1231番地6,第50投票区 ポスター掲示場設置場所,36.3443595,138.1878092,
長野県,上田市,352,前山1616番地,第50投票区 ポスター掲示場設置場所,36.3343303,138.184644,緯度経度は怪しい
長野県,上田市,353,手塚1086番地3,第51投票区 ポスター掲示場設置場所,36.346312,138.1812143,
長野県,上田市,354,手塚1025番地,第51投票区 ポスター掲示場設置場所,36.3450099,138.1813998,緯度経度は怪しい
長野県,上田市,355,手塚202番地,第51投票区 ポスター掲示場設置場所,36.3393023,138.1784708,
長野県,上田市,356,山田335番地,第51投票区 ポスター掲示場設置場所,36.3501773,138.172021,緯度経度は怪しい
長野県,上田市,357,山田1036番地,第51投票区 ポスター掲示場設置場所,36.3470928,138.1672482,
長野県,上田市,358,山田183番地,第51投票区 ポスター掲示場設置場所,36.3470928,138.1672482,
長野県,上田市,359,別所温泉58番地,第52投票区 ポスター掲示場設置場所,36.3531645,138.1631037,
長野県,上田市,360,別所温泉2175番地6,第52投票区 ポスター掲示場設置場所,36.3563621,138.161095,
長野県,上田市,361,別所温泉1826番地,第52投票区 ポスター掲示場設置場所,36.3525371,138.1588668,
長野県,上田市,362,別所温泉135番地,第52投票区 ポスター掲示場設置場所,36.3442648,138.1448904,緯度経度は怪しい
長野県,上田市,363,別所温泉1707番地,第52投票区 ポスター掲示場設置場所,36.3505119,138.1580949,
長野県,上田市,364,別所温泉1623番地,第52投票区 ポスター掲示場設置場所,36.3442648,138.1448904,緯度経度は怪しい
長野県,上田市,365,別所温泉1794番地1,第52投票区 ポスター掲示場設置場所,36.35253,138.1564757,
長野県,上田市,366,別所温泉1600番地,第52投票区 ポスター掲示場設置場所,36.3498657,138.1538716,
長野県,上田市,367,野倉718番地,第52投票区 ポスター掲示場設置場所,36.3368977,138.1572962,
長野県,上田市,368,越戸439番地,第53投票区 ポスター掲示場設置場所 担当番号368,36.3700232,138.1618132,
長野県,上田市,369,越戸533番地,第53投票区 ポスター掲示場設置場所 担当番号369,36.3689684,138.1563322,緯度経度は怪しい
長野県,上田市,370,越戸88番地75,第53投票区 ポスター掲示場設置場所 担当番号370,36.3739426,138.1586789,
長野県,上田市,371,越戸124番地5,第53投票区 ポスター掲示場設置場所 担当番号371,36.3652746,138.1573102,
長野県,上田市,372,浦野237番地,第53投票区 ポスター掲示場設置場所 担当番号372,36.3775038,138.1610996,
長野県,上田市,373,浦野422番地1,第53投票区 ポスター掲示場設置場所 担当番号373,36.3792124,138.158861,緯度経度は怪しい
長野県,上田市,374,浦野273番地9,第53投票区 ポスター掲示場設置場所 担当番号374,36.3795835,138.1633085,
長野県,上田市,375,浦野21番地5,第54投票区 ポスター掲示場設置場所 担当番号375,36.3751579,138.1626739,
長野県,上田市,376,仁古田1651番地,第54投票区 ポスター掲示場設置場所 担当番号376,36.3749514,138.1747029,
長野県,上田市,377,仁古田964番地,第54投票区 ポスター掲示場設置場所 担当番号377,36.3765463,138.173187,
長野県,上田市,378,仁古田574番地,第54投票区 ポスター掲示場設置場所 担当番号378,36.3800281,138.178916,
長野県,上田市,379,仁古田357番地,第54投票区 ポスター掲示場設置場所 担当番号379,36.3790303,138.1729251,
長野県,上田市,380,岡1302番地,第54投票区 ポスター掲示場設置場所 担当番号380,36.3811025,138.1712461,
長野県,上田市,381,岡1236番地,第54投票区 ポスター掲示場設置場所 担当番号381,36.3851021,138.1722179,緯度経度は怪しい
長野県,上田市,382,岡738番地,第54投票区 ポスター掲示場設置場所 担当番号382,36.3855015,138.1733234,
長野県,上田市,383,下室賀219番地,第55投票区 ポスター掲示場設置場所 担当番号383,36.3904121,138.179208,
長野県,上田市,384,下室賀48番地3,第55投票区 ポスター掲示場設置場所 担当番号384,36.3976104,138.1647635,緯度経度は怪しい
長野県,上田市,385,下室賀483番地6,第55投票区 ポスター掲示場設置場所 担当番号385,36.3976104,138.1647635,緯度経度は怪しい
長野県,上田市,386,下室賀878番地,第55投票区 ポスター掲示場設置場所 担当番号386,36.3976104,138.1647635,緯度経度は怪しい
長野県,上田市,387,下室賀1717番地,第55投票区 ポスター掲示場設置場所 担当番号387,36.3951362,138.1703907,緯度経度は怪しい
長野県,上田市,388,下室賀2347番地,第55投票区 ポスター掲示場設置場所 担当番号388,36.3982271,138.1644803,
長野県,上田市,389,下室賀2709番地,第55投票区 ポスター掲示場設置場所 担当番号389,36.3976104,138.1647635,緯度経度は怪しい
長野県,上田市,390,上室賀2826番地,第56投票区 ポスター掲示場設置場所 担当番号390,36.4117544,138.1349565,緯度経度は怪しい
長野県,上田市,391,上室賀501番地,第56投票区 ポスター掲示場設置場所 担当番号391,36.4088614,138.1507069,緯度経度は怪しい
長野県,上田市,392,上室賀535番地7,第56投票区 ポスター掲示場設置場所 担当番号392,36.4084713,138.1468725,緯度経度は怪しい
長野県,上田市,393,上室賀1432番地,第56投票区 ポスター掲示場設置場所 担当番号393,36.4118122,138.1500998,
長野県,上田市,394,上室賀1346番地,第56投票区 ポスター掲示場設置場所 担当番号394,36.4117544,138.1349565,緯度経度は怪しい
長野県,上田市,395,上室賀1853番地,第56投票区 ポスター掲示場設置場所 担当番号395,36.4152915,138.1481114,緯度経度は怪しい
長野県,上田市,396,上室賀2351番地,第56投票区 ポスター掲示場設置場所 担当番号396,36.4181708,138.1458724,
長野県,上田市,397,小泉1930番地,第57投票区 ポスター掲示場設置場所 担当番号397,36.3893721,138.1838194,
長野県,上田市,398,小泉1785番地,第57投票区 ポスター掲示場設置場所 担当番号398,36.3924001,138.1909153,
長野県,上田市,399,小泉33番地,第57投票区 ポスター掲示場設置場所 担当番号399,36.383707,138.1870785,緯度経度は怪しい
長野県,上田市,400,小泉154番地,第57投票区 ポスター掲示場設置場所 担当番号400,36.383707,138.1870785,緯度経度は怪しい
長野県,上田市,401,小泉621番地,第57投票区 ポスター掲示場設置場所 担当番号401,36.3877254,138.1909525,緯度経度は怪しい
長野県,上田市,402,小泉716番地,第57投票区 ポスター掲示場設置場所 担当番号402,36.3844661,138.1882531,
長野県,上田市,403,小泉863番地1,第57投票区 ポスター掲示場設置場所 担当番号403,36.3839079,138.1849158,
長野県,上田市,404,小泉477番地2,第57投票区 ポスター掲示場設置場所 担当番号404,36.383707,138.1870785,緯度経度は怪しい
長野県,上田市,405,鹿教湯温泉1445番地,第58投票区 ポスター掲示場設置場所 担当番号405,36.3002547,138.1348572,緯度経度は怪しい
長野県,上田市,406,鹿教湯温泉1586番地6,第58投票区 ポスター掲示場設置場所 担当番号406,36.2979911,138.1101299,緯度経度は怪しい
長野県,上田市,407,鹿教湯温泉1344番地,第58投票区 ポスター掲示場設置場所 担当番号407,36.3027638,138.137831,緯度経度は怪しい
長野県,上田市,408,西内933番地3,第58投票区 ポスター掲示場設置場所 担当番号408,36.3071886,138.1473741,緯度経度は怪しい
長野県,上田市,409,西内973番地,第58投票区 ポスター掲示場設置場所 担当番号409,36.3071886,138.1473741,緯度経度は怪しい
長野県,上田市,410,西内149番地,第58投票区 ポスター掲示場設置場所 担当番号410,36.3071886,138.1473741,緯度経度は怪しい
長野県,上田市,411,平井1387番地3,第59投票区 ポスター掲示場設置場所 担当番号411,36.2989088,138.1647635,緯度経度は怪しい
長野県,上田市,412,平井1294番地1,第59投票区 ポスター掲示場設置場所 担当番号412,36.2989088,138.1647635,緯度経度は怪しい
長野県,上田市,413,平井914番地,第59投票区 ポスター掲示場設置場所 担当番号413,36.3010502,138.1747411,
長野県,上田市,414,平井401番地1,第59投票区 ポスター掲示場設置場所 担当番号414,36.2989088,138.1647635,緯度経度は怪しい
長野県,上田市,415,平井94番地1,第59投票区 ポスター掲示場設置場所 担当番号415,36.300966,138.1888896,
長野県,上田市,416,平井2435番地6,第59投票区 ポスター掲示場設置場所 担当番号416,36.2989088,138.1647635,緯度経度は怪しい
長野県,上田市,417,東内4207番地,第60投票区,36.3041202,138.1986943,
長野県,上田市,418,東内3533番地,第60投票区,36.3075972,138.2096532,緯度経度は怪しい
長野県,上田市,419,東内2351番地2,第60投票区,36.3121167,138.2245979,緯度経度は怪しい
長野県,上田市,420,東内2502番地2,第60投票区,36.3127148,138.2318621,
長野県,上田市,421,東内1930番地,第60投票区,36.3142086,138.2408623,
長野県,上田市,422,東内1291番地2,第60投票区,36.4019126,138.249075,緯度経度は怪しい
長野県,上田市,423,腰越1932番地1,第61投票区,36.3027949,138.2710162,
長野県,上田市,424,腰越1390番地2,第61投票区,36.312969,138.2660146,緯度経度は怪しい
長野県,上田市,425,腰越1439番地3,第61投票区,36.3125814,138.263673,
長野県,上田市,426,腰越171番地,第61投票区,36.3126396,138.2573866,
長野県,上田市,427,腰越1544番地,第61投票区,36.3157062,138.2665232,
長野県,上田市,428,上丸子1990番地,第61投票区,36.3219249,138.2766859,緯度経度は怪しい
長野県,上田市,429,上丸子1447番地,第61投票区,36.3181516,138.2701702,緯度経度は怪しい
長野県,上田市,430,上丸子1514番地,第61投票区,36.3198539,138.269243,
長野県,上田市,431,上丸子1108番地3,第61投票区,36.3186898,138.2728826,緯度経度は怪しい
長野県,上田市,432,東内778番地1,第62投票区,36.3196387,138.2587985,
長野県,上田市,433,東内112番地7,第62投票区,36.3225681,138.2621158,緯度経度は怪しい
長野県,上田市,434,東内96番地4,第62投票区,36.3241666,138.2634414,
長野県,上田市,435,上丸子1612番地,第62投票区,36.3238538,138.2703347,
長野県,上田市,436,上丸子950番地,第62投票区,36.3239186,138.2717848,
長野県,上田市,437,上丸子1015番地1,第62投票区,36.3219987,138.2720405,
長野県,上田市,438,上丸子1006番地1,第62投票区,36.3213134,138.2746922,
長野県,上田市,439,上丸子1708番地5,第62投票区,36.3219249,138.2766859,緯度経度は怪しい
長野県,上田市,440,上丸子1752番地3,第62投票区,36.3219249,138.2766859,緯度経度は怪しい
長野県,上田市,441,上丸子318番地9,第62投票区,36.3292532,138.2705175,緯度経度は怪しい
長野県,上田市,442,上丸子408番地1,第62投票区,36.3219249,138.2766859,緯度経度は怪しい
長野県,上田市,443,上丸子193番地2,第62投票区,36.3219249,138.2766859,緯度経度は怪しい
長野県,上田市,444,上丸子438番地1,第62投票区,36.3260748,138.275159,
長野県,上田市,445,上丸子149番地,第62投票区,36.3271142,138.2765497,
長野県,上田市,446,中丸子1945番地1,第63投票区,36.3329897,138.2676269,
長野県,上田市,447,中丸子1360番地8,第63投票区,36.3328989,138.2711368,
長野県,上田市,448,中丸子1393番地,第63投票区,36.3318429,138.2719307,
長野県,上田市,449,中丸子807番地1,第63投票区,36.330561,138.277639,
長野県,上田市,450,中丸子1179番地,第63投票区,36.334335,138.2736224,
長野県,上田市,451,中丸子1250番地1,第63投票区,36.3363108,138.2742945,
長野県,上田市,452,中丸子559番地4,第63投票区,36.3325628,138.2779307,緯度経度は怪しい
長野県,上田市,453,下丸子181番地,第63投票区,36.3399144,138.2736953,
長野県,上田市,454,下丸子344番地,第63投票区,36.339741,138.2769192,
長野県,上田市,455,下丸子526番地1,第63投票区,36.3345547,138.2878908,
長野県,上田市,456,御獄堂381番地1,第64投票区,36.3331609,138.2572831,緯度経度は怪しい
長野県,上田市,457,御獄堂1457番地1,第64投票区,36.4019126,138.249075,緯度経度は怪しい
長野県,上田市,458,御獄堂1378番地1,第64投票区,36.3331609,138.2572831,緯度経度は怪しい
長野県,上田市,459,御獄堂1148番地1,第64投票区,36.4019126,138.249075,緯度経度は怪しい
長野県,上田市,460,御獄堂2125番地1,第64投票区,36.3331609,138.2572831,緯度経度は怪しい
長野県,上田市,461,生田4176番地,第65投票区,36.345641,138.2599801,
長野県,上田市,462,生田5071番地,第65投票区,36.3518614,138.2734601,緯度経度は怪しい
長野県,上田市,463,生田4953番地2,第65投票区,36.3514015,138.2684463,
長野県,上田市,464,生田5128番地,第65投票区,36.3518614,138.2734601,緯度経度は怪しい
長野県,上田市,465,生田5247番地3,第65投票区,36.3518614,138.2734601,緯度経度は怪しい
長野県,上田市,466,生田5268番地1,第65投票区,36.3539465,138.2745598,緯度経度は怪しい
長野県,上田市,467,生田3525番地2,第65投票区,36.3518614,138.2734601,緯度経度は怪しい
長野県,上田市,468,生田3007番地12,第66投票区,36.3518614,138.2734601,緯度経度は怪しい
長野県,上田市,469,生田2881番地1,第66投票区,36.3518614,138.2734601,緯度経度は怪しい
長野県,上田市,470,生田2348番地49,第66投票区,36.3660653,138.2822178,
長野県,上田市,471,生田108番地3,第67投票区,36.3579727,138.275795,
長野県,上田市,472,生田2033番地,第67投票区,36.3627163,138.2717763,
長野県,上田市,473,生田1630番地,第67投票区,36.3700393,138.2758064,緯度経度は怪しい
長野県,上田市,474,長瀬3662番地,第68投票区,36.3449435,138.2789033,
長野県,上田市,475,長瀬2418番地2,第68投票区,36.3472282,138.2820767,
長野県,上田市,476,長瀬588番地4,第68投票区,36.337384,138.2962101,
長野県,上田市,477,長瀬896番地3,第68投票区,36.344369,138.2898618,
長野県,上田市,478,長瀬1363番地100,第68投票区,36.3411252,138.2884057,緯度経度は怪しい
長野県,上田市,479,長瀬1810番地9,第68投票区,36.3504639,138.2890475,
長野県,上田市,480,長瀬3483番地2,第68投票区,36.3494738,138.2811792,緯度経度は怪しい
長野県,上田市,481,長瀬2466番地6,第68投票区,36.3509133,138.2837606,
長野県,上田市,482,長瀬2476番地,第68投票区,36.3505499,138.2843167,
長野県,上田市,483,長瀬3123番地1,第68投票区,36.3543068,138.2872605,
長野県,上田市,484,長瀬3086番地1,第68投票区,36.3502144,138.2819264,緯度経度は怪しい
長野県,上田市,485,長瀬2667番地3,第68投票区,36.3557808,138.290149,
長野県,上田市,486,長瀬2805番地42,第68投票区,36.3591308,138.2928534,
長野県,上田市,487,長瀬2965番地4,第68投票区,36.3618426,138.2919826,緯度経度は怪しい
長野県,上田市,488,塩川2834番地3,第69投票区,36.3572892,138.3047932,緯度経度は怪しい
長野県,上田市,489,塩川2778番地,第69投票区,36.366098,138.2962481,
長野県,上田市,490,塩川2949番地3,第69投票区,36.3631781,138.2952842,
長野県,上田市,491,塩川3076番地1,第69投票区,36.3572892,138.3047932,緯度経度は怪しい
長野県,上田市,492,塩川2721番地,第69投票区,36.364588,138.2982349,
長野県,上田市,493,塩川2646番地,第69投票区,36.3572892,138.3047932,緯度経度は怪しい
長野県,上田市,494,塩川3360番地2,第69投票区,36.3611928,138.2977803,
長野県,上田市,495,塩川3352番地,第69投票区,36.3598828,138.2967143,
長野県,上田市,496,塩川2500番地,第70投票区,36.3606755,138.3024013,緯度経度は怪しい
長野県,上田市,497,塩川1485番地8,第70投票区,36.3572892,138.3047932,
長野県,上田市,498,塩川321番地1,第70投票区,36.3558231,138.315845,緯度経度は怪しい
長野県,上田市,499,塩川1012番地,第70投票区,36.3572892,138.3047932,緯度経度は怪しい
長野県,上田市,500,塩川1319番地1,第70投票区,36.3541109,138.3073812,
長野県,上田市,501,塩川1400番地,第70投票区,36.3572892,138.3047932,緯度経度は怪しい
長野県,上田市,502,塩川600番地1,第70投票区,36.3498358,138.3109509,緯度経度は怪しい
長野県,上田市,503,藤原田235番地,第71投票区,36.3328256,138.2981123,
長野県,上田市,504,藤原田565番地1,第71投票区,36.3280249,138.3015888,緯度経度は怪しい
長野県,上田市,505,菅平高原1278番地244,第72投票区のポスター掲示場設置場所,36.522621,138.3461099,緯度経度は怪しい
長野県,上田市,506,菅平高原1223番地414,第72投票区のポスター掲示場設置場所,36.5245832,138.323378,緯度経度は怪しい
長野県,上田市,507,菅平高原1223番地930,第72投票区のポスター掲示場設置場所,36.5295825,138.3143417,緯度経度は怪しい
長野県,上田市,508,菅平高原1223番地274,第72投票区のポスター掲示場設置場所,36.5398038,138.3050166,緯度経度は怪しい
長野県,上田市,509,菅平高原1223番地7407,第72投票区のポスター掲示場設置場所,36.5173537,138.3180029,緯度経度は怪しい
長野県,上田市,510,菅平高原1223番地7007,第72投票区のポスター掲示場設置場所,36.5173537,138.3180029,緯度経度は怪しい
長野県,上田市,511,菅平高原1223番地1751,第72投票区のポスター掲示場設置場所,36.5285668,138.3328468,緯度経度は怪しい
長野県,上田市,512,菅平高原1223番地1643,第72投票区のポスター掲示場設置場所,36.528987,138.3364929,緯度経度は怪しい
長野県,上田市,513,菅平高原1223番地4299,第72投票区のポスター掲示場設置場所,36.5173537,138.3180029,緯度経度は怪しい
長野県,上田市,514,真田町長1278番地138,第73投票区のポスター掲示場設置場所,36.5100614,138.3817633,緯度経度は怪しい
長野県,上田市,515,真田町長1275番地125,第73投票区のポスター掲示場設置場所,36.4801278,138.3688834,緯度経度は怪しい
長野県,上田市,516,真田町長977番地2,第74投票区のポスター掲示場設置場所,36.4836975,138.3516801,緯度経度は怪しい
長野県,上田市,517,真田町長809番地2,第74投票区のポスター掲示場設置場所,36.4801278,138.3688834,緯度経度は怪しい
長野県,上田市,518,真田町長449番地1,第74投票区のポスター掲示場設置場所,36.4792756,138.348919,緯度経度は怪しい
長野県,上田市,519,真田町長315番地,第74投票区のポスター掲示場設置場所,36.4746122,138.3456114,緯度経度は怪しい
長野県,上田市,520,真田町長2546番地2,第75投票区のポスター掲示場設置場所,36.4801278,138.3688834,緯度経度は怪しい
長野県,上田市,521,真田町長3324番地,第75投票区のポスター掲示場設置場所,36.454879,138.3358828,緯度経度は怪しい
長野県,上田市,522,真田町長3386番地1,第75投票区のポスター掲示場設置場所,36.4541513,138.3358434,緯度経度は怪しい
長野県,上田市,523,真田町長4481番地1,第75投票区のポスター掲示場設置場所,36.4507213,138.330459,緯度経度は怪しい
長野県,上田市,524,真田町長4306番地2,第75投票区のポスター掲示場設置場所,36.4485472,138.3273434,緯度経度は怪しい
長野県,上田市,525,真田町長4248番地1,第75投票区のポスター掲示場設置場所,36.4475952,138.3250013,緯度経度は怪しい
長野県,上田市,526,真田町長4238番地1,第75投票区のポスター掲示場設置場所,36.4478463,138.3236056,緯度経度は怪しい
長野県,上田市,527,真田町長4168番地1,第75投票区のポスター掲示場設置場所,36.4469568,138.3218522,緯度経度は怪しい
長野県,上田市,528,真田町長5206番地1,第75投票区のポスター掲示場設置場所,36.4393906,138.3183049,緯度経度は怪しい
長野県,上田市,529,真田町長7528番地7,第76投票区のポスター掲示場設置場所,36.4475592,138.314881,緯度経度は怪しい
長野県,上田市,530,真田町長4038番地5,第76投票区のポスター掲示場設置場所,36.4439486,138.3139904,緯度経度は怪しい
長野県,上田市,531,真田町長7329番地1,第76投票区のポスター掲示場設置場所,36.4435444,138.3080023,緯度経度は怪しい
長野県,上田市,532,真田町長7156番地,第76投票区のポスター掲示場設置場所,36.4801278,138.3688834,緯度経度は怪しい
長野県,上田市,533,真田町長6926番地5,第76投票区のポスター掲示場設置場所,36.4801278,138.3688834,緯度経度は怪しい
長野県,上田市,534,真田町長7190番地,第76投票区のポスター掲示場設置場所,36.4413205,138.3040281,緯度経度は怪しい
長野県,上田市,535,真田町長6107番地1,第76投票区のポスター掲示場設置場所,36.4801278,138.3688834,緯度経度は怪しい
長野県,上田市,536,真田町長6219番地12,第76投票区のポスター掲示場設置場所,36.4375729,138.2993319,緯度経度は怪しい
長野県,上田市,537,真田町本原6130番地1,第76投票区のポスター掲示場設置場所,36.4333681,138.3539219,緯度経度は怪しい
長野県,上田市,538,真田町本原920番地1,第76投票区のポスター掲示場設置場所,36.4371918,138.3029111,緯度経度は怪しい
長野県,上田市,539,真田町本原1067番地1,第76投票区のポスター掲示場設置場所,36.4353708,138.3015634,緯度経度は怪しい
長野県,上田市,540,真田町傍陽101先番地,第77投票区のポスター掲示場設置場所,36.4502766,138.2967604,緯度経度は怪しい
長野県,上田市,541,真田町傍陽789先番地,第77投票区のポスター掲示場設置場所,36.4513141,138.295055,緯度経度は怪しい
長野県,上田市,542,真田町傍陽843番地19,第77投票区のポスター掲示場設置場所,36.4525183,138.2941041,緯度経度は怪しい
長野県,上田市,543,真田町傍陽4168番地2,第77投票区のポスター掲示場設置場所,36.4773607,138.299098,緯度経度は怪しい
長野県,上田市,544,真田町傍陽6037番地1,第77投票区のポスター掲示場設置場所,36.4773607,138.299098,緯度経度は怪しい
長野県,上田市,545,真田町傍陽6099番地,第77投票区のポスター掲示場設置場所,36.4586087,138.2938372,緯度経度は怪しい
長野県,上田市,546,真田町傍陽6332番地,第77投票区のポスター掲示場設置場所,36.4549051,138.2908513,緯度経度は怪しい
長野県,上田市,547,真田町傍陽11455番地4,第77投票区のポスター掲示場設置場所,36.4533677,138.2896032,緯度経度は怪しい
長野県,上田市,548,真田町傍陽6545番地1,第78投票区 ポスター掲示場設置場所,36.4576957,138.2830092,緯度経度は怪しい
長野県,上田市,549,真田町傍陽6628番地,第78投票区 ポスター掲示場設置場所,36.4581719,138.2815983,緯度経度は怪しい
長野県,上田市,550,真田町傍陽7807番地2,第78投票区 ポスター掲示場設置場所,36.4773607,138.299098,緯度経度は怪しい
長野県,上田市,551,真田町傍陽7944番地1,第78投票区 ポスター掲示場設置場所,36.4595306,138.2796601,緯度経度は怪しい
長野県,上田市,552,真田町傍陽8193番地1,第78投票区 ポスター掲示場設置場所,36.4773607,138.299098,緯度経度は怪しい
長野県,上田市,553,真田町傍陽8283番地1,第78投票区 ポスター掲示場設置場所,36.4773607,138.299098,緯度経度は怪しい
長野県,上田市,554,真田町傍陽9619番地,第78投票区 ポスター掲示場設置場所,36.4773607,138.299098,緯度経度は怪しい
長野県,上田市,555,真田町傍陽9166番地3,第78投票区 ポスター掲示場設置場所,36.4773607,138.299098,緯度経度は怪しい
長野県,上田市,556,真田町傍陽5131番地1,第79投票区 ポスター掲示場設置場所,36.4773607,138.299098,緯度経度は怪しい
長野県,上田市,557,真田町傍陽4519番地,第79投票区 ポスター掲示場設置場所,36.4773607,138.299098,緯度経度は怪しい
長野県,上田市,558,真田町傍陽3871番地1,第79投票区 ポスター掲示場設置場所,36.4773607,138.299098,緯度経度は怪しい
長野県,上田市,559,真田町傍陽3806番地2,第79投票区 ポスター掲示場設置場所,36.471748,138.3017238,緯度経度は怪しい
長野県,上田市,560,真田町傍陽2918番地1,第79投票区 ポスター掲示場設置場所,36.4752434,138.3023519,緯度経度は怪しい
長野県,上田市,561,真田町傍陽2483番地2,第79投票区 ポスター掲示場設置場所,36.4773607,138.299098,緯度経度は怪しい
長野県,上田市,562,真田町傍陽2318番地1,第79投票区 ポスター掲示場設置場所,36.4709931,138.3106708,緯度経度は怪しい
長野県,上田市,563,真田町傍陽2109番地2,第79投票区 ポスター掲示場設置場所,36.4773607,138.299098,緯度経度は怪しい
長野県,上田市,564,真田町本原1697番地1,第80投票区 ポスター掲示場設置場所,36.4313545,138.307131,緯度経度は怪しい
長野県,上田市,565,真田町本原2165番地,第80投票区 ポスター掲示場設置場所,36.4280965,138.3082797,緯度経度は怪しい
長野県,上田市,566,真田町本原1771番地,第80投票区 ポスター掲示場設置場所,36.4285376,138.3060841,緯度経度は怪しい
長野県,上田市,567,真田町本原1264番地1,第80投票区 ポスター掲示場設置場所,36.4333681,138.3539219,緯度経度は怪しい
長野県,上田市,568,真田町本原1238番地1,第80投票区 ポスター掲示場設置場所,36.4306254,138.3054131,緯度経度は怪しい
長野県,上田市,569,真田町本原238番地9,第80投票区 ポスター掲示場設置場所,36.4256985,138.3038445,緯度経度は怪しい
長野県,上田市,570,真田町本原1915番地1,第80投票区 ポスター掲示場設置場所,36.4257206,138.3078884,緯度経度は怪しい
長野県,上田市,571,真田町本原2120番地2,第80投票区 ポスター掲示場設置場所,36.4276318,138.3098925,緯度経度は怪しい
長野県,上田市,572,真田町本原1570番地2,第81投票区 ポスター掲示場設置場所,36.4341295,138.3090261,緯度経度は怪しい
長野県,上田市,573,真田町本原2314番地,第81投票区 ポスター掲示場設置場所,36.4338883,138.3115237,緯度経度は怪しい
長野県,上田市,574,真田町本原2506番地6,第81投票区 ポスター掲示場設置場所,36.4333681,138.3539219,緯度経度は怪しい
長野県,上田市,575,真田町本原2473番地1,第81投票区 ポスター掲示場設置場所,36.4362271,138.315802,緯度経度は怪しい
長野県,上田市,576,真田町本原2726番地1,第81投票区 ポスター掲示場設置場所,36.4333681,138.3539219,緯度経度は怪しい
長野県,上田市,577,真田町本原2972番地2,第81投票区 ポスター掲示場設置場所,36.4333681,138.3539219,緯度経度は怪しい
長野県,上田市,578,真田町本原3013番地2,第81投票区 ポスター掲示場設置場所,36.4333681,138.3539219,緯度経度は怪しい
長野県,上田市,579,真田町本原3034番地2,第81投票区 ポスター掲示場設置場所,36.4320726,138.3230331,緯度経度は怪しい
長野県,上田市,580,真田町本原630番地14,第82投票区 ポスター掲示場設置場所,36.4217582,138.2981077,緯度経度は怪しい
長野県,上田市,581,真田町本原614番地1,第82投票区 ポスター掲示場設置場所,36.4217818,138.2995904,緯度経度は怪しい
長野県,上田市,582,真田町本原101番地59,第82投票区 ポスター掲示場設置場所,36.4333681,138.3539219,緯度経度は怪しい
長野県,上田市,583,真田町本原148番地4,第82投票区 ポスター掲示場設置場所,36.4333681,138.3539219,緯度経度は怪しい
長野県,上田市,584,真田町本原54番地1,第82投票区 ポスター掲示場設置場所,36.4228673,138.3029826,緯度経度は怪しい
長野県,上田市,585,真田町本原1988番地1,第82投票区 ポスター掲示場設置場所,36.423198,138.305453,緯度経度は怪しい
長野県,上田市,586,真田町本原789番地2,第82投票区 ポスター掲示場設置場所,36.4278818,138.2970924,緯度経度は怪しい
長野県,上田市,587,真田町本原512番地2,第82投票区 ポスター掲示場設置場所,36.4333681,138.3539219,緯度経度は怪しい
長野県,上田市,588,真田町本原1140番地6,第82投票区 ポスター掲示場設置場所,36.4333681,138.3539219,緯度経度は怪しい
長野県,上田市,589,武石鳥屋573番地2,第83投票区 ポスター掲示場設置場所,36.2973241,138.2414987,緯度経度は怪しい
長野県,上田市,590,武石鳥屋23番地2,第83投票区 ポスター掲示場設置場所,36.2983568,138.2318893,緯度経度は怪しい
長野県,上田市,591,武石鳥屋745番地41,第83投票区 ポスター掲示場設置場所,36.2983568,138.2318893,緯度経度は怪しい
長野県,上田市,592,武石沖660番地4,第83投票区 ポスター掲示場設置場所,36.2975274,138.2489629,緯度経度は怪しい
長野県,上田市,593,武石沖210番地1,第83投票区 ポスター掲示場設置場所,36.2992904,138.2507985,緯度経度は怪しい
長野県,上田市,594,武石沖359番地,第83投票区 ポスター掲示場設置場所,36.2931396,138.2486232,緯度経度は怪しい
長野県,上田市,595,武石沖505番地6,第83投票区 ポスター掲示場設置場所,36.2933574,138.2517943,緯度経度は怪しい
長野県,上田市,596,下武石256番地7,第84投票区,36.2846449,138.2427919,緯度経度は怪しい
長野県,上田市,597,下武石424番地1,第84投票区,36.2829207,138.2392516,緯度経度は怪しい
長野県,上田市,598,下武石209番地5,第84投票区,36.2817476,138.2412285,緯度経度は怪しい
長野県,上田市,599,下武石526番地,第84投票区,36.2869991,138.2368649,緯度経度は怪しい
長野県,上田市,600,下武石591番地1,第84投票区,36.2869991,138.2368649,緯度経度は怪しい
長野県,上田市,601,下武石678番地1,第84投票区,36.2830439,138.2323692,緯度経度は怪しい
長野県,上田市,602,下武石731番地6,第84投票区,36.2838867,138.2311985,緯度経度は怪しい
長野県,上田市,603,下武石870番地1,第84投票区,36.2869991,138.2368649,緯度経度は怪しい
長野県,上田市,604,下武石1163番地5,第84投票区,36.2869991,138.2368649,緯度経度は怪しい
長野県,上田市,605,上武石77番地,第84投票区,36.2832875,138.2303981,緯度経度は怪しい
長野県,上田市,606,上武石83番地1,第84投票区,36.2834591,138.2290077,緯度経度は怪しい
長野県,上田市,607,上武石127番地2,第84投票区,36.284198,138.2144783,緯度経度は怪しい
長野県,上田市,608,上武石407番地,第84投票区,36.2821424,138.2280147,緯度経度は怪しい
長野県,上田市,609,上武石323番地3,第84投票区,36.2815666,138.229728,緯度経度は怪しい
長野県,上田市,610,上武石647番地1,第84投票区,36.2775766,138.2186333,緯度経度は怪しい
長野県,上田市,611,武石下本入93番地3,第85投票区,36.2450223,138.1647635,緯度経度は怪しい
長野県,上田市,612,武石下本入70番地6,第85投票区,36.2749675,138.2143882,緯度経度は怪しい
長野県,上田市,613,武石下本入266番地3,第85投票区,36.2450223,138.1647635,緯度経度は怪しい
長野県,上田市,614,武石下本入290番地,第85投票区,36.2450223,138.1647635,緯度経度は怪しい
長野県,上田市,615,武石上本入884番地10,第85投票区,36.2526242,138.1299903,緯度経度は怪しい
長野県,上田市,616,武石上本入374番地1,第85投票区,36.2742011,138.1999319,緯度経度は怪しい
長野県,上田市,617,武石上本入468番地2,第85投票区,36.2526242,138.1299903,緯度経度は怪しい
長野県,上田市,618,武石上本入988番地,第86投票区,36.2734568,138.1779779,緯度経度は怪しい
長野県,上田市,619,武石上本入1457番地5,第86投票区,36.2711358,138.1749059,緯度経度は怪しい
長野県,上田市,620,武石上本入1574番地,第86投票区,36.2526242,138.1299903,緯度経度は怪しい
長野県,上田市,621,武石上本入1710番地1,第86投票区,36.2727608,138.1685935,緯度経度は怪しい
長野県,上田市,622,武石上本入2095番地6,第86投票区,36.2526242,138.1299903,緯度経度は怪しい
長野県,上田市,623,武石上本入2358番地3,第86投票区,36.2686276,138.1515443,緯度経度は怪しい
長野県,上田市,624,武石上本入1962番地30,第86投票区,36.2722018,138.1596921,緯度経度は怪しい
長野県,上田市,625,武石小沢根113番地2,第87投票区,36.2771077,138.2348606,緯度経度は怪しい
長野県,上田市,626,武石小沢根245番地1,第87投票区,36.276266,138.2300836,緯度経度は怪しい
長野県,上田市,627,武石小沢根466番地4,第87投票区,36.2744592,138.222903,緯度経度は怪しい
長野県,上田市,628,武石小沢根895番地4,第87投票区,36.2742047,138.2317797,緯度経度は怪しい
長野県,上田市,629,武石余里77番地1,第88投票区,36.2675827,138.2283791,緯度経度は怪しい
長野県,上田市,630,武石余里289番地1,第88投票区,36.2637253,138.2269822,緯度経度は怪しい
長野県,上田市,631,武石余里934番地8,第88投票区,36.2652425,138.2287384,緯度経度は怪しい
長野県,上田市,632,武石余里833番地2,第88投票区,36.2514501,138.2209509,緯度経度は怪しい
長野県,上田市,633,武石余里526番地1,第88投票区,36.2514501,138.2209509,緯度経度は怪しい
