prefecture,city,number,address,name,lat,long,note
長野県,伊那市,1-1,山寺区,旧高尾町市営住宅内,35.84606725,137.9585676,
長野県,伊那市,1-2,山寺区,masked,35.84829874,137.9637659,
長野県,伊那市,1-3,山寺区,伊那北地域活性化センター,35.84643049,137.9642585,
長野県,伊那市,1-4,山寺区,水神橋西交差点,35.84931239,137.9695146,
長野県,伊那市,1-5,山寺区,伊那市保健センター西側フェンス,35.84569429,137.9672423,
長野県,伊那市,1-6,山寺区,㈱吉川屋東側フェンス,35.84370741,137.964328,
長野県,伊那市,1-7,山寺区,伊那北駅前しなのや駐車場,35.84502498,137.9633374,
長野県,伊那市,1-8,山寺区,小鳩園駐車場北側フェンス,35.84781174,137.9665585,
長野県,伊那市,1-9,山寺区,竹村建設向かいミニパーク土手,35.84862653,137.9573558,
長野県,伊那市,2-1,坂下区,坂下広場フェンス,35.84114817,137.9624128,
長野県,伊那市,2-2,坂下区,入口蔦屋ブロック塀,35.84167599,137.9588166,
長野県,伊那市,2-3,坂下区,坂下神社玉垣,35.84236964,137.9602554,
長野県,伊那市,3-1,荒井区,荒井橋南市道,35.84753515,137.9463397,
長野県,伊那市,3-2,荒井区,エビヤ鉄工設備南側ブロック塀,35.84446957,137.9554225,
長野県,伊那市,3-3,荒井区,伊那中学校テニスコート,35.84132846,137.9483566,
長野県,伊那市,3-4,荒井区,市道錦町１号線大正橋付近ガードレール,35.84027183,137.9613107,
長野県,伊那市,3-5,荒井区,伊那市中央駐車場北側フェンス,35.83829487,137.9607956,
長野県,伊那市,3-6,荒井区,伊那市再開発ビル駐車場西側フェンス,35.83973066,137.9584613,
長野県,伊那市,3-7,荒井区,masked,35.8452019,137.9473652,
長野県,伊那市,3-8,荒井区,伊那市創造館北側垣根,35.83911151,137.9569794,
長野県,伊那市,3-9,荒井区,仙醸駐車場道路沿いフェンス,35.84052416,137.9564189,
長野県,伊那市,3-10,荒井区,荒井神社前県道歩道,35.84074717,137.9533814,
長野県,伊那市,3-11,荒井区,室町ポケットパーク,35.84360952,137.9552435,
長野県,伊那市,4-1,西町区,masked,35.83649956,137.9568459,
長野県,伊那市,4-2,西町区,㈲西村電気工事商会前フェンス,35.83615967,137.9549146,
長野県,伊那市,4-3,西町区,割烹いづみ東（歩道）フェンス,35.83630824,137.9510993,
長野県,伊那市,4-4,西町区,西町公民館東側水路ガードレール,35.83686443,137.9531905,
長野県,伊那市,4-5,西町区,ＭＥＧＡドン・キホーテＵＮＹ伊那店東側駐車場北角鉄柵,35.83196423,137.9506409,
長野県,伊那市,4-6,西町区,竜南保育園南側フェンス,35.8349291,137.9461673,
長野県,伊那市,4-7,西町区,masked,35.82896954,137.9480455,
長野県,伊那市,4-8,西町区,城南町市営住宅A棟北側,35.83215571,137.9458005,
長野県,伊那市,4-9,西町区,masked,35.83562074,137.9528282,
長野県,伊那市,4-10,西町区,春日公園第二駐車場南側花壇,35.83913302,137.9448588,
長野県,伊那市,4-11,西町区,富士塚スポーツ公園南東角敷地,35.84135886,137.9401571,
長野県,伊那市,5-1,大坊,大坊公民館内,35.83651789,137.920347,
長野県,伊那市,5-2,内の萱,内の萱公民館内,35.83466298,137.8844646,
長野県,伊那市,6-1,ますみヶ丘区,masked,35.84511541,137.9107244,
長野県,伊那市,6-2,ますみヶ丘区,ますみケ丘公民館,35.84420538,137.9183556,
長野県,伊那市,6-3,ますみヶ丘区,masked,35.84057007,137.9225679,
長野県,伊那市,7-1,小沢区,masked,35.85031456,137.9272953,
長野県,伊那市,7-2,中の原,西天竜発電所入口（向かって右側）,35.84971856,137.9389227,
長野県,伊那市,7-3,中の原,中の原公民館（庭）,35.8548242,137.9259748,
長野県,伊那市,8-1,平沢区,平沢公民館前市道ガードレール,35.85589068,137.9053334,
長野県,伊那市,9-1,横山区,横山集会施設内,35.85001316,137.8932845,
長野県,伊那市,10-1,境区,境区公民館,35.83534811,137.9707859,
長野県,伊那市,10-2,境区,東小学校前交差点東側歩道フェンス,35.83688079,137.967676,
長野県,伊那市,10-3,境区,㈱たちばな南側水路,35.8338395,137.9688155,
長野県,伊那市,10-4,境区,masked,35.83467603,137.9727879,
長野県,伊那市,10-5,境区,境交差点南側歩道フェンス,35.82885064,137.972529,
長野県,伊那市,11-1,狐島区,竜東橋北交差点ポケットパーク,35.8292849,137.9688854,
長野県,伊那市,11-2,上新田区,上新田交差点ポケットパーク,35.82850575,137.9639641,
長野県,伊那市,11-3,下新田区,下新田公民館西側フェンス,35.82901876,137.957668,
長野県,伊那市,11-4,下新田区,masked,35.83182679,137.9641413,
長野県,伊那市,11-5,下新田区,狐島第一公民館駐車場,35.834363,137.9620279,
長野県,伊那市,11-6,下新田区,市役所前庭信号機付近,35.82805508,137.9539131,
長野県,伊那市,11-7,下新田区,JA南信会館西側フェンス,35.83646547,137.9648183,
長野県,伊那市,11-8,下新田区,伊那市役所西側駐車場,35.82811779,137.9531148,
長野県,伊那市,12-1,中央区,北町竜東線歩道安全柵,35.84580655,137.9735721,
長野県,伊那市,12-2,中央区,伊那公民館駐車場西側フェンス,35.84279681,137.9666219,
長野県,伊那市,12-3,中央区,中央区公民館スロープガード,35.8408314,137.9679125,
長野県,伊那市,12-4,中央区,伊那スタジアムフェンス,35.84183657,137.9717332,
長野県,伊那市,12-5,中央区,中央区交差点ポケットパーク,35.83999048,137.9669613,
長野県,伊那市,12-6,中央区,警察署前バス停東側フェンス,35.8388108,137.9705684,
長野県,伊那市,12-7,中央区,センターテニスコート駐車場,35.84222365,137.9753216,
長野県,伊那市,13-1,上牧区,県営住宅水神橋団地,35.85059149,137.9743597,
長野県,伊那市,13-2,野底区,(株)オートパル上伊那西側フェンス,35.85283155,137.9778895,
長野県,伊那市,13-3,福島区,上牧研修センター前庭植込,35.85566355,137.9824311,
長野県,伊那市,13-4,福島区,伊那北保育園入口西側フェンス,35.86324452,137.9876556,
長野県,伊那市,13-5,福島区,masked,35.8613341,137.9982595,
長野県,伊那市,13-6,福島区,福島志茂バス停南側フェンス,35.86856385,137.989397,
長野県,伊那市,13-7,福島区,福島公民館玄関右側,35.87275301,137.9899569,
長野県,伊那市,15-1,上新山区,市道中平線中西氏上側待避場,35.80001388,138.0336311,
長野県,伊那市,15-2,上新山区,西の平公民館,35.79523837,138.0277858,
長野県,伊那市,15-3,上新山区,新山簡易郵便局前ガードレール,35.80327,138.0327066,
長野県,伊那市,15-4,北新区,旧北林バス停横,35.81684556,138.0217916,
長野県,伊那市,15-5,北新区,北新区公民館前,35.81177456,138.0281904,
長野県,伊那市,15-6,北新区,新山集落センター,35.80772718,138.0344348,
長野県,伊那市,17-1,桜井区,一夜の城北三叉路,35.82362936,138.0021543,
長野県,伊那市,17-2,桜井区,桜井研修センター,35.82543064,138.0013615,
長野県,伊那市,17-3,貝沼区,市役所富県支所前,35.81800776,137.9939016,
長野県,伊那市,17-4,貝沼区,富県小学校北側バックネット裏,35.81348419,137.9922101,
長野県,伊那市,17-5,貝沼区,貝沼研修センター,35.81856012,137.9998068,
長野県,伊那市,17-6,貝沼区,西原集会所,35.82115229,137.9932248,
長野県,伊那市,18-1,北福地区,北福地集落センター横,35.80641315,137.9899931,
長野県,伊那市,18-2,北福地区,旧北福地バス停横,35.8036471,137.9895215,
長野県,伊那市,18-3,北福地区,金鳳寺入口,35.79750014,137.9905873,
長野県,伊那市,19-1,南福地区,南福地研修センター前,35.79820869,137.9837002,
長野県,伊那市,19-2,南福地区,池公民館前,35.79660077,137.9814144,
長野県,伊那市,19-3,南福地区,竹松公民館東防火用地,35.79722037,137.9865645,
長野県,伊那市,20-1,芦沢区,芦沢公民館駐車場内,35.84013536,138.0379643,
長野県,伊那市,20-2,南割区,masked,35.84504696,138.0340499,
長野県,伊那市,20-3,横町区,北村耕地広得館横,35.84907986,138.030495,
長野県,伊那市,20-4,笠原区,笠原ふれあい交流センター駐車場内,35.84536433,138.028875,
長野県,伊那市,20-5,笠原区,美篶分団第一部詰所西側,35.83977764,138.0305981,
長野県,伊那市,20-6,笠原区,横町ゴミステーション東側,35.84061745,138.0241665,
長野県,伊那市,21-1,上大島区,旧下県公民館跡地,35.83973405,138.0056768,
長野県,伊那市,21-2,上原区,中県公民館前（下段）,35.83650773,138.0091102,
長野県,伊那市,21-3,末広区,上大島地域交流センター北側（下段）,35.83815496,138.0204609,
長野県,伊那市,21-4,中県区,上大島バス停（伊那方面行）,35.84043934,138.0213278,
長野県,伊那市,21-5,下県区,美篶きらめき館前,35.84035454,138.0105671,
長野県,伊那市,21-6,下県区,旧末広公民館（ポンプ小屋）東側,35.84447097,138.0117031,
長野県,伊那市,21-7,下県区,上原公民館(上段）,35.83778823,138.0129805,
長野県,伊那市,22-1,上川手区,上川手第一公民館南側（下段）,35.83572929,137.9995505,
長野県,伊那市,22-2,下川手区,下川手多目的広場（植込み内側）,35.83518973,137.990493,
長野県,伊那市,22-3,青島区,青島諏訪神社前,35.83263291,137.9862809,
長野県,伊那市,22-4,青島区,masked,35.83184102,137.9812927,
長野県,伊那市,22-5,青島区,下川手遊園地東側フェンス(上段）,35.83803235,137.9877764,
長野県,伊那市,22-6,青島区,上川手ふれあい館前（上段）,35.83990527,137.9997651,
長野県,伊那市,23-1,中坪区,masked,35.86103812,138.0216882,
長野県,伊那市,23-2,中坪区,中坪公民館フェンス,35.858068,138.0216334,
長野県,伊那市,23-3,中坪区,masked,35.85621856,138.0227689,
長野県,伊那市,24-1,野口区,ＪＡ支所北側ガードレール,35.8642398,138.01603,
長野県,伊那市,24-2,野口区,masked,35.87120876,138.0233633,
長野県,伊那市,24-3,野口区,那須野氏畑,35.87171589,138.0337537,
長野県,伊那市,24-4,野口区,野口いきいき交流施設,35.8658027,138.0247642,
長野県,伊那市,24-5,野口区,旧手良公民館駐車場フェンス,35.86479023,138.0141719,
長野県,伊那市,25-1,下手良区,下手良公民館垣根,35.86881271,138.0105318,
長野県,伊那市,25-2,下手良区,masked,35.86667817,138.0079953,
長野県,伊那市,26-1,八ッ手区,masked,35.87159169,138.0064761,
長野県,伊那市,26-2,八ッ手区,八ツ手公民館,35.87616053,138.0040001,
長野県,伊那市,26-3,八ッ手区,masked,35.87938035,138.0037144,
長野県,伊那市,27-1,大泉新田区,masked,35.89038144,137.9478713,
長野県,伊那市,27-2,大泉新田区,大泉新田公民館,35.89559415,137.9470841,
長野県,伊那市,27-3,大泉新田区,神社社務所南側,35.8950309,137.9425376,
長野県,伊那市,28-1,吹上区,吹上バス停横,35.8996929,137.9343241,
長野県,伊那市,28-2,吹上区,吹上集会センター,35.90051632,137.9304833,
長野県,伊那市,29-1,羽広区,第二農業研修センター前,35.89162284,137.9198975,
長野県,伊那市,29-2,羽広区,ポンプ置場南側,35.88820324,137.9179289,
長野県,伊那市,29-3,羽広区,７組公民館,35.87978344,137.9225491,
長野県,伊那市,29-4,羽広区,みはらしの湯駐車場入口,35.88231463,137.9181027,
長野県,伊那市,30-1,上戸区,梨ノ木公民館,35.87307084,137.9169408,
長野県,伊那市,30-2,梨ノ木,上戸公民館,35.87064724,137.9151747,
長野県,伊那市,30-3,星ヶ丘,上戸集落センター,35.87159686,137.9165429,
長野県,伊那市,31-1,中条区,masked,35.87028549,137.912101,
長野県,伊那市,31-2,中条区,中条公民館,35.86956006,137.9107478,
長野県,伊那市,32-1,与地区,与地バス停,35.86583541,137.8983828,
長野県,伊那市,32-2,与地区,与地公民館庭,35.8638656,137.8959838,
長野県,伊那市,33-1,大萱区,富士見高原医療福祉センター西箕輪診療所入口フェンス,35.8755134,137.9280868,
長野県,伊那市,33-2,大萱区,大萱公民館柵,35.8719716,137.936934,
長野県,伊那市,33-3,大萱区,masked,35.87343597,137.9431572,
長野県,伊那市,33-4,大萱区,原氏畑,35.87003177,137.9410289,
長野県,伊那市,33-5,大萱区,伊那養護学校フェンス,35.87861483,137.9311923,
長野県,伊那市,33-6,大萱区,大萱第一公民館北入口,35.87294834,137.9306174,
長野県,伊那市,34-1,車屋区,車屋区花壇,35.82385117,137.9683713,
長野県,伊那市,34-2,車屋区,車屋集落センター,35.81955672,137.9639623,
長野県,伊那市,34-3,車屋区,共栄入口,35.81992963,137.9678841,
長野県,伊那市,35-1,渡場区,渡場いきいき交流施設フェンス,35.81034688,137.9498266,
長野県,伊那市,35-2,渡場区,唐澤氏畑,35.81222644,137.952928,
長野県,伊那市,36-1,中組区,中組ポンプ小屋横,35.8142174,137.95752,
長野県,伊那市,36-2,中殿島区,下平氏田,35.80770112,137.9527366,
長野県,伊那市,36-3,暁野区,市役所東春近支所前,35.80454803,137.9591464,
長野県,伊那市,36-4,暁野区,菓子処ともの横歩道フェンス,35.80700444,137.9585622,
長野県,伊那市,36-5,暁野区,殿島団地(暁野区)入口,35.80832301,137.9627618,
長野県,伊那市,36-6,暁野区,飯島氏田,35.80404951,137.9511539,
長野県,伊那市,37-1,下殿島区,砂田交差点,35.79936409,137.9544438,
長野県,伊那市,37-2,下殿島区,河野氏畑,35.7983689,137.9611748,
長野県,伊那市,37-3,下殿島区,下殿島競技場,35.79765388,137.958631,
長野県,伊那市,38-1,田原区,伊那華のみそ加工組合加工施設,35.7907832,137.9625248,
長野県,伊那市,38-2,田原区,田原公民館フェンス,35.78727935,137.9640663,
長野県,伊那市,39-1,原新田区,masked,35.82320316,137.9762874,
長野県,伊那市,39-2,榛原区,北原しめじ工場前ガードレール,35.81655863,137.9819589,
長野県,伊那市,39-3,榛原区,原新田公民館,35.81914989,137.9839065,
長野県,伊那市,40-1,小出二区,山本入口バス停前,35.82687563,137.9306509,
長野県,伊那市,40-2,小出二区,masked,35.83681574,137.9065448,
長野県,伊那市,40-3,小出二区,山本グラウンドフェンス,35.83021747,137.930471,
長野県,伊那市,41-1,小出一区,黒河内氏畑,35.82374202,137.9385207,
長野県,伊那市,41-2,小出三区,masked,35.82443344,137.9324764,
長野県,伊那市,41-3,小出三区,西春近北保育園北側フェンス,35.82208442,137.9358353,
長野県,伊那市,41-4,小出三区,小出三区集落センター東,35.81521181,137.9312839,
長野県,伊那市,41-5,小出三区,城倉氏畑,35.81197317,137.9311589,
長野県,伊那市,42-1,小出島区,masked,35.82575431,137.9462457,
長野県,伊那市,42-2,小出島区,下島駅北市営自転車置場,35.81292636,137.9399762,
長野県,伊那市,42-3,小出島区,小出島区公民館前,35.81677187,137.9425639,
長野県,伊那市,42-4,小出島区,戸澤橋南市有地,35.81684177,137.9400333,
長野県,伊那市,42-5,小出島区,唐木いきいき交流施設前,35.81013526,137.9422596,
長野県,伊那市,43-1,沢渡区,市役所西春近支所駐車場,35.80475149,137.9438594,
長野県,伊那市,43-2,木裏原自治会,沢渡いきいき交流施設東側駐車場,35.80620685,137.9403184,
長野県,伊那市,43-3,木裏原自治会,南丘研修センター,35.80070775,137.9333088,
長野県,伊那市,43-4,木裏原自治会,masked,35.79491844,137.9355702,
長野県,伊那市,43-5,木裏原自治会,春近無線中継所,35.80487384,137.9330053,
長野県,伊那市,44-1,表木区,下村公民館前　畑,35.78637502,137.9466119,
長野県,伊那市,44-2,表木区,masked,35.78473869,137.943168,
長野県,伊那市,44-3,表木区,表木区公民館,35.79017931,137.9420455,
長野県,伊那市,45-1,諏訪形区,諏訪形集落センター西側柵,35.77896428,137.9380422,
長野県,伊那市,45-2,諏訪形区,池上清朝事務所,35.77824341,137.94328,
長野県,伊那市,45-3,野溝,masked,35.78261679,137.9387169,
長野県,伊那市,46-1,赤木区,赤木会所北側,35.77750227,137.944907,
長野県,伊那市,46-2,下牧区,masked,35.77629058,137.9511283,
長野県,伊那市,46-3,下牧区,赤木雇用促進住宅西側,35.77993163,137.9474634,
長野県,伊那市,47-1,御園区,双葉町会所南側,35.85005188,137.9672201,
長野県,伊那市,47-2,御園区,masked,35.85277518,137.9669599,
長野県,伊那市,47-3,御園区,御園地域交流センターフェンス,35.85461563,137.9660892,
長野県,伊那市,47-4,御園区,masked,35.85437686,137.9677945,
長野県,伊那市,47-5,御園区,masked,35.85926906,137.957983,
長野県,伊那市,47-6,御園区,御園堤ヶ丘入口,35.85357774,137.9612024,
長野県,伊那市,47-7,御園区,masked,35.85072507,137.9698044,
長野県,伊那市,48-1,美原区,若宮集会所前,35.85335304,137.9874498,
長野県,伊那市,48-2,前原区,若宮県営住宅歩道フェンス,35.85295617,137.9887598,
長野県,伊那市,48-3,若宮区,清掃センター入口,35.84859089,137.9913867,
長野県,伊那市,48-4,若宮区,美原１バス停南側,35.85066048,137.9951357,
長野県,伊那市,48-5,若宮区,美原区公民館入口北側,35.84986389,137.9947097,
長野県,伊那市,48-6,若宮区,美原区三丁目公園北側斜面,35.84898112,137.9979993,
長野県,伊那市,48-7,若宮区,前原区公民館,35.85298539,137.9909508,
長野県,伊那市,49-1,日影区,ベルシャイン伊那店南側駐車場フェンス,35.83689826,137.9737298,
長野県,伊那市,49-2,上の原区,日影公民館前駐車場,35.83785787,137.9773955,
長野県,伊那市,49-3,上の原区,masked,35.8416704,137.9813844,
長野県,伊那市,49-4,上の原区,県営住宅竜東団地会所北西,35.83940586,137.9757062,
長野県,伊那市,49-5,上の原区,上の原配水池南,35.83989662,137.9817293,
長野県,伊那市,49-6,上の原区,masked,35.83744228,137.9806639,
長野県,伊那市,49-7,上の原区,上の原保育園東側フェンス,35.84475109,137.9826405,
長野県,伊那市,50-1,本町,高遠町総合福祉センター「やますそ」駐車場フェンス,35.83633948,138.0574162,
長野県,伊那市,50-2,千年町,千年町団地入口　国道,35.83929834,138.0451135,
長野県,伊那市,50-3,番匠,文化センター駐車場入口,35.83826463,138.058586,
長野県,伊那市,50-4,桜町,桜町駐車場西,35.83517062,138.0575387,
長野県,伊那市,50-5,多町,ウッドレックス向かい弁財天橋南交差点,35.83396225,138.057773,
長野県,伊那市,50-6,神明,神明団地、相生団地三叉路,35.83703569,138.0492715,
長野県,伊那市,50-7,高砂,高砂橋南カーブ際ガードレール,35.8357332,138.0595155,
長野県,伊那市,51-1,二番郭内,市営住宅前,35.8327354,138.0666965,
長野県,伊那市,51-2,花畑,masked,35.83082572,138.0637804,
長野県,伊那市,51-3,田ノ口,田の口住宅団地入口,35.83765375,138.0674237,
長野県,伊那市,52-1,鍛冶村,鍛冶村入口　国道,35.84498132,138.0732328,
長野県,伊那市,52-2,弥勒,多目的集会施設,35.84852972,138.0747859,
長野県,伊那市,53-1,栗巾,栗巾バス停フェンス,35.85616873,138.0823391,
長野県,伊那市,53-2,野笹,高遠町農産物加工施設下法面,35.86360007,138.0896609,
長野県,伊那市,53-3,塩供,塩供歩道橋西側フェンス,35.87662652,138.0937361,
長野県,伊那市,54-1,中条,中条区入口,35.88280228,138.0967053,
長野県,伊那市,54-2,黒沢,masked,35.88757087,138.0840421,
長野県,伊那市,54-3,四日市場,四日市場いきいき交流施設北側,35.88519132,138.0962362,
長野県,伊那市,55-1,久保,旧ＪＡ三義支所、倉庫壁,35.84790189,138.1011103,
長野県,伊那市,55-2,新井,宮沢集落入口三叉路　県道,35.843653,138.0991955,
長野県,伊那市,55-3,川辺,川辺生活改善センター前　橋北東側脇,35.83974882,138.0934739,
長野県,伊那市,56-1,両日向,日向橋前　県道,35.85936601,138.1132089,
長野県,伊那市,56-2,中央,中屋入口、防護柵,35.86153304,138.1165085,
長野県,伊那市,57-1,台殿,伊藤畑（台殿公民館前）,35.897693,138.0981735,
長野県,伊那市,57-2,北原,北原公民館前、公民館フェンス,35.89711828,138.0999748,
長野県,伊那市,57-3,水上,水上集会施設前、フェンス,35.9057272,138.0960791,
長野県,伊那市,58-1,御堂垣外,ＪＡ藤沢支所前　国道,35.92384493,138.0970482,
長野県,伊那市,58-2,御堂垣外,ＪＲ藤沢駅前　国道,35.92656856,138.0984467,
長野県,伊那市,58-3,松倉,松倉区入口　県道,35.92647344,138.1080654,
長野県,伊那市,58-4,松倉,松倉生活改善センター敷地内,35.9270072,138.1116961,
長野県,伊那市,60-1,片倉,薬師堂バス停前　国道,35.9359356,138.0993073,
長野県,伊那市,60-2,片倉,消防団詰所前　市道,35.94252411,138.1032965,
長野県,伊那市,60-3,片倉,村中線、大門橋南道路、東側ガードレール,35.94365284,138.1035414,
長野県,伊那市,61-1,引持,引持公民館前、ガードパイプ,35.81853842,138.0364152,
長野県,伊那市,61-2,三栄,三栄ゲートボール場,35.82324802,138.0376087,
長野県,伊那市,61-3,上山田,丸山自動車看板下ブロック擁壁（芝平入口交差点）,35.82549909,138.0339364,
長野県,伊那市,62-1,上北,下山田運動場,35.82979557,138.0482341,
長野県,伊那市,62-2,小原中,ＪＡ中央ガソリンスタンド横,35.83151942,138.0511563,
長野県,伊那市,62-3,小原北,市営住宅三叉路（下水処理場下り口）,35.83649789,138.0473131,
長野県,伊那市,63-1,堀,西勝間バス停前　国道,35.82470887,138.0635342,
長野県,伊那市,63-2,滝沢,勝間公民館前　国道,35.82133098,138.0688746,
長野県,伊那市,63-3,原勝間,原勝間いきいき交流施設フェンス,35.81804674,138.0741296,
長野県,伊那市,64-1,非持山,旧ＪＲ非持山駅,35.82352024,138.092247,
長野県,伊那市,64-2,非持山,非持山公民館前,35.82211691,138.0965666,
長野県,伊那市,64-3,非持山,masked,35.82429362,138.0952164,
長野県,伊那市,65-1,非持,非持諏訪神社前,35.8119881,138.0831584,
長野県,伊那市,65-2,非持,美和診療所入口,35.80790009,138.0836384,
長野県,伊那市,66-1,溝口,ＪＲ中山駅前,35.79602981,138.0849924,
長野県,伊那市,66-2,溝口,ＣＡＴＶ入口下,35.79247924,138.0853394,
長野県,伊那市,66-3,溝口,長谷保育園前,35.79002068,138.0872379,
長野県,伊那市,67-1,黒河内,黒河内公民館前,35.77533111,138.0841194,
長野県,伊那市,67-2,黒河内,精米所（旧鹿公園）駐車場,35.77941476,138.0878096,
長野県,伊那市,67-3,黒河内,旧ＪＲ黒川駅前,35.77100059,138.0944182,
長野県,伊那市,68-1,中尾,ＪＲ中尾駅前,35.76535551,138.0745353,
長野県,伊那市,68-2,中尾,郷蔵脇ガードレール,35.76467712,138.0771868,
長野県,伊那市,69-1,市野瀬,ＪＲ馬越駅,35.75309599,138.0767201,
長野県,伊那市,69-2,市野瀬,グラウンド入口,35.74173424,138.0808122,
長野県,伊那市,69-3,市野瀬,柏木入口,35.74454671,138.0815566,
長野県,伊那市,70-1,杉島,杉島公民館前,35.72810296,138.0892085,
長野県,伊那市,70-2,浦,岩入集会所前,35.72632878,138.0959595,
長野県,伊那市,70-3,浦,浦公民館前,35.70738503,138.0951893,
