prefecture,city,number,address,name,lat,long,note
長野県,南箕輪村,1,,北部保育園南側フェンス（入口西）,35.88918126,137.982742,
長野県,南箕輪村,2,,あかつき理容店東ガードパイプ,35.89200102,137.9832099,
長野県,南箕輪村,3,,久保公民館,35.89388386,137.9827023,
長野県,南箕輪村,4,,１２，１４，１７組集会所,35.89128679,137.9864915,
長野県,南箕輪村,5,,旧久保公民館前,35.89301976,137.9805179,
長野県,南箕輪村,6,,元久保バス停南フェンス（国道西）,35.89169413,137.9846033,
長野県,南箕輪村,7,,masked,35.8924494,137.9704875,
長野県,南箕輪村,8,,中込区西道路沿いカーブミラー隣,35.88732334,137.9759312,
長野県,南箕輪村,9,,中込県営住宅集会施設西南側かど,35.88805818,137.9776037,
長野県,南箕輪村,10,,中込公民館前掲示板,35.88730077,137.9785039,
長野県,南箕輪村,11,,中込区東公園入口フェンス,35.8870585,137.9801063,
長野県,南箕輪村,12,,南塩ノ井バス停ガードレール（国道西）,35.88107822,137.9810917,
長野県,南箕輪村,13,,元塩ノ井バス停ガードパイプ（国道東）,35.88611351,137.9830342,
長野県,南箕輪村,14,,児童公園南側フェンス,35.88365559,137.9786504,
長野県,南箕輪村,15,,塩ノ井公民館西側土手,35.88490456,137.9795154,
長野県,南箕輪村,16,,masked,35.88533141,137.9818692,
長野県,南箕輪村,17,,北殿公民館入口フェンス,35.87643775,137.9788805,
長野県,南箕輪村,18,,中部保育園フェンス,35.87871209,137.9767196,
長野県,南箕輪村,19,,県営浅間塚団地北東側フェンス,35.87563499,137.9743765,
長野県,南箕輪村,20,,村民体育館南側（入口東）,35.87449057,137.9779319,
長野県,南箕輪村,21,,小学校東地下道ガードレール（ごみ収集所隣）,35.87333854,137.9801456,
長野県,南箕輪村,22,,masked,35.87689808,137.9809592,
長野県,南箕輪村,23,,屯所（旧北殿公民館）入口東,35.8783862,137.9814132,
長野県,南箕輪村,24,,中川原団地集会所南側フェンス,35.88014679,137.9867127,
長野県,南箕輪村,25,,北殿駅前公園フェンス,35.87913613,137.9838893,
長野県,南箕輪村,26,,伊那土地改良区事務所西,35.878105,137.9851937,
長野県,南箕輪村,27,,伊那コルト東貯水池,35.86915269,137.9761173,
長野県,南箕輪村,28,,南殿消防屯所西側竹やぶ,35.86988915,137.9776588,
長野県,南箕輪村,29,,南殿公民館前掲示板,35.8713454,137.9759905,
長野県,南箕輪村,30,,上伊那農協南箕輪支所前,35.87158535,137.9785128,
長野県,南箕輪村,31,,南箕輪村役場前掲示板,35.87222803,137.9747619,
長野県,南箕輪村,32,,南箕輪村役場第３駐車場,35.87373063,137.9754444,
長野県,南箕輪村,33,,旧田花水道減圧所,35.86960551,137.9612273,
長野県,南箕輪村,34,,テセック蜂の子陵東歩道ガードパイプ,35.87089112,137.9693657,
長野県,南箕輪村,35,,masked,35.8651177,137.9709788,
長野県,南箕輪村,36,,masked,35.86434209,137.9733186,
長野県,南箕輪村,37,,旧パチンコマルイ東産業道路交差点,35.86636057,137.9809921,
長野県,南箕輪村,38,,田畑公民館前フェンス,35.86426203,137.9758168,
長野県,南箕輪村,39,,中西豆腐店西ガードパイプ,35.86586642,137.9770591,
長野県,南箕輪村,40,,田畑駅付近土手駅待合室北,35.86096049,137.9779027,
長野県,南箕輪村,41,,大泉川南分譲区　緑地帯,35.87294746,137.9652956,
長野県,南箕輪村,42,,広域選果場電話ボックス南,35.86393307,137.9540424,
長野県,南箕輪村,43,,神子柴原公民館前西天竜フェンス,35.8613168,137.9448661,
長野県,南箕輪村,44,,神子柴原火の見西ガードレール,35.8637179,137.9579394,
長野県,南箕輪村,45,,神子柴川原集会所,35.85853206,137.9740723,
長野県,南箕輪村,46,,原さん倉東側フェンス,35.8583415,137.9695695,
長野県,南箕輪村,47,,神子柴ロータリー南側空き地,35.85699556,137.9700472,
長野県,南箕輪村,48,,masked,35.85815971,137.9708792,
長野県,南箕輪村,49,,神子柴公民館前髙木廣行畑道路沿い,35.85954705,137.9702021,
長野県,南箕輪村,50,,「信大寮前」バス停東土手,35.86932499,137.9356796,
長野県,南箕輪村,51,,上農寮前バス停東道路北側ガードレール,35.8585147,137.9422827,
長野県,南箕輪村,52,,不動尊前バス停東,35.85421701,137.9456757,
長野県,南箕輪村,53,,沢尻公民館前北隅,35.85480657,137.9441145,
長野県,南箕輪村,54,,masked,35.85274532,137.9435739,
長野県,南箕輪村,55,,沢尻下水道ポンプ場フェンス,35.85208874,137.946443,
長野県,南箕輪村,56,,コートピアⅢアパート西ガードレール,35.85627016,137.945679,
長野県,南箕輪村,57,,masked,35.85831858,137.9110988,
長野県,南箕輪村,58,,元有賀牧場牛舎北付近,35.86266921,137.9162784,
長野県,南箕輪村,59,,masked,35.86034607,137.9276925,
長野県,南箕輪村,60,,南原グランドフェンス,35.85768731,137.9313517,
長野県,南箕輪村,61,,南原調整池フェンス南側,35.855066,137.9362001,
長野県,南箕輪村,62,,小松牛舎西側広域農道フェンス,35.85708601,137.9266873,
長野県,南箕輪村,63,,長野県南信工科短期大学フェンス,35.86452583,137.9295488,
長野県,南箕輪村,64,,新南原住宅団地　緑地帯,35.85938485,137.9331848,
長野県,南箕輪村,65,,北部酪農組合フェンス,35.87805017,137.9556544,
長野県,南箕輪村,66,,大芝公民館前掲示板,35.88196961,137.9517354,
長野県,南箕輪村,67,,大芝神社前T字路南（広域農道西）,35.883932,137.9468166,
長野県,南箕輪村,68,,masked,35.88034825,137.9539543,
長野県,南箕輪村,69,,上水道第一水源北フェンス,35.88820583,137.9516783,
長野県,南箕輪村,70,,大泉公園上西天竜水路フェンス,35.88710565,137.9626626,
長野県,南箕輪村,71,,大泉第２公民館東,35.88503092,137.9641328,
長野県,南箕輪村,72,,吹上線西天竜用水路フェンス,35.88332745,137.9605371,
長野県,南箕輪村,73,,西部地区館掲示板,35.88171327,137.9627706,
長野県,南箕輪村,74,,春日街道地下歩道西側,35.88034198,137.9636485,
長野県,南箕輪村,75,,老人集会施設,35.87919462,137.961472,
長野県,南箕輪村,76,,北原公民館前,35.89489727,137.964758,
