prefecture,city,number,address,name,lat,long,note
長野県,安曇野市,1-1,豊科279-1,豊科屋内ゲートボール場駐車場フェンス,36.2720733,137.9148427,
長野県,安曇野市,1-2,豊科367-1,上鳥羽地域農業推進拠点施設フェンス,36.288673,137.909012,緯度経度は怪しい
長野県,安曇野市,1-3,豊科351-3,日本ウェンネル（株）長野工場東 真鳥羽堰フェンス,36.288673,137.909012,緯度経度は怪しい
長野県,安曇野市,1-4,豊科510-9,立石交差点北300m 居酒屋向いフェンス,36.273188,137.9079338,
長野県,安曇野市,2-1,豊科1781-4,「拾ヶ堰橋」交差点北90m 国道ガードパイプ,36.2864061,137.90763,
長野県,安曇野市,2-2,豊科367-1,「拾ヶ堰橋」交差点東250m 国道ガードパイプ,36.288673,137.909012,緯度経度は怪しい
長野県,安曇野市,2-3,豊科1159-1,下鳥羽公園フェンス,36.2814135,137.9097363,
長野県,安曇野市,2-4,豊科1036-5,「下鳥羽」交差点東側 国道フェンス,36.2801383,137.9080929,
長野県,安曇野市,2-5,豊科790-1,上手集会所フェンス,36.2749044,137.9130417,
長野県,安曇野市,2-6,豊科高家4900-3,南部総合公園西 駐左衛門堰フェンス,36.27341330000001,137.9297192,
長野県,安曇野市,3-1,豊科5156-4,王子コンテナー㈱南西 県道ガードパイプ,36.296741,137.894424,緯度経度は怪しい
長野県,安曇野市,3-2,豊科2179,本村公園フェンス,36.288673,137.909012,緯度経度は怪しい
長野県,安曇野市,3-3,豊科1908-1,本村公民館塀,36.2916439,137.9010989,
長野県,安曇野市,3-4,豊科2244-2,JR南豊科駅東ガードパイプ,36.2917568,137.9043847,
長野県,安曇野市,3-5,豊科2305-5,「本吉町」交差点西100m ガードパイプ,36.2917036,137.9055276,
長野県,安曇野市,3-6,豊科1832-25,本吉団地公園フェンス,36.289116,137.905685,緯度経度は怪しい
長野県,安曇野市,4-1,豊科4135-4,「寺所南」交差点西230m ガードパイプ,36.29874,137.916962,緯度経度は怪しい
長野県,安曇野市,4-2,豊科4155-1,豊科保健センター入口横フェンス,36.298366,137.9153147,
長野県,安曇野市,4-3,豊科4085-1,ニチコン大野第3工場 東側フェンス,36.288673,137.909012,緯度経度は怪しい
長野県,安曇野市,4-4,豊科4030-4,豊科ささえあいセンターにしフェンス,36.293135,137.9098804,
長野県,安曇野市,4-5,豊科2341,豊科高等学校 南側フェンス,36.2925945,137.9093702,
長野県,安曇野市,4-6,豊科2454-2,旧県営吉野荒井団地南 新田堰フェンス,36.291405,137.910599,緯度経度は怪しい
長野県,安曇野市,4-7,豊科2755,masked,36.285797,137.914062,緯度経度は怪しい
長野県,安曇野市,4-8,豊科2723,豊科南小学校フェンス,36.284838,137.912401,
長野県,安曇野市,4-9,豊科3100,県立こども病院 南東部隅,36.2850377,137.9197628,
長野県,安曇野市,5-1,豊科南穂高460-1,見岳町公園ガードパイプ,36.3007864,137.9095205,
長野県,安曇野市,5-2,豊科4289-1,豊科公民館南側植込,36.2997485,137.9074165,
長野県,安曇野市,5-3,豊科4384-1,八坂神社東50m広場,36.297953,137.9093583,
長野県,安曇野市,5-4,豊科4712-2,豊科商工会館南 公園植込,36.30035,137.904419,緯度経度は怪しい
長野県,安曇野市,5-5,豊科4901-6,JR豊科駅 駅輪場フェンス,36.3000733,137.9010854,
長野県,安曇野市,5-6,豊科4537-1,南安曇農業高等学校 東側フェンス,36.29472990000001,137.905062,
長野県,安曇野市,5-7,豊科4553-15,豊科認定こども園フェンス,36.292065,137.90358,緯度経度は怪しい
長野県,安曇野市,5-8,豊科4569,豊科西公園フェンス,36.2940094,137.9032829,
長野県,安曇野市,5-9,豊科4431-1,中央公園ガードパイプ,36.2937869,137.9079575,
長野県,安曇野市,6-1,豊科5466-7,「新田北」交差点東130m付近 県道緑地帯,36.3102581,137.9001124,
長野県,安曇野市,6-2,豊科5290-1,新田公園前歩道ガードパイプ,36.3075301,137.8984537,
長野県,安曇野市,6-3,豊科5382-5,胡蝶庵お菓子工房西 ガードパイプ,36.288673,137.909012,緯度経度は怪しい
長野県,安曇野市,6-4,豊科5229-2,新田神社柵,36.301121,137.896179,緯度経度は怪しい
長野県,安曇野市,6-5,豊科4924-4,長野県安曇野庁舎 駐車場植込,36.302879,137.899734,緯度経度は怪しい
長野県,安曇野市,6-6,豊科5586-69,東原会館西 公園フェンス,36.3064557,137.9040856,
長野県,安曇野市,6-7,豊科5609-3,豊科近代美術館フェンス,36.3050984,137.9067888,
長野県,安曇野市,6-8,豊科5711-1,ドミノ・ピザ安曇野穂高署前店東 歩道フェンス,36.302582,137.905823,緯度経度は怪しい
長野県,安曇野市,6-9,豊科4779-7,NTT事務所（豊科）東側フェンス,36.3014779,137.9043277,
長野県,安曇野市,7-1,豊科南穂高1060-2,masked,36.318325,137.908997,緯度経度は怪しい
長野県,安曇野市,7-2,豊科南穂高657-1,寺所公民館フェンス,36.3038777,137.9176491,
長野県,安曇野市,7-3,豊科南穂高719-3,「寺所北」交差点東 ガードパイプ,36.30508,137.914261,緯度経度は怪しい
長野県,安曇野市,7-4,豊科南穂高773-11,「寺所」交差点 県道ガードパイプ,36.303707,137.911789,緯度経度は怪しい
長野県,安曇野市,7-5,豊科南穂高117-4,「安曇野インター西」交差点東 県道ガードパイプ,36.301224,137.919113,緯度経度は怪しい
長野県,安曇野市,8-1,豊科南穂高2323-3,masked,36.315895,137.91153,緯度経度は怪しい
長野県,安曇野市,8-2,豊科南穂高2856,南穂高認定こども園フェンス,36.3089227,137.9088638,
長野県,安曇野市,8-3,豊科南穂高2698-2,踏入コミュニティセンター西 歩道ガードパイプ,36.3097925,137.9112218,
長野県,安曇野市,8-4,豊科南穂高2643-1,masked,36.31004,137.912537,緯度経度は怪しい
長野県,安曇野市,8-5,豊科南穂高1319,恵光院集会所南ガードレール,36.318325,137.908997,緯度経度は怪しい
長野県,安曇野市,9-1,豊科南穂高3852-1,masked,36.316696,137.895081,緯度経度は怪しい
長野県,安曇野市,9-2,豊科南穂高3757-11,細萱公民館フェンス,36.31278229999999,137.8952261,
長野県,安曇野市,9-3,豊科南穂高3626-2,masked,36.309124,137.891769,緯度経度は怪しい
長野県,安曇野市,9-4,豊科南穂高4885,(株)まるたか駐車場北ガードパイプ,36.319546,137.903122,緯度経度は怪しい
長野県,安曇野市,9-5,豊科南穂高3405-4,県営細萱団地（南）公園フェンス,36.314163,137.89975,緯度経度は怪しい
長野県,安曇野市,9-6,豊科南穂高3076-2,masked,36.30614449999999,137.9080028,
長野県,安曇野市,10-1,豊科南穂高5305-2,あかしゃ館前ガードレール,36.331936,137.906967,緯度経度は怪しい
長野県,安曇野市,10-2,豊科南穂高6693-7,「重柳北」交差点南西120m付近ガードレール,36.3293786,137.9060122,
長野県,安曇野市,10-3,豊科南穂高5099-11,まちの駅安曇野ベース前 県道ガードパイプ,36.3251232,137.9058433,
長野県,安曇野市,10-4,豊科南穂高4986-35,県民豊科運動広場北西ガードレール,36.321388,137.902695,緯度経度は怪しい
長野県,安曇野市,10-5,豊科南穂高5178,重柳公民館塀,36.3221075,137.9063702,
長野県,安曇野市,10-6,豊科南穂高5255,三郷七地委員調査事務所東50m付近 巡回地フェンス,36.321186,137.911743,緯度経度は怪しい
長野県,安曇野市,10-7,豊科南穂高5348-61,安曇野スイス村前 県道ガードパイプ,36.324272,137.908096,緯度経度は怪しい
長野県,安曇野市,11-1,豊科高家6483-41,立石団地（南）公園フェンス,36.268627,137.906525,緯度経度は怪しい
長野県,安曇野市,11-2,豊科高家6454-4,masked,36.273491,137.927551,緯度経度は怪しい
長野県,安曇野市,11-3,豊科高家6025-1,真々部公園フェンス,36.266621,137.910263,緯度経度は怪しい
長野県,安曇野市,11-4,豊科高家5814-1,真々部址北公園,36.263908,137.911804,緯度経度は怪しい
長野県,安曇野市,11-5,豊科高家5735-11,真々部公民館北 県道ガードパイプ,36.261143,137.913712,緯度経度は怪しい
長野県,安曇野市,11-6,豊科高家5597-2,「真々部」交差点北北西300m付近 県道ガードパイプ,36.257473,137.917023,緯度経度は怪しい
長野県,安曇野市,11-7,豊科高家5127-6,「真々部」交差点 県道ガードパイプ,36.2553448,137.9171679,
長野県,安曇野市,11-8,豊科高家5072-3,真々部第２水源地フェンス,36.261921,137.917313,緯度経度は怪しい
長野県,安曇野市,11-9,豊科高家5243-34,「梓橋駅入口」交差点南東 県道ガードパイプ,36.252304,137.917786,緯度経度は怪しい
長野県,安曇野市,11-10,豊科高家5361-10,(株)トクデン産業東50m付近ガードパイプ,36.2513186,137.9161748,
長野県,安曇野市,12-1,豊科高家1138-2,たつみ原団地北端付近ガードレール,36.26511800000001,137.9302535,
長野県,安曇野市,12-2,豊科高家1137-221,たつみ原区公民館南 緑地帯,36.261723,137.9272,緯度経度は怪しい
長野県,安曇野市,12-3,豊科高家1137-87,たつみ原公園フェンス,36.261723,137.9272,緯度経度は怪しい
長野県,安曇野市,12-4,豊科高家6651-45,南二(宮島商店東)遊園地フェンス,36.259617,137.927094,緯度経度は怪しい
長野県,安曇野市,12-5,豊科高家1020-81,馬頭公園フェンス,36.261761,137.925232,緯度経度は怪しい
長野県,安曇野市,13-1,豊科高家754-1,諏訪社前フェンス,36.2737478,137.9271346,
長野県,安曇野市,13-2,豊科高家747-1,下飯田公民館フェンス,36.27232,137.926514,緯度経度は怪しい
長野県,安曇野市,13-3,豊科高家797-1,高家公園フェンス,36.27341330000001,137.9297192,
長野県,安曇野市,13-4,豊科高家1191-26,「安曇野産業団地」交差点付近ガードパイプ,36.27341330000001,137.9297192,
長野県,安曇野市,13-5,豊科高家987-1,高家配水場フェンス,36.267448,137.929932,緯度経度は怪しい
長野県,安曇野市,13-6,豊科高家525-2,飯田水源地フェンス,36.265228,137.921539,緯度経度は怪しい
長野県,安曇野市,13-7,豊科高家1042-37,山辺製作所フェンス,36.254719,137.919876,緯度経度は怪しい
長野県,安曇野市,13-8,豊科高家151-1,たつみ認定こども園 園庭脇ガードパイプ,36.254719,137.919876,緯度経度は怪しい
長野県,安曇野市,14-1,豊科高家4242-11,「安曇野インター南」信号機予告灯ガードパイプ,36.294926,137.926743,緯度経度は怪しい
長野県,安曇野市,14-2,豊科高家2701-33,中曽根公民館東側田塚フェンス,36.27341330000001,137.9297192,
長野県,安曇野市,14-3,豊科高家1396-4,国道147号地下道付近ガードパイプ,36.278217,137.925385,緯度経度は怪しい
長野県,安曇野市,14-4,豊科高家2754,中曽根公民館フェンス,36.2855255,137.9241103,
長野県,安曇野市,14-5,豊科高家4858-3,「南中学校南」交差点東280m付近 立体交差ガードパイプ,36.27341330000001,137.9297192,
長野県,安曇野市,14-6,豊科高家4882,南部総合公園南側フェンス,36.275238,137.920486,緯度経度は怪しい
長野県,安曇野市,15-1,豊科高家3871-129,安曇野インター南 交差点北側ガードレール,36.297779,137.924789,緯度経度は怪しい
長野県,安曇野市,15-2,豊科高家6730,大原公園フェンス,36.295315,137.930573,緯度経度は怪しい
長野県,安曇野市,15-3,豊科高家2799-4,町村集会所フェンス,36.2895975,137.9331717,
長野県,安曇野市,15-4,豊科高家2047,熊倉公民館前フェンス,36.2878,137.93425,緯度経度は怪しい
長野県,安曇野市,15-5,豊科高家2408-6,春日神社駐車場,36.2856881,137.9407384,
長野県,安曇野市,16-1,豊科高家3770-86,とよしなインター動物病院南フェンス,36.2975247,137.9316536,
長野県,安曇野市,16-2,豊科高家3646-15,masked,36.297634,137.92981,緯度経度は怪しい
長野県,安曇野市,16-3,豊科高家3760-47,アルプス公園フェンス,36.2956035,137.9328767,
長野県,安曇野市,16-4,豊科高家3700-94,アルプス団地内(南東)公園フェンス,36.294529,137.934296,緯度経度は怪しい
長野県,安曇野市,17-1,豊科田沢4311-37,アクアピア安曇野北側出入口 県道ガードパイプ,36.318737,137.919586,緯度経度は怪しい
長野県,安曇野市,17-2,豊科田沢6517-3,徳治郎公民館フェンス,36.3090626,137.9271926,
長野県,安曇野市,17-3,豊科田沢6344-4,消防団第5分団第2部詰所南ガードパイプ,36.3065164,137.9272343,
長野県,安曇野市,17-4,豊科田沢6930-1,セイユー白馬物流株式会社事務所南 駐車場フェンス,36.301777,137.928848,緯度経度は怪しい
長野県,安曇野市,17-5,豊科田沢7039-133,田沢橋西 県道ガードパイプ,36.299622,137.929489,緯度経度は怪しい
長野県,安曇野市,18-1,豊科田沢4916-6,上川手認定こども園前ガードレール,36.307274,137.949875,緯度経度は怪しい
長野県,安曇野市,18-2,豊科田沢4995-1,JAあづみ上川手農業倉庫北 県道ガードパイプ,36.305222,137.939636,緯度経度は怪しい
長野県,安曇野市,18-3,豊科田沢5427-1,(有)増沢石材北80m付近 国道ガードパイプ,36.295563,137.942139,緯度経度は怪しい
長野県,安曇野市,18-4,豊科田沢5612-1,masked,36.3017286,137.9396425,
長野県,安曇野市,18-5,豊科田沢5127-10,田沢郵便局南 駐車場フェンス,36.3011251,137.9407125,
長野県,安曇野市,19-1,豊科田沢7966-5,大口沢公民館南 県道ガードパイプ,36.307274,137.949875,緯度経度は怪しい
長野県,安曇野市,19-2,豊科田沢8000-1,湯多里山の神駐車場ガードレール,36.307274,137.949875,緯度経度は怪しい
長野県,安曇野市,20-1,豊科光1472,masked,36.3187126,137.9288075,
長野県,安曇野市,20-2,豊科光1375-5,光照点交差点西ガードパイプ,36.319801,137.928528,緯度経度は怪しい
長野県,安曇野市,20-3,豊科光2137-1,ドライブインひるね横 国道ガードパイプ,36.315067,137.933289,緯度経度は怪しい
長野県,安曇野市,20-4,豊科田沢4652-6,高松沢付近ガードパイプ,36.314117,137.941605,緯度経度は怪しい
長野県,安曇野市,20-5,豊科光2037-1,桜坂区公園西植え込み前,36.3145832,137.9344991,
長野県,安曇野市,21-1,穂高2419-1,ケーヨーデイツー穂高店南側フェンス,36.333965,137.893188,緯度経度は怪しい
長野県,安曇野市,21-2,穂高1978-1,masked,36.3338851,137.8961285,
長野県,安曇野市,21-3,穂高1414-5,矢原公民館北ガードパイプ,36.32877,137.896286,緯度経度は怪しい
長野県,安曇野市,21-4,穂高881-6,万水橋西 県道ガードパイプ,36.324554,137.900269,緯度経度は怪しい
長野県,安曇野市,21-5,穂高688-8,masked,36.319733,137.896561,緯度経度は怪しい
長野県,安曇野市,21-6,穂高775-8,「柏矢町」交差点東 (有)マル万山公前ガードパイプ,36.3239508,137.8944425,
長野県,安曇野市,21-7,穂高柏原1689-1,市営穂高団地駐車場ガードレール,36.3305575,137.8898591,
長野県,安曇野市,21-8,穂高柏原1649-2,masked,36.3283837,137.8886687,
長野県,安曇野市,22-1,穂高3763-2,等々力大橋北西側欄干,36.332363,137.879013,緯度経度は怪しい
長野県,安曇野市,22-2,穂高3885-3,白坂わさび店北ガードパイプ,36.332363,137.879013,緯度経度は怪しい
長野県,安曇野市,22-3,穂高2721-1,等々力会館前,36.3394095,137.8928964,
長野県,安曇野市,22-4,穂高2580-2,神田町会館塀,36.3378928,137.88949,
長野県,安曇野市,22-5,穂高2491-1,JAあづみ穂高支所フェンス,36.335972,137.889084,緯度経度は怪しい
長野県,安曇野市,22-6,穂高2510,masked,36.3359185,137.8887945,
長野県,安曇野市,22-7,穂高6765-4,穂高交流学習センター 第2駐車場ガードパイプ,36.3324311,137.8884936,
長野県,安曇野市,23-1,穂高5006-4,貝崎公民館横空地,36.3501071,137.8804091,
長野県,安曇野市,23-2,穂高5100-1,穂高東中学校南側ガードパイプ,36.332363,137.879013,緯度経度は怪しい
長野県,安曇野市,23-3,穂高5047,穂高会館北側入口フェンス,36.3455245,137.8836735,
長野県,安曇野市,23-4,穂高4526-2,masked,36.344866,137.884819,
長野県,安曇野市,23-5,穂高5047,穂高会館入口植込み,36.3455245,137.8836735,
長野県,安曇野市,23-6,穂高4508-27,masked,36.3450647,137.8862391,
長野県,安曇野市,23-7,穂高2662-1,NTT穂高交換所フェンス,36.3398677,137.8883239,
長野県,安曇野市,24-1,穂高5784-1,社会福祉協議会穂高支所北西ガードパイプ,36.332363,137.879013,緯度経度は怪しい
長野県,安曇野市,24-2,穂高5604-1,碌山公園研成ホール 駐車場西側入口,36.343347,137.8809561,
長野県,安曇野市,24-3,穂高5585-1,勤労者福祉センター北フェンス,36.3428558,137.8792096,
長野県,安曇野市,24-4,穂高5685-12,「穂高東中学校南」交差点付近 県道フェンス,36.3417199,137.8807605,
長野県,安曇野市,24-5,穂高5836,文化財資料センターフェンス,36.3380153,137.8721295,
長野県,安曇野市,24-6,穂高5635-2,町尻公園フェンス,36.332363,137.879013,緯度経度は怪しい
長野県,安曇野市,24-7,穂高6013-3,八十二銀行穂高支店北 駐車場フェンス,36.332363,137.879013,緯度経度は怪しい
長野県,安曇野市,24-8,穂高5972-2,蛇島社前 歩道フェンス,36.3399807,137.8846226,
長野県,安曇野市,25-1,穂高8411-1,穂高通信工業(株)長野工場フェンス,36.332363,137.879013,緯度経度は怪しい
長野県,安曇野市,25-2,穂高8272-1,西原公民館フェンス,36.3339255,137.8663803,
長野県,安曇野市,25-3,穂高6459-1,masked,36.33532,137.876801,緯度経度は怪しい
長野県,安曇野市,25-4,穂高6636-4,masked,36.3376698,137.8834692,
長野県,安曇野市,25-5,穂高6658,安曇野市穂高支所駐車場フェンス,36.3382764,137.8864302,
長野県,安曇野市,25-6,穂高6847-1,穂高商業高校正門前 倉庫フェンス,36.332363,137.879013,緯度経度は怪しい
長野県,安曇野市,26-1,穂高7962-5,上原公民館北 公園フェンス,36.3268828,137.8587896,
長野県,安曇野市,26-2,穂高8080-1,上原配水池西側フェンス,36.332363,137.879013,緯度経度は怪しい
長野県,安曇野市,26-3,穂高9747,北部学校給食センター南西フェンス,36.332363,137.879013,緯度経度は怪しい
長野県,安曇野市,26-4,穂高7602-1,松本倉庫(株)フェンス,36.332363,137.879013,緯度経度は怪しい
長野県,安曇野市,26-5,穂高7407-5,masked,36.3293216,137.8720022,
長野県,安曇野市,26-6,穂高7350,「田中」交差点東500m付近 自転車道フェンス,36.3284657,137.8741991,
長野県,安曇野市,26-7,穂高7217-1,穂高南小学校南側フェンス,36.3310031,137.877665,
長野県,安曇野市,27-1,穂高有明214,耳塚公民館北植込,36.354656,137.847519,緯度経度は怪しい
長野県,安曇野市,27-2,穂高有明1199,乳房橋西側の交差点南西フェンス,36.354656,137.847519,緯度経度は怪しい
長野県,安曇野市,27-3,穂高有明249-1,masked,36.35815,137.870132,緯度経度は怪しい
長野県,安曇野市,27-4,穂高有明118-2,香取神社南ガードレール,36.354656,137.847519,緯度経度は怪しい
長野県,安曇野市,27-5,穂高有明3949-13,JAあづみ有明ライスセンター北 農免道路ガードパイプ,36.354656,137.847519,緯度経度は怪しい
長野県,安曇野市,27-6,穂高有明7562-1,橋爪公民館フェンス,36.354656,137.847519,緯度経度は怪しい
長野県,安曇野市,27-7,穂高有明1723-1,JAあづみ有明ホールフェンス,36.3612615,137.8584359,
長野県,安曇野市,28-1,穂高有明8063-3,豊里水源地 北側柵,36.3450469,137.8422255,
長野県,安曇野市,28-2,穂高有明7610-1,ビフ穂高北東 広場前植込,36.354656,137.847519,緯度経度は怪しい
長野県,安曇野市,28-3,穂高有明8562-1,「豊里」交差点東700m付近 穂高モータース軍団場フェンス,36.354656,137.847519,緯度経度は怪しい
長野県,安曇野市,28-4,穂高有明8368-3,masked,36.354656,137.847519,緯度経度は怪しい
長野県,安曇野市,28-5,穂高有明10365-5,ザ・ビック穂高南側 歩道ガードパイプ,36.354656,137.847519,緯度経度は怪しい
長野県,安曇野市,28-6,穂高有明3840-4,冨田公民館北ガードパイプ,36.354656,137.847519,緯度経度は怪しい
長野県,安曇野市,28-7,穂高有明9684-1,㈱ヤマカワ長野支社 元中信営業所フェンス,36.34760780000001,137.8615511,
長野県,安曇野市,28-8,穂高有明9846-1,冨田第5常会集会所北西側フェンス,36.354656,137.847519,緯度経度は怪しい
長野県,安曇野市,29-1,穂高有明7705-6,しゃくなげ庄跡前,36.3491974,137.8396828,
長野県,安曇野市,29-2,穂高有明3043-1,小岩嶽公民館フェンス,36.354656,137.847519,緯度経度は怪しい
長野県,安曇野市,29-3,穂高有明2465,masked,36.354656,137.847519,緯度経度は怪しい
長野県,安曇野市,29-4,穂高有明2540-1,樫下公民館前,36.3548844,137.8532079,
長野県,安曇野市,29-5,穂高有明2382-4,(柏)ニュー電子工業所西100m付近 墓地横,36.354656,137.847519,緯度経度は怪しい
長野県,安曇野市,29-6,穂高有明2813-1,masked,36.354656,137.847519,緯度経度は怪しい
長野県,安曇野市,30-1,穂高有明2136-4,中矢村公会堂前 県道ガードレール,36.354656,137.847519,緯度経度は怪しい
長野県,安曇野市,30-2,穂高有明2105-274,有明の桑認定こども園,36.370968,137.842621,緯度経度は怪しい
長野県,安曇野市,30-3,穂高有明2156-3,新屋公民館西 駐車場フェンス,36.354656,137.847519,緯度経度は怪しい
長野県,安曇野市,30-4,穂高有明2902-5,矢口小こ園南300m付近ガードレール,36.354656,137.847519,緯度経度は怪しい
長野県,安曇野市,30-5,穂高有明1642-1,有明交差点南400m付近 県道ガードレール,36.354656,137.847519,緯度経度は怪しい
長野県,安曇野市,30-6,穂高有明1739-5,穂高商店会駐車場フェンス,36.354656,137.847519,緯度経度は怪しい
長野県,安曇野市,31-1,穂高有明5718-143,穂高スイミングクラブ西 新堰フェンス,36.386501,137.849518,緯度経度は怪しい
長野県,安曇野市,31-2,穂高有明5938-27,「土場」交差点西ガードパイプ,36.3790117,137.8674234,
長野県,安曇野市,31-3,穂高有明5418-1,立足会館前,36.354656,137.847519,緯度経度は怪しい
長野県,安曇野市,31-4,穂高有明6308-2,masked,36.354656,137.847519,緯度経度は怪しい
長野県,安曇野市,31-5,穂高有明7379-84,masked,36.3737943,137.8555586,
長野県,安曇野市,31-6,穂高有明6335-10,古厩会館フェンス,36.371124,137.861389,緯度経度は怪しい
長野県,安曇野市,31-7,穂高有明6602-1,masked,36.365095,137.8664099,
長野県,安曇野市,32-1,穂高有明7263-2,有明山神社登山者駐車場東　県道沿いフェンス,36.3825601,137.8193553,
長野県,安曇野市,32-2,穂高有明7299-20,宮城会館フェンス,36.380974,137.819153,緯度経度は怪しい
長野県,安曇野市,32-3,穂高有明8960-4,宮城水源地フェンス,36.354656,137.847519,緯度経度は怪しい
長野県,安曇野市,33-1,穂高992-1,masked,36.3249425,137.891858,
長野県,安曇野市,33-2,穂高柏原999-4,masked,36.3234676,137.8885939,
長野県,安曇野市,32-3,穂高788-1,masked,36.3235126,137.8933258,
長野県,安曇野市,33-4,穂高445,柏矢郵便局南　月極駐車場フェンス,36.321598,137.893005,緯度経度は怪しい
長野県,安曇野市,34-1,穂高柏原2407-1,原睦集会所北西　農免道路ガードパイプ,36.3256411,137.8695758,
長野県,安曇野市,34-2,穂高柏原1296-3,masked,36.3256866,137.876095,
長野県,安曇野市,34-3,穂高柏原1400,masked,36.326001,137.8806964,
長野県,安曇野市,34-4,穂高柏原1448-3,柏原会館前ガードパイプ,36.324497,137.884186,緯度経度は怪しい
長野県,安曇野市,34-5,穂高柏原1497-3,柏原会館東250m 送電塔フェンス前ガードレール,36.324509,137.886414,緯度経度は怪しい
長野県,安曇野市,34-6,穂高柏原1098-1,masked,36.3207483,137.8874645,
長野県,安曇野市,34-7,穂高柏原526-1,masked,36.3201837,137.8805033,
長野県,安曇野市,34-8,穂高柏原2806-43,生活雑排水処理槽フェンス,36.318016,137.873871,緯度経度は怪しい
長野県,安曇野市,34-9,穂高柏原2814-10,穂高南部児童館フェンス,36.3190475,137.8733108,
長野県,安曇野市,35-1,穂高柏原3794-1,「北海渡」交差点北300m付近 県道ガードパイプ,36.3205682,137.8702841,
長野県,安曇野市,35-2,穂高柏原3683,塚原配水池フェンス,36.3205682,137.8702841,
長野県,安曇野市,35-3,穂高柏原3923-1,久保田諏訪神社前 携帯電話電波塔前広場,36.3205682,137.8702841,
長野県,安曇野市,35-4,穂高柏原4293-2,masked,36.32017889999999,137.8574397,
長野県,安曇野市,35-5,穂高柏原2970-12,久保田東側フェンス,36.3188358,137.8616141,
長野県,安曇野市,35-6,穂高柏原3073-1,masked,36.316837,137.8617813,
長野県,安曇野市,35-7,穂高柏原2915-1,masked,36.3150284,137.8663713,
長野県,安曇野市,35-8,穂高柏原2973-28,masked,36.3203945,137.8665933,
長野県,安曇野市,35-9,穂高柏原2824-2,JAあづみ北部低温農業倉庫フェンス,36.3180887,137.8703493,
長野県,安曇野市,36-1,穂高牧783-7,鴻池運輸株安曇野流通センター南側ガードパイプ,36.32655,137.844849,緯度経度は怪しい
長野県,安曇野市,36-2,穂高牧968-2,寿司はる北東180m付近ガードパイプ,36.32655,137.844849,緯度経度は怪しい
長野県,安曇野市,36-3,穂高牧892-11,草苅深西境遊園地フェンス,36.3313567,137.838421,
長野県,安曇野市,36-4,穂高牧497-1,牧公民館フェンス,36.32655,137.844849,緯度経度は怪しい
長野県,安曇野市,36-5,穂高牧276-2,旧牧簡易郵便局南170m付近 県道ガードパイプ,36.32655,137.844849,緯度経度は怪しい
長野県,安曇野市,36-6,穂高牧2286-1,離山集会所,36.3175735,137.8403778,
長野県,安曇野市,37-1,穂高北穂高708-1,北穂高運動場駐車場フェンス,36.361568,137.881683,緯度経度は怪しい
長野県,安曇野市,37-2,穂高北穂高438,狐島上木戸会館フェンス,36.361568,137.881683,緯度経度は怪しい
長野県,安曇野市,37-3,穂高北穂高261-3,中央倶楽部集会所南70m付近ガードレール,36.361568,137.881683,緯度経度は怪しい
長野県,安曇野市,37-4,穂高北穂高123-1,狐島公民館前植込み,36.361568,137.881683,緯度経度は怪しい
長野県,安曇野市,37-5,穂高北穂高1441-1,穂高下木戸公民館フェンス,36.361568,137.881683,緯度経度は怪しい
長野県,安曇野市,37-6,穂高北穂高1283-4,ニチコン㈱穂高工場西ガードパイプ,36.361568,137.881683,緯度経度は怪しい
長野県,安曇野市,38-1,穂高北穂高2580-26,旧運送会社西ガードパイプ,36.3664972,137.880854,
長野県,安曇野市,38-2,穂高北穂高2807-34,県営南木花民園団地 北側通路ガードフェンス,36.3632659,137.8780408,
長野県,安曇野市,38-3,穂高北穂高1962-5,masked,36.361568,137.881683,緯度経度は怪しい
長野県,安曇野市,38-4,穂高北穂高2286-3,masked,36.3573251,137.8795918,
長野県,安曇野市,38-5,穂高北穂高2328-7,穂高橋北 歩道フェンス,36.361568,137.881683,緯度経度は怪しい
長野県,安曇野市,39-1,穂高北穂高2857-10,「高瀬橋西」交差点西・県道ガードパイプ,36.373123,137.876511,緯度経度は怪しい
長野県,安曇野市,39-2,穂高北穂高2950-4,masked,36.361568,137.881683,緯度経度は怪しい
長野県,安曇野市,39-3,穂高北穂高1732-3,島新田会館西ガードレール,36.3708833,137.8764328,
長野県,安曇野市,39-4,穂高北穂高3235-1,masked,36.361568,137.881683,緯度経度は怪しい
長野県,安曇野市,39-5,穂高北穂高2947-11,市営追分団地公園植込,36.361568,137.881683,緯度経度は怪しい
長野県,安曇野市,39-6,穂高北穂高2990-5,ヤマモトスーパーDELI・DELI北 フェンス,36.361568,137.881683,緯度経度は怪しい
長野県,安曇野市,39-7,穂高北穂高2797,masked,36.361568,137.881683,緯度経度は怪しい
長野県,安曇野市,39-8,穂高北穂高2786-1,㈲有賀電気工事 敷地前フェンス,36.3649258,137.8766775,
長野県,安曇野市,40-1,三郷小倉6549-2,鳴沢橋北70m付近 水路沿いごみステーション横,36.261887,137.834579,緯度経度は怪しい
長野県,安曇野市,40-2,三郷小倉353-1,八幡宮東 ゴミステーション横,36.261887,137.834579,緯度経度は怪しい
長野県,安曇野市,40-3,三郷小倉476-1,北小倉公園前,36.261887,137.834579,緯度経度は怪しい
長野県,安曇野市,40-4,三郷小倉519-13,北小倉公民館,36.2640745,137.8443463,
長野県,安曇野市,40-5,三郷小倉2001-17,塚田屋商店前信号機横,36.2628607,137.8458674,
長野県,安曇野市,41-1,三郷小倉2731-4,masked,36.261887,137.834579,緯度経度は怪しい
長野県,安曇野市,41-2,三郷小倉2308-1,masked,36.2550213,137.840561,
長野県,安曇野市,41-3,三郷小倉1588-1,南小倉児童公園フェンス,36.261887,137.834579,緯度経度は怪しい
長野県,安曇野市,41-4,三郷小倉6524-1,ファインビュー室山駐車場フェンス,36.25137429999999,137.8457399,
長野県,安曇野市,42-1,三郷小倉3483-3,小倉グラウンド西側 県道ガードレール,36.25836140000001,137.8481806,
長野県,安曇野市,42-2,三郷小倉3531-2,東小倉公民館,36.2598145,137.8522792,
長野県,安曇野市,42-3,三郷小倉4057-1,masked,36.261887,137.834579,緯度経度は怪しい
長野県,安曇野市,42-4,三郷小倉1162,タカスオート販売北西交差点付近,36.261887,137.834579,緯度経度は怪しい
長野県,安曇野市,42-5,三郷小倉6089-7,masked,36.25521870000001,137.8607783,
長野県,安曇野市,43-1,三郷小倉5249-1,室野集落センター,36.261887,137.834579,緯度経度は怪しい
長野県,安曇野市,44-1,三郷温50-7,瑠璃光寺前 道祖神横,36.263023,137.879333,緯度経度は怪しい
長野県,安曇野市,44-2,三郷温479-1,本村集会場,36.246479,137.8779399,
長野県,安曇野市,44-3,三郷温1529-5,野沢市巾下常会所前ガードパイプ,36.247547,137.870361,緯度経度は怪しい
長野県,安曇野市,44-4,三郷温345,野沢公園フェンス,36.242294,137.876801,緯度経度は怪しい
長野県,安曇野市,44-5,三郷温1519,野沢公民館,36.2440782,137.8796062,
長野県,安曇野市,44-6,三郷温321-4,温泉便局南80m付近 水路ガードパイプ,36.241131,137.879364,緯度経度は怪しい
長野県,安曇野市,44-7,三郷温856-6,「野沢南」交差点西 ガードパイプ,36.24519,137.886871,緯度経度は怪しい
長野県,安曇野市,44-8,三郷温882-1,ザ・ビッグ食品館駐車場植込,36.2443811,137.8874431,
長野県,安曇野市,45-1,三郷温3542-5,上長尾第6組合集会所横 小田多井堰ガードパイプ,36.2645171,137.8806016,
長野県,安曇野市,45-2,三郷温3670-6,やっぱりステーキあづみの店南ガードパイプ,36.2595276,137.8798885,
長野県,安曇野市,45-3,三郷温4604-10,黒沢川橋東 県道ガードパイプ,36.263023,137.879333,緯度経度は怪しい
長野県,安曇野市,45-4,三郷温4147-1,上長尾民会館側ガードパイプ,36.2545689,137.8751165,
長野県,安曇野市,45-5,三郷温4372-39,上長尾第7組合集会所南,36.253151,137.87207,緯度経度は怪しい
長野県,安曇野市,45-6,三郷温2047-1,諏訪神社北側フェンス,36.2544648,137.8788926,
長野県,安曇野市,45-7,三郷温2278-2,「上長尾南」交差点北西空地,36.2525824,137.8833278,
長野県,安曇野市,46-1,三郷温3470-5,下長尾第一組合集会所東側,36.2593426,137.8834416,
長野県,安曇野市,46-2,三郷温2192-1,農村改善センター（JA三郷支所）北側植込,36.255504,137.8828824,
長野県,安曇野市,46-3,三郷温438-1,下長尾児童公園フェンス,36.254032,137.887207,緯度経度は怪しい
長野県,安曇野市,46-4,三郷明盛93-7,三郷小学校南　県道ガードパイプ,36.266933,137.896759,緯度経度は怪しい
長野県,安曇野市,46-5,三郷温971-5,masked,36.2502296,137.8934652,
長野県,安曇野市,46-6,三郷温3035-3,masked,36.255226,137.867676,緯度経度は怪しい
長野県,安曇野市,47-1,三郷温5737-4付近,消防団第15分団第2部詰所横ガードパイプ,36.271774,137.881546,
長野県,安曇野市,47-2,三郷温4928-1,すみのえはし北東フェンス,36.268986,137.881546,緯度経度は怪しい
長野県,安曇野市,47-3,三郷温6000-4,「橘（住吉神社入口）信号機南東堤ガードパイプ,36.265648,137.880569,緯度経度は怪しい
長野県,安曇野市,47-4,三郷温5614-1,中村組倉庫東側,36.26810700000001,137.8857636,
長野県,安曇野市,47-5,三郷温5124-1,masked,36.264055,137.884761,
長野県,安曇野市,47-6,三郷温5116-4付近,masked,36.2650042,137.8865569,
長野県,安曇野市,48-1,三郷温7104,masked,36.2829123,137.8826093,
長野県,安曇野市,48-2,三郷温6860-1,masked,36.2777013,137.8808509,
長野県,安曇野市,48-3,三郷温6810-1,masked,36.2744095,137.8810053,
長野県,安曇野市,48-4,三郷温7409-1,masked,36.2738201,137.8744237,
長野県,安曇野市,49-1,三郷明盛752-3,masked,36.250053,137.912064,緯度経度は怪しい
長野県,安曇野市,49-2,三郷明盛380-1,宮下商店向い　観音堂横フェンス,36.250801,137.907257,緯度経度は怪しい
長野県,安曇野市,49-3,三郷明盛333-1,七日市場コミュニティセンター植込,36.2480111,137.9066441,
長野県,安曇野市,49-4,三郷明盛307-1,諏訪神社南側,36.24610029999999,137.9048554,
長野県,安曇野市,49-5,三郷明盛263-2,七日市場公園西側,36.249889,137.904434,緯度経度は怪しい
長野県,安曇野市,49-6,三郷明盛107-1,masked,36.24815,137.896851,緯度経度は怪しい
長野県,安曇野市,50-1,三郷明盛1714-2,一日市場公民館東側フェンス,36.2601873,137.8988468,
長野県,安曇野市,50-2,三郷明盛1686-2,消防団第16分団1部詰所前,36.2590205,137.89912,
長野県,安曇野市,50-3,三郷明盛1625-1,masked,36.2568981,137.8995278,
長野県,安曇野市,50-4,三郷明盛70-1,一日市場公園北側フェンス,36.266933,137.896759,緯度経度は怪しい
長野県,安曇野市,50-5,三郷明盛1834-2,一日市場神明社前,36.2549426,137.8945908,
長野県,安曇野市,50-6,三郷温3085-5,松岡商店GS西ガードレール,36.25389699999999,137.8955096,
長野県,安曇野市,50-7,三郷温1429-6,手塚家染店東　県道ガードパイプ,36.263023,137.879333,緯度経度は怪しい
長野県,安曇野市,50-8,三郷明盛768-1付近,masked,36.2523594,137.908482,
長野県,安曇野市,50-9,三郷明盛1279-2,藤岡建設敷地側植込,36.2562304,137.9046252,
長野県,安曇野市,50-10,三郷明盛1459-7,東村集会所前ガードパイプ,36.2573205,137.9021459,
長野県,安曇野市,50-11,三郷明盛1476-1,市営一日市場駐車場内 東側,36.2588766,137.8996642,
長野県,安曇野市,50-12,三郷明盛1500-108,見岳町公園,36.261484,137.9029488,
長野県,安曇野市,50-13,三郷明盛1357-8,JR一日市場駅フェンス,36.25901,137.904755,緯度経度は怪しい
長野県,安曇野市,50-14,三郷明盛1265-1,masked,36.2570191,137.9063541,
長野県,安曇野市,51-1,三郷明盛4950-1,masked,36.2604222,137.8855816,
長野県,安曇野市,51-2,三郷明盛4868-1,三枝神社西側フェンス,36.2607755,137.8901199,
長野県,安曇野市,51-3,三郷明盛4814-1,安曇野市三郷支所植込,36.260384,137.891785,緯度経度は怪しい
長野県,安曇野市,51-4,三郷明盛4715-15,文化公園テニスコート西側フェンス,36.2587017,137.8910263,
長野県,安曇野市,52-1,三郷明盛4193-2,masked,36.27359,137.894592,緯度経度は怪しい
長野県,安曇野市,52-2,三郷明盛4788-12,masked,36.266933,137.896759,緯度経度は怪しい
長野県,安曇野市,52-3,三郷明盛4147-1,masked,36.2677849,137.8930657,
長野県,安曇野市,52-4,三郷明盛2197-4,三郷屋内ゲートボール場前フェンス,36.2656678,137.892418,
長野県,安曇野市,52-5,三郷明盛4399,明盛けんぼ災工記念碑横,36.266933,137.896759,緯度経度は怪しい
長野県,安曇野市,53-1,三郷明盛2516-2,新切多目的センター前ガードパイプ,36.281643,137.902954,緯度経度は怪しい
長野県,安曇野市,53-2,三郷明盛3599-3,倉科建設南側 緑地帯,36.282433,137.894135,緯度経度は怪しい
長野県,安曇野市,53-3,三郷明盛2974付近,masked,36.2771158,137.8967657,
長野県,安曇野市,53-4,三郷明盛3345-2付近,masked,36.2767665,137.8954985,
長野県,安曇野市,53-5,三郷明盛3518-1付近,安保塗装株式会社 県道ガードレール,36.2797112,137.8881887,
長野県,安曇野市,53-6,三郷明盛3092-1,中萱公民館前,36.275466,137.8967754,
長野県,安曇野市,53-7,三郷明盛3198,中萱公園北側フェンス,36.273865,137.897919,緯度経度は怪しい
長野県,安曇野市,53-8,三郷明盛3016-1,masked,36.27338,137.900589,緯度経度は怪しい
長野県,安曇野市,53-9,三郷明盛2995-2付近,ナガセ美容室北 水路ガードパイプ,36.27544,137.899918,緯度経度は怪しい
長野県,安曇野市,53-10,三郷明盛2473-1,masked,36.276917,137.90155,緯度経度は怪しい
長野県,安曇野市,53-11,三郷明盛2897-3付近,中島整骨院南 水路ガードパイプ,36.274879,137.903137,緯度経度は怪しい
長野県,安曇野市,54-1,堀金烏川210-3,大庄屋山口家前　待避所ガードレール,36.300426,137.85672,緯度経度は怪しい
長野県,安曇野市,54-2,堀金烏川1549-3,アサカワ自動車板金東70m付近ガードパイプ,36.300426,137.85672,緯度経度は怪しい
長野県,安曇野市,54-3,堀金烏川341,岩原公園遊空地,36.300426,137.85672,緯度経度は怪しい
長野県,安曇野市,54-4,堀金烏川683-6,masked,36.300426,137.85672,緯度経度は怪しい
長野県,安曇野市,54-5,堀金烏川645-9,堀金上水道低区配水池フェンス,36.300426,137.85672,緯度経度は怪しい
長野県,安曇野市,55-1,堀金烏川1864-3,倉田構造改善センター北100m付近ガードレール,36.300426,137.85672,緯度経度は怪しい
長野県,安曇野市,55-2,堀金烏川1267-1,倉田公園植込,36.300426,137.85672,緯度経度は怪しい
長野県,安曇野市,55-3,堀金烏川889,堀金上水道第3水源地フェンス,36.300426,137.85672,緯度経度は怪しい
長野県,安曇野市,55-4,堀金烏川1246-1,消防団第13分団第1部詰所フェンス,36.3008529,137.8621247,
長野県,安曇野市,56-1,堀金烏川2132-4,堀金保健センター植込,36.298149,137.873352,緯度経度は怪しい
長野県,安曇野市,56-2,堀金烏川2280-1,堀金認定こども園前ガードパイプ,36.300426,137.85672,緯度経度は怪しい
長野県,安曇野市,56-3,堀金烏川2184-10,上堀公園前墓地堤,36.2976545,137.8714278,
長野県,安曇野市,56-4,堀金烏川3000-4,三田郵便局前ガードパイプ,36.292343,137.873489,緯度経度は怪しい
長野県,安曇野市,56-5,堀金烏川2374-1,masked,36.2950728,137.8732824,
長野県,安曇野市,56-6,堀金烏川2753-1,堀金支所前ガードパイプ,36.2949161,137.8769313,
長野県,安曇野市,56-7,堀金烏川2689-2,ほりがね物産センター前ガードパイプ,36.300426,137.85672,緯度経度は怪しい
長野県,安曇野市,56-8,堀金烏川3152-5,masked,36.288033,137.876938,緯度経度は怪しい
長野県,安曇野市,57-1,堀金烏川3296-4,「中堀」交差点西60m付近ガードパイプ,36.29298,137.886932,緯度経度は怪しい
長野県,安曇野市,57-2,堀金烏川3892-19,「中堀」交差点東110m付近ガードパイプ,36.2928636,137.8888554,
長野県,安曇野市,57-3,堀金烏川3751-1,旧農機保管庫東側150m地点鋼鈑ガードパイプ,36.291039,137.892227,緯度経度は怪しい
長野県,安曇野市,57-4,堀金烏川3633,中堀公園フェンス,36.288677,137.889557,緯度経度は怪しい
長野県,安曇野市,57-5,堀金烏川3522,masked,36.286297,137.886841,緯度経度は怪しい
長野県,安曇野市,58-1,堀金烏川5123-2,楡川地区ごみステーション東フェンス,36.3072979,137.8766485,
長野県,安曇野市,58-2,堀金烏川4730-1,下堀公園西側植込,36.3050591,137.8802919,
長野県,安曇野市,58-3,堀金烏川4675-2,下村集会所前ガードパイプ,36.306068,137.884094,緯度経度は怪しい
長野県,安曇野市,58-4,堀金烏川4792,下堀公民館（入口南）,36.3032658,137.88231,
長野県,安曇野市,58-5,堀金烏川3843,田畑集会所東200m付近 公園フェンス,36.30093,137.890579,緯度経度は怪しい
長野県,安曇野市,58-6,堀金烏川4870,masked,36.303047,137.881485,緯度経度は怪しい
長野県,安曇野市,58-7,堀金烏川5024-4,消防団第13分団第2部詰所前ガードパイプ,36.301991,137.877014,緯度経度は怪しい
長野県,安曇野市,58-8,堀金烏川2700-17,下堀橋(農免道路)南東30m付近ガードレール,36.293793,137.879547,緯度経度は怪しい
長野県,安曇野市,59-1,堀金烏川5717-8,川口集会所前 県道ガードレール,36.300426,137.85672,緯度経度は怪しい
長野県,安曇野市,59-2,堀金烏川5320-5,(株)小穴工業東 待避所ガードレール,36.300426,137.85672,緯度経度は怪しい
長野県,安曇野市,59-3,堀金烏川5265-14,(株)ハマキョウレックス堀金工場北ガードパイプ,36.300426,137.85672,緯度経度は怪しい
長野県,安曇野市,59-4,堀金烏川5049-1,「下堀西」交差点北ガードレール,36.3045578,137.8765953,
長野県,安曇野市,60-1,堀金三田186-15,masked,36.28178,137.872971,緯度経度は怪しい
長野県,安曇野市,60-2,堀金三田78-1,「住吉」交差点西 あづみ野広域排水路ガードパイプ,36.285,137.853882,緯度経度は怪しい
長野県,安曇野市,60-3,堀金三田269-4,masked,36.28027,137.873718,緯度経度は怪しい
長野県,安曇野市,60-4,堀金三田610,小田多井公園フェンス,36.285,137.853882,緯度経度は怪しい
長野県,安曇野市,61-1,堀金烏川981-13,(株)三田精機南東 新堀堤フェンス,36.300426,137.85672,緯度経度は怪しい
長野県,安曇野市,61-2,堀金烏川1244-14,諏訪神社南東ガードレール,36.300426,137.85672,緯度経度は怪しい
長野県,安曇野市,61-3,堀金三田1128-18,「堀金小学校東」交差点東70m付近 県道ガードパイプ,36.2923127,137.8701524,
長野県,安曇野市,61-4,堀金三田1058-1,田尻公園フェンス,36.285,137.853882,緯度経度は怪しい
長野県,安曇野市,62-1,堀金三田1525-1,「田多井」交差点北800m付近 山麓線待避所ガードパイプ,36.285,137.853882,緯度経度は怪しい
長野県,安曇野市,62-2,堀金三田1742-2,masked,36.2918942,137.8538062,
長野県,安曇野市,62-3,堀金三田4041-1,田多井公園前ガードパイプ,36.285,137.853882,緯度経度は怪しい
長野県,安曇野市,62-4,堀金三田2395-3,田多井公民館前フェンス,36.2863562,137.8529399,
長野県,安曇野市,62-5,堀金三田2475-5,シティハイム地中海南 山麓線ガードパイプ,36.285,137.853882,緯度経度は怪しい
長野県,安曇野市,62-6,堀金三田2670-1,消防団第13分団第3部詰所フェンス,36.2842523,137.8616614,
長野県,安曇野市,62-7,堀金三田400-141,(株)板花興業北ガードレール,36.285,137.853882,緯度経度は怪しい
長野県,安曇野市,62-8,堀金三田3570-1,市営堀金運動場南側フェンス,36.2763633,137.8629348,
長野県,安曇野市,63-1,明科中川手6824-17,明科防災倉庫前ガードパイプ,36.3569792,137.9298113,
長野県,安曇野市,63-2,明科中川手6814-1,明科図書館(ひまわり)前,36.355637,137.928894,緯度経度は怪しい
長野県,安曇野市,63-3,明科中川手3859-1,龍門橋東ガードレール,36.34544,137.934433,緯度経度は怪しい
長野県,安曇野市,63-4,明科中川手2845-1,長野県水産試験場南側フェンス,36.34544,137.934433,緯度経度は怪しい
長野県,安曇野市,63-5,明科中川手4027-5,矢﨑診療所前ガードレール,36.34544,137.934433,緯度経度は怪しい
長野県,安曇野市,63-6,明科中川手3749-2,明科駅南西市営駐車場,36.3542984,137.9294881,
長野県,安曇野市,63-7,明科中川手3542-5,上郷集会所前JRフェンス,36.34544,137.934433,緯度経度は怪しい
長野県,安曇野市,63-8,明科中川手3281-1,竹内美容院塀,36.3513066,137.928758,
長野県,安曇野市,64-1,明科中川手1783-2,「中耕地」交差点南 国道ガードパイプ,36.34544,137.934433,緯度経度は怪しい
長野県,安曇野市,64-2,明科中川手1338-5,「宮本」交差点北200m付近 国道ガードパイプ,36.34544,137.934433,緯度経度は怪しい
長野県,安曇野市,64-3,明科中川手101-4,masked,36.336792,137.924777,
長野県,安曇野市,64-4,明科光53-1,「天神原入口」交差点付近 国道ガードパイプ,36.332146,137.926468,緯度経度は怪しい
長野県,安曇野市,64-5,明科中川手1163-1,宮本公民館北ガードレール,36.34544,137.934433,緯度経度は怪しい
長野県,安曇野市,64-6,明科中川手1302-8,中耕地公民館東ガードレール,36.34544,137.934433,緯度経度は怪しい
長野県,安曇野市,65-1,明科中川手3007,大町水力管理所 厚川発電所フェンス,36.351006,137.927063,緯度経度は怪しい
長野県,安曇野市,65-2,明科中川手2781-2,明科認定こども園東側フェンス,36.34544,137.934433,緯度経度は怪しい
長野県,安曇野市,65-3,明科中川手2773-27,「塔ノ原」交差点西側 県道フェンス,36.348495,137.921722,緯度経度は怪しい
長野県,安曇野市,65-4,明科中川手2256-3,masked,36.3463368,137.9221935,
長野県,安曇野市,65-5,明科中川手2671-1,明科体育館東 駐車場フェンス,36.34544,137.934433,緯度経度は怪しい
長野県,安曇野市,66-1,明科中川手4590-16,市営柳瀬団地出入口付近 県道ガードパイプ,36.34544,137.934433,緯度経度は怪しい
長野県,安曇野市,66-2,明科中川手6779-5,大足橋東ガードパイプ,36.34544,137.934433,緯度経度は怪しい
長野県,安曇野市,66-3,明科中川手6674-1,masked,36.353474,137.944763,緯度経度は怪しい
長野県,安曇野市,66-4,明科中川手6469-4,消防団第6分団第3部詰所東ガードレール,36.34544,137.934433,緯度経度は怪しい
長野県,安曇野市,67-1,明科光3610-5,天神原団地内公園,36.330833,137.925232,緯度経度は怪しい
長野県,安曇野市,67-2,明科光434-1,長野自動車道・国道19号立体交差フェンス,36.3278765,137.927869,
長野県,安曇野市,67-3,明科光572-4,㈱三協精密北西 公園フェンス,36.326929,137.9268763,
長野県,安曇野市,67-4,明科光606-4,中条集会センターフェンス,36.326088,137.928284,緯度経度は怪しい
長野県,安曇野市,67-5,明科光734-2,masked,36.329147,137.938675,緯度経度は怪しい
長野県,安曇野市,67-6,明科光225-3,北村集会駐車場東ガードレール,36.330967,137.928757,緯度経度は怪しい
長野県,安曇野市,68-1,明科東川手13805-4,旧消防団第7分団2部詰所前ガードパイプ,36.3766452,137.9283492,
長野県,安曇野市,68-2,明科東川手13705-4,明科ブロック建設北ガードパイプ,36.379822,137.957947,緯度経度は怪しい
長野県,安曇野市,68-3,明科東川手13353-1,木戸簡易郵便局東フェンス,36.379822,137.957947,緯度経度は怪しい
長野県,安曇野市,68-4,明科東川手867-38,明科北認定こども園前 国道ガードパイプ,36.3659864,137.9326823,
長野県,安曇野市,68-5,明科東川手313-17,masked,36.361492,137.929352,緯度経度は怪しい
長野県,安曇野市,68-6,明科東川手606-2,明科総合福祉センター あいす前植込,36.379822,137.957947,緯度経度は怪しい
長野県,安曇野市,68-7,明科東川手562-1,「束栄町」交差点北 国道ガードパイプ,36.358488,137.9314285,
長野県,安曇野市,69-1,明科東川手13227-1,小芋登口付近 国道フェンス,36.379822,137.957947,緯度経度は怪しい
長野県,安曇野市,69-2,明科東川手12850-2,masked,36.379822,137.957947,緯度経度は怪しい
長野県,安曇野市,69-3,明科東川手4221-1,花見橋南西60m付近 ガードレール,36.37495,137.949448,緯度経度は怪しい
長野県,安曇野市,69-4,明科東川手11667-10,瀬沢公民館西側,36.3742926,137.9548307,
長野県,安曇野市,69-5,明科東川手4575-3,廃線敷炭久保トンネル駐車場前,36.379822,137.957947,緯度経度は怪しい
長野県,安曇野市,69-6,明科東川手10698-1,李口バス停前,36.379822,137.957947,緯度経度は怪しい
長野県,安曇野市,69-7,明科東川手9281-1,廃線敷歩道駐車場付近ガードレール,36.379822,137.957947,緯度経度は怪しい
長野県,安曇野市,70-1,明科七貴1053-1,masked,36.359566,137.909363,緯度経度は怪しい
長野県,安曇野市,70-2,明科七貴4420-2,上押野北部集会所横 公園フェンス,36.363609,137.89946,緯度経度は怪しい
長野県,安曇野市,70-3,明科七貴4148-7,masked,36.359955,137.900833,緯度経度は怪しい
長野県,安曇野市,70-4,明科七貴4114-1,masked,36.35862,137.904602,緯度経度は怪しい
長野県,安曇野市,70-5,明科七貴4807-4,「押野」交差点北西 県道ガードパイプ,36.359566,137.909363,緯度経度は怪しい
長野県,安曇野市,71-1,明科七貴6174-4,masked,36.359566,137.909363,緯度経度は怪しい
長野県,安曇野市,71-2,明科七貴5817-1,下押野集会センターフェンス,36.359566,137.909363,緯度経度は怪しい
長野県,安曇野市,71-3,明科七貴5860-4,下里医院バス停前　県道フェンス,36.352001,137.908279,緯度経度は怪しい
長野県,安曇野市,71-4,明科七貴11556-2,下里整骨院西90m付近県道ガードパイプ,36.359566,137.909363,緯度経度は怪しい
長野県,安曇野市,71-5,明科七貴5593-32,内川第２号橋ガードレール,36.35326,137.90892,緯度経度は怪しい
長野県,安曇野市,72-1,明科七貴7164-12,みどりヶ丘入口付近　五ヶ冨水ガードパイプ,36.359566,137.909363,緯度経度は怪しい
長野県,安曇野市,72-2,明科七貴7222-71,みどりヶ丘団地内（北）公園フェンス,36.3685847,137.9256288,
長野県,安曇野市,72-3,明科七貴7270-9,塩川原公民館横グラウンド植込,36.3667152,137.9235923,
長野県,安曇野市,72-4,明科七貴7416-2,菅田池南150m付近県道ガードパイプ,36.359566,137.909363,緯度経度は怪しい
長野県,安曇野市,73-1,明科七貴9607-3,masked,36.359566,137.909363,緯度経度は怪しい
長野県,安曇野市,73-2,明科七貴10760-4,荻原都市農村交流センター前,36.373203,137.92038,緯度経度は怪しい
長野県,安曇野市,73-3,明科七貴8539-1,JA松本ハイランド川手地区営農センター前 国道ガードパイプ,36.37258509999999,137.924062,
長野県,安曇野市,73-4,明科七貴9320-5,えべや入口　国道ガードパイプ,36.359566,137.909363,緯度経度は怪しい
長野県,安曇野市,74-1,明科南陸郷601-2,中村農業生産生活改善センター,36.3854989,137.9238764,
長野県,安曇野市,74-2,明科南陸郷485-3,中村公園前バス停横　国道ガードパイプ,36.395348,137.920013,緯度経度は怪しい
長野県,安曇野市,74-3,明科南陸郷84-8,笹原バス停　国道ガードパイプ,36.3817602,137.9226234,
長野県,安曇野市,75-1,明科南陸郷3575-24,睦橋バス停横　国道ガードパイプ,36.395348,137.920013,緯度経度は怪しい
長野県,安曇野市,75-2,明科南陸郷3077,masked,36.395348,137.920013,緯度経度は怪しい
長野県,安曇野市,75-3,明科南陸郷2650,小泉奥東側サービスコース入口　国道ガードパイプ,36.395348,137.920013,緯度経度は怪しい
長野県,安曇野市,75-4,明科南陸郷2590-1,masked,36.396244,137.921661,緯度経度は怪しい
長野県,安曇野市,75-5,明科南陸郷2117-1,小泉一班集会所塀,36.3896988,137.9251196,
