prefecture,city,number,address,name,lat,long,note
長野県,小谷村,1-1,千国乙川内村営住宅横,masked,36.7738514,137.9073122,緯度経度は怪しい
長野県,小谷村,1-2,千国乙栂池南栂池駐車場,栂池駐車場 (管理)株式会社栂池駐車場 代表深澤一輝,36.7478962,137.8770827,緯度経度は怪しい
長野県,小谷村,1-3,千国乙栂池南栂池スキ-ハウス,栂池スキーハウス (管理)山地與利子,36.7496079,137.8707835,緯度経度は怪しい
長野県,小谷村,1-4,千国乙松沢松沢荘様宅倉庫,masked,36.742686,137.871833,緯度経度は怪しい
長野県,小谷村,1-5,千国乙栂池北太田勝様倉庫,masked,36.7702957,137.8764522,緯度経度は怪しい
長野県,小谷村,1-6,千国乙栂池北栂池北 旅館区上消防小屋,栂池北 旅館区上消防小屋 (管理)第1分団,36.7702957,137.8764522,緯度経度は怪しい
長野県,小谷村,1-7,千国乙沓掛沓掛JAプロパン基地,沓掛JAプロパン基地 (管理)JA大北北部燃料センター,36.7702957,137.8764522,緯度経度は怪しい
長野県,小谷村,2-8,千国乙千国崎千国駅歩道,千国駅歩道 (管理)JR南小谷駅1-1,36.763495,137.9008568,緯度経度は怪しい
長野県,小谷村,2-9,千国乙宮ノ下源長寺入口よう壁,源長寺入口よう壁 (管理)小谷村,36.763055,137.897195,緯度経度は怪しい
長野県,小谷村,2-10,千国乙千国栗田哲夫様宅車庫,masked,36.7702957,137.8764522,緯度経度は怪しい
長野県,小谷村,2-11,千国乙峯峯消防器具置場,峯消防器具置場 (管理)第2分団,36.7702957,137.8764522,緯度経度は怪しい
長野県,小谷村,2-12,千国乙立屋立屋公民館,立屋公民館 (管理)連絡員,36.760125,137.889486,緯度経度は怪しい
長野県,小谷村,2-13,千国乙若栗若栗防火水槽下よう壁,若栗防火水槽下よう壁 (管理)小谷村,36.764896,137.88147,緯度経度は怪しい
長野県,小谷村,2-14,千国乙蕨平蕨平下三叉路よう壁,蕨平下三叉路よう壁 (管理)小谷村,36.7702957,137.8764522,緯度経度は怪しい
長野県,小谷村,2-15,千国乙蕨平木戸花荘様前駐車場,masked,36.767076,137.883164,緯度経度は怪しい
長野県,小谷村,3-16,千国乙梨平川上消防器具置き場,川上消防器具置き場 (管理)第1分団,36.7702957,137.8764522,緯度経度は怪しい
長野県,小谷村,3-17,千国乙白馬大池白馬大池駅,白馬大池駅 (管理)JR南小谷駅1-1,36.7405891,137.8853797,緯度経度は怪しい
長野県,小谷村,3-18,千国乙高橋田原利夫様管理倉庫,masked,36.7702957,137.8764522,緯度経度は怪しい
長野県,小谷村,3-19,千国乙月岡南小谷駅前駐車場,南小谷駅前駐車場 (管理)JR南小谷駅1-1,36.77445,137.9076376,緯度経度は怪しい
長野県,小谷村,3-20,千国乙伊折伊析公民館,伊析公民館 (管理)連絡員,36.7702957,137.8764522,緯度経度は怪しい
長野県,小谷村,3-21,千国乙黒川黒川公民館,黒川公民館 (管理)連絡員,36.7702957,137.8764522,緯度経度は怪しい
長野県,小谷村,3-22,千国乙土倉相澤厚子様宅車庫,masked,36.7702957,137.8764522,緯度経度は怪しい
長野県,小谷村,3-23,千国乙泥崎花岡設備様北側車庫,masked,36.7480747,137.8703466,緯度経度は怪しい
長野県,小谷村,3-24,千国乙南雨中南雨中防火水槽横よう壁,南雨中防火水槽横よう壁 (管理)小谷村,36.7702957,137.8764522,緯度経度は怪しい
長野県,小谷村,3-25,中小谷北雨中内川スポ-ツ様車庫,masked,36.7806483,137.9119552,緯度経度は怪しい
長野県,小谷村,3-26,中小谷北雨中旧小谷保育園前,旧小谷保育園前 (管理)小谷村,36.7806483,137.9119552,緯度経度は怪しい
長野県,小谷村,3-27,中小谷宮本吉澤学様宅車庫,masked,36.8073187,137.8788958,緯度経度は怪しい
長野県,小谷村,4-28,中小谷虫尾清水一郎様宅綠地,masked,36.8073187,137.8788958,緯度経度は怪しい
長野県,小谷村,4-29,中小谷下里瀬細野修様宅車庫橫,masked,36.797341,137.9123358,緯度経度は怪しい
長野県,小谷村,4-30,中小谷下里瀬池原屋檬,池原屋檬 (管理)小倉一隆,36.7961628,137.9117207,緯度経度は怪しい
長野県,小谷村,4-31,中小谷番場中川洋一様宅車庫,masked,36.8073187,137.8788958,緯度経度は怪しい
長野県,小谷村,4-32,中小谷石原小林左官工業様車庫,masked,36.799217,137.917595,緯度経度は怪しい
長野県,小谷村,5-33,中小谷池原下小谷観光タクシ-様車庫,masked,36.779245,137.908188,緯度経度は怪しい
長野県,小谷村,5-34,中小谷池原難波一雄様 車庫,masked,36.8073187,137.8788958,緯度経度は怪しい
長野県,小谷村,5-35,中小谷石坂石坂公民館,石坂公民館 (管理)連絡貝,36.779217,137.9082965,緯度経度は怪しい
長野県,小谷村,6-36,中土奉納奉納公民館下土手ブロック,奉納公民館下土手ブロック (管理)連絡貝,36.5054871,138.0955254,緯度経度は怪しい
長野県,小谷村,6-37,中土曽田曾田消防小屋,曾田消防小屋 (管理)第4分団,36.807637,137.937036,緯度経度は怪しい
長野県,小谷村,6-38,中土太田太田武文様宅土蔵,masked,36.8034549,137.9251413,緯度経度は怪しい
長野県,小谷村,7-39,中土白岩白岩バス停機よう壁,白岩バス停機よう壁 (管理)小谷村,36.8166788,137.9186812,緯度経度は怪しい
長野県,小谷村,7-40,中土清水山浅見嘉男様宅土蔵,masked,36.8411411,137.9777673,緯度経度は怪しい
長野県,小谷村,7-41,中土瑞穂相沢義彦様宅車庫,masked,36.822245,137.9302452,緯度経度は怪しい
長野県,小谷村,7-42,中土中谷東JA中土支所,JA中土支所 (管理)JA中土支所,36.8411411,137.9777673,緯度経度は怪しい
長野県,小谷村,7-43,中土中谷西鍛治倉様宅土蔵,masked,36.8411411,137.9777673,緯度経度は怪しい
長野県,小谷村,7-44,中土高地高地バス停待合所,高地バス停待合所 (管理)小谷村,36.834085,137.952654,緯度経度は怪しい
長野県,小谷村,8-45,北小谷三ヶ村北小谷駅前看板,北小谷駅前看板 (管理)小谷村,36.8715767,137.9024822,緯度経度は怪しい
長野県,小谷村,8-46,北小谷下寺下寺消防器具置場,下寺消防器具置場 (管理)第5分団,36.8715767,137.9024822,緯度経度は怪しい
長野県,小谷村,8-47,北小谷島旧島の湯旅館,旧島の湯旅館 (管理)松澤芳夫,36.8715767,137.9024822,緯度経度は怪しい
長野県,小谷村,8-48,北小谷湯原山田幸子様横よう壁,masked,36.8600754,137.8818257,緯度経度は怪しい
長野県,小谷村,8-49,北小谷李平李平公民館,李平公民館 (管理)連絡員,36.8527658,137.9014437,緯度経度は怪しい
長野県,小谷村,8-50,北小谷来馬斉藤はま子様宅敷地内,masked,36.840589,137.901293,緯度経度は怪しい
長野県,小谷村,8-51,北小谷深原深原 浜田 洋様宅,masked,36.8509906,137.9087514,緯度経度は怪しい
長野県,小谷村,9-52,北小谷姫川温泉瘡の湯前よう壁,瘡の湯前よう壁 (管理)小谷村,36.8715767,137.9024822,緯度経度は怪しい
長野県,小谷村,9-53,北小谷大網戸沢和人(孝枝)様所有車庫壁,masked,36.891005,137.873941,緯度経度は怪しい
長野県,小谷村,9-54,北小谷大網洞地 賢様宅車庫,masked,36.891005,137.873941,緯度経度は怪しい
