prefecture,city,number,address,name,lat,long,note
長野県,岡谷市,1-1,今井75番地1,みすおモータース東側フェンス,36.066944,138.049454,緯度経度は怪しい
長野県,岡谷市,1-2,今井70番地2,masked,36.066944,138.049454,緯度経度は怪しい
長野県,岡谷市,1-3,今井1854番地1,今井区資材庫駐車場北側ネットフェンス,36.066944,138.049454,緯度経度は怪しい
長野県,岡谷市,1-4,今井741番地1,masked,36.066944,138.049454,緯度経度は怪しい
長野県,岡谷市,1-5,神明町四丁目2-1,今井十五社駐車場ネットフェンス,36.0797851,138.0422543,
長野県,岡谷市,1-6,神明町三丁目13番地,岡茂鉄木店北側フェンス,36.0803888,138.0473384,
長野県,岡谷市,3-7,神明町三丁目14-30,今井区公会所東側駐車場ネットフェンス,36.0819219,138.0457502,
長野県,岡谷市,1-8,神明町二丁目10-3,岡谷工業高等学校グラウンド西側ネットフェンス,36.0762909,138.046031,
長野県,岡谷市,1-9,神明町二丁目2,TPR（株）神納線ブロック堰前,36.0740162,138.0465637,
長野県,岡谷市,1-10,神明町一丁目4-31,下今井公会所ネットフェンス,36.0733188,138.0446462,
長野県,岡谷市,2-1,山下町三丁目9-27,塀,36.066479,138.044815,緯度経度は怪しい
長野県,岡谷市,2-2,山下町二丁目12-27,塀,36.0693185,138.0434648,
長野県,岡谷市,2-3,山下町一丁目19-7,塀,36.06833719999999,138.0453364,
長野県,岡谷市,2-4,山下町一丁目21-25,反目遊園地フェンス,36.0682744,138.0476533,
長野県,岡谷市,2-5,山下町一丁目13-11,塀,36.0675517,138.0442201,
長野県,岡谷市,2-6,山下町一丁目14-31,塀,36.0662104,138.045847,
長野県,岡谷市,2-7,山下町一丁目13-16,間下区民センター駐車場,36.0678675,138.0446432,
長野県,岡谷市,3-1,本町三丁目5-20,御殿町公民館裏フェンス,36.0640247,138.0417489,
長野県,岡谷市,3-2,本町三丁目3-6,旧岡谷保育園横フェンス,36.0618282,138.0430862,
長野県,岡谷市,3-3,山手町一丁目12-19,masked,36.0620353,138.0399692,
長野県,岡谷市,3-4,本町二丁目9-6,masked,36.0600109,138.0418422,
長野県,岡谷市,3-5,中央町一丁目7-24,岡谷区公会所前塀,36.0595817,138.0452327,
長野県,岡谷市,3-6,中央町一丁目8-4,岡谷地方合同庁舎前ガードレール,36.0593477,138.0466799,
長野県,岡谷市,3-7,本町一丁目4-8,岡谷駅前ビルガードレール,36.0574883,138.0440343,
長野県,岡谷市,3-8,御倉町8-1,ガードレール,36.05594749999999,138.0402845,
長野県,岡谷市,3-9,成田町三丁目4-15,ガードレール,36.0575261,138.0375774,
長野県,岡谷市,4-1,湖畔二丁目15-20,masked,36.0558074,138.0590699,
長野県,岡谷市,4-2,湖畔三丁目3-30,岡谷南高等学校フェンス,36.0569906,138.0602675,
長野県,岡谷市,4-3,天竜町三丁目20,下浜区４町内遊園地フェンス,36.0556061,138.0521421,
長野県,岡谷市,4-4,湖畔二丁目4,岡谷酸素（株）横遊園地フェンス,36.058472,138.0561326,
長野県,岡谷市,4-5,湖畔一丁目17,三角公園フェンス,36.0557144,138.0554352,
長野県,岡谷市,4-6,若宮二丁目5-37,masked,36.060478,138.0638238,
長野県,岡谷市,4-7,天竜町二丁目3,新天竜橋欄干,36.0551399,138.0484231,
長野県,岡谷市,5-1,天竜町三丁目1-6,小尾口区公民館フェンス,36.0583967,138.049471,
長野県,岡谷市,5-2,天竜町三丁目3-13,招魂殿遊園地フェンス,36.0572821,138.0508443,
長野県,岡谷市,5-3,天竜町三丁目2-1,賓の神遊園地掲示板,36.0574306,138.0495077,
長野県,岡谷市,5-4,中央町三丁目1-2,masked,36.062223,138.0485974,
長野県,岡谷市,6-1,幸町6-21,信州諏訪農業協同組合岡谷支所前塚間川フェンス,36.0655266,138.0503757,
長野県,岡谷市,6-2,塚間町一丁目5092-1,行屋遊園地フェンス（上浜公民館前）,36.0616409,138.052452,
長野県,岡谷市,6-3,塚間町一丁目6-12,若宮橋下塚間川フェンス,36.0619803,138.0529169,
長野県,岡谷市,6-4,塚間町一丁目2-1,竹原遊園地ネットフェンス,36.0632689,138.0519871,
長野県,岡谷市,6-5,幸町2番,長塚墓地ネットフェンス,36.0644116,138.0498951,
長野県,岡谷市,6-6,田中町一丁目1-6,masked,36.0591452,138.0527984,
長野県,岡谷市,6-7,田中町二丁目1,田中通り田中橋欄干,36.0606756,138.0544666,
長野県,岡谷市,7-1,中央町三丁目1-3,津島神社（天王森）コンクリート外柵沿,36.0627122,138.0490429,
長野県,岡谷市,7-2,本町四丁目6-15,市営新屋敷遊園地ネットフェンス,36.0628183,138.0476483,
長野県,岡谷市,7-3,幸町2-4,長塚墓地コンクリート壁沿（美好肉店駐車場横）,36.0644116,138.0498951,
長野県,岡谷市,7-4,本町四丁目2-4,長野県信用組合岡谷支店駐車場フェンス,36.0641156,138.0467809,
長野県,岡谷市,7-5,本町三丁目5523-6,岡谷不動産管理駐車場ネットフェンス,36.0629561,138.0450142,
長野県,岡谷市,8-1,加茂町丁目6575番地,小口正八幡宮駐車場フェンス,36.07111,138.052689,緯度経度は怪しい
長野県,岡谷市,8-2,銀座一丁目5-26,小口区民センター前柵,36.06835,138.0522845,
長野県,岡谷市,8-3,銀座二丁目8-3,masked,36.0686974,138.054252,
長野県,岡谷市,8-4,銀座二丁目8-14,masked,36.06836,138.054486,
長野県,岡谷市,8-5,銀座二丁目5-15,masked,36.0663852,138.0542753,
長野県,岡谷市,8-6,大栄町一丁目16-13,（有）ヘルツフェンス,36.0639109,138.0558074,
長野県,岡谷市,9-1,大栄町一丁目4-8543-1,春日井アルマイト工業（有）駐車場フェンス,36.0662037,138.0567137,
長野県,岡谷市,9-2,大栄町二丁目10-12,masked,36.0657259,138.0601924,
長野県,岡谷市,9-3,東銀座一丁目12-28,東銀座通り月極駐車場フェンス,36.0696417,138.057864,
長野県,岡谷市,9-4,東銀座二丁目9,於山墓地フェンス,36.0712278,138.0594259,
長野県,岡谷市,9-5,東銀座一丁目3-30,山岡染工場塀,36.0693429,138.0558807,
長野県,岡谷市,9-6,加茂町四丁目6-1,小井川区民会館西側フェンス,36.0732186,138.0558428,
長野県,岡谷市,9-7,赤羽一丁目8-59,masked,36.0754237,138.0516191,
長野県,岡谷市,9-8,赤羽二丁目7-3,TPR（株）赤羽寮西側フェンス,36.0796174,138.0510767,
長野県,岡谷市,9-9,7777番地41,masked,36.081745,138.052673,緯度経度は怪しい
長野県,岡谷市,9-10,若宮二丁目1-19,信州諏訪農業協同組合田中線センター北側フェンス,36.06205,138.0611409,
長野県,岡谷市,9-11,加茂町二丁目12,加茂団地園地西側フェンス,36.0735793,138.0512898,
長野県,岡谷市,10-1,南宮一丁目4-1,旭設備（株）北側高架橋フェンス,36.066237,138.0632875,
長野県,岡谷市,10-2,長地権現町一丁目4-1,masked,36.0668862,138.0675026,
長野県,岡谷市,10-3,堀ノ内二丁目1-16,八幡社柵西側,36.0684149,138.0611368,
長野県,岡谷市,10-4,堀ノ内二丁目17-12,masked,36.0702552,138.0638167,
長野県,岡谷市,10-5,南宮二丁目7-1,masked,36.0624454,138.0648506,
長野県,岡谷市,10-6,東銀座二丁目2,堂庵墓地西側柵,36.068831,138.0597359,
長野県,岡谷市,10-7,堀ノ内二丁目,横河川橋区有地西側,36.0703792,138.0623707,
長野県,岡谷市,11-1,湊五丁目10-8,区所有防災倉庫壁,36.0315385,138.0731939,
長野県,岡谷市,11-2,湊五丁目1-2,信陽ハウス興業（有）敷地,36.0326813,138.072042,
長野県,岡谷市,11-3,湊丁目7-18,小坂区旧公民館跡ネットフェンス,36.03091,138.054718,緯度経度は怪しい
長野県,岡谷市,11-4,湊三丁目14-31,masked,36.0370835,138.064456,
長野県,岡谷市,11-5,湊四丁目1-11,masked,36.0384165,138.0657488,
長野県,岡谷市,11-6,湊五丁目11,安沢消防ポンプ格納庫（消防第7分団所有）,36.0303172,138.0732213,
長野県,岡谷市,12-1,湊三丁目9-16,小田井水源地フェンス,36.04056,138.0622581,
長野県,岡谷市,12-2,湊三丁目6-9,小田井公会所ブロック塀,36.043309,138.0614032,
長野県,岡谷市,12-3,湊三丁目4-6,masked,36.0438139,138.0607626,
長野県,岡谷市,12-4,湊三丁目13-16,masked,36.0387441,138.0641531,
長野県,岡谷市,12-5,湊三丁目6-1,湊小学校県道側フェンス,36.0424649,138.0619638,
長野県,岡谷市,12-6,湊三丁目3-11,masked,36.0420241,138.0596584,
長野県,岡谷市,13-1,湊二丁目1-8,岡谷南部中学校県道側フェンス,36.0489504,138.053969,
長野県,岡谷市,13-2,湊一丁目5933-27,湖畔公園フェンス,36.0521167,138.0512123,
長野県,岡谷市,13-3,湊一丁目10-18,masked,36.0517789,138.0521657,
長野県,岡谷市,13-4,湊一丁目5-8,川上公会所（湊9町内）,36.0535222,138.0501857,
長野県,岡谷市,14-1,川岸上一丁目113-1,masked,36.0515023,138.0313809,
長野県,岡谷市,14-2,川岸上一丁目19-5,三沢区コミュニティ施設横駐車場,36.0523783,138.0329174,
長野県,岡谷市,14-3,川岸上三丁目14-13,旧つるみね保育園,36.0509934,138.0267357,
長野県,岡谷市,14-4,川岸上二丁目6-5,三沢区熊野神社前,36.0539256,138.032775,
長野県,岡谷市,14-5,川岸上三丁目15,三沢区一里塚,36.0508127,138.028128,
長野県,岡谷市,14-6,川岸上三丁目13,鶴峯公園裏フェンス,36.0502982,138.0262693,
長野県,岡谷市,14-7,川岸上三丁目13,鶴峯公園入口,36.0502982,138.0262693,
長野県,岡谷市,14-8,川岸中一丁目13,三沢区駐車場,36.0478902,138.0201515,
長野県,岡谷市,14-9,川岸中一丁目2020-70,三沢区中尾遊園地フェンス,36.0466658,138.0227069,
長野県,岡谷市,15-1,川岸中二丁目2616-1,県道下諏訪辰野線空地,36.0424028,138.0245655,
長野県,岡谷市,15-2,川岸中二丁目12-24,カク山木材建設（有）工場塀,36.0405898,138.0247596,
長野県,岡谷市,15-3,川岸中三丁目1-29,岡谷市役所川岸支所,36.0385938,138.0246113,
長野県,岡谷市,15-4,川岸中三丁目5-12,masked,36.0370789,138.0229199,
長野県,岡谷市,15-5,川岸一丁目3-14,masked,36.035385,138.00882,緯度経度は怪しい
長野県,岡谷市,15-6,川岸東三丁目13,鮎沢区所有新川上汲用ポンプ小屋前,36.0355199,138.0230941,
長野県,岡谷市,15-7,川岸東三丁目11,お堂・郷谷塀,36.0364267,138.0247204,
長野県,岡谷市,15-8,川岸西一丁目5-5,masked,36.0360507,138.0203225,
長野県,岡谷市,16-1,川岸西一丁目18,経塚墓地石垣（代表藤沢忠元）,36.0330645,138.0188351,
長野県,岡谷市,16-2,川岸西一丁目17-26,masked,36.0315953,138.0196672,
長野県,岡谷市,16-3,川岸西二丁目4-10,masked,36.0316632,138.0176542,
長野県,岡谷市,16-4,川岸西二丁目4907,夏明児童遊園地（中島年雄）,36.0302274,138.0171315,
長野県,岡谷市,17-1,川岸東四丁目4-3,masked,36.0297551,138.0199743,
長野県,岡谷市,17-2,川岸東四丁目8,的場御社宮司神社柵,36.0288168,138.020074,
長野県,岡谷市,17-3,川岸東四丁目15,駒沢諏訪社柵,36.025582,138.0174413,
長野県,岡谷市,17-4,川岸東四丁目22-14,masked,36.0258817,138.0166255,
長野県,岡谷市,17-5,川岸東四丁目19-7,市道ガードパイプ,36.0247548,138.0181362,
長野県,岡谷市,17-6,川岸東五丁目14-7,masked,36.0176887,138.0138989,
長野県,岡谷市,18-1,川岸東二丁目8-15,天竜川護岸フェンス,36.0473635,138.029178,
長野県,岡谷市,18-2,川岸東一丁目10105-4,橋原第二公園フェンス（JR高架側）,36.050262,138.034973,緯度経度は怪しい
長野県,岡谷市,18-3,川岸東一丁目10291-1,JR沿線と鎌倉街道のT字路（市道境）,36.050262,138.034973,緯度経度は怪しい
長野県,岡谷市,18-4,川岸東一丁目8-52,天竜川護岸フェンス,36.0530255,138.0354421,
長野県,岡谷市,18-5,川岸東一丁目10366-1,橋原第一公園フェンス　天竜川側,36.050262,138.034973,緯度経度は怪しい
長野県,岡谷市,19-1,長地鎮二丁目18-5,中屋区公民館庭西側,36.0829077,138.0709656,
長野県,岡谷市,19-2,長地鎮二丁目12-32,中屋区辻ポンプ庫前　区有掲示板,36.0825108,138.0694083,
長野県,岡谷市,19-3,長地鎮一丁目8-22,masked,36.0813434,138.0704637,
長野県,岡谷市,19-4,長地鎮二丁目14,目切公園,36.0842714,138.0685708,
長野県,岡谷市,19-5,長地鎮二丁目1-3,masked,36.0833741,138.0653478,
長野県,岡谷市,19-6,長地源一丁目3-1,masked,36.0795344,138.0665929,
長野県,岡谷市,19-7,長地源一丁目4-1,長地小学校プール向い,36.0789726,138.0685223,
長野県,岡谷市,20-1,長地梨久保一丁目7,山の手橋西側の畑,36.0829326,138.0646181,
長野県,岡谷市,20-2,長地梨久保一丁目4,元中村バス停留所待合室横,36.0837199,138.0626807,
長野県,岡谷市,20-3,長地梨久保一丁目6-45,（有）ニシキ精機駐車場フェンス,36.0819752,138.0627227,
長野県,岡谷市,20-4,長地梨久保二丁目17,三島製作所入口向いの畑,36.0853291,138.0643081,
長野県,岡谷市,20-5,長地梨久保二丁目6,masked,36.0870811,138.0603558,
長野県,岡谷市,20-6,長地梨久保二丁目2-33,中村区民センター駐車場フェンス,36.0871341,138.0596584,
長野県,岡谷市,21-1,長地出早三丁目5510番地1,国道20号バイパス歩道ネットフェンス,36.0876639,138.0567912,
長野県,岡谷市,21-2,長地出早二丁目5574番地1,国道20号バイパスネットフェンス,36.0913954,138.0536917,
長野県,岡谷市,21-3,長地出早一丁目7-14,masked,36.0874743,138.0525924,
長野県,岡谷市,21-4,長地出早三丁目5234番地ノロ,横川区掲示板,36.0876639,138.0567912,
長野県,岡谷市,21-5,長地出早一丁目5152-3,横川区下の辻,36.0863696,138.052452,
長野県,岡谷市,21-6,長地小萩一丁目3-22,横河川土手ガードレール,36.082349,138.0534629,
長野県,岡谷市,21-7,長地小萩二丁目2-2,masked,36.0832928,138.0582018,
長野県,岡谷市,22-1,長地片間町二丁目3403番地,東堀区有地旧水道タンク跡地,36.0783753,138.0574111,
長野県,岡谷市,22-2,長地源一丁目3007番地,長地小学校校庭前バス停後柵,36.0792448,138.0673307,
長野県,岡谷市,22-3,長地柴宮三丁目3477番地,区有掲示板,36.0764025,138.0685708,
長野県,岡谷市,22-4,長地柴宮三丁目19-10,masked,36.0760111,138.0698057,
長野県,岡谷市,22-5,長地柴宮二丁目1-1,masked,36.0739611,138.0620801,
長野県,岡谷市,22-6,長地柴宮一丁目3470番地28,東堀柴宮館庭フェンス,36.0736879,138.0648506,
長野県,岡谷市,22-7,長地権現町四丁目7-2,masked,36.0625545,138.0704317,
長野県,岡谷市,22-8,長地柴宮一丁目19番,東堀区尼墓墓地フェンス（郷土学習館側）,36.0736982,138.0671757,
長野県,岡谷市,22-9,長地権現町二丁目1378番地1,masked,36.069296,138.0716711,
長野県,岡谷市,22-10,長地権現町二丁目862番地4,東堀コミュニティ会館前フェンス,36.069296,138.0716711,
