prefecture,city,number,address,name,lat,long,note
長野県,松本市,1-1,大手3-8-7,元川船専用駐車場南側フェンス,36.2371478,137.9698513,
長野県,松本市,1-2,大手4-2-9,辰巳の庭公園,36.2352719,137.971553,
長野県,松本市,1-3,開智2-4-51,開智小学校南側フェンス,36.2412724,137.9692134,
長野県,松本市,1-4,丸ノ内9-13,松本市役所職員用駐車場北側,36.2403343,137.9718422,
長野県,松本市,1-5,城東2-1-17,城東公園東側フェンス,36.2397464,137.975074,
長野県,松本市,1-6,北深志1-9-17,北深志児童遊園地東側金網フェンス（新町緑地東側金網フェンス）,36.2434801,137.9736552,
長野県,松本市,1-7,丸ノ内7-40,市役所東庁舎　南駐車場　金網フェンス,36.2370655,137.9720299,
長野県,松本市,1-8,丸ノ内3-7,市役所別棟西側の庭,36.2382652,137.9715056,
長野県,松本市,2-1,中央1-24-2,分銅町公園（せせらぎ公園）,36.233957,137.9652881,
長野県,松本市,2-2,中央2-1-23,中央西公園（花時計公園）,36.2316728,137.9685574,
長野県,松本市,2-3,深志1-1,松本駅前広場お城口自転車駐車場の東側道路沿いの植栽帯,36.2304791,137.9657957,
長野県,松本市,2-4,深志1-1089-1,市道２０２１号線　歩道,36.2269653,137.9666428,
長野県,松本市,2-5,中央2-10,中町駐車場（松本商工会議所）,36.233822,137.970552,
長野県,松本市,2-6,深志3-10-1,まつもと市民芸術館北側,36.2311171,137.9746039,
長野県,松本市,2-7,本庄1‐1‐36,松本駅前記念公園　北側　 　  ,36.228814,137.9677686,
長野県,松本市,2-8,深志1-2-23,松本駅前広場,36.2314538,137.9651272,
長野県,松本市,3-1,巾上8-26,長沢川沿い歩道の柵,36.2302034,137.9629009,
長野県,松本市,3-2,渚3-8-7,渚本村公民館  ,36.2277366,137.9567014,
長野県,松本市,3-3,渚3-2-7,田川公民館,36.230164,137.9554535,
長野県,松本市,3-4,渚1-6-11,松本市立田川小学校　北側フェンスの西側,36.234805,137.9569311,
長野県,松本市,3-5,渚1-1-26,松本市立田川小学校東側,36.2342618,137.9581161,
長野県,松本市,3-6,白板2-5,公共下水道渚中継ポンプ場,36.237022,137.9560431,
長野県,松本市,3-7,渚2-6-6,masked,36.2304891,137.958857,
長野県,松本市,3-8,宮渕本村5-18,宮渕本村公民館,36.2416092,137.9541021,
長野県,松本市,4-1,井川城2-6-4,上下水道局　井城流量調整所西側,36.2207366,137.9674554,
長野県,松本市,4-2,出川２－１,ダスキン南松本支店南側歩道フェンス,36.2183488,137.9708591,
長野県,松本市,4-3,鎌田1-13-28,鎌田北向観音堂西側,36.2218322,137.9623936,
長野県,松本市,4-4,高宮東5-19,㈱長野銀行高宮支店北側,36.2168839,137.9607041,
長野県,松本市,4-5,鎌田1-8-1,鎌田小学校敷地北西角のフェンス,36.2237372,137.9600741,
長野県,松本市,4-6,鎌田2-7-6,masked,36.2219942,137.9597744,
長野県,松本市,4-7,中条4-8,旧中条保育園西側,36.2269038,137.9640368,
長野県,松本市,5-1,高宮南7-40,高宮児童センター北側フェンス,36.2115827,137.9564341,
長野県,松本市,5-2,笹部4-530,月見東公園　東側フェンス,36.2145565,137.9467888,
長野県,松本市,5-3,笹部2-3-3,笹部保育園東側フェンス,36.2156444,137.949614,
長野県,松本市,5-4,石芝1-1-1,㈱ＩＨＩシバウラアグリテック松本工場フェンス西端,36.212141,137.9500789,
長野県,松本市,5-5,高宮西1-1,自衛隊松本駐屯部隊東側フェンス,36.2081497,137.9556624,
長野県,松本市,5-6,笹部4-7-13,月見町公園東側フェンス,36.2137061,137.9459281,
長野県,松本市,5-7,南原1-1053-2,南原公園南側,36.2098647,137.9480166,
長野県,松本市,5-8,高宮北11-13,高宮征矢野公園東側,36.2168529,137.9575164,
長野県,松本市,5-9,征矢野2-14,野々宮神社西側公園西側フェンス,36.2133118,137.95412,
長野県,松本市,6-1,宮田11-41,松本市開明小学校北側フェンス(児童育成クラブ周辺),36.2089256,137.9598195,
長野県,松本市,6-2,宮田11-41,松本市開明小学校西側フェンス,36.2082991,137.9582772,
長野県,松本市,6-3,宮田11-41,松本市開明小学校南側フェンス,36.2070936,137.9591891,
長野県,松本市,6-4,宮田34-1,宮田西公民館　公民館前フェンス,36.2047427,137.9582628,
長野県,松本市,6-5,野溝木工1-10-19,松本市野溝木工団地事業共同組合事務所,36.2028074,137.9568595,
長野県,松本市,6-6,宮田11-41,松本市開明小学校北側フェンス(通用門付近）,36.2090317,137.9584837,
長野県,松本市,7-1,出川町20-6,masked,36.2073477,137.9688156,
長野県,松本市,7-2,出川町16-3,masked,36.2077441,137.9711073,
長野県,松本市,7-3,出川町3-12,出川公民館前のフェンス,36.2129449,137.9732355,
長野県,松本市,7-4,出川2-11,音楽広場がっき館南駐車場,36.2165588,137.9738484,
長野県,松本市,7-5,出川2-25-35,masked,36.2148562,137.9739833,
長野県,松本市,7-6,出川町11-6,エコモリサイクルボックス南松ステーション,36.2091061,137.9704137,
長野県,松本市,8-1,本庄2-5-1,相澤病院北側フェンス,36.2273271,137.9737368,
長野県,松本市,8-2,筑摩1-8-1,松本市立筑摩小学校北側フェンス,36.2246162,137.9776591,
長野県,松本市,8-3,筑摩1-8-1,筑摩小学校校庭西側,36.2239172,137.9762911,
長野県,松本市,8-4,筑摩2-6-1,主要地方道松本塩尻線,36.2266514,137.982294,
長野県,松本市,8-5,本庄2-3-23,第二地区公民館南西角,36.2256213,137.9718373,
長野県,松本市,8-6,庄内3-6-21,ハローワーク松本東側,36.2204,137.9751953,
長野県,松本市,8-7,筑摩1-13-22,筑摩児童センター西側,36.2222689,137.9772216,
長野県,松本市,9-1,埋橋2-1-1,松本秀峰中等教育学校北西角,36.2310584,137.9790887,
長野県,松本市,9-2,県3-1-1,あがたの森文化会館,36.2311016,137.9817328,
長野県,松本市,9-3,中央4-7-26,松本市勤労者福祉センター ,36.2333156,137.9776861,
長野県,松本市,9-4,県1-1985,蚕糸記念公園　北側フェンス沿い,36.233429,137.982765,
長野県,松本市,9-5,埋橋1-9-18,東洋計器㈱東洋計量史資料館沿い東側フェンス,36.2273692,137.9792995,
長野県,松本市,9-6,中央4-2-22,松本市美術館,36.2313176,137.9767893,
長野県,松本市,9-7,県３丁目,あがたの森公園　北側生垣,36.231795,137.9845975,
長野県,松本市,10-1,清水2-8,清水小学校西門横,36.2368191,137.9836679,
長野県,松本市,10-2,清水1-1-7,小井戸微笑園　東側フェンス,36.2393127,137.9801644,
長野県,松本市,10-3,清水2-7,清水中学校正門北側,36.238375,137.9839115,
長野県,松本市,10-4,元町2-6-5,元町児童館駐車場,36.2440531,137.9815166,
長野県,松本市,10-5,女鳥羽1-6-3,masked,36.2394625,137.978041,
長野県,松本市,10-6,清水2-7,清水中学校北側フェンス,36.2390175,137.9844184,
長野県,松本市,10-7,大手5-7-1,ハミングパーク裏町　月極駐車場西側フェンス,36.2372362,137.9754436,
長野県,松本市,10-8,県2-3-10,東部児童遊園地北側フェンス ,36.2345445,137.9855149,
長野県,松本市,11-1,旭2-4-4,旭町小学校西側正門南端,36.2453996,137.9759604,
長野県,松本市,11-2,旭2-4-4,旭町小学校東門北 ,36.2457296,137.9780767,
長野県,松本市,11-3,元町3-7,松本市北部福祉複合施設ふくふくらいず,36.2507487,137.9834209,
長野県,松本市,11-4,女鳥羽2-5,女鳥羽公園    ,36.2418513,137.9788453,
長野県,松本市,11-5,元町3-6,masked,36.249666,137.9841759,
長野県,松本市,11-6,元町3-2,元町遊園地,36.2475797,137.9820646,
長野県,松本市,11-7,北深志3-669,北深志駐車場,36.2472388,137.9750469,
長野県,松本市,12-1,旭3-7-1,旭町中学校(校庭東南出入口横),36.2538221,137.9812583,
長野県,松本市,12-2,美須々753-3,美須々児童遊園地,36.2542406,137.9764276,
長野県,松本市,12-3,桐1-3-1,信州大学附属幼稚園,36.2518163,137.9769051,
長野県,松本市,12-4,桐2-4-38,松本市桐保育園,36.2520675,137.9742706,
長野県,松本市,12-5,桐1-4-58,元原町公民館,36.2488857,137.974888,
長野県,松本市,12-6,沢村2-5-20,法務省官舎北側フェンス,36.2514689,137.968355,
長野県,松本市,12-7,蟻ケ崎6-26,蟻ケ崎宿舎東遊園地,36.252371,137.9674193,
長野県,松本市,13-1,蟻ケ崎5-2,蟻ヶ崎台公園　西側,36.2523425,137.9617248,
長野県,松本市,13-2,蟻ケ崎5-2-84,蟻ヶ崎児童公園東側（土手）,36.2521202,137.9647186,
長野県,松本市,13-3,蟻ケ崎3-4-1,松本市蟻ヶ崎デイサービスセンター,36.2465234,137.9666896,
長野県,松本市,13-4,蟻ケ崎6-17-17,蟻ケ崎６丁目中央緑地南側（北区緑地）       ,36.2502266,137.9667732,
長野県,松本市,13-5,蟻ケ崎2-4-40,松本市中央図書館 ,36.2441871,137.9679374,
長野県,松本市,13-6,沢村1-9,城北地区防災緑地（沢村防災公園）,36.2459839,137.9692364,
長野県,松本市,13-7,蟻ケ崎3-4,masked,36.2467236,137.9648002,
長野県,松本市,14-1,白板1-7-33,ＪＲ北松本駅西口駐輪場内花壇,36.2372985,137.9604622,
長野県,松本市,14-2,城西1-6-17,白坂地区地域づくりセンター入口前,36.238466,137.9625516,
長野県,松本市,14-3,開智1-1-27,市営開智駐車場,36.2397672,137.9672531,
長野県,松本市,14-4,大手2-3,西堀公園,36.2348,137.9676247,
長野県,松本市,14-5,新橋3-8,masked,36.244629,137.9528939,
長野県,松本市,14-6,宮渕3-6-1,松本市立丸ノ内中学校　校庭東側,36.2423553,137.958031,
長野県,松本市,14-7,城山23-11,放光寺公民館前駐車場,36.2485825,137.9581283,
長野県,松本市,14-8,蟻ケ崎1-1-54,松本蟻ケ崎高校 ,36.2400389,137.9642868,
長野県,松本市,15-1,島内5685-3,北中公民館,36.2499342,137.9357532,
長野県,松本市,15-2,島内4970-1,松本市島内地区地域づくりセンター,36.2512263,137.9420364,
長野県,松本市,15-3,大字島内6499番地2　,北方公民館,36.2562101,137.9398646,
長野県,松本市,15-4,島内7258-4,平瀬川西公民館,36.2644556,137.9426029,
長野県,松本市,15-5,島内6049-5,島内小公園,36.2576106,137.9437788,
長野県,松本市,15-6,大字島内7258－1,青島公民館,36.2455731,137.9427876,
長野県,松本市,15-7,島内4134-18,青島公園（南側）,36.2433688,137.941807,
長野県,松本市,15-8,島内7972,上下水道局(平瀬川東)坂下加圧所,36.2713058,137.9471707,
長野県,松本市,15-9,島内3888,上下水道局島内第一水源地,36.2434397,137.9487266,
長野県,松本市,15-10,島内4351,島内公園（松本市音楽文化ホール北側）,36.2460547,137.9451217,
長野県,松本市,15-11,島内7530-1,平瀬緑地,36.2678353,137.941748,
長野県,松本市,16-1,島内205-ロ,小宮会館別館前,36.2311767,137.9199672,
長野県,松本市,16-2,島内155-2,小宮保育園  ,36.2359371,137.9255684,
長野県,松本市,16-3,島内900-24,小宮団地公園  ,36.2366632,137.9152697,
長野県,松本市,16-4,島内2082,高松本村公民館隣ゴミステーション一角,36.2445885,137.9309644,
長野県,松本市,16-5,島内1666-700,島内体育館東側,36.2524611,137.9262616,
長野県,松本市,16-6,島内1916-2,島高松公民館南側フェンス,36.2478578,137.9304695,
長野県,松本市,16-7,島内1687,島高松公園  ,36.2475786,137.9261551,
長野県,松本市,16-8,島内5400,松本市土木センター  ,36.2422857,137.9353948,
長野県,松本市,17-1,岡田下岡田632-1,masked,36.2658876,137.9568602,
長野県,松本市,17-2,島内9166-1,花咲広場,36.2819895,137.9569804,
長野県,松本市,18-1,中山1093,永田石材店石置場県道沿,36.2091216,137.9886927,
長野県,松本市,18-2,中山2478-1,masked,36.205761,138.0028398,
長野県,松本市,18-3,中山3532-1,中山児童センター西側駐車場フェンス,36.1975229,138.0023465,
長野県,松本市,18-4,中山3777-6,旧埴原北町会西部公民館,36.1941806,138.0029636,
長野県,松本市,18-5,中山3746-1,中山出張所駐車場南側植込,36.192977,138.0018038,
長野県,松本市,18-6,中山5278,尾池公民館前道路沿い,36.1852903,137.9963022,
長野県,松本市,18-7,中山台25-13,棚峯公民館前,36.180212,137.9960792,
長野県,松本市,18-8,中山5594,masked,36.1869785,138.0051273,
長野県,松本市,18-9,中山5724-1,埴原東公民館西側フェンス,36.1851337,138.0085663,
長野県,松本市,18-10,中山6497,埴原南町会公民館,36.1772328,138.005693,
長野県,松本市,18-11,中山1497-8,旧㈲技術開発設計　北側県道沿い,36.2067218,137.9949295,
長野県,松本市,19-1,島立373１-7,月見橋西交差点北側歩道フェンス（信号より西へ約５０ｍ）,36.2163789,137.9426603,
長野県,松本市,19-2,島立263-1,masked,36.2296841,137.9474427,
長野県,松本市,19-3,島立3058,大庭交差点記念碑前,36.2248653,137.9422567,
長野県,松本市,19-4,島立1993,masked,36.2279451,137.9358336,
長野県,松本市,19-5,島立2396-2,masked,36.2271003,137.9264123,
長野県,松本市,19-6,島立2895-2,秋葉神社北側,36.2223212,137.9297668,
長野県,松本市,19-7,島立3298-2,松本市島立地区地域づくりセンター北側フェンス,36.2212057,137.9414387,
長野県,松本市,19-8,島立3965-1,masked,36.217764,137.9356013,
長野県,松本市,19-9,島立4558,市道脇法面,36.2145503,137.9343911,
長野県,松本市,20-1,新村2179,新村多目的研修センター,36.2214049,137.9145977,
長野県,松本市,20-2,新村2263-7,松本市新村保育園,36.22206,137.9109949,
長野県,松本市,20-3,新村1834-6,masked,36.219242,137.9022058,
長野県,松本市,20-4,新村1257-2,松本市消防団第11分団2部１班詰所南側,36.2172287,137.8980247,
長野県,松本市,20-5,新村548,アルピコ交通㈱新村駅,36.2161861,137.9048016,
長野県,松本市,20-6,新村638,旧日信グラビア印刷工業,36.2158498,137.9136301,
長野県,松本市,20-7,新村318,masked,36.2155708,137.9186502,
長野県,松本市,20-8,新村2940,駐車場,36.2259881,137.9218143,
長野県,松本市,20-9,新村2217-5,新村地区　北新東町会公民館,36.2243173,137.9148939,
長野県,松本市,21-1,和田349-1,忠全寺北公園,36.2101493,137.9027106,
長野県,松本市,21-2,和田888,masked,36.2075146,137.9082614,
長野県,松本市,21-3,和田2684,墓地前,36.2023051,137.9102033,
長野県,松本市,21-4,和田3535-4,南和田公民館　,36.1974017,137.9087181,
長野県,松本市,21-5,和田3603,masked,36.1912986,137.9072388,
長野県,松本市,21-6,和田2240-10,松本市和田公民館,36.2027319,137.9152686,
長野県,松本市,21-7,和田8000-303,和田西原公民館,36.2089478,137.8943466,
長野県,松本市,21-8,和田2060-2,下和田公民館向かいの舞台小屋,36.2048093,137.9227923,
長野県,松本市,21-9,和田1241,masked,36.2119338,137.9238122,
長野県,松本市,22-1,神林63-1,養鶏所,36.192017,137.9195737,
長野県,松本市,22-2,神林646,masked,36.1880932,137.9111827,
長野県,松本市,22-3,神林251-1,masked,36.1874037,137.9164028,
長野県,松本市,22-4,神林2417,masked,36.1861874,137.9259115,
長野県,松本市,22-5,町神公民館,町神公民館,36.1901654,137.933391,
長野県,松本市,22-6,神林4094,梶海渡公民館,36.200785,137.9266652,
長野県,松本市,22-7,神林3502,下神公民館,36.1967547,137.9290631,
長野県,松本市,22-8,神林1525,masked,36.1912823,137.9256575,
長野県,松本市,22-9,神林1550,松本ハイランド農協神林支所倉庫北,36.1902503,137.9230972,
長野県,松本市,23-1,笹賀4205-1,上二子公民館,36.1832202,137.9397286,
長野県,松本市,23-2,笹賀3475,松本市菅野中学校,36.1786177,137.9321428,
長野県,松本市,23-3,笹賀3514,神戸公民館,36.1770106,137.9373856,
長野県,松本市,23-4,笹賀3339-2,菅野小学校,36.1765508,137.9285425,
長野県,松本市,23-5,笹賀2929-2,笹賀出張所,36.1742358,137.9356015,
長野県,松本市,23-6,空港東8960-3,柏木保育園,36.1652693,137.9324557,
長野県,松本市,23-7,笹賀1791,東耕地ゴミ収集所,36.1649318,137.9375425,
長野県,松本市,23-8,大字笹賀2078-1,小俣信号約３０ｍ北,36.1653551,137.9419991,
長野県,松本市,23-9,笹賀980,上小俣公民館 分館,36.1583453,137.9336653,
長野県,松本市,23-10,笹賀739,今公民館,36.1530481,137.9333207,
長野県,松本市,24-1,笹賀5921-1,松本市二子小学校 南西側,36.2010284,137.9412606,
長野県,松本市,24-2,笹賀下二子5808,巾下公園東側フェンス,36.2000967,137.9435122,
長野県,松本市,24-3,笹賀下二子5525-1,下二子公民館北側,36.1984795,137.9403398,
長野県,松本市,24-4,笹賀二美町7477,masked,36.1944731,137.9460199,
長野県,松本市,24-5,笹賀二美町7445,二美町一丁目ゴミステーション脇,36.1956569,137.946374,
長野県,松本市,24-6,笹賀二美町5087-23,県営二子団地Ｂ－１棟,36.195088,137.9439093,
長野県,松本市,24-7,笹賀二美町5087-80,二美南公園北側,36.1938538,137.9444608,
長野県,松本市,24-8,笹賀下二子5356,masked,36.1974539,137.9405189,
長野県,松本市,24-9,笹賀5032,リカーランド飯村跡地,36.190181,137.9406652,
長野県,松本市,24-10,笹賀4992-1,社会福祉法人アルプス認定こども園　ふたご,36.1932338,137.939235,
長野県,松本市,25-1,小屋南1-40-1,masked,36.1763792,137.9561815,
長野県,松本市,25-2,村井町南1-34-4,村井保育園,36.1755495,137.9582161,
長野県,松本市,25-3,小屋南1-12-9,小屋公園北側,36.1806455,137.9562903,
長野県,松本市,25-4,小屋南1-39-5,小屋町公民館　北側,36.1763497,137.9541406,
長野県,松本市,25-5,村井町西2-3-35,アズサイエンス㈱東側フェンスのうち北寄り,36.1754755,137.9487275,
長野県,松本市,25-6,村井町南3-4-21,村井町第一公民館入口北東側,36.1742791,137.9592042,
長野県,松本市,25-7,村井町南2-21-60,イオン㈱マックスバリュウ松本村井店,36.1765641,137.9614975,
長野県,松本市,25-8,村井町北2-11-1,筑摩野中学校 テニスコート東側フェンスうち南寄り,36.1845457,137.9669441,
長野県,松本市,25-9,村井町南4-14,若宮公園南側,36.1725406,137.9621479,
長野県,松本市,26-1,平田東1-29,県道新橋線竹渕橋西側,36.1988728,137.96858,
長野県,松本市,26-2,野溝東1-16-13,JA松本ハイランド芳川支所北部出張所,36.196086,137.9592212,
長野県,松本市,26-3,市場2-23,㈱豊炊飯,36.2005392,137.9617855,
長野県,松本市,26-4,野溝西2-7-38,野溝第2公民館前広場フェンス,36.1992177,137.9525512,
長野県,松本市,26-5,野溝東2-1-27,松本市野溝保育園,36.1974704,137.9563759,
長野県,松本市,26-6,平田東2-11-1,平田公民館　,36.1952612,137.9643114,
長野県,松本市,26-7,平田東3-10-1,松本市平田保育園,36.19381,137.9688992,
長野県,松本市,26-8,平田東3-21-1,美芳町公民館,36.1901483,137.9667004,
長野県,松本市,26-9,平田東3-29-11,ヒラタ設備南側美芳町緑地帯,36.1897871,137.9645469,
長野県,松本市,26-10,小屋北2-10-1,芳川地区地域づくりセンター,36.1889982,137.954601,
長野県,松本市,27-1,寿小赤1373,masked,36.1617779,137.9699619,
長野県,松本市,27-2,寿小赤537,masked,36.1697014,137.9725108,
長野県,松本市,27-3,寿小赤177-4,masked,36.1740991,137.9715577,
長野県,松本市,27-4,寿小赤2781,小池公園西側フェンス,36.1714855,137.9788004,
長野県,松本市,27-5,寿豊丘545,masked,36.1838389,137.9830226,
長野県,松本市,27-6,寿豊丘559-1,masked,36.1818635,137.982934,
長野県,松本市,27-7,寿白瀬渕2045,白姫公民館西側フェンス,36.184185,137.9902553,
長野県,松本市,27-8,寿豊丘1169,masked,36.186626,137.9742135,
長野県,松本市,27-9,寿豊丘1032,松本市寿児童センター西側フェンス,36.1822739,137.9718889,
長野県,松本市,27-10,寿豊丘470,松本市寿体育館駐車場 南側　,36.1818169,137.9754427,
長野県,松本市,28-1,岡田伊深223,伊深公民館,36.2840275,137.9833052,
長野県,松本市,28-2,岡田伊深677,山浦公民館,36.2838028,137.9710521,
長野県,松本市,28-3,岡田町348,岡田町公民館,36.2721045,137.9805883,
長野県,松本市,28-4,岡田下岡田73-1,東区公民館,36.2658131,137.976151,
長野県,松本市,28-5,岡田下岡田1033-4,塩原公民館,36.2654418,137.9609894,
長野県,松本市,28-6,岡田下岡田528,神沢公民館,36.2593779,137.9646547,
長野県,松本市,28-7,岡田松岡318-1,松岡公民館,36.2611308,137.9749919,
長野県,松本市,28-8,岡田町517-1,岡田出張所（消防団詰所南側フェンス),36.2679044,137.9790599,
長野県,松本市,28-9,岡田下岡田59,貸し駐車場,36.267357,137.977301,
長野県,松本市,28-10,岡田町323-1,㈲大久保鉄工所　西側道路沿い,36.2758283,137.981336,
長野県,松本市,28-11,岡田松岡519,岡田小学校西側フェンス,36.265112,137.9783335,
長野県,松本市,29-1,入山辺194,旧橋倉バス停南側,36.2252394,138.0146518,
長野県,松本市,29-2,入山辺397-2,南方公民館南側田んぼの道路沿い,36.2273965,138.0169934,
長野県,松本市,29-3,入山辺1608-1,山辺ワイナリー向かい広場南側フェンス,36.2322534,138.0176224,
長野県,松本市,29-4,入山辺1547-1,masked,36.2304753,138.0224032,
長野県,松本市,29-5,入山辺1489-1,松本市入山辺運動広場南側フェンス,36.2288329,138.0255971,
長野県,松本市,29-6,入山辺2080-1,県道松本和田線(美ケ原高原口三叉路西)沿い,36.2273251,138.0287118,
長野県,松本市,29-7,入山辺3420-1,masked,36.2245854,138.03175,
長野県,松本市,30-1,入山辺3196,masked,36.2230703,138.0371945,
長野県,松本市,30-2,入山辺2416,中村公民館　,36.2228085,138.0424125,
長野県,松本市,30-3,入山辺2551,大手橋バス停北側（県道）,36.2206705,138.041042,
長野県,松本市,30-4,入山辺4756-1,松本市入山辺地区福祉ひろば,36.2193903,138.0452871,
長野県,松本市,30-5,入山辺5292,中山沢脇（県道）,36.2184074,138.0491106,
長野県,松本市,31-1,入山辺5435,masked,36.2137774,138.0534965,
長野県,松本市,31-2,入山辺6023-3,松本森林組合車庫西側の壁前(除く入口部分),36.2101858,138.0557287,
長野県,松本市,31-3,入山辺6945-1,旧中入分校跡地前（県道沿）,36.2084909,138.0569176,
長野県,松本市,31-4,入山辺6987,羽山商店向かいの空き地(道祖神の西),36.2037367,138.061703,
長野県,松本市,31-5,入山辺8022-4,県道脇土止めブロックへの設置,36.2010147,138.0629208,
長野県,松本市,32-1,入山辺8961-1303,masked,36.20827,138.0923059,
長野県,松本市,32-2,入山辺8961-1598,三城いこいの広場センターハウスの対面駐車場入口左手のガードレール沿い（市道２２６７号線）,36.2090637,138.1025301,
長野県,松本市,33-1,里山辺4711,林公民館 東側火の見櫓の下,36.225799,137.9968992,
長野県,松本市,33-2,里山辺4640-1,masked,36.2282734,138.0015581,
長野県,松本市,33-3,里山辺2886-5,masked,36.2340922,138.0047241,
長野県,松本市,33-4,里山辺2948,一丸米穀㈱西側ブロック壁,36.2363109,138.0047581,
長野県,松本市,33-5,里山辺2551-1,masked,36.2364751,138.0111323,
長野県,松本市,33-6,里山辺2930-1,山辺学校歴史民俗資料館,36.2359989,138.0031992,
長野県,松本市,33-7,里山辺3010-1,masked,36.2365457,138.0007173,
長野県,松本市,34-1,里山辺1622-1,デリシア惣社店東側駐車場南側,36.2390415,137.992779,
長野県,松本市,34-2,里山辺3326,松本市山辺中学校 南フェンス,36.2371092,137.9936709,
長野県,松本市,34-3,里山辺3261-1,当該地南側フェンス,36.2360695,137.9989678,
長野県,松本市,34-4,里山辺3441-2,西荒町公民館前遊園地,36.2353988,137.9958142,
長野県,松本市,34-5,里山辺3917-6,子どもの遊び場北フェンス,36.2343074,137.9906372,
長野県,松本市,34-6,里山辺4056-3,北小松公民館前遊園地南フェンス,36.2321734,137.9922693,
長野県,松本市,34-7,里山辺4435-ロ,南小松公民館前 フェンス,36.2285306,137.9938361,
長野県,松本市,34-8,里山辺3326,松本市山辺中学校 東フェンス,36.2380102,137.9949556,
長野県,松本市,34-9,里山辺1332,下金井公民館,36.2429976,137.9944007,
長野県,松本市,35-1,今井580,上今井バス停横,36.1406311,137.897315,
長野県,松本市,35-2,今井939,中村公民館,36.1467499,137.9042331,
長野県,松本市,35-3,今井2231-4,松本市今井体育館,36.1529842,137.9036429,
長野県,松本市,35-4,今井2104,境新田公民館,36.1537369,137.9113459,
長野県,松本市,35-5,今井2413,西耕地公民館,36.1576535,137.9046351,
長野県,松本市,35-6,今井956-1,今井恵みの里農産物加工所,36.1493284,137.9061049,
長野県,松本市,35-7,今井3597,北耕地公民館,36.1650985,137.9107934,
長野県,松本市,35-8,今井7110-47,花村産業㈱アルミ合金工場,36.1722531,137.9261245,
長野県,松本市,35-9,今井3201,公園西公民館,36.1605863,137.9164035,
長野県,松本市,35-10,今井5952-5,masked,36.1525161,137.8935548,
長野県,松本市,36-1,内田142,masked,36.1697194,137.9850186,
長野県,松本市,36-2,内田71,梨の木公園東側,36.1708698,137.9814732,
長野県,松本市,36-3,内田398-3,masked,36.1665096,137.9877255,
長野県,松本市,36-4,内田12149-2,内田運動広場,36.1668005,137.9943408,
長野県,松本市,36-5,内田1484-6,masked,36.1641739,137.9870184,
長野県,松本市,36-6,内田1410,masked,36.164574,137.9825055,
長野県,松本市,36-7,内田2242,masked,36.1607462,137.9899147,
長野県,松本市,36-8,内田755-1,内田保育園・児童館北側,36.1700743,137.9929987,
長野県,松本市,36-9,内田2076,内田第６町会公民館,36.1584541,137.9907056,
長野県,松本市,37-1,寿台3-1-1,寿台西緑地南側フェンス,36.1752044,137.9783339,
長野県,松本市,37-2,寿台3-10-19,masked,36.1757448,137.9807,
長野県,松本市,37-3,寿台9-2,寿台9丁目寿台緑地西側 道路沿フェンス,36.174634,137.9817875,
長野県,松本市,37-4,寿台6-2-15,松本市勤労者体育センター（寿台体育館）南側フェンス,36.1757722,137.9828813,
長野県,松本市,37-5,寿台3-7,masked,36.1769222,137.981493,
長野県,松本市,37-6,寿台5-1-243,寿台公園東側フェンス     ,36.1775682,137.9862924,
長野県,松本市,38-1,洞800-1,洞公民館西横土手,36.2806797,137.9854517,
長野県,松本市,38-2,原106,旧原公民館前,36.267675,137.9827149,
長野県,松本市,38-3,水汲60-2,水汲公民館南隣接地南東歩道沿い,36.2585011,137.9812013,
長野県,松本市,38-4,浅間温泉3-23-10,浅間温泉第一町会防災用具庫前ガードレール,36.2657158,137.9898689,
長野県,松本市,38-5,浅間温泉3-9-5,masked,36.2626812,137.9926546,
長野県,松本市,38-6,浅間温泉2-6-1,松本市浅間温泉文化センター東側駐車場前,36.2630364,137.9879011,
長野県,松本市,38-7,浅間温泉2-9-5,松本市本郷小学校グランド 西側フェンス,36.2625865,137.9855352,
長野県,松本市,38-8,浅間温泉1-11-7,コーポ扇屋北棟西側フェンス,36.2585632,137.9861157,
長野県,松本市,38-9,浅間温泉1-23-4,㈲高山工業　工場西側フェンス,36.2598108,137.9849362,
長野県,松本市,39-1,三才山924-4,小日向公民館前,36.2853128,138.0104224,
長野県,松本市,39-2,三才山282,小日向橋バス停横桜の木の下あたり,36.2830558,138.0112095,
長野県,松本市,39-3,三才山1103-2,三才山公民館,36.2800514,138.0118577,
長野県,松本市,39-4,三才山1136,masked,36.2787266,138.0134335,
長野県,松本市,39-5,三才山1325,小寺尾口バス停横 ,36.2752067,138.0195454,
長野県,松本市,39-6,三才山1346,中街道バス停後方の桑畑前,36.2727526,138.0256035,
長野県,松本市,40-1,大村279-7,masked,36.2494962,137.9869551,
長野県,松本市,40-2,大村350-1,松本市北部福祉複合施設(ふくふくらいず)専用駐車場,36.2516782,137.9869142,
長野県,松本市,40-3,大村383-2,,36.2536303,137.9867134,
長野県,松本市,40-4,大村422,masked,36.2532718,137.989001,
長野県,松本市,40-5,大村102,大村公民館向かい側,36.2523916,137.9901413,
長野県,松本市,40-6,大村257,masked,36.2479539,137.9896445,
長野県,松本市,41-1,稲倉140-2,空き地道路沿い,36.2885058,137.9897022,
長野県,松本市,41-2,稲倉908,masked,36.2896621,137.9932344,
長野県,松本市,41-3,稲倉1006,稲倉公民館南側ブロック塀,36.2907227,137.9986148,
長野県,松本市,41-4,稲倉1059,ほしみ線停留所　南側付近,36.2902854,138.0005858,
長野県,松本市,42-1,浅間温泉1-6-13,矢崎医院,36.2569369,137.9859877,
長野県,松本市,42-2,南浅間511,masked,36.254292,137.9835927,
長野県,松本市,42-3,南浅間645,南浅間公民館西側女鳥羽川沿い道路,36.254136,137.9828728,
長野県,松本市,42-4,南浅間615-3,masked,36.2516957,137.9839939,
長野県,松本市,43-1,惣社359,masked,36.2447955,137.9919401,
長野県,松本市,43-2,惣社200,masked,36.2442678,137.9896104,
長野県,松本市,43-3,惣社415,惣社公民館分館南面,36.2414728,137.9919579,
長野県,松本市,43-4,惣社94-2,masked,36.2412481,137.989204,
長野県,松本市,43-5,惣社600-1,惣社公園,36.2395529,137.9895338,
長野県,松本市,44-1,横田1-26-2,上下水道局南郷第１水源地フェンス,36.2397167,137.9858083,
長野県,松本市,44-2,横田2-4-8,ツネヤさん東隣りの花壇,36.2441288,137.9842192,
長野県,松本市,44-3,横田3-13-12,masked,36.2443184,137.9855771,
長野県,松本市,44-4,横田3-11-4,masked,36.2448014,137.9848766,
長野県,松本市,44-5,横田4-25-2,本郷南幼稚園,36.2477613,137.9873663,
長野県,松本市,44-6,横田4-21,横田公園,36.2461066,137.9871756,
長野県,松本市,44-7,横田1-22-10,masked,36.2414955,137.9881599,
長野県,松本市,45-1,並柳3-9,並柳町会所有公園南側フェンス,36.2090716,137.9769045,
長野県,松本市,45-2,寿北5-1110,masked,36.1993811,137.9816559,
長野県,松本市,45-3,並柳4-5-3,並柳団地公民館  ,36.2057845,137.9825294,
長野県,松本市,45-4,並柳4-9-1,松本市並柳小学校 (校門東側フェンス),36.2072352,137.9797519,
長野県,松本市,45-5,並柳4-9-1,松本市並柳小学校 (校門西側フェンス),36.2078931,137.9794059,
長野県,松本市,45-6,並柳4-615,松本市並柳運動広場,36.2041593,137.981449,
長野県,松本市,45-7,並柳4-615,松本市並柳運動広場　北東,36.2050954,137.9814114,
長野県,松本市,46-1,征矢野1-8-28,個人所有の空き地,36.2190696,137.9559762,
長野県,松本市,46-2,両島78,松本市鎌田体育館北側,36.2237771,137.9519298,
長野県,松本市,46-3,両島21,両島公園北側（両島町会所有）,36.2219051,137.9489786,
長野県,松本市,46-4,両島1,上下水道局両島処理場北詰,36.2266706,137.9518627,
長野県,松本市,46-6,笹部3-12-25,五月町中央遊園地東側（五月町町会所有）,36.2187114,137.9480656,
長野県,松本市,46-7,征矢野1-7-3,松本年金事務所,36.2217881,137.9582266,
長野県,松本市,47-1,寿北7-6,寿田町公民館広場東側フェンス,36.1923642,137.9705816,
長野県,松本市,47-2,寿北7-17-1,ポリテクセンター松本入口南側塀,36.1900505,137.9720608,
長野県,松本市,47-3,寿北8-8-17,上瀬黒公民館防災倉庫南,36.1936302,137.9823392,
長野県,松本市,47-4,寿北7-1-11,masked,36.1959022,137.9697122,
長野県,松本市,47-5,寿北6-10-12,竹淵第２公民館北側フェンス,36.1984996,137.9729382,
長野県,松本市,47-6,寿北7-23,masked,36.1895932,137.9736052,
長野県,松本市,47-7,寿北8-22,竹原町公民館西側フェンス,36.1909384,137.9760543,
長野県,松本市,48-1,芳野13,masked,36.2045777,137.9668837,
長野県,松本市,48-2,芳野4-4,市営芳野町団地４号棟南側,36.2059322,137.9658442,
長野県,松本市,48-3,芳野7-18,国土交通省松本国道出張所北側フェンス,36.2074145,137.9634536,
長野県,松本市,48-4,双葉4-16,松本市総合社会福祉センター前歩道橋柵,36.2077204,137.9682149,
長野県,松本市,48-5,双葉10,県営双葉町第二団地　A棟東フェンス,36.2094921,137.9652177,
長野県,松本市,48-6,双葉12-63,ゴールドパック㈱フェンス,36.2107738,137.9634794,
長野県,松本市,48-7,双葉8-10,鍋林㈱松本支店フェンス     ,36.2106734,137.9655877,
長野県,松本市,48-8,南松本1-13-2,南松本保育園東側フェンス,36.2124496,137.969301,
長野県,松本市,48-9,南松本2-13,南松本２丁目集会場東フェンス     ,36.2129831,137.9684178,
長野県,松本市,49-1,神田3-2,富士電機㈱第７駐車場道路沿い,36.2198613,137.9866602,
長野県,松本市,49-2,筑摩4-11,松本工業高等学校グラウンド 南側道路沿い,36.2249169,137.9893057,
長野県,松本市,49-3,筑摩3-1,九州興業㈱　本社車庫南側フェンス（県道兎川寺鎌田線沿い）,36.2220312,137.9854958,
長野県,松本市,49-4,筑摩4-18,富士電機(株)グラウンド東側道路沿い,36.2231885,137.9922192,
長野県,松本市,49-5,神田1-5-13,masked,36.220348,137.9884954,
長野県,松本市,49-6,神田2-11,松本市開成中学校第２グラウンド北側道路沿い,36.2164154,137.9879374,
長野県,松本市,49-7,筑摩3-6,三才公園南側道路沿い,36.2210784,137.9821069,
長野県,松本市,50-1,島内3441-1,コメリ松本島内店西側フェンス,36.2396297,137.9462179,
長野県,松本市,50-2,島内3511-3,松島公民館西側出入口正面,36.23907,137.9468253,
長野県,松本市,50-3,島立721-36,蛇原東部常会ゴミステーション対面付近の河川沿い土手,36.2372705,137.9513423,
長野県,松本市,50-4,島立645,新田蛇原公民館掲示板横,36.2365961,137.9489975,
長野県,松本市,50-5,島立907-1,堀米公民館西隣アパート北側フェンス,36.2321133,137.9435577,
長野県,松本市,50-6,島立888,masked,36.2295791,137.9443434,
長野県,松本市,50-7,島立1020,県松本合同庁舎 　,36.2357264,137.9443688,
長野県,松本市,51-1,松原91,松原中央公園東側フェンス,36.1761919,137.9906947,
長野県,松本市,51-2,松原90,松原北公園南側,36.1793183,137.9884819,
長野県,松本市,51-3,松原39-1,松原地区公民館南側,36.1765473,137.9891259,
長野県,松本市,51-4,松原93,松原南公園北側,36.1742401,137.9903908,
長野県,松本市,51-5,松原76,上下水道局寿配水地西側フェンス,36.1739879,137.987798,
長野県,松本市,51-6,松原42-8,アップルランド寿店東側,36.175943,137.9874064,
長野県,松本市,52-1,石芝3-15-1,masked,36.2047402,137.9473125,
長野県,松本市,52-2,野溝西1-7-7,長野県工業技術総合センター（長野県工業試験場松本駐在事務所）,36.2036311,137.9539377,
長野県,松本市,52-3,石芝3-3-20,松本市信明中学校南フェンス,36.2046839,137.9513173,
長野県,松本市,52-4,野溝1-8-28,個人管理の畑,36.2020786,137.9525558,
長野県,松本市,52-5,南原2-14,県営笹部弥生団地Ｃ棟南側フェンス,36.2073373,137.94411,
長野県,松本市,53-1,穴沢482,消防団第２７分団穴沢器具置場前,36.3285882,138.0086512,
長野県,松本市,53-2,取出719,雷神社付近国道143号歩道柵,36.3381831,137.9958807,
長野県,松本市,53-3,取出962,保福寺橋北側市道板場船歩道柵,36.340325,137.9903048,
長野県,松本市,53-4,板場213,板場諏訪神社隣のゲートボール場の土手,36.3433884,137.9870075,
長野県,松本市,53-5,板場18,板場第1事務所北側,36.3351532,137.990273,
長野県,松本市,53-6,会田356-2,,36.3601792,137.9948187,
長野県,松本市,53-7,会田502,masked,36.35259680750058,137.9902018402511,
長野県,松本市,53-8,会田691,四賀体育館駐車場,36.3515908,137.995935,
長野県,松本市,53-9,会田1001-1,四賀支所駐車場,36.3489441,137.9923006,
長野県,松本市,54-1,反町549-2,反町公民館,36.3272159,137.9896527,
長野県,松本市,54-2,反町756,masked,36.3268343,137.9933134,
長野県,松本市,54-3,刈谷原町425,公園前停留所,36.3177389,137.9907092,
長野県,松本市,54-4,刈谷原町613,四賀福寿荘,36.3184571,137.995709,
長野県,松本市,54-5,七嵐277-1,錦部バス停横,36.3162547,138.0000896,
長野県,松本市,54-6,赤怒田469,個人所有 田んぼのあぜ,36.3160282,138.0138397,
長野県,松本市,54-7,殿野入270-1,殿野入多目的集会施設,36.3147754,138.0216615,
長野県,松本市,54-8,保福寺町190,寺前橋南,36.3126009,138.0316599,
長野県,松本市,54-9,七嵐64-16,七嵐区多目的集会施設下法面,36.3155119,138.0021481,
長野県,松本市,55-1,中川9-4,四賀社会就労センター,36.3502728,137.9977813,
長野県,松本市,55-2,中川1016-5,両瀬第２公民館東側,36.3532165,138.0135823,
長野県,松本市,55-3,中川3055-4,原山多目的集会施設　県道敷　（県道会田西条停車場線）,36.3620423,138.0263854,
長野県,松本市,55-4,中川4768-1,横川公民館,36.3573931,138.0358725,
長野県,松本市,55-5,中川3841,会吉停留所横,36.3725607,138.052486,
長野県,松本市,55-6,中川5880,消防団矢久器具置場外,36.3442851,138.0293199,
長野県,松本市,55-7,中川7073-1,四賀東簡易郵便局(赤松館跡地),36.3519328,138.0158038,
長野県,松本市,55-8,中川7781-1,国道１４３号線歩道柵,36.3473287,138.0028342,
長野県,松本市,55-9,取出1272,会田停留所横　国道１４３号線歩道柵,36.3442207,137.9967224,
長野県,松本市,56-1,五常4555,masked,36.3539176,137.9814765,
長野県,松本市,56-2,五常4875-1,masked,36.3523105,137.9757822,
長野県,松本市,56-3,五常6391,旧五常小学校,36.350951,137.9709535,
長野県,松本市,56-4,五常6877-1,個人所有の畑,36.3466786,137.9654244,
長野県,松本市,56-5,五常7250-3,県道矢室明科線歩道柵,36.342835,137.9607013,
長野県,松本市,56-6,五常7281‐1,内川工務店前 畑ブロック塀,36.3438867,137.9555769,
長野県,松本市,56-7,五常7724-2,片山橋三差路 付近,36.3413122,137.9617425,
長野県,松本市,56-8,五常8102,執田光公民館,36.333715,137.9592924,
長野県,松本市,57-1,安曇37-1,大野田遊園地前柵,36.1843196,137.8017807,
長野県,松本市,57-2,安曇171-1,保健福祉センター前柵,36.1837238,137.801069,
長野県,松本市,57-3,安曇591-7,国道158号歩道敷（591-7）及び民地（591-5）,36.1821144,137.796887,
長野県,松本市,57-4,安曇126-2,ベルハイツ大野田前柵,36.182533,137.7975611,
長野県,松本市,57-5,安曇614-8,masked,36.18349189365844,137.79269174907344,
長野県,松本市,57-6,安曇745-1,安曇島々農産物加工販売施設前の歩道,36.18419840039654,137.78575356908235,
長野県,松本市,57-7,安曇730,安曇支所前国道158号歩道フェンス,36.1829341,137.7858513,
長野県,松本市,57-8,安曇742-8,橋場地区入口フェンス,36.1819135,137.7850562,
長野県,松本市,57-9,安曇1759,市道のガードロープ,36.1803155,137.78406,
長野県,松本市,58-1,安曇2048,国道158号 ガードレールの外側の道路敷,36.1691158,137.7731757,
長野県,松本市,58-2,安曇2574,ブロック塀,36.1620159,137.761988,
長野県,松本市,58-3,安曇2613-1,ブロック塀,36.1612581,137.7618953,
長野県,松本市,58-4,安曇2780-1,石塀,36.1605617,137.7605685,
長野県,松本市,58-5,安曇3325-2,masked,36.1567951,137.7555046,
長野県,松本市,59-1,安曇3788-2,中平消防器具置場横,36.1370847,137.6713144,
長野県,松本市,59-2,安曇4855-12,masked,36.1314809,137.6649207,
長野県,松本市,59-3,安曇4855-74,塩カル散布車車庫西側壁面,36.1304119,137.6613402,
長野県,松本市,59-4,安曇3992-1,大野川町会事務所前掲示板,36.1261413,137.6560207,
長野県,松本市,59-5,安曇3986-4,筒木商店前,36.1242774,137.6533332,
長野県,松本市,59-6,安曇4017-4,乗鞍体育館前,36.1241471,137.645521,
長野県,松本市,59-7,安曇4021-3,千石平バス待合所横,36.1251434,137.6483925,
長野県,松本市,59-8,安曇4085-8,楢の木バス停留所横,36.1240943,137.6401643,
長野県,松本市,59-9,安曇4237-10,楢の木坂,36.1230482,137.6357953,
長野県,松本市,59-10,安曇4306-1,番所水源地前(フェンス),36.1234768,137.6231819,
長野県,松本市,59-11,安曇4258-3,ヴィラのりくら横,36.123867,137.61926,
長野県,松本市,59-12,安曇4306-3,鈴蘭駐車場横掲示板,36.1216536,137.6238685,
長野県,松本市,60-1,安曇4144-17,市営岩見平駐車場,36.1695141,137.6485033,
長野県,松本市,60-2,安曇4144-44,,36.1639127,137.6539103,
長野県,松本市,60-3,安曇4161-10,沢渡足湯前,36.1649526,137.6534463,
長野県,松本市,60-4,安曇4171-1,masked,36.1683875,137.6508258,
長野県,松本市,60-5,安曇4201,県道白骨温泉線　白骨バス停留所の道向こうのフェンス,36.1519247,137.6275714,
長野県,松本市,60-6,安曇4155-4,masked,36.1636596,137.6590967,
長野県,松本市,61-1,奈川125-1,川浦町会公会堂前（畑）,36.0420288,137.6473482,
長野県,松本市,61-2,奈川429-1,保平町会公会堂前,36.0459518,137.6700066,
長野県,松本市,61-3,奈川701-2,神谷町会公会堂前,36.0500674,137.6810473,
長野県,松本市,61-4,奈川1243-19,寄合渡町会公会堂横駐車場,36.052282,137.6893798,
長野県,松本市,61-5,奈川1173-159,奈川高原「ロッジ野麦の里」下分岐点,36.0467788,137.706327,
長野県,松本市,61-6,奈川1523-1,曽倉町会公会堂前　駐車場東側壁,36.0586832,137.6883766,
長野県,松本市,62-1,奈川1888-2,松本市営バス追平停留所前フェンス,36.0680553,137.6857571,
長野県,松本市,62-2,奈川1977-イ,松本市営バス金原停留所横,36.0734046,137.684936,
長野県,松本市,62-3,奈川2735,屋形原小黒川橋停留所横,36.0850947,137.665491,
長野県,松本市,62-4,奈川3048,駒ヶ原車旋回所,36.0910586,137.6585377,
長野県,松本市,62-5,奈川2356-6,墓地前,36.0876821,137.6801441,
長野県,松本市,62-6,奈川2494-13,黒川渡渚ノ尻橋先市道,36.0882813,137.6791789,
長野県,松本市,62-7,奈川2126-1,小原公園駐車場前（奈川小学校入口）,36.0850342,137.6820577,
長野県,松本市,62-8,奈川3405-1,古宿町会公会堂前,36.0907096,137.6845868,
長野県,松本市,62-9,奈川4083-3,田ノ萱町会公会堂横（公園前フェンス）,36.1040142,137.6904469,
長野県,松本市,62-10,奈川5130-9,入山町会公会堂横,36.1290665,137.7191658,
長野県,松本市,63-1,梓川上野904,八景山公民館フェンス,36.1925062,137.8205269,
長野県,松本市,63-2,梓川上野677,masked,36.1983707,137.8276737,
長野県,松本市,63-3,梓川上野648-4,花見公園フェンス,36.1999195,137.8306873,
長野県,松本市,63-4,梓川上野290-2,masked,36.2069088,137.8392406,
長野県,松本市,63-5,梓川上野2102,masked,36.2120793,137.8384491,
長野県,松本市,63-6,梓川上野2268-3,市道のガードケーブル,36.209955,137.8409732,
長野県,松本市,63-7,梓川上野1856,寺家公民館フェンス,36.2072996,137.8363035,
長野県,松本市,64-1,梓川梓2989,丸田公民館入口フェンス横,36.211908,137.8505406,
長野県,松本市,64-2,梓川梓3072-36,masked,36.211444,137.857103,
長野県,松本市,64-3,梓川梓2500-2,農協集荷所フェンス,36.2214629,137.8627531,
長野県,松本市,64-4,梓川梓1435-5,市道梓川１０８号線沿い転落防止柵,36.2185762,137.8709298,
長野県,松本市,64-5,梓川梓2288-1,梓川支所前駐車場,36.2243865,137.8676533,
長野県,松本市,64-6,梓川梓1041-1,市道梓川１級９号線沿い転落防止柵,36.2257896,137.8681957,
長野県,松本市,64-7,梓川梓755-6,小学校前バス停横,36.2274861,137.8727125,
長野県,松本市,64-8,梓川梓800-2,梓川中学校前,36.2299058,137.8769101,
長野県,松本市,64-9,梓川梓393,下角農村公園フェンス,36.2327849,137.8756687,
長野県,松本市,64-10,梓川梓1191,上大妻集落センター前掲示板,36.2248919,137.8811028,
長野県,松本市,65-1,梓川梓7123-10,県道道路敷地,36.2428273,137.8339442,
長野県,松本市,65-2,梓川梓7087-3,旧小北流量計室フェンス,36.240289,137.8355715,
長野県,松本市,65-3,梓川梓6779-2,小室公民館前掲示板,36.2385897,137.8404516,
長野県,松本市,65-4,梓川梓4420-3,masked,36.2310403,137.8464847,
長野県,松本市,65-5,梓川梓4496-5,北々条集落センター東側フェンス　,36.2293539,137.8463297,
長野県,松本市,65-6,梓川梓4170,南北条集落センターフェンス（東側）,36.2229357,137.8483305,
長野県,松本市,65-7,梓川梓3580-1,大久保集落センターフェンス,36.2155353,137.8466551,
長野県,松本市,65-8,梓川梓2764-4,大久保坂ポケットパーク,36.2151763,137.851156,
長野県,松本市,66-1,梓川倭231-2,北大妻集落センター前,36.2339717,137.8821735,
長野県,松本市,66-2,梓川倭517-3,梓運輸㈱フェンス,36.232724,137.8880369,
長野県,松本市,66-3,梓川倭1237-2,南大妻集落センター物置,36.2285556,137.8874634,
長野県,松本市,66-4,梓川倭566-7,やまと公園西側フェンス,36.2335118,137.891586,
長野県,松本市,66-5,梓川倭2105-4,横沢霊園,36.2417687,137.8915919,
長野県,松本市,66-6,梓川倭2157,横沢集落センターフェンス,36.238573,137.8941444,
長野県,松本市,66-7,梓川倭2806-11,氷室農村公園フェンス,36.2416076,137.903689,
長野県,松本市,66-8,梓川倭2596-9,梓川倭2403-1の田の南東側水路敷,36.2381278,137.899985,
長野県,松本市,66-9,梓川倭3506-1,岩岡振興センター軒下,36.2346338,137.9021162,
長野県,松本市,67ｰ1,里山辺1446-イ,新井公民館,36.2418253,137.9978445,
長野県,松本市,67-2,里山辺1508-1,masked,36.2409284,137.9990772,
長野県,松本市,67-3,里山辺1434-1,松本広域連合本郷消防署山辺出張所西側フェンス,36.2417585,137.9957867,
長野県,松本市,67-4,里山辺1469,masked,36.2427856,137.9990919,
長野県,松本市,67-5,里山辺1065-9,個人所有の田,36.2420983,138.0019702,
長野県,松本市,67-6,里山辺87-1,ガードレールには固定させず、自立（松建指示）,36.2457612,137.9990105,
長野県,松本市,67-7,里山辺879,藤井町会船倉前公園北側,36.2440035,138.0064264,
長野県,松本市,68-1,波田1745-１,masked,36.2136444,137.8901751,
長野県,松本市,68-2,波田1415-2,masked,36.2116765,137.8902053,
長野県,松本市,68-3,波田1400-2,masked,36.2117771,137.8919338,
長野県,松本市,68-4,波田1434-7,個人所有地,36.2099775,137.8900612,
長野県,松本市,68-5,波田9214,masked,36.1967026,137.8849453,
長野県,松本市,68-6,波田1839-1,masked,36.2106819,137.8849678,
長野県,松本市,68-7,波田4417-165,森口公園国道側花壇内,36.2083129,137.8798098,
長野県,松本市,69-1,波田1880-1,masked,36.2099992,137.8823207,
長野県,松本市,69-2,波田297,masked,36.2131132,137.8816103,
長野県,松本市,69-3,波田450,masked,36.2127584,137.8779729,
長野県,松本市,69-4,波田397-9,クモイエージェンシー　作業所西側,36.2104234,137.8745329,
長野県,松本市,69-5,波田714,masked,36.2089951,137.8713423,
長野県,松本市,69-6,波田9975-3,masked,36.2078178,137.8716802,
長野県,松本市,69-7,波田10000,長野県梓川高等学校正門西側フェンス,36.2059306,137.8697705,
長野県,松本市,70-1,波田2181,主要地方道塩尻鍋割穂高線　日本アルプスサラダ街道　ガードレール北側,36.2056537,137.8580923,
長野県,松本市,70-2,波田4417-178,波田中央運動広場の北側フェンス,36.2000841,137.8568581,
長野県,松本市,70-3,波田10116-2,masked,36.2003553,137.8517838,
長野県,松本市,70-4,波田10301-1,波田市有林先枠内,36.2030434,137.8607585,
長野県,松本市,70-5,波田9769-6,masked,36.1966183,137.8520588,
長野県,松本市,70-6,波田9799-1,昭和町商栄会駐車場南側塀,36.1963553,137.8546108,
長野県,松本市,70-7,波田4983,10区ゴミステーション　フェンス,36.1930175,137.8527669,
長野県,松本市,71-1,波田6468,masked,36.1905325,137.855067,
長野県,松本市,71-2,波田6252-2,masked,36.1870397,137.8559478,
長野県,松本市,71-3,波田6279,masked,36.1851983,137.8533771,
長野県,松本市,71-4,波田8501-1,恋人の丘サラダマーケットWC,36.182029,137.8615792,
長野県,松本市,71-5,波田5110,masked,36.1920163,137.8530914,
長野県,松本市,71-6,波田5052-2,masked,36.1918864,137.8483747,
長野県,松本市,71-7,波田4665,波田4665空家北側塀,36.1933572,137.8460185,
長野県,松本市,71-8,波田4616,masked,36.1920087,137.8430452,
長野県,松本市,71-9,波田10735-1-A,第21区町会ゴミステーション前道路東空地（防火水槽前）,36.1745835,137.848258,
長野県,松本市,72-1,波田5260,masked,36.1943832,137.8564024,
長野県,松本市,72-2,波田6449,masked,36.1920686,137.8576257,
長野県,松本市,72-3,波田6803,masked,36.1920175,137.8614774,
長野県,松本市,72-4,波田4417-9,波田学院グランド角のﾌｪﾝｽ,36.2031327,137.8677077,
長野県,松本市,72-5,波田5712-248,北原西公園フェンス（東側）,36.1968185,137.8611235,
長野県,松本市,72-6,波田1521-15,masked,36.2062338,137.8768733,
長野県,松本市,72-7,波田5712-250,北原北公園フェンス（東側）,36.19839,137.8615043,
長野県,松本市,72-8,波田5712-251,北原東公園フェンス（南側）,36.1971454,137.8649242,
長野県,松本市,73-1,波田4324,masked,36.1966519,137.8399071,
長野県,松本市,73-2,波田10264,筒木土木㈱国道沿いのフェンス,36.1987045,137.8462095,
長野県,松本市,73-3,波田10195-2,東京電力ホールディングス㈱リニューアブルパワー・カンパニー松本事業所南側ﾌｪﾝｽ,36.1985963,137.8496105,
長野県,松本市,73-4,波田10239-3,筒木土木㈱資材置場前,36.1974646,137.8459312,
長野県,松本市,73-5,波田3028,昭和電工㈱赤松発電所北側フェンス,36.1905282,137.8229179,
長野県,松本市,73-6,波田3829-1,masked,36.1919734,137.8289758,
長野県,松本市,73-7,波田3158,masked,36.1887379,137.8167541,
長野県,松本市,73-8,波田3269-1,masked,36.1860471,137.8094533,
長野県,松本市,73-9,波田3458-2,竜島温泉駐車場南側,36.1827044,137.7893956,
長野県,松本市,46-5,両島7-3,十和田工業道路フェンス,36.2224444,137.9532926,
