prefecture,city,number,address,name,lat,long,note
長野県,箕輪町,1,大字中箕輪 1740-1 番地,沢 公民館前 東側,35.9377839,137.9828136,緯度経度は怪しい
長野県,箕輪町,2,大字中箕輪 460-1 番地,げんきセンター北側フェンス,35.9358495,137.9844266,緯度経度は怪しい
長野県,箕輪町,3,大字中箕輪 601 番地,沢宮通り 沢駅東踏切横フェンス,35.9359781,137.9858592,緯度経度は怪しい
長野県,箕輪町,4,大字中箕輪 52-1 番地,沢北部集会所南側,35.9138891,137.9857337,緯度経度は怪しい
長野県,箕輪町,5,大字中箕輪 694-1 番地,masked,35.9353615,137.9881122,緯度経度は怪しい
長野県,箕輪町,6,大字中箕輪 1723 番地,沢上 国道バイパス入口ポケットパーク,35.9138891,137.9857337,緯度経度は怪しい
長野県,箕輪町,7,大字中箕輪 1935-3 番地,masked,35.9420678,137.9696734,
長野県,箕輪町,8,大字中箕輪 1536 番地,沢上ミスズ工業(株)西側フェンス,35.911226,137.969993,緯度経度は怪しい
長野県,箕輪町,9,大字中箕輪 1176-1 番地,masked,35.9384284,137.973207,緯度経度は怪しい
長野県,箕輪町,10,大字中箕輪 2050 番地,長田 温泉スタンド駐車場東側フェンス,35.9138891,137.9857337,緯度経度は怪しい
長野県,箕輪町,11,大字中箕輪 2134-34 番地,長田 県道沿 みどりの少年団の森入口擁壁,35.9396248,137.9632581,緯度経度は怪しい
長野県,箕輪町,12,大字中箕輪 2134-1133 番地,長田 山口集会所南側フェンス,35.9375452,137.9613568,緯度経度は怪しい
長野県,箕輪町,13,大字中箕輪 5232-26 番地,masked,35.9138891,137.9857337,緯度経度は怪しい
長野県,箕輪町,14,大字中箕輪 3730-696 番地,大出 町道3号線西県道交差点南ガードレール,35.9351772,137.9586831,緯度経度は怪しい
長野県,箕輪町,15,大字中箕輪 3730-334 番地,大出 (株)板倉前フェンス,35.9363678,137.9600105,
長野県,箕輪町,16,大字中箕輪 2971 番地,masked,35.9303787,137.9787446,緯度経度は怪しい
長野県,箕輪町,17,大字中箕輪 2958-1 番地,大出 大永寺前バス停南ブロック塀,35.9280704,137.9805261,緯度経度は怪しい
長野県,箕輪町,18,大字中箕輪 3011-1 番地,大出 ベルシャインニシザワ伊北店北側フェンス,35.9323449,137.9779654,
長野県,箕輪町,19,大字中箕輪 2137-1 番地,大出 コミュニティセンター東側フェンス,35.9138891,137.9857337,緯度経度は怪しい
長野県,箕輪町,20,大字中箕輪 3162-5 番地,ハートホーム箕輪フェンス南側,35.9315771,137.9703255,緯度経度は怪しい
長野県,箕輪町,21,大字中箕輪 2973-2 番地,masked,35.9332574,137.9787005,緯度経度は怪しい
長野県,箕輪町,22,大字中箕輪 4220先 番地,八乙女 箕輪町北西部多目的センター前,35.93061120000001,137.9636557,緯度経度は怪しい
長野県,箕輪町,23,大字中箕輪 3762-1 番地,八乙女 介護拠点施設 五輪館前フェンス,35.93023,137.961798,緯度経度は怪しい
長野県,箕輪町,24,大字中箕輪 3525-24 番地,大出 大出水道配水池西側フェンス,35.9327916,137.9671651,緯度経度は怪しい
長野県,箕輪町,25,大字中箕輪 4279-50 番地,八乙女 加賀山精機東側畑北向き,35.9332603,137.9614886,緯度経度は怪しい
長野県,箕輪町,26,大字中箕輪 4928先 番地,下古田 バス停留所北県道沿防火水槽西側ガードパイプ,35.9138891,137.9857337,緯度経度は怪しい
長野県,箕輪町,27,大字中箕輪 4846-1 番地,masked,35.9324127,137.9539241,緯度経度は怪しい
長野県,箕輪町,28,大字中箕輪 4863 番地,下古田 旧下古田公民館東三差路東,35.9338634,137.9524183,緯度経度は怪しい
長野県,箕輪町,29,大字中箕輪 7407-390 番地,上古田 五斗山団地遊園地,35.9191591,137.9527518,緯度経度は怪しい
長野県,箕輪町,30,大字中箕輪 6034 番地,masked,35.9215305,137.9444281,緯度経度は怪しい
長野県,箕輪町,31,大字中箕輪 7012-7 番地,masked,35.919817,137.9464227,緯度経度は怪しい
長野県,箕輪町,32,大字中箕輪 6401-2 番地,上古田 転作研修センター北つつみ土手,35.9138891,137.9857337,緯度経度は怪しい
長野県,箕輪町,33,大字中箕輪 6032-1 番地,上古田旧公民館前 火の見やぐら東,35.9225658,137.9415672,緯度経度は怪しい
長野県,箕輪町,34,大字中箕輪 10500-216 番地,中原 中央道高速バス箕輪停留所駐車場フェンス,35.9166427,137.9629998,緯度経度は怪しい
長野県,箕輪町,35,大字中箕輪 7418 番地,masked,35.9174869,137.9585529,緯度経度は怪しい
長野県,箕輪町,36,大字中箕輪 7631 番地,中原公民館東 火の見北側道路沿,35.9138891,137.9857337,緯度経度は怪しい
長野県,箕輪町,37,大字中箕輪 8622-1 番地 松島,松島 KOA株式会社北側入口フェンス,35.9160297,137.9925913,緯度経度は怪しい
長野県,箕輪町,38,大字中箕輪 8375-12 番地 松島,masked,35.9144403,137.9910287,緯度経度は怪しい
長野県,箕輪町,39,大字中箕輪 8336-22 番地 松島,松島日の出新町1 27ごみステーション 北側,35.9152895,137.9896697,緯度経度は怪しい
長野県,箕輪町,40,大字中箕輪 8759 番地 松島,いきいきセンター「サンライズ」南側フェンス,35.9120704,137.9900845,緯度経度は怪しい
長野県,箕輪町,41,大字中箕輪 9252 番地 松島,masked,35.9093769,137.9911824,緯度経度は怪しい
長野県,箕輪町,42,大字中箕輪 9023 番地 松島,松島 イオン箕輪店東側ガードパイプ,35.9158246,137.9843663,緯度経度は怪しい
長野県,箕輪町,43,大字中箕輪 9025 番地 松島,松島 イオン箕輪店北側フェンス,35.9099942,137.9925623,
長野県,箕輪町,44,大字中箕輪 7964-1先 番地 松島,松島東町2 防災無線近くのガードパイプ北寄り,35.9215557,137.9900953,緯度経度は怪しい
長野県,箕輪町,45,大字中箕輪 9945-2 番地 松島,松島北町 旭松食品（株）駐車場西側フェンス,35.9175839,137.9879783,緯度経度は怪しい
長野県,箕輪町,46,大字中箕輪 9828 番地 松島,masked,35.9164768,137.9857728,
長野県,箕輪町,47,大字中箕輪 8487-1 番地 松島,松島仲町1 松島駅入口北東フェンス,35.9150046,137.9867911,緯度経度は怪しい
長野県,箕輪町,48,大字中箕輪 8440 番地 松島,松島コミュニティセンター東側,35.9137886,137.9845946,緯度経度は怪しい
長野県,箕輪町,49,大字中箕輪 10298 番地 松島,松島 博物館下ガードフェンス,35.9150595,137.98192,
長野県,箕輪町,50,大字中箕輪 9623-1 番地 松島,松島通り町バス停東側ガードパイプ,35.9115091,137.9863419,緯度経度は怪しい
長野県,箕輪町,51,大字中箕輪 9690-1 番地 松島,松島 垣外児童遊園南側フェンス,35.9138891,137.9857337,緯度経度は怪しい
長野県,箕輪町,52,大字中箕輪 8479 番地 松島,伊那松島駅 駅前ロータリー西側ガードパイプ,35.9150795,137.9849144,緯度経度は怪しい
長野県,箕輪町,53,大字中箕輪 9717-1 番地 松島,松島南町1 信号機東南,35.9089524,137.9854423,緯度経度は怪しい
長野県,箕輪町,54,大字中箕輪 10275-2 番地 松島,松島 松島保育園南側フェンス,35.9144805,137.9792131,緯度経度は怪しい
長野県,箕輪町,55,大字中箕輪 10887-3 番地 松島,松島春日町 信号機交差点の北東,35.9157099,137.9725348,緯度経度は怪しい
長野県,箕輪町,56,大字中箕輪 8550-2 番地 松島,松島 北1追分公園北側フェンス,35.9223689,137.983943,緯度経度は怪しい
長野県,箕輪町,57,大字中箕輪 10460 番地 松島,松島 セイコーエプソン(株)伊那事業所グランド北側フェンス,35.9203257,137.9797604,緯度経度は怪しい
長野県,箕輪町,58,大字中箕輪 11045-4 番地 松島,松島北3 中部電力松島変電所東側,35.9219103,137.9744199,緯度経度は怪しい
長野県,箕輪町,59,大字中箕輪 13061-2 番地 木下,木下上町 児童公園北側フェンス,35.9138891,137.9857337,緯度経度は怪しい
長野県,箕輪町,60,大字中箕輪 13093-1 番地 木下,木下 箕輪町スイミングプール北側駐車場,35.9138891,137.9857337,緯度経度は怪しい
長野県,箕輪町,61,大字中箕輪 12855-3先 番地 木下,木下島田屋酒店前ポケットパーク,35.9138891,137.9857337,緯度経度は怪しい
長野県,箕輪町,62,大字中箕輪 12680 番地 木下,木下上ノ段 養泰寺北側フェンス,35.9007748,137.98266,緯度経度は怪しい
長野県,箕輪町,63,大字中箕輪 13910 番地 木下,木下南城 南城団地入口東側林地,35.9027214,137.9857989,緯度経度は怪しい
長野県,箕輪町,64,大字中箕輪 13333-1 番地 木下,木下保育園東側,35.9023144,137.9777681,緯度経度は怪しい
長野県,箕輪町,65,大字中箕輪 12500-1 番地 木下,木下 南宮神社西側柵,35.9012619,137.985992,緯度経度は怪しい
長野県,箕輪町,66,大字中箕輪 13809-2 番地 木下,木下原 西天竜幹線水路フェンス,35.9017238,137.9687084,緯度経度は怪しい
長野県,箕輪町,67,大字中箕輪 13797-2 番地 木下,木下原 春日街道信号機交差点西側フェンス,35.904373,137.9701133,緯度経度は怪しい
長野県,箕輪町,68,大字中箕輪 12246 番地 木下,木下中条 nuitec 西側フェンス,35.90628470000001,137.9900373,緯度経度は怪しい
長野県,箕輪町,69,大字中箕輪 12082先 番地 木下,masked,35.90312249999999,137.9868929,緯度経度は怪しい
長野県,箕輪町,70,大字中箕輪 12309 番地 木下,木下 木下北保育所西側フェンス,35.9058199,137.9875487,緯度経度は怪しい
長野県,箕輪町,71,大字中箕輪 11945-8 番地 木下,木下駅北側西向き柵,35.9005403,137.9875627,緯度経度は怪しい
長野県,箕輪町,72,大字中箕輪 11894-3 番地 木下,木下南部 国道153号線・箕輪バイパス三叉路信号西側,35.9138891,137.9857337,緯度経度は怪しい
長野県,箕輪町,73,大字中箕輪11526番地,木下南新町 栄通信工業(株)北側ガードレール,35.9138891,137.9857337,緯度経度は怪しい
長野県,箕輪町,74,大字中箕輪11393-1番地,木下区公民館東側ガードパイプ,35.9004893,137.9917013,緯度経度は怪しい
長野県,箕輪町,75,大字中箕輪11338-1先番地,すき家箕輪BP店東ガードパイプ,35.9017132,137.9923011,
長野県,箕輪町,76,大字中箕輪16091-1番地,木下一の宮 西県道交差点西北,35.9138891,137.9857337,緯度経度は怪しい
長野県,箕輪町,77,大字中箕輪16206番地,木下一の宮 一の宮公民館西側土手,35.9145043,137.9450662,緯度経度は怪しい
長野県,箕輪町,78,大字中箕輪14613-405番地,木下一の宮 長野リズム(株)竜水工場土手,35.9127468,137.9560533,緯度経度は怪しい
長野県,箕輪町,79,大字中箕輪14747-2番地,masked,35.9138891,137.9857337,緯度経度は怪しい
長野県,箕輪町,80,大字中箕輪15489番地,masked,35.9138891,137.9857337,緯度経度は怪しい
長野県,箕輪町,81,大字中箕輪15789-1番地,富田 富田公民館西 公園東側土手,35.9138891,137.9857337,緯度経度は怪しい
長野県,箕輪町,82,大字中曽根108番地,masked,35.9058831,137.9467992,緯度経度は怪しい
長野県,箕輪町,83,大字中曽根14382番地,masked,35.90641,137.9488701,
長野県,箕輪町,84,大字中曽根1番地,masked,35.9062435,137.9439118,
長野県,箕輪町,85,大字三日町1883-1番地,masked,35.9025348,137.9970998,
長野県,箕輪町,86,大字三日町1617-2番地,三日町公民館入口西側,35.8996202,137.9965774,
長野県,箕輪町,87,大字三日町1918-10番地,上町北 明神橋北 ごみステーション南,35.9051441,137.9968676,緯度経度は怪しい
長野県,箕輪町,88,大字三日町1540番地,下町北部 県道沿い郵便局東南 向い側,35.9005848,137.9972721,緯度経度は怪しい
長野県,箕輪町,89,大字三日町1502番地,南小学校道路西側ガードパイプ,35.9005848,137.9972721,緯度経度は怪しい
長野県,箕輪町,90,大字三日町289-1番地,上棚集会所前道路北側,35.9035612,138.0018877,緯度経度は怪しい
長野県,箕輪町,91,大字三日町135-1番地,上棚 康申塔横道路南側ガードレール,35.902186,138.002877,
長野県,箕輪町,92,大字福与1923-1番地,鹿垣消防器具置場南防火水槽奥側,35.8963551,138.004531,緯度経度は怪しい
長野県,箕輪町,93,大字福与1428-3番地,中村 JA箕輪町Aコープ 福与店舗西側フェンス,35.8915861,138.0050826,緯度経度は怪しい
長野県,箕輪町,94,大字福与1256-1番地,判の木集会所南,35.8913366,138.0027505,
長野県,箕輪町,95,大字福与528番地,福与公民館東 福与配水池北側,35.8879066,138.0053439,
長野県,箕輪町,96,大字福与1837番地,福与北沢団地入口案内図看板下,35.8981911,138.0010088,
長野県,箕輪町,97,大字福与1049番地,梨の木団地入口三つ角ガードレール,35.88932320000001,138.0059825,緯度経度は怪しい
長野県,箕輪町,98,大字福与235-1番地,卯の木公民館前県道沿フェンス,35.8808582,137.9947444,
長野県,箕輪町,99,大字東箕輪897-1番地,masked,35.9251048,137.9978025,緯度経度は怪しい
長野県,箕輪町,100,大字東箕輪422-1番地,長岡石仏上 石仏集会所北側,35.9259708,138.0009874,緯度経度は怪しい
長野県,箕輪町,101,大字東箕輪121-4番地,長岡保育所西側フェンス,35.9240155,138.0064083,緯度経度は怪しい
長野県,箕輪町,102,大字東箕輪270-1番地,長岡公民館前フェンス,35.9236913,138.0030602,緯度経度は怪しい
長野県,箕輪町,103,大字東箕輪676付近番地,masked,35.9228897,138.0009998,緯度経度は怪しい
長野県,箕輪町,104,長岡団地町営住宅B-15,nan,35.9226614,138.0073954,緯度経度は怪しい
長野県,箕輪町,105,大字東箕輪769-3番地,nan,35.920488,137.9974051,緯度経度は怪しい
長野県,箕輪町,106,大字東箕輪6-4番地,長岡 十沢坂(長岡入口信号機付近),35.9199161,137.999249,緯度経度は怪しい
長野県,箕輪町,107,大字東箕輪3264番地,南小河内公民館南側,35.9349177,137.9947349,緯度経度は怪しい
長野県,箕輪町,108,大字東箕輪3510-2番地,masked,35.9345894,137.9977533,
長野県,箕輪町,109,大字東箕輪3627-2番地,箕輪町生活改善センター西側,35.9326606,137.9985033,
長野県,箕輪町,110,大字東箕輪3176-3番地,東小学校グランド南端,35.9345563,137.9946117,
長野県,箕輪町,111,大字東箕輪 2575-2 番地 南小河内,旧東箕輪郵便局北側柵,35.9311646,137.9962067,
長野県,箕輪町,112,大字東箕輪 2681先 番地 南小河内,masked,35.9349127,137.9945459,緯度経度は怪しい
長野県,箕輪町,113,大字東箕輪 4612-1 番地 北小河内,masked,35.9499629,137.9962484,
長野県,箕輪町,114,大字東箕輪 4926-1先 番地 北小河内,県道伊那・辰野(T)線 東西線入口バス停付近,35.9382672,137.9964419,緯度経度は怪しい
長野県,箕輪町,115,大字東箕輪 4896 番地 北小河内,北小河内公民館東側ガードパイプ,35.9462853,137.9968127,
長野県,箕輪町,116,大字東箕輪 4164-2 番地 北小河内,中村ゴミステーション南側パイプ,35.9382672,137.9964419,緯度経度は怪しい
長野県,箕輪町,117,大字東箕輪 5125 番地 北小河内,masked,35.9410169,137.993278,
長野県,箕輪町,118,大字東箕輪 5291-3先 番地 北小河内,北小河内宮下 宮下信号機西側ガードパイプ,35.9373596,137.99203,緯度経度は怪しい
