prefecture,city,number,address,name,lat,long,note
長野県,辰野町,1,伊那富 小横川 処理場入口ガ-ドレ-ル,処理場入口ガードレール,35.99531231,137.9692215,手動補正
長野県,辰野町,2,伊那富 小横川 小横川公民館前ガ-ドレ-ル,小横川公民館前ガードレール,35.9966537,137.9642548,手動補正
長野県,辰野町,3,伊那富 小横川 旧農協利用部前ガ-ドレ-ル,旧農協利用部前ガードレール,35.99642338,137.9676282,手動補正
長野県,辰野町,4,伊那富 宮所 宮所コミュニティセンタ-フェンス,宮所コミュニティセンターフェンス,35.98863252,137.9805779,手動補正
長野県,辰野町,5,伊那富 宮所 グレイスフル辰野前ガ-ドレ-ル,グレイスフル辰野前ガードレール,35.98742584,137.9799449,手動補正
長野県,辰野町,6,masked,masked,35.98505584,137.981903,手動補正
長野県,辰野町,7,中央 宮所 宮所児童公園東側フェンス,宮所児童公園東側フェンス,35.98762551,137.9826164,手動補正
長野県,辰野町,8,伊那富 湯舟 南湯舟会民館向いフェンス,南湯舟会民館向いフェンス,35.98185666,137.9821068,手動補正
長野県,辰野町,9,伊那富 元町 辰野高校入口,辰野高校入口,35.97949517,137.9839575,手動補正
長野県,辰野町,10,中央 中央 上水道中央水源前フェンス,上水道中央水源前フェンス,35.98199122,137.9857492,手動補正
長野県,辰野町,11,伊那富 桜ケ丘 長久寺上西天フェンス,長久寺上西天フェンス,35.97831006,137.982493,手動補正
長野県,辰野町,12,masked,masked,35.97433351,137.9830456,手動補正
長野県,辰野町,13,中央 泉水 ガ-デンテラス辰野(旧辰野病院)前フェンス,ガーデンテラス辰野（旧辰野病院）前フェンス,35.97527991,137.9838932,手動補正
長野県,辰野町,14,伊那富 横町 辰野公園前,辰野公園前,35.97751563,137.9842365,手動補正
長野県,辰野町,15,伊那富 仲町 宮木便局向いフェンス,宮木便局向いフェンス,35.97772835,137.9853415,手動補正
長野県,辰野町,16,伊那富 東町1 辰野西小学校西側フェンス,辰野西小学校西側フェンス,35.97744617,137.9879862,手動補正
長野県,辰野町,17,伊那富 東町1 辰野西小学校東側ヨゼフ幼稚園駐車場フェンス,辰野西小学校東側ヨゼフ幼稚園駐車場フェンス,35.97789331,137.9901695,手動補正
長野県,辰野町,18,masked,masked,35.97985982,137.9886246,手動補正
長野県,辰野町,19,masked,masked,35.98018973,137.9911405,手動補正
長野県,辰野町,20,伊那富 城前 老人福祉センタ-前,老人福祉センター前,35.97678632,137.9917467,手動補正
長野県,辰野町,21,伊那富 城前 城南公民館,城南公民館,35.9728949,137.9923763,手動補正
長野県,辰野町,22,中央 中央 役場入口,役場入口,35.98165697,137.9874015,手動補正
長野県,辰野町,23,masked,masked,35.97329159,137.9848051,手動補正
長野県,辰野町,24,masked,masked,35.96858106,137.9825199,手動補正
長野県,辰野町,25,伊那富 新町 新町コミュニティセンタ-,新町コミュニティセンター,35.96916718,137.9832655,手動補正
長野県,辰野町,26,伊那富 新町 新町駅前一ノ瀬克彦所有地フェンス,新町駅前一ノ瀬克彦所有地フェンス,35.96845515,137.9835927,手動補正
長野県,辰野町,27,masked,masked,35.96815992,137.9819405,手動補正
長野県,辰野町,28,masked,masked,35.9621682,137.9800093,手動補正
長野県,辰野町,29,伊那富 神戸 国道153号神戸坂南側フェンス,国道153号神戸坂南側フェンス,35.96374867,137.9807925,手動補正
長野県,辰野町,30,伊那富 羽場 羽場火の見,羽場火の見,35.95508176,137.9812753,手動補正
長野県,辰野町,31,伊那富 羽場 羽場コミュニティセンタ-フェンス,羽場コミュニティセンターフェンス,35.95307122,137.9827398,手動補正
長野県,辰野町,32,伊那富 羽場 JA上伊那果実選果場西側フェンス,JA上伊那果実選果場西側フェンス,35.95381378,137.978754,手動補正
長野県,辰野町,33,masked,masked,35.95525546,137.9782391,手動補正
長野県,辰野町,34,伊那富 北大出 庄屋(旧日北大出公民館)前,庄屋（旧日北大出公民館）前,35.95327531,137.9734218,手動補正
長野県,辰野町,35,masked,masked,35.94952333,137.9698062,手動補正
長野県,辰野町,36,masked,masked,35.94988811,137.9659009,手動補正
長野県,辰野町,37,伊那富 北大出 羽北保育圏,羽北保育圏,35.94970572,137.9770857,手動補正
長野県,辰野町,38,伊那富 北大出 羽北保育園南与地辰野線歩道ガ-ドバイプ,羽北保育園南与地辰野線歩道ガードバイプ,35.94800337,137.9773057,手動補正
長野県,辰野町,39,辰野 本町4 四丁目横川踏切横フェンス,四丁目横川踏切横フェンス,35.9806629,137.9928195,手動補正
長野県,辰野町,40,辰野 本町4 本町4丁目公民館フェンス,本町4丁目公民館フェンス,35.98113172,137.9919398,手動補正
長野県,辰野町,41,辰野 本町3 本町3丁目駐車場(本通り)＊衣料センタ-米山付近,本町3丁目駐車場（本通り）＊衣料センター米山付近,35.98125327,137.9946971,手動補正
長野県,辰野町,42,masked,masked,35.98212145,137.9951262,手動補正
長野県,辰野町,43,masked,masked,35.98321535,137.9958129,手動補正
長野県,辰野町,44,辰野 元町 旧辰野町商工会館前植え込み,旧辰野町商工会館前植え込み,35.98261631,137.9977441,手動補正
長野県,辰野町,45,辰野 本町1 本町一丁目共同駐車場横ガ-ドパイプ,本町一丁目共同駐車場横ガードパイプ,35.98392724,137.9975188,手動補正
長野県,辰野町,47,辰野 胡桃淵 辰野駅横自転車置場前,辰野駅横自転車置場前,35.98471726,137.9986399,手動補正
長野県,辰野町,48,辰野 新屋敷 伝福寺前,伝福寺前,35.98627557,138.0001688,手動補正
長野県,辰野町,49,辰野 元町 下辰野公民館機駐車場フェンス,下辰野公民館機駐車場フェンス,35.98206936,137.997551,手動補正
長野県,辰野町,46,澤底 大石平 大石平水道ポンプ室,大石平水道ポンプ室,35.97943874,138.0086178,手動補正
長野県,辰野町,50,平出 上町 平出保育園フェンス,平出保育園フェンス,35.98259027,138.0063701,手動補正
長野県,辰野町,51,平出 上町 平出コミュニティセンタ-下,平出コミュニティセンター下,35.98184797,138.0030227,手動補正
長野県,辰野町,52,平出 上町 清水橋角フェンス,清水橋角フェンス,35.9845827,138.0019498,手動補正
長野県,辰野町,53,平出 下町 法性神社入口北石垣,法性神社入口北石垣,35.97909145,138.001821,手動補正
長野県,辰野町,54,平出 下町 辰野東小学校入口フェンス,辰野東小学校入口フェンス,35.97719005,138.0018961,手動補正
長野県,辰野町,55,澤底 大石平 大石平入口フェンス,大石平入口フェンス,35.97878758,138.0094546,手動補正
長野県,辰野町,56,辰野 旭町 仲乃湯前フェンス,仲乃湯前フェンス,35.98135311,137.9983878,手動補正
長野県,辰野町,57,平出 旭町 NTT辰野電報電話交換局フェンス,NTT辰野電報電話交換局フェンス,35.97906541,137.9968643,手動補正
長野県,辰野町,58,平出 旭町 辰野中学校第1体育館前フェンス,辰野中学校第1体育館前フェンス,35.97618723,137.9975188,手動補正
長野県,辰野町,59,赤羽 赤羽 共生館あさひケ丘入口,共生館あさひケ丘入口,35.9704436,138.0009252,手動補正
長野県,辰野町,60,赤羽 赤羽 上の段防火水槽横,上の段防火水槽横,35.968316216525,138.00222873688,手動補正
長野県,辰野町,61,赤羽 赤羽 赤羽介護センタ-なごみフェンス(上の原),赤羽介護センターなごみフェンス（上の原）,35.96851159,138.0045033,手動補正
長野県,辰野町,62,赤羽 赤羽 赤羽区民センタ-前,赤羽区民センター前,35.96869394,137.9997718,手動補正
長野県,辰野町,63,masked,masked,35.96590656,137.9984254,手動補正
長野県,辰野町,64,赤羽 赤羽 真金寺入口(上の段),真金寺入口（上の段）,35.96650139,138.0014777,手動補正
長野県,辰野町,65,赤羽 赤羽 八島神社ガ-ドレ-ル,八島神社ガードレール,35.96755642,137.9980284,手動補正
長野県,辰野町,66,赤羽 赤羽 荒神山公園入口中電鉄塔横ガ-ドレ-ル,荒神山公園入口中電鉄塔横ガードレール,35.97007022,137.9960972,手動補正
長野県,辰野町,67,masked,masked,35.97067804,138.004632,手動補正
長野県,辰野町,68,平出 赤羽 豊南短大下ガ-ドレ-ル,豊南短大下ガードレール,35.9734392,138.0012202,手動補正
長野県,辰野町,69,masked,masked,35.961864263521,137.99734711647,手動補正
長野県,辰野町,70,樋口 樋口 東樋口いきいき館東側,東樋口いきいき館東側,35.959719284864,137.99632787704,手動補正
長野県,辰野町,71,樋口 山際 樋之沢川橋南ガ-ドレ-ル,樋之沢川橋南ガードレール,35.957365820205,137.99611330032,手動補正
長野県,辰野町,72,masked,masked,35.955507315164,137.99587726593,手動補正
長野県,辰野町,73,樋口 下田 下田信号機横ガ-ドレ-ル,下田信号機横ガードレール,35.960700598119,137.99058794975,手動補正
長野県,辰野町,74,樋口 下田 東部保育園向いフェンス,東部保育園向いフェンス,35.962619768445,137.99291610718,手動補正
長野県,辰野町,75,masked,masked,35.960865596495,137.98687040806,手動補正
長野県,辰野町,76,masked,masked,35.963253692287,137.98726201057,手動補正
長野県,辰野町,77,樋口 万五郎 万五郎公民館分室フェンス,万五郎公民館分室フェンス,35.964122072852,137.9859316349,手動補正
長野県,辰野町,78,澤底 神主谷 神主谷バス停向い土手,神主谷バス停向い土手,35.976243668322,138.0100607872,手動補正
長野県,辰野町,79,澤底 山寺 射撃場登りロガ-ドレ-ル,射撃場登りロガードレール,35.975036802063,138.01079034805,手動補正
長野県,辰野町,80,澤底 仲組 沢底公民館前ガ-ドレ-ル,沢底公民館前ガードレール,35.9807646,138.0161443,手動補正
長野県,辰野町,81,masked,masked,35.981930451614,138.02057504654,手動補正
長野県,辰野町,82,澤底 入村 入村掲示板,入村掲示板,35.981913088014,138.02340745926,手動補正
長野県,辰野町,83,平出 上野 消防屯所北フェンス,消防屯所北フェンス,35.99731744,138.02926540375,手動補正
長野県,辰野町,84,masked,masked,35.996145616992,138.02638471127,手動補正
長野県,辰野町,85,澤底 鴻之田 鴻ノ田グラウンド前ガ-ドレ-ル,鴻ノ田グラウンド前ガードレール,35.99664472892,138.0395758152,手動補正
長野県,辰野町,86,澤底 鴻之田 五軒家入口,五軒家入口,35.99612825652,138.03587973118,手動補正
長野県,辰野町,87,平出 上平出 上平出信号機北側(消防屯所前)フェンス,上平出信号機北側（消防屯所前）フェンス,35.994656942655,138.00569415092,手動補正
長野県,辰野町,88,平出 上平出 上平出コミュニティセンタ-前,上平出コミュニティセンター前,35.99423160197,138.00737857819,手動補正
長野県,辰野町,89,上平出 上平出 ほたる童謡公園,ほたる童謡公園,35.992590980698,138.00465345383,手動補正
長野県,辰野町,90,辰野 唐木沢 唐木沢バス停前,唐木沢バス停前,36.007802310931,137.97463953495,手動補正
長野県,辰野町,91,masked,masked,36.008631146477,137.97665119171,手動補正
長野県,辰野町,92,上島 唐木沢 中の橋横,中の橋横,36.015803898438,137.97285318375,手動補正
長野県,辰野町,93,上島 上島 信濃川島駅入口,信濃川島駅入口,36.012354289761,137.97393679619,手動補正
長野県,辰野町,94,上島 上島 がおん伝承館フェンス,がおん伝承館フェンス,36.00290289038,137.97459661961,手動補正
長野県,辰野町,95,masked,masked,36.002885531395,137.97591626644,手動補正
長野県,辰野町,96,masked,masked,35.998806064121,137.97625422478,手動補正
長野県,辰野町,97,伊那富 今村 今村入口バス停横,今村入口バス停横,35.995099641749,137.97672629356,手動補正
長野県,辰野町,98,masked,masked,35.993541503529,137.97623813152,手動補正
長野県,辰野町,99,masked,masked,36.0149534429,137.95965671539,手動補正
長野県,辰野町,100,上島 渡戸 旧農協利用部,旧農協利用部,36.015942747451,137.95301556587,手動補正
長野県,辰野町,101,横川 下飯沼沢 下飯沼沢バス停,下飯沼沢バス停,36.017296512502,137.94772624969,手動補正
長野県,辰野町,102,横川 下飯沼沢 生活改善センタ-下フェンス,生活改善センター下フェンス,36.016420039065,137.94207751751,手動補正
長野県,辰野町,103,横川 飯沼沢 飯沼沢消防火の見前ガ-ドレ-ル,飯沼沢消防火の見前ガードレール,36.014024873823,137.93498575687,手動補正
長野県,辰野町,104,横川 飯沼沢 JA上伊那川島支所前教員住宅塀,JA上伊那川島支所前教員住宅塀,36.012727462259,137.93352127075,手動補正
長野県,辰野町,105,横川 一ノ瀬 一ノ瀬消防屯所前,一ノ瀬消防屯所前,36.009945982896,137.929905653,手動補正
長野県,辰野町,106,横川 一ノ瀬 蛇石の里フェンス,蛇石の里フェンス,36.0072842,137.928261,手動補正
長野県,辰野町,107,横川 門前 瑞光寺入口駐車場フェンス,瑞光寺入口駐車場フェンス,36.002989685244,137.91796445847,手動補正
長野県,辰野町,108,横川 門前 門前公民館向い駐車場,門前公民館向い駐車場,36.001292828328,137.91597962379,手動補正
長野県,辰野町,109,横川 川上 木曽沢バス停ガ-ドレ-ル,木曽沢バス停ガードレール,35.995342691175,137.91206896305,手動補正
長野県,辰野町,110,横川 川上 川上消防屯所火の見,川上消防屯所火の見,35.993233344414,137.90955305099,手動補正
長野県,辰野町,111,横川 源上 横川ガラス工房上ガ-ドレ-ル,横川ガラス工房上ガードレール,35.987760064357,137.90706396103,手動補正
長野県,辰野町,112,中央 上辰野 上辰野堂村公園前フェンス(上辰野中央),上辰野堂村公園前フェンス（上辰野中央）,35.985546338089,137.98833489418,手動補正
長野県,辰野町,113,辰野 上辰野 八王子入口,八王子入口,35.99007355896,137.98443496227,手動補正
長野県,辰野町,114,辰野 上辰野 王城山入口(上の段),王城山入口（上の段）,35.984938637661,137.99145698547,手動補正
長野県,辰野町,115,辰野 上辰野 8分団屯所北ガ-ドバイプ,8分団屯所北ガードバイプ,35.987490948009,137.98743367195,手動補正
長野県,辰野町,116,辰野 上辰野 赤坂ホンダ前中央団地フェンス,赤坂ホンダ前中央団地フェンス,35.982690105378,137.99078643322,手動補正
長野県,辰野町,117,辰野 上辰野 辰野病院東側フェンス,辰野病院東側フェンス,35.98380135714,137.99242258072,手動補正
長野県,辰野町,118,辰野 上辰野 上辰野中央立体交差点横フェンス,上辰野中央立体交差点横フェンス,35.986544692919,137.98728883266,手動補正
長野県,辰野町,119,小野 休戸 休戸公民館火の見,休戸公民館火の見,36.044414641841,137.96401798725,手動補正
長野県,辰野町,120,小野 休戸 小学校ロバス停前,小学校ロバス停前,36.044245480727,137.96590089798,手動補正
長野県,辰野町,121,小野 休戸 両小野小学校校門西フェンス,両小野小学校校門西フェンス,36.046232016522,137.9657292366,手動補正
長野県,辰野町,122,小野 上町 アトム遊園地,アトム遊園地,36.04473127577,137.96967208385,手動補正
長野県,辰野町,123,小野 上町 地蔵堂東側,地蔵堂東側,36.044189093608,137.96729564667,手動補正
長野県,辰野町,124,小野 上町 上町公民館下,上町公民館下,36.043070017821,137.968942523,手動補正
長野県,辰野町,125,小野 上町 小野郵便局前,小野郵便局前,36.045646470788,137.9686743021,手動補正
長野県,辰野町,126,小野 藤沢 藤沢屯所前,藤沢屯所前,36.04008573796,137.93942213058,手動補正
長野県,辰野町,127,小野 山口 山口集乳所,山口集乳所,36.028863312986,137.9212474823,手動補正
長野県,辰野町,128,小野 中村 飯沼コミュニティセンタ-前,飯沼コミュニティセンター前,36.032546457489,137.93864965439,手動補正
長野県,辰野町,129,小野 下村 下村バス停付近,下村バス停付近,36.034685118429,137.9470717907,手動補正
長野県,辰野町,130,masked,masked,36.035457277887,137.94965744019,手動補正
長野県,辰野町,131,小野 下町 雨沢公民館フェンス,雨沢公民館フェンス,36.038398355254,137.96685576439,手動補正
長野県,辰野町,132,小野 下町 明倫館南側フェンス,明倫館南側フェンス,36.038675973402,137.96809494495,手動補正
長野県,辰野町,133,masked,masked,36.041161479784,137.96843826771,手動補正
長野県,辰野町,134,小野 新田 消防団新田屯所南側ガ-ドレ-ル,消防団新田屯所南側ガードレール,36.02858999858,137.97127604485,手動補正
長野県,辰野町,135,小野 下雨沢 下雨沢北ガ-ドパイプ,下雨沢北ガードパイプ,36.025067194694,137.97118484974,手動補正
長野県,辰野町,136,masked,masked,36.042783740064,137.95947432518,手動補正
長野県,辰野町,137,小野 押野 押野コミュニティセンタ-向い,押野コミュニティセンター向い,36.043191468676,137.95619130135,手動補正
長野県,辰野町,138,小野筑付 旭 小野農民研修センタ-前,小野農民研修センター前,36.046739485969,137.96983838081,手動補正
長野県,辰野町,139,masked,masked,36.046080208787,137.96746730804,手動補正
長野県,辰野町,140,小野筑付 旭 きりとう入口・街灯,きりとう入口・街灯,36.046683100636,137.96896934509,手動補正
長野県,辰野町,141,小野筑付 旭 小野駅前,小野駅前,36.047064785176,137.9704874754,手動補正
長野県,辰野町,142,小野 旭 旭公民館フェンス,旭公民館フェンス,36.046713461974,137.96653926373,手動補正
長野県,辰野町,143,小野 春宮 春宮耕地案内図前,春宮耕地案内図前,36.048075372804,137.9648065567,手動補正
長野県,辰野町,144,小野 春宮 春宮公民館前,春宮公民館前,36.048951494069,137.96387314796,手動補正
