prefecture,city,number,address,name,lat,long,note
長野県,野沢温泉村,1,大字豊郷8904-3,寺湯洗濯湯,36.92395440949495, 138.44479492813676,
長野県,野沢温泉村,2,大字豊郷8779-1,真湯野沢酒店向い村道ガードレール,36.92438337604583, 138.446125438672,
長野県,野沢温泉村,3,大字豊郷8758-1,麻釜共同浴場,36.9240584,138.4466054,
長野県,野沢温泉村,4,大字豊郷8702-2,masked,36.92454297793257, 138.4481315342981,
長野県,野沢温泉村,5,大字豊郷9496,masked,36.9233198,138.4470757,
長野県,野沢温泉村,6,大字豊郷9328,大湯共同浴場,36.92315502381915, 138.44836094379403,
長野県,野沢温泉村,7,大字豊郷7923-3,富井豆腐店向い,36.9226974,138.4498198,
長野県,野沢温泉村,8,大字豊郷9477,松葉共同浴場,36.922206198169356, 138.4480796770476,
長野県,野沢温泉村,9,大字豊郷9668,masked,36.9208122,138.4483463,
長野県,野沢温泉村,10,大字豊郷9564,十王堂,36.92175902019955, 138.44686623965737,
長野県,野沢温泉村,11,大字豊郷6774,masked,36.9203685483061, 138.44596316229539,
長野県,野沢温泉村,12,大字豊郷7793-2,masked,36.9207374,138.4507634,
長野県,野沢温泉村,13,大字豊郷4376-2,masked,36.9194576,138.4439227,
長野県,野沢温泉村,14,大字豊郷9759-1,JA会館駐車場南側,36.9216143,138.4452751,
長野県,野沢温泉村,15,大字豊郷9583-1,masked,36.9225117,138.446202,
長野県,野沢温泉村,16,大字豊郷9812,masked,36.9225684,138.4424818,
長野県,野沢温泉村,17,大字豊郷4311-9,masked,36.91924849999999,138.4418174,
長野県,野沢温泉村,18,大字豊郷9817,役場庁舎前,36.9226554,138.4404434,
長野県,野沢温泉村,19,大字豊郷3082,masked,36.91227573942836, 138.42019595505914,
長野県,野沢温泉村,20,大字豊郷3135,masked,36.911339,138.475815,緯度経度は怪しい
長野県,野沢温泉村,21,大字豊郷6483,masked,36.9169352,138.4416109,
長野県,野沢温泉村,22,大字豊郷6486-3,masked,36.91663153450657, 138.44200757529322,
長野県,野沢温泉村,23,大字豊郷6575,masked,36.9166351,138.4434324,
長野県,野沢温泉村,24,大字豊郷6536,masked,36.9167826,138.4427728,
長野県,野沢温泉村,25,大字豊郷6621,masked,36.9176399,138.443496,
長野県,野沢温泉村,26,大字豊郷4429-3,横道農道・中尾通学路交差点,36.918034131482635, 138.44087204133865,
長野県,野沢温泉村,27,大字坪山267,masked,36.9303532,138.4252614,
長野県,野沢温泉村,28,大字坪山251-1,masked,36.93134519367132, 138.4256398573397,
長野県,野沢温泉村,29,大字坪山229-1,masked,36.93178374212007, 138.4251167462305,
長野県,野沢温泉村,30,大字坪山239,masked,36.93266083144804, 138.4248870876947,
長野県,野沢温泉村,31,大字坪山186,masked,36.933179877720626, 138.42537291644967,
長野県,野沢温泉村,32,大字前坂8414,masked,36.913184374328324, 138.43438221960187,
長野県,野沢温泉村,33,大字豊郷4715-2,masked,36.91422999630036, 138.43256408952718,
長野県,野沢温泉村,34,大字前坂8167-2,前坂地区コミュニティ消防センター,36.913204776845355, 138.4323216721839,
長野県,野沢温泉村,35,大字前坂8376,masked,36.91286303396473, 138.4331701328854,
長野県,野沢温泉村,36,大字前坂8400,masked,36.91237999054764, 138.43381288442734,
長野県,野沢温泉村,37,大字前坂8177-2,前坂区倉庫前ガードレール,36.9117292357983, 138.4322000862516,
長野県,野沢温泉村,38,大字前坂8115,masked,36.913450550859906, 138.430423524217,
長野県,野沢温泉村,39,大字平林1206,masked,36.937517107345755, 138.42936718694082,
長野県,野沢温泉村,40,大字平林535,平林十王堂,36.94119418108983, 138.4284232958453,
長野県,野沢温泉村,41,大字平林1099-1,masked,36.94141434052572, 138.42953766457558,
長野県,野沢温泉村,42,大字平林823-1,masked,36.9416568785278, 138.43260258324648,
長野県,野沢温泉村,43,大字平林752-5,平林マイクロバス車庫,36.942323854063474, 138.43449160495155,
長野県,野沢温泉村,44,大字平林1017,masked,36.940921544421364, 138.43178204157266,
長野県,野沢温泉村,45,大字虫生128-1,masked,36.944551787556684, 138.43592493696795,
長野県,野沢温泉村,46,大字虫生837,masked,36.95479294897323, 138.4415791530273,
長野県,野沢温泉村,47,大字虫生1094-2,農協倉庫跡,36.95526194940929, 138.44628715314434,
長野県,野沢温泉村,48,大字虫生1989,masked,36.95504784088879, 138.44702716398174,
長野県,野沢温泉村,49,大字虫生1719,masked,36.953529435257764, 138.44894822469624,
長野県,野沢温泉村,50,大字虫生1730,masked,36.95419817806177, 138.4487658344923,
長野県,野沢温泉村,51,大字虫生2001,masked,36.95546705855674, 138.4480523669241,
長野県,野沢温泉村,52,大字虫生2116-2,masked,36.95794182783713, 138.45073565657432,
長野県,野沢温泉村,53,大字虫生2122-3,masked,36.958518557258174, 138.44967107953312,
長野県,野沢温泉村,54,大字七ケ巻459-1,七ケ巻入口三叉路,36.97234553374807, 138.46028066382772,
長野県,野沢温泉村,55,大字七ケ巻414,masked,36.97290491625399, 138.46175925972264,
長野県,野沢温泉村,56,大字七ケ巻587,masked,36.97366253159039, 138.46323102759925,
長野県,野沢温泉村,57,大字七ケ巻334,masked,36.974182220155186, 138.46419419481614,
長野県,野沢温泉村,58,大字東大滝318-6,消防第３分団東大滝詰所,36.978477479417094, 138.4920975537329,
長野県,野沢温泉村,59,大字東大滝377,masked,36.97808811384036, 138.49188331673412,
長野県,野沢温泉村,60,大字東大滝410,masked,36.97793315807915, 138.49301555757035,
長野県,野沢温泉村,61,大字東大滝295,masked,36.97826829456187, 138.49375534842721,
長野県,野沢温泉村,62,大字東大滝834-2,明石集会所,36.982325924906874, 138.51661802556583,
長野県,野沢温泉村,63,大字東大滝854-2,明石バス停,36.98221157685311, 138.51493070203344,
