prefecture,city,number,address,name,lat,long,note
長野県,長和町,1,古町４２４７番地１,長和町役場,36.2697,138.258838,
長野県,長和町,2,古町２４３６−１,長門温泉やすらぎの湯バス停,36.274296,138.257328,
長野県,長和町,3,古町有坂８４６−２,有坂公民館付近,36.279783,138.254649,
長野県,長和町,4,古町２４００−１,依田窪病院入り口交差点近く,36.276058,138.258952,
長野県,長和町,5,古町２３１２−４,交差点,36.27604,138.263911,
長野県,長和町,6,古町３３３８,五反田公民館,36.275927,138.266474,
長野県,長和町,7,古町２９７７−２２,学者村第3期管理事務所,36.28029,138.279091,
長野県,長和町,8,古町２８０８,テニスコート,36.275188,138.264305,
長野県,長和町,9,古町２８２９−１,大内橋,36.272264,138.265076,
長野県,長和町,10,古町２７６７,桜町公民館近く,36.272002,138.264184,
長野県,長和町,11,古町３９２４,転作促進研修センター,36.269546,138.265382,
長野県,長和町,12,古町３９８０,長門学院,36.268235,138.264155,
長野県,長和町,13,古町４０４５,古町４０４５周辺,36.265845,138.263621,
長野県,長和町,14,古町２８６９−１,長和町保健福祉総合センター,36.273954,138.266449,
長野県,長和町,15,古町２８４４−２,病院駐車場,36.27247,138.266032,
長野県,長和町,16,古町２０１３,滝ノ沢権現水,36.284845,138.269874,
長野県,長和町,17,古町２０７１,,36.283666,138.269125,
長野県,長和町,18,古町９８６−４,町営住宅前バス停,36.280469,138.262429,
長野県,長和町,19,立岩１０４９−２,上立岩バス停,36.284152,138.261987,
長野県,長和町,20,古町,長和町消防団第一分団詰所,36.28672,138.259329,
長野県,長和町,21,古町１３５３,旧立岩公民館,36.286689,138.261522,
長野県,長和町,22,古町３４６−２,沖集会施設,36.28388,138.258481,
長野県,長和町,23,古町立岩１７８,依田窪南部中学校前交差点,36.285952,138.251195,
長野県,長和町,24,古町１６−１,セブンイレブン信州長門バイパス店斜め向かい,36.290615,138.255763,
長野県,長和町,25,長久保１５０−６６,桜清水団地,36.263701,138.267269,
長野県,長和町,26,長久保１５０−１５５,桜清水団地公園,36.263064,138.268617,
長野県,長和町,27,長和町長久保４２４−１,（株）安田組,36.258931,138.266892,
長野県,長和町,28,長久保５３０−２,長久保７区集会施設,36.256939,138.265929,
長野県,長和町,29,長久保５０７−１,ながと保育園,36.255678,138.2678,
長野県,長和町,30,長久保５５５,JRバス長久保駅,36.254755,138.267256,
長野県,長和町,31,長久保１６７６,旧中山道,36.252946,138.267172,
長野県,長和町,32,長久保,横町バス停近く,36.250636,138.266402,
長野県,長和町,33,,長門町民センター前,36.254116,138.267061,
長野県,長和町,34,長久保１６９９,第三分団詰所,36.254242,138.266436,
長野県,長和町,35,長久保１７６２,公園,36.255595,138.26486,
長野県,長和町,36,長久保６００−１,長久保宿歴史資料館・一福処濱屋,36.253138,138.270053,
長野県,長和町,37,長久保６３３−１,堅町バス停近く,36.25286,138.271757,
長野県,長和町,38,長久保１６２１−３,横町バス停近く,36.251257,138.267682,
長野県,長和町,39,長久保２２２３−４４,第13区集会所,36.247236,138.262986,
長野県,長和町,40,長久保８８５−１,学者村総合管理センター,36.256244,138.28666,
長野県,長和町,41,大門１４４,,36.237819,138.253366,詳細の地図がないため、緯度経度はおおよそ
長野県,長和町,42,大門落合２１２−３,,36.23721,138.253784,詳細の地図がないため、緯度経度はおおよそ
長野県,長和町,43,,,,,不明
長野県,長和町,44,大門１８８−２,,36.235799,138.253833,詳細の地図がないため、緯度経度はおおよそ
長野県,長和町,45,大門１９２−２,新屋バス停,36.234199,138.253438,
長野県,長和町,46,長和町大門６２２−１,岩井公民館,36.228871,138.252135,
長野県,長和町,47,,,36.223318,138.250409,詳細の地図がないため、緯度経度はおおよそ
長野県,長和町,48,長和町大門１１６４−１,長和町役場大門支所,36.220838,138.250838,
長野県,長和町,49,大門１５１９−１,大門グランド,36.218064,138.250579,
長野県,長和町,50,大門１７４２,第４分団器具庫,36.215785,138.248868,
長野県,長和町,51,大門入大門２２５２,入大門町営住宅,36.207307,138.24514,
長野県,長和町,52,大門２６５８−１,入大門センター,36.204241,138.24289,
長野県,長和町,53,大門２５５０−３,エノキ工場近く,36.200864,138.241683,
長野県,長和町,54,大門入大門３０２３−１,入大門バス停,36.198584,138.242164,
長野県,長和町,55,大門小茂ケ谷３４０９,ヤマカマッシュフード,36.174742,138.242299,
長野県,長和町,56,大門３４７０−１,152号線沿い,36.17262,138.241106,
長野県,長和町,57,,強清水バス停,36.162823,138.239692,
長野県,長和町,58,大門３５１６−６１,,36.140568,138.234509,詳細の地図がないため、緯度経度はおおよそ
長野県,長和町,59,大門３５４７−２,鷹山温泉スタンド,36.143191,138.214114,
長野県,長和町,60,大門鷹山３６２３,鷹山スキー場駐車場,36.147433,138.207302,
長野県,長和町,61,大門 姫木平,ペンションブルーベリー,36.122111,138.218155,
長野県,長和町,62,長和町大門３５１８−２４８９,姫木スキー場前,36.119755,138.216389,
長野県,長和町,63,大門追分３５１８,レストラン森の音楽家,36.120581,138.21265,
長野県,長和町,64,大門３５２７−６３,テニスコート,36.132478,138.239725,
長野県,長和町,65,和田２３３−１,セーブオン信州和田店,36.237501,138.251308,
長野県,長和町,66,和田２５６−１,青原公民館,36.237807,138.250363,
長野県,長和町,67,和田中組５１５,上深山口バス停,36.232239,138.245162,
長野県,長和町,68,和田８７１−１,上立場バス停,36.226615,138.239941,
長野県,長和町,69,和田９３４−２,下和田上組バス停,36.224585,138.237385,
長野県,長和町,70,和田１３０８−２,芹沢バス停,36.217493,138.228223,
長野県,長和町,71,和田１６７２,旭ヶ丘公民館,36.212895,138.221781,
長野県,長和町,72,和田１６３５−２,和田中学校跡,36.211274,138.21905,
長野県,長和町,73,橋場１４８２,和田診療所,36.208971,138.218049,
長野県,長和町,74,和田新田２６０８−１,石黒豆腐店,36.209767,138.214276,
長野県,長和町,75,仮宿２５５５−６,仮宿公民館,36.212026,138.212842,
長野県,長和町,76,和田久保２４５７,久保公民館前バス停,36.211824,138.210376,
長野県,長和町,77,和田５６３８−４,野々入公民館,36.203358,138.195878,
長野県,長和町,78,和田２６５７,信定寺,36.209189,138.211609,
長野県,長和町,79,和田２８０３,上町公民館,36.206022,138.211207,
長野県,長和町,80,和田４２５３−１,和田コミュニティセンター,36.203322,138.214179,
長野県,長和町,81,和田鍛冶足,テニスコート,36.200052,138.213686,
長野県,長和町,82,和田４０８９−５,細尾,36.199041,138.213845,
長野県,長和町,83,和田鍛冶足３１６５,和田鍛冶足３１６５周辺,36.201912,138.208634,
長野県,長和町,84,鍛冶足,鍛冶足公民館前バス停,36.199645,138.208165,
長野県,長和町,85,和田３２１０,鍛治足消防庫,36.197764,138.206483,
長野県,長和町,86,和田大出３２３９,和田大出,36.197171,138.205957,
長野県,長和町,87,和田大出３２９０,大出橋,36.196191,138.204441,
長野県,長和町,88,和田３４６１−３,唐沢公民館,36.178049,138.180422,
長野県,長和町,89,和田５３０９−２８１,男女倉口バス停,36.151663,138.175431,