prefecture,city,number,address,name,note,lat,long
長野県,長野市,,,茂菅バス停東・Ｋ様方ブロック塀,,36.6614581065897,138.163989666688
長野県,長野市,,,茂菅地区第１配水池北側フェンス,,36.665223605796,138.163663361582
長野県,長野市,,,裾花台遊園地道路沿いフェンス,,36.6573725130608,138.171773827748
長野県,長野市,,,夕陽ケ丘団地北遊園地南側道路沿い,,36.6625333563982,138.176417917729
長野県,長野市,,,加茂小学校グラウンド南フェンス,,36.6571277722312,138.176045356211
長野県,長野市,,,西部中学校正門西側フェンス,,36.6583814841842,138.174282055264
長野県,長野市,,,小鍋バス停西,,36.6644463543331,138.128300341999
長野県,長野市,,,信州大学教育学部グラウンド東側,,36.6579969169571,138.180286520134
長野県,長野市,,,往生地公園北入口左側フェンス,,36.6634059881606,138.182109422132
長野県,長野市,,,箱清水２丁目緑植栽帯,,36.6667030542402,138.187539818278
長野県,長野市,,,善光寺第一駐車場東側空き地道路沿い,,36.66308049684,138.18761515317
長野県,長野市,,,城山小学校正門左フェンス,,36.6599735934479,138.189006321125
長野県,長野市,,,城山公園噴水広場西側の植栽帯,,36.6619238921358,138.189823192608
長野県,長野市,,,上松バス停西・Ｕ様方南側フェンス,,36.6685796,138.19396715
長野県,長野市,,,城山公園立体駐車場前転落防止柵向かいのフェンス,,36.66403986,138.19277859
長野県,長野市,,,旧市営大門町駐車場東側,,36.6562507950302,138.187377473941
長野県,長野市,,,湯谷公会堂西側道路沿い,,36.6774904316079,138.198901038918
長野県,長野市,,,上松公会堂東側フェンス,,36.6704683954538,138.197860644898
長野県,長野市,,,湯谷小学校北側校門西,,36.6758087087398,138.202862761979
長野県,長野市,,,湯谷東公園北側フェンス沿い,,36.6780926254013,138.201696335155
長野県,長野市,,,上松東団地西南入口案内板付近,,36.6720912033719,138.201543474284
長野県,長野市,,,老人ホームあたご　西側道路沿い,,36.6715304771456,138.204165596331
長野県,長野市,,,檀田東遊園地西側フェンス沿い,,36.6750237067897,138.213483121984
長野県,長野市,,,秋葉神社西側玉垣,,36.6534087109271,138.190885024317
長野県,長野市,,,鍋屋田小学校グラウンド北側,,36.6503068013929,138.191364189424
長野県,長野市,,,長野市芸術館　北側植栽帯,,36.648795531774,138.195255027704
長野県,長野市,,,長野市緑町立体駐車場東側フェンス,,36.6494935797713,138.194160050482
長野県,長野市,,,市庁用車駐車場東側フェンス（南側入口横）,,36.6460889163056,138.195769640877
長野県,長野市,,,守田公園北側道路沿い,,36.6497745752553,138.200985421407
長野県,長野市,,,消防局鶴賀消防署東通り側生垣,,36.648093844814,138.198857302417
長野県,長野市,,,小林病院東　公園東側植栽帯,,36.6457839715712,138.191788389361
長野県,長野市,,,南千歳公園東側植込み北端,,36.6458776896703,138.18934722775
長野県,長野市,,,ひまわり公園南西側,,36.6544322289473,138.181972564981
長野県,長野市,,,県庁東側植込み内,,36.6502822916595,138.181797854729
長野県,長野市,,,市立長野図書館自転車置場南側道路沿い,,36.6546279022505,138.18444938843
長野県,長野市,,,もんぜんぷら座南側植栽帯,,36.6489331590753,138.186470062842
長野県,長野市,,,旧後町小学校,,36.6518602836473,138.18596054006
長野県,長野市,,,長野合同庁舎北第2駐車場南東端付近,,36.6525092291099,138.182751115922
長野県,長野市,,,長野合同庁舎前バス停そば,,36.6552720763738,138.181760864802
長野県,長野市,,,山王小学校グラウンド南角フェンス,,36.6465412496709,138.180129948992
長野県,長野市,,,山王保育園南側フェンス,,36.6471215215034,138.183579028234
長野県,長野市,,,柳原神社西側石垣（北寄り）,,36.6425753769489,138.184234609099
長野県,長野市,,,バスターミナル会館北バス出口右植込み内フェンス,,36.6443358908071,138.182606001624
長野県,長野市,,,長野駅西口中御所駐輪場西側フェンス,,36.6411672723866,138.18380358761
長野県,長野市,,,裾花公園北西角鉄柵沿い,,36.6366520014736,138.17997165662
長野県,長野市,,,ホクト文化ホール西側外周フェンス,,36.6372441141863,138.186305313345
長野県,長野市,,,若里公園南駐車場フェンス,,36.6338591900489,138.187603197421
長野県,長野市,,,荒木公園西側フェンス沿い南寄り,,36.6333204190762,138.183930588448
長野県,長野市,,,裾花小学校校門南側フェンス,,36.6311975965993,138.181227746067
長野県,長野市,,,若里市住入口遊園地フェンス,,36.6282471779148,138.1894411312
長野県,長野市,,,赤十字病院第１駐車場東側植込み内,,36.6283653108108,138.190808266981
長野県,長野市,,,ビッグハット南側バス停そば,,36.6291304739144,138.195773828525
長野県,長野市,,,長野県酒造組合　北側フェンス,,36.6369196281074,138.189504202616
長野県,長野市,,,北市公民館北側壁沿い,,36.6317976570883,138.194063620232
長野県,長野市,,,日吉神社東側フェンス,,36.6373043214647,138.194441504503
長野県,長野市,,,芹田小学校プール脇フェンス,,36.6337371511056,138.199616444687
長野県,長野市,,,芹田総合市民センター　駐車場南側フェンス,,36.63203683,138.19232613
長野県,長野市,,,芹田上神社北側道路沿い,,36.6339692039675,138.202037249369
長野県,長野市,,,芹田小学校東南角フェンス,,36.6324937488956,138.200385004255
長野県,長野市,,,川合新田公民館南側　建物沿い,,36.6272588261617,138.20597479169
長野県,長野市,,,母袋簡易郵便局駐車場道路沿い左側フェンス,,36.6295651002384,138.207211079038
長野県,長野市,,,稲葉公園西側フェンス,,36.6313080685084,138.209824150129
長野県,長野市,,,㈱メディセオ長野支店北側フェンス,,36.6288658357739,138.212742395359
長野県,長野市,,,犀陵中学校グラウンド南西角,,36.6233201273323,138.210791791334
長野県,長野市,,,長野市衛生センター北側道路沿いフェンス,,36.6226294163483,138.201599471913
長野県,長野市,,,川合新田遊園地西側フェンス,,36.6257987326864,138.212755115694
長野県,長野市,,,長野運送倉庫西側道路沿いフェンス北側,,36.6299999254592,138.212131188803
長野県,長野市,,,長野駅東口公衆トイレ北東の東口駐輪場フェンス,,36.6432950326924,138.190225340649
長野県,長野市,,,ヤングファラオ南西隅国道１８号線沿い,,36.6382132294235,138.210991384304
長野県,長野市,,,南部小学校正門右植込み内,,36.6409049067329,138.199202212845
長野県,長野市,,,南俣信号県道沿い西・Ｔ様方塀,,36.63722562,138.20885659
長野県,長野市,,,長野･須坂インター線沿いパナソニックホームズ信州（株）植え込み内,,36.6422368329816,138.207217067644
長野県,長野市,,,南俣神社西側,,36.6387623994585,138.20551177427
長野県,長野市,,,南俣稲葉遊園地南側フェンス沿い,,36.6378872288796,138.202939868497
長野県,長野市,,,七瀬西公園北側フェンス,,36.6432525961448,138.192715547663
長野県,長野市,,,櫻ケ岡中学校グラウンド西フェンス,,36.6435540521194,138.2032471012
長野県,長野市,,,守田迺神社西側,,36.6489196085454,138.207584769371
長野県,長野市,,,北条公民館北西側市道フェンス,,36.6508437161664,138.206277718675
長野県,長野市,,,川端天神社境内,,36.6454218535384,138.207689170632
長野県,長野市,,,荒屋町公民館入口右　ガードレール沿い,,36.6540359547598,138.207298009401
長野県,長野市,,,旧中村町公民館南　可燃ごみステーション東側ガードレール,,36.6468948487311,138.20664378757
長野県,長野市,,,中村遊園地北側植え込み,,36.6478734779752,138.208695800303
長野県,長野市,,,市営西和田テニスコート管理棟北側,,36.6578236224226,138.216588962664
長野県,長野市,,,平林公園南側フェンス沿い,,36.6523124100917,138.211460462718
長野県,長野市,,,三重公園北側フェンス,,36.6501219983672,138.211420940575
長野県,長野市,,,松ノ木公園南側フェンス,,36.650364347301,138.216902184462
長野県,長野市,,,古牧公民館南側東植込み,,36.6490357088466,138.21891487054
長野県,長野市,,,古牧小学校体育館南側フェンス,,36.6474999991171,138.218909931586
長野県,長野市,,,東和田公会堂西側道路フェンス,,36.6560066770129,138.225323430658
長野県,長野市,,,和田神社南側石碑前(鳥居の東側空地),,36.6558992976084,138.218658221201
長野県,長野市,,,南高田公会堂前,,36.6419927168192,138.221449147747
長野県,長野市,,,西尾張部普門堂遊園地東側フェンス沿い,,36.6484757122763,138.224646431591
長野県,長野市,,,尾張部城跡公園北側フェンス,,36.6473533115084,138.229760255403
長野県,長野市,,,古牧東部記念公園南側フェンス中央,,36.645656563942,138.224720575374
長野県,長野市,,,西尾張部子ども広場南側フェンス,,36.6505455155846,138.230675230813
長野県,長野市,,,長池神社東側道路沿い,,36.644444257654,138.228300125921
長野県,長野市,,,柏木団地遊園地西側フェンス,,36.6387117257344,138.218106401102
長野県,長野市,,,長野信用金庫長池支店駐車場入口西端,,36.642737969092,138.227816939345
長野県,長野市,,,ダイアパレス長野メダリオン東側・Ｔ様方ブロック塀,,36.65971348,138.19488038
長野県,長野市,,,柳町中学校グラウンド北側　部室棟北側フェンス,,36.6559677591595,138.198870189306
長野県,長野市,,,城東小学校校門隣（南）フェンス,,36.6574571143001,138.198681285483
長野県,長野市,,,東鶴賀町公会堂東側,,36.6519886689062,138.198914723941
長野県,長野市,,,柳町公園東側フェンス沿い,,36.6536364628283,138.202442427443
長野県,長野市,,,りんどう保育園北側,,36.6588681845002,138.200031946884
長野県,長野市,,,県営柳町団地駐車場南植栽（７号棟北側植栽）,,36.6575500375019,138.201678045106
長野県,長野市,,,淀ケ橋公民館隣遊園地北側フェンス,,36.6577923206257,138.192575026849
長野県,長野市,,,三輪公民館南側フェンス,,36.6604634183099,138.203387352359
長野県,長野市,,,三輪小学校体育館南側,,36.6623573077881,138.202733754203
長野県,長野市,,,済生会長野保育園駐車場南側,,36.6638505533343,138.196524551022
長野県,長野市,,,柳町保育園東側,,36.6545806922865,138.203899806565
長野県,長野市,,,康楽寺墓地西長野大通り歩道フェンス,,36.6656785023949,138.19642005853
長野県,長野市,,,美和公園北側入口,,36.6668380448735,138.201570259227
長野県,長野市,,,三輪東公園　北側植栽花壇奥（公園内）,,36.66276416,138.20661381
長野県,長野市,,,宇木団地公園東側,,36.6683082516261,138.204172803087
長野県,長野市,,,弁天池東側ゴミ集積所北側,,36.6625052350854,138.212888057152
長野県,長野市,,,北長野駅南側　北長野2号公園南側フェンス,,36.6647097333518,138.223059650623
長野県,長野市,,,中越西沖遊園地　北東フェンス,,36.6616236,138.22019381
長野県,長野市,,,泉町公民館西側フェンス,,36.6635392801859,138.209590937274
長野県,長野市,,,東部中学校グラウンド西南フェンス,,36.6635306598653,138.217497277308
長野県,長野市,,,北長野１号公園南フェンス公園入口右側,,36.6623903327543,138.224290497636
長野県,長野市,,,(株)シーテック長野支社駐車場西側フェンス南端,,36.6677063902873,138.214519765055
長野県,長野市,,,辰己公園北側入口横三角地,,36.6688145351751,138.225662854489
長野県,長野市,,,吉田小学校西側角植込み内,,36.6691055065667,138.221509173804
長野県,長野市,,,吉田北本町区　遊園地東側フェンス,,36.671418594087,138.219191174203
長野県,長野市,,,長野運動公園入口南角植込み(西向き),,36.6593580055645,138.230063784822
長野県,長野市,,,長野職業能力開発促進センター　南側フェンス,,36.6658803671724,138.232440531214
長野県,長野市,,,デリシア吉田店駐車場西側,,36.6645248694918,138.230499567333
長野県,長野市,,,広町県住Ｂ棟東側法面,,36.6729057051524,138.211597422355
長野県,長野市,,,長野吉田高校第二グラウンドの北西端,,36.6717673557077,138.211889747252
長野県,長野市,,,JAホール吉田南東フェンス,,36.669712029502,138.214778256884
長野県,長野市,,,吉田ふれあいサロン広場北東フェンス,,36.6675316958837,138.217972866183
長野県,長野市,,,旧ＮＴＴ寮南市道富竹南堀線沿いごみ集積場東側,,36.6692633786743,138.238117159515
長野県,長野市,,,古里小学校校庭東側県道沿いフェンス,,36.6757942397838,138.246788826626
長野県,長野市,,,正澤寺南・Ｔ様貸家北側市道沿いブロック塀,,36.67886292,138.24934939
長野県,長野市,,,下駒沢団地遊園地南側市道沿いフェンス,,36.682787135297,138.25244296505
長野県,長野市,,,上駒沢集会所北側市道沿いフェンス,,36.6800081906872,138.241315645161
長野県,長野市,,,市道穂保三才線沿い長電バス停リハビリセンター北東歩道フェンス,,36.6831090809107,138.257130934565
長野県,長野市,,,市道三才下駒沢線沿い老人保健施設ふるさと西道路沿い,,36.6861956033566,138.251301289156
長野県,長野市,,,東北中学校西側道路沿いフェンス,,36.6764234796821,138.258516983569
長野県,長野市,,,富竹公園北西　市道富竹中央線沿いごみ集積所裏側,,36.6707524654047,138.251505383388
長野県,長野市,,,小島公会堂西・Ｏ様方市道沿いブロック塀,,36.66044497,138.25094901
長野県,長野市,,,柳原県住団地内A1棟南側フェンス,,36.6566548614517,138.251383729827
長野県,長野市,,,市営柳原団地跡地（柳原古里線01049号）,,36.6619944462815,138.257252557854
長野県,長野市,,,ながの農協長野平支所倉庫北西砂利駐車場フェンス,,36.657316882654,138.255518632611
長野県,長野市,,,坂本酒店北側果樹園道路沿い,,36.6580259261002,138.261698200324
長野県,長野市,,,村山神社市道沿い敷地内,,36.661457082557,138.265622276087
長野県,長野市,,,中麻奈の里公園北側,,36.6652237818591,138.258867531337
長野県,長野市,,,長野電鉄柳原駅駐車場と鬼灯書籍㈱との間の歩道フェンス,,36.6632323067022,138.25864739929
長野県,長野市,,,浅川支所入口フェンス（浅川小神楽橋線02012）,,36.6816060124782,138.205063652938
長野県,長野市,,,浅川中央遊園地南西側フェンス,,36.6846374582242,138.20158631704
長野県,長野市,,,市道霊園線余地霊園案内板東側,,36.687296801518,138.20148265278
長野県,長野市,,,県道戸隠高原浅川線　真光寺公民館南　緑地帯南西,,36.6849954370959,138.195130314044
長野県,長野市,,,県道長野信濃線西条入口待避所フェンス,,36.6877135716217,138.207972358305
長野県,長野市,,,浅川西条団地わんぱく広場南東法面,,36.6874420085814,138.213047339694
長野県,長野市,,,浅川団地中央公園南側,,36.683660697514,138.206910095333
長野県,長野市,,,北部中学校南側フェンス,,36.6816056214941,138.211614765022
長野県,長野市,,,浅川畑山農村生活改善センタ－入口南側,,36.6876871811894,138.181148449686
長野県,長野市,,,台ケ窪公会堂入口火の見横,,36.706831871927,138.189235232462
長野県,長野市,,,市道　浅川東条台ケ窪線　ガードレール,,36.6991425130828,138.195000990006
長野県,長野市,,,坂中公民館前金網フェンス,,36.7029993182736,138.202818323859
長野県,長野市,,,神楽橋遊園地北側フェンス,,36.6806105226516,138.206964638578
長野県,長野市,,,市道２級北郷中央線　北郷児童館前ガードレール,,36.7026445588077,138.172510762532
長野県,長野市,,,中曽根西バス停待合所横・Ｍ様方リンゴ畑,,36.70261028675,138.163745872985
長野県,長野市,,,Ｉ様宅入口付近,,36.704554342455,138.184725473233
長野県,長野市,,,門沢区ごみステーション横,,36.6920328745047,138.159959079113
長野県,長野市,,,Ｍ様方板塀,,36.7029148986661,138.175257016774
長野県,長野市,,,Ｋ様方道路側ブロック壁,,36.7034141738999,138.166667627659
長野県,長野市,,,松岡神社北石塀,,36.6276527867535,138.215572535263
長野県,長野市,,,大豆島公園　駐輪場西側の植え込み内,,36.6328280318635,138.226900293145
長野県,長野市,,,（県）大豆島・吉田線　大豆島体育館西側ガードレール,,36.6335152739817,138.228202084579
長野県,長野市,,,大豆島下区入口バス停そば,,36.6323688970967,138.232135099053
長野県,長野市,,,大豆島東区集会所公会堂東側フェンス,,36.6278041208348,138.239250525176
長野県,長野市,,,大豆島総合市民センター,,36.6315311292831,138.225155277794
長野県,長野市,,,西風間信号角・Ｔ様方北西角フェンス,,36.6339850904694,138.221374073855
長野県,長野市,,,中村モータース自宅南西角,,36.6377933831044,138.228859350091
長野県,長野市,,,更級神明大神社南・県道沿い月極め駐車場北角フェンス,,36.6306582482088,138.229829237238
長野県,長野市,,,大豆島いこいの家西側市道沿い,,36.6249673402415,138.226975767205
長野県,長野市,,,ながの農協冷蔵庫南側壁面,,36.648970830874,138.250960289429
長野県,長野市,,,アパートサンコーポクレイン県道沿い（北側）,,36.6519692722795,138.242186118069
長野県,長野市,,,尾張神社参道入口右側(玉垣),,36.6550817618625,138.235689943848
長野県,長野市,,,桜新町中央遊園地東側フェンス,,36.6517248795113,138.231673821094
長野県,長野市,,,朝陽公民館体育館西側壁,,36.6540288024135,138.241220958351
長野県,長野市,,,(株)炭平コーポレーション入口付近,,36.6522198922615,138.238275923205
長野県,長野市,,,㈱ヨコハマタイヤジャパン入口フェンス,,36.6557084417478,138.24531815272
長野県,長野市,,,天照皇大神社南側（交差点近く）,,36.6419870969475,138.247585026714
長野県,長野市,,,樋口商社西・Ｈ様方りんご畑県道沿い,,36.6438460551848,138.246956895383
長野県,長野市,,,梅園団地梅園公園南側柵,,36.6584064041994,138.235791341329
長野県,長野市,,,かつら団地北遊園地南側柵,,36.6600763171065,138.241934555895
長野県,長野市,,,南堀団地中央遊園地南側柵,,36.6610260236082,138.245699407832
長野県,長野市,,,信大附属長野中学校グラウンド西側柵,,36.6629269503998,138.244513380065
長野県,長野市,,,槻井泉神社南側県道沿いブロック塀,,36.6632738866613,138.2399467573
長野県,長野市,,,北堀公会堂東側県道沿いブロック塀,,36.6680744603163,138.243032662646
長野県,長野市,,,大日庵跡遊園地西側柵,,36.6671226204952,138.244556911703
長野県,長野市,,,石渡公民館西北ガードレール内側,,36.6620116071924,138.238013783615
長野県,長野市,,,若槻分署南側フェンス,,36.6851639897245,138.222131329805
長野県,長野市,,,上野中央公園敷地内東側,,36.6898182725454,138.231624185661
長野県,長野市,,,(株)アイテクノ矢嶋　北側フェンス沿い,,36.685889263655,138.22977847179
長野県,長野市,,,若槻コミュニティ・センター（若槻公民館）駐輪場北側,,36.6836474188966,138.220716608722
長野県,長野市,,,若槻南公園西側フェンス,,36.6778596631536,138.215914878666
長野県,長野市,,,若槻西公園北側フェンス,,36.6788133983188,138.213550134038
長野県,長野市,,,若槻児童館東側フェンス,,36.6804726187901,138.216321290325
長野県,長野市,,,田中バス停そば・Ｍ様方北側畑内,,36.6936546688548,138.229234505873
長野県,長野市,,,上野１丁目625畑内,,36.6876615109371,138.227617641284
長野県,長野市,,,稲田神社県道沿入口玉垣,,36.6741681205338,138.220780204422
長野県,長野市,,,ヤマト運輸㈱長野徳間センター北側,,36.6753067598823,138.227896010692
長野県,長野市,,,ながの農協旧若槻支所駐車場内,,36.6800575840107,138.223439457373
長野県,長野市,,,徳間八幡社入口,,36.678295647507,138.22758003566
長野県,長野市,,,東徳間集会所敷地内ガードレール,,36.6833780855365,138.236502166678
長野県,長野市,,,三笠台団地遊園地フェンス,,36.6844904010333,138.23736947784
長野県,長野市,,,県住Ｆ棟東側遊園地南　市道沿いフェンス,,36.6802931541561,138.238901596323
長野県,長野市,,,駒沢新町第二団地Ａ棟北側県道沿いフェンス,,36.6818198633558,138.235948412771
長野県,長野市,,,吉村バス停裏・Ｉ様方北側石塀外側,,36.705192665606,138.24353053553
長野県,長野市,,,Ｍ様方フェンス,,36.7088073112516,138.245209657186
長野県,長野市,,,観音山公園そば・田子池東側　市道沿い空地,,36.7018830608329,138.238718135966
長野県,長野市,,,Ｍ様方ブロック塀,,36.7137747022492,138.249279917009
長野県,長野市,,,田子公民館市道沿い石垣,,36.7003724817388,138.234927367182
長野県,長野市,,,雷鳥保育園　駐車場,,36.6994889918935,138.232333003988
長野県,長野市,,,Ｔ様方所有地南側のり面,,36.6965659378263,138.232313702518
長野県,長野市,,,長野市農民館フェンス,,36.6756097620674,138.267975798508
長野県,長野市,,,善導寺入口南側　Ｙ様宅ブロック塀,,36.6780982440737,138.271702686718
長野県,長野市,,,長沼支所乗り合いタクシー停留所付近,,36.6872274889731,138.274418279305
長野県,長野市,,,(有)ストーブ屋北県道沿いＴ様方胡桃園,,36.6962319325325,138.275728686271
長野県,長野市,,,大田神社県道沿玉垣中程(郵便局の正面）,,36.6997483205935,138.275745548816
長野県,長野市,,,赤沼北町遊園地南側フェンス沿い,,36.7060985894483,138.276921507643
長野県,長野市,,,若槻理容店北約200ｍ県道東側Ｏ様宅リンゴ園,,36.689843256571,138.275470593701
長野県,長野市,,,赤沼東部防火水槽前Ｋ様方リンゴ園,,36.6990861567856,138.279323037889
長野県,長野市,,,道路東側ガードレール沿い（山王小弥勒寺線01053号）,,36.6447771632531,138.174761678746
長野県,長野市,,,ながの東急百貨店　配送センター国道沿い,,36.6345372866854,138.168525841325
長野県,長野市,,,安茂里総合市民センター東側入口植え込み,,36.6369185706838,138.173136759705
長野県,長野市,,,平柴台団地遊園地石垣南角,,36.6439009323164,138.172525881624
長野県,長野市,,,杏花台公民館東側外壁沿い,,36.6409950943685,138.171407548332
長野県,長野市,,,安茂里小学校南側土手道路沿い（安茂里173号）,,36.6387951547999,138.172187301053
長野県,長野市,,,市道安茂里165号線　東側フェンス沿い（駐車場脇）,,36.6318656802681,138.161873864711
長野県,長野市,,,安茂里小学校グラウンド北東側市道沿いフェンス,,36.6397148233484,138.171863285277
長野県,長野市,,,差出北公民館西側外壁沿い,,36.6397035968396,138.174131067078
長野県,長野市,,,長野県環境保全研究所車庫西側道路沿い,,36.6353525589418,138.178102825462
長野県,長野市,,,裾花中学校プール南側壁面道路沿い,,36.6330165866947,138.175739635183
長野県,長野市,,,アサヒグループ食品株式会社工場前西角フェンス,,36.6331904953556,138.172763000338
長野県,長野市,,,犀川浄水場北側フェンス,,36.6285336374605,138.172139723441
長野県,長野市,,,信学会裾花幼稚園北西角道路沿いフェンス,,36.6313316969414,138.168864393425
長野県,長野市,,,安茂里保育園　南側フェンス　南東角,,36.6299668043866,138.165734731168
長野県,長野市,,,犀北団地中央遊園地北側フェンス沿い,,36.6274052897871,138.161199298575
長野県,長野市,,,公社賃貸住宅JK-2南側道路沿いフェンス,,36.6322607109928,138.167443246176
長野県,長野市,,,高木建設㈱機材部前国道沿いブロック塀,,36.6291138922336,138.156987140453
長野県,長野市,,,歩道橋東国道沿北西角畑,,36.624810005892,138.14379018045
長野県,長野市,,,安茂里体育館東側壁面,,36.6227158490731,138.142884785787
長野県,長野市,,,園沖公会堂東側の石垣,,36.6255777395175,138.138504670745
長野県,長野市,,,小市団地南側入口空地(信毎掲示板右横),,36.6240619746451,138.135595405752
長野県,長野市,,,小市団地内北段入口(案内板左横),,36.6244506686754,138.134980214593
長野県,長野市,,,国道19号沿い 長野白土産業（株）様土地,,36.6268637461237,138.149420416518
長野県,長野市,,,Ｍ様方前道路沿い畑（小市保育園東側）,,36.6237391214333,138.141669130625
長野県,長野市,,,Ｎ様方東側フェンス(たたら団地入口),,36.6716977373005,138.157547825388
長野県,長野市,,,（県）長野・戸隠線　（仮）芋井総合市民センター前,,36.6765054315397,138.154909636321
長野県,長野市,,,（県）長野・戸隠線　上ケ屋バス停横,,36.6753518735452,138.149235007267
長野県,長野市,,,池平バス停北側　Ｄ様方畑ののり面,,36.677493941292,138.14577562311
長野県,長野市,,,（県）飯綱高原・芋井線　芋井児童センター東県道沿い,,36.6794916336002,138.149373250543
長野県,長野市,,,市道新安畑山線ガードレール沿い（農道79号線との交差部）,,36.683092920953,138.174965956565
長野県,長野市,,,藤之森神社南東　Ｗ様所有畑法面,,36.6805049400402,138.167474317234
長野県,長野市,,,市道芋井59号線　分岐点付近,,36.6801735625906,138.163756469552
長野県,長野市,,,芋井社会会館入口市道路肩,,36.6748860089958,138.137184039583
長野県,長野市,,,（県）長野・戸隠線　広瀬バス停横路肩,,36.6807673643865,138.140272889024
長野県,長野市,,,旧善光寺温泉ホテルの西南市道脇（百瀬岩戸池平線01021号）,,36.6672595460103,138.140961008475
長野県,長野市,,,岩戸入口北側道路敷(南部線－入山本線交差、芋井88号線）,,36.6719597534016,138.130420534592
長野県,長野市,,,洞入口カーブミラーと標識の間（百瀬岩戸池平線01021号）,,36.6711486005719,138.135325591759
長野県,長野市,,,芋井小学校第一分校入口東側,,36.679325188527,138.120676862561
長野県,長野市,,,沢浦農村コミュニティー促進施設（正面左側植え込）前,,36.6800802088562,138.126587886387
長野県,長野市,,,扇平バス停西北側 扇平生活改善センター前,,36.6794795124874,138.129525157667
長野県,長野市,,,集落内Ｔ字路南　ブロック積の手前,,36.6757878231884,138.101417431648
長野県,長野市,,,県道入山・小市線上ノ平集落入口北側カーブ沿い,,36.6741434430847,138.112630842564
長野県,長野市,,,フロンティアハウス（開拓記念館）入口西側道路沿い,,36.718341418709,138.138807622626
長野県,長野市,,,飯綱スキー場第3リフト前バス停(グランド側)土手,,36.7165433333487,138.140847148545
長野県,長野市,,,ドライブイン飯綱市営無料駐車場内ふれあいの塔,,36.7071325620484,138.144486633922
長野県,長野市,,,麓原集荷場西側の県道栃原・北郷・信濃線沿いと水路敷との空地,,36.7128245080553,138.137897350904
長野県,長野市,,,バードライン飯綱登山口バス停西区案内図板北側空地,,36.710623937067,138.125797618447
長野県,長野市,,,バードライン飯綱西区入口バス停西区案内図板横空地（芋井19号）,,36.7089374019748,138.131207123685
長野県,長野市,,,ながの農業協同組合芋井支店栄峰集落内集荷場,,36.7007085112743,138.114308092878
長野県,長野市,,,飯綱湖東交差点道路南側石垣前の空地（芋井30号）,,36.7008439106833,138.131549033931
長野県,長野市,,,Ｓ様宅荷置場の壁,,36.626390734795,138.120975307608
長野県,長野市,,,県道入山小市線平林入口県道沿い,,36.63289829036,138.13476686957
長野県,長野市,,,上深沢県道交差点付近,,36.6405965432246,138.122776929541
長野県,長野市,,,巡礼桜旧バス停横県道沿い,,36.6367782780141,138.122680284669
長野県,長野市,,,旧小田切園敷地前北東側入り口門塀前,,36.6435267653986,138.109865230994
長野県,長野市,,,市水道局山田中水道配水池前道沿いフェンス,,36.6503328232028,138.11430874082
長野県,長野市,,,小田切支所向かい　川後消防器具置場横,,36.644557074862,138.118297689369
長野県,長野市,,,下宮野尾公民館向かい（市道矢平保玉橋線と農道小田切46号線の交差付近）,,36.6287437782981,138.106299870055
長野県,長野市,,,国見公会堂入口市道東側,,36.6568276953173,138.131342089237
長野県,長野市,,,百瀬生活改善センター前市道西側,,36.6678079474079,138.144571403857
長野県,長野市,,,県道　長野小川線　湯山バス停付近,,36.6614228273829,138.142063695863
長野県,長野市,,,地蔵平区公民館入口,,36.6647554056697,138.156104496714
長野県,長野市,,,裾花台団地案内図　左側,,36.6642574415949,138.154067031807
長野県,長野市,,,Ｔ様宅南ガードレールの外側,,36.6631838388616,138.15583221742
長野県,長野市,,,㈲進栄社北側敷地内,,36.6638741471892,138.157701321052
長野県,長野市,,,裾花区自治会館前,,36.6625199257508,138.15469747137
長野県,長野市,,,グリーン長野農協オートパル篠ノ井東側　旧国道18号線沿い,,36.5701826233071,138.141684711814
長野県,長野市,,,昭和区公民館西側空地,,36.571047666275,138.134631197493
長野県,長野市,,,通明小学校グラウンド西側フェンス,,36.5721590652419,138.137094432376
長野県,長野市,,,厚生連篠ノ井総合病院北側駐車場県道沿いフェンス,,36.5760189829613,138.14955000211
長野県,長野市,,,篠ノ井支所駐車場東側フェンス,,36.5732553291324,138.138966094698
長野県,長野市,,,グリ－ン長野農協くらしのセンター東側道路沿い,,36.5663114812035,138.136385111517
長野県,長野市,,,東横田公民館東側リンゴ畑,,36.5623957506464,138.1500266097
長野県,長野市,,,西横田防火水槽南側・Ｙ様農地,,36.5614655195367,138.142653270899
長野県,長野市,,,デリクックちくま駐車場東側道路沿い,,36.5762020278941,138.155692780968
長野県,長野市,,,篠ノ井中央パーキング県道沿西側フェンス,,36.5767513337344,138.139882079109
長野県,長野市,,,高田信号西・Ｋ様宅北側県道沿い空地,,36.5822420838857,138.145706459973
長野県,長野市,,,長野県文化振興事業団長野県埋蔵文化財センター東側道路沿いフェンス,,36.5794785671032,138.141422943868
長野県,長野市,,,合戦場公園南側フェンス,,36.579792596122,138.157837394741
長野県,長野市,,,更級農業高等学校体育館南側道路沿いフェンス,,36.5775004186052,138.1494129031
長野県,長野市,,,篠ノ井西組公園フェンス,,36.5803974064302,138.138204319602
長野県,長野市,,,篠ノ井西中学校西側（正門側）フェンス,,36.5767615350524,138.131337197811
長野県,長野市,,,篠ノ井駅西口自転車駐車場南側フェンス,,36.5782678876047,138.137084564277
長野県,長野市,,,市営住宅北五明東団地２号棟西側道路沿い（中条大門線01132号）,,36.5825328287958,138.132660612906
長野県,長野市,,,JA虹のホール篠ノ井県道沿い,,36.578428768924,138.127720219816
長野県,長野市,,,中条公民館第二公民館道路側,,36.5732552436095,138.130355684436
長野県,長野市,,,篠ノ井西中学校南側テニスコート沿いフェンス,,36.5757635267026,138.132629590368
長野県,長野市,,,長谷・越公民館駐車場県道沿い,,36.5480105341316,138.107080482437
長野県,長野市,,,四野宮四辻県所有地北側,,36.5543674565105,138.104716774403
長野県,長野市,,,四之宮公園フェンス,,36.550547749297,138.110880787305
長野県,長野市,,,Ｓ様方県道沿い,,36.5512882219593,138.11430642923
長野県,長野市,,,平久保運動広場県道沿いフェンス,,36.5608177588439,138.124306578908
長野県,長野市,,,市営塩崎体育館駐車場北側,,36.5579077324935,138.117670433781
長野県,長野市,,,庄ノ宮県営団地内公園南側フェンス,,36.5609596569833,138.135500879398
長野県,長野市,,,長谷観世音仁王門前南　Ｍ様方東側空地,,36.5484963317008,138.102099275938
長野県,長野市,,,作見公民館東側フェンス,,36.5649371503473,138.127349823636
長野県,長野市,,,上石川公民館南側市道沿い（篠ノ井中048号）,,36.5653593998472,138.108160390614
長野県,長野市,,,バス停「柳沢」北、Ｍ様宅駐車場内,,36.5764191180342,138.116694827644
長野県,長野市,,,Ｋ様方入口防火水槽南市道側,,36.5671742313387,138.132364297008
長野県,長野市,,,川柳テニスコート西側ネットフェンスの分館寄りの位置,,36.5687956778361,138.119805349199
長野県,長野市,,,篠ノ井西小学校南側市道沿い,,36.5715246256208,138.12585304339
長野県,長野市,,,上佩川鳥居前東側の電柱西側（篠ノ井南349号）,,36.5655450440652,138.110700810835
長野県,長野市,,,犀口公民館南側県道沿い,,36.6192229853495,138.13431209774
長野県,長野市,,,JR今井駅駅舎東側　今井原西緑地　南空き地,,36.5951053976757,138.145859646203
長野県,長野市,,,南組公民館東側県道フェンス沿い,,36.6107234802003,138.131127414661
長野県,長野市,,,共和小学校正門北側フェンス,,36.6003040090229,138.13677641198
長野県,長野市,,,岡田児童センター南側フェンス沿い,,36.5917340351793,138.132551768439
長野県,長野市,,,三ツ沢公民館東・Ｉ様宅北側（段ノ原北原線01127号）,,36.6007724740748,138.146626238385
長野県,長野市,,,篠ノ井体育館入口北側市道法面（岡田新田線02122号）,,36.5868307768227,138.130864830037
長野県,長野市,,,今井県職員住宅東側道路案内表示付近（川中島335号）,,36.5936402872839,138.149915680282
長野県,長野市,,,篠ノ井交流センター共和分館県道沿いフェンス,,36.6000793323476,138.131064535917
長野県,長野市,,,柳屋商店東隣、県道戸隠・篠ノ井線ガードレール沿い,,36.5859165247859,138.106302485936
長野県,長野市,,,県道戸隠・篠ノ井線ガードレール沿い,,36.5905662190897,138.102939714856
長野県,長野市,,,県道戸隠・篠ノ井線ガードレール沿い,,36.6011085629945,138.090032337682
長野県,長野市,,,（主）戸隠・篠ノ井線沿い宮平口バス停横ガードレール,,36.5967631155014,138.085113919608
長野県,長野市,,,県道安庭篠ノ井線法面沿い,,36.5820767494442,138.091386911126
長野県,長野市,,,市道柳沢赤田線ガードレール沿い,,36.5744026196908,138.104885996624
長野県,長野市,,,県道安庭篠ノ井線ガードパイプ沿い,,36.5831983584446,138.102754543932
長野県,長野市,,,夜交大久保公民館北側　市道沿い木柱前,,36.6074683293356,138.098798937838
長野県,長野市,,,（主）戸隠・篠ノ井線　若林バス停前,,36.6053468872458,138.093650402724
長野県,長野市,,,村山健康スポーツセンター北側ブロック壁,,36.6158471012618,138.095282815226
長野県,長野市,,,Ｏ様方西側県道沿いの石塀,,36.6158515172718,138.10580124542
長野県,長野市,,,観音寺駐車場,,36.6117154160108,138.088629682613
長野県,長野市,,,Ｓ様宅入口ブロック壁,,36.6052582543063,138.073881582696
長野県,長野市,,,県道松代篠ノ井線沿い　小森東バス停東側　Ｙ様方道路沿い　ブロック塀,,36.5722087792392,138.164070939959
長野県,長野市,,,長野市第二学校給食センター　北西公園(緑地帯)西側フェンス,,36.5712780083682,138.176313510868
長野県,長野市,,,東福寺公園北側フェンス,,36.5727855856479,138.172713710331
長野県,長野市,,,南長野運動公園テニスコート場の前の緑地内,,36.5780271126406,138.170253467397
長野県,長野市,,,篠ノ井東小学校校門西側の農地道路沿い,,36.578854167253,138.175973488945
長野県,長野市,,,犀南自治会館西側犀南公園南側フェンス,,36.5849026554903,138.177237081759
長野県,長野市,,,中沢公民館前,,36.5699723768251,138.179425405509
長野県,長野市,,,市道五明西寺尾線典厩寺入口信号先　歩道のフェンス,,36.5836431789669,138.188695760283
長野県,長野市,,,岡神明神社参道入口の左側,,36.5856355834183,138.182775930376
長野県,長野市,,,篠ノ井交流センター西寺尾分館東側道沿い,,36.5799112385331,138.187788293873
長野県,長野市,,,Ｎ様方北側電柱の北側,,36.5767920221045,138.185429429474
長野県,長野市,,,篠ノ井西寺尾公園南側フェンス,,36.5840067146547,138.184247045392
長野県,長野市,,,神明広田中央公園北側フェンス,,36.5878303683894,138.181426401279
長野県,長野市,,,Ｎ様所有きのこ工場北側（赤川信号長野寄り）,,36.5850560016156,138.188571011745
長野県,長野市,,,松代公民館入口西側,,36.5629256546044,138.198012784756
長野県,長野市,,,長野電鉄旧松代駅入口　駐輪場東側,,36.5661573433327,138.198983124679
長野県,長野市,,,表柴町公民館南・Ｏ様方県道沿いブロック塀,,36.5580222904722,138.201619387473
長野県,長野市,,,国道403号上高相交差点北東側歩道脇の植栽帯の中,,36.5717848828665,138.197969314538
長野県,長野市,,,市道五反田越線沿いＫ様所有地（畑）,,36.5540996220378,138.190340698853
長野県,長野市,,,Ｔ様方道路沿い木塀,,36.562777555232,138.204563159538
長野県,長野市,,,浄真寺様方ブロック塀,,36.5755094048939,138.195218012713
長野県,長野市,,,信金松代支店向かい・Ｈ様方国道沿家西側壁面,,36.5627333166736,138.202169631423
長野県,長野市,,,主要地方道長野真田線　城北団地野球場南東側歩道向かい側のフェンス,,36.5710542999757,138.203181582496
長野県,長野市,,,岩野遊園地・市道沿い道路敷,,36.5619901973842,138.160222844141
長野県,長野市,,,清野小前・清野役場跡地公園東側道沿いフェンス,,36.5637149200253,138.174894697008
長野県,長野市,,,清野公園東側道沿いフェンス,,36.5559580115628,138.181938259316
長野県,長野市,,,会津比売神社入口　旧長野電鉄屋代線跡地（国道403号沿い）,,36.5622547663773,138.166235331102
長野県,長野市,,,市道清野中央線沿いポールフェンス,,36.5573005890189,138.177104231466
長野県,長野市,,,道島バス停そば・Ｍ様方県道沿塀,,36.5618674255136,138.183294442816
長野県,長野市,,,鳥見塚公民館東・Ｏ様方ブロック塀,,36.5560179392599,138.179941704093
長野県,長野市,,,松代公民館清野分館南・Ｍ様方ブロック塀,,36.5623375898065,138.176314248859
長野県,長野市,,,西条小学校東側道沿いフェンス,,36.549270144386,138.200253741399
長野県,長野市,,,入組橋北　K様方ブロック塀,,36.5406692,138.2060848
長野県,長野市,,,（県）六鹿・松代停車場線沿い　不燃ゴミ集積場横,,36.5434045625777,138.202755360378
長野県,長野市,,,Ｋ様方南側駐車場県道沿い（松代体育館西）,,36.553291124191,138.201757513785
長野県,長野市,,,表組公会堂向かい・Ｉ様方玉葱ハウス前,,36.5547943879153,138.199025176691
長野県,長野市,,,松代高校南・Ｗ様方ブロック塀,,36.5532146044675,138.207321175602
長野県,長野市,,,Ｔ様方南県道沿い板塀,,36.5503413267776,138.201727211045
長野県,長野市,,,松代高校北・Ｂ様方西側フェンス,,36.5560059331393,138.20558319746
長野県,長野市,,,中村公民館北側壁,,36.546022507792,138.201593045126
長野県,長野市,,,Ｍ様方畑前市道フェンス（市道菖蒲沢線）,,36.5490246522183,138.229204773001
長野県,長野市,,,牧内バス停そば,,36.5539923085175,138.231072027706
長野県,長野市,,,豊栄保育園向かい,,36.5436207662702,138.228504846015
長野県,長野市,,,市道273号線　Ｈ様方向かいガードレール,,36.5367242278929,138.233013595204
長野県,長野市,,,松代宮崎公園フェンス,,36.550644457247,138.211122636402
長野県,長野市,,,平林公会堂東フェンス　諏訪社入口,,36.545714911111,138.226583271091
長野県,長野市,,,欠組公民館西側壁面,,36.5430997206657,138.226315152937
長野県,長野市,,,赤柴上バス停東 （市道 松代東線273号）,,36.5338294886972,138.238708238357
長野県,長野市,,,東条保育園西側道路沿いフェンス,,36.5631148185837,138.210830604194
長野県,長野市,,,グリーン長野農協松代工機センター南側道路沿い,,36.5602970255685,138.210640667356
長野県,長野市,,,長野市旧保健保養訓練センター道路沿いフェンス（南側）,,36.5695127506344,138.210450301006
長野県,長野市,,,松代東条団地中央遊園地北東側道路沿いフェンス,,36.5551645377475,138.210551076362
長野県,長野市,,,藤沢川沿竹原口バス停横（豊栄東条小線01149号）,,36.5611144183877,138.216793612594
長野県,長野市,,,温泉団地南側入口　埴科建設倉庫前南北道路沿い,,36.5705225950331,138.211480907811
長野県,長野市,,,鈴木造園前東西道路沿い,,36.564015757931,138.217330784943
長野県,長野市,,,上荒町公民館北（Ｉ様所有地の道路沿い）,,36.5560283190388,138.207409485745
長野県,長野市,,,Ｎ様方えのき茸小屋西側道路沿い,,36.5637995957239,138.226635616819
長野県,長野市,,,寺尾小学校防球ネット南側国道沿い,,36.5918276951484,138.200278626396
長野県,長野市,,,金井池北側市道上の防護柵沿い（歩道内）,,36.5901384803592,138.199300500152
長野県,長野市,,,Ｔ様方ブロック塀国道沿い,,36.5927851001632,138.207182500366
長野県,長野市,,,牧島集荷場南　Ｋ様敷地内,,36.5900662952486,138.21245521102
長野県,長野市,,,大室団地内雨水調整池横、市道上の防護柵沿い,,36.5965883334503,138.218497475684
長野県,長野市,,,高井大室神社東・Ｉ様方住宅西側県道沿い,,36.5981349539488,138.221015222777
長野県,長野市,,,金井山団地入口交差点南側カーブミラー横,,36.5902016643823,138.201661668567
長野県,長野市,,,Ｓ様宅南側県道沿い,,36.6003519529153,138.222983563128
長野県,長野市,,,Ｗ様方ブロック塀道沿い,,36.5954936919634,138.219727923908
長野県,長野市,,,長野市若穂支所入口フェンス,,36.6139864340254,138.251160987267
長野県,長野市,,,富士宮神社前塀,,36.61922924988,138.252670802438
長野県,長野市,,,綿内町遊園地国道沿いフェンス,,36.6277376237505,138.260123736297
長野県,長野市,,,芦ノ町公会堂西側県道沿い,,36.6317639333128,138.260616250593
長野県,長野市,,,綿内小学校グランド入口フェンス西側,,36.6225453648894,138.26127211324
長野県,長野市,,,綿内東公園東側フェンス,,36.6213513836918,138.274573120673
長野県,長野市,,,（国）４０３号線信号そば・県道沿い,,36.631701342426,138.265525777176
長野県,長野市,,,Ｉ様方土蔵西側,,36.6289083707602,138.267132938718
長野県,長野市,,,Ｏ様方北側市道フェンス,,36.6184843203209,138.275063131248
長野県,長野市,,,福真建工資材置場西側フェンス,,36.6102934587077,138.242301213792
長野県,長野市,,,町川田人権同和教育集会所,,36.6040856696964,138.234988952209
長野県,長野市,,,川田小学校東側フェンス,,36.6040609082818,138.242123568633
長野県,長野市,,,大門公会堂前広場,,36.6013312112294,138.247019664586
長野県,長野市,,,上和田東山神社道路沿い,,36.5940179523833,138.246967234057
長野県,長野市,,,若穂団地公会堂西フェンス,,36.5962113590374,138.251838860645
長野県,長野市,,,Ｔ様方西ブロック塀（消防置き場東向かい）,,36.5991988918233,138.25439236741
長野県,長野市,,,川田郵便局北・県道交差点そば,,36.6075431521018,138.238919598851
長野県,長野市,,,下和田火の見下掲示板横道沿い,,36.5975531168655,138.24120227778
長野県,長野市,,,（主）長野菅平線　保科温泉入口(湯原バス停)付近,,36.5797630450637,138.279154852779
長野県,長野市,,,保科小学校グラウンド前フェンス,,36.5874271041975,138.266077877844
長野県,長野市,,,町滝崎公民館の駐車場敷地,,36.5869059737994,138.261140578357
長野県,長野市,,,（主）長野・菅平線 須釜下橋の上カーブミラー東側,,36.590126258887,138.261116460622
長野県,長野市,,,赤野田橋下10ｍの土手ガードレール 市道八幡赤野田線02131,,36.5825923962696,138.258783239154
長野県,長野市,,,矢原配水池,,36.5926405403606,138.256339365537
長野県,長野市,,,市道若穂東456号線ガードレール沿い,,36.5833079886743,138.2874855669
長野県,長野市,,,保科川蓮花橋上道沿い土手（「一級河川保科川」看板付近）,,36.5831760777986,138.275208342316
長野県,長野市,,,高下上橋東・交差点角の畑,,36.5870619725401,138.254155140782
長野県,長野市,,,山新田区公会堂敷地,,36.6070819238835,138.282566278651
長野県,長野市,,,市道森山新田線01103　山新田(山崎)お宮前道路向かいのガードレール,,36.6053235128906,138.28415150314
長野県,長野市,,,大本願ユートピア出入口の石積の北側,,36.6087015944723,138.276790451633
長野県,長野市,,,Ｋ様方西側道路沿い,,36.607821122778,138.279730190244
長野県,長野市,,,道路北側隅切りの内側,,36.6085957936615,138.28182783572
長野県,長野市,,,市道T字路カーブミラー右側のガードレール,,36.6083079334016,138.285072851917
長野県,長野市,,,川中島中学校駐車場入口北側市道沿い,,36.6023409869854,138.153151855139
長野県,長野市,,,今里公民館東側市道沿い,,36.6089861045283,138.140775041207
長野県,長野市,,,今里団地公民館北側緑地帯(東向き),,36.6088083598405,138.144917531205
長野県,長野市,,,寺町西遊園地北側フェンス県道沿い,,36.6123871453573,138.1565586534
長野県,長野市,,,Ｋ様方南物置東側市道沿い花壇,,36.6066497667164,138.158143381406
長野県,長野市,,,川中島小学校グランド東側　市道沿いフェンス,,36.608757476064,138.152669432029
長野県,長野市,,,四ツ屋公民館向かい　Ｎ様宅南畑の市道沿,,36.6146894240548,138.142378883573
長野県,長野市,,,弥生町団地公園東８０ｍ・Ｉ様宅ブロック塀北側緑地帯市道沿,,36.6178494489317,138.150355655796
長野県,長野市,,,川中島駅前ロータリー南側緑地帯,,36.6144653543206,138.151309340516
長野県,長野市,,,昭和小プール東側バス停わきフェンス,,36.5912452090257,138.154566794234
長野県,長野市,,,南原北遊園地西側フェンス沿い,,36.5897709854097,138.152012000791
長野県,長野市,,,昭和小学校西側市道沿い校門南,,36.5923499312599,138.153004692063
長野県,長野市,,,獅々込沖遊園地西側フェンス沿い,,36.5889268419176,138.147301072154
長野県,長野市,,,市犀南保健センター北側道路沿いフェンス,,36.5816529247339,138.153154569452
長野県,長野市,,,長野市川中島支所西側市道沿い門北,,36.5996754048175,138.156390891145
長野県,長野市,,,すずき小児科医院西側駐車場フェンス,,36.5946751522975,138.152419655975
長野県,長野市,,,（株）ドリームモータースクールフェンス（運転免許センター入口バス停),,36.5838173021323,138.150312620727
長野県,長野市,,,御厨団地C-303東側の市道沿い不燃ゴミ置場向い,,36.5996215527821,138.165667604418
長野県,長野市,,,神田自治会館西側市道沿いフェンス,,36.5967847883148,138.165647686973
長野県,長野市,,,Ｇ様宅西側市道沿い,,36.5952687581392,138.157540553602
長野県,長野市,,,下布施バス停そば・Ｋ様宅市道沿い,,36.5855876523743,138.174808802798
長野県,長野市,,,Ｋ様方敷地東側フェンス,,36.5934434910166,138.174411568746
長野県,長野市,,,広徳中学校北門西側市道沿い,,36.5928162410067,138.171531174322
長野県,長野市,,,神明広田記念館東側市道沿い,,36.5897493319565,138.179563656996
長野県,長野市,,,Ａ様宅東側市道沿い,,36.5893569487721,138.160052251873
長野県,長野市,,,四ツ屋白金公園　北側フェンス,,36.616441633849,138.156922487043
長野県,長野市,,,青波公園内南側ごみ集積場東側,,36.6185564232456,138.178172540749
長野県,長野市,,,丹波島公園内東側フェンス,,36.6159694756768,138.171945557791
長野県,長野市,,,稲里中央公園南側フェンス,,36.6135287019735,138.174162679026
長野県,長野市,,,三本柳東遊園地東側フェンス（更北552号）,,36.6139706634277,138.166602414757
長野県,長野市,,,三本柳北公園　南側フェンス,,36.6190038829889,138.167012493707
長野県,長野市,,,若葉町東遊園地東側フェンス,,36.6186479369956,138.159519533531
長野県,長野市,,,（株）トーホク長野営業所北側フェンス,,36.6174175538841,138.177406165938
長野県,長野市,,,鍛沼公民館　南側植栽前,,36.6209620123546,138.17958585581
長野県,長野市,,,綱島神社敷地東側フェンス,,36.6160966040175,138.189168062465
長野県,長野市,,,大塚遊園地フェンス南側,,36.604671499967,138.189149731274
長野県,長野市,,,関東甲信クボタ北側フェンス,,36.612454252195,138.196413025932
長野県,長野市,,,綱北ゆうゆう児童遊園地フェンス,,36.616579091385,138.195568708613
長野県,長野市,,,更北中学校グラウンド東側フェンス,,36.6038078712717,138.19325569634
長野県,長野市,,,更北公民館南側緑地帯,,36.6102230619337,138.186709845283
長野県,長野市,,,青木島小学校体育館入口フェンス,,36.6135215562776,138.184856929632
長野県,長野市,,,国道117号線更北郵便局北側水路防護柵,,36.6098814638412,138.192459285654
長野県,長野市,,,ＪＡグリーン長野青木島支所フェンス,,36.6151912211829,138.184352031452
長野県,長野市,,,小島田中区西遊園地,,36.5997625966049,138.182960027841
長野県,長野市,,,いなさと公園東側フェンス,,36.6021154406838,138.174010657771
長野県,長野市,,,川中島古戦場史跡公園北側駐車場入口南側,,36.5900586645151,138.186621458937
長野県,長野市,,,稲里中氷鉋陣場公園南東フェンス,,36.6087222556147,138.172625037221
長野県,長野市,,,下氷鉋第一公園北側フェンス（ツルヤ南）,,36.6129896247645,138.177270378891
長野県,長野市,,,下氷鉋小学校西側道路沿いフェンス,,36.6015302456198,138.175799310855
長野県,長野市,,,ＴＯＴＯエムテック長野支店フェンス,,36.6077404210375,138.162872185157
長野県,長野市,,,中氷鉋東公園南フェンス,,36.6050641297712,138.169688724101
長野県,長野市,,,県道中村交差点西,,36.5972376597978,138.193477331855
長野県,長野市,,,ホワイトリング北駐車場東側緑地,,36.6053161687942,138.207619040989
長野県,長野市,,,大塚信号東・県道関崎・川中島線沿い,,36.610000300061,138.197484844895
長野県,長野市,,,四ツ橋信号西・県道関崎川中島線沿い,,36.6092948226255,138.207491328153
長野県,長野市,,,グリーン長野農協真島支所生産課東側壁,,36.6047518788451,138.208864881079
長野県,長野市,,,前淵信号わき,,36.6077284851726,138.214954803687
長野県,長野市,,,Ｔ様方南側りんご畑西側,,36.6129322280592,138.216570537762
長野県,長野市,,,中真島公会堂横畑市道沿いフェンス,,36.6030832722858,138.209350267107
長野県,長野市,,,川合バス停東,,36.6084457214237,138.212064296591
長野県,長野市,,,古間芝宮石垣沿い,,36.6213827551402,138.08403218782
長野県,長野市,,,旧七二会支所花壇内,,36.6275805049304,138.077843970436
長野県,長野市,,,市道２級４２号線　平出バス停東　ガードレール沿い,,36.6341828190284,138.082770949587
長野県,長野市,,,上橋詰ゲートボール場の西道路沿い（市場平出線02041号）,,36.6350238568711,138.075277228646
長野県,長野市,,,（県）小川・長野線　五十平バス停西,,36.633075616824,138.088944585287
長野県,長野市,,,滝屋組倉庫南側,,36.6454556234204,138.097755164549
長野県,長野市,,,（県）小川・長野線　坪根バス停留所沢側,,36.6395244788847,138.094114250023
長野県,長野市,,,倉並バス停南側県道沿い,,36.6372795553865,138.091260977257
長野県,長野市,,,（県）小川・長野線　中尾公民館北側 道祖神前,,36.6315423233757,138.058891859279
長野県,長野市,,,遠見倉庫前 三叉路（県道小川長野線ガードレール）,,36.6275713602276,138.063600553422
長野県,長野市,,,遠見下バス停 三叉路（県道小川長野線沿い）,,36.6273424928313,138.066356824408
長野県,長野市,,,Ａ様方裏側塀沿い,,36.6186783895597,138.100237307617
長野県,長野市,,,Ｕ様方東畑道沿い,,36.6205050738714,138.091751009361
長野県,長野市,,,瀬脇本郷公会堂入口ガードパイプ,,36.617587165828,138.087829978754
長野県,長野市,,,（主）長野･大町線沿いＴ様宅東車両待避所跡地西側法面,,36.6115804445956,138.08282675411
長野県,長野市,,,（主）長野･大町線三叉路Ｋ様宅前歩道フェンス,,36.6083793422154,138.075601913244
長野県,長野市,,,小山六美商店隣更地道路沿い,,36.6074642319029,138.065773498012
長野県,長野市,,,市道瀬脇倉並線・市場飯森線三叉路（市場飯森線02067号）,,36.62307900191,138.096707170111
長野県,長野市,,,赤田バス停石垣,,36.5638056177634,138.092868658519
長野県,長野市,,,赤田公民館入口,,36.5675374622954,138.090924721994
長野県,長野市,,,（市）信更122号線　田野口公民館下擁壁,,36.5648970969709,138.077291233775
長野県,長野市,,,グリーン長野農協 中組種子乾燥施設,,36.557125832618,138.066977981052
長野県,長野市,,,長野市信更公民館前  市道南側法面（信更中学線02158号）,,36.5717893136747,138.072730925576
長野県,長野市,,,本郷集会所前,,36.5707190078593,138.08861762985
長野県,長野市,,,農協信田支所前・一致消防器具置場,,36.564925942395,138.078791761367
長野県,長野市,,,Ｋ様方の畑（市道と電柱の間）,,36.5580921654422,138.051845709974
長野県,長野市,,,JAグリーン長野信田支所西部出張所（市道沿い）,,36.5463939903813,138.040000548704
長野県,長野市,,,旧高野分校入口（受水層法面付近）,,36.548999527026,138.035259315326
長野県,長野市,,,Ｏ様宅前畑（県道沿い）,,36.538939130793,138.029465678784
長野県,長野市,,,県道川口田野口篠ノ井線　小田原公会堂下県道沿い法面,,36.5354320323268,138.036622267059
長野県,長野市,,,下灰原・ Ｏ様宅 ビニールハウス沿い（東寄り）,,36.5566328961045,138.048312233039
長野県,長野市,,,氷熊組倉庫,,36.5812154533592,138.067629153383
長野県,長野市,,,旧更府小学校プール北側フェンス,,36.5815743841482,138.057018737148
長野県,長野市,,,平三水橋,,36.5756023006719,138.055452818181
長野県,長野市,,,氷熊入口バス停附近 農機具置場横,,36.5773047571298,138.073451683759
長野県,長野市,,,三水一区 Ｗ様宅 向い物置横,,36.5716793962602,138.063684697912
長野県,長野市,,,吉原遊園地フェンス,,36.5637066160217,138.030164479242
長野県,長野市,,,吉原第二公民館付近,,36.5620767214331,138.029547551144
長野県,長野市,,,（主）長野信州新線　今泉公民館横（南東）,,36.5691200103384,138.04692064018
長野県,長野市,,,市道信更80号線（市道大沼中央線交差点拡幅部）法面擁壁沿い脇（平場）カーブミラー横,,36.5680043289954,138.048920288596
長野県,長野市,,,吉原入口バス停 市道沿い（蟹沢西日向線01173号）,,36.5660349079409,138.041828648289
長野県,長野市,,,桜井公民館入口右側,,36.5886943958329,138.074312529152
長野県,長野市,,,涌池公民館横　ごみステーション西側,,36.5905263404787,138.057665799182
長野県,長野市,,,古藤消防器具置場東側ガードレール 市道安庭下平線02163,,36.5994562551073,138.059736238776
長野県,長野市,,,（県）安庭篠ノ井線　更府保育園前,,36.5952176069508,138.049440854955
長野県,長野市,,,安庭公民館,,36.5942148684685,138.046061455894
長野県,長野市,,,宮平公民館,,36.5938728530453,138.078661411825
長野県,長野市,,,桜井バス停付近横（県道市道交差点角）県道安庭・篠ノ井線,,36.5877121656108,138.071012186752
長野県,長野市,,,柄澤酒造店駐車場東側畑入口,,36.6969704680398,138.255356219883
長野県,長野市,,,南石集会所西　Ｍ様宅ブロック塀（東向）,,36.7019058328856,138.259648821498
長野県,長野市,,,豊野さつき保育園東側フェンス　（東向）,,36.706043241374,138.259626372949
長野県,長野市,,,美濃和田団地B棟東側植込み及び駐車場（東向き）,,36.709322759341,138.268354744074
長野県,長野市,,,（県）長野・豊野線沿い（北向）,,36.7104459180968,138.269749041608
長野県,長野市,,,市道豊野沖線沿い(デリシア豊野入口　市道残地）,,36.7099614032181,138.280464950959
長野県,長野市,,,市道豊野170号線沿い（東向）,,36.7133642310129,138.278360905602
長野県,長野市,,,ゆたかの公園東側,,36.7112910724451,138.282766595348
長野県,長野市,,,（県）長野・豊野線　鳥居橋東南敷地（北向）,,36.7214930683531,138.298358620832
長野県,長野市,,,昭和橋上流左側フェンス（東向）（豊野橋場線）,,36.7243319177098,138.296389484313
長野県,長野市,,,仲町公会堂南側県道沿いフェンス,,36.7202253635397,138.294645069084
長野県,長野市,,,蟹沢区事務所前消防器具置場東フェンス（南向）（豊野高井線）,,36.7285601555196,138.300463277136
長野県,長野市,,,豊野東小学校校門右側フェンス（校庭側　南向）,,36.7273968646655,138.293877627209
長野県,長野市,,,大倉区事務所前町道端（北向）（豊野板橋小日向線）,,36.7310732326442,138.291562333928
長野県,長野市,,,曽峯西公園歩道フェンス（北向）,,36.723624926192,138.301851878497
長野県,長野市,,,信号機「大倉」南側（北向）（国道18号）,,36.7317386985092,138.286368057073
長野県,長野市,,,川谷諏訪社壁際,,36.7337472815462,138.272595748733
長野県,長野市,,,戸隠農村環境改善センター前フェンス,,36.7021220841164,138.089087700909
長野県,長野市,,,戸隠中学校体育館前ガードレール（戸隠宮沢線）,,36.7001571480207,138.094403148981
長野県,長野市,,,（主）長野・戸隠線　一里松道路肩,,36.7123467529242,138.087366965242
長野県,長野市,,,Ｋ様宅向い畑,,36.7077779445433,138.093215233608
長野県,長野市,,,南原公民館前ガードレール（戸隠北444号線）,,36.6901269279028,138.092440841581
長野県,長野市,,,下楠川生活改善センター南市道ガードレール（戸隠中村田頭線）,,36.7072121406573,138.076644404233
長野県,長野市,,,二条生活改善センター前フェンス,,36.7063668394555,138.086554847071
長野県,長野市,,,（主）長野・戸隠線銚子口生活改善センター北隣接地前路肩,,36.6952362588589,138.104916761992
長野県,長野市,,,Ｎ様宅物置向かいガードレール,,36.7167558862799,138.085594365804
長野県,長野市,,,（主）信濃・信州新線　Ｔ様宅前,,36.7353171729883,138.084038627307
長野県,長野市,,,越後屋反対側ガードレール（戸隠北40号線）,,36.7397015126875,138.085423134116
長野県,長野市,,,公衆トイレ横,,36.7490092550156,138.084452503843
長野県,長野市,,,五斉神社拝殿,,36.7415598501089,138.085371169334
長野県,長野市,,,（主）信濃・信州新線Ｆ様宅裏ガードレール,,36.7311492266501,138.078283252203
長野県,長野市,,,旧宝光社分校グラウンド法面（吉田高校戸隠分校）,,36.7265728925296,138.078979952065
長野県,長野市,,,戸隠第二分団上楠川器具置場付近,,36.7235548476681,138.064976817099
長野県,長野市,,,市道戸隠北58号線防火水槽前路肩,,36.7310777069312,138.075729751752
長野県,長野市,,,母袋火の見櫓下ブロック（戸隠中村田頭線）,,36.6998140104035,138.065720025793
長野県,長野市,,,大昌寺前バス停付近ガードレール（戸隠中村田頭線）,,36.6853067087692,138.069048975261
長野県,長野市,,,（県）栃原・北郷・信濃線　戸隠地質化石館前ガードレール,,36.6780639703419,138.068681326431
長野県,長野市,,,五十土センター前ブロック（市道戸隠2001号線）,,36.6856968415918,138.062805061559
長野県,長野市,,,志垣バス停横ガードレール（戸隠桜道綾織線）,,36.6742320841913,138.074068688575
長野県,長野市,,,（県）栃原・北郷・信濃線　折橋バス停ガードレール,,36.6877918398756,138.079287684685
長野県,長野市,,,綾織橋バス停（上流側ガードレール）,,36.6766979118459,138.077448641393
長野県,長野市,,,戸隠中村田頭線　田頭バイパスと農道の十字路ガードレール,,36.6813402147857,138.055139618107
長野県,長野市,,,（県）栃原・北郷・信濃線　追通生活改善センター入口ブロック,,36.6740104228421,138.05326714552
長野県,長野市,,,西部公会堂前道路肩（戸隠南223号線）,,36.6700803398551,138.050471533915
長野県,長野市,,,上組集荷場フトンかご横路肩（公会堂に寄った側）（市道戸隠上祖山線）,,36.6655786539176,138.062155970173
長野県,長野市,,,上祖山振興館横,,36.667453817534,138.057993192833
長野県,長野市,,,（県）栃原・北郷・信濃線　追通バス停前ガードレール,,36.6723292845624,138.048971592395
長野県,長野市,,,Ｉ様宅前ブロック（戸隠上祖山線）,,36.6677700457966,138.066899261582
長野県,長野市,,,（主）戸隠篠ノ井線　平出地籍フトン籠,,36.6595194279468,138.070806500752
長野県,長野市,,,（国）406号線　祖山郵便局西側ガードレール,,36.6714465495965,138.077787702241
長野県,長野市,,,下祖山公民館西ガードレール（市道戸隠下中線）,,36.668846545732,138.088257024049
長野県,長野市,,,坪山ふれあいセンター手前カーブ道路敷（戸隠坪山線）,,36.6627556465182,138.095943523913
長野県,長野市,,,（国）406号線砂田バス停北側ガードレール,,36.6711148431409,138.084160677345
長野県,長野市,,,（国）406号線　Ｔ様宅北ガードレール,,36.6715054351818,138.097245642763
長野県,長野市,,,山大公民館入口フェンス,,36.7021062358157,138.027377640605
長野県,長野市,,,峯区公民館入口,,36.7149716826517,138.036268768578
長野県,長野市,,,（主）信濃・信州新線　菅谷地バス停南西　県道左側ﾌｪﾝｽ,,36.7204279448988,138.041800924789
長野県,長野市,,,（主）信濃・信州新線　財又四ツ角前（橋の南西）,,36.7027668012549,138.013288963603
長野県,長野市,,,携帯電話電波塔南,,36.712116440343,138.022549086365
長野県,長野市,,,（主）信濃・信州新線　鬼無里神社南（川中島バス鬼無里営業所北）,,36.6822721149663,138.005041757302
長野県,長野市,,,（国）406号線　森林組合横（西側）,,36.6808245706402,138.009269782209
長野県,長野市,,,上平公民館南市道二股（市道鬼無里上平線）,,36.6730448307792,138.006854414298
長野県,長野市,,,鬼無里支所前,,36.6804090713411,138.001181518447
長野県,長野市,,,（国）406号線　松原集落入口,,36.6785079692101,137.992938455699
長野県,長野市,,,（主）信濃・信州新線　地域振興バス　萩の峯　バス停横,,36.671587475906,137.99617313435
長野県,長野市,,,Ｔ様宅,,36.695314224372,138.008588443895
長野県,長野市,,,上新倉集落南（市道鬼無里戸隠東線）,,36.6846167410409,138.012753435079
長野県,長野市,,,（国）406号線　児玉橋西,,36.6819409879591,137.980405934364
長野県,長野市,,,川浦バス停横（市道鬼無里裾花線）,,36.7043779589515,137.954076171299
長野県,長野市,,,土倉入口（市道鬼無里裾花線）,,36.715279033559,137.963329827501
長野県,長野市,,,両京健康スポーツセンターグラウンドフェンス,,36.6853871920833,137.966097709151
長野県,長野市,,,田之頭公民館横（入口フェンス）,,36.6874690941566,137.941634121803
長野県,長野市,,,押一公民館,,36.6689673740781,137.928680349683
長野県,長野市,,,（国）406号線　東京入口（田頭）,,36.6853060936287,137.967154870412
長野県,長野市,,,古矢場集荷場横（大岡230号線）,,36.5205540837918,138.022585940666
長野県,長野市,,,（主）丸子・信州新線　離山柴田たばこ屋前,,36.5226701965513,138.008404125767
長野県,長野市,,,（県）川口・田野口・篠ノ井線　芦沼バス停横,,36.5285295174639,138.011379997139
長野県,長野市,,,（主）丸子・信州新線　池田集荷場横ガードレール,,36.5315904978149,138.005761396783
長野県,長野市,,,上中山集荷場前（大岡228号線）,,36.519056,138.008624
長野県,長野市,,,（県）川口・田野口・篠ノ井線　梨木公会堂横,,36.5269425491777,137.966434346156
長野県,長野市,,,（国）19号線　キラク商店南側水田法面,,36.5349602068333,137.965577122665
長野県,長野市,,,児玉橋袂（大岡椛内児玉橋線）,,36.5203338017244,137.963278007423
長野県,長野市,,,（主）丸子・信州新線　十王堂バス停横,,36.5173927873692,137.994732860605
長野県,長野市,,,城ノ口バス停横（大岡八重掘倉田和線）,,36.5211823925584,137.98407806367
長野県,長野市,,,和平集荷場横（大岡椛内児玉橋線）,,36.5123676703644,137.969752451774
長野県,長野市,,,（主）丸子・信州新線　大岡資料館向かいフェンス,,36.5065194009589,137.987763515405
長野県,長野市,,,聖山運動場北交差点付近市道沿い,,36.493430593602,138.015942149315
長野県,長野市,,,門増バス停付近,,36.4987587364897,137.975913853655
長野県,長野市,,,大岡高齢者福祉センターことぶき荘反対側ガードレール,,36.5040819859434,137.962761869163
長野県,長野市,,,根越バス停三叉路（大岡椛内大八橋線）,,36.4942963742844,137.968025567281
長野県,長野市,,,（主）芦ノ尻　防火水槽向かいのガードレール（大岡門増芦ノ尻線）,,36.4884393182642,137.977092616137
長野県,長野市,,,御曹子橋（大岡芦ノ尻御曹子橋線）,,36.4723480157919,137.958929111221
長野県,長野市,,,（主）丸子・信州新線　笹久バス停,,36.4774777147732,137.980306006464
長野県,長野市,,,（主）丸子・信州新線　泥平バス停横,,36.4759944221381,137.987998786123
長野県,長野市,,,信州新町水防会館前,,36.5728334009845,138.015886709048
長野県,長野市,,,信州新町支所,,36.5674065066232,138.006047078923
長野県,長野市,,,市道下川枌ノ木線と（主）信濃信州新線の交差部,,36.5775805387027,138.015208704415
長野県,長野市,,,Ｓ様住宅,,36.5733877083575,138.019950374999
長野県,長野市,,,（県）岩本里穂刈線　竹ノ田和入口三叉路ガードレール,,36.5680086420831,137.989728137643
長野県,長野市,,,峠減圧槽フェンス,,36.5865080654785,138.020827669752
長野県,長野市,,,峰組公民館（旧柳沢分校）入口塀,,36.5938732758283,138.024082763158
長野県,長野市,,,西日時大久保生活センター前,,36.5860387773894,138.012184611531
長野県,長野市,,,旧農協日原支店前花畑（日名地区共有地）,,36.5476238859233,137.973177184806
長野県,長野市,,,Ｈ様宅裏,,36.533071402759,137.962370247266
長野県,長野市,,,Ｎ様宅塀,,36.5249529510368,137.935426362783
長野県,長野市,,,和田飼料倉庫横　Ｙ様所有畑（信州新町弘崎2850-1）,,36.5468760436386,137.978527173242
長野県,長野市,,,（県）岩本・里穂刈線,,36.5571739924149,137.948180495089
長野県,長野市,,,Ｋ様資材置場,,36.5384993436001,137.943742637371
長野県,長野市,,,（県）小島・信濃木崎停車場線　旧中村公民館西側三叉路,,36.5490972717712,137.940987500115
長野県,長野市,,,ジンギスカン荘西裏三叉路,,36.5726664475003,138.027481307419
長野県,長野市,,,旧水内保育所西横三叉路,,36.5772204380549,138.047163852131
長野県,長野市,,,平地区水内神社参道四叉路西南角,,36.5746520075548,138.049119993605
長野県,長野市,,,二丁田集荷場前,,36.5887628433832,138.04401513476
長野県,長野市,,,寺尾地区入口三叉路,,36.5893186436102,138.031902214279
長野県,長野市,,,（主）信濃・信州新線　尾崎バス停北側,,36.5870756104373,137.997140945372
長野県,長野市,,,万福寺前ブロック,,36.5923463572323,138.001470252623
長野県,長野市,,,大河ポンプ室上ガードレール,,36.585553756632,138.003140357093
長野県,長野市,,,市道中川手線　津和コミュニティーセンター前,,36.5824186583888,137.999581147391
長野県,長野市,,,（市）中川手線　西部公民館南東擁壁,,36.5896704492923,137.975446757438
長野県,長野市,,,菅沼貯水池南ガードレール,,36.5985153942317,137.967589592191
長野県,長野市,,,細尾集乳所横ブロック法面,,36.5928134074402,137.959851061666
長野県,長野市,,,萩野バス停,,36.5876146097842,137.943666918373
長野県,長野市,,,（主）丸子・信州新線　新町橋詰　池田屋向かい法面,,36.5705106828648,138.015087972267
長野県,長野市,,,大門公民館,,36.565920726292,138.016438150189
長野県,長野市,,,旧竹房保育所　フェンス内側,,36.5655015752391,138.012193607074
長野県,長野市,,,Ｌ・Ｒ大門内公園,,36.5675260753646,138.016945002568
長野県,長野市,,,Ｎ様宅手前道路沿,,36.5591983385707,138.0157070838
長野県,長野市,,,Ｔ様宅塀,,36.5602971624888,138.002402498641
長野県,長野市,,,伊切地籍,,36.554268393517,138.008149140683
長野県,長野市,,,旧農協牧郷支店前,,36.549450858012,137.998060711168
長野県,長野市,,,堀ノ内バス停三叉路,,36.5458225046035,137.994370605305
長野県,長野市,,,下中山生活改善センター前フェンス,,36.5397333424328,137.988607038836
長野県,長野市,,,(主)長野大町線　Ｍ様所有の畑,,36.6128002302346,138.052344661414
長野県,長野市,,,（市）長井線　下長井集荷所北西の擁壁,,36.6053912724739,138.052929031063
長野県,長野市,,,上長井三叉路フトン篭,,36.599340830467,138.033442694554
長野県,長野市,,,茂田井入口石垣,,36.6227633109227,138.049123285904
長野県,長野市,,,正法寺向かいＫ様所有畑,,36.6291311050315,138.05015116897
長野県,長野市,,,（県）古屋敷・境の沢線　下下条防火用水南フトン篭,,36.623819871126,138.043073970693
長野県,長野市,,,（県）小川・長野線　市営ゲートボール場北側ガードレール,,36.6426874484439,138.037987854088
長野県,長野市,,,念仏寺四叉路石垣,,36.6408716272704,138.054437438891
長野県,長野市,,,旧中条支所,,36.6118945485857,138.036700364176
長野県,長野市,,,（主）長野・大町線　Ｍ様宅入口県道石垣,,36.605476898509,138.023286815782
長野県,長野市,,,県道長野大町線　路肩歩道フェンス,,36.6072839113282,138.033596569152
長野県,長野市,,,（県）小川・長野線　姥久保バス停,,36.6344489710664,138.02556083882
長野県,長野市,,,（県）小川・長野線　虫倉山道しるべ西側,,36.6396705286069,138.008536944481
長野県,長野市,,,（主）長野・大町線　Ｋ様宅西側フェンス,,36.6066708987701,138.011511151561
長野県,長野市,,,２０区生活改善センター南擁壁,,36.6064436556912,138.006324487263
長野県,長野市,,,奈良井会館西側市道道路敷,,36.6204091246545,138.005403986736
