prefecture,city,number,address,name,lat,long,note
長野県,飯山市,1.0,大字静間383-5,県町公会堂,36.8411177,138.3609393,緯度経度は怪しい
長野県,飯山市,2.0,大字飯山226-1,飯山赤十字病院西側花壇,36.856636,138.3603171,緯度経度は怪しい
長野県,飯山市,3.0,大字飯山104,１-３所有地塀,36.8534866,138.3634842,緯度経度は怪しい
長野県,飯山市,4.0,南町20-7,１-４所有地,36.8485617,138.3634824,
長野県,飯山市,5.0,南町18-14,１-５駐車場入口ガードパイプ,36.84814679999999,138.362194,
長野県,飯山市,6.0,南町21-5北側,上町西交差点東側緑地,36.8491669,138.3628533,
長野県,飯山市,7.0,大字飯山1436-1,飯山市公民館西側花壇,36.8500308,138.3574279,
長野県,飯山市,8.0,大字飯山1662-1,斑尾高原入口交差点北東側緑地,36.8476757,138.3533944,
長野県,飯山市,9.0,大字飯山509-2,masked,36.8534866,138.3634842,緯度経度は怪しい
長野県,飯山市,10.0,大字飯山243-4,飯山駅交差点南東側,36.8452051,138.3599681,
長野県,飯山市,11.0,大字静間450-7,サン・コ－ポラス飯山入口柵,36.83997919999999,138.3566796,
長野県,飯山市,12.0,大字飯山1200-1,本町ぶらり広場西側花壇,36.8516627,138.3632224,緯度経度は怪しい
長野県,飯山市,13.0,南町24-3,鉄砲町児童公園,36.85032,138.3604576,
長野県,飯山市,14.0,大字飯山1177-2,masked,36.8526669,138.3628128,緯度経度は怪しい
長野県,飯山市,15.0,大字飯山1864-6,正受庵西側駐車場,36.8534866,138.3634842,緯度経度は怪しい
長野県,飯山市,16.0,大字飯山1502-1,２-５所有地,36.8534866,138.3634842,緯度経度は怪しい
長野県,飯山市,17.0,大字飯山2045-2,坂上交差点南西側案内板,36.8534866,138.3634842,緯度経度は怪しい
長野県,飯山市,18.0,大字飯山2125,masked,36.8534866,138.3634842,緯度経度は怪しい
長野県,飯山市,19.0,大字飯山1110,市役所西側道路沿い花壇,36.8516851,138.3654886,
長野県,飯山市,20.0,大字飯山3072-2,愛宕町交差点東側,36.8534866,138.3634842,緯度経度は怪しい
長野県,飯山市,21.0,大字飯山7900-1,２-１０所有地西側緑地,36.8534866,138.3634842,緯度経度は怪しい
長野県,飯山市,22.0,大字飯山7915-1,水上団地集会所,36.8583649,138.3552478,緯度経度は怪しい
長野県,飯山市,23.0,大字飯山9764,十三ケ丘バス停向い,36.8534866,138.3634842,緯度経度は怪しい
長野県,飯山市,24.0,大字飯山11411-15,分道バス停,36.8559228,138.3045498,緯度経度は怪しい
長野県,飯山市,25.0,大字飯山11149-71,斑尾高原山の家南側県道沿い緑地,36.8534866,138.3634842,緯度経度は怪しい
長野県,飯山市,26.0,大字飯山11492-207,斑尾高原第３駐車場南,36.8577331,138.297317,緯度経度は怪しい
長野県,飯山市,27.0,大字飯山2745-2,弓道場下駐車場南側入口,36.8534866,138.3634842,緯度経度は怪しい
長野県,飯山市,28.0,大字飯山2735-1,栄川橋欄干,36.8534866,138.3634842,緯度経度は怪しい
長野県,飯山市,29.0,大字飯山2542-8,北町団地入口市道ガードパイプ,36.8534866,138.3634842,緯度経度は怪しい
長野県,飯山市,30.0,大字飯山2853-2,北飯山駅南側柵,36.8589768,138.3639175,
長野県,飯山市,31.0,大字飯山2765-3,masked,36.8534866,138.3634842,緯度経度は怪しい
長野県,飯山市,32.0,大字飯山3401-3脇,有尾橋欄干,36.8534866,138.3634842,緯度経度は怪しい
長野県,飯山市,33.0,大字飯山3155-1,masked,36.8598971,138.3634542,
長野県,飯山市,34.0,大字飯山7312-5,３-８所有地（須田峰登り口三叉路）,36.8534866,138.3634842,緯度経度は怪しい
長野県,飯山市,35.0,大字飯山3288-4,masked,36.8621166,138.3635849,
長野県,飯山市,36.0,大字飯山7371-4,須田峯介護センター東側ゴミステーション,36.8675626,138.3600065,
長野県,飯山市,37.0,大字蓮1771-1,4-１所有地（秋津郵便局駐車場北）,36.8189447,138.3335902,緯度経度は怪しい
長野県,飯山市,38.0,大字蓮2701-1,上組集落センタ－前,36.8082466,138.3490644,緯度経度は怪しい
長野県,飯山市,39.0,大字蓮1582,４-３所有地,36.8121117,138.3493778,緯度経度は怪しい
長野県,飯山市,40.0,大字蓮2875,蓮神社旗竿置場南,36.8161694,138.348161,緯度経度は怪しい
長野県,飯山市,41.0,大字蓮3612-7,深沢農業改善センター駐車場,36.8068162,138.3304543,緯度経度は怪しい
長野県,飯山市,42.0,大字蓮4747,新田創造館敷地,36.8189447,138.3335902,緯度経度は怪しい
長野県,飯山市,43.0,大字蓮4241-2,火の見北側倉庫,36.8124064,138.3379557,緯度経度は怪しい
長野県,飯山市,44.0,大字静間1281-1,6-１所有地（中町バス停脇）,36.8349932,138.3538134,緯度経度は怪しい
長野県,飯山市,45.0,大字静間1401-5,いいやま人権福祉センターゴミ集積所横,36.8364172,138.3548081,
長野県,飯山市,46.0,大字静間1380,masked,36.8354693,138.3589368,
長野県,飯山市,47.0,大字静間712-3,６-４所有地車庫,36.8378256,138.3527185,
長野県,飯山市,48.0,大字静間338-1,６-５所有地,36.8332095,138.3250207,緯度経度は怪しい
長野県,飯山市,49.0,大字静間2598-1,秋津地区活性化センター敷地,36.82620980000001,138.3513497,緯度経度は怪しい
長野県,飯山市,50.0,大字静間1927,７-２所有地柵,36.8317207,138.3516497,緯度経度は怪しい
長野県,飯山市,51.0,大字静間1811-1,７-３所有地,36.8308437,138.3500473,
長野県,飯山市,52.0,大字静間3012-4,７-４所有地（荒船ごみステーション東）,36.8332095,138.3250207,緯度経度は怪しい
長野県,飯山市,53.0,大字静間6809,秋津中央団地内公園,36.8332095,138.3250207,緯度経度は怪しい
長野県,飯山市,54.0,大字蓮5018-1,７-６所有地（飯駒ゴミステーション北）,36.8189447,138.3335902,緯度経度は怪しい
長野県,飯山市,55.0,大字山岸514-8,山岸公民館,36.8434415,138.3936641,
長野県,飯山市,56.0,大字其綿260-1脇,其綿火の見前交差点,36.8332977,138.3829873,緯度経度は怪しい
長野県,飯山市,57.0,大字吉408-2,吉公会堂向いガードレール,36.8385515,138.3778727,
長野県,飯山市,58.0,大字木島31-3,旧安田駅跡地,36.842395,138.367529,
長野県,飯山市,59.0,大字木島336-2,８-５所有地（上新田公民館南）,36.8487331,138.3745216,緯度経度は怪しい
長野県,飯山市,60.0,大字野坂田781-4,勤労者体育館東側交差点花壇,36.8552184,138.3768355,
長野県,飯山市,61.0,大字野坂田855,木島保育園南側柵,36.85424709999999,138.3821966,緯度経度は怪しい
長野県,飯山市,62.0,大字木島963-17,８-８所有地（木島交差点東）,36.85229229999999,138.3804176,緯度経度は怪しい
長野県,飯山市,63.0,大字野坂田1011,木島地区活性化センター花壇,36.85424709999999,138.3821966,緯度経度は怪しい
長野県,飯山市,64.0,大字坂井104-1,坂井多目的研修集会施設,36.8599492,138.3850552,緯度経度は怪しい
長野県,飯山市,65.0,大字下木島246-2,下木島公民館敷地　消防団器具倉庫,36.858308,138.3915243,緯度経度は怪しい
長野県,飯山市,66.0,大字天神堂27-4,天神堂集出荷センタ－,36.8616217,138.3926329,緯度経度は怪しい
長野県,飯山市,67.0,大字瑞穂4400-1,関沢農業生活改善センタ－敷地,36.895192,138.4087752,緯度経度は怪しい
長野県,飯山市,68.0,大字瑞穂4174,瑞穂地区活性化センター,36.8910414,138.4078264,緯度経度は怪しい
長野県,飯山市,69.0,大字瑞穂4882-7,９-３所有地（屋株ゴミ集積所北）,36.894396,138.4264226,緯度経度は怪しい
長野県,飯山市,70.0,大字瑞穂6346-1,９-４所有地前ガードレール,36.8975117,138.411134,緯度経度は怪しい
長野県,飯山市,71.0,大字瑞穂5726-1,笹沢公民館,36.907171,138.416866,緯度経度は怪しい
長野県,飯山市,72.0,大字瑞穂6076-1,仁王門堂南側敷地,36.8952526,138.4199498,緯度経度は怪しい
長野県,飯山市,73.0,大字瑞穂38-1,戸那子作業所,36.87648799999999,138.4078989,緯度経度は怪しい
長野県,飯山市,74.0,大字瑞穂658-10,１０-２所有地塀東,36.8783836,138.410785,緯度経度は怪しい
長野県,飯山市,75.0,大字瑞穂1144-1,瑞穂保育園南側柵,36.8799601,138.4171477,緯度経度は怪しい
長野県,飯山市,76.0,大字瑞穂3180-1,神戸公民館敷地,36.8849543,138.4175438,緯度経度は怪しい
長野県,飯山市,77.0,大字瑞穂2758-10,湯の入荘入口バス停南側花壇,36.894396,138.4264226,緯度経度は怪しい
長野県,飯山市,78.0,大字瑞穂2125-1,福島生活改善センタ－,36.8830936,138.4286362,緯度経度は怪しい
長野県,飯山市,79.0,大字瑞穂豊588-1,１１-１所有地西交差点,36.9148791,138.4036974,緯度経度は怪しい
長野県,飯山市,80.0,大字瑞穂豊696-1,柏尾研修集会施設ゴミステーション隣,36.9115115,138.4034948,緯度経度は怪しい
長野県,飯山市,81.0,大字瑞穂豊2123-1,北原公民館向い,36.9239583,138.4063059,緯度経度は怪しい
長野県,飯山市,82.0,大字旭375-5,藤ノ木公会堂敷地,36.8678199,138.3510883,緯度経度は怪しい
長野県,飯山市,83.0,大字旭356-8,12-2所有地（藤ノ木交差点南西）,36.874937,138.3282033,緯度経度は怪しい
長野県,飯山市,84.0,大字旭2767-1,山口作業所,36.8711368,138.3468234,緯度経度は怪しい
長野県,飯山市,85.0,大字旭2405-2,１２-４所有地（四ツ屋公会堂西）,36.874937,138.3282033,緯度経度は怪しい
長野県,飯山市,86.0,大字旭4936-2,南条神社境内入口北,36.8755122,138.3562734,緯度経度は怪しい
長野県,飯山市,87.0,大字小佐原6762,いずみだい保育園塀,36.8728862,138.3559983,緯度経度は怪しい
長野県,飯山市,88.0,大字旭5934-1,１２-７所有地（上新田公会堂東側）,36.874937,138.3282033,緯度経度は怪しい
長野県,飯山市,89.0,大字旭6394-1,笹川公民館敷地,36.874937,138.3282033,緯度経度は怪しい
長野県,飯山市,90.0,大字小佐原7127,小佐原公会堂進入路道路沿い,36.87015969999999,138.3616776,
長野県,飯山市,91.0,大字旭1606-7,大川公会堂,36.874937,138.3282033,緯度経度は怪しい
長野県,飯山市,92.0,大字旭4002-1,涌井バス停付近,36.874937,138.3282033,緯度経度は怪しい
長野県,飯山市,93.0,大字旭4127-1,堰口公会堂跡地,36.874937,138.3282033,緯度経度は怪しい
長野県,飯山市,94.0,大字富倉4381-5,濁池公民館,36.9081688,138.3113862,
長野県,飯山市,95.0,大字富倉3031-1,滝ノ脇火の見横,36.9058652,138.3068708,緯度経度は怪しい
長野県,飯山市,96.0,大字富倉2331-1,倉本公会堂,36.9114938,138.3032822,緯度経度は怪しい
長野県,飯山市,97.0,大字富倉1775,富倉出張所敷地入口,36.9117984,138.3153317,緯度経度は怪しい
長野県,飯山市,98.0,大字富倉1782-2,富倉バス停西側,36.9121353,138.3146424,緯度経度は怪しい
長野県,飯山市,99.0,大字緑567-2,法寺公会堂敷地,36.9024173,138.3399761,緯度経度は怪しい
長野県,飯山市,100.0,大字緑1324,中条構造改善センタ－敷地,36.8875968,138.3528585,緯度経度は怪しい
長野県,飯山市,101.0,大字緑1021-11,masked,36.89190079999999,138.3561733,緯度経度は怪しい
長野県,飯山市,102.0,大字中曽根50-1,masked,36.8966274,138.3583337,緯度経度は怪しい
長野県,飯山市,103.0,大字寿794-6,１５-５所有地北側,36.9011993,138.3614941,緯度経度は怪しい
長野県,飯山市,104.0,大字寿533-1,尾崎農業生活改善センタ－,36.8998278,138.3711318,緯度経度は怪しい
長野県,飯山市,105.0,大字大池5594-1,16-１所有地（大池公民館北側）,36.8767453,138.3718547,
長野県,飯山市,106.0,大字常盤611-2,上水沢生活改善センター敷地,36.8847963,138.374792,緯度経度は怪しい
長野県,飯山市,107.0,大字常盤2087-2,信濃平駅ホ－ム柵,36.8959079,138.3878469,緯度経度は怪しい
長野県,飯山市,108.0,大字常盤1498,常盤地区活性化センタ－花壇,36.8906858,138.3798525,緯度経度は怪しい
長野県,飯山市,109.0,大字常盤691-1,１６-５所有地（下水沢交差点南西）,36.8959079,138.3878469,緯度経度は怪しい
長野県,飯山市,110.0,大字常盤1364-1,大塚農業生活改善センタ－敷地,36.8959079,138.3878469,緯度経度は怪しい
長野県,飯山市,111.0,大字常盤3509-5,１６-７所有地（上野公民館北側）,36.9006588,138.3956749,緯度経度は怪しい
長野県,飯山市,112.0,大字常盤3700-1,１６-８所有地（大倉崎火の見横）,36.8944483,138.3970688,緯度経度は怪しい
長野県,飯山市,113.0,大字常盤4292,１６-９所有地物置,36.8906454,138.3891783,
長野県,飯山市,114.0,大字常盤6052-1,戸隠生活改善センター,36.8856297,138.3841776,緯度経度は怪しい
長野県,飯山市,115.0,大字飯山5333-2,masked,36.8763611,138.374899,緯度経度は怪しい
長野県,飯山市,116.0,大字常盤5776,小沼神社北側,36.8783241,138.3812878,緯度経度は怪しい
長野県,飯山市,117.0,大字照里461-1,１７-１所有地（小泉集落センタ－向かい）,36.9121614,138.3891094,緯度経度は怪しい
長野県,飯山市,118.0,大字照里1280-7,戸狩野沢温泉駅東側広場柵,36.9173441,138.3939386,緯度経度は怪しい
長野県,飯山市,119.0,大字照里914-2,戸狩区コミュニティ－センタ－敷地,36.91352639999999,138.387557,緯度経度は怪しい
長野県,飯山市,120.0,大字照里975-1,１７-４所有地（戸狩交差点北西）,36.9121614,138.3891094,緯度経度は怪しい
長野県,飯山市,121.0,大字照里2751,戸狩新田公民館東向い（旧消防器具置場）,36.9121614,138.3891094,緯度経度は怪しい
長野県,飯山市,122.0,大字豊田3693-1,五束公会堂,36.9220547,138.3769662,緯度経度は怪しい
長野県,飯山市,123.0,大字豊田261-1,堀ノ内生活改善施設敷地,36.9219932,138.3826693,緯度経度は怪しい
長野県,飯山市,124.0,大字豊田5233,北条共同作業場北向い　ガイドマップ下,36.9380962,138.3814415,緯度経度は怪しい
長野県,飯山市,125.0,大字常郷420-2,太田地区活性化センター敷地,36.9396674,138.4009301,緯度経度は怪しい
長野県,飯山市,126.0,大字豊田6530-2,暁の湯駐車場内植え込み,36.9302033,138.3888384,緯度経度は怪しい
長野県,飯山市,127.0,大字豊田6776-1,１８-６所有地塀,36.9380962,138.3814415,緯度経度は怪しい
長野県,飯山市,128.0,大字常郷1195-1,今井バス停北側,36.9396674,138.4009301,緯度経度は怪しい
長野県,飯山市,129.0,大字常郷1571-2,川面ゴミステーション北,36.9396674,138.4009301,緯度経度は怪しい
長野県,飯山市,130.0,大字照里1215,青少年ホーム駐車場,36.9174721,138.3923843,緯度経度は怪しい
長野県,飯山市,131.0,大字常郷28-1,ながの農協(旧)太田出張所,36.9188385,138.3936397,緯度経度は怪しい
長野県,飯山市,132.0,大字豊田931-1,小境神社前交差点,36.9380962,138.3814415,緯度経度は怪しい
長野県,飯山市,133.0,大字豊田245-1,小境公会堂,36.9380962,138.3814415,緯度経度は怪しい
長野県,飯山市,134.0,大字豊田1204,押出作業所,36.9380962,138.3814415,緯度経度は怪しい
長野県,飯山市,135.0,大字豊田2708-4,柳沢公会堂,36.9164341,138.3781015,緯度経度は怪しい
長野県,飯山市,136.0,大字常郷2211-4,曽根農業生活改善センター敷地,36.9396674,138.4009301,緯度経度は怪しい
長野県,飯山市,137.0,大字豊田6944-4,２０-２所有地西ガードレール,36.9354209,138.3922038,緯度経度は怪しい
長野県,飯山市,138.0,大字豊田7033-1,望の湯敷地,36.9374097,138.3937907,緯度経度は怪しい
長野県,飯山市,139.0,大字常郷2923-3,三郷農業生活改善センター,36.9459535,138.3993404,緯度経度は怪しい
長野県,飯山市,140.0,大字常郷3442-3,土橋バス停付近,36.9396674,138.4009301,緯度経度は怪しい
長野県,飯山市,141.0,大字一山168-3,２１-１所有地,36.9603721,138.4130233,緯度経度は怪しい
長野県,飯山市,142.0,大字一山533-2,２１-２所有地西,36.9695237,138.4129478,
長野県,飯山市,143.0,大字一山250-1,みゆき野ライン入り口記念碑前,36.9695237,138.4129478,
長野県,飯山市,144.0,大字一山1317-3,羽広山多目的集会所,36.9695237,138.4129478,
長野県,飯山市,145.0,大字一山1410,２２-２所有地（羽広山防火水槽西）,36.9695237,138.4129478,
長野県,飯山市,146.0,大字一山1794-1,上境集会センター入口,36.9695237,138.4129478,
長野県,飯山市,147.0,大字一山1898-1,湯滝温泉駐車場,36.9354111,138.4185989,緯度経度は怪しい
長野県,飯山市,148.0,大字一山2885-12,一山神社駐車場,36.9695237,138.4129478,
長野県,飯山市,149.0,大字一山3267-2,下境公会堂,36.9695237,138.4129478,
長野県,飯山市,150.0,大字照岡70-1,和水集会所,37.0005887,138.4541651,緯度経度は怪しい
長野県,飯山市,151.0,大字照岡497-4,岡山地区活性化センター,36.9702014,138.4498406,緯度経度は怪しい
長野県,飯山市,152.0,大字照岡829-1,ＪＲ桑名川駅入口北,37.0005887,138.4541651,緯度経度は怪しい
長野県,飯山市,153.0,大字照岡1348-2,土倉バス停横,36.9823115,138.4399899,緯度経度は怪しい
長野県,飯山市,154.0,大字照岡1465,柄山バス停横,37.0005887,138.4541651,緯度経度は怪しい
長野県,飯山市,155.0,大字照岡1785-1,藤沢入口公園内,37.0005887,138.4541651,緯度経度は怪しい
長野県,飯山市,156.0,大字照岡2086-2,２５-２所有地（旧消防器具置場）,37.0005887,138.4541651,緯度経度は怪しい
長野県,飯山市,157.0,大字照岡3027-2,西大滝公会堂横消防器具置場,37.0005887,138.4541651,緯度経度は怪しい
