prefecture,city,number,address,name,lat,long,note
長野県,飯田市,1,大門町3815番地,主要地方道飯島飯田線松本日産自動車側向フェンス,35.5246892,137.829092,
長野県,飯田市,2,桜町2丁目16番地,JR桜町駅前,35.5218511,137.829339,
長野県,飯田市,3,小伝馬町2丁目3606番地1,太田歯科医院駐車場フェンス,35.5174624,137.8331603,
長野県,飯田市,4,大王路2丁目,飯田創造館入口公園北側フェンス,35.5211842,137.8313084,
長野県,飯田市,5,小伝馬町1丁目3503番地,浜井場小学校正門横観測所フェンス,35.519393,137.8316383,
長野県,飯田市,6,江戸町1丁目9番地,飯田信用金庫櫻北支店駐車場フェンス,35.5170105,137.8297332,
長野県,飯田市,7,東栄町3350番地,国土交通省国道工事事務所前歩道フェンス,35.514173,137.8369986,
長野県,飯田市,8,東中央通日陰坂,東中央通りと市道飯田1－2号線交差点ガードレール,35.512440,137.833656,いいだWebまっぷで補正済み
長野県,飯田市,9,水の手町,城下グラウンド入口上歩道フェンス,35.5104608,137.8313084,
長野県,飯田市,10,長姫町,めがね橋下中央公園R151号線沿い植え込み,35.5151223,137.8286849,
長野県,飯田市,11,追手町2丁目763番地,追手町小学校正門横花壇,35.512154,137.8313084,
長野県,飯田市,12,銀座5丁目,扇町公園D51前花壇,35.5135468,137.8258301,
長野県,飯田市,13,通り町3丁目,北辰ビル前中央分離帯,35.5165432,137.8234383,
長野県,飯田市,14,通り町4丁目,県信飯田支店跡駐車場下中央歩道帯,35.5178751,137.8212781,
長野県,飯田市,15,本町1丁目,トップヒルズ本町前のリンゴ並木,35.5148255,137.8255215,
長野県,飯田市,16,扇町33番地,市営動物園前フェンス,35.5140734,137.8240083,
長野県,飯田市,17,大久保町2534番地,飯田市役所C棟正面玄関北側スロープ奥,35.5142964,137.8214994,
長野県,飯田市,18,箕瀬町,飯田市役所新庁舎南側道路資材倉庫横空地,35.514669,137.820830,いいだWebまっぷで補正済み
長野県,飯田市,19,大久保町2637番地3,国道256号線飯田地方合同庁舎前,35.5129665,137.8218555,
長野県,飯田市,20,伝馬町1丁目,元中央公園警察署派出所横植込み,35.51734040000001,137.8276047,
長野県,飯田市,21,仲ノ町303番地1,下伊那教育会館前歩道,35.5162023,137.8300307,
長野県,飯田市,22,伝馬町2丁目,善勝寺前歩道交差木,35.5184336,137.8288392,
長野県,飯田市,23,吾妻町,旧飯田市公民館前谷川橋梁,35.519069,137.8263702,
長野県,飯田市,24,中央通り2丁目,元グリーンホテルさか江前のリンゴ並木,35.5171115,137.8257529,
長野県,飯田市,25,吾妻町,吾妻町公衆便所前谷川橋梁,35.519069,137.8263702,
長野県,飯田市,26,羽場垣外,JR飯田駅前広場植込み,35.519635,137.821840,いいだWebまっぷで補正済み
長野県,飯田市,27,東和町1丁目,東和町ラウンドアバウト横中央広場芝生,35.519371,137.824524,いいだWebまっぷで補正済み
長野県,飯田市,28,東和町1丁目,シルクホテルアネックス横交差点植樹帯,35.520846,137.824085,いいだWebまっぷで補正済み
長野県,飯田市,29,東新町1丁目,東新町ラウンドアバウト大宮神社苔り枝並木,35.5204266,137.828222,
長野県,飯田市,30,宮の前,慈光保育園上歩道フェンス,35.52316930000001,137.8260616,
長野県,飯田市,31,宮の前4163番地25,飯田市武道館駐車場,35.52412,137.8252024,
長野県,飯田市,32,高羽町1丁目,JR飯田駅裏公園フェンス,35.5201105,137.8195809,
長野県,飯田市,33,高羽町5丁目5番地1,飯田文化会館前駐車場植込み,35.5247386,137.8200363,
長野県,飯田市,34,今宮町4丁目8183番地,市営今宮球場スコアボード裏フェンス,35.5256388,137.8186552,
長野県,飯田市,35,丸山町4丁目,木下水引（株）上三又路ガードレール,35.52751,137.8144,いいだWebまっぷで補正済み
長野県,飯田市,36,丸山町4丁目,風越山登山道入口植込み,35.53148,137.81239,いいだWebまっぷで補正済み
長野県,飯田市,37,丸山町3丁目5742番地,masked,35.5266729,137.8128445,
長野県,飯田市,38,山本町3丁目東8番地,飯田風越タクシー㈱丸山営業所向側歩道植樹帯,35.52243,137.81323,いいだWebまっぷで補正済み
長野県,飯田市,39,白山町3丁目東4番地2,白山山3丁目県道15号線歩道フェンス,35.5203694,137.8135059,
長野県,飯田市,40,今宮町2丁目113番地1,丸山小学校正門横,35.5215029,137.8162975,
長野県,飯田市,41,今宮町2丁目,飯田信金上飯田支店向側緑地帯,35.5201813,137.8171123,
長野県,飯田市,42,大通り1丁目15番地,飯田病院駐車場北側植込み,35.5174,137.81899,いいだWebまっぷで補正済み
長野県,飯田市,44,松川町,松川橋交差点北歩道フェンス,35.51396,137.80845,いいだWebまっぷで補正済み
長野県,飯田市,45,羽場町1丁目,塩澤ばんきん前橋ガードレール,35.5178364,137.8103242,
長野県,飯田市,46,大通り2丁目237番地1,羽場第1公会堂前市道沿いフェンス,35.51446,137.81666,いいだWebまっぷで補正済み
長野県,飯田市,47,羽場町2丁目14番地9,羽場公民館前駐車場フェンス,35.5184779,137.8076202,
長野県,飯田市,48,羽場権現,元山白山神社・権現堂前旗枠沿い,35.5198905,137.8026115,
長野県,飯田市,49,丸山町2丁目,ローソン飯田丸山町店前歩道ガードレール,35.5230645,137.8100156,
長野県,飯田市,50,丸山町2丁目1193番地1,masked,35.5225434,137.807877,
長野県,飯田市,51,正永町1丁目1215番地,飯田西中学校武道場フェンス,35.5234,137.8047,いいだWebまっぷで補正済み
長野県,飯田市,52,正永町2丁目,羽場第2公会堂横県道沿い,35.5247738,137.7995267,
長野県,飯田市,53,大休1586番地1,多摩川入口精機入口三叉路下県道沿い,35.5233855,137.7965771,
長野県,飯田市,54,大休7106番地1,masked,35.5263504,137.7958471,
長野県,飯田市,55,滝の沢,砂払浄水場上資材置場南フェンス,35.52468,137.80662,いいだWebまっぷで補正済み
長野県,飯田市,56,滝の沢6994番地,白山貯水池入口横フェンス,35.52603,137.80873,いいだWebまっぷで補正済み
長野県,飯田市,57,滝の沢,旧ヘルスセンター豊口交差点下歩道フェンス,35.52644,137.8054,いいだWebまっぷで補正済み
長野県,飯田市,58,座光寺,座光寺自治振興センター下駐車場,35.53286,137.85451,いいだWebまっぷで補正済み
長野県,飯田市,59,座光寺3846番地1,㈱ヰセキ関東甲信越飯田支店前フェンス,35.5297652,137.8562621,
長野県,飯田市,60,座光寺4403番地3,二区農業生活改善センター,35.5258527,137.861035,
長野県,飯田市,61,座光寺6711番地2付近,水防倉庫向かい,35.52997,137.87133,いいだWebまっぷで補正済み
長野県,飯田市,62,座光寺4759番地1,旧3班ポンプ置場山前,35.533566,137.863159,緯度経度は怪しい
長野県,飯田市,63,座光寺3502番地,元善光寺駅前遊園地,35.5343547,137.860817,
長野県,飯田市,64,座光寺3524番地,南信州地域資材センター横フェンス,35.53422219999999,137.8580093,
長野県,飯田市,65,座光寺2822番地49,上野新町遊園地フェンス,35.5364204,137.8607693,
長野県,飯田市,66,座光寺,新座光寺大橋 万才側のフェンス,35.53848,137.852,いいだWebまっぷで補正済み
長野県,飯田市,67,座光寺1453番地1,美女の堤前市道1－56号機ガードレール,35.543804,137.849792,緯度経度は怪しい
長野県,飯田市,68,座光寺976番地2,masked,35.544399,137.846481,緯度経度は怪しい
長野県,飯田市,69,座光寺210番地,原宮崎会所,35.5421181,137.8435323,
長野県,飯田市,70,座光寺,宮崎橋交差点下町道1－59号県ガードレール,35.53878,137.84018,いいだWebまっぷで補正済み
長野県,飯田市,71,座光寺610番地4付近,主要地方道飯田飯田箕輪空反射材ガードレール,35.53795,137.83873,いいだWebまっぷで補正済み
長野県,飯田市,72,座光寺888番地1,masked,35.5406841,137.8466087,
長野県,飯田市,73,座光寺2184番地,大倉製作所前,35.5378584,137.8449623,
長野県,飯田市,74,松尾上溝,主要地方道伊那生田飯田線飯田卸売市場東協同組合入口,35.5042357,137.8464345,
長野県,飯田市,76,松尾新井6132番地1,新井コミュニティ消防センター前,35.5017399,137.8563297,
長野県,飯田市,77,松尾新井7132番地先,飯田市場運輸前町道ガードレール,35.4979732,137.85919,
長野県,飯田市,78,松尾寺所5750番地,寺所集会所遊場地フェンス,35.4958143,137.8544624,
長野県,飯田市,79,松尾上溝5642番地,市道思井川線県道伊那八幡伊線交差点市道沿い,35.499748,137.849701,緯度経度は怪しい
長野県,飯田市,80,松尾久井2659番地3,JR飯田線松尾久の踏切横フェンス,35.4995629,137.8421123,
長野県,飯田市,81,松尾常盤台180番地,佐藤薬品駐車場横空地,35.5000152,137.8385131,
長野県,飯田市,82,八幡町2178番地,JR伊那八幡駅前,35.4971293,137.8411669,
長野県,飯田市,83,松尾水域5574番地,masked,35.49896,137.84743,いいだWebまっぷで補正済み
長野県,飯田市,84,松尾明7444番地2,飯田勤労者体育センター南側フェンス,35.4927753,137.8534626,
長野県,飯田市,85,松尾城4014番地,旧松尾公民館前,35.493786,137.843857,緯度経度は怪しい
長野県,飯田市,86,八幡町1999番地,鳩が嶺八幡宮前石垣,35.4966194,137.8380318,
長野県,飯田市,87,八幡町,飯田短期大学入口市道フェンス,35.4977488,137.8365558,
長野県,飯田市,88,松尾代田705番地,旧みすずや東側の畑,35.4944707,137.8300538,
長野県,飯田市,89,毛賀540番地18,JR毛賀駅入口中島右付負荷置場下畑,35.4874946,137.8381957,
長野県,飯田市,90,毛賀804番地,masked,35.4863653,137.8357106,
長野県,飯田市,91,毛賀131番地,masked,35.4836476,137.8401718,
長野県,飯田市,92,毛賀470番地,緑ヶ丘中学校校庭西端樹前,35.4841989,137.8365558,
長野県,飯田市,93,松尾清水4870番地2,旭松食品駐車場フェンス,35.4839095,137.8464345,
長野県,飯田市,94,松尾清水4535番地1,清水公民館遊園地フェンス,35.48531,137.84488,いいだWebまっぷで補正済み
長野県,飯田市,95,下久堅下虎岩2933番地17,masked,35.48093,137.85285,いいだWebまっぷで補正済み
長野県,飯田市,96,下久堅下虎岩2450番地3,下虎岩コミュニティ消防センター,35.48567,137.85689,いいだWebまっぷで補正済み
長野県,飯田市,97,下久堅下虎岩913番地,北原　富田沢根上ガードレール,35.49,137.86017,いいだWebまっぷで補正済み
長野県,飯田市,98,下久堅下虎岩865番地1,北原霞訪社前,35.49399,137.86529,いいだWebまっぷで補正済み
長野県,飯田市,99,下久堅下虎岩1231番地6,亀平生活センター駐車場,35.48989,137.8656,いいだWebまっぷで補正済み
長野県,飯田市,100,下久堅下虎岩1729番地1,下虎岩神明社裏,35.48507,137.86042,いいだWebまっぷで補正済み
長野県,飯田市,101,下久堅下虎岩3041番地3,masked,35.47889,137.85596,いいだWebまっぷで補正済み
長野県,飯田市,102,下久堅知久平632番地1,主膳平集会所,35.4806877,137.850154,
長野県,飯田市,103,下久堅知久平344番地1,下久堅保育園向側ミヤリン横市道ガードレール,35.47672,137.85128,いいだWebまっぷで補正済み
長野県,飯田市,104,下久堅知久平1127番地,知久平諏訪社下,35.47622,137.84864,いいだWebまっぷで補正済み
長野県,飯田市,105,下久堅知久平975番地3,下久堅小学校校庭南西角,35.47492,137.85021,いいだWebまっぷで補正済み
長野県,飯田市,106,下久堅南原1155番地2,南原中継ポンプ場フェンス,35.46938,137.84366,いいだWebまっぷで補正済み
長野県,飯田市,107,下久堅南原1248番地,南原区民センター,35.47142,137.84555,いいだWebまっぷで補正済み
長野県,飯田市,108,下久堅小林131番地付近,masked,35.46259,137.85108,いいだWebまっぷで補正済み
長野県,飯田市,109,下久堅柿野沢994番地2,柿野沢区民センター,35.46561,137.8556,いいだWebまっぷで補正済み
長野県,飯田市,110,虎岩,滝平生活センター入口,35.47521,137.86045,いいだWebまっぷで補正済み
長野県,飯田市,111,虎岩2072番地1,大黒天下,35.47427,137.86681,いいだWebまっぷで補正済み
長野県,飯田市,112,虎岩499番地1,虎岩交流センター前,35.47753,137.86869,いいだWebまっぷで補正済み
長野県,飯田市,113,虎岩183番地1,北部集落センター下,35.48064,137.86161,いいだWebまっぷで補正済み
長野県,飯田市,114,虎岩450番地1,masked,35.47815,137.87112,いいだWebまっぷで補正済み
長野県,飯田市,115,上久堅913番地,扇平集落センター,35.4694,137.88168,いいだWebまっぷで補正済み
長野県,飯田市,116,上久堅3935番地2,中宮橋横,35.46468,137.87563,いいだWebまっぷで補正済み
長野県,飯田市,118,上久堅2080番地1,上平集落センター前駐車場,35.46288,137.88297,いいだWebまっぷで補正済み
長野県,飯田市,119,上久堅3770番地,上久堅自治振興センター駐車場横,35.46078,137.88216,いいだWebまっぷで補正済み
長野県,飯田市,120,上久堅3642番地3,馬場垣外集会所隣,35.45899,137.88662,いいだWebまっぷで補正済み
長野県,飯田市,121,上久堅7568番地1,JAみなみ信州上久堅事務所前,35.45941,137.88171,いいだWebまっぷで補正済み
長野県,飯田市,124,上久堅5430番地,小野子下集会所,35.44657,137.88488,いいだWebまっぷで補正済み
長野県,飯田市,126,上久堅5006番地1,小野子大昭館入口土手,35.44429,137.887,いいだWebまっぷで補正済み
長野県,飯田市,127,上久堅4832番地,小野子上集会所前,35.44317,137.88941,いいだWebまっぷで補正済み
長野県,飯田市,128,上久堅5759番地2,masked,35.44268,137.88409,いいだWebまっぷで補正済み
長野県,飯田市,129,上久堅6118番地6,南部コミュニティセンター土手,35.43879,137.88083,いいだWebまっぷで補正済み
長野県,飯田市,130,上久堅6212番地2,masked,35.43841,137.87974,いいだWebまっぷで補正済み
長野県,飯田市,131,上久堅6437番地1,平栗車庫バス停手前防火用水前,35.43632,137.87808,いいだWebまっぷで補正済み
長野県,飯田市,132,上久堅6533-7,主要地方道下条米川飯田線平栗車庫バス停先三叉路ガードレール,35.43601,137.87568,いいだWebまっぷで補正済み
長野県,飯田市,133,上久堅6559,蛇沼集落センター前,35.43265,137.87457,いいだWebまっぷで補正済み
長野県,飯田市,134,上久堅,主要地方道下条米川飯田線へび沢橋ガードレール,35.43146,137.8718,いいだWebまっぷで補正済み
長野県,飯田市,135,千代610番地,masked,35.43001,137.86655,いいだWebまっぷで補正済み
長野県,飯田市,136,千代227番地1,荻坪生活改善センター前,35.4269,137.86571,いいだWebまっぷで補正済み
長野県,飯田市,137,千代2900番地2,互徳社前水防倉庫,35.4203,137.8577,いいだWebまっぷで補正済み
長野県,飯田市,138,千代1047番地2,千代小学校校庭入口向側,35.4182,137.86437,いいだWebまっぷで補正済み
長野県,飯田市,139,千代987番地4,主要地方道下条米川飯田線小嶋モータース向側ガードレール,35.41727,137.86706,いいだWebまっぷで補正済み
長野県,飯田市,140,千代2250番地5,主要地方道下条米川飯田線北村理髪店手前ガードレール,35.41481,137.86691,いいだWebまっぷで補正済み
長野県,飯田市,141,千代1978番地20,米川公会堂,35.41662,137.86926,いいだWebまっぷで補正済み
長野県,飯田市,142,千代907番地6,masked,35.42363,137.87083,いいだWebまっぷで補正済み
長野県,飯田市,143,千代1505番地4,masked,35.4233,137.87406,いいだWebまっぷで補正済み
長野県,飯田市,144,千代1248番地,野池神社前,35.42162,137.87399,いいだWebまっぷで補正済み
長野県,飯田市,145,千代1422番地1,masked,35.41701,137.86992,いいだWebまっぷで補正済み
長野県,飯田市,146,千代1805番地,野池愛林農業協同組合前,35.41817,137.87719,いいだWebまっぷで補正済み
長野県,飯田市,147,千代1466番地3,桜井工務所作業所前,35.418,137.88103,いいだWebまっぷで補正済み
長野県,飯田市,148,千代1793番地1,masked,35.41864,137.88565,いいだWebまっぷで補正済み
長野県,飯田市,149,千代2442番地5,山中橋入口ガードレール,35.40905,137.86413,いいだWebまっぷで補正済み
長野県,飯田市,150,千代2568番地5,masked,35.40539,137.86702,いいだWebまっぷで補正済み
長野県,飯田市,151,千代3279番地,法山地域振興センター入口,35.403967,137.8681665,緯度経度は怪しい
長野県,飯田市,152,千代2658番地3,主要地方道下条米川飯田線千遠線林道入口付近,35.40198,137.86847,いいだWebまっぷで補正済み
長野県,飯田市,153,千代3072番地13,法全寺第二配水池前ガードレール,35.39993,137.8672984,緯度経度は怪しい
長野県,飯田市,154,千代3218番地,masked,35.4023587,137.8635996,緯度経度は怪しい
長野県,飯田市,155,千代3392番地6,川手正一果樹園前ガードレール,35.407545,137.85985,緯度経度は怪しい
長野県,飯田市,156,千栄2291番地5,米峰公民館前,35.4163,137.84685,いいだWebまっぷで補正済み
長野県,飯田市,157,千栄2220番地2,簡易水道米峰滅圧槽入口市道ガードレール,35.41651,137.84175,いいだWebまっぷで補正済み
長野県,飯田市,158,千栄2093番地5,masked,35.4190704,137.8359429,緯度経度は怪しい
長野県,飯田市,159,千栄2022番地5,立屋商店前の辻,35.4216923,137.834899,緯度経度は怪しい
長野県,飯田市,160,千栄2545番地8,農免道路毛呂窪入口交差点下,35.42381,137.83819,いいだWebまっぷで補正済み
長野県,飯田市,161,千栄2064番地1,毛呂窪公民館前,35.420369,137.8357898,緯度経度は怪しい
長野県,飯田市,162,千栄198番地16,親の平線農免道路交差点ガードレール,35.431347,137.8316718,緯度経度は怪しい
長野県,飯田市,163,千栄1399番地1,清水徹果樹園前,35.42715,137.8265,いいだWebまっぷで補正済み
長野県,飯田市,164,千栄1388番地4,masked,35.42779,137.82537,いいだWebまっぷで補正済み
長野県,飯田市,165,千栄525番地1,下村公会堂前,35.43009,137.82217,いいだWebまっぷで補正済み
長野県,飯田市,166,千栄568番地1,masked,35.4316,137.82032,いいだWebまっぷで補正済み
長野県,飯田市,167,龍江80番地4,飯田富山佐久間線新天竜橋龍江側入口南 慰霊碑付近歩道フェンス,35.46132,137.83122,いいだWebまっぷで補正済み
長野県,飯田市,168,龍江502番地,上城上ポンプ小屋上,35.4606,137.83578,いいだWebまっぷで補正済み
長野県,飯田市,169,龍江28番地22,龍江一区公民館前,35.458899,137.8303712,緯度経度は怪しい
長野県,飯田市,170,龍江,船渡集会所横市道植樹帯,35.45972,137.82851,いいだWebまっぷで補正済み
長野県,飯田市,171,龍江2453番地,masked,35.4568293,137.8272382,緯度経度は怪しい
長野県,飯田市,172,龍江2281番地,新地生活改善センター前フェンス,35.45504469999999,137.8294869,緯度経度は怪しい
長野県,飯田市,173,龍江3292番地3,田中上生活改善センター前,35.4530201,137.8277397,緯度経度は怪しい
長野県,飯田市,174,龍江3597番地1,masked,35.44951990000001,137.8261822,緯度経度は怪しい
長野県,飯田市,175,龍江3453番地1,大宮八幡宮境内,35.4517108,137.82398,緯度経度は怪しい
長野県,飯田市,176,龍江4156番地,masked,35.4457424,137.8225686,緯度経度は怪しい
長野県,飯田市,177,龍江4517番地,龍江自治振興センター前フェンス,35.4462475,137.8284603,緯度経度は怪しい
長野県,飯田市,178,龍江4498番地,更生バイパス三又路ガードレール,35.44544,137.82783,いいだWebまっぷで補正済み
長野県,飯田市,179,龍江7170番地1,太田下 エフ美容室フェンス,35.4426285,137.8200022,緯度経度は怪しい
長野県,飯田市,180,龍江7206番地2,masked,35.4424523,137.8228731,緯度経度は怪しい
長野県,飯田市,181,龍江6860番地2,中原赤ナギ三又路,35.44231,137.82718,いいだWebまっぷで補正済み
長野県,飯田市,182,龍江7338番地,龍江三区公民館前,35.4397035,137.8246054,緯度経度は怪しい
長野県,飯田市,183,龍江7635番地1,椚平 椚平公園フェンス,35.43669,137.82535,いいだWebまっぷで補正済み
長野県,飯田市,184,龍江6279番地,堀廻集会所前,35.4378276,137.8326949,緯度経度は怪しい
長野県,飯田市,185,龍江7889番地,masked,35.4353008,137.8411602,緯度経度は怪しい
長野県,飯田市,186,龍江8074番地6,masked,35.4313248,137.8466689,緯度経度は怪しい
長野県,飯田市,187,龍江8795番地1,masked,35.4325553,137.8479025,緯度経度は怪しい
長野県,飯田市,188,龍江8355番地5,masked,35.4289951,137.8482613,緯度経度は怪しい
長野県,飯田市,189,龍江8394番地5,尾林上集会所入口,35.42653,137.84956,いいだWebまっぷで補正済み
長野県,飯田市,190,龍江9209番地2,竜東中学校前ガードレール,35.44008,137.853,いいだWebまっぷで補正済み
長野県,飯田市,191,龍江9598番地2,県道米川駄科(停)線礫石製作所向側ガードレール,35.43994,137.86036,いいだWebまっぷで補正済み
長野県,飯田市,192,龍江9340番地,尾科公民館前フェンス,35.4483437,137.8568699,緯度経度は怪しい
長野県,飯田市,195,下久堅稲葉1579番地,masked,35.4520939,137.8552353,緯度経度は怪しい
長野県,飯田市,196,上久堅8816番地,masked,35.45128,137.85683,いいだWebまっぷで補正済み
長野県,飯田市,197,駄科2276番地,新井原公民館横の土手,35.4864548,137.8148039,
長野県,飯田市,198,駄科1304番地,駄科区民センター前,35.4784378,137.8293557,
長野県,飯田市,199,駄科340番地3,県道駄科大瀬木線旗枠交差点フェンス,35.47932,137.83015,いいだWebまっぷで補正済み
長野県,飯田市,200,駄科481番地1,飯田ハマネツ前歩道フェンス,35.47756,137.83202,いいだWebまっぷで補正済み
長野県,飯田市,201,駄科589番地1,ホンダ建工横,35.4779713,137.8355218,
長野県,飯田市,202,駄科524番地8,masked,35.4764374,137.8369314,
長野県,飯田市,203,駄科1202番地1,旧竜丘橋付近ごみ集積所東側土手,35.4742483,137.83001,
長野県,飯田市,204,長野原515番地4,JAサービス前市道ガードレール,35.4713824,137.835071,
長野県,飯田市,205,長野原429番地1,長野区民センター敷地,35.4697437,137.8335677,
長野県,飯田市,206,長野原581番地8,県道米川飯田線農協入口交差点,35.4752608,137.8370389,
長野県,飯田市,207,長野原401番地1,masked,35.46831,137.8346,いいだWebまっぷで補正済み
長野県,飯田市,208,長野原355番地5,masked,35.46592,137.83244,いいだWebまっぷで補正済み
長野県,飯田市,209,長野原495番地1,JAみなみ信州資材センターフェンス,35.4719341,137.8359591,
長野県,飯田市,210,長野原601番地5,県道米川飯田線踏み切り北空き地,35.4736255,137.8369175,
長野県,飯田市,211,時又127番地155,masked,35.4670768,137.8360928,緯度経度は怪しい
長野県,飯田市,212,時又281番地2,カルニュー飯田事務所南側の太陽光パネル隣空地石垣上,35.4649617,137.8302868,
長野県,飯田市,213,時又503番地1,時又ふれあいセンター入口の花壇横,35.4631439,137.8306525,
長野県,飯田市,214,時又519番地,県道米川・飯田線新天竜橋竜丘側入口南 歩道フェンス,35.46222,137.83098,いいだWebまっぷで補正済み
長野県,飯田市,215,時又903番地2,竜丘郵便局横フェンス,35.46227580000001,137.8286656,
長野県,飯田市,216,時又55番地,時又八常会嶋集会所前,35.46162,137.8232,いいだWebまっぷで補正済み
長野県,飯田市,217,南神木1036番地,国道151号飯田信金桐林支店横フェンス,35.47397,137.82582,いいだWebまっぷで補正済み
長野県,飯田市,218,南神木797番地8,久保尻生活改善センター横 市道ガードレール,35.47187,137.82866,いいだWebまっぷで補正済み
長野県,飯田市,219,南神木505番地,竜丘自治振興センター建物入口前花壇,35.46912,137.82743,いいだWebまっぷで補正済み
長野県,飯田市,220,南神木192番地,安城生活改善センター三差路歩道フェンス,35.46647,137.82578,いいだWebまっぷで補正済み
長野県,飯田市,221,南神木1983番地,(株)沖田石材展示場フェンス,35.46969,137.82315,いいだWebまっぷで補正済み
長野県,飯田市,222,南神木3139番地,国道151号線駒沢橋手前安城入口市道ガードレール,35.46805,137.82112,いいだWebまっぷで補正済み
長野県,飯田市,223,南神木2789番地1,(株)原鉄桐林営業所フェンス,35.46666,137.81837,いいだWebまっぷで補正済み
長野県,飯田市,224,上川路45番地,金山公民館前,35.4621309,137.8194382,
長野県,飯田市,225,上川路1201番地,上川路橋のガードレール,35.46076,137.81786,いいだWebまっぷで補正済み
長野県,飯田市,226,上川路1007番地1,旧上川路公民館前の畑,35.46079,137.81512,いいだWebまっぷで補正済み
長野県,飯田市,227,上川路981番地1,上川路公民館,35.4611423,137.8139545,
長野県,飯田市,228,上川路336番地4,県道時又・中村線宮の前集会所下ガードレール,35.4636548,137.8115487,
長野県,飯田市,229,川路1021番地1,川路2区国道151号線三叉路堤上,35.45976,137.81104,いいだWebまっぷで補正済み
長野県,飯田市,230,川路1974番地1,川路3区集会所前石垣,35.4561241,137.8115776,
長野県,飯田市,231,川路2363番地,川路自治振興センター前,35.451956,137.8115487,
長野県,飯田市,232,川路7521番地,川路駅前川路3号公園,35.45301,137.8146,いいだWebまっぷで補正済み
長野県,飯田市,233,川路2667番地4,JAみなみ信州川路事業所前ガードレール,35.4503026,137.8110666,
長野県,飯田市,234,川路7156番地,市道川路185号線起点付近,35.4473,137.81277,いいだWebまっぷで補正済み
長野県,飯田市,235,川路4252番地5,川路6区遊園地フェンス,35.4429549,137.8127828,いいだWebまっぷで補正済み
長野県,飯田市,236,川路4761番地,ソーマ化粧品くちなし販社前ガードレール,35.44128,137.81447,いいだWebまっぷで補正済み
長野県,飯田市,237,川路5093番地5,天竜峡テニスコート前,35.437956,137.815473,
長野県,飯田市,238,川路4382番地1,竜峡中学校入口,35.4409837,137.8091803,緯度経度は怪しい
長野県,飯田市,239,川路5763番地1,川路八区公民館前,35.43601,137.80948,いいだWebまっぷで補正済み
長野県,飯田市,240,川路5222番地15,masked,35.4372712,137.8130291,緯度経度は怪しい
長野県,飯田市,241,伊豆木1543番地2,masked,35.46151,137.79147,いいだWebまっぷで補正済み
長野県,飯田市,242,伊豆木2688番地5,市道2－42号線第三組合集会所前,35.45132,137.78716,いいだWebまっぷで補正済み
長野県,飯田市,243,伊豆木48番地1,旧小笠原家書院駐車場奥,35.44704,137.79686,いいだWebまっぷで補正済み
長野県,飯田市,244,伊豆木5451番地2,三穂公民館・三穂自治振興センター入口,35.4382579,137.7934734,緯度経度は怪しい
長野県,飯田市,245,伊豆木4659番地5,第7の1生活センター上県道田中・乱橋線待避所,35.4413425,137.7859929,緯度経度は怪しい
長野県,飯田市,246,伊豆木5298番地1,県道親田・中村線柳桜北,35.43561,137.78959,いいだWebまっぷで補正済み
長野県,飯田市,247,立石502番地,立石雄杉の前フェンス,35.4311,137.78695,いいだWebまっぷで補正済み
長野県,飯田市,248,下瀬225番地1,市道29号線下瀬生活センター入口,35.42715,137.80365,いいだWebまっぷで補正済み
長野県,飯田市,249,下瀬268番地13,下瀬消防団詰所前,35.4269462,137.8057397,
長野県,飯田市,250,山本6722番地1,masked,35.48748,137.76651,いいだWebまっぷで補正済み
長野県,飯田市,251,山本6722番地295,masked,35.48842,137.76598,いいだWebまっぷで補正済み
長野県,飯田市,252,山本590番地1,大堤下東平1ごみ集積所横,35.4852464,137.7657024,
長野県,飯田市,253,山本358番地7,二ツ山集会所駐車場の南側畑,35.4833399,137.7687178,
長野県,飯田市,254,山本1794番地1,清水酒店の前,35.47884,137.75891,いいだWebまっぷで補正済み
長野県,飯田市,255,山本850番地1,北御堂横の土手,35.4829,137.76036,いいだWebまっぷで補正済み
長野県,飯田市,256,山本6724番地421,大明神集会所前,35.49302,137.76245,いいだWebまっぷで補正済み
長野県,飯田市,257,山本2053番地2,島中橋横の精米所前,35.4778784,137.756484,
長野県,飯田市,258,山本1497番地1,masked,35.47843,137.76323,いいだWebまっぷで補正済み
長野県,飯田市,259,山本2368番地1,丸寿タクシー前塚田タイヤ跡地,35.4759082,137.7622056,
長野県,飯田市,260,山本3374番地1,山本公民館入口ガードレール,35.47191,137.76066,いいだWebまっぷで補正済み
長野県,飯田市,261,山本,国道153号線市道1－42号線三叉路ガードレール,35.46864,137.76098,いいだWebまっぷで補正済み
長野県,飯田市,262,山本3663番地1,ティーエーシステム前の土手,35.47018,137.75786,いいだWebまっぷで補正済み
長野県,飯田市,263,山本3890番地6,南平研修センター裏の市道フェンス下,35.46676,137.75659,いいだWebまっぷで補正済み
長野県,飯田市,264,竹佐185番地1,国道153号線バイパス山本インター入口交差点西空地,35.46556,137.76027,いいだWebまっぷで補正済み
長野県,飯田市,265,山本5383番地,masked,35.46385,137.75397,いいだWebまっぷで補正済み
長野県,飯田市,266,箱川22番地1,山本老人福祉センター入口,35.46089,137.77479,
長野県,飯田市,267,箱川205番地,masked,35.45844,137.77444,いいだWebまっぷで補正済み
長野県,飯田市,268,箱川1296番地2,箱川長田農業生活改善センター向側市道ガードレール,35.45332,137.7658,いいだWebまっぷで補正済み
長野県,飯田市,269,箱川648番地1,箱川消防ポンプ置場前の辻,35.44819,137.76721,いいだWebまっぷで補正済み
長野県,飯田市,270,箱川571番地1,箱川郷づくり研修センター,35.44974,137.76979,いいだWebまっぷで補正済み
長野県,飯田市,271,箱川1577番地,箱川上平集会所上の三叉路,35.44544,137.77351,いいだWebまっぷで補正済み
長野県,飯田市,272,竹佐755番地4,久米川大橋横公園,35.46802,137.77233,いいだWebまっぷで補正済み
長野県,飯田市,273,久米858番地9,久米会館(久米活性化センター)入口 ガードレール,35.47188,137.783081,
長野県,飯田市,274,久米1513番地3,久米南平生活改善センター前の土手,35.46978,137.78631,いいだWebまっぷで補正済み
長野県,飯田市,275,久米1659番地1,久米川温泉入口,35.47152,137.7913,いいだWebまっぷで補正済み
長野県,飯田市,276,久米498番地1,久米北平公会堂前の四辻,35.4766,137.78699,いいだWebまっぷで補正済み
長野県,飯田市,277,久米42番地4,信菱電機(株)前のフェンス,35.4809,137.78736,いいだWebまっぷで補正済み
長野県,飯田市,278,下殿岡577番地,masked,35.49088,137.81643,いいだWebまっぷで補正済み
長野県,飯田市,279,下殿岡183番地2,県道444号市道690号交差点,35.49507,137.81234,いいだWebまっぷで補正済み
長野県,飯田市,280,下殿岡90番地,協和電設前,35.49597,137.8101,いいだWebまっぷで補正済み
長野県,飯田市,281,下殿岡1020番地,殿岡保育園北側市道フェンス,35.4967968,137.8077965,
長野県,飯田市,282,上殿岡604番地,神明社前公園フェンス,35.4986881,137.8064532,
長野県,飯田市,283,上殿岡642番地1,かっぱ寿司向市道土手,35.50013,137.8081,いいだWebまっぷで補正済み
長野県,飯田市,284,上殿岡445番地1,masked,35.49932,137.80316,いいだWebまっぷで補正済み
長野県,飯田市,285,三日市場379番地9,吉沢造園東側ガードレール,35.49321,137.79968,いいだWebまっぷで補正済み
長野県,飯田市,286,三日市場1067番地1,清水医院三日市場交差点,35.49153,137.79775,いいだWebまっぷで補正済み
長野県,飯田市,287,三日市場1030番地,三日市場研修センター前,35.4905738,137.7990776,
長野県,飯田市,288,三日市場1412番地1,運動公園通りヤマト運輸フェンス前花壇,35.488943,137.7968504,
長野県,飯田市,289,三日市場1265番地1,上の平生活改善センター隣の畑,35.4904622,137.793136,
長野県,飯田市,290,大瀬木4361番地4,六反田十字路東側,35.4931282,137.7928758,
長野県,飯田市,291,北方297番地5,旧北方(母子)寮正門横フェンス,35.5051913,137.8055701,
長野県,飯田市,292,北方1500番地3,国道256号線のヤザワ西側交差点,35.50671,137.80026,いいだWebまっぷで補正済み
長野県,飯田市,293,北方1456番地1,栄和運送（有）ブロック塀横国道沿い,35.5067434,137.7989137,
長野県,飯田市,294,北方2452番地,北方会館横フェンス,35.5056866,137.7963168,
長野県,飯田市,295,北方2006番地1,masked,35.5119372,137.7939684,
長野県,飯田市,296,北方2559番地3,平和時計上南沢線五差路下ガードレール,35.50477,137.78848,いいだWebまっぷで補正済み
長野県,飯田市,297,北方1026番地2,飯田インター西綿半ビル付近緑地,35.5021388,137.7939998,
長野県,飯田市,298,北方833番地1,国道153号線飯田インター東交差点ケースデンキ側歩道法面,35.5001474,137.7975787,
長野県,飯田市,299,大瀬木442番地4,NTツール上熊野殿岡線市道1－34交差点下畑,35.49639,137.79345,いいだWebまっぷで補正済み
長野県,飯田市,300,大瀬木570番地1,伊賀良公民館入口,35.4983686,137.7920331,
長野県,飯田市,301,大瀬木1107番地14,旧飯田児童相談所上フェンス,35.4992788,137.7902996,
長野県,飯田市,302,大瀬木1074番地1,熊野神社ブロック塀国道沿い,35.4975654,137.7889487,
長野県,飯田市,303,大瀬木1340番地1,大瀬木コミュニティセンター西 墓地横,35.49709,137.78563,いいだWebまっぷで補正済み
長野県,飯田市,304,大瀬木1972番地1,masked,35.50115,137.78491,いいだWebまっぷで補正済み
長野県,飯田市,305,大瀬木2097番地,西部山麓線8号線昭和交差点カリン畑,35.49912,137.7741,いいだWebまっぷで補正済み
長野県,飯田市,306,大瀬木3174番地1,masked,35.49281,137.7738,いいだWebまっぷで補正済み
長野県,飯田市,307,大瀬木1961番地1,masked,35.50025170000001,137.7829344,
長野県,飯田市,308,大瀬木3530番地,旭ヶ丘中学校体育館横フェンス,35.49167,137.78075,いいだWebまっぷで補正済み
長野県,飯田市,309,中村12番地3,八十二銀行伊賀良支店駐車場フェンス,35.4901213,137.7847901,
長野県,飯田市,310,中村1311番地2,県道時又・中村線(有)清水建築前,35.48666,137.78883,いいだWebまっぷで補正済み
長野県,飯田市,311,中村1264番地,中村会館前の協同電工フェンス,35.4857844,137.7910523,
長野県,飯田市,312,中村1459番地,運動公園通り26号線2差路ガードレール,35.4851,137.79522,いいだWebまっぷで補正済み
長野県,飯田市,313,中村1728番地2,県道時又・中村線旧伊那路向いガードレール,35.48106,137.79706,いいだWebまっぷで補正済み
長野県,飯田市,314,中村2775番地5,masked,35.47777,137.794,いいだWebまっぷで補正済み
長野県,飯田市,315,中村2124番地2,県道時又・中村線下中村橋西側ガードレール,35.47505,137.80021,いいだWebまっぷで補正済み
長野県,飯田市,316,鼎東鼎94番地18,国道151号線飯田橋交差点東鼎線路,35.507391,137.8390817,
長野県,飯田市,317,鼎下山707番地1,下山区民会館屋台倉庫側入口横フェンス,35.5061782,137.8346653,
長野県,飯田市,318,鼎西鼎643番地2,西鼎交差点市道フェンス,35.5085034,137.834361,
長野県,飯田市,319,鼎下山243番地3,JR下山駅前上手,35.504322,137.8396353,
長野県,飯田市,320,鼎下山393番地2,県道青木鼎線下山区福祉センター前,35.50517,137.83389,いいだWebまっぷで補正済み
長野県,飯田市,321,鼎下山1384番地,矢高神社下団地入口横ガードレール,35.50448859999999,137.83053,
長野県,飯田市,322,鼎下山1555番地3,市道2－4号線矢高側踏切手前ガードレール,35.50649,137.83001,いいだWebまっぷで補正済み
長野県,飯田市,323,鼎中平1305番地,県道青木鼎線交差点鼎文化センター駐車場フェンス,35.5056359,137.8275271,
長野県,飯田市,324,鼎中平1995番地19,JR鼎駅前駐車場フェンス,35.5066856,137.8279712,
長野県,飯田市,325,鼎中平2242番地,鼎商工会館前フェンス,35.5093,137.8271,いいだWebまっぷで補正済み
長野県,飯田市,326,鼎下茶屋2185番地11,鼎下茶屋駐車場横フェンス,35.5104204,137.8262521,緯度経度は怪しい
長野県,飯田市,327,鼎中平2475番地,鼎小学校第二体育館前歩道フェンス,35.507675,137.8237562,
長野県,飯田市,328,鼎中平2894番地2,中平4班作業所西側ガードレール,35.50958,137.81838,いいだWebまっぷで補正済み
長野県,飯田市,329,鼎上茶屋3421番地,運動公園通り上茶屋交差点東市道フェンス,35.5114505,137.8136747,
長野県,飯田市,330,鼎切石4053番地,長野県酒類販売㈱飯田支店のフェンス,35.50914,137.81099,いいだWebまっぷで補正済み
長野県,飯田市,331,鼎切石4279番地2,切石駅北側ガードレール,35.51281,137.80909,いいだWebまっぷで補正済み
長野県,飯田市,332,鼎切石4320番地2,国道256号切石歩道橋西側,35.51184,137.80764,いいだWebまっぷで補正済み
長野県,飯田市,333,鼎切石4300番地11,プランドール桜瀬北側市道フェンス,35.51383,137.80379,いいだWebまっぷで補正済み
長野県,飯田市,334,鼎切石4635番地1,切石児童学習交流センターフェンス,35.5117065,137.8055555,
長野県,飯田市,335,鼎切石4525番地3,masked,35.511484,137.8035466,
長野県,飯田市,336,鼎切石5036番地,夏目光学下妙琴線三叉路横ガードレール,35.5156443,137.797916,
長野県,飯田市,337,鼎上山3727番地3,運動公園通り一色坂手前三叉路,35.5066105,137.8098263,
長野県,飯田市,338,鼎上山3692番地1,野畔防火貯水槽横交差点,35.50607,137.81346,いいだWebまっぷで補正済み
長野県,飯田市,339,鼎上山2959番地1,上山区民センター入口フェンス,35.50697,137.81647,いいだWebまっぷで補正済み
長野県,飯田市,340,鼎上山2591番地7,鼎中学校体育館入口横フェンス,35.50438,137.82252,いいだWebまっぷで補正済み
長野県,飯田市,341,鼎上山1890番地,鼎自治振興センター東側歩道フェンス,35.5036,137.82598,いいだWebまっぷで補正済み
長野県,飯田市,342,鼎上山1576番地10,庚申坂三叉路ガードレール,35.50222249999999,137.8268522,緯度経度は怪しい
長野県,飯田市,343,鼎上山1777番地2,信濃寮三叉路ガードパイプ,35.50261,137.81902,いいだWebまっぷで補正済み
長野県,飯田市,344,鼎一色259番地,masked,35.5037116,137.8147498,
長野県,飯田市,345,鼎一色346番地5,SBC送信所南側ガードレール,35.50117,137.81496,いいだWebまっぷで補正済み
長野県,飯田市,346,鼎名古熊1350番地,名古熊公民館駐車場,35.4980486,137.8213521,
長野県,飯田市,347,鼎一色479番地7,イオン飯田アップルロード店東側駐車場横,35.50065,137.81847,いいだWebまっぷで補正済み
長野県,飯田市,348,名古熊2154番地1,JAきのこ集出荷場路側帯,35.49683,137.82584,いいだWebまっぷで補正済み
長野県,飯田市,349,鼎名古熊2633番地1,masked,35.4999388,137.8343121,
長野県,飯田市,350,鼎名古熊1843番地,masked,35.4937356,137.825286,
長野県,飯田市,351,上郷黒田,三ツ井下市道ガードレール,35.53284,137.82741,いいだWebまっぷで補正済み
長野県,飯田市,352,上郷黒田2344-1,masked,35.5319364,137.8374978,
長野県,飯田市,353,上郷黒田3097-4,masked,35.5331781,137.8333931,
長野県,飯田市,354,上郷黒田2825-11,上黒田集落センター前市道フェンス,35.5318013,137.8318106,
長野県,飯田市,355,上郷黒田5637番地先,主要地方道飯島飯田野底橋際ガードレール,35.5261788,137.8290897,
長野県,飯田市,356,上郷黒田921番地4,消防16分団下黒田北詰所前,35.5282431,137.8312988,
長野県,飯田市,357,上郷黒田1469番地5,下黒田北第二集会所前市道フェンス,35.529465,137.8343729,
長野県,飯田市,358,上郷黒田1360番地9,上郷第三配水池跡,35.5274451,137.8359981,
長野県,飯田市,359,上郷黒田996番地,masked,35.5256687,137.8331373,
長野県,飯田市,360,上郷黒田1304番地1,中村誠キノコ工場横,35.52543,137.8383,いいだWebまっぷで補正済み
長野県,飯田市,361,上郷黒田1636番地3,櫛原利喜夫氏畑,35.5252115,137.8440861,
長野県,飯田市,362,上郷別府2675番地4,masked,35.52154,137.83384,いいだWebまっぷで補正済み
長野県,飯田市,363,上郷黒田261番地10,JR伊那上郷駅フェンス,35.5202911,137.8384995,緯度経度は怪しい
長野県,飯田市,364,上郷黒田5485番地,上郷体育館前高陵中学校フェンス,35.5228,137.84332,いいだWebまっぷで補正済み
長野県,飯田市,365,上郷黒田341番地2,飯田市立病院介護老人保健施設ゆうゆう植栽帯,35.517783,137.8396137,
長野県,飯田市,366,上郷別府2323番地3,東洋アパート北側フェンス,35.513749,137.8393518,
長野県,飯田市,367,上郷飯沼3092番地21,県道市場桜町線竜坂山本園茶店前歩道フェンス,35.5171143,137.8443625,緯度経度は怪しい
長野県,飯田市,368,上郷飯沼2464番地,飯沼諏訪神社登り口,35.5216135,137.8465034,
長野県,飯田市,369,上郷飯沼2365番地1,飯沼南自治会館,35.5197401,137.8471099,
長野県,飯田市,370,上郷飯沼2484番地1,飯沼公会堂前,35.521959,137.8480715,
長野県,飯田市,371,上郷飯沼1528番地7,masked,35.5251,137.85118,いいだWebまっぷで補正済み
長野県,飯田市,372,上郷飯沼860番地3,安楽寺入口市道ガードレール,35.5216006,137.8534251,
長野県,飯田市,373,上郷飯沼587番地,masked,35.51819,137.85599,いいだWebまっぷで補正済み
長野県,飯田市,374,上郷飯沼2245番地,らーめんふたつ矢裏駐車場フェンス,35.5157184,137.8480251,
長野県,飯田市,375,上郷別府2134番地6,上郷小学校友林フェンス,35.51219,137.84524,いいだWebまっぷで補正済み
長野県,飯田市,376,上郷別府3367番地1,元三菱電機住環境システムズ前フェンス,35.5125432,137.8400317,
長野県,飯田市,377,上郷別府3335番地9,城東三号公園フェンス,35.509711,137.8418133,
長野県,飯田市,378,上郷別府1005番地5,masked,35.51341,137.85354,いいだWebまっぷで補正済み
長野県,飯田市,379,上郷別府1195番地,別府児童館フェンス,35.509341,137.8487018,
長野県,飯田市,380,上郷別府655番地1,別府農事組合集合所フェンス,35.5072328,137.8538706,
長野県,飯田市,381,上村上町 754-2,上村自治振興センター付近,35.38761,137.96929,いいだWebまっぷで補正済み
長野県,飯田市,382,上村上町 裏通り,上村川橋・歩道橋欄干付近,35.38508,137.96862,いいだWebまっぷで補正済み
長野県,飯田市,383,上村上町 栗下,上村体育園フェンス付近,35.381,137.96765,いいだWebまっぷで補正済み
長野県,飯田市,384,上村上町 裏通り,上村コミュニティーセンター駐車場付近,35.38669,137.97005,いいだWebまっぷで補正済み
長野県,飯田市,385,上村上町,国道152・市道下栗線分岐付近,35.38465,137.96961,いいだWebまっぷで補正済み
長野県,飯田市,386,上村上町 万場,万場バス停横国道152号ガードレール,35.39524979999999,137.9691349,緯度経度は怪しい
長野県,飯田市,387,上村中郷 下中郷,福祉企業センター中郷分場向い国道152号ガードレール,35.4015259,137.972688,緯度経度は怪しい
長野県,飯田市,388,上村中郷 下中郷,中郷コミュニティーセンター付近,35.40669,137.97405,いいだWebまっぷで補正済み
長野県,飯田市,390,上村母袋 上中郷,馬老沢 御堂カベ付近,35.41582,137.97956,いいだWebまっぷで補正済み
長野県,飯田市,391,上村程野 ウトウドチ,程野大橋ウトドチバス停横 国道152号ガードレール,35.42504,137.98368,いいだWebまっぷで補正済み
長野県,飯田市,392,上村程野 東,牧田建設前 国道152号線付近,35.43018,137.98734,いいだWebまっぷで補正済み
長野県,飯田市,393,上村程野 102番地2,市道2-上村20号線程野区民センター前ガードレール,35.43416,137.98849,いいだWebまっぷで補正済み
長野県,飯田市,394,上村程野 上島,masked,35.43621,137.99,いいだWebまっぷで補正済み
長野県,飯田市,395,上村程野 30番地5,山崎建設向い国道152号ガードレール,35.43859,137.99133,いいだWebまっぷで補正済み
長野県,飯田市,396,上村程野,国道152・市道上村1号分岐付近,35.44323,137.99206,いいだWebまっぷで補正済み
長野県,飯田市,397,上村下栗 中根,上中根農園 前付近,35.3665,137.97344,いいだWebまっぷで補正済み
長野県,飯田市,398,上村下栗 本村,下栗総合交流会館 駐車場付近,35.37451,137.98625,いいだWebまっぷで補正済み
長野県,飯田市,399,上村下栗 南,masked,35.37315,137.98525,いいだWebまっぷで補正済み
長野県,飯田市,400,上村下栗 半場,masked,35.3731,137.98316,いいだWebまっぷで補正済み
長野県,飯田市,401,上村下栗 本村(下村),masked,35.37431,137.98927,いいだWebまっぷで補正済み
長野県,飯田市,402,上村下栗 屋敷,屋敷老人集会所 前付近,35.38366,138.00343,いいだWebまっぷで補正済み
長野県,飯田市,403,本町,本町通り公園の擁壁（左欄）,35.31942,137.93291,いいだWebまっぷで補正済み
長野県,飯田市,404,夜川瀬,アンバマイ館前,35.32111,137.92952,いいだWebまっぷで補正済み
長野県,飯田市,405,山原,masked,35.31932,137.92428,いいだWebまっぷで補正済み
長野県,飯田市,406,南信濃和田154番地1,masked,35.3282461,137.9399379,緯度経度は怪しい
長野県,飯田市,407,新町,地域交流センター前 市道南信濃28号歩道フェンス,35.3228,137.93442,いいだWebまっぷで補正済み
長野県,飯田市,408,新町,信南交通和田営業所前,35.32138,137.93463,いいだWebまっぷで補正済み
長野県,飯田市,409,大島1924番地1,大島観音堂前 防火水槽金網（右側）,35.32979,137.9526,いいだWebまっぷで補正済み
長野県,飯田市,410,池口,池口集会所入口前,35.32924,137.96563,いいだWebまっぷで補正済み
長野県,飯田市,412,昭和通り,masked,35.31827,137.92946,いいだWebまっぷで補正済み
長野県,飯田市,413,昭和通り,市道南信濃56号線 ガードパイプ,35.31584,137.92572,いいだWebまっぷで補正済み
長野県,飯田市,416,尾之島,尾之島バス停前ガードレール,35.3143522,137.9215881,緯度経度は怪しい
長野県,飯田市,419,本村,島川原橋西側 市道ガードレール,35.29856,137.92446,いいだWebまっぷで補正済み
長野県,飯田市,421,此田,横畑洋一郎氏所有の倉庫前 市道ガードレール,35.29063,137.92202,いいだWebまっぷで補正済み
長野県,飯田市,423,十原,十原集落入口 市道ガードレール,35.30641,137.91142,いいだWebまっぷで補正済み
長野県,飯田市,424,南信濃和田435番地5,旧南信濃和田駐車場跡地,35.30801,137.90284,いいだWebまっぷで補正済み
長野県,飯田市,427,飯島,飯島集会所横空き地,35.2989659,137.8783038,緯度経度は怪しい
長野県,飯田市,428,川合,川合入口 市道ガードレール,35.3416,137.95585,いいだWebまっぷで補正済み
長野県,飯田市,429,小道木,masked,35.3396417,137.9508248,緯度経度は怪しい
長野県,飯田市,430,木沢,国道152号線 旧民宿おおかわ隣 空地前の擁壁,35.34351,137.95194,いいだWebまっぷで補正済み
長野県,飯田市,431,木沢,木沢生活センター横 ガードレール,35.34629,137.95191,いいだWebまっぷで補正済み
長野県,飯田市,432,下中根,masked,35.35419,137.95998,いいだWebまっぷで補正済み
長野県,飯田市,433,八日市場,masked,35.37665,137.96572,いいだWebまっぷで補正済み
長野県,飯田市,434,上島,原田廣明氏所有の倉の塀,35.35704,137.95762,いいだWebまっぷで補正済み
