prefecture,city,number,address,name,lat,long
愛知県,一宮市,1,大宮４丁目５番,宮西小学校東正門南側,35.310831,136.800709
愛知県,一宮市,2,大宮４丁目５番,宮西小学校西門南側,35.310831,136.800709
愛知県,一宮市,3,大宮３丁目３番２３号先,用水上緑地帯,35.310042,136.79986
愛知県,一宮市,4,文京２丁目１番,一宮商業高校南側,35.31346,136.803939
愛知県,一宮市,5,文京１丁目３番,宮西公民会館南側,35.289248,136.822085
愛知県,一宮市,6,九品町３丁目１６番先,市民病院第７駐車場西側フェンス,35.315235,136.805313
愛知県,一宮市,7,真清田２丁目１０番１４号先,masked,35.310223,136.802307
愛知県,一宮市,1,音羽２丁目２番２９号,押場保育園南側,35.308628,136.79631
愛知県,一宮市,2,音羽１丁目４番,上本町公園北側,35.308285,136.795862
愛知県,一宮市,3,大宮１丁目７番２３号先,大崎会計事務所東側用水上緑地帯,35.307887,136.798898
愛知県,一宮市,4,音羽３丁目１２番,野黒公園南側東,35.311089,136.794189
愛知県,一宮市,5,音羽３丁目１３番,音羽公園南側,35.311848,136.796066
愛知県,一宮市,6,真清田１丁目２番３０号,スポーツ文化センター北側,35.308121,136.800659
愛知県,一宮市,7,大宮２丁目８番１６号先,masked,35.308586,136.796286
愛知県,一宮市,1,北神明町３丁目２９番,北神明公園東側,35.324238,136.803574
愛知県,一宮市,2,東島町１丁目１４番地１,大江川遊歩道沿いフェンス,35.317249,136.814514
愛知県,一宮市,3,北丹町２番地,療育サポートプラザ北側,35.322178,136.801956
愛知県,一宮市,4,西島町１丁目３５番地北,いちい信用金庫宮西支店東向側,35.319412,136.805847
愛知県,一宮市,5,小栗町２９番地１先,東南側,35.324577,136.801132
愛知県,一宮市,6,中島通３丁目２１番地,中小島ちびっ子広場（一宮中島郵便局北側）,35.321609,136.809906
愛知県,一宮市,7,東島町３丁目３５番地１北,東島霊園南入口東側,35.319942,136.815125
愛知県,一宮市,8,常願通１丁目４番地,常願通ポンプ場東側,35.318596,136.804245
愛知県,一宮市,1,貴船１丁目６番１０号,北部中学校正門南側,35.312157,136.806839
愛知県,一宮市,2,貴船１丁目１番２０号,高齢者作業センター南側,35.310513,136.807678
愛知県,一宮市,3,桜３丁目１４番１,大乗公園南西角,35.309245,136.808426
愛知県,一宮市,4,貴船１丁目８番４６号,貴船小学校北東（正門北側）,35.310768,136.809784
愛知県,一宮市,5,下沼町３丁目２,一宮市管路保全課（旧上下水道施設管理センター）北側,35.312607,136.815643
愛知県,一宮市,6,浜町６丁目２,中部電力パワーグリッド㈱一宮支所西門北側,35.310406,136.81514
愛知県,一宮市,7,両郷町４丁目３１－１,愛宕神社西側,35.314461,136.820435
愛知県,一宮市,8,松山町１番地５０,松山町ちびっこ広場西側、ゴミ置場北側,35.299362,136.798889
愛知県,一宮市,1,新生１丁目１００－３,名鉄一宮駅西口タクシー乗り場西側歩道,35.302101,136.795837
愛知県,一宮市,2,新生２丁目１０番,久古見公園南側,35.299831,136.797287
愛知県,一宮市,3,野口１丁目１９－７,野口保育園南側,35.299095,136.792206
愛知県,一宮市,4,神山１丁目７番,橋呑公園東側,35.302926,136.792364
愛知県,一宮市,5,神山２丁目７番,富古場公園北側,35.303758,136.788495
愛知県,一宮市,6,平和２丁目12番,神山小学校東門南側,35.292636,136.810031
愛知県,一宮市,7,神山３丁目４番,弁天公園西側,35.303967,136.788379
愛知県,一宮市,8,住吉１丁目５番,西側,35.324082,136.794947
愛知県,一宮市,1,末広２丁目２０番,末広小学校東側,35.295136,136.789021
愛知県,一宮市,2,末広３丁目１０番,堀田公園南側,35.294767,136.788412
愛知県,一宮市,3,昭和２丁目８番,柳下公園西側,35.293004,136.787706
愛知県,一宮市,4,中町１丁目１番,梅ケ枝公園南側,35.299723,136.806591
愛知県,一宮市,5,新生４丁目１０番,南山公園北側,35.29554,136.796143
愛知県,一宮市,6,末広３丁目２番,市営苅安賀住宅東側,35.294394,136.785529
愛知県,一宮市,7,末広１丁目９番,低見公園北側,35.295206,136.789376
愛知県,一宮市,8,花池1丁目4-35,尾張農林水産事務所一宮支所北側,35.294254,136.794785
愛知県,一宮市,1,八幡１丁目１１番,稲荷公園西側,35.305575,136.79432
愛知県,一宮市,2,八幡４丁目１－１１１,中部中学校テニスコート北側,35.306343,136.790497
愛知県,一宮市,3,八幡５丁目１番１４,新濃尾農地防災事業所南側（神山３丁目バス停前）,35.307029,136.785447
愛知県,一宮市,4,八幡５丁目１番８９,県営一宮八幡住宅駐車場北,35.308983,136.787262
愛知県,一宮市,5,一色町７６,一色保育園東側,35.310753,136.787231
愛知県,一宮市,6,天王２丁目１１番,伏木公園南側,35.310711,136.79216
愛知県,一宮市,7,天王３丁目１番,大神社東北側（名鉄西一宮駅北）,35.308922,136.790649
愛知県,一宮市,8,八幡５丁目１番９９南,県営一宮八幡住宅南側,35.308334,136.787628
愛知県,一宮市,1,大志２丁目７番,大志小学校南門東側,35.299332,136.805481
愛知県,一宮市,2,大志２丁目７番,大志小学校東門南側,35.299332,136.805481
愛知県,一宮市,3,大江３丁目１７番,須ケ崎橋西側のグリーンベルト,35.301235,136.806641
愛知県,一宮市,4,大志２丁目５番２０号,大志保育園南側,35.298904,136.806549
愛知県,一宮市,5,大志１丁目１番,名鉄東一宮バス停西側のグリーンベルト,35.301147,136.803177
愛知県,一宮市,6,本町４丁目６番,三井住友海上一宮ビル東側のグリーンベルト,35.300687,136.794999
愛知県,一宮市,7,栄４丁目２番１号,マストスクエア一宮北側植栽,35.30146,136.79936
愛知県,一宮市,1,本町２丁目４番,葵公園東側,35.302178,136.8016
愛知県,一宮市,2,大江1丁目13番,ジャノメミシン工業㈱西側のグリーンベルト,35.304523,136.80394
愛知県,一宮市,3,栄１丁目８番,一宮栄ビル西側,35.302507,136.79763
愛知県,一宮市,4,栄３丁目１番２号,東側グリーンベルト,35.306185,136.78796
愛知県,一宮市,5,栄３丁目２番,ニッショー一宮駅前支店前,35.29922,136.794036
愛知県,一宮市,6,大江１丁目８番８東,大江川沿い植樹帯,35.303303,136.807236
愛知県,一宮市,7,松降１丁目７番,一宮松降郵便局前グリーンベルト,35.307552,136.804504
愛知県,一宮市,1,古金町１丁目１２－１,向山公民館駐車場東側,35.299725,136.810028
愛知県,一宮市,2,古金町1丁目２３，２４,古金公園南側,35.299065,136.811646
愛知県,一宮市,3,北園通６丁目９,一宮高校正門東側の通用口の東側,35.295925,136.809677
愛知県,一宮市,4,向山町３丁目１,向山小学校運動場東側,35.297383,136.805684
愛知県,一宮市,5,北園通６丁目９,一宮高校テニスコート南側,35.295925,136.809677
愛知県,一宮市,6,南印田２丁目４,南印田公園南側,35.29557,136.815063
愛知県,一宮市,7,白旗通１丁目３９,八幡社境内西側,35.299129,136.815216
愛知県,一宮市,1,公園通４丁目２０,真澄保育園南側,35.296055,136.803238
愛知県,一宮市,2,柳戸町２丁目５,真澄公園東側,35.293964,136.805374
愛知県,一宮市,3,本町通８丁目１１,旧豊島図書館入口,35.297916,136.801773
愛知県,一宮市,4,公園通４丁目６－５,公園通４丁目歩道橋橋脚南東,35.295818,136.803741
愛知県,一宮市,5,殿町３丁目２８,中部電力一宮営業所分室西側,35.293179,136.803146
愛知県,一宮市,6,中町２丁目１１,仲畑公園北側,35.295331,136.801162
愛知県,一宮市,7,一宮字牛野南ノ切２９－１東,牛野児童遊園東側フェンス,35.287694,136.808366
愛知県,一宮市,1,羽衣１丁目７番,天道公園東側,35.305859,136.809631
愛知県,一宮市,2,羽衣２丁目５番,平島公園野球場（市営球場）北側,35.305092,136.811905
愛知県,一宮市,3,朝日２丁目５番,大平島公園東側,35.308871,136.819086
愛知県,一宮市,4,富士２丁目５番,富士小学校西側,35.303339,136.817373
愛知県,一宮市,5,緑２丁目９番,常光公園東側,35.300945,136.81687
愛知県,一宮市,6,富士１丁目１番,市営花祗住宅南側,35.304191,136.814091
愛知県,一宮市,7,泉２丁目１０番,花岡神社北側,35.302638,136.810313
愛知県,一宮市,1,大毛字南出３０,葉栗小学校南門東側,35.341206,136.807571
愛知県,一宮市,2,大毛字宮前５５－１,コインランドリーRACCOON大毛店北向側,35.343533,136.805511
愛知県,一宮市,3,大毛字御申塚１４８,金嶺寺西側,35.345654,136.807205
愛知県,一宮市,4,島村字西山３,市営島村住宅７棟西側,35.345131,136.813721
愛知県,一宮市,5,島村字上深田５８,葉栗保育園東側,35.337524,136.812241
愛知県,一宮市,6,高田字向畑１３０,masked,35.335709,136.807327
愛知県,一宮市,7,高田字郷廻り１８３番地１,呉服きよみず北側,35.336742,136.804184
愛知県,一宮市,8,大毛字東新開４４,masked,35.344086,136.800018
愛知県,一宮市,1,佐千原字屋敷６６,蓮浄寺南向側,35.325581,136.811249
愛知県,一宮市,2,佐千原字椿５０,佐千原浄水場東側,35.32737,136.815063
愛知県,一宮市,3,佐千原字八島１１,masked,35.327702,136.807587
愛知県,一宮市,4,富塚字西長筬１,第２グラウンド南東角,35.330959,136.80452
愛知県,一宮市,5,佐千原字東出６１,佐千原浄水場入口北,35.327599,136.813477
愛知県,一宮市,6,佐千原字南切野３番地３,県営一宮北住宅北側,35.324032,136.813324
愛知県,一宮市,7,富塚字郷中１７６６,富塚児童遊園東側,35.332394,136.815277
愛知県,一宮市,1,光明寺字畳手５５,葉栗北小学校正門南側,35.351437,136.80217
愛知県,一宮市,2,光明寺字神明前５０番地,光明寺団地Ｂちびっ子広場南側,35.35725,136.795975
愛知県,一宮市,3,更屋敷字宮浦１番地,八剱神社南側,35.356567,136.792725
愛知県,一宮市,4,光明寺字山屋敷６６－１,愛宕神社東のちびっこ広場南側,35.354252,136.800079
愛知県,一宮市,5,光明寺字天王裏６２-２８南,イーズアベニュー一宮光明寺広場,35.354794,136.804993
愛知県,一宮市,6,笹野字宮南１２３１,笹野天神社東側公園北側,35.351227,136.814346
愛知県,一宮市,7,田所字宮前826西側,masked,35.348129,136.79541
愛知県,一宮市,8,光明寺字神宮２０－１,神明社西側,35.349335,136.806839
愛知県,一宮市,1,西大海道字本郷63-2,神明社東側,35.316723,136.83548
愛知県,一宮市,2,西大海道字北裏1-3,西大海道公園東側,35.318844,136.837799
愛知県,一宮市,3,西大海道字障子目２５－１,西成小学校南側,35.318581,136.833084
愛知県,一宮市,4,西大海道字柏木15,西成中学校東側,35.319473,136.831619
愛知県,一宮市,5,大赤見字大山７,大山団地内公園東側,35.319382,136.828186
愛知県,一宮市,6,丹羽字六反畑875-1,masked,35.320839,136.821976
愛知県,一宮市,7,丹羽字北屋敷10,masked,35.323555,136.818146
愛知県,一宮市,8,丹羽字井端1262-11,丹羽団地内公園南側,35.326424,136.821823
愛知県,一宮市,1,定水寺字山ヶ作77,定水寺公民館南遊園地西側,35.311199,136.83876
愛知県,一宮市,2,定水寺字郷内60-3,masked,35.313427,136.840988
愛知県,一宮市,3,春明字内裏23-1,西成東小学校東側,35.317871,136.844086
愛知県,一宮市,4,春明字東張渕62,masked,35.317486,136.849503
愛知県,一宮市,5,春明字南本郷38,春明公民館南東,35.320972,136.848633
愛知県,一宮市,6,春明字河戸43,一宮地域文化広場駐車場東側,35.322498,136.847351
愛知県,一宮市,7,春明字南砂吹埋70,春明住宅内公園南側,35.326073,136.848633
愛知県,一宮市,1,浅野字内浦１,ロフティ浅野西向用水沿,35.295189,136.823151
愛知県,一宮市,2,浅野字下切66-2,masked,35.288818,136.83139
愛知県,一宮市,3,浅野字山王８,日吉神社西側,35.291462,136.829498
愛知県,一宮市,4,浅野字前林15-1,禅林寺北西側,35.293774,136.829803
愛知県,一宮市,5,浅野字佐五山45－2,浅野小学校北側,35.297798,136.830215
愛知県,一宮市,6,浅野字花ノ木４６－１,国道１５５号線沿い,35.300652,136.82431
愛知県,一宮市,7,南小渕字吹揚6,南小渕公民館東遊園地南側,35.299171,136.83699
愛知県,一宮市,8,浅野字外裏12-2西,馬見塚橋北,35.293434,136.823044
愛知県,一宮市,1,大赤見字清水14,赤見小学校南側,35.311226,136.824631
愛知県,一宮市,2,赤見２丁目６－１,大赤見公園北側,35.305054,136.821777
愛知県,一宮市,3,大赤見字地下中屋敷2323,東大赤見公民館東側,35.307735,136.823715
愛知県,一宮市,4,小赤見字清水13,赤見保育園南側フェンス,35.309151,136.829361
愛知県,一宮市,5,小赤見字郷浦53,西成出張所北側フェンス,35.311298,136.833252
愛知県,一宮市,6,北小渕字田島3324-1,八幡神社西側道路,35.305592,136.834244
愛知県,一宮市,7,北小渕字南切1352,masked,35.303333,136.835785
愛知県,一宮市,8,赤見4丁目７,花ノ木公園東側フェンス,35.309795,136.82045
愛知県,一宮市,1,瀬部字川原55,瀬部小学校正門南,35.32877,136.835785
愛知県,一宮市,2,瀬部字中島93-1、94-1,中島公民館東側公園内,35.334892,136.836685
愛知県,一宮市,3,瀬部字杭場23-1,㈱アイディアル西向側,35.334373,136.842834
愛知県,一宮市,4,瀬部字四日市場17-1、17-8,金刀比羅神社南側,35.329418,136.841339
愛知県,一宮市,5,時之島字日吉浦12,日吉社向道路沿,35.321716,136.839951
愛知県,一宮市,6,時之島字寺前西１,フェンス,35.325527,136.837738
愛知県,一宮市,7,時之島字塚北34-1,masked,35.324749,136.828552
愛知県,一宮市,8,時之島字池付11,市営時之島住宅西側水路沿,35.328079,136.828751
愛知県,一宮市,1,あずら1丁目12,吾鬘公園東側,35.28323,136.822784
愛知県,一宮市,2,あずら3丁目１,県営南あずら住宅北側,35.281765,136.820999
愛知県,一宮市,3,猿海道２丁目１５,東公園東側,35.28413,136.820282
愛知県,一宮市,4,せんい1丁目6,むつみ公園南側,35.288677,136.820236
愛知県,一宮市,5,若竹２丁目６,若竹公園南側,35.288504,136.810501
愛知県,一宮市,6,せんい２丁目８,中央公園北側,35.288155,136.82373
愛知県,一宮市,7,あずら２丁目２３,駒寄公園南側,35.283653,136.826187
愛知県,一宮市,1,三ツ井２丁目８,休郷公園東側,35.278343,136.83284
愛知県,一宮市,2,平島２丁目１１,天王前公園東側,35.282947,136.832153
愛知県,一宮市,3,平島１丁目20,元宮公園北側,35.285898,136.831341
愛知県,一宮市,4,三ツ井１丁目４－１,鬼ヶ島公園南側,35.282063,136.834839
愛知県,一宮市,5,三ツ井６丁目６,三ツ井公園東側,35.271873,136.836884
愛知県,一宮市,6,三ツ井５丁目２２－１,丹陽小学校正門北側,35.276707,136.839127
愛知県,一宮市,7,丹陽町外崎字郷２８－３,masked,35.278675,136.829208
愛知県,一宮市,8,丹陽町重吉字新田郷1017-1,masked,35.285969,136.845261
愛知県,一宮市,1,丹陽町九日市場字高砂2667,丹陽南小学校西側,35.263622,136.837021
愛知県,一宮市,2,丹陽町九日市場字北五反畑2819,妙法寺東側,35.26553,136.831818
愛知県,一宮市,3,丹陽町九日市場字宮浦１２９９－１,九日市場公園南東側,35.268551,136.830917
愛知県,一宮市,4,伝法寺４丁目９,伝法寺中央公園南側,35.265594,136.843063
愛知県,一宮市,5,伝法寺７丁目９,本郷公園西側,35.261398,136.83934
愛知県,一宮市,6,丹陽町五日市場字屋敷86,masked,35.257217,136.838486
愛知県,一宮市,7,丹陽町五日市場字屋敷２２,八幡神社南西,35.257381,136.835831
愛知県,一宮市,8,伝法寺１丁目１７,南側,35.267857,136.843079
愛知県,一宮市,1,多加木１丁目１７,丹陽西小学校南側,35.283825,136.814041
愛知県,一宮市,2,多加木４丁目５,中道公園南側,35.281643,136.815018
愛知県,一宮市,3,多加木４丁目２１,秋葉公園西側,35.279736,136.818665
愛知県,一宮市,4,多加木１丁目２－２７西,大江川緑道沿い,35.282349,136.810028
愛知県,一宮市,5,多加木５丁目５番,多加木公園北側,35.276814,136.814758
愛知県,一宮市,6,多加木2丁目5番,河戸公園南側,35.279167,136.812149
愛知県,一宮市,7,多加木１丁目８番,江畔公園東側,35.283607,136.811646
愛知県,一宮市,1,森本2丁目2－29,六所神社内森本新公民館西側,35.29118,136.809586
愛知県,一宮市,2,森本1丁目8番,岩船公園北側,35.293701,136.811783
愛知県,一宮市,3,森本２丁目１６番,海道田公園西側,35.29121,136.812576
愛知県,一宮市,4,森本４丁目５番,ひばり島公園西側,35.291149,136.817078
愛知県,一宮市,5,森本３丁目２１番,森本中央公園東側,35.288929,136.814697
愛知県,一宮市,6,森本５丁目２９番,薬師公園北側,35.285637,136.814941
愛知県,一宮市,7,森本３丁目２－６,カラオケスタジオミッキー東側の雑地,35.288212,136.810822
愛知県,一宮市,1,浅井町河端字宮東107,河端公民館西側,35.338093,136.830856
愛知県,一宮市,2,浅井町小日比野字大塚9-1,本郷公民館西側,35.339249,136.830429
愛知県,一宮市,3,浅井町小日比野字大萩952-32,西側フェンス,35.342918,136.839081
愛知県,一宮市,4,浅井町小日比野字本郷36－3,西側フェンス,35.339123,136.832031
愛知県,一宮市,5,浅井町小日比野字天神西3,ちびっこ広場,35.343086,136.83075
愛知県,一宮市,6,浅井町大日比野字北流1907,大日比野神社南側,35.33976,136.825577
愛知県,一宮市,7,浅井町前野字郷西145,浅井中学校東側,35.342968,136.825119
愛知県,一宮市,8,浅井町大日比野字東若栗61,浅井中小学校西門南側,35.343651,136.822266
愛知県,一宮市,1,浅井町西浅井字神明927,名鉄西浅井バス停東側,35.330189,136.821182
愛知県,一宮市,2,浅井町東浅井字本郷清水60,長誓寺入口西側,35.331821,136.824768
愛知県,一宮市,3,浅井町東浅井字日待塚16-1,喫茶店ティーポット東側,35.330578,136.826828
愛知県,一宮市,4,浅井町河端字柳下8,河端住宅４号棟南東側,35.334423,136.832306
愛知県,一宮市,5,浅井町西海戸字形人389,愛宕神社西側,35.338085,136.827347
愛知県,一宮市,6,浅井町東浅井字地蔵386,浅井南小学校正門南側,35.334743,136.825851
愛知県,一宮市,7,浅井町江森字森前42,masked,35.336754,136.822128
愛知県,一宮市,1,浅井町尾関字寺西8,尾関公民館の北の公園東側,35.34798,136.823608
愛知県,一宮市,2,浅井町大野字南土山75,浅井北小学校正門南側,35.349468,136.826492
愛知県,一宮市,3,浅井町尾関字平山1,市営尾関住宅内公園北側,35.348892,136.83461
愛知県,一宮市,4,浅井町尾関字同者126,東尾関公民館東の遊園地南側,35.35033,136.832886
愛知県,一宮市,5,浅井町黒岩字郷西44,ちびっこ広場南側,35.353855,136.832016
愛知県,一宮市,6,浅井町大野字郷中28-2,坂口工業東側,35.351856,136.823395
愛知県,一宮市,7,浅井町極楽寺字辰巳273-2,八幡神社（圓光寺西）,35.353245,136.818604
愛知県,一宮市,8,浅井町尾関字長田１,県営浅井住宅内公園北側,35.350243,136.818268
愛知県,一宮市,1,北方町北方字宮浦43番地,北方小学校北側歩道橋東,35.360916,136.781082
愛知県,一宮市,2,北方町曽根字村前東249番地南,奥村井筋緑道,35.352306,136.783112
愛知県,一宮市,3,北方町北方字内沼219番地,北方団地ちびっ子広場西側フェンス,35.3563,136.776733
愛知県,一宮市,4,北方町北方字中屋敷郷22番地,高徳寺南果樹園敷地北側,35.362309,136.78331
愛知県,一宮市,5,北方町北方字東本郷下99番地東,南側,35.366295,136.782822
愛知県,一宮市,6,北方町北方字新堤下144番地,北方老人いこいの広場北側,35.365967,136.774292
愛知県,一宮市,7,北方町北方字東泉屋郷49番地北,南側,35.363583,136.776703
愛知県,一宮市,1,北方町北方字狐塚西31番地,masked,35.360649,136.785767
愛知県,一宮市,2,北方町北方字中土取146番地,大日公民館南側,35.362789,136.788956
愛知県,一宮市,3,北方町北方字東大日１,光明寺公園西端,35.362595,136.791077
愛知県,一宮市,4,北方町北方字北曽根30番地2,masked,35.35677,136.783554
愛知県,一宮市,5,北方町北方字西渡り128番地東,下渡り公民館西南側,35.360924,136.788895
愛知県,一宮市,6,北方町北方字狐塚郷301番地南,狐塚公民館南側,35.357536,136.786224
愛知県,一宮市,7,北方町北方字森道87番地1,北方児童館北側,35.358719,136.782501
愛知県,一宮市,1,北方町中島字西流1280番地,北方西保育園西側,35.359463,136.767853
愛知県,一宮市,2,北方町北方字西金丸69東,水路沿いフェンス,35.361618,136.773346
愛知県,一宮市,3,北方町中島字山下1081番地東,市営宝江住宅公園フェンス,35.3563,136.766861
愛知県,一宮市,4,北方町中島字南辻ノ内20番地45西,中起ちびっこ広場西側,35.355347,136.77211
愛知県,一宮市,5,北方町北方字東松本３９番地２東,フィレンツェ一宮北東側水路フェンス,35.361664,136.791718
愛知県,一宮市,6,北方町北方字畑下郷３番地１,畑南側,35.362885,136.770233
愛知県,一宮市,7,北方町北方字沼上30-4,東側フェンス,35.356289,136.773926
愛知県,一宮市,1,大和町戸塚字薬師浦320,大和東小学校南側,35.284061,136.792877
愛知県,一宮市,2,花池3丁目10番,大和東保育園,35.287979,136.795273
愛知県,一宮市,3,宮地２丁目６番,王塚公園東側,35.288595,136.791517
愛知県,一宮市,4,花池３丁目６番,鎌田公園南側,35.289429,136.795959
愛知県,一宮市,5,花池1丁目6番,幟立公園東側,35.29287,136.796249
愛知県,一宮市,6,花池4丁目19番,県営花池住宅西側,35.289799,136.802124
愛知県,一宮市,7,花池2丁目9番,古宮公園南側,35.291878,136.792572
愛知県,一宮市,8,宮地1丁目9番,南大門公園北側,35.289117,136.791166
愛知県,一宮市,1,妙興寺1丁目6-1,鉄道高架記念緑道西側,35.286755,136.804504
愛知県,一宮市,2,大和町妙興寺字北浦宮地2799,白山神社境内南前空地,35.286919,136.798782
愛知県,一宮市,3,妙興寺２丁目５－３,北三味公園南側,35.286583,136.801376
愛知県,一宮市,4,大和町妙興寺字地蔵恵129-4,日吉神社東側,35.282352,136.804611
愛知県,一宮市,5,大和町妙興寺字於保越37-4,名鉄名古屋本線踏切西,35.279148,136.798386
愛知県,一宮市,6,大和町氏永字新田屋敷702,貴船社東側,35.276207,136.802109
愛知県,一宮市,7,大和町氏永字宝才120,総合卸売市場東側,35.27552,136.805054
愛知県,一宮市,8,大和町妙興寺字三十八社2001,三十八所社東側,35.281139,136.80397
愛知県,一宮市,1,大和町戸塚字連田1-2,大和南小学校西側,35.274658,136.791138
愛知県,一宮市,2,大和町於保字上次7-32,上次公民館西側,35.278072,136.794128
愛知県,一宮市,3,大和町於保字郷中2437,於保公民館前遊園地東側,35.272892,136.796799
愛知県,一宮市,4,大和町南高井字中ノ町65-10,大和団地内公園南側,35.271442,136.790298
愛知県,一宮市,5,大和町南高井字郷中2721先,用水安全ガードパイプ,35.269974,136.787552
愛知県,一宮市,6,大和町北高井字四辻33,豊島台団地内公園南側,35.276009,136.785858
愛知県,一宮市,7,大和町北高井字西重田1502先,緑道公園北側フェンス,35.27779,136.781799
愛知県,一宮市,1,大和町苅安賀字東北出3248,大和西小学校正門前南,35.291553,136.778412
愛知県,一宮市,2,大和町苅安賀字上東出80,大和中学校西側,35.287888,136.785339
愛知県,一宮市,3,苅安賀１丁目16-3,県営苅安賀住宅南西,35.292435,136.783051
愛知県,一宮市,4,観音寺１丁目15-10,大和生涯学習センター（旧大和町出張所）西側,35.288612,136.786911
愛知県,一宮市,5,大和町苅安賀字上東出37,大和消防出張所南側,35.286678,136.784241
愛知県,一宮市,6,大和町苅安賀観音堂71東,用水路沿いフェンス,35.290596,136.77301
愛知県,一宮市,7,昭和3丁目9-1,西浅間公園南側,35.297182,136.788179
愛知県,一宮市,8,大和町苅安賀字上西之杁30,県立一宮聾学校正門南,35.288784,136.77652
愛知県,一宮市,1,大和町馬引字辰巳河原6,修文学院高校正門西側,35.302078,136.780716
愛知県,一宮市,2,日光町22-1,大和橋北東の堤防道路北側,35.30204,136.778748
愛知県,一宮市,3,大和町馬引字宮浦1727,神明社南側石垣前,35.306183,136.780121
愛知県,一宮市,4,大和町馬引字郷丑寅2154-3,馬引公民館配水場南側,35.304844,136.778473
愛知県,一宮市,5,大和町福森字井戸畑１７－１,masked,35.300243,136.769028
愛知県,一宮市,6,大和町毛受字浜田36-1,毛受公民館前,35.29837,136.780518
愛知県,一宮市,7,大和町毛受字北河原24-3,市営毛受住宅南側,35.301743,136.775742
愛知県,一宮市,8,大和町馬引字南正亀8-1,尾張繊維技術センター東側,35.306316,136.782089
愛知県,一宮市,1,今伊勢町本神戸字立切1-6,今伊勢南保育園南側,35.318581,136.797134
愛知県,一宮市,2,今伊勢町宮後字午新田下筬33,貯留池南側,35.319733,136.789963
愛知県,一宮市,3,今伊勢町新神戸字新開915,野宮神明社西の旧国道の側道,35.321075,136.793045
愛知県,一宮市,4,今伊勢町本神戸字立切1-4,一宮建設事務所西側花壇,35.318581,136.797134
愛知県,一宮市,5,今伊勢町本神戸字塚浦10-16,塚浦第２ちびっ子広場東側,35.322556,136.795151
愛知県,一宮市,6,今伊勢町本神戸字権現23-3,道路と歩道の間の植樹帯,35.319042,136.800217
愛知県,一宮市,7,今伊勢町本神戸字北浦7,ＪＡ愛知西今伊勢支店北側,35.319057,136.792694
愛知県,一宮市,8,今伊勢町本神戸字寺前10南先,たんぽぽデイサービス本神戸南側フェンス,35.314507,136.801437
愛知県,一宮市,1,今伊勢町宮後字郷中茶原71-3,今伊勢町出張所南側,35.318027,136.78688
愛知県,一宮市,2,今伊勢町宮後字郷中茶原52,今伊勢中学校北東側,35.319214,136.786453
愛知県,一宮市,3,今伊勢町馬寄字吉田77-1,一宮市テニス場第6駐車場西側,35.32687,136.78273
愛知県,一宮市,4,今伊勢町新神戸字郷中306,北側,35.314518,136.786682
愛知県,一宮市,5,今伊勢町宮後字稲荷1929,野見神社北側,35.315708,136.78302
愛知県,一宮市,6,今伊勢町宮後字西茶原58-1,今伊勢中保育園東側フェンス,35.320217,136.78447
愛知県,一宮市,7,今伊勢町馬寄字西平4-1,今伊勢西小学校南側,35.324066,136.783173
愛知県,一宮市,8,今伊勢町馬寄字西流9－1,一宮市テニス場南側,35.326519,136.784073
愛知県,一宮市,1,今伊勢町馬寄字桑屋敷17番地1,今伊勢北保育園西側,35.323833,136.792526
愛知県,一宮市,2,今伊勢町馬寄字中坪1-36東,用水路沿いフェンス,35.331184,136.783966
愛知県,一宮市,3,今伊勢町馬寄字舟入16-3,コープ野村南の公園の東側,35.326042,136.786087
愛知県,一宮市,4,今伊勢町馬寄字舟入1-1,東側ガードレール,35.327271,136.785706
愛知県,一宮市,5,今伊勢町馬寄字八丁堀20-15,用水路沿いフェンス,35.330467,136.792465
愛知県,一宮市,6,今伊勢町新神戸字乾26,今伊勢小学校北側,35.321918,136.792206
愛知県,一宮市,7,今伊勢町馬寄字中屋敷14-1,馬寄忠魂社北側,35.326687,136.792984
愛知県,一宮市,8,今伊勢町馬寄字山之小路7,石刀神社西の市道,35.327961,136.795746
愛知県,一宮市,1,奥町字八瀬割40-1,エコハウス１３８正門西,35.328945,136.776138
愛知県,一宮市,2,奥町字上平池55,奥中学校東南フェンス,35.325645,136.764191
愛知県,一宮市,3,奥町字上平池55,奥中学校正門東側フェンス,35.325645,136.764191
愛知県,一宮市,4,奥町字県郭4-1,川崎排水路ガードレール＆フェンス,35.331013,136.763062
愛知県,一宮市,5,奥町字貴船前24,奥小学校東側フェンス,35.326542,136.759491
愛知県,一宮市,6,奥町字下口西83,奥町出張所入口西側,35.326992,136.756271
愛知県,一宮市,7,奥町字三出西20-3,三出公園西側,35.330479,136.757187
愛知県,一宮市,8,奥町字宮廓（奥町字宮前41-5北）,奥町公園南駐車場東入口西側,35.33073,136.76857
愛知県,一宮市,1,奥町字下口西10,奥町西保育園西側万代塀,35.327164,136.75441
愛知県,一宮市,2,奥町字加古穂２７－２,鈴木毛織北側,35.32391,136.754608
愛知県,一宮市,3,奥町字蘇東33-2,奥町チェックゲート西側フェンス,35.322838,136.749619
愛知県,一宮市,4,奥町字蘇東14,内込ちびっこ広場西側フェンス,35.323524,136.749069
愛知県,一宮市,5,奥町字堤下二95,若宮神社南入口東側,35.328606,136.749481
愛知県,一宮市,6,奥町字下口西31,若宮公園北西側フェンス,35.328285,136.75441
愛知県,一宮市,7,奥町字堤下一528,masked,35.323399,136.746338
愛知県,一宮市,1,萩原町萩原字河原崎7先,北側,35.281868,136.756607
愛知県,一宮市,2,萩原町萩原字河原崎79,萩原町出張所東側フェンス,35.27953,136.758377
愛知県,一宮市,3,萩原町萩原字西山越1259先,いちい信用金庫萩原支店北側用水沿い,35.283016,136.756744
愛知県,一宮市,4,萩原町萩原字西出214-1先,萩原西出公園南側,35.280754,136.751862
愛知県,一宮市,5,萩原町萩原字寺浦2-1先,宝光寺北側用水沿い,35.283649,136.752945
愛知県,一宮市,6,萩原町萩原字河原崎1544,萩原小学校西側フェンス,35.280567,136.756668
愛知県,一宮市,7,萩原町萩原字中道84,市営萩原住宅東側フェンス,35.27549,136.766845
愛知県,一宮市,1,萩原町西宮重字中光堂850,中島小学校（東南側）,35.272427,136.773605
愛知県,一宮市,2,萩原町中島字宝蔵寺1先,東木戸地内五又路東側,35.267811,136.774689
愛知県,一宮市,3,萩原町西御堂字虫祭2,公園フェンス,35.262066,136.77243
愛知県,一宮市,4,萩原町高木字蟹子745,高木神社前,35.274265,136.764496
愛知県,一宮市,5,萩原町河田方字南河洲201-2先,河田方公民館西側用水沿い,35.282338,136.763354
愛知県,一宮市,6,萩原町林野字花ノ木57先,辻本毛織東向側,35.278973,136.774689
愛知県,一宮市,7,萩原町東宮重字長原25-2先,工場（ＴＧロジスティクス）西側水路沿いフェンス,35.27412,136.776794
愛知県,一宮市,8,萩原町西宮重字東出8-1先,用水フェンス東側,35.277569,136.773621
愛知県,一宮市,1,萩原町串作字松本17-1先,名鉄萩原駅南踏切東側,35.276066,136.757431
愛知県,一宮市,2,萩原町萩原字東大畔26,串作公民館西側畑,35.280319,136.76088
愛知県,一宮市,3,萩原町萩原字大日23,南側,35.284,136.765366
愛知県,一宮市,4,萩原町高松字地蔵前22先,T字路南側,35.270844,136.757446
愛知県,一宮市,5,萩原町築込字砂先498先,河村製作所南,35.267872,136.754379
愛知県,一宮市,6,萩原町戸苅字西浦433先,北側空地,35.274742,136.750809
愛知県,一宮市,7,萩原町串作字河室浦1-1,萩原中学校北門東側,35.277519,136.768036
愛知県,一宮市,1,萩原町朝宮字栄５７,朝宮保育園南側,35.292938,136.763428
愛知県,一宮市,2,萩原町富田方字茶原50,西側畑,35.291584,136.766998
愛知県,一宮市,3,萩原町朝宮字嫁振（萩原町朝宮字下平3-6先）,朝宮公園南側フェンス,35.290768,136.757202
愛知県,一宮市,4,萩原町富田方字上畑３先,オオノサイクル西側フェンス,35.286369,136.767838
愛知県,一宮市,5,萩原町朝宮字茶園1017東,一の宮井筋緑道,35.289238,136.762222
愛知県,一宮市,6,萩原町花井方字乾出11先,西部浄化センター北側水路フェンス,35.297039,136.764709
愛知県,一宮市,7,萩原町花井方字東天神東の切13-1先,masked,35.297634,136.768814
愛知県,一宮市,1,千秋町穂積塚本字宮西223,千秋北部水源北側,35.30619,136.858734
愛知県,一宮市,2,千秋町佐野字加村1-1,千秋消防出張所北側,35.302826,136.851166
愛知県,一宮市,3,千秋町佐野字郷西４８,千秋町出張所（公民館）北西側フェンス,35.301868,136.855667
愛知県,一宮市,4,千秋町佐野字本郷3058-1,千秋中学校西側,35.302124,136.860855
愛知県,一宮市,5,千秋町佐野字本郷3114-1,八幡神社東側,35.301167,136.85881
愛知県,一宮市,6,千秋町佐野字下川田49-1,千秋いこいの広場南側,35.299362,136.860001
愛知県,一宮市,7,千秋町天摩字山畑370-56,千秋子育て支援センター北側,35.292667,136.852859
愛知県,一宮市,1,千秋町加納馬場字高須56-2,神明社東側,35.306847,136.8629
愛知県,一宮市,2,千秋町加納馬場字松下86,津島神社西側,35.305134,136.869156
愛知県,一宮市,3,千秋町加納馬場字松下１０７－１、１０８－１,千秋東小学校西入口北側,35.304832,136.870789
愛知県,一宮市,4,千秋町加納馬場字神明戸16,masked,35.300102,136.873474
愛知県,一宮市,5,千秋町加納馬場字郷内187,日吉神社東側,35.30011,136.870178
愛知県,一宮市,6,千秋町加納馬場字西切２１５１－２、２１６７,熱田神社境内南側,35.303307,136.865524
愛知県,一宮市,7,千秋町芝原字石原291,生田神社南西,35.299072,136.865692
愛知県,一宮市,1,千秋町町屋字真言堂2386,町屋ちびっ子広場南側,35.297169,136.860947
愛知県,一宮市,2,千秋町町屋字東鎌田17-1先,masked,35.283314,136.859299
愛知県,一宮市,3,千秋町小山字鹿取13-1,神明社東南,35.289513,136.855637
愛知県,一宮市,4,千秋町小山1329,千秋南小学校西側,35.286961,136.854401
愛知県,一宮市,5,千秋町塩尻字居屋敷690-1,塩道神社鳥居北側,35.286552,136.851501
愛知県,一宮市,6,千秋町浅野羽根字六反畑5先,masked,35.292164,136.841125
愛知県,一宮市,7,千秋町浅野羽根字羽々矢2722南,羽々矢神社駐車場フェンス,35.288826,136.839478
愛知県,一宮市,1,千秋町加茂字郷27-1,masked,35.319767,136.852982
愛知県,一宮市,2,千秋町加茂字新出東85-1,masked,35.31411,136.849487
愛知県,一宮市,3,千秋町加茂字北石田82先,masked,35.314201,136.852219
愛知県,一宮市,4,千秋町浮野字定筆33先,千秋北保育園西側駐車場西側歩道,35.310143,136.85173
愛知県,一宮市,5,千秋町浮野字道下６,八幡社南向側,35.308361,136.848404
愛知県,一宮市,6,千秋町一色字屋敷地144,masked,35.308891,136.853989
愛知県,一宮市,7,千秋町勝栗字神子屋１７番地１,削栗神社北側,35.31332,136.856659
愛知県,一宮市,1,起字用水添８,起保育園西側ブロック塀,35.309906,136.73941
愛知県,一宮市,2,起字用水添３３３番地３,masked,35.308933,136.737411
愛知県,一宮市,3,起字与三ヶ巻8,旧匠整理㈱倉庫西側,35.312382,136.740921
愛知県,一宮市,4,起字本陣山1165－3他,金豊館駐車場向かい,35.312992,136.740906
愛知県,一宮市,5,起字与三ヶ巻52-1西,みづほ興業㈱西側ガードポール,35.309895,136.742645
愛知県,一宮市,6,起字与三ケ巻46-1,起児童公園入口東側,35.310837,136.742157
愛知県,一宮市,7,起字西茜屋469-3,旧西部児童館入口東側フェンス,35.308308,136.739609
愛知県,一宮市,1,起字西生出３５,起小学校東門入口南側,35.305721,136.739716
愛知県,一宮市,2,起字西生出３５,起小学校南門東側フェンス,35.305721,136.739716
愛知県,一宮市,3,起字東茜屋67東側,用水路フェンス,35.308029,136.74231
愛知県,一宮市,4,起字堤町174-1の南,起児童遊園東側ガードレール,35.307392,136.73616
愛知県,一宮市,5,起字西生出３５,起小学校北門入口フェンス塀,35.305721,136.739716
愛知県,一宮市,6,起字西生出51-2,水路西側フェンス,35.305721,136.739716
愛知県,一宮市,7,起字用水東268番地,徳行寺西側ブロック塀,35.306198,136.737961
愛知県,一宮市,1,小信中島字南平口５９,小信中島小学校入口西側,35.315475,136.747238
愛知県,一宮市,2,小信中島字東鵯平5-1,北東側）,35.312283,136.748825
愛知県,一宮市,3,小信中島字新田前78-2,masked,35.316925,136.750748
愛知県,一宮市,4,小信中島字新田前50,西側フェンス,35.315502,136.749786
愛知県,一宮市,5,小信中島字柳枯草場１００９,masked,35.315094,136.742935
愛知県,一宮市,6,小信中島字柳枯草場960先,北東空き地,35.316174,136.741989
愛知県,一宮市,7,小信中島字東屋敷１２９６,小信物流センター駐車場北西側,35.316452,136.743881
愛知県,一宮市,1,小信中島字北東山58－1,東側フェンス,35.318604,136.747208
愛知県,一宮市,2,小信中島字北東山５５８,masked,35.320007,136.746536
愛知県,一宮市,3,小信中島字萱場48,尾西緑道内ベンチ西側（吉川製函㈱東側）,35.319878,136.748703
愛知県,一宮市,4,小信中島字郷浦３６,南側フェンス,35.321911,136.747589
愛知県,一宮市,5,開明字出屋敷４５,開信団地４棟西側ガードレール前,35.320312,136.752151
愛知県,一宮市,6,開明字乾土3－1,北側植え込み北,35.318707,136.750961
愛知県,一宮市,7,小信中島字宮浦７８０,堤治神社東側石柱,35.320389,136.744492
愛知県,一宮市,1,小信中島字郷中３１４７－１,三岸節子記念美術館北側,35.309433,136.744431
愛知県,一宮市,2,小信中島字郷東2420,平和堂尾西店南側自転車置場西側,35.309193,136.748764
愛知県,一宮市,3,小信中島字郷南３４－１,中島住宅南側生垣,35.307816,136.747299
愛知県,一宮市,4,小信中島字上郷西3469-2,中島児童遊園西側フェンス,35.308929,136.743958
愛知県,一宮市,5,小信中島字郷東４,中日本倉庫（株）東南フェンス,35.310867,136.747406
愛知県,一宮市,6,小信中島字郷東42-4,珈琲館蔵羅西側水路フェンス,35.309891,136.749832
愛知県,一宮市,7,東五城字大平裏38,尾西市民会館南側駐車場フェンス,35.308273,136.751984
愛知県,一宮市,1,東五城字備前12,尾西庁舎西側生垣,35.308628,136.754776
愛知県,一宮市,2,三条字道東15-1,のいりクレストホール尾西駐車場,35.308655,136.757202
愛知県,一宮市,3,小信中島字東鵯平５９,ピアゴ尾西店北側第6駐車場,35.312382,136.752243
愛知県,一宮市,4,小信中島字仁井北31,あかいはねこどもあそびばフェンス,35.310963,136.754547
愛知県,一宮市,5,三条字屋敷５９８,宮新田児童遊園フェンス,35.313164,136.757416
愛知県,一宮市,6,三条字郷南西３１－１,三条保育園東側フェンス,35.304527,136.75824
愛知県,一宮市,7,東五城字篭島36東側,県営尾西住宅西側道路,35.306313,136.748535
愛知県,一宮市,1,三条字苅１６,三条小学校北門東フェンス,35.30669,136.759521
愛知県,一宮市,2,三条字賀11-1,名鉄尾西公園前バス停北,35.308949,136.759766
愛知県,一宮市,3,三条字賀11-1,尾西公園東側フェンス,35.308949,136.759766
愛知県,一宮市,4,三条字郷東藤45-5の東,野府川堤防,35.31068,136.764496
愛知県,一宮市,5,三条字小辰己45-3の北東,野府川堤防,35.304501,136.764542
愛知県,一宮市,6,三条字郷東藤２５,masked,35.307728,136.764679
愛知県,一宮市,7,三条字郷南東３４番地１,三条小学校運動場東側フェンス,35.305626,136.760498
愛知県,一宮市,1,篭屋２丁目５番４６号,篭屋保育園入口南コンクリート塀,35.308098,136.768738
愛知県,一宮市,2,篭屋４丁目１１番３号,ブロック塀,35.306763,136.771255
愛知県,一宮市,3,篭屋2丁目6－1,篭屋公園西側,35.309624,136.770035
愛知県,一宮市,4,篭屋５丁目３番１号,クスリのアオキ南側畑,35.307133,136.76767
愛知県,一宮市,5,篭屋3丁目4番23号,一宮市尾西斎場北側,35.310768,136.773682
愛知県,一宮市,6,篭屋２丁目７番５１号,masked,35.307777,136.770309
愛知県,一宮市,7,篭屋3丁目10－5,尾西自動車学校駐輪場西側,35.309498,136.772385
愛知県,一宮市,1,三条字古川44-1東先,日光川堤防（板倉公民館東）,35.300648,136.761963
愛知県,一宮市,2,三条字郷内西１６９９－１,秋葉神社西の畑,35.300507,136.759079
愛知県,一宮市,3,三条字郷内西3-1,板倉ポンプ場フェンス,35.301247,136.759232
愛知県,一宮市,4,三条字宮西１１４５,東入口北側,35.299709,136.752731
愛知県,一宮市,5,三条字山５６,東側フェンス,35.301559,136.758286
愛知県,一宮市,6,三条字宮西５０,北東角,35.299759,136.753647
愛知県,一宮市,7,三条字芦山１２２,masked,35.30204,136.764267
愛知県,一宮市,1,北今字下渡１５６７－１,法信寺の石垣,35.296288,136.754013
愛知県,一宮市,2,北今字地蔵跡１７４１,野田毛織㈱西側フェンス,35.297073,136.75618
愛知県,一宮市,3,北今字林四ノ切2060-1,masked,35.295616,136.759033
愛知県,一宮市,4,北今字川原９,北今団地北側,35.293034,136.759613
愛知県,一宮市,5,北今字苗代一ノ切６８－２,ビレッジハウス北今東側フェンス,35.294701,136.753937
愛知県,一宮市,6,北今字十八丁三ノ切3-3,北今保育園南西未舗装道路フェンス,35.293686,136.751053
愛知県,一宮市,7,北今字西田面二ノ切61-1,大徳児童館東側フェンス,35.296253,136.748154
愛知県,一宮市,1,東五城字北作野29-1先,名鉄バス東五城停留所南側,35.302937,136.749939
愛知県,一宮市,2,東五城字三味廓20-3先,コロンボ第３駐車場北側歩道,35.301971,136.747681
愛知県,一宮市,3,西五城字荒子中切３５－１,一宮市尾西配水場入口南側フェンス,35.297722,136.748306
愛知県,一宮市,4,東五城字下出348-1,masked,35.299271,136.746887
愛知県,一宮市,5,東五城字寺廓238－1,応蓮寺の石塀,35.301559,136.745087
愛知県,一宮市,6,東五城字若宮95,石垣,35.305096,136.744797
愛知県,一宮市,7,東五城字南田尾７４８,すぎの子教室北側,35.304314,136.748611
愛知県,一宮市,1,西五城字須賀前4-1,須賀中掲示板北,35.30257,136.738068
愛知県,一宮市,2,西五城字起境３７－４,masked,35.304272,136.73996
愛知県,一宮市,3,西五城字杁先南３５－１,masked,35.300411,136.741623
愛知県,一宮市,4,西五城字中川田36先,五城公園北東角,35.302509,136.743195
愛知県,一宮市,5,西五城字飛石北31-1,西側フェンス,35.29924,136.744644
愛知県,一宮市,6,西五城字中切２９－５,masked,35.298904,136.743378
愛知県,一宮市,7,西五城字下切３０－５東,ふれあい緑道,35.297348,136.744446
愛知県,一宮市,1,冨田字橋詰298-1,冨田保育園南門東側ブロック塀,35.298054,136.737366
愛知県,一宮市,2,冨田字大堀454-1,masked,35.297932,136.734146
愛知県,一宮市,3,冨田字上町24,masked,35.30331,136.73613
愛知県,一宮市,4,冨田字古川１８５４,masked,35.299526,136.73851
愛知県,一宮市,5,冨田字立石776,冨田一里塚（西側）,35.295929,136.740906
愛知県,一宮市,6,冨田字立石5-2,浄慶寺東側の畑,35.296009,136.739975
愛知県,一宮市,7,冨田字北新田５１４,神明社山門東南角の石塀,35.295662,136.733322
愛知県,一宮市,1,明地字宮東３８,尾西南部生涯学習センター東門入口南,35.278927,136.734039
愛知県,一宮市,2,明地字東七丁原１１０,あさひ保育園北入口フェンス,35.282265,136.734055
愛知県,一宮市,3,祐久字北野黒２８,masked,35.28809,136.734467
愛知県,一宮市,4,明地字油屋前３０,尾西第二中学校テニスコート東側フェンス,35.278214,136.743317
愛知県,一宮市,5,明地字風張16-2,masked,35.285835,136.749146
愛知県,一宮市,6,明地字江黒１５,阿古井池公園北側,35.274952,136.735672
愛知県,一宮市,7,明地字江端８,南側フェンス,35.279247,136.73703
愛知県,一宮市,1,玉野字東瀬古2023-5,masked,35.267155,136.745636
愛知県,一宮市,2,玉野字裏葭野1673先,旧玉野保育園入口南側生垣,35.270458,136.743195
愛知県,一宮市,3,玉野字前畑28南先,用水路沿いフェンス,35.27166,136.744644
愛知県,一宮市,4,玉野字渕ヶ巻51-1,市営住宅玉野団地南側,35.264439,136.748337
愛知県,一宮市,5,玉野字中山333-1,masked,35.263901,136.742065
愛知県,一宮市,6,玉野字平１１６２,masked,35.268269,136.736618
愛知県,一宮市,7,玉野字大西29-1,㈱カネスエ玉野加工センター北側ガードロープ,35.269337,136.737305
愛知県,一宮市,1,上祖父江字山前２７,朝日西保育園北側入口東側ブロック塀,35.2789,136.721191
愛知県,一宮市,2,上祖父江字中野東１０８,グループホーム朝日東側水路フェンス,35.279011,136.714722
愛知県,一宮市,3,祐久字外浦36番地,尾西文化広場テニスコート東側フェンス,35.287643,136.724426
愛知県,一宮市,4,東加賀野井字川原１６１,masked,35.290386,136.729614
愛知県,一宮市,5,祐久字九百坪60-1,masked,35.283607,136.725662
愛知県,一宮市,6,上祖父江字東本郷１３１-１,上祖父江南信号交差点北東角地,35.274235,136.725281
愛知県,一宮市,7,上祖父江字南外山１２２－１,masked,35.275475,136.713013
愛知県,一宮市,1,西萩原字中道２６－１,旧萩蓮保育園西門入口北側フェンス,35.290848,136.745071
愛知県,一宮市,2,西萩原字妙楽寺前1297-6,西萩原東浦公民館南側ブロック塀,35.290447,136.746414
愛知県,一宮市,3,西萩原字神明前２０８９－１,神明社北側ブロック塀,35.293354,136.749069
愛知県,一宮市,4,西萩原字中沼1966-1,寂雲寺南側ブロック塀,35.289055,136.749359
愛知県,一宮市,5,蓮池字郷東５５－１,ビレッジハウス蓮池南入口フェンス,35.289032,136.741821
愛知県,一宮市,6,蓮池字郷西１１－１,蓮容寺入口北側,35.292091,136.738831
愛知県,一宮市,7,西萩原字葭山15,入口南側フェンス,35.29031,136.751694
愛知県,一宮市,1,開明字城堀20番地,開明小学校南門入口東側,35.32132,136.77269
愛知県,一宮市,2,開明字杁西郭69-1,開明児童館南側フェンス,35.322208,136.772095
愛知県,一宮市,3,開明字北釈迦堂19－1,東側畑,35.322964,136.767914
愛知県,一宮市,4,開明字桝井戸18-1,開明駐輪場南側フェンス,35.320026,136.773102
愛知県,一宮市,5,開明字杁東郭92,圓光寺東側塀,35.321754,136.775055
愛知県,一宮市,6,開明字東向野40-2,キッチンスパイス南側,35.317184,136.775467
愛知県,一宮市,7,開明字名古羅48,愛知西農協開明支店西側フェンス,35.318516,136.774139
愛知県,一宮市,1,開明字東屋敷23-2,高野島公民館西側,35.315052,136.769379
愛知県,一宮市,2,開明字流4,東側塀,35.311943,136.769608
愛知県,一宮市,3,開明字愛宕北82,愛宕社入口西側,35.312168,136.768036
愛知県,一宮市,4,開明字西屋敷19-1,masked,35.314152,136.767181
愛知県,一宮市,5,開明字中屋敷３２,masked,35.314541,136.768127
愛知県,一宮市,6,開明字柳苗代1-1,東南角フェンス,35.317139,136.765442
愛知県,一宮市,7,開明字北葭野49－1,野府川河川用地,35.313675,136.763443
愛知県,一宮市,1,開明字教堂池38-1,開明西保育園東側フェンス,35.317116,136.763412
愛知県,一宮市,2,開明字教堂池27-1南,将監児童遊園,35.315685,136.763748
愛知県,一宮市,3,開明字村上54,尾西第三中学校南側,35.317089,136.758698
愛知県,一宮市,4,開明字東沼48-1,神明社西側生垣,35.319229,136.759613
愛知県,一宮市,5,開明字樋西90,道路と歩道の間の植樹帯,35.320599,136.759583
愛知県,一宮市,6,開明字樋西11－1,木曽川高校プール北側,35.320431,136.75592
愛知県,一宮市,7,開明字郷中３９－２,masked,35.320946,136.761078
愛知県,一宮市,1,木曽川町黒田字北宿四の切８０,黒田西保育園西側,35.348175,136.776932
愛知県,一宮市,2,木曽川町黒田字北宿三の切1-1,北側フェンス,35.347225,136.773331
愛知県,一宮市,3,木曽川町黒田字蔵ノ浦2－7,黒田公園西側フェンス,35.346657,136.781464
愛知県,一宮市,4,木曽川町黒田字川北８,藤栄橋西水路フェンス,35.34586,136.778534
愛知県,一宮市,5,木曽川町内割田一の通り27,市役所木曽川庁舎南側,35.336964,136.778091
愛知県,一宮市,6,木曽川町内割田字宮ノ腰６３６,水路フェンス,35.344013,136.773239
愛知県,一宮市,7,木曽川町黒田字中沼南ノ切27,道路柵,35.351269,136.773529
愛知県,一宮市,8,木曽川町黒田字錦里２１の南,フェンス,35.345154,136.776062
愛知県,一宮市,1,木曽川町黒田字籠守西108,黒田北保育園東側フェンス,35.349072,136.785995
愛知県,一宮市,2,木曽川町黒田字妙見廻100,消防団木曽川北分団南東水路フェンス,35.347054,136.787186
愛知県,一宮市,3,木曽川町黒田十一ノ通り107,北山川沿いフェンス,35.348663,136.790771
愛知県,一宮市,4,木曽川町黒田字勘冶西77,野府川沿フェンス,35.347023,136.782776
愛知県,一宮市,5,木曽川町黒田字往還西北ノ切49,ガードパイプ,35.349339,136.781662
愛知県,一宮市,6,木曽川町黒田字井桁畔213北,奥村井筋緑道,35.351707,136.787491
愛知県,一宮市,7,木曽川町黒田字北野黒165,木曽川市民病院駐車場南側,35.351749,136.784409
愛知県,一宮市,1,木曽川町黒田七ノ通り139,神明保育園西側フェンス,35.340408,136.787155
愛知県,一宮市,2,木曽川町黒田八ノ通り141－1,木曽川東小学校正門西側フェンス,35.34161,136.790298
愛知県,一宮市,3,木曽川町黒田八ノ通り187,マルハン木曽川店東向側ガードレール,35.34161,136.790298
愛知県,一宮市,4,木曽川町黒田六ノ通り77,masked,35.340855,136.786026
愛知県,一宮市,5,木曽川町黒田五ノ通り62,㈱ロジパルエクスプレス一宮（営）南側水路フェンス,35.334347,136.783203
愛知県,一宮市,6,木曽川町黒田字松枝103－3,神明児童遊園東側フェンス,35.344559,136.786575
愛知県,一宮市,7,木曽川町黒田八ノ通り４６－１,アピタ木曽川店西側空地,35.34161,136.790298
愛知県,一宮市,1,木曽川町門間字東北出318,門間保育園東側フェンス,35.334152,136.795547
愛知県,一宮市,2,木曽川町門間字郷前2,水路フェンス,35.331863,136.793488
愛知県,一宮市,3,木曽川町門間字福塚前78,水路フェンス,35.331421,136.786987
愛知県,一宮市,4,木曽川町門間字福塚前5,福塚児童遊園南側フェンス,35.332607,136.784653
愛知県,一宮市,5,木曽川町門間字沼間35,木曽川体育館西側ガードパイプ,35.336845,136.790482
愛知県,一宮市,6,木曽川町門間字島海戸15,水路フェンス,35.333786,136.787201
愛知県,一宮市,7,木曽川町門間字金屎31,水路フェンス,35.334068,136.794296
愛知県,一宮市,1,木曽川町外割田字摺鉢27,外割田保育園東側,35.343174,136.771072
愛知県,一宮市,2,木曽川町里小牧字野方151,水路フェンス,35.350174,136.770737
愛知県,一宮市,3,木曽川町外割田字二の通り31,水路フェンス,35.337318,136.774551
愛知県,一宮市,4,木曽川町外割田字西郷東153,外割田第二児童遊園,35.338505,136.769928
愛知県,一宮市,5,木曽川町外割田字西郷中25,玉堂記念木曽川図書館,35.339699,136.76889
愛知県,一宮市,6,木曽川町里小牧字北青木25,木曽川中学校北門東,35.343918,136.76825
愛知県,一宮市,7,木曽川町黒田字北宿一の切38-2,宮田用水上緑地帯,35.348293,136.76947
愛知県,一宮市,1,木曽川町玉ノ井字道路寺7-3,木曽川西小学校南門西,35.339943,136.763992
愛知県,一宮市,2,木曽川町外割田字西郷西134,外割田児童館,35.338894,136.765503
愛知県,一宮市,3,木曽川町玉ノ井字俣江田108,水路フェンス,35.338779,136.761887
愛知県,一宮市,4,木曽川町玉ノ井字大縄場六ノ切78,国際研修センター東側水路フェンス,35.337742,136.757446
愛知県,一宮市,5,木曽川町里小牧字砂ノ口45-1,水路フェンス,35.342777,136.759857
愛知県,一宮市,6,木曽川町里小牧字新茅場71-2,新茅場ちびっこ広場,35.343269,136.761292
愛知県,一宮市,7,木曽川町里小牧字西青木3,水路フェンス,35.34465,136.767227
愛知県,一宮市,1,木曽川町玉ノ井字高畑19,玉ノ井保育園,35.333393,136.759491
愛知県,一宮市,2,木曽川町玉ノ井字丹波山3,玉ノ井南部児童遊園入口,35.331535,136.751648
愛知県,一宮市,3,木曽川町玉ノ井字新屋敷五ノ切26,秋葉社西側水路フェンス,35.335155,136.756241
愛知県,一宮市,4,木曽川町玉ノ井字蓮池231,新丹波川フェンス,35.337036,136.761765
愛知県,一宮市,5,木曽川町玉ノ井字稲荷前302,新丹波川フェンス,35.331726,136.760025
愛知県,一宮市,6,木曽川町三ツ法寺字辻前１,西側水路フェンス,35.331825,136.766251
愛知県,一宮市,7,木曽川町三ツ法寺字東流302,一宮市木曽川ポンプ場,35.332268,136.768616
愛知県,一宮市,1,木曽川町里小牧字神明東5-1,里小牧保育園,35.349022,136.764084
愛知県,一宮市,2,木曽川町里小牧字武蔵野215,masked,35.345688,136.76442
愛知県,一宮市,3,木曽川町里小牧字新田８,水路フェンス,35.349113,136.767212
愛知県,一宮市,4,木曽川町里小牧字寺東117,水路フェンス,35.352283,136.768967
愛知県,一宮市,5,木曽川町里小牧字渡瀬3,水路フェンス,35.351528,136.766312
愛知県,一宮市,6,木曽川町里小牧字北渡瀬85,水路フェンス,35.35194,136.764557
愛知県,一宮市,7,木曽川町里小牧字蛭田95-1,宮田用水上緑地帯,35.346287,136.767578
