prefecture,city,number,address,name,lat,long,note
愛知県,名古屋市,1,船見町31番地,日本通運(株）名古屋海外引越支店　北側金網塀,35.0756331,136.891175,
愛知県,名古屋市,2,竜宮町10番地,大同特殊鋼(株）築地テクノセンター南門横アルミ塀,35.0935817,136.8928573,
愛知県,名古屋市,3,東築地町1番地,市営東築地荘駐車場西側金網塀,35.0981016,136.894455,
愛知県,名古屋市,4,木場町9番地の9,東築地学区防災センター　南側フェンス,35.0980594,136.8988548,
愛知県,名古屋市,5,木場町9番地の7,市営南木場荘1号棟空手道場東側階段黒色フェンス,35.0978067,136.9008192,
愛知県,名古屋市,6,木場町8番地の34,(株)東海大阪レンタル　西側フェンス,35.1005381,136.8981361,
愛知県,名古屋市,7,木場町6番地の28,木場公園　南側金網塀前,35.1026849,136.9002048,
愛知県,名古屋市,8,木場町2番地の98,木場北公園正面出入口北側,35.105448,136.9007795,
愛知県,名古屋市,9,木場町9番地の3,masked,35.0980664,136.8968383,
愛知県,名古屋市,10,七番町4丁目8番地,市営七番荘　西側フェンス,35.1149902,136.8870101,
愛知県,名古屋市,11,辰巳町37番6号,中川小学校　西側金網塀,35.1121946,136.8860474,
愛知県,名古屋市,12,辰巳町3番10号,（株）ワシノ製函　東側ブロック塀,35.1118907,136.8939365,
愛知県,名古屋市,13,港明一丁目１番38号,港明中学校　西側　西門横金網塀,35.1107368,136.8913154,
愛知県,名古屋市,14,辰巳町37番6号,中川小学校　東側　東門（通用門）横金網塀　南東角,35.1121414,136.8872738,
愛知県,名古屋市,15,港明一丁目12番20号,港区役所防災無線アンテナ塔　西側　植込み,35.1083228,136.885268,
愛知県,名古屋市,16,港明二丁目１番,港明公園　北側金網塀,35.1114019,136.8850042,
愛知県,名古屋市,17,辰巳町16番26号,（株）UACJ　第5辰巳荘　北側金網塀,35.1119823,136.8913786,
愛知県,名古屋市,18,名古屋市港区新川町2丁目1番地の4,(株)山田商会　南側フェンス　東寄り,35.1155695,136.878446,
愛知県,名古屋市,19,名古屋市港区新川町2丁目1番地の10,（株）山田商会　西側フェンス　北寄り,35.1159626,136.8777762,
愛知県,名古屋市,20,南十一番町4丁目5番地の11,東海公園　東側,35.1149138,136.8809975,
愛知県,名古屋市,21,九番町1丁目1番地の3,東海小学校　南側　南門横金網塀,35.1164246,136.8827784,
愛知県,名古屋市,22,九番町3丁目37番地,菅機械工業㈱　名古屋営業所　西側金網塀,35.1157724,136.88369,
愛知県,名古屋市,23,九番町1丁目1番地の3,東海小学校　南側　東端金網塀,35.1164228,136.8840759,
愛知県,名古屋市,24,南十番町1丁目1番2号,ホームセンターコーナン　南十番町店　西側金網塀,35.1172359,136.8811311,
愛知県,名古屋市,25,須成町1丁目1番地の5,㈱三光刃物製作所　入口東側フェンス,35.116681,136.87355,
愛知県,名古屋市,26,名古屋市港区丸池町3丁目2番地,小碓公園南側,35.1145227,136.8706439,
愛知県,名古屋市,27,新船町3丁目1番地の1,㈱服部組　資材置場　西側フェンス,35.1152602,136.8761182,
愛知県,名古屋市,28,東土古町1丁目3番地,成章小学校　東側　金網塀,35.1129812,136.8734633,
愛知県,名古屋市,29,東土古町1丁目3番地,成章小学校　西側　正門横金網塀,35.1129708,136.8720477,
愛知県,名古屋市,30,名古屋市港区本宮町3丁目18番地,親愛保育園　東側金網塀,35.1096532,136.8723162,
愛知県,名古屋市,31,丸池町1丁目1-1,丸池保育園　南側金網塀,35.1166361,136.8711035,
愛知県,名古屋市,32,いろは町3丁目9番地,市営新いろは荘７棟　西側フェンスの南詰,35.1017792,136.873843,
愛知県,名古屋市,33,いろは町5丁目14番地,上下水道局　技術教育センター　北側フェンス,35.099474,136.8729042,
愛知県,名古屋市,34,名古屋市港区中之島通2丁目7番地の2,,35.097549,136.8711265,
愛知県,名古屋市,35,築三町3丁目1番地,伊藤建設工業㈱　東北角アルミ柵,35.0946199,136.8716933,
愛知県,名古屋市,36,名古屋市港区大手町3丁目28番地,大手小学校　西側　南端金網塀,35.0963871,136.8679748,
愛知県,名古屋市,37,名古屋市港区大手町3丁目28番地,大手小学校　東側　正門横金網塀,35.0968669,136.8693283,
愛知県,名古屋市,38,遠若町1丁目76番地の196,遠若神社　南側の鉄柵,35.097488,136.8660735,
愛知県,名古屋市,39,名古屋市港区品川町2丁目1番地の48,品川公園　東側のフェンス,35.1020421,136.864732,
愛知県,名古屋市,40,十一屋一丁目70番地の5,名古屋ライトハウス　明和寮　西側鉄柵塀,35.0942159,136.8652995,
愛知県,名古屋市,41,名古屋市港区宝神三丁目1401番地,かもめ保育園  南側金網柵,35.0883505,136.8531763,
愛知県,名古屋市,42,名古屋市港区十一屋三丁目55番地,港西小学校　東側北詰　フェンス,35.0927807,136.8568221,
愛知県,名古屋市,43,名古屋市港区十一屋三丁目55番地,港西小学校　西側　正門横アルミ柵,35.0923489,136.8558793,
愛知県,名古屋市,44,名古屋市港区宝神一丁目77番地,宝神中学校　南側　南門横金網塀,35.0936057,136.8536889,
愛知県,名古屋市,45,宝神五丁目303番地,原商店　東側金網塀の中央,35.0918682,136.8484356,
愛知県,名古屋市,46,宝神五丁目3302番地,しらさぎ幼稚園　東側金網塀の北詰,35.0890859,136.847721,
愛知県,名古屋市,47,名古屋市港区宝神四丁目701番地,宝神保育園　西側金網塀,35.0868044,136.849279,
愛知県,名古屋市,48,名古屋市港区稲永一丁目1302番地,萬泰幼稚園グランド　南側金網塀,35.0886973,136.8594889,
愛知県,名古屋市,49,名古屋市港区稲永一丁目4番39号,港南中学校　北側　北門横金網塀,35.0894194,136.8614601,
愛知県,名古屋市,50,名古屋市港区稲永一丁目4番39号,港南中学校　南側　南門横金網塀,35.088474,136.8624606,
愛知県,名古屋市,51,稲永二丁目702番,ユナイト株式会社名古屋営業所　西側金網塀,35.0855491,136.8630806,
愛知県,名古屋市,52,稲永五丁目6番2号,市営西稲永荘2号棟　南側駐車場フェンス,35.0860865,136.8558012,
愛知県,名古屋市,53,稲永四丁目6番35号,稲永小学校　南門東側金網塀,35.0854833,136.858129,
愛知県,名古屋市,54,稲永四丁目6番35号,稲永小学校　東側　東門横金網塀,35.0862448,136.8581588,
愛知県,名古屋市,55,稲永二丁目1番1号,masked,35.0875463,136.8651908,
愛知県,名古屋市,56,名古屋市港区野跡一丁目92番地の2,消防局　港区耐震性防火水槽　北側フェンス,35.0807833,136.8547105,
愛知県,名古屋市,57,野跡一丁目4番11号,野跡小学校　西側　西門横金網塀,35.0794289,136.854446,
愛知県,名古屋市,58,汐止町12番地,汐止町交差点　ニチハ㈱北東角フェンス,35.073091,136.8536222,
愛知県,名古屋市,59,野跡五丁目3番2号,市営稲永荘2棟　北側駐車場北側フェンス,35.0833894,136.8530103,
愛知県,名古屋市,60,野跡四丁目4番8号,名古屋市港西保育園　　南側金網塀,35.0769835,136.8529239,
愛知県,名古屋市,61,野跡五丁目4番16号,愛知機械工業㈱永徳工場　東側南門横金属塀,35.0797685,136.8541649,
愛知県,名古屋市,62,野跡五丁目4番,タザキ理容　北隣の駐車場　東側金網塀,35.0816131,136.8544878,
愛知県,名古屋市,63,野跡一丁目4番11号,野跡小学校　東側　東門の南側　金網塀,35.0793603,136.855704,
愛知県,名古屋市,64,名古屋市港区港北町3丁目12番地の2,市営港北荘2号棟　南東フェンス,35.1075364,136.856044,
愛知県,名古屋市,65,土古町4丁目59番地,小碓小学校　西側金網塀,35.1109143,136.8569489,
愛知県,名古屋市,66,本宮新町18番地,本宮公園　南西入口横,35.1072859,136.8653848,
愛知県,名古屋市,67,本宮新町11番地,うぐいす幼稚園　運動場　北側金網塀,35.1085697,136.8678693,
愛知県,名古屋市,68,泰明町3丁目2番地,市営泰明南荘１棟の東の広場　東側金網塀,35.1108509,136.8631113,
愛知県,名古屋市,69,名古屋市港区港北町2丁目1番地,港北中学校　北東フェンス角金網塀,35.1096652,136.8602803,
愛知県,名古屋市,70,名古屋市港区港北町2丁目1番地,港北中学校　西側　金網塀の南詰,35.1089274,136.8582999,
愛知県,名古屋市,71,土古町4丁目59番地,小碓小学校　東側　東門横金網塀,35.1107629,136.8583014,
愛知県,名古屋市,72,正保町8丁目97番地,正保南公園　南側,35.1152494,136.859436,
愛知県,名古屋市,73,川間町2丁目136番地,川間町公民館　東側ブロック塀,35.1154889,136.8670825,
愛知県,名古屋市,74,正保町5丁目22番地,正保小学校　西側　通用門横金網塀,35.115902,136.862897,
愛知県,名古屋市,75,正保町5丁目22番地,正保小学校　北側　正門横金網塀,35.1163954,136.8633389,
愛知県,名古屋市,76,正保町8丁目8番地,㈱ENGIN　東側金網塀,35.1180029,136.8578821,
愛知県,名古屋市,77,正保町3丁目1番地,市営正保荘　集会所　北側金網塀,35.118641,136.8605382,
愛知県,名古屋市,78,正徳町1丁目17番地,,35.1224914,136.8624267,
愛知県,名古屋市,79,正徳町4丁目31番地,,35.1217494,136.859529,
愛知県,名古屋市,80,小碓一丁目515番地,,35.1200799,136.8519539,
愛知県,名古屋市,81,小碓四丁目61番地,,35.1197977,136.8503119,
愛知県,名古屋市,82,小碓一丁目339番地,,35.1179733,136.8531496,
愛知県,名古屋市,83,小碓二丁目364番地,なごや農業協同組合　小碓支店　北側フェンス中央,35.1164816,136.8522853,
愛知県,名古屋市,84,小碓三丁目134番地,小碓幼稚園　南側金網塀の西詰,35.1153063,136.8498685,
愛知県,名古屋市,85,小碓三丁目259番地,明徳小学校　北側フェンス,35.1160678,136.8471199,
愛知県,名古屋市,86,明正一丁目161番地,㈱ショクブン　北側金網塀,35.1169138,136.8434497,
愛知県,名古屋市,87,名古屋市港区明正二丁目286番地,,35.1159762,136.8393436,
愛知県,名古屋市,88,当知四丁目1906番地の１,,35.1110707,136.8397045,
愛知県,名古屋市,89,当知三丁目3801番地,masked,35.1103334,136.8425474,
愛知県,名古屋市,90,当知三丁目2610番地,当知保育園　南側金網塀,35.1119524,136.8446342,
愛知県,名古屋市,91,当知三丁目2401番地,当知小学校　東側　通用門横金網塀,35.1109252,136.8452312,
愛知県,名古屋市,92,当知三丁目2401番地,当知小学校　西側金網塀,35.1108799,136.8440856,
愛知県,名古屋市,93,当知一丁目608番地,当知中学校 北側 正門横金網塀,35.1118786,136.849149,
愛知県,名古屋市,94,当知一丁目608番地,当知中学校　南側　金網塀,35.1103434,136.8496037,
愛知県,名古屋市,95,名古屋市港区入場一丁目429番地,,35.111271,136.8558537,
愛知県,名古屋市,96,名古屋市港区千鳥一丁目14番23号,masked,35.0991735,136.8861968,
愛知県,名古屋市,97,名古屋市港区千鳥一丁目4番15号,丸一運輸株式会社　駐車場西側フェンス,35.0969068,136.8870455,
愛知県,名古屋市,98,名港二丁目１番,稲荷公園 南側 鉄柵,35.0958489,136.8846689,
愛知県,名古屋市,99,名古屋市港区浜一丁目2番33号,西築地小学校　西側　正門横アルミ柵,35.097714,136.8813222,
愛知県,名古屋市,100,名古屋市港区入船一丁目７番15号,大村駐車場　南側金網塀,35.0928514,136.8832169,
愛知県,名古屋市,101,西倉町１番16号,ヨコイピーナッツ㈱　港工場　東側アルミ柵,35.09754,136.8797343,
愛知県,名古屋市,102,名古屋市港区浜一丁目2番33号,西築地小学校　南側　南門横アルミ柵,35.0969388,136.881809,
愛知県,名古屋市,103,名古屋市港区港栄三丁目2106番地,高圧電線鉄塔　金網塀,35.1046609,136.8807532,
愛知県,名古屋市,104,名古屋市港区港栄一丁目1番22号,市営新港栄荘　南西側駐車場フェンス,35.1060757,136.883949,
愛知県,名古屋市,105,港楽二丁目3番36号,港楽小学校　南側　金網塀,35.1028697,136.8853001,
愛知県,名古屋市,106,名古屋市港区港陽一丁目202番地の1,昭和町築港連絡線第8号　金網塀,35.1020208,136.8892595,
愛知県,名古屋市,107,港楽一丁目7番16号,東港中学校　南側金網塀,35.1057032,136.88646,
愛知県,名古屋市,108,港楽二丁目3番36号,港楽小学校　東側　東門横金網塀,35.1033773,136.886263,
愛知県,名古屋市,109,名古屋市港区港陽一丁目 9番,港生涯学習センター　駐車場　東側金網塀,35.1017298,136.8878177,
愛知県,名古屋市,110,名古屋市港区港陽一丁目1番50号,昭和町築港連絡線第9号　金網塀,35.1031746,136.8872457,
愛知県,名古屋市,111,善南町5番地,,35.0993895,136.8519753,
愛知県,名古屋市,112,善進本町269番地,なごや農業協同組合　善進支店　西側鉄柵,35.1017848,136.8550388,
愛知県,名古屋市,113,善北町11番地,,35.1046619,136.8561953,
愛知県,名古屋市,114,油屋町2丁目15番地,高木コミュニティセンター　西側フェンス,35.104389,136.8498094,
愛知県,名古屋市,115,名古屋市港区高木町3丁目20番地,高木小学校　東側　東門横の金網塀の北詰,35.1021561,136.8495322,
愛知県,名古屋市,116,名古屋市港区高木町2丁目27番地,岡田工業㈱　名古屋支店　北側フェンス　入り口西側,35.1038559,136.8478451,
愛知県,名古屋市,117,惟信町2丁目28番地の1,いしん保育園　北側金網塀,35.1063715,136.8451183,
愛知県,名古屋市,118,惟信町1丁目20番地,,35.1076551,136.8429315,
愛知県,名古屋市,119,多加良浦町4丁目168番地,多加良浦公園　東側,35.1010421,136.8428226,
愛知県,名古屋市,120,惟信町5丁目37番地,市営惟信南荘　北側金網塀,35.1016211,136.8433814,
愛知県,名古屋市,121,多加良浦町5丁目3番地,たからうらこども園　東側鉄柵塀　南詰,35.0997645,136.8437126,
愛知県,名古屋市,122,宝神町字西屋敷1120番地,,35.0982247,136.8435219,
愛知県,名古屋市,123,名古屋市港区神宮寺二丁目501番地,神宮寺小学校　東側　東門横金網塀,35.0972685,136.84574,
愛知県,名古屋市,124,名古屋市港区神宮寺二丁目501番地,神宮寺小学校　西側　西通用門南側金網塀,35.0969795,136.8445173,
愛知県,名古屋市,125,名古屋市港区神宮寺二丁目704番地,株式会社ワキタ　名古屋みなと営業所　東側コンクリート塀,35.0950799,136.8463816,
愛知県,名古屋市,126,名古屋市港区藤前一丁目604番地,藤前会館　西の駐車場　東側金網塀,35.0878505,136.833547,
愛知県,名古屋市,127,名古屋市港区西茶屋三丁目191番地,茶屋新田揚水機場　西側金網塀,35.1011111,136.8221619,
愛知県,名古屋市,128,名古屋市港区藤高一丁目16番地,藤高土地改良区事務所　正面横　東側アルミ塀,35.0989072,136.8351848,
愛知県,名古屋市,129,西茶屋二丁目11番地,イオンモール名古屋茶屋　東側道路植栽前面,35.1048709,136.8267798,
愛知県,名古屋市,130,名古屋市港区東茶屋一丁目41番地,,35.1086978,136.8339167,
愛知県,名古屋市,131,西茶屋一丁目35番地の2,南陽東中学校　東側　正門横金網塀,35.1092211,136.8262673,
愛知県,名古屋市,132,西茶屋一丁目35番地の2,南陽東中学校　西側　金網塀,35.1093157,136.824204,
愛知県,名古屋市,133,港区秋葉一丁目,一葉公園　東側柵北寄り,35.1090968,136.8193653,
愛知県,名古屋市,134,名古屋市港区秋葉一丁目119番地,,35.1103348,136.8177065,
愛知県,名古屋市,135,名古屋市港区西福田三丁目325番地,熱田社　南側囲い塀,35.1120826,136.8083275,
愛知県,名古屋市,136,名古屋市港区新茶屋四丁目717番地,,35.1005162,136.8043088,
愛知県,名古屋市,137,名古屋市港区新茶屋五丁目2004番地,南陽第三保育園　南側アルミ塀,35.110813,136.8010291,
愛知県,名古屋市,138,名古屋市港区福前一丁目319,神明社　西側石柵,35.1123075,136.7941053,
愛知県,名古屋市,139,名古屋市港区畑中二丁目254番地,,35.1169736,136.7943172,
愛知県,名古屋市,140,名古屋市港区福屋二丁目70番地,西福田幼稚園　東側アルミ塀,35.1161454,136.8022458,
愛知県,名古屋市,141,西福田五丁目1601番地,西福田小学校　東側　東門横金網塀,35.1151718,136.8044186,
愛知県,名古屋市,142,名古屋市港区西福田一丁目1306番地,,35.1186229,136.8080157,
愛知県,名古屋市,143,小賀須四丁目1021番地,駐車場　北側フェンス,35.1151898,136.8260708,
愛知県,名古屋市,144,船頭場五丁目404番地,,35.1173944,136.8283158,
愛知県,名古屋市,145,小賀須四丁目501番地,富士文化幼稚園駐車場　東海通沿い　南側フェンス,35.1134093,136.8293049,
愛知県,名古屋市,146,船頭場四丁目,船頭場公園（北）　東側南寄り,35.1153599,136.8312161,
愛知県,名古屋市,147,小賀須二丁目513番地,福田ポンプ所　西側金網塀,35.1114835,136.8332964,
愛知県,名古屋市,148,小賀須四丁目801番地,富士文化幼稚園　北側金網塀,35.1146516,136.8300632,
愛知県,名古屋市,149,船頭場一丁目217番地,白山社　南側石柵,35.1185397,136.8292766,
愛知県,名古屋市,150,知多三丁目201番地,masked,35.1119593,136.8277896,
愛知県,名古屋市,151,八百島二丁目206番地,,35.1185624,136.8210595,
愛知県,名古屋市,152,七反野一丁目1207番地,福田小学校　南側　南門横金網塀,35.1146094,136.8211241,
愛知県,名古屋市,153,知多一丁目,知多北公園　南側,35.1135951,136.8228361,
愛知県,名古屋市,154,名古屋市港区知多二丁目801番地,知多南公園　東側斜面南詰め,35.1114508,136.8253937,
愛知県,名古屋市,155,七反野一丁目1207番地,福田小学校　北側金網塀,35.1155173,136.8206725,
愛知県,名古屋市,156,名古屋市港区知多二丁目2401番地,南陽ひかり保育園　北側金網塀,35.1120007,136.8221525,
愛知県,名古屋市,157,春田野一丁目2901番地,福春小学校　東側　南端金網塀,35.1182327,136.8138461,
愛知県,名古屋市,158,春田野三丁目101番地,南陽地区会館　北側金網塀,35.1126877,136.8164575,
愛知県,名古屋市,159,春田野三丁目1801番地,港区役所南陽支所　北側出入り口左横アルミ柵,35.1129021,136.8125692,
愛知県,名古屋市,160,春田野一丁目2501番地,春田野中央公園　東側コンクリート製柵,35.1161203,136.8156413,
愛知県,名古屋市,161,春田野一丁目2901番地,福春小学校　西側金網塀,35.1185656,136.8125203,
愛知県,名古屋市,162,東蟹田504番地,昭和工業株式会社　東側フェンス,35.1196509,136.8211457,
愛知県,名古屋市,163,八百島二丁目1901番地,masked,35.1174125,136.8197111,
愛知県,名古屋市,1,名古屋市守山区本地が丘1601番地,本地保育園 東側フェンス,35.1995709,137.0234265,
愛知県,名古屋市,2,名古屋市守山区本地が丘908番地,本地丘小学校 東南フェンス,35.1983054,137.0222268,
愛知県,名古屋市,3,名古屋市守山区本地が丘908番地,本地丘小学校 南門西側フェンス,35.19782,137.0215093,
愛知県,名古屋市,4,名古屋市守山区本地が丘1701番地,本地荘１１号棟 北側フェンス,35.1993994,137.0224337,
愛知県,名古屋市,5,名古屋市守山区本地が丘1701番地,本地荘２３号棟 西側フェンス,35.1984574,137.0254164,
愛知県,名古屋市,6,名古屋市守山区本地が丘1701番地,本地荘５号棟 北側フェンス,35.1984043,137.0242797,
愛知県,名古屋市,7,名古屋市守山区本地が丘1701番地,本地荘集会所 東側フェンス,35.1990509,137.0251387,
愛知県,名古屋市,8,名古屋市守山区白山一丁目101番地,ヤマナカ四軒家フランテ 駐車場南側鉄柵,35.1934401,137.0208676,
愛知県,名古屋市,9,名古屋市守山区白山二丁目201番地,ドラッグスギヤマ四軒家店 北隣駐車場西側フェンス,35.1952107,137.026119,
愛知県,名古屋市,10,名古屋市守山区森孝東一丁目442番地,森孝東小学校 正門北側フェンス,35.1918574,137.0216997,
愛知県,名古屋市,11,名古屋市守山区森孝東一丁目442番地,森孝東小学校 南児童門西側フェンス,35.1916804,137.0209111,
愛知県,名古屋市,12,名古屋市守山区森孝東二丁目801番地,masked,35.1922704,137.0253331,
愛知県,名古屋市,13,名古屋市守山区森孝東二丁目814番地,masked,35.1920402,137.0269011,
愛知県,名古屋市,14,名古屋市守山区白山三丁目,白山第三公園南西側鉄柵,35.194651,137.0294952,
愛知県,名古屋市,15,名古屋市守山区森孝一丁目108番地,第一香流荘２号棟駐車場北側フェンス,35.1934605,137.0020159,
愛知県,名古屋市,16,名古屋市守山区森孝一丁目1108番地,森孝西小学校 正門西側フェンス,35.1950096,137.0044966,
愛知県,名古屋市,17,名古屋市守山区四軒家三丁目1701番地,森孝西児童遊園地北側鉄柵,35.1938285,137.0089502,
愛知県,名古屋市,18,名古屋市守山区四軒家二丁目,コンセール藤が丘七番館南側道路鉄柵,35.1915329,137.0166224,
愛知県,名古屋市,19,名古屋市守山区森孝一丁目1143番地,森孝西公園南側,35.1935249,137.0051412,
愛知県,名古屋市,20,名古屋市守山区森孝一丁目107番地,masked,35.1920224,137.0020008,
愛知県,名古屋市,21,名古屋市守山区森孝二丁目802,東隣り駐車場南側ブロック塀,35.1937939,137.0077371,
愛知県,名古屋市,22,名古屋市守山区森孝四丁目619番地,masked,35.1913156,137.0098566,
愛知県,名古屋市,23,名古屋市守山区天子田三丁目701番地,masked,35.199895,137.0092643,
愛知県,名古屋市,24,名古屋市守山区向台三丁目706番地,西側ブロック塀,35.1973066,137.008677,
愛知県,名古屋市,25,名古屋市守山区天子田二丁目1501番地,天子田小学校 東側フェンス,35.1993452,137.0058517,
愛知県,名古屋市,26,名古屋市守山区天子田二丁目1404番地,天子田保育園東側フェンス北寄り,35.1994154,137.0064476,
愛知県,名古屋市,27,名古屋市守山区天子田三丁目815番地,天子田郵便局西隣駐車場南側フェンス西寄り,35.1989051,137.0087508,
愛知県,名古屋市,28,名古屋市守山区天子田一丁目1301番地,下市場公園南側鉄柵,35.1972508,136.9992416,
愛知県,名古屋市,29,名古屋市守山区向台二丁目901番地,定納公園北側西寄り,35.1970356,137.0041436,
愛知県,名古屋市,30,名古屋市守山区脇田町614番地,千代田寮南側フェンス,35.2026206,137.0047431,
愛知県,名古屋市,31,名古屋市守山区大森三丁目2101番地,法輪寺駐車場南側フェンス西寄り,35.2080132,137.0003834,
愛知県,名古屋市,32,名古屋市守山区大森四丁目401番地,大森小学校正門南側フェンス,35.2046056,136.9986219,
愛知県,名古屋市,33,名古屋市守山区大森三丁目504番地,大森保育園北側フェンス,35.2063212,136.9972333,
愛知県,名古屋市,34,名古屋市守山区大森四丁目2301番地,白晴公園北側 東寄り,35.2051574,137.0004487,
愛知県,名古屋市,35,名古屋市守山区元郷二丁目1209番地,中部電力北豊田名北線35号鉄塔南側フェンス,35.2011621,137.0025139,
愛知県,名古屋市,36,名古屋市守山区大森四丁目401番地,大森小学校南側フェンス,35.2037421,136.998697,
愛知県,名古屋市,37,名古屋市守山区大森一丁目2601番地,大森中学校北側フェンス,35.2031525,136.9950736,
愛知県,名古屋市,38,名古屋市守山区元郷一丁目701番地,masked,35.1996814,136.9960475,
愛知県,名古屋市,39,名古屋市守山区藪田町1302番地,藪田公園西側鉄柵,35.201554,136.9910214,
愛知県,名古屋市,40,名古屋市守山区大森一丁目2601番地,大森中学校西門南側フェンス,35.2019175,136.9952165,
愛知県,名古屋市,41,名古屋市守山区元郷一丁目1101番地,masked,35.2002294,136.997223,
愛知県,名古屋市,42,名古屋市守山区大森二丁目1720番地の1,金城学院幼稚園駐車場南側フェンス中央付近,35.2075904,136.9944115,
愛知県,名古屋市,43,名古屋市守山区元郷一丁目701番地,masked,35.1992682,136.9954285,
愛知県,名古屋市,44,名古屋市守山区大森北二丁目,吉長南公園　南側鉄柵,35.2210873,137.0099267,
愛知県,名古屋市,45,名古屋市守山区御膳洞321番地,大森北小学校 西門側フェンス,35.2122274,137.0015924,
愛知県,名古屋市,46,名古屋市守山区弁天が丘509番地,弁財天奥の院　西側フェンス北寄り,35.2092958,136.99538,
愛知県,名古屋市,47,名古屋市守山区弁天が丘913番地,大森金城学院前第２自転車駐車場 東側フェンス,35.2078867,136.9983044,
愛知県,名古屋市,48,名古屋市守山区御膳洞101番,檀ノ浦公園南側鉄柵,35.2095453,137.0000973,
愛知県,名古屋市,49,名古屋市守山区八剣一丁目405番地,中部電力北豊田名北線37号鉄塔北側フェンス,35.2062566,137.00195,
愛知県,名古屋市,50,名古屋市守山区大森五丁目201番地,NTT西日本大森電話交換所西側フェンス,35.2072957,137.0011572,
愛知県,名古屋市,51,名古屋市守山区八剣二丁目,八剣公園南側鉄柵西寄り,35.205448,137.0047042,
愛知県,名古屋市,52,名古屋市守山区苗代二丁目10番6号,苗代小学校西門南側フェンス,35.1951288,136.9807547,
愛知県,名古屋市,53,名古屋市守山区野萩町902番地,野萩町9番3号 南隣畑 西側フェンス,35.2017516,136.9850585,
愛知県,名古屋市,54,名古屋市守山区大谷町512番,大谷わんぱく児童遊園地北側フェンス,35.2005964,136.984638,
愛知県,名古屋市,55,名古屋市守山区大谷町118番地,杉ノ木公園北側鉄柵,35.1990972,136.9856224,
愛知県,名古屋市,56,名古屋市守山区野萩町2番61号,なえしろ保育園南側フェンス,35.1994499,136.9866217,
愛知県,名古屋市,57,名古屋市守山区太田井602番地,㈱東海工作所（太田井6番62号）北隣り駐車場入口北側フェンス,35.1981293,136.9864073,
愛知県,名古屋市,58,名古屋市守山区苗代二丁目10番6号,苗代小学校東門北側フェンス,35.195627,136.9819046,
愛知県,名古屋市,59,名古屋市守山区大谷町4番1号,大谷町4番1号西側,0.0,0.0,
愛知県,名古屋市,60,名古屋市守山区小幡南一丁目19番12号,苗代コミュニティセンター南側フェンス,35.2000006,136.9760479,
愛知県,名古屋市,61,名古屋市守山区小幡南三丁目104番,瀬戸信用金庫苗代支店 駐車場北側フェンス,35.1980289,136.9815575,
愛知県,名古屋市,62,名古屋市守山区小幡南二丁目12番2号,西側フェンス,35.199139,136.9774888,
愛知県,名古屋市,63,名古屋市守山区小幡南一丁目4番8号,北側フェンス,0.0,0.0,
愛知県,名古屋市,64,名古屋市守山区小幡南三丁目15番21号,畑　北側フェンス,35.2013216,136.9821157,
愛知県,名古屋市,65,名古屋市守山区小幡南一丁目,小幡駅南公園　西側鉄柵南寄り,35.1990902,136.9756064,
愛知県,名古屋市,66,名古屋市守山区小幡南二丁目5番23号,（有）守山製砥所　北側ブロック塀西端,35.1983871,136.9788332,
愛知県,名古屋市,67,名古屋市守山区小幡五丁目7番3号,守山東中学校 南門東側フェンス,35.2038343,136.981516,
愛知県,名古屋市,68,名古屋市守山区小幡五丁目7番3号,守山東中学校北側フェンス,35.2052019,136.9818553,
愛知県,名古屋市,69,名古屋市守山区茶臼前16番20号,masked,35.2056189,136.9866085,
愛知県,名古屋市,70,名古屋市守山区小幡五丁目7番3号,守山東中学校　西側フェンス　南寄り,35.2037039,136.9807932,
愛知県,名古屋市,71,名古屋市守山区笹ヶ根二丁目102番地,吉根中学校西側フェンス,35.231954,137.001794,
愛知県,名古屋市,72,名古屋市守山区喜多山二丁目3101番地,ロワールパークオギソ（喜多山二丁目31番23号）西駐車場西側フェンス,35.2076619,136.9896153,
愛知県,名古屋市,73,名古屋市守山区小幡四丁目15番,JAなごや守山東支店 産直売場北側フェンス,35.2074778,136.9840706,
愛知県,名古屋市,74,名古屋市守山区喜多山一丁目10番13号,東側鉄柵,35.205854,136.9910324,
愛知県,名古屋市,75,名古屋市守山区小幡一丁目3番4号,小幡小学校 東門南側フェンス,35.2046029,136.9777987,
愛知県,名古屋市,76,名古屋市守山区小幡一丁目3番4号,小幡小学校 正門南側フェンス,35.2040177,136.97594,
愛知県,名古屋市,77,名古屋市守山区小幡一丁目3番1号,守山区役所駐車場西側鉄柵,35.2030511,136.9756375,
愛知県,名古屋市,78,名古屋市守山区小幡中二丁目9番,稲荷前南公園　北側鉄柵西寄り,35.2044787,136.9721597,
愛知県,名古屋市,79,名古屋市守山区小幡中三丁目20番20号,masked,35.2081551,136.9725895,
愛知県,名古屋市,80,名古屋市守山区小幡中三丁目20番20号,masked,35.2074648,136.9716682,
愛知県,名古屋市,81,名古屋市守山区小幡一丁目3番4号,小幡小学校 北側フェンス,35.2049941,136.9766279,
愛知県,名古屋市,82,名古屋市守山区小幡中一丁目1210番地,小幡中一丁目12番23号東隣り駐車場東側フェンス,35.2013404,136.9715755,
愛知県,名古屋市,83,名古屋市守山区中新2番27号,北側ブロック塀,35.1962597,136.9722796,
愛知県,名古屋市,84,名古屋市守山区新城23番,新城公園 東側鉄柵,35.1951424,136.9697022,
愛知県,名古屋市,85,名古屋市守山区小幡常燈12番16号,東側ブロック塀,35.1986083,136.9741081,
愛知県,名古屋市,86,名古屋市守山区小幡常燈1番29号,岐阜信用金庫守山支店駐車場東側フェンス,35.1960041,136.975178,
愛知県,名古屋市,87,名古屋市守山区新城18,ありんこ児童遊園地東側フェンス南寄り,35.1963141,136.9694549,
愛知県,名古屋市,88,名古屋市守山区小幡中一丁目13番41号,西側ブロック塀,35.200188,136.9713743,
愛知県,名古屋市,89,名古屋市守山区東山町1番6号,若草保育園南側フェンス,35.1978319,136.9626465,
愛知県,名古屋市,90,名古屋市守山区大屋敷13番63号,守山中学校南側フェンス東寄り,35.2028911,136.9677648,
愛知県,名古屋市,91,名古屋市守山区西島町6番27号,守山小学校北側フェンス東寄り,35.2017966,136.9657614,
愛知県,名古屋市,92,名古屋市守山区西新11番32号,守山消防署長公舎南側コンクリート塀,35.1980809,136.9663888,
愛知県,名古屋市,93,名古屋市守山区東山町901,すいどうみち緑道南側鉄柵,35.1995819,136.9623362,
愛知県,名古屋市,94,名古屋市守山区大屋敷13番63号,守山中学校　南側フェンス西端,35.2027256,136.9660563,
愛知県,名古屋市,95,名古屋市守山区西島町6番27号,守山小学校東門南側フェンス,35.2013122,136.965925,
愛知県,名古屋市,96,名古屋市守山区守山三丁目2番6号,守山生涯学習センター　体育室西側フェンス,35.1977846,136.9566249,
愛知県,名古屋市,97,名古屋市守山区守山一丁目4番5号,西側ブロック塀,35.1980704,136.9549563,
愛知県,名古屋市,98,名古屋市守山区守山一丁目805番,守山西自転車駐車場 北側フェンス,35.1973018,136.9562575,
愛知県,名古屋市,99,名古屋市守山区守山二丁目11番15号,中部塗装株式会社 東側フェンス,35.2015996,136.958252,
愛知県,名古屋市,100,名古屋市守山区守山三丁目705番地,瀬戸信用金庫守山支店（守山三丁目9番13号）西駐車場東側フェンス,35.1972979,136.9599692,
愛知県,名古屋市,101,名古屋市守山区大牧町3番11号,（株）オカシズ守山倉庫北側コンクリート塀,35.2033385,136.9582654,
愛知県,名古屋市,102,名古屋市守山区守山三丁目2番3号,守山保育園東側フェンス,35.1973882,136.9575136,
愛知県,名古屋市,103,名古屋市守山区白沢町358番地,西側コンクリート塀,35.2118066,136.9685947,
愛知県,名古屋市,104,名古屋市守山区川村町293番地,東邦ガス　大永寺中Ａガバナ・守山川村中Ａガバナ　北側フェンス,35.2134343,136.9658339,
愛知県,名古屋市,105,名古屋市守山区松坂町114番地の7,松坂南公園南側鉄柵,35.2144351,136.9809039,
愛知県,名古屋市,106,名古屋市守山区森宮町263番地,masked,35.2095645,136.9678266,
愛知県,名古屋市,107,名古屋市守山区森宮町230番地,海津建設（株）清和寮南側フェンス,35.2082919,136.967929,
愛知県,名古屋市,108,名古屋市守山区川東山1201番,どんぐり広場　川東山第一東側フェンス,35.2174857,136.976455,
愛知県,名古屋市,109,名古屋市守山区城土町364番地,「余慶橋」信号南　城土公園西北　歩道鉄柵,35.2148146,136.9747239,
愛知県,名古屋市,110,名古屋市守山区白沢町233番地,白沢小学校西通用門南側フェンス,35.2128667,136.970751,
愛知県,名古屋市,111,名古屋市守山区翠松園一丁目1710番地,唐九郎記念館北側フェンス東寄り,35.2126029,136.9888161,
愛知県,名古屋市,112,名古屋市守山区緑ヶ丘1010番地,緑ヶ丘荘６棟南側フェンス,35.2125744,136.9839984,
愛知県,名古屋市,113,名古屋市守山区緑ヶ丘1010番地,緑ヶ丘荘１９棟北側フェンス,35.2124867,136.9861174,
愛知県,名古屋市,114,名古屋市守山区小幡北1801番地,小幡北小学校南側フェンス東寄り,35.2154312,136.9864655,
愛知県,名古屋市,115,名古屋市守山区緑ヶ丘1010番地,緑ヶ丘荘１２棟北側フェンス,35.2137687,136.9840011,
愛知県,名古屋市,116,名古屋市守山区竜泉寺一丁目1013番地,東側フェンス,35.2220909,136.9853317,
愛知県,名古屋市,117,名古屋市守山区竜泉寺二丁目1-63,小幡緑地自転車駐車場 西側フェンス,35.2191041,136.9830054,
愛知県,名古屋市,118,名古屋市守山区長栄20番10号,和進館保育園 東側フェンス,35.1954913,136.9654707,
愛知県,名古屋市,119,名古屋市守山区廿軒家2903,すいどうみち緑道北側鉄柵,35.1961102,136.9613975,
愛知県,名古屋市,120,名古屋市守山区更屋敷16番16号,廿軒家小学校 正門西側フェンス,35.1931602,136.960984,
愛知県,名古屋市,121,名古屋市守山区小六町5番22号,㈱デビカ 出入口東側フェンス,35.193267,136.967784,
愛知県,名古屋市,122,名古屋市守山区廿軒家30番街区東側,すいどうみち緑道東側鉄柵,35.1954808,136.9612581,
愛知県,名古屋市,123,名古屋市守山区更屋敷,宮前橋北側歩道鉄柵　町南2号橋西付近,35.1939582,136.9568035,
愛知県,名古屋市,124,名古屋市守山区更屋敷16番16号,廿軒家小学校 東門北側コンクリート塀,35.1929366,136.9620676,
愛知県,名古屋市,125,名古屋市守山区更屋敷16番16号,廿軒家小学校　西門北側フェンス,35.192872,136.9603175,
愛知県,名古屋市,126,名古屋市守山区小幡宮ノ腰604番地2,コープあいち コープ小幡店北側駐車場南側フェンス,35.1935487,136.9747961,
愛知県,名古屋市,127,名古屋市守山区小幡太田2番5号,アーバンラフレ小幡３号棟　北側フェンス,35.1928961,136.9774891,
愛知県,名古屋市,128,名古屋市守山区小幡千代田603番地,ダイナース千代田橋東側駐車場南側フェンス,35.1921634,136.970979,
愛知県,名古屋市,129,名古屋市守山区小幡太田2番5号,アーバンラフレ小幡４号棟　南側植込み柵,35.1926275,136.9780404,
愛知県,名古屋市,130,名古屋市守山区小幡宮ノ腰604番地１,コープあいち コープ小幡店北側駐車場北側フェンス,35.1938375,136.9745325,
愛知県,名古屋市,131,名古屋市守山区小幡宮ノ腰2番3号,masked,35.192265,136.9750932,
愛知県,名古屋市,132,名古屋市守山区小幡太田3番1号,アーバンラフレ小幡１号棟　北側フェンス,35.193187,136.9769484,
愛知県,名古屋市,133,名古屋市守山区村前町140番地,元牧公園北側,35.2073075,136.9669687,
愛知県,名古屋市,134,名古屋市守山区村合町178番地,ピアゴ西城店　北側駐車場　南側フェンス西寄り,35.2079648,136.9631475,
愛知県,名古屋市,135,名古屋市守山区西城二丁目14番3号,西城小学校 西側フェンス正門北,35.2044872,136.9660451,
愛知県,名古屋市,136,名古屋市守山区西城二丁目14番3号,西城小学校　南側フェンス東寄り,35.2038867,136.9675512,
愛知県,名古屋市,137,名古屋市守山区小幡中二丁目1番3号,三菱電機（株）ジュネス守山南側フェンス,35.2026304,136.9701755,
愛知県,名古屋市,138,名古屋市守山区村合町5,上下水道局送水管用地西側フェンス,35.2049563,136.9619285,
愛知県,名古屋市,139,名古屋市守山区小幡中三丁目10番17号,北側ブロック塀,35.2076896,136.9704498,
愛知県,名古屋市,140,名古屋市守山区鳥羽見二丁目17番6号,鳥羽見小学校　東門南側フェンス,35.2008504,136.9529622,
愛知県,名古屋市,141,名古屋市守山区金屋一丁目,金屋第一公園南側入口西側鉄柵,35.2033045,136.952603,
愛知県,名古屋市,142,名古屋市守山区市場15番29号,木村木材（株） 南西側フェンス,35.1959784,136.9506589,
愛知県,名古屋市,143,名古屋市守山区守牧町,守牧公園西側鉄柵南寄り,35.2008183,136.9541647,
愛知県,名古屋市,144,名古屋市守山区市場4番45号,宝勝寺南側駐車場　東側フェンス,35.196638,136.9498611,
愛知県,名古屋市,145,名古屋市守山区金屋二丁目100番地,北側ブロック塀,35.204748,136.9547889,
愛知県,名古屋市,146,名古屋市守山区金屋二丁目,金屋第二公園北側鉄柵西寄り,35.2057938,136.9557915,
愛知県,名古屋市,147,名古屋市守山区鳥羽見二丁目17番6号,鳥羽見小学校　正門南側フェンス,35.2005874,136.9516922,
愛知県,名古屋市,148,名古屋市守山区鳥神町248番地,二城小学校 東側フェンス南端,35.2087072,136.9571588,
愛知県,名古屋市,149,名古屋市守山区新守町195,新守公園北側鉄柵東寄り,35.2095204,136.9540744,
愛知県,名古屋市,150,名古屋市守山区川宮町215番地,川田公園南側鉄柵,35.2115866,136.9587457,
愛知県,名古屋市,151,名古屋市守山区幸心四丁目201番地,masked,35.2146094,136.9528431,
愛知県,名古屋市,152,名古屋市守山区新守町58番地,守山西中学校東側フェンス,35.2067004,136.9540911,
愛知県,名古屋市,153,名古屋市守山区西川原町318番地,アサヒビール（株）南西　社員駐車場南側フェンス,35.2118858,136.9540839,
愛知県,名古屋市,154,名古屋市守山区新守町58番地,守山西中学校北側フェンス クラブハウス前,35.2072483,136.9531134,
愛知県,名古屋市,155,名古屋市守山区鳥神町248番地,二城小学校 北門西側フェンス,35.2095356,136.9561517,
愛知県,名古屋市,156,名古屋市守山区瀬古東二丁目無番地,バロー新守山店（瀬古東二丁目1101番地）南側神戸川フェンス,35.2071623,136.9429907,
愛知県,名古屋市,157,名古屋市守山区瀬古東三丁目1303番地,瀬古小学校 北側フェンス東寄り,35.2113712,136.9434594,
愛知県,名古屋市,158,名古屋市守山区幸心二丁目514番地,masked,35.2114775,136.9480007,
愛知県,名古屋市,159,名古屋市守山区幸心三丁目1201番地,幸心旭丘駐車場東隣り(株)旭丘プラスチック工業所南側コンクリート塀,35.2131244,136.9493578,
愛知県,名古屋市,160,名古屋市守山区新守山2830番地,アピタ新守山店　南側フェンス,35.2037361,136.9481811,
愛知県,名古屋市,161,名古屋市守山区瀬古東三丁目1303番地,瀬古小学校南通用門東側フェンス,35.2100224,136.9435473,
愛知県,名古屋市,162,名古屋市守山区幸心二丁目280番地,駐車場南側フェンス,35.2083182,136.9454769,
愛知県,名古屋市,163,名古屋市守山区瀬古三丁目1407番地,市営瀬古東荘　南側フェンス,35.2126793,136.9445457,
愛知県,名古屋市,164,名古屋市守山区川西二丁目,守山水処理センター　東北側鉄柵,35.2133123,136.9287384,
愛知県,名古屋市,165,名古屋市守山区瀬古二丁目301番地,瀬古マザー園 西側フェンス,35.2133557,136.9342017,
愛知県,名古屋市,166,名古屋市守山区瀬古東三丁目303番地,ＮＩＰＰＯ名古屋出張所 南側フェンス,35.2115662,136.9378428,
愛知県,名古屋市,167,名古屋市守山区瀬古二丁目301番地,瀬古マザー園　南側フェンス,35.2126189,136.9343446,
愛知県,名古屋市,168,名古屋市守山区瀬古一丁目1143、1144、1145番,ダイヤパレス瀬古 東隣り空き地 東側コンクリート塀,35.2101263,136.9339616,
愛知県,名古屋市,169,名古屋市守山区瀬古一丁目902番地,株式会社 丹羽由 南側フェンス西端,35.2100357,136.9353293,
愛知県,名古屋市,170,名古屋市守山区瀬古一丁目220番地の2,よつ葉こども園西側フェンス,35.2108869,136.9317271,
愛知県,名古屋市,171,名古屋市守山区大字上志段味字大久手下1963番地の2,名古屋ヤクルト販売株式会社　西側フェンス北寄り,35.250277,137.036931,
愛知県,名古屋市,172,名古屋市守山区大字上志段味字上島,国道155号線「新東谷橋南」交差点　北西歩道鉄柵,35.2559957,137.0378518,
愛知県,名古屋市,173,名古屋市守山区大字上志段味字東谷,大久手池南側歩道鉄柵,35.2471712,137.040351,
愛知県,名古屋市,174,名古屋市守山区大字上志段味字東谷2094番地,東谷山フルーツパークフイッシングコーナー入口東側フェンス,35.2508763,137.0490709,
愛知県,名古屋市,175,名古屋市守山区大字上志段味字東谷2110番地,東谷山フルーツパーク北門東側フェンス,35.2524243,137.0489754,
愛知県,名古屋市,176,名古屋市守山区大字上志段味字東谷2109番地,愛知県立大学守山キャンパス東門北側フェンス,35.2535575,137.0466707,
愛知県,名古屋市,177,名古屋市守山区大字上志段味字深田800番地,名古屋市上志段味特定土地区画整理組合事務所 南西フェンス,35.2546515,137.0374144,
愛知県,名古屋市,178,名古屋市守山区大字上志段味字所下1052番地,JAなごや上志段味出張所 西側フェンス北端,35.2561855,137.0390385,
愛知県,名古屋市,179,名古屋市守山区大字上志段味字東谷2109番地の167,南西鉄柵,35.2567842,137.0483533,
愛知県,名古屋市,180,名古屋市守山区大字中志段味字湿ケ1906番地,志中公園東南側フェンス,35.2482878,137.0215518,
愛知県,名古屋市,181,名古屋市守山区大字中志段味字宮前1174番地,中志段味保育園南側正門フェンス,35.2493907,137.0264534,
愛知県,名古屋市,182,名古屋市守山区大字中志段味字吉田洞2911番地の18,志だみ幼稚園南側正門東フェンス東寄り,35.2421953,137.0288794,
愛知県,名古屋市,183,名古屋市守山区大字中志段味字墓前2035番地,JAなごや志段味支店　東側フェンス北寄り,35.2474037,137.0245164,
愛知県,名古屋市,184,名古屋市守山区大字中志段味字唐池462番地の5,唐池公園南入口 西側鉄柵,35.2520585,137.0308,
愛知県,名古屋市,185,名古屋市守山区大字中志段味字南原2645番地,中部紙業株式会社 西側鉄柵,35.2450065,137.0309608,
愛知県,名古屋市,186,名古屋市守山区大字中志段味字二ツ塚2229番地の2,NTT西日本志段味電話交換所南側フェンス,35.2456942,137.0248285,
愛知県,名古屋市,187,名古屋市守山区下志段味一丁目1309,志段味中学校　北西側フェンス,35.2451679,137.0198893,
愛知県,名古屋市,188,名古屋市守山区桜坂一丁目1502,下志段味小学校正門東側フェンス,35.2394625,137.0185542,
愛知県,名古屋市,189,名古屋市守山区下志段味一丁目4003,（有）やまひろ東側フェンス南寄り,35.2430365,137.0240447,
愛知県,名古屋市,190,名古屋市守山区下志段味五丁目,しだみ中央公園　北側西寄り鉄柵,35.2497609,137.0177535,
愛知県,名古屋市,191,名古屋市守山区桜坂五丁目105番地,志段味スポーツランド内体育館 南側フェンス,35.2343914,137.0166741,
愛知県,名古屋市,192,名古屋市守山区桜坂二丁目3101,なごやサイエンスパーク研究開発センター理化学研究所棟北側敷地境界フェンス,35.2398295,137.0236799,
愛知県,名古屋市,193,名古屋市守山区下志段味一丁目1401番地,志段味支所 東側植込み柵 南寄り,35.2435142,137.0215879,
愛知県,名古屋市,194,名古屋市守山区下志段味一丁目1309,志段味中学校　南側フェンス,35.2440978,137.0201038,
愛知県,名古屋市,195,名古屋市守山区青山台502番地,masked,35.2288073,137.016381,
愛知県,名古屋市,196,名古屋市守山区百合が丘1201番地,上下水道局吉根配水塔北側フェンス,35.2278459,137.012469,
愛知県,名古屋市,197,名古屋市守山区泉が丘,日ノ後池公園　東側鉄柵,35.2351536,137.0141189,
愛知県,名古屋市,198,名古屋市守山区深沢一丁目703番地,東邦ガス　守山吉根中Ａガバナ　西側フェンス,35.2376949,137.0028406,
愛知県,名古屋市,199,名古屋市守山区平池東1番地,イオン守山店東側歩道鉄柵,35.2354769,137.0050799,
愛知県,名古屋市,200,名古屋市守山区平池東308番地,ジェームス守山吉根店 北側フェンス西寄り,35.23719,137.0066232,
愛知県,名古屋市,201,名古屋市守山区深沢二丁目177番地,志段味西小学校　正門東側フェンス,35.2388178,137.0100056,
愛知県,名古屋市,202,名古屋市守山区青山台502番地,masked,35.2304434,137.0160585,
愛知県,名古屋市,203,名古屋市守山区吉根一丁目1601番地,吉根小学校北門東側フェンス,35.2346978,136.9973089,
愛知県,名古屋市,204,名古屋市守山区吉根一丁目1601番地,吉根小学校南側フェンス,35.2337267,136.9976516,
愛知県,名古屋市,205,名古屋市守山区吉根三丁目,吉根公園　西側鉄柵,35.2386747,136.9990553,
愛知県,名古屋市,206,名古屋市守山区桔梗平一丁目10番地,県道名古屋多治見線「吉根階子田」信号北歩道鉄柵,35.2288383,136.9951074,
愛知県,名古屋市,207,名古屋市守山区桔梗平一丁目2507,ミニストップ吉根店北側フェンス西寄り,35.2307312,136.996173,
愛知県,名古屋市,208,名古屋市守山区桔梗平二丁目205番地,中部電力北豊田名北線第48号鉄塔フェンス西側,35.2317533,136.9940722,
愛知県,名古屋市,209,名古屋市守山区吉根二丁目203番地,ＪＡなごや志段味支店吉根出張所南側鉄柵,35.23482,136.9996566,
愛知県,名古屋市,1,名古屋市昭和区滝川町31,聖霊病院駐車場フェンス,35.1444348,136.9557334,
愛知県,名古屋市,2,名古屋市昭和区滝川町18-3,コナミスポーツクラブいりなか東面フェンス,35.1448829,136.9585116,
愛知県,名古屋市,3,名古屋市昭和区滝川町36,愛知県立総合看護専門学校正門東側フェンス,35.1436154,136.9601392,
愛知県,名古屋市,4,名古屋市昭和区滝川町131,滝川小学校東隣駐車場北面フェンス,35.1446013,136.9610483,
愛知県,名古屋市,5,名古屋市昭和区山手通4-17,masked,35.1408278,136.9667592,
愛知県,名古屋市,6,名古屋市昭和区妙見町110,浄昇寺北面フェンス,35.1441166,136.9673884,
愛知県,名古屋市,7,名古屋市昭和区八事富士見807,八事富士見公園西面柵,35.1455829,136.9694168,
愛知県,名古屋市,8,名古屋市昭和区妙見町22,,35.1462771,136.9682615,
愛知県,名古屋市,9,名古屋市昭和区高峯町133,高峯第一公園北面フェンス,35.1482995,136.9687052,
愛知県,名古屋市,10,名古屋市昭和区高峯町165,名古屋大学国際嚶鳴館北側フェンス,35.1480088,136.9654195,
愛知県,名古屋市,11,名古屋市昭和区楽園町45-1,南山大学グラウンド西面南寄りフェンス,35.1486463,136.9608316,
愛知県,名古屋市,12,名古屋市昭和区楽園町93,川名中学校西面フェンス,35.150109,136.9567387,
愛知県,名古屋市,13,名古屋市昭和区川名山町122,中京高校北東面フェンス,35.1473054,136.9558135,
愛知県,名古屋市,14,名古屋市昭和区楽園町93,川名中学校南面フェンス,35.1496288,136.9572617,
愛知県,名古屋市,15,名古屋市昭和区楽園町93,川名中学校東面フェンス,35.1491046,136.9588522,
愛知県,名古屋市,16,名古屋市昭和区南山町14,南山幼稚園北面フェンス,35.1391092,136.9540222,
愛知県,名古屋市,17,名古屋市昭和区南山町14,南山幼稚園東面フェンス,35.138914,136.9540088,
愛知県,名古屋市,18,名古屋市昭和区南山町5,南山ルンビニー園駐車場東面フェンス,35.1400333,136.9562974,
愛知県,名古屋市,19,名古屋市昭和区広路町字梅園8-1,パンのトラ八事店西面フェンス,35.1361814,136.9564801,
愛知県,名古屋市,20,名古屋市昭和区広路町字石坂4-11,八事換気口用地北面フェンス,35.1382463,136.9622515,
愛知県,名古屋市,21,名古屋市昭和区隼人町4,隼人池公園北東面フェンス,35.141747,136.9571519,
愛知県,名古屋市,22,名古屋市昭和区隼人町4,隼人池公園西面フェンス,35.1412623,136.9558162,
愛知県,名古屋市,23,名古屋市昭和区駒方町4-4,法音寺東側駐車場南面フェンス,35.146002,136.9517227,
愛知県,名古屋市,24,名古屋市昭和区駒方町3-23,駒方中学校北面フェンス,35.1457184,136.9503316,
愛知県,名古屋市,25,名古屋市昭和区駒方町3-23,駒方中学校西面フェンス,35.1455539,136.9490415,
愛知県,名古屋市,26,名古屋市昭和区五軒家町25,八事小学校東面フェンス,35.1417169,136.950395,
愛知県,名古屋市,27,名古屋市昭和区五軒家町25,八事小学校南面フェンス,35.1410436,136.9497996,
愛知県,名古屋市,28,名古屋市昭和区五軒家町25,八事小学校西面フェンス,35.1417959,136.9498613,
愛知県,名古屋市,29,名古屋市昭和区隼人町17,南山中学・高等学校女子部北面フェンス,35.142177,136.9545118,
愛知県,名古屋市,30,名古屋市昭和区八雲町150,南山大学グラウンド　西面北寄りフェンス,35.1502681,136.9605536,
愛知県,名古屋市,31,名古屋市昭和区八雲町150,南山大学　北面フェンス,35.1512834,136.9615675,
愛知県,名古屋市,32,名古屋市昭和区福原町2-39-3,福原公園東面入口左柵,35.156709,136.9608123,
愛知県,名古屋市,33,名古屋市昭和区神村町1-19,,35.1581632,136.9578912,
愛知県,名古屋市,34,名古屋市昭和区伊勝町2-100,伊勝小学校東面北寄りフェンス,35.1551332,136.9589365,
愛知県,名古屋市,35,名古屋市昭和区伊勝町2-100,伊勝小学校東面南寄りフェンス,35.1542516,136.9590679,
愛知県,名古屋市,36,名古屋市昭和区前山町1-19,つばめ自動車アパート東面フェンス,35.1532323,136.9558039,
愛知県,名古屋市,37,名古屋市昭和区西畑町73-1,西畑どんぐり広場東面フェンス,35.1553765,136.9537179,
愛知県,名古屋市,38,名古屋市昭和区川原通4-10,昭和土木事務所南面フェンス,35.1538624,136.9507885,
愛知県,名古屋市,39,名古屋市昭和区川原通5-6,マックスバリュ川原店南東側フェンス,35.1527147,136.9501808,
愛知県,名古屋市,40,名古屋市昭和区向山町1-52‐3,川原コミュニティーセンター東面フェンス,35.1509845,136.952809,
愛知県,名古屋市,41,名古屋市昭和区向山町1-54,昭和荘保育園北西面フェンス,35.150842,136.9528603,
愛知県,名古屋市,42,名古屋市昭和区向山町1-54,昭和荘母子生活支援施設西面フェンス,35.1502455,136.9532613,
愛知県,名古屋市,43,名古屋市昭和区花見通1-95-3,花見緑地西面植込み,35.1490316,136.9511509,
愛知県,名古屋市,44,名古屋市昭和区川原通2-1‐2,川原公園東面フェンス,35.1561355,136.9517105,
愛知県,名古屋市,45,名古屋市昭和区田面町1-46,上下水道局災害用機材倉庫南面フェンス,35.1576426,136.9543656,
愛知県,名古屋市,46,名古屋市昭和区萩原町2-1,川原小学校西面フェンス,35.1573373,136.9493593,
愛知県,名古屋市,47,名古屋市昭和区萩原町2-1,川原小学校北面フェンス,35.1570193,136.9505891,
愛知県,名古屋市,48,名古屋市昭和区萩原町2-1,川原小学校南面フェンス,35.1562299,136.9501372,
愛知県,名古屋市,49,名古屋市昭和区折戸町4-16,児童福祉センターくすのき学園西面フェンス,35.1557148,136.9453714,
愛知県,名古屋市,50,名古屋市昭和区安田通4-8,東海農政局安田庁舎南面フェンス,35.1546763,136.9447572,
愛知県,名古屋市,51,名古屋市昭和区安田通4-8,東海農政局安田庁舎西面フェンス,35.1549285,136.9447626,
愛知県,名古屋市,52,名古屋市昭和区檀溪通2-6,中部電力山中町変電所東面柵,35.1460742,136.9464358,
愛知県,名古屋市,53,名古屋市昭和区広路通8-17-3,川名換気口用地南面フェンス,35.1486274,136.9500296,
愛知県,名古屋市,54,名古屋市昭和区広路通7-7,三十三銀行広路支店東面フェンス,35.1491352,136.9477122,
愛知県,名古屋市,55,名古屋市昭和区川原通8-21,広路小学校東面フェンス,35.1504961,136.9484779,
愛知県,名古屋市,56,名古屋市昭和区川原通8-21,広路小学校西面フェンス,35.1505772,136.9477242,
愛知県,名古屋市,57,名古屋市昭和区川名本町4-24-7,太平寺南面フェンス,35.1495601,136.9431912,
愛知県,名古屋市,58,名古屋市昭和区川名本町4-4,川原神社東面塀,35.1508981,136.9447817,
愛知県,名古屋市,59,名古屋市昭和区川名町3-4,広路公園北面植込み,35.1541273,136.9426084,
愛知県,名古屋市,60,名古屋市昭和区川名町1-29,,35.1551598,136.9407185,
愛知県,名古屋市,61,名古屋市昭和区川名町2-4-1,川名西公園北面植込み,35.1552017,136.9419196,
愛知県,名古屋市,62,名古屋市昭和区川名町2-4-1,川名西公園南面フェンス前植込み,35.1550065,136.9418311,
愛知県,名古屋市,63,名古屋市昭和区川名本町2-6,,35.1531611,136.9406302,
愛知県,名古屋市,64,名古屋市昭和区広瀬町3-21,㈱スキヨ人形研究所南面フェンス,35.1536699,136.9378789,
愛知県,名古屋市,65,名古屋市昭和区川名本町3-47,,35.1510948,136.94217,
愛知県,名古屋市,66,名古屋市昭和区長戸町2-1,松栄小学校北面フェンス,35.145469,136.9399174,
愛知県,名古屋市,67,名古屋市昭和区長戸町2-1,松栄小学校東面フェンス,35.1450347,136.9404646,
愛知県,名古屋市,68,名古屋市昭和区南分町3-51,,35.1458204,136.9417824,
愛知県,名古屋市,69,名古屋市昭和区広路本町2-37,名古屋国際高等学校駐車場南面フェンス,35.1473627,136.9395451,
愛知県,名古屋市,70,名古屋市昭和区長池町3-23,長池東どんぐり広場東面フェンス,35.1432913,136.9418631,
愛知県,名古屋市,71,名古屋市昭和区塩付通5-9,三和どんぐり広場東面フェンス,35.1449318,136.9379296,
愛知県,名古屋市,72,名古屋市昭和区檀渓通3-8,ﾗｲｵﾝｽﾞﾏﾝｼｮﾝ檀渓通北駐車場東面ﾌｪﾝｽ,35.1439709,136.9456314,
愛知県,名古屋市,73,名古屋市昭和区阿由知通3-19,昭和区役所正面玄関横,35.1502246,136.9339088,
愛知県,名古屋市,74,名古屋市昭和区若柳町3‐7,市営松風荘南西面フェンス,35.1452704,136.9352139,
愛知県,名古屋市,75,名古屋市昭和区塩付通3-1-5,サンマンション御器所東面フェンス,35.148612,136.9382882,
愛知県,名古屋市,76,名古屋市昭和区塩付通3-1-5,サンマンション御器所西面フェンス,35.1486186,136.9369579,
愛知県,名古屋市,77,名古屋市昭和区御器所通3-17,青雲寮東面フェンス,35.1498174,136.9366795,
愛知県,名古屋市,78,名古屋市昭和区台町3-9,masked,35.147908,136.9354772,
愛知県,名古屋市,79,名古屋市昭和区緑町3-27-1,masked,35.1502609,136.9376993,
愛知県,名古屋市,80,名古屋市昭和区緑町3-17,パイロットインキ工場南面フェンス,35.1504209,136.9358988,
愛知県,名古屋市,81,名古屋市昭和区陶生町2-15,名古屋大学陶生町宿舎南面フェンス,35.1414999,136.935979,
愛知県,名古屋市,82,名古屋市昭和区菊園町1-12,市営菊園荘北東面フェンス,35.1384313,136.9374723,
愛知県,名古屋市,84,名古屋市昭和区菊園町6丁目22番地先,石川橋南側柵,35.1383406,136.9442817,
愛知県,名古屋市,85,名古屋市昭和区菊園町2-24-1,菊園公園北側フェンス,35.1384972,136.9397274,
愛知県,名古屋市,86,名古屋市昭和区菊園町1-12,市営菊園荘北西面フェンス,35.1384248,136.9371692,
愛知県,名古屋市,87,名古屋市昭和区塩付通6丁目51-1,藤成神明社北川柵,35.142012,136.9377756,
愛知県,名古屋市,88,名古屋市昭和区北山町3-9-2,みちる幼稚園南面フェンス,35.1525912,136.9358956,
愛知県,名古屋市,89,名古屋市昭和区北山町２－１,市営北山荘北面植込,35.1539107,136.931236,
愛知県,名古屋市,90,名古屋市昭和区鶴羽町1-9-1,吹上コミュニティセンター西面植込,35.1530459,136.9281773,
愛知県,名古屋市,91,名古屋市昭和区北山本町2-40,北山本町公園北面植込み,35.1540344,136.9281894,
愛知県,名古屋市,92,名古屋市昭和区緑町1-8,桜花学園高等学校資料センター北面フェンス,35.1516008,136.9280729,
愛知県,名古屋市,93,名古屋市昭和区緑町1-15,桜花学園高等学校チェリープラザ西面コンクリート塀,35.1519661,136.9288843,
愛知県,名古屋市,94,名古屋市昭和区緑町1-7,桜花学園高等学校北門西コンクリート塀,35.1522868,136.9280307,
愛知県,名古屋市,95,名古屋市昭和区阿由知通1-8,ｸﾚｰﾙTAKESHIN北隣駐車場北面フェンス,35.157236,136.9345363,
愛知県,名古屋市,96,名古屋市昭和区吹上二丁目15,吹上公園南面植込み,35.156847,136.9307112,
愛知県,名古屋市,97,名古屋市昭和区吹上二丁目603,吹上公園南東面出入口横,35.1571124,136.9315834,
愛知県,名古屋市,98,名古屋市昭和区吹上町1-36-2,masked,35.1558939,136.931142,
愛知県,名古屋市,99,名古屋市昭和区御器所町字吹上102,市バス回転所南面フェンス,35.1576779,136.9283646,
愛知県,名古屋市,100,名古屋市昭和区吹上町1-22,吹上小学校北面フェンス,35.1566785,136.9293364,
愛知県,名古屋市,101,名古屋市昭和区御器所町字吹上102,市バス回転所東面フェンス,35.1578139,136.9286838,
愛知県,名古屋市,102,名古屋市昭和区丸屋町3-15-4,,35.1415175,136.9282924,
愛知県,名古屋市,103,名古屋市昭和区広見町5-57,岡崎信用金庫滝子支店駐車場北面フェンス,35.1405954,136.9301573,
愛知県,名古屋市,104,名古屋市昭和区広池町47,向陽高等学校東面フェンス,35.1434261,136.9292351,
愛知県,名古屋市,105,名古屋市昭和区恵方町2-10-2,masked,35.1447376,136.9313478,
愛知県,名古屋市,106,名古屋市昭和区池端町1-15,桜山中学校北面フェンス,35.1447199,136.9296002,
愛知県,名古屋市,107,名古屋市昭和区広池町47,向陽高等学校北面フェンス,35.1439372,136.9280362,
愛知県,名古屋市,108,名古屋市昭和区池端町1-15,桜山中学校南面フェンス,35.1432065,136.9300239,
愛知県,名古屋市,109,名古屋市昭和区御器所三丁目2401,御器所町公園西面境界柵内側,35.1468929,136.9251167,
愛知県,名古屋市,110,名古屋市昭和区明月町1-32,御器所小学校西面フェンス,35.1471748,136.9283585,
愛知県,名古屋市,111,名古屋市昭和区御器所通2-16-1,御器所コミュニティセンター南面フェンス,35.1489959,136.9315145,
愛知県,名古屋市,112,名古屋市昭和区天神町2-2,masked,35.1481701,136.9297306,
愛知県,名古屋市,113,名古屋市昭和区明月町1-32,御器所小学校東面フェンス,35.1466791,136.9293939,
愛知県,名古屋市,114,名古屋市昭和区明月町1-32,御器所小学校南面フェンス,35.1465563,136.9288521,
愛知県,名古屋市,115,名古屋市昭和区明月町2-53-1,名古屋柳城短期大学体育館前フェンス,35.1466833,136.9326506,
愛知県,名古屋市,116,名古屋市昭和区狭間町14-1,名古屋工業大学南面フェンス,35.1556493,136.9262865,
愛知県,名古屋市,117,名古屋市昭和区鶴舞一丁目101,鶴舞公園庭球場北面フェンス,35.1572101,136.9201995,
愛知県,名古屋市,118,名古屋市昭和区鶴舞二丁目605,小針公園西面柵,35.152326,136.9157629,
愛知県,名古屋市,119,名古屋市昭和区山脇町1-45,鶴舞公園ﾐﾆｽﾎﾟｰﾂ広場西面フェンス,35.1531472,136.9235522,
愛知県,名古屋市,120,名古屋市昭和区鶴舞四丁目311,あおぞらどんぐり広場南面フェンス,35.1520165,136.9241886,
愛知県,名古屋市,121,名古屋市昭和区鶴舞三丁目9-23,北山中学校東門左側フェンス,35.1522156,136.9220801,
愛知県,名古屋市,122,名古屋市昭和区鶴舞三丁目9-23,北山中学校西門右側フェンス,35.1524021,136.9203179,
愛知県,名古屋市,123,名古屋市昭和区円上町14-1,愛知県教科用図書卸商業協同組合西面フェンス,35.1430256,136.9182048,
愛知県,名古屋市,124,名古屋市昭和区円上町18-14,中部電力御器所変電所北面フェンス,35.1425398,136.9202647,
愛知県,名古屋市,125,名古屋市昭和区滝子町17-18,円上中学校北面フェンス,35.1421465,136.9227731,
愛知県,名古屋市,126,名古屋市昭和区滝子町17-18,円上中学校西面フェンス,35.1418109,136.9217458,
愛知県,名古屋市,127,名古屋市昭和区滝子町17-18,円上中学校南門東側フェンス,35.1412078,136.9225156,
愛知県,名古屋市,128,名古屋市昭和区円上町22-38,名古屋工業高等学校南面フェンス,35.1410675,136.9200323,
愛知県,名古屋市,129,名古屋市昭和区滝子町26,三菱UFJ銀行滝子支店駐車場南面フェンス,35.1405078,136.9249991,
愛知県,名古屋市,130,名古屋市昭和区御器所二丁目9-19,尾陽神社南面柵,35.1473367,136.9215716,
愛知県,名古屋市,131,名古屋市昭和区御器所三丁目3201,貸倉庫西面フェンス,35.1462425,136.9236091,
愛知県,名古屋市,132,名古屋市昭和区御器所四丁目1-2,,35.145978,136.9225105,
愛知県,名古屋市,133,名古屋市昭和区村雲町26-16,村雲小学校東面フェンス,35.1449718,136.9221405,
愛知県,名古屋市,134,名古屋市昭和区村雲町26-16,村雲小学校南面フェンス,35.1445858,136.9213358,
愛知県,名古屋市,135,名古屋市昭和区村雲町26-16,村雲小学校西面フェンス,35.1450551,136.9206223,
愛知県,名古屋市,136,名古屋市昭和区村雲町1503,村雲どんぐり広場東面フェンス,35.1459019,136.9194592,
愛知県,名古屋市,137,名古屋市昭和区白金一丁目7-20,中部電力白金調整所西面フェンス,35.1490518,136.9160769,
愛知県,名古屋市,138,名古屋市昭和区福江一丁目10-6,光圓寺北側ブロック塀,35.148774,136.9132535,
愛知県,名古屋市,139,名古屋市昭和区福江一丁目18-19,堀江製凾合板所南面フェンス,35.1468891,136.9112813,
愛知県,名古屋市,140,名古屋市昭和区白金二丁目2-5,白金小学校東面フェンス,35.1466169,136.9162201,
愛知県,名古屋市,141,名古屋市昭和区白金二丁目2-5,白金小学校北面フェンス,35.1469832,136.9152893,
愛知県,名古屋市,143,名古屋市昭和区福江三丁目128,立石橋北東角柵,35.1400722,136.9136858,
愛知県,名古屋市,83,塩付通6-4,晃照寺北面フェンス,35.1440077,136.9375257,
愛知県,名古屋市,142,福江二丁目10-12,昭和環境事業所西側フェンス,35.1446641,136.9118836,
愛知県,名古屋市,1,瑞穂区竹田町１丁目１番地の１,高辻雨水滞水池　東側フェンス,35.139146,136.9196473,
愛知県,名古屋市,2,瑞穂区瑞穂町字山の畑１番地の１,名市大山の畑キャンパス　西側フェンス,35.1381687,136.925061,
愛知県,名古屋市,3,瑞穂区瑞穂町字山の畑１番地の１,名市大山の畑キャンパス　東側フェンス,35.1368976,136.9276359,
愛知県,名古屋市,4,瑞穂区須田町２番５６号,日本ガイシ(株)　東側金網塀,35.1358479,136.918504,
愛知県,名古屋市,5,瑞穂区亀城町２丁目４番地,日本ガイシ(株)みずほ会館　西側コンクリート塀,35.1358424,136.9213514,
愛知県,名古屋市,6,瑞穂区亀城町５丁目４番地の１,市立御剱小学校　東側金網塀,35.1351403,136.9264306,
愛知県,名古屋市,7,瑞穂区高田町３丁目２８番地,市立瑞穂ケ丘中学校　東門北寄金網塀,35.1333939,136.9298255,
愛知県,名古屋市,8,瑞穂区高田町３丁目２８番地,市立瑞穂ケ丘中学校　西通用門南,35.1337196,136.9275207,
愛知県,名古屋市,9,瑞穂区平郷町５丁目１３番地,一之御前神社　東側石塀,35.1321918,136.9259753,
愛知県,名古屋市,10,瑞穂区豆田町５丁目２番地の２,バロー瑞穂店　北側駐車場フェンス,35.1308516,136.9267853,
愛知県,名古屋市,11,瑞穂区宝田町４丁目１番地,市立高田小学校　北側金網塀,35.1297275,136.9241899,
愛知県,名古屋市,12,瑞穂区宝田町４丁目１番地,市立高田小学校　南側金網塀,35.1290628,136.9244957,
愛知県,名古屋市,13,瑞穂区春敲町３丁目１番地の１,私立瑞穂高等学校　東校舎　南側フェンス,35.1280916,136.9231562,
愛知県,名古屋市,14,瑞穂区大喜新町４丁目１番地,中部電力パワーグリット(株)大喜変電所　南側鉄柵塀,35.1274252,136.9251448,
愛知県,名古屋市,15,瑞穂区本願寺町１丁目４８番地,さつまどんぐり広場　西側金網塀,35.1290268,136.9269254,
愛知県,名古屋市,16,瑞穂区牛巻町３番１８号,牛巻団地６号棟　北側植栽前,35.1302685,136.9179827,
愛知県,名古屋市,17,瑞穂区牛巻町３番１８号,牛巻団地４号棟南側柵,35.1291278,136.918436,
愛知県,名古屋市,18,瑞穂区牛巻町７番１号,牛巻公園　南側鉄柵,35.127811,136.9188887,
愛知県,名古屋市,19,瑞穂区直来町１丁目９番地,私立瑞穂高等学校　北校舎　北側金網塀,35.1294902,136.9204179,
愛知県,名古屋市,20,瑞穂区春敲町２丁目１３番地,私立瑞穂高等学校　西体育館　西側コンクリート塀,35.1276873,136.9209109,
愛知県,名古屋市,21,瑞穂区春敲町２丁目１３番地,私立瑞穂高等学校　北側金網塀,35.1279659,136.9224263,
愛知県,名古屋市,22,瑞穂区春敲町２丁目１３番地,私立瑞穂高等学校　東側金網塀,35.1272464,136.9228474,
愛知県,名古屋市,23,瑞穂区田光町１丁目３番地,駐車場　南側フェンス,35.1238813,136.921514,
愛知県,名古屋市,24,瑞穂区下坂町３丁目４６番地,西側板塀,35.1231314,136.9245947,
愛知県,名古屋市,25,瑞穂区惣作町１丁目２番地の２,（株）名古屋銀行堀田支店駐車場  南側フェンス,35.1207063,136.9221521,
愛知県,名古屋市,26,瑞穂区下坂町２丁目３６,KOHAKU駐車場北,35.1225155,136.9217456,
愛知県,名古屋市,27,瑞穂区柳ケ枝町１丁目１３,駐車場　南側フェンス,35.1215056,136.9236207,
愛知県,名古屋市,28,瑞穂区惣作町２丁目２７番地の１,惣作公園　西側金網塀,35.1202477,136.9249898,
愛知県,名古屋市,29,瑞穂区惣作町２丁目２７番地の３,瑞穂生涯学習センター　東側植込み内,35.1201703,136.9260595,
愛知県,名古屋市,30,瑞穂区新開町１６番３５号,市営新開荘　西側フェンス,35.1251696,136.9173101,
愛知県,名古屋市,31,瑞穂区新開町８番１８号,ＮＧＫファインモールド(株)　西側金網塀,35.1250731,136.9183567,
愛知県,名古屋市,32,瑞穂区新開町１９番,新開公園内ゲートボール場　東側金網塀,35.1240531,136.9180857,
愛知県,名古屋市,33,瑞穂区新開町２４番,市営南新開荘１棟西側立体駐車場　西側金網塀,35.1227891,136.9165364,
愛知県,名古屋市,34,瑞穂区新開町２４番１３号,市立堀田小学校　西側金網塀,35.1225753,136.9180649,
愛知県,名古屋市,35,瑞穂区堀田通８丁目２５番地,三菱ＵＦＪ銀行堀田支店駐車場　南側金網塀,35.1213319,136.9213466,
愛知県,名古屋市,36,瑞穂区新開町２４番,市営南新開荘１棟北側立体駐車場　北側金網塀,35.1237368,136.9174712,
愛知県,名古屋市,37,瑞穂区神穂町６番３９号,愛知日野自動車(株)駐車場　南側金網塀,35.1113521,136.9234107,
愛知県,名古屋市,38,瑞穂区河岸一丁目１番３８号,市立穂波小学校　北側金網塀,35.116661,136.9247298,
愛知県,名古屋市,39,瑞穂区神穂町５番１０号,特別養護老人ホーム　オーネスト神穂　北側アルミ柵,35.1142361,136.9244639,
愛知県,名古屋市,40,瑞穂区河岸一丁目１番７３号,中部電力パワーグリット(株)堀田変電所　南側フェンス,35.1147528,136.9233327,
愛知県,名古屋市,41,瑞穂区河岸一丁目９番７号,瑞糧商事(株)駐車場　北側アルミフェンス,35.1146633,136.9266564,
愛知県,名古屋市,42,瑞穂区神穂町６番３９号,愛知日野自動車(株)駐車場　西側金網塀,35.1117695,136.9226919,
愛知県,名古屋市,43,瑞穂区荒崎町９番,浜新公園　北側鉄柵,35.112119,136.9244712,
愛知県,名古屋市,44,瑞穂区桃園町２番２号先,堀田団地２号棟　東側フェンス,35.12013,136.9188565,
愛知県,名古屋市,45,瑞穂区塩入町１３番１１号,瑞穂消防署堀田出張所　西側金網フェンス,35.116779,136.9210034,
愛知県,名古屋市,46,瑞穂区浮島町６番,穂波公園　西側金網フェンス,35.116461,136.9140859,
愛知県,名古屋市,47,瑞穂区内浜町５番１６号,市立田光中学校　北側金網塀,35.1155184,136.9193707,
愛知県,名古屋市,48,瑞穂区内浜町５番１６号,市立田光中学校　南側金網塀,35.1146385,136.91855,
愛知県,名古屋市,49,瑞穂区内浜町５番１６号,市立田光中学校　西側北寄金網塀,35.1153944,136.9183608,
愛知県,名古屋市,50,瑞穂区明前町１０番３９号,ヤマト運輸(株)瑞穂明前センター北側金網塀,35.1129679,136.9200011,
愛知県,名古屋市,51,瑞穂区河岸町４丁目４０番地,河岸どんぐり広場西側フェンス,35.114487,136.9283762,
愛知県,名古屋市,52,瑞穂区土市町１丁目３６番地,土市ポンプ所　西側フェンス,35.1162891,136.9307041,
愛知県,名古屋市,53,瑞穂区土市町１丁目２７番地,土市公園　東側鉄柵,35.116417,136.9315746,
愛知県,名古屋市,54,瑞穂区姫宮町１丁目４６番地,市立井戸田小学校　西側正門南寄金網塀,35.1183447,136.9319625,
愛知県,名古屋市,55,瑞穂区姫宮町１丁目４６番地,市立井戸田小学校　東側金網塀,35.1188406,136.9333505,
愛知県,名古屋市,56,瑞穂区洲山町２丁目２３番地,新瑞橋駅２番出入口　西側側壁,35.118621,136.9363175,
愛知県,名古屋市,57,瑞穂区姫宮町２丁目４８番地,新瑞幼児園　南側フェンス,35.1186777,136.9347975,
愛知県,名古屋市,58,瑞穂区井戸田町４丁目９番地の３,北側ブロック塀,35.1182523,136.9284555,
愛知県,名古屋市,59,瑞穂区白龍町１丁目７０番地,ニチイケアセンター瑞穂　北側金網塀,35.1225907,136.9279986,
愛知県,名古屋市,60,瑞穂区惣作町３丁目３７番地,駐車場　北側金網塀,35.1208238,136.9271265,
愛知県,名古屋市,61,瑞穂区惣作町３丁目２６番地の１,(株)藤千商会倉庫　南側金網塀,35.1210849,136.9292331,
愛知県,名古屋市,62,瑞穂区井戸田町３丁目５番地,北側鉄製塀,35.1196248,136.9292018,
愛知県,名古屋市,63,瑞穂区佃町２丁目１９番地,西側塀,35.1179375,136.9272943,
愛知県,名古屋市,64,瑞穂区惣作町３丁目２６番地の１,(株)藤千商会倉庫　西側金網塀,35.121142,136.92915,
愛知県,名古屋市,65,瑞穂区牧町１丁目７番地,宝来荘　南側フェンス,35.1272914,136.9311946,
愛知県,名古屋市,66,瑞穂区牧町２丁目１４番地,水野クリニック東隣庭園　南側鉄柵塀,35.1275535,136.9345915,
愛知県,名古屋市,67,瑞穂区豊岡通２丁目２２番地,市立瑞穂小学校　南側金網塀,35.1255929,136.9327662,
愛知県,名古屋市,68,瑞穂区牧町２丁目４６番地,市立瑞穂小学校　東側金網塀,35.1258562,136.9330999,
愛知県,名古屋市,69,瑞穂区瑞穂通５丁目２４,瑞穂運動場西駅４番出入口　西側側壁,35.1240843,136.9354938,
愛知県,名古屋市,70,瑞穂区神前町１丁目１０番地,東側フェンス,35.1217922,136.9314646,
愛知県,名古屋市,71,瑞穂区甲山町１丁目11,若葉保育園　駐車場,35.1241515,136.9341723,
愛知県,名古屋市,72,瑞穂区大喜町１丁目５番地の６,市営大喜荘　西側金網塀,35.1261238,136.9235587,
愛知県,名古屋市,73,瑞穂区大喜町１丁目５番地の８,大喜公園　西側鉄柵,35.1246922,136.9233988,
愛知県,名古屋市,74,瑞穂区田光町３丁目６番地の１,市営田光荘　集会所南側フェンス,35.124326,136.9274334,
愛知県,名古屋市,75,瑞穂区白龍町３丁目５番地,西側フェンス,35.1230766,136.9290448,
愛知県,名古屋市,76,瑞穂区田光町３丁目３０番地,白竜幼稚園　北側フェンス,35.1243681,136.9296048,
愛知県,名古屋市,77,瑞穂区津賀田町１丁目３８番地,市立津賀田中学校　北側金網塀,35.1254171,136.9303288,
愛知県,名古屋市,78,瑞穂区津賀田町１丁目３８番地,市立津賀田中学校　南側金網塀,35.1244941,136.9313674,
愛知県,名古屋市,79,瑞穂区北原町２丁目１番地,県立瑞陵高等学校　西側金網塀,35.1324463,136.9296575,
愛知県,名古屋市,80,瑞穂区北原町２丁目１番地,県立瑞陵高等学校　南側正門東寄金網塀,35.1315668,136.9309925,
愛知県,名古屋市,81,瑞穂区北原町３丁目１７番地,瑞穂消防署本署　南側フェンス,35.1312512,136.9336526,
愛知県,名古屋市,82,瑞穂区本願寺町２丁目３５番地,駐車場　南側金網塀,35.128966,136.930454,
愛知県,名古屋市,83,瑞穂区本願寺町２丁目１４番地,喫茶甚六駐車場　東側金網塀,35.1294025,136.9307451,
愛知県,名古屋市,84,瑞穂区本願寺町３丁目２４番地,本願寺公園　北側フェンス,35.1290215,136.9326596,
愛知県,名古屋市,85,瑞穂区本願寺町３丁目１１番地,市営瑞穂荘　西側フェンス,35.1293153,136.9335089,
愛知県,名古屋市,86,瑞穂区萩山町３丁目６８番地,瑞穂運動場　屋外プール南側広場柵,35.1254728,136.9428052,
愛知県,名古屋市,87,瑞穂区十六町１丁目１４番地,名古屋葵大学南７号館　南側鉄柵,35.1294928,136.9372937,
愛知県,名古屋市,88,瑞穂区萩山町１丁目２２番地,瑞穂福祉会館　東側金網塀,35.1307182,136.9427448,
愛知県,名古屋市,89,瑞穂区膳棚町３丁目６０番地,市立豊岡小学校　北側金属製フェンス,35.1242818,136.9396783,
愛知県,名古屋市,90,瑞穂区膳棚町３丁目６０番地,市立豊岡小学校　東側金属製フェンス,35.1238463,136.9404508,
愛知県,名古屋市,91,瑞穂区石田町２丁目１番地,中部電力パワーグリット(株)瑞穂変電所　西側金網塀,35.1217696,136.9385135,
愛知県,名古屋市,92,瑞穂区豊岡通３丁目２９番地,豊岡コミュニティセンター　西側フェンス,35.1215212,136.9408681,
愛知県,名古屋市,93,瑞穂区洲山町１丁目８番地,瑞穂ヶ丘公園　東側金網塀,35.1197604,136.9387244,
愛知県,名古屋市,94,瑞穂区田辺通５丁目２０－１,山下バス回転場所　北側フェンス,35.1242479,136.9472192,
愛知県,名古屋市,95,瑞穂区茨木町１２番地,茨木第二公園　東側鉄柵,35.1258323,136.9593192,
愛知県,名古屋市,96,瑞穂区日向町４丁目２３番地の１,市立弥富小学校　正門北側金網塀,35.1198111,136.9506752,
愛知県,名古屋市,97,瑞穂区日向町４丁目２３番地の１,市立弥富小学校　北門西寄金網塀,35.1204045,136.9519212,
愛知県,名古屋市,98,瑞穂区弥富ケ丘町３丁目４２番地,弥富公園　北東側鉄柵,35.1229222,136.9547429,
愛知県,名古屋市,99,瑞穂区日向町５丁目２８番地の２,お茶の花子ども園運動場　南側金網塀,35.1198883,136.9557212,
愛知県,名古屋市,100,瑞穂区玉水町１丁目１８番地,県立昭和高等学校　南側金網フェンス,35.1205719,136.9606197,
愛知県,名古屋市,101,瑞穂区玉水町１丁目１８番地,県立昭和高等学校　西側金網フェンス,35.1220901,136.9596635,
愛知県,名古屋市,102,瑞穂区田辺通５丁目１１番地の１,瑞穂運動場東駅第１駐輪場　南側金網フェンス,35.1219089,136.9475134,
愛知県,名古屋市,103,瑞穂区松園町１丁目４９番地,フジパングループ本社(株)　西駐車場　南側東寄金網塀,35.1188024,136.9429471,
愛知県,名古屋市,104,瑞穂区市丘町１丁目４８番地,市立萩山中学校　西門南寄金網塀,35.1191777,136.944591,
愛知県,名古屋市,105,瑞穂区市丘町１丁目４８番地,市立萩山中学校　北門東寄金網塀,35.1199477,136.9461252,
愛知県,名古屋市,106,瑞穂区市丘町１丁目４８番地,市立萩山中学校　南門東寄金網塀,35.1189813,136.94616,
愛知県,名古屋市,107,瑞穂区市丘町１丁目６８番地,東側コンクリート塀,35.1182814,136.947307,
愛知県,名古屋市,108,瑞穂区市丘町２丁目５１番地,西側金網塀,35.1192752,136.9490588,
愛知県,名古屋市,109,瑞穂区白砂町４丁目３８番地,西側フェンス,35.1169827,136.9582752,
愛知県,名古屋市,110,瑞穂区中根町３丁目８８番地,カミングホーム瑞穂新館 東側フェンス,35.1167792,136.9556222,
愛知県,名古屋市,111,瑞穂区中根町３丁目４２番地,東八幡社　南側石柵,35.1164885,136.9538938,
愛知県,名古屋市,112,瑞穂区井の元町５０番地,市立中根小学校　西門北寄金網塀,35.1141968,136.9547085,
愛知県,名古屋市,113,瑞穂区井の元町５０番地,市立中根小学校　東門北寄金網塀,35.1145275,136.9563219,
愛知県,名古屋市,114,瑞穂区井の元町１４０番地,(有)名栄楽器運送倉庫　北側フェンス,35.1151922,136.9586666,
愛知県,名古屋市,115,瑞穂区白砂町４丁目１４４番地,中根公園　西側南寄柵,35.1162906,136.9613046,
愛知県,名古屋市,116,瑞穂区白砂町４丁目１４４番地の1,中根コミュニティセンター　北側フェンス,35.117657,136.9609566,
愛知県,名古屋市,117,瑞穂区軍水町１丁目５０番地の３,鉄塔　西側フェンス,35.1152999,136.9447988,
愛知県,名古屋市,118,瑞穂区仁所町１丁目１６番地,北側フェンス,35.1172025,136.9473576,
愛知県,名古屋市,119,瑞穂区関取町８９番地,(株）リアル　北側金網塀,35.1133852,136.9512822,
愛知県,名古屋市,120,瑞穂区仁所町２丁目７３番地,仁所公園　南側鉄柵,35.1154355,136.9497907,
愛知県,名古屋市,121,瑞穂区丸根町２丁目６３番地,西側フェンス,35.1142616,136.9507961,
愛知県,名古屋市,122,瑞穂区軍水町１丁目５４番地の２,市立軍水保育園　南側フェンス,35.1143608,136.9454785,
愛知県,名古屋市,123,瑞穂区軍水町３丁目１８番地,西側フェンス,35.1142814,136.9487491,
愛知県,名古屋市,124,瑞穂区春山町６番地の５,市営春山荘５棟　東側フェンス,35.1341016,136.9540892,
愛知県,名古屋市,125,瑞穂区弥富町字緑ケ岡２１番地,緑ヶ岡公園　北側鉄柵,35.1364982,136.9554122,
愛知県,名古屋市,126,瑞穂区弥富町字緑ケ岡９番地の１,市営新緑ヶ岡荘１棟　北側金網塀,35.1348164,136.9560501,
愛知県,名古屋市,127,瑞穂区弥富町字上山１７８番地の４,総合リハビリセンター北自転車駐車場　東側金網フェンス,35.1308539,136.9545851,
愛知県,名古屋市,128,瑞穂区弥富町字密柑山１番地の２,総合リハビリセンター駅１番出入口　北側側壁,35.1299421,136.9537936,
愛知県,名古屋市,129,瑞穂区弥富町字密柑山１番地の４,名古屋市ひばり荘駐車場 　西側金網塀,35.127992,136.951652,
愛知県,名古屋市,130,瑞穂区弥富町字密柑山１番地の３,密柑山公園　東側金網塀,35.127613,136.9520952,
愛知県,名古屋市,131,瑞穂区柏木町１丁目９番地,柏木公園　北側鉄柵,35.1284705,136.9576659,
愛知県,名古屋市,132,瑞穂区松栄町２丁目４６番地,市営開道荘　西側フェンス,35.1331055,136.9483738,
愛知県,名古屋市,133,瑞穂区下山町１丁目４番地,市営下山荘　南側フェンス,35.1295532,136.9475922,
愛知県,名古屋市,134,瑞穂区密柑山町１丁目１番地,市立陽明小学校　北側金網塀,35.1318841,136.9470771,
愛知県,名古屋市,135,瑞穂区密柑山町１丁目１番地,市立陽明小学校　東門北寄金網塀,35.13169,136.9480066,
愛知県,名古屋市,136,瑞穂区田辺通３丁目１番地,名市大薬学部　北側バス停前アルミ柵,35.1315447,136.9448828,
愛知県,名古屋市,137,瑞穂区田辺通３丁目１番地,名市大薬学部　研究棟東側鉄柵,35.130619,136.9452181,
愛知県,名古屋市,138,瑞穂区田辺通３丁目４５番地の２,瑞穂保健センター　西側金網塀,35.129257,136.9455644,
愛知県,名古屋市,139,瑞穂区田辺通４丁目８番地の３,市営新田辺荘２号棟　東側フェンス,35.1263005,136.9459912,
愛知県,名古屋市,140,瑞穂区川澄町３丁目２５番地の２,博物館バス回転場　東側コンクリート塀,35.1367156,136.9354309,
愛知県,名古屋市,141,瑞穂区佐渡町５丁目７番地の４,佐渡公園南側鉄柵,35.1303448,136.9365521,
愛知県,名古屋市,142,瑞穂区東栄町５丁目１８番地,八幡社　西側石柵,35.1337829,136.9362692,
愛知県,名古屋市,143,瑞穂区御莨町１丁目２番地,市立汐路小学校　西側金網塀,35.1348207,136.9392101,
愛知県,名古屋市,144,瑞穂区御莨町１丁目２番地,市立汐路小学校　東側金網塀,35.1349665,136.9404943,
愛知県,名古屋市,145,瑞穂区御莨町４丁目１６,市立汐路中学校北側フェンス,35.1342195,136.9416536,
愛知県,名古屋市,146,瑞穂区大殿町２丁目７番地の４,ニチイのほほえみ石川橋　南側アルミフェンス,35.1328251,136.941207,
愛知県,名古屋市,147,瑞穂区東栄町５丁目２４番地の１,東栄公園　北側金網塀,35.1342494,136.9352946,
愛知県,名古屋市,148,瑞穂区瑞穂通２丁目１４,NTT西日本　瑞穂ビル　西側フェンス,35.1337095,136.9334629,
愛知県,名古屋市,149,瑞穂区中山町２丁目５番地,中山神明社　南側東寄り石柱,35.1387967,136.9286964,
愛知県,名古屋市,150,瑞穂区洲雲町４丁目６８番地の２,山路整形外科専用駐車場　南側金網塀,35.1389061,136.9314102,
愛知県,名古屋市,151,瑞穂区駒場町５丁目８番地の２,中部電力パワーグリット(株)駒場変電所　西側金属塀,35.1371584,136.9321386,
愛知県,名古屋市,152,瑞穂区高田町２丁目５番地,みずほが丘幼稚園　西側プール裏鉄柵塀,35.1353548,136.9293397,
愛知県,名古屋市,153,瑞穂区駒場町７丁目１７番地,熱田雲見会祖霊殿　南側コンクリート塀,35.1355868,136.9313941,
愛知県,名古屋市,154,瑞穂区高田町５丁目１９番地,社会福祉法人あいうえおハウス　北側フェンス,35.1334364,136.9327936,
愛知県,名古屋市,155,瑞穂区瑞穂通３丁目３２番地,瑞穂区役所　南側柵,35.1311352,136.9348964,
愛知県,名古屋市,1,西区那古野二丁目１５番１号,第三幼稚園,35.1757515,136.8873141,
愛知県,名古屋市,2,西区那古野二丁目１５番１号,第三幼稚園,35.1764618,136.8871129,
愛知県,名古屋市,3,西区那古野二丁目２６番１６号,名古屋市消防局特別消防隊第二方面隊,35.1751871,136.8861663,
愛知県,名古屋市,4,西区名駅二丁目３１０１番,早苗公園,35.1760685,136.88284,
愛知県,名古屋市,5,西区名駅二丁目３１０１番,早苗公園,35.1765278,136.8826067,
愛知県,名古屋市,6,西区那古野二丁目,新道街園,35.1770798,136.8890153,
愛知県,名古屋市,7,西区那古野一丁目２９番３号,浅間神社,35.1738522,136.8919397,
愛知県,名古屋市,8,西区那古野一丁目４０５番,裏塩公園,35.1770053,136.8922301,
愛知県,名古屋市,9,西区幅下二丁目６０２番,みゆき公園,35.1779802,136.8928148,
愛知県,名古屋市,10,西区新道二丁目１３番１７号,ＮＴＴ菊井ビル,35.17905,136.8861446,
愛知県,名古屋市,11,西区幅下一丁目７番１７号,なごや小学校,35.1799696,136.8913985,
愛知県,名古屋市,12,西区新道二丁目１００６番,新道中央公園,35.1796406,136.8875777,
愛知県,名古屋市,13,西区新道一丁目６番３３号,菊井中学校,35.1823679,136.8888259,
愛知県,名古屋市,14,西区幅下一丁目８０１番,幅下公園,35.1811473,136.8922811,
愛知県,名古屋市,15,西区新道一丁目１９番１４号,中部電力パワーグリッド㈱ 六句変電所,35.18362,136.8878575,
愛知県,名古屋市,16,西区名駅二丁目（番地なし）,牛島街園,35.1773883,136.8799071,
愛知県,名古屋市,17,西区菊井一丁目２７０１番,桜木公園,35.1822803,136.8839367,
愛知県,名古屋市,18,西区菊井一丁目２７０１番,桜木公園,35.1825039,136.883057,
愛知県,名古屋市,19,西区菊井二丁目１２番３２号,江西国際学園(旧江西小学校),35.180366,136.8840759,
愛知県,名古屋市,20,西区菊井二丁目１２番３２号,江西国際学園(旧江西小学校),35.180287,136.8831801,
愛知県,名古屋市,21,西区菊井二丁目１００１番,江西公園,35.1797515,136.8849613,
愛知県,名古屋市,22,西区名駅二丁目１１０８番,江西町なかよしどんぐり広場,35.1773954,136.8835548,
愛知県,名古屋市,23,西区城西四丁目１０１０番,上宿第二公園,35.1904305,136.8943317,
愛知県,名古屋市,24,西区花の木三丁目１８番１２号,天神山福祉会館,35.1919901,136.887982,
愛知県,名古屋市,25,西区花の木二丁目１８番１号,西区役所,35.1897611,136.8904787,
愛知県,名古屋市,26,西区花の木二丁目１４０１番,花ノ木公園,35.1887516,136.8903846,
愛知県,名古屋市,27,西区城西四丁目２１０１番,新屋敷公園,35.1915517,136.8920291,
愛知県,名古屋市,28,西区城西五丁目２３０１番,深井東公園,35.191452,136.8986386,
愛知県,名古屋市,29,西区城西五丁目１５０１番,山神公園,35.1911298,136.8968334,
愛知県,名古屋市,30,西区数寄屋町６０１番,数寄屋公園,35.1897755,136.8980377,
愛知県,名古屋市,31,西区城西二丁目４番１６号,幅下幼稚園,35.1844482,136.8938345,
愛知県,名古屋市,32,西区城西三丁目８０１番,紙漉公園,35.1874641,136.892096,
愛知県,名古屋市,33,西区城西三丁目１４番２５号,城西小学校,35.1881899,136.8943472,
愛知県,名古屋市,34,西区城西三丁目１４番２５号,城西小学校,35.1882995,136.8957205,
愛知県,名古屋市,35,西区花の木一丁目１５０１番,台所公園,35.1873118,136.8899072,
愛知県,名古屋市,36,西区城西三丁目２０番３０号,名古屋市教育支援センター,35.1892314,136.8929902,
愛知県,名古屋市,37,西区押切二丁目４番,押切第二公園,35.1876456,136.8840549,
愛知県,名古屋市,38,西区押切一丁目１１０１番,榎公園,35.1860819,136.8850404,
愛知県,名古屋市,39,西区押切一丁目１２番２５号,榎小学校,35.1864181,136.8833205,
愛知県,名古屋市,40,西区天神山町１番２４号,西消防署押切出張所,35.1881445,136.8863509,
愛知県,名古屋市,41,西区天神山町６０２番,天神山公園,35.1900608,136.8864311,
愛知県,名古屋市,42,西区天神山町４番７号,県立名古屋西高等学校,35.1900366,136.8835862,
愛知県,名古屋市,43,西区名西二丁目３９番,名西公園,35.188946,136.8804089,
愛知県,名古屋市,44,西区名西一丁目１０３３番３,南押切なかよし公園,35.1872977,136.8805846,
愛知県,名古屋市,45,西区名西一丁目３番１０号,市営南押切荘北-２棟,35.1865667,136.8804723,
愛知県,名古屋市,46,西区則武新町一丁目１０２０番,南押切中央公園,35.1850975,136.8807881,
愛知県,名古屋市,47,西区則武新町二丁目１４番３号,南押切小学校,35.1831493,136.8815248,
愛知県,名古屋市,48,西区則武新町二丁目１７０１番,南押切公園,35.1823884,136.8801819,
愛知県,名古屋市,49,西区則武新町二丁目１４番３号,南押切小学校,35.1833532,136.8805377,
愛知県,名古屋市,50,西区則武新町一丁目１０番,南押切中央公園,35.1846848,136.8809565,
愛知県,名古屋市,51,西区則武新町二丁目２３番,則武新町駐車場,35.1826619,136.8780246,
愛知県,名古屋市,52,西区栄生一丁目２３番,栄生駐車場,35.1849434,136.876928,
愛知県,名古屋市,53,西区栄生一丁目２７番２６号,栄生小学校,35.1844755,136.8751337,
愛知県,名古屋市,54,西区栄生二丁目４１０番,栄生第１自転車駐車場,35.1837324,136.8738215,
愛知県,名古屋市,55,西区栄生二丁目２６番１１号,名鉄病院駐車場,35.1852991,136.8723829,
愛知県,名古屋市,56,西区西区栄生一丁目３番２０号,西文化センター,35.1859053,136.8785746,
愛知県,名古屋市,57,西区栄生二丁目１３番４号,栄生コミュニティセンター,35.1864983,136.8741316,
愛知県,名古屋市,58,西区則武新町二丁目１７０１番,南押切公園,35.1827151,136.879439,
愛知県,名古屋市,59,西区枇杷島二丁目５番３３号,（株）山本運送名古屋営業所,35.1890139,136.8687924,
愛知県,名古屋市,60,西区南堀越二丁目４番７０号,西環境事業所出入口南,35.1987014,136.8758722,
愛知県,名古屋市,61,西区枇杷島一丁目５０１番,枇杷島ｽﾎﾟ-ﾂｾﾝﾀ- 第2駐車場,35.1893824,136.8749592,
愛知県,名古屋市,62,西区枇杷島三丁目１６番３３号,枇杷島小学校,35.1924755,136.8722135,
愛知県,名古屋市,63,西区枇杷島四丁目８番２号,枇杷島幼稚園,35.1936673,136.8735903,
愛知県,名古屋市,64,西区枇杷島一丁目１番,枇杷島公園,35.1891245,136.8734023,
愛知県,名古屋市,65,西区枇杷島四丁目４０１番,白菊公園,35.1927784,136.8743898,
愛知県,名古屋市,66,西区枇杷島五丁目２８０１番,琵琶里公園,35.1956535,136.8786518,
愛知県,名古屋市,67,西区児玉三丁目９０３番,児玉南公園,35.1932342,136.8807613,
愛知県,名古屋市,68,西区万代町２丁目３８番,児玉公園,35.1977197,136.8841217,
愛知県,名古屋市,69,西区天神山町９,押切公園,35.191843,136.8840324,
愛知県,名古屋市,70,西区児玉二丁目２０番６５号,西陵高等学校,35.1952914,136.8860459,
愛知県,名古屋市,71,西区児玉一丁目１５番１２号,浄心中学校,35.1953799,136.8873292,
愛知県,名古屋市,72,西区児玉二丁目３番３３号,児玉小学校,35.1930748,136.8845639,
愛知県,名古屋市,73,西区児玉二丁目３番３３号,児玉小学校,35.1934431,136.8835125,
愛知県,名古屋市,74,西区児玉二丁目２０番６５号,西陵高等学校,35.1957648,136.8838948,
愛知県,名古屋市,75,西区貝田町１丁目８６番地,市営貝田荘,35.2017436,136.8995111,
愛知県,名古屋市,76,西区上名古屋一丁目７０２番,内江公園,35.1935471,136.8994649,
愛知県,名古屋市,77,西区上名古屋四丁目１０１７番,大井建設駐車場,35.1960678,136.8960194,
愛知県,名古屋市,78,西区上名古屋四丁目１４０１番,市営新上名古屋荘,35.1965753,136.898137,
愛知県,名古屋市,79,西区上名古屋四丁目１３番３２号,あかつき保育園,35.1964912,136.89997,
愛知県,名古屋市,80,西区貝田町２丁目１番,貝田公園,35.1997807,136.8982908,
愛知県,名古屋市,81,西区貝田町２丁目１番,貝田公園,35.1994552,136.8979824,
愛知県,名古屋市,82,西区上名古屋二丁目１１６番,あけぼの第２どんぐり広場,35.1929805,136.8959907,
愛知県,名古屋市,83,西区上名古屋三丁目１４番１９号,アーバンネット上名古屋ビル,35.1960954,136.8937384,
愛知県,名古屋市,84,西区上名古屋三丁目３０１番,上名古屋公園,35.1952927,136.8951914,
愛知県,名古屋市,85,西区上名古屋三丁目４番１８号,上名古屋小学校,35.1948585,136.8934795,
愛知県,名古屋市,86,西区上名古屋三丁目４番１８号,上名古屋小学校,35.1944508,136.8940052,
愛知県,名古屋市,87,西区浄心一丁目６番３９号,中部電力パワーグリッド㈱ 浄心変電所,35.1944931,136.8904607,
愛知県,名古屋市,88,西区上名古屋三丁目３０１番,上名古屋公園,35.1945826,136.8952719,
愛知県,名古屋市,89,西区浄心本通３丁目６番,愛知銀行浄心支店駐車場,35.1972125,136.8912136,
愛知県,名古屋市,90,西区上堀越町２丁目７６番,牛島町枇杷島線第１号（鉄塔）,35.2060315,136.8812119,
愛知県,名古屋市,91,西区名塚町４丁目４６番地,宗圓寺,35.2078808,136.8889635,
愛知県,名古屋市,92,西区大金町１丁目２５番先,庄内用水路（島江橋）,35.2035313,136.888097,
愛知県,名古屋市,93,西区大金町５丁目６番,庄内用水路（江股義橋）,35.205049,136.889429,
愛知県,名古屋市,94,西区新福寺町２丁目５番地の１,庄内小学校,35.2062619,136.8846616,
愛知県,名古屋市,95,西区新福寺町２丁目５番地の１,庄内小学校,35.2057228,136.8842083,
愛知県,名古屋市,96,西区上堀越町１丁目３０番,白山神社,35.2055721,136.8820341,
愛知県,名古屋市,97,西区新福寺町２丁目１番地の２,名塚中学校,35.2040105,136.8845673,
愛知県,名古屋市,98,西区新福寺町２丁目１番地の２,名塚中学校,35.2046855,136.8838779,
愛知県,名古屋市,99,西区笹塚町１丁目２１番地,市営笹塚荘3棟,35.2006981,136.8832948,
愛知県,名古屋市,100,西区笹塚町２丁目１番地,名古屋文理大学短期大学部,35.19966,136.8829549,
愛知県,名古屋市,101,西区笹塚町２丁目７番,名古屋文理大学短期大学部駐車場,35.1996629,136.8816717,
愛知県,名古屋市,102,西区堀越二丁目８０４番,堀越公園,35.2027008,136.8792326,
愛知県,名古屋市,103,西区堀越二丁目８０４番,堀越公園,35.2024159,136.8795545,
愛知県,名古屋市,104,西区笠取町４丁目２６番先,庄内用水路（違間瀬橋）,35.200742,136.8857599,
愛知県,名古屋市,105,西区笠取町２丁目８９番地,国風第一幼稚園,35.2000589,136.8894864,
愛知県,名古屋市,106,西区鳥見町４丁目２６番先,名古屋高速道路公社庄内通基地,35.2029624,136.889533,
愛知県,名古屋市,107,西区鳥見町一丁目２１番先,庄内用水路（笈瀬橋南側）,35.2014771,136.8862506,
愛知県,名古屋市,108,西区庄内通２丁目２３番８,名古屋高速道路公社管理地,35.2020042,136.890708,
愛知県,名古屋市,109,西区笠取町３丁目２５番,,35.1994107,136.8867317,
愛知県,名古屋市,110,西区鳥見町４丁目２７番先,庄内用水路（名耕橋北側）,35.2027103,136.8873712,
愛知県,名古屋市,111,西区天塚町１丁目２８番地,あけぼの保育園,35.1993069,136.8957811,
愛知県,名古屋市,112,西区稲生町字杁先２２００番２９,稲生公園,35.2108355,136.8950332,
愛知県,名古屋市,113,西区香呑町２丁目８４番地,稲生小学校,35.2034199,136.8971221,
愛知県,名古屋市,114,西区香呑町２丁目８４番地,稲生小学校,35.2038889,136.8980233,
愛知県,名古屋市,115,西区又穂町３丁目１３番地,ネクスタ株式会社名古屋営業所,35.2045307,136.897046,
愛知県,名古屋市,116,西区稲生町２丁目５番先,庄内用水路(宮前橋東側）,35.2077639,136.8978543,
愛知県,名古屋市,117,西区稲生町３丁目１５番先,庄内用水路(中央橋東側）,35.2080805,136.8957775,
愛知県,名古屋市,118,西区稲生町字杁先２２００番２０２,消防局稲生防火水槽,35.2097109,136.8981586,
愛知県,名古屋市,119,西区江向町4丁目６５番先,庄内用水路（前浪橋東側）,35.2079813,136.8944862,
愛知県,名古屋市,120,西区江向町５丁目２７番,江向公園,35.206752,136.8942982,
愛知県,名古屋市,121,西区稲生町７丁目１３番先,庄内用水路（秋葉橋東側）,35.2080282,136.8933639,
愛知県,名古屋市,122,西区又穂町４丁目５４番地,尾西信用金庫名古屋西支店駐車場,35.2057911,136.8951453,
愛知県,名古屋市,123,西区又穂町５丁目３２番,又穂公園,35.20508,136.8939643,
愛知県,名古屋市,124,西区香呑町４丁目８１番地の１,,35.2032097,136.8948444,
愛知県,名古屋市,125,西区天塚町３丁目５７番２,松前衛生材料（株）管理地駐車場,35.2012918,136.8937565,
愛知県,名古屋市,126,西区赤城町１０６番,赤城公園,35.2233788,136.8887865,
愛知県,名古屋市,127,西区八筋町３５８番地の２,山田支所,35.2216958,136.879994,
愛知県,名古屋市,128,西区五才美町１８５番地,五才美公園,35.2192455,136.8864401,
愛知県,名古屋市,129,西区八筋町３８１番地の１,山田小学校,35.2231144,136.8823675,
愛知県,名古屋市,130,西区五才美町２３６番の１,五町公園,35.2198716,136.8891423,
愛知県,名古屋市,131,西区八筋町７８番地,山田地区会館,35.2214937,136.8847491,
愛知県,名古屋市,132,西区八筋町３０６番,上小田井東自転車駐車場,35.2223863,136.878232,
愛知県,名古屋市,133,西区二方町１９番地の１,山田高等学校,35.2264043,136.8807156,
愛知県,名古屋市,134,西区上小田井一丁目６０番,中浦公園,35.2176653,136.8814266,
愛知県,名古屋市,135,西区上小田井二丁目２５４番,南問屋公園,35.2194017,136.8778919,
愛知県,名古屋市,136,西区上小田井一丁目２番,グリーンプラザ前自転車駐車場,35.215853,136.8862942,
愛知県,名古屋市,137,西区市場木町３９１番,由池公園,35.2178128,136.885621,
愛知県,名古屋市,138,西区上小田井一丁目６９番先,山西用水路,35.2172668,136.8826884,
愛知県,名古屋市,139,西区市場木町３９０,御幸毛織株式会社,35.2167477,136.8864601,
愛知県,名古屋市,140,西区市場木町３６１番地の２,桜井医院駐車場,35.2177204,136.8899261,
愛知県,名古屋市,141,西区見寄町７６番,見寄公園,35.2195346,136.863118,
愛知県,名古屋市,142,西区上橋町１７０番,上橋公園,35.2234993,136.8635686,
愛知県,名古屋市,143,西区西原町８９番１,西原公園,35.2260283,136.8626314,
愛知県,名古屋市,144,西区平出町２１０番,鍛冶公園,35.2288858,136.8699014,
愛知県,名古屋市,145,西区平中町１６８番,平中公園,35.2247053,136.8671558,
愛知県,名古屋市,146,西区城町２０３番,島崎公園,35.2291695,136.8654552,
愛知県,名古屋市,147,西区山木一丁目１番地,平田中学校,35.2204422,136.8679686,
愛知県,名古屋市,148,西区山木二丁目１６７番地,平田学校体育センターグラウンド,35.2258009,136.871266,
愛知県,名古屋市,149,西区比良四丁目３６３番地,石原公園,35.233109,136.9015979,
愛知県,名古屋市,150,西区比良一丁目３０番,境公園,35.2249322,136.8980972,
愛知県,名古屋市,151,西区比良二丁目１７５番地,比良小学校,35.2266088,136.8993072,
愛知県,名古屋市,152,西区比良一丁目３０６番先,蛇池公園,35.225907,136.9028376,
愛知県,名古屋市,153,西区比良三丁目４８５番,天神公園,35.2296297,136.9019998,
愛知県,名古屋市,154,西区比良三丁目１１８番,宮裏公園,35.2297963,136.8984432,
愛知県,名古屋市,155,西区比良四丁目２４番地,なごや農業協同組合山田東支店比良店,35.2312799,136.8990132,
愛知県,名古屋市,156,西区大野木五丁目２２１番先,蛇池公園,35.2233774,136.9025098,
愛知県,名古屋市,157,西区坂井戸町１１７番,坂井戸公園,35.2151005,136.8902211,
愛知県,名古屋市,158,西区宝地町１９９番,宝地公園,35.2238757,136.8939308,
愛知県,名古屋市,159,西区大野木一丁目２４３番,大野木第二公園,35.2163842,136.8938213,
愛知県,名古屋市,160,西区大野木三丁目１７番地,大野木小学校,35.2196982,136.8973141,
愛知県,名古屋市,161,西区大野木三丁目１７番地,大野木小学校,35.2190584,136.8962385,
愛知県,名古屋市,162,西区歌里町２００番,若鈴コンサルタンツ㈱駐車場,35.2194694,136.8932306,
愛知県,名古屋市,163,西区宝地町１０番地,山田東中学校,35.2226706,136.8913558,
愛知県,名古屋市,164,西区長先町１６７番地,八町田公園,35.2199969,136.8595185,
愛知県,名古屋市,165,西区新木町９１番,新木公園,35.2163451,136.8603613,
愛知県,名古屋市,166,西区浮野町９８番地,浮野小学校,35.2279395,136.8574754,
愛知県,名古屋市,167,西区浮野町９７番地の９３,平田荘15棟北駐車場,35.2267966,136.8585944,
愛知県,名古屋市,168,西区中沼町２３５番地,平田荘８棟,35.2252995,136.8581346,
愛知県,名古屋市,169,西区浮野町９８番２,横井公園,35.2274881,136.8589185,
愛知県,名古屋市,170,西区中沼町１７４番,中沼西公園,35.2230105,136.8586897,
愛知県,名古屋市,171,西区清里町６９番地の８６,市営比良荘西１棟,35.230773,136.8925838,
愛知県,名古屋市,172,西区清里町４５６番,作之内公園,35.2321178,136.8968383,
愛知県,名古屋市,173,西区砂原町１８３番,比良西応急給水センター,35.2286169,136.8911734,
愛知県,名古屋市,174,西区砂原町２８７番,立須公園,35.2278457,136.8945477,
愛知県,名古屋市,175,西区花原町８７番,八反公園,35.2258891,136.8937242,
愛知県,名古屋市,176,西区玉池町２７０番,玉塚南公園,35.2277966,136.8879116,
愛知県,名古屋市,177,西区玉池町３４７番地,比良西小学校,35.2296701,136.8900399,
愛知県,名古屋市,178,西区中小田井四丁目７１番４,中小田井西公園,35.2180347,136.8693249,
愛知県,名古屋市,179,西区中小田井五丁目８８番地,県立名古屋特別支援学校,35.2158055,136.8760151,
愛知県,名古屋市,180,西区中小田井五丁目４０５番地,愛知銀行小田井支店,35.2184603,136.8736481,
愛知県,名古屋市,181,西区中小田井四丁目２０２番２,フィールファミリーテーブル駐車場,35.2180434,136.8728241,
愛知県,名古屋市,182,西区中小田井五丁目４５１番,大木曽公園,35.2190004,136.8750924,
愛知県,名古屋市,183,西区中小田井五丁目４７８番１,㈱三菱UFJ銀行小田井支店駐車場,35.2208772,136.8755591,
愛知県,名古屋市,184,西区中小田井四丁目４１５番１,㈱寿美屋駐車場,35.2210761,136.8735859,
愛知県,名古屋市,185,西区こも原町１１２番,こも原公園,35.2085456,136.8615648,
愛知県,名古屋市,186,西区中小田井二丁目１８９番地,中小田井小学校,35.2127587,136.8714118,
愛知県,名古屋市,187,西区中小田井二丁目２７７番１,二之条公園,35.212903,136.8756803,
愛知県,名古屋市,188,西区こも原町１番地,こも原東公園,35.206202,136.8640949,
愛知県,名古屋市,189,西区中小田井二丁目４１８番,中小田井公園,35.2142789,136.8716187,
愛知県,名古屋市,190,西区あし原町３３１番,あし原公園,35.2129562,136.8650857,
愛知県,名古屋市,191,西区中小田井二丁目１０７番,勘堀公園,35.2112441,136.8722873,
愛知県,名古屋市,192,西区中小田井三丁目２６３番,高田公園,35.2148578,136.8676864,
愛知県,名古屋市,1,千種区神田町15番10号,,35.1755665,136.9409721,
愛知県,名古屋市,2,千種区神田町19番9号,,35.1753752,136.9400562,
愛知県,名古屋市,3,千種区松軒一丁目4番9号,大和小学校南側フェンス,35.1788055,136.9386148,
愛知県,名古屋市,4,千種区松軒一丁目4番9号,大和小学校北側フェンス,35.1793448,136.9395429,
愛知県,名古屋市,5,千種区松軒一丁目801番地,大和公園南側フェンス,35.1782442,136.9384664,
愛知県,名古屋市,6,千種区松軒二丁目702番地,松軒公園西側鉄柵,35.1790607,136.9413586,
愛知県,名古屋市,7,千種区豊年町3番18号,都保育園南側フェンス,35.1771952,136.9382559,
愛知県,名古屋市,8,千種区内山一丁目4番15号,内山小学校北側フェンス,35.1745094,136.9373529,
愛知県,名古屋市,9,千種区内山二丁目7番28号,大橋整形外科南側フェンス,35.1727339,136.938371,
愛知県,名古屋市,10,千種区内山一丁目4番15号,内山小学校南側フェンス,35.1736774,136.9374253,
愛知県,名古屋市,11,千種区内山一丁目20番37号,YAMADA web.com千種センター店南側フェンス,35.1719242,136.9353185,
愛知県,名古屋市,12,千種区内山二丁目18番12号,若竹幼稚園南側コンクリート塀,35.1707148,136.9405456,
愛知県,名古屋市,13,千種区豊年町15番12号,内山保育園東側フェンス,0.0,0.0,
愛知県,名古屋市,14,千種区内山一丁目301番地,内山公園東側フェンス,35.1742737,136.9370107,
愛知県,名古屋市,15,千種区内山三丁目34番,市営地下鉄千種駅4番出口南側鉄柵,35.1703682,136.9311853,
愛知県,名古屋市,16,千種区今池二丁目2番20号,ドーミー千種駐車場西側フェンス,35.1676681,136.9299646,
愛知県,名古屋市,17,千種区今池三丁目2507番地,交通局大久手変電所用地駐車場西側フェンス,35.1636672,136.9348171,
愛知県,名古屋市,18,千種区今池二丁目2203番地,今池パーキング北側フェンス,35.1662902,136.9320446,
愛知県,名古屋市,19,千種区今池三丁目14番11号,中部電力パワーグリッド千種変電所東側鉄柵,35.1655219,136.9350743,
愛知県,名古屋市,20,千種区今池三丁目19番1号,今池中学校西側フェンス,35.1657799,136.9324375,
愛知県,名古屋市,21,千種区今池一丁目2701番地,今池公園西側鉄柵,35.1676163,136.9338941,
愛知県,名古屋市,22,千種区今池三丁目19番1号,今池中学校南側フェンス,35.1649675,136.9330503,
愛知県,名古屋市,23,千種区千種一丁目1番52号,千石小学校西側フェンス,35.166374,136.9279148,
愛知県,名古屋市,24,千種区千種二丁目802番地,千種西駐車場出入口フェンス,35.1626394,136.9274483,
愛知県,名古屋市,25,千種区千種一丁目1408番地,第２せんぼんどんぐりひろば東側鉄柵,35.1636277,136.9290415,
愛知県,名古屋市,26,千種区吹上一丁目301番地,花田公園東側鉄柵,35.1598977,136.9245071,
愛知県,名古屋市,27,千種区千種二丁目403番地,高松公園北側鉄柵,35.1634902,136.9271184,
愛知県,名古屋市,28,千種区千種一丁目1番52号,千石小学校北側フェンス,35.1664519,136.9286745,
愛知県,名古屋市,29,千種区千種二丁目24番10号,浩養園東側フェンス,35.1610986,136.9260899,
愛知県,名古屋市,30,千種区千種三丁目2番5号,千種小学校南西側フェンス,35.1624486,136.9333708,
愛知県,名古屋市,31,千種区千種三丁目2番5号,千種小学校南東側フェンス,35.162203,136.9346582,
愛知県,名古屋市,32,千種区千種三丁目2番5号,千種小学校北西側フェンス,35.1627687,136.9335693,
愛知県,名古屋市,33,千種区大久手町5丁目6番地,大久手北どんぐりひろば南西側フェンス,35.1616558,136.9366801,
愛知県,名古屋市,34,千種区千種三丁目2704番地,中道西公園北側鉄柵,35.161523,136.932343,
愛知県,名古屋市,35,千種区千種三丁目402番地,中道公園南側鉄柵,35.1615734,136.9345585,
愛知県,名古屋市,36,千種区千種三丁目402番地,中道公園東側鉄柵,35.1616249,136.9350749,
愛知県,名古屋市,37,千種区春岡通7丁目7番地1,駐車場東側フェンス,35.1566689,136.9389249,
愛知県,名古屋市,38,千種区今池五丁目6番24号,,35.167525,136.9404678,
愛知県,名古屋市,39,千種区今池五丁目24番7号,愛英幼稚園　南側コンクリート塀,35.1661803,136.9374061,
愛知県,名古屋市,40,千種区今池南14番10号,中電不動産　今池寮南側フェンス,35.1641836,136.938463,
愛知県,名古屋市,41,千種区今池南3110番地２,駐車場南側フェンス,35.1624583,136.9378579,
愛知県,名古屋市,42,千種区春岡二丁目5番38号,春岡小学校西側フェンス,35.1644382,136.9419173,
愛知県,名古屋市,43,千種区城木町1丁目34番地,masked,35.160965,136.9422549,
愛知県,名古屋市,44,千種区春岡二丁目207番地,春岡公園北側フェンス,35.1641625,136.9410776,
愛知県,名古屋市,45,千種区今池南26番4号,中日コプロ駐車場西側フェンス,35.1627396,136.9393428,
愛知県,名古屋市,46,千種区池下一丁目5番11号,三喜神社東側フェンス,35.1684527,136.94449,
愛知県,名古屋市,47,千種区高見一丁目7番1号,高見小学校西側フェンス,35.1729374,136.9483447,
愛知県,名古屋市,48,千種区若水三丁目2108番地,竹内米穀店・高見ストア駐車場東側フェンス,35.174237,136.9486255,
愛知県,名古屋市,49,千種区振甫町3丁目32番地,上下水道局東部管路センター西側フェンス,35.1737468,136.9522639,
愛知県,名古屋市,50,千種区振甫町2丁目70番地4,振甫子供園どんぐり広場東側フェンス,35.1750683,136.9519481,
愛知県,名古屋市,51,千種区高見一丁目7番1号,高見小学校東側フェンス,35.1726238,136.9494565,
愛知県,名古屋市,52,千種区若水三丁目2301番地,若水三中の南どんぐり広場西側鉄柵,35.1746316,136.9476666,
愛知県,名古屋市,53,千種区向陽一丁目377番地,名古屋電気学園駐車場西側フェンス,35.1705723,136.9469035,
愛知県,名古屋市,54,千種区仲田二丁目901番地,仲田公園東側鉄柵,35.1709192,136.9416489,
愛知県,名古屋市,55,千種区若水二丁目2番2号,masked,35.1764503,136.9459305,
愛知県,名古屋市,56,千種区若水二丁目6番1号,若水中学校西側フェンス,35.174008,136.9458059,
愛知県,名古屋市,57,千種区若水二丁目6番1号,若水中学校南側フェンス,35.1735585,136.9463075,
愛知県,名古屋市,58,千種区若水一丁目2番23号,東部医療センター南側フェンス,35.1734206,136.9425585,
愛知県,名古屋市,59,千種区若水一丁目102番地,千種公園南側鉄柵,35.1747789,136.9428787,
愛知県,名古屋市,60,千種区若水二丁目6番1号,若水中学校東側フェンス,35.1741022,136.9468868,
愛知県,名古屋市,61,千種区北千種一丁目7番1号,振甫中学校西側フェンス,35.1798468,136.9421534,
愛知県,名古屋市,62,千種区北千種三丁目1番37号,市邨高校南側フェンス,35.1774766,136.9444666,
愛知県,名古屋市,63,千種区北千種二丁目1番10号,名古屋市立大学芸術工学部北側鉄柵,35.1820198,136.9472919,
愛知県,名古屋市,64,千種区北千種一丁目7番1号,振甫中学校東側フェンス,35.1805834,136.9441383,
愛知県,名古屋市,65,千種区萱場二丁目5番25号,masked,35.184316,136.946899,
愛知県,名古屋市,66,千種区北千種一丁目9番1号,masked,35.1777366,136.9423402,
愛知県,名古屋市,67,千種区北千種三丁目2番7号,masked,35.1777161,136.9469522,
愛知県,名古屋市,68,千種区宮の腰町2番2号,宮の腰荘北側フェンス,35.1871106,136.9557134,
愛知県,名古屋市,69,千種区清明山一丁目701番地,清明山第二公園東側フェンス,35.1842735,136.9501675,
愛知県,名古屋市,70,千種区上野二丁目6番1号,上野小学校南側フェンス,35.1796887,136.9524783,
愛知県,名古屋市,71,千種区上野二丁目6番1号,上野小学校北側フェンス,35.1807279,136.9526017,
愛知県,名古屋市,72,千種区上野二丁目1601番地,上野公園北西側鉄柵,35.1791701,136.9525151,
愛知県,名古屋市,73,千種区上野三丁目2番20号,上野幼稚園北側フェンス,35.178897,136.9508249,
愛知県,名古屋市,74,千種区下方町一丁目37番地,下方公園西側アルミニウム柵,35.1818897,136.9542049,
愛知県,名古屋市,75,千種区上野二丁目1601番,上野公園南側鉄柵,35.1787623,136.952845,
愛知県,名古屋市,76,千種区赤坂町2丁目25番地,弁天公園北側鉄柵,35.1817934,136.960873,
愛知県,名古屋市,77,千種区赤坂町2丁目25番地,弁天公園南側鉄柵,35.1812191,136.9604948,
愛知県,名古屋市,78,千種区赤坂町4丁目88番地,天満公園東側鉄柵,35.181028,136.957517,
愛知県,名古屋市,79,千種区赤坂町6丁目30番地,赤坂公園北側鉄柵,35.1793836,136.9575215,
愛知県,名古屋市,80,千種区赤坂町6丁目30番地,赤坂公園西側鉄柵,35.1789363,136.9572319,
愛知県,名古屋市,81,千種区天満通1丁目46番地,天満幼稚園東側鉄柵,35.1804887,136.9558084,
愛知県,名古屋市,82,千種区茶屋が坂一丁目1601番地,出池公園南側鉄柵,35.1853082,136.9615687,
愛知県,名古屋市,83,千種区茶屋が坂二丁目2番,茶屋ヶ坂第２自転車駐輪場西側フェンス,35.1844122,136.9627848,
愛知県,名古屋市,84,千種区御棚町2丁目16番地の1,御棚町パーキング南側フェンス,35.1623689,136.9488797,
愛知県,名古屋市,85,千種区覚王山通９丁目３１番地,千種消防署覚王山出張所南側ﾌｪﾝｽ,35.1659344,136.9495831,
愛知県,名古屋市,86,千種区菊坂町3丁目26番地,椙山女学園大学付属小学校西側鉄柵,35.164824,136.9508195,
愛知県,名古屋市,87,千種区丸山町1丁目35番地,丸山公園北側鉄柵,35.1640244,136.9470861,
愛知県,名古屋市,88,千種区丸山町1丁目82番地,駐車場北側フェンス,35.1638597,136.9477065,
愛知県,名古屋市,89,千種区日進通2丁目18番地,南明公園東側フェンス,35.1613487,136.9442421,
愛知県,名古屋市,90,千種区覚王山通8丁目73番地,池下駅南自転車駐車場南側フェンス,35.1667588,136.9476279,
愛知県,名古屋市,91,千種区西山元町2丁目1番地,西山公園北側鉄柵,35.1702009,136.9519702,
愛知県,名古屋市,92,千種区観月町2丁目41番地,田代小学校南側フェンス,35.1638969,136.9554249,
愛知県,名古屋市,93,千種区山添町2丁目2番地,椙山女学園高等学校南側フェンス,35.1610178,136.9507621,
愛知県,名古屋市,94,千種区観月町2丁目14番地,田代コミュニティセンター北側フェンス,35.1658403,136.9558281,
愛知県,名古屋市,95,千種区観月町2丁目41番地,田代小学校東側フェンス,35.1647871,136.9559721,
愛知県,名古屋市,96,千種区末盛通1丁目19番地1,愛知学院大学歯学部附属病院　教職員駐車場 北側フェンス,35.1664896,136.9547535,
愛知県,名古屋市,97,千種区山添町2丁目2番地,椙山女学園高等学校北側鉄柵,35.1628005,136.9521783,
愛知県,名古屋市,98,千種区田代町字四観音道西5番地5,東山配水場北側フェンス,35.174904,136.9559263,
愛知県,名古屋市,99,千種区末盛通2丁目1番地1,アイカ工業(株)駐車場北側フェンス,35.1670135,136.9554638,
愛知県,名古屋市,100,千種区末盛通3丁目12番地,城山公園南側鉄柵,35.1656251,136.958906,
愛知県,名古屋市,101,千種区穂波町1丁目44番地,東邦ガス整圧所北側フェンス,35.165009,136.9583209,
愛知県,名古屋市,102,千種区西崎町1丁目42番地,城山中学校西側フェンス,35.1624313,136.9587827,
愛知県,名古屋市,103,千種区西崎町2丁目14番地,田代公園西側フェンス,35.1611407,136.9580886,
愛知県,名古屋市,104,千種区西崎町1丁目42番地,城山中学校東側フェンス,35.1618677,136.9600675,
愛知県,名古屋市,105,千種区見附町3丁目1番地,見附公園北東側フェンス,35.1606881,136.9611166,
愛知県,名古屋市,106,千種区幸川町1丁目10番地,中部電力パワーグリッド東山変電所東側鉄柵,35.1586816,136.9603606,
愛知県,名古屋市,107,千種区楠元町1丁目100番地,愛知学院大学西側フェンス,35.166998,136.960748,
愛知県,名古屋市,108,千種区楠元町1丁目24番地,愛知学院大学第３駐車場西側フェンス,35.1671205,136.9620505,
愛知県,名古屋市,109,千種区日和町3丁目6番地4,日和公園南側フェンス,35.1672961,136.9635722,
愛知県,名古屋市,110,千種区春里町2丁目65番地,自由ヶ丘小学校グラウンド東側フェンス,35.1714758,136.9649929,
愛知県,名古屋市,111,千種区自由ヶ丘1丁目14番,田代荘１棟東側フェンス,35.1743145,136.9620831,
愛知県,名古屋市,112,千種区春里町2丁目12番4号,春里保育園北西側フェンス,35.1722153,136.9627645,
愛知県,名古屋市,113,千種区春里町2丁目1番地86,市営新楠荘駐車場南西側フェンス,35.1716857,136.9627271,
愛知県,名古屋市,114,千種区自由ケ丘2丁目15番24号,自由ケ丘小学校北側フェンス,35.1729652,136.9651124,
愛知県,名古屋市,115,千種区自由ケ丘3丁目11番地9,自由ケ丘第２自転車駐車場西側フェンス,35.1763141,136.9669703,
愛知県,名古屋市,116,千種区自由ケ丘3丁目3番55号,千種台中学校西側フェンス,35.177496,136.968753,
愛知県,名古屋市,117,千種区霞ケ丘2丁目７番8号,霞ケ丘荘８号棟北側駐車場東側フェンス,35.1776842,136.964978,
愛知県,名古屋市,118,千種区徳川山町5丁目2番11号,金児荘11棟南側フェンス,35.173795,136.967999,
愛知県,名古屋市,119,千種区自由ケ丘2丁目1番地,日泰寺所有覚王山墓苑北側コンクリート塀,35.1767634,136.9646269,
愛知県,名古屋市,120,千種区徳川山町5丁目3番12号,金児荘12棟北西側フェンス,35.1745339,136.9695686,
愛知県,名古屋市,121,千種区鹿子殿13番,希望ケ丘ハイツＡ棟駐車場南西側フェンス,35.1786418,136.9742423,
愛知県,名古屋市,122,千種区富士見台2丁目1番地,富士見台小学校南側フェンス,35.1818378,136.9692269,
愛知県,名古屋市,123,千種区希望ケ丘4丁目1番2号,東希望荘2棟南側フェンス,35.177773,136.9714235,
愛知県,名古屋市,124,千種区鍋屋上野町字汁谷3525番地,茶屋ケ坂公園北側フェンス,35.1818838,136.9648821,
愛知県,名古屋市,125,千種区希望ケ丘2丁目6番1号,南希望荘西側フェンス,35.1781054,136.9668939,
愛知県,名古屋市,126,千種区希望ケ丘1丁目1番1号,北希望荘1棟南側フェンス,35.1807017,136.9671826,
愛知県,名古屋市,127,千種区富士見台2丁目1番地,富士見台小学校東側フェンス,35.1818487,136.9706995,
愛知県,名古屋市,128,千種区揚羽町1丁目41番地,茶屋ケ坂公園東側鉄柵,35.1829726,136.965332,
愛知県,名古屋市,129,千種区富士見台3丁目71番地,富士見公園北側鉄柵,35.1823638,136.9721292,
愛知県,名古屋市,130,千種区竹越二丁目201番地,竹越公園西側鉄柵,35.1873473,136.9754173,
愛知県,名古屋市,131,千種区千代田橋二丁目3番7号,千代田橋小学校西側フェンス,35.1865866,136.97088,
愛知県,名古屋市,132,千種区千代田橋二丁目3番7号,千代田橋小学校北側フェンス,35.1871653,136.9718215,
愛知県,名古屋市,133,千種区汁谷町39番地,汁谷荘公園南側フェンス,35.1850619,136.9694649,
愛知県,名古屋市,134,千種区千代田橋一丁目1番1号,東海病院東側フェンス,35.1863747,136.9684729,
愛知県,名古屋市,135,千種区千代田橋一丁目1番1号,東海病院南側鉄柵,35.1859078,136.9679687,
愛知県,名古屋市,136,千種区竹越一丁目7番1号,masked,35.1887585,136.9721835,
愛知県,名古屋市,137,千種区汁谷町82番地,汁谷第一公園北側鉄柵,35.184764,136.9706873,
愛知県,名古屋市,138,千種区香流橋一丁目2番35号,香流橋地域センター・香流橋プール西側フェンス,35.1902142,136.9790859,
愛知県,名古屋市,139,千種区香流橋一丁目2番35号,香流橋地域センター・香流橋プール北側フェンス,35.1905725,136.9791584,
愛知県,名古屋市,140,千種区新西二丁目504番地,駐車場南側フェンス,35.1894579,136.9859225,
愛知県,名古屋市,141,千種区新西二丁目905番地,スターキャット千種サブセンター東側フェンス,35.1882895,136.9873038,
愛知県,名古屋市,142,千種区新西二丁目1301番地,西山東公園南側鉄柵,35.1884408,136.9846886,
愛知県,名古屋市,143,千種区香流橋一丁目1番101号,名古屋市猪子石工場南側フェンス,35.1889349,136.9781595,
愛知県,名古屋市,144,千種区香流橋二丁目101番地４,香流橋公園西側鉄柵,35.1903717,136.9831995,
愛知県,名古屋市,145,千種区千代が丘5番50号,アオキスーパー千代が丘店西側フェンス,35.1800967,136.9823127,
愛知県,名古屋市,146,千種区千代が丘2番５号,猪子石中学校北側フェンス,35.1826252,136.9837391,
愛知県,名古屋市,147,千種区宮根台二丁目601番地,宮根公園南側フェンス,35.1848267,136.9814345,
愛知県,名古屋市,148,千種区京命一丁目15番3号,寿ハイツ西側フェンス,35.1857747,136.9845864,
愛知県,名古屋市,149,千種区宮根台二丁目10番19号,宮根小学校東側フェンス,35.1833739,136.9802246,
愛知県,名古屋市,150,千種区宮根台二丁目10番19号,宮根小学校西側フェンス,35.1835032,136.9791021,
愛知県,名古屋市,151,千種区宮根台二丁目9番12号,宮根保育園北側フェンス,35.183719,136.9811508,
愛知県,名古屋市,152,千種区千代が丘2番5号,猪子石中学校西側フェンス,35.1818743,136.982685,
愛知県,名古屋市,153,千種区平和公園二丁目108番地1,ののかぜ保育園北側フェンス,35.1698497,136.9767961,
愛知県,名古屋市,154,千種区池上町2丁目39番地,蓮勝寺西側鉄柵,35.1689672,136.970879,
愛知県,名古屋市,155,千種区猫洞通2丁目13番地,わかば幼稚園南側鉄柵,35.1686038,136.9714383,
愛知県,名古屋市,156,千種区猫洞通3丁目27番地の2,,35.1680609,136.9694031,
愛知県,名古屋市,157,千種区猫洞通1丁目15番地,東部地域療育センターぽけっと北側フェンス,35.1684698,136.9757025,
愛知県,名古屋市,158,千種区猫洞通1丁目15番地,緑風東側フェンス,35.167926,136.9764548,
愛知県,名古屋市,159,千種区池上町3丁目10番地1,masked,35.1689844,136.973803,
愛知県,名古屋市,160,千種区橋本町3丁目20番地,東山小学校東側フェンス,35.1640032,136.9677665,
愛知県,名古屋市,161,千種区橋本町3丁目4番地,東山保育園北側鉄柵,35.1641251,136.9662421,
愛知県,名古屋市,162,千種区猫洞通5丁目18番地,マックスバリュ本山店第1駐車場南側フェンス,35.1643778,136.9638652,
愛知県,名古屋市,163,千種区橋本町3丁目20番地,東山小学校南側フェンス,35.1633279,136.9667352,
愛知県,名古屋市,164,千種区東山通3丁目1番地1,東山通公園南側鉄柵,35.1622579,136.968458,
愛知県,名古屋市,165,千種区清住町3丁目83番地,駐車場北側フェンス,35.1615381,136.9713969,
愛知県,名古屋市,166,千種区新池町1丁目18番地2,さわらび園北側フェンス,35.1642112,136.9750406,
愛知県,名古屋市,167,千種区新池町2丁目8番地6,新池公園北側鉄柵,35.1629876,136.9751319,
愛知県,名古屋市,168,千種区園山町3丁目2番地6,名古屋大学工学部北側フェンス,35.1570848,136.967784,
愛知県,名古屋市,169,千種区唐山町1丁目79番地2,唐山公園北東側コンクリート柵,35.1588915,136.9690671,
愛知県,名古屋市,170,千種区唐山町１丁目４８番地,グリーンエミナンス唐山　駐車場北側フェンス,35.1606873,136.968262,
愛知県,名古屋市,171,千種区唐山町2丁目32番地,交通局唐山変電所用地北側フェンス,35.1600449,136.9702845,
愛知県,名古屋市,172,千種区園山町2丁目22番地,masked,35.1564766,136.9697211,
愛知県,名古屋市,173,千種区田代町字瓶杁1番地42,東山公園西側コンクリート塀,35.1575929,136.9742308,
愛知県,名古屋市,174,千種区東山元町6丁目1番地１,名古屋大学農学部東側フェンス,35.1546762,136.9729545,
愛知県,名古屋市,175,千種区星が丘山手302番地,瓶杁西公園北側フェンス,35.1627218,136.9825687,
愛知県,名古屋市,176,千種区井上町35番地,井上公園南側鉄柵,35.1621319,136.9829563,
愛知県,名古屋市,177,千種区星ケ丘1丁目3番地,星ケ丘コミュニティセンター駐車場北側フェンス,35.1630261,136.9874511,
愛知県,名古屋市,178,千種区星ケ丘2丁目50番地,打越荘C号棟東側フェンス,35.1648686,136.9921489,
愛知県,名古屋市,179,千種区星ケ丘1丁目4番地,星ケ丘小学校南東側鉄柵,35.163251,136.988656,
愛知県,名古屋市,180,千種区星が丘元町3番8号,十六銀行星が丘支店南側フェンス,35.1609507,136.9829351,
愛知県,名古屋市,181,千種区星が丘元町13番7号,菊里高校西側フェンス,35.1596009,136.9830737,
愛知県,名古屋市,182,千種区星が丘山手204番地,星ケ丘市バス操車場南側フェンス,35.1613957,136.9819849,
愛知県,名古屋市,1,名古屋市中区丸の内三丁目３番３５号,丸の内小学校　北側西寄り金網フェンス,35.1779459,136.9039458,
愛知県,名古屋市,2,名古屋市中区錦三丁目４３－１,栄駅　１０番出入口西側側壁,35.1693749,136.9083791,
愛知県,名古屋市,3,名古屋市中区三の丸一丁目９番２号,丸の内中学校　東側植栽,35.1793125,136.8960442,
愛知県,名古屋市,4,名古屋市中区丸の内三丁目３番３５号,丸の内小学校　南通用門東側金網フェンス,35.1768464,136.9042812,
愛知県,名古屋市,5,名古屋市中区錦三丁目１１２,エムエス錦３丁目パーキング　東側金網フェンス,35.1725781,136.9029116,
愛知県,名古屋市,6,名古屋市中区丸の内三丁目３番３５号,丸の内小学校　東側金網フェンス,35.1773354,136.9047814,
愛知県,名古屋市,7,名古屋市中区丸の内三丁目１０２,本町公園　東側,35.1768594,136.9024355,
愛知県,名古屋市,8,名古屋市中区錦三丁目５０１,久屋大通駅　３番出入口東側側壁,35.1733564,136.906609,
愛知県,名古屋市,9,名古屋市中区錦一丁目２１８－１,てんまパーク　入口向かって左側（西側）フェンス,35.1718787,136.8935206,
愛知県,名古屋市,10,名古屋市中区錦一丁目９番１号,旧御園小学校　南側金網フェンス,35.1700983,136.8956748,
愛知県,名古屋市,11,名古屋市中区錦一丁目１２０１,下園公園　錦通側植栽,35.169502,136.8951219,
愛知県,名古屋市,12,名古屋市中区錦一丁目９番１号,旧御園小学校　正門南側鉄柵,35.1705345,136.8959792,
愛知県,名古屋市,13,名古屋市中区錦一丁目９番１号,旧御園小学校　北西角金網フェンス,35.1708184,136.8947695,
愛知県,名古屋市,14,名古屋市中区丸の内一丁目１００６－２,加藤パーキング　北東角金網フェンス,35.1747633,136.8954798,
愛知県,名古屋市,15,名古屋市中区錦一丁目１５１６－２,シャムズガーデン　東側鉄柵,35.1682264,136.8923786,
愛知県,名古屋市,16,名古屋市中区栄二丁目１１９－１・３,交通局　地下鉄排気塔前金網フェンス,35.1672288,136.898055,
愛知県,名古屋市,17,名古屋市中区栄一丁目２８番１号,栄小学校　正門（東門）南側フェンス,35.163765,136.8952775,
愛知県,名古屋市,18,名古屋市中区栄一丁目２８番１号,栄小学校　西門南側金網フェンス,35.1636187,136.8940175,
愛知県,名古屋市,19,名古屋市中区栄一丁目２８番１号,栄小学校　北側金網フェンス,35.164144,136.8945635,
愛知県,名古屋市,20,名古屋市中区栄一丁目１０７－２,納屋橋ゆめ広場　東側鉄柵,35.1666889,136.8922404,
愛知県,名古屋市,21,名古屋市中区大須一丁目６番６４号,市営大須荘　南側金網フェンス,35.1613797,136.8957586,
愛知県,名古屋市,22,名古屋市中区栄一丁目２７０１,仲ノ町公園　南側鉄柵,35.1634196,136.8962128,
愛知県,名古屋市,23,名古屋市中区栄一丁目２７０１,仲ノ町公園　北側フェンス,35.1642134,136.8959124,
愛知県,名古屋市,24,名古屋市中区栄二丁目１７０２,白川公園　北側植栽,35.1654001,136.9010725,
愛知県,名古屋市,25,名古屋市中区栄二丁目１７０２,白川公園　東側植栽,35.1641437,136.9017135,
愛知県,名古屋市,26,名古屋市中区栄三丁目２６０１,矢場公園　南側鉄柵,35.1644749,136.9055519,
愛知県,名古屋市,27,名古屋市中区栄三丁目２６０１,矢場公園　東側自動車出口南側,35.1646811,136.905902,
愛知県,名古屋市,28,名古屋市中区栄二丁目８番２５号,ＮＴＴ広小路ビル　西側金網フェンス,35.1665398,136.8989606,
愛知県,名古屋市,29,名古屋市中区栄四丁目１番８号,中区役所　北側植栽,35.1689983,136.9102417,
愛知県,名古屋市,30,名古屋市中区栄五丁目１２番１３号,ＮＴＴ西日本中ビル　西側鉄柵,35.1644749,136.9110869,
愛知県,名古屋市,31,名古屋市中区新栄一丁目２９１１,ヤナセ名古屋支店駐車場　東側フェンス,35.1638144,136.9161438,
愛知県,名古屋市,32,名古屋市中区新栄一丁目１６０９,興善寺駐車場　東側金網フェンス,35.1671023,136.9193619,
愛知県,名古屋市,33,名古屋市中区新栄一丁目４１１,南小川町児童遊園地　南側金網フェンス,35.1684853,136.9181273,
愛知県,名古屋市,34,名古屋市中区新栄一丁目１５番５６号,白山中学校　正門（西門）北側金網フェンス,35.1676777,136.9172045,
愛知県,名古屋市,35,名古屋市中区新栄一丁目１５番５６号,白山中学校　南門西側金網フェンス,35.1663341,136.9181291,
愛知県,名古屋市,36,名古屋市中区新栄一丁目１５番５６号,白山中学校　東側南寄り金網フェンス,35.1666198,136.9187165,
愛知県,名古屋市,37,名古屋市中区新栄二丁目２６番５号,西側南寄り金網フェンス,35.1668644,136.9199495,
愛知県,名古屋市,38,名古屋市中区新栄三丁目１５番５１号,新栄小学校　北門西側フェンス,35.1679639,136.9261007,
愛知県,名古屋市,39,名古屋市中区新栄三丁目１３０１,新栄公園　北側西寄りパイプ柵,35.1681482,136.9238212,
愛知県,名古屋市,40,名古屋市中区新栄三丁目６０１,太陽どんぐりひろば　北側金網フェンス,35.1687397,136.9272054,
愛知県,名古屋市,41,名古屋市中区新栄二丁目１１０１,たつみどんぐりひろば　西側金網フェンス,35.1683556,136.9223819,
愛知県,名古屋市,42,名古屋市中区新栄三丁目１５番４５号,中央高等学校　西側金網フェンス,35.1670847,136.9245529,
愛知県,名古屋市,43,名古屋市中区新栄三丁目３５番２号,新栄荘１棟　西側駐車場西側金網フェンス,35.1644086,136.9240375,
愛知県,名古屋市,44,名古屋市中区新栄三丁目３４番１６号,新栄荘２棟　西側公園西側植栽,35.165344,136.9235836,
愛知県,名古屋市,45,名古屋市中区新栄三丁目１７１２,菊里どんぐりひろば　西側鉄柵,35.1667087,136.925629,
愛知県,名古屋市,46,名古屋市中区千代田五丁目１００１,千早町どんぐりひろば　西側金網フェンス,35.1593002,136.9193853,
愛知県,名古屋市,47,名古屋市中区新栄一丁目４４番３６号,千早小学校　正門南側金網フェンス,35.1623168,136.9177856,
愛知県,名古屋市,48,名古屋市中区新栄一丁目４４番３６号,千早小学校　北門東側金網フェンス,35.1627597,136.9181893,
愛知県,名古屋市,49,名古屋市中区新栄一丁目４４番３６号,千早小学校　南側東寄り金網フェンス,35.1621545,136.9190168,
愛知県,名古屋市,50,名古屋市中区新栄二丁目５４番３３号,新栄荘７棟　駐車場入口向かって右側金網フェンス,35.1638687,136.9224613,
愛知県,名古屋市,51,名古屋市中区新栄一丁目４５０１,千早公園　西側北寄りパイプ柵,35.1625514,136.916398,
愛知県,名古屋市,52,名古屋市中区新栄二丁目４９番５号,新栄荘３棟　西側金網フェンス,35.1645597,136.923168,
愛知県,名古屋市,53,名古屋市中区千代田一丁目９番３６号,老松小学校　北側西寄り金網フェンス,35.1607875,136.9126247,
愛知県,名古屋市,54,名古屋市中区千代田二丁目４番２５号,大池保育園　南側金網フェンス,35.1580967,136.9110365,
愛知県,名古屋市,55,名古屋市中区栄五丁目１９１７,東陽町どんぐり子供児童遊園地　南側集会所前金網フェンス,35.1628494,136.9115473,
愛知県,名古屋市,56,名古屋市中区千代田二丁目７番３２号,小出新聞店　西側金網フェンス,35.1592156,136.9120479,
愛知県,名古屋市,57,名古屋市中区栄四丁目１９０１,池田公園　北側,35.1667906,136.9128516,
愛知県,名古屋市,58,名古屋市中区千代田五丁目１５番２号,ナザレ保育園　西側フェンス,35.1590234,136.9178185,
愛知県,名古屋市,59,名古屋市中区千代田二丁目１７０５,名古屋まちづくり公社千代田第2駐車場　北側金網フェンス,35.1575525,136.9142724,
愛知県,名古屋市,60,名古屋市中区千代田二丁目１４番５号,鶴舞荘１棟　西側金網フェンス,35.1572286,136.9150075,
愛知県,名古屋市,61,名古屋市中区千代田三丁目３０７,三田町子供会児童遊園地　南側金網フェンス,35.1558584,136.9111899,
愛知県,名古屋市,62,名古屋市中区千代田三丁目１２番,鶴舞街園　地下鉄鶴舞駅５番出入口北側,35.155794,136.9167529,
愛知県,名古屋市,63,名古屋市中区千代田三丁目１５０８,仲よしどんぐりひろば　東側金網フェンス,35.1541759,136.9149584,
愛知県,名古屋市,64,名古屋市中区千代田三丁目１７１４,七本松公園　南側金網フェンス,35.154802,136.9131184,
愛知県,名古屋市,65,名古屋市中区千代田三丁目１９０６,元田町どんぐりひろば　東側入口南側金網フェンス,35.1548228,136.9121314,
愛知県,名古屋市,66,名古屋市中区千代田三丁目８１１,大池町どんぐりひろば　入口南側鉄柵,35.1557241,136.9144059,
愛知県,名古屋市,67,名古屋市中区千代田三丁目８０４,株式会社八神製作所駐車場　入口東側金網フェンス,35.1561024,136.9135543,
愛知県,名古屋市,68,名古屋市中区大須四丁目８番８８号,前津中学校　南門東側金網フェンス,35.1584094,136.9084905,
愛知県,名古屋市,69,名古屋市中区大須四丁目８番８８号,前津中学校　北門西側金網フェンス,35.1597153,136.9084973,
愛知県,名古屋市,70,名古屋市中区大須四丁目４０１,久屋大通公園　東側,35.1605391,136.9095262,
愛知県,名古屋市,71,名古屋市中区大須三丁目４６番３４号,春日神社　南側入口階段向かって左側石塀前,35.1575568,136.905111,
愛知県,名古屋市,72,名古屋市中区大須四丁目８番８８号,前津中学校　西側通用門南側金網フェンス,35.1590486,136.908009,
愛知県,名古屋市,73,名古屋市中区大須四丁目４番１号,久屋大通庭園フラリエ　西側フェンス,35.1611535,136.907955,
愛知県,名古屋市,74,名古屋市中区大須三丁目３０１,裏門前公園　西側植栽,35.1611718,136.9037873,
愛知県,名古屋市,75,名古屋市中区大須一丁目３１番４号,大須小学校　西門北寄り金網フェンス,35.1595781,136.8958589,
愛知県,名古屋市,76,名古屋市中区大須一丁目３１番４号,大須小学校　東門北側金網フェンス,35.1592843,136.896685,
愛知県,名古屋市,77,名古屋市中区大須一丁目３００１,西大須公園　北側金網フェンス,35.1598318,136.8955553,
愛知県,名古屋市,78,名古屋市中区大須一丁目３４２０,トキワガレージ　西側金網フェンス,35.1593182,136.8972578,
愛知県,名古屋市,79,名古屋市中区大須二丁目２１番４７号,大須観音　南側玉垣内側,35.159251,136.8992466,
愛知県,名古屋市,80,名古屋市中区大須二丁目１３０３,大須観音どんぐりひろば　北側金網フェンス,35.1605435,136.9004301,
愛知県,名古屋市,81,名古屋市中区大須一丁目３００１,西大須公園　西側金網フェンス,35.1597644,136.8949497,
愛知県,名古屋市,82,名古屋市中区松原一丁目４０９,西脇町児童遊園地　西側金網フェンス,35.1576311,136.8942207,
愛知県,名古屋市,83,名古屋市中区松原二丁目４０４,若草どんぐりひろば　南側西寄り鉄柵,35.1559518,136.8948939,
愛知県,名古屋市,84,名古屋市中区松原三丁目５番３号,松原小学校　北側東寄り金網フェンス,35.1539947,136.8979429,
愛知県,名古屋市,85,名古屋市中区松原三丁目５番３号,松原小学校　南門東側金網フェンス,35.1529552,136.8977552,
愛知県,名古屋市,86,名古屋市中区門前町４０７,門前町児童遊園地　東側金網フェンス,35.1564415,136.9021148,
愛知県,名古屋市,87,名古屋市中区橘二丁目８番５５号,名古屋東別院　駐車場南側金網フェンス,35.1513732,136.900682,
愛知県,名古屋市,88,名古屋市中区橘一丁目１５０２,東橘町一丁目どんぐりひろば　入口向かって左側鉄柵,35.1548643,136.9017461,
愛知県,名古屋市,89,名古屋市中区橘一丁目１７０２,下日置町どんぐりひろば　南側金網フェンス,35.1542996,136.8992114,
愛知県,名古屋市,90,名古屋市中区橘一丁目２５０１,橘公園　南側レンガ積み内,35.1522875,136.9036142,
愛知県,名古屋市,91,名古屋市中区橘一丁目１３番１２号,橘小学校　西門南側金網フェンス,35.1539928,136.9039748,
愛知県,名古屋市,92,名古屋市中区上前津一丁目１１０７,わんぱくどんぐりひろば　南側鉄柵,35.1557505,136.9030462,
愛知県,名古屋市,93,名古屋市中区上前津二丁目６０２,上前津東公園　北側東寄り鉄柵,35.1558768,136.9081658,
愛知県,名古屋市,94,名古屋市中区富士見町１４０１,西川端公園　北側入口西側鉄柵,35.1527531,136.9071607,
愛知県,名古屋市,95,名古屋市中区千代田三丁目２２１３,東川端ひまわりどんぐりひろば　西側金網フェンス,35.1557,136.9101264,
愛知県,名古屋市,96,名古屋市中区大井町２番１３号,中保育園　南側西寄り金網フェンス,35.1509076,136.9057485,
愛知県,名古屋市,97,名古屋市中区千代田四丁目１２１２,千代田第二どんぐりひろば　南側鉄柵,35.1520134,136.9103056,
愛知県,名古屋市,98,名古屋市中区上前津一丁目７１３,飴屋町どんぐりひろば　南側柵フェンス,35.1560526,136.903975,
愛知県,名古屋市,99,名古屋市中区平和一丁目１４番３号,平和小学校　正門東側金網フェンス,35.1489178,136.9048294,
愛知県,名古屋市,100,名古屋市中区平和一丁目１４番３号,平和小学校　東門南側金網フェンス,35.1484391,136.9057689,
愛知県,名古屋市,101,名古屋市中区平和一丁目１４番３号,平和小学校　南門東側金網フェンス,35.1480005,136.9050889,
愛知県,名古屋市,102,名古屋市中区平和一丁目２００６,平和どんぐりひろば　北側鉄柵,35.147312,136.9065529,
愛知県,名古屋市,103,名古屋市中区金山五丁目９０８,向田公園　西側南寄り鉄柵,35.1451983,136.9095896,
愛知県,名古屋市,104,名古屋市中区金山一丁目３０１,古沢公園　西側石垣沿い,35.1467899,136.9014061,
愛知県,名古屋市,105,名古屋市中区金山二丁目５０１,長岡公園　西側生け垣沿い,35.1457342,136.9048872,
愛知県,名古屋市,106,名古屋市中区平和二丁目１４１０,長岡町４丁目第２どんぐりひろば　南東側金網フェンス,35.1469093,136.9075037,
愛知県,名古屋市,107,名古屋市中区正木一丁目１７番３３号,正木小学校　南側柵フェンス,35.1494294,136.8976847,
愛知県,名古屋市,108,名古屋市中区正木一丁目１７番３３号,正木小学校　東側柵フェンス,35.1499626,136.898018,
愛知県,名古屋市,109,名古屋市中区正木二丁目１２０１,正木公園　西側南寄り,35.1487582,136.89709,
愛知県,名古屋市,110,名古屋市中区正木三丁目１５０１,金山公園　西側部分の東側南寄り鉄柵,35.1444689,136.8974819,
愛知県,名古屋市,111,名古屋市中区正木四丁目１００１,正木南公園　北側パイプ柵,35.1431491,136.896877,
愛知県,名古屋市,112,名古屋市中区伊勢山一丁目１２７,伊勢山西部どんぐりひろば　西側鉄柵,35.1504785,136.9000175,
愛知県,名古屋市,113,名古屋市中区伊勢山一丁目５番１９号,伊勢山神明社　南側玉垣,35.1490582,136.9024091,
愛知県,名古屋市,114,名古屋市中区正木三丁目２番２１号,伊勢山中学校　東側金網フェンス,35.1468435,136.896498,
愛知県,名古屋市,1,名古屋市中川区広住町4番41号,広見小学校　南側,35.1558178,136.8843749,
愛知県,名古屋市,2,名古屋市中川区広住町4番41号,広見小学校　正門西側,35.1566752,136.8852573,
愛知県,名古屋市,3,名古屋市中川区柳堀町12番,柳堀公園　西側,35.1553906,136.8853254,
愛知県,名古屋市,4,名古屋市中川区西日置二丁目4番14号,名古屋市下水道事業用地　南側,35.1545068,136.8905983,
愛知県,名古屋市,5,名古屋市中川区広住町2番,広見公園　西側,35.157038,136.8849251,
愛知県,名古屋市,6,名古屋市中川区西日置一丁目5番14号,ひおき保育園　西側,35.1577909,136.8900529,
愛知県,名古屋市,7,名古屋市中川区西日置二丁目10番,西日置第二公園　西側,35.1556832,136.8897795,
愛知県,名古屋市,8,名古屋市中川区山王一丁目7番,東出公園　北側,35.1537241,136.8896424,
愛知県,名古屋市,9,名古屋市中川区柳島町一丁目,柳島公園　南側,35.1484849,136.880894,
愛知県,名古屋市,10,名古屋市中川区露橋1丁目19番,横堀公園　東側,35.1522311,136.887043,
愛知県,名古屋市,11,名古屋市中川区露橋2丁目9番,八島公園　西側,35.1458472,136.8868391,
愛知県,名古屋市,12,名古屋市中川区露橋1丁目9番41号,露橋小学校　正門西側,35.1503073,136.8869935,
愛知県,名古屋市,13,名古屋市中川区露橋1丁目15番,西宮公園　南側,35.1512245,136.886767,
愛知県,名古屋市,14,名古屋市中川区露橋1丁目9番41号,露橋小学校　東南角,35.1493555,136.8877579,
愛知県,名古屋市,15,名古屋市中川区露橋2丁目13番,露橋公園　西側,35.1488176,136.8859174,
愛知県,名古屋市,16,名古屋市中川区尾頭橋一丁目1番41号,中川消防署尾頭橋出張所　西側,35.1446283,136.893271,
愛知県,名古屋市,17,名古屋市中川区八熊三丁目14番,小山公園　東北側,35.1420812,136.8883577,
愛知県,名古屋市,18,名古屋市中川区尾頭橋2丁目5番,尾畑公園　南側,35.142537,136.8909716,
愛知県,名古屋市,19,名古屋市中川区八熊二丁目21番33号,八熊学区集会所　北側,35.140832,136.8907486,
愛知県,名古屋市,20,名古屋市中川区八熊一丁目8番30号,八熊小学校　北側,35.1412805,136.8940379,
愛知県,名古屋市,21,名古屋市中川区八熊一丁目8番30号,八熊小学校　南側,35.1404251,136.8946468,
愛知県,名古屋市,22,名古屋市中川区柳川町7番,柳川公園　南側,35.1388166,136.8959843,
愛知県,名古屋市,23,名古屋市中川区山王三丁目7番3号,山王中学校　西門北側,35.1501772,136.8899171,
愛知県,名古屋市,24,名古屋市中川区山王三丁目7番3号,山王中学校　北門東側,35.1503571,136.8906815,
愛知県,名古屋市,25,名古屋市中川区山王四丁目3番,山王公園　東側,35.1484279,136.8914595,
愛知県,名古屋市,26,名古屋市中川区山王二丁目3番,masked,35.1493812,136.8930479,
愛知県,名古屋市,27,名古屋市中川区尾頭橋四丁目9番,八幡南公園　西側,35.1473537,136.8882701,
愛知県,名古屋市,28,名古屋市中川区尾頭橋四丁目14番,八幡公園　南側,35.1484401,136.8889828,
愛知県,名古屋市,29,名古屋市中川区尾頭橋三丁目12番,尾頭橋公園　南側,35.145113,136.8896732,
愛知県,名古屋市,30,名古屋市中川区荒江町29番,荒江北公園　南側,35.14369,136.8856159,
愛知県,名古屋市,31,名古屋市中川区荒江町9番,荒江公園　北側,35.1424518,136.8867499,
愛知県,名古屋市,32,名古屋市中川区八熊通5丁目4番地,八幡小学校　東門南側,35.1402051,136.8844173,
愛知県,名古屋市,33,名古屋市中川区八神町5丁目1番地,masked,35.1386978,136.8796642,
愛知県,名古屋市,34,名古屋市中川区牛立町4丁目,牛立公園　西側,35.1373974,136.8822229,
愛知県,名古屋市,35,名古屋市中川区八熊通5丁目4番地,八幡小学校　西門南側,35.1405078,136.8832478,
愛知県,名古屋市,36,名古屋市中川区荒江町19番,荒江南公園　北側,35.1420268,136.8846353,
愛知県,名古屋市,37,名古屋市中川区元中野町2丁目11番地,八幡中学校　南側,35.1366195,136.8805144,
愛知県,名古屋市,38,名古屋市中川区元中野町3丁目47番地,,35.1356449,136.8801503,
愛知県,名古屋市,39,名古屋市中川区元中野町2丁目11番地,八幡中学校　東側,35.1371042,136.8809999,
愛知県,名古屋市,40,名古屋市中川区荒越町1丁目3番地,市営荒越荘T-4棟　南西側,35.1340959,136.8827991,
愛知県,名古屋市,41,名古屋市中川区荒越町2丁目,市営荒越荘駐車場　南東側,35.1324476,136.8834299,
愛知県,名古屋市,42,名古屋市中川区荒越町1丁目12番地の1,市営荒越荘駐車場　南側,35.1342085,136.8851116,
愛知県,名古屋市,43,名古屋市中川区花塚町1丁目,花塚公園　南側,35.1301753,136.8842103,
愛知県,名古屋市,44,名古屋市中川区富川町2丁目1番地,上下水道局中川営業所　西側,35.1438153,136.8768828,
愛知県,名古屋市,45,名古屋市中川区二女子町2丁目,二女子第一公園　南側,35.1446841,136.8805752,
愛知県,名古屋市,46,名古屋市中川区二女子町2丁目,二女子第一公園　北側,35.145296,136.8810526,
愛知県,名古屋市,47,名古屋市中川区二女子町4丁目53番地の1,上下水道局量水器検査場　南側,35.1437634,136.878177,
愛知県,名古屋市,48,名古屋市中川区二女子町3丁目,二女子第二公園　南側,35.1453031,136.8788667,
愛知県,名古屋市,49,名古屋市中川区二女子町4丁目63番地,祐正寺　東側,35.1444611,136.8798473,
愛知県,名古屋市,50,名古屋市中川区二女子町7丁目95番地,㈶中部電気保安協会　東側,35.1414664,136.8796599,
愛知県,名古屋市,51,名古屋市中川区豊成町1番,豊成団地1号棟　北側,35.1567653,136.8764422,
愛知県,名古屋市,52,名古屋市中川区豊成町1番,豊成団地内公園　南側,35.1561053,136.8778612,
愛知県,名古屋市,53,名古屋市中川区豊成町1番35号,愛知小学校　南門西,35.1552822,136.8778883,
愛知県,名古屋市,54,名古屋市中川区九重町104番,名古屋高速道路公社月極駐車場　南側,35.157399,136.8751729,
愛知県,名古屋市,55,名古屋市中川区澄池町2番5号,祖父江工業㈱駐車場　東側,35.1506837,136.8761713,
愛知県,名古屋市,56,名古屋市中川区愛知町33番,愛知公園　南側,35.1534804,136.8747533,
愛知県,名古屋市,57,名古屋市中川区愛知町33番,愛知公園　西側,35.1538817,136.8736831,
愛知県,名古屋市,58,名古屋市中川区澄池町6番12号,,35.1494601,136.8735135,
愛知県,名古屋市,59,名古屋市中川区烏森町字四反田,蓮池公園　東側,35.1519994,136.8630246,
愛知県,名古屋市,60,名古屋市中川区長良町2丁目45-1,中部電力　長良町変電所,35.1498993,136.8710262,
愛知県,名古屋市,61,名古屋市中川区小本一丁目15番地2号,常磐小学校　西門東北側,35.1494931,136.8624476,
愛知県,名古屋市,62,名古屋市中川区小本二丁目２番,屋敷地公園　東側,35.14551,136.8638441,
愛知県,名古屋市,63,名古屋市中川区長良町4丁目129番地,長良八剣社　東側,35.147383,136.8719869,
愛知県,名古屋市,64,名古屋市中川区富船町1丁目,産業廃棄物保管場所　西側フェンス,35.1472476,136.8750937,
愛知県,名古屋市,65,名古屋市中川区小本1丁目28番地,masked,35.14801,136.8619143,
愛知県,名古屋市,66,名古屋市中川区吉良町,吉良第二公園　東側,35.1428535,136.8626789,
愛知県,名古屋市,67,名古屋市中川区小本一丁目19番38号,西特別支援学校　西側,35.1498634,136.8609978,
愛知県,名古屋市,68,名古屋市中川区岩塚町,八田公園　北側,35.1487215,136.8520246,
愛知県,名古屋市,69,名古屋市中川区八田町2310番地,リパーク八田駅前駐車場　北側,35.1481989,136.8526792,
愛知県,名古屋市,70,名古屋市中川区小本一丁目19番38号,西特別支援学校　南側　西フェンス,35.1505192,136.8606626,
愛知県,名古屋市,71,名古屋市中川区八田町1203番地,観音寺　北側,35.1476659,136.8539469,
愛知県,名古屋市,72,名古屋市中川区万町2205番地,,35.1481559,136.8575253,
愛知県,名古屋市,73,名古屋市中川区小本一丁目20番37号,サポートセンターbeing小本　西側,35.1473365,136.8604005,
愛知県,名古屋市,74,名古屋市中川区清船町3丁目1番地の4,masked,35.1360193,136.8743682,
愛知県,名古屋市,75,名古屋市中川区清船町1丁目1番地の12,市営清船荘　幼児遊園　西側フェンス,35.1393656,136.8742473,
愛知県,名古屋市,76,名古屋市中川区清船町1丁目3番地,名古屋建設技術センター　南側,35.1383054,136.8745014,
愛知県,名古屋市,77,名古屋市中川区三ツ屋町2丁目88番地,中川土木事務所　南側,35.1382368,136.8726697,
愛知県,名古屋市,78,名古屋市中川区丸米町1丁目55番地,篠原小学校　西側,35.1346393,136.8718987,
愛知県,名古屋市,79,名古屋市中川区丸米町1丁目55番地,篠原小学校　東通用門南側,35.1345845,136.8729206,
愛知県,名古屋市,80,名古屋市中川区清船町1丁目3番地,名古屋建設技術センター　東側,35.1387529,136.8752417,
愛知県,名古屋市,81,名古屋市中川区大畑町１丁目３番地,masked,35.1338244,136.868229,
愛知県,名古屋市,82,名古屋市中川区押元町1丁目37番地,㈱吉野ツキ板店　西北側,35.1396078,136.8656939,
愛知県,名古屋市,83,名古屋市中川区細米町2丁目,細米公園　南側,35.1344149,136.8632785,
愛知県,名古屋市,84,名古屋市中川区大畑町1丁目3番地の1,長良中学校　南側,35.1331878,136.8654691,
愛知県,名古屋市,85,名古屋市中川区太平通1丁目,松葉公園　北入口　西側,35.1426472,136.8700914,
愛知県,名古屋市,86,名古屋市中川区大畑町1丁目3番地の1,長良中学校　正門左側,35.1339862,136.8670355,
愛知県,名古屋市,87,名古屋市中川区大畑町1丁目3番地の1,長良中学校　西側,35.1336748,136.8647717,
愛知県,名古屋市,88,名古屋市中川区八家町2丁目,八家公園　南側,35.1298485,136.8728162,
愛知県,名古屋市,89,名古屋市中川区中野新町7丁目51番地の1,昭和橋小学校　東側,35.12611,136.8721337,
愛知県,名古屋市,90,名古屋市中川区中野新町7丁目51番地の1,昭和橋小学校　南側,35.1255681,136.8715329,
愛知県,名古屋市,91,名古屋市中川区玉船町1丁目1番地の2,市営玉船荘　西側,35.1232472,136.8747464,
愛知県,名古屋市,92,名古屋市中川区松年町1丁目,松年公園　東側,35.1236812,136.8726735,
愛知県,名古屋市,93,名古屋市中川区玉船町1丁目1番地の2,市営玉船荘　東側,35.1229773,136.8757267,
愛知県,名古屋市,94,名古屋市中川区昭明町2丁目,昭明公園　南側,35.122361,136.8705555,
愛知県,名古屋市,95,名古屋市中川区八家町2丁目,八家公園　北側,35.1309256,136.8724058,
愛知県,名古屋市,96,名古屋市中川区明徳町4丁目,小碓緑道　北側（西）,35.121192,136.8653539,
愛知県,名古屋市,97,名古屋市中川区北江町3丁目13番地,市工業高校　北側,35.1267152,136.8652297,
愛知県,名古屋市,98,名古屋市中川区北江町3丁目13番地,市工業高校　東側,35.1256337,136.8665762,
愛知県,名古屋市,99,名古屋市中川区明徳町4丁目,小碓緑道　北側（東）,35.1213083,136.8684679,
愛知県,名古屋市,100,名古屋市中川区北江町1丁目1番地の2,中部運輸局愛知運輸支局　東側,35.1267388,136.8689641,
愛知県,名古屋市,101,名古屋市中川区北江町3丁目,北江公園　東側,35.1271666,136.8664268,
愛知県,名古屋市,102,名古屋市中川区明徳町1丁目,神明社　南側,35.1225759,136.8678128,
愛知県,名古屋市,103,名古屋市中川区外新町1丁目,外新町公園　西側,35.1277415,136.8841004,
愛知県,名古屋市,104,名古屋市中川区八剱町1丁目9番地,昭和橋中学校　北側,35.1269945,136.8835014,
愛知県,名古屋市,105,名古屋市中川区八剱町1丁目9番地,昭和橋中学校　南側,35.1259196,136.8834452,
愛知県,名古屋市,106,名古屋市中川区十一番町3丁目,昭和橋公園　南側,35.122383,136.8792247,
愛知県,名古屋市,107,名古屋市中川区八剱町4丁目,八剱公園　南側,35.1254799,136.87875,
愛知県,名古屋市,108,名古屋市中川区玉川町2丁目1番地,玉川小学校　西側,35.1220069,136.8775287,
愛知県,名古屋市,109,名古屋市中川区十一番町3丁目,昭和橋公園東側,35.1228218,136.8810245,
愛知県,名古屋市,110,名古屋市中川区柳田町2丁目,柳田公園　東側,35.146129,136.8445841,
愛知県,名古屋市,111,名古屋市中川区土野町,野田公園　東側,35.1460337,136.8421677,
愛知県,名古屋市,112,名古屋市中川区野田一丁目545番地,野田小学校　東側,35.1421935,136.8473037,
愛知県,名古屋市,113,名古屋市中川区野田三丁目280番地,中川青和高校（旧名・中川商業）南側,35.1416501,136.8392631,
愛知県,名古屋市,114,名古屋市中川区高畑一丁目223番地,中川区役所　北側,35.1419079,136.8548169,
愛知県,名古屋市,115,名古屋市中川区高畑四丁目,高畑公園　北側,35.1428756,136.8502173,
愛知県,名古屋市,116,名古屋市中川区高畑一丁目223番地,中川区役所　東側,35.1413201,136.8554552,
愛知県,名古屋市,117,名古屋市中川区野田一丁目545番地,野田小学校　南側,35.141507,136.8463435,
愛知県,名古屋市,118,名古屋市中川区荒子2丁目,荒子公園　東側,35.1380917,136.8595426,
愛知県,名古屋市,119,名古屋市中川区荒子町字宮窓15番地の1,荒子集会所　北側フェンス,35.1370338,136.859128,
愛知県,名古屋市,120,名古屋市中川区荒子2丁目,荒子公園　北西側,35.1390722,136.8584241,
愛知県,名古屋市,121,名古屋市中川区吉良町,荒子東公園　西側,35.1363172,136.8611742,
愛知県,名古屋市,122,名古屋市中川区的場町3丁目,的場公園　東側,35.1317734,136.8578067,
愛知県,名古屋市,123,名古屋市中川区荒子四丁目,権現公園　西側,35.1354101,136.8555289,
愛知県,名古屋市,124,名古屋市中川区荒子五丁目,船入公園　南側,35.1328155,136.8549433,
愛知県,名古屋市,125,名古屋市中川区若山町四丁目,山塩緑道　西側,35.1329231,136.861321,
愛知県,名古屋市,126,名古屋市中川区打中二丁目,御山戸公園　東側,35.1349711,136.8440205,
愛知県,名古屋市,127,名古屋市中川区中郷四丁目234番地,荒子小学校　北側,35.1344432,136.8503307,
愛知県,名古屋市,128,名古屋市中川区中郷三丁目,中郷公園　北東側,35.1353697,136.8474947,
愛知県,名古屋市,129,名古屋市中川区中郷四丁目234番地,荒子小学校　南側,35.1333135,136.8497755,
愛知県,名古屋市,130,名古屋市中川区中郷四丁目235番地,一柳中学校　西南角,35.132985,136.8483785,
愛知県,名古屋市,131,名古屋市中川区中郷二丁目,梓ノ木公園　北側,35.1393477,136.8470736,
愛知県,名古屋市,132,名古屋市中川区法華西町3丁目,法華西公園　東側,35.1300658,136.841807,
愛知県,名古屋市,133,名古屋市中川区中花町,丸池公園　南側,35.1304475,136.8459148,
愛知県,名古屋市,134,名古屋市中川区打出二丁目,打出第一公園　北側,35.1367197,136.8408261,
愛知県,名古屋市,135,名古屋市中川区法華一丁目,法華公園　東側,35.1264355,136.8482725,
愛知県,名古屋市,136,名古屋市中川区中島新町二丁目401番地,中島小学校　北側,35.127953,136.8529261,
愛知県,名古屋市,137,名古屋市中川区中島新町二丁目401番地,中島小学校　西側,35.1276261,136.8519538,
愛知県,名古屋市,138,名古屋市中川区東中島町5丁目,裏畑公園　南側,35.1286602,136.8551226,
愛知県,名古屋市,139,名古屋市中川区高杉町133番地,高杉中学校　北側,35.1265993,136.8434526,
愛知県,名古屋市,140,名古屋市中川区東中島町3丁目1番地の1,市営中島荘　児童公園　西側,35.1255502,136.8609478,
愛知県,名古屋市,141,名古屋市中川区東中島町8丁目,東中島公園　南側,35.125315,136.8579356,
愛知県,名古屋市,142,名古屋市中川区高杉町133番地,高杉中学校　南側,35.1252304,136.8434552,
愛知県,名古屋市,143,名古屋市中川区畑田町4丁目,畑田公園　東側,35.1228702,136.8560609,
愛知県,名古屋市,144,名古屋市中川区西中島1丁目,越宮公園　東側,35.1211361,136.8496116,
愛知県,名古屋市,145,名古屋市中川区西中島二丁目301番地,西中島小学校　正門横,35.1220457,136.8469193,
愛知県,名古屋市,146,名古屋市中川区西中島二丁目301番地,西中島小学校　東側,35.1218329,136.8477266,
愛知県,名古屋市,147,名古屋市中川区東起町4丁目,東起公園　北側,35.120829,136.8435307,
愛知県,名古屋市,148,名古屋市中川区西中島二丁目301番地,西中島小学校　南側,35.1215784,136.8468817,
愛知県,名古屋市,149,名古屋市中川区中島新町四丁目,下之城公園　南側,35.1232028,136.8520202,
愛知県,名古屋市,150,名古屋市中川区畑田町2丁目6番地,市営畑田荘7号棟　南側,35.1229497,136.8597479,
愛知県,名古屋市,151,名古屋市中川区下之一色町字権野107番地,正色小学校　北側,35.1244136,136.8270638,
愛知県,名古屋市,152,名古屋市中川区下之一色町字三角,三角公園　西側,35.1176584,136.8349547,
愛知県,名古屋市,153,名古屋市中川区下之一色町字三角,三角西緑地　東側,35.1168411,136.834783,
愛知県,名古屋市,154,名古屋市中川区下之一色町字権野107番地,正色小学校　南側,35.1232849,136.8285189,
愛知県,名古屋市,155,名古屋市中川区下之一色町字古川,正色公園　北側,35.1239311,136.8311017,
愛知県,名古屋市,156,名古屋市中川区下之一色町字三角,三角東緑地　東側,35.1153525,136.8353141,
愛知県,名古屋市,157,名古屋市中川区下之一色町字西ノ切甲61番地の7,正雲寺　東側,35.1225261,136.8330591,
愛知県,名古屋市,158,名古屋市中川区一色新町三丁目201番地,市営一色荘4棟　西側,35.1275834,136.8277664,
愛知県,名古屋市,159,名古屋市中川区下之一色町字松蔭2丁目,松蔭公園　南側,35.1255164,136.8395078,
愛知県,名古屋市,160,名古屋市中川区大当郎3丁目,南川田公園　北側,35.1281918,136.8330973,
愛知県,名古屋市,161,名古屋市中川区一色新町一丁目701番地,一色中学校　南側,35.1283011,136.8320886,
愛知県,名古屋市,162,名古屋市中川区大当郎二丁目,大当郎緑地　北側,35.1322284,136.8316341,
愛知県,名古屋市,163,名古屋市中川区大当郎一丁目,木藪公園　南側,35.1341995,136.8347656,
愛知県,名古屋市,164,名古屋市中川区一色新町2丁目,三日月公園　南側,35.1298994,136.8279825,
愛知県,名古屋市,165,名古屋市中川区一色新町一丁目601番地,五反田小学校　北側,35.1302165,136.831234,
愛知県,名古屋市,166,名古屋市中川区戸田二丁目2114番地,戸田小学校　西側フェンス,35.139266,136.8056786,
愛知県,名古屋市,167,名古屋市中川区戸田西一丁目,東亀之助公園　西側,35.1414102,136.8033151,
愛知県,名古屋市,168,名古屋市中川区戸田四丁目2502番地,富田地区会館　北側,35.1367945,136.8049603,
愛知県,名古屋市,169,名古屋市中川区戸田西三丁目,東稗田公園　東側,35.1368657,136.8023988,
愛知県,名古屋市,170,名古屋市中川区戸田ゆたか2丁目,戸田ゆたか公園　東側,35.1331413,136.8007053,
愛知県,名古屋市,171,名古屋市中川区戸田ゆたか2丁目,中流公園　東側,35.1326664,136.803476,
愛知県,名古屋市,172,名古屋市中川区水里五丁目,外丸田公園　東側,35.1294011,136.8030243,
愛知県,名古屋市,173,名古屋市中川区戸田一丁目301番地,戸田どんぐり広場　北側,35.141611,136.8101295,
愛知県,名古屋市,174,名古屋市中川区西伏屋一丁目401番地,masked,35.1444159,136.8182755,
愛知県,名古屋市,175,名古屋市中川区春田三丁目,春田駅（東）　南側,35.1431578,136.8139256,
愛知県,名古屋市,176,名古屋市中川区春田三丁目215番地,富田支所　北側,35.1407393,136.8129913,
愛知県,名古屋市,177,名古屋市中川区東春田二丁目72番地,富田中学校　南側,35.1424,136.8169968,
愛知県,名古屋市,178,名古屋市中川区春田四丁目,庄田公園　南側,35.1387482,136.8130472,
愛知県,名古屋市,179,名古屋市中川区東春田二丁目,西金公園　南側,35.1409481,136.8192941,
愛知県,名古屋市,180,名古屋市中川区富田町大字春田字北甚兵衛裏,富田公園　東側,35.146287,136.8120257,
愛知県,名古屋市,181,名古屋市中川区春田三丁目,春田駅（西）　北側,35.1432828,136.8132443,
愛知県,名古屋市,182,名古屋市中川区かの里一丁目2501番地,豊治小学校　東側,35.132298,136.8154766,
愛知県,名古屋市,183,名古屋市中川区かの里二丁目,四畝公園　西側,35.1273314,136.8164045,
愛知県,名古屋市,184,名古屋市中川区江松一丁目,江松北公園　南側,35.1291812,136.8235282,
愛知県,名古屋市,185,名古屋市中川区江松二丁目233番地,シティファミリー江松ポンプ室　南側,35.1264637,136.8221111,
愛知県,名古屋市,186,名古屋市中川区江松三丁目1101番地,市営江松荘　南側フェンス,35.1220545,136.8263356,
愛知県,名古屋市,187,名古屋市中川区富田町大字榎津字西鵜垂,鵜垂公園　西側,35.1381637,136.8198384,
愛知県,名古屋市,188,名古屋市中川区水里五丁目680番地,水里応急給水センター　東側,35.1266511,136.8029406,
愛知県,名古屋市,189,名古屋市中川区供米田二丁目802番地,供米田中学校　西側,35.136001,136.8128587,
愛知県,名古屋市,190,名古屋市中川区本前田町,東前田第三公園　東側,35.1445702,136.8375713,
愛知県,名古屋市,191,名古屋市中川区長須賀二丁目,長須賀南公園　東側,35.1460591,136.8248351,
愛知県,名古屋市,192,名古屋市中川区助光一丁目26番地3,伏屋西　東側ガード下,35.1399278,136.8273853,
愛知県,名古屋市,193,名古屋市中川区助光一丁目,御屋敷公園　南側,35.1382878,136.8265583,
愛知県,名古屋市,194,名古屋市中川区伏屋三丁目,下之島公園　東側,35.1410962,136.8310055,
愛知県,名古屋市,195,名古屋市中川区前田西町一丁目1001番地,長須賀小学校　西側,35.1403972,136.8297688,
愛知県,名古屋市,196,名古屋市中川区長須賀3丁目,長須賀公園　西側,35.1453798,136.8279661,
愛知県,名古屋市,197,名古屋市中川区川前町,東前田第一公園　北側,35.1459123,136.837152,
愛知県,名古屋市,198,名古屋市中川区助光三丁目201番地,助光中学校　南側,35.1328068,136.8289065,
愛知県,名古屋市,199,名古屋市中川区前田西町三丁目,西前田公園　南側,35.1349262,136.8300047,
愛知県,名古屋市,200,名古屋市中川区前田西町三丁目1001番地,西前田小学校　西北側,35.1366264,136.8316354,
愛知県,名古屋市,201,名古屋市中川区前田西町三丁目1401番地,masked,35.1359336,136.8306109,
愛知県,名古屋市,202,名古屋市中川区助光二丁目,助光公園　南側,35.1350075,136.8282159,
愛知県,名古屋市,203,名古屋市中川区助光二丁目1401番地,市営助光荘T-1棟　北駐車場　北側,35.136453,136.8258636,
愛知県,名古屋市,204,名古屋市中川区前田西町二丁目201番地,masked,35.1376039,136.8320099,
愛知県,名古屋市,205,名古屋市中川区吉津一丁目,一色公園　南側,35.15503,136.8237085,
愛知県,名古屋市,206,名古屋市中川区万場四丁目1106番地,万場小学校　北側,35.1542572,136.8262585,
愛知県,名古屋市,207,名古屋市中川区万場三丁目,郷内公園　南側,35.153819,136.8322982,
愛知県,名古屋市,208,名古屋市中川区万場五丁目,出口公園　南側,35.1552355,136.8290608,
愛知県,名古屋市,209,名古屋市中川区万場一丁目,北畑公園　西側,35.1569887,136.8347107,
愛知県,名古屋市,210,名古屋市中川区大地1番地の7,市営万場荘2号棟　西側出入口前,35.1596901,136.8327678,
愛知県,名古屋市,211,名古屋市中川区大地,万場公園　北側,35.1613259,136.8320454,
愛知県,名古屋市,212,名古屋市中川区吉津3丁目,川西公園　北側,35.1515371,136.8230758,
愛知県,名古屋市,213,名古屋市中川区千音寺五丁目1108,市営千音寺荘　整圧器庫　北側,35.1528644,136.8120658,
愛知県,名古屋市,214,名古屋市中川区富田町大字服部字鵜ノ首,富田公園　北側,35.148151,136.8121721,
愛知県,名古屋市,215,名古屋市中川区服部二丁目1701番地,はとり中学校　北側,35.1482327,136.815197,
愛知県,名古屋市,216,名古屋市中川区吉津五丁目1301番地,市営松下南荘1棟　東側,35.1449442,136.8201944,
愛知県,名古屋市,217,名古屋市中川区吉津三丁目,古苗代公園　東側,35.1502794,136.8197894,
愛知県,名古屋市,218,名古屋市中川区吉津二丁目,吉津公園　南側,35.152764,136.8217083,
愛知県,名古屋市,219,名古屋市中川区吉津四丁目,松下公園　南側,35.1483743,136.8212783,
愛知県,名古屋市,220,名古屋市中川区千音寺四丁目,千音寺小学校　東通用門南側,35.156795,136.8168494,
愛知県,名古屋市,221,名古屋市中川区赤星一丁目,千音寺公園　南側,35.1662535,136.8072228,
愛知県,名古屋市,222,名古屋市中川区新家一丁目,市営宮田荘　児童遊園　西南側,35.160741,136.8074154,
愛知県,名古屋市,223,名古屋市中川区赤星三丁目503,市営宮田荘5棟　西側,35.1603055,136.8086302,
愛知県,名古屋市,224,名古屋市中川区赤星三丁目,川原田公園　南側,35.1603932,136.8032121,
愛知県,名古屋市,225,名古屋市中川区新家一丁目,アズタウン公園　北側,35.1566371,136.8062165,
愛知県,名古屋市,226,名古屋市中川区新家三丁目,新家中央公園　東側,35.1571332,136.8033508,
愛知県,名古屋市,227,名古屋市中川区赤星三丁目955,赤星神社　東側,35.1586258,136.8160116,
愛知県,名古屋市,228,名古屋市中川区千音寺一丁目418,市営西尼ヶ塚荘 南側,35.166806,136.8109565,
愛知県,名古屋市,229,名古屋市中川区戸田明正三丁目1001番地,明正小学校　東側,35.1464082,136.8030466,
愛知県,名古屋市,230,名古屋市中川区戸田明正三丁目301番地,市営戸田荘　戸田荘中央公園　東側,35.1458417,136.8042543,
愛知県,名古屋市,231,名古屋市中川区戸田明正三丁目1001番地,明正小学校　南側,35.1456757,136.8022741,
愛知県,名古屋市,232,名古屋市中川区戸田明正一丁目803番地,戸田ポンプ所　南側,35.1456391,136.8083995,
愛知県,名古屋市,233,名古屋市中川区戸田明正三丁目401番地,富田第二保育園　西側,35.1453476,136.8029508,
愛知県,名古屋市,234,名古屋市中川区戸田明正二丁目601番地,東米替公園　西側,35.144282,136.8065974,
愛知県,名古屋市,235,名古屋市中川区戸田明正三丁目201番地,市営戸田荘　市ﾊﾞｽﾀｰﾐﾅﾙ　東側,35.1472354,136.804286,
愛知県,名古屋市,236,名古屋市中川区小本一丁目15番地2号,常磐小学校　東側,35.1486312,136.8630726,
愛知県,名古屋市,237,名古屋市中川区尾頭橋1丁目,尾頭橋東公園　東側,35.1437579,136.8949849,
愛知県,名古屋市,1,中村区新富町１丁目３番１６号,名城大学附属高等学校３号館北側フェンス,35.1887457,136.866594,
愛知県,名古屋市,2,中村区塩池町2丁目6番１7号,塩池公園東側フェンス,35.1851517,136.8674459,
愛知県,名古屋市,3,中村区新富町1丁目3番16号,名城大学付属高等学校3号館南側ブロック塀,35.1874919,136.8672592,
愛知県,名古屋市,4,中村区高道町２丁目１番３０号,日比津小学校東側フェンス,35.1832668,136.8650097,
愛知県,名古屋市,5,中村区高道町２丁目１番３０号,日比津小学校西側フェンス,35.1831835,136.8637222,
愛知県,名古屋市,6,中村区高道町２丁目２番３６号,日比津中学校西側フェンス,35.1821521,136.8637194,
愛知県,名古屋市,7,中村区高道町２丁目２番３６号,日比津中学校東側フェンス,35.182277,136.8650176,
愛知県,名古屋市,8,中村区十王町１２番,わかばどんぐり広場南側フェンス,35.1798517,136.8670157,
愛知県,名古屋市,9,中村区大日町２９番６号,栄生八幡社西側塀,35.1823377,136.8670423,
愛知県,名古屋市,10,中村区栄生町１１番８号,遊花幼稚園東側フェンス,35.1816301,136.8722661,
愛知県,名古屋市,11,中村区栄生町１５番１２号,,35.1826624,136.8700356,
愛知県,名古屋市,12,中村区栄生町２９番６号,栄生八幡社南側玉垣,35.182137,136.867346,
愛知県,名古屋市,13,中村区千原町９番５１号,,35.1802575,136.8736166,
愛知県,名古屋市,14,中村区栄生町23番15号,駐車場東側フェンス,35.1835584,136.8707018,
愛知県,名古屋市,15,中村区栄生町１０番４号,遊花幼稚園中園東側フェンス,35.182315,136.8721714,
愛知県,名古屋市,16,中村区日比津町１丁目４６番,日比津公園北西側鉄柵,35.1837224,136.8579647,
愛知県,名古屋市,17,中村区日比津町２丁目１１番４号,,35.1803878,136.8596061,
愛知県,名古屋市,18,中村区諏訪町２丁目６番７号,諏訪小学校西側フェンス,35.1785893,136.8533553,
愛知県,名古屋市,19,中村区高道町6丁目10番,高道町6丁目町内会どんぐり広場東側鉄柵,35.1805721,136.862384,
愛知県,名古屋市,20,中村区日比津町４丁目６番１４号,,35.1785481,136.8576343,
愛知県,名古屋市,21,中村区諏訪町２丁目６番７号,諏訪小学校東側フェンス,35.1784578,136.854439,
愛知県,名古屋市,22,中村区森田町１丁目６番１０号,森田保育園北側フェンス,35.1786847,136.8628862,
愛知県,名古屋市,23,中村区宿跡町２丁目１８番地,上下水道局中村ポンプ所北側フェンス,35.176899,136.8465139,
愛知県,名古屋市,24,中村区靖国町３丁目２０番地,稲葉地小学校東側フェンス,35.1701269,136.847672,
愛知県,名古屋市,25,中村区宿跡町２丁目７６番,宿跡自転車等保管場所南西側フェンス,35.1746969,136.8474653,
愛知県,名古屋市,26,中村区靖国町３丁目２０番地,稲葉地小学校西側フェンス,35.169969,136.8464408,
愛知県,名古屋市,27,中村区稲上町３丁目５７番,上五区町内会どんぐり広場西側フェンス,35.1705716,136.8449054,
愛知県,名古屋市,28,中村区東宿町１丁目５７番地,東宿明神社西側玉垣,35.1754013,136.851217,
愛知県,名古屋市,29,中村区草薙町１丁目７３番,草薙町１丁目どんぐり広場南側フェンス,35.17135,136.8518197,
愛知県,名古屋市,30,中村区宿跡町２丁目１８番地,上下水道局中村ポンプ所東側フェンス,35.1767223,136.8466156,
愛知県,名古屋市,31,中村区稲葉地町７丁目１番地の２,豊正中学校東側フェンス,35.1636083,136.8476247,
愛知県,名古屋市,32,中村区向島町５丁目２８番地,飯田幼稚園西側フェンス,35.1618403,136.8502711,
愛知県,名古屋市,33,中村区稲葉地町７丁目１番地の２,豊正中学校南側フェンス,35.1628934,136.8468522,
愛知県,名古屋市,34,中村区稲葉地町１丁目４７番,稲葉地公園東側鉄柵,35.167182,136.8463575,
愛知県,名古屋市,35,中村区長筬町７丁目２０番地,よしだ荘西側フェンス,35.1649724,136.8503002,
愛知県,名古屋市,36,中村区香取町１丁目８７番地,緑政土木局西部方面分室北側鉄柵,35.1674724,136.8529246,
愛知県,名古屋市,37,中村区稲葉地町１丁目４７番,稲葉地公園西側鉄柵,35.1669014,136.8442117,
愛知県,名古屋市,38,中村区稲葉地町７丁目１番地の２,豊正中学校北側フェンス,35.1644305,136.8467288,
愛知県,名古屋市,39,中村区稲葉地町４丁目１番地,なごや農業協同組合稲葉地支店東側フェンス,35.1681352,136.8419401,
愛知県,名古屋市,40,中村区岩上町１４７番地,上下水道局北部管路センター稲西事務所北側フェンス,35.1622796,136.8385379,
愛知県,名古屋市,41,中村区稲西町８８番地,稲西小学校北側フェンス,35.1661034,136.8385017,
愛知県,名古屋市,42,中村区稲西町１７１番地,交通局稲西営業所用地駐輪場東側フェンス,35.1645612,136.8372229,
愛知県,名古屋市,43,中村区稲西町８８番地,稲西小学校南側フェンス,35.1652811,136.8385446,
愛知県,名古屋市,44,中村区岩上町４９番地の１,,35.1632008,136.8384823,
愛知県,名古屋市,45,中村区荒輪井町１丁目１１２番地,荒輪井保育園北側フェンス,35.1644586,136.841573,
愛知県,名古屋市,46,中村区中村町７丁目８４番地の１,名身連聴覚言語障害者情報文化センター南側フェンス,35.1713249,136.8538188,
愛知県,名古屋市,47,中村区中村町字茶ノ木６２番,旅館「かとう」駐車場南側フェンス,35.1733538,136.8537511,
愛知県,名古屋市,48,中村区中村町1丁目７２番地,中村小学校東側フェンス,35.174282,136.8588094,
愛知県,名古屋市,49,中村区中村町字木下屋敷４３２番,中村公園内鉄柵,35.1749882,136.8559366,
愛知県,名古屋市,50,中村区中村町２丁目１０番地,油江天神社南側玉垣,35.1722186,136.8591848,
愛知県,名古屋市,51,中村区中村町字加藤屋敷３２番,月極駐車場北側フェンス,35.1708654,136.8563639,
愛知県,名古屋市,52,中村区中村町２丁目２８番地,,35.1732086,136.8584835,
愛知県,名古屋市,53,中村区元中村町２丁目５番地,春日社八幡社南側玉垣,35.169614,136.8586249,
愛知県,名古屋市,54,中村区太閤通９丁目２５番地,中村公園東自転車駐車場東側フェンス,35.1680585,136.8570511,
愛知県,名古屋市,55,中村区道下町３丁目３５番地,日本赤十字社愛知医療センター名古屋第一病院西側フェンス,35.1723814,136.8619211,
愛知県,名古屋市,56,中村区名楽町３丁目１６番地,中村天神社南側玉垣,35.168639,136.863034,
愛知県,名古屋市,57,中村区名楽町４丁目７番地の１８,名楽福祉会館等複合施設南側駐輪場フェンス,35.1693627,136.863366,
愛知県,名古屋市,58,中村区道下町３丁目３５番地,日本赤十字社愛知医療センター名古屋第一病院北側フェンス,35.1723551,136.8630315,
愛知県,名古屋市,59,中村区道下町３丁目３５番地,日本赤十字社愛知医療センター名古屋第一病院東側フェンス,35.170794,136.8634044,
愛知県,名古屋市,60,中村区森末町２丁目１番地,豊臣小学校北側フェンス,35.1775225,136.8618034,
愛知県,名古屋市,61,中村区藤江町４丁目９番地,,35.1731445,136.8606965,
愛知県,名古屋市,62,中村区豊幡町１００番地,,35.1762171,136.8544726,
愛知県,名古屋市,63,中村区森末町４丁目６９番地,,35.1767197,136.8577934,
愛知県,名古屋市,64,中村区上ノ宮町2丁目16番,中部電力パワーグリッド株式会社中村変電所南側フェンス,35.1750486,136.8634003,
愛知県,名古屋市,65,中村区森末町２丁目１番地,豊臣小学校南側フェンス,35.1768648,136.8618731,
愛知県,名古屋市,66,上ノ宮町１丁目２１番１,上ノ宮公園東側フェンス,35.176263,136.8634636,
愛知県,名古屋市,67,中村区寿町５番地,中央交通（株）第3車庫北側フェンス,35.1710853,136.8673075,
愛知県,名古屋市,68,中村区松原町１丁目２３番地の１,中村区役所南側塀,35.1761807,136.8683821,
愛知県,名古屋市,69,中村区日吉町７番１,医療法人珪山会鵜飼病院駐車場北側フェンス,35.1716706,136.8671119,
愛知県,名古屋市,70,中村区松原町１丁目２３番地の１,中村区役所東側塀,35.1763339,136.8687474,
愛知県,名古屋市,71,中村区大秋町４丁目２８番地,大秋西公園　東側鉄柵,35.17274,136.865631,
愛知県,名古屋市,72,中村区松原町１丁目２３番地の１,中村区役所西側塀,35.1765161,136.867918,
愛知県,名古屋市,73,中村区大秋町１丁目２０番地,きんでん中部サービス株式会社西側フェンス,35.1756167,136.8663156,
愛知県,名古屋市,74,中村区中島町２丁目１７番２,中島町公園北側鉄柵,35.1713409,136.8687187,
愛知県,名古屋市,75,中村区松原町５丁目５番地,ほのか小学校西側フェンス,35.17404,136.8710745,
愛知県,名古屋市,76,中村区松原町４丁目６８番地,本陣コミュニティセンター南側フェンス,35.1740939,136.8695237,
愛知県,名古屋市,77,中村区亀島二丁目３１番２０号,則武公園南側鉄柵,35.1709428,136.8755005,
愛知県,名古屋市,78,中村区則武二丁目１７０１番,則武公園東側鉄柵,35.1711483,136.875744,
愛知県,名古屋市,79,中村区則武一丁目１４番１３号,ＮＴＴ則武ビル南側フェンス,35.1721527,136.8764948,
愛知県,名古屋市,80,中村区則武一丁目３２番１２号,中島八幡社西側玉垣,35.1725759,136.8730304,
愛知県,名古屋市,81,中村区則武本通２丁目５５番地,中京幼稚園東側フェンス,35.1728462,136.8727086,
愛知県,名古屋市,82,中村区亀島一丁目５０６番,亀島ふれあい公園東側鉄柵,35.1764215,136.876841,
愛知県,名古屋市,83,中村区佐古前町１０番９号,中村環境事業所東側鉄柵,35.1784125,136.8728117,
愛知県,名古屋市,84,中村区佐古前町５番４号,笈瀬中学校北側フェンス,35.180306,136.8712274,
愛知県,名古屋市,85,中村区亀島一丁目１０番,亀島公園南側鉄柵,35.176441,136.8750703,
愛知県,名古屋市,86,中村区佐古前町５番４号,笈瀬中学校東側フェンス,35.1798303,136.8728313,
愛知県,名古屋市,87,中村区亀島一丁目１０番,亀島公園北側鉄柵,35.1767091,136.8750883,
愛知県,名古屋市,88,中村区井深町１６番３１号,,35.1779777,136.8757153,
愛知県,名古屋市,89,中村区名駅三丁目１７０２番,笹島中学校第２グラウンド東側フェンス,35.1728327,136.8868977,
愛知県,名古屋市,90,中村区名駅四丁目１９番１号,笹島小学校北側フェンス,35.1707371,136.8888913,
愛知県,名古屋市,91,中村区名駅三丁目１９０２番,大東海パーク駐車場東側フェンス,35.1726814,136.888507,
愛知県,名古屋市,92,中村区名駅四丁目１９番１号,笹島小学校東側コンクリート塀,35.1703578,136.8896558,
愛知県,名古屋市,93,中村区名駅五丁目１３番６号,神明社東側鉄柵,35.1705601,136.8915936,
愛知県,名古屋市,94,中村区名駅五丁目２４０１番１,みのりの広場西側鉄柵,35.169291,136.8920208,
愛知県,名古屋市,95,中村区名駅三丁目４番,学校法人名古屋大原学園駐車場東側フェンス,35.1732243,136.8885412,
愛知県,名古屋市,96,中村区名駅南四丁目４番７号,六反コミュニティセンター南側フェンス,35.1615195,136.8880351,
愛知県,名古屋市,97,中村区名駅南二丁目９番２２号,名古屋市笹島寮北側鉄柵,35.1651963,136.8883327,
愛知県,名古屋市,98,中村区名駅南四丁目６番３８号,星槎名古屋中学校北側フェンス,35.1603098,136.8877356,
愛知県,名古屋市,99,中村区名駅南三丁目３番１１号,中部電力パワーグリッド株式会社水主町変電所東側柵,35.1606686,136.8923669,
愛知県,名古屋市,100,中村区名駅南四丁目６番３８号,星槎名古屋中学校東側フェンス,35.1600949,136.8885457,
愛知県,名古屋市,101,中村区名駅南三丁目１６番内,名古屋高速道路１号線高架下駐車場東側フェンス,35.1620851,136.8898629,
愛知県,名古屋市,102,中村区名駅南二丁目８番１１号,太陽工業㈱名古屋支店駐車場東側フェンス,35.1647979,136.8900851,
愛知県,名古屋市,103,中村区竹橋町３番４号,牧野小学校西側フェンス,35.1687308,136.8769762,
愛知県,名古屋市,104,中村区竹橋町３番４号,牧野小学校東側フェンス,35.1688492,136.8780705,
愛知県,名古屋市,105,中村区太閤一丁目２３０１番,学校法人東洋学園所有運動場北側フェンス,35.1671952,136.8815365,
愛知県,名古屋市,106,中村区竹橋町７０１番,牧野公園北側鉄柵,35.1683385,136.8777048,
愛知県,名古屋市,107,中村区太閤一丁目19番7号,ささしまライブ24総合整備事務所南東フェンス,35.1659414,136.8823479,
愛知県,名古屋市,108,中村区竹橋町７０１番,牧野公園南側鉄柵,35.1680183,136.8777262,
愛知県,名古屋市,109,中村区竹橋町３６番３１号,旧中村区役所東側フェンス,35.1684722,136.8732845,
愛知県,名古屋市,110,中村区太閤一丁目２１０８番,学校法人東洋学園所有運動場南側フェンス,35.1666273,136.881566,
愛知県,名古屋市,111,中村区権現通１丁目２８番地,米野小学校西側フェンス,35.1632171,136.8769005,
愛知県,名古屋市,112,中村区太閤二丁目１００４番,平池どんぐり広場西側鉄柵,35.1635854,136.879472,
愛知県,名古屋市,113,中村区太閤一丁目１７番９号,平池保育園南側フェンス,35.1638802,136.8814086,
愛知県,名古屋市,114,中村区権現通３丁目３７番地,熊野社北側玉垣,35.1636187,136.8739877,
愛知県,名古屋市,115,中村区太閤五丁目４２０番,上米野公園北側鉄柵,35.1644804,136.8779136,
愛知県,名古屋市,116,中村区上米野町５丁目５番地,法泉寺南側ブロック塀,35.1656192,136.8753739,
愛知県,名古屋市,117,中村区権現通１丁目２８番地,米野小学校南側鉄柵,35.1630658,136.8772224,
愛知県,名古屋市,118,中村区長戸井町１丁目２番地,金山神社南側玉垣,35.1597088,136.8753839,
愛知県,名古屋市,119,中村区深川町３丁目８０番地,養護老人ホーム清月荘西側フェンス,35.1609595,136.8717704,
愛知県,名古屋市,120,中村区深川町１丁目６番地,わかくさ幼稚園西側フェンス,35.1610363,136.875901,
愛知県,名古屋市,121,中村区下米野町２丁目１７番地,,35.1611238,136.8776351,
愛知県,名古屋市,122,中村区深川町２丁目９番地,,35.1611721,136.8739234,
愛知県,名古屋市,123,中村区深川町３丁目８０番地,養護老人ホーム清月荘南東側フェンス,35.1608717,136.8721955,
愛知県,名古屋市,124,中村区長戸井町３丁目１２番地,豊丸産業株式会社南側塀,35.1590001,136.8735422,
愛知県,名古屋市,125,中村区二ツ橋町５丁目１５番１,日吉二ツ橋公園北側フェンス,35.1646119,136.8685737,
愛知県,名古屋市,126,中村区大宮町３丁目４７番地,中村郵便局南側鉄柵,35.1661672,136.8632087,
愛知県,名古屋市,127,中村区大宮町３丁目４７番地,中村郵便局北側鉄柵,35.1668535,136.863265,
愛知県,名古屋市,128,中村区城主町１丁目１番地,日吉小学校西側フェンス,35.1657972,136.8666174,
愛知県,名古屋市,129,中村区城主町１丁目１番地,日吉小学校東側フェンス,35.1654069,136.8678834,
愛知県,名古屋市,130,中村区中村本町１丁目４５番地,中部電力パワーグリッド株式会社中村営業所資材倉庫南側フェンス,35.1673921,136.861617,
愛知県,名古屋市,131,中村区城主町１丁目１番地,日吉小学校北側フェンス,35.165931,136.8671914,
愛知県,名古屋市,132,中村区権現通４丁目２８番地,黄金中学校北側コンクリート塀,35.1635034,136.8704642,
愛知県,名古屋市,133,中村区権現通４丁目２８番地,黄金中学校南側フェンス,35.1621198,136.8706707,
愛知県,名古屋市,134,中村区日ノ宮町４丁目６５番１,名西どんぐり広場東側フェンス,35.159778,136.8642557,
愛知県,名古屋市,135,中村区京田町２丁目１７番,京田公園南側鉄柵,0.0,0.0,
愛知県,名古屋市,136,中村区白子町１丁目３番地,,35.162969,136.8679886,
愛知県,名古屋市,137,中村区二ツ橋町５丁目５２番,二ツ橋公園南側フェンス,35.1639833,136.8701998,
愛知県,名古屋市,138,中村区黄金通７丁目２８番地の１,名古屋高速道路公社保全事務所北側アルミ柵,35.1572122,136.8699171,
愛知県,名古屋市,139,中村区日ノ宮町１丁目１２０番地,千成小学校西側フェンス,35.1620797,136.8577559,
愛知県,名古屋市,140,中村区日ノ宮町１丁目１２０番地,千成小学校北側フェンス,35.1622902,136.8582843,
愛知県,名古屋市,141,中村区日ノ宮町１丁目１２０番地,千成小学校東側フェンス,35.1616916,136.8590461,
愛知県,名古屋市,142,中村区日ノ宮町1丁目30番地,日吉公園北西側鉄柵,35.1619429,136.8606022,
愛知県,名古屋市,143,中村区上石川町３丁目３０番１,中日本ジューキ㈱駐車場北側フェンス,35.1627523,136.8532258,
愛知県,名古屋市,144,中村区押木田町１丁目１番地,八幡社東側玉垣,35.1639999,136.8589462,
愛知県,名古屋市,145,中村区鈍池町３丁目９９番地,,35.1601357,136.8565924,
愛知県,名古屋市,146,中村区乾出町２丁目３２番,中村公園南自転車駐車場北側フェンス,35.1662868,136.855568,
愛知県,名古屋市,147,中村区角割町３丁目２０番,角割公園南側鉄柵,35.1562133,136.8667616,
愛知県,名古屋市,148,中村区北畑町４丁目１番地,偕行会城西病院南側フェンス,35.1583546,136.8655714,
愛知県,名古屋市,149,中村区北畑町１丁目８番地,豊国中学校西側フェンス,35.1594501,136.8678016,
愛知県,名古屋市,150,中村区烏森町６丁目２７６番地,,35.150849,136.8554654,
愛知県,名古屋市,151,中村区烏森町２丁目２５番地,柳小学校東側フェンス,35.1542736,136.8611972,
愛知県,名古屋市,152,中村区烏森町２丁目２５番地,柳小学校北側フェンス,35.1547232,136.8610658,
愛知県,名古屋市,153,中村区烏森町２丁目２番地,松蔭高等学校東側フェンス,35.1562426,136.8619626,
愛知県,名古屋市,154,中村区烏森町６丁目１３６番,大坪公園西側鉄柵,35.1532595,136.8557388,
愛知県,名古屋市,155,中村区岩塚町２丁目１０番地,御田中学校東側フェンス,35.1562531,136.8516961,
愛知県,名古屋市,156,中村区岩塚町２丁目１０番地,御田中学校西側フェンス,35.1556611,136.8499043,
愛知県,名古屋市,157,中村区宮塚町１２９番１,宮塚公園東側鉄柵,35.1597535,136.8408527,
愛知県,名古屋市,158,中村区岩塚町４丁目１７番地,岩塚小学校北門東寄りフェンス,35.15685,136.8464193,
愛知県,名古屋市,159,中村区岩塚町４丁目１７番地,岩塚小学校南側正門東寄りフェンス,35.1562053,136.8463495,
愛知県,名古屋市,160,中村区並木二丁目43番地,並木第二公園南側鉄柵,35.1514672,136.8495503,
愛知県,名古屋市,161,中村区剣町２０２番,剣公園北側鉄柵,35.1594489,136.8459567,
愛知県,名古屋市,162,中村区二瀬町１１４番,二瀬公園南側鉄柵,35.159019,136.8502196,
愛知県,名古屋市,163,中村区八社一丁目１９９番地の２,八社小学校東側フェンス,35.1512132,136.8393219,
愛知県,名古屋市,164,中村区八社一丁目８４番,一里山公園南側鉄柵,35.1517265,136.841591,
愛知県,名古屋市,165,中村区横前町５２１番地,瓦田公園東側鉄柵,35.1477927,136.8416852,
愛知県,名古屋市,166,中村区横井一丁目１２２番,横井第一公園南東側鉄柵,35.1484741,136.8355408,
愛知県,名古屋市,167,中村区八社一丁目１９９番地の２,八社小学校西側フェンス,35.1510509,136.8383241,
愛知県,名古屋市,168,中村区横井一丁目３４０番地,市営横井荘３棟南側フェンス,35.1495249,136.8336763,
愛知県,名古屋市,169,中村区八社二丁目１６４番地,masked,35.1490332,136.8381292,
愛知県,名古屋市,170,中村区横井二丁目１６９番１,交通局横井町バス回転場用地南側フェンス,35.1477394,136.8327472,
愛知県,名古屋市,1,天白区平針南二丁目103番地,masked,35.1142922,137.0037683,
愛知県,名古屋市,2,天白区平針南二丁目2501番地,三ケ月山第一公園北西側鉄柵,35.1106985,137.0096565,
愛知県,名古屋市,3,天白区平針台一丁目1809番地,調整池東側フェンス,0.0,0.0,
愛知県,名古屋市,4,天白区平針南一丁目113番地,平針南コミュニティセンター南側フェンス,0.0,0.0,
愛知県,名古屋市,5,天白区平針南三丁目101番地,平針団地駐車場西側フェンス,35.1104909,137.0036288,
愛知県,名古屋市,6,天白区平針南二丁目1002番地,masked,35.1100222,137.0060639,
愛知県,名古屋市,7,天白区平針南三丁目201番地,masked,0.0,0.0,
愛知県,名古屋市,8,天白区平針南四丁目402番地,平針南小学校南側フェンス,35.1066755,137.010039,
愛知県,名古屋市,9,天白区平針四丁目601番地,屋下公園北側鉄柵,35.1222334,137.0045996,
愛知県,名古屋市,10,天白区中平三丁目1801番地,細口下公園西側鉄柵,35.1165973,137.0007262,
愛知県,名古屋市,11,天白区向が丘二丁目1005番地,中島駐車場東側フェンス,35.1187732,137.0072123,
愛知県,名古屋市,12,天白区向が丘二丁目1414番地,㈱フクモト西側フェンス,35.1175014,137.0048577,
愛知県,名古屋市,13,天白区荒池二丁目3202番地,荒池北調節池南側フェンス,35.115656,137.0135112,
愛知県,名古屋市,14,天白区向が丘一丁目620番地,平針小学校正門北側フェンス,35.1187574,137.0036183,
愛知県,名古屋市,15,天白区中平三丁目601番地,中平公園南側鉄柵,35.1190245,137.0014011,
愛知県,名古屋市,16,天白区中平四丁目701番地,平針中学校正門南側フェンス,35.1136075,136.9995416,
愛知県,名古屋市,17,天白区原一丁目1909番地,東名古屋瑞穂線第31号鉄塔南側フェンス,35.1249422,136.9973548,
愛知県,名古屋市,18,天白区原一丁目1701番地,高速度鉄道原駅吸換気口フェンス北側,35.1256332,136.998071,
愛知県,名古屋市,19,天白区原一丁目901番地,大藪公園東側鉄柵,35.1275758,136.9991519,
愛知県,名古屋市,20,天白区平針一丁目501番地,平針北小学校正門南側フェンス,35.127102,137.0031261,
愛知県,名古屋市,21,天白区平針一丁目1918番地,高速度鉄道平針換気所フェンス西側,35.1245534,137.0019861,
愛知県,名古屋市,22,天白区平針二丁目1804番地,高速度鉄道平針駅吸換気口フェンス北側,35.1232211,137.0054311,
愛知県,名古屋市,23,天白区平針一丁目1601番地,郷之島公園南西側鉄柵,35.1253277,137.0011017,
愛知県,名古屋市,24,天白区平針二丁目501番地,高瀬木公園南側鉄柵,35.1245264,137.0066408,
愛知県,名古屋市,25,天白区原二丁目1101番地,下原公園北側鉄柵,35.1240508,136.9916799,
愛知県,名古屋市,26,天白区原五丁目501番地,平池下公園南側鉄柵,35.1189773,136.9946579,
愛知県,名古屋市,27,天白区原三丁目601番地,上原公園東側鉄柵,35.1218913,136.9926413,
愛知県,名古屋市,28,天白区原五丁目2506番地,天白消防署南側中央フェンス,35.1140882,136.9934172,
愛知県,名古屋市,29,天白区原五丁目2101番地,masked,35.1158508,136.9939441,
愛知県,名古屋市,30,天白区原四丁目1902番地の1,原中学校南側フェンス西側,35.1199789,136.9945021,
愛知県,名古屋市,31,天白区原四丁目1902番地の1,原中学校正門東側フェンス,35.120817,136.995819,
愛知県,名古屋市,32,天白区中平一丁目1701番地,藤藪中平公園東側鉄柵,35.1214625,136.9992873,
愛知県,名古屋市,33,天白区中平五丁目1101番地,黒石中平公園西側鉄柵,35.1130921,136.9963115,
愛知県,名古屋市,34,天白区植田西二丁目1101番地,張屋公園南東側,35.1332258,136.9813188,
愛知県,名古屋市,35,天白区元植田三丁目901番地,植田北屋敷公園南東側鉄柵中央,35.1344022,136.9868302,
愛知県,名古屋市,36,天白区一本松一丁目517番地,一本松保育園西側フェンス北側,35.1397561,136.9874916,
愛知県,名古屋市,37,天白区植田本町一丁目702番地,植田中学校南西側フェンス,35.1368904,136.9916485,
愛知県,名古屋市,38,天白区元植田一丁目1601番地,源右エ門公園西側フェンス,35.138316,136.9893803,
愛知県,名古屋市,39,天白区植田本町一丁目1201番地,植田小学校正門南側フェンス,35.1361619,136.99329,
愛知県,名古屋市,40,天白区植田本町二丁目1310番地,植田ヶ丘子ども園南側フェンス,35.1327907,136.9943302,
愛知県,名古屋市,41,天白区植田本町二丁目118番地,黒石送水幹線用地西側フェンス,35.1341696,136.9913786,
愛知県,名古屋市,42,天白区植田南一丁目207番地,浅井モータース東側フェンス,35.1274377,136.9801764,
愛知県,名古屋市,43,天白区植田南二丁目701番地,アオキスーパー植田店駐車場西側フェンス,35.1282632,136.9814735,
愛知県,名古屋市,44,天白区植田南二丁目216番地,豊田信用金庫天白支店駐車場東側フェンス,35.1270885,136.9857292,
愛知県,名古屋市,45,天白区植田西三丁目701番地,植田森後公園南側鉄柵,35.1304823,136.9828477,
愛知県,名古屋市,46,天白区植田三丁目1301番地,高速度鉄道植田駅吸換気口西側フェンス,35.1282109,136.9891278,
愛知県,名古屋市,47,天白区植田三丁目301番地,植田南小学校西側フェンス,35.1291465,136.9894765,
愛知県,名古屋市,48,天白区井口一丁目808番地,高速度鉄道天白吸換気口南側フェンス,35.1275705,136.9924169,
愛知県,名古屋市,49,天白区植田本町三丁目501番地,塔ノ前公園南東側鉄柵,35.1313417,136.993588,
愛知県,名古屋市,50,天白区梅が丘二丁目801番地,梅が丘北公園南側フェンス,35.1369334,137.0079747,
愛知県,名古屋市,51,天白区梅が丘一丁目1114番地,梅ヶ丘(有)近藤地所駐車場北側フェンス,35.1369405,137.002644,
愛知県,名古屋市,52,天白区鴻の巣二丁目1401番地,三七川原公園南側鉄柵,35.1387489,136.9956946,
愛知県,名古屋市,53,天白区鴻の巣一丁目601番地,八事東サンハイツ南側駐車場西側フェンス,35.1435925,136.9990339,
愛知県,名古屋市,54,天白区焼山二丁目1302番地,植田北小学校正門北側フェンス,35.1420356,136.9943674,
愛知県,名古屋市,55,天白区焼山一丁目601番地,大久手公園南側鉄柵,35.1435786,136.9907139,
愛知県,名古屋市,56,天白区鴻の巣一丁目2001番地,植田鴻ノ巣公園南側鉄柵,35.1412807,136.9975721,
愛知県,名古屋市,57,天白区焼山二丁目607番地,中部電力パワーグリッド㈱一本松変電所東側フェンス,35.1436225,136.9957007,
愛知県,名古屋市,58,天白区梅が丘五丁目301番地,masked,35.1346838,137.0029062,
愛知県,名古屋市,59,天白区梅が丘三丁目1101番地,梅が丘公園北側フェンス,35.1348262,137.0056779,
愛知県,名古屋市,60,天白区井口二丁目1001番地,井口公園南側鉄柵,35.1279516,136.9965144,
愛知県,名古屋市,61,天白区植田東三丁目1201番地,株田公園南側フェンス,35.130624,136.9989266,
愛知県,名古屋市,62,天白区植田東三丁目1003番地の1,植田東小学校正門北側フェンス,35.1308174,136.9971098,
愛知県,名古屋市,63,天白区梅が丘五丁目1901番地,三郎廻間第二公園西側鉄柵,35.1318087,137.0019185,
愛知県,名古屋市,64,天白区植田東二丁目301番地,植田東公園西側鉄柵,35.1343462,136.9970383,
愛知県,名古屋市,65,天白区梅が丘四丁目615番地,中部電力㈱鉄塔西側フェンス,35.1323715,137.0064583,
愛知県,名古屋市,66,天白区植田山五丁目1201番地,姥ヶ崎公園南側鉄柵,35.1430358,136.9865638,
愛知県,名古屋市,67,天白区植田山四丁目1501番地,姥ケ崎南公園東側鉄柵,35.1429515,136.989398,
愛知県,名古屋市,68,天白区植田山二丁目101番地,社会福祉法人紫水会オーネスト希望南西側フェンス,35.1470807,136.9845564,
愛知県,名古屋市,69,天白区天白町大字八事字裏山68番地の5,天白渓下池公園南西側鉄柵,35.1378858,136.9773714,
愛知県,名古屋市,70,天白区大坪二丁目1601番地,大坪小学校北側フェンス,35.136912,136.9820042,
愛知県,名古屋市,71,天白区大坪二丁目1601番地,大坪小学校西門南側フェンス,35.136855,136.9810573,
愛知県,名古屋市,72,天白区天白町大字八事字裏山66番地の1,名城大学第2グラウンド東側フェンス,35.1400742,136.975059,
愛知県,名古屋市,73,天白区塩釜口二丁目1401番地,㈱名古屋銀行塩釜口支店駐車場北側フェンス,35.1323447,136.9779482,
愛知県,名古屋市,74,天白区元八事四丁目70番地,塩釜口第1自転車駐車場西側フェンス,35.1317353,136.977414,
愛知県,名古屋市,75,天白区元八事三丁目306番地,上八事第一公園北側鉄柵,35.127742,136.970802,
愛知県,名古屋市,76,天白区元八事四丁目255番地,上八事第二公園東側鉄柵,35.1277092,136.9750155,
愛知県,名古屋市,77,天白区音聞山1801番地,八事東小学校西側通用門北側フェンス,35.1284383,136.9686419,
愛知県,名古屋市,78,天白区元八事二丁目125番地,元八事公園西側鉄柵,35.1242155,136.9699342,
愛知県,名古屋市,79,天白区中砂町401番地,㈱水野鉄工所駐車場北側フェンス,35.1218149,136.9654377,
愛知県,名古屋市,80,天白区中砂町1番地,京楽産業．㈱駐車場北側フェンス,35.1207411,136.9621477,
愛知県,名古屋市,81,天白区元八事一丁目149番地,こうしん公園東側鉄柵,35.1223652,136.9642298,
愛知県,名古屋市,82,天白区八幡山105番地,名城大学薬学部学生用駐車場北側フェンス,35.1345427,136.9697665,
愛知県,名古屋市,83,天白区御幸山1001番地,御幸山中学校南側フェンス,0.0,0.0,
愛知県,名古屋市,84,天白区八幡山201番地の4,八事八幡山公園西側鉄柵,35.1327299,136.9706837,
愛知県,名古屋市,85,天白区八事天道318番地,㈱三菱ＵＦＪ銀行八事支店南側ティーファス八事駐車場東側フェンス,35.1358954,136.9634474,
愛知県,名古屋市,86,天白区表台30番地,表台公園東側鉄柵南側,35.1275334,136.9648884,
愛知県,名古屋市,87,天白区表山三丁目101番地,masked,35.1288882,136.9593174,
愛知県,名古屋市,88,天白区表山二丁目701番地,表山小学校正門東側フェンス,35.1308415,136.96468,
愛知県,名古屋市,89,天白区表山三丁目2101番地,八事下池公園東側フェンス,35.1264578,136.9611847,
愛知県,名古屋市,90,天白区島田二丁目201番地,天白区役所南側植木壇,35.1226328,136.9756236,
愛知県,名古屋市,91,天白区島田五丁目201番地,天白郵便局南西側フェンス,35.1189779,136.9724187,
愛知県,名古屋市,92,天白区池場二丁目1109番地,天白小学校正門南側フェンス,35.1226174,136.9833231,
愛知県,名古屋市,93,天白区池場一丁目701番地,島田公園北東側植木壇,35.1251478,136.982684,
愛知県,名古屋市,94,天白区池場五丁目1014番地,天白中学校東側通用門南側フェンス,35.1197326,136.9826018,
愛知県,名古屋市,95,天白区高宮町901番地,新池東側フェンス,35.1167087,136.9788252,
愛知県,名古屋市,96,天白区島田四丁目2801番地,上郷公園北西側植木壇,35.1182136,136.9772385,
愛知県,名古屋市,97,天白区天白町大字島田字黒石4050,天白公園北西角スペース,35.1176611,136.9848014,
愛知県,名古屋市,98,天白区菅田二丁目1101番地,海老山公園南側鉄柵,35.1172367,136.9713311,
愛知県,名古屋市,99,天白区西入町78番地,西之杁公園北側鉄柵,35.112462,136.9748401,
愛知県,名古屋市,100,天白区一つ山1丁目1番地,津田硝子店北側駐車場西側フェンス,35.1145211,136.9787519,
愛知県,名古屋市,101,天白区保呂町801番地,保呂公園西側鉄柵,35.1185085,136.9679252,
愛知県,名古屋市,102,天白区一つ山1丁目66番地,市営一つ山荘東Ｔ-8棟南側フェンス,35.1101298,136.9811116,
愛知県,名古屋市,103,天白区一つ山3丁目24番地,市営一つ山荘Ｔ-Ａ棟北側フェンス,35.1101429,136.9785631,
愛知県,名古屋市,104,天白区菅田一丁目401番地,中曽根公園南東側鉄柵,35.1159638,136.9637891,
愛知県,名古屋市,105,天白区山根町268番地,masked,35.1090215,136.9743584,
愛知県,名古屋市,106,天白区大根町326番地,市営おおね荘17号棟西側フェンス,35.1135241,136.9905975,
愛知県,名古屋市,107,天白区大根町31番地,市営おおね荘3号棟南東側フェンス,35.1121652,136.9897422,
愛知県,名古屋市,108,天白区大根町326番地,市営おおね荘16号棟東側フェンス,35.112133,136.9918635,
愛知県,名古屋市,109,天白区御前場町31番地,市営御前場荘5号棟南西側フェンス,35.1090326,136.992828,
愛知県,名古屋市,110,天白区御前場町31番地,市営御前場荘1号棟北側フェンス西側,35.1104984,136.9917417,
愛知県,名古屋市,111,天白区高島二丁目101番地,島田緑地南角鉄柵,35.1048722,137.000452,
愛知県,名古屋市,112,天白区島田が丘801番地,masked,35.1077435,136.993617,
愛知県,名古屋市,113,天白区高島二丁目101番地,島田緑地北西側フェンス,35.1066803,136.999717,
愛知県,名古屋市,114,天白区高坂町89番地,たかしま小学校北東側フェンス,35.1081149,136.9868814,
愛知県,名古屋市,115,天白区高坂町89番地,たかしま小学校北西側フェンス南西側,35.1079174,136.985602,
愛知県,名古屋市,116,天白区土原五丁目201番地,市営土原荘1棟北東側中央植木壇,35.1136892,136.9816799,
愛知県,名古屋市,117,天白区高坂町273番地,市営高坂荘17号棟北西側フェンス,35.1108615,136.9865088,
愛知県,名古屋市,118,天白区高坂町11番地,市営高坂荘第二集会所北西側フェンス,35.109569,136.9850725,
愛知県,名古屋市,119,天白区久方三丁目163番地,久方中学校東門南側フェンス,35.1047988,136.9835825,
愛知県,名古屋市,120,天白区高坂町93番地,島田第一保育園南東側フェンス,35.1095089,136.9872162,
愛知県,名古屋市,121,天白区高坂町340番地,島田子供の家南東側フェンス,35.1098502,136.98993,
愛知県,名古屋市,122,天白区久方三丁目168番地,戸笠公園北側フェンス,35.1041628,136.979553,
愛知県,名古屋市,123,天白区境根町36番地,相生小学校東側フェンス北側,35.1076122,136.9739013,
愛知県,名古屋市,125,天白区久方一丁目145番地の1,京セラインダストリアルツールズ株式会社東側駐車場北側フェンス,35.1075856,136.9765899,
愛知県,名古屋市,126,天白区久方二丁目3番地,豊田工業大学職員倶楽部南側フェンス,35.1076331,136.9829825,
愛知県,名古屋市,127,天白区久方一丁目155番地,masked,35.1033206,136.9742285,
愛知県,名古屋市,128,天白区相川一丁目1番地,交通局野並営業所用地市営南相生荘東側ブロック塀南側,35.1023604,136.9672905,
愛知県,名古屋市,129,天白区福池二丁目340番地,野並保育園正門左側フェンス,35.1098976,136.9591598,
愛知県,名古屋市,130,天白区福池一丁目327番地,㈱三勇商店東側フェンス,35.1100669,136.954565,
愛知県,名古屋市,131,天白区福池二丁目46番地,笹原公園南側鉄柵,35.1104238,136.9586429,
愛知県,名古屋市,132,天白区野並一丁目60番地,野並小学校東門南側フェンス,35.1082916,136.9554113,
愛知県,名古屋市,133,天白区笹原町101番地,南天白中学校南側フェンス,35.1119192,136.9598577,
愛知県,名古屋市,134,天白区井の森町135番地,名古屋自動車学校天白校東側フェンス,35.1055575,136.9510164,
愛知県,名古屋市,135,天白区古川町76番地,若宮商業高等学校北側フェンス,35.1028807,136.950769,
愛知県,名古屋市,136,天白区野並四丁目157番地,梅野公園南側西鉄柵,35.1043543,136.9601288,
愛知県,名古屋市,124,天白区久方一丁目148番地の1,タイムズのB　UR都市機構相生山団地駐車場南側フェンス,35.1061914,136.9757952,
愛知県,名古屋市,1,東区東桜一丁目13番1号,東桜小学校　北門西側鉄柵,35.1719985,136.9125229,
愛知県,名古屋市,2,東区東桜一丁目13番1号,東桜小学校　正門南側金網フェンス,35.1713191,136.9132176,
愛知県,名古屋市,3,東区東桜一丁目７番１号,冨士中学校　西側金網フェンス,35.1728372,136.9118429,
愛知県,名古屋市,4,東区東桜一丁目4番12号,冨士神社　入口西側石垣,35.1738364,136.9125586,
愛知県,名古屋市,5,東区東桜二丁目12番28号,西蓮寺　東側ブロック塀,35.1718292,136.9163436,
愛知県,名古屋市,6,東区東桜二丁目７番,松山公園　南側金網フェンス,35.1724832,136.916847,
愛知県,名古屋市,7,東区泉二丁目14番,七小公園　西側鉄柵,35.1767978,136.9150498,
愛知県,名古屋市,8,東区泉一丁目1番42号,第一幼稚園　正門植栽,35.1777106,136.9084063,
愛知県,名古屋市,9,東区泉一丁目1番42号,第一幼稚園　東側北寄りフェンス,35.1778433,136.9091265,
愛知県,名古屋市,10,東区泉一丁目17番8号,名古屋国税局東分庁舎　北側フェンス,35.1758212,136.9108069,
愛知県,名古屋市,11,東区泉一丁目1127番地,アメニティ泉パーキング　西側金網フェンス,35.1765785,136.9100153,
愛知県,名古屋市,12,東区泉一丁目1919番地,泉富士塚公園　西側入口植栽,35.1754763,136.9129945,
愛知県,名古屋市,13,東区東外堀町59番地,愛知県議員会館　南側石塀,35.1795425,136.9102423,
愛知県,名古屋市,14,東区東外堀町64番地,東外堀町どんぐりひろば　西側鉄柵,35.1799608,136.9097105,
愛知県,名古屋市,15,東区白壁一丁目3番地,市政資料館(名城公園）  東南角塀,35.1808197,136.9108271,
愛知県,名古屋市,16,東区主税町二丁目33番地,主税町公園　東側鉄柵,35.1806953,136.9131886,
愛知県,名古屋市,17,東区主税町三丁目33番地,カトリック主税町教会　西側南寄り塀,35.1805664,136.9140594,
愛知県,名古屋市,18,東区泉一丁目410番地,東片端どんぐりひろば　南側東寄り金網フェンス,35.1777799,136.9125929,
愛知県,名古屋市,19,東区橦木町二丁目24番地,山吹小学校　南門西側金網フェンス,35.1791166,136.9151154,
愛知県,名古屋市,20,東区橦木町二丁目24番地,山吹小学校　東門北側鉄柵,35.1797743,136.9159587,
愛知県,名古屋市,21,東区橦木町三丁目73番地,masked,35.1795422,136.9177363,
愛知県,名古屋市,22,東区橦木町三丁目78番地,東海財務局橦木分庁舎　北側塀,35.1796091,136.9198796,
愛知県,名古屋市,23,東区白壁二丁目32番6号,明和高等学校　西門南寄り金網フェンス,35.1833885,136.9089523,
愛知県,名古屋市,24,東区白壁二丁目32番6号,明和高等学校　南門東寄り金網フェンス,35.1832416,136.9095451,
愛知県,名古屋市,25,東区白壁二丁目2906番地,西二葉公園　東側鉄柵,35.1843638,136.9119314,
愛知県,名古屋市,26,東区白壁三丁目114番地,公益財団法人名古屋まちづくり公社清水口駐車場　南側東寄り金網フェンス,35.183421,136.9146251,
愛知県,名古屋市,27,東区白壁三丁目701番2,白壁倉庫　南側西寄り金網フェンス,35.1852849,136.9148423,
愛知県,名古屋市,28,東区白壁三丁目24番47号,長久寺　北側ブロック塀,35.1859959,136.9192133,
愛知県,名古屋市,29,東区白壁一丁目52番地2,山吹コミュニティセンター　北側西寄り金網フェンス,35.1819622,136.9121613,
愛知県,名古屋市,30,東区芳野二丁目7番51号,工芸高等学校　正門西側金網フェンス,35.1862447,136.9213651,
愛知県,名古屋市,31,東区芳野一丁目1905番,芳野一･二･三どんぐりひろば　東側金網フェンス,35.1859126,136.9241866,
愛知県,名古屋市,32,東区芳野一丁目207番地,長塀町６丁目どんぐりひろば　東側南寄り金網フェンス,35.1840939,136.9207976,
愛知県,名古屋市,33,東区白壁五丁目7番地,東白壁小学校　正門南側金網フェンス,35.1826005,136.9209075,
愛知県,名古屋市,34,東区白壁五丁目7番地,東白壁小学校　南側金網フェンス,35.1825808,136.9216324,
愛知県,名古屋市,35,東区相生町71番地,梶浦駐車場　西側金網フェンス,35.1812368,136.9219554,
愛知県,名古屋市,36,東区徳川一丁目12番1号,愛知商業高等学校　南側鉄柵,35.1792069,136.9253263,
愛知県,名古屋市,37,東区徳川一丁目1509番地,東橦木町どんぐりひろば　入口北側金網フェンス,35.1802876,136.9239848,
愛知県,名古屋市,38,東区筒井二丁目10番31号,愛知大学車道キャンパス　東側金網フェンス,35.1746435,136.9278657,
愛知県,名古屋市,39,東区葵二丁目323番3,安房公園　南側鉄柵,35.1730749,136.9266673,
愛知県,名古屋市,40,東区葵二丁目738番,板屋水筒先公園　東側南寄り植栽,35.1718644,136.9256169,
愛知県,名古屋市,41,東区葵三丁目402番1,車道駅換気口用地　南側金網フェンス,35.1731331,136.9294324,
愛知県,名古屋市,42,東区葵三丁目2番9号,葵コミュニティセンター　南側空地,35.1721497,136.9279416,
愛知県,名古屋市,43,東区筒井三丁目2704番地,赤萩三丁目どんぐりひろば　北側鉄柵,35.173898,136.9306622,
愛知県,名古屋市,44,東区筒井二丁目10番31号,愛知大学車道キャンパス　西側金網フェンス,35.1747776,136.9266245,
愛知県,名古屋市,45,東区葵一丁目19番,新栄町駅1番出入口　北側側壁,35.1708973,136.9196956,
愛知県,名古屋市,46,東区葵一丁目12番23号,カトリック布池教会　南側鉄柵,35.1722935,136.9242331,
愛知県,名古屋市,47,東区葵一丁目5番1号,葵小学校　南通用門西側金網フェンス,35.1724961,136.9218264,
愛知県,名古屋市,48,東区葵一丁目5番1号,葵小学校　正門西側金網フェンス,35.1736323,136.9218431,
愛知県,名古屋市,49,東区代官町41番28号,NTT代官町ビルNTT西日本東海電報営業支店　東側鉄柵,35.1747459,136.9248047,
愛知県,名古屋市,50,東区代官町4001番地,横代官町どんぐりひろば　北側金網フェンス,35.1750998,136.922835,
愛知県,名古屋市,51,東区泉三丁目13番11号,,35.1765041,136.9191455,
愛知県,名古屋市,52,東区泉三丁目16番地,舎人公園　南西側鉄柵,35.1773408,136.9198059,
愛知県,名古屋市,53,東区代官町2516番,竪代官公園　南西側金網フェンス,35.1770105,136.9242955,
愛知県,名古屋市,54,東区筒井一丁目8番13号,養護施設慈友学園　東側金網フェンス,35.1780361,136.9261119,
愛知県,名古屋市,55,東区筒井一丁目1番1号,あずま中学校　東側南寄り金網フェンス,35.1801106,136.9277145,
愛知県,名古屋市,56,東区筒井一丁目7番52号,建中寺幼稚園　南側金網フェンス,35.1783673,136.9274892,
愛知県,名古屋市,57,東区筒井一丁目15番28号,筒井小学校　南門東側鉄柵,35.1768789,136.9288263,
愛知県,名古屋市,58,東区筒井一丁目15番28号,筒井小学校　正門南側鉄柵,35.1770488,136.9293859,
愛知県,名古屋市,59,東区車道町二丁目30番7,黒門公園　南側鉄柵,35.1780191,136.9313247,
愛知県,名古屋市,60,東区豊前町一丁目13番4,大曽根北・筒井都市整備事務所(旧豊前出張所)　北側駐車場南側金網フェンス,35.1777583,136.9361975,
愛知県,名古屋市,61,東区新出来二丁目264番地,新出来西公園　北側鉄柵,35.1812194,136.9325931,
愛知県,名古屋市,62,東区出来町一丁目4番3号,市営新出来荘駐車場　北側金網フェンス,35.180665,136.933743,
愛知県,名古屋市,63,東区出来町一丁目8番1号,明倫小学校　南門西側金網フェンス,35.1805814,136.9347619,
愛知県,名古屋市,64,東区古出来一丁目618番,古出来南どんぐりひろば　西側金網フェンス,35.1802953,136.9384234,
愛知県,名古屋市,65,東区出来町二丁目8番21号,愛知県出来町庁舎　西側南寄り鉄柵,35.1851908,136.936411,
愛知県,名古屋市,66,東区出来町三丁目16番16号,名古屋市東環境事業所　正門西側金網フェンス,35.1853417,136.9379194,
愛知県,名古屋市,67,東区古出来二丁目805番地,古出来公園　北側金網フェンス,35.1834883,136.9407287,
愛知県,名古屋市,68,東区徳川一丁目602番地,中部テレコミュニケーション(株)山口町局　西側金網フェンス,35.1818897,136.9268547,
愛知県,名古屋市,69,東区山口町403番地,山口南公園　西側鉄柵,35.184032,136.9261308,
愛知県,名古屋市,70,東区徳川二丁目4番13号,善行寺　西側コンクリート塀,35.1852857,136.9261079,
愛知県,名古屋市,71,東区山口町1002番地,山口公園　北東側金網フェンス,35.1848039,136.9271202,
愛知県,名古屋市,72,東区徳川町1601番地,旭丘小学校　東門南側金網フェンス,35.1849769,136.9302398,
愛知県,名古屋市,73,東区東大曽根町11番1号,桜丘中学校　西通用門北側金網フェンス,35.1877527,136.9320056,
愛知県,名古屋市,74,東区東大曽根町11番1号,桜丘中学校　東側金網フェンス,35.1871351,136.9330081,
愛知県,名古屋市,75,東区東大曽根町4601番地,MAYパーク大曽根駅南口駐車場　西側金網フェンス,35.1885227,136.9364804,
愛知県,名古屋市,76,東区前浪町3番11号,市営前浪荘管理事務所　東側鉄柵,35.1853136,136.9522344,
愛知県,名古屋市,77,東区前浪町6番10号,市営前浪荘T4棟　東側植栽,35.1844839,136.952957,
愛知県,名古屋市,78,東区大幸南二丁目1番10号,至学館高等学校　南側金網フェンス,35.1862061,136.951297,
愛知県,名古屋市,79,東区大幸南一丁目1番20号,名古屋大学医学部保健学科　正門東側鉄柵,35.1895342,136.9504467,
愛知県,名古屋市,80,東区大幸南一丁目126番地,愛知教育大学附属小学校　正門東側鉄柵,35.188922,136.9532543,
愛知県,名古屋市,81,東区大幸四丁目18番15号,,35.1900645,136.9553389,
愛知県,名古屋市,82,東区大幸四丁目7番28号,大幸八幡社　東側石垣,35.191641,136.953026,
愛知県,名古屋市,83,東区矢田南二丁目5番,六所社公園　北側金網フェンス,35.1837081,136.9430916,
愛知県,名古屋市,84,東区矢田南三丁目8番3号,中部建材（株）北側駐車場　西側鉄柵,35.1852646,136.9428266,
愛知県,名古屋市,85,東区矢田南三丁目710番地,あすなろどんぐりひろば　北側金網フェンス,35.1855453,136.9438235,
愛知県,名古屋市,86,東区矢田南四丁目4番１号,矢田小学校　南側金網フェンス,35.1896346,136.9448407,
愛知県,名古屋市,87,東区矢田南四丁目4番１号,矢田小学校　北側金網フェンス,35.1905301,136.9454737,
愛知県,名古屋市,88,東区大幸一丁目8番8号,㈱トーエネック名古屋支店　北側金網フェンス,35.1936699,136.9471024,
愛知県,名古屋市,89,東区大幸二丁目1番28号,葬儀会館ティア大幸　北側駐車場金網フェンス,35.1906493,136.9481842,
愛知県,名古屋市,90,東区矢田一丁目6番,ＭＯパーキング　南側金網フェンス,35.1920977,136.9394425,
愛知県,名古屋市,91,東区矢田一丁目1704番,山田東公園　東側鉄柵,35.1942836,136.9394169,
愛知県,名古屋市,92,東区矢田二丁目13番15号,一般社団法人愛知県歯科技工士会会館　西側金網フェンス,35.1952673,136.941641,
愛知県,名古屋市,93,東区矢田二丁目21番40号,白山神社　東側石垣,35.1956565,136.9420425,
愛知県,名古屋市,94,東区矢田三丁目3番44号,やだ保育園　東側北寄り金網フェンス,35.197059,136.9428178,
愛知県,名古屋市,95,東区矢田四丁目802番,矢田北公園　西側石垣,35.1948373,136.9427231,
愛知県,名古屋市,96,東区矢田三丁目15番,木ヶ崎公園　西側鉄柵,35.1947886,136.9458326,
愛知県,名古屋市,97,東区砂田橋一丁目1番10号,砂田橋ショッピングセンター　西側金網フェンス,35.1882194,136.9551942,
愛知県,名古屋市,98,東区砂田橋二丁目1番58号,名古屋高等学校　南側フェンス,35.1885039,136.9560402,
愛知県,名古屋市,99,東区砂田橋二丁目201番,大幸東公園　南側鉄柵,35.1898561,136.9590322,
愛知県,名古屋市,100,東区砂田橋三丁目1番13号,砂田橋小学校　南通用門西側金網フェンス,35.1878978,136.9587447,
愛知県,名古屋市,101,東区砂田橋三丁目1番13号,砂田橋小学校　東通用門南側金網フェンス,35.1882658,136.9597767,
愛知県,名古屋市,102,東区砂田橋五丁目6番20号,大幸幼稚園　東側金網フェンス,35.1864764,136.960587,
愛知県,名古屋市,103,東区砂田橋五丁目3番20号,中部電力パワーグリッド（株）砂田橋変電所　北側東寄り鉄柵,35.1873304,136.9606693,
愛知県,名古屋市,104,東区砂田橋四丁目1番60号,コーナン砂田橋店　駐車場西側金網フェンス,35.1872923,136.9620289,
愛知県,名古屋市,1,南区氷室町7-26,中部電力ﾊﾟﾜｰｸﾞﾘｯﾄﾞ株式会社道徳変電所　西側フェンス,35.107458,136.9073897,
愛知県,名古屋市,2,南区三条一丁目1番10,中京病院健康管理センター　東側フェンス,35.1088261,136.9021562,
愛知県,名古屋市,3,南区三条一丁目6,masked,35.1065597,136.9021928,
愛知県,名古屋市,4,南区明治二丁目19-15,masked,35.1111026,136.9072579,
愛知県,名古屋市,5,南区内田橋一丁目10番,内田橋南第一公園　東側鉄柵,35.1141638,136.9069091,
愛知県,名古屋市,6,南区内田橋二丁目5-20,どんぐり広場　金網フェンス,35.1159933,136.9099439,
愛知県,名古屋市,7,南区内田橋1丁目3-19,松原内科駐車場　金網フェンス,35.1159513,136.9065574,
愛知県,名古屋市,8,南区明治二丁目3-50,明治小学校　西側フェンス,35.1109127,136.9042674,
愛知県,名古屋市,9,南区豊二丁目地内,豊公園　西側鉄柵,35.1103756,136.9098101,
愛知県,名古屋市,10,南区豊二丁目39-3,明豊中学校　東南側フェンス,35.1084653,136.9158414,
愛知県,名古屋市,11,南区豊二丁目39-3,明豊中学校　北側フェンス,35.1089447,136.9162142,
愛知県,名古屋市,12,南区豊二丁目38-9,伝馬小学校　正門南東側フェンス,35.1092276,136.9146222,
愛知県,名古屋市,13,南区豊二丁目38-9,伝馬小学校　南西側フェンス,35.1090192,136.9134367,
愛知県,名古屋市,14,南区豊二丁目12-57,masked,35.1108428,136.9117931,
愛知県,名古屋市,15,南区豊四丁目18-69,masked,35.1080844,136.920461,
愛知県,名古屋市,16,南区豊四丁目914,駐車場　西南側フェンス,35.1105439,136.9199588,
愛知県,名古屋市,17,南区豊田二丁目1001,駐車場　北側鉄柵,35.1071982,136.9132417,
愛知県,名古屋市,18,南区戸部下一丁目2001,戸部下公園　南側フェンス,35.1052715,136.9183541,
愛知県,名古屋市,19,南区豊田五丁目15-30,忠道マンションＡ棟　東側フェンス,35.1007719,136.9156753,
愛知県,名古屋市,20,南区豊田一丁目19-23,豊田小学校　東側フェンス,35.1050038,136.9124923,
愛知県,名古屋市,21,南区豊田四丁目9-19,豊田コミュニティセンター　正面ステンレス柵,35.1042203,136.913597,
愛知県,名古屋市,22,南区豊田二丁目2613,豊代児童遊園地　東側フェンス,35.1056238,136.9175064,
愛知県,名古屋市,23,南区忠次一丁目9-24,山崎汚泥処理場　東側フェンス,35.099708,136.9189367,
愛知県,名古屋市,24,南区豊田三丁目18-30,株式会社春日井化成工業所　南側フェンス,35.1026421,136.917011,
愛知県,名古屋市,25,南区道徳新町5-48,大江中学校　西側フェンス,35.102757,136.9076038,
愛知県,名古屋市,26,南区道徳新町5-48,大江中学校　東側フェンス,35.1027646,136.9088001,
愛知県,名古屋市,27,南区堤町5-1,大興鈑金工業株式会社　南側ブロック塀,35.0986226,136.9103142,
愛知県,名古屋市,28,南区堤町五丁目(77kV笠寺道徳線No10鉄塔ﾌｪﾝｽ),中電鉄塔　東側フェンス,35.097451,136.9115938,
愛知県,名古屋市,29,南区堤町四丁目(77kV笠寺道徳線No11鉄塔ﾌｪﾝｽ),中電鉄塔　東側フェンス,35.0974614,136.9104307,
愛知県,名古屋市,30,南区観音町6-59,masked,35.0984531,136.9088193,
愛知県,名古屋市,31,南区道徳新町5-48,大江中学校　南側フェンス,35.1019577,136.907931,
愛知県,名古屋市,32,南区観音町1−73,観音公園　北側鉄柵,35.0994402,136.9052153,
愛知県,名古屋市,33,南区観音町1-73,観音公園　南側鉄柵,35.0991022,136.9055666,
愛知県,名古屋市,34,南区泉楽通3-20,株式会社米倉商店　工場入口東側フェンス,35.098582,136.904883,
愛知県,名古屋市,35,南区泉楽通4丁目4,泉楽通月極駐車場　東側フェンス,35.0965939,136.9054623,
愛知県,名古屋市,36,南区七条町1-3-2,masked,35.097173,136.9036864,
愛知県,名古屋市,37,南区七条町1-2,株式会社サンラックス　工場西側ブロック塀,35.0963556,136.9015683,
愛知県,名古屋市,38,南区泉楽通4-3-2,大同特殊鋼青雲寮　北側フェンス,35.0974655,136.9051135,
愛知県,名古屋市,39,南区道徳新町5丁目,道徳公園　西側フェンス,35.1040486,136.9059785,
愛知県,名古屋市,40,南区道徳新町7-96,masked,35.1037405,136.9086329,
愛知県,名古屋市,41,南区五条町3-1,五条保育園　南側フェンス,35.1006347,136.9023455,
愛知県,名古屋市,42,南区道徳新町5-43,道徳小学校　西側フェンス,35.101959,136.906554,
愛知県,名古屋市,43,南区南陽通4-41,中島プレス工業株式会社　西側ブロック塀,35.1036433,136.9019326,
愛知県,名古屋市,44,南区道徳通2-72,山神社　南側フェンス,35.1012151,136.9072529,
愛知県,名古屋市,45,南区五条町3-31,masked,35.101592,136.9039314,
愛知県,名古屋市,46,南区汐田町1233番地,よびつぎこども園駐車場　南側フェンス,35.1081312,136.9251341,
愛知県,名古屋市,47,南区汐田町9,名古屋スイミングクラブ専用駐車場　東側フェンス,35.1086977,136.9251858,
愛知県,名古屋市,48,南区呼続五丁目14-34,南りんごこども園　南西側フェンス,35.1005042,136.9321937,
愛知県,名古屋市,49,南区呼続三丁目11-23,学校法人黄龍学園マハヤナ幼稚園　南側鉄柵塀,35.1089815,136.9332129,
愛知県,名古屋市,50,南区呼続四丁目17-10,呼続小学校　北側フェンス,35.107723,136.9332815,
愛知県,名古屋市,51,南区呼続四丁目4-8,新郊中学校　北側金網塀,35.1079345,136.9313049,
愛知県,名古屋市,52,南区呼続四丁目4-60,呼続コミュニティセンター　スロープ中段,35.1074446,136.9303243,
愛知県,名古屋市,53,南区呼続1丁目9-24,さにーはいつ　西側フェンス,35.1123122,136.9277016,
愛知県,名古屋市,54,南区呼続1丁目3-9,サンコート呼続駐車場　北側フェンス,35.1133569,136.9295351,
愛知県,名古屋市,55,南区呼続一丁目329,masked,35.1129173,136.9288179,
愛知県,名古屋市,56,南区呼続一丁目329,masked,35.1127429,136.9292299,
愛知県,名古屋市,57,南区呼続元町17-12,三笠駐車場　東側フェンス,35.1135494,136.9327098,
愛知県,名古屋市,58,南区呼続元町11-19,masked,35.1134626,136.9334311,
愛知県,名古屋市,59,南区呼続二丁目6-33,熊野三社　社務所横鉄柵,35.1116993,136.932168,
愛知県,名古屋市,60,南区戸部町1−42,戸部公園　東側フェンス,35.1025587,136.9295497,
愛知県,名古屋市,61,南区曽池町2丁目40,曽池ひかり幼稚園　東側フェンス,35.1057252,136.9289004,
愛知県,名古屋市,62,南区北内町5-1,大磯小学校　東側フェンス,35.1039645,136.9259017,
愛知県,名古屋市,63,南区北内町5-1,大磯小学校　西側フェンス,35.1036672,136.9250408,
愛知県,名古屋市,64,南区曽池町4-28,あいせい紀年病院　南側フェンス,35.103655,136.9283842,
愛知県,名古屋市,65,南区千竈通2丁目10-2,南図書館　西側フェンス,35.1056708,136.9237055,
愛知県,名古屋市,66,南区荒浜町2丁目3,上下水道局呼続ポンプ所　北側フェンス,35.1028538,136.9213571,
愛知県,名古屋市,67,南区外山二丁目14-22,駐車場　南側ブロック塀,35.1112354,136.9429874,
愛知県,名古屋市,68,南区菊住一丁目地内,菊住公園　南側鉄柵,35.1134907,136.9344454,
愛知県,名古屋市,69,南区駈上一丁目12-37,菊住小学校　東側フェンス,35.1136262,136.9388359,
愛知県,名古屋市,70,南区駈上一丁目12-37,菊住小学校　南側フェンス,35.113477,136.9386079,
愛知県,名古屋市,71,南区平子一丁目3-13,駐車場　東側フェンス,35.1140162,136.9433118,
愛知県,名古屋市,72,南区平子二丁目401,平子第二公園　西側鉄柵,35.1129343,136.9469744,
愛知県,名古屋市,73,南区菊住一丁目601-1,イオンモール新瑞橋　北側西駐輪場フェンス,35.1148752,136.9336649,
愛知県,名古屋市,74,南区駈上2丁目606,駈上公園　北側鉄柵,35.1125697,136.9384533,
愛知県,名古屋市,75,南区桜台二丁目13-38,桜小学校　西側金網塀,35.107117,136.9409751,
愛知県,名古屋市,76,南区桜台二丁目13-38,桜小学校　東門フェンス,35.1072289,136.942166,
愛知県,名古屋市,77,南区桜台一丁目14,桜本町駅２番出口　東側側壁,35.1083264,136.9367888,
愛知県,名古屋市,78,南区寺崎町5-15,桜本町駅４番出口　西側側壁,35.1094849,136.9366818,
愛知県,名古屋市,79,南区鳥栖一丁目18-10,鳥栖神明社　西側フェンス,35.1098024,136.9384938,
愛知県,名古屋市,80,南区鳥栖一丁目15−32,箱舟保育園　西側フェンス,35.1099653,136.9371269,
愛知県,名古屋市,81,南区鳥栖一丁目15-21,NTT新郊通中継所　南側フェンス,35.1093246,136.9371879,
愛知県,名古屋市,82,南区桜本町13−1,東宝寺駐車場　東側フェンス,35.1049938,136.935889,
愛知県,名古屋市,83,南区弥生町98-12,日野トレーディング　東側フェンス,35.1002434,136.9424938,
愛知県,名古屋市,84,南区鯛取通2丁目26,中部電力ﾊﾟﾜｰｸﾞﾘｯﾄﾞ株式会社鯛取変電所　北側フェンス,35.1059957,136.9410956,
愛知県,名古屋市,85,南区春日野町9-1,春日野小学校　西側フェンス,35.1020077,136.9383067,
愛知県,名古屋市,86,南区霞町21,桜台高等学校　東側フェンス,35.1036681,136.9406461,
愛知県,名古屋市,87,南区霞町21,桜台高等学校　北側フェンス,35.1039638,136.939581,
愛知県,名古屋市,88,南区春日野町16−1,春日野配水場　東側フェンス,35.1015234,136.9406337,
愛知県,名古屋市,89,南区元桜田町２丁目地内,桜公園　北側鉄柵,35.1058756,136.9395882,
愛知県,名古屋市,90,南区中江二丁目6,中江公園　北側鉄柵,35.1066304,136.9477146,
愛知県,名古屋市,91,南区鶴田二丁目1,市営鶴田荘A1棟　北側公園フェンス,35.1106272,136.9461438,
愛知県,名古屋市,92,南区中江一丁目4-52,桜田中学校　西側フェンス,35.1066523,136.9448272,
愛知県,名古屋市,93,南区中江一丁目4-52,桜田中学校　南側フェンス,35.1055179,136.9452081,
愛知県,名古屋市,94,南区鶴田一丁目5-13,江島産業株式会社　南側フェンス,35.109641,136.9455835,
愛知県,名古屋市,95,南区鶴里町1-2-1,月極駐輪場　西側フェンス,35.1051004,136.9446904,
愛知県,名古屋市,96,南区鶴里町2-31,masked,35.1037065,136.9465925,
愛知県,名古屋市,97,南区粕畠町1丁目地内,粕畠公園　西側鉄柵,35.0956686,136.9339484,
愛知県,名古屋市,98,南区笠寺町字柚ノ木3,笠寺精治寮病院　東側フェンス,35.0940385,136.9397278,
愛知県,名古屋市,99,南区笠寺町字上新町83,笠寺観音　南西側フェンス,35.0988909,136.9363509,
愛知県,名古屋市,100,南区笠寺町字上新町47,東光院　西側フェンス,35.0975742,136.9361767,
愛知県,名古屋市,101,南区粕畠町1-24,七所神社　正門東側,35.0946812,136.9347986,
愛知県,名古屋市,102,南区粕畠町2-1,masked,35.093616,136.9351872,
愛知県,名古屋市,103,南区前浜通5−2−31,笠寺コミュニティセンター　正面フェンス,35.0966788,136.9338274,
愛知県,名古屋市,104,南区星宮町217,本星崎保育園　南側フェンス,35.0881261,136.9382754,
愛知県,名古屋市,105,南区星宮町117-1,星宮公園　西側鉄柵,35.0889905,136.9401122,
愛知県,名古屋市,106,南区本城町2-1,愛知トヨタ南営業所　駐車場フェンス,35.0923394,136.9365374,
愛知県,名古屋市,107,南区阿原町1,名古屋工科高等学校　西側フェンス,35.0858262,136.9380456,
愛知県,名古屋市,108,南区本星崎町字本城765,笠寺小学校　西側フェンス,35.0902398,136.9341889,
愛知県,名古屋市,109,南区本地通4-5-1,笠寺工業倉庫　東側フェンス,35.0878542,136.9324785,
愛知県,名古屋市,110,南区本城町2-23,masked,35.0917339,136.9379724,
愛知県,名古屋市,111,南区鳥山町3-1,本城中学校　西側アルミ柵,35.0946396,136.9324655,
愛知県,名古屋市,112,南区松城町2丁目29,名古屋南郵便局　北側フェンス,35.0976364,136.92967,
愛知県,名古屋市,113,南区前浜通3-10,南区役所　正面玄関横,35.0948798,136.9311633,
愛知県,名古屋市,114,南区前浜通3-10,南区役所　北側駐輪場フェンス,35.095209,136.9308294,
愛知県,名古屋市,115,南区鳥山町1-13,白栄パーキング　北側フェンス,35.0934533,136.9306201,
愛知県,名古屋市,116,南区千竃通6丁目12-1,葬儀会館ティア笠寺　駐車場東側フェンス,35.0997776,136.9269723,
愛知県,名古屋市,117,南区立脇町2-1,市営笠寺第一自転車駐車場　東側フェンス,35.095561,136.9268339,
愛知県,名古屋市,118,南区明円町165,杓子田公園　南側,35.100944,136.9443579,
愛知県,名古屋市,119,南区芝町152-1,しば保育園　東側金網塀,35.0987127,136.9459351,
愛知県,名古屋市,120,南区芝町113,笠東小学校　西側フェンス,35.0973167,136.9436903,
愛知県,名古屋市,121,南区芝町113,笠東小学校　南側フェンス,35.0965201,136.9442858,
愛知県,名古屋市,122,南区赤坪町153,赤坪公園　北側フェンス,35.0952774,136.9453705,
愛知県,名古屋市,123,南区赤坪町153,赤坪公園　南側フェンス,35.0946486,136.9449266,
愛知県,名古屋市,124,南区白雲町57,笠寺福祉会館　南側ブロック塀,35.0970203,136.9391465,
愛知県,名古屋市,125,南区砂口町223-1,masked,35.0915968,136.9403005,
愛知県,名古屋市,126,南区東又兵ヱ町5-1-11,愛知県立名古屋南高等学校　東側フェンス,35.0947662,136.9228691,
愛知県,名古屋市,127,南区西又兵ヱ町3-76,大生小学校　西側フェンス,35.0940303,136.9166524,
愛知県,名古屋市,128,南区西又兵ヱ町3-76,大生小学校　東側フェンス,35.0940654,136.9178406,
愛知県,名古屋市,129,南区東又兵ヱ町5-1-1,名古屋市南保健センター　東側フェンス,35.0971008,136.9236722,
愛知県,名古屋市,130,南区東又兵ヱ町5-1-1,名古屋市南保健センター　北側フェンス,35.0970788,136.9230862,
愛知県,名古屋市,131,南区西又兵ヱ町3-57,市営大生荘１棟　駐車場北側フェンス,35.093867,136.9151115,
愛知県,名古屋市,132,南区西又兵ヱ町4-42,市営第三大生荘２号棟　南側フェンス,35.0921898,136.916645,
愛知県,名古屋市,133,南区弥次ヱ町4丁目74−2,市営弥次ヱ荘７棟　南西側フェンス,35.0894915,136.9262721,
愛知県,名古屋市,134,南区弥次ヱ町4-66,白栄精工株式会社駐車場　南側フェンス,35.0910315,136.9262919,
愛知県,名古屋市,135,南区浜田町3-104,浜田南公園　西側鉄柵,35.0866805,136.924106,
愛知県,名古屋市,136,南区浜田町4-119,南光中学校　北側フェンス,35.0880416,136.9259385,
愛知県,名古屋市,137,南区浜田町4-119,南光中学校　西側フェンス,35.0870737,136.9255107,
愛知県,名古屋市,138,南区浜田町4丁目120,市営元塩荘２棟　南側フェンス,35.0873013,136.9278285,
愛知県,名古屋市,139,南区元塩町4-1,市営元塩荘８棟　北西側フェンス,35.085984,136.925809,
愛知県,名古屋市,140,南区中割町2-5,宝小学校　北側フェンス,35.088647,136.9161547,
愛知県,名古屋市,141,南区北頭町3-13,masked,35.0899601,136.9178089,
愛知県,名古屋市,142,南区中割町2-5,宝小学校　西側フェンス,35.0884511,136.9157396,
愛知県,名古屋市,143,南区宝生町2-1,ほうしょう保育園　南側フェンス,35.0875328,136.914833,
愛知県,名古屋市,144,南区宝生町2-1,市営宝生荘２棟北ポンプ室　東側フェンス,35.0903076,136.9153037,
愛知県,名古屋市,145,南区宝生町1-41,市営宝生荘 16棟　東側フェンス,35.0883372,136.9124093,
愛知県,名古屋市,146,南区宝生町3-107,masked,35.0858652,136.9119311,
愛知県,名古屋市,147,南区神松町3-2,市営神松荘7棟　西側フェンス,35.083366,136.9190816,
愛知県,名古屋市,148,南区神松町1-12,神松保育園　東側金網塀,35.0840045,136.9169782,
愛知県,名古屋市,149,南区堤起町3-48,宝南小学校　西側フェンス,35.0852559,136.9187034,
愛知県,名古屋市,150,南区堤起町3-48,宝南小学校　東側フェンス,35.0851549,136.9203825,
愛知県,名古屋市,151,南区浜田町1-10,近藤産興　南側フェンス,35.0863144,136.9221447,
愛知県,名古屋市,152,南区堤起町3-1,市営堤起荘４棟　南側フェンス,35.0861811,136.9199835,
愛知県,名古屋市,153,南区堤起町3-1,市営堤起荘１棟　北側フェンス,35.0869274,136.9185633,
愛知県,名古屋市,154,南区三吉町3-1,三吉公園　南側フェンス,35.072749,136.9148147,
愛知県,名古屋市,155,南区三吉町3-1,三吉公園　西側フェンス,35.0731519,136.9144566,
愛知県,名古屋市,156,南区三吉町2-83-2,駐車場　南側フェンス,35.0717504,136.9128181,
愛知県,名古屋市,157,南区源兵衛町5−15,源兵衛公園　北側支柱,35.0714435,136.9183076,
愛知県,名古屋市,158,南区三吉町5-43,名南中学校　西側フェンス,35.0722567,136.9173733,
愛知県,名古屋市,159,南区三吉町5-43,名南中学校　南側フェンス,35.0719384,136.9182369,
愛知県,名古屋市,160,南区源兵衛町4-34,masked,35.0710131,136.9159298,
愛知県,名古屋市,161,南区大同町3-2-1,大同高等学校　実験実習棟　東側ブロック塀,0.0,0.0,
愛知県,名古屋市,162,南区柴田本通1-1-1,西尾信用金庫柴田支店　西側フェンス,35.0769728,136.9105307,
愛知県,名古屋市,163,南区松下町2-1,白水小学校　西側フェンス,35.0765931,136.9132757,
愛知県,名古屋市,164,南区松下町2-1,白水小学校　南側フェンス,35.0759961,136.9140697,
愛知県,名古屋市,165,南区鶴見通2-1,桜井興産株式会社　南側フェンス,35.0756533,136.9145026,
愛知県,名古屋市,167,南区大同町2-30,大同特殊鋼株式会社星崎工場　西側フェンス最南端,35.0776672,136.9116134,
愛知県,名古屋市,166,南区大同町2-30,大同特殊鋼株式会社星崎工場　西側フェンス正門北側,35.0810256,136.9120747,
愛知県,名古屋市,168,南区滝春町5,masked,35.0793876,136.9068071,
愛知県,名古屋市,169,南区滝春町21-3,大同大学 第２駐車場　東側フェンス,35.077166,136.9063741,
愛知県,名古屋市,170,南区白水町19,柴田小学校　北側フェンス,35.07527,136.90481,
愛知県,名古屋市,171,南区白水町19,柴田小学校　南側フェンス,35.0742964,136.9053451,
愛知県,名古屋市,172,南区元柴田東町2-20-2,つどいの館和光　西側フェンス,35.072478,136.9060385,
愛知県,名古屋市,173,南区元柴田東町2丁目34-1,東亞合成体育館　南側フェンス,35.0720223,136.9073649,
愛知県,名古屋市,174,南区元柴田東町2-31-1,中岡建設株式会社　西側フェンス,35.072054,136.9078898,
愛知県,名古屋市,175,南区天白町4,千鳥公園　西側鉄柵,35.0718684,136.9248138,
愛知県,名古屋市,176,南区三吉町6-1,千鳥小学校　西側フェンス,35.0738824,136.9186182,
愛知県,名古屋市,177,南区三吉町6-1,千鳥小学校　東側フェンス,35.0741524,136.9197527,
愛知県,名古屋市,178,南区鶴見通5-3-2,駐車場　北側フェンス,35.0760249,136.9193377,
愛知県,名古屋市,179,南区要町2-15-1,株式会社山下製作所　北側金網塀,35.0745136,136.9216609,
愛知県,名古屋市,180,南区要町1丁目25,要町バス回転場　南側東寄り,35.0733875,136.9212002,
愛知県,名古屋市,181,南区要町3-10,カナメ製作所　西側アルミ塀,35.0743953,136.922718,
愛知県,名古屋市,182,南区元鳴尾町１,星崎コミュニティセンター　南側スロープ,35.078649,136.9358039,
愛知県,名古屋市,183,南区南野三丁目163,星崎小学校　東側フェンス,35.0794004,136.9319906,
愛知県,名古屋市,184,南区南野三丁目163,星崎小学校　西側フェンス,35.0784785,136.9313281,
愛知県,名古屋市,185,南区元鳴尾町52,株式会社タカハラ　南側フェンス,35.0790074,136.9373967,
愛知県,名古屋市,186,南区南野二丁目54,南野第三公園　北西側鉄柵,35.0784644,136.9265892,
愛知県,名古屋市,187,南区上浜町108,上浜南公園　北西側鉄柵,35.0723885,136.9294903,
愛知県,名古屋市,188,南区上浜町40,鳴尾営業所　南側フェンス,35.072942,136.928933,
愛知県,名古屋市,1,熱田区沢下町5番北,池内パーキング（月極駐車場）北側フェンス,0.0,0.0,
愛知県,名古屋市,2,熱田区池内町７番７号,(株)林スプリング製作所駐車場及び東側駐車場南側フェンス,35.138498,136.9108731,
愛知県,名古屋市,3,熱田区桜田町12番南,桜田公園南側鉄柵,35.1410384,136.9077623,
愛知県,名古屋市,4,熱田区六野一丁目3番16号,日本ガイシ(株)西側フェンス,35.1357022,136.9115495,
愛知県,名古屋市,5,熱田区桜田町17番７号,ロードアジアパシフィックセンター北側フェンス,35.1419797,136.9083808,
愛知県,名古屋市,6,熱田区波寄町20番西,波三どんぐりひろば西側フェンス,35.1415001,136.904169,
愛知県,名古屋市,7,熱田区桜田町19番21号,(株)山田商会西側フェンス,35.1402917,136.9087154,
愛知県,名古屋市,8,熱田区新尾頭一丁目9番,住吉児童遊園地北側フェンス,35.1406908,136.897461,
愛知県,名古屋市,9,熱田区新尾頭三丁目4番43号,NTT熱田ビル西側柵,35.1382089,136.8999094,
愛知県,名古屋市,10,熱田区五本松町4番4号,沢上中学校南側フェンス,35.1358611,136.901501,
愛知県,名古屋市,11,熱田区五本松町4番4号,沢上中学校北側フェンス,35.1368021,136.9012744,
愛知県,名古屋市,12,熱田区花町7番33号,高蔵小学校南東側フェンス,35.1378744,136.9017784,
愛知県,名古屋市,13,熱田区高蔵町9番7号,高蔵保育園東側フェンス,35.1348499,136.9053451,
愛知県,名古屋市,14,熱田区沢上二丁目7番8号,高蔵コミュニティセンター北側フェンス,35.1383379,136.9058009,
愛知県,名古屋市,15,熱田区中田町4番南,東高蔵公園南側フェンス,35.135564,136.9071673,
愛知県,名古屋市,16,熱田区横田二丁目3番24号,中部電力パワーグリッド(株)熱田ビル西側フェンス,35.1323286,136.9084739,
愛知県,名古屋市,17,熱田区夜寒町5番1号,旗屋小学校北側フェンス,35.1341951,136.9048715,
愛知県,名古屋市,18,熱田区夜寒町5番1号,旗屋小学校東側フェンス,35.1340197,136.9052323,
愛知県,名古屋市,19,熱田区横田一丁目11番13号,中部電力パワーグリッド(株)横田変電所東側フェンス,35.1309668,136.9085849,
愛知県,名古屋市,20,熱田区玉の井町1番北,玉の井公園北側鉄柵,35.1319703,136.9050202,
愛知県,名古屋市,21,熱田区旗屋一丁目10番西,熱田神宮公園テニスコート西側フェンス,35.1297,136.9014826,
愛知県,名古屋市,22,熱田区花表町1番26号,グレイスフル熱田北側フェンス,35.1285201,136.9167255,
愛知県,名古屋市,23,熱田区花表町1番26号,グレイスフル熱田西側フェンス,35.1281977,136.9160843,
愛知県,名古屋市,24,熱田区三本松町21番西,神宮東パークハイツ13号棟西側フェンス,35.1302087,136.9155312,
愛知県,名古屋市,25,熱田区六野二丁目7番内,神宮東パークハイツ17号棟北側フェンス,35.1310224,136.9154749,
愛知県,名古屋市,26,熱田区三本松町23番10号,神宮東保育園西側フェンス,35.1300228,136.9149202,
愛知県,名古屋市,27,熱田区三本松町23番26号,南特別支援学校西側フェンス,35.1286994,136.9142347,
愛知県,名古屋市,28,熱田区三本松町23番東,名古屋まちづくり公社三本松駐車場東側フェンス,35.1291733,136.9153967,
愛知県,名古屋市,29,熱田区伝馬二丁目18番東,羽城公園東側鉄柵,35.1180307,136.9102283,
愛知県,名古屋市,30,熱田区花表町6番北,熱田税務署駐車場北側フェンス,35.1269201,136.9162752,
愛知県,名古屋市,31,熱田区花表町18番東,花表南公園東側鉄柵,35.1247853,136.9153516,
愛知県,名古屋市,32,熱田区三本松町19番北,なかよしどんぐり広場北側フェンス,35.1259049,136.9146432,
愛知県,名古屋市,33,熱田区神宮三丁目1番15号,熱田区役所等複合施設公用自転車駐車場,35.1290465,136.9097783,
愛知県,名古屋市,34,熱田区神宮四丁目4番24号,熱田ポンプ所北隣空地西側フェンス,35.1215416,136.9119744,
愛知県,名古屋市,35,熱田区伝馬三丁目3番7号,神明社北側フェンス,35.1180413,136.9133496,
愛知県,名古屋市,36,熱田区伝馬二丁目29番30号,市営伝馬荘南側フェンス,35.1176841,136.9083389,
愛知県,名古屋市,37,熱田区白鳥一丁目3番46号,宮中学校南側フェンス,35.1258276,136.9035115,
愛知県,名古屋市,38,熱田区白鳥一丁目3番46号,宮中学校東側フェンス,35.1267918,136.9043578,
愛知県,名古屋市,39,熱田区白鳥二丁目13番12号,白鳥小学校東側フェンス,35.1254089,136.9068664,
愛知県,名古屋市,40,熱田区白鳥二丁目13番12号,白鳥小学校西側フェンス,35.1249072,136.9059961,
愛知県,名古屋市,41,熱田区大瀬子町101番地,大瀬子公園児童球戯場前フェンス,35.1210059,136.9037284,
愛知県,名古屋市,42,熱田区神戸町701番地,市営神戸荘集会所南側フェンス,35.1199356,136.9056674,
愛知県,名古屋市,43,熱田区伝馬一丁目10番16号,三和化学産業㈱駐車場駐車場西側柵,35.1192593,136.9076578,
愛知県,名古屋市,44,熱田区千年一丁目17番71号,県立熱田高校東側フェンス,35.1166208,136.8999181,
愛知県,名古屋市,45,熱田区千年一丁目17番71号,県立熱田高校西側テニスコート前フェンス,35.1171923,136.8977308,
愛知県,名古屋市,46,熱田区三番町2番14号,愛知機械工業(株)体育館南側フェンス,35.1173402,136.894378,
愛知県,名古屋市,47,熱田区千年二丁目38番26号,千年小学校北門東側フェンス,35.114195,136.8974026,
愛知県,名古屋市,48,熱田区三番町17番22号,(株)扇港電機名古屋南営業所北側フェンス,35.1144564,136.8923827,
愛知県,名古屋市,49,熱田区五番町9番,masked,35.1158594,136.8896906,
愛知県,名古屋市,50,熱田区南一番町20番3号,㈱服部組北側フェンス,35.1154211,136.8961792,
愛知県,名古屋市,51,熱田区熱田西町2番,白鳥庭園北西側フェンス,35.1260336,136.8996341,
愛知県,名古屋市,52,熱田区一番三丁目2番東,宮西保育園駐車場東側フェンス,35.1269725,136.8958845,
愛知県,名古屋市,53,熱田区一番二丁目1番東,一東児童遊園地東側フェンス,35.1228501,136.9002727,
愛知県,名古屋市,54,熱田区一番一丁目23番南,一番なかよし公園南側鉄柵,35.1247134,136.8994214,
愛知県,名古屋市,55,熱田区一番二丁目32番西,一番町公園西側鉄柵,35.1219865,136.8959233,
愛知県,名古屋市,56,熱田区一番三丁目2番60号,日比野中学校南校舎西側フェンス,35.1267927,136.8940293,
愛知県,名古屋市,57,熱田区一番三丁目2番20号,市営一番荘2号棟南東側フェンス,35.1257637,136.8960254,
愛知県,名古屋市,58,熱田区四番二丁目10番43号,船方小学校南側フェンス,35.1213263,136.8920179,
愛知県,名古屋市,59,熱田区四番二丁目10番43号,船方小学校北側フェンス,35.122455,136.8913407,
愛知県,名古屋市,60,熱田区四番一丁目15番9号,南側フェンス,35.1240313,136.8915769,
愛知県,名古屋市,61,熱田区四番一丁目4番16号,駐車場西側フェンス,35.1262251,136.8910004,
愛知県,名古屋市,62,熱田区四番一丁目11番5号,中部電力パワーグリッド(株)六番町変電所東側フェンス,35.1245089,136.8895184,
愛知県,名古屋市,63,熱田区二番二丁目26番1号,市営二番荘1号棟北側フェンス,35.1201736,136.892596,
愛知県,名古屋市,64,熱田区二番二丁目26番西,masked,35.1188085,136.8923171,
愛知県,名古屋市,65,熱田区六番一丁目4番21号,駐車場北側フェンス,35.1255678,136.8861218,
愛知県,名古屋市,66,熱田区六番一丁目7番南東,六番町児童遊園地東側フェンス,35.1255452,136.8884937,
愛知県,名古屋市,67,熱田区八番二丁目19番南,月極駐車場南側フェンス,35.1194918,136.8837604,
愛知県,名古屋市,68,熱田区六番一丁目14番南西,月極駐車場南側フェンス,35.1239225,136.8861709,
愛知県,名古屋市,69,熱田区六番三丁目8番西,市工業研究所中間実験工場西側柵,35.122166,136.8859014,
愛知県,名古屋市,70,熱田区六番三丁目4番北東,市工業研究所管理棟北東側フェンス,35.1230727,136.8875053,
愛知県,名古屋市,71,熱田区六番三丁目8番南東,市工業研究所電子技術総合センター東側柵,35.1217678,136.8868388,
愛知県,名古屋市,72,熱田区幡野町12番北,幡野公園北側フェンス,35.1394048,136.8873518,
愛知県,名古屋市,73,熱田区比々野町48番地,月極駐車場西側フェンス,35.1338662,136.8928067,
愛知県,名古屋市,74,熱田区千代田町18番南西,千代田公園南側フェンス,35.1352048,136.8912866,
愛知県,名古屋市,75,熱田区千代田町4番東,千代田2丁目どんぐりひろば東側フェンス,35.1369683,136.8910975,
愛知県,名古屋市,76,熱田区青池町2丁目21番地,野立小学校東門北側フェンス,35.1354149,136.8901281,
愛知県,名古屋市,77,熱田区明野町3番西,(株)山下工作所倉庫西側フェンス,35.1386521,136.890305,
愛知県,名古屋市,78,熱田区野立町3丁目85番地,JR東海名古屋保線所空地西側フェンス,35.1307293,136.8857805,
愛知県,名古屋市,79,熱田区川並町2番22号,中央卸売市場本場北西側フェンス,35.1378722,136.8948156,
愛知県,名古屋市,80,熱田区河田町79番地,(株)アイユーサービス管理アイユー河田東側フェンス,35.1297034,136.8878282,
愛知県,名古屋市,81,熱田区神野町二丁目83番地,㈱イノアック月極駐車場西側フェンス,35.1301723,136.8893198,
愛知県,名古屋市,82,熱田区古新町1丁目9番地,月極駐車場南側フェンス,35.1286893,136.8875609,
愛知県,名古屋市,83,熱田区大宝三丁目8番43号,大宝小学校北東側フェンス,35.1307593,136.8939553,
愛知県,名古屋市,84,熱田区大宝三丁目8番43号,大宝小学校西門北側フェンス,35.130801,136.8927389,
愛知県,名古屋市,85,熱田区大宝四丁目2番45号,日比野中学校西門南側フェンス,35.1287558,136.8936007,
愛知県,名古屋市,86,熱田区大宝四丁目2番45号,日比野中学校南東側フェンス,35.1283116,136.8948948,
愛知県,名古屋市,87,熱田区大宝一丁目11番東,大宝消防団詰所東側フェンス,35.1317676,136.8967302,
愛知県,名古屋市,1,北区大曽根一丁目21番,中京銀行大曽根支店駐車場西側入口北寄りフェンス,35.1899641,136.9293324,
愛知県,名古屋市,2,北区大曽根二丁目4番,大垣共立銀行大曽根支店駐車場西側フェンス,35.1889194,136.9302839,
愛知県,名古屋市,3,北区大曽根三丁目15番82号,六郷小学校西門南側フェンス,35.1923111,136.9339132,
愛知県,名古屋市,4,北区大曽根四丁目6番,六郷西公園南側植込み,35.1921753,136.9310076,
愛知県,名古屋市,5,北区大曽根四丁目14番,六郷三桜公園南東側植込み,35.191898,136.9322254,
愛知県,名古屋市,6,北区大曽根四丁目8番57号,社会保険診療報酬支払基金中部審査事務センター南側東寄りフェンス,35.1928608,136.9313587,
愛知県,名古屋市,7,北区大曽根四丁目14番,六郷三桜公園北西側植込み,35.1920252,136.9320001,
愛知県,名古屋市,8,北区山田四丁目10番81号,市営新山田北荘北端公園東側植込み,35.2003968,136.9410871,
愛知県,名古屋市,9,北区山田四丁目10番81号,市営新山田北荘南側東寄りフェンス,35.1993579,136.9416262,
愛知県,名古屋市,10,北区山田四丁目15番27号,市営山田北荘東側出入口南側フェンス,35.1984519,136.9422512,
愛知県,名古屋市,11,北区山田四丁目14番56号,六郷北小学校北側正門東側フェンス,35.1988119,136.9404741,
愛知県,名古屋市,12,北区山田三丁目11番16号,金虎酒造西側正門北側ブロック塀,35.1989795,136.9390429,
愛知県,名古屋市,13,北区山田町4丁目42番地,山田幼稚園東側フェンス,35.1972669,136.9389016,
愛知県,名古屋市,14,北区山田町3丁目25番地,山田天満宮東側駐車場出入口南側北寄り石柱柵,35.1957947,136.9385735,
愛知県,名古屋市,15,北区御成通4丁目8番地,中部電力パワーグリッド㈱北営業所北側フェンス,35.2010996,136.9300356,
愛知県,名古屋市,16,北区上飯田南町5丁目49番,上飯田南公園南側植込み,35.1993994,136.9326713,
愛知県,名古屋市,17,北区山田二丁目11番11号,masked,35.1987301,136.9345596,
愛知県,名古屋市,18,北区平安二丁目7番14号,飯田小学校西側正門フェンス,35.1974687,136.9309457,
愛知県,名古屋市,19,北区平安二丁目4番68号,井元総業㈱北側フェンス,35.1983951,136.9314081,
愛知県,名古屋市,20,北区山田二丁目8番,飯田公園東側植込み,35.197263,136.9359689,
愛知県,名古屋市,21,北区平安二丁目21番61号,元報徳幼稚園南側正門東側フェンス,35.1956941,136.9340095,
愛知県,名古屋市,22,北区平安通1丁目13番地の1,平安通交差点南西角駐輪場北東向フェンス,35.1958441,136.9296417,
愛知県,名古屋市,23,北区上飯田南町3丁目97番地の2,上飯田六所宮南側出入口東側石柱柵,35.2026835,136.9349422,
愛知県,名古屋市,24,北区上飯田西町3丁目9番地の6,上飯田西町児童遊園地南側鉄柵,35.2041113,136.9280366,
愛知県,名古屋市,25,北区上飯田南町1丁目45番地の4,児童交通遊園南側フェンス,35.2029863,136.9309487,
愛知県,名古屋市,26,北区上飯田西町1丁目20番地,上西児童遊園地北側出入口西側植込み,35.2025922,136.9288429,
愛知県,名古屋市,27,北区上飯田南町1丁目6番地,中部電力パワーグリッド㈱北営業所駐車場北側西寄りフェンス,35.2015225,136.930941,
愛知県,名古屋市,28,北区上飯田西町1丁目1番地,masked,35.202995,136.9272167,
愛知県,名古屋市,29,北区上飯田西町3丁目49番地,上飯田みらいこども園西園舎西側ブロック塀,35.2052265,136.9286738,
愛知県,名古屋市,30,北区上飯田南町4丁目1番地の18,みやまえ保育園南側フェンス,35.1992663,136.9347849,
愛知県,名古屋市,31,北区上飯田南町4丁目1番地の2,宮前小学校東門南側フェンス,35.2011725,136.9378818,
愛知県,名古屋市,32,北区上飯田南町4丁目1番地の2,宮前小学校北側正門西側フェンス,35.2017205,136.9373722,
愛知県,名古屋市,33,北区上飯田南町4丁目1番地の2,宮前小学校西門南側フェンス,35.2012777,136.9365273,
愛知県,名古屋市,34,北区上飯田南町4丁目1番地,上飯田保育園南側フェンス,35.1995896,136.938009,
愛知県,名古屋市,35,北区上飯田南町4丁目1番地,市営上飯田南荘運動場西側フェンス,35.2007622,136.9348279,
愛知県,名古屋市,36,北区上飯田南町4丁目1番地,市営上飯田南荘7棟東側駐車場フェンス,35.1994975,136.9362092,
愛知県,名古屋市,37,北区上飯田東町2丁目100番地,大曽根中学校南側正門東側フェンス,35.2044924,136.9373727,
愛知県,名古屋市,38,北区上飯田東町2丁目100番地,大曽根中学校西門南側フェンス,35.2052046,136.9369837,
愛知県,名古屋市,39,北区上飯田東町2丁目62番地の2,上飯田東公園西側南寄り植込み,35.2024863,136.938602,
愛知県,名古屋市,40,北区上飯田北町4丁目75番地の3,masked,35.2048267,136.9344291,
愛知県,名古屋市,41,北区上飯田東町4丁目68番地の3,上飯田東荘西側フェンス,35.2040573,136.9364917,
愛知県,名古屋市,42,北区上飯田東町4丁目68番地の3,元上飯田東保育園東側フェンス,35.2042129,136.9369638,
愛知県,名古屋市,43,北区上飯田北町2丁目70番地,総合上飯田第一病院北館東側北寄りフェンス,35.2053705,136.9316897,
愛知県,名古屋市,44,北区真畔町10番地,名北公園東側出入口北寄り鉄柵,35.2005504,136.9227856,
愛知県,名古屋市,45,北区下飯田町1丁目34番地,名北小学校西側正門南側フェンス,35.1990607,136.9255222,
愛知県,名古屋市,46,北区下飯田町1丁目34番地,名北小学校南門東側フェンス,35.1987056,136.9258736,
愛知県,名古屋市,47,北区下飯田町1丁目34番地,名北小学校東門南側フェンス,35.199133,136.9267936,
愛知県,名古屋市,48,北区辻本通1丁目17番地の1,㈱平安閣南側駐車場西南側フェンス,35.2001651,136.9199178,
愛知県,名古屋市,49,北区石園町2丁目16番地,若葉中学校西門北側フェンス,35.1948386,136.9263336,
愛知県,名古屋市,50,北区石園町2丁目16番地,若葉中学校南門西側フェンス,35.1941394,136.9269452,
愛知県,名古屋市,51,北区石園町2丁目16番地,若葉中学校北門東側フェンス,35.1951016,136.9271678,
愛知県,名古屋市,52,北区尾上町1番地の2,尾上団地5号棟北側フェンス,35.2021126,136.925059,
愛知県,名古屋市,53,北区織部町1番地の9,masked,35.2006964,136.9274962,
愛知県,名古屋市,54,北区織部町1番地の9,masked,35.1997211,136.9273139,
愛知県,名古屋市,55,北区織部町1番地の9,おりべ幼稚園南側正門東側フェンス,35.1995808,136.9278664,
愛知県,名古屋市,56,北区織部町1番地の1,そよら上飯田東側フェンス,35.2010895,136.9295899,
愛知県,名古屋市,57,北区辻町字流7番地の6,県環境調査センター東側フェンス,35.2024063,136.926066,
愛知県,名古屋市,58,北区辻町字流7番地の6,県環境調査センター北側フェンス,35.2028293,136.9245103,
愛知県,名古屋市,59,北区辻町1丁目8番地,masked,35.2040302,136.9226001,
愛知県,名古屋市,60,北区長喜町4丁目37番地,masked,35.2039118,136.9198839,
愛知県,名古屋市,61,北区辻町1丁目32番地の4,辻小学校西側通用門南側フェンス,35.205585,136.9214953,
愛知県,名古屋市,62,北区辻町1丁目32番地の4,辻小学校北側フェンス東寄り,35.2063082,136.9221015,
愛知県,名古屋市,63,北区辻町4丁目5番地,徳風幼児園南側正門西側コンクリート塀,35.2056062,136.9253624,
愛知県,名古屋市,64,北区米が瀬町3番地の1,守山水処理センター南側東寄りフェンス,35.2125901,136.9280002,
愛知県,名古屋市,65,北区米が瀬町174番地の2,天寿病院職員駐車場南側フェンス,35.2108706,136.9283801,
愛知県,名古屋市,66,北区辻町9丁目62番地の1,辻コミュニティセンター南側植込み,35.2104049,136.9231329,
愛知県,名古屋市,67,北区東大杉町4丁目32番地,すずらん公園西側植込み,35.1905756,136.9277194,
愛知県,名古屋市,68,北区杉栄町2丁目32番地,顕宗寺東側ブロック塀,35.1907013,136.9243303,
愛知県,名古屋市,69,北区大曽根一丁目１番,杉村街園東側植込み,35.188503,136.9253895,
愛知県,名古屋市,70,北区長田町3丁目62番地,杉村小学校南門西側フェンス,35.1916099,136.9222074,
愛知県,名古屋市,71,北区長田町3丁目62番地,杉村小学校東門北側フェンス,35.1919343,136.9226124,
愛知県,名古屋市,72,北区杉村一丁目23番,杉村公園西側鉄柵,35.1887556,136.9234492,
愛知県,名古屋市,73,北区長田町4丁目78番,ながた公園東側フェンス,35.1918843,136.9239349,
愛知県,名古屋市,74,北区長田町4丁目78番,ながた公園西側植込み,35.1918514,136.9235621,
愛知県,名古屋市,75,北区中杉町1丁目18番地,杉ノ宮神社南側石柱柵,35.1914737,136.9167398,
愛知県,名古屋市,76,北区大杉三丁目9番21号,大杉小学校東側フェンス,35.1900081,136.918107,
愛知県,名古屋市,77,北区大杉三丁目9番21号,大杉小学校南側フェンス,35.1895478,136.9175062,
愛知県,名古屋市,78,北区大杉一丁目26番,尼ヶ坂公園西側出入口北側,35.1874519,136.9190253,
愛知県,名古屋市,79,北区大杉一丁目8番19号,上下水道局資産活用課船付分室西側コンクリート塀,35.1863577,136.9157468,
愛知県,名古屋市,80,北区大杉3丁目14番地の5,大杉公園西側フェンス,35.1891396,136.9169547,
愛知県,名古屋市,81,北区大杉3丁目4番地の1,久国幼稚園北側フェンス,35.1898249,136.91603,
愛知県,名古屋市,82,北区城東町3丁目73番地,梅花堂紙業㈱北側ブロック塀,35.1943837,136.9186731,
愛知県,名古屋市,83,北区清水一丁目5番,名鉄瀬戸線高架下清水学区第７自治会集会所北側フェンス,35.1872999,136.911763,
愛知県,名古屋市,84,名古屋市北区清水3丁目19－19,名鉄協商清水3丁目第2駐車場,35.1891536,136.9119667,
愛知県,名古屋市,85,北区清水五丁目3番1号,清水小学校南門西側フェンス,35.1918585,136.9132706,
愛知県,名古屋市,86,北区清水五丁目3番1号,清水小学校東側フェンス,35.1923582,136.914086,
愛知県,名古屋市,87,名古屋市北区清水二丁目15番20号,八王子神社東側石柱柵,35.1897073,136.914619,
愛知県,名古屋市,88,名古屋市北区清水三丁目10番,八坪南公園南入口東側鉄柵,35.1901975,136.911168,
愛知県,名古屋市,89,北区柳原四丁目10番1号,浪速金液株式会社南側西寄りコンクリート塀,35.1874082,136.9096833,
愛知県,名古屋市,90,北区名城三丁目3番,市営城北荘城北南集会所西側フェンス,35.1878642,136.9060506,
愛知県,名古屋市,91,北区名城三丁目3番,市営城北荘C棟駐車場北側植込み,35.1897778,136.9059996,
愛知県,名古屋市,92,北区柳原一丁目23番,柳原公園西側鉄柵,35.1880646,136.9078535,
愛知県,名古屋市,93,北区清水四丁目17番1号,北区役所南側中央植込み,35.1938962,136.9120586,
愛知県,名古屋市,94,北区清水四丁目4番1号,八王子中学校東側正門南側フェンス,35.1937806,136.9107685,
愛知県,名古屋市,95,北区清水四丁目4番1号,八王子中学校南側通用門西寄りフェンス,35.1928095,136.910511,
愛知県,名古屋市,96,北区名城三丁目3番,市営城北荘3棟東側フェンス,35.1885437,136.9067051,
愛知県,名古屋市,97,北区田幡一丁目308番,あけぼのどんぐりひろば南側鉄柵,35.1940854,136.9085767,
愛知県,名古屋市,98,北区金城四丁目13番16号,多奈波太神社東側石柱柵,35.193132,136.9058231,
愛知県,名古屋市,99,北区金城三丁目11番6号,金城小学校西側正門南側アルミ柵,35.1960185,136.9056369,
愛知県,名古屋市,100,北区金城三丁目11番6号,金城小学校南側アルミ柵,35.1955056,136.9061706,
愛知県,名古屋市,101,北区金城三丁目9番,田幡公園西側北寄り,35.195669,136.9045466,
愛知県,名古屋市,102,北区金城一丁目2番28号,masked,35.1946919,136.9020605,
愛知県,名古屋市,103,北区金城一丁目2番28号,masked,35.1948694,136.9000247,
愛知県,名古屋市,104,北区田幡二丁目4番5号,名古屋市上下水道局北営業所北側植込み中央,35.1970873,136.9072483,
愛知県,名古屋市,105,北区元志賀町1丁目1番地,,35.1995579,136.9072519,
愛知県,名古屋市,106,北区敷島町61番地,黒川第3自転車駐輪場南側フェンス,35.1981901,136.9089485,
愛知県,名古屋市,107,北区元志賀町2丁目53番地,綿神社北側ブロック塀,35.2007221,136.9111042,
愛知県,名古屋市,108,名古屋市北区平手町2丁目5･6番,志賀公園北側東寄り空地,35.2034236,136.9058771,
愛知県,名古屋市,109,名古屋市北区平手町2丁目5･6番,志賀公園西側中央北,35.2025206,136.9032915,
愛知県,名古屋市,110,名古屋市北区平手町2丁目5･6番,志賀公園南側南西角東側,35.201587,136.9034792,
愛知県,名古屋市,111,北区金城町2丁目23番地の2,金城幼稚園東門北側アルミ柵,35.2000212,136.9069279,
愛知県,名古屋市,112,北区西志賀町4丁目5番地の1,駐車場フェンス,35.1995179,136.9050842,
愛知県,名古屋市,113,北区志賀町2丁目12番地,北陵中学校北側フェンス,35.2008715,136.9131437,
愛知県,名古屋市,114,北区志賀町2丁目12番地,北陵中学校西側フェンス,35.2001351,136.9125911,
愛知県,名古屋市,115,北区志賀町2丁目12番地,北陵中学校南側フェンス,35.1994732,136.913267,
愛知県,名古屋市,116,北区稚児宮通二丁目,稚児宮公園西側植込み,35.1984002,136.9173092,
愛知県,名古屋市,117,北区志賀町1丁目65番地,児子八幡社東側石柱柵,35.1986055,136.9152019,
愛知県,名古屋市,118,北区黒川本通2丁目16番地の3,北生涯学習センター駐車場北口西寄り植込み,35.198121,136.9124831,
愛知県,名古屋市,119,北区辻本通1丁目39番地,北環境事業所南東側コンクリート塀,35.2016662,136.9207729,
愛知県,名古屋市,120,北区志賀町5丁目13番地の2,辻公園南側植込み西寄り,35.2020439,136.9168726,
愛知県,名古屋市,121,北区志賀町4丁目60番地の27･28,東志賀公園北側植込み,35.2034968,136.9138663,
愛知県,名古屋市,122,名古屋市北区鳩岡町1丁目1－1,アーバンラフレ志賀11号棟,35.2042139,136.9135898,
愛知県,名古屋市,123,北区志賀町4丁目60番地,東志賀小学校北側北通用門西寄りフェンス,35.2027714,136.9147756,
愛知県,名古屋市,124,北区志賀町4丁目60番地,東志賀小学校東門南寄りフェンス,35.2025193,136.9155695,
愛知県,名古屋市,125,北区志賀町4丁目60番地,東志賀小学校西門北側フェンス,35.2021731,136.9140004,
愛知県,名古屋市,126,北区志賀町5丁目2番地,新生東志賀保育園東側北寄りフェンス,35.2014399,136.9182815,
愛知県,名古屋市,127,北区大野町1丁目1番地の3,アーバンラフレ志賀3号棟東側植込み,35.2050277,136.9152976,
愛知県,名古屋市,128,北区鳩岡二丁目8番43号,城北小学校南側正門東側フェンス,35.2094145,136.9117742,
愛知県,名古屋市,129,北区鳩岡二丁目8番43号,城北小学校東門南側フェンス,35.2100193,136.9125091,
愛知県,名古屋市,130,北区安井四丁目１番３２号,ホームセンターコーナン名古屋北店駐車場西出入口北寄りフェンス,35.2086327,136.918745,
愛知県,名古屋市,131,北区安井四丁目306・307番,ホームセンターコーナン名古屋北店北側駐車場北東寄りフェンス,35.2095649,136.9196389,
愛知県,名古屋市,132,北区天道町1丁目17番地,天道公園南出入口東側植込み,35.2057378,136.9143463,
愛知県,名古屋市,133,北区金田町2丁目15番地,金田公園北出入口西側,35.2081513,136.916026,
愛知県,名古屋市,134,北区金田町3丁目11番地,愛知県母子福祉会館北側フェンス,35.2078489,136.9171591,
愛知県,名古屋市,135,北区金田町4丁目21番地,駐車場東側フェンス,35.2082421,136.9187257,
愛知県,名古屋市,136,北区川中町7番,成願寺西部公園中央道路西側,35.2128993,136.9121595,
愛知県,名古屋市,137,北区成願寺一丁目6番12号,北スポーツセンター南側東寄り植込み,35.2152429,136.9140527,
愛知県,名古屋市,138,北区川中町19番,猿塚公園南西側植込み,35.212934,136.913819,
愛知県,名古屋市,139,北区成願寺二丁目3番28号,成願寺北側コンクリート塀,35.2148722,136.9164272,
愛知県,名古屋市,140,北区安井二丁目5番,市営成願寺荘西3棟南側フェンス,35.2126123,136.9165007,
愛知県,名古屋市,141,北区安井二丁目14番,成願寺公園東側植込み北寄り,35.2128477,136.9183517,
愛知県,名古屋市,142,北区安井三丁目7番43号,,35.2114809,136.9206556,
愛知県,名古屋市,143,北区中丸町1丁目1番地,中丸団地2棟東側駐車場スチールフェンス,35.2049182,136.901874,
愛知県,名古屋市,144,北区中丸町3丁目2番地の1,志賀中学校東側フェンス,35.2054057,136.9066127,
愛知県,名古屋市,145,北区中丸町3丁目2番地の1,志賀中学校南側フェンス,35.2047964,136.9060708,
愛知県,名古屋市,146,北区水草町1丁目27番地,㈱白洋舎南側アルミ柵,35.2050608,136.9084985,
愛知県,名古屋市,147,北区水草町1丁目27番地,㈱白洋舎東側樹脂製フェンス北寄り,35.2053545,136.9089062,
愛知県,名古屋市,148,北区金城町3丁目1番地,アーバニア志賀公園四番街12棟東側植込み,35.2037885,136.906912,
愛知県,名古屋市,149,北区水草町1丁目8番地,㈱フジマック倉庫南側出入口西側ブロック塀,35.2036491,136.9084893,
愛知県,名古屋市,150,北区萩野通2丁目1番地,北消防署南側出入口西側ブロック塀,35.2078586,136.9106416,
愛知県,名古屋市,151,北区浪打町2丁目79番地,,35.2096558,136.9085431,
愛知県,名古屋市,152,北区金城町4丁目27番地,六所社東側石柱柵,35.2095031,136.9059398,
愛知県,名古屋市,153,北区光音寺町4丁目1番地,光城小学校北側正門東側フェンス,35.2100402,136.9045666,
愛知県,名古屋市,154,北区光音寺町4丁目1番地,光城小学校西門北側フェンス,35.2097027,136.903644,
愛知県,名古屋市,155,北区浪打町2丁目88番地,(株)ニシワキ配送センター東側ブロック塀学区掲示板横,35.2102145,136.91021,
愛知県,名古屋市,156,北区光音寺町字野方1907番地の4,川中公園南側中央植込み,35.2117015,136.9078086,
愛知県,名古屋市,157,北区福徳町5丁目52番地,川中小学校北門東側フェンス,35.2137043,136.9017812,
愛知県,名古屋市,158,北区福徳町5丁目52番地,川中小学校南側通用門東側フェンス,35.2131192,136.9022023,
愛知県,名古屋市,159,北区福徳町3丁目18番地,市営福徳荘１棟北側植込み,35.2125593,136.8989227,
愛知県,名古屋市,160,北区光音寺町字野方1919番地の5,県立城北つばさ高等学校グランド南側フェンス,35.210164,136.9009091,
愛知県,名古屋市,161,北区中切町2丁目24番地,中切神明社駐車場北側フェンス,35.2136184,136.907034,
愛知県,名古屋市,162,北区中切町2丁目64番地の1,川中保育園北側フェンス,35.2151941,136.9074265,
愛知県,名古屋市,163,北区中切町6丁目10番地の2,masked,35.2165537,136.9064575,
愛知県,名古屋市,164,北区東味鋺三丁目101番地の1,アスクあじま保育園西側フェンス,35.2177984,136.9345589,
愛知県,名古屋市,165,北区東味鋺一丁目805番地,masked,35.2199754,136.933758,
愛知県,名古屋市,166,北区東味鋺一丁目805番地,masked,35.2195108,136.9342596,
愛知県,名古屋市,167,北区東味鋺一丁目2701番地,,35.223228,136.9351017,
愛知県,名古屋市,168,北区東味鋺二丁目1503番地,味鋺東公園西側植込み,35.2216646,136.9370714,
愛知県,名古屋市,169,北区東味鋺三丁目1319番地,masked,35.220515,136.938033,
愛知県,名古屋市,170,北区東味鋺三丁目1319番地,masked,35.220136,136.9383253,
愛知県,名古屋市,171,北区中味鋺二丁目656番地,北中学校西門南側フェンス,35.2198905,136.9224988,
愛知県,名古屋市,172,北区中味鋺二丁目656番地,北中学校北側フェンス,35.2203989,136.923408,
愛知県,名古屋市,173,北区楠味鋺二丁目813番地,宮町どんぐりひろば南側出入口西側,35.2181158,136.9270782,
愛知県,名古屋市,174,北区中味鋺一丁目135番地,市営南あじま荘1棟横公園北側植込み,35.2176905,136.9205047,
愛知県,名古屋市,175,北区楠味鋺二丁目712番地,味鋺公園北側植込み,35.2193648,136.9272579,
愛知県,名古屋市,176,北区楠味鋺五丁目1715番地,ここはーと楠駐車場東側フェンス,35.2187527,136.9320737,
愛知県,名古屋市,177,北区楠味鋺五丁目1501番地,オアシスあじま保育園西側南寄りフェンス,35.2190206,136.929608,
愛知県,名古屋市,178,北区楠味鋺三丁目126番地,味鋺小学校南門・通用門間フェンス,35.2205379,136.9253451,
愛知県,名古屋市,179,北区楠味鋺三丁目126番地,味鋺小学校北門西側フェンス,35.2215196,136.925498,
愛知県,名古屋市,180,北区中味鋺三丁目219番地,中味鋺公園南側植込み,35.2209507,136.9217997,
愛知県,名古屋市,181,北区楠味鋺四丁目1404番地,エスケアステーション名古屋北北側フェンス,0.0,0.0,
愛知県,名古屋市,182,北区楠二丁目119番地,市営中あじま荘Ｔ5棟南側駐車場東側植込み,35.2246758,136.9221763,
愛知県,名古屋市,183,北区中味鋺三丁目713番地,㈱愛知銀行楠町支店駐車場北側フェンス,35.2230375,136.9233876,
愛知県,名古屋市,184,北区楠味鋺三丁目1311番地の1,味鋺コミュニティセンター西側自転車置場フェンス,35.2214171,136.9264239,
愛知県,名古屋市,185,北区落合町110番地,上下水道局落合ポンプ所北側正門東側フェンス,35.223618,136.9091475,
愛知県,名古屋市,186,北区西味鋺四丁目501番地の1,市営西あじま荘Ｔ１７棟東側公園植込み,35.220727,136.9174737,
愛知県,名古屋市,187,北区西味鋺二丁目526番地,西味鋺小学校東側正門南側フェンス,35.2244273,136.9148498,
愛知県,名古屋市,188,北区西味鋺三丁目227番地,西味鋺保育園北側正門東側フェンス,35.2233484,136.9168074,
愛知県,名古屋市,189,北区西味鋺三丁目931番地,名古屋楠幼稚園東側コンクリート塀,35.2225519,136.9198258,
愛知県,名古屋市,190,北区西味鋺四丁目508番地,市営西あじま荘3棟南側公園西側植込み,35.2216534,136.9163258,
愛知県,名古屋市,191,北区西味鋺四丁目557番地,市営西あじま荘Ｔ6棟北側公園東側植込み,35.2206507,136.9198969,
愛知県,名古屋市,192,名古屋市北区楠五丁目701番地,駐車場西側南寄りフェンス,35.2258194,136.9246454,
愛知県,名古屋市,193,北区楠二丁目974番地,楠支所バス停前植込み,35.2285133,136.9233803,
愛知県,名古屋市,194,北区楠二丁目959番地,市営北あじま荘北側フェンス,35.2294003,136.9227159,
愛知県,名古屋市,195,北区楠二丁目957番地,楠中学校南側フェンス,35.2280561,136.92173,
愛知県,名古屋市,196,北区楠二丁目957番地,楠中学校西側フェンス,35.2285688,136.9211077,
愛知県,名古屋市,197,北区五反田町145番地,菱池公園西側南寄り,35.2272679,136.9123553,
愛知県,名古屋市,198,北区楠三丁目705番地,ピアゴ味鋺店北側駐車場南側出入口東側フェンス,35.2267399,136.9232197,
愛知県,名古屋市,199,北区五反田町293番地,生棚公園北西角西向き,35.2280019,136.9159978,
愛知県,名古屋市,200,北区若鶴町126番地,楠公園西側南寄り植込み,35.2307639,136.9160085,
愛知県,名古屋市,201,北区若鶴町126番地,楠公園北側東寄り植込み,35.2316929,136.9182347,
愛知県,名古屋市,202,北区池花町309番地,楠小学校北側フェンス,35.2327475,136.9202624,
愛知県,名古屋市,203,北区池花町309番地,楠小学校南側東寄りフェンス,35.2319807,136.9201497,
愛知県,名古屋市,204,北区三軒町275番地,富士塚公園東側植込み,35.2329419,136.9240804,
愛知県,名古屋市,205,名古屋市北区如意五丁目75番地,,35.2343602,136.9228379,
愛知県,名古屋市,206,名古屋市北区如意二丁目12番地,北浦公園東南角植込み,35.2350466,136.9173468,
愛知県,名古屋市,207,北区丸新町423番地,高坪公園南側西寄り植込み,35.2316802,136.9121936,
愛知県,名古屋市,208,北区如意四丁目111番地,大山公園東側トイレ横北寄り植込み,35.2363653,136.9243524,
愛知県,名古屋市,209,北区如意三丁目131番地,如意小学校東門北側フェンス,35.2384371,136.926201,
愛知県,名古屋市,210,北区如意三丁目131番地,如意小学校北門西側フェンス,35.2386868,136.9255198,
愛知県,名古屋市,211,北区六が池町72番地,如意幼稚園東側フェンス,35.2381441,136.9282534,
愛知県,名古屋市,212,北区桐畑町100番地,市営如意荘1棟北側駐車場出入口西側,35.2362464,136.9276721,
愛知県,名古屋市,213,北区如意五丁目224番地,(宗)岳桂院南側正門西側ブロック塀,35.2350017,136.9257053,
愛知県,名古屋市,214,北区桐畑町100番地,市営如意荘Ｔ21棟南側植込み,35.2343579,136.9272322,
愛知県,名古屋市,215,名古屋市北区丸新町59番地,丸新公園,0.0,0.0,
愛知県,名古屋市,216,北区会所町89番地,楠西小学校西側正門南側スチール塀,35.2384676,136.9071266,
愛知県,名古屋市,217,北区喜惣治二丁目177番地,市営喜惣治荘4棟西側公園南側植込み,35.2375036,136.9053329,
愛知県,名古屋市,218,北区喜惣治二丁目75番地,市営喜惣治荘Ｔ4棟東側植込み,35.2364871,136.9066689,
愛知県,名古屋市,219,北区喜惣治一丁目383番地,喜惣治第二公園北側鉄柵,35.2350002,136.9064434,
愛知県,名古屋市,220,北区大我麻町224番地,大我麻公園北西側植込み,35.2309739,136.9071792,
愛知県,名古屋市,221,北区玄馬町193番地,玄馬公園南側入口東植込み,35.226223,136.9069348,
愛知県,名古屋市,1,名古屋市緑区鳴海町字片平57番地,森下公園南側のフェンス,35.0881618,136.9520649,
愛知県,名古屋市,2,名古屋市緑区鳴海町字三王山41番地,千句塚公園南側のフェンス,35.0904694,136.9504493,
愛知県,名古屋市,3,名古屋市緑区鳴海町字乙子山85番地の9,なるみグリーンコーポ6棟北側のフェンス,35.0878934,136.9537247,
愛知県,名古屋市,4,名古屋市緑区浦里二丁目185番地,幹配電㈱本社　東側のフェンス,35.0878412,136.9497944,
愛知県,名古屋市,5,名古屋市緑区鳴海町字赤塚27番地,ケアネットリゾン鳴海東側のフェンス,35.0911267,136.957109,
愛知県,名古屋市,6,名古屋市緑区鳴海町字片平18番地,片平小学校北西側の柵,35.0896725,136.9516586,
愛知県,名古屋市,7,名古屋市緑区鳴海町字片平18番地,片平小学校南側のフェンス,35.08854,136.9516479,
愛知県,名古屋市,8,名古屋市緑区浦里一丁目32番地の1,片平保育園南側のフェンス,35.0924661,136.9451162,
愛知県,名古屋市,9,名古屋市緑区浦里一丁目77番地,浦里小学校東側のフェンス,35.0895431,136.9449963,
愛知県,名古屋市,10,名古屋市緑区浦里一丁目77番地,浦里小学校西側のフェンス,35.0903464,136.9438751,
愛知県,名古屋市,11,名古屋市緑区浦里三丁目232番地,なるぱーく東側の柵,35.0842495,136.947635,
愛知県,名古屋市,12,名古屋市緑区浦里四丁目8番地,市営南浦里荘北側のフェンス,35.0886701,136.9428535,
愛知県,名古屋市,13,名古屋市緑区浦里四丁目19番地,masked,35.0877216,136.9417431,
愛知県,名古屋市,14,名古屋市緑区浦里四丁目62番地,南越公園南側のフェンス,35.0854324,136.943316,
愛知県,名古屋市,15,名古屋市緑区鳴海町字向田72番地の2,市営鳴海東自転車駐車場北西側フェンス,0.0,0.0,
愛知県,名古屋市,16,名古屋市緑区鳴海町字上汐田200番地,汐田公園南側の柵,35.0790912,136.946379,
愛知県,名古屋市,17,名古屋市緑区鳴海町字本町54番地,緑生涯学習センター駐車場の柵,35.0796661,136.9519935,
愛知県,名古屋市,18,名古屋市緑区鳴海町字向田72番地の2,市営鳴海東自転車駐車場北側フェンス,35.0781157,136.9516914,
愛知県,名古屋市,19,名古屋市緑区緑区曽根一丁目32番地,曽根第一公園南側の柵,35.0755677,136.9564612,
愛知県,名古屋市,20,名古屋市緑区鳴海町字上汐田292番地の1,市営鳴海西自転車駐車場南側フェンス,35.0790107,136.9493237,
愛知県,名古屋市,21,名古屋市緑区鳴海町字向田243番地,碧海信用金庫鳴海支店南側のフェンス,35.0771287,136.9487093,
愛知県,名古屋市,22,名古屋市緑区鳴海町字砦3番地の12,砦公園北西側の柵,35.0817642,136.9569738,
愛知県,名古屋市,23,名古屋市緑区六田一丁目118,六条ポンプ所東側のフェンス,35.0771191,136.957968,
愛知県,名古屋市,24,名古屋市緑区六田一丁目74番地,コーポイトウ北側のフェンス,35.0787039,136.9559671,
愛知県,名古屋市,25,名古屋市緑区鳴海町字矢切98番地,鳴海小学校南側のフェンス,35.0810165,136.9535318,
愛知県,名古屋市,26,名古屋市緑区鳴海町字矢切98番地,鳴海小学校北側のフェンス,35.0824267,136.9529874,
愛知県,名古屋市,27,名古屋市緑区鳴海町字文木90番地,名鉄自動車学校本館東向かいのフェンス,35.0840342,136.9551835,
愛知県,名古屋市,28,名古屋市緑区鳴海町字文木90番地,名鉄自動車学校北東側のフェンス,35.0841769,136.9563529,
愛知県,名古屋市,29,名古屋市緑区漆山1301番地,漆山公園西側の柵,35.0691443,136.9547675,
愛知県,名古屋市,30,名古屋市緑区左京山2102番地,左京山公園北側のフェンス,35.0685955,136.9610667,
愛知県,名古屋市,31,名古屋市緑区平子が丘236番地,平子小学校南側のフェンス,35.0741405,136.9598545,
愛知県,名古屋市,32,名古屋市緑区平子が丘1401番地,坊主山公園東側の柵,35.0737488,136.9643237,
愛知県,名古屋市,33,名古屋市緑区四本木201番地,神明公園北側のフェンス,35.0722536,136.9624099,
愛知県,名古屋市,34,名古屋市緑区曽根二丁目427番地,名鉄自動車整備株式会社北側のフェンス,35.0729259,136.9585645,
愛知県,名古屋市,35,名古屋市緑区左京山2501番地,鴻ノ巣公園北東側の柵,35.0667536,136.962,
愛知県,名古屋市,36,名古屋市緑区平子が丘236番地,平子小学校東側のフェンス,35.0744028,136.9609476,
愛知県,名古屋市,37,名古屋市緑区青山二丁目15番地,緑区役所南側のフェンス,35.0702032,136.9526675,
愛知県,名古屋市,38,名古屋市緑区青山二丁目18番地,masked,35.0717081,136.9508741,
愛知県,名古屋市,39,名古屋市緑区鳴海町字中汐田88番地,市営鳴海荘北側のフェンス,35.0770831,136.9453637,
愛知県,名古屋市,40,名古屋市緑区鳴海町字京田63番地,鳴海愛昇殿駐車場南側のフェンス,35.0769001,136.9461595,
愛知県,名古屋市,41,名古屋市緑区鳴海町字下汐田18番1地内,汐田貯留管ポンプ所南側のフェンス,35.0731402,136.9388301,
愛知県,名古屋市,42,名古屋市緑区鳴海町字前之輪24番地,緑小学校西側のフェンス,35.0752469,136.9434346,
愛知県,名古屋市,43,名古屋市緑区青山二丁目15番地,緑区役所西側のフェンス,35.0703876,136.9520774,
愛知県,名古屋市,44,緑区鳴海町字前之輪219番地,中部電力緑電力センター東側フェンス,35.0753713,136.944667,
愛知県,名古屋市,45,名古屋市緑区鳴海町字有松裏9番地,東丘小学校北側東寄りのフェンス,35.0688406,136.9745421,
愛知県,名古屋市,46,名古屋市緑区東陵1353番地,東陵中学校北側のフェンス,35.0716599,136.9708507,
愛知県,名古屋市,47,名古屋市緑区鳴海町字有松裏9番地,東丘小学校北側西寄りのフェンス,35.06953,136.9725492,
愛知県,名古屋市,48,名古屋市緑区鳴海町字有松裏150番地の47,有松台公園北側のフェンス,35.0686471,136.9783307,
愛知県,名古屋市,49,名古屋市緑区鳴海町字有松裏112番地の3,masked,35.0681747,136.9762679,
愛知県,名古屋市,50,名古屋市緑区東陵710番地,東陵公園南西側の柵,35.0716468,136.9698422,
愛知県,名古屋市,51,名古屋市緑区鳴海町字有松裏208番地,有松北自転車駐車場南側フェンス,35.0682146,136.9725854,
愛知県,名古屋市,52,名古屋市緑区太子一丁目194番地,masked,35.0645073,136.9753414,
愛知県,名古屋市,53,名古屋市緑区太子一丁目235番地,太子保育園南側のフェンス,35.064175,136.9775226,
愛知県,名古屋市,54,名古屋市緑区太子一丁目323番地,太子公園南側のフェンス,35.0662344,136.9776703,
愛知県,名古屋市,55,名古屋市緑区太子二丁目242番地,太子小学校東側のフェンス,35.0653253,136.9798537,
愛知県,名古屋市,56,名古屋市緑区姥子山三丁目1301番地,姥子山南公園南側の柵,35.0695866,136.9821574,
愛知県,名古屋市,57,名古屋市緑区大将ケ根一丁目801番地,大将ケ根公園南側のフェンス,35.0664589,136.9850433,
愛知県,名古屋市,58,名古屋市緑区太子二丁目242番地,太子小学校北側のフェンス,35.0658236,136.9792877,
愛知県,名古屋市,59,名古屋市緑区大将ヶ根二丁目514番地,鳴海グランドハイツ東側のフェンス,35.0636065,136.9808687,
愛知県,名古屋市,60,名古屋市緑区尾崎山一丁目801番地,砂田公園北東側の柵,35.0785679,136.9783489,
愛知県,名古屋市,61,名古屋市緑区鳥澄二丁目201番地,鳥澄東公園東側の柵,35.078044,136.9733109,
愛知県,名古屋市,62,名古屋市緑区相原郷一丁目3201番地,滝ノ水南公園南側の柵,35.0812098,136.9736207,
愛知県,名古屋市,63,名古屋市緑区六田二丁目96番地,鳴海中学校北側のフェンス,35.0786461,136.9636019,
愛知県,名古屋市,64,名古屋市緑区若田一丁目301番地,相原小学校東側のフェンス,35.0770671,136.9655254,
愛知県,名古屋市,65,名古屋市緑区若田三丁目401番地,蛸畑公園西側の柵,35.0748755,136.9659082,
愛知県,名古屋市,66,名古屋市緑区若田二丁目1401番地,鳥澄西公園南側の柵,35.0780441,136.9708917,
愛知県,名古屋市,67,名古屋市緑区相原郷二丁目701番地,緑福祉会館西側の柵,35.0797996,136.9671154,
愛知県,名古屋市,68,名古屋市緑区神沢三丁目1501番地,神沢南公園西側の柵,35.0932643,136.9836027,
愛知県,名古屋市,69,名古屋市緑区篠の風三丁目62番地,篠の風第三公園北側の柵,35.0938883,136.9809255,
愛知県,名古屋市,70,名古屋市緑区滝ノ水五丁目1901番地,滝ノ水西公園東側の柵,35.0858268,136.9710192,
愛知県,名古屋市,71,名古屋市緑区上旭一丁目1001番地,旭黒石公園南側の柵,35.0928644,136.9743905,
愛知県,名古屋市,72,名古屋市緑区滝ノ水二丁目2025番地,コノミヤ滝ノ水店北側駐車場南側のフェンス,35.0872851,136.978658,
愛知県,名古屋市,73,名古屋市緑区滝ノ水一丁目2501番地,滝ノ水川公園東側の柵,35.0887398,136.9785544,
愛知県,名古屋市,74,名古屋市緑区滝ノ水一丁目1901番地,滝ノ水小学校北側のフェンス,35.0911366,136.9783318,
愛知県,名古屋市,75,名古屋市緑区滝ノ水一丁目301番地,滝の水保育園西側のフェンス,35.0904769,136.9748773,
愛知県,名古屋市,76,名古屋市緑区諸の木一丁目1501番地,諸の木北公園北側のフェンス,35.0813106,137.0043744,
愛知県,名古屋市,77,名古屋市緑区平手北一丁目301番地,平手北公園北側の柵,35.0850945,136.9867963,
愛知県,名古屋市,78,名古屋市緑区水広二丁目401番地,水広東公園西側の柵,35.0791667,136.9962532,
愛知県,名古屋市,79,名古屋市緑区細口三丁目111番地,細口公園北西側の柵,35.0893708,136.9885237,
愛知県,名古屋市,80,名古屋市緑区細口二丁目701番地,細口南公園南東側の柵,35.0867684,136.9888622,
愛知県,名古屋市,81,名古屋市緑区水広三丁目401番地,水広公園西側の柵,35.0770953,136.9929674,
愛知県,名古屋市,82,名古屋市緑区横吹町1602番地,横吹南公園南側のフェンス,35.0844015,136.9935898,
愛知県,名古屋市,83,名古屋市緑区平手北二丁目901番地,鳴海東部小学校南側のフェンス,35.0860584,136.9912699,
愛知県,名古屋市,84,名古屋市緑区大清水二丁目901,大清水北公園西側の柵,35.0806218,136.9892527,
愛知県,名古屋市,85,名古屋市緑区大清水西901番地,大清水小学校東側のフェンス,35.0780341,136.9904706,
愛知県,名古屋市,86,名古屋市緑区大清水西901番地,大清水小学校南側のフェンス,35.0774743,136.9897196,
愛知県,名古屋市,87,名古屋市緑区大清水五丁目1801番地,大清水公園西側の柵,35.0735863,136.9904838,
愛知県,名古屋市,88,名古屋市緑区砂田二丁目801,平手南公園西側の柵,35.080968,136.9844492,
愛知県,名古屋市,89,名古屋市緑区鎌倉台二丁目402番地,鎌倉台中学校北側のフェンス,35.0750346,136.9842398,
愛知県,名古屋市,90,名古屋市緑区大清水四丁目601番地,八ツ松公園南東側の柵,35.0764717,136.9872731,
愛知県,名古屋市,91,名古屋市緑区鎌倉台二丁目1001番地,姥子山中央公園西側の柵,35.0726053,136.9851814,
愛知県,名古屋市,92,名古屋市緑区徳重一丁目1201番地,扇台中学校南側のフェンス,35.090146,136.998904,
愛知県,名古屋市,93,名古屋市緑区徳重二丁目311番地,アピタ緑店第８駐車場南側のフェンス,35.0902127,137.0022148,
愛知県,名古屋市,94,名古屋市緑区徳重二丁目518番地,アピタ緑店第４駐車場南側のフェンス,35.0888783,137.0034514,
愛知県,名古屋市,95,名古屋市緑区徳重二丁目801番地,徳重小学校西側のフェンス,35.0882659,137.0009307,
愛知県,名古屋市,96,緑区元徳重二丁目401番地,徳重北公園南側のフェンス,35.0982021,137.0016125,
愛知県,名古屋市,97,名古屋市緑区鶴が沢一丁目1801番地,梨の木公園北側の柵,35.0918648,137.0035571,
愛知県,名古屋市,98,名古屋市緑区元徳重一丁目1401番地,徳重神池公園西側の柵,35.0964986,137.0013381,
愛知県,名古屋市,99,名古屋市緑区乗鞍二丁目207番地,JAパーク徳重駐車場北側フェンス,35.0934493,136.9989254,
愛知県,名古屋市,100,名古屋市緑区黒沢台一丁目1002番地,黒石北公園北側の柵,35.1048337,136.9959105,
愛知県,名古屋市,101,名古屋市緑区黒沢台二丁目1533番地,黒石小学校東側のフェンス,35.1012231,136.9983688,
愛知県,名古屋市,102,名古屋市緑区黒沢台二丁目1533番地,黒石小学校西側のフェンス,35.1013767,136.9971269,
愛知県,名古屋市,103,名古屋市緑区鳴海町字神沢2709番地内,神沢池西側の柵,35.0988331,136.9971006,
愛知県,名古屋市,104,名古屋市緑区黒沢台一丁目1002番地,黒石北公園南側の柵,35.1043476,136.9953513,
愛知県,名古屋市,105,名古屋市緑区黒沢台四丁目1301番地,緑黒石第二公園の南側,35.0974276,136.9935545,
愛知県,名古屋市,106,名古屋市緑区黒沢台二丁目2909番地先,神沢池東側の柵,35.1002499,137.0000665,
愛知県,名古屋市,107,名古屋市緑区緑区梅里二丁目23番地,梅里公園北西側の柵,35.1067002,136.9906837,
愛知県,名古屋市,108,名古屋市緑区神沢二丁目1001番地,神沢公園北西側の柵,35.0956073,136.9871187,
愛知県,名古屋市,109,名古屋市緑区神沢二丁目1201番地,神沢中学校北側のフェンス（正門の東側）,35.0966107,136.9845738,
愛知県,名古屋市,110,名古屋市緑区桃山一丁目165番地,masked,35.1043248,136.9891432,
愛知県,名古屋市,111,名古屋市緑区桃山二丁目96番地,桃山コミュニティセンター東側のフェンス,35.10246,136.9895274,
愛知県,名古屋市,112,名古屋市緑区桃山三丁目1501番地,緑黒石第一公園の北側の柵,35.1000125,136.9904329,
愛知県,名古屋市,113,名古屋市緑区神沢一丁目305番地,神沢南自転車駐車場北東側フェンス,35.0981369,136.9897668,
愛知県,名古屋市,114,名古屋市緑区桃山四丁目327番地,桃山小学校南東側のフェンス,35.1023467,136.9866558,
愛知県,名古屋市,115,名古屋市緑区神の倉二丁目198番地,神の倉小学校西側のフェンス,35.1033056,137.0142084,
愛知県,名古屋市,116,名古屋市緑区神の倉四丁目199番地,神の倉コミュニティセンター駐車場南側のフェンス,35.0987265,137.0109913,
愛知県,名古屋市,117,名古屋市緑区東神の倉一丁目501番地,かんのくら公園南側の柵,35.1063221,137.0128815,
愛知県,名古屋市,118,名古屋市緑区神の倉三丁目94番地,神の倉第三公園北側のフェンス,35.1023683,137.0146215,
愛知県,名古屋市,119,名古屋市緑区赤松206番地,白土バス回転場用地東側のフェンス,35.1026699,137.0188949,
愛知県,名古屋市,120,名古屋市緑区神の倉一丁目184番地,神の倉第一公園南側の柵,35.1014528,137.0104798,
愛知県,名古屋市,121,名古屋市緑区東神の倉三丁目1803番地,神の倉清凉保育園東側のフェンス,35.1050875,137.0183435,
愛知県,名古屋市,122,名古屋市緑区白土1201番地,神の倉中学校西側のフェンス,35.099751,137.0202958,
愛知県,名古屋市,123,名古屋市緑区旭出一丁目101番地,旭出小学校西側のフェンス,35.0861922,136.9634423,
愛知県,名古屋市,124,名古屋市緑区旭出一丁目901番地,旭出公園西側の柵,35.0850195,136.9640684,
愛知県,名古屋市,125,名古屋市緑区旭出三丁目801番地,上朝日出公園北側の柵,35.0893766,136.9713987,
愛知県,名古屋市,126,名古屋市緑区旭出三丁目801番地,上朝日出公園南側の柵,35.0880708,136.9710044,
愛知県,名古屋市,127,名古屋市緑区作の山町164番地,作の山公園西側の柵,35.0851212,136.960052,
愛知県,名古屋市,128,名古屋市緑区潮見が丘三丁目2番地,潮見が丘東公園南側の柵,35.0824991,136.9642061,
愛知県,名古屋市,129,名古屋市緑区潮見が丘二丁目324番地,JAみどり本店駐車場南側フェンス,35.0816251,136.9608416,
愛知県,名古屋市,130,名古屋市緑区鳴海町字池上15番地144,新海池公園駐車場東側のフェンス,35.0902405,136.9632506,
愛知県,名古屋市,131,名古屋市緑区長根町164番1地内,四郎曽池南西側のフェンス,35.0982101,136.9599611,
愛知県,名古屋市,132,名古屋市緑区古鳴海一丁目165番地,新生幼稚園南側のフェンス,35.1001016,136.9606708,
愛知県,名古屋市,133,名古屋市緑区古鳴海二丁目161番地の1,長根台小学校南側のフェンス,35.0968239,136.9590364,
愛知県,名古屋市,134,名古屋市緑区池上台一丁目58番地,伝治山公園東側の柵,35.0942987,136.9639983,
愛知県,名古屋市,135,名古屋市緑区鳴子町一丁目4番地,鳴子団地79棟南側のフェンス,35.0992641,136.961976,
愛知県,名古屋市,136,名古屋市緑区鳴子町一丁目6番地,鳴子団地89棟南側のフェンス,35.0974465,136.96255,
愛知県,名古屋市,137,名古屋市緑区古鳴海一丁目367番地,嫁ケ茶屋公園東側のフェンス,35.0989061,136.9574386,
愛知県,名古屋市,138,名古屋市緑区鳴海町字伝治山1番地の5,masked,35.095963,136.9602672,
愛知県,名古屋市,139,名古屋市緑区鳴海町字天白52番地,名古屋市環境局鳴海工場東側のフェンス,35.0936311,136.9482588,
愛知県,名古屋市,140,名古屋市緑区松が根台101番地,鳴海大根公園西側の柵,35.0933313,136.9523544,
愛知県,名古屋市,141,名古屋市緑区鳴海町字山ノ神108番地,千鳥丘中学校北側のフェンス,35.0918707,136.9556433,
愛知県,名古屋市,142,名古屋市緑区鳴海町字上ノ山11番地の9,masked,35.0973888,136.9538176,
愛知県,名古屋市,143,名古屋市緑区鳴海町字小森14番地の1,masked,35.0998771,136.9537863,
愛知県,名古屋市,144,名古屋市緑区鳴海町字杜若113番地の1,,35.0958879,136.9516984,
愛知県,名古屋市,145,名古屋市緑区鳴海町字長田3番地の3,小森公園東側のフェンス,35.1012099,136.9515859,
愛知県,名古屋市,146,名古屋市緑区鳴海町字姥子山22番地の1,鳴海第二団地101号棟南側のフェンス,35.0724327,136.9770675,
愛知県,名古屋市,147,名古屋市緑区鳴海町字姥子山22番地の1,グラウンド南東側のフェンス,35.0730134,136.9752061,
愛知県,名古屋市,148,名古屋市緑区鳴海町字尾崎山43番地の663,鳴海東公園北側の柵,35.0727493,136.9790782,
愛知県,名古屋市,149,名古屋市緑区姥子山一丁目1401番地,姥子山北公園の東側の柵,35.0735822,136.9808628,
愛知県,名古屋市,150,名古屋市緑区鳴海町字尾崎山43番地の6,アーバンラフレ鳴海1号棟東側のフェンス,35.0739614,136.9783132,
愛知県,名古屋市,151,名古屋市緑区姥子山二丁目1608番地,スーパーヤマダイ駐車場南側のフェンス,35.0709492,136.9837016,
愛知県,名古屋市,152,名古屋市緑区鳴海町字細根84番地の4,鳴海団地201号棟南側のフェンス,35.0723381,136.9746133,
愛知県,名古屋市,153,名古屋市緑区篠の風二丁目263番地,エンチョー南側駐車場北側のフェンス,35.0971558,136.9767788,
愛知県,名古屋市,154,名古屋市緑区相川三丁目60番地,戸笠小学校東側のフェンス,35.101408,136.9762521,
愛知県,名古屋市,155,名古屋市緑区相川三丁目60番地,戸笠小学校西側のフェンス,35.1016625,136.9753348,
愛知県,名古屋市,156,名古屋市緑区篠の風二丁目425番地,篠の風中央公園西側の柵,35.0962912,136.979174,
愛知県,名古屋市,157,名古屋市緑区鳴子町5丁目2番地,鳴子螺貝公園北側の柵,35.1004961,136.9721741,
愛知県,名古屋市,158,名古屋市緑区鳴子町5丁目102番地,鳴子篠の風公園南東側の柵,35.0970354,136.9729694,
愛知県,名古屋市,159,名古屋市緑区ほら貝二丁目205番地,みどりヶ丘どんぐり広場北側のフェンス,35.1016928,136.9822593,
愛知県,名古屋市,160,名古屋市緑区ほら貝三丁目261番地,ほら貝第二公園南側のフェンス,35.0973267,136.9829652,
愛知県,名古屋市,161,名古屋市緑区万場山一丁目1001番地,旭高根公園の東側の柵,35.0941899,136.9723333,
愛知県,名古屋市,162,名古屋市緑区池上台二丁目121番地,万場山公園南側の柵,35.0928185,136.967234,
愛知県,名古屋市,163,名古屋市緑区相川一丁目106番地,相川第一公園南側の柵,35.1019467,136.9693258,
愛知県,名古屋市,164,名古屋市緑区鳴子町1丁目42番地,鳴子高根公園北東側の柵,35.0967861,136.9645205,
愛知県,名古屋市,165,名古屋市緑区鳴子町3丁目40番地,鳴子台中学校北側のフェンス,35.099924,136.9685651,
愛知県,名古屋市,166,名古屋市緑区鳴子町2丁目69番地,鳴子小学校の東側のフェンス,35.098451,136.9659757,
愛知県,名古屋市,167,名古屋市緑区鳴子町2丁目70番地,鳴子中央公園グラウンド東側の柵,35.0987796,136.967274,
愛知県,名古屋市,168,名古屋市緑区鳴子町3丁目40番地,鳴子台中学校南側のフェンス,35.0987851,136.9698016,
愛知県,名古屋市,169,名古屋市緑区大高町字北平部1番地の66,masked,35.0682647,136.9647039,
愛知県,名古屋市,170,名古屋市緑区武路町2911番地内,摺鉢池南側のフェンス,35.0585056,136.9717981,
愛知県,名古屋市,171,名古屋市緑区緑花台2601番地,緑花台公園南側の柵,35.0570494,136.9593289,
愛知県,名古屋市,172,名古屋市緑区有松町大字桶狭間字愛宕西23番地の73,めぐみ保育園西側のフェンス,35.0607196,136.9657637,
愛知県,名古屋市,173,名古屋市緑区有松南601番地,有松南公園東側の柵,35.0629918,136.9649245,
愛知県,名古屋市,174,名古屋市緑区緑花台1327番地,西鰌池公園北側の柵,35.0571877,136.9618972,
愛知県,名古屋市,175,名古屋市緑区有松町大字桶狭間字生山1番地の146,生山公園東側の柵,35.0628757,136.9718482,
愛知県,名古屋市,176,名古屋市緑区武路町701番地,有松武路公園南側の柵,35.0608125,136.97366,
愛知県,名古屋市,177,名古屋市緑区桶狭間清水山1501番地,清水山中央公園南側の柵,35.0466294,136.9614908,
愛知県,名古屋市,178,名古屋市緑区桶狭間北二丁目1113番地,DCM桶狭間店西側のフェンス,35.0560792,136.9703953,
愛知県,名古屋市,179,名古屋市緑区桶狭間南701番地内,大芝池北側のフェンス,35.0457911,136.9695804,
愛知県,名古屋市,180,緑区桶狭間3002番地,東池西側のフェンス,35.0498375,136.9732984,
愛知県,名古屋市,181,名古屋市緑区桶狭間神明1520番地,桶狭間公民館東側のフェンス,35.0515577,136.968703,
愛知県,名古屋市,182,名古屋市緑区桶狭間巻山1908番地,桶狭間小学校北西側のフェンス,35.0556494,136.9676964,
愛知県,名古屋市,183,名古屋市緑区桶狭間901番地,セト山公園南側の柵,35.0518882,136.9719307,
愛知県,名古屋市,184,名古屋市緑区大根山一丁目1001番地,大根山公園南側の柵,35.0543796,136.9575985,
愛知県,名古屋市,185,名古屋市緑区清水山二丁目19番地,下籠池公園南西側の柵,35.0485527,136.9554928,
愛知県,名古屋市,186,名古屋市緑区清水山一丁目901番地,籠池公園東側の柵,35.0513866,136.960155,
愛知県,名古屋市,187,名古屋市緑区南陵201番地,市営桶狭間荘4棟南駐車場西側のフェンス,35.0492433,136.9683726,
愛知県,名古屋市,188,名古屋市緑区南陵401番地,市営桶狭間荘11棟南側のフェンス,35.0468353,136.9681554,
愛知県,名古屋市,189,名古屋市緑区桶狭間森前1348番地,南陵小学校西側のフェンス,35.0487637,136.9653513,
愛知県,名古屋市,190,名古屋市緑区南陵401番地,立体駐車場南側のフェンス,35.0466157,136.9663234,
愛知県,名古屋市,191,名古屋市緑区南陵102番地,桶狭間幼稚園西側のフェンス,35.0506744,136.9682427,
愛知県,名古屋市,192,名古屋市緑区大高町字南関山35番地,鈴秀工業㈱駐車場西側のフェンス,35.059114,136.9474417,
愛知県,名古屋市,193,名古屋市緑区大高町字鶴田193番地,JAなごや大高支店西側駐車場北西側のフェンス,35.0665851,136.9389682,
愛知県,名古屋市,194,名古屋市緑区倉坂1301番地,倉坂公園東側の柵,35.0654418,136.9489394,
愛知県,名古屋市,195,名古屋市緑区大高町字町屋川1番地,大高北小学校東側のフェンス,35.0692715,136.9379601,
愛知県,名古屋市,196,名古屋市緑区大高町字砦前48番地,,35.0637378,136.9442985,
愛知県,名古屋市,197,名古屋市緑区大高町字町屋川1番地,大高北小学校北側のフェンス,35.069827,136.9374586,
愛知県,名古屋市,198,名古屋市緑区大高町字上塩田68番地,クマガイ特殊鋼南東側のフェンス,35.0713577,136.9358381,
愛知県,名古屋市,199,名古屋市緑区大高町字鷲津73番地,子供の家保育園北西側のフェンス,35.0710505,136.9417522,
愛知県,名古屋市,200,名古屋市緑区森の里一丁目107番地,大高中学校内コミュニティ道路東側のフェンス,35.0599002,136.9414018,
愛知県,名古屋市,201,名古屋市緑区南大高一丁目1004番地,大高南小学校南西側のフェンス,35.0586124,136.9441892,
愛知県,名古屋市,202,名古屋市緑区森の里一丁目94番地,大高南コミュニティセンター北側のフェンス,35.0630313,136.9407485,
愛知県,名古屋市,203,名古屋市緑区森の里一丁目97番地,森の里団地バス回転場用地西側のフェンス,35.061061,136.9434972,
愛知県,名古屋市,204,名古屋市緑区南大高三丁目901番地,小黒見公園の東側の柵,35.0527504,136.9452674,
愛知県,名古屋市,205,名古屋市緑区南大高四丁目1601番地,南休公園の東側の柵,35.0551593,136.9424279,
愛知県,名古屋市,206,名古屋市緑区森の里二丁目6番地,市営森の里荘10棟東側のフェンス,35.0609617,136.9398433,
愛知県,名古屋市,207,名古屋市緑区高根山一丁目502番地,Vドラッグ大高南店の駐車場南側のフェンス,35.0469429,136.9477341,
愛知県,名古屋市,208,名古屋市緑区大高台三丁目2601番地,大高小学校北側のフェンス,35.0627164,136.9365041,
愛知県,名古屋市,209,名古屋市緑区大高台二丁目501番地,大高台公園西側のフェンス,35.0579497,136.9363519,
愛知県,名古屋市,210,名古屋市緑区大高台三丁目2201番地,大高中部公園北側の柵,35.0610043,136.9359852,
愛知県,名古屋市,211,名古屋市緑区大高町字北大高畑15番地の1,津島社参道のフェンス,35.0638981,136.9405046,
愛知県,名古屋市,212,名古屋市緑区大高町字北横峯1番地の3,市営大高荘1号棟北側のフェンス,35.0598484,136.9387836,
愛知県,名古屋市,213,名古屋市緑区定納山二丁目106番地,コープ大高インター店駐車場北側の柵,35.0531847,136.9334113,
愛知県,名古屋市,214,名古屋市緑区大高町字神戸8番地,中部電力パワーグリッド㈱駐車場西側のフェンス,35.0641485,136.9283015,
愛知県,名古屋市,215,名古屋市緑区大高町字寅新田110番地の1,山信㈱東側のフェンス,35.0658568,136.921723,
愛知県,名古屋市,216,名古屋市緑区鳴丘一丁目2504番地,,35.0924071,136.9895316,
愛知県,名古屋市,217,名古屋市緑区乗鞍一丁目2101番地,常安小学校西側のフェンス,35.0936756,136.9934422,
愛知県,名古屋市,218,名古屋市緑区乗鞍二丁目102番地の1,要池北側の柵,35.095105,136.9972394,
愛知県,名古屋市,219,名古屋市緑区乗鞍一丁目908番地,DCM鳴海店第3・4駐車場南側のフェンス,35.0957878,136.9926964,
愛知県,名古屋市,220,名古屋市緑区乗鞍一丁目706番地,DCM鳴海店裏駐車場東側のフェンス,35.0965451,136.9933721,
愛知県,名古屋市,221,名古屋市緑区乗鞍一丁目1901番地,鳴丘東公園北側の柵,35.0938919,136.9924682,
愛知県,名古屋市,222,名古屋市緑区乗鞍一丁目1802番地,乗鞍緑地西側の柵,35.0958538,136.9904914,
愛知県,名古屋市,223,名古屋市緑区滝ノ水三丁目301番地,コノミヤ滝ノ水店東側駐車場東側のフェンス,35.0862125,136.9795087,
愛知県,名古屋市,224,名古屋市緑区小坂一丁目1001番地の2,小坂小学校北東側のフェンス,35.0859352,136.981513,
愛知県,名古屋市,225,名古屋市緑区篭山一丁目50番地,鍋山公園北西側の柵,35.0852749,136.9830989,
愛知県,名古屋市,226,名古屋市緑区滝ノ水四丁目1901番地,滝ノ水中央公園西側の柵,35.0838107,136.9728328,
愛知県,名古屋市,227,名古屋市緑区小坂一丁目1001番地の2,小坂小学校西門側のフェンス,35.0852636,136.9813172,
愛知県,名古屋市,228,名古屋市緑区小坂二丁目1501番地,小坂公園東側の柵,35.0824043,136.9797088,
愛知県,名古屋市,229,名古屋市緑区滝ノ水四丁目1901番地,滝ノ水中央公園東側の柵,35.0840016,136.9745789,
愛知県,名古屋市,230,名古屋市緑区滝ノ水三丁目602番地,滝ノ水中学校西側のフェンス,35.08725,136.976474,
愛知県,名古屋市,231,名古屋市緑区西神の倉一丁目401番地,熊野西公園北東側の柵,35.1008406,137.0039041,
愛知県,名古屋市,232,名古屋市緑区亀が洞三丁目301番地,亀が洞第三公園西側の柵,35.0954883,137.0103915,
愛知県,名古屋市,233,名古屋市緑区亀が洞二丁目801番地,亀が洞第一公園北側の柵,35.093139,137.0087949,
愛知県,名古屋市,234,名古屋市緑区藤塚二丁目701番地,藤塚北公園北側の柵,35.0996143,137.0172167,
愛知県,名古屋市,235,名古屋市緑区鏡田1101番地,鏡田公園北東側の柵,35.094122,137.0138606,
愛知県,名古屋市,236,名古屋市緑区亀が洞一丁目901番地,熊の前小学校西側のフェンス,35.095209,137.006916,
愛知県,名古屋市,237,名古屋市緑区亀が洞一丁目901番地,熊の前小学校東側のフェンス,35.0961844,137.0082106,
愛知県,名古屋市,238,名古屋市緑区藤塚三丁目2610番地,キョーワ調剤薬局みどり藤塚店北西側のフェンス,35.0956219,137.0191322,
愛知県,名古屋市,239,名古屋市緑区桶狭間森前601番地,森前公園南側の柵,35.0495692,136.9639327,
愛知県,名古屋市,1,名古屋市名東区猪子石原二丁目1301番地,香流中学校正門西側フェンス,35.19542,136.9909,
愛知県,名古屋市,2,名古屋市名東区天神下101番地,天神下荘駐車場南側フェンス,35.19277,136.9862,
愛知県,名古屋市,3,名古屋市名東区猪子石原一丁目1201番地,猪子石原中央公園東側鉄柵,35.19302,136.99051,
愛知県,名古屋市,4,名古屋市名東区猪子石原二丁目1301番地,香流中学校南門フェンス（東寄）,35.19479,136.99266,
愛知県,名古屋市,5,名古屋市名東区猪子石原三丁目2201番地,村崎公園東側鉄柵,35.19456,136.99495,
愛知県,名古屋市,6,名古屋市名東区猪子石原一丁目1501番地,いのこし病院南側フェンス（中央電柱西隣）,35.19305,136.99094,
愛知県,名古屋市,7,名古屋市名東区猪子石原一丁目1201番地,猪子石原中央公園西側階段脇鉄柵,35.19226,136.98923,
愛知県,名古屋市,8,名古屋市名東区山の手一丁目1001番地,猪子石公園南西側,35.18383,136.9883,
愛知県,名古屋市,9,名古屋市名東区赤松台801番地,赤松公園南側鉄柵,35.1817744,136.9952154,
愛知県,名古屋市,10,名古屋市名東区神月町701番地,宮前公園南側中央フェンス,35.1900255,136.9951309,
愛知県,名古屋市,11,名古屋市名東区香坂521番地,月極駐車場南側フェンス,35.18961,136.98853,
愛知県,名古屋市,12,名古屋市名東区香流一丁目101番地,香流川翔裕園北側フェンス,35.18769,136.98748,
愛知県,名古屋市,13,名古屋市名東区香流二丁目1201番地,香流小学校南側フェンス,35.18641,136.99301,
愛知県,名古屋市,14,名古屋市名東区香流二丁目1201番地,香流小学校北側フェンス,35.18753,136.99328,
愛知県,名古屋市,15,名古屋市名東区山の手三丁目1701番地,山ノ手公園東側鉄柵,35.18424,136.99433,
愛知県,名古屋市,16,名古屋市名東区つつじが丘301番地,市営猪子石荘第三集会所北側フェンス,35.18226,136.99247,
愛知県,名古屋市,17,名古屋市名東区つつじが丘201番地,市営猪子石荘9号棟北側フェンス,35.18332,136.99059,
愛知県,名古屋市,18,名古屋市名東区つつじが丘301番地,蓬来コミュニティセンター北側フェンス,35.18208,136.9902,
愛知県,名古屋市,19,名古屋市名東区つつじが丘301番地,市営猪子石荘24号棟南西角フェンス,35.18081,136.99274,
愛知県,名古屋市,20,名古屋市名東区つつじが丘301番地,市営猪子石荘8号棟南側フェンス,35.18039,136.99167,
愛知県,名古屋市,21,名古屋市名東区よもぎ台一丁目501番地,蓬来小学校西通用門南側フェンス,35.17831,136.98823,
愛知県,名古屋市,22,名古屋市名東区よもぎ台一丁目501番地,蓬来小学校南側フェンス,35.17802,136.98937,
愛知県,名古屋市,23,名古屋市名東区よもぎ台二丁目1番地,八畝公園南側鉄柵,35.17636,136.98924,
愛知県,名古屋市,24,名古屋市名東区平和が丘一丁目1番地,平和が丘小学校正門東側フェンス,35.1795952,136.980932,
愛知県,名古屋市,25,名古屋市名東区平和が丘一丁目44番地,猪高営業所用地南側フェンス,35.17785,136.98453,
愛知県,名古屋市,26,名古屋市名東区平和が丘五丁目29番地1,平和が丘どんぐりひろば東側フェンス,35.17496,136.98596,
愛知県,名古屋市,27,名古屋市名東区平和が丘三丁目13番地,masked,35.17211,136.98603,
愛知県,名古屋市,28,名古屋市名東区平和が丘四丁目98番地,濁池公園北東側鉄柵,35.17302,136.98985,
愛知県,名古屋市,29,名古屋市名東区平和が丘四丁目266番地,平和が丘第二公園南側鉄柵,35.16956,136.9906,
愛知県,名古屋市,30,名古屋市名東区平和が丘三丁目62番地,平和が丘第一公園南側鉄柵（西寄）,35.16992,136.98828,
愛知県,名古屋市,31,名古屋市名東区延珠町301番地,延珠公園北東側鉄パイプ柵,35.19172,137.00436,
愛知県,名古屋市,32,名古屋市名東区香南二丁目401番地,九合田公園南西側フェンス,35.18926,137.00447,
愛知県,名古屋市,33,名古屋市名東区香南一丁目101番地,masked,35.18851,137.00227,
愛知県,名古屋市,34,名古屋市名東区香南一丁目506番地,NTT猪子石ビル東側フェンス,35.18837,137.00399,
愛知県,名古屋市,35,名古屋市名東区引山一丁目1105番地,引山小学校正門西側フェンス,35.18987,136.99758,
愛知県,名古屋市,36,名古屋市名東区引山一丁目1105番地,引山小学校東門北側フェンス,35.18946,136.99847,
愛知県,名古屋市,37,名古屋市名東区引山三丁目617番地,引山コミュニティセンター南側フェンス,35.1922662,136.9995798,
愛知県,名古屋市,38,名古屋市名東区香南一丁目103番地,masked,35.18953,137.00347,
愛知県,名古屋市,39,名古屋市名東区猪子石二丁目1401番地,丸根公園南側鉄柵,35.18536,137.00352,
愛知県,名古屋市,40,名古屋市名東区猪子石一丁目610番地付近,月極駐車場南側フェンス,35.18438,137.00068,
愛知県,名古屋市,41,名古屋市名東区猪子石二丁目1101番地,猪高配水場東側フェンス,35.18602,137.00694,
愛知県,名古屋市,42,名古屋市名東区猪子石二丁目1201番地,猪子石小学校正門東側フェンス,35.18676,137.00434,
愛知県,名古屋市,43,名古屋市名東区猪子石二丁目1201番地,猪子石小学校南東側フェンス,35.18566,137.00442,
愛知県,名古屋市,44,名古屋市名東区猪子石二丁目1101番地,猪高配水場北側フェンス,35.1872271,137.005899,
愛知県,名古屋市,45,名古屋市名東区猪子石一丁目2601番地,化者業公園北側鉄柵,35.18524,136.9978,
愛知県,名古屋市,46,名古屋市名東区猪高町大字猪子石字鱣廻間53番地,明徳緑地西側南寄り木柵,35.18374,137.00675,
愛知県,名古屋市,47,名古屋市名東区藤里町101番地,名古屋市名東環境事業所東側フェンス,35.19022,137.0124,
愛知県,名古屋市,48,名古屋市名東区藤里町1201番地,藤の木団地給水塔南側フェンス,35.18989,137.01594,
愛知県,名古屋市,49,名古屋市名東区藤里町1003番地,市立藤里保育園南西側フェンス,35.18962,137.01382,
愛知県,名古屋市,50,名古屋市名東区高柳町1501番地,高柳公園東側鉄柵,35.18274,137.01461,
愛知県,名古屋市,51,名古屋市名東区豊が丘2102番地,豊が丘公園南側鉄柵,35.18688,137.01475,
愛知県,名古屋市,52,名古屋市名東区豊が丘1501番地,豊が丘小学校南門西側フェンス,35.18738,137.0146,
愛知県,名古屋市,53,名古屋市名東区豊が丘1501番地,豊が丘小学校西側フェンス,35.18773,137.01379,
愛知県,名古屋市,54,名古屋市名東区明が丘18番地,明が丘公園東側鉄柵（交差点南西口すぐ）,35.18345,137.01784,
愛知県,名古屋市,55,名古屋市名東区明が丘102番地,月極駐車場南側フェンス,35.18188,137.01869,
愛知県,名古屋市,56,名古屋市名東区朝日が丘107番地,masked,35.18405,137.02297,
愛知県,名古屋市,57,名古屋市名東区藤が丘54番地,藤が丘小学校正門内西側フェンス,35.18402,137.02022,
愛知県,名古屋市,58,名古屋市名東区藤が丘54番地,藤が丘小学校西側フェンス,35.18413,137.01901,
愛知県,名古屋市,59,名古屋市名東区明が丘18番地,明が丘公園西側フェンス,35.18287,137.01626,
愛知県,名古屋市,60,名古屋市名東区富が丘137番地,富が丘公園南西角,35.1862131,137.0196634,
愛知県,名古屋市,61,名古屋市名東区朝日が丘134番地,藤が丘工場用地南側フェンス,35.18089,137.02438,
愛知県,名古屋市,62,名古屋市名東区小池町66番地,藤森中学校正門西側フェンス,35.17952,137.01878,
愛知県,名古屋市,63,名古屋市名東区小池町66番地,藤森中学校北西側フェンス,35.18043,137.01804,
愛知県,名古屋市,64,名古屋市名東区宝が丘295番地1,パーキング宝が丘東側フェンス,35.17672,137.02429,
愛知県,名古屋市,65,名古屋市名東区望が丘290番地,望が丘増圧ポンプ場南側フェンス,35.1769,137.02092,
愛知県,名古屋市,66,名古屋市名東区藤見が丘89番地,藤見が丘公園南側鉄柵,35.18057,137.022,
愛知県,名古屋市,67,名古屋市名東区照が丘133番地,照が丘どんぐりひろば西側フェンス,35.17859,137.0257,
愛知県,名古屋市,68,名古屋市名東区藤見が丘89番地,藤見が丘公園北側鉄柵,35.18094,137.02237,
愛知県,名古屋市,69,名古屋市名東区本郷二丁目153番地,本郷駅市バスターミナル北東側フェンス,35.17588,137.01421,
愛知県,名古屋市,70,名古屋市名東区石が根町74番地,中部電力藤森寮　西側フェンス,35.18215,137.00868,
愛知県,名古屋市,71,名古屋市名東区上社二丁目50番地,名東区役所北側フェンス,35.17619,137.01064,
愛知県,名古屋市,72,名古屋市名東区本郷二丁目78番地,本郷南公園南西角鉄柵,35.17657,137.01517,
愛知県,名古屋市,73,名古屋市名東区本郷一丁目237番地,本郷小学校東側東通用門南側フェンス,35.17837,137.01492,
愛知県,名古屋市,74,名古屋市名東区本郷一丁目237番地,本郷小学校西側正門北側フェンス,35.17876,137.0141,
愛知県,名古屋市,75,名古屋市名東区本郷一丁目238番地,本郷公園東側鉄柵,35.17873,137.01645,
愛知県,名古屋市,76,名古屋市名東区藤森二丁目82番地,藤森第二公園北側鉄柵,35.18043,137.0114,
愛知県,名古屋市,77,名古屋市名東区社台三丁目238番地,西一社第二公園東側南寄鉄柵,35.17041,137.00178,
愛知県,名古屋市,78,名古屋市名東区社口二丁目201番地1,名古屋国道維持第四出張所北側フェンス,35.17726,137.00171,
愛知県,名古屋市,79,名古屋市名東区丁田町32番地,猪高小学校南門西側フェンス,35.17563,137.00504,
愛知県,名古屋市,80,名古屋市名東区丁田町32番地,猪高小学校正門南側鉄柵,35.17697,137.00517,
愛知県,名古屋市,81,名古屋市名東区藤森一丁目63番地,藤森第一公園南側鉄柵,35.17884,137.00684,
愛知県,名古屋市,82,名古屋市名東区丁田町33番地,猪高中学校東通用門北側フェンス,35.17861,137.00597,
愛知県,名古屋市,83,名古屋市名東区社台三丁目18番地付近,柴源社台第2駐車場東側フェンス,35.17436,137.00245,
愛知県,名古屋市,84,名古屋市名東区上社一丁目803番地,上社駅駅用地南側中央フェンス,35.17339,137.00673,
愛知県,名古屋市,85,名古屋市名東区上菅一丁目101番地,北一社小学校北側フェンス,35.17959,136.99568,
愛知県,名古屋市,86,名古屋市名東区上菅二丁目401番地,廻間公園北東側鉄柵,35.18027,136.99893,
愛知県,名古屋市,87,名古屋市名東区社台一丁目210番地,社台一丁目鉄塔南側フェンス,35.17291,136.99497,
愛知県,名古屋市,88,名古屋市名東区上菅一丁目101番地,北一社小学校西北側フェンス,35.17883,136.9951,
愛知県,名古屋市,89,名古屋市名東区社台二丁目206番地,県立千種高等学校東側フェンス（南寄）,35.17172,136.99895,
愛知県,名古屋市,90,名古屋市名東区社台二丁目105番地,上社西部第一公園西側鉄柵,35.1743,136.99649,
愛知県,名古屋市,91,名古屋市名東区社口一丁目601番地,上社西部第二公園南側鉄柵,35.1758,136.9987,
愛知県,名古屋市,92,名古屋市名東区高社二丁目76番地,西一社第一公園北側,35.16992,136.99523,
愛知県,名古屋市,93,名古屋市名東区上社五丁目1002番地,上社小学校南側フェンス（中央付近）,35.17012,137.01244,
愛知県,名古屋市,94,名古屋市名東区社が丘三丁目1206番地,名古屋高年大学鯱城学園楽陶館東側フェンス,35.16855,137.01572,
愛知県,名古屋市,95,名古屋市名東区社が丘四丁目103番地,社が丘公園南側鉄柵,35.17182,137.01845,
愛知県,名古屋市,96,名古屋市名東区上社五丁目1002番地,上社小学校東通用門南側フェンス,35.17075,137.01335,
愛知県,名古屋市,97,名古屋市名東区社が丘二丁目501番地,平池第二公園西側フェンス,35.17196,137.01595,
愛知県,名古屋市,98,名古屋市名東区上社四丁目169番地,流公園西側鉄柵,35.17152,137.00681,
愛知県,名古屋市,99,名古屋市名東区上社四丁目262番地,猪高保育園南側フェンス,35.1699,137.00826,
愛知県,名古屋市,100,名古屋市名東区社が丘四丁目301番地,上社中学校西門南側フェンス,35.17112,137.01963,
愛知県,名古屋市,101,名古屋市名東区一社三丁目68番地,西一社第四公園北側フェンス,35.16828,137.0031,
愛知県,名古屋市,102,名古屋市名東区高間町333番地,瓶ノ井公園南側鉄柵,35.16167,137.00002,
愛知県,名古屋市,103,名古屋市名東区亀の井二丁目201番地,名東福祉会館正門東側フェンス,35.16398,137.001,
愛知県,名古屋市,104,名古屋市名東区亀の井二丁目201番地,名東福祉会館西側通用門南側フェンス,35.16368,137.00026,
愛知県,名古屋市,105,名古屋市名東区亀の井三丁目134番地,名東小学校南通用門西側フェンス,35.1642,137.00388,
愛知県,名古屋市,106,名古屋市名東区亀の井三丁目134番地,名東小学校正門南側フェンス,35.16469,137.00305,
愛知県,名古屋市,107,名古屋市名東区高間町109番地,大廻間第二公園南側鉄パイプ柵,35.16037,137.00043,
愛知県,名古屋市,108,名古屋市名東区高間町502番地,大廻間第三公園西側鉄柵,35.16057,137.00381,
愛知県,名古屋市,109,名古屋市名東区一社二丁目128番地,西一社中央公園西側鉄柵,35.1667,136.99787,
愛知県,名古屋市,110,名古屋市名東区亀の井一丁目120番地,大廻間第四公園西側鉄柵,35.16239,136.99237,
愛知県,名古屋市,111,名古屋市名東区亀の井二丁目156番地,猪子石日進線第15号鉄塔西側フェンス,35.1651,136.99851,
愛知県,名古屋市,112,名古屋市名東区亀の井一丁目20番地,西一社団地15棟東側フェンス,35.1637,136.9943,
愛知県,名古屋市,113,名古屋市名東区亀の井二丁目2番地,柴源一社駐車場西側フェンス,35.16479,136.99586,
愛知県,名古屋市,114,名古屋市名東区一社二丁目95番地,一社変電所北側フェンス,35.1672,136.99762,
愛知県,名古屋市,115,名古屋市名東区高間町1番地,大廻間第一公園北側鉄柵,35.16185,136.99623,
愛知県,名古屋市,116,名古屋市名東区亀の井二丁目38番地,名古屋大学猪高町宿舎西側フェンス,35.16343,136.99583,
愛知県,名古屋市,117,名古屋市名東区植園町3丁目59番地,植園公園東側柵,35.15458,136.99197,
愛知県,名古屋市,118,名古屋市名東区山香町404番地,西山水処理センター北側フェンス,35.15235,136.99551,
愛知県,名古屋市,119,名古屋市名東区扇町1丁目73番地,愛英西山幼稚園西側フェンス,35.15557,136.99387,
愛知県,名古屋市,120,名古屋市名東区にじが丘1丁目1番地3,虹ヶ丘北公園東側フェンス,35.16037,136.98961,
愛知県,名古屋市,121,名古屋市名東区にじが丘3丁目1番地,虹ヶ丘公園南側フェンス,35.1586,136.991,
愛知県,名古屋市,122,名古屋市名東区植園町2丁目1番地,masked,35.15636,136.98997,
愛知県,名古屋市,123,名古屋市名東区西山本通2丁目35番地,西山小学校北側フェンス,35.1576,136.99344,
愛知県,名古屋市,124,名古屋市名東区西山本通2丁目35番地,西山小学校西門北側フェンス,35.15731,136.99317,
愛知県,名古屋市,125,名古屋市名東区神丘町1丁目18番地,神丘中学校正門北側フェンス,35.1584,136.99901,
愛知県,名古屋市,126,名古屋市名東区神丘町1丁目18番地,神丘中学校東門北側フェンス,35.15757,136.99977,
愛知県,名古屋市,127,名古屋市名東区代万町3丁目11番地,アーバンラフレ虹ヶ丘中3号棟東側方面,35.1588,136.99736,
愛知県,名古屋市,128,名古屋市名東区神丘町3丁目14番地,神丘公園東側鉄柵,35.15626,137.00103,
愛知県,名古屋市,129,名古屋市名東区神里二丁目128番地,神里公園南側鉄柵,35.15469,137.00216,
愛知県,名古屋市,130,名古屋市名東区西山台701番地,星ヶ丘アメニティクラブ西側フェンス,35.15352,136.99912,
愛知県,名古屋市,131,名古屋市名東区神丘町3丁目14番地,神丘公園南東側鉄柵,35.15574,137.00078,
愛知県,名古屋市,132,名古屋市名東区貴船一丁目324番地,水野ビル北側フェンス,35.16644,137.00816,
愛知県,名古屋市,133,名古屋市名東区貴船二丁目1001番地,貴船公園西北側鉄柵,35.1674,137.01031,
愛知県,名古屋市,134,名古屋市名東区貴船三丁目2301番地,貴船小学校西側フェンス（特活室前）,35.16463,137.01077,
愛知県,名古屋市,135,名古屋市名東区貴船三丁目2301番地,貴船小学校南側フェンス,35.16364,137.01199,
愛知県,名古屋市,136,名古屋市名東区勢子坊二丁目1302番地,たかばり北保育園南側フェンス,35.1628,137.01688,
愛知県,名古屋市,137,名古屋市名東区陸前町2601番地,杁田公園北西側鉄柵,35.16193,137.00949,
愛知県,名古屋市,138,名古屋市名東区勢子坊三丁目801番地,高針台中学校北側フェンス,35.16107,137.01658,
愛知県,名古屋市,139,名古屋市名東区勢子坊三丁目801番地,高針台中学校南側フェンス,35.15974,137.01689,
愛知県,名古屋市,140,名古屋市名東区大針一丁目351番地,市立名東高等学校北通用門西側鉄柵,35.15423,137.02058,
愛知県,名古屋市,141,名古屋市名東区大針一丁目351番地,市立名東高等学校東通用門北側フェンス,35.1543,137.02194,
愛知県,名古屋市,142,名古屋市名東区大針二丁目50番地1,大針第二公園東側鉄柵,35.15179,137.01882,
愛知県,名古屋市,143,名古屋市名東区大針二丁目242番地,大針中央公園西側鉄柵,35.15143,137.02007,
愛知県,名古屋市,144,名古屋市名東区大針三丁目177番地付近,大針第三公園東側フェンス,35.14898,137.01715,
愛知県,名古屋市,145,名古屋市名東区高針台三丁目901番地,極楽小学校正門南側フェンス,35.15562,137.01635,
愛知県,名古屋市,146,名古屋市名東区高針台三丁目901番地,極楽小学校北門西側フェンス,35.15669,137.01594,
愛知県,名古屋市,147,名古屋市名東区高針台一丁目913番地,月極駐車場南西側フェンス,35.15743,137.01413,
愛知県,名古屋市,148,名古屋市名東区新宿一丁目164番地,高針第二公園北側,35.15084,137.01332,
愛知県,名古屋市,149,名古屋市名東区高針二丁目1103番地,高針小学校東側プールフェンス,35.15804,137.01031,
愛知県,名古屋市,150,名古屋市名東区極楽五丁目103番地,松井第二公園南側鉄パイプ柵,35.15372,137.01599,
愛知県,名古屋市,151,名古屋市名東区高針一丁目512番地,東勝寺北側駐車場南側フェンス,35.15709,137.00607,
愛知県,名古屋市,152,名古屋市名東区新宿一丁目23番地,高針第一公園南西角フェンス,35.15388,137.00915,
愛知県,名古屋市,153,名古屋市名東区松井町160番地,松井第一公園東側鉄パイプ柵,35.15359,137.01348,
愛知県,名古屋市,154,名古屋市名東区高針二丁目1201番地,古谷公園北側フェンス,35.15707,137.01009,
愛知県,名古屋市,155,名古屋市名東区高針三丁目701番地,深田池公園北側フェンス,35.15947,137.00855,
愛知県,名古屋市,156,名古屋市名東区猪高町大字高針字梅森坂52番地175付近,県営牧野ヶ池緑地東側入口北側鉄柵,35.1434,137.01444,
愛知県,名古屋市,157,名古屋市名東区牧の里三丁目701番地,牧野池保育園南側フェンス,35.14949,137.00271,
愛知県,名古屋市,158,名古屋市名東区梅森坂三丁目4301番地,梅森坂第二公園北側鉄柵,35.14453,137.01845,
愛知県,名古屋市,159,名古屋市名東区新宿二丁目116番地1付近,県営牧野ヶ池緑地北側遊歩道入口フェンス,35.15098,137.00876,
愛知県,名古屋市,160,名古屋市名東区牧の里二丁目1501番地,前山小学校北側フェンス,35.15249,137.00454,
愛知県,名古屋市,161,名古屋市名東区牧の里二丁目1501番地,前山小学校南門東側フェンス,35.15173,137.00481,
愛知県,名古屋市,162,名古屋市名東区牧の里三丁目401番地,masked,35.15122,137.00529,
愛知県,名古屋市,163,名古屋市名東区梅森坂一丁目2504番地,牧の池中学校東側フェンス,35.14608,137.01803,
愛知県,名古屋市,164,名古屋市名東区高針原二丁目1301番地,高針原公園南側鉄柵,35.14629,136.99579,
愛知県,名古屋市,165,名古屋市名東区高針原一丁目601番地,高針公園北東側鉄柵,35.14843,136.99497,
愛知県,名古屋市,166,名古屋市名東区牧の原一丁目1101番地,牧の原第二公園北東側,35.15133,137.00088,
愛知県,名古屋市,167,名古屋市名東区牧の原二丁目301番地,牧の原第三公園南側鉄柵,35.14968,136.99936,
愛知県,名古屋市,168,名古屋市名東区高針原二丁目1301番地,高針原公園東側鉄柵（奥側鉄柵）,35.14631,136.99693,
愛知県,名古屋市,169,名古屋市名東区牧の原三丁目401番地,牧の原小学校東側南側フェンス,35.1505348,136.998193,
愛知県,名古屋市,170,名古屋市名東区牧の原三丁目401番地,牧の原小学校西門東側フェンス,35.15036,136.99686,
愛知県,名古屋市,171,名古屋市名東区梅森坂四丁目101番地,市営梅森荘22号棟西側フェンス,35.14179,137.02107,
愛知県,名古屋市,172,名古屋市名東区梅森坂四丁目101番地,市営梅森荘4号棟西側フェンス,35.14018,137.0201,
愛知県,名古屋市,173,名古屋市名東区梅森坂五丁目101番地127,梅森坂南公園西側フェンス,35.13788,137.01797,
愛知県,名古屋市,174,名古屋市名東区梅森坂四丁目201番地,梅森坂小学校西門西側フェンス,35.14263,137.02084,
愛知県,名古屋市,175,名古屋市名東区梅森坂五丁目101番地,国立東名古屋病院正門入口北側フェンス,35.14001,137.01528,
愛知県,名古屋市,176,名古屋市名東区梅森坂西一丁目503番地,masked,35.13914,137.01182,
愛知県,名古屋市,177,名古屋市名東区梅森坂西一丁目503番地,masked,35.13877,137.01284,
