prefecture,city,number,address,name,lat,long,note
愛知県,尾張旭市,1,,西山公園（南側）,35.197444,137.013297,
愛知県,尾張旭市,2,,宅地（北側ブロック塀）,35.198402,137.015623,
愛知県,尾張旭市,3,,東山公園（南側）,35.199332,137.016611,
愛知県,尾張旭市,4,,ｽﾎﾟｯﾄｶﾞｰﾃﾞﾝ庄南,35.197122,137.019783,
愛知県,尾張旭市,5,,庄南公園（北側）,35.19587,137.018254,
愛知県,尾張旭市,6,,駐車場（東側）,35.196873,137.01727,
愛知県,尾張旭市,7,,旭名東営業所（北側）,35.196101,137.015731,
愛知県,尾張旭市,8,,駐車場（北側）,35.201019,137.015695,
愛知県,尾張旭市,9,,瑞鳳小学校（西側フェンス）,35.201378,137.018958,
愛知県,尾張旭市,10,,大塚公園（南側）,35.20195,137.021131,
愛知県,尾張旭市,11,,大塚公園（北側）,35.203047,137.020881,
愛知県,尾張旭市,12,,吉岡調整池（北側フェンス）,35.205339,137.026825,
愛知県,尾張旭市,13,,吉岡公園（南側）,35.203387,137.025835,
愛知県,尾張旭市,14,,印場大塚古墳（北側フェンス）,35.20046,137.020247,
愛知県,尾張旭市,15,,下水処理場用地（東側フェンス）,35.207056,137.012556,
愛知県,尾張旭市,16,,旭野高校（北側フェンス）,35.211403,137.020859,
愛知県,尾張旭市,17,,二反田公園（北側）,35.211877,137.024716,
愛知県,尾張旭市,18,,渋川小学校（南側フェンス）,35.20753,137.019617,
愛知県,尾張旭市,19,,渋川福祉センター（北側）,35.205469,137.017916,
愛知県,尾張旭市,20,,庄中集会所（西側フェンス）,35.203583,137.016623,
愛知県,尾張旭市,21,,南島公園（北側）,35.203618,137.013864,
愛知県,尾張旭市,22,,印場駅北公園（西側）,35.21222,137.011183,
愛知県,尾張旭市,23,,白鳳公園（西側）,35.212986,137.012518,
愛知県,尾張旭市,24,,白鳳小学校（東側）,35.212832,137.014881,
愛知県,尾張旭市,25,,白鳳公民館（南側フェンス）,35.211611,137.014578,
愛知県,尾張旭市,26,,印場ふれあい会館(南側）,35.211401,137.018026,
愛知県,尾張旭市,27,,宅地（北側）,35.208878,137.012599,
愛知県,尾張旭市,28,,東名西公園（北側フェンス）,35.207523,137.007998,
愛知県,尾張旭市,29,,とちの木公園（北側）,35.22235,137.014805,
愛知県,尾張旭市,30,,はんの木公園（南側）,35.219248,137.013231,
愛知県,尾張旭市,31,,桜ヶ丘北ちびっ子広場（東側フェンス）,35.217204,137.01575,
愛知県,尾張旭市,32,,卓ヶ洞第1号緑地（西側）,35.216893,137.01423,
愛知県,尾張旭市,33,,桜ヶ丘公園（南側）,35.216167,137.013041,
愛知県,尾張旭市,34,,はんのき保育園（北側）,35.215282,137.014056,
愛知県,尾張旭市,35,,印場第3号緑地（南側）,35.21459,137.010968,
愛知県,尾張旭市,36,,霞ヶ丘ふれあい会館（駐車場南側フェンス）,35.21225,137.005184,
愛知県,尾張旭市,37,,山林東側フェンス（道路側面）,35.213217,137.007204,
愛知県,尾張旭市,38,,都市計画道路霞ヶ丘線沿線南側（南側フェンス）,35.211867,137.00757,
愛知県,尾張旭市,39,,都市計画道路霞ヶ丘線沿線北側（南側）,35.209839,137.003589,
愛知県,尾張旭市,40,,小幡緑地東園児童野球場（東側）,35.21651,137.0056,
愛知県,尾張旭市,41,,都市計画道路霞ヶ丘線沿線南側（南側フェンス）,35.210485,137.006255,
愛知県,尾張旭市,42,,雑種地（西側）,35.21331,137.0051,
愛知県,尾張旭市,43,,旭前集会所（南側）,35.216129,137.020395,
愛知県,尾張旭市,44,,旭前第1ちびっこ広場（東側フェンス）,35.215469,137.021091,
愛知県,尾張旭市,45,,暁幼稚園（南側フェンス）,35.212363,137.018304,
愛知県,尾張旭市,46,,砂川公園（北側）,35.214586,137.02383,
愛知県,尾張旭市,47,,西向公園（南側）,35.214845,137.029205,
愛知県,尾張旭市,48,,家屋（南側ブロック）,35.213143,137.030242,
愛知県,尾張旭市,49,,くすの木（南側フェンス）,35.209834,137.026625,
愛知県,尾張旭市,50,,平子西ちびっ子広場（西側フェンス）,35.221949,137.020535,
愛知県,尾張旭市,51,,県営旭住宅（南側フェンス）,35.223497,137.022056,
愛知県,尾張旭市,52,,城前公園（南側）,35.21644,137.02587,
愛知県,尾張旭市,53,,歩道脇（東側）,35.221893,137.022824,
愛知県,尾張旭市,54,,平子公民館（北側フェンス）,35.221419,137.024516,
愛知県,尾張旭市,55,,大森池（南側堤下段）,35.219876,137.025194,
愛知県,尾張旭市,56,,平子線道路用地,35.219955,137.022737,
愛知県,尾張旭市,57,,城山公園長池北側歩道内,35.222215,137.026049,
愛知県,尾張旭市,58,,長池上公園（南側フェンス）,35.223966,137.027623,
愛知県,尾張旭市,59,,城山小学校（南側フェンス）,35.222599,137.028262,
愛知県,尾張旭市,60,,家屋（フェンス）,35.223476,137.031033,
愛知県,尾張旭市,61,,山ノ田池敷(西側),35.222166,137.030036,
愛知県,尾張旭市,62,,ふれあい農園駐車場（南側フェンス）,35.218131,137.026909,
愛知県,尾張旭市,63,,城山公園長池南駐車場（南側フェンス）,35.220076,137.02708,
愛知県,尾張旭市,64,,新居集会所（南側）,35.219749,137.033071,
愛知県,尾張旭市,65,,平池集会所（北側）,35.219179,137.038332,
愛知県,尾張旭市,66,,市役所職員駐車場（西側）,35.217685,137.03706,
愛知県,尾張旭市,67,,体育館（南側）,35.215745,137.037147,
愛知県,尾張旭市,68,,市役所（西側）,35.216183,137.034818,
愛知県,尾張旭市,69,,中央公民館（西側）,35.213618,137.035001,
愛知県,尾張旭市,70,,道路残地（西側、東向き）,35.212282,137.038029,
愛知県,尾張旭市,71,,シンボルロード歩道（東側）,35.225974,137.034564,
愛知県,尾張旭市,72,,旭平和墓園（入口東側）,35.227968,137.036419,
愛知県,尾張旭市,73,,濁池ちびっ子広場（南側フェンス）,35.226793,137.040013,
愛知県,尾張旭市,74,,今池下ちびっ子広場（北側フェンス）,35.223644,137.038531,
愛知県,尾張旭市,75,,あたご保育園（南側フェンス）,35.223274,137.040091,
愛知県,尾張旭市,76,,バロー城山店駐車場（北側）,35.220817,137.040588,
愛知県,尾張旭市,77,,集会所予定地（西側）,35.221132,137.035876,
愛知県,尾張旭市,78,,瀬戸新居線沿線北原山土地区画整理組合管理地（北側）７街区1,35.220689,137.043708,
愛知県,尾張旭市,79,,家屋（ブロック）,35.222011,137.048332,
愛知県,尾張旭市,80,,北原山土地区画整理3号公園予定地（北東）,35.219058,137.043849,
愛知県,尾張旭市,81,,都市計画道路北原山２号線沿線西側北原山土地区画整理組合管理地（東側）４９街区５,35.218847,137.04716,
愛知県,尾張旭市,82,,北原山北集会所（北側フェンス）,35.21836,137.046584,
愛知県,尾張旭市,83,,北原山土地区画整理組合管理地（北側）,35.216414,137.046017,
愛知県,尾張旭市,84,,家屋（ブロック）,35.215275,137.045253,
愛知県,尾張旭市,85,,雑種地（東側）,35.229824,137.044638,
愛知県,尾張旭市,86,,宅地（西側）,35.229402,137.046786,
愛知県,尾張旭市,87,,柏井北公園（北側）,35.22785,137.051495,
愛知県,尾張旭市,88,,旭ヶ丘集会所（南側）,35.226183,137.047554,
愛知県,尾張旭市,89,,大久手ふれあい会館（北側）,35.224229,137.048575,
愛知県,尾張旭市,90,,旭丘公民館（南側フェンス）,35.223398,137.045002,
愛知県,尾張旭市,91,,雑種地（道路北側、南向き）,35.228012,137.044889,
愛知県,尾張旭市,92,,柏井老人いこいの家（南側フェンス）,35.228125,137.052249,
愛知県,尾張旭市,93,,旭台第2号公園（西側）,35.2274743,137.0557077,
愛知県,尾張旭市,94,,旭台第3号公園（北側）,35.228579,137.060216,
愛知県,尾張旭市,95,,旭台通り歩道（東側）,35.22572,137.057374,
愛知県,尾張旭市,96,,旭台第1号公園（西側）,35.2231651,137.0568338,
愛知県,尾張旭市,97,,旭台老人いこいの家（南側ブロック）,35.22393,137.054281,
愛知県,尾張旭市,98,,柏井保育園（南側）,35.226372,137.051953,
愛知県,尾張旭市,99,,大久手西公園（北側）,35.223882,137.050322,
愛知県,尾張旭市,100,,大久手東公園（西側フェンス）,35.221971,137.052418,
愛知県,尾張旭市,101,,調整池（北側フェンス）,35.22075,137.053966,
愛知県,尾張旭市,102,,旭根の鼻公園（北側）,35.220145,137.057353,
愛知県,尾張旭市,103,,東栄公園（西側）,35.219647,137.051867,
愛知県,尾張旭市,104,,消防団第1分団車庫（東側フェンス）,35.218886,137.05121,
愛知県,尾張旭市,105,,出屋敷公園（西側フェンス）,35.217495,137.04968,
愛知県,尾張旭市,106,,消防署敷地（東側ブロック）,35.213906,137.040161,
愛知県,尾張旭市,107,,家屋（北側ブロック）,35.214447,137.042335,
愛知県,尾張旭市,108,,赤土ちびっ子広場（南側）,35.214099,137.049858,
愛知県,尾張旭市,109,,西山保育園送迎用駐車場（東側）,35.211931,137.048074,
愛知県,尾張旭市,110,,西山保育園（西側）,35.210736,137.047906,
愛知県,尾張旭市,111,,東中学校（西側フェンス）,35.210293,137.044679,
愛知県,尾張旭市,112,,南原山集会所（西側フェンス）,35.212081,137.045388,
愛知県,尾張旭市,113,,中井田ちびっ子広場（南側フェンス）,35.214479,137.054314,
愛知県,尾張旭市,114,,三郷児童遊園（西側フェンス）,35.213273,137.055915,
愛知県,尾張旭市,115,,狩宿新町集会所（西側フェンス）,35.212996,137.05963,
愛知県,尾張旭市,116,,三郷狩宿1号線歩道（ガードパイプ）,35.213176,137.063468,
愛知県,尾張旭市,117,,三郷小学校（北側フェンス）,35.211991,137.057711,
愛知県,尾張旭市,118,,八幡神社（西側）,35.210907,137.053689,
愛知県,尾張旭市,119,,井田老人いこいの家（西側）,35.209976,137.051362,
愛知県,尾張旭市,120,,井田緑地（北側、南向き）,35.207411,137.053431,
愛知県,尾張旭市,121,,八反田公園（東北側）,35.208672,137.05152,
愛知県,尾張旭市,122,,三郷公民館（北側フェンス）,35.208927,137.054231,
愛知県,尾張旭市,123,,土井下公園（東側）,35.209902,137.056524,
愛知県,尾張旭市,124,,下川原公園（北側）,35.210345,137.058227,
愛知県,尾張旭市,125,,狩宿新町第２号公園（南側）,35.20975,137.059721,
愛知県,尾張旭市,126,,昭和苑（南側フェンス）,35.203782,137.047383,
愛知県,尾張旭市,127,,西大道西の野４号線（ガードレール）,35.207981,137.030854,
愛知県,尾張旭市,128,,家屋（北側ブロック）,35.20949,137.040432,
愛知県,尾張旭市,129,,中央通老人いこいの家（西側フェンス）,35.20642,137.038105,
愛知県,尾張旭市,130,,稲葉集会所（北側）,35.20453,137.037611,
愛知県,尾張旭市,131,,稲葉本地ヶ原1号線歩道（ガードパイプ）,35.205132,137.033777,
愛知県,尾張旭市,132,,排水処理施設（フェンス）,35.203315,137.032163,
愛知県,尾張旭市,133,,南山第3ちびっ子広場（北側フェンス）,35.202353,137.030364,
愛知県,尾張旭市,134,,緑ヶ丘第2ちびっ子広場（東側フェンス）,35.200971,137.025874,
愛知県,尾張旭市,135,,緑ヶ丘第6ちびっ子広場（北側）,35.20129,137.029377,
愛知県,尾張旭市,136,,本地原公民館（東側フェンス）,35.199034,137.029327,
愛知県,尾張旭市,137,,本地ヶ原児童館（北側フェンス）,35.199708,137.032102,
愛知県,尾張旭市,138,,本地原小学校（南側フェンス）,35.197728,137.030772,
愛知県,尾張旭市,139,,緑ヶ丘集会所（南側）,35.196384,137.02635,
愛知県,尾張旭市,140,,名鉄協商パーキング尾張旭緑町（北側フェンス）,35.197715,137.025493,
愛知県,尾張旭市,141,,黒石公園（西側）,35.193337,137.027228,
愛知県,尾張旭市,142,,新池交流館（北側フェンス）,35.196622,137.038058,
愛知県,尾張旭市,143,,本地ヶ原公園（東側）,35.200119,137.038506,
愛知県,尾張旭市,144,,市民プール（東側フェンス）,35.203047,137.039865,
愛知県,尾張旭市,145,,晴丘運動広場（東側）,35.199241,137.044939,
愛知県,尾張旭市,146,,本地ヶ原東公園（西側フェンス）,35.199346,137.047643,
愛知県,尾張旭市,147,,バロー尾張旭店駐車場（西側）,35.193271,137.040486,
愛知県,尾張旭市,148,,晴丘東調整池前ガードパイプ（北側）,35.197219,137.0475,