prefecture,city,number,address,name,lat,long,note
愛知県,岡崎市,1,十王町２丁目９番地,市役所西庁舎南西角,34.9546083,137.1729666,
愛知県,岡崎市,2,曙町１丁目２番地東側,太陽緑道西側,34.9574941,137.1750171,
愛知県,岡崎市,3,花崗町８１番地２,伝馬交番西、こども広場フェンス,34.9587921,137.1709166,
愛知県,岡崎市,4,祐金町１丁目３１番地,善立寺北フェンス,34.9565011,137.1702974,
愛知県,岡崎市,5,伝馬通５丁目２０番地西側,旧ほかほか亭　西　太陽緑道,34.9563392,137.1749455,
愛知県,岡崎市,6,伝馬通１丁目５８番地,社会福祉協議会駐車場,34.9579284,137.1679346,
愛知県,岡崎市,7,菅生町元菅１７番地２西側,トーエネック岡崎支店西側,34.9544885,137.16876,
愛知県,岡崎市,8,若宮町２丁目１番地１,げんき館駐車場東側,34.9532557,137.1809192,
愛知県,岡崎市,9,中町４丁目４番地３北側,根石消防団車庫南側フェンス,34.9542457,137.1825316,
愛知県,岡崎市,10,若宮町２丁目５３番地西側,若宮公園東側,34.952588,137.1800275,
愛知県,岡崎市,11,栄町４丁目５０番地南側,栄町公園北側フェンス,34.9466316,137.1824794,
愛知県,岡崎市,12,両町２丁目５６番地西側,両町公園南側フェンス,34.9545204,137.1758079,
愛知県,岡崎市,13,朝日町３丁目３６番地５,せきれいホール西側,34.9538618,137.1766859,
愛知県,岡崎市,14,若宮町３丁目３番地１,「倉橋歯科医院」前　三角花壇,34.9516571,137.1816435,
愛知県,岡崎市,15,欠町字石ヶ崎１番地２,根石小学校南側フェンス,34.9541805,137.1890995,
愛知県,岡崎市,16,欠町字足延３７番地１東側,東公園西側,34.9532303,137.1896592,
愛知県,岡崎市,17,中町２丁目２番地西側,市有中町共同墓地東側,34.956796,137.1840523,
愛知県,岡崎市,18,小呂町６丁目５２番地西側,東名高速北側,34.9651327,137.1881844,
愛知県,岡崎市,19,欠町字清水田２８－２南側,東公園足延池北側,34.9551099,137.1908394,
愛知県,岡崎市,20,欠町字三田田北通６,岡崎こども発達センター北側,34.9573829,137.1905335,
愛知県,岡崎市,21,欠町字地蔵前３番地北側,東公園南側駐車場,34.9519869,137.1905174,
愛知県,岡崎市,22,欠町字広見西通１１番地１,加藤電装北側フェンス,34.9498884,137.1918838,
愛知県,岡崎市,23,中町字東丸根１８７番地２,字東丸根187番地２,34.959484,137.1846386,
愛知県,岡崎市,24,中町字東丸根３１番地北側,中町児童遊園東側フェンス,34.9589368,137.1831377,
愛知県,岡崎市,25,中町８丁目５番地５,大泉寺南,34.9567497,137.1825015,
愛知県,岡崎市,26,中町６丁目１番地１東側,中町６丁目信号付近,34.954846,137.1785553,
愛知県,岡崎市,27,中町９丁目９番地３,「甲山中学校東」バス停付近,34.9579915,137.1816135,
愛知県,岡崎市,28,中町字東丸根１５５番地東側,市有中町共同墓地西側,34.9579931,137.1842167,
愛知県,岡崎市,29,中町字東丸根１５５番地東側,市有中町共同墓地北西側,34.9579931,137.1842167,
愛知県,岡崎市,30,梅園町字山添１１２番地東側,masked,34.9598801,137.1710125,
愛知県,岡崎市,31,伊賀町字３丁目７３番地１南側,三ツ葉台公園北側フェンス,34.968172,137.1721487,
愛知県,岡崎市,32,稲熊町字６丁目１５９番地６北東側,梅園公園西側フェンス,34.9614753,137.1773574,
愛知県,岡崎市,33,稲熊町字３丁目１２５番地南側,岡崎学園東側市道ガードレール,34.9669927,137.1757367,
愛知県,岡崎市,34,稲熊町字４丁目１２番地４東側,梅園学区市民ホーム花壇東側フェンス,34.96539,137.1748916,
愛知県,岡崎市,35,六供町２丁目３番地４東側,愛宕公園西側フェンス,34.966466,137.1710705,
愛知県,岡崎市,36,稲熊町字５丁目１９番地北側,法専寺北側,34.965886,137.1773799,
愛知県,岡崎市,37,稲熊町字寺下７２番地,フードショップオダ北５０ｍ,34.968831,137.1776166,
愛知県,岡崎市,38,稲熊町７丁目１７番地,総合資源ステーション（りすた稲熊）北側,34.9648169,137.181291,
愛知県,岡崎市,39,稲熊町字大岩２５番地,岡崎学園大岩グランド南東,34.9688899,137.1904546,
愛知県,岡崎市,40,箱柳町字下７０番地２南側,「下箱柳」バス停東,34.9695678,137.2048762,
愛知県,岡崎市,41,真伝吉祥二丁目３８－４北側,猫沢池東ガードレール,34.9722885,137.1957841,
愛知県,岡崎市,42,真伝吉祥一丁目４番地,調整池北側フェンス,34.97459790000001,137.1880155,
愛知県,岡崎市,43,箱柳町字上７番地,「箱柳」バス停,34.9684147,137.2124108,
愛知県,岡崎市,44,稲熊町字宮下２６番地１,校務員作業班事務所南側フェンス,34.9695387,137.1851778,
愛知県,岡崎市,45,籠田町１１北側,籠田公園東側,34.9585942,137.1676683,
愛知県,岡崎市,46,六供町字出崎１５番地１,岡崎市民会館立体駐車場南西側フェンス,34.9624041,137.16767,
愛知県,岡崎市,47,籠田町１番地北側,籠田公園西側,34.9589093,137.1669078,
愛知県,岡崎市,48,梅園町字寺裏５番地１西側,市道沿いフェンス,34.96048469999999,137.1703149,
愛知県,岡崎市,49,六供町４丁目５７番地１,４丁目５７番地１（道路建設課）,34.9619909,137.1711871,
愛知県,岡崎市,50,西魚町２４－３北側,柿田橋西側ガードパイプ,34.96190470000001,137.1578419,
愛知県,岡崎市,51,康生通南２丁目５７東側,中部電力㈱康生変電所南側フェンス,34.9560183,137.1655416,
愛知県,岡崎市,52,康生通南３丁目３５東側,康生医院東側緑道,34.957215,137.1663452,
愛知県,岡崎市,53,康生通西４丁目２９－３西側,りぶら東駐車場フェンス,34.9585301,137.1596152,
愛知県,岡崎市,54,康生町５６４－１東側,竹千代橋北側伊賀川ガードパイプ,34.9555744,137.1574778,
愛知県,岡崎市,55,材木町２丁目３２東側,御旗公園西側フェンス,34.9622311,137.1611302,
愛知県,岡崎市,56,康生町６３０番地１南,菅生神社南側石塀,34.9561967,137.1627825,
愛知県,岡崎市,57,八帖南町２丁目１０－７北側,諏訪公園東側,34.954052,137.1499571,
愛知県,岡崎市,58,八帖町字往還通１１０南側,八帖魚光東隣,34.95631530000001,137.1523763,
愛知県,岡崎市,59,中岡崎町７－１２南側,中岡崎駅東ロータリー植込み東側,34.9561262,137.1532587,
愛知県,岡崎市,60,八帖北町４番地９,城北保育園西側,34.9612568,137.1561392,
愛知県,岡崎市,61,八帖南町２丁目４,早川ポンプ場西側フェンス,34.9524267,137.1506066,
愛知県,岡崎市,62,八帖北町２１－１,八帖保育園北側,34.9615936,137.1535375,
愛知県,岡崎市,63,八帖北町３２－１３西側,八帖公園,34.963555,137.1527645,
愛知県,岡崎市,64,福寿町１３６－１西,広幡消防団倉庫　北市道,34.9636409,137.1589027,
愛知県,岡崎市,65,能見通１丁目５０西,御旗公園東側フェンス,34.9617926,137.1623488,
愛知県,岡崎市,66,能見町２５４南,三十三銀行駐車場東側フェンス,34.9639991,137.1625676,
愛知県,岡崎市,67,元能見町１７９－４西側,瀧見橋北側ガードパイプ,34.9647237,137.1592815,
愛知県,岡崎市,68,能見通１丁目５２南側,岡信本町支店職員駐車場東側フェンス,34.9620796,137.163741,
愛知県,岡崎市,69,元能見町１６０西側,丸徳不動産駐車場北側フェンス,34.9653537,137.1609896,
愛知県,岡崎市,70,元能見町１５０西側,中橋北側市道ガードパイプ,34.9659874,137.160441,
愛知県,岡崎市,71,伊賀町字６丁目４４西側,伊賀小橋西側ガードパイプ,34.9704825,137.166983,
愛知県,岡崎市,72,伊賀町字６丁目３１－２北側,梅平橋西側ガードパイプ,34.9705798,137.1685023,
愛知県,岡崎市,73,伊賀町字４丁目７４向側,伊賀山住宅児童遊園フェンス,34.967911,137.1690998,
愛知県,岡崎市,74,伊賀町字愛宕山１西側,愛宕小学校東側フェンス,34.9685184,137.167089,
愛知県,岡崎市,75,伊賀町字愛宕山２西側,愛宕小学校西側フェンス,34.9668535,137.1669833,
愛知県,岡崎市,76,六供町字西二本木２８西側,六供浄水場西側フェンス,34.96559,137.1676183,
愛知県,岡崎市,77,六供町字八貫１５北側,愛教大附属岡崎小学校北側フェンス,34.9644916,137.1708605,
愛知県,岡崎市,78,伊賀町字西郷中１０４南側,市立看護専門学校南側フェンス,34.9730301,137.1653495,
愛知県,岡崎市,79,伊賀町字東郷中８６南側,伊賀八幡宮南側石塀,34.9714101,137.164467,
愛知県,岡崎市,80,広幡町１１－４北側,広幡こども園北側フェンス,34.9702651,137.1623144,
愛知県,岡崎市,81,広幡町１１１東側,広幡小学校東側フェンス,34.9702871,137.1599744,
愛知県,岡崎市,82,広幡町１０－１３北側,広幡公園東側フェンス,34.9706566,137.1630601,
愛知県,岡崎市,83,城北町４北側,連尺小学校北側フェンス,34.9647138,137.1575368,
愛知県,岡崎市,84,城北町４西側,連尺小学校西側フェンス,34.9647138,137.1575368,
愛知県,岡崎市,85,日名中町１２－１南側,日名中公園北側フェンス,34.9730593,137.1546159,
愛知県,岡崎市,86,日名西町９－６南空地西側,神明公園東側フェンス,34.9712353,137.1501683,
愛知県,岡崎市,87,日名北町４－１４西側,岡崎環状線歩道アピタ側ガードパイプ,34.9749079,137.1502516,
愛知県,岡崎市,88,日名中町３－１３北側,酒部建設㈱南側,34.9713127,137.1553376,
愛知県,岡崎市,89,日名南町１５－１０,日名公園東側フェンス,34.9675886,137.1529776,
愛知県,岡崎市,90,日名南町１２－１東側,日名公園西側フェンス,34.9691964,137.152017,
愛知県,岡崎市,91,日名中町２－１５,酒部建設㈱東側,34.9712016,137.155972,
愛知県,岡崎市,92,日名中町１８－１８東側,日名中公園西側フェンス,34.9728646,137.1539356,
愛知県,岡崎市,93,井田西町４－４西側,「寿司文」北側畑東側,34.9772379,137.160098,
愛知県,岡崎市,94,井田町５５２－１,masked,34.9307655,137.1972872,
愛知県,岡崎市,95,井田町字宮ノ腰１６－６南側,井田八幡宮北側フェンス,34.9755082,137.1660874,
愛知県,岡崎市,96,井田町字中屋敷６２西側,井田八幡宮参道西側,34.9743526,137.1661336,
愛知県,岡崎市,97,鴨田南町６－１７付近,井田公園北側フェンス,34.9785431,137.1637298,
愛知県,岡崎市,98,井田新町３－１８東側,井田公園西側フェンス,34.9780284,137.1632026,
愛知県,岡崎市,99,井田西町１３－８北側,井田西公園南側フェンス,34.9764595,137.1584929,
愛知県,岡崎市,100,井田町字一丁目１０９－７,井田保育園東側,34.9758377,137.1742598,
愛知県,岡崎市,101,伊賀新町２３－２,masked,34.9732868,137.1752571,
愛知県,岡崎市,102,石神町１０－１付近,伊賀公園西側フェンス,34.9721802,137.1724841,
愛知県,岡崎市,103,石神町１４－１６,masked,34.9722414,137.1740656,
愛知県,岡崎市,104,伊賀新町３２－１０,masked,34.9757569,137.176266,
愛知県,岡崎市,105,井田町字一丁目１３７,川本反毛南側（赤山公園北法面）,34.9762469,137.1733498,
愛知県,岡崎市,106,伊賀新町１４－８,masked,34.9740305,137.1729647,
愛知県,岡崎市,107,井田町字４丁目１８７,㈱シーテック西側フェンス,34.9808331,137.175879,
愛知県,岡崎市,108,真伝吉祥一丁目２４番地,吉祥南公園東側,34.97459790000001,137.1880155,
愛知県,岡崎市,109,真伝町字四反田１３－４,masked,34.9756047,137.1827512,
愛知県,岡崎市,110,真伝一丁目１２番地,四反田公園北側,34.9791278,137.1822232,
愛知県,岡崎市,111,井田町字茨坪３４－３２８,masked,34.9779564,137.1782065,
愛知県,岡崎市,112,真伝吉祥一丁目９番地,吉祥中央公園東入口,34.97459790000001,137.1880155,
愛知県,岡崎市,113,真伝町字亀山４－２,masked,34.9819958,137.185424,
愛知県,岡崎市,114,真伝町字続木屋敷１３－５,masked,34.9821674,137.1791158,
愛知県,岡崎市,115,東明大寺町字出口６１番地１東,東明大寺町子供広場北側,34.950139,137.1741781,
愛知県,岡崎市,116,東明大寺町５番地１,竜美丘会館西側（吹矢中継ポンプ場フェンス）,34.94717310000001,137.1766076,
愛知県,岡崎市,117,明大寺町字宮ノ圦５番地北側,六所の森公園フェンス,34.9470585,137.1693047,
愛知県,岡崎市,118,明大寺町字池上１番地,三島小学校校門北側フェンス,34.946413,137.1725741,
愛知県,岡崎市,119,東明大寺町１５番地７,無印良品東側（中平地公園西側フェンス）,34.9454501,137.176029,
愛知県,岡崎市,120,明大寺町字池上１番地,三島小学校校門西側フェンス,34.946413,137.1725741,
愛知県,岡崎市,121,明大寺町字耳取４２番地２付近,六所神社境内池西側,34.9501971,137.1675928,
愛知県,岡崎市,122,上明大寺町１丁目７番地,六所神社玉垣,34.9519764,137.1682785,
愛知県,岡崎市,123,明大寺本町１丁目４番地,愛知県西三河総合庁舎北西角,34.9543474,137.1647358,
愛知県,岡崎市,124,明大寺町字寺東７番地付近,名鉄東岡崎駅南口広場植込み,34.9521228,137.1659163,
愛知県,岡崎市,125,明大寺本町１丁目２番地,明代公園南側フェンス,34.9542167,137.1630272,
愛知県,岡崎市,126,明大寺本町１丁目４番地東側,愛知県西三河総合庁舎駐車場棟東,34.9543474,137.1647358,
愛知県,岡崎市,127,明大寺本町１丁目４６番地,旧岡崎市教育研究所東側フェンス,34.9539286,137.1634933,
愛知県,岡崎市,128,明大寺町字諸神３番地,神明宮南側,34.9502373,137.1625122,
愛知県,岡崎市,129,上六名２丁目１番地１４,masked,34.9489362,137.1580237,
愛知県,岡崎市,130,上六名１丁目１３番地２１北側,明神橋公園南側フェンス,34.950092,137.1523353,
愛知県,岡崎市,131,六名３丁目２番地１,六名小学校南側校門東フェンス,34.9462867,137.1579706,
愛知県,岡崎市,132,上六名２丁目５番地５南側,北郷東公園北側植込み,34.9484831,137.1562202,
愛知県,岡崎市,133,明大寺町字義路１番地４,母子生活支援施設いちょうの家駐車場東側フェンス,34.9488128,137.1607217,
愛知県,岡崎市,134,上六名３丁目４番地５西側,座王公園東側植込み,34.9464738,137.1582509,
愛知県,岡崎市,135,南明大寺町３番地２３西側,沖折戸公園東側フェンス,34.9428895,137.1622055,
愛知県,岡崎市,136,南明大寺町２番地１２,三共電気工業所西側,34.9437562,137.1622122,
愛知県,岡崎市,137,六名本町７番地西側,六名公園北側植込み,34.9422812,137.1562543,
愛知県,岡崎市,138,六名南１丁目２番地１東側,六名学区市民ホーム東側植込,34.94113919999999,137.1509365,
愛知県,岡崎市,139,六名東町２－１１南側,六名東緑道,34.939473,137.1577085,
愛知県,岡崎市,140,六名南２丁目７－７西側,池田公園南側フェンス,34.9388358,137.1520579,
愛知県,岡崎市,141,向山町５－１６東側,向山公園南側フェンス,34.9372116,137.1587298,
愛知県,岡崎市,142,六名本町７番地西側,六名公園南側植込み,34.9422812,137.1562543,
愛知県,岡崎市,143,真宮町８－２４番地西側,岡崎市埋蔵文化財整理事務所西側,34.9449404,137.1520023,
愛知県,岡崎市,144,竜美北２丁目４番地西側,岡崎市医師会駐車場西側フェンス,34.9423007,137.1694594,
愛知県,岡崎市,145,明大寺町栗林４８－１,竜海中学校南側校門東側フェンス,34.945359,137.1651323,
愛知県,岡崎市,146,明大寺町奈良井８番地北側,岡崎市美術館駐車場南側,34.9411929,137.1646724,
愛知県,岡崎市,147,明大寺町池下８３－１西側,南明大寺こども広場南側,34.9455249,137.1628088,
愛知県,岡崎市,148,竜美北１丁目５－７西側,岡崎市教育相談センター駐車場,34.9439711,137.1693943,
愛知県,岡崎市,149,竜美西１丁目５－１北側,道城ケ入公園南側フェンス,34.9415962,137.1678158,
愛知県,岡崎市,150,竜美北２丁目２－１４,駐車場西側,34.9421629,137.171299,
愛知県,岡崎市,151,竜美大入町２丁目１－２０南側,大入公園北側フェンス,34.934847,137.1714283,
愛知県,岡崎市,152,竜美南１丁目２番地西側,奈良井公園北西角植込み,34.938583,137.167322,
愛知県,岡崎市,153,竜美台１丁目１番地,竜美丘小学校西南角植込み,34.938912,137.1742844,
愛知県,岡崎市,154,竜美南２丁目４－１,自然科学研究機構竜美ヶ丘住宅３号棟東側フェンス,34.9374379,137.1703513,
愛知県,岡崎市,155,竜美台１丁目１番地,竜美丘小学校東側正門南植込み,34.938912,137.1742844,
愛知県,岡崎市,156,竜美南１丁目８－１２北側,奈良井公園東側植込み,34.93755,137.1687928,
愛知県,岡崎市,157,竜美中１丁目１－４東側,竜美ケ丘公園西側植込み,34.941926,137.1731405,
愛知県,岡崎市,158,戸崎元町４－１北側,リビングスタイルハウズ北側フェンス,34.9338107,137.1604584,
愛知県,岡崎市,159,戸崎町郷畔２０番地,丸ヨ建設工業㈱南側フェンス,34.9367004,137.1616312,
愛知県,岡崎市,160,戸崎新町２番１,スーパー銭湯　葵湯西側フェンス,34.9384179,137.1611182,
愛知県,岡崎市,161,戸崎町一丁田４０,一丁田４０南側,34.9331731,137.16415,
愛知県,岡崎市,162,戸崎町野畔８－１,南中学校西側フェンス,34.9356529,137.1637454,
愛知県,岡崎市,163,戸崎町原山２３,神明宮前公園北側フェンス,34.9362118,137.1653738,
愛知県,岡崎市,164,戸崎町野畔８－１,南中学校南側フェンス,34.9356529,137.1637454,
愛知県,岡崎市,165,羽根町池下２７北側,羽根つばさ公園南側フェンス,34.9276641,137.162577,
愛知県,岡崎市,166,羽根町若宮30－１北側,羽根東わかみや公園南側フェンス,34.9265272,137.1607303,
愛知県,岡崎市,167,羽根町前田３４－６南側,ウェルシア岡崎駅東口店南側,34.9284494,137.1585908,
愛知県,岡崎市,168,柱町字上荒子１８番地,あおぞら公園南側,34.9249865,137.1606822,
愛知県,岡崎市,169,羽根北町５丁目６－１西側,あすなろ公園東側,34.9272677,137.1660309,
愛知県,岡崎市,170,羽根東町２丁目３－１２南側,暁公園北側,34.9256452,137.1644501,
愛知県,岡崎市,171,羽根北町２丁目８-１,羽根公園東側,34.9306717,137.1633925,
愛知県,岡崎市,172,羽根町北ノ郷８６北側,北ノ郷公園南側フェンス,34.9298683,137.1575051,
愛知県,岡崎市,173,戸崎町牛転１４－１７２南側,戸崎公園北側フェンス,34.9329588,137.1701401,
愛知県,岡崎市,174,美合町五本松６８－１南側,岡崎市総合検査センター南側フェンス,34.9308062,137.1842567,
愛知県,岡崎市,175,戸崎町藤狭８－７東側,藤狭８－７東側,34.9548536,137.1730774,
愛知県,岡崎市,176,戸崎町原山４－５南側,岡崎郵便局南側フェンス,34.9354678,137.1669009,
愛知県,岡崎市,177,戸崎町牛転１４－１８１西側,だんだんこども広場東側フェンス,34.9319038,137.1734025,
愛知県,岡崎市,178,美合町五本松６８北側,岡崎市社会福祉センター駐車場北側フェンス,34.9311135,137.1845301,
愛知県,岡崎市,179,戸崎町藤狭２０－２９北側,五番池西側,34.9548536,137.1730774,
愛知県,岡崎市,180,戸崎町牛転１４－８９北側,戸崎公園南側フェンス,34.9316927,137.1717572,
愛知県,岡崎市,181,羽根町大池２６北側,羽根大池南側,34.9235782,137.1688506,
愛知県,岡崎市,182,羽根町小豆坂８６－１北側,小豆坂一区町民館北側,34.9245159,137.1763255,
愛知県,岡崎市,183,羽根町小豆坂３南側,ウイングタウン駐車場南側フェンス,34.923411,137.1747914,
愛知県,岡崎市,184,羽根町小豆坂１１７－３西側,中小企業・勤労者支援センター西門横,34.9238591,137.1785224,
愛知県,岡崎市,185,羽根町大池１８東側,羽根大池西側,34.9247397,137.1683512,
愛知県,岡崎市,186,羽根町鰻池１４８北側,中小企業・勤労者支援センター第３駐車場南側,34.923088,137.1770162,
愛知県,岡崎市,187,羽根町鰻池１６-２北側,東山こども広場南側,34.9211887,137.1731739,
愛知県,岡崎市,188,柱曙３丁目５,羽根田公園東側,34.9208927,137.1663738,
愛知県,岡崎市,189,針崎町字春咲１－106,春咲れんが公園西側フェンス,34.9202989,137.1616499,
愛知県,岡崎市,190,柱町字東荒子174,柱公園西側フェンス,34.9229038,137.1599744,
愛知県,岡崎市,191,若松町字向山９番地１,「南若松」バス停横アパート東側フェンス,34.9118974,137.159286,
愛知県,岡崎市,192,若松町字丸山田２５番地,砂川南側市道歩道,34.9137051,137.1607738,
愛知県,岡崎市,193,柱町福部池1-185,春咲の丘公園北側フェンス,34.9204368,137.1634216,
愛知県,岡崎市,194,柱曙３丁目１番地５,ツクイ駐車場東側フェンス,34.9208927,137.1663738,
愛知県,岡崎市,195,若松町字寺前４－１,砂川西側ガードレール,34.91255710000001,137.1566165,
愛知県,岡崎市,196,若松町西荒子５１－３,北門公園東側フェンス,34.9172455,137.1565931,
愛知県,岡崎市,197,針崎町字フロ１,岡崎小学校職員駐車場西側フェンス,34.9168351,137.152507,
愛知県,岡崎市,198,若松町西荒子５１－３,北門公園西側フェンス,34.9172455,137.1565931,
愛知県,岡崎市,199,針崎町字大坪１０－７,岡崎児童育成センター東側フェンス,34.9174391,137.1526928,
愛知県,岡崎市,200,柱４丁目８,竹ノ花公園東側フェンス,34.9225287,137.1506874,
愛知県,岡崎市,201,羽根西新町５番地３,南部市民センター分館駐車場北側フェンス,34.9264832,137.1548866,
愛知県,岡崎市,202,柱３丁目８番地９,馬綴公園西側フェンス,34.9249974,137.1531578,
愛知県,岡崎市,203,中田町６－１北側,祈祷野公園東側,34.9320706,137.1581082,
愛知県,岡崎市,204,羽根西２丁目１－８東側,羽根西公園西側,34.928843,137.154411,
愛知県,岡崎市,205,上和田町サジ１０南側,ピアゴ上和田店南側フェンス,34.9339007,137.1479305,
愛知県,岡崎市,206,城南町１丁目１１南側,城南小学校南側,34.934085,137.1539956,
愛知県,岡崎市,207,羽根西２丁目３－１西側,羽根西公園東側,34.928443,137.1553914,
愛知県,岡崎市,208,城南町１丁目５－１南側,城南学区こどもの家南側フェンス,34.9318239,137.1551693,
愛知県,岡崎市,209,城南町１丁目７－１９東側,城南公園西側,34.9324597,137.1556611,
愛知県,岡崎市,210,江口1丁目６－２７,江口公園南側フェンス,34.93621359999999,137.1555242,
愛知県,岡崎市,211,上和田町字荒野１８,県営上和田住宅集会所北側フェンス,34.9352994,137.1507496,
愛知県,岡崎市,212,江口１丁目３－４南側,江口公園北側フェンス,34.9371433,137.1560324,
愛知県,岡崎市,213,城南町３丁目１－２東側,中村公園西側,34.9367893,137.1516149,
愛知県,岡崎市,214,天白町池田５北側,朝日工業北側フェンス,34.9387951,137.1497726,
愛知県,岡崎市,215,城南町３丁目７－２東側,県営上和田住宅西側フェンス,34.9361888,137.1498297,
愛知県,岡崎市,216,江口３丁目４－２３東側,岡崎水道会館東側フェンス,34.9356417,137.1582404,
愛知県,岡崎市,217,福岡町新町５８番地,岡崎信用金庫福岡支店駐車場東側フェンス,34.9052335,137.1511386,
愛知県,岡崎市,218,福岡町字西市仲４１,福岡学区市民ホーム東側フェンス,34.9041065,137.1539377,
愛知県,岡崎市,219,福岡町北御坊山１０番地,市営住宅福岡荘入口東側,34.91002340000001,137.1563733,
愛知県,岡崎市,220,福岡町字辻２番地３,清水公園南側フェンス,34.9070223,137.1578415,
愛知県,岡崎市,221,福岡町久後１－９,清水町集会所南側フェンス,34.9073278,137.1570698,
愛知県,岡崎市,222,福岡町字若一王子５５番地,玉川児童遊園北側フェンス,34.9067286,137.1480921,
愛知県,岡崎市,223,福岡町字南御坊山３０－２,土呂八幡宮東鳥居左側,34.9064719,137.1549773,
愛知県,岡崎市,224,福岡町毘沙門４８番地,芝岡製作所入口東側フェンス,34.9004043,137.1433078,
愛知県,岡崎市,225,福岡町井杭３,福岡中学校南側フェンス,34.897303,137.1571274,
愛知県,岡崎市,226,福岡町字堂ノ後29－３,上地新川北側市道ガードレール,34.8967292,137.1542232,
愛知県,岡崎市,227,福岡町下高須３８,福岡南保育園北側フェンス,34.901657,137.1487545,
愛知県,岡崎市,228,国正町字新田４－３,高須公園北側フェンス,34.8987356,137.1441885,
愛知県,岡崎市,229,福岡町字上高須２３番地１,インテリアさとう前　ヤマナ運輸㈱駐車場西側フェンス,34.9050696,137.1468735,
愛知県,岡崎市,230,福岡町字中西野８０番地,masked,34.8938349,137.151216,
愛知県,岡崎市,231,福岡町字井杭３,福岡中学校北側フェンス,34.897303,137.1571274,
愛知県,岡崎市,232,上地町字西田８番地７９,上地児童遊園西側フェンス,34.90270160000001,137.1585164,
愛知県,岡崎市,233,上地６丁目１３番地,大久後公園西側,34.9041805,137.1636311,
愛知県,岡崎市,234,上地１丁目１８番地,じぞう公園北側,34.9081649,137.1624122,
愛知県,岡崎市,235,上地６丁目２６番地１,寂静寺北側フェンス,34.9041805,137.1636311,
愛知県,岡崎市,236,福岡町字南藤六９番地,願成寺東側,34.9077263,137.1604315,
愛知県,岡崎市,237,上地１丁目１８番地,じぞう公園西側,34.9081649,137.1624122,
愛知県,岡崎市,238,庄司田３丁目２－１８西側,庄司田公園東側フェンス,34.92031070000001,137.171502,
愛知県,岡崎市,239,庄司田３丁目５－１４南側,市営住宅若松荘北側,34.9189483,137.1730329,
愛知県,岡崎市,240,若松東２丁目１１－１１東側,若松公園西側,34.9162497,137.169562,
愛知県,岡崎市,241,若松東２丁目１－１西側,若松保育園西側,34.9182144,137.1683814,
愛知県,岡崎市,242,庄司田１丁目１４－１７北側,明治池南側,34.920462,137.168053,
愛知県,岡崎市,243,若松東１丁目２－１６西側,南公園東側,34.9174566,137.1667505,
愛知県,岡崎市,244,若松東３丁目８－５北側,市営住宅若松荘南側フェンス,34.9178014,137.1738679,
愛知県,岡崎市,245,上地２丁目４０－３２,前田公園南側,34.9092685,137.1667392,
愛知県,岡崎市,246,上地２丁目２７－１０東側,上地調整池東側フェンス,34.9122554,137.1648178,
愛知県,岡崎市,247,上地５丁目１９,善十林公園西側フェンス,34.9074307,137.1685071,
愛知県,岡崎市,248,上地３丁目２３－１５,大谷公園北側フェンス,34.9131799,137.172351,
愛知県,岡崎市,249,上地４丁目２１－３東側,ながね公園西側フェンス,34.9092746,137.1722145,
愛知県,岡崎市,250,上地３丁目５－９,矢崎公園東側,34.9158782,137.1740467,
愛知県,岡崎市,251,上地２丁目２７－１０北側,上地調整池南側フェンス,34.9122554,137.1648178,
愛知県,岡崎市,252,大平町字中天７－２,masked,34.9403861,137.1900046,
愛知県,岡崎市,253,丸山町字上ノ野５６,丸山町公民館南側,34.9365954,137.2026188,
愛知県,岡崎市,254,大平町字出口１０,上町こども広場東側フェンス,34.9386002,137.1957714,
愛知県,岡崎市,255,大平町字中道１７,男川小学校校庭東側,34.9400527,137.1971745,
愛知県,岡崎市,256,大平町字沢添４０－２,市営住宅大平荘西側フェンス,34.9422959,137.1947804,
愛知県,岡崎市,257,大平町字五位原２４－１１,大平西公園西側法面,34.9442862,137.1944171,
愛知県,岡崎市,258,大平町字皿田６,大平市民センター西側フェンス,34.9383669,137.200377,
愛知県,岡崎市,259,丸山町字経ヶ峰３０,小野田電気商会南側空地,34.9366477,137.2071309,
愛知県,岡崎市,260,小美町字中根２４８,小美ポンプ場北側フェンス,34.9357501,137.228647,
愛知県,岡崎市,261,洞町字鷹野１４番地６８西側,東ケ丘公園東側フェンス,34.9480527,137.1893007,
愛知県,岡崎市,262,高隆寺町字前田６－２,中央総合公園球技場前,34.9509795,137.2080731,
愛知県,岡崎市,263,高隆寺町字阿世保５,リサイクルプラザ入口フェンス,34.9550662,137.2240504,
愛知県,岡崎市,264,高隆寺町字五所合１番地３南側,「中央総合公園口」バス停南,34.9479729,137.204606,
愛知県,岡崎市,265,洞町字下荒田５番地,白龍建設㈱南側フェンス,34.9467478,137.1956558,
愛知県,岡崎市,266,大平町字五位原３番地,市営住宅五位原荘東側フェンス,34.9455535,137.193751,
愛知県,岡崎市,267,洞町字長沼２６番地１２北側,長沼池南側フェンス,34.9465933,137.2007745,
愛知県,岡崎市,268,大西町字長入３１,masked,34.9378359,137.1827182,
愛知県,岡崎市,269,竜美台１丁目１４南側,棚田公園南側フェンス,34.936091,137.1767649,
愛知県,岡崎市,270,竜美台１丁目９－３,竜美ヶ丘高根山公民館フェンス,34.9371612,137.1785084,
愛知県,岡崎市,271,竜美台１丁目６－７,竜美丘学区市民ホーム東側公園北側フェンス,34.9388533,137.1769204,
愛知県,岡崎市,272,竜美東１丁目２－２４,竜美丘公園東側,34.9411772,137.176125,
愛知県,岡崎市,273,竜美東２丁目３,広表緑地南側,34.9400048,137.1791748,
愛知県,岡崎市,274,竜美東３丁目３－１０東側,神殿公園西側法面,34.9384039,137.1803637,
愛知県,岡崎市,275,大西１丁目１７－７,竜美ヶ丘大西公民館北側フェンス,34.9418805,137.1824059,
愛知県,岡崎市,276,大西町字渕田１９－１,名鉄東部観光バス東側フェンス,34.9442671,137.1826549,
愛知県,岡崎市,277,大西町字渕田１９－５１,旧下水施設南側フェンス,34.9453519,137.1798364,
愛知県,岡崎市,278,大西町字渕田７－１４,大西公園北側,34.9448516,137.1802185,
愛知県,岡崎市,279,大西３丁目５－２,大西公民館南側,34.9411722,137.1810739,
愛知県,岡崎市,280,大西２丁目４－２,大西水源送水場南側フェンス,34.9416071,137.1857291,
愛知県,岡崎市,281,大西２丁目７－８,宮ノ入公園北側フェンス,34.9394433,137.1848494,
愛知県,岡崎市,282,保母町字南大狭間３－２,masked,34.9271678,137.2259677,
愛知県,岡崎市,283,保母町字神田１６－１,オフィスＪ.Ｉ東側空地,34.9304358,137.2174268,
愛知県,岡崎市,284,岡町字東野々宮２１－２,三共ブロック倉庫南側フェンス,34.9308018,137.209328,
愛知県,岡崎市,285,岡町字水口７－１南西,瀧富工業南西歩道安全柵,34.9289378,137.2119797,
愛知県,岡崎市,286,岡町字東野々宮３６－４,masked,34.9298094,137.2102605,
愛知県,岡崎市,287,岡町字南石原３０,美合小学校東側フェンス,34.9291684,137.202458,
愛知県,岡崎市,288,岡町字西側８－１,胡蝶庵岡店北,34.9317921,137.200517,
愛知県,岡崎市,289,岡町字西野々宮１７,総持禅院北側フェンス,34.9303999,137.2067132,
愛知県,岡崎市,290,美合町字生田１５０,宮野瓦工業南側植込,34.9273198,137.1949134,
愛知県,岡崎市,291,美合新町１６－５,中野公園南側,34.9248444,137.1989701,
愛知県,岡崎市,292,美合新町１０－９,masked,34.9262699,137.1989368,
愛知県,岡崎市,293,美合新町５－８,じじろ公園南側フェンス,34.9268352,137.1989046,
愛知県,岡崎市,294,美合町字西屋敷５１,西福寺北道路側植込み,34.9283179,137.1961902,
愛知県,岡崎市,295,美合町字西屋敷１４２－３,池下公園南側フェンス,34.9291087,137.1943857,
愛知県,岡崎市,296,美合町字西屋敷１１１－３,池下公園北側法面,34.92945479999999,137.1948567,
愛知県,岡崎市,297,美合町字並松１－５１,県立みあい特別支援学校東側フェンス,34.9237264,137.1872135,
愛知県,岡崎市,298,美合町字並松１－２,「県立専門校前」バス停東,34.9244125,137.1884978,
愛知県,岡崎市,299,美合町字地蔵野１－３０６,愛知県中央家畜保健衛生所正門南側,34.9223839,137.193615,
愛知県,岡崎市,300,美合町字地蔵野１９－７,masked,34.9172966,137.1953585,
愛知県,岡崎市,301,美合町字地蔵野１－４５９,美合公園南側,34.9200059,137.1956949,
愛知県,岡崎市,302,美合町字地蔵野１－１１１,美合公園東側法面,34.9192754,137.1965383,
愛知県,岡崎市,303,美合西町７－９,広田公園西側フェンス,34.9291817,137.1886932,
愛知県,岡崎市,304,緑丘１丁目２－１０西側,緑丘テニスコート南側,34.9194442,137.1767649,
愛知県,岡崎市,305,緑丘１丁目１８－７南側,すみれ公園北側,34.9179754,137.1761247,
愛知県,岡崎市,306,緑丘２丁目２８－２４１南側,ながれ公園北側,34.9172489,137.180699,
愛知県,岡崎市,307,緑丘２丁目１８,みどり公園東側,34.9161301,137.1820803,
愛知県,岡崎市,308,緑丘３丁目６－１２北側,ひばり公園南側,34.917127,137.1839139,
愛知県,岡崎市,309,緑丘３丁目８－６北側,消防団倉庫東,34.91773,137.1852751,
愛知県,岡崎市,310,美合町字沢渡２３番地北側,緑丘小学校正門東,34.9180658,137.187642,
愛知県,岡崎市,311,美合町字下長根２５－１西側,高年者センター東側,34.9211437,137.1849097,
愛知県,岡崎市,312,秦梨町字祇園出４０－１,太田石材店西側　田圃法面,34.9494941,137.2484167,
愛知県,岡崎市,313,秦梨町字平３９,秦梨学区市民ホーム東側,34.950072,137.2457262,
愛知県,岡崎市,314,才栗町字田面７,masked,34.9618405,137.2482068,
愛知県,岡崎市,315,須淵町字上切１５,masked,34.9686637,137.2608375,
愛知県,岡崎市,316,岩戸町字下平２２,由良苑西市道ガードレール,34.9650284,137.2505691,
愛知県,岡崎市,317,才栗町字保呂谷４５,「才栗」バス停南,34.9605099,137.2484739,
愛知県,岡崎市,318,秦梨町字世土田２,秦梨小学校西側フェンス,34.9593961,137.2479935,
愛知県,岡崎市,319,秦梨町字奴田４６－１,秦梨町公民館西側,34.9503453,137.2473293,
愛知県,岡崎市,320,茅原沢町字梅藪前７８－１,「茅原沢」バス停北側空地,34.9431794,137.2520797,
愛知県,岡崎市,321,茅原沢町字東田６０,masked,34.9375548,137.2523944,
愛知県,岡崎市,322,茅原沢町字茅生１０－１２,ちせいの里ポンプ場フェンス,34.9387495,137.2534919,
愛知県,岡崎市,323,茅原沢町字茅生６－１２,蛍流公園入口南植込み,34.9401491,137.2540829,
愛知県,岡崎市,324,生平町字鶸場３８,生平学区こどもの家前,34.9366894,137.2560775,
愛知県,岡崎市,325,蓬生町字下ノ切３２－１,蓬生町公民館西側フェンス,34.9391513,137.2680128,
愛知県,岡崎市,326,古部町字西河７５,masked,34.9516923,137.2783219,
愛知県,岡崎市,327,生平町字上屋敷３６,不退寺入口西側,34.9354784,137.250334,
愛知県,岡崎市,328,生平町字中屋敷２１,masked,34.93761,137.2484543,
愛知県,岡崎市,329,竜泉寺町字西山畑２６－１１南側,「尾尻」バス停西,34.9168389,137.1978916,
愛知県,岡崎市,330,竜泉寺町字尾尻１番地南側,竜泉寺町処理場北,34.9157132,137.1997238,
愛知県,岡崎市,331,竜泉寺町字黒土６０－２南,竜泉寺町公民館北側,34.9085535,137.1995549,
愛知県,岡崎市,332,竜泉寺町字郷土４番地南側,㈱中島屋東側,34.9036873,137.2051021,
愛知県,岡崎市,333,竜泉寺町字笹口４－２５番地北,竜谷保育園東側,34.8992762,137.2046111,
愛知県,岡崎市,334,桑谷町字高畑３番地東側,「山側」バス停北,34.9004696,137.2103619,
愛知県,岡崎市,335,桑谷町字宮ノ入４２－６西,市営住宅桑谷荘南,34.897102,137.2179636,
愛知県,岡崎市,336,桑谷町字浜井場２１－１北側,ファミリーマート東,34.8915534,137.2199423,
愛知県,岡崎市,337,桑谷町字一斗目６－１,ゲートボール場東側,34.8997766,137.2115713,
愛知県,岡崎市,338,藤川台１丁目１,貯水池西側,34.9076765,137.2241943,
愛知県,岡崎市,339,藤川台３丁目５,藤川公園フェンス南側,34.9073484,137.222707,
愛知県,岡崎市,340,藤川町字西町北３３－１西,藤川小学校東側,34.9119836,137.2189562,
愛知県,岡崎市,341,藤川町字堤ヶ入１番地,㈱三幸建設本社北側,34.9136282,137.2138652,
愛知県,岡崎市,342,藤川町峠荒古７－３１南側,豊臣機工団地公園フェンス北側,34.9174369,137.2065116,
愛知県,岡崎市,343,藤川荒古１丁目３－１５,サープラスⅡ五番館西側　峠公園北側,34.9192079,137.2057989,
愛知県,岡崎市,344,藤川台２丁目７－９,なかよし公園南側,34.9065696,137.2219151,
愛知県,岡崎市,345,蓑川町字寺辺２６番地,林福寺西　蓑岡地縁会館南側,34.9191855,137.2035728,
愛知県,岡崎市,346,藤川荒古２丁目１０－１４,グループホーム第二藤川南側　山ノ田緑地公園北側,34.9158452,137.2078056,
愛知県,岡崎市,347,舞木町字堂山１３番地,㈱ダッド南,34.9017883,137.2380345,
愛知県,岡崎市,348,舞木町字阿形５７番地東,舞木こども広場西,34.9003199,137.2378227,
愛知県,岡崎市,349,羽栗町字片井上呂３４－１５,羽栗団地こども広場東側,34.8884282,137.2298198,
愛知県,岡崎市,350,池金町字タナダ６－１,ポンプ場施設北側,34.9097584,137.2439528,
愛知県,岡崎市,351,舞木町字狐山６－４,市営住宅山中荘４号棟東側,34.8995333,137.245958,
愛知県,岡崎市,352,舞木町字天神越３３－４,山中小学校正門東,34.8989005,137.2414444,
愛知県,岡崎市,353,羽栗町字平松２８－３,㈱ハタダ北,34.8917499,137.2273215,
愛知県,岡崎市,354,山綱町字天神２－１,山中学区こどもの家西側,34.8967996,137.2418175,
愛知県,岡崎市,355,山綱町１丁目１－１２,下平田公園東側,34.8930069,137.2529668,
愛知県,岡崎市,356,本宿町字古新田１１－１,本宿学区市民ホーム南側,34.8915177,137.2638669,
愛知県,岡崎市,357,上衣文町字一ノ木１１番地北,パン屋「ペトリール」北,34.901558,137.2640147,
愛知県,岡崎市,358,大幡町字方便野７２－１,大幡町公民館東側,34.9086406,137.2715901,
愛知県,岡崎市,359,本宿茜１丁目３－９,森ノ腰公園北側,34.8932625,137.2549606,
愛知県,岡崎市,360,本宿町字寺町２１－１,法蔵寺駐車場,34.8888395,137.2631655,
愛知県,岡崎市,361,本宿西１丁目３－２１,沢渡公園西側,34.8956062,137.2532816,
愛知県,岡崎市,362,鉢地町字開山２６番地南,㈱ジェイテクトパワーシステム駐車場西側,34.8831158,137.2615912,
愛知県,岡崎市,363,鶇巣町字坂ノ入９南,masked,34.9035667,137.2809479,
愛知県,岡崎市,364,上衣文町字猿田２３１－１番地,旧ハートピア岡崎事務所前グランド東側,34.8975762,137.2687379,
愛知県,岡崎市,365,本宿町字下トコサフ１－３７,緑町西公園東側,34.8917584,137.2562962,
愛知県,岡崎市,366,本宿町字下トコサフ１－１２５,緑町中央公園西側,34.8901277,137.2568984,
愛知県,岡崎市,367,本宿町字上ノ山１－３５,緑町第４児童遊園北側,34.891872,137.2566396,
愛知県,岡崎市,368,本宿町字円如ケ入１－１３５番地西,本宿緑町集会所南側,34.8881166,137.2578058,
愛知県,岡崎市,369,本宿町字棚田１－６,棚田夕日ヶ丘公園西側,34.887765,137.2585286,
愛知県,岡崎市,370,本宿町字上トコサフ１－５７,緑町第２児童遊園北側,34.888002,137.2546695,
愛知県,岡崎市,371,本宿町字円如ヶ入１－２７,緑町第１児童遊園東側,34.8880214,137.2569849,
愛知県,岡崎市,372,滝町字本部２６,「滝団地北」交差点南西空地,34.9836312,137.1962145,
愛知県,岡崎市,373,滝町字芳殿３４２,滝北公園南側,34.9812918,137.197082,
愛知県,岡崎市,374,滝町字芳殿８０,かおる幼稚園南側　滝中央公園北側土手,34.9793264,137.1973797,
愛知県,岡崎市,375,滝町字入ノ谷５－５,常磐小学校南側植込み,34.9843734,137.1992441,
愛知県,岡崎市,376,滝町字芳殿１６８,「滝団地北」バス停の北,34.9816841,137.1989348,
愛知県,岡崎市,377,滝町字長坂４２－９,バーバーさつき東側ガードパイプ,34.98462,137.1956952,
愛知県,岡崎市,378,滝町字祭り田１０－３,滝町字祭り田４１番地　遊水地,34.9841084,137.193629,
愛知県,岡崎市,379,滝町字根張沢５７,㈱基創の東南空地,34.9877737,137.2116862,
愛知県,岡崎市,380,米河内町字開元４－５,開元の里ポンプ場向かい,34.9911142,137.2242817,
愛知県,岡崎市,381,米河内町字ウバヤゲ１５－１,「下米河内」バス停東側,34.9913949,137.216828,
愛知県,岡崎市,382,安戸町字日向４５,「安戸」バス停南西,34.9990541,137.2371242,
愛知県,岡崎市,383,蔵次町字前田３３－２,masked,34.9918317,137.2476479,
愛知県,岡崎市,384,新居町字平津形４,masked,35.0009335,137.2579539,
愛知県,岡崎市,385,小丸町字郷中４４,八幡宮入口前竹やぶ,34.996529,137.263653,
愛知県,岡崎市,386,大柳町字南１４－３,大柳町消防倉庫西の空き地,35.0124241,137.2551242,
愛知県,岡崎市,387,米河内町三島２０,食事処「味彩」南の空地,34.9962857,137.2270696,
愛知県,岡崎市,388,大井野町字イモリ３６,公民館向い側遊園地土手,34.9792951,137.231143,
愛知県,岡崎市,389,大井野町字カキダ６３,masked,34.9796611,137.2339236,
愛知県,岡崎市,390,岩中町字下３０,岩中集落センター北土手,34.9775394,137.2464329,
愛知県,岡崎市,391,岩中町字深田３０,岡本鉄工所西側　「岩中」バス停前ガードレール,34.975955,137.2433806,
愛知県,岡崎市,392,板田町字沢渡り２７－１,板田町集会所前ガードレール,34.9700308,137.2311469,
愛知県,岡崎市,393,田口町字岩本１－１,常磐南こどもの家南側　田口町公民館前ガードレール,34.9706776,137.2283895,
愛知県,岡崎市,394,田口町字畑成４６－１,「常磐田口」バス停西ガードレール,34.970812,137.2263704,
愛知県,岡崎市,395,田口町字若草１－１４４,エコロタウンときわ内　若草南公園東側フェンス,34.9733078,137.2194275,
愛知県,岡崎市,396,鴨田町字山畔１－２０６付近,百々公園西側フェンス,34.9855428,137.1730661,
愛知県,岡崎市,397,鴨田町字山畔１－２東側,荒井山荘１号棟南側フェンス,34.9837579,137.1751002,
愛知県,岡崎市,398,鴨田本町２１－２１付近,鴨田四区こども広場東側フェンス,34.9826413,137.1735235,
愛知県,岡崎市,399,鴨田町字北魂場７２－３４西側,鴨田公園東側フェンス,34.9802844,137.1728589,
愛知県,岡崎市,400,鴨田本町４－１６,みとや商店東側フェンス,34.9810371,137.1698113,
愛知県,岡崎市,401,鴨田本町１６－７南側,鴨田公園北側フェンス,34.980682,137.1728001,
愛知県,岡崎市,402,鴨田町字辻８－６西側,ヴェルドミール辻南側フェンス,34.9810387,137.1693261,
愛知県,岡崎市,403,東阿知和町字片坂１２－５,ぶどう園東側東名側道沿い,34.9839095,137.1848462,
愛知県,岡崎市,404,東阿知和町字松坂３－４,masked,34.9863668,137.1805532,
愛知県,岡崎市,405,松橋町３丁目１１－１４７,masked,34.9847749,137.182744,
愛知県,岡崎市,406,堂前町２丁目９－２,津島神社南側（津島公園公衆トイレ横）,34.9880423,137.178308,
愛知県,岡崎市,407,堂前町１丁目６－１０,春日公園東側植込み,34.983782,137.177529,
愛知県,岡崎市,408,松橋町１丁目１０－４０,masked,34.9845536,137.1783911,
愛知県,岡崎市,409,堂前町２丁目３－３,masked,34.9851773,137.1769768,
愛知県,岡崎市,410,井ノ口町字片坂１３,大樹寺学区こどもの家南側フェンス,34.9854783,137.1648617,
愛知県,岡崎市,411,鴨田町字向山７２北側,元鴨田荘空き地西側,34.97795929999999,137.1680729,
愛知県,岡崎市,412,井ノ口町字楼２８西側,井ノ口稲荷神社西側向かい側,34.9878453,137.1663718,
愛知県,岡崎市,413,鴨田町字広元１０－１東側,天満宮西側塀石柱,34.9842355,137.1667537,
愛知県,岡崎市,414,鴨田町字広元５－１,大樹寺駐車場南側塀石柱,34.9839519,137.1654168,
愛知県,岡崎市,415,鴨田町字広元３１,大樹寺小学校フェンス,34.9826953,137.1649358,
愛知県,岡崎市,416,鴨田町字広元１０２南側,深田公園北側フェンス,34.9812286,137.1650881,
愛知県,岡崎市,417,大樹寺２丁目１９－３西側,大門駅東側ロータリー西側,34.982486,137.1553851,
愛知県,岡崎市,418,大門１丁目１４－９北側,大門児童遊園東側フェンス,34.9825892,137.1496271,
愛知県,岡崎市,419,大門２丁目１２－１５南側,勝蓮寺公園北側フェンス,34.9873471,137.1490382,
愛知県,岡崎市,420,大門３丁目２２－１６西側,大門公園東側,34.9908533,137.151797,
愛知県,岡崎市,421,大門５丁目６－６北側,大樹寺公園南側フェンス,34.9845479,137.153595,
愛知県,岡崎市,422,大樹寺３丁目８－６東側,三百田公園北側フェンス,34.9832265,137.1609362,
愛知県,岡崎市,423,大門４丁目４－１,大門小学校東門フェンス,34.9884692,137.1555182,
愛知県,岡崎市,424,大樹寺２丁目８－６,市営住宅大樹寺荘４号棟東側,34.9855421,137.1580291,
愛知県,岡崎市,425,上里２丁目２４－１東側,八尻公園南側,34.9892426,137.1608556,
愛知県,岡崎市,426,上里１丁目２５－２０付近,堤下公園南側,34.9928614,137.160699,
愛知県,岡崎市,427,上里２丁目２４－１東側,八尻公園西側,34.9892426,137.1608556,
愛知県,岡崎市,428,上里３丁目１７－１１西側,上里公園東側フェンス,34.9925095,137.1569625,
愛知県,岡崎市,429,上里１丁目１０,北中学校東側フェンス,34.99420240000001,137.1618027,
愛知県,岡崎市,430,上里１丁目２－１２,幸佐公園東側,34.9944303,137.1654405,
愛知県,岡崎市,431,上里１丁目１０,北中学校南側フェンス,34.99420240000001,137.1618027,
愛知県,岡崎市,432,井ノ口新町９-９,井ノ口公園東側フェンス,34.989413,137.167232,
愛知県,岡崎市,433,井ノ口新町９－１３,井ノ口公園北側フェンス,34.9894811,137.1664029,
愛知県,岡崎市,434,青木町１２西側,瓦崎公園西側フェンス,34.9937726,137.167288,
愛知県,岡崎市,435,青木町１２西側,瓦崎公園南側,34.9937726,137.167288,
愛知県,岡崎市,436,河原町１５－１,薮下公園西側フェンス,34.9909271,137.1732635,
愛知県,岡崎市,437,河原町１５－１,薮下公園南側フェンス,34.9909271,137.1732635,
愛知県,岡崎市,438,河原町１丁目１１,庭芳造園南側ブロック,34.9913853,137.1721643,
愛知県,岡崎市,439,東阿知和町字乗越１２,おかざき農遊館正門西側法面,34.9871689,137.1873679,
愛知県,岡崎市,440,東阿知和町乙力122,岡崎市北部学校給食センター南側フェンス,34.9890307,137.1861863,
愛知県,岡崎市,441,東蔵前１丁目４東側,蔵前南公園東側,34.9951832,137.1724691,
愛知県,岡崎市,442,西蔵前町２丁目６北側,きひら公園北側,34.9997927,137.1688118,
愛知県,岡崎市,443,岩津町字生平１－１南側,岩津学区市民ホーム南側,35.0023719,137.1705519,
愛知県,岡崎市,444,岩津町字檀ノ上２６－２東側,岩津市民センター東側,35.0055429,137.1678627,
愛知県,岡崎市,445,岩津町字車塚７０東側,市営住宅天神荘２号棟東側,35.0086436,137.1710899,
愛知県,岡崎市,446,岩津町申堂３－４東側,岩津南児童遊園北側,35.00187349999999,137.1716881,
愛知県,岡崎市,447,真福寺町字神田１２８番地１南側,真福寺公民館南側,35.0016087,137.1828135,
愛知県,岡崎市,448,真福寺町字落合５－９９,花園公園北　緑道,35.0042803,137.195255,
愛知県,岡崎市,449,恵田町字宮前１３－２,恵田町公民館前ガードレール,35.0103909,137.2017354,
愛知県,岡崎市,450,恵田町字五反田１,masked,35.0115457,137.204359,
愛知県,岡崎市,451,丹坂町藪下２１,masked,35.0144392,137.208025,
愛知県,岡崎市,452,駒立町字アマヤケ５３－２,masked,35.0088992,137.2152522,
愛知県,岡崎市,453,駒立町字石神７４,masked,35.0114063,137.2261584,
愛知県,岡崎市,454,駒立町字ナカサラタ５３,愛宕神社入口西の畑,35.010948,137.2301005,
愛知県,岡崎市,455,細川町字石田４５,細川小学校正門前道路東側擁壁,35.0259282,137.1737264,
愛知県,岡崎市,456,細川町字長原１１１－１南側,細川学区市民ホーム西側,35.0273531,137.1748323,
愛知県,岡崎市,457,細川町字上市場９１－１,さくら台団地汚水処理場東２００ｍ法面,35.0283627,137.1699722,
愛知県,岡崎市,458,細川町さくら台１５－１付近,さくら台団地内西ゴミステーション北側,35.0301792,137.1700404,
愛知県,岡崎市,459,細川町字山ノ神２－１６,細川団地第２こども広場東側,35.0313571,137.1745989,
愛知県,岡崎市,460,細川町字山ノ神２－１２６,細川団地第１こども広場北側,35.0308584,137.1761076,
愛知県,岡崎市,461,細川町字長原５７,アイチ信和㈱南側　細川郵便局東２００ｍ（新香山中学校への道路沿い）,35.0264658,137.1781371,
愛知県,岡崎市,462,細川町字窪地７７－１２６,北斗台１号公園北側,35.0234777,137.178477,
愛知県,岡崎市,463,細川町字窪地７７－２２８,北斗台１号公園南側,35.0225899,137.1784985,
愛知県,岡崎市,464,細川町字窪地７７－５３,第一北斗橋北詰西側ガ－ドフェンス,35.0226123,137.1761838,
愛知県,岡崎市,465,細川町字窪地６－１１東側,北斗台２号公園西側,35.0213167,137.1774893,
愛知県,岡崎市,466,細川町字鳥ケ根１７－４西側,北斗台２号公園東側,35.0212751,137.1786996,
愛知県,岡崎市,467,細川町字扇田１０３,北斗台３号公園東側,35.0204779,137.1808318,
愛知県,岡崎市,468,桑原町字緑陽台８－１５１西側,緑陽台中央公園東側,35.0220315,137.1868923,
愛知県,岡崎市,469,仁木町字郷西１８－１,仁木八幡宮南側法面,35.0178855,137.1662497,
愛知県,岡崎市,470,仁木町字年重１０７－２付近,東亜有限会社横の畑,35.0183447,137.1702354,
愛知県,岡崎市,471,仁木町字年重８－３,仁木町字年重８－３付近の柿園,35.0163579,137.1724988,
愛知県,岡崎市,472,仁木町字川越４８,市営住宅仁木荘３号棟南側公園南側,35.0216555,137.1705873,
愛知県,岡崎市,473,仁木町字川越４８,市営住宅仁木荘２号棟東側　仁木荘東児童遊園南側フェンス,35.0216555,137.1705873,
愛知県,岡崎市,474,細川町岩御堂８２－３,仁木児童遊園南フェンス,35.0217671,137.1722255,
愛知県,岡崎市,475,仁木町字川越４８,市営住宅仁木荘６号棟東下水ポンプ棟フェンス,35.0216555,137.1705873,
愛知県,岡崎市,476,桑原町字大沢２０－９０,花園体育センター北側,35.0238948,137.1838669,
愛知県,岡崎市,477,桑原町字南屋下４０北側,新桑原町公民館前市道沿い,35.0310204,137.1884464,
愛知県,岡崎市,478,奥殿町字雑谷下１０,奥殿陣屋西駐車場東,35.0291973,137.1949011,
愛知県,岡崎市,479,奥殿町字石飛６１－２,奥殿学区市民ホーム向かい畑,35.0311886,137.1969721,
愛知県,岡崎市,480,奥殿町字東日影３０－２,masked,35.0284766,137.1975747,
愛知県,岡崎市,481,奥殿町字寺屋敷１２６,masked,35.0241058,137.2114525,
愛知県,岡崎市,482,川向町字ソンデンガイト３１－３付近,川向ポンプ場前,35.0394633,137.2244327,
愛知県,岡崎市,483,奥殿町字赤峰１８,masked,35.0267823,137.2265779,
愛知県,岡崎市,484,日影町字堂ノ東１４,masked,35.028433,137.2440196,
愛知県,岡崎市,485,北野町字西野山２７－３,北野配水場東側フェンス,34.9972687,137.1321642,
愛知県,岡崎市,486,北野町字西山畔５０－７,くてきた公園北側フェンス,34.9980885,137.1356703,
愛知県,岡崎市,487,北野町字郷裏１０－２,三菱自動車岡崎工場東側フェンス,34.9921378,137.1383424,
愛知県,岡崎市,488,北野町字郷裏３５－１付近,北野廃寺史跡公園　南西角,34.9899449,137.1390479,
愛知県,岡崎市,489,北野町字山下１－１,北野小学校正門付近フェンス,34.9850934,137.1362676,
愛知県,岡崎市,490,北野町字山下１－１,北野小学校南側フェンス,34.9850934,137.1362676,
愛知県,岡崎市,491,北野町字東山１９７,矢作消防団第４部車庫警備室西側フェンス,34.9904523,137.1422726,
愛知県,岡崎市,492,小針町字松山３３－２,神田川公園北側フェンス,34.9856831,137.129614,
愛知県,岡崎市,493,小針町二丁目１０－１６,青空ちびっこ広場北側フェンス,34.9846952,137.1266437,
愛知県,岡崎市,494,小針町二丁目５－４,小針区画調整池東側フェンス,34.9831722,137.1274888,
愛知県,岡崎市,495,小針町字一丁目７－７,小針公園北側フェンス,34.9827362,137.1284353,
愛知県,岡崎市,496,橋目町字久々見１７－３,masked,34.987398,137.1336034,
愛知県,岡崎市,497,橋目町字家下３－１,北野学区こどもの家（北野学区市民ホーム）西側フェンス,34.9852509,137.1343995,
愛知県,岡崎市,498,橋目町字御小屋西１２５－１,御小屋西公園北側フェンス,34.9891275,137.1216159,
愛知県,岡崎市,499,西大友町天神１０,西大友町公民館裏西側,34.9735569,137.1317794,
愛知県,岡崎市,500,東大友町字稲葉３７－１,masked,34.9701265,137.1360888,
愛知県,岡崎市,501,中園町字大工２９－１,中園保育園南側フェンス,34.9688575,137.1398675,
愛知県,岡崎市,502,東大友町字筆屋４３－１,矢作北中学校西門付近フェンス,34.9736394,137.1387676,
愛知県,岡崎市,503,東大友町字筆屋４３－１,矢作北中学校正門付近フェンス,34.9736394,137.1387676,
愛知県,岡崎市,504,中園町字忠田２４,矢作公園西側植込み,34.9688773,137.140394,
愛知県,岡崎市,505,中園町字忠田２４,矢作公園南側植込み,34.9688773,137.140394,
愛知県,岡崎市,506,中園町字忠田２０－１,東栄警備保障㈱西側,34.967887,137.1397239,
愛知県,岡崎市,507,森越町字森下４６,長瀬の森公園西側フェンス,34.9818944,137.1409853,
愛知県,岡崎市,508,森越町字宮前４９－２,森越町公民館(旧）花壇横,34.9801358,137.1415903,
愛知県,岡崎市,509,舳越町字東沖１４－１,パチンコ・ジェット西側市道,34.9763641,137.1437134,
愛知県,岡崎市,510,橋目町字西遠山９－２,矢作北小学校正門付近フェンス,34.980923,137.1371813,
愛知県,岡崎市,511,橋目町字西遠山９－２,矢作北小学校南門付近フェンス,34.980923,137.1371813,
愛知県,岡崎市,512,橋目町字御領田１,川本製作所㈱岡崎工場南側フェンス,34.9764464,137.1331161,
愛知県,岡崎市,513,橋目町字城畑３８,橋目交番東側ガードパイプ,34.9826069,137.1346557,
愛知県,岡崎市,514,橋目町字馬之助４１,市道橋目町馬之助交差点付近ガードパイプ,34.9813078,137.1328623,
愛知県,岡崎市,515,矢作町字切戸２８,矢作東小学校西側フェンス,34.9630419,137.14473,
愛知県,岡崎市,516,矢作町字切戸２８,矢作東小学校東門付近フェンス,34.9630419,137.14473,
愛知県,岡崎市,517,矢作町字加護畑６５－１,矢作東学区市民ホーム南側,34.9609829,137.1450077,
愛知県,岡崎市,518,矢作町字馬乗１,矢作橋駅構内矢作交番東側,34.9612366,137.1400095,
愛知県,岡崎市,519,矢作町字高縄手１－６,市営住宅矢作荘２号棟東側フェンス,34.9588288,137.1406376,
愛知県,岡崎市,520,矢作町字池田４６－５,矢作橋駅南こども広場東側フェンス,34.9602094,137.1402196,
愛知県,岡崎市,521,矢作町字神居１－１,masked,34.960003,137.1407271,
愛知県,岡崎市,522,宇頭町字小薮８０－１,矢作市民センター入口植込み,34.96764599999999,137.1290958,
愛知県,岡崎市,523,暮戸町字蓮代１８,矢作中学校グランド北側フェンス,34.966752,137.1297708,
愛知県,岡崎市,524,暮戸町字蓮代１８,矢作中学校プール西側フェンス,34.966752,137.1297708,
愛知県,岡崎市,525,矢作町字西河原４９,矢作こども園東側フェンス,34.9637649,137.1374753,
愛知県,岡崎市,526,矢作町字尊所４５－１,西部地域交流センター駐車場東側フェンス,34.9623493,137.1401883,
愛知県,岡崎市,527,矢作町字祇園１０４－１,矢作四区公民館駐車場東側フェンス,34.9648395,137.1397247,
愛知県,岡崎市,528,矢作町字猫田４０－２,岡崎信用金庫矢作支店　駐車場西側フェンス,34.9654746,137.1365603,
愛知県,岡崎市,529,北本郷町字神明３０,北本郷町公民館西側フェンス,34.9626103,137.1342006,
愛知県,岡崎市,530,矢作町字出口１,東レ㈱岡崎工場東側フェンス,34.95579,137.1400183,
愛知県,岡崎市,531,矢作町字出口１,東レ㈱岡崎工場南側フェンス,34.95579,137.1400183,
愛知県,岡崎市,532,北本郷町字御用田１５,JAあいち三河　矢作支店東側フェンス,34.9610811,137.1288088,
愛知県,岡崎市,533,矢作町字末広４７－３２,矢作五区公民館西側,34.9604426,137.1360878,
愛知県,岡崎市,534,矢作町字池田１番地１９東側,名鉄協商パーキング矢作橋コイン　西側フェンス,34.9609455,137.1388993,
愛知県,岡崎市,535,矢作町字毛呂７－１,中部エア・ウォーター㈱岡崎事業所　ガス充填場入口付近,34.9575746,137.1334829,
愛知県,岡崎市,536,大和町字西島１３番地東側,矢作南小学校校門南側フェンス,34.9472706,137.1262289,
愛知県,岡崎市,537,大和町字平野１３５番地１西側,白鳥神社西側,34.9507781,137.1282699,
愛知県,岡崎市,538,東本郷町字高畑３番地,masked,34.9591747,137.1248907,
愛知県,岡崎市,539,新堀町字本郷２７番地南側,光善寺ブロック塀,34.9500868,137.1199,
愛知県,岡崎市,540,富永町字福塚１４番地１南側,内藤モータース南５０ｍ畑,34.9555611,137.1224911,
愛知県,岡崎市,541,新堀町字中野２１番地南側,前庭天神社南側,34.9495985,137.1166667,
愛知県,岡崎市,542,大和町字西島５７番地１北側,矢作南小学校体育館西側フェンス,34.9474179,137.1250017,
愛知県,岡崎市,543,大和町字西島６１番地１南側,矢作南学区こどもの家南側フェンス,34.9468119,137.1244498,
愛知県,岡崎市,544,渡町字圦口４０番地,喜栄工業西側フェンス,34.949684,137.1408551,
愛知県,岡崎市,545,渡町字薬師畔５６番地,渡町公園フェンス,34.9533386,137.1415768,
愛知県,岡崎市,546,渡町字市場７４番地西側,masked,34.9475324,137.139529,
愛知県,岡崎市,547,渡町字下切１５番地,渡八幡宮西側幟倉庫前,34.9421633,137.1403726,
愛知県,岡崎市,548,渡町字善国寺３５番地２南側,渡保育園南側フェンス,34.9472643,137.1372691,
愛知県,岡崎市,549,筒針町字池田７２番地東側,東洋工務店材料置き場フェンス,34.9529357,137.1368049,
愛知県,岡崎市,550,渡町字薬師畔１番地東側,丹羽鉄工所㈱正門フェンス,34.954801,137.1425417,
愛知県,岡崎市,551,上佐々木町字西屋敷６番地東側,上佐々木町ゴミ集積場,34.940534,137.1243092,
愛知県,岡崎市,552,昭和町北浦４８番地,西岡崎駅前南ロータリー,34.9467082,137.12261,
愛知県,岡崎市,553,東牧内町字向野７２番地３,masked,34.941017,137.1282467,
愛知県,岡崎市,554,下佐々木町字屋敷５７番地北側,masked,34.9346675,137.120593,
愛知県,岡崎市,555,島坂町字郷西７番地北側,㈱トーア正門横ネットフェンス,34.9406918,137.112647,
愛知県,岡崎市,556,島坂町字川田５５番地１西側,島坂保育園フェンス,34.9425271,137.1185124,
愛知県,岡崎市,557,昭和町字河原１番地南側,東レ・モノフィラメント㈱正門横ネットフェンス,34.9437568,137.1151944,
愛知県,岡崎市,558,宇頭北町２丁目４－１,大塚公園南側,34.9733146,137.1215104,
愛知県,岡崎市,559,宇頭町字長合４０,矢作西小学校正門付近フェンス,34.9731961,137.1180568,
愛知県,岡崎市,560,宇頭町字長合４０,矢作西小学校西門付近フェンス,34.9731961,137.1180568,
愛知県,岡崎市,561,宇頭町字東山１００－１,市営住宅東山荘北側植込み,34.9677354,137.1166857,
愛知県,岡崎市,562,宇頭東町２－１２,宇頭東町調整池北側フェンス,34.968757,137.1242461,
愛知県,岡崎市,563,宇頭町字正万２２－１,宇頭公園東側フェンス,34.9759815,137.1102199,
愛知県,岡崎市,564,宇頭南町１,西部学校給食センター西側フェンス,34.967904,137.1216733,
愛知県,岡崎市,565,西本郷町字御立４,和志取神社東側,34.962423,137.12309,
愛知県,岡崎市,566,赤渋町字圦ノ口５０番地北側,岡崎製パン㈱正面フェンス,34.9329699,137.1404278,
愛知県,岡崎市,567,赤渋町字上郷中１番地,御鍬神社東側フェンス,34.9317101,137.13761,
愛知県,岡崎市,568,赤渋町字道本３３番地南側,六ツ美西部小学校南側フェンス,34.9285973,137.137334,
愛知県,岡崎市,569,赤渋町字道本２３－１,六ツ美西部学区市民ホーム,34.9291781,137.1380038,
愛知県,岡崎市,570,中之郷町字宮ノ腰３４東側,masked,34.9311993,137.1327974,
愛知県,岡崎市,571,中之郷町字元山２１番地５東側,六ツ美西保育園フェンス,34.9290313,137.1255,
愛知県,岡崎市,572,中之郷町字東中村３４番地１,浄妙寺東５０ｍ先空地,34.9274992,137.1301373,
愛知県,岡崎市,573,牧御堂町字炭焼２７番地１,ヤマト運送岡崎柱センター西側用水路フェンス,34.9212775,137.1389899,
愛知県,岡崎市,574,土井町字荒井甲３８番地１南側,マクドナルド岡崎土井店東側花壇,34.9205255,137.1365624,
愛知県,岡崎市,575,土井町字柳ケ坪８番地東側,土井公園北側フェンス,34.9171941,137.1356763,
愛知県,岡崎市,576,土井町字蔵屋敷４４番地,土井町公民館南側　杜口司社南側石塀,34.9202282,137.1323353,
愛知県,岡崎市,577,牧御堂町字郷中３８番地東側,ミサキ自動車北用水路沿いフェンス,34.9234059,137.1399544,
愛知県,岡崎市,578,土井町字炭焼２番地南側,六ツ美北部小学校南東側フェンス,34.9218645,137.1413904,
愛知県,岡崎市,579,土井町字南道場田１番地北側,市営土井住宅７号棟北側空地,34.9162855,137.1344049,
愛知県,岡崎市,580,法性寺町字北浦３０番地１西側,カットマン理容店西畑,34.9287903,137.1439576,
愛知県,岡崎市,581,宮地町字馬場３２番地東側,masked,34.9276013,137.1477172,
愛知県,岡崎市,582,宮地町字色子９番地１,犬頭神社参道西側植込み,34.9288814,137.1477875,
愛知県,岡崎市,583,法性寺町字色子１６番地南側,むつみ保育園南側フェンス,34.9263514,137.1461823,
愛知県,岡崎市,584,法性寺町郷前２７西側,占部用水ポンプ場フェンス,34.9268806,137.142741,
愛知県,岡崎市,585,宮地町字北浦４４番地南側,比蘇天神社南側石塀,34.9297458,137.1511026,
愛知県,岡崎市,586,法性寺町字柳之内５３番地北側,沢田繊維産業㈱北側ネットフェンス,34.927927,137.1404138,
愛知県,岡崎市,587,井内町字久世６２,井内八幡宮石塀,34.9210446,137.14726,
愛知県,岡崎市,588,野畑町字北郷中３９番地東側,常念寺東側,34.9139191,137.1460521,
愛知県,岡崎市,589,下和田町字神宮司１番地,犬尾神社南側石塀,34.9091186,137.1449009,
愛知県,岡崎市,590,野畑町字藪下１９番地,鍬神社南側石塀,34.9119705,137.1479449,
愛知県,岡崎市,591,井内町字上堤５番地２,イナイ鈴木建築事務所フェンス,34.9197428,137.1471258,
愛知県,岡崎市,592,井内町字六反２番地東側,六ツ美北中学校東側フェンス,34.9200564,137.1432485,
愛知県,岡崎市,593,井内町字風見５４番地東側,六ツ美北部学区こどもの家東側フェンス,34.921222,137.1442294,
愛知県,岡崎市,594,野畑町字北浦６４番地東側,野畑ふれあい公園東側,34.9161773,137.1447075,
愛知県,岡崎市,595,上青野町字中屋敷６２番地,上青野町公民館東側　榊宮神明宮東側石塀,34.9200819,137.1233058,
愛知県,岡崎市,596,下青野町字天神６４番地南側,六ツ美支所駐車場東側フェンス,34.9132132,137.1267669,
愛知県,岡崎市,597,下青野町字井戸尻８７番地１西側,六ツ美中部学区市民ホームフェンス,34.9086418,137.1229826,
愛知県,岡崎市,598,福桶町字高畑２０２番地西側,福桶公園東側フェンス,34.8957508,137.1168569,
愛知県,岡崎市,599,合歓木町字下郷間３４１番地東側,正願寺前空地,34.9094884,137.1113139,
愛知県,岡崎市,600,在家町字下五反田２７番地,masked,34.9109956,137.1327564,
愛知県,岡崎市,601,坂左右町字葦ノ部１８番地１南側,ＪＡあいち三河六ツ美配送センター南側フェンス,34.9093888,137.135894,
愛知県,岡崎市,602,上三ツ木町字北島１８番地２,神明社南側石塀,34.9000792,137.1282019,
愛知県,岡崎市,603,安藤町字川田20番地１,安藤川北側市道ガードレール,34.8915883,137.1195541,
愛知県,岡崎市,604,中島中町４丁目４,長池公園南側フェンス,34.8899446,137.1225087,
愛知県,岡崎市,605,定国町郷外４１－１,あおみ野運動広場北側フェンス,34.8912908,137.1375831,
愛知県,岡崎市,606,中島町字下井ノ上９番地１,六ツ美南部小学校南側フェンスのり面,34.8892312,137.1250477,
愛知県,岡崎市,607,中島東町２丁目４番地,六ツ美南保育園北側フェンス,34.8901427,137.1255537,
愛知県,岡崎市,608,中島西町４丁目１番地８,斎田公園北側,34.8880226,137.1199587,
愛知県,岡崎市,609,二軒屋町１丁目２－２,二軒屋公園南側フェンス,34.892067,137.1258334,
愛知県,岡崎市,610,中島東町２丁目８番地,井ノ上公園北側,34.8901427,137.1255537,
愛知県,岡崎市,611,中島町字川田２７－３,川田こども広場西側フェンス,34.8793014,137.114283,
愛知県,岡崎市,612,中島町字町後８６番地,中島保育園北側玄関前,34.8827862,137.1130162,
愛知県,岡崎市,613,中島町字落境２３番地,高畑公民館東側フェンス,34.88556630000001,137.1055453,
愛知県,岡崎市,614,中島町字遂分３番地１,鋤柄動物病院西１５０ｍ,34.8798605,137.1122988,
愛知県,岡崎市,615,中島町字鮫田４２番地２,後屋敷公民館南側市道ガードパイプ,34.8845779,137.1147639,
愛知県,岡崎市,616,中島町字住吉西４番地19,住吉西こども広場東側フェンス,34.8804683,137.1079429,
愛知県,岡崎市,617,中島町字佐渡１３番地１,フェルナ南市道ガードパイプ,34.8816191,137.1072865,
愛知県,岡崎市,618,牧平町字社口５－２北側,額田大橋南側　岡東運輸駐車場横,34.9163894,137.28681,
愛知県,岡崎市,619,桜井寺町字郷野６９－１付近,桜井寺公民館,34.9302495,137.2697216,
愛知県,岡崎市,620,樫山町字山ノ神１０－１東側,「額田支所前」バス停付近　市道ロータリー内,34.9189702,137.2928215,
愛知県,岡崎市,621,片寄町字山下６３西側,天恩寺下片寄花木センター,34.9225808,137.3135267,
愛知県,岡崎市,622,樫山町字河瀬６８－３東側,ＪＡガソリンスタンド北側付近（田んぼ）,34.9186238,137.2859743,
愛知県,岡崎市,623,下衣文町字貢貞２４－１南側,Ｔ字路交差点付近　市道ガードパイプ,34.9185472,137.2726485,
愛知県,岡崎市,624,鹿勝川町字宮越１１,鹿勝川公民館,34.9080863,137.30301,
愛知県,岡崎市,625,淡渕町字新畑４７－１東側,淡渕公民館付近,34.9239174,137.3323378,
愛知県,岡崎市,626,鳥川町字下辻８番地,masked,34.9088694,137.3348325,
愛知県,岡崎市,627,夏山町字細田１９－１東側,夏山小学校県道沿いフェンス,34.9374222,137.3098055,
愛知県,岡崎市,628,夏山町字中海道２９西側約１５０ｍ,平針公民館付近　市道ガードレール,34.9390095,137.3239302,
愛知県,岡崎市,629,夏山町上平瀬１３,鬼沢公民館　南側,34.9264564,137.2943942,
愛知県,岡崎市,630,夏山町字ソラ３４北側,寺野大楠・正法寺駐車場,34.9479463,137.2990916,
愛知県,岡崎市,631,夏山町字蔵屋敷６番地付近,字蔵屋敷６番地付近,34.9307855,137.2961692,
愛知県,岡崎市,632,夏山町字宮本７３南側,ゲートボール場市道沿いフェンス,34.9404373,137.310856,
愛知県,岡崎市,633,夏山町字海道３８西側,諏訪神社付近,34.9338171,137.305069,
愛知県,岡崎市,634,夏山町字殿カイト１３－１北側,祐仙寺付近,34.9412897,137.3100596,
愛知県,岡崎市,635,千万町町字宮西８番地,旧千万町小学校東三叉路北側畑,34.9643432,137.3642243,
愛知県,岡崎市,636,木下町字竹ノ花４番地１付近,木下橋東三叉路南側,34.9679402,137.3496308,
愛知県,岡崎市,637,宮崎町字亀穴３３番地,宮崎学区市民ホーム,34.9370001,137.3603261,
愛知県,岡崎市,638,石原町字屋下１２番地,「石原」バス停北側,34.9421589,137.3745879,
愛知県,岡崎市,639,石原町字牧原口９９番地１,牧原集会所東,34.942977,137.3946067,
愛知県,岡崎市,640,明見町字田代４９番地１付近,滝山荘入口付近,34.9307439,137.3525661,
愛知県,岡崎市,641,東河原町字落合５番地１,河原下配水場フェンス,35.006127,137.1943336,
愛知県,岡崎市,642,大代町字三月堂２９番地,高野御前神社境内,34.9072848,137.3650917,
愛知県,岡崎市,643,毛呂町字石名古８番地,毛呂入口　記念碑,34.9904259,137.3306865,
愛知県,岡崎市,644,桜形町字福塚３番地,形埜学区市民ホーム,34.9863948,137.317909,
愛知県,岡崎市,645,井沢町字大東２４番地１,旧形埜学区市民ホーム井沢分館,34.9814881,137.333348,
愛知県,岡崎市,646,小久田町字井ノ口５０番地,masked,35.0027198,137.3393356,
愛知県,岡崎市,647,鍛埜町字向田２５番地９付近,「土」バス停東側,34.983067,137.2851082,
愛知県,岡崎市,648,南大須町字豊ノ本１番地１,南大須公民館付近　須佐之男神社横,34.9658885,137.3070552,
愛知県,岡崎市,649,大高味町字日陰２０番地１東側,法味集落入口　弘法大師堂東付近,34.9675075,137.2779826,
愛知県,岡崎市,650,鍛埜町字際田１番地,鍛冶屋公民館,34.9772962,137.2726275,
愛知県,岡崎市,651,外山町字クイゼ５３番地１東側,外山地区公民館前付近,35.0144244,137.2829198,
愛知県,岡崎市,652,中伊町字竹下２２番地１南側,中伊町集会所付近,34.9977392,137.2864151,
愛知県,岡崎市,653,中伊西町字坂口３番地１,中伊西テニスコート付近　北側ガードレール,34.9914885,137.2718488,
愛知県,岡崎市,654,保久町字中村１３１,ＪＡあいち三河形埜支店下山店付近,35.009139,137.3033502,
愛知県,岡崎市,655,保久町字宮下４４北側,保久下公民館駐車場,35.0072318,137.2999182,
愛知県,岡崎市,656,保久町字岩ノ上ケ１８番地２西側,笹目橋付近,35.0056252,137.2997218,
愛知県,岡崎市,657,冨尾町字途茂１９,法性寺下付近,35.0095863,137.31928,
愛知県,岡崎市,658,一色町字下川上２４－１,一色公民館,35.008984,137.2774363,
