prefecture,city,number,address,name,lat,long,note
愛知県,常滑市,1,常滑市矢田字池南169,北池農村公園,34.9379776,136.8790025,
愛知県,常滑市,2,常滑市矢田字谷海道158,前天神ポンプ場,34.9344581,136.8658597,
愛知県,常滑市,3,常滑市矢田字西根組20-1,,34.934104,136.8598001,
愛知県,常滑市,4,常滑市矢田字野中94-1,矢田クリーンセンター,34.9320684,136.8610154,
愛知県,常滑市,5,常滑市矢田字上之山101,上之山農村公園,34.9354539,136.8593572,
愛知県,常滑市,6,常滑市矢田字東根組148-2,,34.9342076,136.8621205,
愛知県,常滑市,7,常滑市矢田字青木78-1,,34.9320109,136.8651527,
愛知県,常滑市,8,常滑市矢田字石田55,,34.9309796,136.8705113,
愛知県,常滑市,9,常滑市久米字西郷18,三和児童館,34.9298142,136.8468541,
愛知県,常滑市,10,常滑市大塚町177,青海市民センター,34.9308372,136.8426928,
愛知県,常滑市,11,常滑市久米字後田133,ＪＡ中部総合営農センター,34.9309351,136.8505683,
愛知県,常滑市,12,常滑市久米字諏訪山183,三和小学校,34.9273929,136.8558765,
愛知県,常滑市,13,常滑市久米字松下100,宮前公園,34.9256372,136.8498581,
愛知県,常滑市,14,常滑市久米字東郷20,,34.9272774,136.8500689,
愛知県,常滑市,15,常滑市久米字三ツ又74,道路法面,34.9248935,136.8543518,
愛知県,常滑市,16,常滑市金山字大曽129,前山クリーンセンター,34.9275296,136.8441846,
愛知県,常滑市,17,常滑市金山字石田87-2,,34.9261435,136.8463795,
愛知県,常滑市,18,常滑市金山字汐見坂139,三崎西部線グリーンベルト,34.9213508,136.8430506,
愛知県,常滑市,19,常滑市金山字通り144,道路フェンス,34.916438,136.8492365,
愛知県,常滑市,20,常滑市金山字平井120,三和南保育園,34.9254263,136.8483769,
愛知県,常滑市,21,常滑市金山字石坂183,前山ダム公園（北側）,34.9130389,136.855572,
愛知県,常滑市,22,常滑市金山字城下16-7,城山公園駐車場ｶﾞｰﾄﾞﾊﾟｲﾌﾟ,34.9300596,136.8334761,
愛知県,常滑市,23,常滑市金山字屋敷30-1,養護老人ホームしろやま,34.9302229,136.838331,
愛知県,常滑市,24,常滑市金山字下手52,三ツ池（下）,34.9297077,136.836849,
愛知県,常滑市,25,常滑市金山字会下前20,石瀬池,34.9282806,136.8396649,
愛知県,常滑市,26,常滑市金山字下砂原78-1,常滑市体育館,34.9155222,136.8385145,
愛知県,常滑市,27,常滑市金山字油手6-2,青海こども園,34.9281848,136.8350583,
愛知県,常滑市,28,常滑市金山字南平井13-1,青海中学校,34.9268367,136.8387428,
愛知県,常滑市,29,常滑市小倉町7-1-1 前山川,ｶﾞｰﾄﾞﾚｰﾙ,34.9337212,136.82879,
愛知県,常滑市,30,常滑市小倉町1-25,小倉天神社,34.9368578,136.8320554,
愛知県,常滑市,31,常滑市小倉町6-138,小倉排水機場,34.9355158,136.828656,
愛知県,常滑市,32,常滑市小倉町8-162-1,市有地,34.9320581,136.8310776,
愛知県,常滑市,33,常滑市小倉町3-261-2,小倉公会堂,34.9362678,136.8337472,
愛知県,常滑市,34,常滑市小倉町8-110,三和西保育園,34.9327093,136.8333045,
愛知県,常滑市,35,常滑市小倉町3-261-1,小倉ちびっこ広場,34.9360415,136.8344948,
愛知県,常滑市,36,常滑市大野町1-11,市有地,34.9389163,136.8264435,
愛知県,常滑市,37,常滑市大野町6-1,道路ガードパイプ,34.9349539,136.8258969,
愛知県,常滑市,38,常滑市大野町5-170,名鉄大野町駅,34.9358012,136.8275883,
愛知県,常滑市,39,常滑市大野町10-70,大野小学校,34.9323796,136.8280741,
愛知県,常滑市,40,常滑市大野町7-98,,34.9342159,136.8251752,
愛知県,常滑市,41,常滑市大野町7-31-1,市有地,34.9351641,136.8257168,
愛知県,常滑市,42,常滑市大野町5-78-2,わくわく広場南,34.9351841,136.8270826,
愛知県,常滑市,43,常滑市北汐見坂3-1,ふかま公園,34.9208677,136.8334733,
愛知県,常滑市,44,常滑市西之口2-22-4,旧ゲートボール場,34.9310418,136.8266138,
愛知県,常滑市,45,常滑市西之口5-135,西之口ちびっこ広場,34.9300195,136.8290135,
愛知県,常滑市,46,常滑市北汐見坂1-135,糠子池（南側）,34.9238925,136.8323902,
愛知県,常滑市,47,常滑市西之口8-1,西之口公民館,34.9276383,136.825603,
愛知県,常滑市,48,常滑市北汐見坂2-16,３号調整池（西側）,34.9216609,136.8315415,
愛知県,常滑市,49,常滑市住吉町1-155,名鉄西ノ口駅西ロータリー,34.9248406,136.8264098,
愛知県,常滑市,50,常滑市小林町1-105-2,小林町１丁目ガードレール,34.9216752,136.8266352,
愛知県,常滑市,51,常滑市蒲池町2-8,,34.9175859,136.8235979,
愛知県,常滑市,52,常滑市小林町4-10,西ノ口５号踏切東ガードレール,34.9206327,136.8271277,
愛知県,常滑市,53,常滑市蒲池町6-11-1,市有地,34.9178516,136.8296249,
愛知県,常滑市,54,常滑市蒲池町2-137,,34.916641,136.8247996,
愛知県,常滑市,55,常滑市蒲池町6-153,蒲池ちびっ子広場,34.9188648,136.8285746,
愛知県,常滑市,56,常滑市小林町4−12,道路法面,34.9198874,136.8267003,
愛知県,常滑市,57,常滑市港町4-65-3,市有地,34.9029806,136.8256131,
愛知県,常滑市,58,常滑市榎戸町5-81,榎戸公園,34.9078104,136.8309983,
愛知県,常滑市,59,常滑市新浜町3-31,新浜グラウンド,34.9007184,136.8275297,
愛知県,常滑市,60,常滑市新田町2-18-3,鬼崎西保育園,34.9106229,136.8239563,
愛知県,常滑市,61,常滑市本郷町4-115,板橋公園,34.9079366,136.8372213,
愛知県,常滑市,62,常滑市神明町3-43,神明グラウンド,34.9154143,136.8287907,
愛知県,常滑市,63,常滑市本郷町2-272,本郷公園,34.9099519,136.8349126,
愛知県,常滑市,64,常滑市多屋町5-169他,多屋駅駐輪場,34.8963674,136.8312475,
愛知県,常滑市,65,常滑市明和町3-15,明和児童館,34.9063182,136.8329479,
愛知県,常滑市,66,常滑市新浜町5-71,新浜東公園,34.9012743,136.8296643,
愛知県,常滑市,67,常滑市虹の丘5-76,大和公園,34.9000015,136.8365229,
愛知県,常滑市,68,常滑市虹の丘1-50,調整池（南側）,34.9056918,136.8365981,
愛知県,常滑市,69,常滑市大和町3-56,masked,34.9014775,136.8347619,
愛知県,常滑市,70,常滑市多屋字茨廻間1-3,多屋団地入口,34.9037361,136.8449389,
愛知県,常滑市,71,常滑市虹の丘2-156,多屋公園,34.9023029,136.8369098,
愛知県,常滑市,72,常滑市原松町5-10,市有地,34.8926508,136.8388474,
愛知県,常滑市,73,常滑市鯉江本町3-3,常滑北部雨水ポンプ場,34.8923719,136.8287645,
愛知県,常滑市,74,常滑市駅周辺土地区画整理内9-1街区,とことこ公園,34.891086,136.8343731,
愛知県,常滑市,75,常滑市原松町2-193,旧常滑幼稚園,34.8936922,136.8397937,
愛知県,常滑市,76,常滑市新開町5-65,市民文化会館（西側）,34.8850379,136.8368317,
愛知県,常滑市,77,常滑市新開町3-180-1,駅前駐輪場,34.8887123,136.835918,
愛知県,常滑市,78,常滑市新開町1-100,旧市民アリーナ,34.8892941,136.8331263,
愛知県,常滑市,79,常滑市新開町1-49-2,旧体育練習場,34.888528,136.8303205,
愛知県,常滑市,80,常滑市新開町4-1,旧常滑市役所,34.8871015,136.8328135,
愛知県,常滑市,81,常滑市瀬木町2-94,瀬木保育園,34.8872812,136.8470071,
愛知県,常滑市,82,常滑市本町3-37-1,市営駐車場,34.8855208,136.8424863,
愛知県,常滑市,83,常滑市奥条7-31,奥条会館,34.8871642,136.8527177,
愛知県,常滑市,84,常滑市本町3-136,常滑西小学校,34.8844731,136.8435232,
愛知県,常滑市,85,常滑市本町2-178-1,市営駐車場,34.8831138,136.8398589,
愛知県,常滑市,86,常滑市瀬木町4-100,常滑東小学校,34.8891527,136.8493582,
愛知県,常滑市,87,常滑市かじま台2-196,梶間2号調整池（北側）,34.8797137,136.8533017,
愛知県,常滑市,88,常滑市保示町4-81,保示児童遊園,34.8764678,136.8419909,
愛知県,常滑市,89,常滑市山方町7-94-1,丸山保育園,34.8770537,136.8448612,
愛知県,常滑市,90,常滑市大曽町3-132,masked,34.8876759,136.8740066,
愛知県,常滑市,91,常滑市字高坂1-1,青池（バス停）,34.8919386,136.8677081,
愛知県,常滑市,92,常滑市飛香台1-6-1 北条公園,調整池（東側）,34.8955693,136.8490075,
愛知県,常滑市,93,常滑市飛香台3-1-2,常滑市消防本部,34.8982203,136.8517519,
愛知県,常滑市,94,常滑市飛香台3-3-3,知多半島りんくう病院,34.8943985,136.8527108,
愛知県,常滑市,95,常滑市飛香台4-10,どんぐり公園,34.8980454,136.8545585,
愛知県,常滑市,96,常滑市飛香台5-10,やまもも公園,34.8973352,136.8581915,
愛知県,常滑市,97,常滑市飛香台8-12,緑地,34.8908153,136.8543261,
愛知県,常滑市,98,常滑市樽水字中坪277,道路ガードレール,34.8754576,136.8609406,
愛知県,常滑市,99,常滑市樽水町1-134,新居川,34.8751728,136.8433021,
愛知県,常滑市,100,常滑市樽水町4-77,樽水公民館,34.8744496,136.8486061,
愛知県,常滑市,101,常滑市樽水町1-131-1,masked,34.873182,136.8423644,
愛知県,常滑市,102,常滑市泉町2-151,山ノ神グラウンド,34.8751193,136.8535733,
愛知県,常滑市,103,常滑市阿野町6-126,西御堂公園,34.872125,136.8542132,
愛知県,常滑市,104,常滑市井戸田町3-177,西浦北小学校（東門）,34.8737258,136.8584084,
愛知県,常滑市,105,常滑市唐崎町3-18,旧西浦中保育園,34.8685305,136.8545121,
愛知県,常滑市,106,常滑市苅屋町1-1,市有地,34.8555899,136.8578127,
愛知県,常滑市,107,常滑市熊野町4-91,,34.8608401,136.8585204,
愛知県,常滑市,108,常滑市熊野町2-56,,34.8639722,136.8564988,
愛知県,常滑市,109,常滑市古場字栗下前5,西浦南小学校,34.85726,136.86237,
愛知県,常滑市,110,常滑市苅屋字柳田145-1,多賀の里北側駐車場,34.8556869,136.8663893,
愛知県,常滑市,111,常滑市苅屋町2-68,,34.8545169,136.8616536,
愛知県,常滑市,112,常滑市苅屋町5-50,南陵中学校,34.8506757,136.8635944,
愛知県,常滑市,113,常滑市檜原字来明51,檜原クリーンセンター,34.8561916,136.8819268,
愛知県,常滑市,114,常滑市檜原字来明1-39,来明グラウンド,34.8536555,136.881312,
愛知県,常滑市,115,常滑市檜原字三郎谷108,檜原公園西駐車場,34.8597612,136.8798101,
愛知県,常滑市,116,常滑市檜原字平井前1-1,檜原大池西,34.8564382,136.8868471,
愛知県,常滑市,117,常滑市檜原字鍋山65,ちびっこ広場,34.8544651,136.8921807,
愛知県,常滑市,118,常滑市檜原字平井前1-1,檜原公会堂,34.855758,136.887766,
愛知県,常滑市,119,常滑市大谷字坂森410,大谷工業団地調整池（西側）,34.8394711,136.8767369,
愛知県,常滑市,120,常滑市大谷字芦狭間165-6,,34.8450664,136.8651893,
愛知県,常滑市,121,常滑市大谷字浜條135,大谷児童遊園,34.8425012,136.8648744,
愛知県,常滑市,122,常滑市大谷字坂森220,道路ｶﾞｰﾄﾞﾚｰﾙ,34.8366112,136.8707711,
愛知県,常滑市,123,常滑市大谷字担ぼ51-1,,34.8400126,136.869732,
愛知県,常滑市,124,常滑市大谷字松ケ坪99-1,旧小鈴谷児童館,34.8409213,136.8700145,
愛知県,常滑市,125,常滑市大谷朝陽ケ丘2-42,調整池（西側）,34.8391994,136.8700839,
愛知県,常滑市,126,常滑市小鈴谷字赤松21-3,盛田(株)製品置場,34.8329834,136.8663476,
愛知県,常滑市,127,常滑市小鈴谷字油田8-1,道路ｶﾞｰﾄﾞﾚｰﾙ,34.8340848,136.8683977,
愛知県,常滑市,128,常滑市小鈴谷字亀井戸19-1,盛田(株)第二工場,34.8306882,136.86596,
愛知県,常滑市,129,常滑市小鈴谷字荒子214,鈴渓会館,34.8290997,136.8710383,
愛知県,常滑市,130,常滑市小鈴谷字渕前102,小鈴谷農村公園西,34.8309249,136.87665,
愛知県,常滑市,131,常滑市広目字前田面71-2,広目集落排水処理場,34.8213806,136.8741501,
愛知県,常滑市,132,常滑市広目字前田面68-1,,34.8219746,136.8746912,
愛知県,常滑市,133,常滑市広目字前田面49-1,,34.8215396,136.8763897,
愛知県,常滑市,134,常滑市広目字前田面25-1,,34.8217013,136.8779542,
愛知県,常滑市,135,常滑市広目字前田面126-1,広目農村公園前,34.8215564,136.8755854,
愛知県,常滑市,136,常滑市坂井字北浜田3-1,坂井集落排水処理場,34.8184182,136.8637177,
愛知県,常滑市,137,常滑市坂井字蛭沼47,,34.8172727,136.8670168,
愛知県,常滑市,138,常滑市坂井字天王17,道路ｶﾞｰﾄﾞﾚｰﾙ,34.8187757,136.8648943,
愛知県,常滑市,139,常滑市坂井字小脇10,小脇公園,34.8234296,136.8681091,
愛知県,常滑市,140,常滑市坂井字角田77,masked,34.8205304,136.8722029,
