prefecture,city,number,address,name,lat,long,note
愛知県,田原市,1,田原市豊島町釜鋳硲８９－１,十方メモリアルホール付近,34.6685405,137.285343,緯度経度は怪しい
愛知県,田原市,2,田原市豊島町薬師７－２,安原薬師会館付近,34.6735201,137.2885708,緯度経度は怪しい
愛知県,田原市,3,田原市豊島町奥谷１８,田原東部市民館分館付近,34.6689439,137.2935481,緯度経度は怪しい
愛知県,田原市,4,田原市豊島町前田９０－４,富永医院付近,34.6660538,137.2919368,緯度経度は怪しい
愛知県,田原市,5,田原市やぐま台２７－７,やぐま台公民館付近,34.67135140000001,137.3070491,緯度経度は怪しい
愛知県,田原市,6,田原市谷熊町鍛冶屋前１－１,田原東部市民館付近,34.6660972,137.2985292,緯度経度は怪しい
愛知県,田原市,7,田原市谷熊町太神３８－７,谷熊農村公園集会所付近,34.6649326,137.303226,緯度経度は怪しい
愛知県,田原市,8,田原市相川町高木１３０,相川集会所付近,34.6600888,137.3122504,緯度経度は怪しい
愛知県,田原市,9,田原市浦町原組２３－２,真木宅付近,34.696575,137.2773118,緯度経度は怪しい
愛知県,田原市,10,田原市浦町山ノ田４,西光院付近,34.6972488,137.281574,緯度経度は怪しい
愛知県,田原市,11,田原市浦町中世古４８－１,神星電機㈱田原工場付近,34.7001244,137.2793905,緯度経度は怪しい
愛知県,田原市,12,田原市浦町中村４６,岡本宅付近,34.701915,137.2807302,緯度経度は怪しい
愛知県,田原市,13,田原市光崎一丁目４,光崎中央公園付近,34.7103727,137.2804764,緯度経度は怪しい
愛知県,田原市,14,田原市姫見台７０,姫見台公園付近,34.7062978,137.274979,緯度経度は怪しい
愛知県,田原市,15,田原市波瀬町波瀬前１９－１,波瀬農村広場付近,34.7059575,137.2768114,緯度経度は怪しい
愛知県,田原市,16,田原市浦町南松崎１－１,トヨタ自動車グランド付近,34.6688993,137.2692847,緯度経度は怪しい
愛知県,田原市,17,田原市浦町丸山１－２１,西浦公園付近,34.6997472,137.2710758,緯度経度は怪しい
愛知県,田原市,18,田原市吉胡町木綿台１６９,木綿台公園付近,34.6824387,137.2774222,緯度経度は怪しい
愛知県,田原市,19,田原市吉胡台一丁目１２３,吉胡台なかよし公園付近,34.684704,137.2774222,緯度経度は怪しい
愛知県,田原市,20,田原市吉胡町郷中１３４－１,吉胡集落センター付近,34.6851674,137.2823423,緯度経度は怪しい
愛知県,田原市,21,田原市吉胡町郷中３－１,吉胡運動広場付近,34.6841351,137.2820035,緯度経度は怪しい
愛知県,田原市,22,田原市片西一丁目１３,ファミリーマート田原片西店付近,34.6927996,137.2605989,緯度経度は怪しい
愛知県,田原市,23,田原市片浜町南瀬古７３－４１,田原埠頭入口交差点付近,34.6930523,137.2639861,緯度経度は怪しい
愛知県,田原市,24,田原市白谷町谷津９５,白谷公民館入口付近,34.6840938,137.2337484,緯度経度は怪しい
愛知県,田原市,25,田原市白磯６,白谷海浜公園東交差点付近,34.6856599,137.2331572,緯度経度は怪しい
愛知県,田原市,26,田原市片西二丁目８３,片西１号公園,34.6945305,137.2607589,緯度経度は怪しい
愛知県,田原市,27,田原市大久保町北浅場３－３,田原南部市民館付近,34.6490104,137.232852,緯度経度は怪しい
愛知県,田原市,28,田原市大久保町仲原１０３－１,中部電力㈱大久保変電所付近,34.6492798,137.2420071,緯度経度は怪しい
愛知県,田原市,29,田原市大久保町黒河２２－６３６,三栄工業㈱田原営業所付近,34.6458397,137.2446265,緯度経度は怪しい
愛知県,田原市,30,田原市大久保町黒河２２－６０,鈴木宅付近,34.6433197,137.2389983,緯度経度は怪しい
愛知県,田原市,31,田原市加治町奥恩中６２－１７,田原南部小学校付近,34.6546217,137.2402809,緯度経度は怪しい
愛知県,田原市,32,田原市大久保町仲原２０２－３,調整池付近,34.6512114,137.2389833,緯度経度は怪しい
愛知県,田原市,33,田原市大久保町河原２２－２,旧大久保駐在所付近,34.654183,137.2304109,緯度経度は怪しい
愛知県,田原市,34,田原市大久保町大新田１４０,あおぞら園付近,34.6480249,137.2390203,緯度経度は怪しい
愛知県,田原市,35,田原市田原町中小路１１－１,田原福祉グローバル専門学校付近,34.6729446,137.2653538,緯度経度は怪しい
愛知県,田原市,36,田原市田原町巴江１２－１,田原市博物館付近,34.6736537,137.2683458,緯度経度は怪しい
愛知県,田原市,37,田原市田原町築出３７－１０,築出公園付近,34.6718489,137.2717152,緯度経度は怪しい
愛知県,田原市,38,田原市田原町巴江１－１,田原中学校正門付近,34.6739103,137.2694822,緯度経度は怪しい
愛知県,田原市,39,田原市田原町晩田９７,晩田公園付近,34.6765139,137.2722306,緯度経度は怪しい
愛知県,田原市,40,田原市田原町大沢３－２８６,田原市コミュニティバス「大沢住宅」付近,34.6803603,137.2680093,緯度経度は怪しい
愛知県,田原市,41,田原市田原町大沢３－３８０,蔵王こども園付近,34.6803603,137.2680093,緯度経度は怪しい
愛知県,田原市,42,田原市田原町汐見５,田原文化広場前付近,34.6714427,137.2749964,緯度経度は怪しい
愛知県,田原市,43,田原市田原町築出３５－１,セントラルコート築出付近,34.671691,137.2713908,緯度経度は怪しい
愛知県,田原市,44,田原市田原町松下９,山大鉄工所付近,34.6692124,137.272227,緯度経度は怪しい
愛知県,田原市,45,田原市田原町萱町１,セントファーレ（豊鉄バス「田原萱町」）付近,34.6695122,137.2686425,緯度経度は怪しい
愛知県,田原市,46,田原市田原町稗田５０,城宝寺駐車場付近,34.6679393,137.2677207,緯度経度は怪しい
愛知県,田原市,47,田原市田原町北番場２－１１,神明社付近,34.671102,137.2656463,緯度経度は怪しい
愛知県,田原市,48,田原市田原町南番場３０－１,田原市役所正面玄関前付近,34.6688074,137.2634679,緯度経度は怪しい
愛知県,田原市,49,田原市田原町二ノ丸１－３,八軒家公民館別館付近,34.6654995,137.2605237,緯度経度は怪しい
愛知県,田原市,50,田原市加治町南恩中７－５,東三河農林水産事務所　田原農業改良普及課付近,34.6580829,137.2488364,緯度経度は怪しい
愛知県,田原市,51,田原市加治町北恩中５５－１,緑ヶ丘住宅付近,34.6611081,137.2467389,緯度経度は怪しい
愛知県,田原市,52,田原市加治町大新子４２－１,水資源機構豊川用水総合事業部豊橋支所田原操作室付近,34.6598712,137.2541593,緯度経度は怪しい
愛知県,田原市,53,田原市加治町石井戸１７,加治区多目的ホール付近,34.6611086,137.2600013,緯度経度は怪しい
愛知県,田原市,54,田原市赤石二丁目２,田原福祉センター付近,34.6650752,137.2682484,緯度経度は怪しい
愛知県,田原市,55,田原市赤石三丁目１,県営赤石住宅付近,34.6633386,137.2688143,緯度経度は怪しい
愛知県,田原市,56,田原市田原町藤七原８３－１,藤七原公民館付近,34.6751759,137.2511483,緯度経度は怪しい
愛知県,田原市,57,田原市田原町西鎌田３－１,田原市コミュニティバス「鎌田住宅」付近,34.6694853,137.251183,緯度経度は怪しい
愛知県,田原市,58,田原市田原町栄巌５１,衣笠市民館付近,34.6691542,137.2535952,緯度経度は怪しい
愛知県,田原市,59,田原市田原町東滝頭１－１,トヨタ自動車第１滝頭寮付近,34.671465,137.243486,緯度経度は怪しい
愛知県,田原市,60,田原市田原町新清谷４０,コ－ポきのした付近,34.6692104,137.2605778,緯度経度は怪しい
愛知県,田原市,61,田原市田原町東馬洗３８－３,田原市土地改良区事務所付近,34.6699436,137.2616715,緯度経度は怪しい
愛知県,田原市,62,田原市田原町亀若３－１,藤七原地区入口付近,34.6730698,137.2561033,緯度経度は怪しい
愛知県,田原市,63,田原市神戸町東大坪４３,漆田三区公民館付近,34.6676682,137.2798906,緯度経度は怪しい
愛知県,田原市,64,田原市東赤石五丁目２２,赤石５号公園付近,34.6615982,137.2737575,緯度経度は怪しい
愛知県,田原市,65,田原市神戸町新大坪１５４－２,神戸駅前広場付近,34.666844,137.278033,緯度経度は怪しい
愛知県,田原市,66,田原市東赤石一丁目６２,漆田保育園付近,34.6645125,137.2728603,緯度経度は怪しい
愛知県,田原市,67,田原市東赤石三丁目７,サンコート田原付近,34.66389780000001,137.2711953,緯度経度は怪しい
愛知県,田原市,68,田原市神戸町郷仲１５４－１,漆田一区公民館付近,34.6630315,137.2760097,緯度経度は怪しい
愛知県,田原市,69,田原市東赤石五丁目７４,東赤石交差点付近,34.6615714,137.2722961,緯度経度は怪しい
愛知県,田原市,70,田原市神戸町南島１４－１,市場交差点付近,34.6563413,137.2832253,緯度経度は怪しい
愛知県,田原市,71,田原市神戸町西中島２０,青津農村公園付近,34.6559337,137.2737575,緯度経度は怪しい
愛知県,田原市,72,田原市神戸町前畑１９,神戸市民館付近,34.6523232,137.2754995,緯度経度は怪しい
愛知県,田原市,73,田原市西神戸町追田４０,松井宅付近,34.647783,137.2699498,緯度経度は怪しい
愛知県,田原市,74,田原市西神戸町大辻１１８－２,志田公民館付近,34.6445857,137.2644274,緯度経度は怪しい
愛知県,田原市,75,田原市西神戸町清水１７６－１,新美農村広場付近,34.6492592,137.2609329,緯度経度は怪しい
愛知県,田原市,76,田原市南神戸町南町１５９,南町農村公園付近,34.6389728,137.2771168,緯度経度は怪しい
愛知県,田原市,77,田原市南神戸町高畑２２,谷ノ口公民館横付近,34.6393044,137.285163,緯度経度は怪しい
愛知県,田原市,78,田原市東神戸町御農３７－１,東ヶ谷公民館付近,34.6432373,137.2960187,緯度経度は怪しい
愛知県,田原市,79,田原市大草町糠塚２９－４２,大草団地公園付近,34.6390328,137.2431318,緯度経度は怪しい
愛知県,田原市,80,田原市大草町南清明７９,大草志田公民館付近,34.641971,137.2607802,緯度経度は怪しい
愛知県,田原市,81,田原市大草町北神３５－１,大草市民館付近,34.6382362,137.2557429,緯度経度は怪しい
愛知県,田原市,82,田原市大草町本郷１４,大草揚水機場付近,34.6336164,137.2496552,緯度経度は怪しい
愛知県,田原市,83,田原市大草町東前１２３－１,大草交差点付近,34.6308041,137.2541409,緯度経度は怪しい
愛知県,田原市,84,田原市大草町蔵屋敷９５－１,蔵屋敷池付近,34.6358998,137.2490272,緯度経度は怪しい
愛知県,田原市,85,田原市芦町柿ノ木５５,芦公民館付近,34.6431239,137.1940318,緯度経度は怪しい
愛知県,田原市,86,田原市野田町西野口３,今方集会所付近,34.6577721,137.1968577,緯度経度は怪しい
愛知県,田原市,87,田原市野田町北社口８６,北海道集落センター付近,34.6598856,137.2017368,緯度経度は怪しい
愛知県,田原市,88,田原市野田町元屋敷６４－１,保井集会場付近,34.6586405,137.2053965,緯度経度は怪しい
愛知県,田原市,89,田原市ほると台２－９１,グリーンヒルほると台第１調整池付近,34.6626097,137.2094326,緯度経度は怪しい
愛知県,田原市,90,田原市野田町大門４７－２,野田小学校付近,34.6544138,137.2047865,緯度経度は怪しい
愛知県,田原市,91,田原市野田町後田９－１,山本宅付近,34.6561826,137.2102192,緯度経度は怪しい
愛知県,田原市,92,田原市野田町北瀬古８６－１,南ゲートボール場付近,34.6506397,137.2078364,緯度経度は怪しい
愛知県,田原市,93,田原市野田町東彦田１６,彦田公会堂付近,34.6516955,137.2148517,緯度経度は怪しい
愛知県,田原市,94,田原市野田町井戸薮２１－８,山ノ神公民館付近,34.6742128,137.2055966,緯度経度は怪しい
愛知県,田原市,95,田原市野田町坂下５９－２,馬草多目的広場付近,34.6675447,137.1965528,緯度経度は怪しい
愛知県,田原市,96,田原市野田町下道５０－２,東馬草集会所付近,34.6521492,137.2093614,緯度経度は怪しい
愛知県,田原市,97,田原市野田町前海道４０,本多宅付近,34.6647766,137.1992877,緯度経度は怪しい
愛知県,田原市,98,田原市仁崎町ホウベ２－１,加藤宅付近,34.6748838,137.2215439,緯度経度は怪しい
愛知県,田原市,99,田原市仁崎町浜辺１４,河邉宅付近,34.6755248,137.2176005,緯度経度は怪しい
愛知県,田原市,100,田原市仁崎町仲坪６－１,野田分団２号車旧車庫横付近,34.672905,137.2177497,緯度経度は怪しい
愛知県,田原市,101,田原市六連町前田１３,河合宅付近,34.6581757,137.3186104,緯度経度は怪しい
愛知県,田原市,102,田原市六連町狩拂３２,鈴木商店付近,34.6512918,137.3354828,緯度経度は怪しい
愛知県,田原市,103,田原市六連町黒福５０,太田宅付近,34.6499433,137.327362,緯度経度は怪しい
愛知県,田原市,104,田原市六連町貝場１６－３,六連市民館付近,34.649611,137.3203892,緯度経度は怪しい
愛知県,田原市,105,田原市六連町新浜１－６０,六連シーサイドタウン入口付近,34.6462176,137.3172036,緯度経度は怪しい
愛知県,田原市,106,田原市六連町新浜１－３,新浜集会所付近,34.6450993,137.3175511,緯度経度は怪しい
愛知県,田原市,107,田原市六連町高畑８３,百々集会場付近,34.6450863,137.3069502,緯度経度は怪しい
愛知県,田原市,108,田原市六連町神ノ釜７－１９,東部運動公園付近,34.653445,137.2954753,緯度経度は怪しい
愛知県,田原市,109,田原市高松町西新井１０３－１,新井構造改善センター付近,34.6248379,137.2450592,緯度経度は怪しい
愛知県,田原市,110,田原市高松町谷倉８４－６,岩本宅付近,34.6247698,137.2400372,緯度経度は怪しい
愛知県,田原市,111,田原市高松町蔵屋敷１８,高松小学校付近,34.6262489,137.2350527,緯度経度は怪しい
愛知県,田原市,112,田原市高松町宮方辺４－１,高松地区農村広場付近,34.62103070000001,137.2355984,緯度経度は怪しい
愛知県,田原市,113,田原市高松町中村７２－２,高松市民館付近,34.6234047,137.2360943,緯度経度は怪しい
愛知県,田原市,114,田原市高松町シンチウ６９,山本宅付近,34.6243032,137.2328283,緯度経度は怪しい
愛知県,田原市,115,田原市高松町名幸１,一色集会所付近）,34.6182443,137.2235079,緯度経度は怪しい
愛知県,田原市,116,田原市高松町一色７３,中川宅付近,34.6172702,137.222688,緯度経度は怪しい
愛知県,田原市,117,田原市赤羽根町大道浦３５－５,大石交差点付近,34.6186684,137.2155358,緯度経度は怪しい
愛知県,田原市,118,田原市赤羽根町赤土１,市役所赤羽根市民センター入口付近,34.6190241,137.2112109,緯度経度は怪しい
愛知県,田原市,119,田原市赤羽根町諏訪４－１,ＪＡ愛知みなみ赤羽根事業本部西側付近,34.6145249,137.2060663,緯度経度は怪しい
愛知県,田原市,120,田原市赤羽根町宮瀬古１,惣卜歯科付近,34.6123277,137.2017368,緯度経度は怪しい
愛知県,田原市,121,田原市赤羽根町天神１２１－１,赤羽根市民館西側付近,34.6152357,137.1992972,緯度経度は怪しい
愛知県,田原市,122,田原市赤羽根町西瀬古８７,赤羽根小学校東側付近,34.6124547,137.1988853,緯度経度は怪しい
愛知県,田原市,123,田原市赤羽根町出口１２０－２,鈴木宅付近,34.6119356,137.1970292,緯度経度は怪しい
愛知県,田原市,124,田原市赤羽根町枝古１－１,赤西地区防災倉庫付近,34.6088171,137.1943536,緯度経度は怪しい
愛知県,田原市,125,田原市赤羽根町四貫目８１,鈴木宅付近,34.6107154,137.1915637,緯度経度は怪しい
愛知県,田原市,126,田原市池尻町下り瀬古７５－１,青木宅付近,34.6057869,137.1829136,緯度経度は怪しい
愛知県,田原市,127,田原市池尻町上り世古３３,杉原宅付近,34.6052614,137.1805751,緯度経度は怪しい
愛知県,田原市,128,田原市池尻町宮脇３５－１,池尻運動広場付近,34.6082582,137.1779555,緯度経度は怪しい
愛知県,田原市,129,田原市若見町松渕１６－１,近藤宅付近,34.6037223,137.1744693,緯度経度は怪しい
愛知県,田原市,130,田原市若見町権亟地３－３,若見交差点付近,34.6021088,137.1699489,緯度経度は怪しい
愛知県,田原市,131,田原市若見町新居８－１,若戸市民館入口付近,34.5993899,137.167288,緯度経度は怪しい
愛知県,田原市,132,田原市越戸町田尻１８－１,目代橋付近,34.5988623,137.161498,緯度経度は怪しい
愛知県,田原市,133,田原市越戸町三竹４７８,渡會宅付近,34.5961929,137.1558464,緯度経度は怪しい
愛知県,田原市,134,田原市越戸町九五三７０４-４,旧渡會医院付近,34.5942962,137.1535759,緯度経度は怪しい
愛知県,田原市,135,田原市宇津江町内荒古６－４,豊鉄バス「宇津江」付近,34.6586734,137.1767363,緯度経度は怪しい
愛知県,田原市,136,田原市江比間町前田１２６－２,江比間児童遊園付近,34.6483673,137.1575368,緯度経度は怪しい
愛知県,田原市,137,田原市江比間町西前田１－１,ＪＡ愛知みなみ泉支店付近,34.6462527,137.1526619,緯度経度は怪しい
愛知県,田原市,138,田原市八王子町道上１２２,八王子公民館付近,34.6341091,137.1657643,緯度経度は怪しい
愛知県,田原市,139,田原市村松町南郷中１０－１,花井商店付近,34.6349959,137.156756,緯度経度は怪しい
愛知県,田原市,140,田原市馬伏町中瀬古２４４,馬伏農事集会所付近,34.6441029,137.1535759,緯度経度は怪しい
愛知県,田原市,141,田原市伊川津町五郎丸９－４,神明社付近,34.6447976,137.1470259,緯度経度は怪しい
愛知県,田原市,142,田原市石神町西沖田１５０－１,石神公民館付近,34.6392962,137.1398484,緯度経度は怪しい
愛知県,田原市,143,田原市夕陽が浜１５１,夕陽が浜東公園付近,34.6439452,137.1401721,緯度経度は怪しい
愛知県,田原市,144,田原市山田町八幡前１９,浦山宅付近,34.6184635,137.1171835,緯度経度は怪しい
愛知県,田原市,145,田原市高木町羽根畑２０,高木公民館付近,34.63229,137.120206,緯度経度は怪しい
愛知県,田原市,146,田原市高木町大荒古４４－７,仲神こうじ店付近,34.6308047,137.1164193,緯度経度は怪しい
愛知県,田原市,147,田原市折立町原７６,鈴木宅付近,34.6321816,137.1153914,緯度経度は怪しい
愛知県,田原市,148,田原市折立町折立９１,神明社付近,34.6346356,137.116045,緯度経度は怪しい
愛知県,田原市,149,田原市古田町寺ノ前１－１,清田小学校付近,34.6303183,137.1109427,緯度経度は怪しい
愛知県,田原市,150,田原市古田町岡ノ越６－４,市役所渥美支所付近,34.622797,137.1083247,緯度経度は怪しい
愛知県,田原市,151,田原市古田町宮ノ前３２－１,宮ノ前住宅付近,34.6278294,137.1079457,緯度経度は怪しい
愛知県,田原市,152,田原市古田町郷中１６２,(有)マルト化学工業付近,34.6315194,137.1047925,緯度経度は怪しい
愛知県,田原市,153,田原市長沢町馬道下３０－１,八幡社付近,34.6205016,137.1063734,緯度経度は怪しい
愛知県,田原市,154,田原市福江町中紺屋瀬古８,福江市民館付近,34.6276886,137.1034339,緯度経度は怪しい
愛知県,田原市,155,田原市福江町中羽根１０９,福江分団１号車車庫付近,34.6262664,137.1045407,緯度経度は怪しい
愛知県,田原市,156,田原市福江町下地９,福江自治会公共駐車場付近,34.6281162,137.1024164,緯度経度は怪しい
愛知県,田原市,157,田原市福江町原ノ島６６－１,旭屋付近,34.6270583,137.0999815,緯度経度は怪しい
愛知県,田原市,158,田原市福江町向田３１,福江保育園付近,34.6253209,137.096169,緯度経度は怪しい
愛知県,田原市,159,田原市福江町今ノ田３３,円通院付近,34.6391333,137.0987089,緯度経度は怪しい
愛知県,田原市,160,田原市福江町蓼池８,上村宅付近,34.6355776,137.0949789,緯度経度は怪しい
愛知県,田原市,161,田原市保美町仲原５９－１,ヘアークラフト加夢付近,34.6206414,137.09213,緯度経度は怪しい
愛知県,田原市,162,田原市保美町仲新古３８－２,保美信号付近,34.6227316,137.0943327,緯度経度は怪しい
愛知県,田原市,163,田原市保美町平城９８－３,山本ピアノ教室付近,34.6249424,137.0951121,緯度経度は怪しい
愛知県,田原市,164,田原市保美町後田６６－１,保美住宅付近,34.626119,137.092329,緯度経度は怪しい
愛知県,田原市,165,田原市保美町仲原１１６－２,白井農機㈱付近,34.6180776,137.0929818,緯度経度は怪しい
愛知県,田原市,166,田原市保美町寺西２１－１０,渥美福祉センター（あつみライフランド）付近,34.619924,137.0915364,緯度経度は怪しい
愛知県,田原市,167,田原市保美町段土３６０－２,ゲートボール場付近,34.6167918,137.0887217,緯度経度は怪しい
愛知県,田原市,168,田原市中山町北松渕４,福江中学校付近,34.6306026,137.0921735,緯度経度は怪しい
愛知県,田原市,169,田原市中山町天白１－１,中山小学校付近,34.6423766,137.0870202,緯度経度は怪しい
愛知県,田原市,170,田原市中山町宮脇本畑１０７－２,杉浦宅付近,34.6402464,137.085774,緯度経度は怪しい
愛知県,田原市,171,田原市中山町神明前１４６－１,中山市民館付近,34.6341615,137.0831276,緯度経度は怪しい
愛知県,田原市,172,田原市中山町神明前７,中山保育園付近,34.6353902,137.0841703,緯度経度は怪しい
愛知県,田原市,173,田原市中山町成美１１１,板倉宅付近,34.6337152,137.0799837,緯度経度は怪しい
愛知県,田原市,174,田原市中山町八軒屋５５－４,松浦宅付近,34.6321878,137.0789285,緯度経度は怪しい
愛知県,田原市,175,田原市中山町兼原郷２１６,兼原集荷場付近,34.6204678,137.0698593,緯度経度は怪しい
愛知県,田原市,176,田原市小中山町水門上４６－３０,小中山集落排水施設付近,34.6422549,137.069251,緯度経度は怪しい
愛知県,田原市,177,田原市小中山町八幡上２８４－２,小中山保育園付近,34.6517995,137.0792516,緯度経度は怪しい
愛知県,田原市,178,田原市小中山町八幡上２６７－７,鈴木宅付近,34.6534178,137.074118,緯度経度は怪しい
愛知県,田原市,179,田原市小中山町八幡上３６３－１,小中山児童遊園付近,34.6522549,137.0801575,緯度経度は怪しい
愛知県,田原市,180,田原市小中山町北郷３０１,旅館さつき荘付近,34.6483056,137.0844618,緯度経度は怪しい
愛知県,田原市,181,田原市小中山町一本松５７－１,もりもとや駐車場付近,34.6457369,137.0802724,緯度経度は怪しい
愛知県,田原市,182,田原市小中山町新田一本松下１３２－１,小中山総合会館付近,34.6463897,137.0844348,緯度経度は怪しい
愛知県,田原市,183,田原市小中山町新田一本松下１３１－３７,中山郵便局前グラウンド付近,34.6415378,137.0840922,緯度経度は怪しい
愛知県,田原市,184,田原市亀山町本畑３７,亀鶴院付近,34.6134194,137.0704375,緯度経度は怪しい
愛知県,田原市,185,田原市亀山町川地７０,農村公園付近,34.61089030000001,137.0686426,緯度経度は怪しい
愛知県,田原市,186,田原市亀山町小中原８６－１,亀山市民館付近,34.6090255,137.067072,緯度経度は怪しい
愛知県,田原市,187,田原市亀山町瀬戸畑４６,本田宅付近,34.6045799,137.061501,緯度経度は怪しい
愛知県,田原市,188,田原市西山町福地１１２－３,田中商店前付近,34.6233925,137.0570856,緯度経度は怪しい
愛知県,田原市,189,田原市西山町穂波８６,荒木宅付近,34.6155545,137.0605412,緯度経度は怪しい
愛知県,田原市,190,田原市西山町中里５０,西山公民館付近,34.6063792,137.0537688,緯度経度は怪しい
愛知県,田原市,191,田原市西山町砂原１６６,田中宅付近,34.6088211,137.0478209,緯度経度は怪しい
愛知県,田原市,192,田原市伊良湖町古婦２１０７－１３,糟谷宅付近,34.590281,137.04422,緯度経度は怪しい
愛知県,田原市,193,田原市伊良湖町渡川３２１,伊良湖市民館付近,34.5879885,137.04111,緯度経度は怪しい
愛知県,田原市,194,田原市伊良湖町宮下３０００－６１,旅館ちどり付近,34.5843456,137.0237252,緯度経度は怪しい
愛知県,田原市,195,田原市伊良湖町長切１６６－１,伊良湖ゴミステーション付近,34.589526,137.0455311,緯度経度は怪しい
愛知県,田原市,196,田原市日出町世戸畑８,小久保宅付近）,34.5837318,137.0450031,緯度経度は怪しい
愛知県,田原市,197,田原市日出町中瀬古８５３－３,日出農村公園付近,34.5823391,137.0447104,緯度経度は怪しい
愛知県,田原市,198,田原市日出町浜辺７７９－２,集落排水処理場付近,34.5860599,137.0479634,緯度経度は怪しい
愛知県,田原市,199,田原市堀切町除地５４－２,岡田宅付近,34.589274,137.0677492,緯度経度は怪しい
愛知県,田原市,200,田原市堀切町西猫池９８－３,堀切市民館付近,34.591098,137.0732054,緯度経度は怪しい
愛知県,田原市,201,田原市堀切町出口２２,ほりきり広場付近,34.5940807,137.0774643,緯度経度は怪しい
愛知県,田原市,202,田原市堀切町出口１－５,ほりきり広場付近,34.5945906,137.0772319,緯度経度は怪しい
愛知県,田原市,203,田原市堀切町浜畑２０－２,山田宅付近,34.5912969,137.0774453,緯度経度は怪しい
愛知県,田原市,204,田原市小塩津町西原３５－１,伊良湖岬保育園付近,34.6021681,137.0871242,緯度経度は怪しい
愛知県,田原市,205,田原市小塩津町右善坊構３－１８,農協燃料貯蔵庫付近,34.5968053,137.0902431,緯度経度は怪しい
愛知県,田原市,206,田原市小塩津町里瀬古６－１,鈴木宅付近,34.5929738,137.0926966,緯度経度は怪しい
愛知県,田原市,207,田原市小塩津町宮構２－７,伊良湖岬小学校付近,34.597488,137.0963361,緯度経度は怪しい
愛知県,田原市,208,田原市和地町寺口２－１４,一色児童遊園付近,34.5947772,137.1057646,緯度経度は怪しい
愛知県,田原市,209,田原市和地町川尻３６,葉山宅付近,34.5895403,137.1128624,緯度経度は怪しい
愛知県,田原市,210,田原市和地町上大道１１－１,三島神社付近,34.593915,137.1200728,緯度経度は怪しい
愛知県,田原市,211,田原市和地町地蔵田３０,和地市民館付近,34.5908283,137.1196959,緯度経度は怪しい
愛知県,田原市,212,田原市和地町北屋敷３５－３,和地交差点付近,34.5918869,137.1220573,緯度経度は怪しい
愛知県,田原市,213,田原市和地町東１１９,和地駐在所南交差点付近,34.590332,137.1261627,緯度経度は怪しい
愛知県,田原市,214,田原市和地町瀬戸畑３８－１,豊鉄バス「土田」付近,34.5921781,137.1404291,緯度経度は怪しい
愛知県,田原市,215,田原市和地町下中島４２－２,土田農村公園付近,34.5916714,137.1415413,緯度経度は怪しい
