prefecture,city,number,address,name,lat,long,note
愛知県,碧南市,1,碧南市平山町１丁目３３番地３４,平山広場,34.925789,137.030701,
愛知県,碧南市,2,碧南市白沢町３丁目地内,白沢町３丁目地内植樹帯,34.920624,137.028397,
愛知県,碧南市,3,碧南市吹上町４丁目地内,吹上ポンプ場横植樹帯,34.911083,137.018143,
愛知県,碧南市,4,碧南市半崎町３丁目６０番地,西端区事務所,34.915215,137.018173,
愛知県,碧南市,5,碧南市神田町２丁目６番地,農業者コミュニティセンター,34.918533,137.014954,
愛知県,碧南市,6,碧南市神田町３丁目１０番地,西端中学校,34.917831,137.013947,
愛知県,碧南市,7,碧南市上町３丁目１番地,西端小学校,34.915447,137.011566,
愛知県,碧南市,8,碧南市立山町４丁目２５番地１,西荒居公園,34.914619,137.004257,
愛知県,碧南市,9,碧南市三度山町２丁目２７番地,消防署　北分署,34.914307,137.007263,
愛知県,碧南市,10,碧南市三度山町２丁目６３番地,三度山公園,34.913937,137.007858,
愛知県,碧南市,11,碧南市札木町３丁目２０２番地,西端保育園,34.91235,137.011414,
愛知県,碧南市,12,碧南市湖西町１丁目２２番地,湖西公園,34.911194,137.014816,
愛知県,碧南市,13,碧南市油渕町１丁目１番地,西端下区民館,34.90876,137.012421,
愛知県,碧南市,14,碧南市油渕町１丁目１０番地１,応仁寺駐車場,34.908722,137.011917,
愛知県,碧南市,15,碧南市金山町４丁目１８番地,masked,34.902199,137.001846,
愛知県,碧南市,16,碧南市金山町１丁目２７番地４,新川保育園,34.904087,137.002823,
愛知県,碧南市,17,碧南市西山町７丁目地内,御鍬社,34.903946,136.997299,
愛知県,碧南市,18,碧南市丸山町６丁目６３番地２,丸山町ちびっ子広場,34.908192,136.996887,
愛知県,碧南市,19,碧南市丸山町３丁目３番地１０,碧南工科高等学校,34.910583,136.997284,
愛知県,碧南市,20,碧南市久沓町４丁目９３番地１,久沓公園,34.907936,136.99379,
愛知県,碧南市,21,碧南市西山町６丁目地内,碧南市民図書館第６駐車場内,34.904079,136.995575,
愛知県,碧南市,22,碧南市六軒町２丁目８７番地,市有地,34.908581,136.991226,
愛知県,碧南市,23,碧南市相生町５丁目地内,六軒町公園,34.902164,136.991348,
愛知県,碧南市,24,碧南市相生町５丁目地内,神明社,34.902164,136.991348,
愛知県,碧南市,25,碧南市相生町２丁目３４番地２４,相生公園,34.903339,136.987793,
愛知県,碧南市,26,碧南市松江町３丁目地内,明石公園東駐車場入口,34.905846,136.987366,
愛知県,碧南市,27,碧南市松江町１丁目地内,明石公園東入口,34.905613,136.984543,
愛知県,碧南市,28,碧南市田尻町３丁目地内,田尻町３丁目地内植樹帯,34.908775,136.987274,
愛知県,碧南市,29,碧南市明石町６番地１１,明石公園正面入口,34.905464,136.983246,
愛知県,碧南市,30,碧南市浅間町１丁目２番地,旧刈谷公共職業安定所　碧南出張所跡,34.897129,136.985291,
愛知県,碧南市,31,碧南市浅間町３丁目９９番地２,浅間町ポケット広場,34.894947,136.987717,
愛知県,碧南市,32,碧南市山神町８丁目３５番地,へきなん福祉センターあいくる,34.898651,136.987839,
愛知県,碧南市,33,碧南市新川町３丁目地内,新川町３丁目地内植樹帯,34.897083,136.989212,
愛知県,碧南市,34,碧南市山神町７丁目４０番地,鶴ヶ崎区民館,34.899265,136.98584,
愛知県,碧南市,35,碧南市新川町２丁目１番地１,新川公民館,34.898712,136.98967,
愛知県,碧南市,36,碧南市千福町１丁目地内,羽久手公園,34.899666,136.992874,
愛知県,碧南市,37,碧南市鶴見町１丁目７０番地１,市民図書館・芸術文化ホール,34.903454,136.993958,
愛知県,碧南市,38,碧南市千福町１丁目地内,千福町ポケット広場,34.899666,136.992874,
愛知県,碧南市,39,碧南市篭田町２丁目地内,篭田町２丁目地内植樹帯,34.895714,136.992554,
愛知県,碧南市,40,碧南市浜尾町４丁目９６番地４,浜尾緑地,34.895275,136.994888,
愛知県,碧南市,41,碧南市住吉町１丁目７７番地６,浜尾区民館駐車場,34.900005,136.998138,
愛知県,碧南市,42,碧南市住吉町３丁目地内,住吉町ポケット広場,34.898945,137.000671,
愛知県,碧南市,43,碧南市新道町２丁目６９番地１,masked,34.900948,137.006363,
愛知県,碧南市,44,碧南市平和町３丁目６番地,市民病院,34.901791,137.012451,
愛知県,碧南市,45,碧南市笹山町３丁目１番地１,masked,34.897896,137.007996,
愛知県,碧南市,46,碧南市笹山町３丁目３６番地,西部区民館,34.897266,137.008011,
愛知県,碧南市,47,碧南市荒子町５丁目地内,荒子町ポケット広場,34.894489,137.008774,
愛知県,碧南市,48,碧南市緑町４丁目３２番地,緑町公園,34.89423,137.002029,
愛知県,碧南市,49,碧南市二本木町４丁目３７番地,配水管理事務所（第２配水場）,34.891575,137.014008,
愛知県,碧南市,50,碧南市旭町１丁目８０番地,上水道第一配水場,34.88966,137.017853,
愛知県,碧南市,51,碧南市旭町３丁目７０番地２,鷲塚保育園,34.888435,137.019562,
愛知県,碧南市,52,碧南市鷲林町２丁目１０１番地,天満社,34.884617,137.022812,
愛知県,碧南市,53,碧南市鷲塚町５丁目６０番地,東町内会館,34.885849,137.028122,
愛知県,碧南市,54,碧南市鷲塚町７丁目８３番地,水源公園,34.886936,137.027359,
愛知県,碧南市,55,碧南市鷲林町４丁目１０９番地１,養護老人ホーム,34.883251,137.023605,
愛知県,碧南市,56,碧南市旭町２丁目６６番地,鷲塚公民館,34.888866,137.015717,
愛知県,碧南市,57,碧南市神有町５丁目４１番地,神有広場,34.888817,137.012421,
愛知県,碧南市,58,碧南市天神町３丁目８８番地,東中学校,34.888336,137.007751,
愛知県,碧南市,59,碧南市照光町５丁目３番地,東部市民プラザ,34.885178,137.010071,
愛知県,碧南市,60,碧南市照光町２丁目９番地,照光公園,34.886383,137.014648,
愛知県,碧南市,61,碧南市池下町３丁目２７番地,池下公園,34.885418,137.017288,
愛知県,碧南市,62,碧南市照光町１丁目地内,東部区画１号緑地,34.886288,137.016663,
愛知県,碧南市,63,碧南市三宅町１丁目７４番地,masked,34.884037,137.012024,
愛知県,碧南市,64,碧南市伏見町４丁目１５番地,伏見公園,34.881409,137.006805,
愛知県,碧南市,65,碧南市平七町１丁目２１番地,霞浦神社,34.875874,136.996048,
愛知県,碧南市,66,碧南市伏見町１丁目６６番地,日進保育園,34.881817,137.003143,
愛知県,碧南市,67,碧南市日進町２丁目８５番地,日進公園,34.878876,137.002274,
愛知県,碧南市,68,碧南市日進町２丁目９２番地,日進公民館,34.877819,137.00058,
愛知県,碧南市,69,碧南市日進町４丁目４番地,日進南公園,34.875576,137.000229,
愛知県,碧南市,70,碧南市東浦町４丁目地内,東浦町ポケット広場,34.877876,136.999588,
愛知県,碧南市,71,碧南市踏分町１丁目１０１番地１,踏分公園,34.896446,137.002304,
愛知県,碧南市,72,碧南市踏分町２丁目１４番地,masked,34.89563,137.001648,
愛知県,碧南市,73,碧南市堀方町３丁目地内,堀方緑地,34.893906,136.996964,
愛知県,碧南市,74,碧南市植出町５丁目２番地,中央中学校（北）,34.891445,136.997269,
愛知県,碧南市,75,碧南市植出町５丁目２番地,中央中学校（西）,34.891445,136.997269,
愛知県,碧南市,76,碧南市中後町３丁目１００番地１,中後町ちびっ子広場,34.890373,137.001297,
愛知県,碧南市,77,碧南市尾城町５丁目４５番地１,masked,34.888802,137.002823,
愛知県,碧南市,78,碧南市向陽町３丁目４８番地,中部公民館,34.886917,136.996368,
愛知県,碧南市,79,碧南市幸町６丁目３番地１,幸町ちびっ子広場,34.88649,136.998856,
愛知県,碧南市,80,碧南市源氏神明町２番地,市民図書館中部分館,34.883476,136.996796,
愛知県,碧南市,81,碧南市源氏神明町１２２番地,源氏神明公園,34.880737,136.995773,
愛知県,碧南市,82,碧南市沢渡町１９４番地,沢渡公園,34.88221,136.992355,
愛知県,碧南市,83,碧南市松本町２８番地,碧南市役所　,34.884842,136.993484,
愛知県,碧南市,84,碧南市野田町８０番地,野田公園,34.885387,136.990189,
愛知県,碧南市,85,碧南市末広町３丁目３５番地,末広東公園,34.889977,136.993439,
愛知県,碧南市,86,碧南市栄町２丁目６０番地,栄公園,34.888397,136.993271,
愛知県,碧南市,87,碧南市末広町２丁目３２番地,天道保育園,34.889359,136.990967,
愛知県,碧南市,88,碧南市道場山町１丁目２２番地,道場山西公園,34.892509,136.985321,
愛知県,碧南市,89,碧南市宮後町３丁目１番地,宮後公園,34.889778,136.985275,
愛知県,碧南市,90,碧南市天王町２丁目３０番地,天王公園,34.88776,136.988251,
愛知県,碧南市,91,碧南市天王町１丁目７０番地,保健センター,34.888165,136.987076,
愛知県,碧南市,92,碧南市善明町１丁目４８番地１,善明町ちびっ子広場,34.880753,136.988907,
愛知県,碧南市,93,碧南市春日町２丁目１０番地,棚尾幼稚園,34.877693,136.992203,
愛知県,碧南市,94,碧南市春日町１丁目５番地,棚尾小学校,34.876587,136.99028,
愛知県,碧南市,95,碧南市春日町１丁目１番地,南中学校,34.876587,136.99028,
愛知県,碧南市,96,碧南市汐田町１丁目１番地２,ものづくりセンター,34.875072,136.988449,
愛知県,碧南市,97,碧南市汐田町２丁目２８番地,棚尾公民館,34.875126,136.990265,
愛知県,碧南市,98,碧南市汐田町５丁目３４番地,棚尾保育園,34.873657,136.992889,
愛知県,碧南市,99,碧南市志貴崎町３丁目４８番地,志貴崎公園,34.8713,136.996796,
愛知県,碧南市,100,碧南市志貴崎町５丁目９番地,志貴崎西公園,34.869793,136.995193,
愛知県,碧南市,101,碧南市川端町２丁目１３番地,川端公園,34.865585,136.992538,
愛知県,碧南市,102,碧南市棚尾本町５丁目３５番地,棚尾ふれあい館,34.868778,136.993713,
愛知県,碧南市,103,碧南市若宮町７丁目１９番地,若宮公園,34.866917,136.992172,
愛知県,碧南市,104,碧南市雨池町１丁目２７番地,雨池公園,34.864853,136.988602,
愛知県,碧南市,105,碧南市弥生町４丁目地内,弥生町緑地,34.868885,136.987488,
愛知県,碧南市,106,碧南市音羽町４丁目７７番地３,碧南レールパーク,34.87162,136.984726,
愛知県,碧南市,107,碧南市中町４丁目３番地１,土地開発公社所有地,34.874641,136.984558,
愛知県,碧南市,108,碧南市中町１丁目６２番地,大浜荒神社,34.87513,136.982925,
愛知県,碧南市,109,碧南市羽根町１丁目１４番地,大浜陣屋広場入口,34.877319,136.983994,
愛知県,碧南市,110,碧南市石橋町１丁目１８番地４,石橋ごみステーション,34.88187,136.98761,
愛知県,碧南市,111,碧南市浜町２番地３,臨海公園（北）,34.873749,136.9776,
愛知県,碧南市,112,碧南市浜町２番地３,臨海公園（東）,34.873749,136.9776,
愛知県,碧南市,113,碧南市錦町１丁目７番地,旧大浜警察署,34.871136,136.980591,
愛知県,碧南市,114,碧南市塩浜町１丁目地内,堀川緑地,34.87001,136.983917,
愛知県,碧南市,115,碧南市塩浜町７丁目９９番地,築山保育園,34.866924,136.984299,
愛知県,碧南市,116,碧南市塩浜町７丁目１３５番地,南部市民プラザ,34.865536,136.984695,
愛知県,碧南市,117,碧南市権田町３丁目１８番地,権田公園,34.862644,136.986893,
愛知県,碧南市,118,碧南市浜田町１丁目１番地,大浜小学校（東）,34.866871,136.980576,
愛知県,碧南市,119,碧南市港本町４番５４,玉津浦緑地,34.866898,136.968124,
愛知県,碧南市,120,碧南市入船町２丁目３番地,masked,34.861927,136.980835,
愛知県,碧南市,121,碧南市若松町２丁目地内,若松公園,34.860668,136.975235,
愛知県,碧南市,122,碧南市宮町６丁目地内,宮町公園,34.860294,136.971558,
愛知県,碧南市,123,碧南市岬町１丁目６４番地,岬北公園,34.858536,136.973618,
愛知県,碧南市,124,碧南市入船町７丁目３４番地,一ツ橋公園,34.857883,136.976852,
愛知県,碧南市,125,碧南市権現町３丁目２１２番地,権現北公園,34.856075,136.968384,
愛知県,碧南市,126,碧南市岬町５丁目７８番地,岬公園,34.855583,136.971024,
愛知県,碧南市,127,碧南市前浜町５丁目地内,二ツ橋広場,34.858925,136.983704,
愛知県,碧南市,128,碧南市前浜町４丁目２４番地１,前浜町ポケット広場,34.85659,136.984497,
愛知県,碧南市,129,碧南市前浜町１丁目８０番地,前浜集落センター,34.858753,136.989212,
愛知県,碧南市,130,碧南市前浜町２丁目２１２番地,前浜公園,34.854321,136.988373,
愛知県,碧南市,131,碧南市江口町３丁目１５番地３,あおいパーク,34.851795,136.968292,
愛知県,碧南市,132,碧南市川口町１丁目２４番地１,川口町ちびっ子広場,34.840649,136.979401,
愛知県,碧南市,133,碧南市川口町１丁目１８４番地１,川口公園,34.840519,136.975098,
