prefecture,city,number,address,name,lat,long,note
愛知県,蒲郡市,1,相楽町小畑ケ３３－１１,生活センター入口,34.8274849,137.2900444,
愛知県,蒲郡市,2,相楽町上ミ９－２,相楽運動広場,34.8294049,137.2838808,
愛知県,蒲郡市,3,大塚町広畑９７－３,道路壁,34.8173438,137.2903603,
愛知県,蒲郡市,4,大塚町後広畑８４－１,老人ホーム,34.81904338,137.2861374,
愛知県,蒲郡市,5,大塚町上中島２２－１,masked,34.81550684,137.2873819,
愛知県,蒲郡市,6,大塚町丸山６０,masked,34.8126334,137.2964622,
愛知県,蒲郡市,7,大塚町大門１０－４,大門チビッコ広場,34.81427405,137.2910585,
愛知県,蒲郡市,8,大塚町産子山,masked,34.81359474,137.2830173,
愛知県,蒲郡市,9,大塚町十能６９－１,旭化学資材置場西側,34.81263779,137.2710485,
愛知県,蒲郡市,10,大塚町西屋敷６８－３,大塚西運動広場,34.81264791,137.2721989,
愛知県,蒲郡市,11,大塚町平原１２５－７,市有地,34.81416101,137.2779501,
愛知県,蒲郡市,12,大塚町山ノ沢１３-９,市有地,34.8099986,137.2659421,
愛知県,蒲郡市,13,大塚町勝川７－２,勝川児童遊び場,34.81279327,137.2747797,
愛知県,蒲郡市,14,大塚町西屋敷６８－５,大塚西保育園東側駐車場,34.81210458,137.2729871,
愛知県,蒲郡市,15,大塚町岸脇１５－１,市有地,34.81101081,137.2692859,
愛知県,蒲郡市,16,三谷町若宮２６４－１,若宮公園北西側,34.80762404,137.2534621,
愛知県,蒲郡市,17,三谷町壱舗９２,若宮神社北,34.80956626,137.2551673,
愛知県,蒲郡市,18,三谷町壱舗２４－４,市有地,34.81121888,137.2531434,
愛知県,蒲郡市,19,三谷町東三丁目４２,寺戸公園東側,34.81482993,137.2562811,
愛知県,蒲郡市,20,三谷町弥生二丁目３,弥生公園東側,34.81380198,137.2532877,
愛知県,蒲郡市,21,三谷町東五丁目２２２,丸戸公園北側,34.81160927,137.2563383,
愛知県,蒲郡市,22,三谷町二舗４５－２,市有地,34.81227344,137.2509093,
愛知県,蒲郡市,23,三谷町伊与戸２７－５,市有地,34.81737005,137.2565434,
愛知県,蒲郡市,24,三谷町伊与戸３９－１３,市有地,34.81883505,137.2569912,
愛知県,蒲郡市,25,三谷町東二丁目４２,天伯公園西側,34.81661167,137.2534995,
愛知県,蒲郡市,26,蒲郡市三谷町東一丁目,黒別当児童遊園地東側,34.8154673,137.260934,
愛知県,蒲郡市,27,三谷町黒別当８６－１,黒別当児童遊園地東側,34.81993403,137.2578283,
愛知県,蒲郡市,28,三谷町川原,三谷駅南公共駐車場南側,34.81764875,137.2513673,
愛知県,蒲郡市,29,三谷町四舗１２４－４,正眼寺墓地西側,34.81566836,137.2508828,
愛知県,蒲郡市,30,三谷町三舗３２－１,みどりヶ丘児童遊園地,34.81459978,137.2496179,
愛知県,蒲郡市,31,三谷町七舗１４２－２８,三谷西保育園,34.81451476,137.2456544,
愛知県,蒲郡市,32,三谷北通一丁目１３９,矢田公園南側,34.81933517,137.2510318,
愛知県,蒲郡市,33,三谷北通二丁目,三谷駅北ロータリー植込,34.81857006,137.2498701,
愛知県,蒲郡市,34,三谷町七舗１４２－１,三谷公民館東側,34.81451851,137.2468968,
愛知県,蒲郡市,35,三谷北通三丁目２４６,向山公園南側,34.82224925,137.2453208,
愛知県,蒲郡市,36,三谷町迫１－１,三谷小学校西側,34.81774357,137.2455114,
愛知県,蒲郡市,37,三谷北通五丁目９,半ノ木公園北側,34.82501459,137.2425622,
愛知県,蒲郡市,38,三谷町九舗６７－１,水神チビッコ広場,34.81575818,137.2404315,
愛知県,蒲郡市,39,三谷町十舗１３７－１,市有地,34.81793011,137.2397606,
愛知県,蒲郡市,40,三谷町須田２９－２,神明神社南側,34.81853183,137.2423976,
愛知県,蒲郡市,41,三谷北通四丁目１４９,須田公園南側,34.81996877,137.2416355,
愛知県,蒲郡市,42,三谷北通四丁目１９３,力川橋南側,34.82119511,137.2401055,
愛知県,蒲郡市,43,三谷北通六丁目１８９,西田川公園北側,34.82343135,137.2397108,
愛知県,蒲郡市,44,府相町三丁目４０,竹島小学校西側,34.82579456,137.2368645,
愛知県,蒲郡市,45,八百富町,榎田公園北側,34.82186115,137.2335347,
愛知県,蒲郡市,46,府相町新井前,府相公園南側,34.82432838,137.2358765,
愛知県,蒲郡市,47,港町,港町東公園東側,34.82018249,137.228902,
愛知県,蒲郡市,48,竹島町１５－６５,南部市民センター跡地南側,34.8153545,137.2343572,
愛知県,蒲郡市,49,府相町一丁目１４番外,御馬公園東側,34.82107926,137.237752,
愛知県,蒲郡市,50,港町１３,蒲郡駅南公共駐車場北側,34.82142542,137.2273062,
愛知県,蒲郡市,51,港町,蒲郡南駅前広場タクシー待機所北側,34.82262585,137.2254511,
愛知県,蒲郡市,52,元町８－８,ホンダ寝具店駐車場北側,34.8243847,137.2268612,
愛知県,蒲郡市,53,神明町１８－４,勤労福祉会館西側,34.82542302,137.2274509,
愛知県,蒲郡市,54,元町１－３,蒲郡駅北側ナビテラス駐車場,34.82332268,137.2251502,
愛知県,蒲郡市,55,神明町２２－２８,南部保育園東側,34.82532234,137.2306673,
愛知県,蒲郡市,56,新井町１７７－１,新井公園西側,34.82938205,137.2330287,
愛知県,蒲郡市,57,本町９－１７,秋葉神社南側,34.82751474,137.2316274,
愛知県,蒲郡市,58,栄町３－３０,市民会館南東側,34.82114704,137.2221803,
愛知県,蒲郡市,59,栄町１１－１３,厚生館病院前,34.82408082,137.2170753,
愛知県,蒲郡市,60,宝町１４－１９,神倉公園南側,34.82624109,137.2235067,
愛知県,蒲郡市,61,旭町６,大坪公園北側,34.82569821,137.2181524,
愛知県,蒲郡市,62,旭町１７－１,市役所東側,34.82648367,137.2203276,
愛知県,蒲郡市,63,御幸町１９,御幸公園北側,34.83061673,137.2219658,
愛知県,蒲郡市,64,緑町２３,藪田公園北西側,34.8323599,137.2190944,
愛知県,蒲郡市,65,宮成町３－１７,宮成中央児童遊園地南側,34.8331037,137.2244187,
愛知県,蒲郡市,66,宮成町１−１６,JA蒲郡配送センター,34.8319625,137.2262574,
愛知県,蒲郡市,67,宮成町１－１,市立図書館駐車場南側,34.83141515,137.2260032,
愛知県,蒲郡市,68,上本町２－３０,小池商事（株）資材置き場東側,34.83110675,137.2281325,
愛知県,蒲郡市,69,上本町８－９,蒲郡高校南側,34.83079931,137.2296206,
愛知県,蒲郡市,70,中央本町２２,中ノ坊公園南東側,34.83048639,137.2248748,
愛知県,蒲郡市,71,本町６８－２,本町児童遊び場西側,34.82868609,137.2280514,
愛知県,蒲郡市,72,豊岡町西門,豊岡東児童遊園地南側,34.82589954,137.2533888,
愛知県,蒲郡市,73,豊岡町平田門６,市有地,34.82759741,137.249344,
愛知県,蒲郡市,74,豊岡町満土呂,満土呂緑地,34.82585115,137.2465241,
愛知県,蒲郡市,75,豊岡町白山３１－６,masked,34.82436851,137.2493852,
愛知県,蒲郡市,76,豊岡町殿門２４,東部公民館西,34.82799676,137.2470042,
愛知県,蒲郡市,77,豊岡町池田,蒲郡東部小学校南西側,34.82863149,137.2450567,
愛知県,蒲郡市,78,豊岡町殿門,蒲郡東部小学校東側,34.82858182,137.246467,
愛知県,蒲郡市,79,豊岡町中屋敷７３－１,豊岡北児童遊園地,34.83183683,137.2489186,
愛知県,蒲郡市,80,新井町１３－１８,蒲郡中学校東側,34.82953004,137.2354345,
愛知県,蒲郡市,81,平田町長根７５,masked,34.8284234,137.2402062,
愛知県,蒲郡市,82,五井町高立田１－１,蒲郡市民病院南側,34.83065879,137.2411488,
愛知県,蒲郡市,83,五井町中郷１１６－１,五井町民会館,34.83624766,137.2445068,
愛知県,蒲郡市,84,五井町高立田１－１,蒲郡市民病院北東側,34.8323827,137.2432181,
愛知県,蒲郡市,85,五井町中郷,五井児童遊園地南,34.83818388,137.2443976,
愛知県,蒲郡市,86,清田町橋詰９５,masked,34.83778173,137.2391306,
愛知県,蒲郡市,87,水竹町東脇島３０−３,調整池東側,34.8383236,137.2341698,
愛知県,蒲郡市,88,水竹町木船２５－２,ちゅうぶ児童館駐車場,34.8376643,137.2298929,
愛知県,蒲郡市,89,水竹町下島１２１－１,乙姫児童遊園地,34.83520752,137.2316001,
愛知県,蒲郡市,90,水竹町上大塔,大塔橋南,34.84049154,137.2367448,
愛知県,蒲郡市,91,清田町中新屋,清田低区配水場南側,34.84760134,137.234401,
愛知県,蒲郡市,92,清田町上大内２－９,清田児童遊園地,34.84975489,137.2368959,
愛知県,蒲郡市,93,清田町間堰５０,北部公民館,34.84196709,137.2321888,
愛知県,蒲郡市,94,清田町間堰５２,蒲郡北部小学校北側,34.84342022,137.232177,
愛知県,蒲郡市,95,坂本町大口,坂本運動広場,34.8526928,137.2272937,
愛知県,蒲郡市,96,坂本町下り郷５９－２,坂本加圧ポンプ場,34.85315656,137.2288272,
愛知県,蒲郡市,97,坂本町中屋敷７８－１,個人所有畑,34.85815428,137.2266932,
愛知県,蒲郡市,98,神ノ郷町壱町田１０,蒲郡西部小学校体育館西側,34.83956029,137.2231213,
愛知県,蒲郡市,99,神ノ郷町中向山２１－４,masked,34.83572705,137.2169473,
愛知県,蒲郡市,100,神ノ郷町上蔵伝１８－２,個人所有畑,34.83487562,137.2198634,
愛知県,蒲郡市,101,神ノ郷町中田２－１,(株）河井工務店作業場西側,34.84109892,137.2220287,
愛知県,蒲郡市,102,神ノ郷町宮前３－１,神ノ郷児童遊園地,34.84048217,137.2262337,
愛知県,蒲郡市,103,柏原町石神２２－１,柏原児童遊園地,34.8425201,137.2094388,
愛知県,蒲郡市,104,柏原町堀切,中田池南側,34.84186029,137.2123418,
愛知県,蒲郡市,105,柏原町加治替戸２３－１,柏原運動広場,34.83838142,137.2111351,
愛知県,蒲郡市,106,竹谷町中野１－１,イオン蒲郡店東側,34.82874653,137.2117004,
愛知県,蒲郡市,107,竹谷町江尻２１－４,川東児童遊園地,34.82640454,137.2123213,
愛知県,蒲郡市,108,竹谷町西ノ浜４－３３,西ノ浜児童遊び場,34.82393357,137.211098,
愛知県,蒲郡市,109,竹谷町王子８８－１,王子チビッコ広場,34.83170721,137.2145363,
愛知県,蒲郡市,110,竹谷町道泉９－１,塩津北保育園跡地,34.8343301,137.2097365,
愛知県,蒲郡市,111,竹谷町神田２６－９,市有地,34.83385818,137.2063434,
愛知県,蒲郡市,112,竹谷町野川３４－２,市有地,34.82882544,137.1970086,
愛知県,蒲郡市,113,竹谷町今御堂３１－１,塩津小学校西側,34.82711862,137.2023479,
愛知県,蒲郡市,114,竹谷町井瀬木１０,油井児童遊園地南側,34.82560224,137.2035031,
愛知県,蒲郡市,115,ガードレール,全保寺西,34.8308956,137.2066903,
愛知県,蒲郡市,116,西迫町本郷２－２,市有地,34.83389601,137.2007677,
愛知県,蒲郡市,117,拾石町本郷１１,個人所有畑,34.81921021,137.2008213,
愛知県,蒲郡市,118,拾石町塩浜８１,拾石運動広場,34.82175554,137.2017328,
愛知県,蒲郡市,119,拾石町前田３１,前田公園,34.8182286,137.198719,
愛知県,蒲郡市,120,拾石町海越１０－４,市有地,34.8153396,137.1983439,
愛知県,蒲郡市,121,拾石町二反田８,masked,34.82049676,137.1978484,
愛知県,蒲郡市,122,拾石町シミズ１０－１,masked,34.82258544,137.1995298,
愛知県,蒲郡市,123,拾石町広見１１－８,拾石チビッコ広場,34.82394035,137.1989264,
愛知県,蒲郡市,124,鹿島町東山１－１,masked,34.81707643,137.1968001,
愛知県,蒲郡市,125,鹿島町東山１－１,鶴ヶ浜第２チビッコ広場,34.81554651,137.1960296,
愛知県,蒲郡市,126,鹿島町宮ノ要２－６,鹿島町集会所,34.81602294,137.1931307,
愛知県,蒲郡市,127,鹿島町岡,上池南側花壇,34.81835467,137.1894729,
愛知県,蒲郡市,128,鹿島町堂ノ下,下池南西側,34.81679135,137.1894825,
愛知県,蒲郡市,129,鹿島町横砂１６－１,masked,34.81485458,137.1906136,
愛知県,蒲郡市,130,鹿島町長田３４－１,鹿島保育園,34.81387389,137.1930925,
愛知県,蒲郡市,131,金平町中内１１－１,鳥居製綱所,34.81295145,137.1858608,
愛知県,蒲郡市,132,金平町井戸尻,稲葉池北側,34.81416402,137.1789062,
愛知県,蒲郡市,133,金平町頂拝１６－１,（株）市川組西側,34.81541797,137.1783377,
愛知県,蒲郡市,134,金平町開戸,カネイチタクシー北空き地,34.81514575,137.1761842,
愛知県,蒲郡市,135,一色町森下,一色運動広場東側,34.81517151,137.1820011,
愛知県,蒲郡市,136,金平町折坂２６－１,折坂児童遊園地,34.81420194,137.1872238,
愛知県,蒲郡市,137,金平町三本木１,形原北保育園西側,34.81094093,137.1844901,
愛知県,蒲郡市,138,形原町北双太山,公園グラウンド駐車場東側,34.80581649,137.1760021,
愛知県,蒲郡市,139,形原町南新田交差点付近,市有地,34.80792956,137.1897099,
愛知県,蒲郡市,140,形原町出口４８－５,出口チビッコ広場,34.80836131,137.1814048,
愛知県,蒲郡市,141,形原町下市場,形原テニスコート,34.80567356,137.1886527,
愛知県,蒲郡市,142,形原町細田２６－４,前野チビッコ広場,34.80931963,137.1836056,
愛知県,蒲郡市,143,形原町上辻４５,masked,34.80588861,137.1852949,
愛知県,蒲郡市,144,形原町北双太山,双太山公園,34.80505351,137.178183,
愛知県,蒲郡市,145,形原町北浜９,masked,34.80794501,137.1916646,
愛知県,蒲郡市,146,形原町下川原３３－２１,渡船場児童遊び場,34.79923806,137.1899108,
愛知県,蒲郡市,147,形原町明後４２,masked,34.80256234,137.1848459,
愛知県,蒲郡市,148,形原町下市場５７,下市児童遊園地,34.8027496,137.1878661,
愛知県,蒲郡市,149,形原町春日浦４－１・４－２,春日浦公園,34.80289843,137.1914119,
愛知県,蒲郡市,150,形原町春日浦２７－１,形原公民館,34.8026035,137.1892536,
愛知県,蒲郡市,151,形原町明後１７－３,明後チビッコ広場,34.80221099,137.1838772,
愛知県,蒲郡市,152,形原町御嶽３４－２,形原小学校南側,34.7988154,137.1857253,
愛知県,蒲郡市,153,形原町東欠ノ上２３－２,ＪＡ蒲郡市西部営農事務所,34.79920262,137.1827849,
愛知県,蒲郡市,154,形原町下音羽６６－７,秋葉社チビッコ広場,34.79803719,137.1888201,
愛知県,蒲郡市,155,形原町佃３２－４,masked,34.80123779,137.1821753,
愛知県,蒲郡市,156,形原町南森２７,masked,34.80105627,137.1790367,
愛知県,蒲郡市,157,形原町西中田２４－６,masked,34.8002275,137.1769001,
愛知県,蒲郡市,158,形原町袋川９－１,文化広場,34.80024871,137.1807325,
愛知県,蒲郡市,159,形原町中戸甫井１９－１,消防署西部出張所南駐車場,34.79164743,137.1813922,
愛知県,蒲郡市,160,形原町狭間１１,稲葉製綱（株）,34.79463333,137.1821336,
愛知県,蒲郡市,161,形原町北上松２８,形原４区しあわせ会館,34.79594491,137.1799605,
愛知県,蒲郡市,162,形原町港町８８,形原漁港広場,34.7916337,137.1884751,
愛知県,蒲郡市,163,形原町西根崎１７－４,形原南保育園,34.79467951,137.1835186,
愛知県,蒲郡市,164,形原町三浦町２５,三浦町運動広場,34.79501493,137.1872961,
愛知県,蒲郡市,165,形原町東戸甫井１－３,masked,34.79230731,137.1830995,
愛知県,蒲郡市,166,西浦町北前浜３０,龍田児童遊園地,34.78421571,137.1761189,
愛知県,蒲郡市,167,西浦町下地,龍田会館,34.7852288,137.1751334,
愛知県,蒲郡市,168,西浦町大塚４－２,masked,34.78826044,137.1736817,
愛知県,蒲郡市,169,西浦町的場９－１,masked,34.7905844,137.1759987,
愛知県,蒲郡市,170,西浦町東稲生３７－３,稲生会館,34.7879325,137.1862433,
愛知県,蒲郡市,171,西浦町宮地１０－６,西浦公民館,34.78509995,137.1805674,
愛知県,蒲郡市,172,西浦町宮新田９－３,蒲郡市農協西浦支店前駐車場,34.78558916,137.1797479,
愛知県,蒲郡市,173,西浦町赤冗１４－１,赤冗墓地,34.78086369,137.1796385,
愛知県,蒲郡市,174,西浦町前浜９,知柄会館,34.78058546,137.1780071,
愛知県,蒲郡市,175,西浦町西馬相２１,にしうら児童館,34.78675975,137.1770346,
愛知県,蒲郡市,176,西浦町池田１４－３,知柄児童遊園地,34.78282487,137.1796209,
愛知県,蒲郡市,177,西浦町大知柄５２,大知柄運動広場,34.77680792,137.1777827,
愛知県,蒲郡市,178,西浦町赤浜１５－２,橋田児童遊園地,34.77458299,137.1769653,
愛知県,蒲郡市,179,西浦町南明柄１５,南明柄グラウンド,34.77005104,137.1809443,
