prefecture,city,number,address,name,lat,long
愛知県,西尾市,1,末広町１０番地,老人の家鶴城会館,34.866635,137.049945
愛知県,西尾市,2,鶴ケ崎町６番地２,アクティにしお,34.86919,137.050827
愛知県,西尾市,3,住崎一丁目１００番地,住崎２号公園,34.859756,137.042999
愛知県,西尾市,4,葵町７０番地１１,市道本町永吉線（植栽）,34.857568,137.041291
愛知県,西尾市,5,住崎二丁目１１４番地,住崎調整池,34.857922,137.043777
愛知県,西尾市,6,山下町泡原１１番地２,文化会館南駐車場,34.861977,137.044479
愛知県,西尾市,7,下町八幡下２４番地１,文化会館北駐車場,34.865368,137.04483
愛知県,西尾市,8,錦城町２３１番地,歴史公園出入口,34.866653,137.048111
愛知県,西尾市,9,花ノ木町１丁目９番地,所有地,34.844385,137.03674
愛知県,西尾市,10,寄住町柴草５３番地１０,寄住稲荷社,34.86945,137.062775
愛知県,西尾市,11,西尾市花ノ木町2丁目1番地,総合福祉センター,34.867535,137.058716
愛知県,西尾市,12,道光寺町寺内下２４番地１,南駐車場,34.873859,137.058838
愛知県,西尾市,13,伊文町１６番地,伊文福祉会館,34.870102,137.057083
愛知県,西尾市,14,道光寺町東縄６２番地１,㈱エムアイシーグループ駐車場,34.871441,137.062027
愛知県,西尾市,15,大給町９７番地,所有地,34.871464,137.054459
愛知県,西尾市,16,緑町１丁目４２番地,緑町公園,34.876937,137.054337
愛知県,西尾市,17,桜町奥新田２番地２,県立西尾高等学校,34.884048,137.055984
愛知県,西尾市,18,新渡場町大西１番地３,カルチャーパーク６・３,34.884537,137.056015
愛知県,西尾市,19,伊藤二丁目４番地１,鶴城幼稚園,34.880634,137.054062
愛知県,西尾市,20,鶴城町浄念塚２番地,浄念塚墓地,34.876049,137.051147
愛知県,西尾市,21,鶴城町上道天１番地２,鶴城中学校,34.876911,137.056
愛知県,西尾市,22,宮町２４４番地,金山化成㈱,34.872723,137.056519
愛知県,西尾市,23,亀沢町４６８番地,鶴城公園,34.873962,137.053391
愛知県,西尾市,24,永吉三丁目１５番地,永吉公園,34.861565,137.049591
愛知県,西尾市,25,永吉町６９７番地５,㈱トーエネック西尾営業所,34.86034,137.053101
愛知県,西尾市,26,高畠町６丁目１番地,花ノ木小学校,34.860325,137.056992
愛知県,西尾市,27,高畠町３丁目１６６番地１,西尾駅東駅前広場,34.864208,137.058655
愛知県,西尾市,28,永楽町５丁目１番地１０,吾妻町駐車場,34.855502,137.042451
愛知県,西尾市,29,花ノ木町３丁目６１番地,駅西多目的防災広場,34.864539,137.057285
愛知県,西尾市,30,寄住町下田２２番地,北側駐車場,34.862091,137.061981
愛知県,西尾市,31,八ツ面町麓２０番地１６,masked,34.873306,137.074997
愛知県,西尾市,32,熊味町小松島１２番地,第２駐車場,34.868088,137.067352
愛知県,西尾市,33,熊味町中泡原４９番地,所有地,34.872578,137.068756
愛知県,西尾市,34,八ツ面町市場７１番地,八ツ面小学校,34.876591,137.071869
愛知県,西尾市,35,中原町半谷２０番地,masked,34.885658,137.08049
愛知県,西尾市,36,中原町前畑３２番地１,所有地,34.883099,137.077454
愛知県,西尾市,37,八ツ面町猿待４４番地４,西尾自動車学校,34.880375,137.07457
愛知県,西尾市,38,戸ケ崎三丁目１２番地,戸ケ崎公園,34.876619,137.046955
愛知県,西尾市,39,戸ケ崎町豊美１１５番地１,八ツ面ふれあいセンター,34.877808,137.067001
愛知県,西尾市,40,上町猿ケ坂１番地,masked,34.87561,137.042068
愛知県,西尾市,41,上町上屋敷６２番地１,所有地,34.879704,137.039719
愛知県,西尾市,42,法光寺町流２０番地１,法光寺緑地,34.868954,137.031006
愛知県,西尾市,43,上町丸山１１番地１,西野町保育園跡地,34.875477,137.038559
愛知県,西尾市,44,上町下屋敷１７番地１０,にしのまち保育園,34.876534,137.036148
愛知県,西尾市,45,上町御所ノ下２０番地,西野町小学校,34.872913,137.040924
愛知県,西尾市,46,下町七長２番地２,下町神明社,34.87022,137.041183
愛知県,西尾市,47,法光寺町屋敷19番地2,所有地,34.869942,137.035629
愛知県,西尾市,48,丁田町杢左５０番地１,職員第４駐車場,34.859886,137.063492
愛知県,西尾市,49,今川町石橋８番地２,花ノ木保育園,34.859085,137.06076
愛知県,西尾市,50,丁田町前通１２０番地,北側駐車場,34.857861,137.068741
愛知県,西尾市,51,今川町土井堀１番地,西尾中学校,34.856373,137.068726
愛知県,西尾市,52,小焼野町北川２０番地１,駐車場,34.855263,137.074905
愛知県,西尾市,53,矢曽根町赤地２３番地１,西尾市消防本部,34.85915,137.054855
愛知県,西尾市,54,今川町宮西２２番地,資材置場,34.851177,137.058533
愛知県,西尾市,55,徳次町宮廻１０番地１,徳次福祉会館,34.866467,137.072586
愛知県,西尾市,56,今川町堤合３２番地,所有地,34.851727,137.068542
愛知県,西尾市,57,田貫一丁目１０３番地,北側,34.868801,137.025574
愛知県,西尾市,58,中畑町犬塚６５番地,中畑小学校,34.869053,137.022507
愛知県,西尾市,59,中畑町喜平前２９番地１,所有地,34.871181,137.017395
愛知県,西尾市,60,中畑町宮前３１番地１,中畑ちびっこ広場,34.872265,137.014618
愛知県,西尾市,61,中畑町浜田上３９番地３,中畑緑地,34.869793,137.009995
愛知県,西尾市,62,中畑町前山８６番地１,所有地,34.869583,137.014603
愛知県,西尾市,63,中畑二丁目３４番地,なかばた保育園,34.867207,137.020569
愛知県,西尾市,64,平坂町中奥２９番地６,トヨタモビリティパーツ愛知支社西尾営業所,34.864403,137.024933
愛知県,西尾市,65,平坂町吉山１番地１,平坂中学校,34.859238,137.020874
愛知県,西尾市,66,平坂吉山一丁目２３番地,吉山公園,34.858578,137.023117
愛知県,西尾市,67,平坂町家下６７番地,平坂北部児童遊園,34.865536,137.015701
愛知県,西尾市,68,小栗町上ノ切用水西３６６番地１,小栗児童遊園,34.850273,136.994507
愛知県,西尾市,69,平坂町上縄１９６番地１,所有地,34.862946,137.007309
愛知県,西尾市,70,楠村町寺前１２番地,消防署西分署,34.853642,137.015244
愛知県,西尾市,71,平坂町熊野４４番地,平坂熊野神社,34.858368,137.016525
愛知県,西尾市,72,平坂町茶林１２番地２,平坂小学校,34.861588,137.021362
愛知県,西尾市,73,上矢田町神明寺２４番地,矢田小学校,34.854195,137.030563
愛知県,西尾市,74,上矢田町郷後1番地1,東レハイブリットコード㈱,34.852695,137.028091
愛知県,西尾市,75,下矢田町円入庵９４番地１,所有地,34.843494,137.023361
愛知県,西尾市,76,上矢田町北野４８番地１,所有地,34.853615,137.031006
愛知県,西尾市,77,上矢田町熊子６０番地１、下矢田町郷２番地１,養壽寺,34.848038,137.02774
愛知県,西尾市,78,富山一丁目１３番地１,富山公園,34.847797,137.049255
愛知県,西尾市,79,矢田一丁目９番地１,矢田公園,34.850242,137.023703
愛知県,西尾市,80,羽塚町稲荷山３番地,羽塚神明社,34.858986,137.029129
愛知県,西尾市,81,羽塚町本郷４７番地３,所有地,34.861092,137.030106
愛知県,西尾市,82,国森町郷蔵南5番地1,屋敷畑,34.857422,137.032455
愛知県,西尾市,83,新在家町西郷２７番地１,大河内建築,34.860291,137.037491
愛知県,西尾市,84,国森町不動東８１番地１１,西尾信用金庫矢田支店,34.855461,137.033249
愛知県,西尾市,85,羽塚町本郷３５番地１５,羽塚武道場,34.859974,137.030441
愛知県,西尾市,86,羽塚町林西８番地１他,羽塚１号公園,34.858311,137.027954
愛知県,西尾市,87,寺津町天王山２７番地,寺津ふれあいセンター,34.839825,137.017944
愛知県,西尾市,88,巨海町宮岸１０番地２,巨海保育園,34.83593,137.014664
愛知県,西尾市,89,刈宿町後畑６３番地１,市道刈宿４号線,34.831463,137.013977
愛知県,西尾市,90,寺津町東一割５番地２,寺津漁港関連施設用地,34.839443,137.011047
愛知県,西尾市,91,小栗町六丁目１２１番地１,所有地,34.839855,137.00087
愛知県,西尾市,92,寺津町美之掛２３番地,寺津４号公園,34.844372,137.016602
愛知県,西尾市,93,徳永町東側６２番地１,徳永神明社,34.841587,137.022354
愛知県,西尾市,94,寺津町西市場４０番地,寺津八幡社,34.8414,137.01387
愛知県,西尾市,95,寺津四丁目4番地１,寺津緑地,34.84795,137.015884
愛知県,西尾市,96,横手町上泓１番地１,イノチオアグリ㈱西三河営業所,34.830933,137.056656
愛知県,西尾市,97,笹曽根町西屋敷２９番地,山上神社,34.822735,137.04805
愛知県,西尾市,98,斉藤町向縄１番地,福地ふれあいセンター,34.834549,137.050537
愛知県,西尾市,99,斉藤町新田６２番地,福地南部保育園,34.835518,137.046448
愛知県,西尾市,100,斎藤町新田９１番地１,所有地,34.836956,137.04672
愛知県,西尾市,101,熱池町古新田４２番地,福地南部小学校,34.835659,137.04512
愛知県,西尾市,102,上道目記町上新田２９番地１,所有地,34.834148,137.040176
愛知県,西尾市,103,行用町西屋敷５４番地,所有地,34.829369,137.026611
愛知県,西尾市,104,針曽根町荒井側３３番地１,所有地,34.837196,137.032562
愛知県,西尾市,105,細池町家下４８番地,所有地,34.844772,137.052933
愛知県,西尾市,106,細池町天神東１１番地,福地北部保育園,34.845669,137.059021
愛知県,西尾市,107,鵜ケ池町大道１０番地,福地北部小学校,34.845337,137.059952
愛知県,西尾市,108,鵜ケ池町茅場１番地１,所有地,34.840775,137.061569
愛知県,西尾市,109,鎌谷町北屋敷７５番地,鎌谷神明社,34.840755,137.063934
愛知県,西尾市,110,川口町中切９２番地５,㈱ティエムプラ,34.848671,137.049301
愛知県,西尾市,111,深池町上口６番地１,深池町倉庫,34.851883,137.04747
愛知県,西尾市,112,志籠谷町山畔５１番地,遊歩道（西尾東高校前）,34.881844,137.084671
愛知県,西尾市,113,新村町郷東２４番地,サン・シールド㈱資材置場,34.895477,137.109467
愛知県,西尾市,114,西尾市西浅井町札木74番地,西浅井ちびっ子広場,34.888763,137.099091
愛知県,西尾市,115,米野町松葉内７番地１,消防署東出張所,34.880775,137.099884
愛知県,西尾市,116,江原町東浦２３３番地,駐車場,34.871956,137.089844
愛知県,西尾市,117,下永良町西後落２０番地,東部中学校,34.872578,137.101639
愛知県,西尾市,118,つくしが丘二丁目８番地２,つくしが丘児童遊園,34.869492,137.110603
愛知県,西尾市,119,貝吹町油ノ木６１番地３,miraiと～ぶこども園,34.873882,137.118835
愛知県,西尾市,120,上羽角町郷内１２１番地,専念寺,34.887314,137.126648
愛知県,西尾市,121,室町下野５２番地,所有地,34.857517,137.088898
愛知県,西尾市,122,花蔵寺町五貫目東４８番地,榊原精器㈱,34.851074,137.08696
愛知県,西尾市,123,室町中屋敷１５２番地,西尾市総合倉庫,34.855766,137.099518
愛知県,西尾市,124,室町東毘沙門３２番地,室場小学校,34.858021,137.097488
愛知県,西尾市,125,室町中屋敷９５番地,室場保育園,34.856899,137.102356
愛知県,西尾市,126,駒場町屋敷２番地,加藤医院,34.86377,137.101685
愛知県,西尾市,127,家武町西成合２２番地１,所有地,34.862286,137.102997
愛知県,西尾市,128,平原町寺下４４番地３,所有地,34.856628,137.113266
愛知県,西尾市,129,米津町野寺道６９番地１,所有地,34.890144,137.060226
愛知県,西尾市,130,米津町天竺桂３６番地,消防署北出張所,34.890514,137.055557
愛知県,西尾市,131,米津町天竺桂７２番地,米津ふれあいセンター,34.891895,137.055695
愛知県,西尾市,132,米津町天竺桂７２番地１,米津保育園,34.891895,137.055695
愛知県,西尾市,133,米津町宮浦６８番地,masked,34.895721,137.057571
愛知県,西尾市,134,南中根町長仙１３９番地１,南中根ちびっ子広場,34.901363,137.054825
愛知県,西尾市,135,米津町上泡原６６番地,㈱杉浦製作所米津工場,34.902908,137.060043
愛知県,西尾市,136,米津町仲之畑１番地１,名鉄米津駅駐輪場,34.891911,137.06131
愛知県,西尾市,137,米津町蔵屋敷１１番地１８,米津１号公園,34.891319,137.051605
愛知県,西尾市,138,一色町開正末宝２７番地,南側フェンス前（市道開正３４号線）,34.825775,137.024689
愛知県,西尾市,139,一色町開正川田２８番地２,市道開正池田線（歩道）,34.822208,137.019897
愛知県,西尾市,140,一色町治明通縄６８番地,一色西部小学校,34.821823,137.015427
愛知県,西尾市,141,一色町赤羽上郷中７１番地,所有地,34.819294,137.019852
愛知県,西尾市,142,一色町治明屋敷４６番地１,所有地,34.819256,137.014557
愛知県,西尾市,143,一色町養ケ島郷前２４番地２,所有地,34.81707,137.011215
愛知県,西尾市,144,一色町治明大江６２番地,消防団一色西部分団詰所,34.82312,137.011215
愛知県,西尾市,145,一色町中外沢中割１０番地１,所有地,34.809368,137.014267
愛知県,西尾市,146,一色町味浜屋敷割３６番地１,アパート「ベルメゾン」,34.811432,137.020157
愛知県,西尾市,147,一色町味浜西乾地５２番地２,所有地,34.813313,137.022552
愛知県,西尾市,148,一色町一色下乾地９８番地３,一色中部小学校,34.814857,137.025528
愛知県,西尾市,149,一色町一色西荒子８５番地１,所有地,34.818863,137.027893
愛知県,西尾市,150,一色町味浜堤西９番地１,満国寺,34.822041,137.028748
愛知県,西尾市,151,一色町一色中屋敷８４番地１,一色児童センター,34.810261,137.026077
愛知県,西尾市,152,一色町一色伊那跨６１番地,旧一色町役場,34.812145,137.028656
愛知県,西尾市,153,一色町池田宮前３８番地１,大東化成（株）,34.817863,137.042938
愛知県,西尾市,154,西尾市一色町対米後川21番地3,対米ちびっ子広場,34.811375,137.040909
愛知県,西尾市,155,一色町一色東前新田２９番地,所有地,34.805019,137.027344
愛知県,西尾市,156,一色町一色前新田２００番地,一色保育園,34.80653,137.027313
愛知県,西尾市,157,一色町前野荒子１００番地,ＪＡ西三河一色中部支店,34.80687,137.029556
愛知県,西尾市,158,一色町対米三斗蒔１番地６,masked,34.808327,137.034729
愛知県,西尾市,159,一色町小藪船江東１７６番地,一色しおさい広場（一色さかな広場）,34.795429,137.013275
愛知県,西尾市,160,一色町坂田新田沖向９５番地,一色中学校,34.787346,137.0215
愛知県,西尾市,161,一色町大塚大坪７１番地,用悪水路敷,34.809422,137.04361
愛知県,西尾市,162,一色町野田寄神３６番地２,道路用地（大提灯看板前）,34.801472,137.036057
愛知県,西尾市,163,一色町酒手島西前通６２番地,所有地,34.796715,137.031296
愛知県,西尾市,164,一色町野田堤外３６番地,一色東部小学校,34.797615,137.038406
愛知県,西尾市,165,一色町松木島中切２１５番地,衣崎漁業協同組合,34.795105,137.040527
愛知県,西尾市,166,一色町生田西高前２２番地２,所有地,34.790699,137.030594
愛知県,西尾市,167,一色町生田案子東４８番地１,所有地,34.787407,137.033051
愛知県,西尾市,168,一色町千間屋舗通４９番地,所有地,34.785858,137.046143
愛知県,西尾市,169,一色町佐久島波ケ崎８６番地,佐久島西渡船場（Ｂ野積場用地）,34.723488,137.034515
愛知県,西尾市,170,一色町佐久島東海道４６番地１,漁具倉庫前,34.723488,137.034515
愛知県,西尾市,171,一色町佐久島掛梨４９番地４,旧名大太陽観測所前,34.723488,137.034515
愛知県,西尾市,172,一色町佐久島東屋敷７番地,正念寺,34.723488,137.034515
愛知県,西尾市,173,一色町佐久島東屋敷８５番地,佐久島東渡船場（Ａ加工場用地）,34.723488,137.034515
愛知県,西尾市,174,吉良町大島中４４番地,フェンス,34.795189,137.048996
愛知県,西尾市,175,吉良町吉田亥改１番地１,吉田公園,34.79591,137.07019
愛知県,西尾市,176,吉良町吉田忠四郎前３８番地,離島保育園,34.792213,137.057999
愛知県,西尾市,177,吉良町吉田松木田８１番地１,フェンス,34.798424,137.067017
愛知県,西尾市,178,吉良町吉田宮前４０番地１０,宇野津ちびっこ広場,34.79903,137.060043
愛知県,西尾市,179,吉良町吉田大切間１８番地１,フェンス,34.796165,137.065643
愛知県,西尾市,180,吉良町吉田東中浜２７番地３,フェンス,34.792088,137.071487
愛知県,西尾市,181,吉良町吉田東中浜５０番地１４,シーサイド公園,34.790783,137.071091
愛知県,西尾市,182,吉良町富好新田中川並２６番地１,フェンス,34.794338,137.075684
愛知県,西尾市,183,吉良町富好新田紺屋堀６番地１,フェンス,34.792969,137.078918
愛知県,西尾市,184,吉良町富好新田沢西５９番地,北側緑地帯,34.793453,137.080963
愛知県,西尾市,185,吉良町白浜新田宮前５９番地１,北側緑地帯,34.78315,137.083282
愛知県,西尾市,186,吉良町宮崎宮前１０４番地,南防波堤,34.777248,137.087769
愛知県,西尾市,187,吉良町乙川黒岩４８番地,市道保定５８号線（法面）,34.789963,137.087555
愛知県,西尾市,188,吉良町乙川源四３６番地１,ブロック塀,34.793297,137.090103
愛知県,西尾市,189,吉良町小山田宮前３６番地,南水路敷,34.8354,137.065522
愛知県,西尾市,190,吉良町饗庭下佃１５番地,南北水路敷,34.806595,137.077042
愛知県,西尾市,191,吉良町荻原大道通１４番地１,フェンス,34.807224,137.065094
愛知県,西尾市,192,吉良町荻原桐杭１８番地１,西尾市きら市民交流センター,34.802189,137.066345
愛知県,西尾市,193,吉良町荻原小入道７７番地,西側ブロック塀,34.803612,137.054001
愛知県,西尾市,194,吉良町富田海郷53,市道横須賀１８８号線（歩道）,34.813763,137.056
愛知県,西尾市,195,吉良町富田殿海戸８７番地,南側,34.81448,137.061722
愛知県,西尾市,196,吉良町荻原烏帽子１６番地,東側フェンス,34.807804,137.062698
愛知県,西尾市,197,吉良町荻原埋畑９１番地１,西側フェンス,34.815231,137.07077
愛知県,西尾市,198,吉良町下横須賀荒子８２番地,ブロック塀,34.82056,137.057587
愛知県,西尾市,199,吉良町下横須賀柳原５６番地,西尾支所南側フェンス,34.825756,137.06842
愛知県,西尾市,200,吉良町上横須賀菱池１３番地１,西側フェンス,34.827953,137.07254
愛知県,西尾市,201,吉良町上横須賀宮腰８７番地２,東側フェンス,34.831272,137.073151
愛知県,西尾市,202,吉良町上横須賀杉ノ木３０番地,東側フェンス,34.830608,137.066528
愛知県,西尾市,203,吉良町小牧郷前５番地,駐車場西,34.82737,137.080551
愛知県,西尾市,204,吉良町中野曬稿５４番地,東側,34.82291,137.077713
愛知県,西尾市,205,吉良町岡山井戸尻１番地１,華蔵寺南駐車場,34.841164,137.081863
愛知県,西尾市,206,吉良町寺島御手洗８１番地１,ブロック塀,34.836151,137.082458
愛知県,西尾市,207,吉良町駮馬城山５９番地３,古城公園駐車場,34.834873,137.090714
愛知県,西尾市,208,吉良町津平下天神３４番地,東側フェンス,34.827221,137.100403
愛知県,西尾市,209,吉良町津平大入４７４番地,北側フェンス,34.824142,137.100739
愛知県,西尾市,210,吉良町津平中村８番地１,市道厨２６７号線沿い土木維持管理植栽,34.826439,137.096664
愛知県,西尾市,211,吉良町友国榎下１２番地１,県道沿い,34.825722,137.087921
愛知県,西尾市,212,吉良町友国舟戸８４番地,ブロック塀,34.81781,137.081696
愛知県,西尾市,213,吉良町駮馬丸山１８番地２,法面,34.830608,137.112564
愛知県,西尾市,214,吉良町宮迫四反田２番地４,宮迫神明社駐車場,34.831028,137.125565
愛知県,西尾市,215,吉良町津平前沢１９番地１,敷地,34.827415,137.111694
愛知県,西尾市,216,東幡豆町郷中８０番地４,所有地,34.803181,137.166077
愛知県,西尾市,217,東幡豆町黒田２１番地１,所有地,34.794392,137.155792
愛知県,西尾市,218,東幡豆町御堂前１１番地１,所有地,34.788979,137.162125
愛知県,西尾市,219,東幡豆町政吉９０番地先,市道幡豆５２０号線（歩道）,34.794456,137.148682
愛知県,西尾市,220,東幡豆町中柴４３番地,所有地,34.785484,137.149719
愛知県,西尾市,221,東幡豆町田中７１番地１,東幡豆小学校,34.791363,137.14856
愛知県,西尾市,222,東幡豆町小見行田２０番地３,東幡豆漁業協同組合,34.78936,137.144775
愛知県,西尾市,223,東幡豆町河原２０番地２,市川設計事務所,34.790367,137.140823
愛知県,西尾市,224,東幡豆町亀井２７番地１１,市道幡豆２４７号線（歩道）,34.790691,137.137299
愛知県,西尾市,225,西幡豆町仲田１４番地２,西尾市役所幡豆支所,34.793186,137.124893
愛知県,西尾市,226,西幡豆町刈払２８番地２,所有地,34.804626,137.126541
愛知県,西尾市,227,西幡豆町菰田８７番地２,幡豆小学校,34.795261,137.117599
愛知県,西尾市,228,西幡豆町郷１０７番地４,所有地,34.808182,137.118759
愛知県,西尾市,229,鳥羽町川坂１３番地２,所有地,34.797131,137.102554
愛知県,西尾市,230,鳥羽町古新田１６番地３８,鳥羽保育園,34.793568,137.105621
愛知県,西尾市,231,鳥羽町十三新田４６番地９１,十三新田公園,34.787762,137.102448
愛知県,西尾市,232,寺部町下宇頭１６２番地,所有地,34.784782,137.130188
愛知県,西尾市,233,寺部町西浦７０番地１,所有地,34.788044,137.120621
