prefecture,city,number,address,name,lat,long,note
愛知県,豊明市,1,沓掛町石畑１４１番地,農村環境改善センター,35.0747754,137.0342496,
愛知県,豊明市,2,沓掛町井ノ上４２番地８,masked,35.0730274,137.0384837,
愛知県,豊明市,3,沓掛町陣田４４番地１,"加藤工務店
資材置場",35.0722195,137.0358364,
愛知県,豊明市,4,沓掛町泉３１番地１,masked,35.0570723,137.0285083,
愛知県,豊明市,5,沓掛町一之御前１６番地,沓掛小学校,35.0683422,137.0265727,
愛知県,豊明市,6,沓掛町下高根３１６番地,下高根公園,35.0720169,137.0217815,緯度経度は怪しい
愛知県,豊明市,7,沓掛町中川,"中川２９０番地先
中川水路柵",35.0619855,137.0345872,
愛知県,豊明市,8,沓掛町若王子１１番地４８,若王子集会所,35.0894129,137.0255641,緯度経度は怪しい
愛知県,豊明市,9,沓掛町小廻間３７番地４,名鉄沓掛調整池,35.0771705,137.0165862,
愛知県,豊明市,10,沓掛町勅使８番地６,山田児童遊園地,35.0829528,137.0183231,緯度経度は怪しい
愛知県,豊明市,11,沓掛町徳田池下７６番地１,徳田公園,35.0747225,137.019999,
愛知県,豊明市,12,沓掛町東門,東門12番地１　地先,35.0697182,137.0233418,
愛知県,豊明市,13,沓掛町山新田４２番地２,masked,35.09330570000001,137.0180049,
愛知県,豊明市,14,沓掛町東本郷１３６番地３,本郷公会堂,35.0685048,137.0212146,
愛知県,豊明市,15,沓掛町寺内１２３番地４,株式会社GL,35.0580377,137.026161,
愛知県,豊明市,16,沓掛町宿１９４番地１,宿ふれあい広場,35.0635315,137.0175681,
愛知県,豊明市,17,新田町吉池３番地１,中央公園（北）,35.0544007,137.0169319,
愛知県,豊明市,18,新田町吉池３番地１,中央公園（南）,35.0544007,137.0169319,
愛知県,豊明市,19,新田町吉池２６番地,市役所　第２駐車場,35.0542938,137.0157449,
愛知県,豊明市,20,新田町吉池１８番地３,豊明市総合福祉会館,35.0521164,137.0149972,
愛知県,豊明市,21,新田町西筋２３３番地,調整池,35.0498662,137.0133762,
愛知県,豊明市,22,新田町森西１３番地６,中島区民会館,35.0488577,137.0220001,
愛知県,豊明市,23,新田町南山９２番地１,中立電機㈱,35.047623,137.0155301,
愛知県,豊明市,24,三崎町三崎１番地２,三崎水辺公園（南）,35.058192,137.0049767,
愛知県,豊明市,25,三崎町高鴨１４番地,"三崎総合会館
駐車場",35.053112,137.0066302,
愛知県,豊明市,26,三崎町高鴨１番地１,青い鳥保育園,35.0548126,137.0051059,
愛知県,豊明市,27,三崎町ゆたか台５番地１,ゆたか台公園,35.055891,137.0026187,
愛知県,豊明市,28,三崎町中ノ坪１９番地１,中ノ坪公園,35.05471,137.0102759,
愛知県,豊明市,29,三崎町井ノ花５番地１,"MEGAドン・キホーテ
ユニー豊明店　駐車場",35.0512498,137.0072969,
愛知県,豊明市,30,三崎町高鴨８番地１,井ノ花公園,35.053112,137.0066302,
愛知県,豊明市,31,阿野町上納１４５番地７,masked,35.04493739999999,137.0130103,
愛知県,豊明市,32,阿野町寺内５６番地４,消防団第４分団詰所,35.04348,137.0104371,
愛知県,豊明市,33,阿野町東阿野２２７番地,阿野児童遊園地,35.0449395,137.0072378,緯度経度は怪しい
愛知県,豊明市,34,阿野町稲葉,"阿野町稲葉72-16地先
琵琶ヶ池柵",35.0468336,137.0102759,
愛知県,豊明市,35,阿野町登,"登92番地１地先
瀬戸大府高架下フェンス",35.0459466,137.0063264,緯度経度は怪しい
愛知県,豊明市,36,阿野町上畑田２１番地,豊明駅前,35.0406006,137.0092125,
愛知県,豊明市,37,阿野町稲葉７１番地１,阿野ふれあい広場,35.0470301,137.0108843,
愛知県,豊明市,38,栄町裏畑４７番地１,masked,35.0472513,136.9990358,
愛知県,豊明市,39,栄町下原９１番地,masked,35.0479034,136.9953909,
愛知県,豊明市,40,栄町山ノ田１１２番地,南部児童館,35.0466735,136.9975628,
愛知県,豊明市,41,栄町寺前８３番地,寺前防火水槽,35.0431069,136.9959984,
愛知県,豊明市,42,栄町大脇７番地,笹徳印刷㈱,35.0438741,136.9972048,
愛知県,豊明市,43,栄町内山４６番地１２,大脇内山緑地,35.0471991,136.9930584,
愛知県,豊明市,44,栄町南姥子４０番地,坂畑公園,35.0490285,136.9953909,
愛知県,豊明市,45,阿野町池下,"池下92番地５地先
瀬戸大府高架下フェンス",35.0479606,137.0045036,
愛知県,豊明市,46,阿野町茶屋浦２９番地,豊明小学校,35.0493486,137.000949,
愛知県,豊明市,47,阿野町北上ノ山,椎池公園　椎池東側,35.0449395,137.0072378,緯度経度は怪しい
愛知県,豊明市,48,前後町鎗ケ名１８４１番地,㈱毛受建材,35.0514627,137.0000873,
愛知県,豊明市,49,阿野町滑,"阿野町滑65-2地先
橋脚柵",35.051219,136.9978208,
愛知県,豊明市,50,阿野町長根８４番地３,防災倉庫前フェンス,35.0464552,137.0043924,
愛知県,豊明市,51,阿野町北上ノ山,椎池公園　椎池北側,35.0449395,137.0072378,緯度経度は怪しい
愛知県,豊明市,52,前後町善江,パルネス前後　北側,35.0532324,136.9959984,
愛知県,豊明市,53,前後町善江１６５７番地１０,"碧海信用金庫
豊明支店",35.0535575,136.9969434,
愛知県,豊明市,54,前後町大代１６２６番地,豊明前後郵便局,35.053925,136.9932329,
愛知県,豊明市,55,前後町五軒屋１５１６番地５,五軒屋公園,35.0562601,136.9919856,
愛知県,豊明市,56,前後町仙人塚１７５４番地,二ッ池フェンス,35.0578507,136.9969096,緯度経度は怪しい
愛知県,豊明市,57,前後町仙人塚１７６２番地６,masked,35.0543242,136.9971682,
愛知県,豊明市,58,前後町五軒屋,五軒屋1523番地地先,35.0555418,136.9935686,
愛知県,豊明市,59,栄町殿ノ山７２番地１,"学校給食センター
栄調理場",35.0498971,136.98627,
愛知県,豊明市,60,栄町大原８０番地６,内山老人憩いの家前,35.0481708,136.990676,
愛知県,豊明市,61,栄町大根,"大根37番地１地先
防護柵",35.0481416,136.979903,緯度経度は怪しい
愛知県,豊明市,62,栄町大根１番地１５,masked,35.0495448,136.9776059,緯度経度は怪しい
愛知県,豊明市,63,栄町大根１番地１３８０,大原公園,35.0488297,136.975823,
愛知県,豊明市,64,栄町大原６０番地５,masked,35.0483779,136.9887301,
愛知県,豊明市,65,栄町殿ノ山５０番地,栄中学校,35.0492739,136.9860129,
愛知県,豊明市,66,栄町大原７９番地６,"ＪＡあいち尾東
豊明栄支店",35.0483961,136.9909303,
愛知県,豊明市,67,栄町姥子２７番地１３,桜ヶ丘ハイツ,35.0497776,136.9935097,
愛知県,豊明市,68,栄町上姥子３番地２１３,豊明栄団地フェンス,35.0522944,136.9929878,緯度経度は怪しい
愛知県,豊明市,69,栄町上姥子６番地８２,masked,35.0519809,136.9901588,
愛知県,豊明市,70,栄町九左山,"大蔵池公園
大蔵池東堤防北より",35.0517825,136.9891648,
愛知県,豊明市,71,栄町九左山,"大蔵池公園
大蔵池東堤防東より",35.0517825,136.9891648,
愛知県,豊明市,72,新栄町三丁目４６０番地,大蔵池公園,35.0506169,136.9872288,緯度経度は怪しい
愛知県,豊明市,73,新栄町一丁目１９５番地,masked,35.058111,136.988987,緯度経度は怪しい
愛知県,豊明市,74,新栄町四丁目１３３番地,石塚公園,35.0515458,136.9844578,
愛知県,豊明市,75,新栄町二丁目２９５番地,栄小学校,35.0553025,136.9893765,
愛知県,豊明市,76,新栄町二丁目３３３番地,栄保育園,35.0546161,136.9877436,
愛知県,豊明市,77,新栄町三丁目４０９番地１,"碧海信用金庫
豊明南支店",35.0519898,136.9853498,
愛知県,豊明市,78,新栄町三丁目３００番地,落合公園,35.0538314,136.9864563,
愛知県,豊明市,79,新栄町七丁目３７７番地,山ノ神公園,35.057555,136.9859761,
愛知県,豊明市,80,間米町鶴根１２１２番地６６,西部保育園,35.0633861,136.9946834,
愛知県,豊明市,81,間米町敷田１２２５番地１８０,masked,35.0624958,136.9899491,緯度経度は怪しい
愛知県,豊明市,82,前後町三ツ谷１２９３番地,"旧豊ヶ岡学園
南側フェンス",35.0617069,136.9873681,
愛知県,豊明市,83,前後町大狭間１４７５番地,大宮小学校,35.0600563,136.9938628,
愛知県,豊明市,84,前後町仙人塚１７３６番地１５５,仙人塚集会所,35.0571919,136.9954692,
愛知県,豊明市,85,前後町大狭間,"大宮小学校
北側地下道",35.060752,136.9932648,
愛知県,豊明市,86,間米町榎山８８９番地１７,榎山公園,35.0608308,136.9952124,
愛知県,豊明市,87,栄町武侍６番地３,"大高有松線
第４号鉄塔",35.0611043,136.9782235,緯度経度は怪しい
愛知県,豊明市,88,栄町南舘３番地７５８,舘小学校（西）,35.0529189,136.97996,緯度経度は怪しい
愛知県,豊明市,89,栄町南舘３番地５７２,舘西公民館,35.0606876,136.9787089,緯度経度は怪しい
愛知県,豊明市,90,栄町南舘５９番地３６,舘中公園,35.0566472,136.9754835,
愛知県,豊明市,91,栄町南舘３番地７５８,舘小学校（東）,35.0529189,136.97996,緯度経度は怪しい
愛知県,豊明市,92,栄町南舘１１番地,桶狭間古戦場跡,35.0600206,136.9807902,
愛知県,豊明市,93,栄町西大根３０番地２７３,舘保育園,35.0536615,136.9775036,緯度経度は怪しい
愛知県,豊明市,94,二村台７丁目３３番地４,masked,35.0690494,137.0121279,
愛知県,豊明市,95,二村台７丁目４７番地,荒巻水辺公園(北),35.0687435,137.0114912,
愛知県,豊明市,96,二村台７丁目４７番地,荒巻水辺公園(南),35.0687435,137.0114912,
愛知県,豊明市,97,二村台７丁目１３番地,"皿池公園（南）
防火水槽前",35.0694412,137.0108171,
愛知県,豊明市,98,二村台６丁目１番地１,豊明団地21棟の横付近,35.068875,137.0044677,緯度経度は怪しい
愛知県,豊明市,99,二村台７丁目１３番地,皿池公園（北）,35.0694412,137.0108171,
愛知県,豊明市,100,二村台７丁目３番地,二村台小学校,35.0681801,137.00844,
愛知県,豊明市,101,二村台５丁目１番地１,豊明団地１棟の前付近,35.0660019,137.0075226,
愛知県,豊明市,102,二村台５丁目１番地１,豊明団地７棟の横付近,35.0660019,137.0075226,
愛知県,豊明市,103,二村台５丁目１番地１,豊明団地15棟の前付近,35.0660019,137.0075226,
愛知県,豊明市,104,二村台４丁目１７番地１１,自治会駐車場　５Ａ,35.0643031,137.0090606,
愛知県,豊明市,105,二村台４丁目１９番地,森裏公園,35.0653318,137.0093232,
愛知県,豊明市,106,二村台４丁目１２番地８,masked,35.0647515,137.0114147,
愛知県,豊明市,107,二村台４丁目４番地２０,masked,35.0633852,137.0095733,
愛知県,豊明市,108,二村台３丁目１番地１,豊明団地55棟の横付近,35.0642006,137.0073281,
愛知県,豊明市,109,二村台３丁目２番地,唐竹公園,35.0649549,137.005415,
愛知県,豊明市,110,二村台３丁目１番地１,二村台保育園,35.0642006,137.0073281,
愛知県,豊明市,111,二村台３丁目１番地１,豊明団地52棟の前付近,35.0642006,137.0073281,
愛知県,豊明市,112,二村台１丁目２７番地,豊明市共生交流プラザ,35.0626202,137.0024152,
愛知県,豊明市,113,二村台１丁目７番地,八ツ屋公園,35.0605144,137.0029847,
愛知県,豊明市,114,二村台１丁目１４番地３,八ツ屋老人憩いの家,35.0601497,137.0012956,
愛知県,豊明市,115,新田町門先１０番地１０,中部保育園,35.051787,137.0182898,
愛知県,豊明市,116,新田町広長１１番地,吉池団地東公園,35.0539374,137.0187835,
愛知県,豊明市,117,新田町広長１５番地,吉池団地西公園,35.0539374,137.0187835,
愛知県,豊明市,118,大久伝町西６０番地１,新田公園,35.0547872,137.0209428,
愛知県,豊明市,119,大久伝町南13番地1,大久伝公園,35.0515663,137.0236457,
愛知県,豊明市,120,大久伝町南１９番地７,大久伝老人憩いの家,35.0523496,137.0244314,
愛知県,豊明市,121,新田町前原１番地,"ナビライフ敷地内
遊園地",35.0501271,137.0226421,
愛知県,豊明市,122,沓掛町荒井１９番地１,荒井公園,35.0584983,137.0163526,
愛知県,豊明市,123,西川町長田１６番地８,どんぐり学園跡地,35.0610231,137.0143335,
愛知県,豊明市,124,西川町笹原２１番地１０,笹原職員駐車場,35.058618,137.0114912,
愛知県,豊明市,125,西川町笹原２６番地１,福祉体育館,35.059328,137.0122842,
愛知県,豊明市,126,三崎町三崎１番地１,三崎水辺公園（西）,35.058192,137.0049767,
愛知県,豊明市,127,二村台２丁目１０番地,池浦公園,35.0621126,137.0066302,
愛知県,豊明市,128,二村台２丁目３２番地,善波公園,35.0627407,137.0084867,
愛知県,豊明市,129,新栄町七丁目１５２番地,masked,35.0583547,136.9861764,
愛知県,豊明市,130,栄町山ノ神２２番地７,"桶狭間
小規模老人憩いの家",35.0579452,136.9833001,
愛知県,豊明市,131,新栄町六丁目２２０番地,はざま公園（南）,35.05536439999999,136.9835468,
愛知県,豊明市,132,新栄町六丁目２２２番地１・３,masked,35.05536439999999,136.9835468,
愛知県,豊明市,133,栄町南舘３番地１０６０,masked,35.0575201,136.9815178,緯度経度は怪しい
愛知県,豊明市,134,栄町南舘２７６番地２,masked,35.0592534,136.9846382,
愛知県,豊明市,135,新栄町六丁目２２０番地,はざま公園（北）,35.05536439999999,136.9835468,
