prefecture,city,number,address,name,lat,long
愛知県,豊田市,1,西町３－６０,市役所前駐車場の北側,35.082838,137.156528
愛知県,豊田市,2,元城町１－４３,元城駐車場北側,35.050584,137.112282
愛知県,豊田市,3,元城町１－５１－１,桜城址公園,35.082748,137.158316
愛知県,豊田市,4,元城町４－２－１,南庁舎入り口,35.082569,137.157051
愛知県,豊田市,5,挙母町３－５９,視聴覚ライブリー駐車場植栽,35.081169,137.161697
愛知県,豊田市,6,十塚町５－４３－２,スカイホール南西側緑地帯,35.080219,137.16214
愛知県,豊田市,7,挙母町５－５８,挙母こども園西側歩道沿い,35.084515,137.162994
愛知県,豊田市,8,若宮町８－７,愛環新豊田駅前,35.087655,137.154193
愛知県,豊田市,9,喜多町４－４５,旧近代の産業とくらし発見館西側入り口,35.14832,137.319865
愛知県,豊田市,10,喜多町６－３－２４,名四国道事務所豊田（出）駐車場,35.08672,137.15964
愛知県,豊田市,11,若宮町２－１４－１,若宮ちびっこ広場,35.082108,137.157336
愛知県,豊田市,12,竹生町２－２－１１,竹生町２丁目交差点,35.091579,137.159988
愛知県,豊田市,13,久保町３－２７－２４,児の口公園（国道沿い）,35.158252,137.268598
愛知県,豊田市,14,若宮町６－２－５,若宮こども園東側フェンス,35.082108,137.157336
愛知県,豊田市,15,月見町１－３,月見公園(西),35.089477,137.152821
愛知県,豊田市,16,日南町４－３０－１,日南公園,35.093754,137.149994
愛知県,豊田市,17,陣中町１－２２－７,こまどり公園,35.093479,137.159866
愛知県,豊田市,18,陣中町２－１０－１,陣中公園(西),35.094681,137.165268
愛知県,豊田市,19,日之出町２－９－１８,日之出ちびっこ広場,35.088851,137.16388
愛知県,豊田市,20,平芝町１－１－１,挙母小学校西交差点付近,35.092663,137.157074
愛知県,豊田市,21,平芝町３－６,岩畑公園(東),35.095757,137.158447
愛知県,豊田市,22,栄町５－１６,栄町公園,35.102452,137.168815
愛知県,豊田市,23,梅坪町１－１５－２,梅坪台交流館,35.105751,137.160614
愛知県,豊田市,24,梅坪町１－１４－１,梅坪こども園,35.10553,137.159637
愛知県,豊田市,25,梅坪町６－８,田古屋公園,35.100666,137.159073
愛知県,豊田市,26,梅坪町２－４,下町公園,35.103477,137.160416
愛知県,豊田市,27,東梅坪町４－１１,高宮公園,35.105614,137.167984
愛知県,豊田市,28,東梅坪町６－７,中河原公園,35.101643,137.165833
愛知県,豊田市,29,東梅坪町１０－７－７,梅坪公園(北),35.099384,137.164719
愛知県,豊田市,30,京町３－１０８,和合公園,35.110667,137.16801
愛知県,豊田市,31,京町５－１０,京町公園,35.08302,137.158366
愛知県,豊田市,32,京町７－１９,白山公園,35.107587,137.162513
愛知県,豊田市,33,上原町上原９０－２,上原町上原南交差点付近,35.110195,137.16626
愛知県,豊田市,34,朝日町５－１２－８,朝日団地北ちびっこ広場,35.096429,137.143301
愛知県,豊田市,35,朝日町６－１,朝日小学校北側,35.051311,137.069276
愛知県,豊田市,36,栄町１－７－１,パルクとよた,35.100544,137.15289
愛知県,豊田市,37,栄町２－６－１,崇化館中学校,35.085596,137.15437
愛知県,豊田市,38,栄町３－３３,栄町ちびっこ広場,35.096863,137.152816
愛知県,豊田市,39,栄町４－５－２６,栄団地ちびっこ広場,35.095937,137.151816
愛知県,豊田市,40,西山町５－１,西山公園,35.134517,137.177209
愛知県,豊田市,41,西山町５－２－８,豊田配水場,35.102205,137.154846
愛知県,豊田市,42,平芝町４－１２,平芝坂の上公園,35.098866,137.154465
愛知県,豊田市,43,横山町４－２６－３２,横山団地ちびっこ広場,35.100786,137.18752
愛知県,豊田市,44,朝日町４－３－２１,朝日北ちびっこ広場,35.142875,137.244601
愛知県,豊田市,45,小坂町１－１,毘森公園（おいでんバス朝日町２丁目停留所付近）,35.090031,137.147797
愛知県,豊田市,46,小坂町２－２８－１,毘森公園グラウンド入口,35.089268,137.146332
愛知県,豊田市,47,小坂町３－５－２,小坂町３丁目ちびっこ広場,35.090698,137.14328
愛知県,豊田市,48,小坂町７－１６－５,小坂区民会館,35.087376,137.145538
愛知県,豊田市,49,小坂町１２－２６－１,枝下緑道(北),35.082108,137.148499
愛知県,豊田市,50,小坂本町１－８５－１,市営新豊田駅西駐車場,35.087734,137.153
愛知県,豊田市,51,小坂本町４－３,仲田公園西,35.084431,137.152664
愛知県,豊田市,52,朝日ｹ丘１－１７－１４,masked,35.102243,137.167111
愛知県,豊田市,53,衣ヶ原１－１,トヨタ自動車(株)元町工場,35.077877,137.128845
愛知県,豊田市,54,三軒町５－１５－１,三軒町区民会館,35.084846,137.137726
愛知県,豊田市,55,三軒町６－２２－１,衣丘小学校北,35.084667,137.141281
愛知県,豊田市,56,三軒町７－３９－１,八ツ迫山墓前,35.0835,137.139572
愛知県,豊田市,57,広久手町１－３６,masked,35.081093,137.128494
愛知県,豊田市,58,広久手町７－３－４,回転すしスシロー駐車場フェンス,35.082497,137.135559
愛知県,豊田市,59,朝日ｹ丘４－１９,masked,35.104849,137.153617
愛知県,豊田市,60,樹木町４－６－１,樹木公園,35.076984,137.149185
愛知県,豊田市,61,樹木町４－６－１,樹木公園（小坂町１６丁目交差点付近）,35.076984,137.149185
愛知県,豊田市,62,樹木町２－１１,陽龍寺駐車場,35.077168,137.151413
愛知県,豊田市,63,樹木町３－８０,樹木町３丁目旧道交差点,35.077212,137.1514
愛知県,豊田市,64,新生町２－１８,新生公園グラウンド,35.069852,137.141941
愛知県,豊田市,65,司町３－６１－１,ジョイナスつかさ,35.085045,137.139603
愛知県,豊田市,66,常盤町１－６,名鉄バス樹木台停留所付近畑,35.020679,137.113343
愛知県,豊田市,67,御幸町１－６０,童子山小学校南,35.056591,137.127587
愛知県,豊田市,68,曙町１－７,土橋曙東公園,35.058745,137.133238
愛知県,豊田市,69,清水町５－３８－１,トヨタ紡織（株）従業員駐車場Ｐ－２,35.086931,137.144763
愛知県,豊田市,70,聖心町４－１１－６８,聖心北ちびっ子広場,35.061138,137.119293
愛知県,豊田市,71,土橋町６－２８－１,土橋公園北側,35.061207,137.125809
愛知県,豊田市,72,土橋町６－１１７,土橋小学校,35.059834,137.123581
愛知県,豊田市,73,土橋町７－１１４－２,土橋公園テニスコート前,35.060566,137.126144
愛知県,豊田市,74,土橋町４－８７,土橋区事務所（神社所有地）,35.061546,137.128952
愛知県,豊田市,75,秋葉町６－７９－３４,秋葉団地ちびっこ広場,35.062798,137.171387
愛知県,豊田市,76,金谷町１－１１６,勝手神社,35.073708,137.155579
愛知県,豊田市,77,金谷町４－５７,金谷ふれあい広場,35.070526,137.154938
愛知県,豊田市,78,長興寺５－１７－１,豊田市消防本部,35.068466,137.167664
愛知県,豊田市,79,下林町６－７２,勤労者青年共同宿舎跡地,35.068104,137.1651
愛知県,豊田市,80,下林町７－３０,根川小学校,35.066875,137.164551
愛知県,豊田市,81,下林町７－４１,根川こども園,35.066875,137.164551
愛知県,豊田市,82,下市場町４－２０,下市場町５丁目交差点付近,35.123656,137.186675
愛知県,豊田市,83,長興寺１－１１－２,豊田市中部ポンプ場入口,35.073586,137.168732
愛知県,豊田市,84,長興寺６－３３－３,長興寺バス停,35.066406,137.166611
愛知県,豊田市,85,元宮町４－１,水道サービス協会,35.047384,137.141657
愛知県,豊田市,86,今町６－１５－４,今町西ちびっ子広場,35.075005,137.153391
愛知県,豊田市,87,今町７－８０,今本町郷中広場,35.039993,137.170441
愛知県,豊田市,88,河合町３－２２－３６,河合団地ちびっこ広場,35.044558,137.163334
愛知県,豊田市,89,河合町７－１,市道内花壇用地,35.041445,137.166676
愛知県,豊田市,90,水源町１－１１,豊南交流館駐車場法面,35.051849,137.169235
愛知県,豊田市,91,水源町３－１－６１,水源団地北ちびっこ広場,35.049187,137.170074
愛知県,豊田市,92,水源町４－１－３６,水源団地南ちびっこ広場,35.046211,137.172516
愛知県,豊田市,93,水源町６－１－５５,水源東ちびっこ広場,35.047489,137.174149
愛知県,豊田市,94,渡合町３－１０３,渡合区民会館向かい,35.039257,137.176804
愛知県,豊田市,95,前山町１－２４,前山小学校,35.051102,137.167938
愛知県,豊田市,96,前山町３－９－１０,前山町ちびっこ広場,35.048103,137.164902
愛知県,豊田市,97,明和町６－５０－８,明和町東ちびっこ広場,35.042972,137.162186
愛知県,豊田市,98,秋葉町８－２１－３９,秋葉団地東ちびっこ広場,35.060894,137.17395
愛知県,豊田市,99,トヨタ町１０－１,第２、第３平山寮フェンス,35.055363,137.169418
愛知県,豊田市,100,トヨタ町１１－５,平山駐車場,35.053452,137.169937
愛知県,豊田市,101,トヨタ町５２２－１,レジデンス平山南側,35.05722,137.170609
愛知県,豊田市,102,平和町４－４８－１,トヨタ記念病院南,35.055023,137.176924
愛知県,豊田市,103,秋葉町８－７－５９,秋葉団地南ちびっこ広場,35.059616,137.173447
愛知県,豊田市,104,平和町６－１０－２,平和小学校北平和給食センター南,35.0542,137.178207
愛知県,豊田市,105,平山町１－１０－１,平山こども園北側,35.058559,137.17131
愛知県,豊田市,106,平山町４－１６－２,平山公園前のフェンス,35.05518,137.174133
愛知県,豊田市,107,寿町４－２２,ＮＴＴ南サイクリングロード入り口,35.056385,137.151089
愛知県,豊田市,108,山之手３－１３０－３,山之手３丁目公園,35.057461,137.150528
愛知県,豊田市,109,山之手４－１,山之手４丁目公園北西,35.056561,137.148422
愛知県,豊田市,110,山之手６－６,山之手小学校東北,35.057384,137.143707
愛知県,豊田市,111,山之手６－６,山之手小学校南東歩道橋付近,35.057384,137.143707
愛知県,豊田市,112,山之手６－７６－８,山之手子供の森公園北東,35.056267,137.144272
愛知県,豊田市,113,山之手７－６４－１,山之手公園,35.054604,137.142883
愛知県,豊田市,114,山之手８－１５５,大徳公園,35.054539,137.147964
愛知県,豊田市,115,丸山町４－３－４５,masked,35.063047,137.149758
愛知県,豊田市,116,丸山町５－５－２,丸山公園東側,35.064104,137.146979
愛知県,豊田市,117,丸山町６－２６,トヨタホーム丸山展示場第２会場,35.061017,137.147848
愛知県,豊田市,118,丸山町７－５１,丸山グラウンド南側,35.061913,137.14621
愛知県,豊田市,119,丸山町９－４８－１,丸山第３駐車場,35.060204,137.147369
愛知県,豊田市,120,丸山町１０－１０－３,丸山第２駐車場,35.060424,137.149654
愛知県,豊田市,121,緑ヶ丘２－３６,緑ケ丘児童遊園地,35.062562,137.141766
愛知県,豊田市,122,山之手１－７８－１,山之手こども園南駐車場法面,35.059428,137.14404
愛知県,豊田市,123,千足町神明堂９８４－１９０,千足団地中央ちびっこ広場向かい,35.089756,137.111679
愛知県,豊田市,124,千足町比丘尻９５３－４２,千足団地西ちびっこ広場,35.088726,137.10968
愛知県,豊田市,125,千足町５－４４－３,遊園地北雑種地,35.080715,137.106384
愛知県,豊田市,126,千足町１０－７１,川端集会所横,35.074596,137.10791
愛知県,豊田市,127,本地町２－６０－１,本地こども園,35.075764,137.114548
愛知県,豊田市,128,本地町３－５８－８,本地町東ちびっこ広場,35.073372,137.116531
愛知県,豊田市,129,本地町６－１０８,本地町７丁目交差点付近,35.073261,137.111176
愛知県,豊田市,130,本新町７－４８－２,西部コミュニティセンター入口,35.078655,137.117584
愛知県,豊田市,131,本新町６－４－１,本地新田区民会館,35.081395,137.119815
愛知県,豊田市,132,本新町７－５０－３,豊田ほっとかん,35.078922,137.116623
愛知県,豊田市,133,田町２－８１,小清水小学校,35.086888,137.123214
愛知県,豊田市,134,新町３－７７－１３,新町３丁目ちびっこ広場,35.083695,137.127864
愛知県,豊田市,135,宮上町２－１１２－１,宮上公園駐車場,35.091862,137.136536
愛知県,豊田市,136,宮上町２－１８,masked,35.093018,137.137665
愛知県,豊田市,137,宮上町７－５,宮口上区民会館,35.090809,137.132553
愛知県,豊田市,138,宮町５－１３－３,宮町児童遊園,35.086789,137.130513
愛知県,豊田市,139,高崎町兼近７０,公設卸売市場,35.094051,137.116684
愛知県,豊田市,140,天王町５－１０５－１,天王ちびっこ広場,35.072947,137.131504
愛知県,豊田市,141,久岡町５－２０－１２,天王団地ちびっこ広場,35.101021,137.128784
愛知県,豊田市,142,宮口町１－１７７,宮口一色区民会館,35.096344,137.125763
愛知県,豊田市,143,宮口町２－５０,宮口こども園駐車場,35.095703,137.128265
愛知県,豊田市,144,柿本町６－６１－４,柿本のぞみ橋手前市有地交差点,35.07309,137.123322
愛知県,豊田市,145,柿本町２－１５－４,柿本町第１ちびっこ広場,35.075993,137.122803
愛知県,豊田市,146,柿本町４－１３－１,駐車場前,35.075199,137.12674
愛知県,豊田市,147,柿本町８－１－１,㈱シモダ中部フェンス,35.070969,137.125595
愛知県,豊田市,148,深田町１－２６,深田電気入り口,35.068813,137.126175
愛知県,豊田市,149,深田町１－２８－１,駐車場法面,35.068947,137.127228
愛知県,豊田市,150,深田町３－５０－１,トヨタ輸送(株)第２豊田寮前,35.064068,137.123566
愛知県,豊田市,151,深田町４－２５,深田公園北,35.065437,137.119476
愛知県,豊田市,152,聖心町１－７－３,アリビオ聖心東側,35.061104,137.117416
愛知県,豊田市,153,聖心町１－６－１,レジデンス聖心棟南側西,35.062439,137.114197
愛知県,豊田市,154,聖心町１－６－１２,第２聖心清風東寮南豊田南バイパス高架付近,35.062439,137.114197
愛知県,豊田市,155,田中町１－１３２,田中山公園東側,35.068508,137.112396
愛知県,豊田市,156,田中町３－９９,田中町３丁目調整池,35.066811,137.112762
愛知県,豊田市,157,田中町５－３６－４２,田中町５丁目ちびっこ広場,35.064381,137.111359
愛知県,豊田市,158,美山町４－１,美山小学校南,35.068222,137.117538
愛知県,豊田市,159,美山町４－１,美山小学校北,35.068222,137.117538
愛知県,豊田市,160,上野町５－４,藤塚公園,35.089341,137.17115
愛知県,豊田市,161,上野町７－５４,神明神社入口北側,35.089328,137.178506
愛知県,豊田市,162,京ケ峰１－１－１,masked,35.092168,137.189106
愛知県,豊田市,163,京ケ峰１－２４－３,事業団宿舎南公園,35.091187,137.187744
愛知県,豊田市,164,高橋町１－９６,豊田則定線２号公園予定地北,35.092743,137.176697
愛知県,豊田市,165,高橋町３－１００,高橋交流館,35.093906,137.180954
愛知県,豊田市,166,高上１－１１－１,高橋西公園北,35.092167,137.181564
愛知県,豊田市,167,高上２－１５－１,高橋東公園東,35.091373,137.185532
愛知県,豊田市,168,寺部町３－５,寺部町東ふれあい広場,35.093636,137.173706
愛知県,豊田市,169,百々町４－２０,平井こども園,35.104549,137.191345
愛知県,豊田市,170,百々町５－６０,平井小学校西,35.103798,137.19487
愛知県,豊田市,171,百々町８－３２－４１,百々第１ちびっこ広場,35.105446,137.196182
愛知県,豊田市,172,平井町６－７２－１,平井町ふれあい広場,35.100858,137.189111
愛知県,豊田市,173,扶桑町１－４６,ふれあい広場,35.116695,137.193558
愛知県,豊田市,174,扶桑町５－４０,扶桑公園,35.109051,137.193771
愛知県,豊田市,175,美和町２－３,市営美和団地駐車場,35.101181,137.19426
愛知県,豊田市,176,美和町３－３－１,県営美和団地公園,35.102276,137.195496
愛知県,豊田市,177,市木町１－２４－１,谷下公園,35.094234,137.19281
愛知県,豊田市,178,市木町２－３,かけした公園,35.096733,137.192825
愛知県,豊田市,179,市木町３－１７,入山公園,35.096451,137.197433
愛知県,豊田市,180,市木町５－１１－１,桑原公園,35.096474,137.200775
愛知県,豊田市,181,市木町８－１－１,市木小学校,35.094692,137.196854
愛知県,豊田市,182,市木町１０－１９,市木南公園,35.092564,137.194824
愛知県,豊田市,183,市木町堂外戸１,masked,35.098652,137.189804
愛知県,豊田市,184,双美町１－１,ふれあい広場（ちびっこ広場）,35.098408,137.201141
愛知県,豊田市,185,池田町北投５０３－７,池田町児童広場,35.106125,137.21344
愛知県,豊田市,186,岩滝町高入３６－１,東分署,35.100857,137.20015
愛知県,豊田市,187,岩滝町滝坂４１６－８２,岩滝団地西ちびっこ広場,35.100468,137.211105
愛知県,豊田市,188,池田町小山田４９４－２４,豊田市交通安全学習センター,35.103943,137.209076
愛知県,豊田市,189,矢並町宮脇５０５,深見巌北隣,35.093277,137.227661
愛知県,豊田市,190,矢並町広畑８６４－４５,矢並町区民会館,35.097919,137.224884
愛知県,豊田市,191,矢並町大坪９０１－７,矢並小学校,35.099079,137.23056
愛知県,豊田市,192,矢並町法沢６８８－６１,法沢団地ちびっこ広場,35.101662,137.227509
愛知県,豊田市,193,矢並町香沢１８７－１,矢並町ちびっこ広場入口,35.098297,137.235855
愛知県,豊田市,194,山中町コンノウ２８７,津嶋神社付近,35.110282,137.2507
愛知県,豊田市,195,山中町日陰３６４,山中町ちびっこ広場,35.108437,137.255728
愛知県,豊田市,196,神池町２－１１９２－１１,masked,35.07357,137.18425
愛知県,豊田市,197,神池町２－１２３６－１７５,神池台団地中央ちびっこ広場,35.074726,137.18483
愛知県,豊田市,198,神池町２－１２３６－３４３,宝来南公園南西側,35.074726,137.18483
愛知県,豊田市,199,野見町１０－４８,野見児童館,35.070038,137.17897
愛知県,豊田市,200,野見町１２－１,野見小学校,35.073372,137.180176
愛知県,豊田市,201,野見山町３－２７－２８,野見山北公園,35.068535,137.18515
愛知県,豊田市,202,野見山町３－２７－１３０,野見山南公園,35.068535,137.18515
愛知県,豊田市,203,御立町５－３４,御立児童館,35.075893,137.177582
愛知県,豊田市,204,美里５－２－１,美里交流館駐車場,35.077683,137.180479
愛知県,豊田市,205,美里５－１９,野見こども園,35.074895,137.180905
愛知県,豊田市,206,美里５－１４,神池公園入り口,35.078944,137.183437
愛知県,豊田市,207,広川町１０－１８５地先,ドッラグスギヤマ美里店前,35.082584,137.181168
愛知県,豊田市,208,渋谷町１－１２－１,広川台小学校,35.083149,137.182861
愛知県,豊田市,209,広川町７－９６,広川公園,35.085388,137.179916
愛知県,豊田市,210,美里１－１５,南山公園,35.080524,137.183212
愛知県,豊田市,211,美里２－２１,唐池公園,35.080765,137.1866
愛知県,豊田市,212,広川町９－１５２,入沢公園,35.081512,137.180038
愛知県,豊田市,213,美里４－６－３,美里中学校サブグランド,35.078198,137.183249
愛知県,豊田市,214,美里６－１－１,森池法面,35.079529,137.1808
愛知県,豊田市,215,室町３－９８,下野見児童館前,35.054412,137.18225
愛知県,豊田市,216,大見町３－１４４－４,大見町児童館西の畑,35.058792,137.193893
愛知県,豊田市,217,室町６－５７－６,水防倉庫,35.051601,137.183716
愛知県,豊田市,218,泉町梅ケ根２４２－７３,梅ケ根団地西ちびっこ広場,35.069569,137.191666
愛知県,豊田市,219,泉町林畦７地先,泉区民会館向かい,35.070702,137.193985
愛知県,豊田市,220,泉町２－３－８,泉公園,35.071835,137.189626
愛知県,豊田市,221,古瀬間町鳥ケ峰371-33,古瀬間団地公園東側,35.078648,137.201935
愛知県,豊田市,222,古瀬間町鳥ケ峰371-144,古瀬間団地東ちびっこ広場西,35.078648,137.201935
愛知県,豊田市,223,古瀬間町中峯８３－４,古瀬間区民会館前,35.074615,137.205933
愛知県,豊田市,224,志賀町香九礼１－２８５,志賀ニュ-タウン２号公園南,35.076263,137.190155
愛知県,豊田市,225,志賀町香九礼１－５００,志賀団地ちびっこ広場,35.076263,137.190155
愛知県,豊田市,226,志賀町高洞１１－２３７,志賀ニュ-タウン３号公園北側,35.07338,137.192642
愛知県,豊田市,227,志賀町稔台２６－２,益富交流館,35.069832,137.198257
愛知県,豊田市,228,志賀町神上り３１－４,masked,35.076035,137.196442
愛知県,豊田市,229,五ケ丘１－１１,さんぼんまつ公園,35.062523,137.188583
愛知県,豊田市,230,五ケ丘１－３１,けやきだい公園,35.059433,137.188934
愛知県,豊田市,231,五ケ丘２－４,いわやま公園,35.066494,137.191055
愛知県,豊田市,232,五ケ丘３－８,ふたつやま交園,35.064281,137.193832
愛知県,豊田市,233,五ケ丘４－２,五ケ丘小学校正門,35.061413,137.190201
愛知県,豊田市,234,五ケ丘５－１６－１,五ケ丘公園,35.06155,137.194672
愛知県,豊田市,235,五ケ丘６－１,五ケ丘運動広場,35.061275,137.197525
愛知県,豊田市,236,五ケ丘８－１,五ケ丘東小学校,35.06469,137.198975
愛知県,豊田市,237,五ケ丘７－６,五ケ丘第３ちびっ子広場,35.062904,137.201782
愛知県,豊田市,238,京ケ峰２－１－２２３,京ケ峰西児童遊園,35.089635,137.194668
愛知県,豊田市,239,京ケ峰２－１－２３４,京ケ峰団地ちびっこ広場,35.089635,137.194668
愛知県,豊田市,240,渋谷町２－３７－３,えぷろん渋谷店向かい,35.085892,137.188736
愛知県,豊田市,241,渋谷町３－８,東山小学校入り口南側,35.083954,137.191757
愛知県,豊田市,242,東山町２－１５５６－１１０,masked,35.087627,137.190201
愛知県,豊田市,243,東山町４－１１１７－４４,東山団地公園,35.088024,137.192627
愛知県,豊田市,244,宝来町４－７５８－１０,勤労者体育センタ-,35.080055,137.191422
愛知県,豊田市,245,宝来町４－７５８－２４６,宝来交差点南空地,35.080055,137.191422
愛知県,豊田市,246,美里３－１９,宝来北公園,35.082191,137.18869
愛知県,豊田市,247,豊栄町２－４８－７,豊栄一区区民会館ふれあい広場,35.049213,137.156219
愛知県,豊田市,248,豊栄町３－１２０,藤藪こども園,35.047012,137.156296
愛知県,豊田市,249,豊栄町５－１２１－1,豊栄町児童遊園,35.047062,137.153137
愛知県,豊田市,250,豊栄町８－３６－１,弥栄児童館,35.039341,137.149719
愛知県,豊田市,251,豊栄町９－６６－１,masked,35.041187,137.151825
愛知県,豊田市,252,豊栄町１１－３６－１,末野原交流館北側フェンス,35.041656,137.146484
愛知県,豊田市,253,明和町４－７－２６,明和町第４ちびっこ広場,35.045115,137.160072
愛知県,豊田市,254,永覚町下山畑３３－１,永覚第1児童遊園,35.019119,137.136368
愛知県,豊田市,255,鴛鴨町畔畑２２７,寿恵野こども園,35.02932,137.151459
愛知県,豊田市,256,鴛鴨町新林５１－１,鴛鴨町区民会館,35.030285,137.145706
愛知県,豊田市,257,鴛鴨町東屋敷５０,寿恵野小学校,35.028534,137.152145
愛知県,豊田市,258,鴛鴨町中屋敷１４－２,若宮八幡社管理契約駐車場,35.026569,137.149094
愛知県,豊田市,259,幸町大唐島113,幸町ふれあい広場北側,35.01849,137.153778
愛知県,豊田市,260,幸町隣松寺１９０,常夜灯東,35.016159,137.143829
愛知県,豊田市,261,渡刈町下細畔３－７７,渡刈団地ちびっこ広場,35.033951,137.160583
愛知県,豊田市,262,渡刈町北田６２－２１,渡刈町区民会館,35.03133,137.15979
愛知県,豊田市,263,渡刈町３－３－１,豊野高校,35.036758,137.156738
愛知県,豊田市,264,鴛鴨町上大岨６－４２,鴛鴨団地ちびっこ広場,35.039757,137.143143
愛知県,豊田市,265,永覚新町２－１,永覚アパ-ト南,35.037418,137.140869
愛知県,豊田市,266,永覚新町１－５１－１,永覚レジデンス南,35.038776,137.139816
愛知県,豊田市,267,永覚新町２－１,永覚アパ-ト東,35.037418,137.140869
愛知県,豊田市,268,永覚新町３－３３－１,永覚新町区民会館,35.03904,137.138184
愛知県,豊田市,269,永覚新町５－１９２,永覚新町ふれあい広場,35.036259,137.136871
愛知県,豊田市,270,畝部西町新田屋敷２４,畝部小学校,35.009464,137.154648
愛知県,豊田市,271,畝部西町柳原１－６４,川田団地北ちびっこ広場,35.005627,137.151306
愛知県,豊田市,272,畝部東町宗定１１７－１,宗定ちびっこ広場,34.999641,137.160889
愛知県,豊田市,273,畝部西町藪下８４－１,masked,35.009445,137.153061
愛知県,豊田市,274,畝部東町川田１－７７,川田団地中央ちびっこ広場,35.002312,137.149582
愛知県,豊田市,275,畝部東町采女５６－１,（株）イヨダ前,35.005363,137.161728
愛知県,豊田市,276,配津町蔵前５１,配津町ちびっこ広場,35.014946,137.155029
愛知県,豊田市,277,桝塚東町中郷５７－１,桝塚東町区民会館南,34.997662,137.143051
愛知県,豊田市,278,上郷町会下山５９,masked,35.00687,137.134857
愛知県,豊田市,279,上郷町２－９－１,ぐみの木公園西側,35.015423,137.130219
愛知県,豊田市,280,上郷町５－２１－１２,上郷土地改良会館,35.011692,137.13385
愛知県,豊田市,281,上郷町４－４－１,上野公園,35.010044,137.132507
愛知県,豊田市,282,上郷町４－５－１,上郷中学校東,35.009178,137.133255
愛知県,豊田市,283,上郷町４－８－１,小畔公園,35.007587,137.132614
愛知県,豊田市,284,上郷町５－１－１,上郷コミュニテイセンタ-西側,35.016644,137.135574
愛知県,豊田市,285,大成町１,トヨタ自動車上郷工場,35.028621,137.127183
愛知県,豊田市,286,桝塚西町南山９７－１,桝塚西町区民会館南側,35.002426,137.136703
愛知県,豊田市,287,桝塚西町郷西３２,桝塚西町ふれあい広場,35.002888,137.133926
愛知県,豊田市,288,和会町長田３－１,南消防署,35.017345,137.118332
愛知県,豊田市,289,和会町郷前７,上和会ふれあい広場,35.012478,137.123138
愛知県,豊田市,290,和会町岩谷４５－３,中和会ふれあい広場,35.007252,137.111298
愛知県,豊田市,291,和会町鳥手１６７,高嶺こども園,35.008503,137.124237
愛知県,豊田市,292,和会町西郷３６,下和会ふれあい広場,35.006104,137.110809
愛知県,豊田市,293,広美町中之切２４,広美町集落センター川沿い,35.003063,137.11702
愛知県,豊田市,294,広美町北繁８９,広美町ふれあい広場,35.00069,137.115097
愛知県,豊田市,295,福受町中ノ切２６,福受町区民会館,34.995186,137.123383
愛知県,豊田市,296,大林町２－１２－１,鹿島神社,35.049492,137.140961
愛知県,豊田市,297,大林町１０－１７－１,高根公園,35.042614,137.140396
愛知県,豊田市,298,大林町１１－８－１,消防署大林出張所跡地,35.042519,137.142929
愛知県,豊田市,299,大林町１１－１７－１,白針公園,35.044258,137.144882
愛知県,豊田市,300,大林町１２－７－１,坂下公園,35.046375,137.141922
愛知県,豊田市,301,大林町１２－１－６,大林区事務所,35.047604,137.140366
愛知県,豊田市,302,大林町１７－１２－５,馬洗公園,35.047295,137.150696
愛知県,豊田市,303,大林町１４－６－１０,地楽公園,35.050209,137.143066
愛知県,豊田市,304,大林町１４－１１－５,大林小学校,35.04866,137.144135
愛知県,豊田市,305,大林町１４－１１－１３,大林こども園,35.04866,137.144135
愛知県,豊田市,306,大林町１７－１２－５,馬洗公園,35.047295,137.150696
愛知県,豊田市,307,御幸本町１－１４０－１,区民会館,35.053127,137.148468
愛知県,豊田市,308,御幸本町４－２０６－１０,ふれ愛ホール,35.051277,137.148712
愛知県,豊田市,309,御幸本町５－３０２－５,御幸南公園,35.050781,137.147308
愛知県,豊田市,310,御幸本町６－１０１－１,大林寮外駐車場（Ａ）,35.05022,137.149094
愛知県,豊田市,311,御幸本町７－１９６,宗心洞公園,35.051613,137.151077
愛知県,豊田市,312,住吉町大興４,竹村小学校,35.037815,137.121552
愛知県,豊田市,313,住吉町八百山８２,ふれあい広場前,35.039715,137.12117
愛知県,豊田市,314,住吉町２－９－１,厳島公園,35.036433,137.118987
愛知県,豊田市,315,竹町宮下３６,竹村会館,35.038929,137.114929
愛知県,豊田市,316,宝町玉泉１０２－４,宝町ふれあい広場,35.043468,137.129669
愛知県,豊田市,317,本町大富５６,本町児童館,35.052811,137.112885
愛知県,豊田市,318,本町共和１１,一本木公園,35.053699,137.115967
愛知県,豊田市,319,竜神町新生１１５－２,竜神交流館,35.049164,137.12822
愛知県,豊田市,320,竜神町竜神１６－１,竜神中学校,35.051205,137.129639
愛知県,豊田市,321,竜神町飛越９１－２,稲荷神社駐車場,35.053524,137.133652
愛知県,豊田市,322,竹元町二ツ池６－８,竹元町西ちびっこ広場,35.034061,137.107208
愛知県,豊田市,323,竹元町南細畔１０４,豊田工業高校,35.022339,137.118988
愛知県,豊田市,324,竹元町池の内１０,竹下区民会館,35.031219,137.112289
愛知県,豊田市,325,中町蔵前６－１,中町墓苑,35.034992,137.113556
愛知県,豊田市,326,中町蔵前６０,蔵前公園,35.034992,137.113556
愛知県,豊田市,327,西田町けやき１,地域文化広場,35.026173,137.12439
愛知県,豊田市,328,西田町本通２８－２,西田町本通交差点北東畑,35.031693,137.131287
愛知県,豊田市,329,広田町富田４３,広田ふれあい広場,35.040894,137.106003
愛知県,豊田市,330,若林西町西ノ堂７,若林西小学校,35.032318,137.093933
愛知県,豊田市,331,若林東町沖田１２４,若林交流館,35.026958,137.095688
愛知県,豊田市,332,若林西町長根６４,高美こども園,35.03532,137.098572
愛知県,豊田市,333,若林西町上ノ山９２,若林公会堂前,35.030972,137.097931
愛知県,豊田市,334,若林東町石根３０－３４,石根ちびっこ広場,35.024666,137.095306
愛知県,豊田市,335,若林東町上ノ田３－２７,若林東ちびっこ広場,35.030163,137.102951
愛知県,豊田市,336,若林東町高根下９０－１,若林公園,35.027344,137.099136
愛知県,豊田市,337,若林東町棚田３０－４０,棚田ちびっこ広場,35.028828,137.10054
愛知県,豊田市,338,若林東町中外根１－１,豊田南高校,35.020145,137.1026
愛知県,豊田市,339,若林東町中外根６５,masked,35.020973,137.099609
愛知県,豊田市,340,若林東町宮間７９－４,宮間団地北ちびっこ広場,35.029598,137.106003
愛知県,豊田市,341,高美町１－１,高美西ちびっこ広場,35.046747,137.126789
愛知県,豊田市,342,高美町３－３５,高美中央公園,35.036137,137.102325
愛知県,豊田市,343,高美町５－４７,高美町ふれあい広場,35.037384,137.103424
愛知県,豊田市,344,高美町７－４５,高美東ちびっこ広場,35.036705,137.10672
愛知県,豊田市,345,中根町小訳１７２－１,masked,35.018017,137.090256
愛知県,豊田市,346,中根町小根崎４－６８,さつき第2ちびっこ広場,35.020931,137.091476
愛知県,豊田市,347,中根町西山８－２４８,中根団地北ちびっこ広場,35.022518,137.083801
愛知県,豊田市,348,中根町西山８－２４７,中根団地南ちびっこ広場,35.022518,137.083801
愛知県,豊田市,349,吉原町宮里２４,吉原公園,35.016933,137.097504
愛知県,豊田市,350,吉原町屋敷畠５９,吉原児童遊園,35.018517,137.093826
愛知県,豊田市,351,吉原町鶴喰１９－１,吉原鶴喰公園,35.021606,137.092346
愛知県,豊田市,352,花園町若石山５０－４,若園緑地西,35.01564,137.083481
愛知県,豊田市,353,花園町井田８２,リラフォート前,35.011772,137.080597
愛知県,豊田市,354,花園町井田９０－２,花園中央公園,35.012211,137.079788
愛知県,豊田市,355,花園町小松原９５,花園公園,35.013592,137.075851
愛知県,豊田市,356,花園町塩倉１１－３,花園団地中央ちびっこ広場,35.01598,137.087143
愛知県,豊田市,357,花園町新田１５－６,新田ちびっこ広場,35.01757,137.078323
愛知県,豊田市,358,花園町屋敷６７,花園町区民会館,35.010815,137.079315
愛知県,豊田市,359,花園町脇ノ田１３－３,若園中学校,35.014454,137.088303
愛知県,豊田市,360,花園町観音山２２－１０７,若園緑地東,35.013924,137.085052
愛知県,豊田市,361,花園町脇ノ田１７－２５,脇ノ田ちびっこ広場,35.013294,137.085861
愛知県,豊田市,362,高岡町東川３８,高岡町区民会館,35.044304,137.087311
愛知県,豊田市,363,高岡町長根１７,高岡農村環境改善センター,35.036301,137.083084
愛知県,豊田市,364,堤本町流２８,堤小学校,35.04771,137.077377
愛知県,豊田市,365,本田町本田１,堤こども園,35.047585,137.069168
愛知県,豊田市,366,本田町本田３０,本田町ちびっこ広場,35.048866,137.07193
愛知県,豊田市,367,本田町北ノ脇５４－４,本田町北ノ脇ちびっこ広場,35.050919,137.072495
愛知県,豊田市,368,若林西町西山１８,高岡商工会館,35.035526,137.088028
愛知県,豊田市,369,高丘新町天王１,（株）アイシン　新豊工場,35.026863,137.072464
愛知県,豊田市,370,高丘新町松本４７,高丘新町神社,35.031898,137.064972
愛知県,豊田市,371,高岡本町中部３８８,高岡本町会館,35.0312,137.078415
愛知県,豊田市,372,高岡本町双葉６０,中根山こども園,35.034779,137.075302
愛知県,豊田市,373,前林町立圦２,ＪＡあいち豊田前林営農センタ-,35.041145,137.080368
愛知県,豊田市,374,前林町行田２９,前林交流館駐車場,35.0392,137.072769
愛知県,豊田市,375,前林町行田６０,前林中学校,35.0392,137.072769
愛知県,豊田市,376,若林西町茶屋間２３－８２,masked,35.032242,137.083099
愛知県,豊田市,377,大島町旭９１,穂積屋向かい畑,35.041622,137.064331
愛知県,豊田市,378,大島町星ケ丘１－７２,星ケ丘ちびっこ広場,35.040787,137.0522
愛知県,豊田市,379,大島町元の山２６－５４,大島町ちびっこ広場,35.03973,137.056656
愛知県,豊田市,380,西岡町裏畑９－１,西岡神明社西側空き地,35.047058,137.063538
愛知県,豊田市,381,西岡町裏畑１－１,神明社南面東,35.0467,137.064407
愛知県,豊田市,382,西岡町唐池８５－１,西岡町ふれあい広場,35.048084,137.060989
愛知県,豊田市,383,西岡町星ケ丘２０－１,トヨタ自第三高岡清風寮,35.045906,137.057571
愛知県,豊田市,384,西岡町星ヶ丘５０－１１,星ケ丘公園,35.044609,137.057022
愛知県,豊田市,385,西岡町星ケ丘２２０,トヨタ自メゾン高岡駐車場,35.043278,137.060577
愛知県,豊田市,386,西岡町星ケ丘１３６－１,阿知波池バス停付近,35.043472,137.06073
愛知県,豊田市,387,上丘町宮前１,神明宮駐車場横,35.061653,137.106232
愛知県,豊田市,388,堤町下丸山４８,白武製材所西の畑,35.053673,137.088806
愛知県,豊田市,389,堤町道仙６５,堤ケ丘こども園,35.055225,137.085236
愛知県,豊田市,390,堤町宮崎４５－１,堤町区民会館西空き地,35.051144,137.086456
愛知県,豊田市,391,堤町宮崎６８,,35.050854,137.085571
愛知県,豊田市,392,堤町宮畔１２,八幡社,35.054726,137.083282
愛知県,豊田市,393,生駒町東山７４５,交差点付近,35.020737,137.068665
愛知県,豊田市,394,駒場町田戸５１－４６,田戸ちびっこ広場,35.011181,137.063446
愛知県,豊田市,395,駒場町北９７－１１,駒場区民会館・こまんば公園,35.016613,137.058685
愛知県,豊田市,396,駒場町東９－２,駒場町東ちびっこ広場,35.015499,137.058578
愛知県,豊田市,397,駒場町元城４４－１,駒場ふれあい広場,35.015491,137.062561
愛知県,豊田市,398,駒場町新生５８,駒場小学校,35.019348,137.053635
愛知県,豊田市,399,駒新町中通８７－３,駒新ふれあい広場,35.023468,137.049118
愛知県,豊田市,400,中田町前田５９－１,ふれあいバス中田停留所付近,35.030434,137.054535
愛知県,豊田市,401,中田町日進２－１０,中田団地空き地,35.027485,137.050674
愛知県,豊田市,402,中田町川向２３,高岡公園ふれあいバス駐車場西側,35.030121,137.062851
愛知県,豊田市,403,大畑町寺ケ洞１８０－２,大畑町ちびっこ広場付近,35.166813,137.116364
愛知県,豊田市,404,大畑町不流４０７－５,美喜三理容院駐車場,35.16317,137.116989
愛知県,豊田市,405,広幡町六反田４７,ふれあい広場,35.167789,137.125687
愛知県,豊田市,406,広幡町四ツ屋４８地先,広幡町公民館付近,35.177925,137.131531
愛知県,豊田市,407,八草町荒山７３０－８,神谷プラスチック前の畑,35.178211,137.106689
愛知県,豊田市,408,八草町秋合７６２,八草公民館入り口,35.174873,137.105103
愛知県,豊田市,409,八草町割田８６９－６,八草割田ちびっこ広場南,35.173992,137.107178
愛知県,豊田市,410,篠原町黒坪２０－１地先,篠原公民館前市道,35.148834,137.120956
愛知県,豊田市,411,篠原町一色屋敷４８－２,広報版横,35.145844,137.119614
愛知県,豊田市,412,田籾町西川１８１－４,田籾町公民館付近,35.141541,137.108124
愛知県,豊田市,413,保見町起間８８,和徳寺前,35.13731,137.125732
愛知県,豊田市,414,保見町清水尻53,旧保見出張所前,35.135902,137.125565
愛知県,豊田市,415,保見町四反田１２１－１,保見交流館駐車場北東植栽,35.134907,137.133957
愛知県,豊田市,416,東保見町大門７０－３,愛環鉄道高架下,35.135983,137.135651
愛知県,豊田市,417,東保見町藪下５９５－１,消防団格納庫東,35.137283,137.138657
愛知県,豊田市,418,伊保町門屋敷６９－１,報恩寺駐車場,35.130356,137.151093
愛知県,豊田市,419,伊保町向山６６－９８,ふれあい広場,35.120499,137.152283
愛知県,豊田市,420,伊保町向山７３－４,向山団地ちびっこ広場南,35.119343,137.153275
愛知県,豊田市,421,伊保町上北野３６,伊保町ちびっこ広場,35.131161,137.14978
愛知県,豊田市,422,貝津町片坂１１４－３,愛環貝津駅駐車場植栽,35.132362,137.147659
愛知県,豊田市,423,貝津町柚木８３－１,貝津公民館,35.133537,137.145584
愛知県,豊田市,424,保見ケ丘１－８６,保見団地３号公園,35.144108,137.134048
愛知県,豊田市,425,保見ケ丘２－５１,保見団地２号公園,35.148808,137.13327
愛知県,豊田市,426,保見ケ丘２－１８５,西保見小学校,35.148808,137.13327
愛知県,豊田市,427,保見ケ丘３－１９３,保見団地１号公園,35.150494,137.137283
愛知県,豊田市,428,保見ケ丘４－５,東保見小学校,35.148495,137.139984
愛知県,豊田市,429,保見ケ丘４－１－１,masked,35.144939,137.14035
愛知県,豊田市,430,乙部ケ丘２－１３－１７,どんぐり公園,35.1525,137.140945
愛知県,豊田市,431,乙部ケ丘４－１２－３,さくら公園,35.155544,137.143463
愛知県,豊田市,432,乙部ケ丘３－１８－１,やまもも公園,35.153103,137.144333
愛知県,豊田市,433,浄水町伊保原４６０,浄水駅南道路,35.123882,137.129654
愛知県,豊田市,434,浄水町原山２５６,原山公園,35.121521,137.138962
愛知県,豊田市,435,浄水町原山３８６,にれ公園,35.120132,137.148163
愛知県,豊田市,436,大清水町南岬１－４３８,逢妻団地西側進入道路,35.111427,137.139587
愛知県,豊田市,437,浄水町伊保原６５,かえで公園,35.123882,137.129654
愛知県,豊田市,438,大清水町大清水１３９－３,大清水区民会館,35.086083,137.179333
愛知県,豊田市,439,浄水町原山１１３－２,浄水小学校,35.122471,137.141998
愛知県,豊田市,440,浄水町南平１８７－３０３,伊保原第１ちびっこ広場,35.116638,137.137466
愛知県,豊田市,441,浄水町南平１８７－３９２,伊保原区集会場横高圧線敷,35.116638,137.137466
愛知県,豊田市,442,猿投町中切５１－１,ゴミステーション,35.172462,137.175217
愛知県,豊田市,443,猿投町地家１０２－１,地家公会堂南の畑,35.170776,137.174957
愛知県,豊田市,444,猿投町神郷８１－７,猿投町公民館駐車場南,35.167767,137.175034
愛知県,豊田市,445,猿投町畑中８９,ゴミ集積場横,35.183968,137.170959
愛知県,豊田市,446,猿投町池田８１－８６,猿投登山口バス停付近,35.159939,137.172897
愛知県,豊田市,447,乙部町北屋敷２３２,乙部町児童館,35.149498,137.151611
愛知県,豊田市,448,加納町末石６９,加納町区民会館駐車場西,35.158401,137.164261
愛知県,豊田市,449,加納町西股６７,猿投北交流館,35.155918,137.161911
愛知県,豊田市,450,加納町東股１５,猿投中学校北側,35.156403,137.163406
愛知県,豊田市,451,加納町向井山３１－４,加納町バス停右側,35.156071,137.16864
愛知県,豊田市,452,本徳町向山６２５－１,本徳児童遊園付近空地,35.15295,137.153305
愛知県,豊田市,453,舞木町奥貝戸８８０先,荒子川沿い自治区掲示板付近,35.151203,137.163223
愛知県,豊田市,454,亀首町八ツ口洞１３－４２,亀首公園,35.146454,137.173233
愛知県,豊田市,455,亀首町八ツ口洞６５０,第２ちびっこ広場東側,35.144051,137.178452
愛知県,豊田市,456,亀首町八ツ口洞６４９,第１ちびっこ広場,35.144245,137.173843
愛知県,豊田市,457,亀首町八ツ口洞６５１,第５ちびっこ広場,35.142853,137.175278
愛知県,豊田市,458,亀首町町屋洞８８－１,稲荷下の柿畑前,35.138138,137.170959
愛知県,豊田市,459,亀首町札掛１２－１,亀首児童館,35.13942,137.167236
愛知県,豊田市,460,亀首町下向イ田７２,森腰集会所前,35.137875,137.161697
愛知県,豊田市,461,四郷町下古屋１４,下古屋集会所,35.125755,137.163696
愛知県,豊田市,462,四郷町天道９－１,四郷ちびっこ広場,35.129135,137.171967
愛知県,豊田市,463,四郷町下古屋５７－８,masked,35.126457,137.165588
愛知県,豊田市,464,四郷町天道９９－１８６,天道団地西ちびっこ広場,35.129135,137.171967
愛知県,豊田市,465,四郷町東畑７０－１,猿投コミュニティセンター入口,35.12397,137.170258
愛知県,豊田市,466,四郷町山畑７６－１１９,四郷小学校付近,35.13266,137.171036
愛知県,豊田市,467,四郷町森前５２,愛環鉄道四郷駅ロータリーフェンス,35.120766,137.163223
愛知県,豊田市,468,高町東山１２６,高町児童遊園,35.135834,137.182068
愛知県,豊田市,469,井上町６－３１－３,井上公民館広場,35.126617,137.179733
愛知県,豊田市,470,井上町６－１６０－１４,井上児童遊園,35.126217,137.179062
愛知県,豊田市,471,井上町７－１１,北部給食センター,35.12801,137.177032
愛知県,豊田市,472,井上町１１－１－７０,井上団地西ちびっこ広場,35.125561,137.173828
愛知県,豊田市,473,井上町１１－８－６,井上公園入り口,35.124832,137.17363
愛知県,豊田市,474,井上町１２－１５０－４７,井上南ちびっこ広場,35.120312,137.174881
愛知県,豊田市,475,井上町２－１１２－４２,井上団地東ちびっこ広場,35.125031,137.181793
愛知県,豊田市,476,井上町２－１－３,おいでんバス運動公園停留所,35.13007,137.184692
愛知県,豊田市,477,青木町１－２５－２１,青木町北ちびっこ広場,35.123981,137.183487
愛知県,豊田市,478,青木町１－７４－１,青木団地南ちびっこ広場,35.121754,137.185181
愛知県,豊田市,479,青木町４－３５－２２,青木町第3ちびっこ広場,35.117096,137.181137
愛知県,豊田市,480,青木町２－５７－１２１,青木台第２ふれあい広場,35.119396,137.18277
愛知県,豊田市,481,青木町３－８０,猿投台中学校東,35.120293,137.180176
愛知県,豊田市,482,青木町３－８０,猿投台中学校南,35.120293,137.180176
愛知県,豊田市,483,青木町５－９４－１,青木公園,35.118668,137.176849
愛知県,豊田市,484,平戸橋町石平３５－１,空き地,35.115803,137.183609
愛知県,豊田市,485,平戸橋町波岩８６－３２６,団地内ゴミステーション横,35.120449,137.188828
愛知県,豊田市,486,平戸橋町平戸４,石平公園,35.114906,137.183731
愛知県,豊田市,487,花本町宇津木１０５,花本ちびっこ広場,35.113548,137.177307
愛知県,豊田市,488,荒井町寿田４４９－１,荒井町児童館,35.10387,137.171967
愛知県,豊田市,489,荒井町松島２９９,兵主神社,35.102634,137.173309
愛知県,豊田市,490,越戸町梅盛５５,下越戸児童館,35.106564,137.180298
愛知県,豊田市,491,越戸町尺口２０３,尺口公園,35.108498,137.18866
愛知県,豊田市,492,越戸町松葉５４－２,越戸こども園,35.107239,137.184692
愛知県,豊田市,493,越戸町松葉１２８－２,天満宮,35.107258,137.182312
愛知県,豊田市,494,平戸橋町下井畑１５２,井畑公園,35.111618,137.189667
愛知県,豊田市,495,平戸橋町神田１９５,平戸橋二区ふれあい広場,35.115025,137.18779
愛知県,豊田市,496,御船町山屋敷５１－１,御船こども園,35.133347,137.19046
愛知県,豊田市,497,御船町山屋敷１６２－１,県道11号御船町鳥坂根交差点北,35.129429,137.187103
愛知県,豊田市,498,御船町寺脇１０－１４,浄厳寺,35.138672,137.189377
愛知県,豊田市,499,御船町奥山畑７－６０,御船町第２ちびっこ広場,35.139893,137.198685
愛知県,豊田市,500,御船町大皿田３３－１,ゴミステーション,35.147995,137.193115
愛知県,豊田市,501,御船町西稲場６－１６,御船ふれあい広場,35.134941,137.189331
愛知県,豊田市,502,御船町申原１１６,御船町南部集会所,35.126038,137.194183
愛知県,豊田市,503,枝下町百田４６８－７,空き地,35.140331,137.204788
愛知県,豊田市,504,枝下町岩里林８４２－１６,枝下ふれあい広場,35.141682,137.20816
愛知県,豊田市,505,西広瀬町大久保３９５－２,西広瀬町ふれあい広場,35.155056,137.218384
愛知県,豊田市,506,西広瀬町清水３０,透成こども園,35.154007,137.214554
愛知県,豊田市,507,西広瀬町市場２５６－６,西広瀬ちびっこ広場,35.153919,137.219299
愛知県,豊田市,508,押沢町落之田２５４－１,石野地域バス押沢町停留所付近,35.168427,137.236893
愛知県,豊田市,509,富田町鹿野末１７－１,おいでんバス富田停留所付近,35.15992,137.236145
愛知県,豊田市,510,藤沢町丸竹２１１,ルネサンス豊田高等学校向かい,35.167061,137.25388
愛知県,豊田市,511,松嶺町漆田６９－１,石野地域バス松嶺町中停留所付近,35.175709,137.24472
愛知県,豊田市,512,石野町下谷下１３８－２,石野町区民会館,35.142834,137.211578
愛知県,豊田市,513,小峯町中坪３４－１,小峯橋南西三叉路,35.15345,137.236923
愛知県,豊田市,514,下室町前洞西２５,集会所前,35.144814,137.233536
愛知県,豊田市,515,力石町深田５７－２,石野交流館,35.140266,137.22757
愛知県,豊田市,516,東広瀬町大根坂１－３８,東広瀬小学校向トンボ池,35.155483,137.229279
愛知県,豊田市,517,東広瀬町田広４,東広瀬上切ちびっこ広場,35.15168,137.22522
愛知県,豊田市,518,東広瀬町神田３６－２,広瀬駐在所付近交差点,35.150208,137.216553
愛知県,豊田市,519,中金町塚ノ本１２４,中金小学校,35.138866,137.253128
愛知県,豊田市,520,中切町柵口１５３－２,おいでんバス中切停留所付近,35.129776,137.275391
愛知県,豊田市,521,野口町水別日陰３８５－２,野口町消防格納庫,35.128719,137.262558
愛知県,豊田市,522,野口町漆垣内１１８－１,おいでんバス下野口停留所付近,35.127683,137.275335
愛知県,豊田市,523,芳友町トイタ１９６,消防格納庫前,35.14267,137.241562
愛知県,豊田市,524,小呂町日影洞１３４,小呂町区民会館,35.114231,137.221481
愛知県,豊田市,525,上高町前通１２１－１,清通寺横,35.119541,137.227036
愛知県,豊田市,526,勘八町勘八３０１,勘八町ふれあい会館駐車場,35.12439,137.206924
愛知県,豊田市,527,滝見町中江通２－１,滝見町児童遊園,35.115379,137.217789
愛知県,豊田市,528,寺下町冷田３１１－１,消防格納庫東,35.119709,137.216309
愛知県,豊田市,529,成合町下成合１７５－１地先,成合町花壇付近,35.129761,137.225891
愛知県,豊田市,530,手呂町樋田３２３－１５,市営B42棟横法面,35.111088,137.206665
愛知県,豊田市,531,手呂町樋田１３８－１,県営手呂団地公園,35.111088,137.206665
愛知県,豊田市,532,手呂町樋田５６８－１,手呂区民会館,35.111088,137.206665
愛知県,豊田市,533,幸海町関屋４５,幸海集会所,35.088684,137.237289
愛知県,豊田市,534,幸海町下御堂下切１４,幸海小学校土手,35.082813,137.231308
愛知県,豊田市,535,幸穂台１－２,幸穂台１丁目ちびっこ広場,35.082668,137.227951
愛知県,豊田市,536,幸穂台３－７,幸穂台公園東側法面,35.083687,137.22998
愛知県,豊田市,537,穂積町曲り田１,穂積町区民会館,35.08033,137.227615
愛知県,豊田市,538,穂積町本口６－１,神明神社南交差点付近,35.070797,137.224319
愛知県,豊田市,539,巴町神田１６,松平団地公園東,35.060574,137.211914
愛知県,豊田市,540,松平志賀マゴイチ１０－１６,松平団地北ちびっこ広場,35.064608,137.212917
愛知県,豊田市,541,松平志賀町コゼ４５－２,松平志賀町第２ちびっこ広場,35.061417,137.21312
愛知県,豊田市,542,巴町細畑４－１０,松平団地南ちびっこ広場,35.059071,137.210373
愛知県,豊田市,543,鍋田町西１７－１,鍋田町公会堂付近,35.067078,137.221481
愛知県,豊田市,544,松平志賀町四反田１－２,松平志賀町区民会館,35.064606,137.20784
愛知県,豊田市,545,松平志賀町丸山５－１,ＪＡあいち豊田松平支店,35.064194,137.208984
愛知県,豊田市,546,岩倉町五ツ畑２３,岩倉小学校前,35.050636,137.204178
愛知県,豊田市,547,岩倉町馬場５７－６,小野田モータース向かい,35.056915,137.214066
愛知県,豊田市,548,岩倉町平古２４－１,松平中部簡易水道,35.05505,137.213181
愛知県,豊田市,549,岩倉町柿田７６－６,岩倉町第１ちびっこ広場,35.058605,137.216003
愛知県,豊田市,550,岩倉町馬場１４０－１,岩倉町第４ちびっこ広場,35.057587,137.213898
愛知県,豊田市,551,岩倉町神明５,岩倉南公民館前,35.04343,137.198547
愛知県,豊田市,552,岩倉町西脇６９－１,岩倉西区民会館,35.046001,137.189163
愛知県,豊田市,553,中垣内町西ノ平１４－３,中垣内町区民会館,35.045818,137.202042
愛知県,豊田市,554,中垣内町百々１２－２,中垣内団地の向かいの道路沿い,35.051308,137.208725
愛知県,豊田市,555,鵜ケ瀬町西洞１３－１,鵜ケ瀬神社（区民会館横）,35.061378,137.218033
愛知県,豊田市,556,鵜ヶ瀬町渡瀬２５－１３,鵜が瀬第２ちびっこ広場,35.064629,137.216263
愛知県,豊田市,557,大内町庄屋敷３３－３,大内町ちびっこ広場跡地,35.05621,137.234344
愛知県,豊田市,558,九久平町河原畑３７,松平中学校,35.054192,137.21875
愛知県,豊田市,559,九久平町寺前１６,松平コミュニテイ-裏,35.054897,137.214615
愛知県,豊田市,560,九久平町堂ノ根１０１,九久平団地ちびっこ広場,35.05151,137.209915
愛知県,豊田市,561,加茂川町小下１１－１０,川向水道加圧所,35.040771,137.224213
愛知県,豊田市,562,加茂川町本郷１９－１,法興寺駐車場,35.039635,137.227386
愛知県,豊田市,563,桂野町屋下８－２,区民会館向かい(板より上流）,35.036621,137.208145
愛知県,豊田市,564,滝脇町馬場根８９,消防団格納庫付近,35.033817,137.253876
愛知県,豊田市,565,滝脇町宮ノ入２１－２,高齢者福祉施設笑いの家付近,35.038807,137.253357
愛知県,豊田市,566,長沢町コノマ１３,法徳寺駐車場,35.022476,137.261856
愛知県,豊田市,567,長沢町家之下４－１,長沢町東公会堂、火の見櫓,35.046003,137.21146
愛知県,豊田市,568,林添町庵ノ入2-2,林添駐在所横（ガードレール横）,35.049911,137.242859
愛知県,豊田市,569,林添町東トウモ１４,ふれあい広場,35.048355,137.244522
愛知県,豊田市,570,松平町大西２４－１,長福寺道路向畑（松平郷バス停）,35.040146,137.260056
愛知県,豊田市,571,松平町神田１４－１０,松平町ちびっこ広場,35.04673,137.258591
愛知県,豊田市,572,王滝町上河原１２－３,市営駐車場,35.071697,137.234146
愛知県,豊田市,573,王滝町根畑２０－２,王滝自治区公民館,35.073997,137.236588
愛知県,豊田市,574,石楠町紺屋垣内６－１,石楠公民館,35.081638,137.245728
愛知県,豊田市,575,豊松町榎ケ入３２－１,歌石公会堂,35.062832,137.238922
愛知県,豊田市,576,豊松町宮下７－１,豊松区民会館,35.057278,137.247757
愛知県,豊田市,577,豊松町狐塚１２０－４,豊松こども園,35.06538,137.259506
愛知県,豊田市,578,坂上町田面３２－１,仁王川栄橋北,35.068089,137.257171
愛知県,豊田市,579,坂上町河原田２５－２,坂上町公民館,35.068691,137.267502
愛知県,豊田市,580,坂上町地蔵堂２４,農村舞台バス停向かい,35.06356,137.271957
愛知県,豊田市,581,坂上町茶ウス下５,真垣内集会所横,35.069149,137.272354
愛知県,豊田市,582,坂上町丸塚６２－１,坂上水道加圧所,35.06926,137.285675
愛知県,豊田市,583,藤岡飯野町大川ヶ原１１６７－１１１,飯野大川ヶ原ちびっこ広場,35.183449,137.212418
愛知県,豊田市,584,藤岡飯野町大川ヶ原７７２－４,藤岡ふれあいの館前,35.187538,137.215683
愛知県,豊田市,585,田茂平町土井ノ内６０－１,田茂平生活改善ｾﾝﾀｰ駐車場前,35.173481,137.217209
愛知県,豊田市,586,深見町細田３００－１,消防団第５方面隊詰所横,35.183407,137.194275
愛知県,豊田市,587,深見町木戸９９５－５２,深見木戸公園北西ガードパイプ,35.183201,137.192596
愛知県,豊田市,588,深見町石神１２３０,磯崎神社駐車場,35.185276,137.192017
愛知県,豊田市,589,深見町木戸９５５－５３,深見団地調整池前,35.181522,137.192627
愛知県,豊田市,590,深見町木戸３６９－１５４,ふかみ台配水場前,35.181522,137.192627
愛知県,豊田市,591,深見町常楽９９７－２１２,深見第３配水場前,35.17942,137.192535
愛知県,豊田市,592,深見町小畑９６４－７１,深見小畑南ちびっこ広場,35.184189,137.191284
愛知県,豊田市,593,西中山町後田２２－１０,藤岡南交流館入口,35.162331,137.187927
愛知県,豊田市,594,西中山町蔵屋敷５４－１,中山小学校東門横（緑ヶ丘）,35.163025,137.189514
愛知県,豊田市,595,西中山町蔵屋敷８６－１,藤岡南中学校,35.162823,137.185944
愛知県,豊田市,596,西中山町榎前６５－４,西中山南部自治会館前,35.158325,137.184433
愛知県,豊田市,597,西中山町新左屋敷１７２－１,森岡造園横防火水槽前,35.157234,137.177521
愛知県,豊田市,598,西中山町後田９９－２９,西中山後田ちびっこ広場,35.16032,137.187088
愛知県,豊田市,599,西中山町猿田４０－２８,西中山猿田西ちびっこ広場,35.156597,137.187515
愛知県,豊田市,600,西中山町山ノ田２０－７,ヤマト運輸㈱前,35.149513,137.17482
愛知県,豊田市,601,西中山町荒子６２－１３７,西中山荒子南公園,35.144161,137.185425
愛知県,豊田市,602,西中山町十七屋４－１５３,藤岡ニューハイツ配水池前,35.174484,137.181503
愛知県,豊田市,603,西中山町十七屋４－１３７,藤岡ニューハイツ南公園付近,35.174484,137.181503
愛知県,豊田市,604,西中山町十七屋４－２６,藤岡ニューハイツ西ちびっこ広場,35.174484,137.181503
愛知県,豊田市,605,西中山町十七屋４－１７４,藤岡ニューハイツ集会所前,35.174484,137.181503
愛知県,豊田市,606,藤岡飯野町田中２４５,藤岡支所前,35.198002,137.205475
愛知県,豊田市,607,藤岡飯野町池下１０７０－３,飯野ひかり幼稚園　駐車場横,35.201946,137.212601
愛知県,豊田市,608,藤岡飯野町弥治前５９８－１,マスヤ農機横,35.198109,137.20874
愛知県,豊田市,609,藤岡飯野町大川ヶ原７６３－２,藤岡地域バス大川ケ原停留所北,35.191425,137.218964
愛知県,豊田市,610,藤岡飯野町辻戸８９８,おいでんバス保健センター口停留所,35.195808,137.203552
愛知県,豊田市,611,藤岡飯野町井ノ脇３５４－１,藤岡運輸㈱前,35.200916,137.205582
愛知県,豊田市,612,石飛町日焼３３３－２,石飛集会所前,35.206272,137.202911
愛知県,豊田市,613,迫町イウナダ４８４,㈱ＦＵＪＩ寮駐車場前,35.193802,137.194077
愛知県,豊田市,614,迫町六反田１０６,おいでんバス迫停留所西,35.191257,137.200043
愛知県,豊田市,615,迫町下切２３７,迫公民館前,35.194202,137.197052
愛知県,豊田市,616,藤岡飯野町辻戸１２５０－４５,迫八反田交差点東,35.193375,137.205719
愛知県,豊田市,617,御作町西川９６６－１２１,児童遊園,35.195595,137.226028
愛知県,豊田市,618,御作町平野下６４４,御作浜井場交差点付近,35.19416,137.241837
愛知県,豊田市,619,御作町日沢１０６０－２,御作こども園前,35.19648,137.245499
愛知県,豊田市,620,御作町沼３８６－５,犬伏川　記念橋北　民地,35.204491,137.246796
愛知県,豊田市,621,御作町日影山１６８９－２,藤岡地域バス御作上停留所,35.208714,137.25264
愛知県,豊田市,622,御作町紙屋下９３,藤岡地域バス天徳橋北停留所付近,35.190708,137.239777
愛知県,豊田市,623,上川口町西前２００－１,福岡建具店前,35.193996,137.273178
愛知県,豊田市,624,下川口町水汲５４６,下川口公民館前,35.183403,137.268768
愛知県,豊田市,625,木瀬町稽古屋１１６９－５,藤岡中学校前,35.202389,137.221329
愛知県,豊田市,626,木瀬町北前１３０－１,木瀬児童遊園南西　民地,35.211769,137.229263
愛知県,豊田市,627,木瀬町井ノ平２３３－２,木瀬児童遊園前,35.212841,137.231659
愛知県,豊田市,628,木瀬町桧本１５２５－１,豊田市消防署藤岡小原分署前,35.215431,137.233231
愛知県,豊田市,629,木瀬町一ノ瀬４２７－１,木瀬浄水場,35.220634,137.230164
愛知県,豊田市,630,三箇町田ノ尻１５,藤岡地域バス三箇下切停留所付近,35.234005,137.223877
愛知県,豊田市,631,三箇町中畑６８,藤岡地域バス三箇公民館停留所付近,35.237499,137.223511
愛知県,豊田市,632,三箇町大洞２－２,藤岡地域バス三箇・大岩口停留所付近,35.243393,137.2229
愛知県,豊田市,633,大岩町懸ノ下６７－２,大岩公会堂前,35.096645,137.15706
愛知県,豊田市,634,西市野々町石堂３２９－１,八剱神社前,35.242367,137.188721
愛知県,豊田市,635,白川町森下４－１,八柱神社前,35.235675,137.207827
愛知県,豊田市,636,白川町引地９０６－４,藤岡地域バス白川停留所南,35.238129,137.205826
愛知県,豊田市,637,石畳町池ノ平３１６－１,石畳足湯前,35.232166,137.199249
愛知県,豊田市,638,石畳町片平２４２－１７,坂下団地入口,35.226528,137.203613
愛知県,豊田市,639,石畳町坂下２５３－１９９,石畳坂下西ちびっこ広場,35.228539,137.200012
愛知県,豊田市,640,北曽木町宮前４０１,八柱神社向かい,35.226627,137.195374
愛知県,豊田市,641,北曽木町東山３５６－７,北曽木県道交差点,35.222691,137.202881
愛知県,豊田市,642,上渡合町竹ノ後口２０７－１,西平川西平橋南,35.214439,137.203217
愛知県,豊田市,643,上渡合町細首３４２－１８,スカイタウン入口,35.212746,137.201019
愛知県,豊田市,644,上渡合町萩平３１５－８２,上渡合萩平南公園,35.218281,137.203659
愛知県,豊田市,645,折平町前田２７６－６,防火水槽前,35.220135,137.187195
愛知県,豊田市,646,折平町西屋敷５５５－６５,ファーツリー団地下水処理場前,35.211494,137.183899
愛知県,豊田市,647,北一色町川原２６７－３,北一色生活改善センター前,35.205402,137.19632
愛知県,豊田市,648,北一色町向谷下５１０－１８,県道脇,35.199825,137.199203
愛知県,豊田市,649,大平町宮ノ前５－１,大平児童館,35.245875,137.240881
愛知県,豊田市,650,大平町神殿２３－４,消防格納庫付近,35.243208,137.243329
愛知県,豊田市,651,荷掛町田中１４８－１,荷掛公民館向かい,35.257103,137.253159
愛知県,豊田市,652,寺平町小皿田２１２－１,小原地域バス寺平集会所前停留所北,35.23856,137.253616
愛知県,豊田市,653,大洞町堂ノ前５８２－１,大洞集会所前,35.161396,137.268439
愛知県,豊田市,654,乙ケ林町岩谷戸７１１－４,乙ケ林集会所前,35.252384,137.270737
愛知県,豊田市,655,三ツ久保町向田７８１,字向田三叉路,35.258762,137.277815
愛知県,豊田市,656,沢田町四方田５４－３先,あいち豊田農協倉庫前,35.245959,137.278095
愛知県,豊田市,657,千洗町後ヶ洞２－１,あいち豊田農協千洗支店付近,35.240433,137.264328
愛知県,豊田市,658,喜佐平町松下２０８－１先,喜佐平集会場付近,35.236446,137.267578
愛知県,豊田市,659,西萩平町竹ノ下２８－２,西萩平集会所付近,35.238895,137.27594
愛知県,豊田市,660,北篠平町蛭藻池７４０－８先,おいでんバス寺平口停留所南西,35.221741,137.259506
愛知県,豊田市,661,北篠平町駒ヶ峰３３３－１先,西部集会所付近,35.221741,137.259506
愛知県,豊田市,662,上仁木町広見９０２,おばら桜バス95下仁木城ノ腰口バス停,35.254299,137.303238
愛知県,豊田市,663,川見町日影１８３－１先,川見集会所付近,35.260582,137.307632
愛知県,豊田市,664,東郷町大辻１１３－２,東郷大辻集会所付近,35.263316,137.321353
愛知県,豊田市,665,東郷町仲平上１０７－１,東郷集会所付近,35.26688,137.327918
愛知県,豊田市,666,柏ケ洞町郷３２－９,柏ケ洞集会所付近,35.263992,137.305298
愛知県,豊田市,667,雑敷町東門８４－１,小原北部生活改善センター,35.262787,137.29747
愛知県,豊田市,668,前洞町尾片７３－５,前洞集会所付近,35.261265,137.291534
愛知県,豊田市,669,大ヶ蔵連町入１３６－２先,バス停前,35.277283,137.310028
愛知県,豊田市,670,小原田代町釜ヶ洞２２－２先,農業者健康管理センター前,35.281918,137.274048
愛知県,豊田市,671,小原田代町ヲイノリ１４０９－１先,おばら桜バス66田代町ヲイノリバス停,35.281918,137.274048
愛知県,豊田市,672,小原北町南郷１３９－４,小原北部老人憩の家付近,35.269855,137.277039
愛知県,豊田市,673,永太郎町惣作６７６－１,小原交流館入口,35.24136,137.297256
愛知県,豊田市,674,小原大倉町大クゴ１３７－１,大倉集会所,35.235088,137.301468
愛知県,豊田市,675,松名町寺ヶ洞１８０－３,松名集会所付近,35.244511,137.31041
愛知県,豊田市,676,遊屋町長洞２１５－２,遊屋ポンプ場,35.241516,137.287582
愛知県,豊田市,677,下仁木町諸屋３８３,コーポ下仁木,35.249401,137.29097
愛知県,豊田市,678,下仁木町諸屋３６８－３先,土井スタンド横,35.249401,137.29097
愛知県,豊田市,679,宮代町出見セ１０１－１,宮代集荷場付近,35.251567,137.313974
愛知県,豊田市,680,苅萱町アオキ２０４－１,苅萱集会所付近,35.085177,137.160344
愛知県,豊田市,681,岩下町前田２８４－１,東区生活改善センタ－,35.2435,137.322662
愛知県,豊田市,682,平岩町海老子４５８－３,土岐足助線　苅萱集会所東約900ｍ付近,35.247257,137.329773
愛知県,豊田市,683,西丹波町宮前１０５－１先,西丹波集会所北西,35.237835,137.328842
愛知県,豊田市,684,小原町尾崎８５５－４,あいち豊田農協職員駐車場前,35.232514,137.285852
愛知県,豊田市,685,小原町上平４４１－１,小原支所,35.233723,137.288894
愛知県,豊田市,686,大坂町大洞１２２－３,小原地域バス大坂町松月寺停留所付近,35.200859,137.0952
愛知県,豊田市,687,李町下平７３７－１,李生活改善センタ－前,35.215065,137.287704
愛知県,豊田市,688,李町東ヶ入８８１－１,字七升蒔三叉路,35.215065,137.287704
愛知県,豊田市,689,市場町小原９１－１０,旧第４分団第二部格納庫前,35.226647,137.299017
愛知県,豊田市,690,西細田町惣作２６１－１,西細田集荷場,35.231228,137.317413
愛知県,豊田市,691,川下町空畑７５９－１,西橋,35.211864,137.302032
愛知県,豊田市,692,簗平町岩倉２３１－１,公園駐車場前,35.209942,137.312103
愛知県,豊田市,693,日面町槙ノ根５８－３,二ッ田掲示場,35.216888,137.315384
愛知県,豊田市,694,百月町井戸洞４７－１,太子堂横,35.200619,137.289825
愛知県,豊田市,695,平畑町下里７６２,平畑コミュニティ広場前,35.224384,137.322479
愛知県,豊田市,696,榑俣町中西２２２－２,旧榑俣集会所付近,35.231644,137.333405
愛知県,豊田市,697,足助町狭石３４－１２,足助大橋西交差点花壇,35.135353,137.318207
愛知県,豊田市,698,足助町宮ノ後２６－２,足助支所,35.135353,137.318207
愛知県,豊田市,699,足助町今岡７－３,河合木材塀,35.135353,137.318207
愛知県,豊田市,700,足助町岡田７０－１,あいち豊田農協今朝平低温倉庫前,35.135353,137.318207
愛知県,豊田市,701,山谷町小玉石１３－４,山ケ谷三叉路,35.104622,137.210138
愛知県,豊田市,702,綾渡町中田７４,消防格納庫横,35.127785,137.360886
愛知県,豊田市,703,室口町上ドウモ１７－２,室口憩いの館前,35.129799,137.332108
愛知県,豊田市,704,安実京町本郷５３－２,安実京三叉路,35.11462,137.321854
愛知県,豊田市,705,葛沢町枇杷所４７－１,葛沢集会所,35.094715,137.342819
愛知県,豊田市,706,東大見町中切２３－１,東大見集会所前,35.106396,137.34816
愛知県,豊田市,707,御内町滝沢１－３０,みずきの里　鼎館,35.112843,137.401169
愛知県,豊田市,708,岩神町簗瀬２６－３,足助もみじこども園前,35.131191,137.305605
愛知県,豊田市,709,近岡町吉田２－１,安藤建設㈱事務所前,35.128073,137.299865
愛知県,豊田市,710,近岡町小原４１－４,近岡公民館前,35.126339,137.297981
愛知県,豊田市,711,田振町東入１０４－４,田振三又路,35.117718,137.286728
愛知県,豊田市,712,井ノ口町広見２１－１１,おいでんバス井ノ口停留所付近,35.12672,137.282944
愛知県,豊田市,713,篭林町塩平１１－４,篭林公民館向かい,35.122784,137.298706
愛知県,豊田市,714,東大島町川谷１２－１,県道大島三叉路,35.112122,137.26915
愛知県,豊田市,715,東大島町仏田１－７,大島多目的グランド,35.112122,137.26915
愛知県,豊田市,716,則定町上栃ノ実２７－３,まごころ市場,35.102272,137.257736
愛知県,豊田市,717,則定町本郷２５－１,則定集会所,35.102272,137.257736
愛知県,豊田市,718,下国谷町鏡１２,下国谷（鏡）集会場,35.104576,137.27504
愛知県,豊田市,719,霧山町替田５－４,霧山公民館前,35.096634,137.247437
愛知県,豊田市,720,下国谷町新シ７－２,下国谷集会所前,35.104576,137.27504
愛知県,豊田市,721,下佐切町平七垣内１７－２１,下佐切集会所横,35.08812,137.258957
愛知県,豊田市,722,上佐切町中切８－１,上佐切多目的集会所前,35.088673,137.272186
愛知県,豊田市,723,上脇町タラクゴ２９－４,上脇スクールバス待合所横,35.081806,137.268921
愛知県,豊田市,724,国閑町屋ゲ７,林松院前（瑞雲寺）,35.079086,137.277161
愛知県,豊田市,725,白倉町天ケ峰６－１,白倉ゴミ集積所横,35.096157,137.27742
愛知県,豊田市,726,栃本町宮下４１－６,栃本出荷場前,35.091608,137.289048
愛知県,豊田市,727,国谷町広畑１６－６,竹友商店横,35.102459,137.286621
愛知県,豊田市,728,野林町上ノ切５８,野林集会所,35.111847,137.295624
愛知県,豊田市,729,下平町馬場４３,岩下集会所,35.070709,137.307327
愛知県,豊田市,730,四ツ松町十明山２２１－２８６,百田待合所横,35.08551,137.314819
愛知県,豊田市,731,四ツ松町河西４２－２,四ツ松集荷所,35.08551,137.314819
愛知県,豊田市,732,上小田町井ミゾ１５－２,松方峠,35.104858,137.303299
愛知県,豊田市,733,沢ノ堂町下４４－３,沢ノ堂集荷所横,35.111313,137.307983
愛知県,豊田市,734,桑田和町中貝戸６,足助消防署,35.141506,137.342102
愛知県,豊田市,735,桑田和町宮ノ前２１－１,萩野小学校,35.141506,137.342102
愛知県,豊田市,736,菅生町青木１１－１０,桑田和配水場北,35.104678,137.250642
愛知県,豊田市,737,竜岡町丸根３,竜岡消防格納庫前,35.149059,137.354874
愛知県,豊田市,738,二タ宮町下毛川２－１,二タ宮集会所,35.153084,137.363449
愛知県,豊田市,739,川面町土平７１－２,川面下切集会所前,35.142586,137.390182
愛知県,豊田市,740,川面町中切１７－８地先,ゴミステーション横,35.142586,137.390182
愛知県,豊田市,741,怒田沢町向イ田９,怒田沢集会場,35.130135,137.386169
愛知県,豊田市,742,上八木町芦ノ入８８,上八木多目的集会所入口北西側,35.149796,137.412964
愛知県,豊田市,743,上八木町中平３９－３,山中集会所,35.149796,137.412964
愛知県,豊田市,744,五反田町長配２－１,五反田集会所,35.16762,137.38813
愛知県,豊田市,745,千田町イナハ５０－１,足助地域バス千田停留所付近,35.169875,137.377228
愛知県,豊田市,746,連谷町広畑１２,連谷集会所,35.183006,137.432266
愛知県,豊田市,747,明川町中平１０－１,明川集会所横,35.169182,137.421951
愛知県,豊田市,748,平沢町中洞３５－２,平沢多目的集会所,35.175537,137.382139
愛知県,豊田市,749,大多賀町三浦１０－２,大多賀集会所前,35.147831,137.452042
愛知県,豊田市,750,大多賀町八子１３－１９,県道市道分岐点,35.147831,137.452042
愛知県,豊田市,751,富岡町豊岡４７－１,富岡集会所向かい,35.089731,137.203825
愛知県,豊田市,752,久木町笹原１２－５,花の木前,35.156204,137.340585
愛知県,豊田市,753,久木町宮下１２－１,久木館,35.079367,137.226858
愛知県,豊田市,754,新盛町深沼２９,八幡神社向かい,35.170601,137.350922
愛知県,豊田市,755,新盛町菅田８－８,新盛交差点付近,35.170601,137.350922
愛知県,豊田市,756,細田町塩狭間７６,大和ゲートボール場前,35.169373,137.366592
愛知県,豊田市,757,北小田町風穴１１,神明神社前,35.174003,137.371468
愛知県,豊田市,758,大蔵町森下３９－６,消防団格納庫向かい,35.163144,137.315277
愛知県,豊田市,759,小手沢町井戸洞２５－１,足助地域バス小手沢札ノ前停留所付近,35.163746,137.322968
愛知県,豊田市,760,足助白山町槙田１８－１,良信寺横,35.151131,137.318375
愛知県,豊田市,761,西樫尾町広見１６－１,市・県道分岐点,35.129213,137.248165
愛知県,豊田市,762,上切山町下柳ｹ洞１６－３,切山公会堂前,35.181225,137.336884
愛知県,豊田市,763,塩ノ沢町宮下２２,塩ノ沢公民館前,35.14167,137.300507
愛知県,豊田市,764,中立町丸見１１,中立公会堂横,35.158298,137.290756
愛知県,豊田市,765,摺町宮下９,摺公民館横,35.168541,137.276184
愛知県,豊田市,766,大河原町字辻畑６１－１,大河原集会所前,35.162029,137.25135
愛知県,豊田市,767,葛町前田１４－４,葛町公民館前,35.146946,137.267242
愛知県,豊田市,768,御蔵町辻２２－１,御蔵小学校前,35.105815,137.225333
愛知県,豊田市,769,御蔵町於三屋敷９－１,御蔵公会堂前,35.113276,137.237144
愛知県,豊田市,770,小町森ノ下１５－１,小町公会堂横,35.189209,137.329124
愛知県,豊田市,771,東渡合町日向中２０－１,渡合公会堂横,35.179653,137.295868
愛知県,豊田市,772,実栗町久楽後１－１１,実栗集会所道路向かい,35.172745,137.305588
愛知県,豊田市,773,月原町上向田２８－１,月原公民館前,35.182858,137.279007
愛知県,豊田市,774,月原町宮ノ前１３－１,愛東工業横,35.182858,137.279007
愛知県,豊田市,775,花沢町西ノ入４９,花沢四組集会所付近,35.033443,137.276134
愛知県,豊田市,776,花沢町小御堂７７－５,花山わくわく広場,35.03131,137.301484
愛知県,豊田市,777,花沢町松本１５－２,消防ポンプ庫横,35.076889,137.121199
愛知県,豊田市,778,花沢町ヲチ合４２－１,花沢台団地入口,35.028976,137.290424
愛知県,豊田市,779,蕪木町田面１８８－２,蕪木集会所入口,35.022793,137.286484
愛知県,豊田市,780,下山田代町神畑２１,市消防団田代格納庫横,35.024651,137.311401
愛知県,豊田市,781,下山田代町薮田３－１１,花山小学校,35.024651,137.311401
愛知県,豊田市,782,田折町前田４－２,下山地域バス田折停留所付近,35.031006,137.317337
愛知県,豊田市,783,大沼町新井前東６７－１,名鉄バス「新井前」停車場横,35.061113,137.232599
愛知県,豊田市,784,大沼町越田和６０－１,大沼駐在所付近,35.040779,137.319804
愛知県,豊田市,785,大沼町越田和３７－１,下山支所前,35.040742,137.318631
愛知県,豊田市,786,大沼町切山１１－１,ﾛｲﾔﾙｶﾝﾄﾘｰｸﾗﾌﾞ前三叉路,35.060037,137.318995
愛知県,豊田市,787,大沼町後庵１０２－９,下山駐車場,35.046021,137.32379
愛知県,豊田市,788,大沼町浜松５９－１,森林組合前,35.04408,137.329325
愛知県,豊田市,789,大沼町百々平４１－１,東大沼１区集会所前,35.03591,137.318124
愛知県,豊田市,790,大沼町坂口３５－１,梶集会所横,35.048816,137.332396
愛知県,豊田市,791,蘭町大下５８,無人販売所横,35.019749,137.336746
愛知県,豊田市,792,蘭町神田１１－３,国道301蘭町蘭橋付近,35.019749,137.336746
愛知県,豊田市,793,黒坂町下平１８－１,駐在所横,35.007362,137.387268
愛知県,豊田市,794,黒坂町下田２９－１,下山地域バス黒坂下田停留所北,35.007362,137.387268
愛知県,豊田市,795,和合町日影６１－１,観音堂横,35.030939,137.362901
愛知県,豊田市,796,和合町日向２７－２,和合集会所駐車場,35.034363,137.36093
愛知県,豊田市,797,神殿町中切字２５－４,下山地域バス神殿中切停留所付近,35.042004,137.360123
愛知県,豊田市,798,神殿町狐神３３,朝日屋横,35.042004,137.360123
愛知県,豊田市,799,小松野町由ケ入２０－４,下山地域バス小松野由ケ入停留所付近,35.027466,137.346039
愛知県,豊田市,800,大桑町竹ノ内４５－４,下山地域バス大桑停留所付近,35.04244,137.375665
愛知県,豊田市,801,羽布町川合２８－４,東部こども園前,35.029648,137.405487
愛知県,豊田市,802,羽布町柿田１５－１,山遊里,35.029648,137.405487
愛知県,豊田市,803,羽布町寺街津３１,羽布集会所前,35.029648,137.405487
愛知県,豊田市,804,野原町井ノ口４２,下山地域バス野原吉平停留所付近,35.113539,137.213125
愛知県,豊田市,805,野原町石橋１５－２,野原川観光センター向かい,35.053552,137.392492
愛知県,豊田市,806,羽布町堰８－５,旧名鉄バス「社堂」停車場横国道敷,35.029648,137.405487
愛知県,豊田市,807,平瀬町カイド８８－５,平瀬憩の家横,35.053951,137.342996
愛知県,豊田市,808,栃立町ヤフシ４１－１,高福寺向かい,35.052422,137.354538
愛知県,豊田市,809,田平沢町薮下３－１,旧田平沢小学校,35.064026,137.35202
愛知県,豊田市,810,立岩町ゴウド８－３,下山地域バス広域農道辻停留所付近,35.066727,137.363495
愛知県,豊田市,811,東大林町西洞４７－１,下山地域バス東大林西洞停留所付近,35.070587,137.377869
愛知県,豊田市,812,東大林町土川１４－２,大林集会所,35.070587,137.377869
愛知県,豊田市,813,宇連野町宮前２５－２,ブリッジスタッフサービス向かい,35.060204,137.42569
愛知県,豊田市,814,宇連野町方形６６,西ケ洞橋付近,35.060204,137.42569
愛知県,豊田市,815,阿蔵町沢尻９２,下山地域バス阿蔵中停留所西,35.082981,137.423004
愛知県,豊田市,816,阿蔵町池田地内,バス方向転換所前国道敷,35.082981,137.423004
愛知県,豊田市,817,梨野町向田２５,下山地域バス梨野上停留所南,35.089985,137.394592
愛知県,豊田市,818,梨野町西口地内,下山地域バス梨野下停留所南,35.089985,137.394592
愛知県,豊田市,819,高野町鳶巣１３,下山地域バス高野柳停留所南西,35.068711,137.393193
愛知県,豊田市,820,田津原町松ケ下１９－１,田津原町集会場付近,35.209286,137.442444
愛知県,豊田市,821,牛地町西久保２－８５,旧生駒小学校前付近,35.227081,137.45343
愛知県,豊田市,822,閑羅瀬町大切４８,閑羅瀬橋上200ｍ付近,35.231792,137.410583
愛知県,豊田市,823,時瀬町東谷４５－２,建設会社資材倉庫入口付近,35.235725,137.388168
愛知県,豊田市,824,小渡町船戸１,信号交差点～両国橋間,35.227825,137.369461
愛知県,豊田市,825,小渡町七升蒔１３－５,三嶋モータース前付近,35.227825,137.369461
愛知県,豊田市,826,下切町栃本２５５４,下切島崎集会所付近,35.162229,137.330522
愛知県,豊田市,827,下中町真坂２２６９,旭地域バス下中停留所付近,35.237985,137.358639
愛知県,豊田市,828,上切町岡田８２９,辻屋商店付近,35.243975,137.340797
愛知県,豊田市,829,有間町中通２８－２,おいでんバス宇内戸バス停付近,35.222351,137.337616
愛知県,豊田市,830,有間町惣作３３－２,消防器具庫前付近,35.222351,137.337616
愛知県,豊田市,831,笹戸町惣作２９－１,おいでんバス笹戸バス停付近,35.212559,137.329071
愛知県,豊田市,832,市平町中根４５－１,旭地域バス市平停留所付近,35.20673,137.320389
愛知県,豊田市,833,池島町坂口１０,旭地域バス池島停留所付近,35.197517,137.309616
愛知県,豊田市,834,東萩平町内垣内１２－４,東萩平公会堂付近,35.20105,137.329819
愛知県,豊田市,835,大坪町日向下１,大坪津島神社前,35.207986,137.341205
愛知県,豊田市,836,榊野町西ノ入２９,鈴柴建設工業付近,35.189335,137.361679
愛知県,豊田市,837,榊野町池田２５－４,公衆便所付近,35.189335,137.361679
愛知県,豊田市,838,加塩町広見１６,加塩集会所向かい,35.182278,137.379425
愛知県,豊田市,839,押井町松葉２７－３先,押井公会堂付近,35.194733,137.378815
愛知県,豊田市,840,杉本町稲場下３０,敷島小学校前信号交差点,35.205706,137.360125
愛知県,豊田市,841,太田町宮前４３,大田区民館付近,35.209145,137.381471
愛知県,豊田市,842,明賀町アスガ２３,明賀公会堂付近,35.215767,137.368713
愛知県,豊田市,843,惣田町神明寺７－１,惣田町集会所向かい,35.18169,137.393112
愛知県,豊田市,844,小畑町三斗蒔４－２,県道、市道小畑線辻,35.159577,137.345264
愛知県,豊田市,845,日下部町堤１４,日下部公会堂付近,35.196343,137.413144
愛知県,豊田市,846,槙本町道下２－３先,槇本駐在所南,35.1954,137.400543
愛知県,豊田市,847,伊熊町豆生３０－３,伊熊公会堂付近,35.194054,137.390167
愛知県,豊田市,848,旭八幡町橋詰１３先,橋本屋商店前付近,35.208984,137.408936
愛知県,豊田市,849,伯母沢町中島７,旭地域バス伯母沢停留所付近,35.203735,137.391846
愛知県,豊田市,850,余平町本郷２９,消防器具庫付近,35.213921,137.397812
愛知県,豊田市,851,一色町一色４１２－３,旭地域バス一色停留所付近,35.254445,137.34999
愛知県,豊田市,852,浅谷町大屋５２６,消防旭出張所付近,35.250378,137.365433
愛知県,豊田市,853,須渕町中ノ切６０,日吉神社付近,35.249201,137.383813
愛知県,豊田市,854,稲武町タヒラ１番地８先,商工会付近,35.20216,137.553375
愛知県,豊田市,855,稲武町竹ノ下１２－７,保健センター東,35.20216,137.553375
愛知県,豊田市,856,稲武町寺下８番地２,稲武町交差点花壇横,35.20216,137.553375
愛知県,豊田市,857,夏焼町シホヤマ４５番地先,夏焼駐在所付近,35.226067,137.523682
愛知県,豊田市,858,夏焼町ワセグリ９４番地２先,夏焼集会所付近,35.226067,137.523682
愛知県,豊田市,859,中当町宮下４４９番地,中当憩の家付近,35.190437,137.519043
愛知県,豊田市,860,野入町椴木平１１番地６,野入集会場入口付近,35.224785,137.552032
愛知県,豊田市,861,野入町下モ平１７番地４,中日パラグライダー向かい,35.224785,137.552032
愛知県,豊田市,862,大野瀬町日ヨモ２２番地２先,稲武地域バス上柏洞停留所付近,35.262226,137.533569
愛知県,豊田市,863,大野瀬町中ギリ２７番地５,柏洞バス停付近,35.262226,137.533569
愛知県,豊田市,864,大野瀬町ヤシキ廻り３番地１先,上郷バス停付近,35.262226,137.533569
愛知県,豊田市,865,大野瀬町タイラ１２番地１先,大野瀬地区多目的研修集会施設付近,35.262226,137.533569
愛知県,豊田市,866,大野瀬町大サワ１６番地２先,稲武地域バス梨野停留所付近,35.262226,137.533569
愛知県,豊田市,867,大野瀬町アオキタイラ５０番地,稲武大桑老人憩の家,35.262226,137.533569
愛知県,豊田市,868,押山町ススベ９９番地１先,押川地区コミュニティセンタ－付近,35.251488,137.502365
愛知県,豊田市,869,押山町的場４０１番地１先,稲武押山老人憩いの家付近,35.251488,137.502365
愛知県,豊田市,870,川手町ハネ２６番地２,中部電力真弓水力発電所東,35.239639,137.479477
愛知県,豊田市,871,川手町ツキノキ９番地１０先,川手生活改善センター付近,35.239639,137.479477
愛知県,豊田市,872,川手町ミヅフ１８番地１先,稲武地域バス川手停留所付近,35.239639,137.479477
愛知県,豊田市,873,桑原町中山形２５番地,豊田市森林組合稲武支所前,35.220897,137.513693
愛知県,豊田市,874,武節町ソト田８６番地１,武節町集会施設横,35.20752,137.507187
愛知県,豊田市,875,武節町針原２４番地１先,どんぐりの湯駐車場付近,35.20752,137.507187
愛知県,豊田市,876,桑原町下須形４１１番地５,桑原ふれあいプラザ付近,35.214447,137.49986
愛知県,豊田市,877,御所貝津町入山１９番地先,稲武地域バス向田停留所付近,35.214867,137.49176
愛知県,豊田市,878,御所貝津町二貫目１４番地５,駐在所付近,35.214867,137.49176
愛知県,豊田市,879,黒田町尾知６８番地１先,ファミリーマート付近,35.145607,137.344971
愛知県,豊田市,880,黒田町北田１３４番地,黒田集会所北東　国道153号,35.210564,137.481957
愛知県,豊田市,881,黒田町仲田３７０,下黒田バス停前,35.208153,137.47674
愛知県,豊田市,882,黒田町上手６１１番地５,上黒田バス停付近,35.204845,137.468251
愛知県,豊田市,883,黒田町北水別７３３番地１２,水別広場バス停付近,35.197178,137.463594
愛知県,豊田市,884,小田木町水別４番地１,おいでんバス水別停留所付近,35.185917,137.453049
愛知県,豊田市,885,小田木町仲平３３番地３,十六屋橋付近,35.185917,137.453049
愛知県,豊田市,886,小田木町タワカネ４２番地,西組集会所前,35.185917,137.453049
愛知県,豊田市,887,小田木町カキノソレ２３番地１２先,おいでんバス小田木中停留所付近,35.185917,137.453049
愛知県,豊田市,888,小田木町清水畑２０番地１,稲武小田木老人憩いの家,35.185917,137.453049
愛知県,豊田市,889,富永町貝内６８番地,富永集会場付近,35.203907,137.456354
