prefecture,city,number,address,name,lat,long,note
千葉県,八千代市,1-1-1,八千代台南2-25-45,南ヶ丘公園,35.69557820000000,140.0925156,
千葉県,八千代市,1-2-2,八千代台南2-30-2,八千代台南市民の森向側ハイツ八千代台,35.6953864,140.0890353,
千葉県,八千代市,1-3-3,八千代台南3-37-1他,八千代台南市民の森南新田公会堂横,35.6953864,140.0890353,
千葉県,八千代市,1-4-4,八千代台南1-24-1,八千代台南公会堂,35.697588,140.090311,
千葉県,八千代市,1-5-5,八千代台南2-1,八千代台南2-1カールドレール,35.69849690000000,140.0939656,
千葉県,八千代市,1-6-6,八千代台南2-8,八千代台南第1公園ガードレール,35.6970276,140.095087,
千葉県,八千代市,1-7-7,八千代台南1-192-14,八千代台駅東口地下道入口横植栽,35.7007048,140.0903685,
千葉県,八千代市,1-8-8,八千代台南2-31-2,八千代台南2-1-14南市民の森バス停横,35.6969706,140.084407,
千葉県,八千代市,2-1-9,八千代台東1-212-73,東町子供の遊場,35.702922,140.0952884,
千葉県,八千代市,2-2-10,八千代台東1-205-74,八千代台東第4公園西側,35.7003213,140.0933089,
千葉県,八千代市,2-3-11,八千代台東1-205-74,八千代台東第4公園東側,35.7003213,140.0933089,
千葉県,八千代市,2-4-12,八千代台東1-1-10,ユアエルム第3駐車場,35.7006516,140.0943382,
千葉県,八千代市,2-5-13,八千代台東2-5-1地先,八千代台東小学校道路沿い,35.6988093,140.0957851,
千葉県,八千代市,2-6-14,八千代台東2-214,八千代台東第3公園,35.7000008,140.0978496,
千葉県,八千代市,2-7-15,八千代台東1-15-3,京成サンコーポ駐車場入口横,35.7015995,140.092375,
千葉県,八千代市,3-1-16,八千代台東5-1550-3,八千代台東5丁目第1児童遊園,35.7094524,140.1039038,
千葉県,八千代市,3-2-17,八千代台東5-1557-2・4,八千代台東5丁目踏切横土手,35.710456, 140.104220,
千葉県,八千代市,3-3-18,八千代台東4-268-1,八千代台東子供の森横,35.70627, 140.09863,
千葉県,八千代市,3-4-19,八千代台東3-1937-1他,八千代台近隣公園,35.7041471,140.1016621,
千葉県,八千代市,3-5-20,八千代台東5-1536-16,八千代台東5丁目第2児童遊園,35.707422,140.098802,
千葉県,八千代市,3-6-21,八千代台東6-296-15,八千代台東6丁目公園,35.7054496,140.1022665,
千葉県,八千代市,3-7-22,八千代台東3-240-6,八千代台東3丁目240-6,35.7031638,140.0990251,
千葉県,八千代市,4-1-23,八千代台西5-9-1,愛宕公会堂八千代台第5公園,35.7006485,140.0834402,
千葉県,八千代市,4-2-24,八千代台西8-525-87,八千代台西8丁目第1児童遊園,35.7002647,140.079331,
千葉県,八千代市,4-3-25,八千代台西8-19-7,愛宕公会堂,35.6995145,140.0810752,
千葉県,八千代市,4-4-26,八千代台西10-839-42,愛宕自治会児童遊園,35.6993103,140.077503,
千葉県,八千代市,4-5-27,八千代台西8-441-27,愛宕公会堂八千代台西8丁目第4児童遊園,35.6989348,140.0830674,
千葉県,八千代市,4-6-28,八千代台西10-779-23,愛宕みどり児童遊園,35.698308,140.0787896,
千葉県,八千代市,4-7-29,八千代台西8-524-3,八千代台西7丁目第3児童遊園,35.7032745,140.0864173,
千葉県,八千代市,5-1-30,八千代台西3-8-1,八千代台第2公園,35.6997285,140.0863732,
千葉県,八千代市,5-2-31,八千代台西1-8,八千代台小学校北側,35.7019793,140.0888664,
千葉県,八千代市,5-3-32,八千代台西1-8,八千代台小学校南側,35.7019793,140.0888664,
千葉県,八千代市,5-4-33,八千代台北3-9-1,八千代台第1公園,35.7047613,140.091395,
千葉県,八千代市,5-5-34,八千代台西3-8-1,masked,35.6997285,140.0863732,
千葉県,八千代市,5-6-35,八千代台北4-3-1,八千代台北第2児童遊園,35.7059778,140.0946991,
千葉県,八千代市,5-7-36,八千代台北1-3-1,八千代台第3公園,35.7020945,140.0905085,
千葉県,八千代市,6-1-37,八千代台北7-9-1,八千代台第4公園,35.7063635,140.0896153,
千葉県,八千代市,6-2-38,高津8-2,八千代台浄水場裏ガードレール,35.7035063,140.0852329,
千葉県,八千代市,6-3-39,八千代台西7-23-1,八千代台西小学校正門横,35.7028439,140.084751,
千葉県,八千代市,6-4-40,八千代台西7-23-1,八千代台西小学校西側,35.7028439,140.084751,
千葉県,八千代市,6-5-41,八千代台西7-2-69,八千代台西小学校東側ガードレール,35.7028439,140.084751,
千葉県,八千代市,6-6-42,八千代台北10-6,防衛省官舎10棟前三角地,35.7104794,140.0889868,
千葉県,八千代市,6-7-43,八千代台西7-4-1,旧中古車店向側三角地花壇,35.699034,140.0842493,
千葉県,八千代市,7-1-44,八千代台北12-2-5,masked,35.7080322,140.0967436,
千葉県,八千代市,7-2-45,八千代台北17-1842-7,わかば公園,35.713546,140.0998292,
千葉県,八千代市,7-3-46,八千代台北15-1583-2,八千代台北市民の森東側,35.7111487,140.0995324,
千葉県,八千代市,7-4-47,八千代台北15-1587-44,八千代台北15丁目第2児童遊園,35.7113333,140.0986131,
千葉県,八千代市,7-5-48,八千代台北15-1583-2,八千代台北市民の森西側,35.7111487,140.0995324,
千葉県,八千代市,7-6-49,八千代台北13-343-103,八千代台北13-2-36リヴェール北横,35.7088085,140.0937752,
千葉県,八千代市,7-7-50,八千代台北15-1557-59,北東児童遊園,35.7099257,140.0999901,
千葉県,八千代市,8-1-51,高津東3-6-2,高津東第1公園西側,35.7161609,140.0948681,
千葉県,八千代市,8-2-52,八千代台北17-1811-16,あさひ公園,35.71478950000000,140.0968724,
千葉県,八千代市,8-3-53,八千代台北14-9-1,八千代中学校正門横,35.7129, 140.09633,
千葉県,八千代市,8-4-54,高津東4-7-17,高津東第2公園,35.7143923,140.0912635,
千葉県,八千代市,8-5-55,八千代台北13-23,八千代台北子供の森入口,35.7114544,140.0945174,
千葉県,八千代市,8-6-56,高津東3-6-2,高津東第1公園東側,35.7161609,140.0948681,
千葉県,八千代市,8-7-57,八千代台北13-23,八千代台北子供の森北側,35.7114544,140.0945174,
千葉県,八千代市,9-1-58,大和田138-2,教育委員会入口,35.7166364,140.1053488,
千葉県,八千代市,9-2-59,大和田250-11,大和田図書館入口,35.7145291,140.105456,
千葉県,八千代市,9-3-60,大和田250-1,大和田児童公園西側,35.7142309,140.1049291,
千葉県,八千代市,9-4-61,大和田300-1,大和田南第2公園,35.7105, 140.10735,
千葉県,八千代市,9-5-62,大和田580-2,名木児童公園,35.7122343,140.1048681,
千葉県,八千代市,9-6-63,大和田860-13,大和田第2公園,35.7162057,140.1106892,
千葉県,八千代市,9-7-64,大和田980-17,大和田第3公園,35.7137548,140.1116108,
千葉県,八千代市,10-1-65,大和田678,上高津児童公園東側,35.7156578,140.0984389,
千葉県,八千代市,10-2-66,大和田678,上高津児童公園西側,35.7156578,140.0984389,
千葉県,八千代市,10-3-67,大和田628,大和田南小学校正門横,35.713964,140.101473,
千葉県,八千代市,10-4-68,大和田628,大和田南小学校体育館側,35.713964,140.101473,
千葉県,八千代市,10-5-69,大和田628,大和田南小学校裏門横,35.713964,140.101473,
千葉県,八千代市,10-6-70,大和田656,masked,35.7151489,140.0980053,
千葉県,八千代市,10-7-71,高津1243-5,masked,35.7162993,140.0961334,
千葉県,八千代市,11-1-72,萱田町253他,八千代総合運動公園多目的広場,35.7245189,140.1117904,
千葉県,八千代市,11-2-73,萱田町728,市民会館表,35.7243078,140.1089661,
千葉県,八千代市,11-3-74,萱田2277,旧子ども支援センターすてっぷ21大和田,35.7223809,140.1080655,
千葉県,八千代市,11-4-75,萱田町721-1,萱田町市民の森,35.7234127,140.1098743,
千葉県,八千代市,11-5-76,萱田町1160-7,萱田町公園,35.7195047,140.1115861,
千葉県,八千代市,11-6-77,萱田町728,市民会館裏花壇,35.7243078,140.1089661,
千葉県,八千代市,11-7-78,萱田町893-4,上ノ山公園,35.7204577,140.1091785,
千葉県,八千代市,12-1-79,萱田町645,大和田中学校裏門横,35.721788,140.1037913,
千葉県,八千代市,12-2-80,萱田町628,大和田小学校裏門横,35.7210067,140.1023884,
千葉県,八千代市,12-3-81,萱田町645,大和田中学校正門横,35.721788,140.1037913,
千葉県,八千代市,12-4-82,萱田町645,大和田中学校バックネット裏,35.721788,140.1037913,
千葉県,八千代市,12-5-83,萱田2237,萱田2237 満福亭向側植栽,35.7235934,140.1008623,
千葉県,八千代市,12-6-84,萱田2237-19,ハミングロード入口横植栽,35.723893,140.1002247,
千葉県,八千代市,12-7-85,萱田2245,コンビニ向側植栽,35.7241765,140.1049032,
千葉県,八千代市,13-1-86,大和田新田312-5,市役所正門横花壇,35.7221516,140.1004005,
千葉県,八千代市,13-2-87,大和田新田312-5,市役所東側駐車場,35.7224364,140.0998262,
千葉県,八千代市,13-3-88,ゆりのき台3-8-1,萱田地区公園野球場横,35.7330426,140.1006345,
千葉県,八千代市,13-4-89,ゆりのき台3-1,八千代中央駅入口植栽,35.7286017,140.1024559,
千葉県,八千代市,13-5-90,大和田新田201-15,飯盛台第2公園,35.7195535,140.0965622,
千葉県,八千代市,13-6-91,ゆりのき台4-2,萱田第2緑地,35.727689,140.1064472,
千葉県,八千代市,13-7-92,大和田新田514-74,坊山団地児童遊園,35.727335,140.0992996,
千葉県,八千代市,13-8-93,ゆりのき台3-6,萱田第3号公園,35.7296089,140.1024918,
千葉県,八千代市,14-1-94,高津東2-8-1地先,高津東2丁目8下水路ガードレール,35.7159222,140.0904321,
千葉県,八千代市,14-2-95,大和田新田109-16向い,高津小鳥の森入口向い三角地,35.720866, 140.081893,
千葉県,八千代市,14-3-96,高津東2-10,高津東第3公園,35.7167186,140.0910256,
千葉県,八千代市,14-4-97,大和田新田185-4他,高津北田公園,35.7191687,140.0937272,
千葉県,八千代市,14-5-98,高津1156-43他,東高津公園,35.719654,140.0909746,
千葉県,八千代市,14-6-99,高津1092,東高津中学校正門横,35.719108,140.090285,
千葉県,八千代市,14-7-100,高津1092,東高津中学校裏門横,35.719108,140.090285,
千葉県,八千代市,15-1-101,高津団地3街区28棟,高津団地3街区28棟前,35.7168642,140.0791161,
千葉県,八千代市,15-2-102,高津390-137,ローズ第2児童公園,35.7162068,140.0771368,
千葉県,八千代市,15-3-103,高津390-275,南高津保育園横公園,35.7168015,140.0817078,
千葉県,八千代市,15-4-104,"高津390-353,412-37",ローズ第1児童公園,35.7154777,140.0805719,
千葉県,八千代市,15-5-105,高津団地3街区14棟,高津団地3街区14棟前,35.7168642,140.0791161,
千葉県,八千代市,15-6-106,高津421-3,南高津小学校裏門横,35.7168015,140.0817078,
千葉県,八千代市,15-7-107,高津団地3街区5棟,高津団地3街区5棟裏,35.7168642,140.0791161,
千葉県,八千代市,16-1-108,高津934-20,高津念田公園,35.719398,140.0843563,
千葉県,八千代市,16-2-109,高津738-6,高津小学校バス停横,35.7182636,140.0831983,
千葉県,八千代市,16-3-110,高津738-6,高津小学校西側,35.7182636,140.0831983,
千葉県,八千代市,16-4-111,高津団地2街区1棟,高津団地2街区1棟横,35.7191762,140.0788583,
千葉県,八千代市,16-5-112,高津団地2街区5棟,高津団地2街区5棟前,35.7191762,140.0788583,
千葉県,八千代市,16-6-113,高津団地1街区2棟,高津団地1街区2棟横,35.7168642,140.0791161,
千葉県,八千代市,16-7-114,高津880-4,高津中学校体育館側,35.7203648,140.0797029,
千葉県,八千代市,17-1-115,高津団地7街区4棟,高津団地7街区4棟横,35.7168642,140.0791161,
千葉県,八千代市,17-2-116,高津団地6街区2棟,高津団地6街区2棟横,35.7168642,140.0791161,
千葉県,八千代市,17-3-117,高津団地6街区4棟,高津団地6街区4棟横,35.7168642,140.0791161,
千葉県,八千代市,17-4-118,高津団地6街区7棟,高津団地6街区7棟横,35.7168642,140.0791161,
千葉県,八千代市,17-5-119,高津832-38,高津小学校グランド入口横,35.7181336,140.0746029,
千葉県,八千代市,17-6-120,高津832-38,高津小学校正門入口横,35.7181336,140.0746029,
千葉県,八千代市,17-7-121,大和田新田47-35,ことぶき公園,35.7185915,140.0722973,
千葉県,八千代市,18-1-122,大和田新田1054-6,うぐいす児童公園,35.7220371,140.0678378,
千葉県,八千代市,18-2-123,大和田新田946-1他,緑が丘南公園,35.7254041,140.0783108,
千葉県,八千代市,18-3-124,大和田新田962-7,新木戸公会堂,35.7229493,140.0719468,
千葉県,八千代市,18-4-125,大和田新田42-2他,大和田新田樹木見本園隣接公園,35.7204597,140.0714306,
千葉県,八千代市,18-5-126,大和田新田59-108,あけぼの公園,35.7214564,140.0745411,
千葉県,八千代市,18-6-127,大和田新田1082-92,八幡後第5公園,35.7237795,140.0647377,
千葉県,八千代市,18-7-128,大和田新田960-16,大和田新田960-16緑地,35.7257193,140.0759856,
千葉県,八千代市,18-8-129,大和田新田40-42,新木戸前第3公園,35.7200527,140.068964,
千葉県,八千代市,19-1-130,萱田町542-49,つばき公園,35.725673,140.095358,
千葉県,八千代市,19-2-131,大和田新田469-444,さつき公園,35.7269294,140.0917569,
千葉県,八千代市,19-3-132,大和田新田409-3,大和田西小学校グランド入口横,35.726343,140.090873,
千葉県,八千代市,19-4-133,大和田新田468-6,向山第3公園入口,35.7287848,140.0911535,
千葉県,八千代市,19-5-134,萱田町542-16,調整池（萱田町542-16）,35.7256586,140.0944721,
千葉県,八千代市,19-6-135,大和田新田423-72,一本松児童公園,35.7251938,140.0877014,
千葉県,八千代市,19-7-136,大和田新田747-2,長兵衛野第2公園,35.7315852,140.0897969,
千葉県,八千代市,19-8-137,大和田新田763-22,めじろ児童公園,35.730182,140.084142,
千葉県,八千代市,19-9-138,大和田新田127-177,ティアラ一本松前第2公園,35.7220874,140.0883141,
千葉県,八千代市,20-1-139,萱田1104-1,萱田下公会堂,35.7337044,140.1070714,
千葉県,八千代市,20-2-140,ゆりのき台8-10,飯綱近隣公園,35.737303,140.1066361,
千葉県,八千代市,20-3-141,大和田新田564,山田ダンボール,35.7323386,140.093751,
千葉県,八千代市,20-4-142,麦丸1089-1,masked,35.745983,140.1005046,
千葉県,八千代市,20-5-143,萱田438-1,東電萱丸変電所正門向側土手,35.7411789,140.1087559,
千葉県,八千代市,20-6-144,ゆりのき台7-16,萱田第1号公園,35.7376799,140.103253,
千葉県,八千代市,20-7-145,ゆりのき台6-20,萱田小学校正門横,35.743175,140.1112656,
千葉県,八千代市,20-8-146,ゆりのき台5-22,萱田第2号公園,35.7337037,140.1037371,
千葉県,八千代市,21-1-147,吉橋1279-1,花輪公会堂,35.7439911,140.0858599,
千葉県,八千代市,21-2-148,吉橋833地先,貞福寺駐車場前ガードレール,35.74416740000000,140.0873987,
千葉県,八千代市,21-3-149,吉橋1195-1,八幡宮県道沿い,35.7420712,140.0817402,
千葉県,八千代市,21-4-150,吉橋2276-1,吉橋2276-1向側ガードレール,35.744817, 140.078769,
千葉県,八千代市,21-5-151,吉橋722,尾崎公会堂,35.7455273,140.0896875,
千葉県,八千代市,21-6-152,吉橋1083-7,吉橋第2公園,35.7321736,140.0781718,
千葉県,八千代市,22-1-153,島田2076地先,やちよ農業交流センター入口付近ガードレール,35.7599915,140.1052559,
千葉県,八千代市,22-2-154,島田台756,睦公民館,35.756929,140.087615,
千葉県,八千代市,22-3-155,島田台756,睦中学校裏門横,35.7567362,140.0877026,
千葉県,八千代市,22-4-156,桑納176,睦小学校正門横,35.7575583,140.0975393,
千葉県,八千代市,22-5-157,島田235-1,島田協同館,35.7613733,140.101924,
千葉県,八千代市,22-6-158,桑納398,威光院,35.7551736,140.1002508,
千葉県,八千代市,22-7-159,島田台775-1,睦スポーツ広場前,35.7544584,140.0938341,
千葉県,八千代市,22-8-160,masked,むつみ台児童遊園,35.759633,140.0869613,
千葉県,八千代市,23-1-161,島田816-1,新島田町会入口横,35.7636991,140.1022377,
千葉県,八千代市,23-2-162,島田台1052,島田台協同館,35.7676986,140.0941324,
千葉県,八千代市,23-3-163,島田台810-1,株式会社長谷川建設横山林,35.7627871,140.0913464,
千葉県,八千代市,23-4-164,島田台884-2,マクドナルド16号島田台店向側畑,35.768324,140.0987277,
千葉県,八千代市,23-5-165,島田台1288-9,株東和重機工事,35.7605787,140.0884985,
千葉県,八千代市,24-1-166,神野978-1,masked,35.7669846,140.1279447,
千葉県,八千代市,24-2-167,保品1915-22,もえぎ野公園,35.7585396,140.1263364,
千葉県,八千代市,24-3-168,神野744,玉蔵院,35.7678352,140.1294111,
千葉県,八千代市,24-4-169,保品967-3,保品バス停横畑,35.7602856,140.1400386,
千葉県,八千代市,24-5-170,神野1151-19,かたらい公園,35.7622741,140.1238369,
千葉県,八千代市,24-6-171,保品1036,masked,35.7616673,140.1433808,
千葉県,八千代市,24-7-172,保品1060-2,少年自然の家駐車場,35.7600827,140.1429321,
千葉県,八千代市,24-8-173,神野1119-55,やすらぎ公園,35.7669846,140.1279447,
千葉県,八千代市,25-1-174,上高野417-3,上高野十字路 月極駐車場横,35.739421,140.131040,
千葉県,八千代市,25-2-175,米本1737,masked,35.7471535,140.114968,
千葉県,八千代市,25-3-176,米本1765,米本神社土手,35.7447024,140.1141617,
千葉県,八千代市,25-4-177,米本2586,旧阿蘇小学校裏門横,35.748033,140.121323,
千葉県,八千代市,25-5-178,米本1914,阿蘇米本学園正門横,35.7448636,140.1238364,
千葉県,八千代市,26-6-179,上高野640-2,ふれあいプラザ入口,35.73635, 140.13676,
千葉県,八千代市,25-7-180,下高野282,下高野入口ゲートボール場跡地,35.7496168,140.1383899,
千葉県,八千代市,25-8-181,米本2424,稲荷神社,35.7561604,140.1197171,
千葉県,八千代市,26-1-182,米本団地5街区26棟,米本団地5街区26棟横,35.7572645,140.1093817,
千葉県,八千代市,26-2-183,米本団地5街区2棟,米本団地5街区2棟前,35.7572645,140.1093817,
千葉県,八千代市,26-3-184,米本1441-7,東洋バスターミナル横土手,35.758129,140.1098382,
千葉県,八千代市,26-4-185,米本団地3街区35棟,米本団地3街区35棟横,35.75952360000000,140.1135183,
千葉県,八千代市,26-5-186,米本団地3街区32棟地先,米本団地米本幼稚園前花壇,35.75952360000000,140.1135183,
千葉県,八千代市,26-6-187,米本団地5街区12棟,米本団地5街区12棟横,35.7572645,140.1093817,
千葉県,八千代市,26-7-188,米本団地4街区24棟,米本団地4街区24棟横,35.75776950000000,140.1119042,
千葉県,八千代市,27-1-189,米本団地4街区4棟,米本団地4街区4棟横,35.75776950000000,140.1119042,
千葉県,八千代市,27-2-190,米本2207-8,ショッピングセンター前緑地帯,35.7551315,140.1152169,
千葉県,八千代市,27-3-191,阿蘇公民館,阿蘇公民館横,35.75614060000000,140.1135606,
千葉県,八千代市,27-4-192,"米本2332-42, 2252-90",米本第2公園,35.7554613,140.1176402,
千葉県,八千代市,27-5-193,米本2301,旧米本南小学校正門横,35.7535845,140.1173934,
千葉県,八千代市,27-6-194,米本2252-11,米本第3公園,35.7515081,140.1171428,
千葉県,八千代市,27-7-195,米本団地3街区4棟,米本団地3街区4棟前,35.75952360000000,140.1135183,
千葉県,八千代市,28-1-196,村上813-1地先,葉地側ガードレール,35.7394897,140.1179719,
千葉県,八千代市,28-2-197,村上433,masked,35.7386838,140.1174795,
千葉県,八千代市,28-3-198,村上南3-9-2,辺田前2号公園,35.7220646,140.1144251,
千葉県,八千代市,28-4-199,村上4379,村上第2汚水中継ポンプ場,35.7204816,140.1149209,
千葉県,八千代市,28-5-200,村上南2-14-24,辺田前公民館,35.7253925,140.1162854,
千葉県,八千代市,28-6-201,村上南5-7-6,辺田前4号公園,35.7210086,140.120295,
千葉県,八千代市,28-7-202,村上南1-10地先,村上駅前ロータリー植込み,35.7227432,140.1192376,
千葉県,八千代市,28-8-203,村上1136-4,村上グラウンド,35.7312874,140.1198458,
千葉県,八千代市,29-1-204,村上1055-15,村上北小学校東側,35.7354646,140.1225017,
千葉県,八千代市,29-2-205,村上団地3街区26棟,村上団地3街区26棟横,35.7330789,140.1218016,
千葉県,八千代市,29-3-206,村上団地2街区15棟,村上団地2街区15棟後ろバス停横,35.7274906,140.1240679,
千葉県,八千代市,29-4-207,村上901-2他、上高野2041-7他,村上緑地公園南側,35.7335629,140.1260727,
千葉県,八千代市,29-5-208,村上901-2他、上高野2041-7他,村上緑地公園正門横,35.7335629,140.1260727,
千葉県,八千代市,29-6-209,村上1113-1,村上東中学校正門横,35.72885100000000,140.1258034,
千葉県,八千代市,29-7-210,村上1136-5他,村上第1緑地,35.730462,140.1215792,
千葉県,八千代市,30-1-211,村上団地1街区1棟,村上団地1街区1棟横,35.725143, 140.126202,
千葉県,八千代市,30-2-212,村上1638-1他,村上神明公園,35.7272599,140.1200114,
千葉県,八千代市,30-3-213,村上1643-46,村上団地第4バス停向,35.728624,140.1233127,
千葉県,八千代市,30-4-214,村上団地1街区27棟,村上団地1街区27棟,35.724680, 140.123019,
千葉県,八千代市,30-5-215,村上団地1街区39棟,村上団地1街区39棟向,35.72946, 140.12119,
千葉県,八千代市,30-6-216,村上1113-1,村上公民館横,35.7290385,140.1210452,
千葉県,八千代市,30-7-217,村上1643-55,村上中学校体育館側,35.72579900000000,140.121044,
千葉県,八千代市,30-8-218,村上1826-33,村上1826-33 高架下,35.723845,140.1239874,
千葉県,八千代市,31-1-219,上高野1181-9,稲荷前第2公園,35.7190541,140.1304033,
千葉県,八千代市,31-2-220,上高野1338-46,大野芝山公園,35.7276543,140.137112,
千葉県,八千代市,31-3-221,上高野1284-2,上高野原連合自治会館,35.7241972,140.1362047,
千葉県,八千代市,31-4-222,上高野1347-52,大野台公園,35.7293863,140.1382916,
千葉県,八千代市,31-5-223,上高野1344-3,上高野第7児童遊園,35.7296369,140.1367918,
千葉県,八千代市,31-6-224,上高野1536-43,細田台児童公園,35.7287217,140.1360418,
千葉県,八千代市,31-7-225,村上1113-1,村上東小学校正門横,35.7269974,140.1253549,
千葉県,八千代市,31-8-226,上高野1289-95,大野台第2児童公園,35.7260591,140.1406533,
千葉県,八千代市,32-1-227,村上4488-12,黒沢池市民の森東側,35.7199618,140.1255557,
千葉県,八千代市,32-2-228,下市場1-92,下市場児童遊園,35.7171694,140.1182363,
千葉県,八千代市,32-3-229,勝田台北1-17 (旧村上4487),白町公園,35.7166849,140.1220793,
千葉県,八千代市,32-4-230,勝田台北1-4 (旧村上4496),栄町公園,35.7173652,140.1250144,
千葉県,八千代市,32-5-231,村上2095-100,黒沢池上公園,35.7185395,140.1237173,
千葉県,八千代市,32-6-232,下市場2-4470-2,村上干場子供の遊場,35.7310507,140.1232238,
千葉県,八千代市,32-7-233,勝田台1-9-6向い,勝田台駅駐輪場横ガードレール,35.71546, 140.12824,
千葉県,八千代市,32-8-234,勝田台北2-13-20,勝田台北2-13-20向側緑地帯,35.717733, 140.122315,
千葉県,八千代市,33-1-235,勝田台2-14,勝田台小学校正門横,35.7110122,140.1280932,
千葉県,八千代市,33-2-236,勝田台2-9,勝田台第6公園,35.7119515,140.1302471,
千葉県,八千代市,33-3-237,勝田台2-32,勝田台第5公園,35.7100243,140.1271317,
千葉県,八千代市,33-4-238,勝田台2-14,勝田台小学校グランド,35.7110122,140.1280932,
千葉県,八千代市,33-5-239,勝田台7-16-1,勝田台第7公園,35.7144186,140.1293061,
千葉県,八千代市,33-6-240,勝田台1-8,勝田台駅南口ロータリー植栽,35.7153028,140.1265696,
千葉県,八千代市,33-7-241,勝田台1-44-4,勝田台1丁目緑地,35.712525,140.1236383,
千葉県,八千代市,34-1-242,勝田592,円福寺（勝田区会館）,35.70216140000000,140.1250624,
千葉県,八千代市,34-2-243,勝田台3-1,勝田台中学校体育館前,35.707764,140.1247829,
千葉県,八千代市,34-3-244,勝田台南2-943,八勝園市民の森,35.7103938,140.1235329,
千葉県,八千代市,34-4-245,勝田台南3-17-29,五百堂公園,35.7094918,140.1184258,
千葉県,八千代市,34-5-246,勝田台3-31-1,勝田台中央公園東側,35.7081105,140.128964,
千葉県,八千代市,34-6-247,勝田台1-47地先,八千代高等学校横ガードレール,35.71457, 140.12297,
千葉県,八千代市,34-7-248,勝田台3-1,勝田台中学校,35.707764,140.1247829,
千葉県,八千代市,35-1-249,勝田台5-36,梵天塚公園,35.7040503,140.1297732,
千葉県,八千代市,35-2-250,勝田台5-9,勝田台南小学校体育館側入口横,35.705098, 140.132443,
千葉県,八千代市,35-3-251,勝田台5-9,勝田台南小学校楠医院側,35.704734, 140.131497,
千葉県,八千代市,35-4-252,勝田台5-9,勝田台南小学校校舎側入口横,35.705946, 140.131480,
千葉県,八千代市,35-5-253,勝田1282-23,新東原第2公園,35.7029257,140.1368706,
千葉県,八千代市,35-6-254,勝田台5-27,勝田台第4公園,35.7045355,140.1329619,
千葉県,八千代市,35-7-255,勝田台5-13,勝田台第2公園,35.7071733,140.1338169,
千葉県,八千代市,36-1-256,緑が丘5-16,季節の杜公園,35.7298894,140.0816824,
千葉県,八千代市,36-2-257,みすみ公園,大和田新田1019-126,35.725282,140.0728938,
千葉県,八千代市,36-3-258,新木戸小学校正門横,緑が丘2-4,35.726448,140.071847,
千葉県,八千代市,36-4-259,6号街区公園,緑が丘西2-205,35.7337017,140.0714478,
千葉県,八千代市,36-5-260,まどか公園,大和田新田1111-39,35.7264563,140.0762637,
千葉県,八千代市,36-6-261,八千代緑が丘駅前ロータリー植込み,緑が丘1-101地先,35.7298661,140.0727797,
千葉県,八千代市,36-7-262,光の杜公園,緑が丘1-24,35.7300036,140.0780003,
千葉県,八千代市,36-8-263,スポーツの杜公園,緑が丘４丁目９,35.7282797,140.0770239,
千葉県,八千代市,36-9-264,新木戸小学校裏門横,緑が丘２丁目４,35.726448,140.071847,
千葉県,八千代市,37-1-265,秀明大学入口横佐山緑地,島田台978-1,35.7705792,140.1016762,
千葉県,八千代市,37-2-266,大学町自治会館横佐山緑地,大学町5-974-13他,35.7734521,140.1043056,
千葉県,八千代市,37-3-267,佐山第2緑地,大学町5-964-102他,35.7731222,140.1077449,
千葉県,八千代市,37-4-268,小池298-1畑,小池298-1,35.77779, 140.09232,
千葉県,八千代市,37-5-269,佐山児童公園,大学町2-196-151,35.772592,140.1021627,
千葉県,八千代市,37-6-270,熱田ヶ池公園,大学町5-1858-4他,35.7748949,140.1072807,
千葉県,八千代市,37-7-271,平戸水神宮,平戸682,35.7693717,140.1131396,
千葉県,八千代市,38-1-272,みどりが丘小学校裏門横,緑が丘西3-14,35.7380345,140.0721313,
千葉県,八千代市,38-2-273,みどりが丘小学校正門横,緑が丘西3-14,35.7380345,140.0721313,
千葉県,八千代市,38-3-274,北東部近隣公園北側駐車場脇,緑が丘西7-213,35.7404619,140.075324,
千葉県,八千代市,38-4-275,西八千代調理場入口脇,緑が丘西8-7-1,35.744128,140.0716603,
千葉県,八千代市,38-5-276,3号街区公園,緑が丘西5-210,35.7400087,140.0694565,
千葉県,八千代市,38-6-277,2号街区公園,緑が丘西7-212,35.740084,140.07131,
千葉県,八千代市,38-7-278,5号街区公園,緑が丘西4-208,35.7374545,140.0691775,
