prefecture,city,number,address,name,lat,long,note
千葉県,勝浦市,1-1,出水1297,勝浦市立図書館前,35.1495544,140.3176084,
千葉県,勝浦市,1-2,川津1472,新勝浦漁港漁協川津支所前,35.1447268,140.3254266,
千葉県,勝浦市,1-3,漁港1408,漁港周辺民館前,35.144577,140.3130431,緯度経度は怪しい
千葉県,勝浦市,1-4,星名69101,勝浦駅前,35.1522272,140.3208833,
千葉県,勝浦市,1-5,出水121202,出水市内駐車場前,35.1535457,140.3178697,
千葉県,勝浦市,1-6,沢谷639015,カネホハイツ前,35.1522272,140.3208833,緯度経度は怪しい
千葉県,勝浦市,1-7,武蔵浦1188,児安宅前,35.1522272,140.3208833,
千葉県,勝浦市,2-1,新宿18201,新宿区民会館前,35.1522272,140.3208833,緯度経度は怪しい
千葉県,勝浦市,2-2,新宿207,新勝浦漁港漁協組合本所前,35.1522272,140.3208833,緯度経度は怪しい
千葉県,勝浦市,2-3,部族31,江衣宅前,35.1522272,140.3208833,緯度経度は怪しい
千葉県,勝浦市,2-4,部族109004,若林駐車場前,35.1522272,140.3208833,緯度経度は怪しい
千葉県,勝浦市,2-5,部族1127,国道志原二又停留所脇,35.1522272,140.3208833,緯度経度は怪しい
千葉県,勝浦市,2-6,部族1917,駒木宅前,35.1522272,140.3208833,緯度経度は怪しい
千葉県,勝浦市,3-1,松部1007,（元）椿立小学校前,35.1522272,140.3208833,緯度経度は怪しい
千葉県,勝浦市,3-2,松部1648,新勝浦漁港漁協組合西支所前三叉路,35.1522272,140.3208833,緯度経度は怪しい
千葉県,勝浦市,3-3,松部1087,ささ美容室前,35.1522272,140.3208833,緯度経度は怪しい
千葉県,勝浦市,3-4,松部1529,三共ストアー前,35.1522272,140.3208833,緯度経度は怪しい
千葉県,勝浦市,3-5,串浜79,串浜区民会館前,35.1607457,140.2991729,緯度経度は怪しい
千葉県,勝浦市,3-6,串浜48,石井宅前,35.1509564,140.2953255,
千葉県,勝浦市,3-7,串浜1907,串浜浜田耕作所前,35.1666319,140.3015702,緯度経度は怪しい
千葉県,勝浦市,4-1,興津307,興津駅前駐場付近,35.1372228,140.2509463,緯度経度は怪しい
千葉県,勝浦市,4-2,興津142,興津トンネル前交差点脇,35.1372276,140.254177,
千葉県,勝浦市,4-3,興津8701,興津児童公園,35.1349957,140.2468278,緯度経度は怪しい
千葉県,勝浦市,4-4,興津2605,伊勢屋商店前,35.1360141,140.248692,
千葉県,勝浦市,4-5,興津672,司城宅前,35.1365962,140.2481183,
千葉県,勝浦市,4-6,興津254102,興津棟交差点付近,35.1349957,140.2468278,緯度経度は怪しい
千葉県,勝浦市,4-7,興津1620,栗東宅前,35.1338004,140.2447385,
千葉県,勝浦市,4-8,興津1845,ミレーニア勝浦入口交差点,35.1349957,140.2468278,緯度経度は怪しい
千葉県,勝浦市,5-1,能登１５１０２,元 清海小学校前,35.1522272,140.3208833,
千葉県,勝浦市,5-2,能登１６８３０２,能登区防災備蓄倉庫前,35.1522272,140.3208833,
千葉県,勝浦市,5-3,能登７６１,能尻浜防災貯蔵庫前,35.1522272,140.3208833,
千葉県,勝浦市,5-4,吉原４０８,歴代商店前（吉原荒生漁業組）,35.1522272,140.3208833,緯度経度は怪しい
千葉県,勝浦市,5-5,吉原５４４０１,民宿岡野駐車場前,35.1522272,140.3208833,緯度経度は怪しい
千葉県,勝浦市,5-6,守谷８１６,守谷児童庭園,35.1419915,140.263085,緯度経度は怪しい
千葉県,勝浦市,5-7,守谷９７０,打尾向施設,35.1398223,140.2579816,
千葉県,勝浦市,5-8,守谷９７,旧日本工機勝原江場三叉路,35.1383036,140.2644845,緯度経度は怪しい
千葉県,勝浦市,6-1,浜竹川８６８,元 行川小学校前,35.1522272,140.3208833,緯度経度は怪しい
千葉県,勝浦市,6-2,浜行川４１５,渡辺宅前,35.1228758,140.2328366,
千葉県,勝浦市,6-3,浜行川４４２,新潟潟市漁業協同組合行川支所入口,35.1224458,140.233759,緯度経度は怪しい
千葉県,勝浦市,6-4,浜行川１９１０,有限仁科水道屋,35.1307908,140.2181123,
千葉県,勝浦市,6-5,大沢３３３,新潟南市漁業協同組合大沢支所前,35.1169001,140.2196217,緯度経度は怪しい
千葉県,勝浦市,6-6,大沢２７２０１,廃浜宅前,35.1191961,140.2167174,
千葉県,勝浦市,6-7,大沢７４,鈴木宅前,35.1226218,140.2190309,緯度経度は怪しい
千葉県,勝浦市,7-1,名木８９－１３,名木親戚宅前,35.1530631,140.2319279,緯度経度は怪しい
千葉県,勝浦市,7-2,上新野９８３,元 西原停車所前,35.1522272,140.3208833,緯度経度は怪しい
千葉県,勝浦市,7-3,大森２６６０１,安国寺下,35.1696193,140.2270183,緯度経度は怪しい
千葉県,勝浦市,7-4,大森５８,古町田入口三叉路,35.154908,140.2287285,緯度経度は怪しい
千葉県,勝浦市,7-5,上新野１０９９０１,吉田邸（〃末吉家前）,35.1522272,140.3208833,緯度経度は怪しい
千葉県,勝浦市,7-6,上新野９０,木戸神社,35.1522272,140.3208833,緯度経度は怪しい
千葉県,勝浦市,7-7,上新野７４３,上棚野青年館前,35.1522272,140.3208833,緯度経度は怪しい
千葉県,勝浦市,7-8,台管１０８０２,台管区組集会所,35.1522272,140.3208833,緯度経度は怪しい
千葉県,勝浦市,8-1,植野４８９０１,ＪＡいすみ勝浦地区購買店精術,35.1522308,140.2566429,
千葉県,勝浦市,8-2,上総野４９２,原三叉路,35.1569832,140.2473032,緯度経度は怪しい
千葉県,勝浦市,8-3,植野６４７,稲田宅前,35.1545009,140.2523956,
千葉県,勝浦市,8-4,植野５０３０２,岩井理店,35.1522308,140.2566429,
千葉県,勝浦市,8-5,勝野場２３７０１,勝野狭交差点,35.1522272,140.3208833,緯度経度は怪しい
千葉県,勝浦市,8-6,上野９５０１,中里集会所前,35.1569832,140.2473032,
千葉県,勝浦市,8-7,中島８６１０２,東光寺入口付近,35.1575512,140.2598639,緯度経度は怪しい
千葉県,勝浦市,9-1,荒川194の2,荒川テニスコート前,35.16740619999999,140.2674941,
千葉県,勝浦市,9-2,貝塚356の1,元北町年配筋,35.1522272,140.3208833,緯度経度は怪しい
千葉県,勝浦市,9-3,法花170,羽毛前,35.1728388,140.2576696,緯度経度は怪しい
千葉県,勝浦市,9-4,南山田117,大法寺入口,35.1632537,140.2807839,
千葉県,勝浦市,9-5,貝塚313,佐藤北前,35.1522272,140.3208833,緯度経度は怪しい
千葉県,勝浦市,9-6,小羽戸340の1,羽毛入口脇,35.1846092,140.2618166,緯度経度は怪しい
千葉県,勝浦市,9-7,小羽戸680の1,元北中学校前,35.1863672,140.2579313,緯度経度は怪しい
千葉県,勝浦市,10-1,新戸27G,勝浦市学校統合共同理事場,35.177292,140.2940162,
千葉県,勝浦市,10-2,鷹巣12,鷹巣青年館入口,35.1522272,140.3208833,
千葉県,勝浦市,10-3,中谷160の2,元加藤医院前,35.1706836,140.2978837,
千葉県,勝浦市,10-4,平田3005,平田印刷所前,35.1829885,140.3056195,
千葉県,勝浦市,10-5,宿戸551,宿戸やすらぎの家前,35.1847614,140.2951143,緯度経度は怪しい
千葉県,勝浦市,10-6,宿戸456,大橋入口三叉路,35.1857642,140.2921833,緯度経度は怪しい
千葉県,勝浦市,10-7,白木15,白木停留所前,35.1895764,140.2905316,緯度経度は怪しい
千葉県,勝浦市,10-8,白木343,白木区民館,35.1978671,140.2991729,
千葉県,勝浦市,11-1,盛田159,総野集会所,35.1522272,140.3208833,
千葉県,勝浦市,11-2,松母451,松母交差点,35.1522272,140.3208833,緯度経度は怪しい
千葉県,勝浦市,11-3,松母519-1,旧JA松野支店前,35.1522272,140.3208833,緯度経度は怪しい
千葉県,勝浦市,11-4,中母89,油冷橋三叉路,35.1522272,140.3208833,緯度経度は怪しい
千葉県,勝浦市,11-5,松母165,若ケ崎停前,35.1522272,140.3208833,緯度経度は怪しい
千葉県,勝浦市,11-6,松母188,JAいすみ勝浦会庫前,35.1522272,140.3208833,緯度経度は怪しい
千葉県,勝浦市,11-7,万智480の1,武武大学野球場,35.1522272,140.3208833,
千葉県,勝浦市,11-8,大橋458,大橋消防所脇,35.1522272,140.3208833,緯度経度は怪しい
千葉県,勝浦市,11-9,大橋1810,向小羽戸入口三叉路,35.1522272,140.3208833,緯度経度は怪しい
千葉県,勝浦市,12-1,市野原230の1,勝浦船初国造,35.1522272,140.3208833,緯度経度は怪しい
千葉県,勝浦市,12-2,市野原630,市野原燃水所前,35.1522272,140.3208833,緯度経度は怪しい
千葉県,勝浦市,12-3,佐野473の4,大野製材所前,35.2230016,140.2640613,緯度経度は怪しい
千葉県,勝浦市,12-4,佐野414,丹口商店前,35.2248658,140.2641218,緯度経度は怪しい
千葉県,勝浦市,12-5,佐野156,佐野染料場所,35.2273165,140.2597729,緯度経度は怪しい
千葉県,勝浦市,12-6,市野川5653,岩瀬宅前,35.2210602,140.2991729,緯度経度は怪しい
千葉県,勝浦市,12-7,市野川1705,高宅宅前,35.2210602,140.2991729,緯度経度は怪しい
千葉県,勝浦市,12-8,市野川114,市野川集会所前,35.2210602,140.2991729,緯度経度は怪しい
千葉県,勝浦市,13-1,勝浦１３４３の１,勝浦市役所,35.1448301,140.3156129,
千葉県,勝浦市,13-2,登多５９４の１,サンフラワー勝浦前,35.1522272,140.3208833,
千葉県,勝浦市,13-3,沢倉１６６の２０,勝浦消防署前交差点,35.1515967,140.3262529,緯度経度は怪しい
千葉県,勝浦市,13-4,沢倉３５４,古川宅前（旧沢倉区事務所前）,35.1503497,140.3250115,
千葉県,勝浦市,13-5,沢倉２１２,ミズノ宅敷前,35.153348,140.3240965,
千葉県,勝浦市,13-6,新官８４９,国際武道大学正門筋付近,35.1585605,140.3262529,緯度経度は怪しい
千葉県,勝浦市,13-7,新官９１９の４１,野口ニュー勝浦公園内,35.1585605,140.3262529,緯度経度は怪しい
千葉県,勝浦市,13-8,出水１２４５の１,勝浦市役所入口交差点,35.1500786,140.3156557,
