prefecture,city,number,address,name,lat,long,note
千葉県,匝瑳市,1-1,八日市場ハ793-2,匝瑳市役所前,35.70753, 140.56389,
千葉県,匝瑳市,1-2,八日市場ハ315地先,小原建設前,35.7084749,140.5568936,
千葉県,匝瑳市,1-3,八日市場ハ725地先,ビューティサロンMAKO地先,35.70541, 140.5585,
千葉県,匝瑳市,1-4,八日市場ロ118地先,カインズスーパーセンター八日市場店前,35.70178, 140.55452,
千葉県,匝瑳市,1-5,八日市場ロ22-1地先,masked,35.698, 140.55693,
千葉県,匝瑳市,1-6,八日市場イ2950,見徳寺前,35.70143, 140.55093,
千葉県,匝瑳市,1-7,八日市場ロ390,敬愛大学八日市場高等学校テニスコート前,35.70565, 140.55234,
千葉県,匝瑳市,2-1,八日市場イ190-1地先,大木ビル前,35.69966, 140.55019,
千葉県,匝瑳市,2-2,八日市場イ137-5地先,福富町コミュニティセンター地先,35.69865, 140.55049,
千葉県,匝瑳市,2-3,八日市場イ531-4地先,匝瑳警察署西側,35.69799, 140.54629,
千葉県,匝瑳市,2-4,八日市場イ267,masked,35.6995266,140.5479007,
千葉県,匝瑳市,2-5,八日市場イ2030,勤労青少年ホーム入口,35.70232, 140.54598,
千葉県,匝瑳市,2-6,八日市場イ2105-4地先,池端前,35.70425, 140.54611,
千葉県,匝瑳市,2-7,八日市場イ1687,八日市場第二中学校入口付近,35.70498, 140.5452,
千葉県,匝瑳市,3-1,八日市場イ763,八角本店前,35.6970741,140.5397966,
千葉県,匝瑳市,3-2,八日市場イ513,八日市場拘置支所北側,35.6979603,140.5434781,
千葉県,匝瑳市,3-3,八日市場ホ1938-1,masked,35.6975501,140.5376794,
千葉県,匝瑳市,3-4,八日市場イ698-3地先,国道296号入口交差点,35.69619, 140.54099,
千葉県,匝瑳市,3-5,八日市場ホ3335-1地先,旧米倉分校入口前,35.69598, 140.53692,
千葉県,匝瑳市,3-6,八日市場ホ3292地先,藤田病院国道126号側入口,35.69354, 140.53463,
千葉県,匝瑳市,3-7,八日市場ホ3213-1,masked,35.692716,140.5310882,
千葉県,匝瑳市,4-1,飯倉357-3地先,飯倉駅入口交差点,35.68697830000001,140.5214549,
千葉県,匝瑳市,4-2,飯倉台21-2地先,(株)ベネフィット前,35.6882036,140.5202733,
千葉県,匝瑳市,4-3,飯倉2145-1,豊栄分団統合機庫脇,35.6948, 140.51066,
千葉県,匝瑳市,4-4,亀崎139地先,亀崎コミュニティセンター入口地先,35.70442, 140.50544,
千葉県,匝瑳市,4-5,久方467-1地先,久方バス停脇,35.71102, 140.50348,
千葉県,匝瑳市,4-6,飯倉1847,豊栄小学校前,35.69614, 140.51598,
千葉県,匝瑳市,4-7,飯倉2148-2地先,旧ちばみどり農協豊栄出張所脇,35.70042, 140.51773,
千葉県,匝瑳市,4-8,木積84,豊栄コミュニティセンター前,35.71135, 140.51732,
千葉県,匝瑳市,5-1,横須賀306-1,匝瑳運輸(株)前,35.691923,140.5528439,
千葉県,匝瑳市,5-2,横須賀1006,新田コミュニティセンター南側,35.6858184,140.5554425,
千葉県,匝瑳市,5-3,高909-1地先,水戸屋鮮魚店北側,35.6793817,140.5597155,
千葉県,匝瑳市,5-4,高607-1地先,作治屋商店前地先,35.6780057,140.5642134,
千葉県,匝瑳市,5-5,高1956,須賀小学校西門脇,35.678666,140.5489341,
千葉県,匝瑳市,5-6,蕪里230-1地先,牛舎北側,35.67687, 140.54538,
千葉県,匝瑳市,5-7,蕪里688-2地先,masked,35.67091, 140.55295,
千葉県,匝瑳市,5-8,高野339-2地先,稲荷神社地先,35.6743519,140.5332007,
千葉県,匝瑳市,5-9,高野1808-1,笹曽根コミュニティセンター南側,35.6842131,140.5259921,
千葉県,匝瑳市,6-1,中台319-1地先,中台コミュニティセンター地先,35.71005, 140.53568,
千葉県,匝瑳市,6-2,松山1129-1,masked,35.7124839,140.5325432,
千葉県,匝瑳市,6-3,長岡491地先,長岡新田入口付近,35.72661, 140.52355,
千葉県,匝瑳市,6-4,大浦360,匝瑳保育園入口地先,35.72791, 140.53314,
千葉県,匝瑳市,6-5,大浦362-1地先,宮和田バス停脇,35.72376, 140.5377,
千葉県,匝瑳市,6-6,山桑498-2地先,山桑コミュニティセンター地先,35.7128722,140.5419475,
千葉県,匝瑳市,6-7,生尾213-3,masked,35.7108462,140.5425292,
千葉県,匝瑳市,6-8,宮本197,熊野神社前,35.7109287,140.5502185,
千葉県,匝瑳市,7-1,飯塚694-17地先,日東精密千葉工場前,35.7292353,140.560728,
千葉県,匝瑳市,7-2,飯塚1073-1,masked,35.732397,140.5573468,
千葉県,匝瑳市,7-3,飯塚435-1地先,masked,35.7352, 140.56218,
千葉県,匝瑳市,7-4,飯塚299-2,ふれあいパーク八日市場前,35.74026, 140.55724,
千葉県,匝瑳市,7-5,大寺1167地先,masked,35.74681, 140.56271,
千葉県,匝瑳市,7-6,大寺1993地先,熊野神社斜め前,35.74806, 140.55618,
千葉県,匝瑳市,7-7,内山1309地先,内山倉庫前バス停脇,35.74979, 140.54119,
千葉県,匝瑳市,7-8,内山2025地先,masked,35.74484, 140.54278,
千葉県,匝瑳市,7-9,内山102地先,柿谷バス停付近,35.73883, 140.54514,
千葉県,匝瑳市,8-1,八辺1地先,masked,35.7177861,140.5174823,
千葉県,匝瑳市,8-2,南神崎55地先,ヘアーサロンアキバ地先,35.7188889,140.5103192,
千葉県,匝瑳市,8-3,吉田4020,吉田小学校前,35.72041, 140.50656,
千葉県,匝瑳市,8-4,山﨑34地先,旧山崎消防機庫横,35.72814, 140.51102,
千葉県,匝瑳市,8-5,吉田4215地先,masked,35.72025, 140.49872,
千葉県,匝瑳市,8-6,吉田5415-2地先,国道296号江川入口,35.72114, 140.49462,
千葉県,匝瑳市,8-7,吉田682-1地先,ビューティサロンピアス前,35.7158071,140.5000517,
千葉県,匝瑳市,9-1,飯高552地先,飯高檀林跡南駐車場,35.740954,140.5278305,
千葉県,匝瑳市,9-2,飯高833地先,masked,35.7357, 140.52087,
千葉県,匝瑳市,9-3,大保里18-4地先,大堀砂押バス停脇,35.7394, 140.50903,
千葉県,匝瑳市,9-4,金原275,三社神社前,35.7458756,140.5138622,
千葉県,匝瑳市,9-5,飯高1692地先,飯高特別支援学校前十字路地先,35.74884, 140.52362,
千葉県,匝瑳市,9-6,小高248-2,飯高児童遊園前,35.750807,140.5334154,
千葉県,匝瑳市,9-7,飯高102-4,消防水利前,35.74347, 140.53066,
千葉県,匝瑳市,10-1,東小笹353-3地先,東小笹農村共同館地先,35.6884, 140.5999,
千葉県,匝瑳市,10-2,西小笹1675地先,岩井製作所西側,35.6839, 140.58783,
千葉県,匝瑳市,10-3,西小笹1031,八幡神社前,35.68377, 140.58612,
千葉県,匝瑳市,10-4,東小笹1160,共興小学校正門脇,35.68089, 140.59541,
千葉県,匝瑳市,10-5,長谷5307地先,masked,35.6745942,140.5915445,
千葉県,匝瑳市,10-6,長谷2045地先,masked,35.6711245,140.5992171,
千葉県,匝瑳市,10-7,吉崎153-1地先,西里バス停脇,35.676342,140.60022,
千葉県,匝瑳市,10-8,吉崎619-2,風永川排水機場前,35.67383, 140.61306,
千葉県,匝瑳市,11-1,平木1487-1,平和東公園グラウンド前,35.70264, 140.59896,
千葉県,匝瑳市,11-2,平木930-1地先,八日市場特別支援学校入口地先,35.69898, 140.59852,
千葉県,匝瑳市,11-3,平木4903,山里コミュニティセンター前,35.6927572,140.5852157,
千葉県,匝瑳市,11-4,平木3381,平和保育所前,35.6983366,140.5889115,
千葉県,匝瑳市,11-5,平木1819,平和小学校正門脇,35.69988, 140.58911,
千葉県,匝瑳市,11-6,東谷647-1地先,安養寺地先,35.70268, 140.58692,
千葉県,匝瑳市,11-7,上谷中1871-1地先,小高歯科医院地先,35.70729, 140.577,
千葉県,匝瑳市,11-8,上谷中922-1,下谷コミュニティセンター入口,35.69833, 140.57003,
千葉県,匝瑳市,11-9,上谷中288-4,すみれ団地前,35.69333, 140.57391,
千葉県,匝瑳市,12-1,春海6954-3地先,日の出栄コミュニティセンター南側,35.72591, 140.59814,
千葉県,匝瑳市,12-2,春海15,水神社前,35.71945, 140.59376,
千葉県,匝瑳市,12-3,椿1685地先,八日市場自動車教習所前,35.71295, 140.57832,
千葉県,匝瑳市,12-4,椿1705-11地先,椿海分団第1部消防機庫南側,35.71358, 140.56807,
千葉県,匝瑳市,12-5,春海1163地先,masked,35.7214, 140.57902,
千葉県,匝瑳市,12-6,椿972-9地先,経営体育成基盤整備事業椿海支区事務所前,35.7214144,140.5787401,
千葉県,匝瑳市,12-7,春海48-1,masked,35.7211189,140.585908,
千葉県,匝瑳市,12-8,春海6387地先,特別養護老人ホーム太陽の家地先,35.7333503,140.5859248,
千葉県,匝瑳市,12-9,春海3115,千葉島コミュニティセンター前,35.72836, 140.57894,
千葉県,匝瑳市,13-1,野手1118,masked,35.6709259,140.574608,
千葉県,匝瑳市,13-2,野手12799,masked,35.66903, 140.57839,
千葉県,匝瑳市,13-3,野手1300-2地先,東新生入口,35.66727, 140.57705,
千葉県,匝瑳市,13-4,野手1326-1,ローソン野栄店北西地先,35.66637, 140.58069,
千葉県,匝瑳市,13-5,野手13034,野田小学校前,35.6644186,140.5728886,
千葉県,匝瑳市,13-6,野手17146-73地先,なぎさ前十字路,35.65833, 140.5961,
千葉県,匝瑳市,13-7,野手17146-129,ビーチステーション東側,35.6545364,140.5910759,
千葉県,匝瑳市,13-8,野手17146-1295,こなや食堂西脇,35.6517798,140.5883125,
千葉県,匝瑳市,14-1,今泉5412,稲生神社西側,35.66606, 140.56405,
千葉県,匝瑳市,14-2,今泉6474,野栄総合支所前,35.66056, 140.56981,
千葉県,匝瑳市,14-3,今泉461地先,ヤマハン商店北側,35.65794, 140.56704,
千葉県,匝瑳市,14-4,新堀2163,masked,35.64966, 140.56749,
千葉県,匝瑳市,14-5,今泉7164地先,協栄化工入口交差点付近,35.651844, 140.580301,
千葉県,匝瑳市,14-6,今泉8512,masked,35.6464717,140.5803304,
千葉県,匝瑳市,14-7,新堀1464-533,新堀浜コミュニティセンター前,35.64299, 140.57627,
千葉県,匝瑳市,14-8,新堀1464-48,小川建材工業入口,35.64198, 140.57251,
千葉県,匝瑳市,15-1,川辺2877-1地先,十二所神社前,35.6587039,140.5552915,
千葉県,匝瑳市,15-2,堀川4431,堀川児童遊園,35.65387, 140.54635,
千葉県,匝瑳市,15-3,栢田823,栄小学校正門前,35.6513892,140.5550674,
千葉県,匝瑳市,15-4,堀川6373-1,masked,35.6513382,140.5594653,
千葉県,匝瑳市,15-5,栢田1174-2,東栢田コミュニティセンター前,35.6476592,140.5539427,
千葉県,匝瑳市,15-6,栢田5464,徳寿院入口,35.641545,140.5478723,
千葉県,匝瑳市,15-7,川辺7254,masked,35.63834, 140.56766,
千葉県,匝瑳市,15-8,堀川6693-1,堀川浜コミュニティセンター前駐車場,35.63608, 140.56818,
千葉県,匝瑳市,15-9,栢田7919,masked,35.6344194,140.5616171,
