prefecture,city,number,address,name,lat,long,note
千葉県,千葉市,5-1,若葉区みつわ台1-7-1,みつわ台南小学校正門前,35.634528,140.1285545,
千葉県,千葉市,5-2,若葉区東寺山町1053,東寺山むじい公園,35.6339648,140.134517,
千葉県,千葉市,5-3,若葉区みつわ台1-18,みつわ台第1公園,35.6347814,140.1321231,
千葉県,千葉市,5-4,若葉区みつわ台2-29,みつわ台2丁目公園,35.6376856,140.1323642,
千葉県,千葉市,5-5,若葉区みつわ台2-46,みつわ台郵便局文化財保存緑地,35.6375269,140.1346946,
千葉県,千葉市,5-6,若葉区みつわ台19-4先免,モノレール下駐輪場,35.633045,140.130157,緯度経度は怪しい
千葉県,千葉市,5-7,若葉区みつわ台1-31-2,みつわ台公園北側,35.6319299,140.1274626,
千葉県,千葉市,5-8,若葉区東寺山町1074,東寺山ひまわり公園（バス停側）,35.635208,140.139374,緯度経度は怪しい
千葉県,千葉市,6-1,若葉区源町541-6,源小学校正門前,35.6489685,140.1304565,
千葉県,千葉市,6-2,若葉区源町1004,源第2公園,35.6402223,140.1285899,
千葉県,千葉市,6-3,若葉区源町197-3,動物公園管理事務所入口,35.645093,140.1309989,
千葉県,千葉市,6-4,若葉区源町122-1,愛生公園,35.6422914,140.1303765,
千葉県,千葉市,6-5,若葉区愛生町106,愛生町公園,35.6537032,140.132678,
千葉県,千葉市,6-6,若葉区みつわ台5-23,源近公園,35.6482007,140.1378287,
千葉県,千葉市,6-7,若葉区みつわ台5-9,源第2公園,35.6474355,140.133891,
千葉県,千葉市,6-8,若葉区源町311-5,源第3公園,35.6445455,140.1293467,
千葉県,千葉市,7-1,若葉区みつわ台3-5-1,みつわ台北小学校（愛心幼稚園前）,35.6410606,140.1382808,
千葉県,千葉市,7-2,若葉区みつわ台3-2,みつわ台第2公園体育館横,35.6412381,140.1353375,
千葉県,千葉市,7-3,若葉区みつわ台3-19,みつわ台3丁目公園（西側）,35.6383722,140.1384716,
千葉県,千葉市,7-4,若葉区みつわ台3-24,みつわ台3丁目北公園,35.644367,140.138824,緯度経度は怪しい
千葉県,千葉市,7-5,若葉区みつわ台1-11,源町公園,35.6333557,140.1297928,
千葉県,千葉市,7-6,若葉区みつわ台1-20,みつわ台4丁目公園,35.6335824,140.131641,
千葉県,千葉市,7-7,若葉区みつわ台6-47,源万夫公園（南側）,35.633045,140.130157,緯度経度は怪しい
千葉県,千葉市,7-8,若葉区みつわ台3-4-20,みつわ台4丁目バス停,35.642429,140.135895,緯度経度は怪しい
千葉県,千葉市,8-1,若葉区都賀の台2-13-1,都賀の台小学校,35.6436185,140.1411548,
千葉県,千葉市,8-2,若葉区都賀の台1-15,都賀の台1丁目公園,35.640605,140.1412041,
千葉県,千葉市,8-3,若葉区都賀の台3-14,都賀の台公園,35.6454411,140.1430526,
千葉県,千葉市,8-4,若葉区都賀の台3-25,中央公園,35.644221,140.1443386,
千葉県,千葉市,8-5,若葉区都賀の台3-6,都賀の台3丁目公園,35.6434605,140.144419,
千葉県,千葉市,8-6,若葉区都賀の台4-4,都賀の台4丁目公園,35.6403846,140.1453835,
千葉県,千葉市,8-7,若葉区西都賀2-27,大広公園,35.639304,140.1481162,
千葉県,千葉市,8-8,若葉区西都賀5-5,高品台公園,35.6409289,140.1480359,
千葉県,千葉市,13-1,若葉区千城台西2-20-1,千城台西中学校,35.62175,140.1843675,
千葉県,千葉市,13-2,若葉区千城台西2-3-7,千城台西公園,35.620408,140.1870241,
千葉県,千葉市,13-3,若葉区千城台西2-1-978施設先,市営住宅駐車場,35.622936,140.187186,
千葉県,千葉市,13-4,若葉区千城台西2-1-2,千城台東第2公園,35.622936,140.187186,
千葉県,千葉市,13-5,若葉区千城台北3-2-1,イコアス千城台前（組込み）,35.6246203,140.1910278,
千葉県,千葉市,13-6,若葉区千城台北1-7-1,アイアハイツ横浜店舗,35.6288807,140.1850715,
千葉県,千葉市,13-7,若葉区千城台北1-5,高田公園,35.6283157,140.1841363,
千葉県,千葉市,14-1,若葉区千城台東1-15-1,千城台東小学校,35.6228526,140.1922297,
千葉県,千葉市,14-2,若葉区千城台東1-12,千城台北公園,35.621366,140.1928229,
千葉県,千葉市,14-3,若葉区千城台東1-6,千城台東第2公園,35.6201837,140.1920185,
千葉県,千葉市,14-4,若葉区千城台東1-17,千城台東公園,35.6221502,140.1929838,
千葉県,千葉市,14-5,若葉区千城台1-9,御成台1丁目公園,35.624847,140.182861,緯度経度は怪しい
千葉県,千葉市,14-6,若葉区千城台東2-45,御成台団地（ちょうちん原側）,35.6233449,140.1969253,
千葉県,千葉市,14-7,若葉区御成台2-9-7,御成台2丁目公園,35.6330508,140.1984612,
千葉県,千葉市,14-8,若葉区御成台3-19-12,御成台3丁目公園,35.6341671,140.2036532,
千葉県,千葉市,15-1,若葉区千城台東3-18-1,千城台みらい小学校,35.6173372,140.1962746,
千葉県,千葉市,15-2,若葉区千城台東3-13,千城台東第3公園,35.6170016,140.1949143,
千葉県,千葉市,15-3,若葉区千城台東3-17,千城台東第7公園,35.6174636,140.1977297,
千葉県,千葉市,15-4,若葉区千城台東4-19,千城台東第8公園,35.6157109,140.1994995,
千葉県,千葉市,15-5,若葉区千城台東4-33,千城台東第10公園,35.6188825,140.1994995,
千葉県,千葉市,15-6,若葉区千城台東3-24,千城台東第4公園,35.6190897,140.1976493,
千葉県,千葉市,15-7,若葉区金親町19地先,金親町自治会館,35.6196334,140.2025079,
千葉県,千葉市,16-1,若葉区千城台南1-20-1,千城台南中学校,35.617993,140.1907818,
千葉県,千葉市,16-2,若葉区千城台南2-2,千城台南第2公園,35.6185968,140.1879968,
千葉県,千葉市,16-3,若葉区千城台南2-5,千城台南第4公園,35.6177141,140.1863078,
千葉県,千葉市,16-4,若葉区千城台南3-3,千城台南第3公園,35.6160022,140.1879968,
千葉県,千葉市,16-5,若葉区千城台南1-21,千城台公園(タウンライナーストリート側),35.6166547,140.1912946,
千葉県,千葉市,16-6,若葉区千城台南1-20,バス停公園前橋,35.6183845,140.1912946,
千葉県,千葉市,16-7,若葉区千城台南1-8,千城台南公園,35.6203041,140.1897663,
千葉県,千葉市,17-1,若葉区坂月町298,坂月小学校,35.6119684,140.1814987,
千葉県,千葉市,17-2,若葉区坂月町211地先,バス停坂月小学校横,35.6126234,140.1797179,
千葉県,千葉市,17-3,若葉区坂月町74-3,坂月神社前,35.6088026,140.1769204,
千葉県,千葉市,17-5,若葉区大宮町47-6,坂月自治所操業地,35.594311,140.170517,緯度経度は怪しい
千葉県,千葉市,17-6,若葉区大宮町50-1,天神台自治会横道,35.594311,140.170517,緯度経度は怪しい
千葉県,千葉市,17-8,若葉区大宮町516地先,nan,35.60582,140.162491,緯度経度は怪しい
千葉県,千葉市,18-1,若葉区加曽利町961-5,加曽利中学校,35.6138151,140.1581217,
千葉県,千葉市,18-2,若葉区加曽利町979,道満公園,35.6165994,140.1591173,
千葉県,千葉市,18-4,若葉区加曽利町1032,加曽利公園,35.616475,140.1625581,
千葉県,千葉市,18-5,若葉区加曽利町1046,立木公園,35.6142804,140.1599978,
千葉県,千葉市,18-6,若葉区加曽利町113,木谷公園,35.606628,140.15387,緯度経度は怪しい
千葉県,千葉市,18-7,若葉区加曽利町812-28,都多公園,35.6110835,140.1526032,
千葉県,千葉市,18-8,若葉区加曽利町961-5地先,田内公園,35.6138151,140.1581217,
千葉県,千葉市,19-1,若葉区大宮町2655,千城小学校,35.5996892,140.1675604,
千葉県,千葉市,19-2,若葉区大宮町551-19,大宮町第2公園,35.6038609,140.1597879,
千葉県,千葉市,19-3,若葉区大宮町1066-1,市立養護学校,35.5981885,140.1665621,
千葉県,千葉市,19-4,若葉区大宮町702-1,八穴青年体育空地,35.603661,140.158615,緯度経度は怪しい
千葉県,千葉市,19-5,若葉区大宮町2880地先,大宮北公園,35.604015,140.173859,緯度経度は怪しい
千葉県,千葉市,19-7,若葉区大宮町1388,調整池横,35.602753,140.164764,緯度経度は怪しい
千葉県,千葉市,19-8,若葉区大宮町2880-145,nan,35.6035074,140.1763884,
千葉県,千葉市,20-1,若葉区大宮台7-8-1,大宮小学校,35.5969426,140.1824172,
千葉県,千葉市,20-2,若葉区大宮台7-12,高富公園,35.5977384,140.1824474,
千葉県,千葉市,20-3,若葉区大宮台11,新富東公園,35.594002,140.184357,緯度経度は怪しい
千葉県,千葉市,20-4,若葉区大宮台25,新宮南公園,35.594002,140.184357,緯度経度は怪しい
千葉県,千葉市,20-5,若葉区大宮台5-7,大宮台公園,35.5932283,140.1805172,
千葉県,千葉市,20-6,若葉区大宮台3-11,木戸公園,35.5893412,140.1810802,
千葉県,千葉市,20-7,若葉区大宮台2-15,明野公園,35.5892494,140.1841363,
千葉県,千葉市,20-8,若葉区大宮台1-16,大林公園,35.5928598,140.1846993,
千葉県,千葉市,21-1,若葉区野呂町215,白井小学校,35.5808862,140.2309832,
千葉県,千葉市,21-2,若葉区五十坪町200地先,土土自治会館,35.579819,140.216766,緯度経度は怪しい
千葉県,千葉市,21-3,若葉区五十坪町248地先,大山自治会事務所,35.579819,140.216766,緯度経度は怪しい
千葉県,千葉市,21-4,若葉区野呂町717-3,天寿園青葉センター正門前,35.5863387,140.2367918,
千葉県,千葉市,21-5,若葉区イチハラクリーナーズ横空地,千葉自動車ゲート前,35.634022,140.155655,緯度経度は怪しい
千葉県,千葉市,21-6,若葉区野呂町622-10,白井分団倉庫,35.5837839,140.2306401,
千葉県,千葉市,21-7,若葉区野呂町222,野呂町自治会館,35.5812645,140.2320973,
千葉県,千葉市,21-8,若葉区野呂町717地先,老人ホーム晶晴園前路肩,35.5863387,140.2367918,
千葉県,千葉市,21-9,若葉区野呂町108,泉自然公園入口,35.578934,140.226883,緯度経度は怪しい
千葉県,千葉市,22-1,若葉区中野町794,本郷自治会館,35.577539,140.2667626,
千葉県,千葉市,22-2,若葉区中野町645地先,ちはワラバス中野操車場向い空地,35.5791755,140.2682391,
千葉県,千葉市,22-3,若葉区中野町1154地先,石出出作宅前,35.5746109,140.2663113,
千葉県,千葉市,22-4,若葉区中野町1702地先,朔宅前薬局,35.569347,140.25975,緯度経度は怪しい
千葉県,千葉市,22-5,若葉区中野町2148地先,特別養護老人ホーム中野園前,35.5902969,140.2502568,
千葉県,千葉市,22-6,若葉区中野町2404地先,先宗宅電話地,35.58532,140.253372,緯度経度は怪しい
千葉県,千葉市,22-7,若葉区中野町2377,田中自治会増連空地,35.582443,140.259445,緯度経度は怪しい
千葉県,千葉市,23-1,若葉区富田町83,富田分校,35.6033831,140.2476252,
千葉県,千葉市,23-2,若葉区富田町19地先,古泉公民館,35.6033831,140.2476252,
千葉県,千葉市,23-3,若葉区富田町434,猪野商店向い,35.6031827,140.2379582,
千葉県,千葉市,23-4,若葉区富田町1244-2地先,水根郵便局(メトロジャパン隣),35.600891,140.243057,緯度経度は怪しい
千葉県,千葉市,23-5,若葉区田町738,谷藤田バス停,35.634022,140.155655,緯度経度は怪しい
千葉県,千葉市,23-6,若葉区田町859地先,中田自治会館,35.634022,140.155655,緯度経度は怪しい
千葉県,千葉市,23-7,若葉区田町1079地先,島田住宅宅向い空地,35.634022,140.155655,緯度経度は怪しい
千葉県,千葉市,24-1,若葉区更科町2073,更科小学校,35.6197265,140.2278387,
千葉県,千葉市,24-2,若葉区更科町2256,更科公民館運動施設(グラウンド),35.617512,140.227921,緯度経度は怪しい
千葉県,千葉市,24-3,若葉区更科町2112,更科中学校,35.6176721,140.2264287,
千葉県,千葉市,24-4,若葉区御殿町3地先,御殿集会所向い,35.608421,140.213562,緯度経度は怪しい
千葉県,千葉市,24-5,若葉区御殿町2535-2,御殿屋敷跡地,35.610314,140.2154299,
千葉県,千葉市,24-6,若葉区更科町2016-2地先,浜野留剤返送袋(旧道・バイパス交差点),35.6225726,140.221715,
千葉県,千葉市,24-7,若葉区下泉町984-1地先,八幡神社バス停前,35.6258693,140.2316867,
千葉県,千葉市,24-8,若葉区小間子町3-132,はつらつリハビリセンター横(北側),35.6194407,140.2544522,
千葉県,千葉市,24-9,若葉区小間子町3-132,はつらつリハビリセンター横(南側),35.6194407,140.2544522,
千葉県,千葉市,25-1,若葉区下田町271,下田町自治会館,35.6321772,140.2144227,
千葉県,千葉市,25-2,若葉区下田町661先,石橋宅前,35.6353188,140.2115676,
千葉県,千葉市,25-3,若葉区下田町971,下田農業ふれあい館,35.640202,140.20961,緯度経度は怪しい
千葉県,千葉市,25-4,若葉区大井戸584他先,横代宅前,35.628544,140.21434,緯度経度は怪しい
千葉県,千葉市,25-5,若葉区大井戸764-1他先,バス停大井戸町2,35.628544,140.21434,緯度経度は怪しい
千葉県,千葉市,25-6,若葉区大井戸町296,花井宅前,35.627995,140.211472,緯度経度は怪しい
千葉県,千葉市,25-7,若葉区台方63,奥原宅前,35.634022,140.155655,緯度経度は怪しい
千葉県,千葉市,26-1,若葉区桜木5-8,貝塚中学校入口,35.624781,140.1543861,
千葉県,千葉市,26-2,若葉区桜木1-7-1,貝塚中学校テニスコート入口,35.6186419,140.1525472,
千葉県,千葉市,26-3,若葉区桜木5-9,こぶな公園,35.6242914,140.154788,
千葉県,千葉市,26-4,若葉区貝塚1-1,貝塚第3公園,35.6241039,140.1508492,
千葉県,千葉市,26-5,若葉区桜木1326-306,谷ツ上公園,35.619556,140.156097,緯度経度は怪しい
千葉県,千葉市,26-6,若葉区桜木5-3-2地先,桜木南公園,35.6221409,140.1539037,
千葉県,千葉市,26-7,若葉区桜木1-22,桜木公園,35.6206814,140.1522157,
千葉県,千葉市,27-1,若葉区都賀町963-4,泉市民センター,35.631054,140.145554,緯度経度は怪しい
千葉県,千葉市,27-2,若葉区都賀町2832地先,高根公園,35.631054,140.145554,緯度経度は怪しい
千葉県,千葉市,27-3,若葉区川井町483地先,川井自治会館,35.5882663,140.2192019,
千葉県,千葉市,27-4,若葉区都賀町623,山井中学校,35.631054,140.145554,緯度経度は怪しい
千葉県,千葉市,27-5,若葉区都賀町1622,高根文化財整室(旧高根分校),35.631054,140.145554,緯度経度は怪しい
千葉県,千葉市,27-6,若葉区都賀町327-1,北谷津望みプール,35.631054,140.145554,緯度経度は怪しい
千葉県,千葉市,27-7,若葉区多部田町752地先,多部田第3公園,35.5969476,140.1918886,
千葉県,千葉市,27-8,若葉区多部田町759地先,多部田第1公園,35.5959111,140.1949633,
千葉県,千葉市,27-9,若葉区佐和町148,佐和町熊野神社横,35.588426,140.2083995,
千葉県,千葉市,28-1,若葉区貝塚町192-4,市営住宅貝塚第2団地,35.617008,140.135147,緯度経度は怪しい
千葉県,千葉市,28-2,若葉区貝塚町192-6,千葉刑務所宿舎6号棟前,35.617008,140.135147,緯度経度は怪しい
千葉県,千葉市,28-3,若葉区貝塚町2041-1地先,千葉刑務所宿舎9号棟前,35.6180758,140.1351088,
千葉県,千葉市,28-4,若葉区貝塚町192,千葉刑務所入口,35.6167148,140.1351165,
千葉県,千葉市,28-5,若葉区貝塚町407,貝塚団地住宅1前,35.6173289,140.1403603,
千葉県,千葉市,28-6,若葉区貝塚町556-1地先,貝塚公園,35.6179064,140.1421641,
千葉県,千葉市,28-7,若葉区貝塚町1548-7地先,駐車場(海宝和康敷地),35.6183555,140.1471757,
千葉県,千葉市,29-1,若葉区東寺山町755地先,東寺山県営住宅集会所,35.6246172,140.1310844,
千葉県,千葉市,29-2,若葉区高品町899-1地先,高品ハイツ２棟入口前,35.623245,140.130493,緯度経度は怪しい
千葉県,千葉市,29-3,若葉区東寺山町755地先,東寺山県営住宅４号棟南側公園,35.6246172,140.1310844,
千葉県,千葉市,29-4,若葉区東寺山町755地先,東寺山県営住宅公園駐車場,35.6246172,140.1310844,
千葉県,千葉市,29-5,若葉区高品町899-2地先,高品団地１公園,35.6234609,140.1301481,
千葉県,千葉市,29-6,若葉区高品町681-4地先,東寺山第１公園,35.625839,140.137817,緯度経度は怪しい
千葉県,千葉市,29-7,若葉区東寺山町446地先,東寺山第２公園（本山宅前）,35.628265,140.127228,緯度経度は怪しい
千葉県,千葉市,1-1,稲毛区おゆみ野1-53,有吉小学校,35.5619999,140.164596,緯度経度は怪しい
千葉県,千葉市,1-2,稲毛区おゆみ野1-54,おゆみ野はるのみち公園,35.5616776,140.1650322,
千葉県,千葉市,1-3,稲毛区おゆみ野2-42,おゆみ野さくら公園前,35.5602514,140.1733808,緯度経度は怪しい
千葉県,千葉市,1-4,稲毛区おゆみ野3-15-2,稲成コミュニティセンター敷地,35.5600122,140.1757589,緯度経度は怪しい
千葉県,千葉市,1-5,稲毛区おゆみ野3-15-3,稲成行政2階入口前,35.5605227,140.1762114,緯度経度は怪しい
千葉県,千葉市,1-6,稲毛区おゆみ野2-24,おゆみ野すみとり公園,35.5591845,140.1793914,緯度経度は怪しい
千葉県,千葉市,1-7,稲毛区おゆみ野3-70,鶴取駅東口バス待合土手,35.560477,140.176818,緯度経度は怪しい
千葉県,千葉市,1-8,稲毛区おゆみ野1-15,おゆみ野かるにい公園,35.5619999,140.164596,緯度経度は怪しい
千葉県,千葉市,2-1,稲毛区おゆみ野中央4-3,泉谷小学校,35.6486955,140.1112339,緯度経度は怪しい
千葉県,千葉市,2-2,稲毛区おゆみ野中央6-11,泉谷公園,35.5530918,140.1800347,緯度経度は怪しい
千葉県,千葉市,2-3,稲毛区おゆみ野中央4-20,おゆみ野しのばず公園,35.552862,140.1736014,緯度経度は怪しい
千葉県,千葉市,2-4,稲毛区おゆみ野千天7-17,おゆみ野千六通公園,35.6455921,140.0899247,緯度経度は怪しい
千葉県,千葉市,2-5,稲毛区おゆみ野中央4-69,おゆみ野通・中の橋交差点脇,35.6666797,140.1171737,緯度経度は怪しい
千葉県,千葉市,2-6,稲毛区おゆみ野中央9-13,おゆみ野だだいふじ公園,35.5471828,140.1826082,
千葉県,千葉市,2-7,稲毛区おゆみ野中央8-8,おゆみ野天道いかい公園,35.5482414,140.1836236,緯度経度は怪しい
千葉県,千葉市,2-8,稲毛区おゆみ野中央8-28,おゆみ野しんせき公園,35.5478967,140.1883286,
千葉県,千葉市,3-1,稲毛区おゆみ野4-45,小谷小学校,35.657702,140.1189506,緯度経度は怪しい
千葉県,千葉市,3-2,稲毛区おゆみ野4-31,おゆみ野のりくら公園,35.5585508,140.1825864,緯度経度は怪しい
千葉県,千葉市,3-3,稲毛区おゆみ野5-33,おゆみ野こやつ公園,35.554935,140.1854279,
千葉県,千葉市,3-4,稲毛区おゆみ野5-28,おゆみ野第1団地,35.6486955,140.1112339,緯度経度は怪しい
千葉県,千葉市,3-5,稲毛区おゆみ野5-55,おゆみ野ねつの木公園,35.6486955,140.1112339,緯度経度は怪しい
千葉県,千葉市,3-6,稲毛区おゆみ野6-24-1,おゆみ野第2団地,35.5508067,140.1911264,緯度経度は怪しい
千葉県,千葉市,3-7,稲毛区おゆみ野4-101,夏の道（都川防災調整池入口付近）,35.657702,140.1189506,緯度経度は怪しい
千葉県,千葉市,4-1,稲毛区宮園町47-1,椎名小学校,35.6521318,140.1013916,
千葉県,千葉市,4-2,稲毛区宮園町12-9,椎名公民館,35.6521318,140.1013916,緯度経度は怪しい
千葉県,千葉市,4-3,稲毛区大金町58-1,大金町町自治会館,35.6138987,140.1203724,緯度経度は怪しい
千葉県,千葉市,4-4,稲毛区萩台町502,萩台町集会所,35.6429051,140.1228024,
千葉県,千葉市,4-5,稲毛区中野町608,なかにし公園,35.6486955,140.1112339,緯度経度は怪しい
千葉県,千葉市,4-6,稲毛区刈谷町394-2,刈谷子公園,35.6486955,140.1112339,緯度経度は怪しい
千葉県,千葉市,4-7,稲毛区椎名町宮宿633,椎名町町集会所入口,35.6486955,140.1112339,緯度経度は怪しい
千葉県,千葉市,5-1,稲毛区古市場町474-194,古市場体育館,35.5497438,140.1461218,緯度経度は怪しい
千葉県,千葉市,5-2,稲毛区古市場町474-191,古市場公園体育施設,35.5467655,140.1489426,緯度経度は怪しい
千葉県,千葉市,5-3,稲毛区古市場町474-189,古市場第１公園,35.5467655,140.1489426,緯度経度は怪しい
千葉県,千葉市,5-4,稲毛区古市場町474-205,古市場第２公園,35.5467655,140.1489426,緯度経度は怪しい
千葉県,千葉市,5-5,稲毛区古市場町471-195,古市場第１団地,35.5466351,140.150823,緯度経度は怪しい
千葉県,千葉市,5-6,稲毛区古市場町474-61,古市場第３公園,35.5467655,140.1489426,緯度経度は怪しい
千葉県,千葉市,5-7,稲毛区古市場町474-82,古市場みどり自治会館,35.5472118,140.1469809,緯度経度は怪しい
千葉県,千葉市,6-1,稲毛区萩台2-27-22,萩台小学校,35.635591,140.119474,緯度経度は怪しい
千葉県,千葉市,6-2,稲毛区萩台2-1-8,萩田町2丁目第8公園,35.6429051,140.1228024,
千葉県,千葉市,6-3,稲毛区萩田2-2-25,萩田2丁目団地,35.6524918,140.1062267,緯度経度は怪しい
千葉県,千葉市,6-4,稲毛区萩田2-9-1-1,萩田市永台第1公園,35.6335064,140.1217332,緯度経度は怪しい
千葉県,千葉市,6-5,稲毛区天台町4-368,大都保育園,35.6484787,140.1208742,
千葉県,千葉市,6-6,稲毛区萩田2-4-37,萩田町2丁目町内会自治会館駐車場,35.6524918,140.1062267,緯度経度は怪しい
千葉県,千葉市,6-7,稲毛区萩田2-27-166,菅田長縄公園,35.6524918,140.1062267,緯度経度は怪しい
千葉県,千葉市,6-8,稲毛区萩田2-28-111,菅田長縄第2公園,35.6524918,140.1062267,緯度経度は怪しい
千葉県,千葉市,7-1,稲毛区萩台1-789-81,萩田公民館,35.6429051,140.1228024,
千葉県,千葉市,7-2,稲毛区萩田1-792-25,萩田町公園,35.6524918,140.1062267,緯度経度は怪しい
千葉県,千葉市,7-3,稲毛区萩田1-798-8,萩田1丁目公園,35.6524918,140.1062267,緯度経度は怪しい
千葉県,千葉市,7-4,稲毛区萩田1-1042-7,萩田下宿公園,35.6524918,140.1062267,緯度経度は怪しい
千葉県,千葉市,7-5,稲毛区萩田1-408-2,萩田1丁目団地バス停横,35.6524918,140.1062267,緯度経度は怪しい
千葉県,千葉市,7-6,稲毛区萩田1-35-2,千葉リハビリテーション入口,35.6524918,140.1062267,
千葉県,千葉市,7-7,稲毛区萩田1-259-1,萩土木事務所,35.6524918,140.1062267,緯度経度は怪しい
千葉県,千葉市,8-1,稲毛区辺田町140-3,平山小学校,35.5676482,140.1799041,緯度経度は怪しい
千葉県,千葉市,8-2,稲毛区緑町795-26,緑町入口北口伸え込み,35.6243451,140.0977401,
千葉県,千葉市,8-3,稲毛区緑町112-30,緑町第1公園,35.6243451,140.0977401,
千葉県,千葉市,8-4,稲毛区辺田町175-4,辺田町第4公園,35.5651837,140.1858252,緯度経度は怪しい
千葉県,千葉市,8-5,稲毛区辺田町2-2,辺田町内会館,35.5681047,140.1816865,緯度経度は怪しい
千葉県,千葉市,8-6,稲毛区平山町1588-1,平山運動広場,35.6486955,140.1112339,緯度経度は怪しい
千葉県,千葉市,8-7,稲毛区平山町468-33,ヤマカ武智村工業・・・地域先,35.5809964,140.1883688,緯度経度は怪しい
千葉県,千葉市,8-8,稲毛区平山町491-5,浜野町消防長芝屋敷（平山公園入口付近）,35.5815668,140.1980872,
千葉県,千葉市,8-9,稲毛区平山町1045-5,菱若・運搬場事務所,35.5666618,140.206404,緯度経度は怪しい
千葉県,千葉市,9-1,緑区高田町945-4,高田町内会館,35.5599247,140.2163173,
千葉県,千葉市,9-2,緑区高田町401-16,緑荘老人ホームほんだぐらぷ,35.5516017,140.2132705,緯度経度は怪しい
千葉県,千葉市,9-3,緑区高田町401-6,あきの楽器店,35.5539394,140.2123619,緯度経度は怪しい
千葉県,千葉市,9-4,緑区高田町401-306,たかだの森グランドタウン公園,35.5526234,140.211031,緯度経度は怪しい
千葉県,千葉市,9-5,緑区高田町490-4,ＥＩ校神社務,35.5530115,140.2131494,
千葉県,千葉市,9-6,緑区高田町2803,南高木橋下浮渡付近歩道,35.5530115,140.2131494,緯度経度は怪しい
千葉県,千葉市,9-7,緑区高田町1354-4,渡辺電気付近歩道,35.5530115,140.2131494,緯度経度は怪しい
千葉県,千葉市,9-8,緑区高田町1937-122,高田第二ポンプ場（防竹自治会内）,35.5633953,140.2319739,緯度経度は怪しい
千葉県,千葉市,10-1,緑区誉田町2-21-84,誉田東小学校,35.5491813,140.2177434,緯度経度は怪しい
千葉県,千葉市,10-2,緑区誉田町2-21-1401,誉田さくら公園,35.5491813,140.2177434,緯度経度は怪しい
千葉県,千葉市,10-3,緑区誉田町2-24-241,誉田駅第５自転車駐車場,35.5473154,140.2144945,緯度経度は怪しい
千葉県,千葉市,10-4,緑区誉田町2-6-67,誉田町２丁目第３公園,35.5458533,140.2162547,緯度経度は怪しい
千葉県,千葉市,10-5,緑区誉田町3-69-47,誉田町工町公園,35.5428252,140.2126906,
千葉県,千葉市,10-6,緑区高田町416-17,たかだの森公園,35.5524703,140.2164285,
千葉県,千葉市,10-7,緑区高田町1062-10,万若台公園,35.552416,140.2217392,
千葉県,千葉市,10-8,緑区高田町2296-41,緑いきいきプラザ前駐車場,35.5508516,140.2264046,緯度経度は怪しい
千葉県,千葉市,11-1,緑区平川町70-1,平川集会所,35.5525927,140.2476252,緯度経度は怪しい
千葉県,千葉市,11-2,緑区平川町1512-1,千葉市消防総合センター,35.5474089,140.2406414,緯度経度は怪しい
千葉県,千葉市,11-3,緑区平川町474-3,室堂寺前,35.5525927,140.2476252,
千葉県,千葉市,11-4,緑区平川町1138,平川公園,35.5538289,140.2476604,
千葉県,千葉市,11-5,緑区平川町2472,平川運動公園南山林,35.5525927,140.2476252,緯度経度は怪しい
千葉県,千葉市,11-6,緑区平川町1425-1,平川緑地,35.5525927,140.2476252,緯度経度は怪しい
千葉県,千葉市,11-7,緑区平川町1690-1,旧井並バス停前,35.5528725,140.2369098,
千葉県,千葉市,12-1,緑区越智町705-359,越智小学校,35.5326214,140.2372907,緯度経度は怪しい
千葉県,千葉市,12-2,緑区越智町705-498,越智南公園,35.5333228,140.2347066,緯度経度は怪しい
千葉県,千葉市,12-3,緑区越智町1040,越智町公会館,35.5227852,140.2379157,緯度経度は怪しい
千葉県,千葉市,12-4,緑区越智町810-7,越智中央公園テニスコート横,35.534587,140.2375508,緯度経度は怪しい
千葉県,千葉市,12-5,緑区越智町770-69,越智東公園,35.5372063,140.2370333,
千葉県,千葉市,12-6,緑区越智町1701-10,越智新田公園,35.5394017,140.2399169,緯度経度は怪しい
千葉県,千葉市,12-7,緑区越智町737-151,蛇下用入口植え込み,35.5362443,140.2418892,緯度経度は怪しい
千葉県,千葉市,13-1,緑区大木戸町328-1,大木戸小学校,35.5237392,140.2492405,緯度経度は怪しい
千葉県,千葉市,13-2,緑区大木戸町41-342,大木戸市公会前,35.5235695,140.2492732,
千葉県,千葉市,13-3,緑区大木戸町178-68,大木戸第１公園,35.5307008,140.2550512,
千葉県,千葉市,13-4,緑区大木戸町104-25,大木戸第２公園,35.5282115,140.2555064,緯度経度は怪しい
千葉県,千葉市,13-5,緑区大椎町1251-122,大椎第２公園,35.5291765,140.2580161,
千葉県,千葉市,13-6,緑区大椎町1188-190,大椎第３公園,35.5264654,140.2567407,緯度経度は怪しい
千葉県,千葉市,13-7,緑区大野台1-6-2,土気大野台公園,35.5127885,140.2293322,
千葉県,千葉市,14-1,緑区あすみが丘6-38,大椎小学校,35.5144259,140.2623602,
千葉県,千葉市,14-2,緑区あすみが丘7-49,あすみが丘やすらぎ公園,35.5174577,140.2669505,
千葉県,千葉市,14-3,緑区あすみが丘5-13,あすみが丘やすらぎの広場公園,35.52514,140.2585755,緯度経度は怪しい
千葉県,千葉市,14-4,緑区小山町217-2,小山町議会前,35.5080039,140.2649674,緯度経度は怪しい
千葉県,千葉市,14-5,緑区松ケ丘26-1,法行寺入口,35.5926392,140.1461803,緯度経度は怪しい
千葉県,千葉市,14-6,緑区大椎町756-4,大椎町内会集会所,35.5172291,140.2591593,
千葉県,千葉市,14-7,緑区あすみが丘8-26,大椎中学校,35.5169907,140.270172,
千葉県,千葉市,14-8,緑区あすみが丘8丁目6-12,はなみずき公園,35.5198459,140.270704,
千葉県,千葉市,14-9,緑区あすみが丘7-2-4,土気あすみが丘プラザ前,35.5212608,140.2654204,
千葉県,千葉市,15-1,緑区あすみが丘4-16,土気南小学校,35.5246737,140.2617965,緯度経度は怪しい
千葉県,千葉市,15-2,緑区あすみが丘1-64-22,北河原坂田地区公園,35.5290501,140.2714606,
千葉県,千葉市,15-3,緑区あすみが丘5-41,創造の杜東側,35.52514,140.2585755,
千葉県,千葉市,15-4,緑区あすみが丘5-41,創造の杜南側,35.52514,140.2585755,
千葉県,千葉市,15-5,緑区あすみが丘5-58,あすみが丘さくら公園,35.52514,140.2585755,緯度経度は怪しい
千葉県,千葉市,15-6,緑区あすみが丘28,あすみが丘北の大公園,35.5216768,140.2690061,緯度経度は怪しい
千葉県,千葉市,15-7,緑区あすみが丘2-29,あすみが丘あすなろ公園,35.5244291,140.2714606,
千葉県,千葉市,15-8,緑区あすみが丘5-17,かしの木公園,35.52514,140.2585755,緯度経度は怪しい
千葉県,千葉市,16-1,緑区土気町396,土気町内会自治会館,35.5297215,140.2847184,
千葉県,千葉市,16-2,緑区小食土町1294,小食土町内会館,35.5189126,140.2824152,緯度経度は怪しい
千葉県,千葉市,16-3,緑区あすみが丘3-33-2,胡桃の森入口,35.5272533,140.2654211,
千葉県,千葉市,16-4,緑区あすみが丘1-8,あすみが丘東1丁目阿久園公園,35.5290501,140.2714606,
千葉県,千葉市,16-5,緑区土気町650-1,土気集落地,35.5314125,140.2785285,
千葉県,千葉市,16-6,緑区あすみが丘2-13,あすみが丘東2丁目房公園北側,35.5244291,140.2714606,緯度経度は怪しい
千葉県,千葉市,16-7,緑区土気町675,土気九峰公園,35.5324839,140.2712725,緯度経度は怪しい
千葉県,千葉市,17-1,緑区土気町1631-7,土気公民館（土気市民センター駐車場）,35.5307311,140.2736722,
千葉県,千葉市,17-2,緑区土気町1400-22,土気中学校,35.5400195,140.2726889,
千葉県,千葉市,17-3,緑区土気町1584-80,土気第1公園,35.5328529,140.2741929,
千葉県,千葉市,17-4,緑区土気町1620-22,土気第2公園,35.5339878,140.2670862,
千葉県,千葉市,17-5,緑区土気町1727-11,土気駅第1自転車駐車場,35.5309331,140.2702117,
千葉県,千葉市,17-6,緑区土気町1417-51,あしたば風賀住宅跡,35.5381142,140.2788003,緯度経度は怪しい
千葉県,千葉市,17-7,緑区土気町1299-4,羽浜海岸三貫山貯水所,35.5420371,140.2734138,
千葉県,千葉市,17-8,緑区おゆみ野1条2丁目21-1,ロイヤルアネックス グリーンホーム,35.5619999,140.164596,
千葉県,千葉市,18-1,緑区あすみが丘1-100,土気駅南口植え込み,35.5290501,140.2714606,緯度経度は怪しい
千葉県,千葉市,18-2,緑区あすみが丘1-32,あすみが丘もみじ公園,35.5290501,140.2714606,緯度経度は怪しい
千葉県,千葉市,18-3,緑区高津戸町7-23,高津戸第2公園,35.5385347,140.2617965,
千葉県,千葉市,18-4,緑区高津戸町2-2,高津戸第1公園,35.5335513,140.2636839,緯度経度は怪しい
千葉県,千葉市,18-5,緑区高津戸町634-2,高津戸町公衆館,35.5394899,140.259687,
千葉県,千葉市,18-6,緑区高津戸町45-117,高津戸第3公園,35.5351119,140.258986,
千葉県,千葉市,18-7,緑区高津戸町693,高津戸町公園,35.5385347,140.2617965,緯度経度は怪しい
千葉県,千葉市,19-1,緑区下大和田町852,下大和田集会所,35.5605861,140.2721827,
千葉県,千葉市,19-2,緑区下大和田町881,下大和田出荷穀倉集場,35.5603349,140.270474,
千葉県,千葉市,19-3,緑区上大和田町274-1,熊野神社入口,35.5548669,140.2798375,
千葉県,千葉市,19-4,緑区下大和田町178-2,下大和田公園土手,35.5581085,140.2733936,緯度経度は怪しい
千葉県,千葉市,19-5,緑区下大和田町269-1,石井掛利製商,35.5557791,140.2729305,
千葉県,千葉市,19-6,緑区下大和田町1827-1,後藤自治会館前,35.5656405,140.2836034,
千葉県,千葉市,19-7,緑区下大和田町2511-1,能真坊青年館,35.5581085,140.2733936,緯度経度は怪しい
千葉県,千葉市,20-1,緑区おゆみ野南5-31,金沢小学校裏遊歩道,35.5456152,140.1742447,緯度経度は怪しい
千葉県,千葉市,20-2,緑区おゆみ野南6-33,おゆみ野にしろうえ公園,35.5430291,140.1793914,
千葉県,千葉市,20-3,緑区おゆみ野南5-30,おゆみ野はちまんがた公園,35.5456152,140.1742447,
千葉県,千葉市,20-4,緑区おゆみ野南5-24-1,おゆみ野ハイム桜の道,35.546939,140.177564,
千葉県,千葉市,20-5,緑区おゆみ野南6-1,おゆみ野あさのみ公園北側,35.5446908,140.1800024,
千葉県,千葉市,20-6,緑区おゆみ野中央9-1,おゆみ野あさのみ公園南側,35.5471828,140.1826082,
千葉県,千葉市,20-7,緑区おゆみ野南6-46,おゆみ野どのうしろ公園,35.5430291,140.1793914,緯度経度は怪しい
千葉県,千葉市,20-8,緑区おゆみ野南6-47-148,おゆみ野こやま公園,35.5407579,140.1794914,緯度経度は怪しい
千葉県,千葉市,21-1,緑区おゆみ野中央1-26,辰田小学校,35.5593231,140.1607369,緯度経度は怪しい
千葉県,千葉市,21-2,緑区おゆみ野南3-13,おゆみ野きただ公園,35.5480163,140.1671688,
千葉県,千葉市,21-3,緑区おゆみ野中央1-13,おゆみ野えんらん公園,35.5597743,140.1595025,
千葉県,千葉市,21-4,緑区おゆみ野南1-29,おゆみ野そばら公園,35.5529086,140.1620232,緯度経度は怪しい
千葉県,千葉市,21-5,緑区おゆみ野南1-5,おゆみ野おおだ公園,35.5529086,140.1620232,緯度経度は怪しい
千葉県,千葉市,21-6,緑区おゆみ野南町32,春の道・有吉公園 交差点,35.5591845,140.1793914,緯度経度は怪しい
千葉県,千葉市,21-7,緑区おゆみ野中央3-5,おゆみ野やまぼうし公園,35.5542931,140.1684553,
千葉県,千葉市,21-8,緑区おゆみ野南1-32,宮前先切れ公園前,35.5529086,140.1620232,
千葉県,千葉市,22-1,緑区おゆみ野南4-26,おゆみ野南小学校,35.5585508,140.1825864,緯度経度は怪しい
千葉県,千葉市,22-2,緑区おゆみ野南4-19,おゆみ野かずさ公園,35.5585508,140.1825864,緯度経度は怪しい
千葉県,千葉市,22-3,緑区おゆみ野南3-20,おゆみ野西公園前,35.5480163,140.1671688,緯度経度は怪しい
千葉県,千葉市,22-4,緑区おゆみ野南3-20,おゆみ野西公園北側,35.5480163,140.1671688,緯度経度は怪しい
千葉県,千葉市,22-5,緑区おゆみ野南3-20,おゆみ野西公園北東側,35.5480163,140.1671688,緯度経度は怪しい
千葉県,千葉市,22-6,緑区おゆみ野南2-28,おゆみ野けいのいり公園,35.5508316,140.1684553,緯度経度は怪しい
千葉県,千葉市,22-7,緑区おゆみ野南3-21-57,おゆみ野ゆずりは公園,35.5476116,140.1682166,
千葉県,千葉市,22-8,緑区おゆみ野南2-20-6向い,冬の道おゆみ野駅際,35.5502002,140.1671369,
千葉県,千葉市,1-1,美浜区真砂5-18-1地先,高等特別支援学校,35.6432879,140.0613369,
千葉県,千葉市,1-2,美浜区真砂5-18-2地先,真砂中学校,35.6456719,140.0631057,緯度経度は怪しい
千葉県,千葉市,1-3,美浜区真砂5-15-1地先,美浜区役所,35.6402179,140.0631992,
千葉県,千葉市,1-4,美浜区真砂5-15地先,真砂中央公園①,35.641221,140.0640187,
千葉県,千葉市,1-5,美浜区真砂5-15地先,真砂中央公園②,35.641221,140.0640187,
千葉県,千葉市,1-6,美浜区真砂5-15地先,真砂第4公園,35.641221,140.0640187,
千葉県,千葉市,1-7,美浜区真砂5-19-1地先,真砂第2保育所,35.6455557,140.064391,
千葉県,千葉市,1-8,美浜区真砂5-16-5地先,8丁目16街区バス停歩道縁地等,35.641521,140.0615886,
千葉県,千葉市,2-1,美浜区真砂2-13-1地先,真砂東小学校,35.6383681,140.0663766,
千葉県,千葉市,2-2,美浜区真砂2-13地先,真砂第1公園①,35.6387178,140.0678717,
千葉県,千葉市,2-3,美浜区真砂2-13地先,真砂第1公園②,35.6387178,140.0678717,
千葉県,千葉市,2-4,美浜区真砂2-23,真砂2丁目第2公園,35.6423469,140.0686744,
千葉県,千葉市,2-5,美浜区真砂2-22,真砂2丁目公園,35.6406998,140.0685138,
千葉県,千葉市,2-6,美浜区真砂2-15,真砂2丁目第3公園,35.6405786,140.065303,
千葉県,千葉市,2-7,美浜区真砂3-15,真砂第2公園①,35.638222,140.065233,緯度経度は怪しい
千葉県,千葉市,2-8,美浜区真砂3-13-6地先,真砂第2団地前緑地,35.6354171,140.0638168,
千葉県,千葉市,2-9,美浜区真砂3-15,真砂第2公園②,35.638222,140.065233,緯度経度は怪しい
千葉県,千葉市,3-1,美浜区真砂1-12-15地先,真砂第5小学校,35.6329486,140.0694219,
千葉県,千葉市,3-2,美浜区真砂1-11地先,真砂公園,35.6340173,140.0669084,
千葉県,千葉市,3-3,美浜区真砂1-6地先,真砂1丁目公園,35.6351059,140.0701996,
千葉県,千葉市,3-4,美浜区真砂1-11地先,真砂1丁目団地前緑地①,35.6340173,140.0669084,
千葉県,千葉市,3-5,美浜区真砂1-12-3地先,真砂1丁目団地前緑地②,35.6324453,140.0673723,
千葉県,千葉市,3-6,美浜区真砂1-12-2地先,真砂1丁目団地前緑地③,35.6317883,140.0684281,
千葉県,千葉市,3-7,美浜区真砂1-12-15地先,真砂第5小学校プール前歩道,35.6329486,140.0694219,
千葉県,千葉市,4-1,美浜区真砂4-5-1,真砂西小学校,35.6419548,140.0580191,
千葉県,千葉市,4-2,美浜区真砂4-4,真砂第3公園,35.639551,140.0594,
千葉県,千葉市,4-3,美浜区真砂4-9,真砂4丁目公園,35.6425378,140.057357,
千葉県,千葉市,4-4,美浜区真砂4-2-1北先,JR検見川浜駅①タクシー乗降場前歩道,35.6369688,140.059534,
千葉県,千葉市,4-5,美浜区真砂4-2-1北先,JR検見川浜駅②タクシー乗降場前歩道,35.6369688,140.059534,
千葉県,千葉市,4-6,美浜区真砂4-1-4北先,千葉県県税事務所前歩道①,35.6389899,140.061747,
千葉県,千葉市,4-7,美浜区真砂4-1-4北先,千葉県県税事務所前歩道②,35.6389899,140.061747,
千葉県,千葉市,5-1,美浜区幕張2-8-1,幕張西小学校,35.6508609,140.0555558,緯度経度は怪しい
千葉県,千葉市,5-2,美浜区幕張2-8-1,幕張西小学校前歩道,35.6508609,140.0555558,緯度経度は怪しい
千葉県,千葉市,5-3,美浜区幕張2-10,幕張西第1公園,35.6538331,140.0358989,緯度経度は怪しい
千葉県,千葉市,5-4,美浜区幕張2-6-2,幕張西公民館,35.6538331,140.0358989,緯度経度は怪しい
千葉県,千葉市,5-5,美浜区幕張2-4,幕張西2丁目第1公園,35.6538331,140.0358989,緯度経度は怪しい
千葉県,千葉市,5-6,美浜区幕張5-21,幕張西5丁目公園,35.6468409,140.0633771,緯度経度は怪しい
千葉県,千葉市,5-7,美浜区幕張西6-2北先,幕張西第3公園,35.6623535,140.030958,緯度経度は怪しい
千葉県,千葉市,5-8,美浜区浜田2-44北先,浜田2丁目緑地,35.6551867,140.0334823,緯度経度は怪しい
千葉県,千葉市,6-1,美浜区磯辺1-1-1,磯辺中学校,35.6305582,140.0678516,
千葉県,千葉市,6-2,美浜区磯辺7-16,北磯辺第2公園,35.635989,140.0531837,
千葉県,千葉市,6-3,美浜区磯辺6-4,北磯辺公園①,35.637402,140.0543875,
千葉県,千葉市,6-4,美浜区磯辺7-2,北磯辺第1公園,35.6344728,140.0536251,
千葉県,千葉市,6-5,美浜区磯辺6-4,北磯辺公園②,35.637402,140.0543875,
千葉県,千葉市,6-6,美浜区磯辺3-31-1北先,海浜病院,35.6279188,140.0513727,
千葉県,千葉市,6-7,美浜区磯辺7-40,北磯辺第3公園,35.6359683,140.0514985,
千葉県,千葉市,7-1,美浜区磯辺4-16-1,磯辺小学校,35.6317588,140.0581276,
千葉県,千葉市,7-2,美浜区磯辺4-27,中瀬辺公園①,35.6303595,140.0569557,
千葉県,千葉市,7-3,美浜区磯辺4-27,中瀬辺公園②,35.6303595,140.0569557,
千葉県,千葉市,7-4,美浜区磯辺4-28,中瀬辺第3公園,35.6305064,140.0555111,
千葉県,千葉市,7-5,美浜区磯辺3-21,中瀬辺第2公園,35.628401,140.0565544,
千葉県,千葉市,7-6,美浜区磯辺5,旧磯辺第１小学校前歩道,35.633775,140.0604871,
千葉県,千葉市,7-7,美浜区磯辺5-1-2 地先,磯辺5丁目バス停緑地,35.6332382,140.0624806,
千葉県,千葉市,7-8,美浜区磯辺5-15,中瀬辺第4公園,35.6343098,140.0571162,
千葉県,千葉市,8-1,美浜区磯辺1-25-1,磯辺第3小学校,35.6301136,140.0635967,
千葉県,千葉市,8-2,美浜区磯辺1-49,磯辺第2公園,35.6285728,140.0622529,
千葉県,千葉市,8-3,美浜区磯辺2-15,磯辺第3公園,35.6254119,140.0593635,
千葉県,千葉市,8-4,美浜区磯辺1-26,磯辺公園①,35.6294304,140.0651425,
千葉県,千葉市,8-5,美浜区磯辺1-26,磯辺公園②,35.6294304,140.0651425,
千葉県,千葉市,8-6,美浜区磯辺1-11,磯辺児童公園,35.6309973,140.0654636,
千葉県,千葉市,8-7,美浜区磯辺1-13 地先,真砂外検会社ガス炉前緑地,35.6318678,140.0660254,
千葉県,千葉市,9-1,美浜区高浜3-3-1,市立稲毛高校附属中学校グランド,35.6210857,140.0668803,
千葉県,千葉市,9-2,美浜区高浜4-8-2,高浜清浜小学校,35.6236658,140.0697029,
千葉県,千葉市,9-3,美浜区高浜4-8-1,高浜中学校,35.6237006,140.0702067,
千葉県,千葉市,9-4,美浜区高浜4-10-1 地先,高浜北団地前歩道,35.6265711,140.0683082,緯度経度は怪しい
千葉県,千葉市,9-5,美浜区高浜4-10-24 地先,福沢ショップバス停前歩道,35.6243589,140.0662863,
千葉県,千葉市,9-6,美浜区高浜3-5-4 地先,高浜南団地前歩道,35.6225466,140.0632509,
千葉県,千葉市,9-7,美浜区高浜6-4,高浜第4公園,35.6242105,140.0637779,
千葉県,千葉市,9-8,美浜区高浜5-19,北浜公園,35.626042,140.0638582,
千葉県,千葉市,10-1,美浜区高浜1-4-1,高浜第1小学校,35.6193107,140.0759044,
千葉県,千葉市,10-2,美浜区高浜1-8-3,高浜公民館,35.6202275,140.0733679,
千葉県,千葉市,10-3,美浜区高浜1-15-7敷地,県営高浜第3団地南歩道,35.6201714,140.0714823,
千葉県,千葉市,10-4,美浜区高浜1-8,高浜公園①,35.6197005,140.0736515,
千葉県,千葉市,10-5,美浜区高浜1-8,高浜公園②,35.6197005,140.0736515,
千葉県,千葉市,10-6,美浜区高浜1-5,高浜第1公園,35.6174903,140.0746149,緯度経度は怪しい
千葉県,千葉市,10-7,美浜区高浜1-2-2,市営高浜第1団地1棟前,35.6184685,140.0767629,
千葉県,千葉市,11-1,美浜区高洲2-3-18,高洲中学校,35.6231388,140.0773022,
千葉県,千葉市,11-2,美浜区高洲2-6-9地先,高洲2丁目団地②2-6-8柏葉運動場,35.623989,140.076116,
千葉県,千葉市,11-3,美浜区高洲2-5-11地先,高洲2丁目団地①2-5-11集会所,35.6237337,140.0749071,
千葉県,千葉市,11-4,美浜区高洲2-4-10地先,高洲第1団地②2-4-10駐輪場,35.6206368,140.0767826,
千葉県,千葉市,11-5,美浜区高洲2-4-12地先,高洲第1団地①遊歩道脇,35.6216371,140.0781033,
千葉県,千葉市,11-6,美浜区高洲2-3-2地先,高洲第1団地③3街区バス停,35.6212547,140.0796502,緯度経度は怪しい
千葉県,千葉市,11-7,美浜区高洲2-4-6地先,高洲1丁目陽明水泳施設横帯,35.6197455,140.0778057,
千葉県,千葉市,12-1,美浜区高洲2-2-20,高洲小学校,35.6242401,140.0800441,
千葉県,千葉市,12-2,美浜区高洲2-2-21地先,高洲第1団地③西通りバス停横バス停,35.6246018,140.0788922,
千葉県,千葉市,12-3,美浜区高洲2-2-3地先,高洲第1団地③南側東側バス停,35.6236603,140.0821849,緯度経度は怪しい
千葉県,千葉市,12-4,美浜区高洲2-2,高洲第1団地②2-8-3緑向かい,35.6234907,140.0810377,
千葉県,千葉市,12-5,美浜区高洲2-1-1東側,高洲第1団地②2-1-1東側,35.6252668,140.0830874,
千葉県,千葉市,12-6,美浜区高洲2-8,高洲第1団地③高洲第1バス停,35.6267858,140.0813588,
千葉県,千葉市,12-7,美浜区高洲1-8,高洲1丁目公園,35.6271273,140.0824026,
千葉県,千葉市,13-1,美浜区高洲3-3-11,高洲第3小学校①,35.6268864,140.0745349,
千葉県,千葉市,13-2,美浜区高洲3-3-11,高洲第3小学校②,35.6268864,140.0745349,
千葉県,千葉市,13-3,美浜区高洲3-3,高洲第1団地①児童公園前,35.625695,140.0767501,緯度経度は怪しい
千葉県,千葉市,13-4,美浜区高洲3-3-2地先,高洲第1団地①高洲第3入沢,35.6250367,140.0755157,
千葉県,千葉市,13-5,美浜区高洲3-1-1地先,高洲第1団地①高洲第1バス停,35.6282854,140.0786494,
千葉県,千葉市,13-6,美浜区高洲3-1-6地先,バスハットかいえんバス停,35.6286688,140.0774246,
千葉県,千葉市,13-7,美浜区高洲3-2,高洲公園,35.6273083,140.0768628,
千葉県,千葉市,14-1,美浜区高洲3-12-1,高洲コミュニティセンター①,35.6268975,140.0710811,
千葉県,千葉市,14-2,美浜区高洲3-12-1,高洲コミュニティセンター②,35.6268975,140.0710811,
千葉県,千葉市,14-3,美浜区高洲3-8地先,稲毛海岸駅南口ロータリー（海浜松風通り側）,35.6285538,140.0709221,
千葉県,千葉市,14-4,美浜区高洲4-7-6地先,袖ヶ浦第2緑地,35.6291726,140.070055,
千葉県,千葉市,14-5,美浜区高洲4-7,高洲4丁目東公園,35.6291631,140.0702799,
千葉県,千葉市,14-6,美浜区高洲4-12,高洲4丁目西公園,35.6288816,140.06739,
千葉県,千葉市,14-7,美浜区高洲3-6-3地先,稲毛海岸駅前プラザ街歩道,35.6273075,140.0694036,
千葉県,千葉市,14-8,美浜区高洲3-7地先,ベイサージュ稲毛海岸弁慶館前歩道,35.6280515,140.0701996,
千葉県,千葉市,15-1,美浜区高洲1-15-1,高洲第4小学校,35.6309619,140.0790204,
千葉県,千葉市,15-2,美浜区高洲1-18-13地先,高洲1丁目住宅管理事務所,35.6311354,140.0765367,
千葉県,千葉市,15-3,美浜区高洲1-14-7地先,バスハットかいえんバス停前歩道,35.6296778,140.0784926,
千葉県,千葉市,15-4,美浜区高洲4-3-1地先,こじま公園バス停前歩道,35.6326606,140.0745229,
千葉県,千葉市,15-5,美浜区高洲4-2,こじま公園,35.6340317,140.074936,
千葉県,千葉市,15-6,美浜区高洲4-5-4地先,高洲第2団地4-5-4棟前,35.6312405,140.0709405,
千葉県,千葉市,15-7,美浜区高洲4-5-10地先,UR稲毛海岸営業センター前歩道,35.6305247,140.0724371,緯度経度は怪しい
千葉県,千葉市,16-1,美浜区稲毛海岸5-7-1,稲毛第2小学校,35.6369919,140.075067,
千葉県,千葉市,16-2,美浜区稲毛海岸5-12,稲毛海浜5丁目公園,35.638903,140.0746951,
千葉県,千葉市,16-3,美浜区真砂1-1,袖ケ浦第3緑地①,35.6330534,140.0688349,緯度経度は怪しい
千葉県,千葉市,16-4,美浜区稲毛海岸4-15,稲岸公園①,35.6355586,140.0787896,
千葉県,千葉市,16-5,美浜区稲毛海岸4-15,稲岸公園②,35.6355586,140.0787896,
千葉県,千葉市,16-6,美浜区稲毛海岸4-15,稲岸公園③,35.6355586,140.0787896,
千葉県,千葉市,16-7,美浜区稲毛海岸3-4-1,稲浜公民館,35.6318933,140.0797125,
千葉県,千葉市,16-8,美浜区真砂1-1,袖ケ浦第3緑地②,35.6330534,140.0688349,緯度経度は怪しい
千葉県,千葉市,17-1,美浜区稲毛海岸2-3-2地方,稲丘小学校(稲毛海岸2丁目公園①),35.6298897,140.0845173,緯度経度は怪しい
千葉県,千葉市,17-2,美浜区稲毛海岸2-3-2地方,稲毛海岸2丁目公園②,35.6298897,140.0845173,緯度経度は怪しい
千葉県,千葉市,17-3,美浜区稲毛海岸1-2地方,稲毛団地23街区,35.6285669,140.0858552,
千葉県,千葉市,17-4,美浜区稲毛海岸1-1-17地方,稲毛海岸歩行者自転車専用道路①,35.6297624,140.086245,
千葉県,千葉市,17-5,美浜区稲毛海岸1-1-17地方,稲毛海岸歩行者自転車専用道路②,35.6297624,140.086245,
千葉県,千葉市,17-6,美浜区稲毛海岸2-3-2地方,稲毛海岸歩行者自転車専用道路③,35.6298897,140.0845173,緯度経度は怪しい
千葉県,千葉市,17-7,美浜区稲毛海岸2-2-39地方,稲毛海岸歩行者自転車専用道路④,35.6319567,140.0841891,
千葉県,千葉市,18-1,美浜区幸町2-17-4,旧幸町第1小学校①,35.6243157,140.0881407,
千葉県,千葉市,18-2,美浜区幸町2-17-4,旧幸町第1小学校②,35.6243157,140.0881407,
千葉県,千葉市,18-3,美浜区幸町2-16-3地方,幸町団地①6-3緑地公園,35.6251271,140.0883131,
千葉県,千葉市,18-4,美浜区幸町2-16-1地方,幸町団地②16街区入口脇,35.6256377,140.0898147,緯度経度は怪しい
千葉県,千葉市,18-5,美浜区幸町2-18-2地方,幸町団地③幸町団地バス停,35.6239157,140.0861639,
千葉県,千葉市,18-6,美浜区幸町2-16-10地方,幸町団地④16-10焼脇,35.6261188,140.0869625,
千葉県,千葉市,18-7,美浜区幸町2-13-9地方,幸町団地⑤幸町第5バス停,35.6220596,140.0880738,
千葉県,千葉市,19-1,美浜区幸町2-12-7,幸町第1中学校①,35.6203107,140.0903017,
千葉県,千葉市,19-2,美浜区幸町2-12-7,幸町第1中学校②,35.6203107,140.0903017,
千葉県,千葉市,19-3,美浜区幸町2-11-17外先,幸町団地集会場（公民館と幼稚園の間）,35.6201879,140.0915616,
千葉県,千葉市,19-4,美浜区幸町2-12 地先,幸町団地中央ロータリー,35.6210644,140.0916368,
千葉県,千葉市,19-5,美浜区幸町2-12-5 他先,幸町団地中央歩道橋前,35.6218004,140.093327,緯度経度は怪しい
千葉県,千葉市,19-6,美浜区幸町2-13-8 地先,幸町団地①3-8 地先,35.6220938,140.0889359,
千葉県,千葉市,19-7,美浜区幸町2-12-12,幸町小学校,35.6215786,140.0908221,
千葉県,千葉市,20-1,美浜区幸町2-9-4,旧幸町第2小学校,35.6178858,140.0948924,
千葉県,千葉市,20-2,美浜区幸町2-8-7 他先,幸町団地②8街区入口バス停脇,35.6167154,140.096859,緯度経度は怪しい
千葉県,千葉市,20-3,美浜区幸町2-8-16 他先,幸町団地③8街第2バス停脇,35.6154464,140.0955795,
千葉県,千葉市,20-4,美浜区幸町2-8-18 他先,幸町団地③8-18 地前,35.6154623,140.0948017,
千葉県,千葉市,20-5,美浜区幸町2-8-21 地先,幸町団地③8-21 地前,35.6166185,140.0945527,
千葉県,千葉市,20-6,美浜区幸町2-11-1 地先,幸町団地④8幸町第3バス停脇,35.6172452,140.0933029,緯度経度は怪しい
千葉県,千葉市,20-7,美浜区幸町2-11-15 他先,幸町団地④8幸町第4バス停脇,35.6187336,140.0914584,
千葉県,千葉市,21-1,美浜区幸町1-10-1,幸町第3小学校①,35.6116837,140.0990279,
千葉県,千葉市,21-2,美浜区幸町1-3-9,総合保健医療センター,35.609566,140.1009175,
千葉県,千葉市,21-3,美浜区幸町1-10-1,幸町第3小学校②,35.6116837,140.0990279,
千葉県,千葉市,21-4,美浜区新港4-14,ワクワクプラザ353前,35.6091095,140.099101,
千葉県,千葉市,21-5,美浜区幸町1-5-3,千葉ガーデンタウンC棟前,35.6125949,140.1013722,
千葉県,千葉市,21-6,美浜区幸町1-1-1 地先,幸町1丁目第4公園,35.6114398,140.1040411,
千葉県,千葉市,21-7,美浜区幸町1-14,幸町1丁目第2公園,35.6145644,140.0988645,
千葉県,千葉市,21-8,美浜区幸町1-17,幸町1丁目台公園,35.6152742,140.0997479,
千葉県,千葉市,22-1,美浜区打瀬1-3-1地先,打瀬小学校入口（打瀬第1公園内）,35.6421021,140.0472426,
千葉県,千葉市,22-2,美浜区打瀬1-3-1地先,打瀬第1公園,35.6421021,140.0472426,
千葉県,千葉市,22-3,美浜区若葉3-2-8地先,若葉3丁目緑地,35.6466712,140.0465797,
千葉県,千葉市,22-4,美浜区打瀬1-1,美浜消防署打瀬出張所,35.6448947,140.0468465,
千葉県,千葉市,22-5,美浜区打瀬1-6-1地先,ホワイトホーム前緑地,35.6420542,140.0489706,緯度経度は怪しい
千葉県,千葉市,22-6,美浜区若葉3-2-8地先,JA共済浜転研修センター前歩道,35.6466712,140.0465797,
千葉県,千葉市,22-7,美浜区打瀬1-1地先,幕張クリーンセンター前緑地,35.6448947,140.0468465,
千葉県,千葉市,22-8,美浜区打瀬1-2-1地先,セントラルタワーズ1階前歩道,35.6445474,140.0455739,
千葉県,千葉市,23-1,美浜区打瀬3-3-1,海浜打瀬小学校,35.6403924,140.041789,
千葉県,千葉市,23-2,美浜区打瀬3-1地先,海浜打瀬小学校前歩道,35.64236,140.0407883,
千葉県,千葉市,23-3,美浜区ひび野2,幕張海浜公園,35.6448798,140.0405854,
千葉県,千葉市,23-4,美浜区ひび野2,幕張海浜公園,35.6448798,140.0405854,
千葉県,千葉市,23-5,美浜区打瀬2-2,打瀬2丁目公園,35.6404635,140.0453699,緯度経度は怪しい
千葉県,千葉市,23-6,美浜区打瀬2-2,打瀬2丁目公園,35.6404635,140.0453699,緯度経度は怪しい
千葉県,千葉市,23-7,美浜区打瀬2-7,打瀬第2公園,35.639179,140.0450788,緯度経度は怪しい
千葉県,千葉市,23-8,美浜区打瀬3-8,打瀬第5公園,35.637009,140.0425111,
千葉県,千葉市,24-1,美浜区打瀬2-13,打瀬公民館,35.639179,140.0450788,
千葉県,千葉市,24-2,美浜区打瀬2-13,打瀬公民館,35.639179,140.0450788,
千葉県,千葉市,24-3,美浜区打瀬1-11-2,打瀬1丁目公園,35.6399391,140.0485594,
千葉県,千葉市,24-4,美浜区打瀬1-11-2,打瀬1丁目公園,35.6399391,140.0485594,
千葉県,千葉市,24-5,美浜区打瀬2-18-1,美浜打瀬小学校前緑地,35.6383086,140.0445171,
千葉県,千葉市,24-6,美浜区打瀬2-18-1,美浜打瀬小学校前緑地,35.6383086,140.0445171,
千葉県,千葉市,24-7,美浜区打瀬3-12-1,打瀬中学校前緑地,35.6367818,140.0431708,
千葉県,千葉市,24-8,美浜区打瀬3-12-1,打瀬中学校前緑地,35.6367818,140.0431708,
千葉県,千葉市,1-1,花見川区花園4-1-2,花園小学校,35.6556768,140.0737519,
千葉県,千葉市,1-2,花見川区花園町1035,朝日ヶ丘病院向い,35.6580916,140.0730188,
千葉県,千葉市,1-3,花見川区花園5-10,東花園公園（北側）,35.6543261,140.0763811,
千葉県,千葉市,1-4,花見川区朝日ヶ丘4-12-1,大坂公園,35.6568814,140.0766746,
千葉県,千葉市,1-5,花見川区花園5-10,東花園公園（西側）,35.6543261,140.0763811,
千葉県,千葉市,1-6,花見川区花園3-18-22,花園北グリーンベルト（北側）,35.6578901,140.0720961,
千葉県,千葉市,1-7,花見川区花園5-3-3,花園グリーンベルト新検見川第6自転車駐車場前,35.6538226,140.0753645,
千葉県,千葉市,1-8,花見川区花園5-1-3,花園1丁目東側グリーンベルト,35.6531739,140.0774925,
千葉県,千葉市,2-1,花見川区花園4-1-1,花園中学校,35.6544905,140.0742735,
千葉県,千葉市,2-2,花見川区花園2-11,花園公園（グリーンベルト側）,35.6540236,140.0718051,
千葉県,千葉市,2-3,花見川区花園2-11,花園公園（東側）,35.6540236,140.0718051,
千葉県,千葉市,2-4,花見川区花園3-7,北園公園,35.6555128,140.0708418,
千葉県,千葉市,2-5,花見川区花園3-3-1,花園グリーンベルト東側,35.654898,140.0698128,
千葉県,千葉市,2-6,花見川区花園3-12-8,花園公民館,35.6578003,140.0696762,
千葉県,千葉市,2-7,花見川区花園3-17-26,花園北グリーンベルト（南側）,35.6571315,140.0713307,
千葉県,千葉市,2-8,花見川区浪花町3-7,花園グリーンベルト西側,35.6551106,140.0668389,
千葉県,千葉市,3-1,花見川区検見川町3-322-23,検見川小学校（正門脇）,35.6491232,140.0684185,
千葉県,千葉市,3-2,花見川区検見川町3-322-23,検見川小学校（裏門脇）,35.6491232,140.0684185,
千葉県,千葉市,3-3,花見川区検見川町3-328-14,検見川公園,35.6464594,140.0704495,
千葉県,千葉市,3-4,花見川区検見川町5-2075,土地区画整理地内仮設住宅脇,35.6464854,140.0729621,
千葉県,千葉市,3-5,花見川区検見川町2-207-21,中道公園,35.6500205,140.0672897,
千葉県,千葉市,3-6,花見川区検見川町3-305,浜竹公園,35.6507752,140.0707781,
千葉県,千葉市,3-7,花見川区検見川町3-305,浜竹公園（おがわ歯科前）,35.6507752,140.0707781,
千葉県,千葉市,3-8,花見川区南花園2-4,新検見川公園,35.6508237,140.0724473,
千葉県,千葉市,4-1,花見川区幕張町4-781,幕張小学校,35.6618491,140.0537054,
千葉県,千葉市,4-2,花見川区幕張町4-602,幕張公民館,35.6602842,140.0553987,
千葉県,千葉市,4-3,花見川区幕張町5-607,幕張町第1自転車駐車場,35.6518375,140.0579197,緯度経度は怪しい
千葉県,千葉市,4-4,花見川区幕張町5-417,幕張町5丁目第4公園,35.6509954,140.0575967,緯度経度は怪しい
千葉県,千葉市,4-5,花見川区幕張町5-393-1,磯部新田公園,35.6522665,140.0598244,
千葉県,千葉市,4-6,花見川区幕張町5-373,日本選挙センター幕張倉庫前,35.6532924,140.0610687,
千葉県,千葉市,4-7,花見川区幕張町5-226,幕張5丁目運動広場（南側）,35.6558127,140.0601464,
千葉県,千葉市,4-8,花見川区幕張町5-247,幕張5丁目運動広場（東側）,35.6557716,140.0613669,
千葉県,千葉市,5-1,花見川区幕張町3-7718,幕張南小学校（正門脇）,35.6573363,140.047315,
千葉県,千葉市,5-2,花見川区幕張町3-7718,幕張南小学校（プール横）,35.6573363,140.047315,
千葉県,千葉市,5-3,花見川区幕張町1-7688,渚公園,35.6615618,140.0463627,
千葉県,千葉市,5-4,花見川区幕張町3-7730,幕張舟溜跡公園,35.6567059,140.0479667,
千葉県,千葉市,5-5,花見川区幕張町4-544,幕張4丁目公園,35.6571606,140.0499812,
千葉県,千葉市,5-6,花見川区幕張町5-417-260,幕張第一保育所,35.6550128,140.0533374,緯度経度は怪しい
千葉県,千葉市,5-7,花見川区幕張町4-417-25,イトーヨーカドー西側,35.6562774,140.0511775,
千葉県,千葉市,5-8,花見川区幕張町5-417-16,幕張町5丁目公園,35.653723,140.0539377,緯度経度は怪しい
千葉県,千葉市,6-1,花見川区幕張本郷3-22-6,西の谷小学校（正門脇）,35.6656176,140.0457529,
千葉県,千葉市,6-2,花見川区幕張本郷3-22-6,西の谷小学校（体育館横）,35.6656176,140.0457529,
千葉県,千葉市,6-3,花見川区幕張本郷3-26,西の谷公園,35.6670836,140.0474058,
千葉県,千葉市,6-4,花見川区幕張本郷2-33,一本松公園（町内会看板横）,35.6688264,140.0421902,
千葉県,千葉市,6-5,花見川区幕張本郷2-33,一本松公園（西側）,35.6688264,140.0421902,
千葉県,千葉市,6-6,花見川区幕張本郷2-19-33,幕張本郷公民館,35.6681923,140.0392199,
千葉県,千葉市,6-7,花見川区幕張本郷1-1-3,幕張本郷駅前広場植樹枡,35.67267,140.0420789,
千葉県,千葉市,6-8,花見川区幕張本郷1-17,浪浜公園,35.6720688,140.0385796,
千葉県,千葉市,6-9,花見川区幕張本郷1-13-1,幕張本郷駅入口交差点付近,35.6715023,140.0407992,
千葉県,千葉市,7-1,花見川区幕張本郷4-8-1,上の台小学校（正門脇）,35.6692197,140.0493217,
千葉県,千葉市,7-2,花見川区幕張本郷4-8-1,上の台小学校（裏門脇）,35.6692197,140.0493217,
千葉県,千葉市,7-3,花見川区幕張本郷4-4,宮の台公園,35.6693998,140.0485293,
千葉県,千葉市,7-4,花見川区幕張本郷7-37,本郷児童公園,35.6714754,140.0501342,
千葉県,千葉市,7-5,花見川区幕張本郷5-18-1,幕張本郷中学校,35.6717068,140.0470465,
千葉県,千葉市,7-6,花見川区幕張本郷7-23,幕張台公園,35.6750014,140.049412,
千葉県,千葉市,7-7,花見川区幕張本郷6-25,鉄炮塚二線橋脇,35.6743147,140.0438752,
千葉県,千葉市,7-8,花見川区幕張本郷6-14,浄土公園,35.6755951,140.0427518,
千葉県,千葉市,8-1,花見川区幕張町4-781,幕張小学校（西側）,35.6618491,140.0537054,
千葉県,千葉市,8-2,花見川区幕張町1-7673-1,幕張(A)公園,35.6613935,140.0461719,
千葉県,千葉市,8-3,花見川区幕張町4丁目1818-5,幕張町あんず公園,35.6661099,140.0567485,
千葉県,千葉市,8-4,花見川区幕張町1511-4,幕張3丁目防災倉庫脇,35.6644298,140.0521405,緯度経度は怪しい
千葉県,千葉市,8-5,花見川区幕張町1107-10,北寺口二線人道橋脇,35.6644298,140.0521405,緯度経度は怪しい
千葉県,千葉市,8-6,花見川区幕張町5-544,幕張公園,35.657438,140.0527746,
千葉県,千葉市,8-7,花見川区幕張町3-1096-24,幕張町三丁目公園,35.6619745,140.0522307,
千葉県,千葉市,9-1,花見川区幕張町4-45,幕張中学校（正門脇）,35.6628412,140.059119,
千葉県,千葉市,9-2,花見川区幕張町4-45,幕張中学校（裏門脇）,35.6628412,140.059119,
千葉県,千葉市,9-3,花見川区幕張町4-628-1,幕張駅第12自転車駐車場,35.6652396,140.0557323,緯度経度は怪しい
千葉県,千葉市,9-4,花見川区幕張町4-681,幕張東小学校体育館前,35.665591,140.0578787,
千葉県,千葉市,9-5,花見川区幕張町6丁目99番4の一部他,JR幕張駅北口コープみらい前,35.6604025,140.0588012,
千葉県,千葉市,9-6,花見川区幕張町4-681,幕張東小学校入口交差点脇,35.665591,140.0578787,
千葉県,千葉市,9-7,花見川区幕張町4-45,幕張中学校（武道場裏）,35.6628412,140.059119,
千葉県,千葉市,9-8,花見川区武石町2-632-1,武石町2丁目都市公園予定地,35.6609991,140.0615944,
千葉県,千葉市,10-1,花見川区畑町1385-1,畑小学校（正門前）,35.6654161,140.0786692,
千葉県,千葉市,10-2,花見川区畑町1334-1,畑小学校（北側）,35.6668276,140.0798701,
千葉県,千葉市,10-3,花見川区朝日ヶ丘5-4,畑台公園（北側）,35.6603692,140.0812785,
千葉県,千葉市,10-4,花見川区畑町662,畑ヶ丘公園（南側）,35.6617893,140.0800588,緯度経度は怪しい
千葉県,千葉市,10-5,花見川区畑町662,畑ヶ丘公園（北側）,35.6617893,140.0800588,緯度経度は怪しい
千葉県,千葉市,10-6,花見川区朝日ヶ丘5-4,畑台公園（東側）,35.6603692,140.0812785,
千葉県,千葉市,10-7,花見川区畑町1605,畑町第2公園,35.6647274,140.0768979,緯度経度は怪しい
千葉県,千葉市,11-1,花見川区朝日ヶ丘2-6-1,朝日ヶ丘小学校,35.6589051,140.0849619,
千葉県,千葉市,11-2,花見川区朝日ヶ丘2-2-3,にれの木台中央バス停横,35.6577333,140.0848908,
千葉県,千葉市,11-3,花見川区朝日ヶ丘2-27-9,朝日ヶ丘第2公園,35.6584185,140.0848917,
千葉県,千葉市,11-4,花見川区朝日ヶ丘3-13-1,にれの木台公園,35.6566311,140.0858753,
千葉県,千葉市,11-5,花見川区朝日ヶ丘1-20,つくし公園,35.6577264,140.0905928,
千葉県,千葉市,11-6,花見川区朝日ヶ丘2-4-1,朝日ヶ丘中学校,35.6564129,140.0874262,
千葉県,千葉市,11-7,花見川区朝日ヶ丘1-1-30,朝日ヶ丘公民館,35.6554732,140.0892449,
千葉県,千葉市,11-8,花見川区畑町446-99,畑町公園,35.6616444,140.0880834,
千葉県,千葉市,12-1,花見川区西小中台3-1,西小中台小学校,35.6510358,140.0859455,
千葉県,千葉市,12-2,花見川区西小中台5-20,西小中台保育所脇,35.6519044,140.0874599,
千葉県,千葉市,12-3,花見川区西小中台2-16,西小中台団地（16棟横）,35.6532407,140.0856745,
千葉県,千葉市,12-4,花見川区西小中台2-18,西小中台団地（18棟横）,35.6529171,140.0850081,
千葉県,千葉市,12-5,花見川区西小中台1,児童公園前,35.6509733,140.0848114,
千葉県,千葉市,12-6,花見川区西小中台1,西小中台団地（31棟向い）,35.6509733,140.0848114,
千葉県,千葉市,12-7,花見川区宮野木台1-7,宮野木西公園,35.6550584,140.092761,
千葉県,千葉市,13-1,花見川区さつきが丘1-7,さつきが丘東小学校,35.6639255,140.0990653,
千葉県,千葉市,13-2,花見川区宮野木台4-4,富士公園（西側）,35.6582424,140.095893,
千葉県,千葉市,13-3,花見川区さつきが丘1-32,さつきが丘市民センター,35.6649815,140.0970976,
千葉県,千葉市,13-4,花見川区さつきが丘1-18,檜橋貝塚公園（公民館前）,35.6649815,140.0970976,
千葉県,千葉市,13-5,花見川区さつきが丘1-18,檜橋貝塚公園（南側）,35.6649815,140.0970976,
千葉県,千葉市,13-6,花見川区さつきが丘1-29-6,第一バス停脇,35.6632891,140.0939558,
千葉県,千葉市,13-7,花見川区宮野木台4-2,桜公園,35.6580917,140.0953308,
千葉県,千葉市,13-8,花見川区宮野木台4-4,富士公園（東側）,35.6582424,140.095893,
千葉県,千葉市,14-1,花見川区さつきが丘2-14,さつきが丘西小学校,35.6885299,140.0927864,緯度経度は怪しい
千葉県,千葉市,14-2,花見川区さつきが丘2-31,さつきが丘西公園（保育園前）,35.6675516,140.091958,
千葉県,千葉市,14-3,花見川区さつきが丘2-31,さつきが丘西公園（さつきが丘西小前）,35.6675516,140.091958,
千葉県,千葉市,14-4,花見川区さつきが丘2-34-15,2-34-15棟前,35.6679655,140.0943351,
千葉県,千葉市,14-5,花見川区さつきが丘2-25-1,さつきが丘西有料駐車場前,35.6693528,140.0935528,
千葉県,千葉市,14-6,花見川区さつきが丘2-12-1,高木産婦人科前植込み,35.6655969,140.092832,
千葉県,千葉市,14-7,花見川区さつきが丘2-6,さつきが丘南公園,35.6892414,140.0917387,緯度経度は怪しい
千葉県,千葉市,15-1,花見川区檀橋町774,檀橋小学校,35.6080345,140.1096626,
千葉県,千葉市,15-2,花見川区檀橋町59,檀橋本郷第3公園,35.6080345,140.1096626,緯度経度は怪しい
千葉県,千葉市,15-3,花見川区檀橋町107-2,花見川消防署前,35.6080345,140.1096626,緯度経度は怪しい
千葉県,千葉市,15-4,花見川区檀橋町1676-1,尾長十字路ヤマト運輸前,35.6080345,140.1096626,緯度経度は怪しい
千葉県,千葉市,15-5,花見川区檀橋町1542,檀橋地域福祉交流館向い植込み,35.6080345,140.1096626,緯度経度は怪しい
千葉県,千葉市,15-6,花見川区檀橋町572,明治千葉宅配センター横,35.6080345,140.1096626,
千葉県,千葉市,15-7,花見川区檀橋町162-1地先,檀橋公民館隣地畑沿いフェンス,35.6080345,140.1096626,緯度経度は怪しい
千葉県,千葉市,16-1,花見川区長作町1273,長作小学校（正門脇）,35.6840363,140.074093,
千葉県,千葉市,16-2,花見川区長作町1273,長作小学校（裏門脇）,35.6840363,140.074093,
千葉県,千葉市,16-3,花見川区長作町739-3,長作町公園,35.6747108,140.0721664,
千葉県,千葉市,16-4,花見川区長作町1722-1,長作連絡所脇土手,35.6803936,140.0790805,
千葉県,千葉市,16-5,花見川区長作町1848,コイン洗車場前緑地帯,35.6799762,140.0823439,
千葉県,千葉市,16-6,花見川区長作町1860-1,三島神社前,35.6794081,140.0837404,
千葉県,千葉市,16-7,花見川区長作町781,長作東公園,35.6771841,140.0726882,緯度経度は怪しい
千葉県,千葉市,16-8,花見川区畑町2870,花見川サイクリングロード横,35.6717804,140.0802247,
千葉県,千葉市,17-1,花見川区作新台7-2-1,作新小学校（西側）,35.6872511,140.0847407,
千葉県,千葉市,17-2,花見川区作新台1-1-10,花見川車庫バス停横,35.6887251,140.0891876,
千葉県,千葉市,17-3,花見川区作新台5-1,和久整形外科前植込み,35.6905755,140.0850522,
千葉県,千葉市,17-4,花見川区作新台6-7,長作台第3公園（巴会館並び）,35.6874376,140.0873005,
千葉県,千葉市,17-5,花見川区作新台1-12,享保公園,35.6897746,140.090111,
千葉県,千葉市,17-6,花見川区作新台2-10,森長公園,35.6916341,140.0875414,
千葉県,千葉市,17-7,花見川区作新台1-7,大堀公園,35.6917532,140.0921989,
千葉県,千葉市,17-8,花見川区作新台5-24,作新台公園,35.6913071,140.0827238,
千葉県,千葉市,18-1,花見川区花見川1-1,旧花見川第三小学校,35.6870734,140.0896908,
千葉県,千葉市,18-2,花見川区花見川1-24,花見川1-24棟前,35.6852117,140.0907561,
千葉県,千葉市,18-3,花見川区花見川1-28,花見川1-28棟前,35.6862676,140.0913418,緯度経度は怪しい
千葉県,千葉市,18-4,花見川区花見川2-3,第3集会所バス停横,35.6884468,140.0911086,
千葉県,千葉市,18-5,花見川区花見川3-1,花見川3-1棟前,35.689544,140.094256,
千葉県,千葉市,18-6,花見川区花見川2-41-101,花見川第二保育所,35.6876033,140.093992,緯度経度は怪しい
千葉県,千葉市,18-7,花見川区花見川2-23,花見川2-23棟前,35.6864885,140.0924613,緯度経度は怪しい
千葉県,千葉市,19-1,花見川区花見川8-1,花島小学校,35.6880145,140.0968762,緯度経度は怪しい
千葉県,千葉市,19-2,花見川区花見川9-11,花見川9-11棟向い,35.6871961,140.0944073,
千葉県,千葉市,19-3,花見川区花島町308,花島公園センター,35.6814704,140.096937,
千葉県,千葉市,19-4,花見川区花見川9-3,花見川9-3棟前,35.6868475,140.0940265,
千葉県,千葉市,19-5,花見川区花見川9-19,花見川9-19棟前,35.6862964,140.0947678,
千葉県,千葉市,19-6,花見川区花見川8-3,花見川8-3棟前,35.6868604,140.0976329,
千葉県,千葉市,19-7,花見川区花見川8-1,花見川8-1棟前,35.6880145,140.0968762,緯度経度は怪しい
千葉県,千葉市,20-1,花見川区花見川16-1,花見川中学校西側,35.6256377,140.0898147,緯度経度は怪しい
千葉県,千葉市,20-2,花見川区花島町440,花島公園（花見川7-8棟向い）,35.6865462,140.0982838,
千葉県,千葉市,20-3,花見川区花見川3-31,中央公園（歩道橋脇）,35.6884486,140.0949796,緯度経度は怪しい
千葉県,千葉市,20-4,花見川区花見川5-6,花見川6-6棟向い,35.691627,140.0977729,
千葉県,千葉市,20-5,花見川区柏井町884,柏井市民の森（花見川6-17棟向い）,35.6898902,140.1016648,
千葉県,千葉市,20-6,花見川区花見川6-2,花見川中学校,35.6891698,140.1018013,緯度経度は怪しい
千葉県,千葉市,20-7,花見川区柏井町183,旧市原運送向い,35.6893228,140.1067457,
千葉県,千葉市,21-1,花見川区花見川4-1,花見川小学校(体育館側校門脇),35.6948128,140.0986035,緯度経度は怪しい
千葉県,千葉市,21-2,花見川区花見川4-1,花見川小学校(正門脇),35.6948128,140.0986035,緯度経度は怪しい
千葉県,千葉市,21-3,花見川区柏井1-19-7,芦太山公園,35.6944223,140.096937,
千葉県,千葉市,21-4,花見川区柏井1-20-6,芦太公園,35.6952047,140.0965359,
千葉県,千葉市,21-5,花見川区花見川4-11,花見川4-11棟前,35.6929766,140.0968063,緯度経度は怪しい
千葉県,千葉市,21-6,花見川区花見川4-5,花見川4-5棟前,35.6919928,140.0951866,
千葉県,千葉市,21-7,花見川区花見川3-8,花見川3-8棟前,35.6911788,140.0938837,
千葉県,千葉市,22-1,花見川区柏井4-48-1,柏井小学校(正門脇),35.7088914,140.1069666,
千葉県,千葉市,22-2,花見川区柏井4-48-1,柏井小学校(ゴルフ場側校門脇),35.7088914,140.1069666,
千葉県,千葉市,22-3,花見川区柏井4-28-54,柏井公園,35.706526,140.1049686,
千葉県,千葉市,22-4,花見川区柏井町1445-4,鷹の台弁天公園,35.69807,140.1094939,
千葉県,千葉市,22-5,花見川区柏井町1575-1,ヘアーサロン、アゼリア前グリーンベルト,35.697692,140.102057,
千葉県,千葉市,22-6,花見川区横戸町13-18,鷹の台公園,35.712059,140.1111034,
千葉県,千葉市,22-7,花見川区柏井4-49,柏井第3公園,35.709271,140.1075389,
千葉県,千葉市,23-1,花見川区横戸町1005,横戸小学校,35.6962188,140.120427,
千葉県,千葉市,23-2,花見川区こてはし台6-20,こてはし台6丁目公園,35.6959808,140.1168572,
千葉県,千葉市,23-3,花見川区横戸台38,横戸北公園,35.6984032,140.1131619,
千葉県,千葉市,23-4,花見川区横戸町1255-25,横戸公園,35.703362,140.1163055,
千葉県,千葉市,23-5,花見川区横戸町861-4,こてはし台公民館跡地,35.6929541,140.1210308,
千葉県,千葉市,23-6,花見川区横戸台23,横戸南公園（横戸台21街区側）,35.6984032,140.1131619,緯度経度は怪しい
千葉県,千葉市,23-7,花見川区横戸台23,横戸南公園（横戸緑地側）,35.6984032,140.1131619,緯度経度は怪しい
千葉県,千葉市,24-1,花見川区こてはし台2-28-1,こてはし台小学校グランド,35.6881925,140.1229179,
千葉県,千葉市,24-2,花見川区こてはし台5-23,こてはし台5丁目公園,35.6933969,140.1174196,
千葉県,千葉市,24-3,花見川区こてはし台5-12,こてはし台保育所,35.6903445,140.1200708,
千葉県,千葉市,24-4,花見川区こてはし台4-21,こてはし台公園,35.6881218,140.1199101,
千葉県,千葉市,24-5,花見川区こてはし台3-11,こてはし台3丁目公園,35.684309,140.119187,
千葉県,千葉市,24-6,花見川区こてはし台1-22-19,ちすみ第1公園,35.6844969,140.1231426,
千葉県,千葉市,24-7,花見川区こてはし台1-14,こてはし台2丁目公園,35.6855644,140.126177,
千葉県,千葉市,25-1,千葉県花見川区三角町656-2,横橋中学校,35.6775906,140.1169971,緯度経度は怪しい
千葉県,千葉市,25-2,花見川区三角町656-3,横橋公園,35.6783074,140.118298,
千葉県,千葉市,25-3,花見川区千種町333-9,千種北公園,35.6834549,140.118845,
千葉県,千葉市,25-4,花見川区千種町202,千種第5公園（セブンイレブン向い）,35.6787466,140.1100747,
千葉県,千葉市,25-5,花見川区千種町202,千種第5公園（駐車場向い）,35.6787466,140.1100747,
千葉県,千葉市,25-6,花見川区千種町356-37,千種公園,35.6824803,140.1197867,
千葉県,千葉市,25-7,花見川区千種町337,千種第2公園,35.6827409,140.117055,
千葉県,千葉市,25-8,花見川区三角町230-40,みすみ公園,35.6860024,140.1151099,
千葉県,千葉市,26-1,花見川区瑞穂1-2,瑞穂小学校,35.6661255,140.0694771,緯度経度は怪しい
千葉県,千葉市,26-2,花見川区瑞穂1-4,しらさぎ公園（小学校並び）,35.6646847,140.0694516,
千葉県,千葉市,26-3,花見川区瑞穂1-1,花見川区役所,35.6627932,140.0689262,
千葉県,千葉市,26-4,花見川区瑞穂3-9,つぐみ公園,35.661011,140.0681928,
千葉県,千葉市,26-5,花見川区瑞穂3-2-8,かるがも公園（裏側）,35.6616029,140.071183,
千葉県,千葉市,26-6,花見川区瑞穂3-2-7,かるがも公園（バス停側）,35.6615058,140.0710563,
千葉県,千葉市,26-7,花見川区瑞穂1-4,しらさぎ公園（13街区側）,35.6646847,140.0694516,
千葉県,千葉市,27-1,花見川区大日町1269,大日町会館千葉市広報板前,35.6833471,140.1350856,
千葉県,千葉市,27-2,花見川区み春野1-11,宇那谷み春野公園（北側）,35.6924133,140.1383913,
千葉県,千葉市,27-3,花見川区み春野1-11,宇那谷み春野公園（東側）,35.6924133,140.1383913,
千葉県,千葉市,27-4,花見川区み春野2-1,宇那谷すずかぜ公園,35.6892227,140.1381502,
千葉県,千葉市,27-5,花見川区み春野3-9,宇那谷もみじ公園,35.6951753,140.1371858,
千葉県,千葉市,27-6,花見川区宇那谷町264-1,宇那谷町内会館駐車場フェンス,35.6879875,140.1363018,緯度経度は怪しい
千葉県,千葉市,27-7,花見川区大日町1463-1,大日公園,35.6820427,140.1331477,
千葉県,千葉市,28-1,花見川区作新台7-2-1,作新小学校（南側）,35.6872511,140.0847407,
千葉県,千葉市,28-2,花見川区作新台8-12-8,長作台第1公園（5号棟向い）,35.6861386,140.0840686,
千葉県,千葉市,28-3,花見川区作新台8-12-8,長作台第1公園（9号棟並び）,35.6861386,140.0840686,
千葉県,千葉市,28-4,花見川区作新台8-11,長作台第2公園（駐車場向い）,35.686202,140.0854537,
千葉県,千葉市,28-5,花見川区作新台8-11,長作台第2公園（4号棟向い）,35.686202,140.0854537,
千葉県,千葉市,28-6,花見川区作新台6-7,長作台第3公園（東側）,35.6874376,140.0873005,
千葉県,千葉市,28-7,花見川区長作町1630,長作みどり公園,35.6885251,140.0809723,
千葉県,千葉市,1,稲毛区穴川4-12-1地先稲毛区役所正門脇,稲毛区役所正門脇,35.6364421,140.1075184,緯度経度は怪しい
千葉県,千葉市,2,稲毛区穴川2-2-8穴川2丁目公園,穴川2丁目公園,35.633301,140.1069804,緯度経度は怪しい
千葉県,千葉市,3,稲毛区穴川4-12穴川中央公園,穴川中央公園,35.6366164,140.1056368,緯度経度は怪しい
千葉県,千葉市,4,稲毛区弥生町1弥生幼稚園バス停脇,弥生幼稚園バス停脇,35.6295497,140.1040602,緯度経度は怪しい
千葉県,千葉市,5,稲毛区穴川2-3-24地先稲毛区役所バス停脇,稲毛区役所バス停脇,35.6350571,140.1062236,緯度経度は怪しい
千葉県,千葉市,6,稲毛区穴川4-12-1地先稲毛区役所脇植栽,稲毛区役所脇植栽,35.6364421,140.1075184,緯度経度は怪しい
千葉県,千葉市,7,稲毛区穴川1-8-15地先穴川1丁目公園,穴川1丁目公園,35.6321568,140.1060029,緯度経度は怪しい
千葉県,千葉市,8,稲毛区天台5-11-1千葉台小学校,千葉台小学校,35.6379205,140.1160739,緯度経度は怪しい
千葉県,千葉市,9,稲毛区天台2-2-1天台県営住宅脇,天台県営住宅脇,35.6351808,140.1121014,緯度経度は怪しい
千葉県,千葉市,10,稲毛区天台3-3地先西千葉サンハイツ3棟横,西千葉サンハイツ3棟横,35.6313664,140.1176139,緯度経度は怪しい
千葉県,千葉市,11,稲毛区天台3-16-6千草台公民館,千草台公民館,35.6337679,140.1168127,緯度経度は怪しい
千葉県,千葉市,12,稲毛区天台3-4地先なづけ野公園,なづけ野公園,35.6319419,140.1172146,緯度経度は怪しい
千葉県,千葉市,13,稲毛区萩台町507-28萩台北第2公園,萩台北第2公園,35.6429051,140.1228024,緯度経度は怪しい
千葉県,千葉市,14,稲毛区萩台町696-59萩台第2公園,萩台第2公園,35.6418436,140.1191951,緯度経度は怪しい
千葉県,千葉市,15,稲毛区萩台町664-87萩台北公園,萩台北公園,35.6477176,140.1229753,緯度経度は怪しい
千葉県,千葉市,16,稲毛区千草台2-3-1千葉台中学校,千葉台中学校,35.636553,140.1177378,緯度経度は怪しい
千葉県,千葉市,17,稲毛区千草台2-2-31地先千草台団地31棟横,千草台団地31棟横,35.635984,140.1187792,緯度経度は怪しい
千葉県,千葉市,18,稲毛区千草台2-2-25地先千草台団地25棟横,千草台団地25棟横,35.6357897,140.1204228,緯度経度は怪しい
千葉県,千葉市,19,稲毛区千草台2-10地先千草台団地10棟横,千草台団地10棟横,35.6347634,140.1192875,緯度経度は怪しい
千葉県,千葉市,20,稲毛区千草台2-2-27地先千草台団地27棟横,千草台団地27棟横,35.635591,140.119474,緯度経度は怪しい
千葉県,千葉市,21,稲毛区千草台1-1-14地先千草台団地14棟横,千草台団地14棟横,35.6344656,140.1188044,緯度経度は怪しい
千葉県,千葉市,22,稲毛区千草台1-1-8地先千草台団地運動広場脇緑地,千草台団地運動広場脇緑地,35.6323984,140.1189426,緯度経度は怪しい
千葉県,千葉市,23,稲毛区作草部町938都賀小学校バス停脇,都賀小学校バス停脇,35.6290782,140.1228024,緯度経度は怪しい
千葉県,千葉市,24,稲毛区作草部1-32地先都賀公園,都賀公園,35.6284973,140.1187853,緯度経度は怪しい
千葉県,千葉市,25,稲毛区作草部町604地先作草部南公園,作草部南公園,35.6249501,140.1162336,緯度経度は怪しい
千葉県,千葉市,26,稲毛区作草部1-23-1地先作草部県営住宅,作草部県営住宅,35.627323,140.1165369,緯度経度は怪しい
千葉県,千葉市,27,稲毛区作草部町955地先作草部北公園,作草部北公園,35.6307887,140.1210965,緯度経度は怪しい
千葉県,千葉市,28,稲毛区作草部町53地先都賀公民館,都賀公民館,35.6254923,140.1176906,緯度経度は怪しい
千葉県,千葉市,29,稲毛区作草部町1298-1都賀中学校,都賀中学校,35.631729,140.1229082,緯度経度は怪しい
千葉県,千葉市,30,稲毛区天台1-6-2地先天台公園,天台公園,35.6327069,140.1126799,緯度経度は怪しい
千葉県,千葉市,31,稲毛区轟町3-4-30轟町小学校,轟町小学校,35.6302721,140.1085978,緯度経度は怪しい
千葉県,千葉市,32,稲毛区轟町3-6-25地先第二養護学校（正門側）,第二養護学校（正門側）,35.63134,140.1098632,緯度経度は怪しい
千葉県,千葉市,33,稲毛区轟町3-6-25地先第二養護学校（中学校側）,第二養護学校（中学校側）,35.63134,140.1098632,緯度経度は怪しい
千葉県,千葉市,34,稲毛区轟町2-8-1地先市営轟町第1団地,市営轟町第1団地,35.6296777,140.1069365,緯度経度は怪しい
千葉県,千葉市,35,稲毛区弥生町1千葉大北門,千葉大北門,35.6295497,140.1040602,緯度経度は怪しい
千葉県,千葉市,36,稲毛区轟町1-4-23地先松並木グリーンベルト,松並木グリーンベルト,35.6239495,140.1088843,緯度経度は怪しい
千葉県,千葉市,37,稲毛区轟町5-1-32青葉公園,青葉公園,35.6289165,140.1126188,緯度経度は怪しい
千葉県,千葉市,38,稲毛区弥生町3-18弥生小学校（正門脇）,弥生小学校（正門脇）,35.6258595,140.1014747,緯度経度は怪しい
千葉県,千葉市,39,稲毛区黒砂台3-4-17地先黒砂台西公園,黒砂台西公園,35.6330306,140.0990907,緯度経度は怪しい
千葉県,千葉市,40,稲毛区黒砂台3-1地先西千葉公園,西千葉公園,35.6289298,140.0989947,緯度経度は怪しい
千葉県,千葉市,41,稲毛区黒砂台3-1地先西千葉公園（千葉大学側）,西千葉公園（千葉大学側）,35.6281899,140.1017362,緯度経度は怪しい
千葉県,千葉市,42,稲毛区黒砂台3-7-16地先黒砂台公園,黒砂台公園,35.6330389,140.1007465,緯度経度は怪しい
千葉県,千葉市,43,稲毛区弥生町3-18弥生小学校（裏門脇）,弥生小学校（裏門脇）,35.6258595,140.1014747,緯度経度は怪しい
千葉県,千葉市,44,稲毛区弥生町1千葉大学付属幼稚園（入口付近）,千葉大学付属幼稚園（入口付近）,35.623385,140.1044215,緯度経度は怪しい
千葉県,千葉市,45,稲毛区緑町2-13-1緑町小学校,緑町小学校,35.6238051,140.0975683,緯度経度は怪しい
千葉県,千葉市,46,稲毛区緑町1-17緑町公園,緑町公園,35.6245974,140.0993454,緯度経度は怪しい
千葉県,千葉市,47,稲毛区緑町1-16-5京葉銀行向かい,京葉銀行向かい,35.6249572,140.0990335,緯度経度は怪しい
千葉県,千葉市,48,稲毛区黒砂台1-10黒砂公園（森田宅側）,黒砂公園（森田宅側）,35.6268543,140.0976606,緯度経度は怪しい
千葉県,千葉市,49,稲毛区黒砂台2-14新山公園,新山公園,35.6306183,140.0958464,緯度経度は怪しい
千葉県,千葉市,50,稲毛区黒砂台1-23-9新栄会館,新栄会館,35.6295624,140.0970362,緯度経度は怪しい
千葉県,千葉市,51,稲毛区黒砂台1-10黒砂公園（土橋宅側）,黒砂公園（土橋宅側）,35.6268543,140.0976606,緯度経度は怪しい
千葉県,千葉市,52,稲毛区緑町2-3-1緑町中学校正門,緑町中学校正門,35.622647,140.096829,緯度経度は怪しい
千葉県,千葉市,53,稲毛区緑町2-3-1緑町中学校,緑町中学校,35.622647,140.096829,緯度経度は怪しい
千葉県,千葉市,54,稲毛区緑町2-13-1緑町小学校（ロータリー側）,緑町小学校（ロータリー側）,35.6238051,140.0975683,緯度経度は怪しい
千葉県,千葉市,55,稲毛区黒砂2-4-18地先黒砂あおぞら公園,黒砂あおぞら公園,35.6262252,140.0941005,緯度経度は怪しい
千葉県,千葉市,56,稲毛区黒砂3-10地先黒砂浅間緑地,黒砂浅間緑地,35.629523,140.092224,緯度経度は怪しい
千葉県,千葉市,57,稲毛区黒砂3-10地先新港横戸町線001道脇緑地,新港横戸町線001道脇緑地,35.628854,140.092761,緯度経度は怪しい
千葉県,千葉市,58,稲毛区黒砂3-9-13地先黒砂3丁目公園,黒砂3丁目公園,35.6297913,140.092558,緯度経度は怪しい
千葉県,千葉市,59,稲毛区稲丘町19-30稲丘小学校正門脇,稲丘小学校正門脇,35.6327955,140.0876378,緯度経度は怪しい
千葉県,千葉市,60,稲毛区稲丘町19-30稲丘小学校裏門脇,稲丘小学校裏門脇,35.6327955,140.0876378,緯度経度は怪しい
千葉県,千葉市,61,稲毛区稲丘町17丸小山公園,丸小山公園,35.6313432,140.0874265,緯度経度は怪しい
千葉県,千葉市,62,稲毛区稲丘町29-5野呂宅建興向い緑地,野呂宅建興向い緑地,35.6343709,140.0861217,緯度経度は怪しい
千葉県,千葉市,63,稲毛区稲丘町34-15地先穴川台緑地,穴川台緑地,35.633189,140.0845869,緯度経度は怪しい
千葉県,千葉市,64,稲毛区稲毛東2-13稲毛児童公園,稲毛児童公園,35.6362233,140.0876302,緯度経度は怪しい
千葉県,千葉市,65,稲毛区稲毛台町26-1地先稲毛台公園,稲毛台公園,35.6335708,140.0912709,緯度経度は怪しい
千葉県,千葉市,66,稲毛区稲毛東1-1地先稲毛東1丁目公園,稲毛東1丁目公園,35.6330547,140.0910201,緯度経度は怪しい
千葉県,千葉市,67,稲毛区稲毛町5-534-5稲毛小学校,稲毛小学校,35.6403498,140.0826245,緯度経度は怪しい
千葉県,千葉市,68,稲毛区稲毛町5-120稲毛中学校,稲毛中学校,35.6431484,140.0825319,緯度経度は怪しい
千葉県,千葉市,69,稲毛区稲毛2-7川岸公園,川岸公園,35.6385311,140.080355,緯度経度は怪しい
千葉県,千葉市,70,稲毛区稲毛東6-39地先稲毛東6丁目第2公園,稲毛東6丁目第2公園,35.6454649,140.0861836,緯度経度は怪しい
千葉県,千葉市,71,稲毛区稲毛町5-264-5検見川稲毛土地区画整理事務所脇,検見川稲毛土地区画整理事務所脇,35.6453204,140.0772025,緯度経度は怪しい
千葉県,千葉市,72,稲毛区稲毛東6-19-1稲毛いきいきプラザ,稲毛いきいきプラザ,35.6414811,140.0880695,緯度経度は怪しい
千葉県,千葉市,73,稲毛区稲毛東4-5地先ウェリス稲毛管理用地内,ウェリス稲毛管理用地内,35.6411029,140.0886946,緯度経度は怪しい
千葉県,千葉市,74,稲毛区稲毛町5-188地先稲毛広尾公園,稲毛広尾公園,35.6440412,140.0798729,緯度経度は怪しい
千葉県,千葉市,75,稲毛区稲毛東5-8地先稲毛東公園,稲毛東公園,35.6414427,140.0875886,緯度経度は怪しい
千葉県,千葉市,76,稲毛区小中台8-15-1小中台南小学校（体育館側）,小中台南小学校（体育館側）,35.6466094,140.0890922,緯度経度は怪しい
千葉県,千葉市,77,稲毛区小中台8-15-1小中台南小学校（グランド側）,小中台南小学校（グランド側）,35.6466094,140.0890922,緯度経度は怪しい
千葉県,千葉市,78,稲毛区小中台8-22-14地先中谷公園（16棟前）,中谷公園（16棟前）,35.644906,140.091911,緯度経度は怪しい
千葉県,千葉市,79,稲毛区小中台8-5地先中谷公園（7棟前）,中谷公園（7棟前）,35.644906,140.091911,緯度経度は怪しい
千葉県,千葉市,80,稲毛区小中台8-24小塚公園,小塚公園,35.6482099,140.0862363,緯度経度は怪しい
千葉県,千葉市,81,稲毛区小中台7-22-1地先小谷公園,小谷公園,35.6491258,140.091958,緯度経度は怪しい
千葉県,千葉市,82,稲毛区小中台7-18小中台北公園,小中台北公園,35.6426672,140.0913702,緯度経度は怪しい
千葉県,千葉市,83,稲毛区小中台町1512-6地先えごだ東公園向かい,えごだ東公園向かい,35.6495066,140.0864359,緯度経度は怪しい
千葉県,千葉市,84,稲毛区小中台6-34-1小中台小学校（体育館側）,小中台小学校（体育館側）,35.6476414,140.0943317,緯度経度は怪しい
千葉県,千葉市,85,稲毛区小中台6-34-1小中台小学校（校庭側）,小中台小学校（校庭側）,35.6476414,140.0943317,緯度経度は怪しい
千葉県,千葉市,86,稲毛区小中台6-24向原公園,向原公園,35.6491258,140.091958,緯度経度は怪しい
千葉県,千葉市,87,稲毛区小中台3-11小中台公園,小中台公園,35.6491258,140.091958,緯度経度は怪しい
千葉県,千葉市,88,稲毛区小中台6-3-2地先丸よし公園,丸よし公園,35.6491258,140.091958,緯度経度は怪しい
千葉県,千葉市,89,稲毛区小中台5-7-1小中台公民館,小中台公民館,35.6486988,140.0930174,緯度経度は怪しい
千葉県,千葉市,90,稲毛区小中台4-10小園公園（京葉工業高校側）,小園公園（京葉工業高校側）,35.6492773,140.0856838,緯度経度は怪しい
千葉県,千葉市,91,稲毛区小中台4-2小園公園テニスコート,小園公園テニスコート,35.6492773,140.0856838,緯度経度は怪しい
千葉県,千葉市,92,稲毛区小中台1-5地先小中台南公園,小中台南公園,35.6485058,140.0933832,緯度経度は怪しい
千葉県,千葉市,93,稲毛区小中台1-4地先イオン稲毛店,イオン稲毛店,35.6485058,140.0933832,緯度経度は怪しい
千葉県,千葉市,94,稲毛区園生町1223-1地先稲毛パークハウス脇,稲毛パークハウス脇,35.6432054,140.1009125,緯度経度は怪しい
千葉県,千葉市,95,稲毛区小中台1-6地先イオン稲毛店駐車場,イオン稲毛店駐車場,35.6485058,140.0933832,緯度経度は怪しい
千葉県,千葉市,96,稲毛区園生町1128-1地先園生第4公園,園生第4公園,35.6420523,140.1022172,緯度経度は怪しい
千葉県,千葉市,97,稲毛区園生町979-1地先園生南公園,園生南公園,35.640837,140.1081346,緯度経度は怪しい
千葉県,千葉市,98,稲毛区園生町1109-4地先グリーンプラザ園生入口,グリーンプラザ園生入口,35.6407156,140.1035871,緯度経度は怪しい
千葉県,千葉市,99,稲毛区園生町1258地先中園第3公園,中園第3公園,35.6427841,140.1012076,緯度経度は怪しい
千葉県,千葉市,100,稲毛区小中台9-30-1園生小学校（バス停側）,園生小学校（バス停側）,35.6473755,140.0977222,緯度経度は怪しい
千葉県,千葉市,101,稲毛区小中台町596地先いなげの丘公園,いなげの丘公園,35.64824,140.090555,緯度経度は怪しい
千葉県,千葉市,102,稲毛区小中台町488地先小中台西第2公園,小中台西第2公園,35.6505,140.0893975,緯度経度は怪しい
千葉県,千葉市,103,稲毛区小中台9-18-3地先有楽公園,有楽公園,35.6450693,140.0953583,緯度経度は怪しい
千葉県,千葉市,104,稲毛区小中台9-11中丸公園,中丸公園,35.6491258,140.091958,緯度経度は怪しい
千葉県,千葉市,105,稲毛区小中台町613地先小中台町公園,小中台町公園,35.6491258,140.091958,緯度経度は怪しい
千葉県,千葉市,106,稲毛区小中台9-46-1市立千葉高校裏門脇,市立千葉高校裏門脇,35.6446413,140.0984616,緯度経度は怪しい
千葉県,千葉市,107,稲毛区小中台9-46-2小中台中学校,小中台中学校,35.6491258,140.091958,緯度経度は怪しい
千葉県,千葉市,108,稲毛区園生町67-2地先園生三和会館,園生三和会館,35.6485565,140.0983515,緯度経度は怪しい
千葉県,千葉市,109,稲毛区園生町849-3地先ふたまち公園,ふたまち公園,35.6440271,140.10536,緯度経度は怪しい
千葉県,千葉市,110,稲毛区園生町849-3地先G-7園生脇,G-7園生脇,35.644018,140.1035215,緯度経度は怪しい
千葉県,千葉市,111,稲毛区宮野木町1014地先宮野木公園,宮野木公園,35.6508183,140.0993994,緯度経度は怪しい
千葉県,千葉市,112,稲毛区宮野木町835-118地先宮原公園,宮原公園,35.6521812,140.0972943,緯度経度は怪しい
千葉県,千葉市,113,稲毛区宮野木町1022地先万来宅向い土手,万来宅向い土手,35.6511646,140.10079,緯度経度は怪しい
千葉県,千葉市,114,稲毛区園生町229地先園生台公園,園生台公園,35.6503031,140.1034931,緯度経度は怪しい
千葉県,千葉市,115,稲毛区園生町815地先宮原第3公園,宮原第3公園,35.654137,140.0969357,緯度経度は怪しい
千葉県,千葉市,116,稲毛区園生町446-1あやめ台小学校（山林側）,あやめ台小学校（山林側）,35.6468639,140.1152332,緯度経度は怪しい
千葉県,千葉市,117,稲毛区園生町446-1あやめ台小学校（正門脇）,あやめ台小学校（正門脇）,35.6468639,140.1152332,緯度経度は怪しい
千葉県,千葉市,118,稲毛区園生町519地先園生の森公園,園生の森公園,35.6472872,140.1124801,緯度経度は怪しい
千葉県,千葉市,119,稲毛区あやめ台2-30地先あやめ台団地3-1棟前,あやめ台団地3-1棟前,35.6487867,140.1118878,緯度経度は怪しい
千葉県,千葉市,120,稲毛区あやめ台2-34地先あやめ台団地2-34棟前,あやめ台団地2-34棟前,35.65006,140.1118163,緯度経度は怪しい
千葉県,千葉市,121,稲毛区あやめ台2-7地先あやめ台団地2-7棟前公園前,あやめ台団地2-7棟前公園前,35.6504825,140.1157534,緯度経度は怪しい
千葉県,千葉市,122,稲毛区あやめ台1-12地先あやめ台団地バス停前緑地,あやめ台団地バス停前緑地,35.649213,140.1152218,緯度経度は怪しい
千葉県,千葉市,123,稲毛区あやめ台1-17向いあやめ台公園,あやめ台公園,35.6476931,140.1172468,緯度経度は怪しい
千葉県,千葉市,124,稲毛区柏台1-5向いグリーンベルト（5棟前）,グリーンベルト（5棟前）,35.6525883,140.1107921,緯度経度は怪しい
千葉県,千葉市,125,稲毛区柏台1-19向いグリーンベルト（19棟前）,グリーンベルト（19棟前）,35.6519887,140.1092618,緯度経度は怪しい
千葉県,千葉市,126,稲毛区柏台1-1地先柏台第1公園,柏台第1公園,35.6534292,140.1103099,緯度経度は怪しい
千葉県,千葉市,127,稲毛区柏台276地先柏台第3公園,柏台第3公園,35.6519641,140.109306,緯度経度は怪しい
千葉県,千葉市,128,稲毛区柏台1-25地先柏台第2公園（17棟側）,柏台第2公園（17棟側）,35.6518978,140.1102496,緯度経度は怪しい
千葉県,千葉市,129,稲毛区柏台1-25地先柏台第2公園（9棟側）,柏台第2公園（9棟側）,35.6518978,140.1102496,緯度経度は怪しい
千葉県,千葉市,130,稲毛区柏台1-7地先稲毛ファミールハイツ7棟脇,稲毛ファミールハイツ7棟脇,35.6519554,140.1111938,緯度経度は怪しい
千葉県,千葉市,131,稲毛区宮野木町2100宮野木小学校（バス停側）,宮野木小学校（バス停側）,35.6591711,140.1094669,緯度経度は怪しい
千葉県,千葉市,132,稲毛区宮野木町1809地先宮野木北第1公園,宮野木北第1公園,35.6578455,140.1059662,緯度経度は怪しい
千葉県,千葉市,133,稲毛区宮野木町1652向い木野公園,木野公園,35.6562535,140.1082561,緯度経度は怪しい
千葉県,千葉市,134,稲毛区宮野木町2129地先しずかが丘公園,しずかが丘公園,35.6623041,140.1090823,緯度経度は怪しい
千葉県,千葉市,135,稲毛区長沼町263地先長沼第3公園,長沼第3公園,35.663267,140.118946,緯度経度は怪しい
千葉県,千葉市,136,稲毛区長沼町253地先長沼第2公園,長沼第2公園,35.6517293,140.1060136,緯度経度は怪しい
千葉県,千葉市,137,稲毛区長沼町256地先長沼町公園,長沼町公園,35.6566067,140.1133003,緯度経度は怪しい
千葉県,千葉市,138,稲毛区宮野木町2100宮野木小学校（宮の杜カエデ通り側）,宮野木小学校（宮の杜カエデ通り側）,35.6591711,140.1094669,緯度経度は怪しい
千葉県,千葉市,139,稲毛区園生町1397草野中学校,草野中学校,35.6524415,140.1274006,緯度経度は怪しい
千葉県,千葉市,140,稲毛区園生町1385草野小学校,草野小学校,35.653163,140.125462,緯度経度は怪しい
千葉県,千葉市,141,稲毛区長沼町330番地50ワンズモール,ワンズモール,35.6569613,140.1177347,緯度経度は怪しい
千葉県,千葉市,142,稲毛区園生町389地先園生第2公園,園生第2公園,35.654852,140.1204857,緯度経度は怪しい
千葉県,千葉市,143,稲毛区長沼町79地先長沼ふれあい公園,長沼ふれあい公園,35.6636047,140.1208792,緯度経度は怪しい
千葉県,千葉市,144,稲毛区園生町397園生第3公園,園生第3公園,35.6572726,140.1227913,緯度経度は怪しい
千葉県,千葉市,145,稲毛区園生町400草野公園,草野公園,35.656419,140.1245033,緯度経度は怪しい
千葉県,千葉市,146,稲毛区長沼原町704地先長沼原第3公園,長沼原第3公園,35.6617982,140.1274725,緯度経度は怪しい
千葉県,千葉市,147,稲毛区長沼原町942-189地先長沼原第2公園,長沼原第2公園,35.6688906,140.1332398,緯度経度は怪しい
千葉県,千葉市,148,稲毛区長沼原町308地先長沼原勤労市民プラザ運動場,長沼原勤労市民プラザ運動場,35.6675356,140.1308984,緯度経度は怪しい
千葉県,千葉市,149,稲毛区長沼原町242-2長沼原保育所脇,長沼原保育所脇,35.670137,140.1242085,緯度経度は怪しい
千葉県,千葉市,150,稲毛区長沼町461-8長沼コミュニティセンター,長沼コミュニティセンター,35.6635972,140.1260565,緯度経度は怪しい
千葉県,千葉市,151,稲毛区長沼原町74地先長沼原町公園,長沼原町公園,35.6673905,140.1233672,緯度経度は怪しい
千葉県,千葉市,152,稲毛区長沼町25地先長沼原第2公園,長沼原第2公園,35.6688906,140.1332398,緯度経度は怪しい
千葉県,千葉市,153,稲毛区長沼原町942-159長沼原第1公園,長沼原第1公園,35.6680245,140.1338572,緯度経度は怪しい
千葉県,千葉市,154,稲毛区山王町121山王小学校（体育館側）,山王小学校（体育館側）,35.665382,140.14263,緯度経度は怪しい
千葉県,千葉市,155,稲毛区山王町121山王小学校（山王神社側）,山王小学校（山王神社側）,35.665382,140.14263,緯度経度は怪しい
千葉県,千葉市,156,稲毛区山王町80-81地先山和公園,山和公園,35.6676236,140.1454892,緯度経度は怪しい
千葉県,千葉市,157,稲毛区山王町18-31地先山王しののめ公園,山王しののめ公園,35.6656737,140.146269,緯度経度は怪しい
千葉県,千葉市,158,稲毛区山王町380-1地先山王南なかよし公園,山王南なかよし公園,35.6599274,140.1436185,緯度経度は怪しい
千葉県,千葉市,159,稲毛区山王町183地先山王ふれあい公園,山王ふれあい公園,35.6638254,140.1381112,緯度経度は怪しい
千葉県,千葉市,160,稲毛区山王町294-2地先山王まつかぜ公園,山王まつかぜ公園,35.6605719,140.135973,緯度経度は怪しい
千葉県,千葉市,161,稲毛区山王町239-30地先山王原公園,山王原公園,35.6659667,140.1334096,緯度経度は怪しい
千葉県,千葉市,162,稲毛区六方町55-29山王市民センター,山王市民センター,35.657706,140.145255,緯度経度は怪しい
千葉県,千葉市,163,稲毛区小深町275-3地先小深公園,小深公園,35.656171,140.1541985,緯度経度は怪しい
千葉県,千葉市,164,稲毛区小深町43-2八幡神社,八幡神社,35.6590866,140.1524437,緯度経度は怪しい
千葉県,千葉市,165,稲毛区小深町273-2地先小深公園,小深公園,35.656171,140.1541985,緯度経度は怪しい
千葉県,千葉市,166,稲毛区六方町120-6六方町自治会館,六方町自治会館,35.6542236,140.144568,緯度経度は怪しい
千葉県,千葉市,167,稲毛区小深町64-3地先小深ゆかり野公園,小深ゆかり野公園,35.6565634,140.1510725,緯度経度は怪しい
千葉県,千葉市,168,稲毛区小深町582-17地先小深第1公園,小深第1公園,35.668078,140.1503964,緯度経度は怪しい
千葉県,千葉市,169,稲毛区園生町238-56宮野木保育所,宮野木保育所,35.652359,140.1017442,緯度経度は怪しい
千葉県,千葉市,170,稲毛区宮野木町1551宮の谷公園,宮の谷公園,35.6524604,140.1025231,緯度経度は怪しい
千葉県,千葉市,171,稲毛区宮野木町1155-1地先吉原宅脇,吉原宅脇,35.6538491,140.101294,緯度経度は怪しい
千葉県,千葉市,172,稲毛区宮野木町1474甲大神,甲大神,35.6543042,140.1033731,緯度経度は怪しい
千葉県,千葉市,173,稲毛区宮野木町1665-1地先宮の木東公園,宮の木東公園,35.6537092,140.1057238,緯度経度は怪しい
千葉県,千葉市,174,稲毛区宮野木町579地先平和交通前,平和交通前,35.6571612,140.1035228,緯度経度は怪しい
千葉県,千葉市,175,稲毛区宮野木町1286-115定原公園,定原公園,35.6573519,140.1012138,緯度経度は怪しい
千葉県,千葉市,1,中央区中央4-5-1地先きぼーる北側市道,きぼーる北側市道,35.6074121,140.1232042,緯度経度は怪しい
千葉県,千葉市,2,中央区本町3-5地先本町公園北側,本町公園北側,35.6066531,140.1269171,緯度経度は怪しい
千葉県,千葉市,3,中央区本町3-5地先本町公園西側,本町公園西側,35.6066531,140.1269171,緯度経度は怪しい
千葉県,千葉市,4,中央区中央4-10地先吾妻公園,吾妻公園,35.6067354,140.1237907,緯度経度は怪しい
千葉県,千葉市,5,中央区中央1-12地先中央公園,中央公園,35.6101837,140.1208191,緯度経度は怪しい
千葉県,千葉市,6,中央区本町1-6地先本円寺公園,本円寺公園,35.6101469,140.1262174,緯度経度は怪しい
千葉県,千葉市,7,中央区本町2丁目6-23本町小学校正門横,本町小学校正門横,35.6093468,140.1282438,緯度経度は怪しい
千葉県,千葉市,8,中央区市場町1地先羽衣公園,羽衣公園,35.6038328,140.1227571,
千葉県,千葉市,9,中央区市場町11-1地先県立中央図書館,県立中央図書館,35.603288,140.125759,緯度経度は怪しい
千葉県,千葉市,10,中央区長洲2-22地先長洲2丁目公園,長洲2丁目公園,35.5998759,140.1224106,緯度経度は怪しい
千葉県,千葉市,11,中央区港町4-26地先港町交差点歩道,港町交差点歩道,35.6012531,140.1191067,緯度経度は怪しい
千葉県,千葉市,12,中央区長洲1-34君待公園,君待公園,35.6024775,140.1190027,緯度経度は怪しい
千葉県,千葉市,13,中央区港町13厳島公園,厳島公園,35.5998417,140.1187897,緯度経度は怪しい
千葉県,千葉市,14,中央区港町3-5地先都川河川敷,都川河川敷,35.6008189,140.1181067,緯度経度は怪しい
千葉県,千葉市,15,中央区新宿2-15-1新宿小学校正門側,新宿小学校正門側,35.607984,140.114432,緯度経度は怪しい
千葉県,千葉市,16,中央区新宿2-15-1新宿小学校東側,新宿小学校東側,35.607984,140.114432,緯度経度は怪しい
千葉県,千葉市,17,中央区新宿2-15-1新宿小学校南側,新宿小学校南側,35.607984,140.114432,緯度経度は怪しい
千葉県,千葉市,18,中央区新明町27神明公園,神明公園,35.6012667,140.1170107,緯度経度は怪しい
千葉県,千葉市,19,中央区新町23新町公園,新町公園,35.6095109,140.1120122,緯度経度は怪しい
千葉県,千葉市,20,中央区新宿1-7新宿公園,新宿公園,35.6062383,140.1139568,緯度経度は怪しい
千葉県,千葉市,21,中央区新宿2-8上中公園前,上中公園前,35.604975,140.1167092,緯度経度は怪しい
千葉県,千葉市,22,中央区本千葉町1千葉中央駅東口,千葉中央駅東口,35.6080014,140.1188657,緯度経度は怪しい
千葉県,千葉市,23,中央区新町1000そごう千葉店南側,そごう千葉店南側,35.6112575,140.1137071,緯度経度は怪しい
千葉県,千葉市,24,中央区登戸2-11-1登戸小学校京成側,登戸小学校京成側,35.612435,140.10766,緯度経度は怪しい
千葉県,千葉市,25,中央区登戸2-11-1登戸小学校正門側,登戸小学校正門側,35.612435,140.10766,緯度経度は怪しい
千葉県,千葉市,26,中央区新千葉3-9登戸公園,登戸公園,35.6143167,140.1062069,緯度経度は怪しい
千葉県,千葉市,27,中央区新千葉2-7-10地先松波陸橋横,松波陸橋横,35.6149543,140.1095249,緯度経度は怪しい
千葉県,千葉市,28,中央区登戸2-3登戸二丁目公園,登戸二丁目公園,35.6110871,140.1099508,緯度経度は怪しい
千葉県,千葉市,29,中央区登戸1-8登戸一丁目公園,登戸一丁目公園,35.6093741,140.1092257,緯度経度は怪しい
千葉県,千葉市,30,中央区登戸1-20袖ヶ浦公園,袖ヶ浦公園,35.6100477,140.1064458,緯度経度は怪しい
千葉県,千葉市,31,中央区登戸2-11-1登戸小学校体育館側,登戸小学校体育館側,35.612435,140.10766,緯度経度は怪しい
千葉県,千葉市,32,中央区汐見丘町4-8三和会館,三和会館,35.617362,140.103446,緯度経度は怪しい
千葉県,千葉市,33,中央区汐見丘町7高砂公園,高砂公園,35.6161746,140.1051611,緯度経度は怪しい
千葉県,千葉市,34,中央区汐見丘町25鳩尾公園,鳩尾公園,35.6169372,140.107427,緯度経度は怪しい
千葉県,千葉市,35,中央区春日2-24JR西千葉駅前グリーンベルト,JR西千葉駅前グリーンベルト,35.6224622,140.1026461,緯度経度は怪しい
千葉県,千葉市,36,中央区登戸5-1西登戸公園,西登戸公園,35.619821,140.100954,緯度経度は怪しい
千葉県,千葉市,37,中央区春日1-20春日公園,春日公園,35.6210665,140.1043101,緯度経度は怪しい
千葉県,千葉市,38,中央区登戸5-19登戸五丁目公園,登戸五丁目公園,35.6205538,140.0972582,緯度経度は怪しい
千葉県,千葉市,39,中央区春日2-14-10千葉保護観察所,千葉保護観察所,35.6221894,140.1013399,緯度経度は怪しい
千葉県,千葉市,40,中央区松波2-22-35松波公園,松波公園,35.6215116,140.1093663,緯度経度は怪しい
千葉県,千葉市,41,中央区弁天1-7-8地先松波陸橋横,松波陸橋横,35.616,140.110362,緯度経度は怪しい
千葉県,千葉市,42,中央区松波4-23千葉東高校バス停向いグリーンベルト,千葉東高校バス停向いグリーンベルト,35.6241327,140.1113946,緯度経度は怪しい
千葉県,千葉市,43,中央区松波2-22-48県立千葉商業高等学校,県立千葉商業高等学校,35.6211222,140.1079629,緯度経度は怪しい
千葉県,千葉市,44,中央区松波2-22-11地先メゾン西千葉前,メゾン西千葉前,35.6221848,140.1075188,緯度経度は怪しい
千葉県,千葉市,45,中央区松波2-12-3地先京葉銀行横土手,京葉銀行横土手,35.6198293,140.1071172,緯度経度は怪しい
千葉県,千葉市,46,中央区松波2-6-1地先西千葉駅前緑地,西千葉駅前緑地,35.622295,140.1041037,緯度経度は怪しい
千葉県,千葉市,47,中央区弁天1-21-2弁天小学校,弁天小学校,35.6160968,140.1129197,緯度経度は怪しい
千葉県,千葉市,48,中央区弁天2-14-1地先弁天公園,弁天公園,35.6162654,140.1156469,緯度経度は怪しい
千葉県,千葉市,49,中央区弁天3-1-1地先千葉公園入口脇,千葉公園入口脇,35.6213909,140.1137628,緯度経度は怪しい
千葉県,千葉市,50,中央区弁天3-1千葉公園トンネル跡遺構前,千葉公園トンネル跡遺構前,35.6194727,140.1176964,緯度経度は怪しい
千葉県,千葉市,51,中央区弁天4-14-9地先モノレール千葉公園駅脇グリーンベルト,モノレール千葉公園駅脇グリーンベルト,35.6206372,140.1174046,緯度経度は怪しい
千葉県,千葉市,52,中央区弁天4-1地先千葉公園第3駐車場,千葉公園第3駐車場,35.6222436,140.1137028,緯度経度は怪しい
千葉県,千葉市,53,中央区弁天3-16-1地先千葉公園護国神社入口,千葉公園護国神社入口,35.62018,140.1123485,緯度経度は怪しい
千葉県,千葉市,54,中央区椿森4-1-1椿森中学校病院側,椿森中学校病院側,35.616141,140.1194654,緯度経度は怪しい
千葉県,千葉市,55,中央区椿森4-1-1椿森中学校裏門側,椿森中学校裏門側,35.616141,140.1194654,緯度経度は怪しい
千葉県,千葉市,56,中央区椿森4-1-1椿森中学校正門側,椿森中学校正門側,35.622586,140.1211617,緯度経度は怪しい
千葉県,千葉市,58,中央区椿森3-12-14地先椿森3丁目公園,椿森3丁目公園,35.6228043,140.1189061,緯度経度は怪しい
千葉県,千葉市,59,中央区椿森1-9-5椿森東集会所,椿森東集会所,35.6174069,140.1225212,緯度経度は怪しい
千葉県,千葉市,60,中央区椿森2-12椿森公園,椿森公園,35.6193564,140.1216304,緯度経度は怪しい
千葉県,千葉市,61,中央区東千葉1-4山部公園,山部公園,35.6228157,140.1251336,緯度経度は怪しい
千葉県,千葉市,62,中央区東千葉1-10東千葉わくわく公園,東千葉わくわく公園,35.6238831,140.127119,緯度経度は怪しい
千葉県,千葉市,63,中央区東千葉2-1高品西第3公園,高品西第3公園,35.6208883,140.1274247,緯度経度は怪しい
千葉県,千葉市,64,中央区東千葉2-9山部第3公園,山部第3公園,35.6220926,140.1271252,緯度経度は怪しい
千葉県,千葉市,65,中央区東千葉2-6-5地先高品西第2公園,高品西第2公園,35.622459,140.1296691,緯度経度は怪しい
千葉県,千葉市,66,中央区東千葉2-24山部第4公園,山部第4公園,35.6251057,140.126114,緯度経度は怪しい
千葉県,千葉市,67,中央区東千葉3-8山部第5公園,山部第5公園,35.6272499,140.1254189,緯度経度は怪しい
千葉県,千葉市,68,中央区祐光1-25-3院内小学校,院内小学校,35.6152756,140.1258087,緯度経度は怪しい
千葉県,千葉市,69,中央区祐光1-15祐光公園,祐光公園,35.6157784,140.125602,緯度経度は怪しい
千葉県,千葉市,70,中央区院内2-18院内公園,院内公園,35.6113297,140.1249092,緯度経度は怪しい
千葉県,千葉市,71,中央区中央1-4通町公園南側,通町公園南側,35.611254,140.1234927,緯度経度は怪しい
千葉県,千葉市,72,中央区中央1-4通町公園北側,通町公園北側,35.611254,140.1234927,緯度経度は怪しい
千葉県,千葉市,73,中央区祐光1-4高作公園,高作公園,35.6173439,140.1265269,緯度経度は怪しい
千葉県,千葉市,74,中央区祐光4-5城の下公園,城の下公園,35.6190787,140.1295109,緯度経度は怪しい
千葉県,千葉市,75,中央区栄町3-8栄町立体駐車場前,栄町立体駐車場前,35.6144492,140.1206015,緯度経度は怪しい
千葉県,千葉市,76,中央区道場北2-16道場北2丁目公園,道場北2丁目公園,35.6156151,140.1315606,緯度経度は怪しい
千葉県,千葉市,77,中央区院内2-8道場公園,道場公園,35.613084,140.1263527,緯度経度は怪しい
千葉県,千葉市,78,中央区要町4-7地先要町水路フェンス,要町水路フェンス,35.6159596,140.1224389,緯度経度は怪しい
千葉県,千葉市,79,中央区道場北2-5中溝公園,中溝公園,35.6167891,140.1303095,緯度経度は怪しい
千葉県,千葉市,80,中央区栄町34地先栄町駅南側歩道,栄町駅南側歩道,35.6130005,140.1186178,緯度経度は怪しい
千葉県,千葉市,81,中央区栄町28栄町公園南側,栄町公園南側,35.6126018,140.1220509,緯度経度は怪しい
千葉県,千葉市,82,中央区鶴沢町21-1鶴沢小学校国道側,鶴沢小学校国道側,35.6101212,140.1342576,緯度経度は怪しい
千葉県,千葉市,83,中央区鶴沢町21-1鶴沢小学校体育館側,鶴沢小学校体育館側,35.6101212,140.1342576,緯度経度は怪しい
千葉県,千葉市,84,中央区旭町11旭町公園西側,旭町公園西側,35.6075611,140.1345537,緯度経度は怪しい
千葉県,千葉市,85,中央区旭町11旭町公園東側,旭町公園東側,35.6075611,140.1345537,緯度経度は怪しい
千葉県,千葉市,86,中央区道場南2-13道南公園,道南公園,35.6125129,140.1328669,緯度経度は怪しい
千葉県,千葉市,87,中央区道場南1-7道場南チビッコ広場,道場南チビッコ広場,35.6123322,140.1287421,緯度経度は怪しい
千葉県,千葉市,88,中央区鶴沢町17鶴沢公園,鶴沢公園,35.6103114,140.1355244,緯度経度は怪しい
千葉県,千葉市,89,中央区都町1129都小学校,都小学校,35.612498,140.1448582,緯度経度は怪しい
千葉県,千葉市,90,中央区都町1117-62地先松原公園,松原公園,35.6117056,140.1463329,緯度経度は怪しい
千葉県,千葉市,91,中央区都町1223-3地先都町東公園,都町東公園,35.6124704,140.1481056,緯度経度は怪しい
千葉県,千葉市,92,中央区都町1264-2地先都北第1公園,都北第1公園,35.6156911,140.1498213,緯度経度は怪しい
千葉県,千葉市,93,中央区都町1022-4地先都北第3公園,都北第3公園,35.6161368,140.1459377,緯度経度は怪しい
千葉県,千葉市,94,中央区矢作町343-7地先矢作第1公園,矢作第1公園,35.6063616,140.1456406,緯度経度は怪しい
千葉県,千葉市,95,中央区矢作町399-5地先矢作第3公園,矢作第3公園,35.6059532,140.1457021,緯度経度は怪しい
千葉県,千葉市,96,中央区矢作町516-4地先内谷津公園,内谷津公園,35.6042533,140.1432116,緯度経度は怪しい
千葉県,千葉市,97,中央区星久喜町1060星久喜小学校,星久喜小学校,35.596811,140.146554,緯度経度は怪しい
千葉県,千葉市,98,中央区矢作町540-72地先ねだ公園,ねだ公園,35.6027867,140.1424807,緯度経度は怪しい
千葉県,千葉市,99,中央区星久喜町823星久喜中学校,星久喜中学校,35.6007369,140.1521721,緯度経度は怪しい
千葉県,千葉市,100,中央区矢作町997-1地先県職員住宅前市道,県職員住宅前市道,35.6014416,140.1422165,緯度経度は怪しい
千葉県,千葉市,101,中央区星久喜町738-18地先星久喜子供の遊び場,星久喜子供の遊び場,35.5956932,140.1513675,緯度経度は怪しい
千葉県,千葉市,102,中央区星久喜町344地先千手院脇の畑地,千手院脇の畑地,35.5983685,140.155225,緯度経度は怪しい
千葉県,千葉市,103,中央区青葉町654青葉の森公園(植込内),青葉の森公園(植込内),35.5958949,140.1408558,緯度経度は怪しい
千葉県,千葉市,104,中央区星久喜町1063-6星久喜保育所,星久喜保育所,35.5981326,140.1468625,緯度経度は怪しい
千葉県,千葉市,105,中央区葛城2-9-2葛城公民館,葛城公民館,35.5996385,140.1308905,緯度経度は怪しい
千葉県,千葉市,106,中央区葛城1-5-2県立千葉高等学校,県立千葉高等学校,35.6003384,140.1295693,緯度経度は怪しい
千葉県,千葉市,107,中央区青葉町359-4地先市立青葉病院バス停脇,市立青葉病院バス停脇,35.602197,140.1378488,緯度経度は怪しい
千葉県,千葉市,108,中央区玄鼻1-6玄鼻公園,玄鼻公園,35.593735,140.1349278,緯度経度は怪しい
千葉県,千葉市,109,中央区玄鼻2-10-17千葉県庁玄鼻第二別館,千葉県庁玄鼻第二別館,35.593735,140.1349278,緯度経度は怪しい
千葉県,千葉市,110,中央区青葉町1269地先千葉寺ほおじろ公園,千葉寺ほおじろ公園,35.5979506,140.1358942,緯度経度は怪しい
千葉県,千葉市,111,中央区玄鼻1-8-15地先千葉大学医学部,千葉大学医学部,35.6039033,140.13426,緯度経度は怪しい
千葉県,千葉市,112,中央区末広2-10-1末広中学校,末広中学校,35.596774,140.1266262,緯度経度は怪しい
千葉県,千葉市,113,中央区末広2-15末広公園グラウンド,末広公園グラウンド,35.5951416,140.1249826,緯度経度は怪しい
千葉県,千葉市,114,中央区末広3-15堀合公園,堀合公園,35.5928372,140.1265539,緯度経度は怪しい
千葉県,千葉市,115,中央区末広3-19ゲートボール場(海側),ゲートボール場(海側),35.5932497,140.1287482,緯度経度は怪しい
千葉県,千葉市,116,中央区末広3-29平柳公園,平柳公園,35.5914731,140.1299142,緯度経度は怪しい
千葉県,千葉市,117,中央区末広4-4末広4丁目公園,末広4丁目公園,35.5918916,140.1271371,緯度経度は怪しい
千葉県,千葉市,118,中央区千葉寺町414地先千葉寺町公園,千葉寺町公園,35.5928319,140.1309032,緯度経度は怪しい
千葉県,千葉市,119,中央区末広3-23末広保管場,末広保管場,35.592292,140.1288907,緯度経度は怪しい
千葉県,千葉市,120,中央区寒川1-205寒川小学校南側,寒川小学校南側,35.596941,140.121229,緯度経度は怪しい
千葉県,千葉市,121,中央区寒川1-205寒川小学校東門,寒川小学校東門,35.596941,140.121229,緯度経度は怪しい
千葉県,千葉市,122,中央区寒川町3-245-1地先不寝見川公園,不寝見川公園,35.592417,140.1245384,緯度経度は怪しい
千葉県,千葉市,123,中央区寒川町3-138-2地先寒川三丁目公園,寒川三丁目公園,35.5928142,140.1222243,緯度経度は怪しい
千葉県,千葉市,124,中央区稲荷町2-21稲荷町高架下公園,稲荷町高架下公園,35.5896075,140.1255621,緯度経度は怪しい
千葉県,千葉市,125,中央区稲荷町3-15稲荷町第二公園,稲荷町第二公園,35.5857556,140.1277034,緯度経度は怪しい
千葉県,千葉市,126,中央区稲荷町3-5-2地先市道西千葉駅稲荷町線,市道西千葉駅稲荷町線,35.6130371,140.134764,緯度経度は怪しい
千葉県,千葉市,127,中央区川崎町52-7アリオ蘇我イトーヨーカドー脇,アリオ蘇我イトーヨーカドー脇,35.5877456,140.1224811,緯度経度は怪しい
千葉県,千葉市,128,中央区蘇我2-3-18蘇我保育所,蘇我保育所,35.5724973,140.1311103,緯度経度は怪しい
千葉県,千葉市,129,中央区蘇我1-21蘇我公園(西側),蘇我公園(西側),35.5747314,140.131903,緯度経度は怪しい
千葉県,千葉市,130,中央区蘇我2-17そが野ハッピー公園,そが野ハッピー公園,35.571435,140.1328981,緯度経度は怪しい
千葉県,千葉市,131,中央区若草1-23-1まごころフーズ京葉,まごころフーズ京葉,35.5744733,140.1368638,緯度経度は怪しい
千葉県,千葉市,132,中央区若草1-5南田公園,南田公園,35.5751831,140.1347614,緯度経度は怪しい
千葉県,千葉市,133,中央区蘇我5-29そが野ふれあい公園,そが野ふれあい公園,35.5706442,140.1348247,緯度経度は怪しい
千葉県,千葉市,134,中央区蘇我3-25地先千葉県生実学校前市道,千葉県生実学校前市道,35.5671461,140.1310785,緯度経度は怪しい
千葉県,千葉市,135,中央区生実町963地先東京電力蘇我変電所前植込,東京電力蘇我変電所前植込,35.5673335,140.1405432,緯度経度は怪しい
千葉県,千葉市,136,中央区今井3-15-32蘇我小学校正門,蘇我小学校正門,35.5783905,140.1304658,緯度経度は怪しい
千葉県,千葉市,137,中央区今井3-15-32蘇我小学校南側,蘇我小学校南側,35.5783905,140.1304658,緯度経度は怪しい
千葉県,千葉市,138,中央区今井3-8-9地先今井第二公園,今井第二公園,35.5781061,140.1321464,緯度経度は怪しい
千葉県,千葉市,139,中央区今井1-14-43蘇我コミュニティセンター(東側),蘇我コミュニティセンター(東側),35.5835687,140.1291687,緯度経度は怪しい
千葉県,千葉市,140,中央区今井1-14-43蘇我コミュニティセンター(西側),蘇我コミュニティセンター(西側),35.5835687,140.1291687,緯度経度は怪しい
千葉県,千葉市,141,中央区今井2-6-16地先今井街園,今井街園,35.5790928,140.1317488,緯度経度は怪しい
千葉県,千葉市,142,中央区今井1-8-20地先門前公園,門前公園,35.5835164,140.1272261,緯度経度は怪しい
千葉県,千葉市,143,中央区白旗1-5-3蘇我中学校,蘇我中学校,35.5766329,140.1376862,緯度経度は怪しい
千葉県,千葉市,144,中央区白旗1-3-16地先小塚台公園,小塚台公園,35.5794489,140.1384876,緯度経度は怪しい
千葉県,千葉市,145,中央区白旗1-2-9地先白旗南公園,白旗南公園,35.5797386,140.1377395,緯度経度は怪しい
千葉県,千葉市,146,中央区白旗3-10地先白旗公園,白旗公園,35.5787354,140.1403235,緯度経度は怪しい
千葉県,千葉市,147,中央区南町3-4-16地先南町三丁目公園,南町三丁目公園,35.5798315,140.1361893,緯度経度は怪しい
千葉県,千葉市,148,中央区南町3-19南町公園,南町公園,35.5767717,140.1366509,緯度経度は怪しい
千葉県,千葉市,149,中央区鵜の森町19-9地先グリーンベルト(番場宅前),グリーンベルト(番場宅前),35.5759906,140.1413548,緯度経度は怪しい
千葉県,千葉市,150,中央区今井町1351-1地先グリーンベルト,グリーンベルト,35.5750094,140.1414618,緯度経度は怪しい
千葉県,千葉市,151,中央区宮崎2-3-13宮崎小学校正門,宮崎小学校正門,35.5837497,140.1364678,緯度経度は怪しい
千葉県,千葉市,152,中央区宮崎2-3-13宮崎小学校宮崎2丁目バス停前,宮崎小学校宮崎2丁目バス停前,35.5837497,140.1364678,緯度経度は怪しい
千葉県,千葉市,153,中央区宮崎2-4萩池公園,萩池公園,35.583235,140.1354982,緯度経度は怪しい
千葉県,千葉市,154,中央区宮崎1-15みやざき倶楽部,みやざき倶楽部,35.5870765,140.1358962,緯度経度は怪しい
千葉県,千葉市,155,中央区宮崎1-20宮崎公園,宮崎公園,35.5848784,140.1362836,緯度経度は怪しい
千葉県,千葉市,156,中央区南町2-8蘇我駅第5自転車駐車場,蘇我駅第5自転車駐車場,35.5822524,140.1312093,緯度経度は怪しい
千葉県,千葉市,157,中央区白旗1-2-11地先市営住宅白旗団地,市営住宅白旗団地,35.5788832,140.1379041,緯度経度は怪しい
千葉県,千葉市,158,中央区千葉寺町868-1地先千葉寺第二県営住宅,千葉寺第二県営住宅,35.5894751,140.1351737,緯度経度は怪しい
千葉県,千葉市,159,中央区南町1-124内谷公園,内谷公園,35.5850549,140.1324445,緯度経度は怪しい
千葉県,千葉市,160,中央区大森町268大森小学校正門,大森小学校正門,35.5807284,140.1447486,緯度経度は怪しい
千葉県,千葉市,161,中央区大森町268大森小学校西門,大森小学校西門,35.5807284,140.1447486,緯度経度は怪しい
千葉県,千葉市,162,中央区大森町260-109地先魚地宅前グリーンベルト,魚地宅前グリーンベルト,35.5786363,140.1425101,緯度経度は怪しい
千葉県,千葉市,163,中央区大森町312-55地先向台第二公園,向台第二公園,35.5804936,140.1470758,緯度経度は怪しい
千葉県,千葉市,164,中央区大森町282-57地先向台公園,向台公園,35.581547,140.1471816,緯度経度は怪しい
千葉県,千葉市,165,中央区宮崎町531-12地先大森橋バス停前,大森橋バス停前,35.5827387,140.1478144,緯度経度は怪しい
千葉県,千葉市,166,中央区大森町282-10地先セブンイレブン前グリーンベルト,セブンイレブン前グリーンベルト,35.5816307,140.1462788,緯度経度は怪しい
千葉県,千葉市,167,中央区大森町260-129地先グリーンベルト,グリーンベルト,35.5793355,140.1432752,緯度経度は怪しい
千葉県,千葉市,168,中央区松ヶ丘町440松ヶ丘中学校,松ヶ丘中学校,35.5880037,140.1528317,緯度経度は怪しい
千葉県,千葉市,169,中央区松ヶ丘町436-1地先松ヶ丘遊園地,松ヶ丘遊園地,35.5866431,140.1525651,緯度経度は怪しい
千葉県,千葉市,170,中央区松ヶ丘町373地先前藤公園,前藤公園,35.5864648,140.1494763,緯度経度は怪しい
千葉県,千葉市,171,中央区松ヶ丘町267地先松ヶ丘公園,松ヶ丘公園,35.5877168,140.151256,緯度経度は怪しい
千葉県,千葉市,172,中央区松ヶ丘町293-1地先元宮公園,元宮公園,35.5891499,140.1511519,緯度経度は怪しい
千葉県,千葉市,173,中央区松ヶ丘町308地先松ヶ丘緑地,松ヶ丘緑地,35.5877918,140.1498704,緯度経度は怪しい
千葉県,千葉市,174,中央区松ヶ丘町13-8地先松ヶ丘市民の森,松ヶ丘市民の森,35.5902352,140.1426111,緯度経度は怪しい
千葉県,千葉市,175,中央区松ヶ丘町257-1千葉市中央いきいきプラザ,千葉市中央いきいきプラザ,35.5878358,140.1516128,緯度経度は怪しい
千葉県,千葉市,176,中央区松ヶ丘町580松ヶ丘小学校正門側,松ヶ丘小学校正門側,35.5865486,140.1552696,緯度経度は怪しい
千葉県,千葉市,177,中央区松ヶ丘町580松ヶ丘小学校グラウンド側,松ヶ丘小学校グラウンド側,35.5865486,140.1552696,緯度経度は怪しい
千葉県,千葉市,178,中央区仁戸名町654-3地先仁戸名市民の森,仁戸名市民の森,35.5829325,140.1562967,緯度経度は怪しい
千葉県,千葉市,179,中央区仁戸名町492-5地先鎌池公園,鎌池公園,35.5862839,140.1589608,緯度経度は怪しい
千葉県,千葉市,180,中央区仁戸名町483-2地先仁戸名公園,仁戸名公園,35.586678,140.160124,緯度経度は怪しい
千葉県,千葉市,181,中央区仁戸名町673地先千葉東病院バス停横,千葉東病院バス停横,35.5828252,140.1596767,緯度経度は怪しい
千葉県,千葉市,182,中央区仁戸名町666-2千葉県がんセンター,千葉県がんセンター,35.5815628,140.1612516,緯度経度は怪しい
千葉県,千葉市,183,中央区仁戸名町380仁戸名小学校,仁戸名小学校,35.587329,140.1600938,緯度経度は怪しい
千葉県,千葉市,184,中央区仁戸名町375-83地先中田池公園,中田池公園,35.591478,140.156757,緯度経度は怪しい
千葉県,千葉市,185,中央区仁戸名町380仁戸名小学校裏(鈴木宅前),仁戸名小学校裏(鈴木宅前),35.587329,140.1600938,緯度経度は怪しい
千葉県,千葉市,186,中央区仁戸名町341-3向い花澤宅向い側貝地,花澤宅向い側貝地,35.5934208,140.1554382,緯度経度は怪しい
千葉県,千葉市,187,中央区仁戸名町78ミニストップ向い側貝地,ミニストップ向い側貝地,35.5955636,140.1596371,緯度経度は怪しい
千葉県,千葉市,188,中央区仁戸名町134-12地先仁戸名すぎな公園,仁戸名すぎな公園,35.5937835,140.1620212,緯度経度は怪しい
千葉県,千葉市,189,中央区仁戸名町480-199地先仁戸名第三公園,仁戸名第三公園,35.586379,140.1634626,緯度経度は怪しい
千葉県,千葉市,190,中央区川戸町450川戸小学校,川戸小学校,35.584743,140.168294,緯度経度は怪しい
千葉県,千葉市,191,中央区川戸町328-33地先川戸第四公園,川戸第四公園,35.5827645,140.1691257,緯度経度は怪しい
千葉県,千葉市,192,中央区川戸町403-1川戸公民館,川戸公民館,35.5819738,140.1668874,緯度経度は怪しい
千葉県,千葉市,193,中央区川戸町346-25地先川戸第三公園,川戸第三公園,35.5814873,140.168145,緯度経度は怪しい
千葉県,千葉市,194,中央区川戸町412地先川戸の森,川戸の森,35.5821496,140.1658699,緯度経度は怪しい
千葉県,千葉市,195,中央区仁戸名町720地先小滝電気商会前鉄塔下,小滝電気商会前鉄塔下,35.587329,140.1600938,緯度経度は怪しい
千葉県,千葉市,196,中央区仁戸名町720-34地先マミーマート第二駐車場前,マミーマート第二駐車場前,35.5767843,140.1680029,緯度経度は怪しい
千葉県,千葉市,197,中央区大巌寺町375大巌寺小学校正門左側,大巌寺小学校正門左側,35.5730415,140.1488126,緯度経度は怪しい
千葉県,千葉市,198,中央区大巌寺町375大巌寺小学校東側法部分,大巌寺小学校東側法部分,35.5731641,140.1490414,緯度経度は怪しい
千葉県,千葉市,199,中央区大巌寺町298-5地先大巌寺町公園,大巌寺町公園,35.5761224,140.1425655,緯度経度は怪しい
千葉県,千葉市,200,中央区大森町139-3地先大森町たんぽぽ公園,大森町たんぽぽ公園,35.576387,140.1513631,緯度経度は怪しい
千葉県,千葉市,201,中央区花輪町38-125地先花輪第2公園,花輪第2公園,35.5770782,140.1604518,緯度経度は怪しい
千葉県,千葉市,202,中央区赤井町163-1赤井稲荷神社南空き地,赤井稲荷神社南空き地,35.572452,140.1527597,緯度経度は怪しい
千葉県,千葉市,203,中央区花輪町166-1地先花輪東公園,花輪東公園,35.5753487,140.1557955,緯度経度は怪しい
千葉県,千葉市,204,中央区生実町1928生浜東小学校,生浜東小学校,35.559853,140.147915,緯度経度は怪しい
千葉県,千葉市,205,中央区南生実町1210埋蔵文化財調査センター植込み,埋蔵文化財調査センター植込み,35.5580723,140.1511693,緯度経度は怪しい
千葉県,千葉市,206,中央区浜野町1335生浜小学校東側,生浜小学校東側,35.5594659,140.1405148,緯度経度は怪しい
千葉県,千葉市,207,中央区浜野町1335生浜小学校正門横,生浜小学校正門横,35.5594659,140.1405148,緯度経度は怪しい
千葉県,千葉市,208,中央区生実町774-1地先京葉道路入口グリーンベルト,京葉道路入口グリーンベルト,35.5643885,140.1418873,緯度経度は怪しい
千葉県,千葉市,209,中央区生実町1133向い柏崎バス停前,柏崎バス停前,35.5665879,140.1420357,緯度経度は怪しい
千葉県,千葉市,210,中央区生実町1145本城公園,本城公園,35.5666021,140.1458844,緯度経度は怪しい
千葉県,千葉市,211,中央区生実町1952-1生實町公園,生實町公園,35.5614574,140.148017,緯度経度は怪しい
千葉県,千葉市,212,中央区塩田町316-1生浜西小学校正門,生浜西小学校正門,35.558958,140.131286,緯度経度は怪しい
千葉県,千葉市,213,中央区塩田町316-1生浜西小学校裏口,生浜西小学校裏口,35.558958,140.131286,緯度経度は怪しい
千葉県,千葉市,214,中央区浜野町1216-62地先浜野公園,浜野公園,35.5578418,140.1267295,緯度経度は怪しい
千葉県,千葉市,215,中央区塩田町294地先塩田町緑地,塩田町緑地,35.5591772,140.1331897,緯度経度は怪しい
千葉県,千葉市,216,中央区浜野町445地先諏訪公園,諏訪公園,35.5567056,140.1327593,緯度経度は怪しい
千葉県,千葉市,217,中央区浜野町1252地先本行寺公園池前,本行寺公園池前,35.5576015,140.1297477,緯度経度は怪しい
千葉県,千葉市,218,中央区浜野町533-17地先浜野東公園,浜野東公園,35.5529862,140.1373974,緯度経度は怪しい
千葉県,千葉市,219,中央区塩田町365地先塩田町公園,塩田町公園,35.5607069,140.1314974,緯度経度は怪しい
千葉県,千葉市,220,中央区浜野町417-9地先小浜公園,小浜公園,35.5553191,140.134952,緯度経度は怪しい
千葉県,千葉市,221,中央区村田町305-1村田町公会堂,村田町公会堂,35.5467304,140.1307672,緯度経度は怪しい
千葉県,千葉市,222,中央区村田町548向い村田川公園,村田川公園,35.5485324,140.1271613,緯度経度は怪しい
千葉県,千葉市,223,中央区村田町115地先旧神明神社,旧神明神社,35.5467899,140.1331841,緯度経度は怪しい
千葉県,千葉市,224,中央区村田町77-16地先村田南公園,村田南公園,35.5442013,140.1348746,緯度経度は怪しい
千葉県,千葉市,225,中央区村田町12-20のぎわ会館協公園,のぎわ会館協公園,35.5468881,140.1375347,緯度経度は怪しい
千葉県,千葉市,226,中央区村田町306-3のぎわ公園,のぎわ公園,35.5475308,140.1361604,緯度経度は怪しい
千葉県,千葉市,227,中央区村田町893-31地先村田南第二公園,村田南第二公園,35.5500088,140.1280802,緯度経度は怪しい
千葉県,千葉市,228,中央区都町1-7県職員能力開発センター前,県職員能力開発センター前,35.6135784,140.1353375,緯度経度は怪しい
千葉県,千葉市,229,中央区都町2-30学校下公園,学校下公園,35.6117341,140.1431688,緯度経度は怪しい
千葉県,千葉市,230,中央区都町3-13大田切公園,大田切公園,35.6086582,140.139691,緯度経度は怪しい
千葉県,千葉市,231,中央区都町2-14都公園,都公園,35.6114982,140.1389248,緯度経度は怪しい
千葉県,千葉市,232,中央区都町1-14西の下公園,西の下公園,35.6132941,140.1386803,緯度経度は怪しい
千葉県,千葉市,233,中央区都町1-5宝導寺台公園,宝導寺台公園,35.6143347,140.1374085,緯度経度は怪しい
千葉県,千葉市,234,中央区都町1-44山の根公園,山の根公園,35.6158589,140.1413625,緯度経度は怪しい
千葉県,千葉市,235,中央区問屋町1-73新宿中学校北側,新宿中学校北側,35.604723,140.109718,緯度経度は怪しい
千葉県,千葉市,236,中央区千葉港5-25地先みなと第二公園,みなと第二公園,35.6056499,140.1098413,緯度経度は怪しい
千葉県,千葉市,237,中央区千葉港8-5地先千葉みなと駅東口,千葉みなと駅東口,35.6086507,140.1025971,緯度経度は怪しい
千葉県,千葉市,238,中央区中央港2-5-2地先東芝前グリーンベルト,東芝前グリーンベルト,35.5979517,140.111762,緯度経度は怪しい
千葉県,千葉市,239,中央区中央港2-29地先市役所中央署バス停横,市役所中央署バス停横,35.6051459,140.1048626,緯度経度は怪しい
千葉県,千葉市,240,中央区千葉港6みなと公園入口,みなと公園入口,35.6066061,140.1049082,緯度経度は怪しい
千葉県,千葉市,241,中央区千葉港1-1地先千葉市役所前,千葉市役所前,35.607194,140.1063566,緯度経度は怪しい
千葉県,千葉市,242,中央区中央港1-23-1地先千葉みなと駅西口,千葉みなと駅西口,35.6066797,140.1022671,緯度経度は怪しい
