prefecture,city,number,address,name,lat,long,note
千葉県,君津市,1-1,三直1305,君津市,35.3228882,139.9369202,
千葉県,君津市,1-2,三直1264-99,君津市,35.3215585,139.9375241,
千葉県,君津市,1-3,三直1269-12,君津市,35.3206438,139.9370284,
千葉県,君津市,1-4,三直622,君津市,35.3177385,139.9345257,
千葉県,君津市,1-5,三直387-7,君津市,35.3134902,139.9353469,緯度経度は怪しい
千葉県,君津市,1-6,八重原172,君津市,35.3283394,139.9339767,緯度経度は怪しい
千葉県,君津市,1-7,八重原172-1,君津市,35.3290106,139.9324919,緯度経度は怪しい
千葉県,君津市,2-1,外箕輪1-14,君津市,35.315688,139.9207527,
千葉県,君津市,2-2,外箕輪3-2,君津市,35.3223198,139.9221941,
千葉県,君津市,2-3,外箕輪2-21,君津市,35.3196371,139.9237957,
千葉県,君津市,2-4,外箕輪4-31-45,君津市,35.3180207,139.9277517,
千葉県,君津市,2-5,外箕輪4-4,君津市,35.3175143,139.9257176,
千葉県,君津市,2-6,外箕輪4-24,君津市,35.3143794,139.9236355,
千葉県,君津市,2-7,外箕輪1-27,君津市,35.3132695,139.9201121,
千葉県,君津市,3-1,南子安9-17-2,君津市,35.327864,139.9299593,
千葉県,君津市,3-2,内箕輪1-1,君津市,35.3249079,139.927079,
千葉県,君津市,3-3,内箕輪61-1,君津市,35.3226328,139.9319041,緯度経度は怪しい
千葉県,君津市,3-4,法木作1-13,君津市,35.3191891,139.9281202,
千葉県,君津市,3-5,内箕輪1-1-1,君津市,35.32546019999999,139.9299818,緯度経度は怪しい
千葉県,君津市,3-6,内箕輪1-1,君津市,35.3249079,139.927079,
千葉県,君津市,3-7,南子安8-11-1,君津市,35.3314624,139.9252371,
千葉県,君津市,4-1,南子安5-10-1,君津市,35.3250004,139.9163135,
千葉県,君津市,4-2,南子安3-20-1,君津市,35.3269017,139.9156456,
千葉県,君津市,4-3,南子安2-14-1,君津市,35.3284347,139.9197548,
千葉県,君津市,4-4,南子安6-19-1,君津市,35.3282059,139.9233252,
千葉県,君津市,4-5,南子安5-8,君津市,35.3253409,139.9176299,
千葉県,君津市,4-6,南子安6-22-28,君津市,35.323854,139.9229912,
千葉県,君津市,4-7,南子安4-33-15,君津市,35.3211055,139.9204524,
千葉県,君津市,5-1,杢師１丁目１０−１,君津市,35.3267752,139.9108992,
千葉県,君津市,5-2,杢師2-13,君津市,35.322706,139.9122653,
千葉県,君津市,5-3,杢師3-1-20,君津市,35.3214001,139.9138348,
千葉県,君津市,5-4,杢師4-25,君津市,35.3206156,139.9189911,
千葉県,君津市,5-5,杢師4-9,君津市,35.3171115,139.9170694,
千葉県,君津市,5-6,杢師3-22,君津市,35.3191362,139.9156281,
千葉県,君津市,5-7,杢師2-6,君津市,35.3230335,139.9101837,
千葉県,君津市,6-1,北子安2-25-33,君津市,35.3315372,139.9137943,
千葉県,君津市,6-2,北子安4-14-53,君津市,35.33303,139.9142715,
千葉県,君津市,6-3,北子安4-16-1,君津市,35.3345128,139.9140267,
千葉県,君津市,6-4,北子安5-13-8,君津市,35.3342708,139.9196511,
千葉県,君津市,6-5,北子安5-3-1,君津市,35.3317812,139.9185907,
千葉県,君津市,6-6,北子安1-16-4,君津市,35.3303443,139.9124854,
千葉県,君津市,6-7,北子安2-2-18,君津市,35.3308868,139.9078364,
千葉県,君津市,7-1,久保2-13-1,君津市,35.3305474,139.9022383,
千葉県,君津市,7-2,久保2-13-1,君津市,35.3305474,139.9022383,
千葉県,君津市,7-3,高坂3-11,君津市,35.3333933,139.9006974,
千葉県,君津市,7-4,陽光台2-9-1,君津市,35.3335012,139.9045796,
千葉県,君津市,7-5,陽光台3-10-8,君津市,35.3361022,139.907734,
千葉県,君津市,7-6,久保3-1-1,君津市,35.3309254,139.9039916,
千葉県,君津市,7-7,南久保3-12,君津市,35.3246932,139.9000167,
千葉県,君津市,7-8,台2-2,君津市,35.3271623,139.8996965,
千葉県,君津市,8-1,中野3-14-1,君津市,35.3299957,139.8887053,
千葉県,君津市,8-2,中野5-12,君津市,35.3352821,139.8852897,
千葉県,君津市,8-3,中野4-17,君津市,35.3334414,139.8900916,
千葉県,君津市,8-4,中野1-12-2,君津市,35.3326456,139.8962546,
千葉県,君津市,8-5,中野2-30-1,君津市,35.3275484,139.8976053,
千葉県,君津市,8-6,中野2-22,君津市,35.3277395,139.8942553,
千葉県,君津市,8-7,中野3-10-8,君津市,35.3305575,139.8919524,
千葉県,君津市,9-1,君津台2-18-9,君津市,35.3384272,139.8968226,
千葉県,君津市,9-2,君津台2-12,君津市,35.3388512,139.8948138,
千葉県,君津市,9-3,君津台2-26,君津市,35.3418759,139.8956604,
千葉県,君津市,9-4,君津台3-5-4,君津市,35.3423644,139.8964647,
千葉県,君津市,9-5,君津台1-10,君津市,35.3381851,139.8978554,
千葉県,君津市,10-1,坂田426,君津市,35.3392476,139.890641,
千葉県,君津市,10-2,坂田396-4,君津市,35.3419599,139.8916387,
千葉県,君津市,10-3,東坂田2-1,君津市,35.3345418,139.8944936,
千葉県,君津市,10-4,坂田4-7,君津市,35.3427849,139.8892912,緯度経度は怪しい
千葉県,君津市,10-5,坂田2-11-1,君津市,35.3427849,139.8892912,緯度経度は怪しい
千葉県,君津市,10-6,坂田518,君津市,35.3435333,139.8843042,緯度経度は怪しい
千葉県,君津市,10-7,坂田313-1,君津市,35.3460157,139.8902369,緯度経度は怪しい
千葉県,君津市,11-1,人見4-11-21,君津市,35.3303271,139.8743482,
千葉県,君津市,11-2,人見3-7,君津市,35.332204,139.8719264,
千葉県,君津市,11-3,人見5-9,君津市,35.3304295,139.8690284,
千葉県,君津市,11-4,人見3-18,君津市,35.3333992,139.8684061,
千葉県,君津市,11-5,人見1-5-47,君津市,35.3357553,139.8708761,
千葉県,君津市,11-6,大和田3-9,君津市,35.3372368,139.8796879,緯度経度は怪しい
千葉県,君津市,11-7,人見2-13-1,君津市,35.3351562,139.8760871,
千葉県,君津市,11-8,中富1051,君津市,35.3256157,139.8867302,緯度経度は怪しい
千葉県,君津市,11-9,人見4-5,君津市,35.3317423,139.8765672,
千葉県,君津市,12-1,大和田324,君津市,35.3399508,139.8771879,緯度経度は怪しい
千葉県,君津市,12-2,大和田454-3,君津市,35.3403978,139.8767546,
千葉県,君津市,12-3,人見971,君津市,35.3379299,139.8721424,緯度経度は怪しい
千葉県,君津市,12-4,人見941,君津市,35.3381691,139.8709643,
千葉県,君津市,12-5,大和田324,君津市,35.3399508,139.8771879,緯度経度は怪しい
千葉県,君津市,12-6,大和田324,君津市,35.3399508,139.8771879,緯度経度は怪しい
千葉県,君津市,12-7,大和田324,君津市,35.3399508,139.8771879,緯度経度は怪しい
千葉県,君津市,13-1,沼津市人見1294-14,君津市,35.3410431,139.8661983,緯度経度は怪しい
千葉県,君津市,13-2,沼津市人見925-1,君津市,35.3394061,139.8669592,緯度経度は怪しい
千葉県,君津市,13-3,沼津市人見1358,君津市,35.3393506,139.8641486,緯度経度は怪しい
千葉県,君津市,13-4,沼津市人見1462-41,君津市,35.3446153,139.8595314,緯度経度は怪しい
千葉県,君津市,13-5,沼津市西香貫111-1,君津市,35.3304451,139.9024787,
千葉県,君津市,13-6,沼津市人見1055-47,君津市,35.3448064,139.8627667,緯度経度は怪しい
千葉県,君津市,13-7,沼津市人見1148,君津市,35.3434995,139.8655553,緯度経度は怪しい
千葉県,君津市,14-1,沼津市大山町25,君津市,35.3304451,139.9024787,
千葉県,君津市,14-2,沼津市大山町330,君津市,35.3304451,139.9024787,
千葉県,君津市,14-3,沼津市大山町653,君津市,35.3304451,139.9024787,
千葉県,君津市,14-4,沼津市宮下1-4-1,君津市,35.3000951,139.9278899,緯度経度は怪しい
千葉県,君津市,14-5,沼津市常代3-13-4,君津市,35.3068639,139.9233357,緯度経度は怪しい
千葉県,君津市,14-6,沼津市常代1-22-1,君津市,35.3098089,139.9175003,緯度経度は怪しい
千葉県,君津市,14-7,沼津市常代2-4-1,君津市,35.3103495,139.9207527,緯度経度は怪しい
千葉県,君津市,14-8,沼津市六手256-3,君津市,35.3073257,139.9433012,緯度経度は怪しい
千葉県,君津市,14-9,沼津市六手303,君津市,35.3028335,139.9424309,緯度経度は怪しい
千葉県,君津市,14-10,沼津市常代4-9,君津市,35.3034539,139.9255575,緯度経度は怪しい
千葉県,君津市,15-1,沼津市尾車181-2,君津市,35.2887296,139.9425173,緯度経度は怪しい
千葉県,君津市,15-2,沼津市草牛159,君津市,35.2799304,139.9530806,緯度経度は怪しい
千葉県,君津市,15-3,沼津市尾車668-7,君津市,35.2806288,139.9428477,緯度経度は怪しい
千葉県,君津市,15-4,沼津市尾車380-6,君津市,35.2850109,139.9443797,緯度経度は怪しい
千葉県,君津市,15-5,沼津市馬登145,君津市,35.3116419,140.0526334,緯度経度は怪しい
千葉県,君津市,15-6,沼津市皿引86,君津市,35.2914359,139.9368871,緯度経度は怪しい
千葉県,君津市,15-7,沼津市尾車48,君津市,35.2957427,139.9405286,緯度経度は怪しい
千葉県,君津市,16-1,沼津市貞元391,君津市,35.3170888,139.9068,緯度経度は怪しい
千葉県,君津市,16-2,沼津市杉谷39-3,君津市,35.3107407,139.9139869,緯度経度は怪しい
千葉県,君津市,16-3,沼津市郡1-9,君津市,35.3085232,139.9157882,緯度経度は怪しい
千葉県,君津市,16-4,沼津市群364-1,君津市,35.3304451,139.9024787,
千葉県,君津市,16-5,沼津市貞元964-3,君津市,35.3173183,139.9026049,緯度経度は怪しい
千葉県,君津市,16-6,沼津市上湯江1777,君津市,35.3108516,139.893133,緯度経度は怪しい
千葉県,君津市,16-7,沼津市下湯江2107,君津市,35.3235799,139.8816085,緯度経度は怪しい
千葉県,君津市,16-8,沼津市中冨417,君津市,35.3250411,139.8855168,緯度経度は怪しい
千葉県,君津市,16-9,沼津市貞元176-3,君津市,35.3215691,139.9064353,緯度経度は怪しい
千葉県,君津市,17-1,中島678,君津市,35.3044452,139.9585501,緯度経度は怪しい
千葉県,君津市,17-2,中島1012,君津市,35.3007889,139.9591013,緯度経度は怪しい
千葉県,君津市,17-3,白駒37,君津市,35.2964184,139.9507846,緯度経度は怪しい
千葉県,君津市,17-4,泉559,君津市,35.3001327,139.9486893,
千葉県,君津市,17-5,泉51-4,君津市,35.3021674,139.9527083,緯度経度は怪しい
千葉県,君津市,17-6,泉37-1,君津市,35.3037285,139.9536197,緯度経度は怪しい
千葉県,君津市,17-7,中島186-1,君津市,35.3064328,139.9509884,緯度経度は怪しい
千葉県,君津市,17-8,上416-1,君津市,35.3092159,139.9559163,
千葉県,君津市,17-9,上154-1,君津市,35.3069743,139.959018,緯度経度は怪しい
千葉県,君津市,18-1,糸川636,君津市,35.287523,139.9886684,緯度経度は怪しい
千葉県,君津市,18-2,糸川838,君津市,35.2862823,140.0059337,緯度経度は怪しい
千葉県,君津市,18-3,大野台520,君津市,35.2707666,139.997009,緯度経度は怪しい
千葉県,君津市,18-4,畑460-3,君津市,35.3304451,139.9024787,
千葉県,君津市,18-5,萩作169-4,君津市,35.3823582,140.1302901,緯度経度は怪しい
千葉県,君津市,18-6,畑165,君津市,35.3304451,139.9024787,
千葉県,君津市,18-7,畑473,君津市,35.3304451,139.9024787,
千葉県,君津市,18-8,大井戸602,君津市,35.2947014,139.9864709,緯度経度は怪しい
千葉県,君津市,18-9,大井戸1061,君津市,35.2905938,139.9873584,緯度経度は怪しい
千葉県,君津市,19-1,糠田55,君津市,35.3052754,139.9696433,緯度経度は怪しい
千葉県,君津市,19-2,根本83,君津市,35.3075407,139.9773685,緯度経度は怪しい
千葉県,君津市,19-3,根本444-2,君津市,35.3049603,139.991822,緯度経度は怪しい
千葉県,君津市,19-4,長石49-3,君津市,35.3089172,139.9982159,緯度経度は怪しい
千葉県,君津市,19-5,長石537-1,君津市,35.3168539,140.0036769,緯度経度は怪しい
千葉県,君津市,19-6,法木130,君津市,35.3013,139.9993709,緯度経度は怪しい
千葉県,君津市,19-7,糠田703-1,君津市,35.3000014,139.9746288,緯度経度は怪しい
千葉県,君津市,19-8,大鷲94,君津市,35.3133904,139.9607308,緯度経度は怪しい
千葉県,君津市,19-9,大井342-2,君津市,35.3130036,139.9713018,
千葉県,君津市,20-1,栗倉笹36,君津市,35.1956938,140.0752571,緯度経度は怪しい
千葉県,君津市,20-2,栗倉298-22,君津市,35.298924,139.9097247,緯度経度は怪しい
千葉県,君津市,20-3,日笠278,君津市,35.23129470000001,140.00465,緯度経度は怪しい
千葉県,君津市,20-4,植畑597-1,君津市,35.2379365,139.991822,
千葉県,君津市,20-5,平田77-2,君津市,35.2465419,139.9925867,緯度経度は怪しい
千葉県,君津市,20-6,清和市場554-2,君津市,35.2586618,139.9939516,緯度経度は怪しい
千葉県,君津市,20-7,市宿376-1,君津市,35.2664053,139.9915132,緯度経度は怪しい
千葉県,君津市,20-8,渡根139-2,君津市,35.3304451,139.9024787,
千葉県,君津市,20-9,猪原166-1,君津市,35.128862,140.035011,緯度経度は怪しい
千葉県,君津市,21-1,正木186-2,君津市,35.2178244,140.0272879,緯度経度は怪しい
千葉県,君津市,21-2,奥米109,君津市,35.2068525,140.0368767,緯度経度は怪しい
千葉県,君津市,21-3,豊英355-1,君津市,35.1787144,140.0067052,緯度経度は怪しい
千葉県,君津市,21-4,豊英266,君津市,35.1945312,140.0161787,緯度経度は怪しい
千葉県,君津市,21-5,怒田沢33,君津市,35.2131068,140.0185969,緯度経度は怪しい
千葉県,君津市,21-6,宿原642-2,君津市,35.213778,140.0251421,緯度経度は怪しい
千葉県,君津市,21-7,大岩286,君津市,35.2230895,140.0199545,
千葉県,君津市,21-8,二入439,君津市,35.2289528,140.014223,緯度経度は怪しい
千葉県,君津市,21-9,東日笠485-2,君津市,35.231626,140.0046206,緯度経度は怪しい
千葉県,君津市,22-1,鹿野山324-5,君津市,35.2536752,139.962866,緯度経度は怪しい
千葉県,君津市,22-2,鹿野山191,君津市,35.2540999,139.9661521,緯度経度は怪しい
千葉県,君津市,22-3,鹿野山113-1,君津市,35.2528451,139.9623265,
千葉県,君津市,22-4,鹿野山477-1,君津市,35.2550258,139.9752619,緯度経度は怪しい
千葉県,君津市,22-5,鹿野山369,君津市,35.2544531,139.9594395,緯度経度は怪しい
千葉県,君津市,23-1,末吉128,君津市,35.3280041,140.0590376,緯度経度は怪しい
千葉県,君津市,23-2,末吉891-1,君津市,35.3275891,140.0615105,
千葉県,君津市,23-3,長谷川755,君津市,35.3248901,140.0767795,緯度経度は怪しい
千葉県,君津市,23-4,箕輪927-3,君津市,35.3094073,140.0660455,緯度経度は怪しい
千葉県,君津市,23-5,俵田284,君津市,35.3141865,140.0595482,緯度経度は怪しい
千葉県,君津市,23-6,戸崎22,君津市,35.3149277,140.0461681,緯度経度は怪しい
千葉県,君津市,23-7,戸崎694,君津市,35.3224106,140.0413677,緯度経度は怪しい
千葉県,君津市,23-8,西原606-1,君津市,35.3368693,140.0446976,緯度経度は怪しい
千葉県,君津市,23-9,山本1680-1,君津市,35.3486618,140.0578185,緯度経度は怪しい
千葉県,君津市,24-1,久留里市場198,君津市,35.2958308,140.0757536,緯度経度は怪しい
千葉県,君津市,24-2,久留里市場350-4,君津市,35.2981557,140.0741992,緯度経度は怪しい
千葉県,君津市,24-3,久留里市場118,君津市,35.2942141,140.0782348,緯度経度は怪しい
千葉県,君津市,24-4,久留里市場726,君津市,35.2969181,140.0792512,緯度経度は怪しい
千葉県,君津市,24-5,久留里大谷94,君津市,35.3098297,140.0923796,緯度経度は怪しい
千葉県,君津市,24-6,川谷555,君津市,35.2970584,140.1058397,緯度経度は怪しい
千葉県,君津市,24-7,浦田135-1,君津市,35.2848797,140.0803351,緯度経度は怪しい
千葉県,君津市,24-8,向郷146-1,君津市,35.2874324,140.0585609,緯度経度は怪しい
千葉県,君津市,24-9,向郷982,君津市,35.2906169,140.0652032,緯度経度は怪しい
千葉県,君津市,25-1,広岡1840-2,君津市,35.2598708,140.0571468,緯度経度は怪しい
千葉県,君津市,25-2,広岡1000,君津市,35.252975,140.0597379,緯度経度は怪しい
千葉県,君津市,25-3,柳城21-1,君津市,35.2450939,140.091958,緯度経度は怪しい
千葉県,君津市,25-4,大中35-2,君津市,35.2356887,140.0739726,
千葉県,君津市,25-5,大坂86-1,君津市,35.2570124,140.0494975,緯度経度は怪しい
千葉県,君津市,25-6,大坂802,君津市,35.2546944,140.0437524,緯度経度は怪しい
千葉県,君津市,25-7,山滝野1190,君津市,35.2805232,140.0327437,緯度経度は怪しい
千葉県,君津市,25-8,山滝野238-1,君津市,35.2701552,140.0549292,緯度経度は怪しい
千葉県,君津市,25-9,平山753,君津市,35.2733805,140.0646471,緯度経度は怪しい
千葉県,君津市,26-1,坂畑321-1,君津市,35.2329111,140.0967362,緯度経度は怪しい
千葉県,君津市,26-2,折木沢409,君津市,35.2293428,140.1072565,緯度経度は怪しい
千葉県,君津市,26-3,黄和田畑379-1,君津市,35.2197193,140.1344736,緯度経度は怪しい
千葉県,君津市,26-4,笹1766-3,君津市,35.1984902,140.0695975,緯度経度は怪しい
千葉県,君津市,26-5,香木原256-2,君津市,35.170375,140.0521405,
千葉県,君津市,26-6,笹636-1,君津市,35.2267782,140.0746432,緯度経度は怪しい
千葉県,君津市,26-7,豊旧菅間田39-1,君津市,35.3304451,139.9024787,緯度経度は怪しい
千葉県,君津市,26-8,川原864,君津市,35.3304451,139.9024787,緯度経度は怪しい
千葉県,君津市,26-9,藤林98,君津市,35.2330718,140.0898586,
