prefecture,city,number,address,name,lat,long,note
千葉県,四街道市,1-1,亀崎1番地,亀崎熊野神社前駐車場,35.6985909,140.1969057,
千葉県,四街道市,1-2,もねの里二丁目20番30号,千石公民館駐車場,35.6871339,140.1909729,
千葉県,四街道市,1-3,もねの里二丁目9番6号,まちあわせ公園,35.6886155,140.1859796,
千葉県,四街道市,1-4,もねの里四丁目1番9号,物井せどくらし公園,35.6877352,140.1932251,
千葉県,四街道市,1-5,物井1536番地9号,南小学校前,35.6921222,140.1899272,
千葉県,四街道市,1-6,長岡298番地,長岡地区掲示板付近,35.6816944,140.1903294,
千葉県,四街道市,1-7,物井787番地2号,物井消防分団詰所横,35.6869915,140.1953306,
千葉県,四街道市,1-8,もねの里五丁目24番,物井駅付近,35.6847558,140.1991777,
千葉県,四街道市,1-9,もねの里六丁目10番,もねの里モール前,35.6849904,140.1906511,
千葉県,四街道市,2-1,鹿渡463番地,鹿渡太明神前,35.666563,140.176818,緯度経度は怪しい
千葉県,四街道市,2-2,みのり町7番地2,みのり町公園,35.6652561,140.1723521,
千葉県,四街道市,2-3,鹿渡809番地2,すみれ合入口付近,35.6668828,140.1707392,緯度経度は怪しい
千葉県,四街道市,2-4,鹿渡1098番地5,鹿渡太明神社前,35.6631014,140.1720435,
千葉県,四街道市,2-5,鹿渡無番地,四街道中央公園,35.666563,140.176818,緯度経度は怪しい
千葉県,四街道市,2-6,鹿渡934番地24,市営北口第一自転車駐車場前,35.6644943,140.1664154,
千葉県,四街道市,2-7,鹿渡1014番地2,四街道駅南口広場,35.6623267,140.1661664,
千葉県,四街道市,3-1,大日340番地7,緑ヶ丘公園,35.674401,140.1590723,
千葉県,四街道市,3-2,大日313-44,緑ヶ丘第5幼児公園,35.67153589999999,140.1598474,
千葉県,四街道市,3-3,中央3番,都市広場駐マンション裏西出入口前,35.6684899,140.1667899,
千葉県,四街道市,3-4,鹿渡番番地,市役所前,35.666563,140.176818,緯度経度は怪しい
千葉県,四街道市,3-5,中央2番1,大土手山向い,35.6694077,140.166447,
千葉県,四街道市,3-6,大日423番地1,m2プラザ立体駐車場横,35.67205200000001,140.1635508,
千葉県,四街道市,3-7,大日357番地11,大日郵便局付近,35.6752749,140.1618824,
千葉県,四街道市,3-8,大日481番地51,緑ヶ丘第11幼児公園,35.6774133,140.1661182,
千葉県,四街道市,4-1,四街道一丁目2番,四街道駅北口広場,35.6630944,140.1647568,
千葉県,四街道市,4-2,鹿渡2001番地10,市役所第二庁舎前,35.6647463,140.165048,緯度経度は怪しい
千葉県,四街道市,4-3,四街道一丁目7番16号,四街道1丁目児童公園,35.6639926,140.1641136,
千葉県,四街道市,4-4,四街道1532番地14,新生公園,35.6673736,140.1592295,
千葉県,四街道市,4-5,四街道1532番地17,四街道公民館前,35.6652703,140.1602098,緯度経度は怪しい
千葉県,四街道市,4-6,四街道1522番地10,津之守児童遊園,35.6653087,140.1619951,緯度経度は怪しい
千葉県,四街道市,4-7,四街道1474番地,四街道第2幼児公園,35.6677705,140.1619414,
千葉県,四街道市,5-1,さつきケ丘12番1号,さつきケ丘自治会館前,35.6636573,140.1518518,
千葉県,四街道市,5-2,下志津野田2531番号,さつき幼稚園前,35.6697744,140.167948,緯度経度は怪しい
千葉県,四街道市,5-3,四街道1557番地2,四街道小学校前,35.6615743,140.1580424,
千葉県,四街道市,5-4,下志津新田2537番地74,下志津新田2幼児公園,35.6593711,140.1525573,
千葉県,四街道市,5-5,四街道二丁目1577番地354号,美しが丘近隣公園北側,35.659125,140.1594506,
千葉県,四街道市,5-6,四街道二丁目1518番地1,大和町入口バス停先,35.659125,140.1594506,
千葉県,四街道市,5-7,和良比253番地4,市営南口第二自転車駐車場前,35.6619496,140.1654411,
千葉県,四街道市,5-8,下志津新田2522番地46,下志津新田第六幼児公園,35.6633534,140.1561458,
千葉県,四街道市,6-1,和良比274番地1,DCM西消防ｽテｰション前,35.6605791,140.1736235,
千葉県,四街道市,6-2,和良比227番地20,和良比小学校前,35.6598081,140.1694184,
千葉県,四街道市,6-3,和良比192番地23,和良比ヶ丘公園,35.6575303,140.1692144,
千葉県,四街道市,6-4,めいわ五丁目4番地,細木第2幼児公園,35.6508461,140.1736818,
千葉県,四街道市,6-5,めいわ一丁目13番,かるがも児童公園,35.6578543,140.1746468,
千葉県,四街道市,6-6,めいわ二丁目12番,わらび近隣公園脇,35.653179,140.1724757,
千葉県,四街道市,6-7,めいわ一丁目3番,四街道中学校入口,35.6559798,140.1726365,
千葉県,四街道市,6-8,めいわ一丁目12,めいわ一丁目12,35.6573121,140.1740035,
千葉県,四街道市,7-1,山梨681番地2,三峰神社付近,35.6750778,140.1988365,緯度経度は怪しい
千葉県,四街道市,7-2,山梨802番地,山梨802番地,35.6727425,140.195226,
千葉県,四街道市,7-3,1485番地,旭小学校前,35.6697744,140.167948,
千葉県,四街道市,7-4,和田182番地1,四街道総合公園入口,35.6539594,140.1885297,緯度経度は怪しい
千葉県,四街道市,7-5,中台536番地,成古中自治会館前,35.6651994,140.2025566,緯度経度は怪しい
千葉県,四街道市,7-6,みそら三丁目13番,みそら小学校前,35.6728882,140.2036024,
千葉県,四街道市,7-7,みそら三丁目9番,みそら第8号公園,35.6732215,140.2020739,
千葉県,四街道市,7-8,みそら一丁目37番19号,みそら中央公園,35.6674434,140.1969253,
千葉県,四街道市,8-1,吉岡475番地1,旧消防資料館前,35.6469747,140.1919118,緯度経度は怪しい
千葉県,四街道市,8-2,吉岡452番地,軽戸入口,35.6469747,140.1919118,緯度経度は怪しい
千葉県,四街道市,8-3,鷹の台三丁目2番,吉岡小学校正門前,35.6350382,140.1943543,
千葉県,四街道市,8-4,鷹の台三丁目2番,吉岡小学校グラウンド入口,35.6350382,140.1943543,
千葉県,四街道市,8-5,蔵の台三丁目13番,鷹の台西公園,35.6697744,140.167948,
千葉県,四街道市,8-6,蔵の台三丁目13番4号,鷹の台南公園,35.6287435,140.188474,緯度経度は怪しい
千葉県,四街道市,8-7,蔵の台三丁目36番1号,鷹の台公園,35.6322174,140.1955594,緯度経度は怪しい
千葉県,四街道市,9-1,千代田第三丁目28番,千代田第15児童公園,35.6943186,140.1858252,緯度経度は怪しい
千葉県,四街道市,9-2,千代田五丁目66番,千代田第12児童公園,35.6943991,140.1856644,
千葉県,四街道市,9-3,千代田五丁目27番,千代田中学校前,35.6924972,140.1848601,
千葉県,四街道市,9-4,千代田五丁目12番,千代田第2児童公園,35.6896973,140.1846993,
千葉県,四街道市,9-5,千代田五丁目28番,千代田近隣公園,35.6918533,140.186147,
千葉県,四街道市,9-6,千代田五丁目68番,千代田駅,35.692334,140.1886403,
千葉県,四街道市,9-7,千代田三丁目39番,千代田調整池付近,35.6951951,140.1883507,
千葉県,四街道市,10-1,大日1849番地1,今宿会館前,35.692471,140.1588638,
千葉県,四街道市,10-2,大日1109番地,大作岡公民館前,35.6872162,140.1430967,緯度経度は怪しい
千葉県,四街道市,10-3,蔵敷ヶ丘284番地12,蔵敷ふれあいセンター前,35.6697744,140.167948,
千葉県,四街道市,10-4,蔵敷ヶ丘517番地,蔵敷ヶ丘五差路,35.6697744,140.167948,
千葉県,四街道市,10-5,大日978番地,大日小学校前,35.677958,140.1615526,緯度経度は怪しい
千葉県,四街道市,10-6,大日735番地,蒼稜台児童公園,35.6834793,140.1607912,
千葉県,四街道市,10-7,大日848番地6,鈴木運送前,35.677958,140.1615526,緯度経度は怪しい
千葉県,四街道市,10-8,大日2085番地1,高士見ヶ丘会館前,35.6972872,140.1538279,
千葉県,四街道市,10-9,大日468番地1,千葉寧学牧前,35.6777745,140.1630822,
千葉県,四街道市,11-1,旭ヶ丘四丁目1番,グリーンタウン第2児童公園,35.6662942,140.1859861,
千葉県,四街道市,11-2,旭ヶ丘四丁目4番,グリーンタウン中央公園,35.6668132,140.1863882,
千葉県,四街道市,11-3,旭ヶ丘四丁目9番,山田小学校前,35.6672067,140.1884794,
千葉県,四街道市,11-4,小名木759番地2,masked,35.6547655,140.1819648,緯度経度は怪しい
千葉県,四街道市,11-5,小名木95番地4,旭ヶ丘入口,35.6547655,140.1819648,緯度経度は怪しい
千葉県,四街道市,11-6,旭ヶ丘二丁目15番,グリーンタウン第3児童公園,35.6604448,140.185584,
千葉県,四街道市,11-7,旭ヶ丘五丁目14番,グリーンタウン第1児童公園,35.6643887,140.1873957,緯度経度は怪しい
千葉県,四街道市,12-1,花池児童公園一丁目17番,池花児童公園,35.6697744,140.167948,
千葉県,四街道市,12-2,池花二丁目6番,内黒田自治会館前,35.6893348,140.174486,
千葉県,四街道市,12-3,千代田二丁目7番,千代田第4幼児公園,35.6928253,140.1793109,
千葉県,四街道市,12-4,千代田一丁目37番,千代田第2幼児公園,35.6908663,140.1789088,
千葉県,四街道市,12-5,千代田一丁目12番,千代田第1幼児公園,35.6889158,140.1810802,
千葉県,四街道市,12-6,千代田一丁目31番,千代田第4幼児公園,35.6908982,140.1817236,
千葉県,四街道市,12-7,千代田五丁目4番,八木原小学校協力,35.6923108,140.1829299,
千葉県,四街道市,13-1,栗山152番地1,栗山小裏門付近,35.6780864,140.176818,
千葉県,四街道市,13-2,栗山307番地10,くりやま囲碁跡地,35.6778871,140.1751325,
千葉県,四街道市,13-3,さちが丘一丁目16番,さちが丘第1幼児公園,35.6692767,140.1765767,
千葉県,四街道市,13-4,さちが丘一丁目17番,さちが丘こども広場,35.6692937,140.1762551,
千葉県,四街道市,13-5,つくし座一丁目19番,つくし丘第2幼児公園,35.6722167,140.1781851,
千葉県,四街道市,13-6,つくし座一丁目7番,つくし丘第1児童公園,35.6702278,140.1769788,
千葉県,四街道市,13-7,栗山424番地,栗山雷電神社前,35.6792363,140.1832617,緯度経度は怪しい
千葉県,四街道市,14-1,栗山1000番地1,細野中央公園,35.6782262,140.1697604,緯度経度は怪しい
千葉県,四街道市,14-2,栗山1074番地,栗山半台児童遊園,35.6733768,140.1719825,
千葉県,四街道市,14-3,栗山1082番地26,尾出建設跡地,35.6763382,140.173486,
千葉県,四街道市,14-4,栗山1055番地,四街道北中学校前,35.6744879,140.1678925,
千葉県,四街道市,14-5,栗山1055番地,四街道北中学校グラウンド側,35.6744879,140.1678925,
千葉県,四街道市,14-6,内黒田968番地13,栗山新町第1幼児公園,35.6734113,140.1659427,緯度経度は怪しい
千葉県,四街道市,14-7,栗山1055番地,四街道北高等学校グラウンド裏,35.6744879,140.1678925,
千葉県,四街道市,15-1,大日156番地2,滝口文具店前,35.67362809999999,140.1558331,
千葉県,四街道市,15-2,大日80番地1,桜ヶ丘会館前,35.6699963,140.1551008,
千葉県,四街道市,15-3,大日62番地3,桜ヶ丘第2幼児公園,35.669357,140.1568805,
千葉県,四街道市,15-4,大日185番地39,桜ヶ丘第5幼児公園,35.675022,140.153586,
千葉県,四街道市,15-5,大日86番地3,さくらがおか幼稚園付近,35.6696399,140.152904,
千葉県,四街道市,15-6,大日23番地,四街道西中学校グラウンド側,35.6667433,140.1540143,
千葉県,四街道市,15-7,大日23番地,四街道西中学校前,35.6667433,140.1540143,
千葉県,四街道市,15-8,大日248番地1,キョー千葉精地,35.6765485,140.1560151,
千葉県,四街道市,16-1,美しが丘一丁目18番,せんどう美しが丘店前,35.6569853,140.1631488,
千葉県,四街道市,16-2,美しが丘二丁目1番,美しが丘近隣公園,35.6580658,140.1604153,
千葉県,四街道市,16-3,美しが丘一丁目133番,ヴェルデ西街道前,35.6577012,140.164596,
千葉県,四街道市,16-4,めいわ三丁目25番,ひばり児童公園,35.648834,140.1592898,
千葉県,四街道市,16-5,和良比880番地,masked,35.6548071,140.1652219,
千葉県,四街道市,16-6,美しが丘二丁目11番,美しが丘第2児童公園,35.6556234,140.1609781,
千葉県,四街道市,16-7,美しが丘三丁目12番,和良比小学校前,35.6542867,140.1610585,
千葉県,四街道市,16-8,めいわ四丁目17番,かっこう児童公園,35.6482337,140.1645156,
