prefecture,city,number,address,name,lat,long,note
千葉県,大網白里市,1-1,みずほ台一丁目21番地,そよ風公園（4号公園）,35.515968,140.306458,
千葉県,大網白里市,1-2,みずほ台二丁目3番地1,せせらぎ公園（3号公園）,35.514463,140.303926,
千葉県,大網白里市,1-3,みずほ台二丁目20番地1,みずほ台センター公園,35.511462,140.303349,
千葉県,大網白里市,1-4,永田1040番地2付近,瑞穂小学校,35.509382,140.305889,
千葉県,大網白里市,1-5,みずほ台二丁目10番地1,こもれび公園（2号公園）,35.513452,140.299647,
千葉県,大網白里市,1-6,小中822番地付近,片岡飯金付近,35.506245,140.297046,
千葉県,大網白里市,1-7,ながた野一丁目8番地付近,永田駅前ロータリー,35.502768,140.310842,
千葉県,大網白里市,1-8,ながた野二丁目24番地,ながた野3号公園,35.505759,140.314141,
千葉県,大網白里市,1-9,永田2499番地付近,中原青年館,35.502701,140.320924,
千葉県,大網白里市,2-1,池田128番地付近,大網白里スマートインターチェンジ入口付近,35.521012,140.301493,
千葉県,大網白里市,2-2,南玉288番地付近,南玉十字路先,35.524512,140.300309,
千葉県,大網白里市,2-3,大竹266番地1付近,大網駅前交番脇,35.522310,140.311986,
千葉県,大網白里市,2-4,金谷郷232番地1付近,大竹橋交差点脇,35.528431,140.312524,
千葉県,大網白里市,2-5,金谷郷562番地付近,金谷ライスセンター前,35.533453,140.306602,
千葉県,大網白里市,2-6,金谷郷1356番地2付近,農村ふれあいセンター,35.533046,140.300198,
千葉県,大網白里市,2-7,金谷郷2032番地付近,金谷5区公民館,35.533971,140.292591,
千葉県,大網白里市,2-8,餅木188番地付近,餅木公民館脇,35.541410,140.306067,
千葉県,大網白里市,3-1,みどりが丘二丁目40番地25付近,小西地区入口,35.545395,140.314410,
千葉県,大網白里市,3-2,小西470番地付近,masked,35.547174,140.314135,
千葉県,大網白里市,3-3,小西423番地付近,masked,35.548696,140.314977,
千葉県,大網白里市,3-4,養安寺276番地1付近,たんぼ自動車付近,35.548660,140.320863,
千葉県,大網白里市,3-5,養安寺420番地付近,養安寺公民館脇,35.550466,140.321618,
千葉県,大網白里市,3-6,みどりが丘二丁目4番地,ふじだな広場（２号公園）,35.541174,140.313738,
千葉県,大網白里市,3-7,みどりが丘三丁目16番地2付近,みどりが丘自治会館北側,35.543220,140.315378,
千葉県,大網白里市,4-1,大綱427番地8,大綱地区農村公園,35.528286,140.320003,
千葉県,大網白里市,4-2,大綱2907番地5付近,前島池横,35.533414,140.320323,
千葉県,大網白里市,4-3,大綱646番地付近,masked,35.527767,140.322913,
千葉県,大網白里市,4-4,大綱833番地3付近,ファミリーマート前,35.528813,140.325601,
千葉県,大網白里市,4-5,大綱346番地付近,masked,35.523459,140.318429,
千葉県,大網白里市,4-6,大竹21番地1付近,大綱駅入口,35.524854,140.314060,
千葉県,大網白里市,4-7,大綱121番地2,中央公民館前,35.522456,140.320575,
千葉県,大網白里市,4-8,仏島186番地付近,masked,35.520748,140.323380,
千葉県,大網白里市,5-1,南横川357番地付近,masked,35.498556,140.332096,
千葉県,大網白里市,5-2,南横川290番地1付近,masked,35.495382,140.329839,
千葉県,大網白里市,5-3,南横川3710番地2付近,南部維持管理組合前,35.498698,140.336181,
千葉県,大網白里市,5-4,南横川2542番地付近,佐久間医院前,35.497358,140.341258,
千葉県,大網白里市,5-5,南横川3252番地付近,民謡教室付近,35.491558,140.337897,
千葉県,大網白里市,5-6,南横川3491番地7付近,房総平和園入口,35.501345,140.326204,
千葉県,大網白里市,5-7,南横川2519番地1付近,南飯塚橋前,35.499376,140.344857,
千葉県,大網白里市,6-1,星谷182番地付近,星谷公民館,35.509295,140.336238,
千葉県,大網白里市,6-2,南飯塚217番地6付近,南飯塚公民館前,35.501378,140.342781,
千葉県,大網白里市,6-3,南飯塚207番地2付近,masked,35.500522,140.344678,
千葉県,大網白里市,6-4,南飯塚299番地1,増穂幼稚園,35.505283,140.347075,
千葉県,大網白里市,6-5,北飯塚281番地,増穂小学校,35.508353,140.348711,
千葉県,大網白里市,6-6,柿餅26番地1,中部コミュニティセンター前,35.508215,140.350994,
千葉県,大網白里市,6-7,北飯塚375番地付近,北飯塚公民館前,35.506257,140.352869,
千葉県,大網白里市,7-1,清名幸谷252番地1付近,清名幸谷ガス供給所前,35.530083,140.341642,
千葉県,大網白里市,7-2,清名幸谷533番地付近,大宮神社入口,35.529392,140.343986,
千葉県,大網白里市,7-3,清名幸谷2228番地付近,masked,35.528511,140.350596,
千葉県,大網白里市,7-4,上谷新田84番地付近,上谷新田青年館前,35.528363,140.356578,
千葉県,大網白里市,7-5,清名幸谷1341番地1付近,南清名幸谷青年館前,35.524276,140.347914,
千葉県,大網白里市,7-6,清名幸谷1562番地1付近,清名幸谷十字路,35.523676,140.349374,
千葉県,大網白里市,7-7,上谷新田440番地3付近,自治会公園前,35.520732,140.356092,
千葉県,大網白里市,8-1,北吉田794番地付近,北吉田公民館入口,35.498346,140.360634,
千葉県,大網白里市,8-2,桂山1248番地付近,masked,35.504485,140.368521,
千葉県,大網白里市,8-3,桂山473番地付近,桂山公民館入口,35.504932,140.370463,
千葉県,大網白里市,8-4,桂山2117番地付近,駒形神社駐車場,35.509638,140.372377,
千葉県,大網白里市,8-5,九十根280番地付近,九十根バス停前,35.502145,140.374740,
千葉県,大網白里市,8-6,長国742番地付近,長国農村協同館東側,35.497193,140.371964,
千葉県,大網白里市,8-7,九十根220番地付近,鵜沢工務店前,35.508386,140.377797,
千葉県,大網白里市,8-8,下ケ傍示25番地2付近,下ケ傍示バス停前,35.500032,140.380525,
千葉県,大網白里市,9-1,清水768番地付近,片岡商店前,35.479580,140.379383,
千葉県,大網白里市,9-2,細草1379番地付近,白里中学校入口,35.498337,140.389265,
千葉県,大網白里市,9-3,細草3058番地付近,薬王寺前,35.505735,140.393618,
千葉県,大網白里市,9-4,南今泉1088番地1,白里出張所,35.491361,140.401376,
千葉県,大網白里市,9-5,四天木甲3097番地付近,宮脇十字路,35.487550,140.402747,
千葉県,大網白里市,9-6,四天木甲2802番地付近,10区青年館脇,35.483788,140.400718,
千葉県,大網白里市,9-7,南今泉140番地1,農村環境改善センター,35.490385,140.404422,
千葉県,大網白里市,10-1,北今泉1320番地付近,masked,35.501860,140.409928,
千葉県,大網白里市,10-2,北今泉2076番地付近,諏訪神社前,35.500727,140.414108,
千葉県,大網白里市,10-3,北今泉2901番地付近,プラセル九十九里バス停前,35.498080,140.419920,
千葉県,大網白里市,10-4,北今泉3456番地付近,真亀橋バス停前,35.499476,140.424856,
千葉県,大網白里市,10-5,北今泉3486番地付近,masked,35.496736,140.423059,
千葉県,大網白里市,10-6,北今泉3696番地94付近,汐浜公民館前,35.495122,140.425778,
千葉県,大網白里市,10-7,北今泉3696番地105付近,加藤昭昌弘商店付近,35.492466,140.423946,
千葉県,大網白里市,11-1,南今泉4757番地付近,masked,35.491244,140.420814,
千葉県,大網白里市,11-2,南今泉2510番地1付近,丸二工務店脇,35.487764,140.416488,
千葉県,大網白里市,11-3,南今泉260番地16付近,白里郵便局前,35.488940,140.413283,
千葉県,大網白里市,11-4,南今泉4837番地2付近,ダイヤモンドマンション前,35.487735,140.421350,
千葉県,大網白里市,11-5,南今泉4631番地5付近,masked,35.484603,140.417587,
千葉県,大網白里市,11-6,四天木乙2894番地57,老人福祉センター前,35.483578,140.420066,
千葉県,大網白里市,12-1,四天木乙2894番地63,九十九里自然公園休憩センター,35.481357,140.418962,
千葉県,大網白里市,12-2,四天木乙2827番地21付近,又五郎鮮魚店,35.482078,140.415990,
千葉県,大網白里市,12-3,四天木乙2790番地付近,masked,35.480858,140.415736,
千葉県,大網白里市,12-4,四天木乙2722番地付近,堀川橋脇,35.476692,140.413608,
千葉県,大網白里市,12-5,四天木乙2633番地付近,やまご水産前,35.476670,140.413616,
千葉県,大網白里市,12-6,四天木乙2557番地付近,村木屋商店前,35.474597,140.412136,
千葉県,大網白里市,12-7,四天木乙1463番地付近,masked,35.476588,140.403442,
千葉県,大網白里市,13-1,駒込1173番地付近,masked,35.516735,140.310919,
千葉県,大網白里市,13-2,みやこ野一丁目1番地付近,イオン第1駐車場前,35.518842,140.315572,
千葉県,大網白里市,13-3,駒込446番地11,第2駐輪場,35.521692,140.311579,
千葉県,大網白里市,13-4,みやこ野二丁目7番地付近,みやこ野2号公園,35.519531,140.318425,
千葉県,大網白里市,13-5,駒込438番地9付近,大綱ハイツA棟裏,35.522031,140.312777,
千葉県,大網白里市,13-6,駒込794番地4付近,角川スタンド前,35.519997,140.307033,
千葉県,大網白里市,13-7,駒込541番地付近,㈱スキップ前,35.518914,140.311639,
千葉県,大網白里市,14-1,仏島72番地,分庁舎前（経田交差点脇）,35.517892,140.324418,
千葉県,大網白里市,14-2,経田129番地付近,経田公民館前,35.514317,140.321146,
千葉県,大網白里市,14-3,富田288番地2付近,masked,35.512889,140.324571,
千葉県,大網白里市,14-4,富田32番地2付近,大網東小学校,35.518439,140.327235,
千葉県,大網白里市,14-5,富田1484番地1付近,アスカ展示場前,35.516004,140.329551,
千葉県,大網白里市,14-6,大網5298番地付近,福田バス停前,35.514496,140.333892,
千葉県,大網白里市,14-7,大網5066番地5付近,masked,35.519109,140.338313,
千葉県,大網白里市,14-8,大網1586番地4付近,masked,35.531035,140.333811,
千葉県,大網白里市,15-1,北横川203番地付近,北横川バス停前,35.513269,140.339719,
千葉県,大網白里市,15-2,上貝塚160番地,大網白里アリーナ前,35.517614,140.343977,
千葉県,大網白里市,15-3,南飯塚216番地1付近,わらび台団地（調整池）,35.508852,140.344352,
千葉県,大網白里市,15-4,柿餅20番地付近,柿餅バス停前,35.510000,140.350689,
千葉県,大網白里市,15-5,柿餅384番地付近,柿餅公民館,35.510793,140.350247,
千葉県,大網白里市,15-6,上貝塚569番地付近,masked,35.520632,140.349329,
千葉県,大網白里市,15-7,柿餅243番地付近,小川園付近,35.514578,140.351567,
千葉県,大網白里市,16-1,南横川3180番地8付近,masked,35.497296,140.348310,
千葉県,大網白里市,16-2,南横川3138番地179付近,masked,35.495782,140.347566,
千葉県,大網白里市,16-3,南横川3848番地1付近,masked,35.492224,140.342026,
千葉県,大網白里市,16-4,南横川3102番地8付近,masked,35.489134,140.344720,
千葉県,大網白里市,16-5,南横川3094番地5付近,南横川セブンイレブン前,35.490473,140.347539,
千葉県,大網白里市,16-6,南横川3141番地付近,弥巾野自治会館前,35.491536,140.347465,
千葉県,大網白里市,16-7,南横川3164番地69付近,masked,35.495919,140.345212,
千葉県,大網白里市,17-1,柳橋1119番地付近,東山産業前,35.511205,140.357822,
千葉県,大網白里市,17-2,木崎127番地付近,FIDES脇,35.507954,140.357415,
千葉県,大網白里市,17-3,木崎329番地付近,木崎消防機庫前,35.505957,140.356431,
千葉県,大網白里市,17-4,柳橋528番地付近,柳橋公民館前,35.507698,140.361647,
千葉県,大網白里市,17-5,柳橋82番地1付近,蛯名建設脇,35.506116,140.362116,
千葉県,大網白里市,17-6,柳橋725番地付近,masked,35.509038,140.365085,
千葉県,大網白里市,17-7,柳橋832番地1付近,柳植園前,35.514165,140.365539,
千葉県,大網白里市,18-1,季美の森南一丁目9番地4,もえぎ公園前,35.546422,140.299354,
千葉県,大網白里市,18-2,季美の森南一丁目28番地,季美の森小学校脇,35.550976,140.292503,
千葉県,大網白里市,18-3,季美の森南一丁目30番地2付近,小湊鉄道車庫脇,35.553398,140.293258,
千葉県,大網白里市,18-4,金谷郷3579番地付近,季美の森小学校入口,35.550500,140.291903,
千葉県,大網白里市,18-5,季美の森南三丁目4番地,南センターバス停脇,35.549325,140.301772,
千葉県,大網白里市,18-6,季美の森南四丁目7番地1,むぎわら公園前,35.552500,140.306048,
千葉県,大網白里市,18-7,季美の森南二丁目27番地5,こはく公園前,35.553121,140.301861,
