prefecture,city,number,address,name,lat,long,note
千葉県,富津市,1-1,大堀一丁目18-8,大堀一区ふれあい館内,35.3353598,139.860144,
千葉県,富津市,1-2,大堀1366-1,(有)鹿嶋工業前,35.3369077,139.8569109,
千葉県,富津市,1-3,大堀二丁目30,大堀第４号公園内,35.334747,139.855469,緯度経度は怪しい
千葉県,富津市,1-4,大堀1044-10,石井宅隣,35.339085,139.85437,緯度経度は怪しい
千葉県,富津市,1-5,大堀一丁目25-1,大堀二区集会所前,35.335626,139.8571063,
千葉県,富津市,1-6,大堀三丁目8,大堀第５号公園内,35.329079,139.851547,緯度経度は怪しい
千葉県,富津市,1-7,大堀二丁目11,大堀第３児童公園内,35.3317791,139.8549163,
千葉県,富津市,1-8,大堀二丁目25-8,大六天王神社横,35.3329697,139.8533236,
千葉県,富津市,2-1,大堀539-1,金井医院脇,35.3299165,139.8541517,
千葉県,富津市,2-2,大堀二丁目1-4,千葉銀行富津支店前,35.3318671,139.8578324,
千葉県,富津市,2-3,大堀1846-3,JR青堀駅東口前,35.330433,139.859087,
千葉県,富津市,2-4,大堀1804,富津スターレーン前,35.3315877,139.8617712,
千葉県,富津市,2-5,大堀一丁目11,大堀第１号公園内,35.333744,139.859283,緯度経度は怪しい
千葉県,富津市,2-6,大堀2214,青堀駅裏公園内,35.337543,139.854172,緯度経度は怪しい
千葉県,富津市,2-7,大堀1888-10,青堀駅北口ロータリー前,35.331173,139.858124,緯度経度は怪しい
千葉県,富津市,3-1,青木1968-2,市民ふれあい公園入口,35.329906,139.843842,緯度経度は怪しい
千葉県,富津市,3-2,青木三丁目4-1,青木第４号公園,35.32771260000001,139.8461699,
千葉県,富津市,3-3,青木1561-1,富津市商工会駐車場前,35.3244965,139.8468305,
千葉県,富津市,3-4,青木1222,青木自治会館前,35.322941,139.844009,緯度経度は怪しい
千葉県,富津市,3-5,青木三丁目19-1,宮ノ前公園,35.324715,139.8431046,
千葉県,富津市,3-6,西川982-10,高橋石油前,35.319019,139.838028,緯度経度は怪しい
千葉県,富津市,3-7,西川1042-4,小柴宅前,35.317188,139.836349,緯度経度は怪しい
千葉県,富津市,3-8,青木二丁目10-12,青木公園内,35.3298556,139.8492977,
千葉県,富津市,3-9,新富137,市民ふれあい公園第７駐車場,35.342117,139.842484,緯度経度は怪しい
千葉県,富津市,4-1,富津2668,富津臨港公園内,35.3144593,139.8220334,
千葉県,富津市,4-2,富津2714,漁具倉庫入口,35.3144593,139.8220334,
千葉県,富津市,4-3,新井403,富津公民館前,35.3155794,139.8310551,
千葉県,富津市,4-4,富津122-1,正札堂前,35.315525,139.824493,緯度経度は怪しい
千葉県,富津市,4-5,富津23-1,大胡木材(有)前,35.3150086,139.825895,
千葉県,富津市,4-6,新井599,新井区集会所前,35.3142562,139.8286986,
千葉県,富津市,4-7,富津496-1,富津小学校前,35.312366,139.823624,緯度経度は怪しい
千葉県,富津市,4-8,富津474-1,(有)富津板金前,35.310303,139.826019,緯度経度は怪しい
千葉県,富津市,4-9,富津1458-2,富津児童遊園地前,35.3115512,139.819973,
千葉県,富津市,4-10,富津679-83,日本製鉄（株）富津寮付近,35.306713,139.811325,緯度経度は怪しい
千葉県,富津市,5-1,富津1841-1,鈴木屋商店前,35.3137338,139.8178378,
千葉県,富津市,5-2,富津2035-74,富津漁業協同組合前,35.315541,139.8163871,
千葉県,富津市,5-3,富津2026-1,大定駐車場,35.3131302,139.8159898,
千葉県,富津市,5-4,富津1136-38,消防第１分団第１部機庫前,35.3104004,139.8161453,
千葉県,富津市,5-5,富津2201-1,富津公園キャンプ場駐車場前,35.3117491,139.8128879,
千葉県,富津市,5-6,富津2186-1,森田宅前,35.31263,139.813278,緯度経度は怪しい
千葉県,富津市,6-1,川名1530-1,手打ち江戸蕎麦里山付近,35.3065027,139.8306769,
千葉県,富津市,6-2,川名760-1,消防第1分団第2部詰所前,35.3040113,139.8342734,
千葉県,富津市,6-3,川名748-1,旧下洲漁業協同組合事務所付近,35.30286590000001,139.8354095,
千葉県,富津市,6-4,篠部940-2,篠部区公民館前,35.301777,139.83815,緯度経度は怪しい
千葉県,富津市,6-5,篠部1402,(有)すみれ園付近,35.2993369,139.841542,
千葉県,富津市,6-6,篠部2225-2,若武旅館付近,35.296818,139.843918,緯度経度は怪しい
千葉県,富津市,7-1,二間塚1973-3,内裏塚古墳前,35.325481,139.855789,緯度経度は怪しい
千葉県,富津市,7-2,上飯野1720-2,安藤建設(有)前,35.323025,139.857147,緯度経度は怪しい
千葉県,富津市,7-3,下飯野698-1,(株）大平建設前,35.317917,139.858734,緯度経度は怪しい
千葉県,富津市,7-4,下飯野2509-6,富津市役所前,35.305752,139.858093,緯度経度は怪しい
千葉県,富津市,7-5,下飯野2046-3,下飯野公民館前,35.314384,139.859528,緯度経度は怪しい
千葉県,富津市,7-6,下飯野300,山王公民館前,35.3173733,139.8622154,
千葉県,富津市,7-7,下飯野203-7,飯野コミュニティセンター,35.316788,139.864197,緯度経度は怪しい
千葉県,富津市,7-8,上飯野1034,上飯野集会所前,35.3092601,139.8688061,
千葉県,富津市,7-9,本郷803-1,本郷区集会所前,35.307308,139.880814,緯度経度は怪しい
千葉県,富津市,8-1,上飯野1673,水町歯科医院付近,35.3222753,139.8586145,
千葉県,富津市,8-2,二間塚1942-73,山本宅前,35.32473,139.857697,緯度経度は怪しい
千葉県,富津市,8-3,二間塚1613-1,旧二間塚公民館跡地,35.3281598,139.8641041,
千葉県,富津市,8-4,二間塚990-1,南笹塚集会所前,35.326054,139.868607,緯度経度は怪しい
千葉県,富津市,8-5,二間塚898-1,百目木青年館前,35.31958,139.871155,緯度経度は怪しい
千葉県,富津市,8-6,二間塚928-6,出口屋商店付近,35.324287,139.866776,緯度経度は怪しい
千葉県,富津市,8-7,二間塚57-4,斉藤宅前,35.324287,139.866776,緯度経度は怪しい
千葉県,富津市,9-1,小久保1483-1,粟畑公会堂前,35.272774,139.85878,緯度経度は怪しい
千葉県,富津市,9-2,小久保1675-1,日本水道跡地横,35.272774,139.85878,緯度経度は怪しい
千葉県,富津市,9-3,小久保77-2,大貫小学校前,35.27964,139.860992,緯度経度は怪しい
千葉県,富津市,9-4,小久保2141-1,国道465号線小久保交差点付近,35.272774,139.85878,緯度経度は怪しい
千葉県,富津市,9-5,小久保2315,旧消防第４分団第１部詰所前,35.2783714,139.857063,
千葉県,富津市,9-6,小久保3014,中央公民館前,35.281891,139.8577418,
千葉県,富津市,9-7,小久保2455-1,三木宅脇,35.272774,139.85878,緯度経度は怪しい
千葉県,富津市,9-8,小久保2713-8,浜町公民館前,35.277966,139.85376,緯度経度は怪しい
千葉県,富津市,9-9,小久保273-1・275・276合併地番,宮崎宅付近,35.272774,139.85878,緯度経度は怪しい
千葉県,富津市,9-10,近藤303-11,三甲（株）前,35.281204,139.885162,緯度経度は怪しい
千葉県,富津市,10-1,岩瀬898-30,旧富津市商工会大佐和支所前,35.2809496,139.8533569,
千葉県,富津市,10-2,岩瀬899-5,いそね寿司前,35.286537,139.859451,緯度経度は怪しい
千葉県,富津市,10-3,岩瀬859-4,旧新平食堂前,35.282394,139.856308,緯度経度は怪しい
千葉県,富津市,10-4,岩瀬1463-2,(有)朝日機電工業前,35.286537,139.859451,緯度経度は怪しい
千葉県,富津市,10-5,岩瀬1062-1,小林宅前,35.286537,139.859451,緯度経度は怪しい
千葉県,富津市,10-6,岩瀬995-4,大佐和駐在所付近,35.2869719,139.855165,
千葉県,富津市,10-7,岩瀬1196-2,君津プロパンガス商会前,35.286537,139.859451,緯度経度は怪しい
千葉県,富津市,11-1,千種新田459-10,JR大貫駅駐輪場前,35.293777,139.853073,緯度経度は怪しい
千葉県,富津市,11-2,千種新田375-4,JR大貫駅裏ロ－タリ－,35.293266,139.856216,緯度経度は怪しい
千葉県,富津市,11-3,千種新田346-1,大貫ふれあいシニア館前,35.2926607,139.8543272,
千葉県,富津市,11-4,千種新田178-1,鈴木保険センター前,35.29350670000001,139.8595014,
千葉県,富津市,11-5,千種新田1170-25,やながわ食堂前,35.298801,139.857956,緯度経度は怪しい
千葉県,富津市,11-6,千種新田710-40,大佐和分院入口付近,35.293964,139.84996,緯度経度は怪しい
千葉県,富津市,11-7,千種新田1063-1,黒崎播磨社宅前,35.296196,139.85556,緯度経度は怪しい
千葉県,富津市,11-8,千種新田1-1,市営新小原団地前,35.2984079,139.862173,
千葉県,富津市,12-1,岩瀬152-1,君津市農業協同組合大佐和支店横,35.286537,139.859451,緯度経度は怪しい
千葉県,富津市,12-2,八田沼35,高橋宅前,35.2810185,139.8790478,
千葉県,富津市,12-3,近藤111,伊藤宅前,35.2830533,139.8841693,
千葉県,富津市,12-4,上386,（株）永塚建設前,35.2851851,139.8982557,
千葉県,富津市,12-5,西大和田983-1,白井宅前,35.2936551,139.8635959,
千葉県,富津市,12-6,絹656-2,吉野保育所前,35.2909682,139.8754991,
千葉県,富津市,12-7,上16-3,介護老人保健施設わかくさ前,35.284599,139.899689,緯度経度は怪しい
千葉県,富津市,12-8,西大和田270-3,伊勢崎宅前,35.29715,139.870651,緯度経度は怪しい
千葉県,富津市,12-9,相野谷1089-5,相野谷集会所前,35.300732,139.881622,緯度経度は怪しい
千葉県,富津市,12-10,障子谷627-3,旧三舟屋商店前,35.296787,139.891129,緯度経度は怪しい
千葉県,富津市,13-1,鶴岡603-4,国道127号線古船交差点付近,35.249184,139.88678,緯度経度は怪しい
千葉県,富津市,13-2,宝竜寺227-1,徳本宅前,35.2652149,139.9105945,
千葉県,富津市,13-3,佐貫269,旧富津市農業協同組合佐貫支店,35.2619524,139.8874365,
千葉県,富津市,13-4,佐貫183-4,佐貫保育所前,35.2624956,139.8840079,
千葉県,富津市,13-5,佐貫153,ＮＴＴ佐貫電話交換センター横,35.264503,139.897186,緯度経度は怪しい
千葉県,富津市,13-6,佐貫498-1,旧佐貫中学校前,35.264503,139.897186,緯度経度は怪しい
千葉県,富津市,13-7,花香谷373・374合併2,下道橋付近,35.2614386,139.8924051,
千葉県,富津市,13-8,佐貫816・817・818合併6,鬼泪山最終土場,35.264503,139.897186,緯度経度は怪しい
千葉県,富津市,13-9,亀沢甲647-1,亀沢青年館前,35.272617,139.905914,緯度経度は怪しい
千葉県,富津市,14-1,笹毛276-1,豊栄電業㈱付近,35.24147,139.877945,緯度経度は怪しい
千葉県,富津市,14-2,亀田552-1,三平焼き鳥店前,35.261322,139.870224,緯度経度は怪しい
千葉県,富津市,14-3,八幡164-5,新五郎酒店前,35.25148,139.870621,緯度経度は怪しい
千葉県,富津市,14-4,亀田647-3,記念碑前,35.261322,139.870224,緯度経度は怪しい
千葉県,富津市,14-5,八幡215-1,川向橋付近,35.25148,139.870621,緯度経度は怪しい
千葉県,富津市,14-6,八幡42-1,山王橋付近,35.25148,139.870621,緯度経度は怪しい
千葉県,富津市,14-7,亀田977-1,金井宅横,35.261322,139.870224,緯度経度は怪しい
千葉県,富津市,14-8,亀田368-1,佐貫コミュニティセンター,35.2629674,139.8796479,
千葉県,富津市,15-1,湊1389-1,天羽自動車板金工場付近,35.226234,139.873749,緯度経度は怪しい
千葉県,富津市,15-2,湊768-1,市民会館前,35.226234,139.873749,緯度経度は怪しい
千葉県,富津市,15-3,湊1598-4,上総湊海浜公園駐車場入口,35.226234,139.873749,緯度経度は怪しい
千葉県,富津市,15-4,湊671-2地先,川名宅前,35.226234,139.873749,緯度経度は怪しい
千葉県,富津市,15-5,湊234,吉田屋湊店前,35.2148976,139.8743497,
千葉県,富津市,15-6,売津172-2,今村歯科医院付近,35.208946,139.87645,緯度経度は怪しい
千葉県,富津市,15-7,湊728-8,JR上総湊駅前,35.226234,139.873749,緯度経度は怪しい
千葉県,富津市,15-8,海良81-1,小川宅付近,35.213549,139.8717394,
千葉県,富津市,15-9,湊1235-45,（株）大栄鉄工所付近,35.226234,139.873749,緯度経度は怪しい
千葉県,富津市,16-1,岩坂36-1,ヤマハ音楽教室付近,35.226639,139.885651,緯度経度は怪しい
千葉県,富津市,16-2,数馬451-3,天羽高校付近,35.216774,139.881638,緯度経度は怪しい
千葉県,富津市,16-3,岩坂322-1,岩坂浄水場跡地,35.226639,139.885651,緯度経度は怪しい
千葉県,富津市,16-4,更和955,渡辺宅前,35.228477,139.902435,緯度経度は怪しい
千葉県,富津市,16-5,更和2-1,更和親水公園,35.228477,139.902435,緯度経度は怪しい
千葉県,富津市,16-6,更和97-9,セブンイレブン更和店前,35.228477,139.902435,緯度経度は怪しい
千葉県,富津市,16-7,望井180-1,旧ストアーまるい付近,35.216896,139.895584,緯度経度は怪しい
千葉県,富津市,16-8,更和194-3,食事処徳付近,35.228477,139.902435,緯度経度は怪しい
千葉県,富津市,16-9,更和733-4地先,吉原宅付近,35.228477,139.902435,緯度経度は怪しい
千葉県,富津市,16-10,数馬875-4,天羽小学校付近,35.216774,139.881638,緯度経度は怪しい
千葉県,富津市,17-1,相川260-4,一川橋付近,35.20105,139.880142,緯度経度は怪しい
千葉県,富津市,17-2,相川1592,神子宅前,35.2028379,139.8789608,
千葉県,富津市,17-3,相川1010-1,向野橋前,35.20105,139.880142,緯度経度は怪しい
千葉県,富津市,17-4,不入斗388-2,天神山コミュニティセンター前,35.202671,139.900864,緯度経度は怪しい
千葉県,富津市,17-5,花輪138-4,旧天神山小学校前,35.211388,139.886108,緯度経度は怪しい
千葉県,富津市,17-6,長崎58-3,天湊橋付近,35.220131,139.906219,緯度経度は怪しい
千葉県,富津市,17-7,長崎379-3,渡辺理容店前,35.220131,139.906219,緯度経度は怪しい
千葉県,富津市,17-8,横山556,桜井宅付近,35.213337,139.90567,緯度経度は怪しい
千葉県,富津市,18-1,梨沢81-2,妙蔵寺前,35.175076,139.893738,緯度経度は怪しい
千葉県,富津市,18-2,梨沢207-5,南畑橋付近,35.175076,139.893738,緯度経度は怪しい
千葉県,富津市,18-3,梨沢415-3,梨沢区公民館前,35.175076,139.893738,緯度経度は怪しい
千葉県,富津市,18-4,梨沢1276-3,笹生宅前,35.175076,139.893738,緯度経度は怪しい
千葉県,富津市,18-5,梨沢1570,鹿原集会所前,35.1781814,139.8905718,
千葉県,富津市,19-1,竹岡473-1,竹岡コミュニティセンター前,35.2077502,139.8450689,
千葉県,富津市,19-2,竹岡403-1,竹岡保育所前,35.2084766,139.8455877,
千葉県,富津市,19-3,竹岡575-2,菊華旅館付近防災無線脇,35.187023,139.866516,緯度経度は怪しい
千葉県,富津市,19-4,竹岡507-1,竹岡橋バス停付近,35.187023,139.866516,緯度経度は怪しい
千葉県,富津市,19-5,竹岡677-5,国道127号線竹岡IC交差点付近,35.187023,139.866516,緯度経度は怪しい
千葉県,富津市,19-6,竹岡986-3,旧天羽養護老人ホーム前,35.187023,139.866516,緯度経度は怪しい
千葉県,富津市,19-7,竹岡1239-4,仲村防火水槽前,35.187023,139.866516,緯度経度は怪しい
千葉県,富津市,19-8,竹岡3012-4,関山公民館前,35.187023,139.866516,緯度経度は怪しい
千葉県,富津市,19-9,竹岡4523,竹岡白狐入口手前,35.187023,139.866516,緯度経度は怪しい
千葉県,富津市,19-10,竹岡151-14,富津市水道竹岡第2配水池前,35.187023,139.866516,緯度経度は怪しい
千葉県,富津市,20-1,萩生59-2,旧造海荘入口,35.198116,139.833725,緯度経度は怪しい
千葉県,富津市,20-2,萩生234-1,トモエ自動車板金前,35.201477,139.831195,
千葉県,富津市,20-3,萩生1119-6,JR竹岡駅入口,35.198116,139.833725,緯度経度は怪しい
千葉県,富津市,20-4,萩生1174-3,天羽漁業協同組合事務所前,35.198116,139.833725,緯度経度は怪しい
千葉県,富津市,21-1,金谷2197-18,金谷コミュニティセンター,35.1678068,139.8228841,
千葉県,富津市,21-2,金谷2448-23,金谷踏切付近,35.1675472,139.8243784,
千葉県,富津市,21-3,金谷2019-3,金谷の里入口付近,35.173904,139.836441,緯度経度は怪しい
千葉県,富津市,21-4,金谷2448地先,富士見橋付近,35.173904,139.836441,緯度経度は怪しい
千葉県,富津市,21-5,金谷2221-2,金谷第3区公民館前,35.166653,139.8224005,
千葉県,富津市,21-6,金谷4144-6,天羽漁業協同組合製氷工場前,35.1631168,139.8220407,
千葉県,富津市,21-7,金谷4134,天羽漁業協同組合金谷支所裏,35.1629117,139.8219108,
千葉県,富津市,22-1,大森9-2,伊東建設めしや笑福前,35.220577,139.914825,緯度経度は怪しい
千葉県,富津市,22-2,六野408-2,島田宅横,35.215149,139.916443,緯度経度は怪しい
千葉県,富津市,22-3,六野28-2,興業(株)付近,35.215149,139.916443,緯度経度は怪しい
千葉県,富津市,22-4,田原123-4,金牧宅前,35.2106234,139.9195942,
千葉県,富津市,22-5,岩本362-1,齋藤宅付近,35.19841,139.929733,緯度経度は怪しい
千葉県,富津市,22-6,押切11-2・12合併,環橋付近,35.217102,139.920502,緯度経度は怪しい
千葉県,富津市,22-7,上後258-3,環小学校入口,35.212227,139.933228,緯度経度は怪しい
千葉県,富津市,22-8,上後481-1,ソムリエハウス酒匠の館付近,35.212227,139.933228,緯度経度は怪しい
千葉県,富津市,22-9,東大和田574-5,高溝入口,35.221214,139.941055,緯度経度は怪しい
千葉県,富津市,22-10,寺尾351-1,寺尾橋付近,35.224873,139.917725,緯度経度は怪しい
千葉県,富津市,23-1,志駒90-1,志駒不動霊水前,35.1915424,139.9292702,
千葉県,富津市,23-2,志駒527-3,消防第11分団第2部詰所前,35.180401,139.927628,緯度経度は怪しい
千葉県,富津市,23-3,志駒860-2,志駒橋付近,35.180401,139.927628,緯度経度は怪しい
千葉県,富津市,23-4,志駒1186-3,旧環南小学校入口,35.180401,139.927628,緯度経度は怪しい
千葉県,富津市,24-1,山中53-3,笹生宅付近,35.15456,139.920502,緯度経度は怪しい
千葉県,富津市,24-2,山中792-4,山中区公民館前,35.15456,139.920502,緯度経度は怪しい
千葉県,富津市,24-3,山中1315-2,田島橋付近,35.15456,139.920502,緯度経度は怪しい
千葉県,富津市,24-4,山中1703-3,山中バス停付近,35.15456,139.920502,緯度経度は怪しい
千葉県,富津市,24-5,山中1895-2,奥畑集会所前,35.15456,139.920502,緯度経度は怪しい
千葉県,富津市,25-1,関232-2,旧斉藤商店前,35.205101,139.947098,緯度経度は怪しい
千葉県,富津市,25-2,大田和95-3,大田和集会所前,35.2092692,139.943078,
千葉県,富津市,25-3,関696-5,レストラン石山前,35.205101,139.947098,緯度経度は怪しい
千葉県,富津市,25-4,豊岡1356-1,関豊ふれあいシニア館前,35.177528,139.970169,緯度経度は怪しい
千葉県,富津市,25-5,豊岡1734-4,旧関豊小学校入口,35.177528,139.970169,緯度経度は怪しい
千葉県,富津市,25-6,豊岡1826-2,かなめ橋付近,35.177528,139.970169,緯度経度は怪しい
千葉県,富津市,25-7,豊岡2934-1,峰上第15区公民館前,35.177528,139.970169,緯度経度は怪しい
千葉県,富津市,25-8,豊岡3643-7,上郷橋付近,35.177528,139.970169,緯度経度は怪しい
