prefecture,city,number,address,name,lat,long,note
千葉県,市川市,1,市営住宅大町第二団地/集会所（大町124）,市営住宅大町第二団地/集会所（大町124）,35.774658,139.9608864,緯度経度は怪しい
千葉県,市川市,2,市営住宅大町第二団地/5号棟（大町124）,市営住宅大町第二団地/5号棟（大町124）,35.77493,139.9594854,緯度経度は怪しい
千葉県,市川市,3,市営住宅大町第一団地/入口（大町95）,市営住宅大町第一団地/入口（大町95）,35.7726536,139.9579142,緯度経度は怪しい
千葉県,市川市,4,市営住宅大町第一団地/西側（大町95）,市営住宅大町第一団地/西側（大町95）,35.7726536,139.9579142,緯度経度は怪しい
千葉県,市川市,5,市営住宅大町第二団地/4号棟前（大町124）,市営住宅大町第二団地/4号棟前（大町124）,35.774658,139.9608864,緯度経度は怪しい
千葉県,市川市,6,大町市営住宅（E）児童遊園地/第三団地前（大町124）,大町市営住宅（E）児童遊園地/第三団地前（大町124）,35.7737032,139.9638046,緯度経度は怪しい
千葉県,市川市,7,大町中里公園隣フェンス（大町572地先）,大町中里公園隣フェンス（大町572地先）,35.7740892,139.9573714,緯度経度は怪しい
千葉県,市川市,8,日枝神社（大町274）,日枝神社（大町274）,35.7699544,139.9636222,緯度経度は怪しい
千葉県,市川市,9,masked,masked,35.768598,139.961458,緯度経度は怪しい
千葉県,市川市,10,masked,masked,35.7652411,139.9552231,緯度経度は怪しい
千葉県,市川市,11,大町小学校前（大町84-10）,大町小学校前（大町84-10）,35.7721122,139.9567389,緯度経度は怪しい
千葉県,市川市,12,大町自然公園/入口（大町183）,大町自然公園/入口（大町183）,35.7729246,139.9721653,緯度経度は怪しい
千葉県,市川市,13,市川市動植物園駐輪場（大町350地先）,市川市動植物園駐輪場（大町350地先）,35.7624028,139.9647637,緯度経度は怪しい
千葉県,市川市,14,市川市霊園入口横（大町209付近）,市川市霊園入口横（大町209付近）,35.7659743,139.9724942,緯度経度は怪しい
千葉県,市川市,15,大野地域ふれあい館（大野町3丁目1625）,大野地域ふれあい館（大野町3丁目1625）,35.75802,139.955457,緯度経度は怪しい
千葉県,市川市,16,みかど公園（大野町3丁目293）,みかど公園（大野町3丁目293）,35.7573941,139.9533524,緯度経度は怪しい
千葉県,市川市,17,大野第1駐輪場（大野町3丁目1435地先）,大野第1駐輪場（大野町3丁目1435地先）,35.7573941,139.9533524,緯度経度は怪しい
千葉県,市川市,18,市川大野駅北側タクシーのりば（大野町3丁目1427-8地先）,市川大野駅北側タクシーのりば（大野町3丁目1427-8地先）,35.7552496,139.9519867,緯度経度は怪しい
千葉県,市川市,19,NTT大野電話交換センタ（大野町3丁目2073）,NTT大野電話交換センタ（大野町3丁目2073）,35.7485945,139.9577591,緯度経度は怪しい
千葉県,市川市,20,第五中学校/グラウンド（大野町3丁目1993）,第五中学校/グラウンド（大野町3丁目1993）,35.753129,139.956868,緯度経度は怪しい
千葉県,市川市,21,大野町4丁目少年広場（大野町4丁目3126地先）,大野町4丁目少年広場（大野町4丁目3126地先）,35.7587876,139.9608153,緯度経度は怪しい
千葉県,市川市,22,大野4丁目第2児童遊園地（大野町4丁目3005-7地先）,大野4丁目第2児童遊園地（大野町4丁目3005-7地先）,35.7536989,139.959081,緯度経度は怪しい
千葉県,市川市,23,大野町4丁目公園（大野町4丁目3036地先）,大野町4丁目公園（大野町4丁目3036地先）,35.7565179,139.9583181,緯度経度は怪しい
千葉県,市川市,24,柏井小学校（柏井町1丁目1149-1）,柏井小学校（柏井町1丁目1149-1）,35.7396058,139.9665449,緯度経度は怪しい
千葉県,市川市,25,柏井みどり公園（柏井1丁目2203地先）,柏井みどり公園（柏井1丁目2203地先）,35.739442,139.9721339,緯度経度は怪しい
千葉県,市川市,26,柏井町さくら公園（柏井町1丁目1731）,柏井町さくら公園（柏井町1丁目1731）,35.738725,139.971905,緯度経度は怪しい
千葉県,市川市,27,姥山貝塚公園（柏井町1丁目1235）,姥山貝塚公園（柏井町1丁目1235）,35.7376754,139.9652324,緯度経度は怪しい
千葉県,市川市,28,柏井公民館（柏井町2丁目844）,柏井公民館（柏井町2丁目844）,35.746022,139.965392,緯度経度は怪しい
千葉県,市川市,29,市営住宅柏井第一団地（柏井町2丁目1344）,市営住宅柏井第一団地（柏井町2丁目1344）,35.7506634,139.9610032,緯度経度は怪しい
千葉県,市川市,30,J:COM北市川スポーツパーク（柏井町4丁目277-1）,J:COM北市川スポーツパーク（柏井町4丁目277-1）,35.7534694,139.9670342,緯度経度は怪しい
千葉県,市川市,31,大柏出張所（南大野2丁目3-19）,大柏出張所（南大野2丁目3-19）,35.7451716,139.9531535,緯度経度は怪しい
千葉県,市川市,32,こざと北公園/北側（南大野2丁目6）,こざと北公園/北側（南大野2丁目6）,35.7457992,139.9525525,緯度経度は怪しい
千葉県,市川市,33,こざと北公園/南側（南大野2丁目6）,こざと北公園/南側（南大野2丁目6）,35.7457992,139.9525525,緯度経度は怪しい
千葉県,市川市,34,こざと南公園/南側（南大野2丁目5）,こざと南公園/南側（南大野2丁目5）,35.7445669,139.9517476,緯度経度は怪しい
千葉県,市川市,35,大野保育園（南大野2丁目4-5）,大野保育園（南大野2丁目4-5）,35.7428838,139.9530047,緯度経度は怪しい
千葉県,市川市,36,こぶし公園（南大野2丁目3）,こぶし公園（南大野2丁目3）,35.7451784,139.9550027,緯度経度は怪しい
千葉県,市川市,37,おおさき公園（南大野3丁目7）,おおさき公園（南大野3丁目7）,35.7475303,139.9570016,緯度経度は怪しい
千葉県,市川市,38,柏井第2公園（柏井町3丁目149）,柏井第2公園（柏井町3丁目149）,35.7490959,139.9606879,緯度経度は怪しい
千葉県,市川市,39,迎米公園（大野町2丁目541）,迎米公園（大野町2丁目541）,35.7517768,139.9507887,緯度経度は怪しい
千葉県,市川市,40,大野公園（大野町2丁目661）,大野公園（大野町2丁目661）,35.752367,139.9439438,緯度経度は怪しい
千葉県,市川市,41,庚塚公園（大野町2丁目598）,庚塚公園（大野町2丁目598）,35.754727,139.946395,緯度経度は怪しい
千葉県,市川市,42,大野第5駐輪場前/植栽（大野町2丁目271地先）,大野第5駐輪場前/植栽（大野町2丁目271地先）,35.7517768,139.9507887,緯度経度は怪しい
千葉県,市川市,43,大野緑地/Ysマート裏（大野町2丁目1876）,大野緑地/Ysマート裏（大野町2丁目1876）,35.7571422,139.9505772,緯度経度は怪しい
千葉県,市川市,44,大柏小学校（大野町2丁目1877地先）,大柏小学校（大野町2丁目1877地先）,35.7503767,139.9537309,緯度経度は怪しい
千葉県,市川市,45,大柏小学校下緑地（大野町2丁目112地先）,大柏小学校下緑地（大野町2丁目112地先）,35.7498556,139.9527816,緯度経度は怪しい
千葉県,市川市,46,大野小学校/西側（南大野1丁目42-1）,大野小学校/西側（南大野1丁目42-1）,35.742447,139.950649,緯度経度は怪しい
千葉県,市川市,47,大野小学校/北側（南大野1丁目42-1）,大野小学校/北側（南大野1丁目42-1）,35.742447,139.950649,緯度経度は怪しい
千葉県,市川市,48,姫宮団地入口/バス停脇大柏川欄干（南大野2丁目1）,姫宮団地入口/バス停脇大柏川欄干（南大野2丁目1）,35.7427613,139.9544741,緯度経度は怪しい
千葉県,市川市,49,市営住宅奉免団地/西側（奉免町262）,市営住宅奉免団地/西側（奉免町262）,35.7394919,139.9573449,緯度経度は怪しい
千葉県,市川市,50,市営住宅奉免団地/東側（奉免町262）,市営住宅奉免団地/東側（奉免町262）,35.7394919,139.9573449,緯度経度は怪しい
千葉県,市川市,51,セイコーインスツル㈱（大野町1丁目431）,セイコーインスツル㈱（大野町1丁目431）,35.7476894,139.9435342,緯度経度は怪しい
千葉県,市川市,52,下貝塚中学校/裏門（下貝塚3丁目13-1）,下貝塚中学校/裏門（下貝塚3丁目13-1）,35.7394393,139.9464327,緯度経度は怪しい
千葉県,市川市,53,下貝塚中学校/正門（下貝塚3丁目13-1）,下貝塚中学校/正門（下貝塚3丁目13-1）,35.7394393,139.9464327,緯度経度は怪しい
千葉県,市川市,54,東電下貝塚変電所（下貝塚3丁目21）,東電下貝塚変電所（下貝塚3丁目21）,35.7396909,139.9483543,緯度経度は怪しい
千葉県,市川市,55,下貝塚第2児童遊園地（下貝塚3丁目5）,下貝塚第2児童遊園地（下貝塚3丁目5）,35.7430938,139.9405347,
千葉県,市川市,56,市川クローバーハイツ石井（下貝塚1丁目11-2）,市川クローバーハイツ石井（下貝塚1丁目11-2）,35.7441928,139.9402744,緯度経度は怪しい
千葉県,市川市,57,大割橋先大柏川欄干（下貝塚3丁目35地先）,大割橋先大柏川欄干（下貝塚3丁目35地先）,35.738452,139.9515898,緯度経度は怪しい
千葉県,市川市,58,曽谷2丁目7-5 曽谷春日神社/西側,曽谷2丁目7-5 曽谷春日神社/西側,35.7455237,139.9356941,
千葉県,市川市,59,曽谷2丁目7-5曽谷春日神社/南側,曽谷2丁目7-5曽谷春日神社/南側,35.7455237,139.9356941,
千葉県,市川市,60,曽谷1丁目37市営住宅曽谷第二団地,曽谷1丁目37市営住宅曽谷第二団地,35.7443922,139.9335436,
千葉県,市川市,61,masked,masked,35.7446351,139.9329288,
千葉県,市川市,62,曽谷2丁目31-20市営住宅曽谷第三団地,曽谷2丁目31-20市営住宅曽谷第三団地,35.7487946,139.934543,
千葉県,市川市,63,曽谷2丁目1曽谷2丁目交差点自転車置場,曽谷2丁目1曽谷2丁目交差点自転車置場,35.7451515,139.9381317,
千葉県,市川市,64,曽谷3丁目17-8NTT東日本曽谷電話交換センタ,曽谷3丁目17-8NTT東日本曽谷電話交換センタ,35.7443911,139.9310033,
千葉県,市川市,65,稲越2丁目2-1国分高校/東側,稲越2丁目2-1国分高校/東側,35.7536508,139.9273994,
千葉県,市川市,66,稲越2丁目2-1国分高校/北側,稲越2丁目2-1国分高校/北側,35.7536508,139.9273994,
千葉県,市川市,67,稲越2丁目2-1国分高校/西側,稲越2丁目2-1国分高校/西側,35.7536508,139.9273994,
千葉県,市川市,68,稲越3丁目21-8稲越小学校/正門,稲越3丁目21-8稲越小学校/正門,35.7541659,139.9243175,
千葉県,市川市,69,稲越3丁目21-8稲越小学校/南側,稲越3丁目21-8稲越小学校/南側,35.7541659,139.9243175,
千葉県,市川市,70,稲越3丁目21-8稲越小学校/北側,稲越3丁目21-8稲越小学校/北側,35.7541659,139.9243175,
千葉県,市川市,71,稲越1丁目27稲越公園,稲越1丁目27稲越公園,35.7565221,139.9304376,
千葉県,市川市,72,曽谷7丁目18-1曽谷小学校/正門,曽谷7丁目18-1曽谷小学校/正門,35.7471909,139.9269702,
千葉県,市川市,73,曽谷7丁目18-1曽谷小学校/裏門,曽谷7丁目18-1曽谷小学校/裏門,35.7471909,139.9269702,
千葉県,市川市,74,曽谷7丁目28-15曽谷保育園,曽谷7丁目28-15曽谷保育園,35.7485012,139.9259178,
千葉県,市川市,75,曽谷5丁目20市営住宅曽谷第四団地,曽谷5丁目20市営住宅曽谷第四団地,35.7493599,139.9285206,
千葉県,市川市,76,曽谷5丁目16山王公園,曽谷5丁目16山王公園,35.7477061,139.9287027,
千葉県,市川市,77,曽谷3丁目38百合台公園/東側,曽谷3丁目38百合台公園/東側,35.7416262,139.9289509,
千葉県,市川市,78,曽谷6丁目25-5曽谷公民館,曽谷6丁目25-5曽谷公民館,35.7436902,139.927556,
千葉県,市川市,79,曽谷3丁目38百合台公園/西側,曽谷3丁目38百合台公園/西側,35.7416262,139.9289509,
千葉県,市川市,80,東国分3丁目5-1東国分中学校,東国分3丁目5-1東国分中学校,35.7489021,139.9230803,
千葉県,市川市,81,東国分2丁目4-1国分小学校/南側,東国分2丁目4-1国分小学校/南側,35.7405551,139.9156281,緯度経度は怪しい
千葉県,市川市,82,東国分2丁目4-1国分小学校/東側,東国分2丁目4-1国分小学校/東側,35.7405551,139.9156281,緯度経度は怪しい
千葉県,市川市,83,東国分1丁目1春木川排水機場,東国分1丁目1春木川排水機場,35.7384589,139.9245573,
千葉県,市川市,84,東国分1丁目2百合台橋脇樋干,東国分1丁目2百合台橋脇樋干,35.7386672,139.9211531,緯度経度は怪しい
千葉県,市川市,85,東国分1丁目1-1市川昴高校,東国分1丁目1-1市川昴高校,35.7399175,139.9234028,
千葉県,市川市,86,東国分3丁目4国分川調整池緑地/西側,東国分3丁目4国分川調整池緑地/西側,35.7514822,139.9217909,緯度経度は怪しい
千葉県,市川市,87,東国分3丁目4国分川調整池緑地/南側,東国分3丁目4国分川調整池緑地/南側,35.7514822,139.9217909,緯度経度は怪しい
千葉県,市川市,88,国分2丁目9石橋下公園/北側,国分2丁目9石橋下公園/北側,35.7407884,139.9164896,
千葉県,市川市,89,国分2丁目9石橋下公園/南側,国分2丁目9石橋下公園/南側,35.7407884,139.9164896,
千葉県,市川市,90,国分3丁目20地先宝珠院墓苑前,国分3丁目20地先宝珠院墓苑前,35.7439296,139.9163487,
千葉県,市川市,91,国分4丁目17国分尼寺跡公園,国分4丁目17国分尼寺跡公園,35.7466753,139.9129311,
千葉県,市川市,92,国分4丁目20-1和洋国府台女子中学校/国分キャンパス駐車場,国分4丁目20-1和洋国府台女子中学校/国分キャンパス駐車場,35.7485004,139.9136509,
千葉県,市川市,93,国分5丁目13日枝神社,国分5丁目13日枝神社,35.7453985,139.9185907,
千葉県,市川市,94,中国分1丁目22-1中国分小学校/南側,中国分1丁目22-1中国分小学校/南側,35.754286,139.9171394,
千葉県,市川市,95,中国分1丁目22-1中国分小学校/北側,中国分1丁目22-1中国分小学校/北側,35.754286,139.9171394,
千葉県,市川市,96,中国分1丁目22-1中国分小学校/西側,中国分1丁目22-1中国分小学校/西側,35.754286,139.9171394,
千葉県,市川市,97,中国分3丁目18-5住友金属鉱山㈱市川研究センター/南側,中国分3丁目18-5住友金属鉱山㈱市川研究センター/南側,35.7537115,139.9143415,
千葉県,市川市,98,中国分3丁目18-5住友金属鉱山㈱市川研究センター/北側,中国分3丁目18-5住友金属鉱山㈱市川研究センター/北側,35.7537115,139.9143415,
千葉県,市川市,99,中国分3丁目16-1国府台自動車学校,中国分3丁目16-1国府台自動車学校,35.752265,139.912574,
千葉県,市川市,100,中国分2丁目13-1中国分保育園,中国分2丁目13-1中国分保育園,35.7489113,139.9123195,
千葉県,市川市,101,中国分5丁目26地先雨水貯留施設,中国分5丁目26地先雨水貯留施設,35.7575151,139.9086625,
千葉県,市川市,102,中国分3丁目19中国分みずき公園,中国分3丁目19中国分みずき公園,35.7556439,139.9151011,
千葉県,市川市,103,堀之内2丁目26歴史博物館/駐車場,堀之内2丁目26歴史博物館/駐車場,35.7596076,139.9121002,
千葉県,市川市,104,堀之内3丁目12堀之内緑地公園,堀之内3丁目12堀之内緑地公園,35.7605239,139.911506,
千葉県,市川市,105,堀之内3丁目29八反割公園/西側,堀之内3丁目29八反割公園/西側,35.7639581,139.9113616,
千葉県,市川市,106,堀之内3丁目29八反割公園/東側,堀之内3丁目29八反割公園/東側,35.7639581,139.9113616,
千葉県,市川市,107,堀之内3丁目2堀之内公園/西側,堀之内3丁目2堀之内公園/西側,35.761683,139.9153405,
千葉県,市川市,108,堀之内3丁目2堀之内公園/東側,堀之内3丁目2堀之内公園/東側,35.761683,139.9153405,
千葉県,市川市,109,堀之内4丁目16堀之内調整池,堀之内4丁目16堀之内調整池,35.7605508,139.9157921,
千葉県,市川市,110,堀之内3丁目2堀之内公園/北側,堀之内3丁目2堀之内公園/北側,35.761683,139.9153405,
千葉県,市川市,111,北国分1丁目9いきいきセンター北国分前畑,北国分1丁目9いきいきセンター北国分前畑,35.7583745,139.9037591,
千葉県,市川市,112,北国分4丁目18北国分第1緑地,北国分4丁目18北国分第1緑地,35.7665389,139.9068357,
千葉県,市川市,113,北国分4丁目17北国分第2緑地,北国分4丁目17北国分第2緑地,35.7652372,139.9074648,
千葉県,市川市,114,北国分4丁目10北国分公園,北国分4丁目10北国分公園,35.762871,139.9078957,
千葉県,市川市,115,北国分2丁目27北国分2丁目公園/南側,北国分2丁目27北国分2丁目公園/南側,35.7618599,139.9062219,
千葉県,市川市,116,北国分3丁目9いなりざく公園,北国分3丁目9いなりざく公園,35.7605334,139.9076345,
千葉県,市川市,117,北国分1丁目1小塚山公園/フィールドアスレチック,北国分1丁目1小塚山公園/フィールドアスレチック,35.7564091,139.9063831,
千葉県,市川市,118,北国分2丁目27北国分2丁目公園/東側,北国分2丁目27北国分2丁目公園/東側,35.7618599,139.9062219,
千葉県,市川市,119,北国分2丁目32-5イリーゼ市川・別邸,北国分2丁目32-5イリーゼ市川・別邸,35.7635824,139.9067281,
千葉県,市川市,120,国府台5丁目25-4国府台小学校/正門,国府台5丁目25-4国府台小学校/正門,35.7535,139.902853,
千葉県,市川市,121,国府台5丁目25-4国府台小学校/裏門,国府台5丁目25-4国府台小学校/裏門,35.7535,139.902853,
千葉県,市川市,122,国府台5丁目8国府台児童公園/北側,国府台5丁目8国府台児童公園/北側,35.7491824,139.905121,
千葉県,市川市,123,国府台5丁目8国府台児童公園/南側,国府台5丁目8国府台児童公園/南側,35.7491824,139.905121,
千葉県,市川市,124,中国分4丁目27じゅん菜池緑地/西側,中国分4丁目27じゅん菜池緑地/西側,35.7510966,139.9060324,
千葉県,市川市,125,中国分4丁目27じゅん菜池緑地/南側,中国分4丁目27じゅん菜池緑地/南側,35.7510966,139.9060324,
千葉県,市川市,126,中国分4丁目27じゅん菜池緑地/東側,中国分4丁目27じゅん菜池緑地/東側,35.7510966,139.9060324,
千葉県,市川市,127,中国分4丁目27じゅん菜池緑地/北側,中国分4丁目27じゅん菜池緑地/北側,35.7510966,139.9060324,
千葉県,市川市,128,国府台2丁目7-1第一中学校,国府台2丁目7-1第一中学校,35.744691,139.901192,
千葉県,市川市,129,国府台2丁目4-1国府台高校,国府台2丁目4-1国府台高校,35.7450466,139.904272,
千葉県,市川市,130,国府台1丁目6-4スポーツセンター/入口,国府台1丁目6-4スポーツセンター/入口,35.7437249,139.9077255,緯度経度は怪しい
千葉県,市川市,131,国府台1丁目3-1千葉商科大学,国府台1丁目3-1千葉商科大学,35.7422013,139.9068601,
千葉県,市川市,132,国府台3丁目9里見公園,国府台3丁目9里見公園,35.7474928,139.8987472,
千葉県,市川市,133,国府台1丁目7-1国立国際医療研究センター国府台病院/北側,国府台1丁目7-1国立国際医療研究センター国府台病院/北側,35.7460777,139.9057484,
千葉県,市川市,134,国府台1丁目7-1国立国際医療研究センター国府台病院/バス停,国府台1丁目7-1国立国際医療研究センター国府台病院/バス停,35.7460777,139.9057484,
千葉県,市川市,135,国府台1丁目6国府台公園,国府台1丁目6国府台公園,35.7437265,139.9073218,
千葉県,市川市,136,国府台1丁目6-4スポーツセンター/南側,国府台1丁目6-4スポーツセンター/南側,35.7437249,139.9077255,緯度経度は怪しい
千葉県,市川市,137,真間4丁目1-1真間小学校/東側,真間4丁目1-1真間小学校/東側,35.7372826,139.9098334,
千葉県,市川市,138,真間4丁目1-1真間小学校/南側,真間4丁目1-1真間小学校/南側,35.7372826,139.9098334,
千葉県,市川市,139,真間4丁目1-1真間小学校/西側,真間4丁目1-1真間小学校/西側,35.7372826,139.9098334,
千葉県,市川市,140,真間4丁目6地先入江橋脇真間川欄干,真間4丁目6地先入江橋脇真間川欄干,35.737863,139.9083423,
千葉県,市川市,141,真間4丁目9-1真間山幼稚園,真間4丁目9-1真間山幼稚園,35.740422,139.906739,
千葉県,市川市,142,市川4丁目3地先井上医院前真間川欄干,市川4丁目3地先井上医院前真間川欄干,35.7382986,139.9039148,
千葉県,市川市,143,須和田2丁目34-1第二中学校,須和田2丁目34-1第二中学校,35.7390894,139.9139442,
千葉県,市川市,144,須和田2丁目34須和田公園/北側,須和田2丁目34須和田公園/北側,35.7391279,139.9128148,
千葉県,市川市,145,須和田2丁目34須和田公園/西側,須和田2丁目34須和田公園/西側,35.7391279,139.9128148,
千葉県,市川市,146,須和田2丁目34須和田公園/南側,須和田2丁目34須和田公園/南側,35.7391279,139.9128148,
千葉県,市川市,147,須和田2丁目5地先笹塚橋脇真間川欄干,須和田2丁目5地先笹塚橋脇真間川欄干,35.7361431,139.9141068,
千葉県,市川市,148,須和田2丁目22六所神社,須和田2丁目22六所神社,35.7365949,139.9170172,
千葉県,市川市,149,真間5丁目4ガーデンハイツ真間,真間5丁目4ガーデンハイツ真間,35.7416624,139.9128258,
千葉県,市川市,150,宮久保1丁目24地先須和田橋脇国分川欄干,宮久保1丁目24地先須和田橋脇国分川欄干,35.7370179,139.9261981,
千葉県,市川市,151,須和田1丁目8-10須和田排水機場,須和田1丁目8-10須和田排水機場,35.7357944,139.9232584,
千葉県,市川市,152,masked,masked,35.7352444,139.919952,
千葉県,市川市,153,須和田1丁目2地先府中橋脇真間川欄干,須和田1丁目2地先府中橋脇真間川欄干,35.735541,139.9165894,
千葉県,市川市,154,曽谷3丁目2-1第三中学校/正門,曽谷3丁目2-1第三中学校/正門,35.7402357,139.9327478,
千葉県,市川市,155,曽谷3丁目2-1第三中学校/北側,曽谷3丁目2-1第三中学校/北側,35.7402357,139.9327478,
千葉県,市川市,156,宮久保2丁目14塚の上公園,宮久保2丁目14塚の上公園,35.738797,139.9315351,
千葉県,市川市,157,宮久保1丁目19西ノ下公園,宮久保1丁目19西ノ下公園,35.7372362,139.9285711,
千葉県,市川市,158,宮久保1丁目4昭和学院小学校グランド,宮久保1丁目4昭和学院小学校グランド,35.7359019,139.930339,
千葉県,市川市,159,宮久保1丁目6-4宮久保排水機場,宮久保1丁目6-4宮久保排水機場,35.7362472,139.9290794,
千葉県,市川市,160,宮久保5丁目7-1宮久保小学校/北側,宮久保5丁目7-1宮久保小学校/北側,35.736611,139.9438279,
千葉県,市川市,161,宮久保5丁目7-1宮久保小学校/南側,宮久保5丁目7-1宮久保小学校/南側,35.736611,139.9438279,
千葉県,市川市,162,masked,masked,35.7333948,139.9419866,
千葉県,市川市,163,東菅野4丁目1-1市川学園第一グラウンド/南側,東菅野4丁目1-1市川学園第一グラウンド/南側,35.7311826,139.9383763,
千葉県,市川市,164,宮久保3丁目9宮久保公園,宮久保3丁目9宮久保公園,35.7343239,139.9352777,
千葉県,市川市,165,宮久保4丁目2白幡神社,宮久保4丁目2白幡神社,35.736776,139.9361551,
千葉県,市川市,166,宮久保4丁目5-1高圓寺,宮久保4丁目5-1高圓寺,35.737017,139.938545,
千葉県,市川市,167,東菅野4丁目1-1市川学園第一グラウンド/北側,東菅野4丁目1-1市川学園第一グラウンド/北側,35.7311826,139.9383763,
千葉県,市川市,168,東菅野4丁目31地先桜見橋脇大柏川欄干,東菅野4丁目31地先桜見橋脇大柏川欄干,35.7324263,139.9420567,
千葉県,市川市,169,本北方3丁目19-16東部公民館,本北方3丁目19-16東部公民館,35.7288361,139.9507141,
千葉県,市川市,170,本北方2丁目31子の神東公園北側,本北方2丁目31子の神東公園北側,35.7292786,139.9478541,
千葉県,市川市,171,本北方2丁目15子の神中央公園,本北方2丁目15子の神中央公園,35.7290472,139.9453318,
千葉県,市川市,172,本北方2丁目31子の神東公園南側,本北方2丁目31子の神東公園南側,35.7292786,139.9478541,
千葉県,市川市,173,本北方2丁目40-23本北方保育園,本北方2丁目40-23本北方保育園,35.7301548,139.9501382,
千葉県,市川市,174,北方町4丁目2171地先市川東高校正門前道路,北方町4丁目2171地先市川東高校正門前道路,35.7375974,139.9569932,
千葉県,市川市,175,北方町4丁目2191市川東高校/グラウンド前,北方町4丁目2191市川東高校/グラウンド前,35.7379547,139.9556598,
千葉県,市川市,176,北方町4丁目1444-55地先大柏川第一調整池緑地,北方町4丁目1444-55地先大柏川第一調整池緑地,35.7346331,139.9506019,
千葉県,市川市,177,北方町4丁目1356-1北方小学校南側,北方町4丁目1356-1北方小学校南側,35.7324707,139.945443,
千葉県,市川市,178,若宮3丁目54-10若宮小学校/南側,若宮3丁目54-10若宮小学校/南側,35.7269827,139.9521718,
千葉県,市川市,179,若宮3丁目54-10若宮小学校/東側,若宮3丁目54-10若宮小学校/東側,35.7269827,139.9521718,
千葉県,市川市,180,若宮3丁目54-10若宮小学校/北側,若宮3丁目54-10若宮小学校/北側,35.7269827,139.9521718,
千葉県,市川市,181,若宮3丁目58はなやつ公園,若宮3丁目58はなやつ公園,35.7288062,139.9542713,
千葉県,市川市,182,若宮3丁目20若宮児童公園,若宮3丁目20若宮児童公園,35.7244657,139.9532952,
千葉県,市川市,183,若宮3丁目7-6若宮保育園,若宮3丁目7-6若宮保育園,35.7242759,139.9517745,
千葉県,市川市,184,若宮2丁目15-8若宮公民館,若宮2丁目15-8若宮公民館,35.7225,139.9558333,
千葉県,市川市,185,若宮3丁目42中山競馬場有料駐車場,若宮3丁目42中山競馬場有料駐車場,35.7251681,139.9599188,緯度経度は怪しい
千葉県,市川市,186,若宮3丁目49中山競馬場若宮第1駐車場,若宮3丁目49中山競馬場若宮第1駐車場,35.7251681,139.9599188,緯度経度は怪しい
千葉県,市川市,187,中山2丁目11法華経寺駐車場,中山2丁目11法華経寺駐車場,35.7205854,139.9489973,
千葉県,市川市,188,中山4丁目18中山東公園,中山4丁目18中山東公園,35.7168559,139.9470214,
千葉県,市川市,189,中山3丁目8地先正中山清水寺前ガードレール,中山3丁目8地先正中山清水寺前ガードレール,35.7192989,139.9496671,
千葉県,市川市,190,masked,masked,35.7208253,139.9513804,
千葉県,市川市,191,若宮1丁目12若宮いずみ公園,若宮1丁目12若宮いずみ公園,35.719002,139.9521739,
千葉県,市川市,192,若宮2丁目25若宮八幡神社,若宮2丁目25若宮八幡神社,35.7200902,139.9551083,
千葉県,市川市,193,中山4丁目14-1中山窓口連絡所,中山4丁目14-1中山窓口連絡所,35.7172729,139.9459118,
千葉県,市川市,194,中山1丁目11-1第四中学校/北側,中山1丁目11-1第四中学校/北側,35.722064,139.945809,
千葉県,市川市,195,中山1丁目11-1第四中学校/入口,中山1丁目11-1第四中学校/入口,35.722064,139.945809,
千葉県,市川市,196,北方3丁目17子之神神社緑地保全地区,北方3丁目17子之神神社緑地保全地区,35.7251882,139.9447506,
千葉県,市川市,197,中山2丁目1-10法華経寺裏,中山2丁目1-10法華経寺裏,35.7209246,139.9494373,緯度経度は怪しい
千葉県,市川市,198,中山2丁目16中山公園,中山2丁目16中山公園,35.7229075,139.9498401,
千葉県,市川市,199,中山2丁目5竜王池,中山2丁目5竜王池,35.7203731,139.9471039,
千葉県,市川市,200,中山1丁目16-2東山魁夷記念館,中山1丁目16-2東山魁夷記念館,35.7228412,139.9464647,
千葉県,市川市,201,北方2丁目29北方第2公園,北方2丁目29北方第2公園,35.7254578,139.9407571,
千葉県,市川市,202,masked,masked,35.7250802,139.9427792,
千葉県,市川市,203,本北方1丁目42子の神西公園/東側,本北方1丁目42子の神西公園/東側,35.7265924,139.9431196,
千葉県,市川市,204,本北方1丁目42子の神西公園/西側,本北方1丁目42子の神西公園/西側,35.7265924,139.9431196,
千葉県,市川市,205,北方2丁目37北方ポンプ場,北方2丁目37北方ポンプ場,35.7271538,139.9386847,
千葉県,市川市,206,本北方2丁目3公団市川中山団地,本北方2丁目3公団市川中山団地,35.7313172,139.9434184,
千葉県,市川市,207,本北方2丁目1-10桜見橋南詰歩道ガードレール,本北方2丁目1-10桜見橋南詰歩道ガードレール,35.732045,139.94183,
千葉県,市川市,208,北方2丁目29-9アイリス幼稚園,北方2丁目29-9アイリス幼稚園,35.7257302,139.9411369,
千葉県,市川市,209,本北方1丁目4もときたかた第2公園,本北方1丁目4もときたかた第2公園,35.7295886,139.9403745,
千葉県,市川市,210,中山1丁目1-5中山小学校/入口,中山1丁目1-5中山小学校/入口,35.7216424,139.9438218,
千葉県,市川市,211,高石神5高石神公園/南側,高石神5高石神公園/南側,35.718156,139.9420589,
千葉県,市川市,212,鬼越1丁目26-18神明神社,鬼越1丁目26-18神明神社,35.7196882,139.9391875,
千葉県,市川市,213,北方1丁目12-1旧北方保育園,北方1丁目12-1旧北方保育園,35.722039,139.938151,
千葉県,市川市,214,北方1丁目8京成鬼越駅/北側,北方1丁目8京成鬼越駅/北側,35.720799,139.9368501,
千葉県,市川市,215,北方1丁目11-10市川税務署,北方1丁目11-10市川税務署,35.7214603,139.9382266,
千葉県,市川市,216,高石神5高石神公園/東側,高石神5高石神公園/東側,35.718156,139.9420589,
千葉県,市川市,217,鬼高2丁目13-5鬼高小学校/西側,鬼高2丁目13-5鬼高小学校/西側,35.7141736,139.9377293,
千葉県,市川市,218,鬼高2丁目13-5鬼高小学校/東側,鬼高2丁目13-5鬼高小学校/東側,35.7141736,139.9377293,
千葉県,市川市,219,鬼高2丁目12-23鬼高公民館,鬼高2丁目12-23鬼高公民館,35.7132311,139.9387958,
千葉県,市川市,220,鬼高1丁目1-4メディアパーク,鬼高1丁目1-4メディアパーク,35.7154911,139.931755,
千葉県,市川市,221,鬼高2丁目21大堤公園,鬼高2丁目21大堤公園,35.7143827,139.935889,
千葉県,市川市,222,鬼高2丁目9下総中山駐輪場,鬼高2丁目9下総中山駐輪場,35.7151616,139.9410243,
千葉県,市川市,223,高石神35NTT市川中山ビル,高石神35NTT市川中山ビル,35.7165737,139.942038,
千葉県,市川市,224,鬼高3丁目16-1第六中学校/西側,鬼高3丁目16-1第六中学校/西側,35.7111329,139.9356875,
千葉県,市川市,225,鬼高3丁目16-1第六中学校/東側,鬼高3丁目16-1第六中学校/東側,35.7111329,139.9356875,
千葉県,市川市,226,鬼高3丁目16-1第六中学校/南側,鬼高3丁目16-1第六中学校/南側,35.7111329,139.9356875,
千葉県,市川市,227,鬼高3丁目13鬼高公園,鬼高3丁目13鬼高公園,35.7102979,139.9374655,
千葉県,市川市,228,鬼高3丁目12鬼高東公園,鬼高3丁目12鬼高東公園,35.709328,139.9397471,
千葉県,市川市,229,鬼高3丁目23ゆりのき公園,鬼高3丁目23ゆりのき公園,35.7091189,139.9396718,緯度経度は怪しい
千葉県,市川市,230,鬼高4丁目7桂の木公園,鬼高4丁目7桂の木公園,35.7106691,139.9320779,
千葉県,市川市,231,南八幡2丁目20-1勤労福祉センター,南八幡2丁目20-1勤労福祉センター,35.7136337,139.9272993,
千葉県,市川市,232,南八幡2丁目21-2ライオンズマンション市川本八幡,南八幡2丁目21-2ライオンズマンション市川本八幡,35.7124021,139.9263578,
千葉県,市川市,233,南八幡2丁目23-1葛南工業用水道事務所/西側,南八幡2丁目23-1葛南工業用水道事務所/西側,35.7118175,139.9297168,
千葉県,市川市,234,南八幡2丁目23-1葛南工業用水道事務所/南側,南八幡2丁目23-1葛南工業用水道事務所/南側,35.7118175,139.9297168,
千葉県,市川市,235,南八幡2丁目15南八幡公園/東側,南八幡2丁目15南八幡公園/東側,35.7132003,139.9302448,
千葉県,市川市,236,東大和田1丁目2-10市役所分庁舎C棟,東大和田1丁目2-10市役所分庁舎C棟,35.714089,139.9268678,
千葉県,市川市,237,南八幡2丁目15南八幡公園/西側,南八幡2丁目15南八幡公園/西側,35.7132003,139.9302448,
千葉県,市川市,238,masked,masked,35.7178432,139.9291369,
千葉県,市川市,239,masked,masked,35.7178432,139.9291369,
千葉県,市川市,240,南八幡1丁目17公用車専用駐車場,南八幡1丁目17公用車専用駐車場,35.7166,139.9296455,
千葉県,市川市,241,南八幡3丁目23コスモス公園,南八幡3丁目23コスモス公園,35.7165899,139.9258043,
千葉県,市川市,242,南八幡3丁目15-1白菊幼稚園,南八幡3丁目15-1白菊幼稚園,35.7181895,139.9269705,
千葉県,市川市,243,南八幡3丁目9八幡児童公園/南側,南八幡3丁目9八幡児童公園/南側,35.7190981,139.9291176,
千葉県,市川市,244,南八幡3丁目1地先八幡第2駐輪場,南八幡3丁目1地先八幡第2駐輪場,35.7198368,139.9297173,
千葉県,市川市,245,大和田1丁目1-3大和田小学校/正門,大和田1丁目1-3大和田小学校/正門,35.7176706,139.9216368,
千葉県,市川市,246,大和田1丁目1-3大和田小学校/裏門,大和田1丁目1-3大和田小学校/裏門,35.7176706,139.9216368,
千葉県,市川市,247,南八幡5丁目20-3南八幡デイサービスセンター,南八幡5丁目20-3南八幡デイサービスセンター,35.7186654,139.9209684,
千葉県,市川市,248,南八幡5丁目1地先八幡第1駐輪場,南八幡5丁目1地先八幡第1駐輪場,35.7218473,139.9251866,
千葉県,市川市,249,南八幡4丁目1地先JR本八幡駅/南口,南八幡4丁目1地先JR本八幡駅/南口,35.7205183,139.9273193,
千葉県,市川市,250,南八幡4丁目18本八幡公園,南八幡4丁目18本八幡公園,35.7176761,139.924114,
千葉県,市川市,251,大和田1丁目15大和田公園,大和田1丁目15大和田公園,35.7143869,139.9177068,
千葉県,市川市,252,八幡1丁目1-1市役所第1庁舎,八幡1丁目1-1市役所第1庁舎,35.7217888,139.9310307,
千葉県,市川市,253,八幡2丁目17JR本八幡駅/北口,八幡2丁目17JR本八幡駅/北口,35.7217173,139.9274342,
千葉県,市川市,254,八幡4丁目5-7不二女子高校,八幡4丁目5-7不二女子高校,35.7247105,139.9292828,
千葉県,市川市,255,八幡4丁目2葛飾八幡宮参道,八幡4丁目2葛飾八幡宮参道,35.7241765,139.9311088,
千葉県,市川市,256,八幡5丁目19八幡東公園,八幡5丁目19八幡東公園,35.7257321,139.9369822,
千葉県,市川市,257,八幡5丁目1-10市川学園幼稚園,八幡5丁目1-10市川学園幼稚園,35.7230332,139.9318873,
千葉県,市川市,258,八幡1丁目18地先メディアロード,八幡1丁目18地先メディアロード,35.7199364,139.9310834,
千葉県,市川市,259,八幡5丁目9八方橋脇真間川欄干,八幡5丁目9八方橋脇真間川欄干,35.7235441,139.9365297,
千葉県,市川市,260,八幡5丁目8八幡5丁目大和橋公園,八幡5丁目8八幡5丁目大和橋公園,35.7219565,139.9357361,
千葉県,市川市,261,八幡3丁目24-1八幡小学校/北側,八幡3丁目24-1八幡小学校/北側,35.7256736,139.9278603,
千葉県,市川市,262,八幡3丁目24-1八幡小学校/南側,八幡3丁目24-1八幡小学校/南側,35.7256736,139.9278603,
千葉県,市川市,263,八幡3丁目20京成八幡駅/西側,八幡3丁目20京成八幡駅/西側,35.7253876,139.927059,
千葉県,市川市,264,東菅野1丁目12菅野児童公園,東菅野1丁目12菅野児童公園,35.7281507,139.9312812,
千葉県,市川市,265,菅野1丁目15白幡公園,菅野1丁目15白幡公園,35.7289066,139.9262931,
千葉県,市川市,266,八幡3丁目2京成八幡駅/北側,八幡3丁目2京成八幡駅/北側,35.7242673,139.9278267,
千葉県,市川市,267,八幡3丁目2京成八幡駅/南側,八幡3丁目2京成八幡駅/南側,35.7242673,139.9278267,
千葉県,市川市,268,八幡6丁目10-11冨貴島小学校/南側,八幡6丁目10-11冨貴島小学校/南側,35.7267421,139.9375556,
千葉県,市川市,269,八幡6丁目10-11冨貴島小学校/西側,八幡6丁目10-11冨貴島小学校/西側,35.7267421,139.9375556,
千葉県,市川市,270,八幡6丁目35桜見公園,八幡6丁目35桜見公園,35.7315987,139.9408906,
千葉県,市川市,271,東菅野3丁目12-18市営住宅東菅野団地,東菅野3丁目12-18市営住宅東菅野団地,35.7304626,139.9355742,
千葉県,市川市,272,八幡6丁目16地先慈眼橋脇真間川欄干,八幡6丁目16地先慈眼橋脇真間川欄干,35.7291299,139.9368501,
千葉県,市川市,273,八幡6-10-11地先冨貴島小学校脇ガードレール,八幡6-10-11地先冨貴島小学校脇ガードレール,35.7267421,139.9375556,
千葉県,市川市,274,八幡6丁目20冨貴島第2公園,八幡6丁目20冨貴島第2公園,35.7282022,139.938677,
千葉県,市川市,275,八幡6丁目13冨貴島公園,八幡6丁目13冨貴島公園,35.7277925,139.9355328,
千葉県,市川市,276,八幡6-20-18地先八幡排水機場脇ガードレール,八幡6-20-18地先八幡排水機場脇ガードレール,35.7276957,139.9382797,
千葉県,市川市,277,菅野5丁目10菅野5丁目公園,菅野5丁目10菅野5丁目公園,35.733849,139.9231544,
千葉県,市川市,278,東菅野2丁目17-1昭和学院,東菅野2丁目17-1昭和学院,35.733111,139.9304775,
千葉県,市川市,279,東菅野2丁目23終末処理場/南側,東菅野2丁目23終末処理場/南側,35.7356463,139.927803,
千葉県,市川市,280,東菅野2丁目23終末処理場/北側,東菅野2丁目23終末処理場/北側,35.7356463,139.927803,
千葉県,市川市,281,菅野5丁目3-1アルファコート菅野/クボタ独身寮/南側,菅野5丁目3-1アルファコート菅野/クボタ独身寮/南側,35.7336227,139.9247967,
千葉県,市川市,282,菅野5丁目3-1アルファコート菅野/クボタ独身寮/東側,菅野5丁目3-1アルファコート菅野/クボタ独身寮/東側,35.7336227,139.9247967,
千葉県,市川市,283,菅野4丁目12-16菅野保育園,菅野4丁目12-16菅野保育園,35.7329184,139.927163,
千葉県,市川市,284,新田1丁目3胡録神社,新田1丁目3胡録神社,35.7278688,139.9165307,
千葉県,市川市,285,平田2丁目23-12諏訪神社,平田2丁目23-12諏訪神社,35.7277434,139.9180002,
千葉県,市川市,286,菅野2丁目7京成菅野駅/北側,菅野2丁目7京成菅野駅/北側,35.7282163,139.9195717,
千葉県,市川市,287,平田2丁目1市川郵便局,平田2丁目1市川郵便局,35.7252076,139.9218713,
千葉県,市川市,288,菅野6丁目14-1菅野小学校,菅野6丁目14-1菅野小学校,35.7340561,139.9163155,
千葉県,市川市,289,菅野3丁目24-2菅野公民館,菅野3丁目24-2菅野公民館,35.732621,139.916941,
千葉県,市川市,290,菅野3丁目24-2菅野公民館広場/東側,菅野3丁目24-2菅野公民館広場/東側,35.732621,139.916941,
千葉県,市川市,291,菅野3丁目24-1国府台女子学院小学校/東側,菅野3丁目24-1国府台女子学院小学校/東側,35.7319615,139.9152793,
千葉県,市川市,292,菅野3丁目24-1国府台女子学院/北側,菅野3丁目24-1国府台女子学院/北側,35.7324781,139.916017,
千葉県,市川市,293,真間1丁目10京成市川真間駅/北側,真間1丁目10京成市川真間駅/北側,35.7314197,139.9115382,
千葉県,市川市,294,真間3丁目3旧・桜土手公園/中央付近,真間3丁目3旧・桜土手公園/中央付近,35.7352855,139.9134702,
千葉県,市川市,295,真間3丁目3旧・桜土手公園/川側,真間3丁目3旧・桜土手公園/川側,35.7352855,139.9134702,
千葉県,市川市,296,菅野6丁目19菅野西公園,菅野6丁目19菅野西公園,35.7353006,139.914878,
千葉県,市川市,297,市川1丁目19市川八幡神社,市川1丁目19市川八幡神社,35.7318595,139.9085669,
千葉県,市川市,298,市川1丁目2地先市川第4駐輪場,市川1丁目2地先市川第4駐輪場,35.7286909,139.9092188,
千葉県,市川市,299,市川1丁目7千葉銀行市川支店前/植栽,市川1丁目7千葉銀行市川支店前/植栽,35.730002,139.908275,
千葉県,市川市,300,真間2丁目6旧・手児奈橋公園,真間2丁目6旧・手児奈橋公園,35.7369118,139.9102153,
千葉県,市川市,301,市川1丁目27京成市川真間駅/南側,市川1丁目27京成市川真間駅/南側,35.7315228,139.9109843,
千葉県,市川市,302,真間2丁目17真間2丁目歩道/植栽,真間2丁目17真間2丁目歩道/植栽,35.7362123,139.9090628,
千葉県,市川市,303,市川1丁目12市川第6駐輪場,市川1丁目12市川第6駐輪場,35.730878,139.9073194,
千葉県,市川市,304,市川2丁目32-5市川小学校,市川2丁目32-5市川小学校,35.7320887,139.9053876,
千葉県,市川市,305,市川2丁目24あおぎり公園,市川2丁目24あおぎり公園,35.7326278,139.9038591,
千葉県,市川市,306,市川3丁目38地先新根本橋脇真間川欄干,市川3丁目38地先新根本橋脇真間川欄干,35.7374148,139.9057804,
千葉県,市川市,307,市川3丁目28地先根本橋脇 真間川欄干,市川3丁目28地先根本橋脇 真間川欄干,35.7376446,139.9032988,
千葉県,市川市,308,市川3丁目25京成国府台駅前,市川3丁目25京成国府台駅前,35.7361922,139.902178,
千葉県,市川市,309,市川南3丁目14山桜公園,市川南3丁目14山桜公園,35.7306961,139.9035163,
千葉県,市川市,310,市川南2丁目7-7こがね公園,市川南2丁目7-7こがね公園,35.73086, 139.90368,
千葉県,市川市,311,市川南3丁目14すずらん公園/西側,市川南3丁目14すずらん公園/西側,35.7297536,139.9049714,
千葉県,市川市,312,市川南3丁目14すずらん公園/東側,市川南3丁目14すずらん公園/東側,35.7297536,139.9049714,
千葉県,市川市,313,市川南3丁目6東電市川第二変電所,市川南3丁目6東電市川第二変電所,35.7297957,139.9032876,
千葉県,市川市,314,市川南3丁目1市川南第1公園,市川南3丁目1市川南第1公園,35.7289043,139.9045084,
千葉県,市川市,315,市川南4丁目2-11京葉住設(株)跡地,市川南4丁目2-11京葉住設(株)跡地,35.7258866,139.9029507,
千葉県,市川市,316,masked,masked,35.7284375,139.9017936,
千葉県,市川市,317,市川南3丁目9-7山崎製パン(株)本社市川寮,市川南3丁目9-7山崎製パン(株)本社市川寮,35.7292753,139.9033139,
千葉県,市川市,318,市川南4丁目1-15市川南保育園,市川南4丁目1-15市川南保育園,35.7269987,139.9026275,
千葉県,市川市,319,新田4丁目8-15宮田小学校/東側,新田4丁目8-15宮田小学校/東側,35.726849,139.909345,
千葉県,市川市,320,市川南1丁目10地先市川駅南口 ザ・タワーズイースト前駐輪場入口,市川南1丁目10地先市川駅南口 ザ・タワーズイースト前駐輪場入口,35.728843,139.9067956,
千葉県,市川市,321,市川南1丁目8-6市川南第2公園,市川南1丁目8-6市川南第2公園,35.7278911,139.9055937,
千葉県,市川市,322,新田2丁目29地先JR高架下鉄柵,新田2丁目29地先JR高架下鉄柵,35.7266013,139.9125055,
千葉県,市川市,323,新田4丁目4-12地先市川東バイク駐車場,新田4丁目4-12地先市川東バイク駐車場,35.7275958,139.9107241,
千葉県,市川市,324,新田4丁目12新田4丁目児童会館前児童遊園地,新田4丁目12新田4丁目児童会館前児童遊園地,35.726263,139.908476,
千葉県,市川市,325,大洲4丁目18-1大洲小学校/東側,大洲4丁目18-1大洲小学校/東側,35.723506,139.906917,
千葉県,市川市,326,大洲4丁目18-1大洲小学校/正門,大洲4丁目18-1大洲小学校/正門,35.723506,139.906917,
千葉県,市川市,327,大洲4丁目22北越コーポレーション/駐車場,大洲4丁目22北越コーポレーション/駐車場,35.7220036,139.9067411,
千葉県,市川市,328,市川南2丁目8京葉ガス工場跡地,市川南2丁目8京葉ガス工場跡地,35.725241,139.903699,
千葉県,市川市,329,新田4丁目18大洲北公園,新田4丁目18大洲北公園,35.7238006,139.9079325,
千葉県,市川市,330,市川南2丁目4すずかけ公園,市川南2丁目4すずかけ公園,35.7254702,139.9058551,
千葉県,市川市,331,大洲3丁目21-1北越コーポレーション/東側,大洲3丁目21-1北越コーポレーション/東側,35.7229916,139.9041793,
千葉県,市川市,332,大洲4丁目9大洲中学校/グラウンド,大洲4丁目9大洲中学校/グラウンド,35.7212441,139.9073462,
千葉県,市川市,333,大洲4丁目21-5大洲中学校/南側,大洲4丁目21-5大洲中学校/南側,35.7212441,139.9073462,
千葉県,市川市,334,大洲4丁目21-5大洲中学校/東側,大洲4丁目21-5大洲中学校/東側,35.7212441,139.9073462,
千葉県,市川市,335,新田3丁目14新田南公園/西側,新田3丁目14新田南公園/西側,35.7232459,139.913128,
千葉県,市川市,336,新田3丁目14新田南公園/北側,新田3丁目14新田南公園/北側,35.7232459,139.913128,
千葉県,市川市,337,大洲4丁目3-12大洲幼稚園,大洲4丁目3-12大洲幼稚園,35.7210268,139.9094301,
千葉県,市川市,338,平田3丁目28-1平田小学校/西側,平田3丁目28-1平田小学校/西側,35.724203,139.918108,
千葉県,市川市,339,平田3丁目28-1平田小学校/東側,平田3丁目28-1平田小学校/東側,35.724203,139.918108,
千葉県,市川市,340,平田3丁目10-10市川工業高校/南側,平田3丁目10-10市川工業高校/南側,35.7227172,139.9201507,
千葉県,市川市,341,平田3丁目10-10市川工業高校/東側,平田3丁目10-10市川工業高校/東側,35.7227172,139.9201507,
千葉県,市川市,342,平田3丁目5前耕地公園,平田3丁目5前耕地公園,35.7212236,139.9205103,
千葉県,市川市,343,平田1丁目17-10市営住宅平田団地,平田1丁目17-10市営住宅平田団地,35.7254421,139.9202499,
千葉県,市川市,344,新田2丁目7ひなぎく公園,新田2丁目7ひなぎく公園,35.7228588,139.9147843,
千葉県,市川市,345,大和田4丁目11-1鶴指小学校/西側,大和田4丁目11-1鶴指小学校/西側,35.717965,139.915703,
千葉県,市川市,346,大和田4丁目11-1鶴指小学校/東側,大和田4丁目11-1鶴指小学校/東側,35.717965,139.915703,
千葉県,市川市,347,大和田4丁目9-1第八中学校,大和田4丁目9-1第八中学校,35.719168,139.9149,
千葉県,市川市,348,大洲1丁目18大洲防災公園/南側,大洲1丁目18大洲防災公園/南側,35.7189169,139.9104944,
千葉県,市川市,349,大洲1丁目18大洲防災公園/西側,大洲1丁目18大洲防災公園/西側,35.7189169,139.9104944,
千葉県,市川市,350,大洲1丁目18大洲防災公園/東側,大洲1丁目18大洲防災公園/東側,35.7189169,139.9104944,
千葉県,市川市,351,大洲1丁目18大洲防災公園/北側,大洲1丁目18大洲防災公園/北側,35.7189169,139.9104944,
千葉県,市川市,352,大和田4丁目17大和田4丁目公園,大和田4丁目17大和田4丁目公園,35.7170236,139.914473,
千葉県,市川市,353,大洲2丁目3-8大洲保育園,大洲2丁目3-8大洲保育園,35.7160999,139.9117887,
千葉県,市川市,354,大和田5丁目2-10大和田5-2地先ガードレール,大和田5丁目2-10大和田5-2地先ガードレール,35.7142589,139.9149365,
千葉県,市川市,355,大洲2丁目10大洲稲荷神社児童遊園地,大洲2丁目10大洲稲荷神社児童遊園地,35.7171937,139.9089027,
千葉県,市川市,356,大和田5丁目10-3大和田5-10地先ガードレール,大和田5丁目10-3大和田5-10地先ガードレール,35.7147029,139.9142651,
千葉県,市川市,357,稲荷木1丁目14-1稲荷木小学校/正門,稲荷木1丁目14-1稲荷木小学校/正門,35.7115715,139.921765,
千葉県,市川市,358,稲荷木1丁目14-1稲荷木小学校/裏門,稲荷木1丁目14-1稲荷木小学校/裏門,35.7115715,139.921765,
千葉県,市川市,359,稲荷木3丁目2-6市営住宅稲荷木団地,稲荷木3丁目2-6市営住宅稲荷木団地,35.7093521,139.9209003,
千葉県,市川市,360,稲荷木2丁目4稲荷木2丁目公園,稲荷木2丁目4稲荷木2丁目公園,35.709248,139.9225102,
千葉県,市川市,361,稲荷木1丁目26-16稲荷木保育園,稲荷木1丁目26-16稲荷木保育園,35.7116578,139.9246469,
千葉県,市川市,362,大和田2丁目21市川大和田県営住宅,大和田2丁目21市川大和田県営住宅,35.7117498,139.9163434,
千葉県,市川市,363,大和田2丁目18-1秣川排水機場,大和田2丁目18-1秣川排水機場,35.7102959,139.9170862,
千葉県,市川市,364,稲荷木1丁目14-1稲荷木小学校/東側,稲荷木1丁目14-1稲荷木小学校/東側,35.7115715,139.921765,
千葉県,市川市,365,稲荷木1丁目2稲荷木第一公園,稲荷木1丁目2稲荷木第一公園,35.7132833,139.9209637,
千葉県,市川市,366,田尻4丁目12日枝神社,田尻4丁目12日枝神社,35.7034645,139.9330056,
千葉県,市川市,367,田尻4丁目9田尻第2少年広場,田尻4丁目9田尻第2少年広場,35.703146,139.936264,
千葉県,市川市,368,田尻4丁目9ひいらぎ公園,田尻4丁目9ひいらぎ公園,35.7038054,139.9365279,
千葉県,市川市,369,田尻5丁目24地先高谷広場,田尻5丁目24地先高谷広場,35.6987072,139.9362093,
千葉県,市川市,370,田尻3丁目9-15市川藤マンション,田尻3丁目9-15市川藤マンション,35.7062926,139.9396824,
千葉県,市川市,371,田尻3-11-15セブンイレブン原木中山店,田尻3-11-15セブンイレブン原木中山店,35.7047096,139.9391008,
千葉県,市川市,372,原木1丁目3-2原木中山ファミールハイツ2号館,原木1丁目3-2原木中山ファミールハイツ2号館,35.7063803,139.9460719,
千葉県,市川市,373,二俣1丁目9地先ぼたん公園先ガードレール,二俣1丁目9地先ぼたん公園先ガードレール,35.7053592,139.9499879,
千葉県,市川市,374,原木1丁目5-20プリマベーラA,原木1丁目5-20プリマベーラA,35.7066824,139.9446401,
千葉県,市川市,375,二俣1丁目5-1本郷排水機場/北側,二俣1丁目5-1本郷排水機場/北側,35.7066157,139.9476722,
千葉県,市川市,376,原木1丁目1地先北原木橋脇真間川欄干,原木1丁目1地先北原木橋脇真間川欄干,35.7078696,139.9455012,
千葉県,市川市,377,二俣678二俣小学校 北側,二俣678二俣小学校 北側,35.6969262,139.9566549,緯度経度は怪しい
千葉県,市川市,378,二俣678二俣小学校 西側,二俣678二俣小学校 西側,35.6969262,139.9566549,緯度経度は怪しい
千葉県,市川市,379,二俣717二俣新町駅第2駐輪場,二俣717二俣新町駅第2駐輪場,35.6910567,139.9580681,
千葉県,市川市,380,原木4丁目3みとめ公園,原木4丁目3みとめ公園,35.6982946,139.9503384,
千葉県,市川市,381,原木3丁目10-14原木第二排水機場,原木3丁目10-14原木第二排水機場,35.6998211,139.9502442,
千葉県,市川市,382,二俣2丁目8-19二俣竜神社,二俣2丁目8-19二俣竜神社,35.7036889,139.9558816,
千葉県,市川市,383,二俣470番地先二俣470番地先ガードレール,二俣470番地先二俣470番地先ガードレール,35.7004429,139.955069,
千葉県,市川市,384,二俣673-2番地先二俣673-2番地先ガードレール,二俣673-2番地先二俣673-2番地先ガードレール,35.697992,139.9559179,
千葉県,市川市,385,高谷1丁目8-2信篤市民体育館,高谷1丁目8-2信篤市民体育館,35.701709,139.942218,
千葉県,市川市,386,masked,masked,35.698683,139.9392501,
千葉県,市川市,387,高谷2丁目8信篤公園,高谷2丁目8信篤公園,35.6987913,139.9374278,
千葉県,市川市,388,原木1丁目8-1原木幼稚園 西側,原木1丁目8-1原木幼稚園 西側,35.7034814,139.9432742,
千葉県,市川市,389,原木1丁目8-1原木幼稚園 東側,原木1丁目8-1原木幼稚園 東側,35.7034814,139.9432742,
千葉県,市川市,390,masked,masked,35.7009506,139.9472036,
千葉県,市川市,391,原木2丁目16-1信篤小学校,原木2丁目16-1信篤小学校,35.6981545,139.9438835,
千葉県,市川市,392,原木3047原木西浜公園,原木3047原木西浜公園,35.6925905,139.9481184,緯度経度は怪しい
千葉県,市川市,393,masked,masked,35.6956945,139.9432362,
千葉県,市川市,394,妙典2丁目14-2妙典小学校 東側,妙典2丁目14-2妙典小学校 東側,35.6959705,139.9295562,
千葉県,市川市,395,妙典2丁目14-2妙典小学校 北側,妙典2丁目14-2妙典小学校 北側,35.6959705,139.9295562,
千葉県,市川市,396,妙典2丁目14-2妙典小学校 南側,妙典2丁目14-2妙典小学校 南側,35.6959705,139.9295562,
千葉県,市川市,397,妙典1丁目12元新田公園 北側,妙典1丁目12元新田公園 北側,35.698367,139.9252788,
千葉県,市川市,398,妙典1丁目12元新田公園 西側,妙典1丁目12元新田公園 西側,35.698367,139.9252788,
千葉県,市川市,399,妙典1丁目7地先行徳バイパス脇側道ガードレール,妙典1丁目7地先行徳バイパス脇側道ガードレール,35.6976939,139.924116,
千葉県,市川市,400,妙典6丁目1妙典公園 南側,妙典6丁目1妙典公園 南側,35.6945582,139.930457,
千葉県,市川市,401,妙典6丁目1妙典公園 東側,妙典6丁目1妙典公園 東側,35.6945582,139.930457,
千葉県,市川市,402,妙典3丁目25ひだまり公園 東側,妙典3丁目25ひだまり公園 東側,35.6943872,139.9276517,
千葉県,市川市,403,本行徳4寺町公園／東側,本行徳4寺町公園／東側,35.6956016,139.9224129,
千葉県,市川市,404,河原9新宿前公園,河原9新宿前公園,35.6984153,139.9219146,
千葉県,市川市,405,本行徳4寺町公園／北側,本行徳4寺町公園／北側,35.6956016,139.9224129,
千葉県,市川市,406,本塩7上道公園,本塩7上道公園,35.6908454,139.9217093,
千葉県,市川市,407,本塩17-13月島食品工業行徳寮,本塩17-13月島食品工業行徳寮,35.68989,139.9206346,
千葉県,市川市,408,本塩28三町畑公園東側,本塩28三町畑公園東側,35.6891317,139.9186245,
千葉県,市川市,409,本行徳33-1常夜灯公園／西側,本行徳33-1常夜灯公園／西側,35.6904624,139.9149875,
千葉県,市川市,410,本行徳12行徳児童公園,本行徳12行徳児童公園,35.694552,139.9177817,
千葉県,市川市,411,富浜1丁目1-40行徳小学校／西側,富浜1丁目1-40行徳小学校／西側,35.692538,139.923298,
千葉県,市川市,412,富浜1丁目1-40行徳小学校／行徳バイパス側,富浜1丁目1-40行徳小学校／行徳バイパス側,35.692538,139.923298,
千葉県,市川市,413,妙典3丁目6春日神社,妙典3丁目6春日神社,35.6955452,139.9241486,
千葉県,市川市,414,妙典3丁目25ひだまり公園／南側,妙典3丁目25ひだまり公園／南側,35.6943872,139.9276517,
千葉県,市川市,415,妙典4丁目4-1地先地下鉄妙典駅ロータリー,妙典4丁目4-1地先地下鉄妙典駅ロータリー,35.691971,139.9272392,
千葉県,市川市,416,富浜1丁目7白妙公園／東側,富浜1丁目7白妙公園／東側,35.6908515,139.9247976,
千葉県,市川市,417,富浜2丁目5-19行徳地域ふれあい館,富浜2丁目5-19行徳地域ふれあい館,35.6888436,139.9216945,
千葉県,市川市,418,富浜2丁目15すいせん公園,富浜2丁目15すいせん公園,35.6877173,139.9245487,
千葉県,市川市,419,富浜1丁目7白妙公園／北側,富浜1丁目7白妙公園／北側,35.6908515,139.9247976,
千葉県,市川市,420,妙典5丁目22-1妙典中学校／正門,妙典5丁目22-1妙典中学校／正門,35.688277,139.933352,
千葉県,市川市,421,妙典5丁目22-1妙典中学校／西側,妙典5丁目22-1妙典中学校／西側,35.688277,139.933352,
千葉県,市川市,422,妙典5丁目22-1妙典中学校／体育館入口,妙典5丁目22-1妙典中学校／体育館入口,35.688277,139.933352,
千葉県,市川市,423,妙典5丁目12小宮山公園／西側,妙典5丁目12小宮山公園／西側,35.6908369,139.9313512,
千葉県,市川市,424,妙典5丁目12小宮山公園／南側,妙典5丁目12小宮山公園／南側,35.6908369,139.9313512,
千葉県,市川市,425,塩焼1丁目14塩の花公園／西側,塩焼1丁目14塩の花公園／西側,35.6882111,139.928832,
千葉県,市川市,426,塩焼1丁目14塩の花公園／北側,塩焼1丁目14塩の花公園／北側,35.6882111,139.928832,
千葉県,市川市,427,妙典6丁目15小宮山第2公園／西側,妙典6丁目15小宮山第2公園／西側,35.6915954,139.9323283,
千葉県,市川市,428,下妙典861-5ぴあぱーく妙典,下妙典861-5ぴあぱーく妙典,35.6865889,139.9386123,
千葉県,市川市,429,塩焼5丁目9-8塩焼小学校/南側,塩焼5丁目9-8塩焼小学校/南側,35.6838887,139.9299862,
千葉県,市川市,430,塩焼5丁目9-8塩焼小学校/東側,塩焼5丁目9-8塩焼小学校/東側,35.6838887,139.9299862,
千葉県,市川市,431,塩焼5丁目9-1塩焼幼稚園,塩焼5丁目9-1塩焼幼稚園,35.6848623,139.9296818,
千葉県,市川市,432,塩焼5丁目6塩焼中央公園/西側,塩焼5丁目6塩焼中央公園/西側,35.6850486,139.92898,
千葉県,市川市,433,塩焼5丁目6塩焼中央公園/東側,塩焼5丁目6塩焼中央公園/東側,35.6850486,139.92898,
千葉県,市川市,434,塩焼4丁目10モッコク公園,塩焼4丁目10モッコク公園,35.6861553,139.9313432,
千葉県,市川市,435,塩焼4丁目4新場山公園,塩焼4丁目4新場山公園,35.6873982,139.9321033,
千葉県,市川市,436,塩焼4丁目2からたち公園,塩焼4丁目2からたち公園,35.6877533,139.9315977,
千葉県,市川市,437,塩焼5丁目6塩焼中央公園/北側,塩焼5丁目6塩焼中央公園/北側,35.6850486,139.92898,
千葉県,市川市,438,幸1丁目11-1幸小学校/正門,幸1丁目11-1幸小学校/正門,35.6813058,139.9298295,
千葉県,市川市,439,幸1丁目11-1幸小学校/裏門,幸1丁目11-1幸小学校/裏門,35.6813058,139.9298295,
千葉県,市川市,440,幸1丁目1幸中央公園,幸1丁目1幸中央公園,35.6825757,139.9293063,
千葉県,市川市,441,幸1丁目22幸1丁目児童遊園地,幸1丁目22幸1丁目児童遊園地,35.6796453,139.9294816,
千葉県,市川市,442,幸2丁目4行徳南部公園/北側,幸2丁目4行徳南部公園/北側,35.6788614,139.9283013,
千葉県,市川市,443,幸2丁目11やまもも公園,幸2丁目11やまもも公園,35.6786218,139.9253153,
千葉県,市川市,444,宝2丁目8八幡前公園,宝2丁目8八幡前公園,35.6808547,139.9240894,
千葉県,市川市,445,宝1丁目7下道公園,宝1丁目7下道公園,35.6831127,139.9269248,
千葉県,市川市,446,幸2丁目4行徳南部公園/南側,幸2丁目4行徳南部公園/南側,35.6788614,139.9283013,
千葉県,市川市,447,塩焼3丁目11-15塩焼第二保育園,塩焼3丁目11-15塩焼第二保育園,35.685353,139.924587,
千葉県,市川市,448,塩焼3丁目14みこし公園,塩焼3丁目14みこし公園,35.6850138,139.9243116,
千葉県,市川市,449,塩焼3丁目21-12東電塩焼変電所,塩焼3丁目21-12東電塩焼変電所,35.6833738,139.9250355,
千葉県,市川市,450,塩焼2丁目12浜道公園/西側,塩焼2丁目12浜道公園/西側,35.6867269,139.9271026,
千葉県,市川市,451,塩焼2丁目2-28塩焼保育園,塩焼2丁目2-28塩焼保育園,35.688291,139.9265,
千葉県,市川市,452,富浜3丁目10行徳中央公園/西側,富浜3丁目10行徳中央公園/西側,35.6871236,139.9219313,
千葉県,市川市,453,富浜3丁目10行徳中央公園/東側,富浜3丁目10行徳中央公園/東側,35.6871236,139.9219313,
千葉県,市川市,454,富浜3丁目10行徳中央公園/北側,富浜3丁目10行徳中央公園/北側,35.6871236,139.9219313,
千葉県,市川市,455,塩焼2丁目12浜道公園/東側,塩焼2丁目12浜道公園/東側,35.6867269,139.9271026,
千葉県,市川市,456,押切18押切公園／東側,押切18押切公園／東側,35.6862915,139.914977,
千葉県,市川市,457,本塩28三町畑公園／西側,本塩28三町畑公園／西側,35.6891317,139.9186245,
千葉県,市川市,458,関ヶ島8-10徳蔵寺,関ヶ島8-10徳蔵寺,35.6889441,139.9153371,
千葉県,市川市,459,masked,masked,35.6903686,139.9145272,
千葉県,市川市,460,関ヶ島12-16アゼリアマンション前歩道,関ヶ島12-16アゼリアマンション前歩道,35.6889828,139.9176194,
千葉県,市川市,461,伊勢宿3地先旧江戸川歩道,伊勢宿3地先旧江戸川歩道,35.689480, 139.913586,
千葉県,市川市,462,末広1丁目1-31行徳支所,末広1丁目1-31行徳支所,35.685886,139.9161034,
千葉県,市川市,463,末広1丁目1-48第七中学校,末広1丁目1-48第七中学校,35.6863911,139.9171498,
千葉県,市川市,464,行徳駅前1丁目18行徳第1駐輪場／北側,行徳駅前1丁目18行徳第1駐輪場／北側,35.6837602,139.9155653,
千葉県,市川市,465,行徳駅前1丁目18行徳第1駐輪場／南側,行徳駅前1丁目18行徳第1駐輪場／南側,35.6837602,139.9155653,
千葉県,市川市,466,行徳駅前1丁目15南根公園,行徳駅前1丁目15南根公園,35.6834026,139.9162606,
千葉県,市川市,467,行徳駅前3丁目4南沖公園／東側,行徳駅前3丁目4南沖公園／東側,35.6812415,139.9189963,
千葉県,市川市,468,末広2丁目6南場公園,末広2丁目6南場公園,35.6819668,139.9223829,
千葉県,市川市,469,末広1丁目4東沖公園,末広1丁目4東沖公園,35.685111,139.9184454,
千葉県,市川市,470,行徳駅前3丁目4南沖公園／北側,行徳駅前3丁目4南沖公園／北側,35.6812415,139.9189963,
千葉県,市川市,471,新浜1丁目26-1南新浜小学校／正門,新浜1丁目26-1南新浜小学校／正門,35.6745141,139.9164288,
千葉県,市川市,472,新浜1丁目4西浜公園,新浜1丁目4西浜公園,35.6763142,139.9176606,
千葉県,市川市,473,新浜1丁目9新浜1丁目（B）児童遊園地,新浜1丁目9新浜1丁目（B）児童遊園地,35.675565,139.915679,緯度経度は怪しい
千葉県,市川市,474,日之出22-1ソフトタウン行徳B棟公園,日之出22-1ソフトタウン行徳B棟公園,35.6749314,139.9235703,
千葉県,市川市,475,入船9東浜公園,入船9東浜公園,35.6784411,139.9212332,
千葉県,市川市,476,福栄4丁目14福栄公園,福栄4丁目14福栄公園,35.6741705,139.9141814,緯度経度は怪しい
千葉県,市川市,477,福栄4丁目21白鷺公園,福栄4丁目21白鷺公園,35.6699101,139.9148422,
千葉県,市川市,478,福栄4丁目29千鳥公園,福栄4丁目29千鳥公園,35.6677326,139.9144671,
千葉県,市川市,479,日之出2南浜公園,日之出2南浜公園,35.6781343,139.9240167,
千葉県,市川市,480,行徳駅前4丁目5-1新浜小学校,行徳駅前4丁目5-1新浜小学校,35.6800066,139.9162675,
千葉県,市川市,481,行徳駅前4丁目5-2新浜幼稚園及び新浜小学校南側,行徳駅前4丁目5-2新浜幼稚園及び新浜小学校南側,35.6797393,139.9169346,
千葉県,市川市,482,湊新田2丁目4駅前公園／南側,湊新田2丁目4駅前公園／南側,35.6793678,139.9134683,
千葉県,市川市,483,湊新田2丁目4駅前公園／東側,湊新田2丁目4駅前公園／東側,35.6793678,139.9134683,
千葉県,市川市,484,湊新田2丁目4駅前公園／北側,湊新田2丁目4駅前公園／北側,35.6793678,139.9134683,
千葉県,市川市,485,行徳駅前2丁目24行徳第2駐輪場／南側,行徳駅前2丁目24行徳第2駐輪場／南側,35.681681,139.9131709,
千葉県,市川市,486,行徳駅前2丁目24行徳第2駐輪場／北側,行徳駅前2丁目24行徳第2駐輪場／北側,35.681681,139.9131709,
千葉県,市川市,487,湊新田1丁目11胡録公園,湊新田1丁目11胡録公園,35.6812335,139.9093713,
千葉県,市川市,488,押切6-6押切自治会館,押切6-6押切自治会館,35.6856115,139.9123253,
千葉県,市川市,489,押切6押切稲荷神社,押切6押切稲荷神社,35.6857421,139.9121665,
千葉県,市川市,490,押切18押切公園/北側,押切18押切公園/北側,35.6862915,139.914977,
千葉県,市川市,491,押切18押切公園/西側,押切18押切公園/西側,35.6862915,139.914977,
千葉県,市川市,492,湊新田1丁目1-3ニューグランベール/北側,湊新田1丁目1-3ニューグランベール/北側,35.6828118,139.9095832,
千葉県,市川市,493,湊新田1丁目1-3ニューグランベール/南側,湊新田1丁目1-3ニューグランベール/南側,35.6828118,139.9095832,
千葉県,市川市,494,押切5押切ポンプ場,押切5押切ポンプ場,35.6869825,139.9111323,
千葉県,市川市,495,欠真間1丁目6-38南行徳小学校/西側,欠真間1丁目6-38南行徳小学校/西側,35.6805,139.90145,
千葉県,市川市,496,欠真間1丁目6-38南行徳小学校/南側,欠真間1丁目6-38南行徳小学校/南側,35.6805,139.90145,
千葉県,市川市,497,欠真間1丁目6-15南行徳幼稚園,欠真間1丁目6-15南行徳幼稚園,35.6795692,139.900824,
千葉県,市川市,498,香取1丁目5香取公園/北側,香取1丁目5香取公園/北側,35.6807759,139.9046671,
千葉県,市川市,499,香取1丁目5香取公園/南側,香取1丁目5香取公園/南側,35.6807759,139.9046671,
千葉県,市川市,500,香取1丁目5香取公園/東側,香取1丁目5香取公園/東側,35.6807759,139.9046671,
千葉県,市川市,501,香取2丁目19-1香取地域ふれあい館/北側,香取2丁目19-1香取地域ふれあい館/北側,35.679123,139.909988,
千葉県,市川市,502,香取2丁目19-1香取地域ふれあい館/南側,香取2丁目19-1香取地域ふれあい館/南側,35.679123,139.909988,
千葉県,市川市,503,福栄1丁目4桜場公園/東側,福栄1丁目4桜場公園/東側,35.6782686,139.9102057,
千葉県,市川市,504,福栄1丁目4桜場公園/西側,福栄1丁目4桜場公園/西側,35.6782686,139.9102057,
千葉県,市川市,505,福栄1丁目9-21朝日南市川マンション,福栄1丁目9-21朝日南市川マンション,35.677669,139.9086378,
千葉県,市川市,506,香取2丁目1-16行徳郵便局,香取2丁目1-16行徳郵便局,35.6805928,139.9069948,
千葉県,市川市,507,湊新田2丁目4駅前公園/西側,湊新田2丁目4駅前公園/西側,35.6793678,139.9134683,
千葉県,市川市,508,福栄3丁目4-1福栄中学校/正門,福栄3丁目4-1福栄中学校/正門,35.673895,139.910105,
千葉県,市川市,509,福栄3丁目4-1福栄中学校/南側,福栄3丁目4-1福栄中学校/南側,35.673895,139.910105,
千葉県,市川市,510,福栄3丁目4-1福栄中学校/北側,福栄3丁目4-1福栄中学校/北側,35.673895,139.910105,
千葉県,市川市,511,福栄3丁目5-1行徳グランドハイツ,福栄3丁目5-1行徳グランドハイツ,35.6748538,139.909263,
千葉県,市川市,512,福栄3丁目1行徳ハイライズ/公園,福栄3丁目1行徳ハイライズ/公園,35.675112,139.9106476,
千葉県,市川市,513,福栄2丁目14湊新田公園/南側,福栄2丁目14湊新田公園/南側,35.675977,139.9127089,
千葉県,市川市,514,福栄2丁目14湊新田公園/北側,福栄2丁目14湊新田公園/北側,35.675977,139.9127089,
千葉県,市川市,515,福栄3丁目9新浜公園/南側,福栄3丁目9新浜公園/南側,35.6726308,139.9107378,
千葉県,市川市,516,福栄3丁目9新浜公園/西側,福栄3丁目9新浜公園/西側,35.6726308,139.9107378,
千葉県,市川市,517,南行徳2丁目3-1富美浜小学校/正門,南行徳2丁目3-1富美浜小学校/正門,35.671571,139.905425,
千葉県,市川市,518,南行徳2丁目3-1富美浜小学校/裏門,南行徳2丁目3-1富美浜小学校/裏門,35.671571,139.905425,
千葉県,市川市,519,南行徳2丁目2-1福栄小学校,南行徳2丁目2-1福栄小学校,35.6718791,139.9070954,
千葉県,市川市,520,南行徳1丁目7御手浜公園,南行徳1丁目7御手浜公園,35.6731225,139.9055266,
千葉県,市川市,521,南行徳1丁目9地先南行徳第2駐輪場/南側,南行徳1丁目9地先南行徳第2駐輪場/南側,35.6740896,139.9039357,
千葉県,市川市,522,福栄1丁目20東場公園,福栄1丁目20東場公園,35.6752052,139.9066159,
千葉県,市川市,523,福栄4丁目32-2江戸川左岸流域下水道第二終末処理場,福栄4丁目32-2江戸川左岸流域下水道第二終末処理場,35.6695187,139.9097464,
千葉県,市川市,524,南行徳2丁目16満世公園,南行徳2丁目16満世公園,35.6695726,139.9044507,
千葉県,市川市,525,南行徳2丁目2-2南行徳中学校,南行徳2丁目2-2南行徳中学校,35.670988,139.906692,緯度経度は怪しい
千葉県,市川市,526,欠真間2丁目31-5富美浜地域ふれあい館,欠真間2丁目31-5富美浜地域ふれあい館,35.675406,139.9055,
千葉県,市川市,527,相之川4丁目18南行徳第2駐輪場/北側,相之川4丁目18南行徳第2駐輪場/北側,35.6740896,139.9039357,
千葉県,市川市,528,相之川4丁目7地下鉄南行徳駅/ロータリー,相之川4丁目7地下鉄南行徳駅/ロータリー,35.6725701,139.9015569,
千葉県,市川市,529,相之川4丁目1南行徳公園/南側,相之川4丁目1南行徳公園/南側,35.6751793,139.9017953,
千葉県,市川市,530,相之川4丁目1南行徳公園/北側,相之川4丁目1南行徳公園/北側,35.6751793,139.9017953,
千葉県,市川市,531,欠真間2丁目4欠真間公園/南側,欠真間2丁目4欠真間公園/南側,35.6780825,139.9061007,
千葉県,市川市,532,相之川4丁目1南行徳公園/西側,相之川4丁目1南行徳公園/西側,35.6751793,139.9017953,
千葉県,市川市,533,欠真間2丁目4欠真間公園/東側,欠真間2丁目4欠真間公園/東側,35.6780825,139.9061007,
千葉県,市川市,534,相之川1丁目3-7南行徳公民館,相之川1丁目3-7南行徳公民館,35.6802201,139.8991335,
千葉県,市川市,535,相之川1丁目2-19日枝神社,相之川1丁目2-19日枝神社,35.6811165,139.8997927,
千葉県,市川市,536,相之川1丁目5はこべ公園,相之川1丁目5はこべ公園,35.6813381,139.8984158,
千葉県,市川市,537,相之川1丁目7市営住宅相之川第二団地B棟,相之川1丁目7市営住宅相之川第二団地B棟,35.681178,139.8958543,
千葉県,市川市,538,相之川1丁目7相之川西公園,相之川1丁目7相之川西公園,35.6810654,139.8957496,
千葉県,市川市,539,相之川1丁目23市営住宅相之川第三団地,相之川1丁目23市営住宅相之川第三団地,35.6806028,139.8929729,
千葉県,市川市,540,相之川2丁目3相之川公園/北側,相之川2丁目3相之川公園/北側,35.6786964,139.898816,
千葉県,市川市,541,相之川2丁目3相之川公園/南側,相之川2丁目3相之川公園/南側,35.6786964,139.898816,
千葉県,市川市,542,相之川2丁目3相之川公園/東側,相之川2丁目3相之川公園/東側,35.6786964,139.898816,
千葉県,市川市,543,広尾2丁目3番2号広尾防災公園/西側,広尾2丁目3番2号広尾防災公園/西側,35.6786504,139.8900905,
千葉県,市川市,544,新井2丁目7蟹田公園/南側,新井2丁目7蟹田公園/南側,35.6772563,139.8946154,
千葉県,市川市,545,広尾1丁目11広尾公園/北側,広尾1丁目11広尾公園/北側,35.6773928,139.8916535,
千葉県,市川市,546,広尾1丁目11広尾公園/南側,広尾1丁目11広尾公園/南側,35.6773928,139.8916535,
千葉県,市川市,547,広尾1丁目14地先新井緑道,,,,削除
千葉県,市川市,548,広尾1丁目16地先新井緑道,広尾1丁目16地先新井緑道,35.675718,139.8900916,
千葉県,市川市,549,広尾2丁目3番2号広尾防災公園/東側,広尾2丁目3番2号広尾防災公園/東側,35.6786504,139.8900905,
千葉県,市川市,550,新井2丁目7蟹田公園/北側,新井2丁目7蟹田公園/北側,35.6772563,139.8946154,
千葉県,市川市,551,広尾2-9-21地先新井排水機場バス停留所,広尾2-9-21地先新井排水機場バス停留所,35.67628,139.886619,
千葉県,市川市,552,新井1丁目18-13新井小学校/南側,新井1丁目18-13新井小学校/南側,35.6742638,139.8905158,
千葉県,市川市,553,新井1丁目18-13新井小学校/北側,新井1丁目18-13新井小学校/北側,35.6742638,139.8905158,
千葉県,市川市,554,新井1丁目18-13新井小学校/東側,新井1丁目18-13新井小学校/東側,35.6742638,139.8905158,
千葉県,市川市,555,新井1丁目19地先新井緑道,新井1丁目19地先新井緑道,35.674808,139.8896113,
千葉県,市川市,556,新井1丁目11地先新井緑道,新井1丁目11地先新井緑道,35.675916,139.8914427,
千葉県,市川市,557,島尻1-44新井緑道,島尻1-44新井緑道,35.6745708,139.8883172,
千葉県,市川市,558,masked,masked,35.6719014,139.8874465,
千葉県,市川市,559,新井3丁目31-1新井地域ふれあい館/南側,新井3丁目31-1新井地域ふれあい館/南側,35.669751,139.898675,
千葉県,市川市,560,新井3丁目31-1新井地域ふれあい館/北側,新井3丁目31-1新井地域ふれあい館/北側,35.669751,139.898675,
千葉県,市川市,561,南行徳3丁目11中江川添公園/西側,南行徳3丁目11中江川添公園/西側,35.6684025,139.9033051,
千葉県,市川市,562,新井3丁目18北浜公園/東側,新井3丁目18北浜公園/東側,35.67271,139.8964146,
千葉県,市川市,563,新井3丁目15-10市川水道事務所葛南支所,新井3丁目15-10市川水道事務所葛南支所,35.673897,139.8976662,
千葉県,市川市,564,南行徳3丁目11中江川添公園/南側,南行徳3丁目11中江川添公園/南側,35.6684025,139.9033051,
千葉県,市川市,565,新井3丁目18北浜公園/西側,新井3丁目18北浜公園/西側,35.67271,139.8964146,
千葉県,市川市,566,南行徳3丁目11中江川添公園/東側,南行徳3丁目11中江川添公園/東側,35.6684025,139.9033051,
千葉県,市川市,567,新井3丁目18北浜公園/南側,新井3丁目18北浜公園/南側,35.67271,139.8964146,
千葉県,市川市,568,南行徳3丁目6南行徳ハイツA棟,南行徳3丁目6南行徳ハイツA棟,35.6678473,139.9040793,
千葉県,市川市,569,南行徳3丁目8南行徳ハイツC棟,南行徳3丁目8南行徳ハイツC棟,35.6671506,139.9035523,
千葉県,市川市,570,南行徳3丁目5やなぎ公園,南行徳3丁目5やなぎ公園,35.6672266,139.9048198,
千葉県,市川市,571,南行徳4丁目7東海面公園/南側,南行徳4丁目7東海面公園/南側,35.6652397,139.9071982,
千葉県,市川市,572,南行徳4丁目7東海面公園/西側,南行徳4丁目7東海面公園/西側,35.6652397,139.9071982,
千葉県,市川市,573,南行徳4丁目19あすなろ公園,南行徳4丁目19あすなろ公園,35.6637022,139.9070748,
千葉県,市川市,574,南行徳4丁目15なずな公園,南行徳4丁目15なずな公園,35.6648238,139.9047397,
千葉県,市川市,575,南行徳2丁目21-25地先ソコラ南行徳南脇ガードレール,南行徳2丁目21-25地先ソコラ南行徳南脇ガードレール,35.6685206,139.9058035,
千葉県,市川市,576,南行徳4丁目12-9地先南行徳4丁目12番地先ガードレール,南行徳4丁目12-9地先南行徳4丁目12番地先ガードレール,35.6654929,139.9040344,
千葉県,市川市,577,塩浜4丁目5-1塩浜学園,塩浜4丁目5-1塩浜学園,35.664582,139.9148148,
千葉県,市川市,578,塩浜4丁目4塩浜公園,塩浜4丁目4塩浜公園,35.6640805,139.9137348,
千葉県,市川市,579,塩浜4丁目1行徳高校,塩浜4丁目1行徳高校,35.665474,139.9134743,緯度経度は怪しい
千葉県,市川市,580,塩浜4丁目2ハイタウン塩浜9脇バス停前植込み,塩浜4丁目2ハイタウン塩浜9脇バス停前植込み,35.6631623,139.9118574,緯度経度は怪しい
千葉県,市川市,581,塩浜4丁目2塩浜中央公園/東側,塩浜4丁目2塩浜中央公園/東側,35.6621571,139.9115682,緯度経度は怪しい
千葉県,市川市,582,塩浜4丁目9-1塩浜市民体育館,塩浜4丁目9-1塩浜市民体育館,35.661033,139.914494,
千葉県,市川市,583,塩浜3丁目11地先JR市川塩浜駅/ロータリー,塩浜3丁目11地先JR市川塩浜駅/ロータリー,35.6658784,139.9224248,
千葉県,市川市,584,塩浜4丁目2塩浜中央公園/西側,塩浜4丁目2塩浜中央公園/西側,35.6621571,139.9115682,緯度経度は怪しい
千葉県,市川市,585,塩浜2丁目31市川塩浜三番瀬海浜公園,塩浜2丁目31市川塩浜三番瀬海浜公園,35.6637144,139.9254544,
