prefecture,city,number,address,name,lat,long,note
千葉県,市原市,1-1,姉崎小学校前|椎津461,姉崎小学校前,35.4730356,140.0403441,緯度経度は怪しい
千葉県,市原市,1-2,八坂神社前|椎津230-1,八坂神社前,35.4728388,140.0353796,緯度経度は怪しい
千葉県,市原市,1-3,姉崎運動広場|椎津1550,姉崎運動広場,35.46023539999999,140.0347506,緯度経度は怪しい
千葉県,市原市,1-4,椎津66,masked,35.4702352,140.0312124,緯度経度は怪しい
千葉県,市原市,1-5,姉崎保健福祉センター前|椎津1131,姉崎保健福祉センター前,35.4691388,140.0424151,緯度経度は怪しい
千葉県,市原市,1-6,姉ヶ崎幼稚園付近|椎津1599,姉ヶ崎幼稚園付近,35.461087,140.0330057,緯度経度は怪しい
千葉県,市原市,1-7,椎津保育所前|椎津1098-1,椎津保育所前,35.4682758,140.0405655,緯度経度は怪しい
千葉県,市原市,1-8,椎津第一公園|姉崎海岸132-1,椎津第一公園,35.4720446,140.0297775,緯度経度は怪しい
千葉県,市原市,2-1,姉ヶ崎駅西口ロータリー|姉崎,姉ヶ崎駅西口ロータリー,35.47949759999999,140.040751,緯度経度は怪しい
千葉県,市原市,2-2,姉ヶ崎駅東口ロータリー|姉崎,姉ヶ崎駅東口ロータリー,35.477116,140.0426333,緯度経度は怪しい
千葉県,市原市,2-3,姉崎東公園|姉崎東3丁目8,姉崎東公園,35.4769539,140.0403566,緯度経度は怪しい
千葉県,市原市,2-4,上町中央公民館斜め前|姉崎東2丁目3-1,上町中央公民館斜め前,35.4762277,140.0420507,緯度経度は怪しい
千葉県,市原市,2-5,砂子公園2|姉崎東2丁目12-1,砂子公園2,35.4742538,140.0429439,緯度経度は怪しい
千葉県,市原市,2-6,砂子公園1|姉崎東2丁目12-1,砂子公園1,35.4742538,140.0429439,緯度経度は怪しい
千葉県,市原市,2-7,姉崎駅西口3号公園|姉崎西2-6,姉崎駅西口3号公園,35.47949759999999,140.040751,緯度経度は怪しい
千葉県,市原市,3-1,みどりケ丘東公園|青葉台7丁目1-1,みどりケ丘東公園,35.4670846,140.0527148,緯度経度は怪しい
千葉県,市原市,3-2,みどりケ丘南公園|青葉台7丁目24,みどりケ丘南公園,35.4660287,140.0502145,緯度経度は怪しい
千葉県,市原市,3-3,みどりケ丘公園|青葉台6丁目18-4,みどりケ丘公園,35.4677351,140.0495123,緯度経度は怪しい
千葉県,市原市,3-4,姉崎学校給食共同調理場前|迎田41-1,姉崎学校給食共同調理場前,35.4668976,140.0440911,緯度経度は怪しい
千葉県,市原市,3-5,姉崎公民館前|姉崎2150-1,姉崎公民館前,35.4714406,140.0450772,緯度経度は怪しい
千葉県,市原市,3-6,姉崎中学校前|姉崎2156,姉崎中学校前,35.4709197,140.0482231,緯度経度は怪しい
千葉県,市原市,3-7,みどりケ丘北公園|青葉台6丁目23-1,みどりケ丘北公園,35.4682433,140.0492515,緯度経度は怪しい
千葉県,市原市,3-8,明神小学校入口バス停付近|姉崎2520,明神小学校入口バス停付近,35.4770734,140.0544435,緯度経度は怪しい
千葉県,市原市,3-9,青葉台南公園|青葉台8丁目2,青葉台南公園,35.4631909,140.0482464,緯度経度は怪しい
千葉県,市原市,4-1,阪和エコスチール前|姉崎海岸128-1,阪和エコスチール前,35.4788408,140.0368184,緯度経度は怪しい
千葉県,市原市,4-2,姉崎駅西口1号公園|姉崎西1丁目5-2,姉崎駅西口1号公園,35.4797889,140.0429446,緯度経度は怪しい
千葉県,市原市,4-3,姉崎郵便局|姉崎721,姉崎郵便局,35.4806942,140.0445456,緯度経度は怪しい
千葉県,市原市,4-4,姉崎公園|姉崎海岸23,姉崎公園,35.4896243,140.0437069,緯度経度は怪しい
千葉県,市原市,4-5,富士見自治会館|姉崎899,富士見自治会館,35.4844056,140.0444212,緯度経度は怪しい
千葉県,市原市,4-6,椎津第2公園|姉崎海岸125,椎津第2公園,35.4777531,140.0353791,緯度経度は怪しい
千葉県,市原市,4-7,セブンイレブン前|姉崎995-6,セブンイレブン前,35.4872242,140.0494634,緯度経度は怪しい
千葉県,市原市,4-8,姉崎979-1,masked,35.4866834,140.0480711,
千葉県,市原市,5-1,健寿司前|今津朝山177-5,健寿司前,35.4877512,140.0540464,緯度経度は怪しい
千葉県,市原市,5-2,鷲神社入口|今津朝山426-1,鷲神社入口,35.489814,140.0516419,緯度経度は怪しい
千葉県,市原市,5-3,白塚陸橋付近|白塚207,白塚陸橋付近,35.4900122,140.0593359,緯度経度は怪しい
千葉県,市原市,5-4,春日神社前|今津朝山540-1,春日神社前,35.49140939999999,140.0565565,緯度経度は怪しい
千葉県,市原市,5-5,今津朝山954-1,masked,35.4937863,140.0537792,
千葉県,市原市,5-6,今津公園|千種1丁目4,今津公園,35.495225,140.0528533,緯度経度は怪しい
千葉県,市原市,5-7,千種コミュニティセンター|千種2丁目1-2,千種コミュニティセンター,35.49381109999999,140.0582776,緯度経度は怪しい
千葉県,市原市,5-8,天王川原前公園|千種3丁目9,天王川原前公園,35.491722,140.059923,緯度経度は怪しい
千葉県,市原市,6-1,姉崎1523,masked,35.4834803,140.0530975,
千葉県,市原市,6-2,大学病院通り歩道|姉崎1655,大学病院通り歩道,35.4809704,140.0600268,緯度経度は怪しい
千葉県,市原市,6-3,姉崎1600,masked,35.4819135,140.056123,緯度経度は怪しい
千葉県,市原市,6-4,明神小学校東側フェンス|姉崎1850,明神小学校東側フェンス,35.478445,140.050462,緯度経度は怪しい
千葉県,市原市,6-5,市営姉崎住宅|姉崎1952,masked,35.4762035,140.0463022,緯度経度は怪しい
千葉県,市原市,6-6,明神小学校正門脇フェンス|姉崎1850,明神小学校正門脇フェンス,35.478445,140.050462,緯度経度は怪しい
千葉県,市原市,7-1,弁才天公園|青葉台1丁目3-1,弁才天公園,35.4735534,140.0594854,緯度経度は怪しい
千葉県,市原市,7-2,畑木春日神社前|畑木456,畑木春日神社前,35.4731855,140.0622629,緯度経度は怪しい
千葉県,市原市,7-3,君が作公園|青葉台5丁目1-4,君が作公園,35.4724629,140.0548101,緯度経度は怪しい
千葉県,市原市,7-4,青葉台自治会館横|青葉台2丁目24-9,青葉台自治会館横,35.46565580000001,140.0577217,緯度経度は怪しい
千葉県,市原市,7-5,青葉台中央公園|青葉台3丁目22-6,青葉台中央公園,35.4698668,140.05655,緯度経度は怪しい
千葉県,市原市,7-6,青葉台小学校裏|青葉台1丁目10-1,青葉台小学校裏,35.4709777,140.0600397,
千葉県,市原市,7-7,堀山公園|青葉台2丁目9-13,堀山公園,35.4681218,140.0591508,緯度経度は怪しい
千葉県,市原市,7-8,青葉台小学校正門懐|青葉台1丁目10-1,青葉台小学校正門懐,35.4709777,140.0600397,
千葉県,市原市,7-9,木戸ノ下公園|青葉台5丁目15-1,木戸ノ下公園,35.4688279,140.0536089,緯度経度は怪しい
千葉県,市原市,8-1,切替毛前|立野334,切替毛前,35.4449855,140.0916627,緯度経度は怪しい
千葉県,市原市,8-2,不動院前|豊成11,不動院前,35.4477104,140.0747932,緯度経度は怪しい
千葉県,市原市,8-3,有秋東小学校正門横|不入斗753,有秋東小学校正門横,35.454418,140.056714,緯度経度は怪しい
千葉県,市原市,8-4,有秋東小学校裏門横|不入斗753,有秋東小学校裏門横,35.454418,140.056714,緯度経度は怪しい
千葉県,市原市,8-5,有秋中央公園|有秋台東2丁目18,有秋中央公園,35.451889,140.0539747,緯度経度は怪しい
千葉県,市原市,8-6,不入斗三叉路|不入斗2-1,不入斗三叉路,35.4571377,140.0503649,緯度経度は怪しい
千葉県,市原市,8-7,泉台中央公園|泉台3-46,泉台中央公園,35.4514196,140.0704397,緯度経度は怪しい
千葉県,市原市,8-8,大宮神社前|迎田116,大宮神社前,35.4638431,140.0467199,緯度経度は怪しい
千葉県,市原市,8-9,泉台中央公園ゲートボール場上|泉台3-46,泉台中央公園ゲートボール場上,35.4514196,140.0704397,緯度経度は怪しい
千葉県,市原市,8-10,あさひが丘公園|不入斗614-10,あさひが丘公園,35.4475008,140.0572874,緯度経度は怪しい
千葉県,市原市,8-11,泉台1号緑地|泉台1-23,泉台1号緑地,35.4574729,140.0672295,
千葉県,市原市,9-1,有秋プラーザ前分離帯内|有秋台西1丁目8先,有秋プラーザ前分離帯内,35.4518309,140.0521064,
千葉県,市原市,9-2,有秋台ロータリー内|有秋台東3-4-1,有秋台ロータリー内,35.4467589,140.0549535,緯度経度は怪しい
千葉県,市原市,9-3,すこやか公園|深城873-65,すこやか公園,35.4369958,140.0727923,緯度経度は怪しい
千葉県,市原市,9-4,有秋公民館前|有秋台西1丁目3-2,有秋公民館前,35.4534979,140.0502466,
千葉県,市原市,9-5,有秋幼稚園前|有秋台西2丁目3,有秋幼稚園前,35.4476075,140.0512028,緯度経度は怪しい
千葉県,市原市,9-6,山谷青年館|椎津2453-4,山谷青年館,35.4489327,140.0485518,緯度経度は怪しい
千葉県,市原市,9-7,有秋西小学校正門前|有秋台西2丁目3,有秋西小学校正門前,35.4482185,140.0517483,緯度経度は怪しい
千葉県,市原市,9-8,有秋台東2丁目5番|有秋台東2丁目5番,有秋台東2丁目5番,35.4518687,140.0556765,
千葉県,市原市,10-1,桜台中央公園|桜台1丁目3-1,桜台中央公園,35.4440031,140.048874,
千葉県,市原市,10-2,池横フェンス前|桜台1丁目3-1,池横フェンス前,35.4425331,140.0494551,緯度経度は怪しい
千葉県,市原市,10-3,深城青年館前|深城175,深城青年館前,35.4395974,140.0545919,緯度経度は怪しい
千葉県,市原市,10-4,有秋南小学校前|桜台3丁目1番地1,有秋南小学校前,35.442842,140.050576,緯度経度は怪しい
千葉県,市原市,10-5,桜台自治会館前|桜台1丁目5-1,桜台自治会館前,35.4409865,140.0475262,緯度経度は怪しい
千葉県,市原市,10-6,わんぱく公園|桜台2丁目26番地1,わんぱく公園,35.4407905,140.0448991,緯度経度は怪しい
千葉県,市原市,10-7,天照大神宮|天羽田1265,天照大神宮,35.4295629,140.0491191,緯度経度は怪しい
千葉県,市原市,10-8,久留里街道歩道|天羽田851,久留里街道歩道,35.4272557,140.0470046,緯度経度は怪しい
千葉県,市原市,10-9,高石山公園|椎の木台1丁目31番地1,高石山公園,35.4450364,140.0412317,緯度経度は怪しい
千葉県,市原市,10-10,なかよし公園|桜台4丁目12番地1,なかよし公園,35.4398678,140.0522871,緯度経度は怪しい
千葉県,市原市,11-1,いちの膳前|八幡6-1,いちの膳前,35.534391,140.113473,緯度経度は怪しい
千葉県,市原市,11-2,上八幡公園|五所1994-6,上八幡公園,35.5356059,140.1134918,緯度経度は怪しい
千葉県,市原市,11-3,旧八幡宿駅西口自転車駐車場|八幡1059,旧八幡宿駅西口自転車駐車場,35.5368863,140.1196239,緯度経度は怪しい
千葉県,市原市,11-4,武道館前|八幡1272-3,市原市武道館前,35.5384593,140.1204755,緯度経度は怪しい
千葉県,市原市,11-5,個人宅裏|八幡1452,masked,35.5420533,140.1202222,緯度経度は怪しい
千葉県,市原市,11-6,八幡認定こども園前|八幡1050-1,八幡認定こども園前,35.536552,140.115703,緯度経度は怪しい
千葉県,市原市,12-1,日の出町バス停|五所96-2,日の出町バス停,35.5278427,140.1200823,緯度経度は怪しい
千葉県,市原市,12-2,国吉整骨院|八幡373,国吉整骨院,35.5323399,140.1182609,緯度経度は怪しい
千葉県,市原市,12-3,八幡公園3|八幡440,八幡公園3,35.5339713,140.1131612,緯度経度は怪しい
千葉県,市原市,12-4,八幡小学校前|八幡530,八幡小学校前,35.5336633,140.1211803,緯度経度は怪しい
千葉県,市原市,12-5,八幡東中学校|菊間428,八幡東中学校,35.5338539,140.1295948,緯度経度は怪しい
千葉県,市原市,12-6,八幡公園1|八幡440,八幡公園1,35.5333539,140.1134281,緯度経度は怪しい
千葉県,市原市,12-7,八幡公園2|八幡440,八幡公園2,35.5331822,140.1132223,緯度経度は怪しい
千葉県,市原市,13-1,トヨタカローラ前|八幡北町2丁目10,トヨタカローラ前,35.5433246,140.1232751,緯度経度は怪しい
千葉県,市原市,13-2,老川公園1|八幡北町2-9,老川公園1,35.543924,140.1229127,緯度経度は怪しい
千葉県,市原市,13-3,八幡つばき公園|八幡2058,八幡つばき公園,35.54333889999999,140.124874,緯度経度は怪しい
千葉県,市原市,13-4,五十谷公園|八幡北町3-3,五十谷公園,35.5471063,140.1230177,緯度経度は怪しい
千葉県,市原市,13-5,石塚公園1|八幡石塚2-6-1,石塚公園1,35.54322519999999,140.13012,緯度経度は怪しい
千葉県,市原市,13-6,笹日公園|八幡石塚1-11,笹日公園,35.5408593,140.1285875,緯度経度は怪しい
千葉県,市原市,13-7,石塚公園2|八幡石塚2-6-1,石塚公園2,35.54322519999999,140.13012,緯度経度は怪しい
千葉県,市原市,13-8,老川公園 2|八幡北町2-9,老川公園 2,35.543924,140.1229127,緯度経度は怪しい
千葉県,市原市,13-9,村田橋バス停|八幡2181-15,村田橋バス停,35.548835,140.126538,緯度経度は怪しい
千葉県,市原市,13-10,たかしまばし付近|八幡1950-1,たかしまばし付近,35.5361976,140.124088,緯度経度は怪しい
千葉県,市原市,13-11,石塚小学校|八幡石塚2丁目4,石塚小学校,35.5445748,140.130609,緯度経度は怪しい
千葉県,市原市,13-12,五千坪公園|八幡北町1丁目3,五千坪公園,35.5432669,140.1195397,緯度経度は怪しい
千葉県,市原市,14-1,神明公園1|八幡海岸通1964-7,神明公園1,35.5339261,140.1082815,緯度経度は怪しい
千葉県,市原市,14-2,神明公園2|八幡海岸通1964-7,神明公園2,35.5339261,140.1082815,緯度経度は怪しい
千葉県,市原市,14-3,イシグロ(株)横|八幡海岸通1963-10,イシグロ(株)横,35.5313184,140.1053738,緯度経度は怪しい
千葉県,市原市,14-4,ジョイフル本田付近|五所1738-2,ジョイフル本田付近,35.5280303,140.1068995,緯度経度は怪しい
千葉県,市原市,14-5,ボートピア市原|五所1966-1,ボートピア市原,35.5337777,140.1104755,緯度経度は怪しい
千葉県,市原市,14-6,消防小屋|五所1720-1,消防小屋,35.532186,140.1109729,緯度経度は怪しい
千葉県,市原市,15-1,四堀合公園|西五所4,四堀合公園,35.5245185,140.1106004,緯度経度は怪しい
千葉県,市原市,15-2,屋布公園|旭五所9-1,屋布公園,35.5293951,140.1167023,緯度経度は怪しい
千葉県,市原市,15-3,五所小学校前|五所2154-1,五所小学校前,35.5261023,140.1170856,緯度経度は怪しい
千葉県,市原市,15-4,大間田公園|東五所19,大間田公園,35.5276995,140.1135617,緯度経度は怪しい
千葉県,市原市,15-5,南畑公園|東五所22-1,南畑公園,35.5261612,140.1120376,緯度経度は怪しい
千葉県,市原市,15-6,白金小学校|君塚3丁目19,白金小学校,35.5242208,140.1079987,緯度経度は怪しい
千葉県,市原市,15-7,北畑公園|君塚4-17,北畑公園,35.525907,140.1055531,緯度経度は怪しい
千葉県,市原市,15-8,登公園|西五所32,登公園,35.5229706,140.1085509,緯度経度は怪しい
千葉県,市原市,15-9,谷の畑公園|西五所26,谷の畑公園,35.5245192,140.1105913,緯度経度は怪しい
千葉県,市原市,16-1,高呂塚公園前|若宮7-5,高呂塚公園前,35.5309357,140.1339124,緯度経度は怪しい
千葉県,市原市,16-2,あずま公園前|若宮5丁目16-6,あずま公園前,35.5290011,140.1372662,緯度経度は怪しい
千葉県,市原市,16-3,若宮4丁目12-7,masked,35.5257951,140.1377778,
千葉県,市原市,16-4,若宮小学校|若宮3丁目13,若宮小学校,35.52725,140.1352973,緯度経度は怪しい
千葉県,市原市,16-5,若宮中央公園1|若宮3-5,若宮中央公園1,35.52782759999999,140.1340624,緯度経度は怪しい
千葉県,市原市,16-6,若宮中央公園2|若宮3-5,若宮中央公園2,35.52782759999999,140.1340624,緯度経度は怪しい
千葉県,市原市,16-7,富士見公園|若宮2-12,富士見公園,35.526853,140.1296244,緯度経度は怪しい
千葉県,市原市,16-8,丁目掲示板前|若宮1丁目17-1,丁目掲示板前,35.3444849,140.179896,緯度経度は怪しい
千葉県,市原市,17-1,山木564-29,masked,35.5251362,140.1378763,
千葉県,市原市,17-2,ウェルシア前花壇|能満5-1,ウェルシア前花壇,35.5215719,140.1307331,緯度経度は怪しい
千葉県,市原市,17-3,山木火の見下バス停付近|山木695,山木火の見下バス停付近,35.5212255,140.1337604,緯度経度は怪しい
千葉県,市原市,17-4,山木会館|能満326番地2,山木会館,35.52126370000001,140.1367201,緯度経度は怪しい
千葉県,市原市,17-5,山木市営住宅前|山木52番地1,masked,35.5147043,140.142929,緯度経度は怪しい
千葉県,市原市,17-6,セブンイレブン隣|能満1861-1,セブンイレブン隣,35.5107681,140.1442807,緯度経度は怪しい
千葉県,市原市,17-7,白幡小学校|山木108,白幡小学校,35.5173841,140.1441183,緯度経度は怪しい
千葉県,市原市,18-1,長妙寺橋付近|古市場172-2,長妙寺橋付近,35.5431089,140.1448726,緯度経度は怪しい
千葉県,市原市,18-2,県富住宅前|菊間2082,masked,35.5420747,140.1453149,緯度経度は怪しい
千葉県,市原市,18-3,郵便局前|菊間2082,郵便局前,35.5420747,140.1453149,緯度経度は怪しい
千葉県,市原市,18-4,菊間小学校前|菊間1620-1,菊間小学校前,35.5371142,140.1510631,緯度経度は怪しい
千葉県,市原市,18-5,前畑公園|菊間998-30,前畑公園,35.5373815,140.1521404,緯度経度は怪しい
千葉県,市原市,18-6,県営住宅公園内|菊間998-24,masked,35.5392324,140.1510663,緯度経度は怪しい
千葉県,市原市,19-1,菊間2395-2,masked,35.5338439,140.1363507,
千葉県,市原市,19-2,若宮公民館前|菊間3265,若宮公民館前,35.5321422,140.1392215,緯度経度は怪しい
千葉県,市原市,19-3,千光院前|菊間2795,千光院前,35.5361685,140.1439537,緯度経度は怪しい
千葉県,市原市,19-4,菊間コミュニティ福祉センター|菊間1870-4,菊間コミュニティ福祉センター,35.5366679,140.148128,緯度経度は怪しい
千葉県,市原市,19-5,菊間中学校前|菊間1850,菊間中学校前,35.5346169,140.1469281,緯度経度は怪しい
千葉県,市原市,19-6,辰巳ノ原公園|大厩1821-1,辰巳ノ原公園,35.5292365,140.1477311,緯度経度は怪しい
千葉県,市原市,19-7,辰巳台西県営住宅遊園地|辰巳台西4-4,masked,35.526934,140.1479012,緯度経度は怪しい
千葉県,市原市,20-1,草刈686,masked,35.5351712,140.1587874,
千葉県,市原市,20-2,防火水槽前|草刈868,防火水槽前,35.5342261,140.1613499,緯度経度は怪しい
千葉県,市原市,20-3,草刈公民館|草刈964,草刈公民館,35.5316825,140.1643862,
千葉県,市原市,20-4,瓦窯通り新橋付近|草刈170-1,瓦窯通り新橋付近,35.5266319,140.1693197,緯度経度は怪しい
千葉県,市原市,20-5,中須賀公園|草刈209-26,中須賀公園,35.5262784,140.165993,緯度経度は怪しい
千葉県,市原市,20-6,草刈谷向集会所隣空地|草刈2156,草刈谷向集会所隣空地,35.5226118,140.1642912,緯度経度は怪しい
千葉県,市原市,21-1,郡本バス停横|那本2-144,郡本バス停横,35.5163531,140.1176606,緯度経度は怪しい
千葉県,市原市,21-2,市営住宅前|藤井3丁目210,masked,35.4978821,140.1148672,緯度経度は怪しい
千葉県,市原市,21-3,ゴミステーション横|藤井1-65,ゴミステーション横,35.5295147,140.1166953,緯度経度は怪しい
千葉県,市原市,21-4,稲荷台通り中央分離帯1|山田橋2-10,稲荷台通り中央分離帯1,35.5035457,140.1224811,緯度経度は怪しい
千葉県,市原市,21-5,市原学校給食センター|郡本1丁目4,市原学校給食センター,35.5126788,140.1164461,緯度経度は怪しい
千葉県,市原市,21-6,稲荷台通り中央分離帯2|山田橋2-10,稲荷台通り中央分離帯2,35.5035457,140.1224811,緯度経度は怪しい
千葉県,市原市,21-7,市原小学校正門脇|能満1320,市原小学校正門脇,35.4873085,140.1395172,緯度経度は怪しい
千葉県,市原市,21-8,市原小学校裏門脇|能満1320,市原小学校裏門脇,35.4873085,140.1395172,緯度経度は怪しい
千葉県,市原市,22-1,市原東第一公園|市原177-37,市原東第一公園,35.5213103,140.1290037,緯度経度は怪しい
千葉県,市原市,22-2,山木三差路|市原256-2,山木三差路,35.5235641,140.1264425,緯度経度は怪しい
千葉県,市原市,22-3,門前公園|門前1-149-1,門前公園,35.51707,140.1239257,緯度経度は怪しい
千葉県,市原市,22-4,玉泉幼稚園入口|門前2丁目220,玉泉幼稚園入口,35.51661259999999,140.1268256,緯度経度は怪しい
千葉県,市原市,22-5,玉泉幼稚園前|門前2丁目220,玉泉幼稚園前,35.51661259999999,140.1268256,緯度経度は怪しい
千葉県,市原市,22-6,野口医院付近|門前2-61,野口医院付近,35.5147982,140.1267678,緯度経度は怪しい
千葉県,市原市,23-1,能満652,畑,35.5115421,140.1337675,緯度経度は怪しい
千葉県,市原市,23-2,能満595-1,masked,35.5115421,140.1337675,緯度経度は怪しい
千葉県,市原市,23-3,能満1213-1,masked,35.5129376,140.1291393,
千葉県,市原市,23-4,ゴミステーション付近|能満1195-14,ゴミステーション付近,35.5119033,140.1294212,緯度経度は怪しい
千葉県,市原市,23-5,能満バス停横|能満1031-6,能満バス停横,35.511769,140.135679,緯度経度は怪しい
千葉県,市原市,24-1,老人ホーム前|能満2079-13,市原市老人ホーム前,35.4886016,140.1458858,緯度経度は怪しい
千葉県,市原市,24-2,能満分区公民館|能満2116番地95,能満分区公民館,35.4965274,140.1458124,緯度経度は怪しい
千葉県,市原市,24-3,市原緑高校校門前|能満1531,市原緑高校校門前,35.4959222,140.1365937,緯度経度は怪しい
千葉県,市原市,24-4,富士浅間神社入口|小田部485-1,富士浅間神社入口,35.4894357,140.1488737,緯度経度は怪しい
千葉県,市原市,24-5,能満墓園入口|能満1576-1,能満墓園入口,35.502473,140.136977,
千葉県,市原市,24-6,望洋高校バス停付近|能満1531,望洋高校バス停付近,35.498797,140.1345635,緯度経度は怪しい
千葉県,市原市,24-7,キッズダム第二駐車場前|山倉1479,キッズダム第二駐車場前,35.4901801,140.1354756,緯度経度は怪しい
千葉県,市原市,24-8,市原特別支援学校前|能満1519-5,市原特別支援学校前,35.4992575,140.1299422,緯度経度は怪しい
千葉県,市原市,25-1,県営辰巳台東団地裏手|辰巳台東2丁目9-5,県営辰巳台東団地裏手,35.5208039,140.1559816,緯度経度は怪しい
千葉県,市原市,25-2,労災病院下バス停前|辰巳台東2-9-4,労災病院下バス停前,35.5214542,140.1586457,緯度経度は怪しい
千葉県,市原市,25-3,辰巳中央公園1|辰巳台東1-5,辰巳中央公園1,35.518446,140.1546697,緯度経度は怪しい
千葉県,市原市,25-4,古河電工グラウンド前|辰巳台東2丁目12-10-20,古河電工グラウンド前,35.5192234,140.1579441,緯度経度は怪しい
千葉県,市原市,25-5,辰巳台中学校|辰巳台東2丁目2番地,辰巳台中学校,35.5210882,140.1548805,緯度経度は怪しい
千葉県,市原市,25-6,やすらぎ公園|辰巳台東1-9-77,やすらぎ公園,35.5206019,140.1524005,緯度経度は怪しい
千葉県,市原市,25-7,辰巳中央公園2|辰巳台東1-5,辰巳中央公園2,35.518446,140.1546697,緯度経度は怪しい
千葉県,市原市,26-1,辰巳みどり公園|辰巳東4-1-2,辰巳みどり公園,35.5127467,140.1500754,緯度経度は怪しい
千葉県,市原市,26-2,辰巳台東小学校正門横|辰巳台東4丁目13番地,辰巳台東小学校正門横,35.5137383,140.1536425,緯度経度は怪しい
千葉県,市原市,26-3,三井造船社宅前|辰巳台東4-15池先,masked,35.5167218,140.1536626,緯度経度は怪しい
千葉県,市原市,26-4,辰巳台東小学校前|辰巳台東4丁目13,辰巳台東小学校前,35.5137383,140.1536425,緯度経度は怪しい
千葉県,市原市,26-5,東4丁目バス停前|辰巳台東4-2-9,東4丁目バス停前,35.5119852,140.1517994,緯度経度は怪しい
千葉県,市原市,26-6,給水塔前|辰巳台東5-7-2,給水塔前,35.5167218,140.1536626,緯度経度は怪しい
千葉県,市原市,26-7,辰巳にれの木公園北側|辰巳台東3-1-5,辰巳にれの木公園北側,35.5180927,140.1482299,緯度経度は怪しい
千葉県,市原市,27-1,辰巳台公園|辰巳台西4-11-38,辰巳台公園,35.5249307,140.1460431,緯度経度は怪しい
千葉県,市原市,27-2,弁天公園|大原1200-34,弁天公園,35.51708989999999,140.0709733,緯度経度は怪しい
千葉県,市原市,27-3,辰巳西公園|辰巳台西2-20,辰巳西公園,35.5186117,140.1464588,緯度経度は怪しい
千葉県,市原市,27-4,辰巳三山公園1|辰巳台西5-10-1,辰巳三山公園1,35.5232348,140.1510808,緯度経度は怪しい
千葉県,市原市,27-5,第2団地集会所前|辰巳台西3-11-2,第2団地集会所前,35.5216159,140.1485181,緯度経度は怪しい
千葉県,市原市,27-6,辰巳三山公園2|辰巳台西5-10-1,辰巳三山公園2,35.5232348,140.1510808,緯度経度は怪しい
千葉県,市原市,27-7,辰巳弁天緑地|辰巳台西4-9-1,辰巳弁天緑地,35.5256632,140.1485267,緯度経度は怪しい
千葉県,市原市,27-8,県営住宅前|辰巳台西4丁目1-1,masked,35.526934,140.1479012,緯度経度は怪しい
千葉県,市原市,27-9,辰巳台西小学校前|辰巳台西4丁目16番地,辰巳台西小学校前,35.5241488,140.1484579,緯度経度は怪しい
千葉県,市原市,27-10,辰巳台ミニ運動広場|辰巳台西3-14-1,辰巳台ミニ運動広場,35.5216066,140.1485162,
千葉県,市原市,28-1,新田 ·下宿1号公園|五井中央西1-40,新田 ·下宿1号公園,35.5165169,140.0830299,緯度経度は怪しい
千葉県,市原市,28-2,五井駅西口ロータリー|五井中央西2丁目,五井駅西口ロータリー,35.5138521,140.0889682,緯度経度は怪しい
千葉県,市原市,28-3,第2五井踏切付近|五井,第2五井踏切付近,35.5152866,140.0799912,緯度経度は怪しい
千葉県,市原市,28-4,上中里公園1|五井中央西1-4,上中里公園1,35.5130113,140.0871876,緯度経度は怪しい
千葉県,市原市,28-5,上中里公園2|五井中央西1-4,上中里公園2,35.5130113,140.0871876,緯度経度は怪しい
千葉県,市原市,28-6,梨ノ木公園|五井中央西2-6,梨ノ木公園,35.5144057,140.0893883,緯度経度は怪しい
千葉県,市原市,28-7,新田·下宿2号公園|五井中央西1-104,新田·下宿2号公園,35.5130952,140.0846314,緯度経度は怪しい
千葉県,市原市,29-1,五井小学校正門|五井東1丁目6番地3,五井小学校正門,35.5141837,140.0947425,緯度経度は怪しい
千葉県,市原市,29-2,鎌田公園|五井東1-20,鎌田公園,35.51303290000001,140.0980049,緯度経度は怪しい
千葉県,市原市,29-3,五座日公園|五井3422-1,五座日公園,35.5050954,140.0998835,緯度経度は怪しい
千葉県,市原市,29-4,五井駅東口前|五井中央東2丁目,五井駅東口前,35.5128315,140.090003,緯度経度は怪しい
千葉県,市原市,29-5,平田634-11,緑地,35.5086601,140.0927671,
千葉県,市原市,29-6,権現堂公園|平田74-2,権現堂公園,35.5101651,140.0894447,緯度経度は怪しい
千葉県,市原市,29-7,五井小学校裏門|五井東1丁目6番地3,五井小学校裏門,35.5141837,140.0947425,緯度経度は怪しい
千葉県,市原市,29-8,平田市営住宅|平田981-2,masked,35.5056164,140.0914175,
千葉県,市原市,29-9,上総更級公園バスケットコート前|更級5-1-1,上総更級公園バスケットコート前,35.5107861,140.0987848,緯度経度は怪しい
千葉県,市原市,30-1,川岸公園|五井9096,川岸公園,35.529307,140.0832095,緯度経度は怪しい
千葉県,市原市,30-2,五井海岸市役所入口信号脇|岩崎268,五井海岸市役所入口信号脇,35.531925,140.0879583,緯度経度は怪しい
千葉県,市原市,30-3,川岸バス停そば|五井8937,川岸バス停そば,35.5312662,140.0849365,緯度経度は怪しい
千葉県,市原市,30-4,北五井緑道|五井東3-4435-1,北五井緑道,35.5164862,140.0990251,緯度経度は怪しい
千葉県,市原市,30-5,西公園緑道|五井東3-4435-1,西公園緑道,35.5164862,140.0990251,緯度経度は怪しい
千葉県,市原市,30-6,吹上公園|五井2533-92,吹上公園,35.5201217,140.0831505,緯度経度は怪しい
千葉県,市原市,30-7,椎の実公園|五井5800-1,椎の実公園,35.5253579,140.0909782,緯度経度は怪しい
千葉県,市原市,30-8,若葉中学校|五井5308番地,若葉中学校,35.5228767,140.0879141,緯度経度は怪しい
千葉県,市原市,30-9,若葉市営住宅内公園|五井5440-2,masked,35.5230609,140.0899118,緯度経度は怪しい
千葉県,市原市,30-10,五井公民館|五井5472-1,五井公民館,35.5208999,140.0899504,緯度経度は怪しい
千葉県,市原市,30-11,中田公園|五井6362-39,中田公園,35.5236942,140.087032,緯度経度は怪しい
千葉県,市原市,31-1,五井大橋土手下|五井2203-1,五井大橋土手下,35.5193843,140.0802514,緯度経度は怪しい
千葉県,市原市,31-2,五井中川田公園1|五井1661,五井中川田公園1,35.5091684,140.0826486,緯度経度は怪しい
千葉県,市原市,31-3,五井中川田公園2|五井1661,五井中川田公園2,35.5091684,140.0826486,緯度経度は怪しい
千葉県,市原市,31-4,五井中学校正門|五井922番地2,五井中学校正門,35.50903479999999,140.0781685,緯度経度は怪しい
千葉県,市原市,31-5,五井中学校裏門|五井922番地2,五井中学校裏門,35.50903479999999,140.0781685,緯度経度は怪しい
千葉県,市原市,31-6,新田 · 下宿6号公園|五井中央南1-38,新田 · 下宿6号公園,35.5143943,140.0811176,緯度経度は怪しい
千葉県,市原市,31-7,養老橋西側交差点付近|五井839-3,養老橋西側交差点付近,35.5121703,140.0750363,緯度経度は怪しい
千葉県,市原市,31-8,出津バス停|出津159,出津バス停,35.5102321,140.0741231,
千葉県,市原市,31-9,新田·下宿3号公園|五井中央南1-4,新田·下宿3号公園,35.510738,140.0856758,緯度経度は怪しい
千葉県,市原市,31-10,新田 · 下宿5号公園|五井中央南1-19,新田 · 下宿5号公園,35.5120245,140.0827901,緯度経度は怪しい
千葉県,市原市,32-1,卯の起公園向い|岩崎268,卯の起公園向い,35.5300829,140.0767734,緯度経度は怪しい
千葉県,市原市,32-2,岩崎北公園|岩崎2-7,岩崎北公園,35.5275905,140.0746149,緯度経度は怪しい
千葉県,市原市,32-3,出津米山公園|五井西2-17,出津米山公園,35.51497,140.0739036,緯度経度は怪しい
千葉県,市原市,32-4,玉前緑地公園|岩崎268,玉前緑地公園,35.5223153,140.0643785,
千葉県,市原市,32-5,出津一本松公園|五井西3-8,出津一本松公園,35.5180054,140.0750308,緯度経度は怪しい
千葉県,市原市,32-6,垂石塗装店東側|玉前86-4,垂石塗装店東側,35.5180296,140.0782049,緯度経度は怪しい
千葉県,市原市,32-7,出津弁天公園|五井西4-12,出津弁天公園,35.51708989999999,140.0709733,緯度経度は怪しい
千葉県,市原市,32-8,潮見通り玉前西1丁目|玉前西1-21,潮見通り玉前西1丁目,35.523666,140.0697982,緯度経度は怪しい
千葉県,市原市,32-9,五井大橋交差点付近|玉前212-1,五井大橋交差点付近,35.5196412,140.0783716,緯度経度は怪しい
千葉県,市原市,32-10,松ヶ島新田公園|五井西6-6,松ヶ島新田公園,35.5135236,140.0681151,緯度経度は怪しい
千葉県,市原市,32-11,京葉小学校裏門付近|五井西3丁目9-2,京葉小学校裏門付近,35.51873399999999,140.073776,緯度経度は怪しい
千葉県,市原市,32-12,京葉小学校正門付近|五井西3丁目9-2,京葉小学校正門付近,35.51873399999999,140.073776,緯度経度は怪しい
千葉県,市原市,33-1,村上駅前|村上1358-2,村上駅前,35.4964707,140.100275,緯度経度は怪しい
千葉県,市原市,33-2,本郷農家組合事務所|村上1383,本郷農家組合事務所,35.339017,140.1395164,緯度経度は怪しい
千葉県,市原市,33-3,村上交差点|村上1130,村上交差点,35.4960427,140.0952578,緯度経度は怪しい
千葉県,市原市,33-4,村上やすらぎ会館前|村上1420番地1,村上やすらぎ会館前,35.4942539,140.0982843,
千葉県,市原市,33-5,セブンイレブン前|村上2594-1,セブンイレブン前,35.4877765,140.0938013,緯度経度は怪しい
千葉県,市原市,33-6,·市原IC入口付近|村上815,·市原IC入口付近,35.4961467,140.0934829,緯度経度は怪しい
千葉県,市原市,33-7,市原IC付近ゴミステーション前|村上1007-2,市原IC付近ゴミステーション前,35.4961467,140.0934829,緯度経度は怪しい
千葉県,市原市,34-1,君塚中央公園|君塚3-1-1,君塚中央公園,35.522812,140.1037393,緯度経度は怪しい
千葉県,市原市,34-2,君塚陸橋|君塚3丁目,君塚陸橋,35.5229952,140.1067356,緯度経度は怪しい
千葉県,市原市,34-3,池田公園|君塚2-8,池田公園,35.5183337,140.1049976,緯度経度は怪しい
千葉県,市原市,34-4,苗代公園|君塚1-27,苗代公園,35.5211417,140.1020048,緯度経度は怪しい
千葉県,市原市,34-5,大宮公園|君塚4-3,大宮公園,35.5232151,140.1026324,緯度経度は怪しい
千葉県,市原市,34-6,後山公園|五井東3-40,後山公園,35.5185237,140.09917,緯度経度は怪しい
千葉県,市原市,34-7,西崎公園|君塚5-18,西崎公園,35.5216575,140.0982111,緯度経度は怪しい
千葉県,市原市,34-8,いずみ公園|君塚2-16,いずみ公園,35.5204573,140.1078282,緯度経度は怪しい
千葉県,市原市,35-1,潮見公園|五井金杉2-10,潮見公園,35.5257284,140.0945182,緯度経度は怪しい
千葉県,市原市,35-2,浜本公園|白金町3-35,浜本公園,35.5256201,140.1022236,緯度経度は怪しい
千葉県,市原市,35-3,西浜公園|君塚5-4-1,西浜公園,35.5231313,140.0971191,緯度経度は怪しい
千葉県,市原市,35-4,白金公園|白金町1-31,白金公園,35.5281471,140.1055956,
千葉県,市原市,35-5,金杉公園|白金町2-29,金杉公園,35.5291301,140.1031399,緯度経度は怪しい
千葉県,市原市,35-6,市原郵便局|白金町4-1,市原郵便局,35.527414,140.1025564,緯度経度は怪しい
千葉県,市原市,35-7,白旗公園|白金町6-12,白旗公園,35.5265643,140.0989544,緯度経度は怪しい
千葉県,市原市,36-1,上郷公民館前|海栄691,上郷公民館前,35.4723493,140.0795315,緯度経度は怪しい
千葉県,市原市,36-2,今富交差点付近|海保419-1,今富交差点付近,35.4749278,140.081138,緯度経度は怪しい
千葉県,市原市,36-3,中郷公民館前|市海保252-5,中郷公民館前,35.4742789,140.0731962,緯度経度は怪しい
千葉県,市原市,36-4,海保513,masked,35.4735809,140.0759997,
千葉県,市原市,36-5,房総十字園前|海保1084,房総十字園前,35.4610954,140.0770746,緯度経度は怪しい
千葉県,市原市,37-1,町田バス停付近|町田67-10,町田バス停付近,35.4826153,140.0839254,緯度経度は怪しい
千葉県,市原市,37-2,JA東海営農センター|甘五里493,JA市原市東海営農センター,35.487397,140.080162,緯度経度は怪しい
千葉県,市原市,37-3,東海小学校正門|廿五里558,東海小学校正門,35.487913,140.077324,緯度経度は怪しい
千葉県,市原市,37-4,野毛自動車付近|野毛71-1,野毛自動車付近,35.4914027,140.077485,
千葉県,市原市,37-5,東海小学校南入口|廿五里558,東海小学校南入口,35.487913,140.077324,緯度経度は怪しい
千葉県,市原市,37-6,中谷公民館前|海保1938,中谷公民館前,35.4806717,140.0708687,緯度経度は怪しい
千葉県,市原市,37-7,市道25号線ガードバイブ|海保1914,市道25号線ガードバイブ,35.4798046,140.0702899,緯度経度は怪しい
千葉県,市原市,38-1,第一飯沼踏切前十字路|飯沼333,第一飯沼踏切前十字路,35.5015001,140.0776259,緯度経度は怪しい
千葉県,市原市,38-2,子津児童遊園前|飯沼463番地2,子津児童遊園前,35.5034194,140.0791107,緯度経度は怪しい
千葉県,市原市,38-3,島野2104-1,masked,35.5037576,140.0708786,
千葉県,市原市,38-4,ローソン市原出津店付近|飯沼172,ローソン市原出津店付近,35.5059218,140.0748673,緯度経度は怪しい
千葉県,市原市,38-5,恵豊商事前|鳥野1241,恵豊商事前,35.495453,140.072593,緯度経度は怪しい
千葉県,市原市,38-6,七ツ町公民館前|島野1196-1,七ツ町公民館前,35.49569049999999,140.0715157,緯度経度は怪しい
千葉県,市原市,38-7,蒲田橋付近|島野569-5,蒲田橋付近,35.4932095,140.075645,緯度経度は怪しい
千葉県,市原市,39-1,千種中学校コメリ側|千種6丁目1番地1,千種中学校コメリ側,35.4955194,140.0583151,緯度経度は怪しい
千葉県,市原市,39-2,千種小学校裏門前|青柳1801番地,千種小学校裏門前,35.4989743,140.0585981,緯度経度は怪しい
千葉県,市原市,39-3,稲荷神社前|吉柳1119,稲荷神社前,35.4978821,140.1148672,
千葉県,市原市,39-4,千種郵便局前|青柳2077,千種郵便局前,35.4960339,140.0622945,緯度経度は怪しい
千葉県,市原市,39-5,千種中学校前|千種6丁目1番地1,千種中学校前,35.4966437,140.0594664,緯度経度は怪しい
千葉県,市原市,39-6,千種小学校前|青柳1801番地,千種小学校前,35.4989743,140.0585981,緯度経度は怪しい
千葉県,市原市,39-7,松ヶ島ふれあい公園|松ヶ島2-13,松ヶ島ふれあい公園,35.5088624,140.0632552,緯度経度は怪しい
千葉県,市原市,39-8,松ヶ島公民館前|松ヶ島202,松ヶ島公民館前,35.5081519,140.0688165,
千葉県,市原市,39-9,外輪戸公園|千種7-5,外輪戸公園,35.495558,140.0569339,緯度経度は怪しい
千葉県,市原市,39-10,前川橋際|青柳907,前川橋際,35.5011714,140.0637808,緯度経度は怪しい
千葉県,市原市,39-11,権現森公園|青柳2-4,権現森公園,35.5013959,140.0556212,緯度経度は怪しい
千葉県,市原市,40-1,国分寺台向山公園|西国分寺台1-11,国分寺台向山公園,35.5030132,140.111416,緯度経度は怪しい
千葉県,市原市,40-2,国分寺台堀込公園|加茂1-2,国分寺台堀込公園,35.5053714,140.1114475,緯度経度は怪しい
千葉県,市原市,40-3,国分寺台西小学校|西国分寺台2丁目11番地1,国分寺台西小学校,35.5053272,140.1131865,緯度経度は怪しい
千葉県,市原市,40-4,北五井線道1|五井東3-4435-1,北五井線道1,35.5164862,140.0990251,緯度経度は怪しい
千葉県,市原市,40-5,国分寺台向原公園|北国分寺台3-4,国分寺台向原公園,35.5095418,140.1155923,緯度経度は怪しい
千葉県,市原市,40-6,大堰|北国分寺台3-10-6,大堰,35.5102049,140.1178414,緯度経度は怪しい
千葉県,市原市,40-7,藤井2丁目5,masked,35.5089696,140.1200519,
千葉県,市原市,40-8,北五井緑道2|五井東3-4435-1,北五井緑道2,35.5200387,140.0953254,緯度経度は怪しい
千葉県,市原市,41-1,国分寺台加茂原公園|国分寺台中央7-2,国分寺台加茂原公園,35.4992342,140.11358,緯度経度は怪しい
千葉県,市原市,41-2,国分寺台土橋公園|国分寺台中央6-9,国分寺台土橋公園,35.5028732,140.1156314,緯度経度は怪しい
千葉県,市原市,41-3,国分寺台西中学校1|国分寺台中央5丁目1番地1,国分寺台西中学校1,35.503193,140.118103,緯度経度は怪しい
千葉県,市原市,41-4,国分寺台西中学校2|国分寺台中央5丁目1番地1,国分寺台西中学校2,35.503193,140.118103,緯度経度は怪しい
千葉県,市原市,41-5,国分寺台清水公園|国分寺台中央5-11,国分寺台清水公園,35.5042936,140.1193349,緯度経度は怪しい
千葉県,市原市,42-1,国分寺台祇園原公園1|東国分寺台1-3,国分寺台祇園原公園1,35.4957259,140.1190918,緯度経度は怪しい
千葉県,市原市,42-2,国分寺台祇園原公園2|東国分寺台1-3,国分寺台祇園原公園2,35.4957259,140.1190918,緯度経度は怪しい
千葉県,市原市,42-3,国分寺台東小学校1|東国分寺台5丁目1番地,国分寺台東小学校1,35.4961339,140.1209182,緯度経度は怪しい
千葉県,市原市,42-4,国分寺台東小学校2|東国分寺台5丁目1番地,国分寺台東小学校2,35.4961339,140.1209182,緯度経度は怪しい
千葉県,市原市,42-5,東国分寺台4丁目溜池1|東国分寺台4-8-1,東国分寺台4丁目溜池1,35.4915034,140.1243727,緯度経度は怪しい
千葉県,市原市,42-6,東国分寺台4丁目溜池2|東国分寺台4-8-1,東国分寺台4丁目溜池2,35.4915034,140.1243727,緯度経度は怪しい
千葉県,市原市,42-7,国分寺台本郷公園|山田橋1-2,国分寺台本郷公園,35.5001342,140.1228328,緯度経度は怪しい
千葉県,市原市,43-1,国分寺台中学校|南国分寺台2丁目1番地,国分寺台中学校,35.4926546,140.1121244,緯度経度は怪しい
千葉県,市原市,43-2,国分寺公民館|南国分寺台1丁目2-6,国分寺公民館,35.494863,140.115426,緯度経度は怪しい
千葉県,市原市,43-4,国分寺台持塚公園|西広5-4,国分寺台持塚公園,35.4906515,140.1219527,緯度経度は怪しい
千葉県,市原市,43-5,国分寺台さつき公園|西広6-8,国分寺台さつき公園,35.4876371,140.1239406,緯度経度は怪しい
千葉県,市原市,43-6,西広公民館前|西広3丁目2-25,西広公民館前,35.4878799,140.116642,緯度経度は怪しい
千葉県,市原市,43-7,国分寺台峰ノ下公園|西広2-4,国分寺台峰ノ下公園,35.4897133,140.1121881,緯度経度は怪しい
千葉県,市原市,44-1,国分寺台御林公園|根田3-5,国分寺台御林公園,35.5030408,140.1066795,緯度経度は怪しい
千葉県,市原市,44-2,国分寺台太子堂公園|惣社3-7,国分寺台太子堂公園,35.4996647,140.1093198,緯度経度は怪しい
千葉県,市原市,44-3,国分寺台南田公園|惣社5-5,国分寺台南田公園,35.4940134,140.109306,緯度経度は怪しい
千葉県,市原市,44-4,国分寺台神門公園|惣社5-8-1,国分寺台神門公園,35.4938437,140.1091448,緯度経度は怪しい
千葉県,市原市,44-5,惣社町会広場フェンス|惣社4丁目9-3,惣社町会広場フェンス,35.4965454,140.1081016,緯度経度は怪しい
千葉県,市原市,44-6,大堀工業所前|惣社93-1,大堀工業所前,35.4939672,140.1032187,緯度経度は怪しい
千葉県,市原市,44-7,役所|国分寺台中央1丁目1番地1,市原市役所,35.497971,140.1154896,
千葉県,市原市,44-8,老人福祉センター前|国分寺台中央1丁目1-23,老人福祉センター前,35.498254,140.117923,緯度経度は怪しい
千葉県,市原市,44-9,国分寺台中央公園1|国分寺台中央1-1-21,国分寺台中央公園1,35.4988255,140.1165728,
千葉県,市原市,44-10,国分寺台中央公園2|国分寺台中央1-1-21,国分寺台中央公園2,35.4988255,140.1165728,
千葉県,市原市,45-1,熊野神社|西野238,熊野神社,35.4830158,140.1044859,緯度経度は怪しい
千葉県,市原市,45-2,県道茂原五井線沿い|今富332-2,県道茂原五井線沿い,35.4785336,140.0906745,緯度経度は怪しい
千葉県,市原市,45-3,西野交差点付近|西野198,西野交差点付近,35.4818273,140.1055969,
千葉県,市原市,45-4,火の見やぐら横|十五沢234-5,火の見やぐら横,35.481291,140.0979383,緯度経度は怪しい
千葉県,市原市,45-5,東海中学校|今富477番地,東海中学校,35.481501,140.091072,緯度経度は怪しい
千葉県,市原市,45-6,今富児童遊園|今富743番地1,今富児童遊園,35.4736694,140.0886665,緯度経度は怪しい
千葉県,市原市,45-7,今富バス停向かい|今富701-3,今富バス停向かい,35.474094,140.0906129,緯度経度は怪しい
千葉県,市原市,46-1,憩の家付近|増124-1,市原市憩の家付近,35.4741119,140.1441377,緯度経度は怪しい
千葉県,市原市,46-2,山倉町会ゴミ置場前|山倉1119,山倉町会ゴミ置場前,35.4851027,140.1283948,緯度経度は怪しい
千葉県,市原市,46-3,海士有木駅前|海士有木1813,海士有木駅前,35.4816936,140.124096,緯度経度は怪しい
千葉県,市原市,46-4,三和ブラザ横|海士有木1696-1,三和ブラザ横,35.4792247,140.122151,緯度経度は怪しい
千葉県,市原市,46-5,海士公民館横|海士有木1699,海士公民館横,35.4782509,140.1237941,緯度経度は怪しい
千葉県,市原市,46-6,日たんぼ商店前|大坪263,日たんぼ商店前,35.4771668,140.1195686,緯度経度は怪しい
千葉県,市原市,46-7,八坂神社前|海士有木1573-3,八坂神社前,35.4773263,140.1281944,緯度経度は怪しい
千葉県,市原市,46-8,セブンイレブン前|福増757-1,セブンイレブン前,35.4772575,140.1312191,緯度経度は怪しい
千葉県,市原市,46-9,市西小学校法面|海士有木1130番地,市西小学校法面,35.4710235,140.1305999,緯度経度は怪しい
千葉県,市原市,47-1,鎌田宅横|相川104-3,masked,35.46673760000001,140.1181307,緯度経度は怪しい
千葉県,市原市,47-2,上総三又駅|海士有木276-1,上総三又駅,35.4660306,140.1267618,緯度経度は怪しい
千葉県,市原市,47-3,三和コミュニティセンター|海士有木235-1,三和コミュニティセンター,35.4647974,140.1250404,緯度経度は怪しい
千葉県,市原市,47-4,三和中学校正門付近|磯ヶ谷1703,三和中学校正門付近,35.460281,140.1297526,緯度経度は怪しい
千葉県,市原市,48-1,ムツミヘルパーステーション付近|山田570,ムツミヘルパーステーション付近,35.4768455,140.041414,緯度経度は怪しい
千葉県,市原市,48-2,山田駅前|磯ヶ谷2079,山田駅前,35.4540273,140.1264783,緯度経度は怪しい
千葉県,市原市,48-3,松崎公園|松崎628-1,松崎公園,35.4446849,140.1408023,緯度経度は怪しい
千葉県,市原市,48-4,磯ヶ谷市営住宅前|磯ヶ谷1860-6,masked,35.4545714,140.1395164,緯度経度は怪しい
千葉県,市原市,48-5,養老小学校前|松崎820番地,養老小学校前,35.4482977,140.1349359,緯度経度は怪しい
千葉県,市原市,48-6,二日市場消防小屋前|二日市場548,二日市場消防小屋前,35.4455413,140.1216174,
千葉県,市原市,48-7,土宇児童遊園前|土宇1480番地1,土宇児童遊園前,35.4375465,140.1328096,緯度経度は怪しい
千葉県,市原市,48-8,楓狭神社付近|橿狭143,楓狭神社付近,35.5078887,140.1339895,緯度経度は怪しい
千葉県,市原市,48-9,三和運動広場入口|磯ヶ谷1606,三和運動広場入口,35.4598295,140.1320156,緯度経度は怪しい
千葉県,市原市,49-1,武士消防器具置場|武士159,武士消防器具置場,35.4621669,140.1452363,緯度経度は怪しい
千葉県,市原市,49-2,ゲートボール場|新堀1281-1,ゲートボール場,35.4630873,140.1408829,緯度経度は怪しい
千葉県,市原市,49-3,農免道路新堀|新堀750,農免道路新堀,35.4654035,140.1361001,緯度経度は怪しい
千葉県,市原市,49-4,新堀公民館前|新堀215-1,新堀公民館前,35.4632412,140.1383511,緯度経度は怪しい
千葉県,市原市,50-1,大桶集荷場前|大桶482,大桶集荷場前,35.4496025,140.1647043,緯度経度は怪しい
千葉県,市原市,50-2,大楠271,masked,35.4978821,140.1148672,緯度経度は怪しい
千葉県,市原市,50-3,川在農村協同館前|川在490,川在農村協同館前,35.4348807,140.1619424,緯度経度は怪しい
千葉県,市原市,50-4,CPGカントリー前|川在974,CPGカントリー前,35.44136,140.154417,緯度経度は怪しい
千葉県,市原市,50-5,川在市原茂原線沿い|川在1172-2,川在市原茂原線沿い,35.4349649,140.1600938,緯度経度は怪しい
千葉県,市原市,50-6,新巻公民館付近|新巻35-2,新巻公民館付近,35.4320415,140.166395,緯度経度は怪しい
千葉県,市原市,50-7,新巻522-1,masked,35.4297773,140.170385,緯度経度は怪しい
千葉県,市原市,51-1,満蔵院前|権現堂24-1,満蔵院前,35.478944,140.1085236,緯度経度は怪しい
千葉県,市原市,51-2,新生祐巌寺|新生539,新生祐巌寺,35.4735331,140.110402,緯度経度は怪しい
千葉県,市原市,51-3,分目自治会館前|分目22-1,分目自治会館前,35.470783,140.104588,
千葉県,市原市,51-4,浅井橋付近|浅井小向125,浅井橋付近,35.46744,140.1143015,緯度経度は怪しい
千葉県,市原市,51-5,安須町会入口|安須714,安須町会入口,35.455155,140.1151583,緯度経度は怪しい
千葉県,市原市,51-6,海上小学校前|神代125番地,海上小学校前,35.4698038,140.0984111,緯度経度は怪しい
千葉県,市原市,51-7,神代公民館前|神代314-1,神代公民館前,35.4677426,140.0960034,
千葉県,市原市,51-8,宮原区民会館前|宮原432,宮原区民会館前,35.4729928,140.0939379,緯度経度は怪しい
千葉県,市原市,52-1,丁目平山公園|光風台4-545,丁目平山公園,35.4448958,140.099591,緯度経度は怪しい
千葉県,市原市,52-2,4 丁目南桜谷公園|光風台4-337,4 丁目南桜谷公園,35.4484093,140.1015507,緯度経度は怪しい
千葉県,市原市,52-3,5丁目大堀台公園|光風台5-158,5丁目大堀台公園,35.4513074,140.105029,緯度経度は怪しい
千葉県,市原市,52-4,光風台小学校正門横|光風台4丁目546番地,光風台小学校正門横,35.4458021,140.0980986,緯度経度は怪しい
千葉県,市原市,52-5,立野通り風戸入口|中高根1335-6,立野通り風戸入口,35.4343084,140.0922153,緯度経度は怪しい
千葉県,市原市,52-6,市原ニュータウン入口|中高根1371-2,市原ニュータウン入口,35.4288409,140.0939455,緯度経度は怪しい
千葉県,市原市,52-7,北桜谷公園|光風台5-410,北桜谷公園,35.450363,140.1035459,緯度経度は怪しい
千葉県,市原市,53-1,丁目米ノ沢公園|光風台3-366,丁目米ノ沢公園,35.4480914,140.105124,緯度経度は怪しい
千葉県,市原市,53-2,光風台中央公園|光風台2-285,光風台中央公園,35.4466957,140.1101495,緯度経度は怪しい
千葉県,市原市,53-3,3丁目寺坂公園|光風台3-706,3丁目寺坂公園,35.4453071,140.1031172,緯度経度は怪しい
千葉県,市原市,53-4,1丁目根崎公園|光風台1-203,1丁目根崎公園,35.444985,140.1109407,緯度経度は怪しい
千葉県,市原市,53-5,双葉中学校正門横|光風台1丁目475番地,双葉中学校正門横,35.445119,140.1144523,緯度経度は怪しい
千葉県,市原市,53-6,光風台駅コンクリート柵|中高根846,光風台駅コンクリート柵,35.4403474,140.1142209,緯度経度は怪しい
千葉県,市原市,53-7,風戸三叉路|風戸71,風戸三叉路,35.4391255,140.1021592,緯度経度は怪しい
千葉県,市原市,53-8,ストアーとりや横|中高根1240-1,ストアーとりや横,35.4375322,140.1044053,緯度経度は怪しい
千葉県,市原市,53-9,久保農家組合事務所前|中高根92-3,久保農家組合事務所前,35.4332862,140.1053982,緯度経度は怪しい
千葉県,市原市,54-1,二軒屋三叉路|金剛地1567-3,二軒屋三叉路,35.5017422,140.2349262,緯度経度は怪しい
千葉県,市原市,54-2,金剛地T字路|金剛地623-10,金剛地T字路,35.4974743,140.2456226,緯度経度は怪しい
千葉県,市原市,54-3,金剛地ふれあい館|金剛地848番地1,金剛地ふれあい館,35.4918016,140.2398968,緯度経度は怪しい
千葉県,市原市,55-1,古都辺青年館前|古都辺375,古都辺青年館前,35.4901345,140.2049299,
千葉県,市原市,55-2,古都辺72,masked,35.4952461,140.2057641,緯度経度は怪しい
千葉県,市原市,55-3,奈良90-1,masked,35.491321,140.2183278,
千葉県,市原市,55-4,市東第二小学校前|高倉1-1,市東第二小学校前,35.503441,140.228777,緯度経度は怪しい
千葉県,市原市,55-5,東国吉公民館|東国吉693,東国吉公民館,35.506841,140.2152923,緯度経度は怪しい
千葉県,市原市,55-6,市東中学校入口|市東国吉356,市東中学校入口,35.5074069,140.2148294,緯度経度は怪しい
千葉県,市原市,55-7,高倉入ロバス停前|国吉356,高倉入ロバス停前,35.5117831,140.2231552,
千葉県,市原市,55-8,高倉326-5,masked,35.5125428,140.221871,
千葉県,市原市,56-1,瀬又新田公民館前|瀬又1197,瀬又新田公民館前,35.5365807,140.2154015,緯度経度は怪しい
千葉県,市原市,56-2,瀬又十字路バス停前|永吉1411-1,瀬又十字路バス停前,35.5404925,140.2096933,緯度経度は怪しい
千葉県,市原市,56-3,瀬又公民館前|瀬又135,瀬又公民館前,35.5299217,140.2063488,緯度経度は怪しい
千葉県,市原市,56-4,市東第一小学校|瀬又1820,市東第一小学校,35.52479599999999,140.202663,緯度経度は怪しい
千葉県,市原市,56-5,光徳寺バス停前|中野117,光徳寺バス停前,35.519816,140.205854,緯度経度は怪しい
千葉県,市原市,57-1,瀬又第二公園|瀬又870-127,瀬又第二公園,35.5392225,140.2124119,緯度経度は怪しい
千葉県,市原市,57-2,市営萩の台住宅前公園|瀬又872-12,masked,35.537734,140.2114636,緯度経度は怪しい
千葉県,市原市,57-3,沢田第二公園|瀬又550-133,沢田第二公園,35.540986,140.2088783,緯度経度は怪しい
千葉県,市原市,57-4,瀬又南公園|瀬又926-60,瀬又南公園,35.5422658,140.2159006,緯度経度は怪しい
千葉県,市原市,57-5,傾城公園|瀬又479-101,傾城公園,35.5390816,140.2063167,緯度経度は怪しい
千葉県,市原市,57-6,沢田第1公園|瀬又550-141,沢田第1公園,35.5419176,140.2080674,緯度経度は怪しい
千葉県,市原市,57-7,瀬又943-5,masked,35.5455901,140.2170204,緯度経度は怪しい
千葉県,市原市,57-8,瀬又1005-32,masked,35.5423349,140.2245435,緯度経度は怪しい
千葉県,市原市,58-1,おしぬま橋市道脇|押沼551-2,おしぬま橋市道脇,35.5309642,140.1973817,緯度経度は怪しい
千葉県,市原市,58-2,番場公民館前|番場131,番場公民館前,35.5222764,140.1904284,
千葉県,市原市,58-3,小出商店前|永吉84,小出商店前,35.502919,140.067818,緯度経度は怪しい
千葉県,市原市,58-4,神社前フェンス|永吉114,神社前フェンス,35.4978821,140.1148672,緯度経度は怪しい
千葉県,市原市,58-5,三光園前三叉路|永吉458,三光園前三叉路,35.5017105,140.071489,緯度経度は怪しい
千葉県,市原市,58-6,浜野ゴルフクラブ入口|永吉937,浜野ゴルフクラブ入口,35.5060882,140.203186,緯度経度は怪しい
千葉県,市原市,59-1,君ヶ谷公園|潤井戸1979-56,君ヶ谷公園,35.5105623,140.1808937,緯度経度は怪しい
千葉県,市原市,59-2,久々津公民館前|久々津579-1,久々津公民館前,35.5200258,140.1641665,緯度経度は怪しい
千葉県,市原市,59-3,潤井戸1369-1,masked,35.5186477,140.1648975,
千葉県,市原市,59-4,神崎入口|潤井戸1078-7,神崎入口,35.5164145,140.1720931,緯度経度は怪しい
千葉県,市原市,59-5,潤井戸新田青年館前|潤井戸998-1,潤井戸新田青年館前,35.517242,140.1726613,緯度経度は怪しい
千葉県,市原市,59-6,市津運動広場|潤井戸11-2,市津運動広場,35.51775629999999,140.1817257,緯度経度は怪しい
千葉県,市原市,59-7,市津消防署入口交差点|潤井戸273-5,市津消防署入口交差点,35.5150071,140.1813126,緯度経度は怪しい
千葉県,市原市,59-8,市津公民館前|下野90-1,市津公民館前,35.5147639,140.1845247,緯度経度は怪しい
千葉県,市原市,59-9,羽鳥工業所資材置場横|潤井戸1916-5,羽鳥工業所資材置場横,35.5128137,140.1781435,緯度経度は怪しい
千葉県,市原市,59-10,瀬井戸バス停付近|潤井戸2021-1,瀬井戸バス停付近,35.5105446,140.1799342,緯度経度は怪しい
千葉県,市原市,60-1,喜多公園|喜多613-65,喜多公園,35.497754,140.1849531,緯度経度は怪しい
千葉県,市原市,60-2,温津小学校脇|潤井戸2299番地14,温津小学校脇,35.4983285,140.1801727,緯度経度は怪しい
千葉県,市原市,60-3,間井戸ふれあい公園|うるいど南3-6-1,間井戸ふれあい公園,35.5089207,140.1688102,緯度経度は怪しい
千葉県,市原市,60-4,犬成火の見下バス停前|犬成1243,犬成火の見下バス停前,35.4897453,140.1849587,緯度経度は怪しい
千葉県,市原市,60-5,長尾製缶所前|潤井戸2283,長尾製缶所前,35.5017926,140.1789962,緯度経度は怪しい
千葉県,市原市,60-6,滝口入口バス停横|犬成1065-7,滝口入口バス停横,35.4887157,140.1909729,緯度経度は怪しい
千葉県,市原市,60-7,大作公民館入口|大作243,大作公民館入口,35.4827425,140.1833045,
千葉県,市原市,60-8,武藤商会付近|葉木562,武藤商会付近,35.4846185,140.1689601,緯度経度は怪しい
千葉県,市原市,60-9,滝口93-1,masked,35.4759185,140.1826987,
千葉県,市原市,61-1,神崎十字路|神崎522-1,神崎十字路,35.5062262,140.1604756,緯度経度は怪しい
千葉県,市原市,61-2,荻作新田バス停前|荻作706-1,荻作新田バス停前,35.5021581,140.1579131,緯度経度は怪しい
千葉県,市原市,61-3,市津支団第8分回器具置場付近|荻作1017,市津支団第8分回器具置場付近,35.4983428,140.1579753,緯度経度は怪しい
千葉県,市原市,61-4,小田部公民館前|小田部352,小田部公民館前,35.4923321,140.1538921,緯度経度は怪しい
千葉県,市原市,61-5,辰巳自動車教習所前|勝間1827-1,辰巳自動車教習所前,35.4874272,140.1579329,緯度経度は怪しい
千葉県,市原市,61-6,勝問十字路|勝間837,勝問十字路,35.47856549999999,140.1665457,緯度経度は怪しい
千葉県,市原市,62-1,水の江公園|ちはら台東1-24,水の江公園,35.5326648,140.1937848,緯度経度は怪しい
千葉県,市原市,62-2,バークシティちはら台|ちはら台東2丁目20-1,バークシティちはら台,35.53559449999999,140.1919673,緯度経度は怪しい
千葉県,市原市,62-3,神無月公園|ちはら台東7-5,神無月公園,35.5332753,140.1974254,緯度経度は怪しい
千葉県,市原市,62-4,水の江小学校フェンス|ちはら台東2丁目15番地,水の江小学校フェンス,35.5326648,140.1937848,緯度経度は怪しい
千葉県,市原市,62-5,水の江小学校裏門|ちはら台東2丁目15番地,水の江小学校裏門,35.5326648,140.1937848,緯度経度は怪しい
千葉県,市原市,62-6,長月公園入口|ちはら台東2-12,長月公園入口,35.534576,140.1916163,緯度経度は怪しい
千葉県,市原市,63-1,文月公園|ちはら台南6-42,文月公園,35.5317181,140.1869862,緯度経度は怪しい
千葉県,市原市,63-2,スーパーせんどう入口|ちはら台南6丁目1-11,スーパーせんどう入口,35.5288353,140.1834948,緯度経度は怪しい
千葉県,市原市,63-3,ちはら台南中学校|ちはら台南5丁目3番地,ちはら台南中学校,35.5284368,140.1877555,緯度経度は怪しい
千葉県,市原市,63-4,清水谷公園交差点付近|ちはら台南5-4,清水谷公園交差点付近,35.5269472,140.1879284,緯度経度は怪しい
千葉県,市原市,63-5,清水谷小学校入口|ちはら台南5丁目2番地,清水谷小学校入口,35.5273764,140.1861284,緯度経度は怪しい
千葉県,市原市,63-6,明光義塾横植え込み|ちはら台南6丁目43-12,明光義塾横植え込み,35.5339423,140.1876945,緯度経度は怪しい
千葉県,市原市,63-7,水無月公園|ちはら台南3-17,水無月公園,35.5252603,140.185535,緯度経度は怪しい
千葉県,市原市,63-8,葉月公園|ちはら台南4-18,葉月公園,35.5283488,140.1925214,緯度経度は怪しい
千葉県,市原市,63-9,皇月公園東側三叉路|ちはら台西6-33,皇月公園東側三叉路,35.5351091,140.1870982,緯度経度は怪しい
千葉県,市原市,64-1,ちはら台駅前広場内|ちはら台西2-101,ちはら台駅前広場内,35.5341325,140.171286,緯度経度は怪しい
千葉県,市原市,64-2,ちはら台公園交差点付近|ちはら台西3-3,ちはら台公園交差点付近,35.5296722,140.1734699,緯度経度は怪しい
千葉県,市原市,64-3,かずさの道卯月公園|ちはら台西6-1,かずさの道卯月公園,35.5322858,140.1762756,緯度経度は怪しい
千葉県,市原市,64-4,大岬公園かずさの追側|ちはら台西5-16,大岬公園かずさの追側,35.5280328,140.1790558,緯度経度は怪しい
千葉県,市原市,64-5,大岬公園交差点付近|ちはら台西5-16,大岬公園交差点付近,35.5280328,140.1790558,緯度経度は怪しい
千葉県,市原市,64-6,牧園小学校正門横|ちはら台南2丁目7番地,牧園小学校正門横,35.5256406,140.1764991,緯度経度は怪しい
千葉県,市原市,64-7,弥生公園|ちはら台南2-25,弥生公園,35.5248823,140.1794682,緯度経度は怪しい
千葉県,市原市,64-8,堂坂公園|ちはら台西1-2,堂坂公園,35.5352635,140.1694704,緯度経度は怪しい
千葉県,市原市,64-9,まきぞの自然公園|ちはら台南2-10,まきぞの自然公園,35.5246123,140.1762646,緯度経度は怪しい
千葉県,市原市,64-10,如1月公園|ちはら台南1-16,如1月公園,35.5282531,140.1858252,緯度経度は怪しい
千葉県,市原市,65-1,御影台公園花壇|ちはら台東5-21,御影台公園花壇,35.5380675,140.1968782,緯度経度は怪しい
千葉県,市原市,65-2,ちはら台桜小学校前|ちはら台東5丁目13番地,ちはら台桜小学校前,35.5385377,140.1949883,緯度経度は怪しい
千葉県,市原市,65-3,霜月公園|ちはら台東7-19,霜月公園,35.5365482,140.2008586,緯度経度は怪しい
千葉県,市原市,65-4,ちはら台東4丁目113番地付近北側|ちはら台東4丁目113番地,ちはら台東4丁目113番地付近北側,35.5401158,140.1932251,
千葉県,市原市,65-5,ちはら台東4丁目113番地付近南側|ちはら台東4丁目113番地,ちはら台東4丁目113番地付近南側,35.5401158,140.1932251,
千葉県,市原市,65-6,乙月公園|ちはら台東9-13,乙月公園,35.54134519999999,140.1958286,緯度経度は怪しい
千葉県,市原市,66-1,大千葉CC入口|平蔵3167,大千葉CC入口,35.361602,140.199159,緯度経度は怪しい
千葉県,市原市,66-2,平沢農村協同館前|平蔵2909,平沢農村協同館前,35.4348807,140.1619424,緯度経度は怪しい
千葉県,市原市,66-3,平蔵2233-1,masked,35.3448143,140.2012694,
千葉県,市原市,66-4,宿滝町会集会場|平蔵2204,宿滝町会集会場,35.3478726,140.2000828,緯度経度は怪しい
千葉県,市原市,66-5,川崎バス停付近|平蔵2085,川崎バス停付近,35.3434291,140.2024359,緯度経度は怪しい
千葉県,市原市,67-1,あみだ畑バス停脇|平蔵1321-1,あみだ畑バス停脇,35.3399535,140.2035891,緯度経度は怪しい
千葉県,市原市,67-2,平蔵リフォームセンター前|平蔵685,平蔵リフォームセンター前,35.3448143,140.2012694,
千葉県,市原市,67-3,農村協同館の庭|平蔵619,農村協同館の庭,35.4348807,140.1619424,緯度経度は怪しい
千葉県,市原市,68-1,上畑橋北側|米原273,上畑橋北側,35.3268973,140.2107429,緯度経度は怪しい
千葉県,市原市,68-2,上畑公民館入口の空地|米原383-1,上畑公民館入口の空地,35.3243366,140.2129342,緯度経度は怪しい
千葉県,市原市,68-3,パスタ家前|米原589,パスタ家前,35.3211298,140.2170451,緯度経度は怪しい
千葉県,市原市,68-4,米原入口バス停|米原848,米原入口バス停,35.3185967,140.2185498,緯度経度は怪しい
千葉県,市原市,68-5,ゲートボール場前|米原2132-2,ゲートボール場前,35.3068852,140.2230546,緯度経度は怪しい
千葉県,市原市,68-6,第4 消防分団置場対面|米原2191-4,第4 消防分団置場対面,35.3065625,140.2192921,緯度経度は怪しい
千葉県,市原市,69-1,小草畑丁字路鳥海老前|小草畑625-14,小草畑丁字路鳥海老前,35.3225853,140.1923542,緯度経度は怪しい
千葉県,市原市,69-2,槽井戸橋際|小草畑494-1,槽井戸橋際,35.3197405,140.1914612,緯度経度は怪しい
千葉県,市原市,69-3,小草畑公民館前|小草畑48-1,小草畑公民館前,35.3195053,140.1897965,緯度経度は怪しい
千葉県,市原市,70-1,熊野神社入口|山小川374,熊野神社入口,35.355423,140.1866625,緯度経度は怪しい
千葉県,市原市,70-2,上田尾公民館|田尾125,上田尾公民館,35.3691002,140.1806781,緯度経度は怪しい
千葉県,市原市,70-3,田尾436-2,masked,35.3696039,140.1841162,緯度経度は怪しい
千葉県,市原市,70-4,般若寺公民館横|田尾1272-5,般若寺公民館横,35.3719349,140.1789289,緯度経度は怪しい
千葉県,市原市,70-5,久保代|田尾1158,久保代,35.374006,140.1699629,緯度経度は怪しい
千葉県,市原市,71-1,鶴舞1089,masked,35.3917135,140.1624653,
千葉県,市原市,71-2,大蔵屋ニュータウン入口|鶴舞1054-40,大蔵屋ニュータウン入口,35.3904281,140.1669879,緯度経度は怪しい
千葉県,市原市,71-3,鶴舞小学校前|鶴舞708番地,鶴舞小学校前,35.3837114,140.1821761,緯度経度は怪しい
千葉県,市原市,71-4,鍋舞公民館前|鶴舞625-2,鍋舞公民館前,35.381765,140.183361,緯度経度は怪しい
千葉県,市原市,71-5,消防器具置場前|鶴舞291,消防器具置場前,35.3793898,140.1888514,緯度経度は怪しい
千葉県,市原市,71-6,水沢入口|鶴舞200-1,水沢入口,35.3792378,140.1916566,緯度経度は怪しい
千葉県,市原市,72-1,下矢田青年館横|下矢田700-1,下矢田青年館横,35.3871122,140.1531602,
千葉県,市原市,72-2,矢口自治会館前|下矢田941,矢口自治会館前,35.3874948,140.1602184,緯度経度は怪しい
千葉県,市原市,72-3,国道297号線歩道|下矢田1110-1,国道297号線歩道,35.3858896,140.1588162,緯度経度は怪しい
千葉県,市原市,72-4,鍋舞土地改良区事務所横|池和田1314,鍋舞土地改良区事務所横,35.4978821,140.1148672,
千葉県,市原市,72-5,鶴舞駅前|池和田898-2,鶴舞駅前,35.3813634,140.1651932,緯度経度は怪しい
千葉県,市原市,72-6,久保台入口の先|池和田337,久保台入口の先,35.3804742,140.1737926,緯度経度は怪しい
千葉県,市原市,72-7,上総川間駅|下矢田547-4,上総川間駅,35.3867153,140.1549488,緯度経度は怪しい
千葉県,市原市,73-1,上奥野三叉路|奥野1063,上奥野三叉路,35.3885195,140.1990568,緯度経度は怪しい
千葉県,市原市,73-2,小萩橋手前|奥野600-1,小萩橋手前,35.3933826,140.1918375,緯度経度は怪しい
千葉県,市原市,73-3,奥野下公民館前|奥野270,奥野下公民館前,35.3979083,140.1889156,緯度経度は怪しい
千葉県,市原市,73-4,市場48-2,masked,35.4032849,140.1852307,緯度経度は怪しい
千葉県,市原市,73-5,刑部入口|市場97,刑部入口,35.4062289,140.1814311,緯度経度は怪しい
千葉県,市原市,74-1,よつば公園|石川338-30,よつば公園,35.3904191,140.1695262,緯度経度は怪しい
千葉県,市原市,74-2,内田小学校入口|島田13-1,内田小学校入口,35.4037963,140.1709081,緯度経度は怪しい
千葉県,市原市,74-3,宿自治会館前|宿207,宿自治会館前,35.4043834,140.1719731,緯度経度は怪しい
千葉県,市原市,74-4,真ヶ谷475-1,masked,35.4019239,140.1619434,緯度経度は怪しい
千葉県,市原市,74-5,千葉クボタ牛久営業所前|真ヶ谷541-4,千葉クボタ牛久営業所前,35.40658519999999,140.1613801,緯度経度は怪しい
千葉県,市原市,75-1,南総消防署脇|米沢727-1,南総消防署脇,35.39834099999999,140.149013,緯度経度は怪しい
千葉県,市原市,75-2,米沢下公民館前|米沢713,米沢下公民館前,35.399552,140.1502334,緯度経度は怪しい
千葉県,市原市,75-3,牛久東公園|米沢599-2,牛久東公園,35.4033335,140.1455298,緯度経度は怪しい
千葉県,市原市,75-4,米沢上公民館|米沢294,米沢上公民館,35.40028119999999,140.15747,緯度経度は怪しい
千葉県,市原市,75-5,双葉化成工業前|江子田194-1,双葉化成工業前,35.394569,140.15449,緯度経度は怪しい
千葉県,市原市,76-1,マルミヤ弁当店先|佐是195-1,マルミヤ弁当店先,35.4137052,140.1239875,緯度経度は怪しい
千葉県,市原市,76-2,南部土木資材置場前|佐是165-3,南部土木資材置場前,35.4078895,140.128005,緯度経度は怪しい
千葉県,市原市,76-3,佐是三叉路|佐是677-2,佐是三叉路,35.4050482,140.1330673,緯度経度は怪しい
千葉県,市原市,76-4,手綱川公園|佐是866-12,手綱川公園,35.4044032,140.1355442,緯度経度は怪しい
千葉県,市原市,76-5,ちづる公園|牛久886-1,ちづる公園,35.4000598,140.140537,緯度経度は怪しい
千葉県,市原市,76-6,牛久かえで公園|牛久285-17,牛久かえで公園,35.399268,140.1365524,緯度経度は怪しい
千葉県,市原市,76-7,牛久駅前|牛久897-2,牛久駅前,35.3997944,140.1421275,緯度経度は怪しい
千葉県,市原市,76-8,南総公民館広場|牛久520-1,南総公民館広場,35.4011675,140.1360334,緯度経度は怪しい
千葉県,市原市,76-9,宮の公園|中408-4,宮の公園,35.3929472,140.1447852,緯度経度は怪しい
千葉県,市原市,76-10,山下公園|中312-33,山下公園,35.396182,140.1431967,緯度経度は怪しい
千葉県,市原市,76-11,南部保健福祉センター前|牛久377-1,南部保健福祉センター前,35.4003027,140.1326532,緯度経度は怪しい
千葉県,市原市,77-1,春日神社入口|上原41,春日神社入口,35.4731855,140.0622629,緯度経度は怪しい
千葉県,市原市,77-2,林ストアー横|馬立247-2,林ストアー横,35.417288,140.119885,緯度経度は怪しい
千葉県,市原市,77-3,上高根91-3,masked,35.42770640000001,140.1132457,
千葉県,市原市,77-4,戸田小学校1|馬立830番地,戸田小学校1,35.4240773,140.1161465,緯度経度は怪しい
千葉県,市原市,77-5,戸田小学校2|馬立830番地,戸田小学校2,35.4240773,140.1161465,緯度経度は怪しい
千葉県,市原市,77-6,田村青年館裏|馬立1604-1,田村青年館裏,35.4311591,140.1153509,緯度経度は怪しい
千葉県,市原市,77-7,大六天神社前|馬立2104-1,大六天神社前,35.4364789,140.1171484,緯度経度は怪しい
千葉県,市原市,77-8,農村協同館付近|上高根1176-2,農村協同館付近,35.4242313,140.1053902,緯度経度は怪しい
千葉県,市原市,77-9,中の台公園|上高根1292-155,中の台公園,35.41802819999999,140.1053099,緯度経度は怪しい
千葉県,市原市,77-10,下区紀神社前|上高根588,下区紀神社前,35.4281495,140.1069967,緯度経度は怪しい
千葉県,市原市,78-1,南岩崎220番|南岩崎220番,南岩崎220番,35.5366626,140.1186929,緯度経度は怪しい
千葉県,市原市,78-2,蓑毛神社前|南岩崎415,蓑毛神社前,35.4093549,140.1127803,緯度経度は怪しい
千葉県,市原市,78-3,吉野台自治会館|西国吉1720-134,吉野台自治会館,35.4056015,140.1173333,緯度経度は怪しい
千葉県,市原市,78-4,寺谷小学校前|寺谷687-1,寺谷小学校前,35.407789,140.105386,緯度経度は怪しい
千葉県,市原市,78-5,ときわ台中央公園|柏橋215-187,ときわ台中央公園,35.3915461,140.1018426,緯度経度は怪しい
千葉県,市原市,78-6,医養寺前|柏橋775,医養寺前,35.3944688,140.0970622,緯度経度は怪しい
千葉県,市原市,78-7,南岩崎568,masked,35.4137531,140.1099887,緯度経度は怪しい
千葉県,市原市,78-8,小勝山公園|上高根1321-102,小勝山公園,35.4192134,140.1080646,緯度経度は怪しい
千葉県,市原市,78-9,新田台公園前|南岩崎627-34,新田台公園前,35.4167154,140.1080059,緯度経度は怪しい
千葉県,市原市,78-10,あかしや公園|西国吉1716-104,あかしや公園,35.4054099,140.1138333,緯度経度は怪しい
千葉県,市原市,79-1,中51,masked,35.3912797,140.1455806,
千葉県,市原市,79-2,川間地区入口|下矢田423,川間地区入口,35.3881648,140.1462073,緯度経度は怪しい
千葉県,市原市,79-3,元鈴木医院横|藪714,元鈴木医院横,35.3834031,140.1455101,緯度経度は怪しい
千葉県,市原市,79-4,岩児童遊園前|岩82,岩児童遊園前,35.375077,140.1459461,
千葉県,市原市,80-1,香吉消防器具置場|皆吉1143,香吉消防器具置場,35.3922918,140.1351361,緯度経度は怪しい
千葉県,市原市,80-2,牛久小学校正門横|皆吉933-2,牛久小学校正門横,35.3947548,140.1382379,緯度経度は怪しい
千葉県,市原市,80-3,市原わかば団地内皆吉公園|皆吉1043-4,市原わかば団地内皆吉公園,35.3979196,140.1336156,緯度経度は怪しい
千葉県,市原市,80-4,中山商店前|皆吉1751-5,中山商店前,35.3961857,140.1314168,緯度経度は怪しい
千葉県,市原市,80-5,熊野神社前|皆吉1281-1,熊野神社前,35.3876106,140.1342426,緯度経度は怪しい
千葉県,市原市,80-6,皆吉35-1,masked,35.392474,140.1343732,緯度経度は怪しい
千葉県,市原市,80-7,金沢入口T字路|金沢88-1,金沢入口T字路,35.3843043,140.1309939,緯度経度は怪しい
千葉県,市原市,81-1,寿し処江戸政前|西国吉47-1,寿し処江戸政前,35.3966702,140.125946,緯度経度は怪しい
千葉県,市原市,81-2,大蔵141,masked,35.3762912,140.1169175,緯度経度は怪しい
千葉県,市原市,81-3,皆吉団地入口|西国吉87先,皆吉団地入口,35.3953661,140.1252028,緯度経度は怪しい
千葉県,市原市,81-4,消防団詰所横|西国吉173-3,消防団詰所横,35.3949814,140.1220994,緯度経度は怪しい
千葉県,市原市,81-5,西国吉734-1,masked,35.3957161,140.1195686,緯度経度は怪しい
千葉県,市原市,81-6,西国吉自治会館付近|西国吉426-2,西国吉自治会館付近,35.3935352,140.1206941,緯度経度は怪しい
千葉県,市原市,82-1,奉免219-1,masked,35.4048412,140.143392,
千葉県,市原市,82-2,鎌田公園|佐是841-59,鎌田公園,35.4064231,140.1371769,緯度経度は怪しい
千葉県,市原市,82-3,南総運動広場|奉免166-1,南総運動広場,35.4060545,140.1425735,緯度経度は怪しい
千葉県,市原市,82-4,奉免自治会館前|奉免1233,奉免自治会館前,35.4102244,140.143997,緯度経度は怪しい
千葉県,市原市,82-5,炒香自治会館前|妙香13-6,炒香自治会館前,35.4112768,140.1389739,緯度経度は怪しい
千葉県,市原市,82-6,龍本寺入口斜め前|妙香452,龍本寺入口斜め前,35.413914,140.139068,緯度経度は怪しい
千葉県,市原市,83-1,外部田113,四季野前,35.3740847,140.1516329,緯度経度は怪しい
千葉県,市原市,83-2,駒込6,masked,35.3701595,140.1504929,緯度経度は怪しい
千葉県,市原市,83-3,北久保会館横|久保410,北久保会館横,35.3711989,140.1544865,緯度経度は怪しい
千葉県,市原市,83-4,久保1174-1,masked,35.371896,140.1577925,緯度経度は怪しい
千葉県,市原市,83-5,上総久保駅踏切付近|久保576,上総久保駅踏切付近,35.3680113,140.1552904,緯度経度は怪しい
千葉県,市原市,83-6,久保青年館下|久保597-1,久保青年館下,35.3668495,140.1570188,緯度経度は怪しい
千葉県,市原市,83-7,久保672,masked,35.3636464,140.1590687,緯度経度は怪しい
千葉県,市原市,84-1,森林の匠付近|山口240-1,森林の匠付近,35.4978821,140.1148672,
千葉県,市原市,84-2,加茂公民館前|養老949-1,加茂公民館前,35.354841,140.152246,緯度経度は怪しい
千葉県,市原市,84-3,養老自治会館前|養老27,養老自治会館前,35.353338,140.147574,緯度経度は怪しい
千葉県,市原市,84-4,高滝神社前交差点|高滝1,高滝神社前交差点,35.352779,140.1538627,緯度経度は怪しい
千葉県,市原市,84-5,平田商店十字路|高滝948,平田商店十字路,35.352183,140.162732,緯度経度は怪しい
千葉県,市原市,84-6,不入公民館前|不入190,不入公民館前,35.3468626,140.1639545,緯度経度は怪しい
千葉県,市原市,84-7,大和田消防器具置場脇|大和田233-2,大和田消防器具置場脇,35.357748,140.1665256,緯度経度は怪しい
千葉県,市原市,84-8,光巌寺前|大和田380-1,光巌寺前,35.4775739,140.0443367,緯度経度は怪しい
千葉県,市原市,84-9,番後台集会所前|養老794,番後台集会所前,35.3577645,140.1485382,緯度経度は怪しい
千葉県,市原市,85-1,林バス停|古敷谷130,林バス停,35.340306,140.1758942,緯度経度は怪しい
千葉県,市原市,85-2,中の橋脇|古敷谷409-1,中の橋脇,35.3352558,140.1714066,緯度経度は怪しい
千葉県,市原市,85-3,旧富山小体育館前|古敷谷2252,旧富山小体育館前,35.332139,140.169165,緯度経度は怪しい
千葉県,市原市,85-4,湯原観音前三叉路|古敷谷1911,湯原観音前三叉路,35.3276255,140.1702041,緯度経度は怪しい
千葉県,市原市,85-5,矢代一夫宅前|古敷谷863-3,masked,35.3244207,140.1721264,緯度経度は怪しい
千葉県,市原市,85-6,江孫倉庫前|古敷谷1561,江孫倉庫前,35.3154044,140.1770757,緯度経度は怪しい
千葉県,市原市,85-7,古敷谷3054,masked,35.3426276,140.1635911,緯度経度は怪しい
千葉県,市原市,85-8,小沢商店前|小谷田802,小沢商店前,35.3424283,140.1604053,緯度経度は怪しい
千葉県,市原市,86-1,新井橋横|新井72-1,新井橋横,35.3498571,140.1872286,緯度経度は怪しい
千葉県,市原市,86-2,新井青年館|新井150,新井青年館,35.3474848,140.1859785,緯度経度は怪しい
千葉県,市原市,86-3,吉沢入口バス停|新井462,吉沢入口バス停,35.4978821,140.1148672,緯度経度は怪しい
千葉県,市原市,86-4,古敷谷入口付近|吉沢85,古敷谷入口付近,35.3384904,140.1888487,緯度経度は怪しい
千葉県,市原市,86-5,尾高商店前|吉沢523,尾高商店前,35.3356164,140.1897467,緯度経度は怪しい
千葉県,市原市,87-1,月崎公民館|月崎304-3,月崎公民館,35.3038448,140.1447176,緯度経度は怪しい
千葉県,市原市,87-2,月崎駅前|月崎539,月崎駅前,35.3021106,140.1391356,緯度経度は怪しい
千葉県,市原市,87-3,市民の森入口|月崎829-2,市民の森入口,35.301184,140.1372863,緯度経度は怪しい
千葉県,市原市,87-4,柳川橋際|柳川82-1,柳川橋際,35.2940064,140.1294869,緯度経度は怪しい
千葉県,市原市,87-5,南部簡易水道菅野加圧場前|菅野33,南部簡易水道菅野加圧場前,35.294376,140.1238225,緯度経度は怪しい
千葉県,市原市,87-6,石塚入口|菅野433,石塚入口,35.2635381,140.124088,緯度経度は怪しい
千葉県,市原市,88-1,金蔵院入口|国本96,金蔵院入口,35.2876068,140.1459927,緯度経度は怪しい
千葉県,市原市,88-2,佐々木鳶工業所前|国本24,佐々木鳶工業所前,35.2851547,140.1480654,緯度経度は怪しい
千葉県,市原市,88-3,秋葉友吉宅脇道路空地|折津9,masked,35.2766234,140.1506683,緯度経度は怪しい
千葉県,市原市,88-4,白鳥公民館前|大久保505-3,白鳥公民館前,35.284028,140.146802,緯度経度は怪しい
千葉県,市原市,88-5,大久保青年館前|大久保6-1,大久保青年館前,35.2853769,140.1458054,緯度経度は怪しい
千葉県,市原市,88-6,上の代入口|柳川519,上の代入口,35.4978821,140.1148672,緯度経度は怪しい
千葉県,市原市,88-7,防火用水前|柳川270,防火用水前,35.4978821,140.1148672,
千葉県,市原市,88-8,芋原地区水道加圧場横|折津804,芋原地区水道加圧場横,35.2700748,140.1423919,緯度経度は怪しい
千葉県,市原市,89-1,石神三叉路|石神636,石神三叉路,35.2697932,140.1564746,緯度経度は怪しい
千葉県,市原市,89-2,石神486,masked,35.2721281,140.1591893,緯度経度は怪しい
千葉県,市原市,89-3,朝生原196,masked,35.2660711,140.1620916,緯度経度は怪しい
千葉県,市原市,89-4,原田鮮魚店前|朝生原791,原田鮮魚店前,35.2657524,140.1604257,緯度経度は怪しい
千葉県,市原市,89-5,夕木倉庫前|朝生原1278-1,夕木倉庫前,35.2658448,140.1652392,緯度経度は怪しい
千葉県,市原市,89-6,朝生原青年館前|朝生原502,朝生原青年館前,35.264801,140.164043,
千葉県,市原市,89-7,吊橋入口バス停付近|戸面342-1,吊橋入口バス停付近,35.2572799,140.1615327,緯度経度は怪しい
千葉県,市原市,90-1,ふじみや脇|石塚290,ふじみや脇,35.4819898,140.0432407,緯度経度は怪しい
千葉県,市原市,90-2,消防器具置場脇|石塚218,消防器具置場脇,35.4978821,140.1148672,
千葉県,市原市,90-3,石塚公民館前|石塚224,石塚公民館前,35.2680152,140.1202515,緯度経度は怪しい
千葉県,市原市,91-1,月出自治会館前|月出1060-1,月出自治会館前,35.2933745,140.1827289,緯度経度は怪しい
千葉県,市原市,91-2,旧月出小学校前|月出1045,旧月出小学校前,35.2957843,140.188399,緯度経度は怪しい
千葉県,市原市,91-3,大多喜方面三叉路|月出1077-4,大多喜方面三叉路,35.2947882,140.1833418,緯度経度は怪しい
千葉県,市原市,91-4,月出1110,masked,35.2991611,140.1870249,緯度経度は怪しい
千葉県,市原市,92-1,安田屋商店前|田淵887,安田屋商店前,35.297887,140.1509496,緯度経度は怪しい
千葉県,市原市,92-2,境橋脇|田淵2202-2,境橋脇,35.3016942,140.1481667,緯度経度は怪しい
千葉県,市原市,92-3,田淵602-7,masked,35.2988283,140.1549488,
千葉県,市原市,92-4,鈴木畳店入口|田淵1412-4,鈴木畳店入口,35.2955347,140.1506683,緯度経度は怪しい
千葉県,市原市,92-5,田淵会館前|田淵1165,田淵会館前,35.2970318,140.1498614,緯度経度は怪しい
千葉県,市原市,93-1,柿木台青年館敷地内|柿木台106,柿木台青年館敷地内,35.3178552,140.1413448,緯度経度は怪しい
千葉県,市原市,93-2,飯給駅踏切付近|飯給924,飯給駅踏切付近,35.3218043,140.1417823,緯度経度は怪しい
千葉県,市原市,93-3,飯給青年館入口|飯給136,飯給青年館入口,35.3246255,140.1501507,
千葉県,市原市,93-4,大登来食堂前|飯給593-1,大登来食堂前,35.3214663,140.1494658,緯度経度は怪しい
千葉県,市原市,93-5,徳氏444,masked,35.3179324,140.1530868,緯度経度は怪しい
千葉県,市原市,93-6,旧里見小学校前|徳氏541,旧里見小学校前,35.3172708,140.1498712,緯度経度は怪しい
千葉県,市原市,93-7,田淵113,masked,35.3084552,140.1542856,緯度経度は怪しい
千葉県,市原市,93-8,山都屋商店前|田淵旧日竹88-1,山都屋商店前,35.311789,140.1483512,緯度経度は怪しい
千葉県,市原市,93-9,日の崎大橋手前|田淵旧日竹489-1,日の崎大橋手前,35.3091841,140.148056,緯度経度は怪しい
千葉県,市原市,94-1,万田野自治会館|万田野165-2,万田野自治会館,35.3211489,140.1153108,緯度経度は怪しい
千葉県,市原市,94-2,旧消防器具置場前|万田野61-1,旧消防器具置場前,35.3262856,140.118946,緯度経度は怪しい
千葉県,市原市,94-3,杉田建材スタンド前|万田野83,杉田建材スタンド前,35.3230389,140.1169646,緯度経度は怪しい
千葉県,市原市,94-4,山工砂利採取場前|万田野732-6,山工砂利採取場前,35.32281740000001,140.1277734,緯度経度は怪しい
千葉県,市原市,95-1,南総消防署加茂分署前|平野167-1,南総消防署加茂分署前,35.336999,140.1462274,緯度経度は怪しい
千葉県,市原市,95-2,小谷田入口|本郷168-4,小谷田入口,35.3435336,140.1482333,緯度経度は怪しい
千葉県,市原市,95-3,加茂学園正門前|平野123,加茂学園正門前,35.3334767,140.1459897,緯度経度は怪しい
千葉県,市原市,95-4,西光寺下|本郷543,西光寺下,35.3395763,140.1458838,緯度経度は怪しい
千葉県,市原市,95-5,加茂支所前|平野583-3,加茂支所前,35.3354866,140.1480761,緯度経度は怪しい
千葉県,市原市,95-6,大戸多目的会館前|大戸232-2,大戸多目的会館前,35.3297141,140.1474129,
