prefecture,city,number,address,name,lat,long,note
千葉県,東庄町,1の1,舟戸778番地,舟戸青年館前,35.7887973,140.6475832,
千葉県,東庄町,1の2,舟戸38番地,舟戸バス停前,35.7871271,140.6492354,
千葉県,東庄町,1の3,大久保112番地,大久保消防倉庫前,35.7924816,140.6515593,
千葉県,東庄町,1の4,東和田223番地,東庄町ふれあい公園前,35.7934514,140.6417694,
千葉県,東庄町,1の5,東和田155番地1,東和田青年館前,35.7934514,140.6417694,
千葉県,東庄町,1の6,神田195番地1,神田公民館前,35.7902577,140.6392434,
千葉県,東庄町,1の7,東和田461番地2,稲荷入公民館前,35.805977,140.659594,
千葉県,東庄町,2の1,窪野谷1321番地,masked,35.8073824,140.6508448,
千葉県,東庄町,2の2,小貝野54番地1,小貝野公民館横,35.8095699,140.6452474,
千葉県,東庄町,2の3,窪野谷103番地1,本郷消防倉庫前,35.8145893,140.6459119,
千葉県,東庄町,2の4,平山683番地5,masked,35.8212475,140.6508448,
千葉県,東庄町,2の5,平山256番地,平山青年館前,35.8212475,140.6508448,
千葉県,東庄町,2の6,高部90番地1,高部公民館前,35.8158804,140.6613196,
千葉県,東庄町,2の7,窪野谷616番地,八木山火の見下,35.8120957,140.6594526,
千葉県,東庄町,3の1,笹川い971番地2,根方公民館横,35.8338927,140.654998,
千葉県,東庄町,3の2,笹川い717番地,旧松浦クリニック横,35.838747,140.6582194,
千葉県,東庄町,3の3,笹川い5569番地1,田中庵前,35.840997,140.657126,
千葉県,東庄町,3の4,笹川い5475番地2,サトー住器前,35.8436655,140.6550125,
千葉県,東庄町,3の5,笹川い579番地1,東庄交番横,35.8410334,140.6599334,
千葉県,東庄町,3の6,笹川い580番地1,諏訪神社入口,35.8415804,140.660173,
千葉県,東庄町,3の7,笹川い615番地,浜開田記念碑前,35.844312,140.6606003,
千葉県,東庄町,4の1,笹川い1700番地,旧大坂鉄工所横,35.8399276,140.6615743,
千葉県,東庄町,4の2,笹川い1949番地2,新田青年館前,35.8423558,140.6649669,
千葉県,東庄町,4の3,笹川い4714番地222,銚子商工信用組合前,35.8397151,140.6666586,
千葉県,東庄町,4の4,笹川い4713番地131,役場庁舎前,35.8371678,140.6685548,
千葉県,東庄町,4の5,笹川い2106番地,仲内公民館前,35.8357266,140.6598824,
千葉県,東庄町,4の6,笹川い1159番地1,木源木材前,35.842466,140.6638119,
千葉県,東庄町,4の7,笹川い4743番地1,菰敷青年館横,35.8371589,140.6800544,
千葉県,東庄町,4の8,笹川ろ1015番地,鹿野戸公民館前,35.8353437,140.676467,
千葉県,東庄町,5の1,新宿1278番地,新宿寺前,35.8329697,140.6890678,
千葉県,東庄町,5の2,新宿1126番地2,橘駐在所前,35.829751,140.6946093,
千葉県,東庄町,5の3,石出1619番地1,石出林農機商会横,35.82032,140.70792,
千葉県,東庄町,5の4,石出942番地,東庄町公民館石出分館前,35.82032,140.70792,
千葉県,東庄町,5の5,石出11番地,旧岩田材木店前,35.82032,140.70792,
千葉県,東庄町,5の6,東今泉318番地,宮内商店横,35.816085,140.7065167,
千葉県,東庄町,5の7,東今泉876番地1,東今泉消防倉庫横,35.8122095,140.7059845,
千葉県,東庄町,5の8,東今泉981番地3,masked,35.8137103,140.7038081,
千葉県,東庄町,6の1,羽計1575番地,羽計青年館入口,35.8235075,140.6779665,
千葉県,東庄町,6の2,羽計1125番地1,吉祥院入口,35.822036,140.678998,
千葉県,東庄町,6の3,谷津197番地,河津商店前,35.8206722,140.6865107,
千葉県,東庄町,6の4,今郡649番地,旧橘小学校前,35.8152193,140.6858621,
千葉県,東庄町,6の5,今郡494番地,今郡青年館前,35.8164084,140.6869513,
千葉県,東庄町,6の6,宮本244番地1,東大社横,35.807033,140.686084,
千葉県,東庄町,6の7,青馬2360番地5,旧新町屋商店前,35.8072001,140.6803746,
千葉県,東庄町,6の8,青馬1812番地,香取広域消防東庄分署横,35.8069824,140.6713892,
千葉県,東庄町,7の1,小座327番地,小座公民館前,35.8032614,140.6712509,
千葉県,東庄町,7の2,小座81番地,masked,35.802048,140.6725639,
千葉県,東庄町,7の3,粟野1448番地3,粟野青年館前,35.8001259,140.6709843,
千葉県,東庄町,7の4,粟野1057番地1,鈴木豆腐店前,35.796094,140.6745513,
千葉県,東庄町,7の5,小南1978番地4,下宿公民館前,35.7914312,140.6861429,
千葉県,東庄町,7の6,小南1006番地,仲宿公民館前,35.792052,140.6795376,
千葉県,東庄町,7の7,小南941番地,旧東城小学校前,35.7911477,140.6756112,
千葉県,東庄町,8の1,八重穂341番地,高橋理容店前,35.7873342,140.665264,
千葉県,東庄町,8の2,夏目1174番地,鈴木穀肥前,35.7837538,140.6682186,
千葉県,東庄町,8の3,夏目2222番地,旧和田医院横,35.782066,140.671759,
千葉県,東庄町,8の4,夏目2489番地,児童館入口前,35.7806318,140.6727341,
千葉県,東庄町,8の5,夏目3099番地,西替地消防倉庫跡,35.7770937,140.6738647,
千葉県,東庄町,8の6,小南1560番地4,東替地青年館前,35.7794154,140.6791354,
千葉県,東庄町,9の1,笹川ろ309番地1,masked,35.8309625,140.6853345,
千葉県,東庄町,9の2,笹川ろ1285番地1,masked,35.8347497,140.683077,
千葉県,東庄町,9の3,新宿1番地43,竜神台公園前,35.8320542,140.6866707,
千葉県,東庄町,9の4,羽計2471番地4,東光寮西側,35.8293462,140.6869829,
千葉県,東庄町,9の5,羽計2471番地33,コインランドリーカネス前公園,35.8290874,140.6896021,
千葉県,東庄町,9の6,羽計2424番地190,羽計台青年館横,35.8267855,140.6914044,
千葉県,東庄町,9の7,羽計2471番地53,masked,35.8290874,140.6896021,
