prefecture,city,number,address,name,lat,long
千葉県,柏市,1,柏一丁目１番,第１投票区ＪＲ柏駅東口サンサン広場,35.86213278,139.9716122
千葉県,柏市,1,柏三丁目２番２号,第１投票区柏神社前,35.86004,139.9735631
千葉県,柏市,1,柏七丁目３番,第１投票区サンイングオーク前,35.86161639,139.9801831
千葉県,柏市,1,柏七丁目１番,第１投票区月極ＮＴＫ柏駐車場前,35.86159167,139.9782042
千葉県,柏市,1,東上町５番,第１投票区柏上町公園,35.85973222,139.9789467
千葉県,柏市,1,柏六丁目８番,第１投票区森田宅前,35.865,139.97722
千葉県,柏市,1,柏六丁目１番,第１投票区長全寺前,35.86213139,139.9766072
千葉県,柏市,2,あけぼの三丁目６番９号,第２投票区赤城神社裏,35.86881667,139.9717403
千葉県,柏市,2,あけぼの一丁目７番６号,第２投票区柏市立柏第一小学校給食室前,35.86621611,139.9720686
千葉県,柏市,2,あけぼの一丁目７番６号,第２投票区柏市立柏第一小学校正門横,35.86518833,139.9715092
千葉県,柏市,2,あけぼの一丁目７番６号,第２投票区柏市立柏第一小学校こどもルーム側,35.86585083,139.9731803
千葉県,柏市,2,あけぼの五丁目５番,第２投票区梶川宅横の畑,35.87064222,139.9668439
千葉県,柏市,2,あけぼの二丁目９番,第２投票区あけぼの公園,35.86788972,139.9742147
千葉県,柏市,2,あけぼの二丁目９番,第２投票区柏駅西口第四駐輪場,35.86649861,139.9733758
千葉県,柏市,3,豊四季４７３番地,第３投票区大里宅前,35.85468528,139.9502553
千葉県,柏市,3,豊四季９４５番地の１,第３投票区柏市新富近隣センター（稲荷神社）前,35.85771278,139.9492908
千葉県,柏市,3,豊四季９４５番地の６１５,第３投票区豊四季第一公園,35.85798722,139.9479144
千葉県,柏市,3,豊四季３１０番地,第３投票区柏市立柏第二小学校正門横,35.85866083,139.9491894
千葉県,柏市,3,豊四季３４５番地の５４,第３投票区笹原第三公園,35.85394278,139.9446694
千葉県,柏市,3,豊四季９４５番地の１１２,第３投票区原田宅横,35.85435444,139.9402842
千葉県,柏市,3,豊四季２８７番地の７,第３投票区柏市立豊四季中学校正門横,35.86077694,139.9499956
千葉県,柏市,4,常盤台10番,第４投票区小平医院前,35.84850028,139.9661267
千葉県,柏市,4,ひばりが丘１番,第４投票区常盤台グリーンベルト,35.84990611,139.9682283
千葉県,柏市,4,ひばりが丘１８番,第４投票区ひばりが丘市民プール,35.84920972,139.9713936
千葉県,柏市,4,富里１丁目６,第４投票区富里第一公園,35.850535,139.9664283
千葉県,柏市,4,緑ケ丘２４番,第４投票区一本松公園,35.85126444,139.9726511
千葉県,柏市,4,若葉町３番１９号,第４投票区石田宅前,35.8541925,139.9689825
千葉県,柏市,4,若葉町４番５４号,第４投票区柏市立柏第三小学校裏門横,35.85283306,139.9717239
千葉県,柏市,4,若葉町４番５４号,第４投票区柏市立柏第三小学校正門横,35.85476,139.9717808
千葉県,柏市,4,緑ケ丘３番,第４投票区緑ケ丘グリーンベルト,35.8523525,139.9707822
千葉県,柏市,5,松ケ崎１１８２番地の９,第５投票区柏市立第四小学校駐車場,35.87448389,139.9685992
千葉県,柏市,5,大山台一丁目３９番地,第５投票区松ケ崎中央公園,35.88061556,139.9691831
千葉県,柏市,5,松ケ崎１１９１番地の５４,第５投票区松ケ崎第二公園,35.87897194,139.9636036
千葉県,柏市,5,松ケ崎１１９１番地の１４３,第５投票区松ケ崎第九公園,35.87617083,139.9651011
千葉県,柏市,5,松ヶ崎１１７６番地の４２,第５投票区松ケ崎香取第一公園,35.87668028,139.9704542
千葉県,柏市,5,高田８９１番地の３,第５投票区柏市立柏第五中学校グラウンド北側,35.87440806,139.9644958
千葉県,柏市,5,松ケ崎７６２番地の２,第５投票区県立柏中央高等学校正門前,35.87522861,139.9722981
千葉県,柏市,6,柏７２２番地の３,第６投票区柏市民文化会館前,35.86670139,139.9833189
千葉県,柏市,6,東一丁目２番,第６投票区ルネス・フィエスタ前,35.85754083,139.9773128
千葉県,柏市,6,柏９８９番地の２,第６投票区上ノ台バス停横,35.86430722,139.9860783
千葉県,柏市,6,柏９５５番地の１地先,第６投票区西友柏東店前,35.86267083,139.9850731
千葉県,柏市,6,柏９３２番地の７,第６投票区柏市立柏第五小学校正門横,35.86152611,139.98374
千葉県,柏市,6,東台本町２番,第６投票区東台本町交差点の南側,35.85991028,139.9827431
千葉県,柏市,6,柏１１２９番地の８,第６投票区宮前第一公園,35.86530306,139.9876008
千葉県,柏市,6,柏７６２番地,第６投票区仲田第一公園,35.86320722,139.9821367
千葉県,柏市,7,旭町５丁目１,第７投票区旭町第四公園,35.85863778,139.9651769
千葉県,柏市,7,旭町三丁目２番１号,第７投票区県立東葛飾高等学校通用門横,35.86078083,139.9663117
千葉県,柏市,7,旭町三丁目２番１号,第７投票区県立東葛飾高等学校正門横,35.86118111,139.9634628
千葉県,柏市,7,富里三丁目３番,第７投票区山下宅横の梅林,35.85282389,139.9634192
千葉県,柏市,7,旭町五丁目３番,第７投票区若草子供の遊び場,35.85754889,139.9619314
千葉県,柏市,7,旭町五丁目３番３２号,第７投票区柏市旭町近隣センター前,35.85604417,139.9618742
千葉県,柏市,7,旭町一丁目３番,第７投票区柏市柏駅西口第１駐輪場前,35.86226222,139.9680883
千葉県,柏市,8,中央二丁目９番１６号,第８投票区（株）ユニトレンド,35.85594722,139.9718261
千葉県,柏市,8,泉町１３番,第８投票区泉町公園,35.85642083,139.9682031
千葉県,柏市,8,泉町１７番,第８投票区県道松戸・柏線東武鉄道野田線高架橋下,35.8540075,139.9666725
千葉県,柏市,8,中央二丁目２番３４号,第８投票区朝日会館前,35.85729972,139.9714678
千葉県,柏市,9,大室３丁目４,第９投票区柏たなか緑地,35.91334472,139.9601817
千葉県,柏市,9,花野井７２０番地,第９投票区北花崎第一公園,35.8972825,139.9595967
千葉県,柏市,9,大室４,第９投票区柏たなか駅前公園,35.90826028,139.9593736
千葉県,柏市,9,大室２４９番地の１,第９投票区柏市田中近隣センター前,35.90397861,139.9590169
千葉県,柏市,9,大室２４９番地の９,第９投票区柏市立田中中学校裏門横,35.90402167,139.9563033
千葉県,柏市,9,大室２４９番地の９,第９投票区柏市立田中中学校通用門横,35.90492694,139.9580219
千葉県,柏市,9,新十余二４番地,第９投票区新十余二第一公園,35.90597611,139.9502875
千葉県,柏市,9,新十余二１１－４,第９投票区新十余二第二公園,35.91024083,139.9437522
千葉県,柏市,10,船戸１１２９番地の２,第１０投票区船戸会館,35.92002639,139.9511733
千葉県,柏市,10,船戸２０７６番地の１,第１０投票区関根宅前の畑,35.916685,139.9453014
千葉県,柏市,10,船戸１８０５番地,第１０投票区北部緑地北側,35.91628861,139.9473919
千葉県,柏市,10,船戸山高野６４番地の３,第１０投票区船戸山高野公園,35.92378,139.9439142
千葉県,柏市,10,大青田１５４１番地の２,第１０投票区柏市北部近隣センター前,35.91348806,139.9421911
千葉県,柏市,10,大青田１５２８番地,第１０投票区砂川宅横の畑,35.91231639,139.9366239
千葉県,柏市,10,船戸１８０５番地,第１０投票区北部緑地南側,35.91565361,139.9477267
千葉県,柏市,11,十余二３６３－１３,第１１投票区タカラショールーム前,35.88882639,139.9545253
千葉県,柏市,11,十余二３４８番地５１中央404街区1,第１１投票区柏市立柏の葉小学校前,35.88642778,139.9533922
千葉県,柏市,11,十余二３４８番地５１中央404街区1,第１１投票区柏市立柏の葉小学校こどもルーム横,35.88513417,139.9529575
千葉県,柏市,11,若柴１７１番地,第１１投票区柏の葉キャンパス駅東口駅前,35.89392167,139.9529514
千葉県,柏市,11,十余二４０９－１１１,第１１投票区『十余二』バス停横,35.88852278,139.9452925
千葉県,柏市,11,若柴２８２,第１１投票区しばとも公園,35.89029778,139.9533794
千葉県,柏市,11,十余二３８７－５,第１１投票区「キャンパス駅入口」バス停横,35.89489694,139.9500178
千葉県,柏市,11,十余二２１６ー８０,第１１投票区梅林第三公園,35.88002917,139.9405906
千葉県,柏市,11,十余二下大塚６１９－１４,第１１投票区㈱二葉科学前,35.88623528,139.9451331
千葉県,柏市,11,十余二３３７－２２０,第１１投票区柏の葉こかげ公園,35.88668722,139.955335
千葉県,柏市,12,増尾八丁目２番,第１２投票区増尾東映緑地,35.82821667,139.9843258
千葉県,柏市,12,増尾五丁目１１番,第１２投票区鷲ノ山第二公園,35.83108167,139.9863253
千葉県,柏市,12,増尾四丁目１２番,第１２投票区幸谷第一公園,35.83552778,139.9833644
千葉県,柏市,12,増尾六丁目６番１号,第１２投票区柏市立増尾保育園,35.82873306,139.9812592
千葉県,柏市,12,増尾四丁目４番１号,第１２投票区柏市立土小学校信号機横,35.83402028,139.9811389
千葉県,柏市,12,増尾七丁目５番,第１２投票区南ケ丘第二公園,35.82670333,139.9827953
千葉県,柏市,12,増尾１００１番地の１,第１２投票区吉場宅横,35.83271583,139.9885656
千葉県,柏市,12,増尾七丁目４番,第１２投票区南ケ丘第一公園,35.82643111,139.9810747
千葉県,柏市,13,光ケ丘団地２００番５,第１３投票区柏市光ケ丘近隣センター前,35.83090111,139.9569472
千葉県,柏市,13,光ケ丘団地３番６号,第１３投票区グリーンタウン光ケ丘集会所前,35.82863167,139.9575172
千葉県,柏市,13,光ケ丘団地５番,第１３投票区光ケ丘中央公園,35.82916583,139.9590094
千葉県,柏市,13,光ケ丘団地４番,第１３投票区マツモトキヨシ光ケ丘店前,35.82760917,139.9576728
千葉県,柏市,13,光ケ丘団地５番,第１３投票区光ケ丘団地１５号棟東側公園,35.82682972,139.9584853
千葉県,柏市,13,光ケ丘団地５番,第１３投票区光ケ丘団地１２号棟前,35.82758944,139.9584853
千葉県,柏市,13,光ケ丘団地３番,第１３投票区光ケ丘団地４・５号棟前,35.82914917,139.9569431
千葉県,柏市,14,根戸４７１番地,第１４投票区利根土地改良区事務所前,35.88445306,139.9899092
千葉県,柏市,14,根戸４１６番地の６７,第１４投票区柏市立高野台保育園前,35.88193306,139.9864864
千葉県,柏市,14,根戸４６７番地の１,第１４投票区柏市立富勢中学校正門横,35.88443833,139.9859861
千葉県,柏市,14,根戸４６７番地,第１４投票区高野台児童遊園,35.88550917,139.9892264
千葉県,柏市,14,根戸４６７番１７８,第１４投票区柏市根戸近隣センター体育館前,35.88540139,139.9868117
千葉県,柏市,14,根戸新田１５番地,第１４投票区鈴木宅前,35.87879917,139.9836969
千葉県,柏市,14,根戸１４３番地の１,第１４投票区イチカワ(株)柏工場駐車場西側,35.87879861,139.9855583
千葉県,柏市,14,呼塚新田１８８番地の３,第１４投票区ロジポート北柏東門前,35.87670278,139.9839869
千葉県,柏市,14,松ケ崎新田６３番地の３,第１４投票区ＮＴＴドコモ無線局前,35.8773375,139.9801297
千葉県,柏市,14,根戸２３７－２,第１４投票区JR北柏駅北口エスカレーター向い側,35.87674194,139.9878742
千葉県,柏市,15,布施１２６番地の１,第１５投票区柏市最終処分場正門横,35.88980583,139.9853742
千葉県,柏市,15,布施３１３－２,第１５投票区県立柏高等学校駐輪場前,35.89277889,139.9901725
千葉県,柏市,15,布施８３４番地の1,第１５投票区柏市立富勢保育園前,35.88747722,139.9925411
千葉県,柏市,15,布施９２５番地の１,第１５投票区柏市立富勢小学校プール側門横,35.8873725,139.9938067
千葉県,柏市,15,布施７６２－２,第１５投票区柏市西部消防署富勢分署前,35.88771806,139.9915397
千葉県,柏市,15,布施６３５番地,第１５投票区香取神社北側,35.8937125,139.9936956
千葉県,柏市,15,布施８６２－１,第１５投票区一ツ木園前駐車場,35.88968667,139.9946044
千葉県,柏市,15,根戸６１７番地,第１５投票区新堤公園,35.88287417,139.9977606
千葉県,柏市,16,今谷上町６９番地,第１６投票区ココス南柏店北側緑地,35.84186472,139.9532781
千葉県,柏市,16,今谷上町４２番地の５３,第１６投票区今谷上町第一公園,35.83936972,139.9564628
千葉県,柏市,16,南柏中央４,第１６投票区南柏中央第一公園,35.84270667,139.9536119
千葉県,柏市,16,南柏一丁目１番,第１６投票区南柏駅東口ロータリー,35.84420528,139.9542219
千葉県,柏市,16,南柏中央１０番,第１６投票区南柏中央第二公園,35.845735,139.956495
千葉県,柏市,16,南柏一丁目１０番,第１６投票区南柏第一公園,35.84513583,139.9527369
千葉県,柏市,16,南柏二丁目５番,第１６投票区南柏児童遊園,35.84695694,139.9552717
千葉県,柏市,17,豊四季台二丁目１番,第１７投票区オーベルグランディオ柏駐車場前植樹帯,35.86241167,139.9610989
千葉県,柏市,17,豊四季台一丁目１番,第１７投票区豊四季台近隣センター前,35.86642083,139.9593236
千葉県,柏市,17,豊四季台二丁目１番,第１７投票区豊四季台団地２５号棟横,35.86476972,139.9594717
千葉県,柏市,17,豊四季台二丁目１２０番,第１７投票区柏市立豊四季保育園前,35.86297667,139.9598328
千葉県,柏市,17,豊四季台一丁目１番１１８,第１７投票区柏地域医療連携センター前,35.86538472,139.9575861
千葉県,柏市,17,豊四季台一丁目３番,第１７投票区豊四季台公園,35.86690222,139.9581481
千葉県,柏市,17,豊四季台二丁目１番,第１７投票区豊四季台団地３４号棟前,35.86339,139.9593403
千葉県,柏市,18,豊四季台三丁目１番８号棟,第１８投票区豊四季台団地８号棟隣立体駐車場前,35.86271806,139.9584431
千葉県,柏市,18,豊四季台四丁目１番７７号棟,第１８投票区豊四季台団地88号棟横,35.86448111,139.9551139
千葉県,柏市,18,豊四季台四丁目１番７３号棟,第１８投票区豊四季台団地95号棟横,35.86461306,139.9563061
千葉県,柏市,18,豊四季台三丁目１番,第１８投票区コンフォール１号棟前,35.86370361,139.9585903
千葉県,柏市,18,豊四季台四丁目１番９０号棟,第１８投票区豊四季台団地９０号棟広場横,35.86513361,139.9557064
千葉県,柏市,18,豊四季台四丁目１番９９号棟,第１８投票区豊四季台団地９９号棟前,35.86372861,139.9553994
千葉県,柏市,19,南増尾６２番,第１９投票区リフレッシュプラザ柏西側,35.81724778,139.9724331
千葉県,柏市,19,逆井４５２番地の２,第１９投票区柏市立逆井小学校正門横,35.81163028,139.9812725
千葉県,柏市,19,南増尾三丁目４番,第１９投票区南増尾第八公園,35.81495111,139.9704225
千葉県,柏市,19,新逆井一丁目２４番,第１９投票区小新山第一公園,35.81048056,139.9709472
千葉県,柏市,19,新逆井一丁目６番,第１９投票区逆井南公園,35.81332389,139.9714147
千葉県,柏市,19,新逆井二丁目５番,第１９投票区南部公園,35.80945806,139.9729636
千葉県,柏市,19,新逆井一丁目１０番１号,第１９投票区柏市立土南部小学校正門横,35.81199083,139.9753406
千葉県,柏市,19,南増尾三丁目４０番,第１９投票区南増尾小鳥の森緑地,35.81356444,139.9684967
千葉県,柏市,20,西原五丁目１７番,第２０投票区西原第四公園,35.8910475,139.9221172
千葉県,柏市,20,西原五丁目２番４０号,第２０投票区第１２パールメゾン木村,35.89391333,139.9204511
千葉県,柏市,20,西原四丁目１７番１号,第２０投票区柏市立西原小学校正門横,35.89321361,139.9245958
千葉県,柏市,20,西原五丁目３番,第２０投票区西十余二高齢者スポーツ場,35.893845,139.9191492
千葉県,柏市,20,西原五丁目４番,第２０投票区西原第三公園,35.8929825,139.9191478
千葉県,柏市,20,西原五丁目８番,第２０投票区西原第一公園,35.89231167,139.9194372
千葉県,柏市,20,西原三丁目５７６－２４３,第２０投票区西十余二第一公園,35.89534472,139.9203528
千葉県,柏市,21,千代田三丁目６番,第２１投票区NTT柏第３社宅１号棟前,35.852995,139.9777753
千葉県,柏市,21,千代田二丁目８番,第２１投票区千代田町公園東側,35.85389972,139.9764356
千葉県,柏市,21,千代田二丁目８番,第２１投票区千代田町公園西側,35.8532925,139.9759578
千葉県,柏市,21,千代田二丁目７番２１号,第２１投票区千代田ふるさとセンター,35.85481056,139.9770978
千葉県,柏市,21,あかね町８番,第２１投票区あかね第二公園,35.85197278,139.9775256
千葉県,柏市,21,あかね町２番,第２１投票区あかね第三公園,35.85192167,139.9805306
千葉県,柏市,21,あかね町１５番,第２１投票区あかね第一公園,35.85002861,139.9769511
千葉県,柏市,21,あかね町１１番,第２１投票区小金原の野馬除土手跡前,35.85100722,139.9736436
千葉県,柏市,21,柏市若葉町４番５４号,第２１投票区柏市立柏第三小学校プール側,35.8534225,139.9735644
千葉県,柏市,22,酒井根一丁目３番１号,第２２投票区柏市立酒井根中学校前,35.82405917,139.9664825
千葉県,柏市,22,酒井根一丁目２番１号,第２２投票区柏市立酒井根東小学校正門横,35.82575333,139.9637358
千葉県,柏市,22,酒井根五丁目１１番,第２２投票区八坂大神横の畑,35.82489139,139.9596094
千葉県,柏市,22,南増尾１丁目２１,第２２投票区田町公園,35.81811917,139.9694033
千葉県,柏市,22,酒井根１９番地の２,第２２投票区柏市立酒井根小学校正門横,35.82064611,139.9621625
千葉県,柏市,22,酒井根三丁目８番,第２２投票区酒井根第三公園,35.81991917,139.9654447
千葉県,柏市,22,酒井根三丁目２８番,第２２投票区酒井根第二公園,35.81757278,139.9652869
千葉県,柏市,22,青葉台一丁目１２番,第２２投票区右大道第一公園,35.81482583,139.9626847
千葉県,柏市,22,南増尾二丁目１５番,第２２投票区南増尾第二子供の遊び場,35.81557861,139.9667278
千葉県,柏市,22,南増尾１丁目１１,第２２投票区古塚第一公園,35.81995278,139.9707994
千葉県,柏市,23,豊町一丁目２番,第２３投票区紳士服アオキ隣,35.84808417,139.9562636
千葉県,柏市,23,豊四季９５０番地の１２,第２３投票区鈴木宅前,35.84741722,139.9598225
千葉県,柏市,23,豊四季５５３番地１,第２３投票区ラーメンめん吉前,35.84562194,139.9582958
千葉県,柏市,23,豊四季６７８番地の６７,第２３投票区横銭宅横,35.84791306,139.9651506
千葉県,柏市,23,豊町一丁目２番,第２３投票区大膳山大昭の森緑地,35.84797611,139.9582586
千葉県,柏市,23,豊四季６１０番地の１３,第２３投票区櫻井宅前,35.84496861,139.9619194
千葉県,柏市,23,豊四季５４４番地の１,第２３投票区くりの木あそび山の山林の南側,35.84398639,139.9600656
千葉県,柏市,23,豊四季６９８番地の２８,第２３投票区柏市立豊町保育園,35.84683611,139.9626736
千葉県,柏市,24,向原町３番,第２４投票区向原公園,35.86356972,139.9615333
千葉県,柏市,24,明原一丁目１０番,第２４投票区柏西口第三公園,35.86352333,139.9653247
千葉県,柏市,24,明原四丁目１番１号,第２４投票区柏市立柏中学校テニスコート東側,35.8651075,139.9652533
千葉県,柏市,24,明原四丁目１番１号,第２４投票区柏市立柏中学校正門横,35.86543778,139.9646372
千葉県,柏市,24,明原二丁目９番,第２４投票区柏市空手道連盟大道館入口,35.868295,139.9658717
千葉県,柏市,24,明原四丁目１番１号,第２４投票区柏市立柏中学校西側,35.86479917,139.9626047
千葉県,柏市,24,明原三丁目１番,第２４投票区柏西口第一公園東側,35.86613694,139.9659378
千葉県,柏市,24,明原三丁目１番,第２４投票区柏西口第一公園西側,35.86587639,139.9649228
千葉県,柏市,25,逆井藤ノ台４－４,第２５投票区藤ノ台第二公園,35.82439083,139.9880261
千葉県,柏市,25,藤心二丁目２４番,第２５投票区藤心第二ふるさと会館前,35.82805639,139.9893597
千葉県,柏市,25,逆井藤ノ台８番,第２５投票区藤ノ台第一公園,35.82375861,139.9878475
千葉県,柏市,25,藤心四丁目１８番,第２５投票区ふじ第四公園,35.82611583,139.9910414
千葉県,柏市,25,藤心２９３番地の１,第２５投票区柏市南部老人福祉センター,35.82496333,139.9960547
千葉県,柏市,25,藤心四丁目１番１１号,第２５投票区柏市藤心近隣センター,35.82268722,139.9891375
千葉県,柏市,25,藤心二丁目１番,第２５投票区木戸前第二公園,35.82608694,139.9854978
千葉県,柏市,25,藤心四丁目４番,第２５投票区ふじ第一公園,35.82424889,139.9894825
千葉県,柏市,26,東柏一丁目１５番,第２６投票区戸張第三公園,35.85280611,139.9869758
千葉県,柏市,26,弥生町６番６号,第２６投票区柏市立柏第二中学校正門横,35.85647833,139.9850536
千葉県,柏市,26,名戸ケ谷５１４－３，５１５－４,第２６投票区刈込坂バス停前,35.84799222,139.9883328
千葉県,柏市,26,関場町６番,第２６投票区コマーシャルコンテナ前,35.85022972,139.9824703
千葉県,柏市,26,弥生町６番６号,第２６投票区柏市立柏第二中学校バレーコート前,35.85613889,139.9868833
千葉県,柏市,26,関場町２番,第２６投票区関場町第二公園,35.85195056,139.9841606
千葉県,柏市,26,東柏二丁目２番,第２６投票区柏市新田原近隣センター,35.849805,139.9856525
千葉県,柏市,26,東二丁目２番,第２６投票区エステート荒工山４号棟前,35.85784333,139.9811222
千葉県,柏市,26,柏市東柏一丁目２４,第２６投票区東柏文京公園,35.85195444,139.9883617
千葉県,柏市,27,東中新宿一丁目２２番５号,第２７投票区小林宅前,35.83350667,139.9621025
千葉県,柏市,27,東中新宿一丁目６番４号,第２７投票区森宅前,35.83521778,139.9588933
千葉県,柏市,27,光ケ丘二丁目１番,第２７投票区広池学園ゴルフ練習場横,35.8284675,139.9509111
千葉県,柏市,27,光ケ丘二丁目１番,第２７投票区広池学園入口横,35.83247639,139.9564128
千葉県,柏市,27,光ケ丘二丁目２番,第２７投票区『麗澤大学前』バス停横,35.831635,139.9559431
千葉県,柏市,27,東中新宿四丁目７番,第２７投票区東中新宿子供の遊び場,35.82904583,139.9612183
千葉県,柏市,27,東中新宿四丁目４番,第２７投票区東中新宿第一公園,35.83120444,139.9589533
千葉県,柏市,27,東山二丁目２番,第２７投票区東山第二公園,35.82645306,139.9532819
千葉県,柏市,28,加賀二丁目１３番,第２８投票区加賀第一公園,35.82902444,139.9690006
千葉県,柏市,28,光ケ丘四丁目２３番１号,第２８投票区柏市立光ケ丘中学校通用門横,35.82830778,139.9656478
千葉県,柏市,28,東中新宿三丁目２１番,第２８投票区中新宿第五公園,35.83073944,139.9628758
千葉県,柏市,28,つくしが丘五丁目７番,第２８投票区『増尾中原』バス停・電話ボックス前,35.82977222,139.9672678
千葉県,柏市,28,光ケ丘四丁目２３番１号,第２８投票区柏市立光ケ丘中学校倉庫前,35.82947861,139.9658014
千葉県,柏市,28,中原一丁目２８番地,第２８投票区中原ふれあい防災公園北側,35.82901639,139.9666169
千葉県,柏市,28,中原一丁目２８番地,第２８投票区中原ふれあい防災公園南側,35.82632361,139.9684489
千葉県,柏市,29,永楽台二丁目８番１号,第２９投票区柏市立柏第八小学校正門横,35.84418139,139.9727025
千葉県,柏市,29,永楽台二丁目１１番,第２９投票区永楽台近隣公園北側,35.84283889,139.9713547
千葉県,柏市,29,日立台二丁目１番,第２９投票区日立台第一公園,35.84715722,139.9687158
千葉県,柏市,29,日立台一丁目２番,第２９投票区日立台公園,35.8508625,139.9732253
千葉県,柏市,29,名戸ケ谷一丁目６番８号,第２９投票区柏市立柏第四中学校正門横,35.84565028,139.9775431
千葉県,柏市,29,亀甲台町一丁目２７番,第２９投票区亀甲台公園,35.84878833,139.9800144
千葉県,柏市,29,名戸ケ谷一丁目１番,第２９投票区名戸ケ谷第一公園,35.84503417,139.9735183
千葉県,柏市,29,永楽台二丁目１１番,第２９投票区永楽台近隣公園西側,35.84234139,139.9698686
千葉県,柏市,29,名戸ケ谷４７４番地１,第２９投票区名戸ケ谷小学校正門右交差点,35.84657222,139.9860828
千葉県,柏市,30,豊上町２５番地,第３０投票区豊上町第二公園,35.85562417,139.9550903
千葉県,柏市,30,旭町八丁目３番,第３０投票区旭町公園,35.86167444,139.9531375
千葉県,柏市,30,豊上町７番,第３０投票区豊上町第一公園,35.85862694,139.9525069
千葉県,柏市,30,旭町六丁目５番１７号,第３０投票区柏市立旭小学校正門横,35.85746944,139.9552242
千葉県,柏市,30,吉野沢８,第３０投票区吉野沢公園,35.85344139,139.9599178
千葉県,柏市,30,豊平町４０９番地１２２,第３０投票区スナックみすず隣駐車場前,35.85487444,139.9570872
千葉県,柏市,30,新富町一丁目１０番,第３０投票区新富町第一公園,35.85218111,139.9564364
千葉県,柏市,30,旭町六丁目５番１７号,第３０投票区柏市立旭小学校南側,35.85635722,139.9555983
千葉県,柏市,30,旭町七丁目４－８１,第３０投票区気象大学校校門横,35.85880278,139.9590239
千葉県,柏市,31,十余二２９７番地,第３１投票区北庚塚第一公園,35.88434056,139.9690733
千葉県,柏市,31,十余二２８７－３２,第３１投票区サービス付き高齢者向け住宅SLP柏横,35.88547167,139.9639008
千葉県,柏市,31,十余二２７６番地,第３１投票区サントレーディング前,35.88323083,139.9654525
千葉県,柏市,31,十余二３３７－９３,第３１投票区柏市立柏の葉中学校グラウンド横,35.88475472,139.95514
千葉県,柏市,31,十余二３１３番地の９２,第３１投票区柏市青少年センター,35.88460417,139.9603736
千葉県,柏市,32,篠籠田４５０番地の１,第３２投票区篠籠田市民緑地,35.86946528,139.9637622
千葉県,柏市,32,篠籠田７０５番地の１,第３２投票区吉岡宅前,35.87155028,139.9598719
千葉県,柏市,32,西町３番,第３２投票区西町第三公園,35.86897944,139.9590081
千葉県,柏市,32,篠籠田７２３番地の１,第３２投票区柏市立柏第七小学校正門横,35.87168417,139.9574067
千葉県,柏市,32,篠籠田７２３番地の１,第３２投票区柏市立柏第七小学校裏門横,35.87133917,139.9557683
千葉県,柏市,32,西町２番,第３２投票区西町第二公園,35.86813167,139.9595061
千葉県,柏市,32,篠籠田１２５５－５,第３２投票区寺前第二公園,35.8735725,139.9552878
千葉県,柏市,33,南逆井六丁目２０番,第３３投票区なかまち第二公園,35.80735278,139.9778508
千葉県,柏市,33,南逆井六丁目３０番,第３３投票区野沢ふるさと会館横,35.80652639,139.9786725
千葉県,柏市,33,逆井３３５番地の２,第３３投票区宮田島運動場,35.8094675,139.9811406
千葉県,柏市,33,南逆井五丁目１０番,第３３投票区なかまち第一公園,35.8079325,139.9764986
千葉県,柏市,33,南逆井七丁目１番,第３３投票区なかまち第三公園,35.80839389,139.9792097
千葉県,柏市,33,逆井１８３０番地の１,第３３投票区逆井緑地,35.8085925,139.9822033
千葉県,柏市,33,南逆井四丁目２０番,第３３投票区南逆井柏南子供の遊び場,35.80367833,139.9757069
千葉県,柏市,34,西原三丁目５番,第３４投票区西十余二第一公園,35.89598833,139.9203636
千葉県,柏市,34,西原三丁目１２番,第３４投票区西十余二第二公園,35.89380611,139.9179553
千葉県,柏市,34,西原二丁目１０番６２号,第３４投票区柏市西原近隣センター体育館,35.89815583,139.9201481
千葉県,柏市,34,西原三丁目２番４８号,第３４投票区柏市西原近隣センター前,35.89711639,139.9198208
千葉県,柏市,34,西原三丁目５番,第３４投票区西十余二第一公園西側,35.894825,139.9196042
千葉県,柏市,34,西原三丁目７番,第３４投票区西原第五公園,35.89627333,139.9187042
千葉県,柏市,35,つくしが丘三丁目２番,第３５投票区フランス菓子 オペラ座前,35.83714278,139.9662792
千葉県,柏市,35,つくしが丘三丁目１７番,第３５投票区つくしが丘第二公園,35.83375667,139.9668986
千葉県,柏市,35,つくしが丘四丁目１３番,第３５投票区あざみが丘公園,35.83577917,139.9684017
千葉県,柏市,35,中原１８２１番地の１,第３５投票区柏市立中原小学校正門横,35.83586417,139.9705875
千葉県,柏市,35,加賀一丁目２番,第３５投票区久保宅前中央分離帯,35.83266639,139.9691644
千葉県,柏市,35,加賀一丁目３０番,第３５投票区加賀第三公園,35.83196639,139.9735936
千葉県,柏市,35,つくしが丘三丁目１８番,第３５投票区つくしが丘第三公園,35.83518722,139.9659008
千葉県,柏市,35,つくしが丘一丁目６２番,第３５投票区つくしが丘公園,35.83648444,139.9634903
千葉県,柏市,36,豊四季１０１２番地の８,第３６投票区富士見町公園南側,35.86570333,139.9378336
千葉県,柏市,36,豊四季１５８番地の４,第３６投票区東武鉄道豊四季駅南口前,35.8663175,139.9393303
千葉県,柏市,36,豊四季１５８番地,第３６投票区東武鉄道豊四季駅北口前,35.86654167,139.9394686
千葉県,柏市,36,豊四季１２６番地の２,第３６投票区柏市立富士見保育園,35.86665528,139.9339331
千葉県,柏市,36,豊四季１２４番地の７,第３６投票区富士見町ふるさと会館前駐車場,35.86768167,139.9346831
千葉県,柏市,36,豊四季１０１２番地の８,第３６投票区富士見町公園北側,35.86598611,139.9379872
千葉県,柏市,36,豊四季２３番地の１,第３６投票区中澤宅裏,35.86500694,139.9287547
千葉県,柏市,37,高田３７６番地の３,第３７投票区柏市立高田小学校正門横,35.87514611,139.9516756
千葉県,柏市,37,高田６９９番地,第３７投票区柏市高田近隣センター前,35.87485611,139.9601456
千葉県,柏市,37,高田１０２７－５２,第３７投票区西下ノ台第一公園,35.87689194,139.9581561
千葉県,柏市,37,高田４７１番地の１,第３７投票区増田宅前梅林,35.87605139,139.9520761
千葉県,柏市,37,高田１６２番地,第３７投票区増田宅前,35.87697111,139.9471694
千葉県,柏市,37,高田６３番地の３６,第３７投票区高田第一公園,35.87492694,139.9425644
千葉県,柏市,37,高田１３９１番地,第３７投票区梅林第四公園,35.88077389,139.9442533
千葉県,柏市,37,高田７３８番地の２,第３７投票区染谷宅前,35.8750525,139.9592942
千葉県,柏市,38,花野井１１６０番地,第３８投票区東花野井第一公園,35.8925675,139.9781014
千葉県,柏市,38,花野井３４１番地の１,第３８投票区田中宅前,35.89317472,139.9744392
千葉県,柏市,38,花野井８２４番地の３４,第３８投票区花野井第二公園,35.89737222,139.9690967
千葉県,柏市,38,花野井９８１番地の４,第３８投票区花野井公会堂横,35.89496806,139.9722458
千葉県,柏市,38,花野井５０５番地,第３８投票区花野井第四調整池,35.89351167,139.9690578
千葉県,柏市,38,花野井１１６０番地の１８１,第３８投票区石橋宅南側,35.893075,139.9790475
千葉県,柏市,38,花野井９７８番地の５,第３８投票区旧吉田家住宅歴史公園駐車場南側,35.89489667,139.9741161
千葉県,柏市,39,小青田２９０番地,第３９投票区柏たなか駅東口ロータリー,35.91188556,139.9572492
千葉県,柏市,39,小青田２丁目４,第３９投票区柏たなか第四公園,35.91121861,139.954505
千葉県,柏市,39,船戸２丁目４,第３９投票区柏たなか第一公園,35.915405,139.9518156
千葉県,柏市,39,船戸３丁目,第３９投票区柏たなか北公園,35.91953111,139.9556289
千葉県,柏市,39,小青田３丁目４,第３９投票区柏たなか第二公園,35.91406417,139.9561367
千葉県,柏市,40,布施１１９６番地の５,第４０投票区柏市布施近隣センター,35.89210639,139.9978456
千葉県,柏市,40,布施５０９番地の１,第４０投票区常盤ガーデン資材置場,35.89489639,139.9980931
千葉県,柏市,40,布施山の田台１９９１－３,第４０投票区あけぼの山農業公園本館駐車場前,35.89346639,140.0053364
千葉県,柏市,40,布施新町二丁目４番,第４０投票区布施第二公園,35.88929889,140.0035539
千葉県,柏市,40,布施新町三丁目２５番,第４０投票区布施第三公園,35.88854528,140.0065836
千葉県,柏市,40,布施新町一丁目４番,第４０投票区布施第一公園,35.890555,139.9994908
千葉県,柏市,40,布施２２０１番地の１,第４０投票区鈴木宅前,35.89127917,140.0074964
千葉県,柏市,40,布施新町四丁目５番,第４０投票区布施第五公園,35.88633083,140.0090175
千葉県,柏市,41,西山一丁目６番,第４１投票区西山第二公園,35.822435,139.9544414
千葉県,柏市,41,西山二丁目２６番,第４１投票区西山第四公園,35.819405,139.9527064
千葉県,柏市,41,酒井根６５３番地の４,第４１投票区柏市酒井根近隣センター,35.81789111,139.9570667
千葉県,柏市,41,西山二丁目９番,第４１投票区西山第一公園,35.82014556,139.9557778
千葉県,柏市,41,青葉台二丁目１６番,第４１投票区青葉台第二公園,35.81292861,139.9573606
千葉県,柏市,41,酒井根６６２番地の１,第４１投票区柏市立酒井根西小学校こどもルーム側,35.81744778,139.9545111
千葉県,柏市,41,西山一丁目２４番,第４１投票区西山第三公園,35.82324611,139.9523828
千葉県,柏市,42,松葉町五丁目１５番,第４２投票区『松葉町五丁目』バス停横,35.89116306,139.9664428
千葉県,柏市,42,松葉町四丁目１３番,第４２投票区松葉第二近隣公園,35.89042667,139.970655
千葉県,柏市,42,松葉町七丁目３０番,第４２投票区松葉第五公園,35.89077417,139.9638492
千葉県,柏市,42,松葉町五丁目３番,第４２投票区『松葉第一小学校前』バス停横,35.88772167,139.9662772
千葉県,柏市,42,松葉町三丁目１４番,第４２投票区『松葉中学校前』バス停横,35.88756333,139.9698889
千葉県,柏市,42,松葉町三丁目１４番,第４２投票区柏市立松葉中学校裏門横,35.88688444,139.9694531
千葉県,柏市,42,松葉町四丁目１１番,第４２投票区柏市松葉近隣センター横,35.88941333,139.9695567
千葉県,柏市,42,松葉町六丁目３０番,第４２投票区松葉第六公園,35.89192028,139.9675672
千葉県,柏市,42,松葉町四丁目６番,第４２投票区松葉第一近隣公園前,35.88810139,139.9708828
千葉県,柏市,43,逆井１４５番地,第４３投票区逆井運動場,35.82065667,139.9902811
千葉県,柏市,43,逆井二丁目２３番,第４３投票区逆井北公園,35.82423944,139.9788075
千葉県,柏市,43,逆井一丁目８番,第４３投票区逆井第二公園,35.82213583,139.9826158
千葉県,柏市,43,逆井８４９番地３４,第４３投票区逆井駅東口ロータリー,35.82303972,139.9844994
千葉県,柏市,43,逆井５５５番地,第４３投票区柏市立逆井中学校正門横,35.81779611,139.9845508
千葉県,柏市,43,藤心８９６番地の１２,第４３投票区ローソン柏藤心店交差点西側,35.81657083,139.9934983
千葉県,柏市,43,逆井四丁目４３番,第４３投票区逆井第三公園,35.81804472,139.9795978
千葉県,柏市,43,逆井５２７番地の３,第４３投票区柏市立逆井中学校裏門脇,35.81701,139.9853769
千葉県,柏市,44,中原２丁目２番,第４４投票区ユニクロ駐車場前植樹帯,35.82800389,139.9730753
千葉県,柏市,44,加賀三丁目３１番,第４４投票区加賀第二公園,35.83039806,139.9729353
千葉県,柏市,44,増尾台三丁目１３番,第４４投票区三本木第一公園,35.82503417,139.9735408
千葉県,柏市,44,中原二丁目１９番,第４４投票区中原第一公園,35.8246975,139.9696706
千葉県,柏市,44,増尾台二丁目１１番,第４４投票区三本木第三公園,35.825185,139.9719483
千葉県,柏市,44,増尾台二丁目３１番,第４４投票区三本木第二公園,35.82278333,139.9701814
千葉県,柏市,44,増尾台三丁目５番９号,第４４投票区柏市立増尾西小学校裏門横,35.82595194,139.974585
千葉県,柏市,44,増尾台三丁目６番,第４４投票区デニーズ柏増尾台店横,35.82556222,139.9769469
千葉県,柏市,45,中新宿二丁目７番９号,第４５投票区富士浅間神社社務所横,35.8340825,139.9490492
千葉県,柏市,45,中新宿三丁目１５番,第４５投票区広池学園北部住宅B棟前,35.834055,139.950365
千葉県,柏市,45,中新宿三丁目１番２１号,第４５投票区中新宿ふるさとセンター前,35.83427361,139.9464767
千葉県,柏市,45,中新宿一丁目８番,第４５投票区中新宿第二公園,35.83490611,139.9424939
千葉県,柏市,45,中新宿三丁目２７８番地の４,第４５投票区須賀工業㈱柏研究研修センター横,35.83301667,139.9450378
千葉県,柏市,46,松葉町二丁目１６番,第４６投票区柏市立松葉第二小学校門横,35.88885889,139.9753594
千葉県,柏市,46,松葉町二丁目１６番,第４６投票区柏市立松葉第二小学校校庭西側,35.88722194,139.9753594
千葉県,柏市,46,松葉町一丁目１９番,第４６投票区『松葉町二丁目』バス停横,35.88897556,139.9760417
千葉県,柏市,46,松葉町一丁目１４番,第４６投票区松葉第一公園,35.88763639,139.9791214
千葉県,柏市,46,松葉町一丁目１２番,第４６投票区『コープタウン前』バス停横,35.88568056,139.9801758
千葉県,柏市,46,松葉町二丁目７番,第４６投票区コープタウン北柏集会所前,35.88482722,139.9796958
千葉県,柏市,46,松葉町一丁目１０番,第４６投票区松葉第二公園,35.88450944,139.9814708
千葉県,柏市,47,北柏四丁目３番,第４７投票区セレモニー天来北柏ホール横,35.87140861,139.9870103
千葉県,柏市,47,北柏一丁目４番,第４７投票区北柏第一公園,35.87505583,139.9862633
千葉県,柏市,47,北柏一丁目１番,第４７投票区JR北柏駅南口前,35.87500194,139.98817
千葉県,柏市,47,北柏二丁目９番,第４７投票区北柏第三公園,35.87335333,139.99039
千葉県,柏市,47,北柏三丁目９番,第４７投票区北柏第二公園,35.87260694,139.9882125
千葉県,柏市,47,北柏三丁目９番,第４７投票区北柏第二公園管理事務所前,35.87200139,139.9879967
千葉県,柏市,47,北柏二丁目２１番,第４７投票区北柏第四公園,35.87064028,139.9904917
千葉県,柏市,47,北柏台４番地の１,第４７投票区北柏台公園,35.87624667,139.9916981
千葉県,柏市,47,北柏１丁目８?４,第４７投票区北柏第一緑地,35.87476,139.9848503
千葉県,柏市,48,宿連寺４１３番地の２,第４８投票区ニューサロンふじ前,35.88866722,139.9846658
千葉県,柏市,48,宿連寺３６４番地の１,第４８投票区新山荘前,35.89020944,139.9811914
千葉県,柏市,48,宿連寺２３９番地,第４８投票区宿連寺第一公園,35.88599111,139.9838278
千葉県,柏市,48,宿連寺４４２番地,第４８投票区宿連寺公園,35.888635,139.9863553
千葉県,柏市,48,宿連寺４３９番地の６,第４８投票区佐々木宅前の畑,35.88700028,139.9858517
千葉県,柏市,48,宿連寺４２９番地,第４８投票区須賀神社前,35.88850278,139.983165
千葉県,柏市,49,柏五丁目７番２３号,第４９投票区柏市役所公用車駐車場前,35.86696778,139.9755717
千葉県,柏市,49,柏五丁目１０番１号,第４９投票区柏市役所国道１６号側入口隣,35.86816,139.9766619
千葉県,柏市,49,柏５６５番地,第４９投票区柏公園入口,35.86692111,139.9791917
千葉県,柏市,49,柏４２３番地の１,第４９投票区呼塚町会倉庫横,35.87235583,139.9799006
千葉県,柏市,49,柏４３６番地２,第４９投票区柏第二公園,35.86811028,139.9794125
千葉県,柏市,49,柏五丁目８番１２号,第４９投票区柏市立図書館北側,35.86646528,139.9766117
千葉県,柏市,49,柏２２５番地の４,第４９投票区㈱島田横,35.86862778,139.9781553
千葉県,柏市,49,柏下字東４,第４９投票区柏ふるさと公園,35.86610639,139.9880983
千葉県,柏市,50,戸張９９９番地,第５０投票区戸張地区公園駐車場,35.85737222,139.9928814
千葉県,柏市,50,戸張１３０８番地の１,第５０投票区戸張ふるさと会館,35.85969333,139.9906392
千葉県,柏市,50,戸張１５６６番地の３,第５０投票区岩立宅横梅畑,35.86213833,139.9974528
千葉県,柏市,50,戸張１４２０番地の１,第５０投票区関口宅前,35.86118306,139.9967311
千葉県,柏市,50,戸張１０２１番地の４３,第５０投票区戸張第五公園,35.85826028,139.9937117
千葉県,柏市,50,戸張９８１番地の１,第５０投票区松丸宅脇,35.85850333,139.9918378
千葉県,柏市,50,戸張９６８番地の２,第５０投票区日本体育大学柏高等学校1号館校舎前,35.85675306,139.9890161
千葉県,柏市,51,名戸ケ谷８８３番地の１,第５１投票区名戸ケ谷子供の遊び場,35.84346944,139.9817578
千葉県,柏市,51,新柏四丁目２番,第５１投票区名戸ケ谷第四公園,35.84300167,139.9750306
千葉県,柏市,51,増尾二丁目２３番,第５１投票区小山台公園,35.83454472,139.9774344
千葉県,柏市,51,増尾二丁目１０番,第５１投票区稲荷谷公園,35.83208028,139.9769453
千葉県,柏市,51,増尾一丁目２３番１号,第５１投票区柏市立土中学校正門横,35.83343389,139.9743342
千葉県,柏市,51,増尾三丁目１番１号,第５１投票区柏市増尾近隣センター前,35.83434694,139.9794606
千葉県,柏市,51,増尾６５０番地,第５１投票区増尾城址総合公園,35.83952389,139.9833597
千葉県,柏市,51,増尾６５０番地,第５１投票区増尾城址総合公園ビオトープ,35.84345444,139.9865986
千葉県,柏市,51,中原１８１６番地の２,第５１投票区柏市立中原中学校北門,35.83761861,139.9705686
千葉県,柏市,51,名戸ケ谷６８３番地１,第５１投票区柏市立名戸ケ谷保育園前,35.84581972,139.9836644
千葉県,柏市,52,新柏三丁目２番地,第５２投票区名戸ケ谷第五公園,35.84202917,139.9713603
千葉県,柏市,52,豊住二丁目１番,第５２投票区豊住二丁目子供の遊び場,35.83716722,139.9600089
千葉県,柏市,52,豊住三丁目１番,第５２投票区柏市立豊住保育園,35.83831861,139.9640231
千葉県,柏市,52,豊住三丁目１５２ー１,第５２投票区旧柏市社会福祉センター跡地,35.83846639,139.9659294
千葉県,柏市,52,新柏二丁目１７番地,第５２投票区名戸ケ谷第三公園,35.8399725,139.9728144
千葉県,柏市,52,新柏一丁目１１番,第５２投票区名戸ケ谷第二公園,35.83885722,139.9697994
千葉県,柏市,52,新柏一丁目１番,第５２投票区東武鉄道新柏駅前広場,35.83872972,139.9669572
千葉県,柏市,53,南増尾七丁目１番,第５３投票区南増尾交差点エネオス南増尾ＳＳ店前,35.81259389,139.9604522
千葉県,柏市,53,南増尾六丁目１６番１号,第５３投票区柏市立南部中学校正門横,35.80847472,139.9641392
千葉県,柏市,53,南増尾六丁目１６番１号,第５３投票区柏市立南部中学校裏門横,35.80951333,139.9643947
千葉県,柏市,53,南増尾八丁目６番,第５３投票区西一里塚第二公園,35.81107028,139.9590486
千葉県,柏市,53,南増尾４丁目９番１号,第５３投票区柏市水道部第四水源地,35.81391278,139.9672989
千葉県,柏市,53,南増尾八丁目８番,第５３投票区西一里塚公園,35.81011361,139.9580161
千葉県,柏市,54,南逆井二丁目２番,第５４投票区並木第二公園,35.80559083,139.9689631
千葉県,柏市,54,南逆井三丁目２３番,第５４投票区川上宅前,35.80181861,139.9727272
千葉県,柏市,54,南逆井一丁目２０番１号,第５４投票区柏市南部近隣センター体育館北側,35.80675056,139.9719444
千葉県,柏市,54,南逆井二丁目５番,第５４投票区逆井第一公園,35.80380417,139.9692569
千葉県,柏市,54,南逆井一丁目２０番,第５４投票区今村宅前,35.80639333,139.9732625
千葉県,柏市,54,南逆井一丁目１７番,第５４投票区大橋宅前の畑,35.80805972,139.9734414
千葉県,柏市,55,松ケ崎１０１２番地,第５５投票区豊島宅西側,35.87798889,139.9738308
千葉県,柏市,55,松ケ崎１１１５番地の４,第５５投票区松ケ崎第一公園,35.88017861,139.9720014
千葉県,柏市,55,松ケ崎１０６８番地の２,第５５投票区長妻宅前,35.88165278,139.974635
千葉県,柏市,55,松ケ崎３１９番地の２,第５５投票区松ケ崎集会所,35.88180972,139.9778511
千葉県,柏市,55,松ケ崎９６番地の１０,第５５投票区松ケ崎第六公園,35.88424167,139.9731014
千葉県,柏市,55,松ケ崎３４２番地の５,第５５投票区後田第一公園,35.8826725,139.9791214
千葉県,柏市,55,大山台二丁目２１番,第５５投票区モラージュ柏前,35.88340167,139.97043
千葉県,柏市,55,松ケ崎４１５番地,第５５投票区松ケ崎第五公園,35.88042139,139.9812694
千葉県,柏市,56,大室１１９３番地の３,第５６投票区柏市立田中小学校正門横,35.900885,139.9630606
千葉県,柏市,56,大室１３１１番地の６３,第５６投票区柏ビレジ運動広場,35.90288583,139.9651547
千葉県,柏市,56,大室１２８５番地の１,第５６投票区柏市柏ビレジ近隣センター,35.9013625,139.9685331
千葉県,柏市,56,花野井１８７２番地の１６９,第５６投票区柏ビレジ第三公園,35.90194528,139.9727961
千葉県,柏市,56,花野井７６５番地,第５６投票区柏ビレジ第九緑地,35.89725722,139.9674275
千葉県,柏市,56,花野井１６８４番地,第５６投票区柏ビレジ第二公園,35.89966528,139.9724503
千葉県,柏市,56,大室１８７４番地の６２,第５６投票区柏ビレジ第五公園,35.90557528,139.9707169
千葉県,柏市,57,西柏台二丁目３番,第５７投票区御立山ふるさとセンター横,35.88524778,139.9264717
千葉県,柏市,57,西原七丁目３番１号,第５７投票区東京自働機械製作所柏工場前,35.88978722,139.926055
千葉県,柏市,57,西原六丁目１３番１号,第５７投票区柏市立西原中学校正門横,35.88932222,139.9243953
千葉県,柏市,57,西柏台二丁目１番,第５７投票区御立山第六公園,35.88597556,139.9265019
千葉県,柏市,57,西原六丁目１３番１号,第５７投票区柏市立西原中学校西側,35.88869444,139.9230772
千葉県,柏市,57,西原七丁目９番,第５７投票区御立山第三公園,35.88764639,139.9286356
千葉県,柏市,57,西柏台二丁目３番,第５７投票区御立山第五公園,35.88486083,139.9279797
千葉県,柏市,58,篠籠田１４８２－３,第５８投票区篠籠田後原公園,35.87174972,139.9493369
千葉県,柏市,58,豊四季２１４番地の６４,第５８投票区八幡山公園,35.86847056,139.9480056
千葉県,柏市,58,篠籠田１０５１番地,第５８投票区今泉第一公園,35.86756139,139.9506178
千葉県,柏市,58,篠籠田９８７番地の１,第５８投票区柏市立柏第三中学校正門横,35.86670417,139.953355
千葉県,柏市,58,篠籠田９８７番地の１,第５８投票区柏市立柏第三中学校裏門横,35.8680825,139.9536897
千葉県,柏市,58,篠籠田１４９０番地の４６,第５８投票区後原第一公園,35.87279667,139.9464461
千葉県,柏市,58,篠籠田１４３３番地の２,第５８投票区中野宅横,35.87063528,139.9445953
千葉県,柏市,58,篠籠田９８７番地の１,第５８投票区柏市立柏第三中学校西側,35.86691722,139.9525758
千葉県,柏市,59,十余二５７４番地の１５９,第５９投票区鏑木宅脇,35.9058375,139.9298842
千葉県,柏市,59,伊勢原一丁目４番,第５９投票区緑町第二公園,35.90313722,139.926625
千葉県,柏市,59,みどり台四丁目９番,第５９投票区緑町第一公園,35.904335,139.9241508
千葉県,柏市,59,みどり台四丁目１番,第５９投票区新青田第一公園,35.90282417,139.9219286
千葉県,柏市,59,みどり台四丁目２４番,第５９投票区緑町第三公園,35.90453694,139.9277028
千葉県,柏市,59,伊勢原一丁目１３番,第５９投票区伊勢原第一公園,35.90199361,139.9297142
千葉県,柏市,59,みどり台二丁目１５番,第５９投票区猪尻第一公園,35.90306056,139.9195256
千葉県,柏市,59,みどり台二丁目２１番,第５９投票区みどり台第一公園,35.90495972,139.9214986
千葉県,柏市,59,伊勢原一丁目３番地２８,第５９投票区伊勢原ふるさと公園,35.90249528,139.9282889
千葉県,柏市,60,柏の葉四丁目４－１,第６０投票区柏市立十余二小学校正門横,35.89829389,139.9332131
千葉県,柏市,60,柏の葉四丁目４００－２,第６０投票区『柏の葉公園』バス停横,35.89768361,139.9326917
千葉県,柏市,60,柏の葉四丁目１番,第６０投票区『柏の葉公園中央』バス停横,35.89490889,139.9423533
千葉県,柏市,60,柏の葉六丁目１番,第６０投票区『柏の葉高校前』バス停横,35.89152667,139.9442658
千葉県,柏市,60,柏の葉４丁目１番,第６０投票区『柏の葉公園住宅前』バス停横,35.89276083,139.9379592
千葉県,柏市,60,十余二１７５番地,第６０投票区ひかり隣保館正門横,35.88806944,139.9397833
千葉県,柏市,60,柏の葉１丁目１０番,第６０投票区中十余二第一公園,35.89117389,139.9422578
千葉県,柏市,60,柏の葉２丁目１６番,第６０投票区中十余二第二公園,35.89164972,139.9390189
千葉県,柏市,61,布瀬１６５５番地の１,第６１投票区湯浅商店脇,35.84034833,140.0917186
千葉県,柏市,61,布瀬１６２６番地,第６１投票区布瀬バス回転場,35.83835861,140.0896786
千葉県,柏市,61,布瀬６１６番地の１,第６１投票区『新堀』バス停脇,35.83517194,140.08735
千葉県,柏市,61,手賀４８０－５,第６１投票区柏市立手賀東小学校正門横,35.83964417,140.078205
千葉県,柏市,61,手賀１４１８番地の１,第６１投票区八幡神社前,35.83896944,140.0708053
千葉県,柏市,61,手賀６２６番地,第６１投票区エネオス手賀給油所前,35.84391833,140.0736056
千葉県,柏市,61,手賀７８２番地の１,第６１投票区柴田宅前,35.84423944,140.0715575
千葉県,柏市,61,片山７０８番地の１,第６１投票区片山児童遊園出入口右側,35.843705,140.0665269
千葉県,柏市,61,片山２７９番地の１,第６１投票区手賀の丘公園センター向い側,35.84079444,140.0594606
千葉県,柏市,62,柳戸６７５番地の２,第６２投票区柳戸塙子供の遊び場南側,35.83638278,140.0529203
千葉県,柏市,62,泉１３４６番地,第６２投票区モービル石油沼南泉ＳＳ店向い側,35.83771694,140.0461828
千葉県,柏市,62,泉５４４番地の１,第６２投票区柏市立手賀西小学校正門横,35.84052639,140.0447611
千葉県,柏市,62,鷲野谷２番地,第６２投票区鷲野谷青年館前,35.84787694,140.03869
千葉県,柏市,62,岩井２０４番地の１,第６２投票区小川宅前,35.85011333,140.0342472
千葉県,柏市,62,若白毛１２０１番地の６,第６２投票区『雉子打』バス停脇,35.84125444,140.0199739
千葉県,柏市,62,若白毛６６８番地の１,第６２投票区小川塗装店西側,35.83479639,140.0274947
千葉県,柏市,62,金山４９０番地,第６２投票区金山根古子供の遊び場前,35.82556444,140.0397494
千葉県,柏市,62,若白毛１１０－５,第６２投票区沼南高校南口バス停横,35.84289833,140.0305231
千葉県,柏市,62,若白毛７４番地,第６２投票区若白毛区民会館横,35.84351472,140.025725
千葉県,柏市,63,箕輪２９０番地,第６３投票区箕輪区民会館東側,35.85167667,140.0237681
千葉県,柏市,63,五條谷１８７番地,第６３投票区『五條谷』バス停脇,35.84896611,140.0159803
千葉県,柏市,63,岩井８０２番地の４,第６３投票区柏市岩井水源地前,35.843545,140.0146503
千葉県,柏市,63,大島田４８番地の１,第６３投票区柏市沼南庁舎駐車場植え込み,35.84161667,140.0081889
千葉県,柏市,63,大島田２５番地,第６３投票区柏市沼南庁舎バス乗継場北側,35.84210111,140.0073694
千葉県,柏市,63,大島田２６１番地の１,第６３投票区柏市沼南近隣センター東側駐車場植え込み,35.83977083,140.0075736
千葉県,柏市,63,大島田３０５番地,第６３投票区柏市学校給食センター進入路,35.84039806,140.0052136
千葉県,柏市,63,手賀の杜二丁目1番1号,第６３投票区手賀の杜スポーツ広場西側,35.85098917,140.0288564
千葉県,柏市,64,大井１６４１番地,第６４投票区手賀沼自然ふれあい緑道休憩所,35.85817611,140.0028944
千葉県,柏市,64,緑台６番,第６４投票区みどり台公園南側,35.84792056,140.0082631
千葉県,柏市,64,大井１３６９番地の１,第６４投票区妙照寺柏霊園前島地,35.85018917,139.9996506
千葉県,柏市,64,大井９３４番地の２,第６４投票区大井浅間下エリカ公園,35.84893028,139.9951714
千葉県,柏市,64,大井５７８番地の２,第６４投票区石原宅向い側,35.84542722,139.9998694
千葉県,柏市,64,大井１８５４番地の６,第６４投票区柏市立風早北部小学校裏門横,35.84449028,140.0072772
千葉県,柏市,64,大井１８５２番地の１,第６４投票区柏市立風早北部小学校正門横,35.84401083,140.0071778
千葉県,柏市,65,大津ケ丘一丁目２５番,第６５投票区大津ケ丘殿山公園北側遊歩道,35.84398306,140.0047458
千葉県,柏市,65,大津ケ丘一丁目３８番,第６５投票区大津ケ丘向原公園東側,35.84405028,140.0017606
千葉県,柏市,65,大津ケ丘一丁目４６番,第６５投票区好友堂薬局前,35.84274556,140.0029047
千葉県,柏市,65,大津ケ丘二丁目１番,第６５投票区大津ケ丘中央公園『大津ケ丘一丁目』バス停脇,35.84119167,140.002395
千葉県,柏市,65,大津ケ丘二丁目１番,第６５投票区『大津ケ丘二丁目』バス停脇,35.83942611,140.0028244
千葉県,柏市,65,大津ケ丘二丁目２９番,第６５投票区大津ケ丘交番脇,35.8386525,139.9992758
千葉県,柏市,65,大津ケ丘二丁目２０番,第６５投票区大津ケ丘市ノ坪公園桐友学園前側,35.84126278,139.9988236
千葉県,柏市,66,大津ケ丘三丁目２２番,第６６投票区大津ケ丘中ノ橋公園東側,35.84401972,139.99788
千葉県,柏市,66,大井１００番地の２,第６６投票区『中の橋』バス停脇,35.84631944,139.9942325
千葉県,柏市,66,大井１３２番地の１,第６６投票区石戸宅向い側,35.84422667,139.9927544
千葉県,柏市,66,大津ケ丘三丁目１４番,第６６投票区大津ケ丘南田公園西側石垣,35.84085639,139.9960542
千葉県,柏市,66,大津ケ丘三丁目５０番地,第６６投票区柏市立大津ケ丘第一小学校南側,35.83940056,139.9971531
千葉県,柏市,66,大津ケ丘三丁目１番地の１,第６６投票区大津ケ丘第一住宅３－１－６号棟西側,35.83734222,139.9971419
千葉県,柏市,66,大津ケ丘三丁目２２番,第６６投票区大津ヶ丘中ノ橋公園西側,35.84517944,139.9962058
千葉県,柏市,67,大津ケ丘四丁目８番地,第６７投票区柏市立大津ケ丘第二小学校体育館側,35.83660111,140.0025242
千葉県,柏市,67,塚崎二丁目９番,第６７投票区塚崎白幡公園南側,35.83354944,140.0019831
千葉県,柏市,67,大津ケ丘四丁目５番地の１,第６７投票区大津ケ丘第五住宅４－５－２８号棟北側駐車場前,35.83622694,139.9996975
千葉県,柏市,67,大津ケ丘四丁目５番地の１,第６７投票区大津ケ丘第五住宅４－５－２７号棟北側,35.83616444,139.9985414
千葉県,柏市,67,塚崎二丁目９番,第６７投票区塚崎白幡公園西側,35.83388528,140.0015733
千葉県,柏市,67,大津ケ丘四丁目８番地,第６７投票区柏市立大津ケ丘第二小学校校庭東側,35.83565417,140.0037419
千葉県,柏市,67,大津ケ丘四丁目２３番,第６７投票区大津ケ丘中谷津公園学校側,35.83664389,140.0035664
千葉県,柏市,68,塚崎一丁目５番,第６８投票区塚崎中谷津公園南側,35.83407778,140.005555
千葉県,柏市,68,風早二丁目１番,第６８投票区風早公園駐車場前,35.82849722,140.0094478
千葉県,柏市,68,塚崎１３１９番地,第６８投票区柏市立風早中学校正門横,35.83154694,140.0036528
千葉県,柏市,68,塚崎５９２番地の２１,第６８投票区塚崎くすの木公園前,35.83267194,139.9982014
千葉県,柏市,68,塚崎６８７番地,第６８投票区冨澤宅前,35.83196389,139.9958317
千葉県,柏市,68,塚崎１４５４番地,第６８投票区塚崎運動場入口,35.82666722,140.0013689
千葉県,柏市,68,塚崎１３７４番地,第６８投票区柏市心身障害者福祉作業所ひまわり園脇,35.83004722,140.0083689
千葉県,柏市,69,藤ケ谷５８８番地の１,第６９投票区藤ケ谷区民館前,35.80905361,140.0235372
千葉県,柏市,69,藤ケ谷６１７番地の１,第６９投票区金子宅向い側,35.81287556,140.0254581
千葉県,柏市,69,藤ケ谷平作１７９５番７,第６９投票区森山宅脇,35.81102861,140.0169464
千葉県,柏市,69,藤ケ谷１７９０番地の１,第６９投票区藤ケ谷ふれあい公園,35.81021056,140.018885
千葉県,柏市,69,藤ケ谷１１２６番地の１,第６９投票区『基地住宅』バス停脇,35.80644306,140.0216581
千葉県,柏市,69,藤ケ谷１０９７番３,第６９投票区㈲俊和運輸隣梅林の道路側,35.80862306,140.0268961
千葉県,柏市,69,藤ケ谷１１９２番地の５,第６９投票区海鵬荘入口道路前,35.806165,140.0276078
千葉県,柏市,69,藤ケ谷１６６１番地の３,第６９投票区海上自衛隊下総航空基地正門前,35.80555167,140.0235778
千葉県,柏市,70,藤ケ谷新田３番地の１,第７０投票区四ツ久保子供の遊び場南側,35.82286944,140.0178836
千葉県,柏市,70,藤ケ谷新田１１１番地２,第７０投票区柏市立風早南部小学校来客・職員用門横,35.81812444,140.0183903
千葉県,柏市,70,高柳７８４番地の１２,第７０投票区青木宅脇,35.81656028,140.0094925
千葉県,柏市,70,高柳５６６番地の１,第７０投票区『香取神社』バス停脇,35.81668583,140.0057044
千葉県,柏市,70,藤ケ谷１９０８番地１,第７０投票区沼南体育館前,35.82641778,140.019735
千葉県,柏市,70,高柳９２４番地の６,第７０投票区高柳塚越公園北側,35.80765528,140.0098453
千葉県,柏市,70,藤ケ谷１７８０番地の１,第７０投票区角新食堂前,35.80863333,140.0190617
千葉県,柏市,71,高柳１４１３番地,第７１投票区美南園(みなみえん),35.81233167,140.0013086
千葉県,柏市,71,高柳１４４６番地の１,第７１投票区『高柳小山』バス停脇,35.80996639,140.0031817
千葉県,柏市,71,高柳１３３５番地の４６,第７１投票区高柳中島第三公園,35.81383417,139.9990731
千葉県,柏市,71,高柳１４９５番地の５,第７１投票区マルヤ高柳店向い側,35.80811861,140.0008733
千葉県,柏市,71,高南台一丁目１番地の１,第７１投票区柏市立高柳中学校正門横,35.80648444,139.9952806
千葉県,柏市,71,高南台一丁目９番,第７１投票区中島込公園西側,35.80430806,139.9960683
千葉県,柏市,71,高柳１１０４番地の４３,第７１投票区高柳南公園西側,35.80468722,140.0036472
千葉県,柏市,71,高柳１４８９番地,第７１投票区高柳駅西口ロータリー,35.80836944,139.99856
千葉県,柏市,72,高柳１６５２番地の１,第７２投票区柏市高柳児童センター,35.81126306,139.9979028
千葉県,柏市,72,高柳１７６３番地の３,第７２投票区高柳丸山下１号公園北側,35.81132167,139.9961228
千葉県,柏市,72,高柳１７９１番地の２８,第７２投票区高柳丸山下２号公園北側,35.81055222,139.9933597
千葉県,柏市,72,高柳１８０３－１０,第７２投票区新田中峠公園,35.80852583,139.9916708
千葉県,柏市,72,高柳新田４番地の１,第７２投票区愛宕神社東側,35.80819333,139.9919103
千葉県,柏市,72,高南台三丁目１４番地,第７２投票区柏市立高柳小学校正門横,35.80670417,139.9952983
千葉県,柏市,72,高南台三丁目９番,第７２投票区稲荷峠２号公園南側,35.80342139,139.9927986
千葉県,柏市,73,しいの木台五丁目１１番,第７３投票区ひづめ公園東側,35.80873,139.9876647
千葉県,柏市,73,しいの木台二丁目１１番,第７３投票区しいの木公園北側,35.80476861,139.9839361
千葉県,柏市,73,しいの木台三丁目２番地,第７３投票区柏市立高柳西小学校正門横,35.80336833,139.9822931
千葉県,柏市,73,しいの木台五丁目３１番地２,第７３投票区柏市立高柳西保育園,35.80610861,139.9833142
千葉県,柏市,73,しいの木台三丁目１０番,第７３投票区白馬公園南側,35.80158556,139.9805806
千葉県,柏市,73,しいの木台五丁目４２番,第７３投票区たてがみ公園東側,35.80727861,139.9836478
千葉県,柏市,73,しいの木台四丁目４２番,第７３投票区野馬公園東側,35.80062083,139.9772336
千葉県,柏市,73,しいの木台５丁目１６－２９,第７３投票区高柳〆切内２号公園,35.80830472,139.9859947
