prefecture,city,number,address,name,lat,long
千葉県,流山市,1,加１丁目,第1投票所 流山北小学校プレイルーム,35.85966333,139.9045639
千葉県,流山市,2,加３丁目,第1投票所 流山北小学校プレイルーム,35.86164778,139.9120153
千葉県,流山市,3,加６丁目,第1投票所 流山北小学校プレイルーム,35.8587975,139.9018153
千葉県,流山市,4,加３丁目,第1投票所 流山北小学校プレイルーム,35.8607375,139.9069697
千葉県,流山市,5,加３丁目,第1投票所 流山北小学校プレイルーム,35.85973194,139.90996
千葉県,流山市,6,加３丁目,第1投票所 流山北小学校プレイルーム,35.8620425,139.9097561
千葉県,流山市,7,加１丁目,第1投票所 流山北小学校プレイルーム,35.85933194,139.9025375
千葉県,流山市,1,平和台１丁目,第2投票所 流山市役所,35.85720833,139.90238
千葉県,流山市,2,平和台１丁目,第2投票所 流山市役所,35.85514917,139.9019367
千葉県,流山市,3,平和台２丁目,第2投票所 流山市役所,35.85368472,139.9039828
千葉県,流山市,4,平和台３丁目,第2投票所 流山市役所,35.85091028,139.9027731
千葉県,流山市,5,平和台４丁目,第2投票所 流山市役所,35.85356028,139.9065953
千葉県,流山市,6,平和台５丁目,第2投票所 流山市役所,35.85514222,139.9082047
千葉県,流山市,7,平和台５丁目,第2投票所 流山市役所,35.85604111,139.910145
千葉県,流山市,1,流山３丁目,第3投票所 流山小学校体育館,35.8529575,139.8994458
千葉県,流山市,2,流山２丁目,第3投票所 流山小学校体育館,35.85425111,139.9003242
千葉県,流山市,3,流山４丁目,第3投票所 流山小学校体育館,35.85136806,139.9008336
千葉県,流山市,4,流山２丁目,第3投票所 流山小学校体育館,35.85544778,139.8984031
千葉県,流山市,5,流山1丁目,第3投票所 流山小学校体育館,35.85595028,139.9015164
千葉県,流山市,6,流山３丁目,第3投票所 流山小学校体育館,35.85220139,139.8967764
千葉県,流山市,7,流山５丁目,第3投票所 流山小学校体育館,35.85067806,139.9004206
千葉県,流山市,1,流山,第4投票所 東谷自治会館,35.84506194,139.901335
千葉県,流山市,2,南流山５丁目,第4投票所 東谷自治会館,35.84314444,139.8993358
千葉県,流山市,3,流山９丁目,第4投票所 東谷自治会館,35.84860333,139.9011086
千葉県,流山市,4,流山９丁目,第4投票所 東谷自治会館,35.84741028,139.9010908
千葉県,流山市,5,流山９丁目,第4投票所 東谷自治会館,35.84727667,139.8986761
千葉県,流山市,6,流山９６５番地の１地先,第4投票所 東谷自治会館,35.84504333,139.9000747
千葉県,流山市,7,流山９丁目,第4投票所 東谷自治会館,35.84997111,139.9011369
千葉県,流山市,1,南流山３丁目,第5投票所 南流山センター,35.83855778,139.9019592
千葉県,流山市,2,南流山３丁目,第5投票所 南流山センター,35.83883222,139.9005753
千葉県,流山市,3,南流山６丁目,第5投票所 南流山センター,35.84026167,139.8993592
千葉県,流山市,4,南流山６丁目,第5投票所 南流山センター,35.83688806,139.8984536
千葉県,流山市,5,南流山３丁目,第5投票所 南流山センター,35.83778,139.9000431
千葉県,流山市,6,南流山６丁目,第5投票所 南流山センター,35.838945,139.8994586
千葉県,流山市,7,南流山３丁目,第5投票所 南流山センター,35.84006611,139.9019769
千葉県,流山市,1,鰭ケ崎,第6投票所 鰭ケ崎小学校体育館,35.83960472,139.9098311
千葉県,流山市,2,鰭ケ崎,第6投票所 鰭ケ崎小学校体育館,35.83978361,139.9077961
千葉県,流山市,3,鰭ケ崎,第6投票所 鰭ケ崎小学校体育館,35.84119111,139.9107886
千葉県,流山市,4,鰭ケ崎,第6投票所 鰭ケ崎小学校体育館,35.84208806,139.9083078
千葉県,流山市,5,南流山１丁目,第6投票所 鰭ケ崎小学校体育館,35.83880917,139.9071272
千葉県,流山市,6,南流山１丁目,第6投票所 鰭ケ崎小学校体育館,35.8385425,139.9041483
千葉県,流山市,7,南流山４丁目,第6投票所 鰭ケ崎小学校体育館,35.84147444,139.9038458
千葉県,流山市,8,南流山１丁目,第6投票所 鰭ケ崎小学校体育館,35.83803389,139.9068464
千葉県,流山市,1,宮園２丁目,第7投票所 宮園自治会館,35.84459306,139.9145397
千葉県,流山市,2,思井,第7投票所 宮園自治会館,35.84596028,139.9131672
千葉県,流山市,3,宮園２丁目,第7投票所 宮園自治会館,35.84505361,139.9144569
千葉県,流山市,4,宮園３丁目,第7投票所 宮園自治会館,35.8472175,139.91949
千葉県,流山市,5,宮園３丁目,第7投票所 宮園自治会館,35.84602417,139.9174722
千葉県,流山市,6,宮園３丁目,第7投票所 宮園自治会館,35.84668222,139.9182681
千葉県,流山市,7,宮園３丁目,第7投票所 宮園自治会館,35.84833639,139.9182994
千葉県,流山市,1,前ヶ崎,第8投票所 前ケ崎みどり自治会館,35.83521278,139.9437222
千葉県,流山市,2,前ケ崎,第8投票所 前ケ崎みどり自治会館,35.836605,139.9397258
千葉県,流山市,3,前ヶ崎,第8投票所 前ケ崎みどり自治会館,35.83501028,139.9417522
千葉県,流山市,4,前ケ崎,第8投票所 前ケ崎みどり自治会館,35.8375475,139.9409006
千葉県,流山市,5,前ケ崎,第8投票所 前ケ崎みどり自治会館,35.83799222,139.9427242
千葉県,流山市,6,前ケ崎,第8投票所 前ケ崎みどり自治会館,35.83462639,139.9391508
千葉県,流山市,7,前ケ崎,第8投票所 前ケ崎みどり自治会館,35.83594278,139.9378425
千葉県,流山市,1,向小金３丁目,第9投票所 向小金小学校体育館,35.8369025,139.9519925
千葉県,流山市,2,向小金３丁目,第9投票所 向小金小学校体育館,35.83753167,139.9491075
千葉県,流山市,3,向小金２丁目,第9投票所 向小金小学校体育館,35.83813694,139.9462969
千葉県,流山市,4,向小金２丁目,第9投票所 向小金小学校体育館,35.83990361,139.9463314
千葉県,流山市,5,向小金４丁目,第9投票所 向小金小学校体育館,35.83581861,139.9538547
千葉県,流山市,6,向小金３丁目,第9投票所 向小金小学校体育館,35.840735,139.9500033
千葉県,流山市,7,向小金３丁目,第9投票所 向小金小学校体育館,35.83781,139.9515642
千葉県,流山市,8,向小金４丁目,第9投票所 向小金小学校体育館,35.83726056,139.9543217
千葉県,流山市,1,向小金１丁目,第10投票所 向小金田島自治会館,35.84306472,139.9501483
千葉県,流山市,2,向小金１丁目,第10投票所 向小金田島自治会館,35.84470556,139.9498103
千葉県,流山市,3,向小金１丁目,第10投票所 向小金田島自治会館,35.84314806,139.9496272
千葉県,流山市,4,向小金１丁目,第10投票所 向小金田島自治会館,35.84147528,139.9473339
千葉県,流山市,5,向小金１丁目,第10投票所 向小金田島自治会館,35.84349972,139.9478581
千葉県,流山市,6,向小金１丁目,第10投票所 向小金田島自治会館,35.84010944,139.9440697
千葉県,流山市,7,向小金１丁目,第10投票所 向小金田島自治会館,35.84364,139.9519239
千葉県,流山市,1,松ケ丘２丁目,第11投票所 松ケ丘自治会館,35.84801778,139.9494431
千葉県,流山市,2,松ケ丘１丁目,第11投票所 松ケ丘自治会館,35.84875556,139.9526308
千葉県,流山市,3,松ケ丘５丁目,第11投票所 松ケ丘自治会館,35.85033389,139.9468744
千葉県,流山市,4,松ケ丘５丁目,第11投票所 松ケ丘自治会館,35.85311778,139.9476778
千葉県,流山市,5,松ケ丘１丁目,第11投票所 松ケ丘自治会館,35.8477575,139.9509953
千葉県,流山市,6,松ケ丘２丁目,第11投票所 松ケ丘自治会館,35.84659583,139.9493533
千葉県,流山市,7,松ケ丘５丁目,第11投票所 松ケ丘自治会館,35.852035,139.9458339
千葉県,流山市,1,松ケ丘２丁目,第12投票所 松ケ丘旭会館,35.84510722,139.9477592
千葉県,流山市,2,松ケ丘３丁目,第12投票所 松ケ丘旭会館,35.84457139,139.9466417
千葉県,流山市,3,松ケ丘３丁目,第12投票所 松ケ丘旭会館,35.84382833,139.9456428
千葉県,流山市,4,名都借,第12投票所 松ケ丘旭会館,35.84636278,139.9442906
千葉県,流山市,5,松ケ丘３丁目,第12投票所 松ケ丘旭会館,35.84333806,139.9457506
千葉県,流山市,6,松ケ丘４丁目,第12投票所 松ケ丘旭会館,35.84930611,139.9453117
千葉県,流山市,7,松ケ丘２丁目,第12投票所 松ケ丘旭会館,35.84951528,139.9478078
千葉県,流山市,1,名都借,第13投票所 東部中学校特別支援教室,35.84354361,139.9365586
千葉県,流山市,2,前ケ崎,第13投票所 東部中学校特別支援教室,35.84134333,139.9392919
千葉県,流山市,3,名都借,第13投票所 東部中学校特別支援教室,35.84187833,139.9418197
千葉県,流山市,4,名都借,第13投票所 東部中学校特別支援教室,35.84311,139.9429411
千葉県,流山市,5,名都借,第13投票所 東部中学校特別支援教室,35.84697222,139.9398414
千葉県,流山市,6,前ケ崎,第13投票所 東部中学校特別支援教室,35.84999861,139.9323497
千葉県,流山市,7,前ケ崎,第13投票所 東部中学校特別支援教室,35.84012167,139.9370347
千葉県,流山市,1,中,第14投票所 生涯学習センター,35.85385167,139.9169019
千葉県,流山市,2,後平井,第14投票所 生涯学習センター,35.85731389,139.9173267
千葉県,流山市,3,後平井,第14投票所 生涯学習センター,35.85671472,139.9155842
千葉県,流山市,4,後平井,第14投票所 生涯学習センター,35.85760222,139.9157183
千葉県,流山市,5,後平井,第14投票所 生涯学習センター,35.85547861,139.9146333
千葉県,流山市,6,前平井,第14投票所 生涯学習センター,35.85393806,139.9149292
千葉県,流山市,7,前平井,第14投票所 生涯学習センター,35.85393306,139.9154097
千葉県,流山市,1,古間木,第15投票所 八木中学校図書室,35.85468056,139.9274019
千葉県,流山市,2,野々下１丁目,第15投票所 八木中学校図書室,35.86071389,139.9240072
千葉県,流山市,3,野々下１丁目,第15投票所 八木中学校図書室,35.85984417,139.9188825
千葉県,流山市,4,古間木,第15投票所 八木中学校図書室,35.85409278,139.9312717
千葉県,流山市,5,芝崎,第15投票所 八木中学校図書室,35.85376889,139.9299239
千葉県,流山市,6,野々下１丁目,第15投票所 八木中学校図書室,35.85962694,139.9199256
千葉県,流山市,7,野々下１丁目３１７番地,第15投票所 八木中学校図書室,35.86066222,139.9264892
千葉県,流山市,1,野々下２丁目,第16投票所 長崎小学校体育館,35.8602025,139.9365106
千葉県,流山市,2,長崎２丁目,第16投票所 長崎小学校体育館,35.86014889,139.93213
千葉県,流山市,3,長崎２丁目,第16投票所 長崎小学校体育館,35.86193028,139.9296842
千葉県,流山市,4,長崎１丁目,第16投票所 長崎小学校体育館,35.86416444,139.9321878
千葉県,流山市,5,野々下３丁目,第16投票所 長崎小学校体育館,35.86375806,139.9383894
千葉県,流山市,6,野々下３丁目,第16投票所 長崎小学校体育館,35.86354583,139.9362683
千葉県,流山市,7,野々下２丁目,第16投票所 長崎小学校体育館,35.85831778,139.9338622
千葉県,流山市,1,野々下６丁目,第17投票所 ゆたか・四季野自治会館,35.86036833,139.9448061
千葉県,流山市,2,野々下６丁目,第17投票所 ゆたか・四季野自治会館,35.86000333,139.9441531
千葉県,流山市,3,野々下４丁目,第17投票所 ゆたか・四季野自治会館,35.85839361,139.9411628
千葉県,流山市,4,野々下４丁目,第17投票所 ゆたか・四季野自治会館,35.85923139,139.9430381
千葉県,流山市,5,野々下６丁目,第17投票所 ゆたか・四季野自治会館,35.8591325,139.9459114
千葉県,流山市,6,野々下６丁目,第17投票所 ゆたか・四季野自治会館,35.85781278,139.9463844
千葉県,流山市,7,野々下６丁目,第17投票所 ゆたか・四季野自治会館,35.85773444,139.9436322
千葉県,流山市,1,駒木,第18投票所 駒木自治会館,35.87343583,139.9394083
千葉県,流山市,2,駒木,第18投票所 駒木自治会館,35.88085528,139.9389508
千葉県,流山市,3,駒木,第18投票所 駒木自治会館,35.87555694,139.9383478
千葉県,流山市,4,駒木,第18投票所 駒木自治会館,35.88389944,139.9404444
千葉県,流山市,5,おおたかの森東三丁目,第18投票所 駒木自治会館,35.87707833,139.9353331
千葉県,流山市,6,駒木,第18投票所 駒木自治会館,35.87122722,139.9394067
千葉県,流山市,7,おおたかの森東三丁目,第18投票所 駒木自治会館,35.87245083,139.9372489
千葉県,流山市,1,おおたかの森東二丁目,第19投票所 小山小学校内十太夫児童センター,35.87545056,139.9311744
千葉県,流山市,2,おおたかの森東四丁目,第19投票所 小山小学校内十太夫児童センター,35.8731025,139.9323075
千葉県,流山市,3,駒木,第19投票所 小山小学校内十太夫児童センター,35.87033583,139.93388
千葉県,流山市,4,おおたかの森東二丁目,第19投票所 小山小学校内十太夫児童センター,35.87332556,139.9308103
千葉県,流山市,5,おおたかの森東三丁目,第19投票所 小山小学校内十太夫児童センター,35.87691194,139.9344483
千葉県,流山市,6,おおたかの森東四丁目,第19投票所 小山小学校内十太夫児童センター,35.87302861,139.9334847
千葉県,流山市,7,おおたかの森東二丁目,第19投票所 小山小学校内十太夫児童センター,35.87612611,139.9323314
千葉県,流山市,1,駒木台,第20投票所 駒木台福祉会館,35.89177528,139.9329089
千葉県,流山市,2,駒木台,第20投票所 駒木台福祉会館,35.89305611,139.9316747
千葉県,流山市,3,駒木台,第20投票所 駒木台福祉会館,35.89302806,139.9260967
千葉県,流山市,4,駒木台,第20投票所 駒木台福祉会館,35.89477167,139.9247136
千葉県,流山市,5,駒木台,第20投票所 駒木台福祉会館,35.89482889,139.9297706
千葉県,流山市,6,青田,第20投票所 駒木台福祉会館,35.89769444,139.9246267
千葉県,流山市,7,青田,第20投票所 駒木台福祉会館,35.89785083,139.9229492
千葉県,流山市,1,美田,第21投票所 八木北小学校体育館,35.8844525,139.9295142
千葉県,流山市,2,美田,第21投票所 八木北小学校体育館,35.88371444,139.9293433
千葉県,流山市,3,美田,第21投票所 八木北小学校体育館,35.88281917,139.9268061
千葉県,流山市,4,おおたかの森北三丁目,第21投票所 八木北小学校体育館,35.88047917,139.9308883
千葉県,流山市,5,美田,第21投票所 八木北小学校体育館,35.88239111,139.9291378
千葉県,流山市,6,美田,第21投票所 八木北小学校体育館,35.88145167,139.9306519
千葉県,流山市,7,美田,第21投票所 八木北小学校体育館,35.88632833,139.9310114
千葉県,流山市,1,東初石３丁目,第22投票所 常盤松中学校第二音楽室,35.88278028,139.92241
千葉県,流山市,2,東初石３丁目,第22投票所 常盤松中学校第二音楽室,35.88124778,139.9193542
千葉県,流山市,3,東初石３丁目,第22投票所 常盤松中学校第二音楽室,35.88092694,139.9236775
千葉県,流山市,4,東初石３丁目,第22投票所 常盤松中学校第二音楽室,35.88301417,139.9185978
千葉県,流山市,5,東初石３丁目,第22投票所 常盤松中学校第二音楽室,35.88437111,139.9221794
千葉県,流山市,6,東初石４丁目,第22投票所 常盤松中学校第二音楽室,35.88565167,139.9224514
千葉県,流山市,7,東初石３丁目,第22投票所 常盤松中学校第二音楽室,35.88513694,139.9202211
千葉県,流山市,1,西初石４丁目,第23投票所 初石公民館,35.88041694,139.9182181
千葉県,流山市,2,西初石３丁目,第23投票所 初石公民館,35.88089556,139.9130256
千葉県,流山市,3,西初石４丁目,第23投票所 初石公民館,35.87899111,139.9154033
千葉県,流山市,4,大畔,第23投票所 初石公民館,35.87821972,139.9097558
千葉県,流山市,5,西初石３丁目,第23投票所 初石公民館,35.88195417,139.9163028
千葉県,流山市,6,西初石３丁目,第23投票所 初石公民館,35.88409917,139.9175853
千葉県,流山市,7,西初石３丁目,第23投票所 初石公民館,35.88200222,139.9123069
千葉県,流山市,8,西初石４丁目３７８番地の３,第23投票所 初石公民館,35.88061917,139.916585
千葉県,流山市,1,若葉台,第24投票所 若葉台自治会館,35.88200806,139.9093103
千葉県,流山市,2,若葉台１番地の,第24投票所 若葉台自治会館,35.88361694,139.9111089
千葉県,流山市,3,北,第24投票所 若葉台自治会館,35.88791417,139.9012775
千葉県,流山市,4,南,第24投票所 若葉台自治会館,35.882995,139.9041003
千葉県,流山市,5,上貝塚,第24投票所 若葉台自治会館,35.87797333,139.9050369
千葉県,流山市,6,下花輪,第24投票所 若葉台自治会館,35.87351028,139.9037344
千葉県,流山市,7,下花輪,第24投票所 若葉台自治会館,35.868125,139.90323
千葉県,流山市,1,江戸川台西２丁目,第25投票所 江戸川台西自治会館,35.89533889,139.9099331
千葉県,流山市,2,江戸川台西４丁目,第25投票所 江戸川台西自治会館,35.89164528,139.9064553
千葉県,流山市,3,江戸川台西１丁目,第25投票所 江戸川台西自治会館,35.89972778,139.9083508
千葉県,流山市,4,江戸川台西２丁目,第25投票所 江戸川台西自治会館,35.89737139,139.9099933
千葉県,流山市,5,江戸川台西２丁目,第25投票所 江戸川台西自治会館,35.89441194,139.9119717
千葉県,流山市,6,江戸川台西４丁目,第25投票所 江戸川台西自治会館,35.89370583,139.9083311
千葉県,流山市,7,江戸川台西４丁目,第25投票所 江戸川台西自治会館,35.89247778,139.9076406
千葉県,流山市,1,江戸川台東１丁目,第26投票所 江戸川台福祉会館,35.89899139,139.9135672
千葉県,流山市,2,江戸川台東２丁目,第26投票所 江戸川台福祉会館,35.90058083,139.9099897
千葉県,流山市,3,江戸川台東２丁目,第26投票所 江戸川台福祉会館,35.90198556,139.9083444
千葉県,流山市,4,江戸川台東２丁目,第26投票所 江戸川台福祉会館,35.89977944,139.9092475
千葉県,流山市,5,江戸川台東２丁目,第26投票所 江戸川台福祉会館,35.89835556,139.9101425
千葉県,流山市,6,江戸川台東１丁目,第26投票所 江戸川台福祉会館,35.89626889,139.9125947
千葉県,流山市,7,江戸川台東１丁目,第26投票所 江戸川台福祉会館,35.89449972,139.9121342
千葉県,流山市,1,江戸川台東３丁目,第27投票所 江戸川台小学校体育館,35.90129028,139.9121592
千葉県,流山市,2,江戸川台東４丁目,第27投票所 江戸川台小学校体育館,35.90391639,139.9086708
千葉県,流山市,3,江戸川台東３丁目,第27投票所 江戸川台小学校体育館,35.90063472,139.9154133
千葉県,流山市,4,こうのす台,第27投票所 江戸川台小学校体育館,35.90482444,139.9176853
千葉県,流山市,5,こうのす台,第27投票所 江戸川台小学校体育館,35.90744472,139.9186008
千葉県,流山市,6,江戸川台東４丁目,第27投票所 江戸川台小学校体育館,35.90294833,139.9121086
千葉県,流山市,7,江戸川台東４丁目,第27投票所 江戸川台小学校体育館,35.90334889,139.9102044
千葉県,流山市,1,東深井,第28投票所 東深井小学校体育館,35.90848333,139.9097406
千葉県,流山市,2,東深井,第28投票所 東深井小学校体育館,35.90914639,139.9118386
千葉県,流山市,3,東深井,第28投票所 東深井小学校体育館,35.90727056,139.91636
千葉県,流山市,4,東深井,第28投票所 東深井小学校体育館,35.91001417,139.90952
千葉県,流山市,5,東深井,第28投票所 東深井小学校体育館,35.90579528,139.9147572
千葉県,流山市,6,東深井,第28投票所 東深井小学校体育館,35.90860833,139.9164075
千葉県,流山市,7,東深井,第28投票所 東深井小学校体育館,35.90806944,139.9079703
千葉県,流山市,1,東深井,第29投票所 東深井駒形神社,35.91248139,139.9051047
千葉県,流山市,2,東深井,第29投票所 東深井駒形神社,35.90700889,139.9029378
千葉県,流山市,3,東深井,第29投票所 東深井駒形神社,35.91563417,139.9067222
千葉県,流山市,4,西深井,第29投票所 東深井駒形神社,35.91442306,139.9035858
千葉県,流山市,5,西深井,第29投票所 東深井駒形神社,35.91563083,139.9024886
千葉県,流山市,6,東深井,第29投票所 東深井駒形神社,35.91614139,139.9048728
千葉県,流山市,7,西深井,第29投票所 東深井駒形神社,35.91775556,139.9023008
千葉県,流山市,1,西深井,第30投票所 西深井福祉会館,35.90926444,139.8995656
千葉県,流山市,2,西深井,第30投票所 西深井福祉会館,35.91031222,139.9030433
千葉県,流山市,3,西深井,第30投票所 西深井福祉会館,35.91017556,139.8936144
千葉県,流山市,4,深井新田,第30投票所 西深井福祉会館,35.90894111,139.8792242
千葉県,流山市,5,西深井,第30投票所 西深井福祉会館,35.90599889,139.8953567
千葉県,流山市,6,平方,第30投票所 西深井福祉会館,35.90527833,139.8977608
千葉県,流山市,7,西深井,第30投票所 西深井福祉会館,35.91349111,139.8911381
千葉県,流山市,1,中野久木,第31投票所 新川小学校プレイルーム,35.89544583,139.8999911
千葉県,流山市,2,中野久木,第31投票所 新川小学校プレイルーム,35.89540306,139.90613
千葉県,流山市,3,美原２丁目,第31投票所 新川小学校プレイルーム,35.89992528,139.9040278
千葉県,流山市,4,中野久木,第31投票所 新川小学校プレイルーム,35.89699028,139.9054047
千葉県,流山市,5,中野久木,第31投票所 新川小学校プレイルーム,35.8970025,139.9024558
千葉県,流山市,6,平方,第31投票所 新川小学校プレイルーム,35.89992972,139.89969
千葉県,流山市,7,平方,第31投票所 新川小学校プレイルーム,35.90274028,139.8850508
千葉県,流山市,1,富士見台２丁目,第32投票所 江戸川台小田急ハイツ集会室,35.89342639,139.9030844
千葉県,流山市,2,富士見台,第32投票所 江戸川台小田急ハイツ集会室,35.89130333,139.9062836
千葉県,流山市,3,富士見台１丁目,第32投票所 江戸川台小田急ハイツ集会室,35.89051806,139.9023169
千葉県,流山市,4,富士見台２丁目,第32投票所 江戸川台小田急ハイツ集会室,35.89334917,139.9024122
千葉県,流山市,5,富士見台１丁目,第32投票所 江戸川台小田急ハイツ集会室,35.89240667,139.9033117
千葉県,流山市,6,北,第32投票所 江戸川台小田急ハイツ集会室,35.89042861,139.8998186
千葉県,流山市,7,北,第32投票所 江戸川台小田急ハイツ集会室,35.89153361,139.8995611
千葉県,流山市,1,東深井,第33投票所 東深井中学校体育館,35.90683028,139.9042247
千葉県,流山市,2,東深井,第33投票所 東深井中学校体育館,35.90537361,139.9062978
千葉県,流山市,3,東深井,第33投票所 東深井中学校体育館,35.90675722,139.9061194
千葉県,流山市,4,東深井８１番地の７５,第33投票所 東深井中学校体育館,35.90602139,139.9073331
千葉県,流山市,5,東深井,第33投票所 東深井中学校体育館,35.90930444,139.9057078
千葉県,流山市,6,東深井,第33投票所 東深井中学校体育館,35.90657722,139.9068169
千葉県,流山市,7,美原２丁目,第33投票所 東深井中学校体育館,35.90053917,139.9038475
千葉県,流山市,1,東初石１丁目,第34投票所 東初石1丁目自治会館,35.89151056,139.9165817
千葉県,流山市,2,東初石１丁目,第34投票所 東初石1丁目自治会館,35.89215889,139.9161961
千葉県,流山市,3,東初石１丁目,第34投票所 東初石1丁目自治会館,35.89294722,139.9133803
千葉県,流山市,4,東初石２丁目,第34投票所 東初石1丁目自治会館,35.88884639,139.9174114
千葉県,流山市,5,東初石２丁目,第34投票所 東初石1丁目自治会館,35.8879,139.9173172
千葉県,流山市,6,東初石２丁目,第34投票所 東初石1丁目自治会館,35.88842556,139.9207011
千葉県,流山市,7,東初石１丁目,第34投票所 東初石1丁目自治会館,35.89206778,139.9180489
千葉県,流山市,1,流山８丁目,第35投票所 赤城福祉会館,35.84805917,139.8974342
千葉県,流山市,2,流山９丁目,第35投票所 赤城福祉会館,35.84833056,139.8980406
千葉県,流山市,3,流山６丁目,第35投票所 赤城福祉会館,35.84987861,139.8956522
千葉県,流山市,4,流山７丁目,第35投票所 赤城福祉会館,35.84955833,139.8943356
千葉県,流山市,5,流山８丁目,第35投票所 赤城福祉会館,35.84731444,139.8934908
千葉県,流山市,6,南流山７丁目,第35投票所 赤城福祉会館,35.84431722,139.8938803
千葉県,流山市,7,南流山７丁目,第35投票所 赤城福祉会館,35.843855,139.8964306
千葉県,流山市,1,南流山８丁目,第36投票所 南流山自治会館,35.83932333,139.8956111
千葉県,流山市,2,南流山８丁目,第36投票所 南流山自治会館,35.83723028,139.8959011
千葉県,流山市,3,南流山８丁目,第36投票所 南流山自治会館,35.83825556,139.8948078
千葉県,流山市,4,南流山７丁目,第36投票所 南流山自治会館,35.84324917,139.8971014
千葉県,流山市,5,南流山７丁目,第36投票所 南流山自治会館,35.84193833,139.8943731
千葉県,流山市,6,南流山８丁目,第36投票所 南流山自治会館,35.84036833,139.8938828
千葉県,流山市,7,木,第36投票所 南流山自治会館,35.83590083,139.8952228
千葉県,流山市,8,南流山８丁目,第36投票所 南流山自治会館,35.83752639,139.8936744
千葉県,流山市,1,鰭ケ崎,第37投票所 鰭ケ崎団地自治会館,35.83968,139.9138006
千葉県,流山市,2,鰭ケ崎,第37投票所 鰭ケ崎団地自治会館,35.83857306,139.9143581
千葉県,流山市,3,鰭ケ崎,第37投票所 鰭ケ崎団地自治会館,35.83874528,139.9158472
千葉県,流山市,4,鰭ケ崎,第37投票所 鰭ケ崎団地自治会館,35.83931861,139.9164672
千葉県,流山市,5,鰭ケ崎,第37投票所 鰭ケ崎団地自治会館,35.84106833,139.917645
千葉県,流山市,6,鰭ケ崎,第37投票所 鰭ケ崎団地自治会館,35.84244806,139.9166653
千葉県,流山市,7,鰭ケ崎,第37投票所 鰭ケ崎団地自治会館,35.84141167,139.9139178
千葉県,流山市,1,三輪野山１丁目,第38投票所 三輪会館,35.86665333,139.9061261
千葉県,流山市,2,加４丁目,第38投票所 三輪会館,35.86239694,139.9035681
千葉県,流山市,3,三輪野山２丁目,第38投票所 三輪会館,35.86471389,139.9112786
千葉県,流山市,4,三輪野山１丁目,第38投票所 三輪会館,35.86367528,139.9055169
千葉県,流山市,5,三輪野山５丁目,第38投票所 三輪会館,35.86704778,139.9041658
千葉県,流山市,6,三輪野山５丁目,第38投票所 三輪会館,35.86963611,139.9086561
千葉県,流山市,7,三輪野山２丁目,第38投票所 三輪会館,35.86426972,139.9070661
千葉県,流山市,1,東深井,第39投票所 東深井福祉会館,35.91235778,139.9135375
千葉県,流山市,2,東深井,第39投票所 東深井福祉会館,35.91054167,139.9131506
千葉県,流山市,3,東深井,第39投票所 東深井福祉会館,35.91420611,139.9065508
千葉県,流山市,4,東深井,第39投票所 東深井福祉会館,35.9142275,139.9167717
千葉県,流山市,5,東深井,第39投票所 東深井福祉会館,35.91146167,139.9089206
千葉県,流山市,6,東深井,第39投票所 東深井福祉会館,35.91233694,139.9159681
千葉県,流山市,7,東深井,第39投票所 東深井福祉会館,35.91435,139.9136483
千葉県,流山市,1,西初石２丁目,第40投票所 西初石1・2丁目自治会館,35.88715389,139.9137828
千葉県,流山市,2,西初石１丁目,第40投票所 西初石1・2丁目自治会館,35.88921167,139.9141653
千葉県,流山市,3,西初石１丁目,第40投票所 西初石1・2丁目自治会館,35.89120333,139.9123108
千葉県,流山市,4,西初石２丁目,第40投票所 西初石1・2丁目自治会館,35.88543722,139.9105725
千葉県,流山市,5,西初石２丁目,第40投票所 西初石1・2丁目自治会館,35.88742111,139.9130342
千葉県,流山市,6,西初石２丁目,第40投票所 西初石1・2丁目自治会館,35.88522611,139.9144619
千葉県,流山市,7,西初石１丁目,第40投票所 西初石1・2丁目自治会館,35.8901725,139.9109978
千葉県,流山市,1,おおたかの森西一丁目,第41投票所 流山市上下水道局,35.87259667,139.9179442
千葉県,流山市,2,おおたかの森南一丁目,第41投票所 流山市上下水道局,35.86825278,139.9249169
千葉県,流山市,3,おおたかの森西四丁目,第41投票所 流山市上下水道局,35.87609417,139.9196742
千葉県,流山市,4,おおたかの森南一丁目,第41投票所 流山市上下水道局,35.86945472,139.9245217
千葉県,流山市,5,おおたかの森南一丁目,第41投票所 流山市上下水道局,35.8699,139.9247956
千葉県,流山市,6,おおたかの森南一丁目,第41投票所 流山市上下水道局,35.86848778,139.9283461
千葉県,流山市,7,おおたかの森西一丁目,第41投票所 流山市上下水道局,35.87016806,139.9234392
千葉県,流山市,8,おおたかの森南一丁目,第41投票所 流山市上下水道局,35.87071722,139.9287522
千葉県,流山市,1,西平井一丁目,第42投票所 西平井自治会館,35.84898722,139.9070489
千葉県,流山市,2,西平井一丁目,第42投票所 西平井自治会館,35.85006056,139.9079383
千葉県,流山市,3,西平井,第42投票所 西平井自治会館,35.85013583,139.9025553
千葉県,流山市,4,西平井,第42投票所 西平井自治会館,35.84946056,139.9013675
千葉県,流山市,5,西平井三丁目,第42投票所 西平井自治会館,35.84844389,139.9048911
千葉県,流山市,6,西平井三丁目,第42投票所 西平井自治会館,35.84686556,139.90609
千葉県,流山市,7,西平井三丁目,第42投票所 西平井自治会館,35.8462325,139.9056597
千葉県,流山市,1,流山,第43投票所 南流山中学校武道場,35.83503083,139.9001308
千葉県,流山市,2,流山,第43投票所 南流山中学校武道場,35.83322278,139.9015625
千葉県,流山市,3,木,第43投票所 南流山中学校武道場,35.83353306,139.8995931
千葉県,流山市,4,流山,第43投票所 南流山中学校武道場,35.83285583,139.9003703
千葉県,流山市,5,木,第43投票所 南流山中学校武道場,35.82886806,139.8983006
千葉県,流山市,6,南流山２丁目,第43投票所 南流山中学校武道場,35.83497889,139.9048167
千葉県,流山市,7,南流山２丁目,第43投票所 南流山中学校武道場,35.83796639,139.9035786
千葉県,流山市,8,木字下谷４３４,第43投票所 南流山中学校武道場,35.83417194,139.8972464
千葉県,流山市,1,おおたかの森西二丁目,第44投票所 おおたかの森小中学校内おおたかの森センター,35.86746667,139.9187647
千葉県,流山市,2,おおたかの森西二丁目,第44投票所 おおたかの森小中学校内おおたかの森センター,35.86806139,139.9208547
千葉県,流山市,3,三輪野山,第44投票所 おおたかの森小中学校内おおたかの森センター,35.86952389,139.9112369
千葉県,流山市,4,三輪野山,第44投票所 おおたかの森小中学校内おおたかの森センター,35.86546278,139.9119222
千葉県,流山市,5,市野谷,第44投票所 おおたかの森小中学校内おおたかの森センター,35.86376889,139.9127561
千葉県,流山市,6,おおたかの森南二丁目,第44投票所 おおたかの森小中学校内おおたかの森センター,35.86408056,139.9231603
千葉県,流山市,7,おおたかの森南二丁目,第44投票所 おおたかの森小中学校内おおたかの森センター,35.86561833,139.9254456
千葉県,流山市,8,おおたかの森南三丁目,第44投票所 おおたかの森小中学校内おおたかの森センター,35.86734778,139.9238953
千葉県,流山市,1,おおたかの森北二丁目,第45投票所 おおたかの森北東自治会館,35.87757528,139.9243303
千葉県,流山市,2,おおたかの森北二丁目,第45投票所 おおたかの森北東自治会館,35.87748917,139.9228197
千葉県,流山市,3,おおたかの森北三丁目,第45投票所 おおたかの森北東自治会館,35.87866722,139.9284181
千葉県,流山市,4,おおたかの森北三丁目,第45投票所 おおたかの森北東自治会館,35.87852944,139.9270197
千葉県,流山市,5,おおたかの森北二丁目,第45投票所 おおたかの森北東自治会館,35.87451778,139.9231317
千葉県,流山市,6,おおたかの森北二丁目,第45投票所 おおたかの森北東自治会館,35.87874611,139.9251647
千葉県,流山市,7,おおたかの森北二丁目,第45投票所 おおたかの森北東自治会館,35.87592722,139.9223394
千葉県,流山市,8,おおたかの森北三丁目３１番６,第45投票所 おおたかの森北東自治会館,35.88057056,139.9297825
千葉県,流山市,1,おおたかの森北一丁目２,第46投票所 スターツおおたかの森ホール会議室,35.87252778,139.9255778
千葉県,流山市,2,おおたかの森東一丁目,第46投票所 スターツおおたかの森ホール会議室,35.87208222,139.9262978
千葉県,流山市,3,おおたかの森北一丁目１４番地,第46投票所 スターツおおたかの森ホール会議室,35.87394806,139.9274308
千葉県,流山市,4,おおたかの森北一丁目１４番地,第46投票所 スターツおおたかの森ホール会議室,35.87467639,139.92823
千葉県,流山市,5,おおたかの森北１丁目７番地,第46投票所 スターツおおたかの森ホール会議室,35.8733475,139.9268161
千葉県,流山市,6,おおたかの森北一丁目２０番地,第46投票所 スターツおおたかの森ホール会議室,35.87562222,139.9292289
千葉県,流山市,7,おおたかの森東二丁目１番７,第46投票所 スターツおおたかの森ホール会議室,35.87452472,139.9288622