prefecture,city,number,address,name,lat,long,note
千葉県,白井市,1-1,復1123番地先,白井市役所前,35.7907458,140.0555917,
千葉県,白井市,1-2,根105番地先,白井第一小学校前,35.7947183,140.0552703,
千葉県,白井市,1-3,根54番地先,白井中学校前,35.800804,140.0560327,
千葉県,白井市,1-4,白井377－6番地先,放置自転車保管場前,35.7994586,140.0625238,
千葉県,白井市,1-5,復1455番地先,masked,35.797331,140.0621579,
千葉県,白井市,1-6,白井429番地先,白井保育園前,35.7990475,140.064428,
千葉県,白井市,1-7,神々廻1191番地先,神宮寺前,35.800095,140.074768,緯度経度は怪しい
千葉県,白井市,1-8,神々廻1834番地先,神々廻木戸バス停前,35.809376,140.080353,緯度経度は怪しい
千葉県,白井市,1-9,根479－1番地先,白井市役所職員駐車場前,35.7910147,140.0527476,
千葉県,白井市,1-10,復1148－8番地先,白井市文化センター前,35.7909911,140.0583382,
千葉県,白井市,2-1,河原子153－2番地先,河原子バス停付近,35.8129935,140.0613332,
千葉県,白井市,2-2,中98－17番地先,公民センター前,35.825428,140.048538,緯度経度は怪しい
千葉県,白井市,2-3,今井92番地先,今井青年館前,35.83326220000001,140.060227,
千葉県,白井市,2-4,名内544番地先,東光院（名内）前,35.828156,140.059799,緯度経度は怪しい
千葉県,白井市,2-5,中181－2番地先,白井第二小学校前,35.8183744,140.0462773,
千葉県,白井市,2-6,中179－2番地先,白井第二小学校入口十字路,35.817108,140.046829,緯度経度は怪しい
千葉県,白井市,2-7,折立618－10番地先,ひまわり子ども園前,35.806042,140.0459071,
千葉県,白井市,2-8,富塚725番地先,富塚地区消防センター前,35.80637,140.0354626,
千葉県,白井市,3-1,谷田431番地先,八幡集会場前,35.7884335,140.0907467,
千葉県,白井市,3-2,谷田8番地先,薬王寺付近,35.784195,140.097092,緯度経度は怪しい
千葉県,白井市,3-3,清戸766番地先,福祉センター前,35.7983252,140.0945503,
千葉県,白井市,3-4,桜台2－18,十条一公園（テニスコート横）,35.8018058,140.1076995,
千葉県,白井市,3-5,十条－14番地先,十条一公民館前（フェンス）,35.811024,140.088928,緯度経度は怪しい
千葉県,白井市,3-6,谷田878－1番地先,西福寺付近,35.791519,140.091415,緯度経度は怪しい
千葉県,白井市,3-7,桜台2－15番地先,三本松公園前,35.8012917,140.1029606,
千葉県,白井市,3-8,桜台3－28番地先,桜台小学校前,35.8013671,140.0993464,
千葉県,白井市,3-9,桜台2－8番地先,二軒茶屋公園緑道沿,35.8007064,140.1052898,
千葉県,白井市,3-10,桜台3－10,柳堤公園,35.8032046,140.106334,
千葉県,白井市,4-1,平塚1856－2番地先,旧平塚えびや商店前,35.81609,140.078537,緯度経度は怪しい
千葉県,白井市,4-2,平塚1626－1番地先,平塚複合バス停付近,35.8218517,140.0778262,
千葉県,白井市,4-3,平塚1528－1番地先,平塚西地区集会場前,35.8218517,140.0778262,
千葉県,白井市,4-4,平塚939番地先,延命寺前,35.8222506,140.0839859,
千葉県,白井市,4-5,平塚503番地先,平塚503電話ボックス付近,35.8271255,140.0871544,
千葉県,白井市,5-1,冨士129番1,冨士公園,35.7679502,140.0183742,
千葉県,白井市,5-2,冨士33番地先,白井冨士郵便局前,35.7697137,140.0255933,
千葉県,白井市,5-3,冨士76－99番地先,冨士自治会集会所前,35.7723458,140.0200914,
千葉県,白井市,5-4,冨士239番地先,冨士センター前,35.7754825,140.0260545,
千葉県,白井市,5-5,冨士5－42番地先,白井第三中継ポンプ場前,35.7736259,140.0279798,
千葉県,白井市,5-6,冨士159番地先,冨士西子供の遊び場前,35.7716497,140.0174046,
千葉県,白井市,5-7,冨士38番地先,開拓広場前,35.7713361,140.023237,
千葉県,白井市,5-8,冨士209－1番地先,冨士南園広場前,35.7754176,140.0222895,
千葉県,白井市,5-9,冨士260－2番地先,白井第三小学校入口,35.7757799,140.028451,
千葉県,白井市,6-1,清水口2－3－1番地先,清水口小学校前,35.789359,140.0340611,
千葉県,白井市,6-2,根460番地先,masked,35.7877107,140.0482785,
千葉県,白井市,6-3,清水口3－36番地先,八幡児童公園前,35.7873116,140.0375366,
千葉県,白井市,6-4,清水口2－2番地先,七次第一公園沿緑道入口,35.7883189,140.0332042,
千葉県,白井市,6-5,清水口3－24番地先,清水口児童公園前,35.7893468,140.0377773,
千葉県,白井市,6-6,清水口2－7,離山児童公園,35.7868745,140.0326427,
千葉県,白井市,7-1,根1029番地先,大松入口交差点（けやき台団地前）,35.783016,140.029144,緯度経度は怪しい
千葉県,白井市,7-2,大松1－15番地先,大松児童公園前,35.7816263,140.0226956,
千葉県,白井市,7-3,大山口2－2番地先,大山口小学校前,35.7870447,140.0242196,
千葉県,白井市,7-4,大山口1－13番地先,大山児童公園前,35.784924,140.022095,緯度経度は怪しい
千葉県,白井市,7-5,大山口1－26番地先,中木戸公園前,35.7859492,140.0261888,
千葉県,白井市,7-6,大山口2－3－7番地先,大山口児童公園前,35.78742829999999,140.0255797,
千葉県,白井市,7-7,大山口2－1－1番地先,大山口中学校前,35.7879424,140.0233761,
千葉県,白井市,8-1,堀込1－7番地先,堀込1丁目交差点,35.7818596,140.0531035,
千葉県,白井市,8-2,復620番地先,白井駅改札前,35.7847334,140.0541307,
千葉県,白井市,8-3,復610－6番地先,白井駅前センター前,35.783794,140.065918,緯度経度は怪しい
千葉県,白井市,8-4,南山1－5番地先,南山給水施設前,35.7802608,140.0563136,
千葉県,白井市,8-5,堀込1－5番地先,旧教職員住宅前,35.7803255,140.0550296,
千葉県,白井市,8-6,南山1－7番地先,南山小学校前,35.7817909,140.0601661,
千葉県,白井市,8-7,南山1－8番地先,障害者支援センター前,35.782221,140.0616108,
千葉県,白井市,8-8,南山2－2番地先,北の下児童公園前,35.7810065,140.062895,
千葉県,白井市,8-9,笹塚3－122－126番地先,笹塚公園前,35.7876072,140.0531035,
千葉県,白井市,9-1,堀込2－4－11番地先,堀込第4住宅前,35.780685,140.05011,緯度経度は怪しい
千葉県,白井市,9-2,池の上1－25番地先,池の上第1児童公園前,35.777875,140.0544678,
千葉県,白井市,9-3,池の上2－21,白井木戸公園,35.77752,140.0479676,
千葉県,白井市,9-4,池の上2－20番地先,池の上第2児童公園前,35.7778464,140.0493317,
千葉県,白井市,9-5,根407番地先,白井木戸天神社前,35.776447,140.037796,緯度経度は怪しい
千葉県,白井市,9-6,池の上3丁目地先,富ヶ沢川防災調節池前,35.7758261,140.0502145,
千葉県,白井市,9-7,池の上1－8－1地先,白井高校前,35.7756092,140.0550496,
千葉県,白井市,10-1,七次台1－21番地先,七次台中学校前,35.7948286,140.0409064,
千葉県,白井市,10-2,七次台3－17番地先,七次台小学校前,35.7984672,140.0428321,
千葉県,白井市,10-3,七次台3－22番地先,野口台児童公園前,35.7985543,140.0446776,
千葉県,白井市,10-4,七次台1－21番地先,七次台中学校裏緑道,35.7948286,140.0409064,
千葉県,白井市,10-5,根1813番地先,京葉ガス(株)野球場前,35.803203,140.0384392,
千葉県,白井市,10-6,野口9,七次第二公園,35.7964394,140.0445973,
千葉県,白井市,11-1,清水口1－2－1番地先,西白井複合センター前,35.7857969,140.0327519,
千葉県,白井市,11-2,清水口1－5－17番地先,清水口1－5－17前（フェンス）,35.7859535,140.0354254,
千葉県,白井市,11-3,清水口1－1062－2番地先,西白井駅北口,35.7853813,140.0344879,
千葉県,白井市,11-4,けやき台1－1038－99番地先,西白井駅南口,35.7834665,140.0325624,
千葉県,白井市,11-5,けやき台2－4番地先,木戸前川防災調整池付近,35.7811202,140.0320811,
千葉県,白井市,11-6,けやき台2－2番地先,けやき台公園前,35.7823172,140.0325624,
千葉県,白井市,11-7,けやき台2－8番地先,西白井消防署前,35.7819511,140.0298348,
千葉県,白井市,12-1,根1907－2番地先,masked,35.7906838,140.030466,
千葉県,白井市,12-2,根1827－27番地先,白井幼稚園前,35.7994859,140.0358673,
千葉県,白井市,12-3,西白井1－17－27,軽井沢公園,35.7933424,140.0264062,
千葉県,白井市,12-4,西白井1－18－20地先,西白井1丁目バス停付近,35.7931526,140.0267501,
千葉県,白井市,12-5,西白井2－17地先,富塚公園前,35.796856,140.031357,緯度経度は怪しい
千葉県,白井市,12-6,西白井2－16－1,西白井コミュニティプラザ,35.7969934,140.0299056,
千葉県,白井市,12-7,西白井4－18－9,北の内公園,35.80187069999999,140.0308857,
千葉県,白井市,12-8,西白井4－10,村雨公園,35.801804,140.034058,緯度経度は怪しい
