prefecture,city,number,address,name,lat,long,note
千葉県,習志野市,1-1,藤崎2丁目3番16号,第五中学校南側,35.6886751,140.0282605,
千葉県,習志野市,1-2,津田沼1丁目23番,さくら公園東側,35.6901262,140.0265348,
千葉県,習志野市,1-3,津田沼1丁目4番,津田沼1丁目公園北側,35.6889404,140.0243801,
千葉県,習志野市,1-4,津田沼1丁目4番,津田沼1丁目公園東側,35.6889404,140.0243801,
千葉県,習志野市,1-5,津田沼3丁目11番,旧菊田第二保育所前植樹帯,35.6853906,140.0263052,
千葉県,習志野市,1-6,津田沼3丁目13番,津田沼1号公園,35.6865085,140.026947,
千葉県,習志野市,1-7,鷺沼台1丁目4番,鷺沼台（青葉幼稚園前）花壇,35.685043,140.0295942,
千葉県,習志野市,1-8,藤崎1丁目11番13号,masked,35.6906921,140.0358517,
千葉県,習志野市,2-1,津田沼4丁目5番2号,津田沼小学校東側,35.683242,140.0190862,
千葉県,習志野市,2-2,津田沼5丁目13番,津田沼5丁目公園,35.6828346,140.0256635,
千葉県,習志野市,2-3,津田沼2丁目6番,津田沼2丁目児童遊園,35.6861003,140.0208507,
千葉県,習志野市,2-4,津田沼7丁目9番,菊田公園西側,35.680475,140.0211716,
千葉県,習志野市,2-5,津田沼5丁目12番,京成津田沼駅前ロータリー水花壇,35.6830603,140.0240592,
千葉県,習志野市,2-6,津田沼5丁目14番,旧千葉信用金庫東側,35.6820385,140.0261277,
千葉県,習志野市,2-7,津田沼3丁目4番,京成津田沼駅第二自転車等駐車場,35.6839524,140.0263052,
千葉県,習志野市,2-8,津田沼6丁目8番,津田沼6丁目8番植え込み,35.6786181,140.0237383,
千葉県,習志野市,3-1,鷺沼3丁目1番1号,鷺沼小学校正門脇,35.6772369,140.0297446,
千葉県,習志野市,3-2,鷺沼3丁目6番44番,養護老人ホーム白鷺園西側,35.6768668,140.0287886,
千葉県,習志野市,3-3,鷺沼3丁目9番,鷺沼3丁目児童公園,35.6748091,140.0279096,
千葉県,習志野市,3-4,鷺沼1丁目11番,鷺沼1丁目しらさぎ橋下緑地,35.6768411,140.0261448,
千葉県,習志野市,3-5,鷺沼1丁目10番,鷺沼城址公園下広場,35.6775293,140.0253426,
千葉県,習志野市,3-6,鷺沼2丁目1番1号,習志野市役所西側,35.6816458,140.0272438,
千葉県,習志野市,3-7,鷺沼1丁目1番1号,保険会館北側,35.6808528,140.0264382,
千葉県,習志野市,3-8,鷺沼1丁目9番,鷺沼城址公園南川入口,35.6785671,140.0261448,
千葉県,習志野市,4-1,谷津5丁目1-32,谷津小学校（南東側交差点角）,35.6867672,140.0121192,
千葉県,習志野市,4-2,谷津5丁目36番,谷津5丁目第4広場,35.6907971,140.0062544,
千葉県,習志野市,4-3,谷津5丁目16番,谷津5丁目公園駐輪場,35.6879808,140.0107452,
千葉県,習志野市,4-4,谷津5丁目40番,谷津5丁目児童遊園,35.6886417,140.004811,
千葉県,習志野市,4-5,谷津5丁目7番30号,いこいの家5丁目第1町会集会所東側,35.6852813,140.0100359,
千葉県,習志野市,4-6,谷津5丁目1番17番,谷津幼稚園東側,35.686515,140.0113689,
千葉県,習志野市,4-7,谷津5丁目16番,谷津5丁目公園駐車場,35.6879808,140.0107452,
千葉県,習志野市,4-8,谷津5丁目5番,京成谷津駅北口自転車等駐車場脇,35.6857956,140.0070563,
千葉県,習志野市,5-1,谷津4丁目7番10番,谷津公民館北側,35.6847427,140.004961,
千葉県,習志野市,5-2,谷津4丁目8番,谷津4丁目公園,35.6863262,140.0036884,
千葉県,習志野市,5-3,谷津3丁目29番11号,谷津遊園ハイツK棟東側,35.6838433,140.0029108,
千葉県,習志野市,5-4,谷津3丁目29-1,谷津遊園ハイツA棟東側,35.6826822,140.0021598,
千葉県,習志野市,5-5,谷津3丁目1番13号,谷津5号緑地（市立谷津南保育所西側歩道）,35.6824071,140.0064532,
千葉県,習志野市,5-6,谷津4丁目7番,向山1号公園,35.6853657,140.0056129,
千葉県,習志野市,5-7,谷津4丁目8番,西之葦公園,35.6863262,140.0036884,
千葉県,習志野市,6-1,藤崎６丁目９番２８号,大久保小学校南側,35.6893273,140.0438687,
千葉県,習志野市,6-2,藤崎６丁目６番１３号,みのりつくしこども園,35.68871070000001,140.0417108,
千葉県,習志野市,6-3,藤崎６丁目１５番,藤崎森林公園入口バス停脇,35.6904552,140.0397831,
千葉県,習志野市,6-4,藤崎６丁目５番,かもめ公園,35.6886019,140.0394622,
千葉県,習志野市,6-5,本大久保１丁目１番１,ハミングロード（SPA RESORT 菜々の湯北側）,35.6843932,140.0395757,
千葉県,習志野市,6-6,本大久保１丁目１８番,大久保１丁目児童遊園,35.6859471,140.0407459,
千葉県,習志野市,6-7,藤崎５丁目４番,藤崎５丁目公園,35.6911357,140.0447578,
千葉県,習志野市,6-8,藤崎６丁目９番２８号,大久保小学校体育館西側,35.6893273,140.0438687,
千葉県,習志野市,6-9,藤崎７丁目６番,藤崎７丁目広場,35.6872002,140.035932,
千葉県,習志野市,7-1,本大久保３丁目８-１９,ブラッツ習志野中央図書館北側,35.6852383,140.0468461,
千葉県,習志野市,7-2,本大久保１丁目２２番,ハミングロード（大久保駅前小公園）,35.686293,140.046302,
千葉県,習志野市,7-3,本大久保３丁目９番,京成大久保駅南口ロータリー,35.6855526,140.048449,
千葉県,習志野市,7-4,本大久保２丁目４番,本大久保２丁目２号公園,35.6838316,140.040865,
千葉県,習志野市,7-5,花咲２丁目３番９号,中央公園テニスコート前,35.6827779,140.046804,
千葉県,習志野市,7-6,本大久保３丁目１２番,中央公園（タコ公園）,35.6832087,140.0472844,
千葉県,習志野市,7-7,本大久保３丁目１６番,本大久保３丁目いこいの広場,35.6816277,140.0436345,
千葉県,習志野市,7-8,実籾３丁目２１番１号,大久保こども園側,,,
千葉県,習志野市,8-1,実籾３丁目２１番１号,大久保こども園側,35.6859307,140.0718854,
千葉県,習志野市,8-2,泉町３丁目３番,泉児童公園,35.6943166,140.0556716,
千葉県,習志野市,8-3,泉町２丁目２-１,市営住宅泉１号棟東側,35.6943091,140.0532186,
千葉県,習志野市,8-4,泉町２丁目８号,市営住宅泉８号棟東側,35.693392,140.0540665,
千葉県,習志野市,8-5,新栄１丁目１番,新栄１丁目児童遊園,35.6906595,140.0589622,
千葉県,習志野市,8-6,泉町３丁目７番,泉町３丁目猪穴児童公園,35.6933405,140.0564742,
千葉県,習志野市,8-7,新栄１丁目２番,ハミングロード（新栄藤棚前）,35.6911948,140.0590424,
千葉県,習志野市,9-1,実籾１丁目２５番１号,実籾小学校南側,35.6897643,140.064907,
千葉県,習志野市,9-2,新栄２丁目１１号,特別養護老人ホーム習志野偕生園向かい歩道,35.6891251,140.0627721,
千葉県,習志野市,9-3,新栄２丁目４番,新栄２丁目児童遊園,35.688445,140.0593635,
千葉県,習志野市,9-4,実籾１丁目４４番１号,第二中学校西側,35.6866211,140.0594455,
千葉県,習志野市,9-5,実籾本郷２２番,実籾高校前植栽,35.6820913,140.0640187,
千葉県,習志野市,9-6,実籾５丁目７番,実籾１号公園,35.688582,140.0685941,
千葉県,習志野市,9-7,実籾２丁目２４番,実籾本郷公園北側,35.6838466,140.0648508,
千葉県,習志野市,9-8,実籾６丁目１６番,実籾６丁目児童遊園,35.6919121,140.0653833,
千葉県,習志野市,10-1,東習志野１丁目１１番１３号,ハミングロード（あたご橋南側）,35.6970674,140.0651425,
千葉県,習志野市,10-2,東習志野６丁目７番２号,実花公民館南側,35.7004806,140.0659314,
千葉県,習志野市,10-3,東習志野６丁目７番１号,実花小学校プール南側,35.6984609,140.0646237,
千葉県,習志野市,10-4,東習志野１丁目２番１号,習志野高校北側,35.6955552,140.065308,
千葉県,習志野市,10-5,東習志野１丁目２番１号,習志野高校駐輪場,35.693744,140.066062,
千葉県,習志野市,10-6,東習志野１丁目１１番,ハミングロード（東習志野１丁目１１番北側）,35.6970674,140.0651425,
千葉県,習志野市,10-7,東習志野６丁目７番８号,東習志野６丁目マックスバリュ東側,35.6998683,140.0668387,
千葉県,習志野市,10-8,東習志野２丁目１９号,ハミングロード（あたご南東側）,35.6965818,140.0689955,
千葉県,習志野市,11-1,藤崎３丁目２-２,藤崎児童公園東側,35.6919329,140.0329372,
千葉県,習志野市,11-2,藤崎４丁目８番,藤崎４丁目第２広場,35.6928331,140.0361727,
千葉県,習志野市,11-3,藤崎３丁目３２番,藤崎小学校北側緑地,35.6942804,140.0384592,
千葉県,習志野市,11-4,藤崎４丁目１４番,藤崎緑地（藤崎小学校東側向かい緑地）,35.6939544,140.0402645,
千葉県,習志野市,11-5,藤崎４丁目１４番３４号,藤崎よいとこ館,35.6932727,140.0399165,
千葉県,習志野市,11-6,藤崎３丁目２７番,藤崎３丁目児童遊園,35.6954528,140.036975,
千葉県,習志野市,11-7,藤崎３丁目１７番,藤崎３丁目第２給水塔４号井戸脇,35.6950285,140.0343675,
千葉県,習志野市,11-8,藤崎３丁目３８番,藤崎３丁目緑地,35.6938234,140.0364936,
千葉県,習志野市,12-1,大久保２丁目１２番１号,大久保東小学校西側,35.686704,140.052987,
千葉県,習志野市,12-2,大久保４丁目２番,八幡公園,35.6908213,140.052301,
千葉県,習志野市,12-3,大久保２丁目７-７,大久保みのり保育園西側,35.6869973,140.0513064,
千葉県,習志野市,12-4,大久保４丁目１２番,大久保４丁目１号公園,35.6888976,140.0561531,
千葉県,習志野市,12-5,大久保４丁目１４番,本大久保会館向かい,35.6898222,140.0577583,
千葉県,習志野市,12-6,大久保５丁目７番,本大久保５丁目児童遊園（しらかば公園）,35.6857087,140.0554128,
千葉県,習志野市,12-7,大久保２丁目１６番,ハミングロード（大久保２丁目ベルジュ・ヴァーン東側）,35.68742599999999,140.0567952,
千葉県,習志野市,12-8,大久保４丁目８番,本大久保２号児童公園,35.6904349,140.054227,
千葉県,習志野市,13-1,袖ケ浦１丁目１番１号,袖ケ浦西小学校南側,35.6778716,140.0159081,
千葉県,習志野市,13-2,袖ケ浦１丁目１番１号,袖ケ浦西小学校西側,35.6778716,140.0159081,
千葉県,習志野市,13-3,袖ケ浦４丁目４番,袖ケ浦１丁目４番西側植樹帯,35.6724077,140.0249416,
千葉県,習志野市,13-4,袖ケ浦１丁目６番,袖ケ浦第４号児童公園,35.6769101,140.0156374,
千葉県,習志野市,13-5,袖ケ浦２丁目５番,袖ケ浦西近隣公演北側,35.6750132,140.0182841,
千葉県,習志野市,13-6,袖ケ浦３丁目７番１号,袖ケ浦団地3-7-1号南側,35.6764246,140.018243,
千葉県,習志野市,13-7,袖ケ浦１丁目２９番,袖ケ浦西児童公園,35.6773539,140.011868,
千葉県,習志野市,14-1,袖ケ浦５丁目１１-１,袖ケ浦小学校北側,35.6708522,140.0278565,
千葉県,習志野市,14-2,袖ケ浦４丁目１６番,袖ケ浦第３号児童遊園,35.6719086,140.0276689,
千葉県,習志野市,14-3,袖ケ浦４丁目３番１号,第三中学校西側,35.6732366,140.0237212,
千葉県,習志野市,14-4,袖ケ浦２丁目３-２,袖ケ浦団地２-３-２号棟北側,35.6741634,140.0204825,
千葉県,習志野市,14-5,袖ケ浦５丁目１番,袖ケ浦第２号児童公園（北側バス停前）,35.672162,140.0234175,
千葉県,習志野市,14-6,袖ケ浦５丁目１６番,袖ケ浦第２号児童遊園,35.6705226,140.0301557,
千葉県,習志野市,14-7,袖ケ浦６丁目５番,袖ケ浦第３号緑地,35.6689002,140.030236,
千葉県,習志野市,14-8,袖ケ浦６丁目８番,袖ケ浦第１号児童遊園,35.6680041,140.0308777,
千葉県,習志野市,15-1,東習志野８丁目１７-１,東習志野公民館,35.7030342,140.0823136,
千葉県,習志野市,15-2,東習志野８丁目２２番,東習志野８丁目児童公園,35.7035013,140.0799136,
千葉県,習志野市,15-3,東習志野８丁目３０番,東習志野ふれあい広場遊戯広場,35.7053597,140.0773445,
千葉県,習志野市,15-4,東習志野７丁目４番,工業団地中央パス停脇,35.7016946,140.0702799,
千葉県,習志野市,15-5,東習志野７丁目３番,Landport東習志野北側,35.7017042,140.0742937,
千葉県,習志野市,15-6,東習志野７丁目２番,実花緑地,35.6997656,140.0770233,
千葉県,習志野市,15-7,東習志野８丁目３２番,東習志野８丁目第２広場,35.7047465,140.0808771,
千葉県,習志野市,16-1,谷津2丁目16番36号,向山こども園北側,35.6828011,140.014727,
千葉県,習志野市,16-2,谷津2丁目10番,仮称向山２号公園予定地（習志野商工会議所駐車場）,35.6841776,140.0183643,
千葉県,習志野市,16-3,奏の森3丁目9号,こうやまき公園（ラビット公園）,35.6866738,140.0150865,
千葉県,習志野市,16-4,谷津2丁目22番,宮ノ下公園,35.6838417,140.0115472,
千葉県,習志野市,16-5,谷津2丁目20番,浜宿児童遊園,35.6822287,140.0107452,
千葉県,習志野市,16-6,谷津2丁目20番,谷津2丁目花壇（東京湾岸リハビリテーション病院向かい）,35.6822287,140.0107452,
千葉県,習志野市,16-7,谷津1丁目6番,谷津1丁目谷津1号公園,35.6869991,140.0173216,
千葉県,習志野市,16-8,谷津2丁目14番,谷津2丁目児童遊園西側,35.68403130000001,140.0134719,
千葉県,習志野市,17-1,秋津3丁目1番1号,秋津小学校北側,35.6728044,140.0142288,
千葉県,習志野市,17-2,秋津1丁目2番,秋津1号児童公園,35.6738696,140.0125096,
千葉県,習志野市,17-3,秋津5丁目16番,秋津5号児童公園,35.6737782,140.0086602,
千葉県,習志野市,17-4,秋津4丁目7番,秋津4号児童公園,35.6721528,140.0116274,
千葉県,習志野市,17-5,秋津3丁目7番,秋津公園北側,35.6690269,140.0129908,
千葉県,習志野市,17-6,秋津3丁目6番,平和の広場東側,35.667585,140.015878,
千葉県,習志野市,17-7,秋津3丁目4番1号,総合福祉センター南側,35.6701148,140.0168676,
千葉県,習志野市,17-8,秋津2丁目5番,秋津2号児童公園,35.670986,140.0182841,
千葉県,習志野市,18-1,東習志野2丁目2番15号,東消防署東側,35.6917865,140.0691842,
千葉県,習志野市,18-2,東習志野2丁目14番,若松公園,35.6931904,140.070601,
千葉県,習志野市,18-3,東習志野3丁目4番2号,東習志野小学校西側,35.6916186,140.0730081,
千葉県,習志野市,18-4,東習志野3丁目4番,文教センター公園南側,35.6929781,140.0733304,
千葉県,習志野市,18-5,東習志野4丁目44番,実籾3号公演,35.6939968,140.0758994,
千葉県,習志野市,18-6,東習志野4丁目4番,東習志野４丁目児童遊園,35.6906571,140.0750965,
千葉県,習志野市,18-7,東習志野4丁目15番,ハミングロード（東習志野4丁目ライオンズマンション習志野２前）,35.6951007,140.0754177,
千葉県,習志野市,18-8,東習志野3丁目4番,東部体育館南側駐車場,35.6929781,140.0733304,
千葉県,習志野市,19-1,香澄4丁目6番,香澄小学校北側,35.6653336,140.0261448,
千葉県,習志野市,19-2,香澄5丁目16番,香澄公園駐車場,35.6644997,140.0217854,
千葉県,習志野市,19-3,香澄1丁目5番,香澄２号児童公園（くじら公園）,35.6682763,140.0248613,
千葉県,習志野市,19-4,香澄1丁目2番,香澄１号児童公園（いちご公園）,35.6698789,140.0216528,
千葉県,習志野市,19-5,香澄6丁目1番1号,香澄１号緑道（第七中学校北側）,35.6681745,140.0207455,
千葉県,習志野市,19-6,香澄6丁目1番1号,香澄１号線緑道（第七中学校南側）,35.6681745,140.0207455,
千葉県,習志野市,19-7,香澄6丁目6番1号,新習志野こども園東側,35.66622630000001,140.0220539,
千葉県,習志野市,19-8,香澄6丁目6番,香澄５号児童公園（きのこ公園）,35.66622630000001,140.0220539,
千葉県,習志野市,20-1,泉町2丁目17番7号,第六中学校北側,35.693392,140.0540665,
千葉県,習志野市,20-2,泉町2丁目19番,第六中学校東側,35.693392,140.0540665,
千葉県,習志野市,20-3,本大久保4丁目3番,本大久保１号緑地,35.6822418,140.0498935,
千葉県,習志野市,20-4,本大久保4丁目5番,本大久保１号児童公園,35.6818552,140.0518195,
千葉県,習志野市,20-5,屋敷2丁目1番1号,屋敷小学校北側,35.6798904,140.0516489,
千葉県,習志野市,20-6,屋敷3丁目12番,天津児童遊園,35.6819593,140.0567952,
千葉県,習志野市,20-7,屋敷1丁目17番4号,屋敷１丁目市営住宅屋敷団地４号側,35.676869,140.0545591,
千葉県,習志野市,20-8,屋敷1丁目1番,屋敷ふれあい公園,35.677827,140.0518195,
千葉県,習志野市,22-1,鷺沼台4丁目2-20,鷺沼台4丁目集会所南側,35.6789626,140.0398873,
千葉県,習志野市,22-2,鷺沼台3丁目5番,鷺沼台3丁目公園西側,35.6814796,140.0352901,
千葉県,習志野市,22-3,鷺沼台3丁目5番,鷺沼台3丁目公園東側,35.6814796,140.0352901,
千葉県,習志野市,22-4,鷺沼台4丁目4番,梅林園,35.6802696,140.0411697,
千葉県,習志野市,22-5,鷺沼台3丁目4番,鷺沼台3丁目陸橋下,35.6800412,140.0352901,
千葉県,習志野市,22-6,鷺沼台4丁目1番,鷺沼台4丁目児童遊園,35.6782165,140.0372156,
千葉県,習志野市,22-7,鷺沼台4丁目4番52号,特殊車両側,35.6784641,140.0418534,
千葉県,習志野市,23-1,花咲1丁目5番,花咲児童遊園南側,35.6789396,140.0455602,
千葉県,習志野市,23-2,花咲1丁目8番11号,花咲1丁目8番都市計画道路脇,35.6798526,140.0438909,
千葉県,習志野市,23-3,花咲1丁目5番,花咲児童遊園北側,35.6789396,140.0455602,
千葉県,習志野市,23-4,花咲2丁目9番,花咲緑地,35.6795107,140.048449,
千葉県,習志野市,23-5,花咲1丁目13番,花咲2丁目6番1号向かい,35.681081,140.0458812,
千葉県,習志野市,23-6,花咲1丁目11番,花咲1丁目市道00-010号線三角地帯,35.6811139,140.0452393,
千葉県,習志野市,23-7,花咲2丁目2番,花咲2丁目市道00-010号線高木ゴム工業前,35.6821989,140.0465232,
千葉県,習志野市,24-1,谷津3丁目1番36号,谷津南小学校北西側,35.680006,140.008716,
千葉県,習志野市,24-2,谷津3丁目1番41号,谷津南パークタウン3-1-41号西側,35.680499,140.008978,
千葉県,習志野市,24-3,谷津3丁目1番36号,谷津南小学校北東側,35.679348,140.009766,
千葉県,習志野市,24-4,谷津3丁目1番13号,谷津南保育所東側道路,35.6823556,140.0064624,
千葉県,習志野市,24-5,谷津3丁目1番,谷津バラ園第一駐車場,35.6805675,140.0060838,
千葉県,習志野市,24-6,谷津1丁目1番13号,谷津南保育所正門脇,35.68528810000001,140.0184445,
千葉県,習志野市,24-7,谷津3丁目1番15号,谷津南パークタウン壱番街管理事務所南側,35.682060,140.007053,
千葉県,習志野市,25-1,谷津7丁目8番26号,JR津田沼駅南口タクシープール内交番南側フェンス,35.6910927,140.0196542,
千葉県,習志野市,25-2,谷津7丁目7番,谷津1号児童公園,35.691551,140.0177227,
千葉県,習志野市,25-3,谷津7丁目7番25号,谷津7丁目集会所西側,35.69130639999999,140.0165344,
千葉県,習志野市,25-4,谷津奏の杜1丁目11番,とねりこ1公園 (キャロット公園),35.6910009,140.01501,
千葉県,習志野市,25-5,谷津6丁目14番,谷津6丁目児童遊園,35.6924569,140.0121487,
千葉県,習志野市,25-6,奏の杜1丁目13番1号,第一中学校北東側角,35.6914225,140.0124745,
千葉県,習志野市,26-1,谷津1丁目16号,津田沼公園東側,35.6901946,140.0193736,
千葉県,習志野市,26-2,谷津1丁目16号,津田沼公園南側,35.6901946,140.0193736,
千葉県,習志野市,26-3,谷津1丁目16番,モリシアオフィス棟南側歩道橋下,35.6901946,140.0193736,
千葉県,習志野市,26-4,奏の杜2丁目12番,谷津奏の杜公園北西側,35.6890659,140.0120284,
千葉県,習志野市,26-5,奏の杜2丁目12番,谷津奏の杜公園南側,35.6890659,140.0120284,
千葉県,習志野市,26-6,奏の杜1丁目13番1号,第一中学校体育南側,35.6914225,140.0124745,
千葉県,習志野市,26-7,奏の杜1丁目13番1号,第一中学校南東駐車場入口付近,35.6914225,140.0124745,
千葉県,習志野市,26-8,奏の杜2丁目12番,谷津奏の杜公園南東側,35.6890659,140.0120284,
