prefecture,city,number,address,name,lat,long,note
千葉県,船橋市,1,東船橋３丁目３０－１宮本台北公園　南側,宮本台北公園　南側,35.7016162,140.0075189,
千葉県,船橋市,2,東船橋１丁目２８－１池の端公園　南側,池の端公園　南側,35.6989773,140.0017738,
千葉県,船橋市,3,宮本６丁目３３－１峰台小学校　裏門右側,峰台小学校　裏門右側,35.69915,139.997647,
千葉県,船橋市,4,東船橋３丁目４４－１東船橋第１号公園　西側,東船橋第１号公園　西側,35.7030749,140.0097428,
千葉県,船橋市,5,東船橋４丁目１９－１２宮本天神広場　南側,宮本天神広場　南側,35.6971626,140.0087987,
千葉県,船橋市,6,東船橋４丁目９－１宮本台公園　東側,宮本台公園　東側,35.6972984,140.0057802,
千葉県,船橋市,7,宮本６丁目１８－１宮本公民館　保育園向側,宮本公民館　保育園向側,35.697658,139.995092,
千葉県,船橋市,8,東船橋２丁目７ＪＲ東船橋駅第７自転車等駐車場　東側,ＪＲ東船橋駅第７自転車等駐車場　東側,35.7003364,140.0038488,
千葉県,船橋市,9,東船橋１丁目３８ＪＲ東船橋駅南口ロータリー　東側,ＪＲ東船橋駅南口ロータリー　東側,35.699591,140.0042745,
千葉県,船橋市,10,宮本６丁目３宮本６丁目公園　広場内植込み,宮本６丁目公園　広場内植込み,35.6997312,139.9939175,
千葉県,船橋市,11,市場１丁目８地方卸売市場北東側　交差点付近,地方卸売市場北東側　交差点付近,35.7050774,139.9929988,
千葉県,船橋市,12,masked,masked,35.7034278,139.9924634,
千葉県,船橋市,13,市場２丁目３－７海老川広場,海老川広場,35.7069348,139.9937387,
千葉県,船橋市,14,宮本１丁目１１－１１宮一公園,宮一公園,35.6986759,139.9925784,
千葉県,船橋市,15,宮本５丁目２－１船橋大神宮　東側入口右,船橋大神宮　東側入口右,35.696345,139.9932653,
千葉県,船橋市,16,宮本２丁目９大神宮下駅　北側フェンス,大神宮下駅　北側フェンス,35.69407,139.991392,
千葉県,船橋市,17,宮本７丁目１０－１宮本小学校　裏門右側,宮本小学校　裏門右側,35.694144,139.9964728,
千葉県,船橋市,18,宮本７丁目１０－１宮本小学校　正門右側,宮本小学校　正門右側,35.694144,139.9964728,
千葉県,船橋市,19,宮本７丁目１０－１宮本小学校　南門右側,宮本小学校　南門右側,35.694144,139.9964728,
千葉県,船橋市,20,宮本２丁目１１－５八千代橋公園　北東側,八千代橋公園　北東側,35.6939796,139.9903022,
千葉県,船橋市,21,宮本４丁目７－９宮本４丁目公園　公園内植込み,宮本４丁目公園　公園内植込み,35.6921636,139.9937304,
千葉県,船橋市,22,東船橋５丁目１県立船橋高等学校　グランド北側,県立船橋高等学校　グランド北側,35.6952664,140.0027641,
千葉県,船橋市,23,東船橋６丁目１県立船橋高等学校　ニュートリヴァンベール,県立船橋高等学校　ニュートリヴァンベール,35.6952664,140.0027641,
千葉県,船橋市,24,東船橋７丁目８－１宮本中学校　裏門左側,宮本中学校　裏門左側,35.694875,140.001247,
千葉県,船橋市,25,東船橋７丁目８－１宮本中学校　避難標識ポール左側,宮本中学校　避難標識ポール左側,35.694875,140.001247,
千葉県,船橋市,26,東船橋５丁目１３－９宮本南公園　公園内西側,宮本南公園　公園内西側,35.6928901,140.0047284,
千葉県,船橋市,27,東船橋７丁目８－１宮本中学校　西側,宮本中学校　西側,35.694875,140.001247,
千葉県,船橋市,28,東船橋７丁目１２浜竹公園　西側,浜竹公園　西側,35.6954117,139.9980443,
千葉県,船橋市,29,東船橋６丁目１県立船橋高等学校　グランド向側,県立船橋高等学校　グランド向側,35.6952664,140.0027641,
千葉県,船橋市,30,東船橋６丁目１３東船橋花輪緑地　南側フェンス,東船橋花輪緑地　南側フェンス,35.6916819,140.0024891,
千葉県,船橋市,31,東町８９６市清掃センター　入口左側フェンス,市清掃センター　入口左側フェンス,35.7088264,140.0063377,
千葉県,船橋市,32,東町７４６東栄寺不動院　入口左側,東栄寺不動院　入口左側,35.7088478,140.0038638,
千葉県,船橋市,33,市場３丁目１市道０００３３号線緑地帯　船橋教会向側,市道０００３３号線緑地帯　船橋教会向側,35.7013657,139.9948686,
千葉県,船橋市,34,市場４丁目５－１市立船橋高等学校　西側総武病院向側,市立船橋高等学校　西側総武病院向側,35.701345,139.9995139,
千葉県,船橋市,35,市場３丁目１６－２市場西公園　公園内東側,市場西公園　公園内東側,35.7043731,139.996102,
千葉県,船橋市,36,市場４丁目５－１市立船橋高等学校　北側正門右,市立船橋高等学校　北側正門右,35.701345,139.9995139,
千葉県,船橋市,37,市場３丁目１１－１７市場公園　北側,市場公園　北側,35.7023953,139.9969403,
千葉県,船橋市,38,駿河台１丁目５駿河台１丁目公園　東側入口左　植込み,駿河台１丁目公園　東側入口左　植込み,35.7039443,140.0064148,
千葉県,船橋市,39,若松２丁目５－５若松団地５－５棟　北側,若松団地５－５棟　北側,35.6804788,139.9954362,
千葉県,船橋市,40,若松２丁目６－３若松保育園　北側,若松保育園　北側,35.679471,139.994368,
千葉県,船橋市,41,若松２丁目５－１０若松団地５－１０棟　南側,若松団地５－１０棟　南側,35.6800906,139.9939265,
千葉県,船橋市,42,若松２丁目６－１若松団地６－１棟前植栽帯,若松団地６－１棟前植栽帯,35.6790551,139.9929043,
千葉県,船橋市,43,若松２丁目７－８若松団地７－８棟前植栽帯,若松団地７－８棟前植栽帯,35.6785387,139.9950496,
千葉県,船橋市,44,若松３丁目３－４市青少年会館　正門横,市青少年会館　正門横,35.6774832,139.9920433,
千葉県,船橋市,45,若松３丁目２－３若松中学校　プール裏,若松中学校　プール裏,35.6771308,139.993363,
千葉県,船橋市,46,浜町２丁目３浜町中央公園,浜町中央公園,35.6830193,139.9911248,
千葉県,船橋市,47,高瀬町３９−４付近高瀬町緑地内,高瀬町緑地内,35.678299,139.9978744,緯度経度は怪しい
千葉県,船橋市,48,若松２丁目３若松２丁目はらっぱ公園　フェンス前,若松２丁目はらっぱ公園　フェンス前,35.6789303,139.9968946,
千葉県,船橋市,49,浜町１丁目４－３はまかぜ公園　南側,はまかぜ公園　南側,35.6894551,139.9894587,
千葉県,船橋市,50,浜町１丁目１－１浜町保育園　南側,浜町保育園　南側,35.6913189,139.9892165,
千葉県,船橋市,51,浜町１丁目１－２浜町北公園　東側,浜町北公園　東側,35.6910521,139.9899101,
千葉県,船橋市,52,浜町２丁目１船橋港親水公園入口,船橋港親水公園入口,35.6882288,139.987331,緯度経度は怪しい
千葉県,船橋市,53,宮本２丁目１５－５宮本ポンプ場　北側植込み,宮本ポンプ場　北側植込み,35.6926455,139.9908029,
千葉県,船橋市,54,浜町１丁目４３－１５浜町公園　道路沿防護柵,浜町公園　道路沿防護柵,35.6890849,139.9942644,
千葉県,船橋市,55,浜町２丁目１－１５浜町公民館　北側,浜町公民館　北側,35.6883359,139.9879203,緯度経度は怪しい
千葉県,船橋市,56,浜町２丁目２浜町２丁目公園　北側,浜町２丁目公園　北側,35.68845150000001,139.9910714,
千葉県,船橋市,57,浜町１丁目４ファミリータウン駐車場　船橋排水機場向側,ファミリータウン駐車場　船橋排水機場向側,35.6902369,139.9889359,
千葉県,船橋市,58,緑台２丁目５船橋グリーンハイツ２－５－４棟　南側植込,船橋グリーンハイツ２－５－４棟　南側植込,35.7279789,140.0154333,
千葉県,船橋市,59,緑台２丁目９船橋グリーンハイツ２－９－７棟　南側植込,船橋グリーンハイツ２－９－７棟　南側植込,35.7295332,140.0177811,
千葉県,船橋市,60,緑台２丁目８船橋グリーンハイツ２－８－３棟　西側,船橋グリーンハイツ２－８－３棟　西側,35.7298456,140.0152692,
千葉県,船橋市,61,緑台２丁目７－１緑台中央公園　南側２－６－１棟向側,緑台中央公園　南側２－６－１棟向側,35.7289223,140.0159012,
千葉県,船橋市,62,緑台２丁目７－１緑台中央公園　西側緑台町会会館向側,緑台中央公園　西側緑台町会会館向側,35.7286674,140.0154369,
千葉県,船橋市,63,緑台２丁目１－２緑台西公園　東側,緑台西公園　東側,35.7280913,140.0131693,
千葉県,船橋市,64,緑台１丁目３船橋グリーンハイツ１－３－１棟　南側,船橋グリーンハイツ１－３－１棟　南側,35.7279965,140.0179388,
千葉県,船橋市,65,本町４丁目３１－８本町中央公園　東側,本町中央公園　東側,35.6979473,139.9896541,
千葉県,船橋市,66,本町６丁目１１船橋駅北口十字路　南側歩道植込み,船橋駅北口十字路　南側歩道植込み,35.7063462,139.9866111,
千葉県,船橋市,67,本町６丁目１７－７本町北公園　南側,本町北公園　南側,35.7043712,139.9882757,
千葉県,船橋市,68,本町４丁目１７－２０船橋小学校　西側,船橋小学校　西側,35.7004365,139.9888057,
千葉県,船橋市,69,本町１丁目１２－１８稲荷神社　西側,稲荷神社　西側,35.6993903,139.9839705,
千葉県,船橋市,70,本町２丁目２－５中央公民館　広場内東側植込,中央公民館　広場内東側植込,35.697659,139.9850079,
千葉県,船橋市,71,本町４丁目１７－２０船橋小学校　東側,船橋小学校　東側,35.7004365,139.9888057,
千葉県,船橋市,72,本町４丁目４ＪＲ船橋駅第５自転車等駐車場　北側,ＪＲ船橋駅第５自転車等駐車場　北側,35.7010267,139.9882674,
千葉県,船橋市,73,湊町１丁目１６－５湊町小学校　南側,湊町小学校　南側,35.6929829,139.9863815,
千葉県,船橋市,74,湊町１丁目９−１８湊町東納谷公園西側,湊町東納谷公園西側,35.6940433,139.9866117,
千葉県,船橋市,75,湊町１丁目１６－５湊町小学校　西側,湊町小学校　西側,35.6929829,139.9863815,
千葉県,船橋市,76,湊町１丁目１３－１３みなと公園　西側,みなと公園　西側,35.691868,139.9875893,
千葉県,船橋市,77,湊町１丁目９－１３みなと中央公園　南側,みなと中央公園　南側,35.6936708,139.9866336,
千葉県,船橋市,78,湊町１丁目１－１６県道船橋埠頭線　役所分庁舎向歩,県道船橋埠頭線　役所分庁舎向歩,35.6949004,139.9846438,
千葉県,船橋市,79,湊町２丁目８－１１湊町しおかぜ公園　東側,湊町しおかぜ公園　東側,35.694334,139.980684,
千葉県,船橋市,80,湊町２丁目１０－２５市役所　西側掲示板横,市役所　西側掲示板横,35.6946311,139.9824148,
千葉県,船橋市,81,湊町２丁目３市役所　北側植込,市役所　北側植込,35.6957055,139.9826699,
千葉県,船橋市,82,湊町１丁目１６－５湊町小学校　東側,湊町小学校　東側,35.6929829,139.9863815,
千葉県,船橋市,83,日の出１丁目１９市道１１－０１５号沿い　西尾レントオール株,市道１１－０１５号沿い　西尾レントオール株,35.6893802,139.9811175,
千葉県,船橋市,84,湊町３丁目２０県道船橋埠頭線　佃やまと向側　歩道植込,県道船橋埠頭線　佃やまと向側　歩道植込,35.69083330000001,139.9814007,
千葉県,船橋市,85,湊町３丁目１１県道船橋埠頭線　駐車場前　歩道植込,県道船橋埠頭線　駐車場前　歩道植込,35.6915359,139.9817214,
千葉県,船橋市,86,日の出１丁目１９県道船橋埠頭線　湊中正門向側歩道植え,県道船橋埠頭線　湊中正門向側歩道植え,35.6895233,139.9817214,
千葉県,船橋市,87,日の出１丁目１６－８日の出１丁目広場　北側,日の出１丁目広場　北側,35.6881696,139.9791649,
千葉県,船橋市,88,日の出１丁目１７県道船橋埠頭線　阪和興業船橋倉庫西側,県道船橋埠頭線　阪和興業船橋倉庫西側,35.6871504,139.9838885,
千葉県,船橋市,89,日の出２丁目２０－２昭和産業株式会社船橋工場西側,昭和産業株式会社船橋工場西側,35.6857389,139.9823268,
千葉県,船橋市,90,南本町１０－１南本町子育て支援センター　東側,南本町子育て支援センター　東側,35.697142,139.977254,
千葉県,船橋市,91,南本町１７南本町県営住宅内公園　西側,南本町県営住宅内公園　西側,35.6971062,139.9762809,
千葉県,船橋市,92,海神町２丁目６海神川まちかどスポーツ広場南側　京葉道,海神川まちかどスポーツ広場南側　京葉道,35.6995265,139.9725154,
千葉県,船橋市,93,南本町１８南本町県営住宅内公園　東側,南本町県営住宅内公園　東側,35.6968698,139.9760705,
千葉県,船橋市,94,南本町３４－１都疎浜中央公園　北側,都疎浜中央公園　北側,35.695144,139.9782169,
千葉県,船橋市,95,栄町１丁目７－１南本町小学校　北側,南本町小学校　北側,35.6938092,139.9764036,
千葉県,船橋市,96,栄町１丁目７－１南本町小学校　東側,南本町小学校　東側,35.6938092,139.9764036,
千葉県,船橋市,97,海神町２丁目３－１３海神公園　東側入口右,海神公園　東側入口右,35.6973479,139.9744948,
千葉県,船橋市,98,海神町２丁目６海神川まちかどスポーツ広場北側　三井のリ,海神川まちかどスポーツ広場北側　三井のリ,35.6995265,139.9725154,
千葉県,船橋市,99,本町１丁目２１－１１日枝神社　神社内,日枝神社　神社内,35.6995499,139.9818111,
千葉県,船橋市,100,海神１丁目９海神片町公園　公園内東側,海神片町公園　公園内東側,35.7006646,139.9792679,
千葉県,船橋市,101,海神１丁目７市道０５０３１号線　南本町馬込町線　歩道,市道０５０３１号線　南本町馬込町線　歩道,35.7354276,139.9970439,緯度経度は怪しい
千葉県,船橋市,102,本町１丁目２９船橋駅第１６自転車等駐車場　フェンス前,船橋駅第１６自転車等駐車場　フェンス前,35.700184,139.9831455,
千葉県,船橋市,103,海神２丁目６－５海神小学校　南側,海神小学校　南側,35.7033365,139.9795912,
千葉県,船橋市,104,本町７丁目１６－１天沼弁天池公園　北側,天沼弁天池公園　北側,35.7049186,139.9845349,
千葉県,船橋市,105,海神２丁目９海神高架下子供の広場　北側,海神高架下子供の広場　北側,35.7027378,139.9810843,
千葉県,船橋市,106,海神４丁目２－１８海神東公園　東側,海神東公園　東側,35.7054469,139.9756727,
千葉県,船橋市,107,海神３丁目２３海神蛇沼公園　南側入口右側,海神蛇沼公園　南側入口右側,35.7079578,139.9778732,
千葉県,船橋市,108,海神２丁目６－５海神小学校　西側,海神小学校　西側,35.7033365,139.9795912,
千葉県,船橋市,109,本町７丁目１６－１天沼弁天池公園　東側,天沼弁天池公園　東側,35.7049186,139.9845349,
千葉県,船橋市,110,海神３丁目２３海神山緑地　南側,海神山緑地　南側,35.7069641,139.9771094,
千葉県,船橋市,111,本町７丁目１ＪＲ船橋駅北口ペデストリアンデッキ　アンデ,ＪＲ船橋駅北口ペデストリアンデッキ　アンデ,35.7025391,139.9851164,
千葉県,船橋市,112,北本町２丁目２１－９北本町ふれあい公園　南側,北本町ふれあい公園　南側,35.7161293,139.9848075,
千葉県,船橋市,113,北本町１丁目１４北本町１丁目２号公園　東側,北本町１丁目２号公園　東側,35.7116948,139.9835732,
千葉県,船橋市,114,北本町１丁目６－６北本町東公園　北側,北本町東公園　北側,35.7086928,139.982746,
千葉県,船橋市,115,海神４丁目２３地方道船橋・松戸線緑地帯　クレール飛の,地方道船橋・松戸線緑地帯　クレール飛の,35.7088193,139.9753091,
千葉県,船橋市,116,山手１丁目１－８新船橋駅西口　イオンモール船橋,新船橋駅西口　イオンモール船橋,35.711515,139.979873,緯度経度は怪しい
千葉県,船橋市,117,山手２丁目２－２山手子供の公園　南側,山手子供の公園　南側,35.7120514,139.9737045,
千葉県,船橋市,118,海神４丁目２７－１海神中学校　北側正門右,海神中学校　北側正門右,35.7105277,139.9761304,
千葉県,船橋市,119,海神４丁目２７－１海神中学校　東側,海神中学校　東側,35.7105277,139.9761304,
千葉県,船橋市,120,北本町１丁目９北本町森のシティさくら公園　公園内,北本町森のシティさくら公園　公園内,35.7097396,139.9810355,
千葉県,船橋市,121,北本町１丁目１２北本町森のシティつつじ公園　公園内,北本町森のシティつつじ公園　公園内,35.7123054,139.9816415,
千葉県,船橋市,122,西船２丁目２０－３西船みどり公園　西側,西船みどり公園　西側,35.7146412,139.9689429,
千葉県,船橋市,123,西船２丁目３－１５西船公園　南側,西船公園　南側,35.7115473,139.9675564,
千葉県,船橋市,124,海神５丁目１９－３６西海神小学校　東入口右側,西海神小学校　東入口右側,35.709396,139.9680733,
千葉県,船橋市,125,海神６丁目１８－１５海神北広場　東側,海神北広場　東側,35.7045533,139.9678266,
千葉県,船橋市,126,海神５丁目８白梅グリーンスポット　東側,白梅グリーンスポット　東側,35.7073684,139.9700736,
千葉県,船橋市,127,海神５丁目１６４－２市道０００５０号線脇緑地帯　西海神小学校,市道０００５０号線脇緑地帯　西海神小学校,35.7096994,139.9706607,
千葉県,船橋市,128,海神５丁目１９－３６西海神小学校　北側,西海神小学校　北側,35.709396,139.9680733,
千葉県,船橋市,129,海神６丁目１９－３海神西広場　東側,海神西広場　東側,35.7042862,139.9692462,
千葉県,船橋市,130,海神５丁目６海神５丁目トリトン公園内　北側,海神５丁目トリトン公園内　北側,35.7066173,139.9713695,
千葉県,船橋市,131,海神町西１丁目１１２４海神南広場　北側,海神南広場　北側,35.7035603,139.9671768,
千葉県,船橋市,132,海神町２丁目１－３海神川まちかどスポーツ広場　東側,海神川まちかどスポーツ広場　東側,35.7000783,139.9734395,
千葉県,船橋市,133,海神町南１丁目１５６９－１２海神南浜公園　北側,海神南浜公園　北側,35.6985841,139.9712968,
千葉県,船橋市,134,海神町南１丁目１５１０海神南小学校　東側入口左,海神南小学校　東側入口左,35.700936,139.968296,
千葉県,船橋市,135,海神町２丁目１－２海神町２丁目公園　北側フェンス,海神町２丁目公園　北側フェンス,35.70061949999999,139.9735412,
千葉県,船橋市,136,海神町南１丁目海神川まちかどスポーツ広場　西側道路沿,海神川まちかどスポーツ広場　西側道路沿,35.6991774,139.9724702,緯度経度は怪しい
千葉県,船橋市,137,南海神１丁目４－９南海神公園　東側,南海神公園　東側,35.6981715,139.968897,
千葉県,船橋市,138,山野町１４２－２山野町公園　遊園内南側,山野町公園　遊園内南側,35.7043706,139.9644802,
千葉県,船橋市,139,古作４丁目５５５古作町南公園　入口右側,古作町南公園　入口右側,35.7216116,139.9652113,緯度経度は怪しい
千葉県,船橋市,140,印内３丁目３大六天神社　西側,大六天神社　西側,35.7167405,139.9644348,
千葉県,船橋市,141,印内１丁目５－１葛飾中学校　東側正門横,葛飾中学校　東側正門横,35.7136496,139.9608317,
千葉県,船橋市,142,古作４丁目５２１－１古作町北公園　ＪＲ武蔵野線側,古作町北公園　ＪＲ武蔵野線側,35.7216116,139.9652113,緯度経度は怪しい
千葉県,船橋市,143,印内１丁目５－１葛飾中学校　西側入口右,葛飾中学校　西側入口右,35.7136496,139.9608317,
千葉県,船橋市,144,印内３丁目２９－５印内３丁目公園　南側,印内３丁目公園　南側,35.7170652,139.9672584,
千葉県,船橋市,145,西船３丁目７－７西船３丁目公園　公園内東側,西船３丁目公園　公園内東側,35.7129395,139.9625812,
千葉県,船橋市,146,印内２丁目１２－１印内公園　東側,印内公園　東側,35.7174662,139.9606198,
千葉県,船橋市,147,西船２丁目１９西船２丁目公園　南側フェンス,西船２丁目公園　南側フェンス,35.7153516,139.9667135,
千葉県,船橋市,148,印内３丁目２６印内八幡公園　南側,印内八幡公園　南側,35.7174205,139.9661693,
千葉県,船橋市,149,印内１丁目２葛飾小学校　入口右側花壇,葛飾小学校　入口右側花壇,35.7127094,139.9592302,
千葉県,船橋市,150,西船１丁目２５西船近隣公園　北側,西船近隣公園　北側,35.7049227,139.9656839,
千葉県,船橋市,151,西船５丁目２－１０勝間田公園　東側入口,勝間田公園　東側入口,35.7104922,139.9573025,
千葉県,船橋市,152,印内町４９７春日神社　西側道路交通標識左,春日神社　西側道路交通標識左,35.7092071,139.9593181,
千葉県,船橋市,153,西船５丁目２－１０勝間田公園　南側,勝間田公園　南側,35.7104922,139.9573025,
千葉県,船橋市,154,西船４丁目１７－３西船橋出張所　西側,西船橋出張所　西側,35.710179,139.958888,
千葉県,船橋市,155,東中山１丁目２２－１東中山１丁目公園　北側,東中山１丁目公園　北側,35.7128801,139.9504439,
千葉県,船橋市,156,東中山１丁目６－６羽黒神社　入口左側,羽黒神社　入口左側,35.7139069,139.9527956,
千葉県,船橋市,157,本中山１丁目１１－８小栗原蓮池公園　東側,小栗原蓮池公園　東側,35.7165361,139.9439224,
千葉県,船橋市,158,東中山１丁目１８－１１東中山総武広場　西側,東中山総武広場　西側,35.7127361,139.9469801,
千葉県,船橋市,159,東中山２丁目６東中山第１号公園内,東中山第１号公園内,35.7151532,139.9514732,
千葉県,船橋市,160,東中山２丁目１０番付近東中山２丁目緑地,東中山２丁目緑地,35.7163437,139.9514527,
千葉県,船橋市,161,本中山３丁目１６－１２小栗原小学校　東側,小栗原小学校　東側,35.71191100000001,139.9432866,
千葉県,船橋市,162,本中山３丁目５－１１中山ポンプ場　南側,中山ポンプ場　南側,35.7091802,139.9450408,
千葉県,船橋市,163,二子町５６０－１二子町公園　西側,二子町公園　西側,35.7099719,139.945923,
千葉県,船橋市,164,本中山３丁目１７－１７本中山公園　南側,本中山公園　南側,35.711814,139.9423702,
千葉県,船橋市,165,本中山５丁目６－１本中山保育園　北側,本中山保育園　北側,35.707214,139.942606,
千葉県,船橋市,166,本中山５丁目５－１小栗原北公園　南側,小栗原北公園　南側,35.7070117,139.9430142,
千葉県,船橋市,167,本中山４丁目３小栗原住宅　道路側フェンス中央,小栗原住宅　道路側フェンス中央,35.708594,139.9439078,
千葉県,船橋市,168,本中山３丁目２３－６本中山３丁目公園　東側,本中山３丁目公園　東側,35.7132733,139.9419275,
千葉県,船橋市,169,本中山６丁目２－１小栗原中央公園　西側,小栗原中央公園　西側,35.7053228,139.9430438,
千葉県,船橋市,170,本中山７丁目１３－１小栗原西公園　東側,小栗原西公園　東側,35.7037393,139.9408158,
千葉県,船橋市,171,本中山７丁目１３－１小栗原西公園　西側,小栗原西公園　西側,35.7037393,139.9408158,
千葉県,船橋市,172,本中山７丁目３－１小栗原東公園　東側,小栗原東公園　東側,35.7032743,139.9422436,
千葉県,船橋市,173,本中山７丁目３－１小栗原東公園　西側,小栗原東公園　西側,35.7032743,139.9422436,
千葉県,船橋市,174,本中山６丁目２－１小栗原中央公園　北側,小栗原中央公園　北側,35.7053228,139.9430438,
千葉県,船橋市,175,本中山７丁目９６原木中山駅前ロータリー　東側,原木中山駅前ロータリー　東側,35.7036501,139.9413129,
千葉県,船橋市,176,本郷町５５４西船児童ホーム　ホーム内南側,西船児童ホーム　ホーム内南側,35.7082876,139.9507538,
千葉県,船橋市,177,本郷町５１９ルネ西船橋３号棟　南側,ルネ西船橋３号棟　南側,35.7090856,139.9522166,
千葉県,船橋市,178,東中山１丁目２６－１１東中山西広場　南側,東中山西広場　南側,35.7107112,139.9519406,
千葉県,船橋市,179,本郷町５１９ルネ西船橋１号棟駐車場　東側,ルネ西船橋１号棟駐車場　東側,35.7097449,139.9511616,
千葉県,船橋市,180,本郷町４８４本郷公園　西側,本郷公園　西側,35.7090919,139.9528622,
千葉県,船橋市,181,藤原２丁目６－１藤原北広場　東側,藤原北広場　東側,35.7334103,139.9657962,
千葉県,船橋市,182,上山町１丁目１１１－５法典西小学校　正門右側,法典西小学校　正門右側,35.727319,139.970729,
千葉県,船橋市,183,藤原１丁目４中山競馬場駐車場　入口左側,中山競馬場駐車場　入口左側,35.7283328,139.9615252,
千葉県,船橋市,184,藤原２丁目７藤原第３調整池　南側,藤原第３調整池　南側,35.7349729,139.9651348,
千葉県,船橋市,185,上山町１丁目６６－６中山競馬場地下道地上部空地　フェンス前,中山競馬場地下道地上部空地　フェンス前,35.7290985,139.9656463,
千葉県,船橋市,186,藤原２丁目３８４藤原こばと公園　通路調整池側,藤原こばと公園　通路調整池側,35.7328175,139.9680962,
千葉県,船橋市,187,上山町１丁目８３－１上山公園　東側,上山公園　東側,35.7261675,139.9692992,緯度経度は怪しい
千葉県,船橋市,188,藤原１丁目３０藤原どんぐり公園　東側入口右,藤原どんぐり公園　東側入口右,35.73301060000001,139.9635623,
千葉県,船橋市,189,上山町１丁目１５５上山第２調整池　北側フェンス,上山第２調整池　北側フェンス,35.7301418,139.9693216,
千葉県,船橋市,190,上山町１丁目２４４−２付近上山町１丁目公園内,上山町１丁目公園内,35.730942,139.9731236,
千葉県,船橋市,191,藤原５丁目１０法典公園グラスポ　駐車場出口左側,法典公園グラスポ　駐車場出口左側,35.7421669,139.9775705,
千葉県,船橋市,192,藤原５丁目１０法典公園グラスポ　西側道路沿フェンス,法典公園グラスポ　西側道路沿フェンス,35.7422229,139.9775342,
千葉県,船橋市,193,藤原５丁目２－１法典小学校　正門左側,法典小学校　正門左側,35.7378516,139.9801939,
千葉県,船橋市,194,上山町３丁目５０６－１上山町３丁目緑地　東側,上山町３丁目緑地　東側,35.7351099,139.9846736,
千葉県,船橋市,195,藤原３丁目３５藤原南公園　公園内,藤原南公園　公園内,35.7358091,139.9779255,
千葉県,船橋市,196,上山町３丁目５４４－３２上山町３丁目子供の公園　グランド南側,上山町３丁目子供の公園　グランド南側,35.7368635,139.985041,
千葉県,船橋市,197,上山町２丁目４３１上山神明社　道路沿,上山神明社　道路沿,35.7339631,139.9797425,
千葉県,船橋市,198,藤原３丁目２－１５市西老人福祉センター　入口左側,市西老人福祉センター　入口左側,35.73487300000001,139.975389,
千葉県,船橋市,199,藤原６丁目２３藤原さくら公園　西側,藤原さくら公園　西側,35.7438386,139.976979,
千葉県,船橋市,200,藤原６丁目２４藤原桐畑公園　北側,藤原桐畑公園　北側,35.7447319,139.9787179,
千葉県,船橋市,201,藤原７丁目４１藤原公園　牡鹿台ハイツ１号棟向側,藤原公園　牡鹿台ハイツ１号棟向側,35.7452851,139.9872139,
千葉県,船橋市,202,藤原７丁目４６－１法田中学校　南側　東寄り門左,法田中学校　南側　東寄り門左,35.74440380000001,139.9845428,
千葉県,船橋市,203,藤原７丁目３９藤原市民の森緑地　南側,藤原市民の森緑地　南側,35.7434321,139.9852286,
千葉県,船橋市,204,藤原５丁目２７藤原５丁目２７山林北側（市道２７－００９沿,藤原５丁目２７山林北側（市道２７－００９沿,35.7428879,139.9807595,
千葉県,船橋市,205,藤原５丁目３０番藤原５丁目子供の広場　東側植込み,藤原５丁目子供の広場　東側植込み,35.742683,139.9825759,
千葉県,船橋市,206,藤原７丁目４３藤原７丁目３号広場内,藤原７丁目３号広場内,35.7446961,139.9857972,
千葉県,船橋市,207,旭町２丁目１１－１熱田神社　南東側ブロック塀,熱田神社　南東側ブロック塀,35.7362608,139.9892135,
千葉県,船橋市,208,藤原７丁目３３－７法典公民館　駐車場脇,法典公民館　駐車場脇,35.7402114,139.9876149,
千葉県,船橋市,209,旭町２丁目２３－１旭中学校　グランド前フェンス,旭中学校　グランド前フェンス,35.73554,139.98743,
千葉県,船橋市,210,旭町４丁目１７－３ＮＴＴ上山分局　入口右側フェンス,ＮＴＴ上山分局　入口右側フェンス,35.7346198,139.9941617,
千葉県,船橋市,211,藤原７丁目３馬込沢公園　東側,馬込沢公園　東側,35.7421337,139.9911753,
千葉県,船橋市,212,馬込西２丁目１２市営馬込町団地　東側,市営馬込町団地　東側,35.7375843,139.9920361,
千葉県,船橋市,213,丸山５丁目１９－６丸山公民館　入口左側,丸山公民館　入口左側,35.74717,139.9951,
千葉県,船橋市,214,丸山１丁目１３牧の里公園　駐車場西側,牧の里公園　駐車場西側,35.7456858,139.9917968,
千葉県,船橋市,215,丸山４丁目８丸山ゴルフセンター　バス停付近,丸山ゴルフセンター　バス停付近,35.748791,139.9948686,
千葉県,船橋市,216,丸山１丁目５４丸山の森緑地　中央,丸山の森緑地　中央,35.74851960000001,139.9871229,
千葉県,船橋市,217,馬込町９０６－１県道船橋我孫子線沿　北消防署隣駐車場,県道船橋我孫子線沿　北消防署隣駐車場,35.7424463,139.9986212,
千葉県,船橋市,218,馬込町８０９－３２馬込町５号公園　東側,馬込町５号公園　東側,35.7381568,139.9998283,
千葉県,船橋市,219,馬込町８４３馬込町第７調整池　西側,馬込町第７調整池　西側,35.7392827,139.9986226,
千葉県,船橋市,220,馬込町９４１－３馬込町１０号公園　北側,馬込町１０号公園　北側,35.7423096,140.0008447,
千葉県,船橋市,221,馬込町９２７馬込町第９調整池,馬込町第９調整池,35.7407702,140.0005035,
千葉県,船橋市,222,丸山３丁目２７－１０丸山井戸作公園　北側,丸山井戸作公園　北側,35.753197,139.9939627,
千葉県,船橋市,223,丸山３丁目４８－１丸山屋敷公園　西側,丸山屋敷公園　西側,35.7541655,139.9915577,
千葉県,船橋市,224,丸山３丁目５０－３丸山若草公園　北側,丸山若草公園　北側,35.7529606,139.9915418,
千葉県,船橋市,225,丸山２丁目５５丸山の森緑地　西側,丸山の森緑地　西側,35.74851960000001,139.9871229,
千葉県,船橋市,226,丸山２丁目２５－１丸山公園　北側東寄り,丸山公園　北側東寄り,35.7492584,139.9911132,
千葉県,船橋市,227,丸山４丁目９－３丸山すぎな公園　西側,丸山すぎな公園　西側,35.7492114,139.9952804,
千葉県,船橋市,228,丸山４丁目１０－３丸山つくし公園　東側フェンス,丸山つくし公園　東側フェンス,35.7495895,139.996078,
千葉県,船橋市,229,丸山４丁目４－１丸山ゴルフセンター　北側グリーンハイツ向,丸山ゴルフセンター　北側グリーンハイツ向,35.7478792,139.9940098,
千葉県,船橋市,230,丸山４丁目４３丸山小学校　校門右側花壇,丸山小学校　校門右側花壇,35.750102,139.997403,
千葉県,船橋市,231,旭町６丁目５あさひ公園　西側,あさひ公園　西側,35.7241151,139.9866114,
千葉県,船橋市,232,旭町１丁目２－２５松陽台しいの木公園　西側,松陽台しいの木公園　西側,35.7255434,139.9845938,
千葉県,船橋市,233,前貝塚町３６６－２３前貝塚北公園　北側,前貝塚北公園　北側,35.7299892,139.9839343,緯度経度は怪しい
千葉県,船橋市,234,旭町５丁目５旭町第４調整池　３２号棟前,旭町第４調整池　３２号棟前,35.7249084,139.9897376,
千葉県,船橋市,235,前貝塚町６００塚田小学校　正門西側,塚田小学校　正門西側,35.723272,139.979117,
千葉県,船橋市,236,前貝塚町３６６－９３前貝塚南公園　西側,前貝塚南公園　西側,35.7258826,139.9839877,緯度経度は怪しい
千葉県,船橋市,237,前貝塚町１０１３－３前貝塚しらさぎ公園　東側,前貝塚しらさぎ公園　東側,35.7241387,139.9794419,
千葉県,船橋市,238,前貝塚町１１５０前貝塚かるがも公園　西側,前貝塚かるがも公園　西側,35.7281773,139.9814739,
千葉県,船橋市,239,旭町１丁目４旭町まちかどスポーツ広場　東側　入口左,旭町まちかどスポーツ広場　東側　入口左,35.7262508,139.9858718,
千葉県,船橋市,240,前貝塚町７９４神明神社　西側入口左,神明神社　西側入口左,35.72789780000001,139.9802785,
千葉県,船橋市,241,北本町２丁目４０北本町２丁目公園　マンション寄り植込み内,北本町２丁目公園　マンション寄り植込み内,35.7178544,139.9814007,
千葉県,船橋市,242,行田１丁目４４行田１丁目公園　南側,行田１丁目公園　南側,35.7210331,139.9786908,
千葉県,船橋市,243,行田町３６５－２塚田公園　広場内南側フェンス,塚田公園　広場内南側フェンス,35.7223758,139.9818892,
千葉県,船橋市,244,前貝塚町６０１－１塚田公民館　駐輪場道路側フェンス,塚田公民館　駐輪場道路側フェンス,35.723558,139.979909,
千葉県,船橋市,245,北本町２丁目４３北本町２丁目５号公園　南側フェンス,北本町２丁目５号公園　南側フェンス,35.7196371,139.9824225,
千葉県,船橋市,246,行田１丁目３行田グランオアシス北公園　入口,行田グランオアシス北公園　入口,35.7196039,139.9787154,
千葉県,船橋市,247,行田３丁目６－１行田中学校　東門左側,行田中学校　東門左側,35.7209057,139.9700143,
千葉県,船橋市,248,行田２丁目４－１行田東小学校　東側入口左,行田東小学校　東側入口左,35.716923,139.973687,
千葉県,船橋市,249,行田２丁目５県立行田公園　植込み,県立行田公園　植込み,35.7195723,139.9723298,
千葉県,船橋市,250,山手３丁目１４諏訪神社　行田公園向側,諏訪神社　行田公園向側,35.7191017,139.9765915,
千葉県,船橋市,251,山手１丁目３５０－１３山手みどり公園　北側,山手みどり公園　北側,35.7137209,139.9764312,
千葉県,船橋市,252,行田３丁目４－１行田西小学校　正門左側,行田西小学校　正門左側,35.718836,139.9678052,
千葉県,船橋市,253,行田３丁目１－２行田保育園　南側フェンス,行田保育園　南側フェンス,35.7170765,139.9694224,
千葉県,船橋市,254,行田２丁目４－１行田東小学校　南側,行田東小学校　南側,35.716923,139.973687,
千葉県,船橋市,255,行田２丁目８防災備蓄センター　入口フェンス,防災備蓄センター　入口フェンス,35.72219,139.9720188,緯度経度は怪しい
千葉県,船橋市,256,行田１丁目２３－１５行田運動広場　テニスコート　北側フェンス,行田運動広場　テニスコート　北側フェンス,35.7223489,139.9734296,
千葉県,船橋市,257,夏見台４丁目３０－２夏見公園　西側,夏見公園　西側,35.7252146,139.995731,
千葉県,船橋市,258,夏見台２丁目１３夏見台近隣公園　東側,夏見台近隣公園　東側,35.7201354,139.995132,
千葉県,船橋市,259,夏見台２丁目１２－１夏見台小学校　西側,夏見台小学校　西側,35.7216559,139.9951187,
千葉県,船橋市,260,夏見台２丁目５夏見台２丁目ひまわり公園　テニスコートベン,夏見台２丁目ひまわり公園　テニスコートベン,35.7220188,139.9929904,
千葉県,船橋市,261,夏見台１丁目１９夏見台団地管理事務所　西側バス停右,夏見台団地管理事務所　西側バス停右,35.7196417,139.9903112,
千葉県,船橋市,262,夏見台１丁目２０夏見台団地９号棟　南側外柵前,夏見台団地９号棟　南側外柵前,35.7195363,139.9928976,
千葉県,船橋市,263,夏見台１丁目１１－３中央老人福祉センター　入口右側,中央老人福祉センター　入口右側,35.7181563,139.9952357,
千葉県,船橋市,264,夏見台１丁目１６－２夏見台第二かしの木公園　オークホーム管,夏見台第二かしの木公園　オークホーム管,35.7183168,139.9911432,
千葉県,船橋市,265,夏見台６丁目４運動公園　民プール前,運動公園　民プール前,35.728131,139.994211,緯度経度は怪しい
千葉県,船橋市,266,夏見４丁目２７夏見台北公園　西側,夏見台北公園　西側,35.7153214,139.9902244,
千葉県,船橋市,267,夏見４丁目３－２３夏見台南公園　西側,夏見台南公園　西側,35.7136104,139.9893944,
千葉県,船橋市,268,夏見３丁目１２－１８夏見坂下公園　北側,夏見坂下公園　北側,35.7118352,139.9849731,
千葉県,船橋市,269,夏見３丁目４－１１夏見すみれ公園　北側,夏見すみれ公園　北側,35.7099304,139.9841801,
千葉県,船橋市,270,夏見２丁目１１－１船橋中学校　正門左側,船橋中学校　正門左側,35.709194,139.9870069,
千葉県,船橋市,271,夏見２丁目１１－１船橋中学校　裏門フェンス,船橋中学校　裏門フェンス,35.709194,139.9870069,
千葉県,船橋市,272,夏見２丁目５夏見山下公園　入口左側フェンス,夏見山下公園　入口左側フェンス,35.7104368,139.9913905,
千葉県,船橋市,273,夏見２丁目１１－１船橋中学校　南側,船橋中学校　南側,35.709194,139.9870069,
千葉県,船橋市,274,夏見１丁目１３夏見１丁目あおぞら中央公園　南側,夏見１丁目あおぞら中央公園　南側,35.7070789,139.9901997,
千葉県,船橋市,275,夏見４丁目１７－２８夏見台中央公園　西側,夏見台中央公園　西側,35.7139786,139.9910227,
千葉県,船橋市,276,米ケ崎町２２－４交差点脇緑地　道路沿,交差点脇緑地　道路沿,35.7134494,140.0046507,
千葉県,船橋市,277,夏見６丁目２０東夏見公園　東側,東夏見公園　東側,35.7140145,139.9972873,
千葉県,船橋市,278,夏見４丁目１７－２８夏見台中央公園　南側,夏見台中央公園　南側,35.7139786,139.9910227,
千葉県,船橋市,279,夏見６丁目９夏見６丁目公園　公園内北側,夏見６丁目公園　公園内北側,35.7156314,139.9931061,
千葉県,船橋市,280,夏見５丁目２７－１八栄小学校　体育館裏側,八栄小学校　体育館裏側,35.7115296,139.9935503,
千葉県,船橋市,281,夏見５丁目２６－１９夏見５丁目そよかぜ公園　南側,夏見５丁目そよかぜ公園　南側,35.7108661,139.9938048,
千葉県,船橋市,282,米ケ崎町４３－１付近八栄橋付近交差点　植込み,八栄橋付近交差点　植込み,35.7120493,140.0008511,
千葉県,船橋市,283,金杉台２丁目２－７金杉台団地　２－７棟前空地,金杉台団地　２－７棟前空地,35.7361426,140.0135942,緯度経度は怪しい
千葉県,船橋市,284,金杉台２丁目２－１６金杉台団地　上り金杉台団地バス停左側,金杉台団地　上り金杉台団地バス停左側,35.7363552,140.0126877,緯度経度は怪しい
千葉県,船橋市,285,金杉台２丁目１－７金杉台小学校　入口左側,金杉台小学校　入口左側,35.7373058,140.013883,緯度経度は怪しい
千葉県,船橋市,286,金杉台２丁目２－１２金杉台団地　２－１２棟前土手,金杉台団地　２－１２棟前土手,35.7363268,140.012211,緯度経度は怪しい
千葉県,船橋市,287,金杉台１丁目４－１金杉台公園　北側,金杉台公園　北側,35.7346933,140.0109862,
千葉県,船橋市,288,金杉台２丁目２－７金杉台団地入口広場　東側,金杉台団地入口広場　東側,35.7361426,140.0135942,緯度経度は怪しい
千葉県,船橋市,289,金杉４丁目４金杉緑地　入口フェンス,金杉緑地　入口フェンス,35.7323061,140.0112264,
千葉県,船橋市,290,金杉６丁目２６－１御滝公園　バス停「滝不動」付近,御滝公園　バス停「滝不動」付近,35.7394526,140.0194023,
千葉県,船橋市,291,金杉６丁目２６－１御滝公園　南側入口左側植込,御滝公園　南側入口左側植込,35.7394526,140.0194023,
千葉県,船橋市,292,金杉６丁目５－１御滝中学校　正門左側,御滝中学校　正門左側,35.7373856,140.0181322,
千葉県,船橋市,293,金杉町８９０－７７馬込町４号公園　公園内南側植込み,馬込町４号公園　公園内南側植込み,35.7340866,140.0016919,
千葉県,船橋市,294,高根町２８９５高根小学校　グランド側門右側,高根小学校　グランド側門右側,35.72689099999999,140.008917,
千葉県,船橋市,295,金杉町９１５－１公園管理センター　入口左フェンス,公園管理センター　入口左フェンス,35.7356753,140.0038495,
千葉県,船橋市,296,高根町１２６７－１高根町宮脇公園　南側,高根町宮脇公園　南側,35.7199465,140.0114152,
千葉県,船橋市,297,高根町１５２０高根町広場　北側,高根町広場　北側,35.7201145,140.0059441,
千葉県,船橋市,298,高根町１２２６観行院　山門左側,観行院　山門左側,35.7232127,140.0110253,
千葉県,船橋市,299,金杉３丁目１６－１０金杉３丁目１号広場,金杉３丁目１号広場,35.7324063,140.006893,
千葉県,船橋市,300,飯山満町１丁目９５４－４飯山満南小学校　入口右側フェンス,飯山満南小学校　入口右側フェンス,35.70971,140.01592,
千葉県,船橋市,301,飯山満町１丁目９４６－１飯山満中学校　正門左側,飯山満中学校　正門左側,35.7115038,140.0177564,
千葉県,船橋市,302,駿河台２丁目３０駿河台２丁目公園　公園内植込み,駿河台２丁目公園　公園内植込み,35.705791,140.0138486,
千葉県,船橋市,303,駿河台２丁目２４駿河台２丁目緑地,駿河台２丁目緑地,35.70710040000001,140.0125047,
千葉県,船橋市,304,飯山満町１丁目１１６－６飯山満町第７調整池,飯山満町第７調整池,35.715483,140.0130295,
千葉県,船橋市,305,金杉７丁目２１－１金杉桜が丘公園　北側,金杉桜が丘公園　北側,35.7338191,140.0164373,
千葉県,船橋市,306,金杉７丁目５３－１０金杉公園　公園内北側（擁壁前）,金杉公園　公園内北側（擁壁前）,35.7314633,140.0191241,
千葉県,船橋市,307,金杉７丁目２８－９金杉南公園　北側,金杉南公園　北側,35.7322435,140.016623,
千葉県,船橋市,308,金杉８丁目９金杉８丁目公園,金杉８丁目公園,35.7334952,140.0156202,
千葉県,船橋市,309,金杉８丁目１４－３２金杉８丁目２号公園,金杉８丁目２号公園,35.7305109,140.0141355,
千葉県,船橋市,310,薬円台４丁目２５－１９薬円台公園グランド　東側,薬円台公園グランド　東側,35.7119274,140.0479588,
千葉県,船橋市,311,薬円台４丁目７－２薬円台ひまわり公園　東側,薬円台ひまわり公園　東側,35.7127068,140.0470964,
千葉県,船橋市,312,薬円台４丁目５－１薬円台小学校　西側フェンス,薬円台小学校　西側フェンス,35.7133628,140.0448827,
千葉県,船橋市,313,薬円台５丁目７－１樫の木公園　南側,樫の木公園　南側,35.7104446,140.0385511,
千葉県,船橋市,314,薬円台４丁目２５－１９薬円台公園　めぐみ保育園向側,薬円台公園　めぐみ保育園向側,35.7119274,140.0479588,
千葉県,船橋市,315,薬円台６丁目１新京成薬園台駅前　広場内,新京成薬園台駅前　広場内,35.7106372,140.0377387,
千葉県,船橋市,316,薬円台４丁目５－１薬円台小学校　東門右側,薬円台小学校　東門右側,35.7121364,140.0461922,
千葉県,船橋市,317,薬円台５丁目２１正伯公園　北側,正伯公園　北側,35.7099731,140.0406505,
千葉県,船橋市,318,薬円台４丁目１５－５薬円台松風公園　西側入口右側,薬円台松風公園　西側入口右側,35.7156162,140.0457358,
千葉県,船橋市,319,薬円台６丁目２３薬円台６丁目公園　北側,薬円台６丁目公園　北側,35.7142701,140.0412956,
千葉県,船橋市,320,薬円台３丁目８－１松ヶ崎公園　南側,松ヶ崎公園　南側,35.708691,140.0490561,
千葉県,船橋市,321,薬円台２丁目１８－１薬円台南小学校　北側正門左　体育館前,薬円台南小学校　北側正門左　体育館前,35.7073605,140.0460935,
千葉県,船橋市,322,田喜野井６丁目７田喜野井６丁目公園　南側,田喜野井６丁目公園　南側,35.7050465,140.045255,
千葉県,船橋市,323,薬円台２丁目１８－１薬円台南小学校　南側,薬円台南小学校　南側,35.7073605,140.0460935,
千葉県,船橋市,324,薬円台１丁目１２－８薬円台神明広場　東側,薬円台神明広場　東側,35.7080421,140.0420238,
千葉県,船橋市,325,薬円台３丁目２１市営薬円台団地　２号棟西側フェンス,市営薬円台団地　２号棟西側フェンス,35.7053801,140.0513309,
千葉県,船橋市,326,薬円台３丁目１６薬円台３丁目公園　東側（入口左）,薬円台３丁目公園　東側（入口左）,35.7069638,140.0501164,
千葉県,船橋市,327,田喜野井６丁目３田喜野井北公園,田喜野井北公園,35.7047496,140.0429708,
千葉県,船橋市,328,西習志野３丁目３６－１西習志野第１号公園　南側,西習志野第１号公園　南側,35.7193334,140.0358692,
千葉県,船橋市,329,西習志野４丁目２西習志野夕日丘公園　公園内東側,西習志野夕日丘公園　公園内東側,35.7199332,140.0424054,
千葉県,船橋市,330,飯山満町３丁目１５３８飯山満町３丁目グリーンスポット　北側,飯山満町３丁目グリーンスポット　北側,35.7134066,140.0338519,
千葉県,船橋市,331,西習志野３丁目３８－１西習志野第２号公園　南側,西習志野第２号公園　南側,35.7191327,140.0388391,
千葉県,船橋市,332,七林町１３０七林中学校　正門右側,七林中学校　正門右側,35.7168091,140.036976,
千葉県,船橋市,333,七林町１１５－１３七林小学校　東側入口右,七林小学校　東側入口右,35.7167117,140.0384708,
千葉県,船橋市,334,三山７丁目１６－２三山神揃場広場　西側,三山神揃場広場　西側,35.6967577,140.0533663,
千葉県,船橋市,335,三山２丁目４２三山２丁目さくら公園　南側,三山２丁目さくら公園　南側,35.69657580000001,140.0491472,
千葉県,船橋市,336,三山２丁目４２－１三山小学校　南側道路沿,三山小学校　南側道路沿,35.6962285,140.0504477,
千葉県,船橋市,337,三山２丁目４２－１三山小学校　東側入口右,三山小学校　東側入口右,35.6962285,140.0504477,
千葉県,船橋市,338,三山２丁目３１－１三山２丁目公園　東側入口右,三山２丁目公園　東側入口右,35.6974114,140.0494291,
千葉県,船橋市,339,三山２丁目４－１三山市営住宅　駐輪場,三山市営住宅　駐輪場,35.6947926,140.0475368,
千葉県,船橋市,340,三山６丁目２６－１三山中学校　正門左側フェンス,三山中学校　正門左側フェンス,35.7016947,140.0573628,
千葉県,船橋市,341,三山９丁目４３－１１三山９丁目公園　南側,三山９丁目公園　南側,35.6912105,140.06288,
千葉県,船橋市,342,三山６丁目３２－１三山東小学校　正門右側フェンス,三山東小学校　正門右側フェンス,35.700973,140.0571764,
千葉県,船橋市,343,習志野５丁目３－１４習志野５丁目ひまわり公園（公園外　南側）,習志野５丁目ひまわり公園（公園外　南側）,35.7000653,140.0614424,
千葉県,船橋市,344,三山８丁目３－６三山台住宅北子供の公園　北側,三山台住宅北子供の公園　北側,35.6966874,140.0562375,
千葉県,船橋市,345,三山６丁目２６－１三山中学校　東門右フェンス,三山中学校　東門右フェンス,35.7016947,140.0573628,
千葉県,船橋市,346,三山８丁目４４－１６三山新田公園　東側,三山新田公園　東側,35.6958499,140.0594986,
千葉県,船橋市,347,習志野５丁目８－９習志野５丁目２号公園　西側フェンス,習志野５丁目２号公園　西側フェンス,35.6969151,140.0620962,
千葉県,船橋市,348,三山８丁目１９－１三山市民センター　入口左側,三山市民センター　入口左側,35.6971854,140.0581551,
千葉県,船橋市,349,三山９丁目２２三山陽栄広場　東側入口右,三山陽栄広場　東側入口右,35.6928104,140.0599772,
千葉県,船橋市,350,三山５丁目２０－１二宮神社　北側,二宮神社　北側,35.7018472,140.0523243,
千葉県,船橋市,351,田喜野井７丁目６田喜野井７丁目公園,田喜野井７丁目公園,35.7031344,140.0496661,
千葉県,船橋市,352,三山５丁目４３－５三山北公園　北側,三山北公園　北側,35.7043416,140.0559882,
千葉県,船橋市,353,三山５丁目４３－５三山北公園　南側,三山北公園　南側,35.7043416,140.0559882,
千葉県,船橋市,354,習志野１丁目５－１習志野１丁目西公園　東側,習志野１丁目西公園　東側,35.7098559,140.0568136,
千葉県,船橋市,355,習志野１丁目１４－１習志野町北公園　西側フェンス,習志野町北公園　西側フェンス,35.7111106,140.057166,
千葉県,船橋市,356,習志野４丁目４７－１習志野工団広場　南側,習志野工団広場　南側,35.7066537,140.0614005,
千葉県,船橋市,357,習志野１丁目６－６実籾街道　グリーンスポット,実籾街道　グリーンスポット,35.710625,140.0571537,
千葉県,船橋市,358,田喜野井４丁目３３－１田喜野井小学校　南側,田喜野井小学校　南側,35.7025967,140.0436595,
千葉県,船橋市,359,三山４丁目１０－７三山公園　西側,三山公園　西側,35.7014914,140.0489646,
千葉県,船橋市,360,田喜野井２丁目２４－１三田中学校　北側入口左,三田中学校　北側入口左,35.6991442,140.0456439,
千葉県,船橋市,361,田喜野井２丁目２４－２三田公民館　駐車場右側,三田公民館　駐車場右側,35.6982985,140.0449422,
千葉県,船橋市,362,田喜野井１丁目１９－１田喜野井南公園　東側,田喜野井南公園　東側,35.6967664,140.0376676,
千葉県,船橋市,363,田喜野井２丁目２８－３２田喜野井東公園　北側,田喜野井東公園　北側,35.6979385,140.0442861,
千葉県,船橋市,364,三山１丁目４２三山１丁目３号公園,三山１丁目３号公園,35.6952187,140.0437482,
千葉県,船橋市,365,田喜野井１丁目２６田喜野井第２調整池　西側フェンス,田喜野井第２調整池　西側フェンス,35.7000107,140.0403679,
千葉県,船橋市,366,三山４丁目７三山４丁目緑地　東側,三山４丁目緑地　東側,35.7016137,140.0482761,
千葉県,船橋市,367,田喜野井４丁目２９田喜野井４丁目広場　西側,田喜野井４丁目広場　西側,35.7025323,140.0415273,
千葉県,船橋市,368,田喜野井４丁目１４－１田喜野井公園　東側,田喜野井公園　東側,35.7022209,140.0384182,
千葉県,船橋市,369,田喜野井４丁目２９田喜野井第１調整池　津田沼グリーンハイツ,田喜野井第１調整池　津田沼グリーンハイツ,35.6999964,140.0373159,
千葉県,船橋市,370,滝台２丁目１４滝台２丁目緑地　西側,滝台２丁目緑地　西側,35.7092444,140.0349576,
千葉県,船橋市,371,田喜野井５丁目９田喜野井第３調整池　東側フェンス,田喜野井第３調整池　東側フェンス,35.704114,140.0376858,
千葉県,船橋市,372,滝台１丁目１－２０二宮出張所　二宮中学校入口左側,二宮出張所　二宮中学校入口左側,35.704085,140.034652,
千葉県,船橋市,373,滝台１丁目２－１二宮中学校　南側プール裏側,二宮中学校　南側プール裏側,35.704085,140.034652,
千葉県,船橋市,374,田喜野井４丁目５田喜野井公園ゲートボール場　西側,田喜野井公園ゲートボール場　西側,35.7022209,140.0384182,
千葉県,船橋市,375,前原東５丁目４６－１４前原東５丁目公園　東側,前原東５丁目公園　東側,35.7034275,140.0356999,
千葉県,船橋市,376,前原東５丁目３３前原東５丁目緑地　西側,前原東５丁目緑地　西側,35.7008018,140.0354598,
千葉県,船橋市,377,前原東６丁目３０－１はやぶさ公園　西側,はやぶさ公園　西側,35.6947133,140.0336858,
千葉県,船橋市,378,前原東５丁目３７－６前原松波公園　中央フェンス,前原松波公園　中央フェンス,35.7011695,140.0329668,
千葉県,船橋市,379,前原東６丁目３５－１つばさ公園　西側,つばさ公園　西側,35.6979239,140.0367084,
千葉県,船橋市,380,前原東６丁目２３－１０前原東公園　北側,前原東公園　北側,35.6970228,140.0348708,
千葉県,船橋市,381,前原東４丁目２－２原東４丁目公園　遊園内東側,原東４丁目公園　遊園内東側,35.6970053,140.0258564,
千葉県,船橋市,382,前原東２丁目２２海松台公園　北側,海松台公園　北側,35.69909579999999,140.0320525,
千葉県,船橋市,383,前原西２丁目２８－１前原小学校　正門左側フェンス,前原小学校　正門左側フェンス,35.6952192,140.0246758,
千葉県,船橋市,384,前原東３丁目３３－１前原公園　西側,前原公園　西側,35.6985495,140.0288247,
千葉県,船橋市,385,前原東３丁目３３－１前原公園　南側,前原公園　南側,35.6985495,140.0288247,
千葉県,船橋市,386,前原東２丁目１４藤崎台２号公園　北側,藤崎台２号公園　北側,35.6962415,140.0298342,
千葉県,船橋市,387,前原西１丁目３１前原西さくら公園　南側植込み,前原西さくら公園　南側植込み,35.6925469,140.0142019,
千葉県,船橋市,388,前原東２丁目６藤崎台公園　公園内植込み,藤崎台公園　公園内植込み,35.6943885,140.0303539,
千葉県,船橋市,389,前原西１丁目１中野木交差点脇代替地　西側,中野木交差点脇代替地　西側,35.7024487,140.0174821,緯度経度は怪しい
千葉県,船橋市,390,前原西２丁目３９－１４前原西公園　西側,前原西公園　西側,35.6942657,140.0205847,
千葉県,船橋市,391,前原西２丁目１６－１ＪＲ津田沼駅北口植栽帯,ＪＲ津田沼駅北口植栽帯,35.6925657,140.0188455,
千葉県,船橋市,392,前原西１丁目４札場公園　東側,札場公園　東側,35.6963493,140.0099472,
千葉県,船橋市,393,前原西２丁目２１−２１東部公民館,東部公民館,35.6928,140.022776,
千葉県,船橋市,394,中野木２丁目３３前原中学校　正門入口坂下,前原中学校　正門入口坂下,35.7043805,140.0175678,
千葉県,船橋市,395,中野木２丁目１９－１中野木小学校　正門右側フェンス,中野木小学校　正門右側フェンス,35.7017588,140.02013,
千葉県,船橋市,396,前原西６丁目５３３－１５飯山満南公園　東側,飯山満南公園　東側,35.7047213,140.0253817,緯度経度は怪しい
千葉県,船橋市,397,中野木１丁目１２－１八坂神社　西側,八坂神社　西側,35.7014464,140.0131512,
千葉県,船橋市,398,中野木２丁目１１－１中野木２丁目公園　南側,中野木２丁目公園　南側,35.7010184,140.017598,
千葉県,船橋市,399,前原西６丁目１－２９アルビス前原中央公園　東側,アルビス前原中央公園　東側,35.7024498,140.0215592,緯度経度は怪しい
千葉県,船橋市,400,飯山満町２丁目６１８－１５飯山満町２丁目３号公園　西側,飯山満町２丁目３号公園　西側,35.7093325,140.0231546,
千葉県,船橋市,401,前原西６丁目３８７－４５前原西６丁目イチョウ公園　西側フェンス前,前原西６丁目イチョウ公園　西側フェンス前,35.7022532,140.0251769,緯度経度は怪しい
千葉県,船橋市,402,飯山満町２丁目５３３－５飯山満第１調整池　北側,飯山満第１調整池　北側,35.7042423,140.0222623,
千葉県,船橋市,403,前原西６丁目１市営前原団地道路側フェンス,市営前原団地道路側フェンス,35.7032601,140.0239194,緯度経度は怪しい
千葉県,船橋市,404,前原西６丁目１－１２二宮保育園　西側,二宮保育園　西側,35.6999078,140.0197286,
千葉県,船橋市,405,前原西６丁目１－１２前原児童ホーム　東側,前原児童ホーム　東側,35.6995092,140.019631,
千葉県,船橋市,406,前原西４丁目２４前原西４丁目公園　南側,前原西４丁目公園　南側,35.6974551,140.0173897,
千葉県,船橋市,407,前原西４丁目３２前原第１調整池　南側,前原第１調整池　南側,35.6994886,140.0167317,
千葉県,船橋市,408,前原西４丁目３７－２前原山下公園　北側,前原山下公園　北側,35.6996686,140.0122248,
千葉県,船橋市,409,前原西５丁目４前原西５丁目公園　公園内南側,前原西５丁目公園　公園内南側,35.6977431,140.0212154,
千葉県,船橋市,410,前原西４丁目３１中野木グリーンスポット　南側,中野木グリーンスポット　南側,35.6990453,140.0179633,
千葉県,船橋市,411,二宮２丁目４７滝の作向台公園　東側フェンス,滝の作向台公園　東側フェンス,35.710152,140.0332876,
千葉県,船橋市,412,飯山満町３丁目１３１２－６付近飯山満３丁目　空地,飯山満３丁目　空地,35.7147876,140.0251531,
千葉県,船橋市,413,飯山満町２丁目８４３飯山満大宮広場　東側外壁,飯山満大宮広場　東側外壁,35.7116292,140.0268376,
千葉県,船橋市,414,飯山満町３丁目１３９４－３飯山満小学校　通用門右側,飯山満小学校　通用門右側,35.7112115,140.0283407,
千葉県,船橋市,415,飯山満町３丁目１５２０－３３飯山満町つつじ公園　北側,飯山満町つつじ公園　北側,35.7117142,140.0342683,
千葉県,船橋市,416,二宮２丁目３市営二宮第１団地　２号棟東側,市営二宮第１団地　２号棟東側,35.7064528,140.0332542,
千葉県,船橋市,417,二宮１丁目４０－１１二宮公園　南側,二宮公園　南側,35.7080654,140.0282706,
千葉県,船橋市,418,二宮１丁目３千葉病院前バス停　駐車場向側植込み,千葉病院前バス停　駐車場向側植込み,35.7059308,140.0260646,
千葉県,船橋市,419,飯山満町３丁目１３４４飯山満駅第２自転車等駐車場　北側歩行者,飯山満駅第２自転車等駐車場　北側歩行者,35.7158117,140.0260505,
千葉県,船橋市,420,飯山満町２丁目４９２－２３山満公園　道路沿い,山満公園　道路沿い,35.7140502,140.0222372,緯度経度は怪しい
千葉県,船橋市,421,飯山満町２丁目４８２－２１飯山満つばき公園　南側,飯山満つばき公園　南側,35.706255,140.0186691,
千葉県,船橋市,422,大穴南１丁目２１－１穴第１号公園　南側,穴第１号公園　南側,35.7433657,140.0334449,
千葉県,船橋市,423,大穴南１丁目１２－８大穴緑が丘公園　西側,大穴緑が丘公園　西側,35.7406703,140.0309209,
千葉県,船橋市,424,大穴南２丁目１３－６大穴日桜公園　南側,大穴日桜公園　南側,35.7424301,140.0359091,
千葉県,船橋市,425,大穴南３丁目１９－２大穴中学校　正門左側,大穴中学校　正門左側,35.741346,140.04286,
千葉県,船橋市,426,大穴南２丁目７－１大穴小学校　北側門左,大穴小学校　北側門左,35.740565,140.034447,
千葉県,船橋市,427,大穴南２丁目７－１大穴小学校　東側裏門右側,大穴小学校　東側裏門右側,35.740565,140.034447,
千葉県,船橋市,428,大穴町６４４－１８大穴まちかどスポーツ広場　正門左側バス,大穴まちかどスポーツ広場　正門左側バス,35.7360223,140.0325889,
千葉県,船橋市,429,大穴南４丁目３－５大里西公園　西側中央フェンス,大里西公園　西側中央フェンス,35.7367229,140.0373897,
千葉県,船橋市,430,大穴南４丁目１４－１大穴南公園　公園内西側,大穴南公園　公園内西側,35.7371259,140.035168,
千葉県,船橋市,431,松が丘１丁目４２４２松が丘中央公園　フェンス,松が丘中央公園　フェンス,35.737197,140.0420919,緯度経度は怪しい
千葉県,船橋市,432,松が丘１丁目５１松が丘第１調整池　東側フェンス,松が丘第１調整池　東側フェンス,35.7371423,140.044524,
千葉県,船橋市,433,松が丘２丁目３１－１８松が丘公園　南側,松が丘公園　南側,35.7387556,140.0462192,
千葉県,船橋市,434,松が丘２丁目４６松が丘緑地　東側,松が丘緑地　東側,35.7408248,140.047557,
千葉県,船橋市,435,松が丘１丁目５２－２２松が丘児童ホーム　ホーム内入口右側フェ,松が丘児童ホーム　ホーム内入口右側フェ,35.7360091,140.0445845,
千葉県,船橋市,436,松が丘３丁目４２－１古和釜小学校　道路側フェンス,古和釜小学校　道路側フェンス,35.7355457,140.0456706,
千葉県,船橋市,437,松が丘４丁目３７船橋アリーナ　西門北側フェンス,船橋アリーナ　西門北側フェンス,35.7305052,140.0502854,
千葉県,船橋市,438,松が丘４丁目４６－１０松が丘あずさ公園　東側土手,松が丘あずさ公園　東側土手,35.72946719999999,140.0491753,
千葉県,船橋市,439,松が丘５丁目６－１１しょうとう台中央公園　東側,しょうとう台中央公園　東側,35.7327272,140.0504711,
千葉県,船橋市,440,松が丘４丁目３８－１０しょうとう台円盤公園　北側,しょうとう台円盤公園　北側,35.7315082,140.0498083,
千葉県,船橋市,441,松が丘４丁目３２－２松が丘公民館　入口右側,松が丘公民館　入口右側,35.7331618,140.0481424,
千葉県,船橋市,442,松が丘４丁目２９松が丘４丁目公園　入口左側,松が丘４丁目公園　入口左側,35.7319231,140.0493162,
千葉県,船橋市,443,松が丘４丁目２１－１松が丘東公園　北側自治会館前,松が丘東公園　北側自治会館前,35.7315573,140.0467884,
千葉県,船橋市,444,松が丘３丁目４９－２０が丘３丁目公園　西側,が丘３丁目公園　西側,35.7358847,140.0485602,
千葉県,船橋市,445,松が丘３丁目６９－１古和釜中学校　校内武道館前,古和釜中学校　校内武道館前,35.7380906,140.0495613,
千葉県,船橋市,446,坪井東６丁目１５坪井つぼすみれ公園　南側,坪井つぼすみれ公園　南側,35.7325191,140.0653893,
千葉県,船橋市,447,坪井町１３７１坪井近隣公園　南側,坪井近隣公園　南側,35.7322324,140.0616117,緯度経度は怪しい
千葉県,船橋市,448,坪井町１３７１坪井近隣公園　東側,坪井近隣公園　東側,35.7322324,140.0616117,緯度経度は怪しい
千葉県,船橋市,449,坪井町６００－６５坪井こまつ公園　西側,坪井こまつ公園　西側,35.7335386,140.0600762,
千葉県,船橋市,450,坪井町７４７－１坪井小学校　正門左側,坪井小学校　正門左側,35.73248299999999,140.057146,
千葉県,船橋市,451,坪井西１丁目５坪井西公園　東側,坪井西公園　東側,35.73214129999999,140.0521145,
千葉県,船橋市,452,坪井東１丁目２４－１坪井中学校　正門左側,坪井中学校　正門左側,35.729986,140.056693,
千葉県,船橋市,453,坪井東３丁目８－１船橋日大前駅東口ロータリー,船橋日大前駅東口ロータリー,35.7274968,140.0606818,
千葉県,船橋市,454,坪井東５丁目２０坪井きりかぶ公園　公園内東側,坪井きりかぶ公園　公園内東側,35.7293593,140.0643528,
千葉県,船橋市,455,坪井町８７７子安神社　入口左側,子安神社　入口左側,35.7370488,140.0599959,
千葉県,船橋市,456,新高根１丁目１３新高根公民館　西側,新高根公民館　西側,35.7245447,140.0218935,
千葉県,船橋市,457,新高根６丁目２５新高根６丁目公園　南側,新高根６丁目公園　南側,35.7258706,140.0256655,
千葉県,船橋市,458,芝山２丁目１３－１県立船橋東高等学校　正門右側,県立船橋東高等学校　正門右側,35.7224236,140.0184667,
千葉県,船橋市,459,新高根１丁目１７－１高根東小学校　南側通用門右側,高根東小学校　南側通用門右側,35.7251654,140.0221488,
千葉県,船橋市,460,新高根１丁目１７－２高根東小学校　北側グランドフェンス,高根東小学校　北側グランドフェンス,35.7251654,140.0221488,
千葉県,船橋市,461,新高根１丁目１７－２高根中学校　グランド東側,高根中学校　グランド東側,35.726744,140.022552,
千葉県,船橋市,462,新高根１丁目２１新高根第５調整池　北側フェンス,新高根第５調整池　北側フェンス,35.7257806,140.0200722,
千葉県,船橋市,463,新高根1丁目２－１４芝山２丁目高芝公園,芝山２丁目高芝公園,35.7217939,140.0195141,
千葉県,船橋市,464,新高根１丁目１７－１高根東小学校　西側フェンス,高根東小学校　西側フェンス,35.7251654,140.0221488,
千葉県,船橋市,465,新高根１丁目１８−１７新高根１丁目公園,新高根１丁目公園,35.7265082,140.0213728,
千葉県,船橋市,466,新高根２丁目１５－１０高根大堀公園　東側,高根大堀公園　東側,35.7293899,140.0200901,
千葉県,船橋市,467,新高根３丁目３－１５高根上谷津公園　南側,高根上谷津公園　南側,35.7304489,140.0212106,
千葉県,船橋市,468,新高根５丁目２４新高根５丁目公園　東側,新高根５丁目公園　東側,35.7291682,140.0285612,
千葉県,船橋市,469,新高根６丁目４５高根中学校　テニスコート西側,高根中学校　テニスコート西側,35.7266435,140.0237383,
千葉県,船橋市,470,新高根４丁目８－６西高根公園　西側,西高根公園　西側,35.7290947,140.0242998,
千葉県,船橋市,471,高根台２丁目１－１船橋特別支援学校高根台校舎　東門入口,船橋特別支援学校高根台校舎　東門入口,35.7349168,140.0286898,
千葉県,船橋市,472,高根台２丁目２－２高根台児童ホーム　西側,高根台児童ホーム　西側,35.7341405,140.0307574,
千葉県,船橋市,473,高根台１丁目１７－１０高根富士見公園　東側,高根富士見公園　東側,35.732429,140.029023,
千葉県,船橋市,474,南三咲３丁目３０三咲公園　東側,三咲公園　東側,35.7397663,140.0291979,
千葉県,船橋市,475,高根台２丁目２アートヒル高根台２号棟前　東側,アートヒル高根台２号棟前　東側,35.7338153,140.0305742,
千葉県,船橋市,476,高根台２丁目４高根台第１調整池　北側東寄り,高根台第１調整池　北側東寄り,35.7343449,140.0348443,
千葉県,船橋市,477,高根台２丁目４高根台第１調整池　美容室横駐車場向側,高根台第１調整池　美容室横駐車場向側,35.7343449,140.0348443,
千葉県,船橋市,478,高根台１丁目９－５６高根公団駅前駐輪場　南側,高根公団駅前駐輪場　南側,35.7308936,140.0307921,
千葉県,船橋市,479,南三咲４丁目４３１－９南三咲第２調整池　中央フェンス,南三咲第２調整池　中央フェンス,35.7344509,140.0271074,
千葉県,船橋市,480,南三咲４丁目３２５８南三咲４丁目公園　南側,南三咲４丁目公園　南側,35.7337418,140.0264369,
千葉県,船橋市,481,習志野台１丁目７習志野台つばき公園　公園内,習志野台つばき公園　公園内,35.7272688,140.0372385,
千葉県,船橋市,482,高根台５丁目２－１高根台第二小学校　北側通用門右,高根台第二小学校　北側通用門右,35.729416,140.041569,
千葉県,船橋市,483,高根台５丁目１高根台団地２７５棟　西側,高根台団地２７５棟　西側,35.7285249,140.0447578,
千葉県,船橋市,484,高根台５丁目１高根台団地２５７棟　東側外柵内,高根台団地２５７棟　東側外柵内,35.7285249,140.0447578,
千葉県,船橋市,485,習志野台２丁目１５－１北習志野第１号公園　南側中央,北習志野第１号公園　南側中央,35.7278466,140.0401373,
千葉県,船橋市,486,高根台４丁目１９－５高根木戸第１号公園　東側,高根木戸第１号公園　東側,35.7308043,140.0394079,
千葉県,船橋市,487,習志野台２丁目２４－１北習志野第２号公園　東側,北習志野第２号公園　東側,35.7263639,140.0413076,
千葉県,船橋市,488,高根台５丁目２－１高根台第二小学校　南側プール前,高根台第二小学校　南側プール前,35.729416,140.041569,
千葉県,船橋市,489,高根台５丁目３－１高根木戸近隣公園　南側テニスコート前,高根木戸近隣公園　南側テニスコート前,35.7298485,140.0439785,
千葉県,船橋市,490,高根台７丁目２０高根台グリーンスポット　南側植込み内,高根台グリーンスポット　南側植込み内,35.72605610000001,140.0289524,
千葉県,船橋市,491,高根台４丁目５－５高根木戸第２号公園　３２０棟向側,高根木戸第２号公園　３２０棟向側,35.7312342,140.0371974,
千葉県,船橋市,492,高根台７丁目３３高根台７丁目公園　南側,高根台７丁目公園　南側,35.72729169999999,140.0334709,
千葉県,船橋市,493,高根台１丁目４－１高根台第三小学校　西側正門右,高根台第三小学校　西側正門右,35.730177,140.032415,
千葉県,船橋市,494,高根台１丁目４－１高根台第三小学校　北側,高根台第三小学校　北側,35.730177,140.032415,
千葉県,船橋市,495,高根台６丁目４高根台６丁目公園　広場内西側植込み,高根台６丁目公園　広場内西側植込み,35.7277892,140.0344882,
千葉県,船橋市,496,高根台１丁目４－１高根台第三小学校　レクセルガーデン高根,高根台第三小学校　レクセルガーデン高根,35.730177,140.032415,
千葉県,船橋市,497,高根台７丁目１４４１－３５高根台パール公園　南側,高根台パール公園　南側,35.7267506,140.0307462,
千葉県,船橋市,498,高根台３丁目２高根台団地２３５棟　東側,高根台団地２３５棟　東側,35.7338011,140.0399436,緯度経度は怪しい
千葉県,船橋市,499,高根台３丁目２高根台団地２２７棟　西側道路沿い,高根台団地２２７棟　西側道路沿い,35.7338011,140.0399436,緯度経度は怪しい
千葉県,船橋市,500,高根台３丁目４－１高根木戸第４号公園　南側,高根木戸第４号公園　南側,35.732837,140.0423157,
千葉県,船橋市,501,高根台３丁目２高根台団地２３０棟　東側街灯脇,高根台団地２３０棟　東側街灯脇,35.7338011,140.0399436,緯度経度は怪しい
千葉県,船橋市,502,高根台３丁目１－６高根木戸第３号公園　西側,高根木戸第３号公園　西側,35.7334519,140.0359272,
千葉県,船橋市,503,高根台３丁目３－１高根台中学校　西側体育館後,高根台中学校　西側体育館後,35.7314112,140.0429372,
千葉県,船橋市,504,高根台３丁目３－１高根台中学校　東側バス停脇,高根台中学校　東側バス停脇,35.7314112,140.0429372,
千葉県,船橋市,505,高根台３丁目２－１高根台さくら公園　東側,高根台さくら公園　東側,35.7352746,140.0385419,
千葉県,船橋市,506,芝山３丁目１０－８芝山出張所　東側入口左,芝山出張所　東側入口左,35.7161622,140.0206031,
千葉県,船橋市,507,芝山１丁目４０－１１芝山中学校　北側正門横,芝山中学校　北側正門横,35.7161357,140.0198381,
千葉県,船橋市,508,芝山１丁目４０－１１芝山中学校　南側体育館裏,芝山中学校　南側体育館裏,35.7163315,140.0186562,
千葉県,船橋市,509,芝山１丁目２３－１０芝山南公園　南側,芝山南公園　南側,35.7140086,140.0173553,
千葉県,船橋市,510,芝山１丁目５－１芝山西公園　南側,芝山西公園　南側,35.7138837,140.0143151,
千葉県,船橋市,511,芝山１丁目５０－３石の山公園　北側,石の山公園　北側,35.7129768,140.0188479,
千葉県,船橋市,512,芝山１丁目４１芝山１丁目調整池　東側,芝山１丁目調整池　東側,35.7141162,140.0209454,
千葉県,船橋市,513,芝山２丁目５芝山団地２－５－１５棟　スズキオート京葉㈱,芝山団地２－５－１５棟　スズキオート京葉㈱,35.7201157,140.0178029,
千葉県,船橋市,514,芝山２丁目５芝山団地２－５－１６棟　ビバホーム向側植,芝山団地２－５－１６棟　ビバホーム向側植,35.7201157,140.0178029,
千葉県,船橋市,515,芝山３丁目１０芝山ショッピングプラザ　芝山第一保育園南,芝山ショッピングプラザ　芝山第一保育園南,35.717842,140.019419,
千葉県,船橋市,516,飯山満町３丁目１５８２－９飯山満くすの木公園　西側,飯山満くすの木公園　西側,35.7166621,140.029464,
千葉県,船橋市,517,芝山７丁目３９－１県立船橋芝山高等学校　東側土手,県立船橋芝山高等学校　東側土手,35.7183854,140.0277356,
千葉県,船橋市,518,芝山４丁目１３－１０芝山中央公園　西側,芝山中央公園　西側,35.7204978,140.0220452,
千葉県,船橋市,519,芝山３丁目１９－１１芝山東小学校　正門左側,芝山東小学校　正門左側,35.7165731,140.0238323,
千葉県,船橋市,520,飯山満町３丁目１５８２－９飯山満くすの木公園　北側,飯山満くすの木公園　北側,35.7166621,140.029464,
千葉県,船橋市,521,芝山４丁目５芝山つばき公園　道路側植込み,芝山つばき公園　道路側植込み,35.7195548,140.0207851,
千葉県,船橋市,522,芝山６丁目６１－１芝山あすなろ公園　西側,芝山あすなろ公園　西側,35.7255812,140.0291658,
千葉県,船橋市,523,芝山６丁目３２芝山６丁目ウインドベル子供の広場　東側,芝山６丁目ウインドベル子供の広場　東側,35.72100289999999,140.0308221,
千葉県,船橋市,524,芝山７丁目３０－２芝山水神池公園　北側,芝山水神池公園　北側,35.7185482,140.0324927,
千葉県,船橋市,525,西習志野１丁目９西習志野長太郎公園　案内板左側,西習志野長太郎公園　案内板左側,35.7263197,140.0330844,
千葉県,船橋市,526,芝山７丁目３０－２芝山水神池公園　南側,芝山水神池公園　南側,35.7185482,140.0324927,
千葉県,船橋市,527,西習志野３丁目５－６西習志野夕映公園　西側,西習志野夕映公園　西側,35.7215024,140.0372103,
千葉県,船橋市,528,西習志野１丁目６１－１西習志野第３号公園　南側,西習志野第３号公園　南側,35.72090110000001,140.0338892,
千葉県,船橋市,529,西習志野２丁目２０－１９西習志野２丁目公園　南側,西習志野２丁目公園　南側,35.7242459,140.037623,
千葉県,船橋市,530,西習志野２丁目９５０－１７西習志野高郷公園内　南側,西習志野高郷公園内　南側,35.7242205,140.0360924,
千葉県,船橋市,531,習志野台２丁目３９－１北習志野第３号公園　西側入口,北習志野第３号公園　西側入口,35.7271346,140.0452393,
千葉県,船橋市,532,習志野台２丁目４５－１８習志野台出張所　南側,習志野台出張所　南側,35.7235297,140.0456021,
千葉県,船橋市,533,習志野台２丁目４７－１北習志野第５号公園　西側入口横,北習志野第５号公園　西側入口横,35.7237043,140.0441277,
千葉県,船橋市,534,習志野台２丁目５１－１習志野台第一小学校　正門左側,習志野台第一小学校　正門左側,35.7241226,140.045893,
千葉県,船橋市,535,習志野台３丁目５－１７習志野台団地５－１７棟西側公園,習志野台団地５－１７棟西側公園,35.7230251,140.0504825,
千葉県,船橋市,536,習志野台３丁目４－１北習志野近隣公園野球場　交番向側,北習志野近隣公園野球場　交番向側,35.7228424,140.0472612,
千葉県,船橋市,537,習志野台３丁目４－１北習志野近隣公園　５－２２棟前土手,北習志野近隣公園　５－２２棟前土手,35.7216721,140.0482367,
千葉県,船橋市,538,習志野台３丁目２０習志野台緑地　緑地内,習志野台緑地　緑地内,35.7188129,140.0439863,緯度経度は怪しい
千葉県,船橋市,539,習志野台６丁目１－１北習志野第４号公園　バス停付近,北習志野第４号公園　バス停付近,35.7279335,140.0490764,
千葉県,船橋市,540,習志野台６丁目７－２習志野台団地６－７－３公園　公団掲示板,習志野台団地６－７－３公園　公団掲示板,35.7260978,140.0502721,
千葉県,船橋市,541,習志野台７丁目１０－１１習志野台７丁目公園　７丁目集会所向側,習志野台７丁目公園　７丁目集会所向側,35.7265015,140.0525757,
千葉県,船橋市,542,習志野台７丁目１２－６習志野台東公園　西側道路沿い,習志野台東公園　西側道路沿い,35.7270048,140.0535556,
千葉県,船橋市,543,習志野台６丁目１０－１北習志野第６号公園　西側,北習志野第６号公園　西側,35.7240448,140.0522066,
千葉県,船橋市,544,習志野台６丁目２３－１習志野台中学校　正門左側,習志野台中学校　正門左側,35.7219356,140.054497,
千葉県,船橋市,545,習志野台７丁目１６－１０習志野台あかね公園　北側フェンス,習志野台あかね公園　北側フェンス,35.7254501,140.0552207,
千葉県,船橋市,546,習志野台６丁目２７－１北習志野第７号公園　南側,北習志野第７号公園　南側,35.7204778,140.054548,
千葉県,船橋市,547,習志野台６丁目２３－１習志野台中学校　東側倉庫横フェンス,習志野台中学校　東側倉庫横フェンス,35.721439,140.053552,
千葉県,船橋市,548,習志野台６丁目２３－１習志野台中学校　西側フェンス　駐車場向い,習志野台中学校　西側フェンス　駐車場向い,35.7219356,140.054497,
千葉県,船橋市,549,習志野台４丁目２６－１５習志野台４丁目公園　南側,習志野台４丁目公園　南側,35.7194331,140.0483593,
千葉県,船橋市,550,習志野台４丁目１７習志野台つつじ公園　公園内南側植込み,習志野台つつじ公園　公園内南側植込み,35.7189703,140.0465964,
千葉県,船橋市,551,習志野台５丁目１６－１北習志野第９号公園　東側,北習志野第９号公園　東側,35.7153006,140.053557,
千葉県,船橋市,552,習志野台４丁目５３習志野台４丁目南公園　東側,習志野台４丁目南公園　東側,35.7162553,140.0492037,
千葉県,船橋市,553,習志野台５丁目１６－１北習志野第９号公園　北側,北習志野第９号公園　北側,35.7153006,140.053557,
千葉県,船橋市,554,習志野台５丁目９－１北習志野第８号公園　北側,北習志野第８号公園　北側,35.7171017,140.0523757,
千葉県,船橋市,555,習志野台５丁目９－１北習志野第８号公園　東側電話ボックス左,北習志野第８号公園　東側電話ボックス左,35.7171017,140.0523757,
千葉県,船橋市,556,習志野台５丁目１－１市東図書館　東側,市東図書館　東側,35.7185764,140.0505767,
千葉県,船橋市,557,習志野台５丁目４３－１習志野台第二小学校　北門左側,習志野台第二小学校　北門左側,35.7193913,140.0555711,
千葉県,船橋市,558,習志野台５丁目４３－１習志野台第二小学校　南門左側,習志野台第二小学校　南門左側,35.7193913,140.0555711,
千葉県,船橋市,559,習志野台５丁目３７－１習志野台５丁目公園　西側,習志野台５丁目公園　西側,35.7173195,140.054704,
千葉県,船橋市,560,習志野台５丁目３０－１北習志野第１０号公園　北側,北習志野第１０号公園　北側,35.7168207,140.0568021,
千葉県,船橋市,561,習志野台８丁目３８－１習志野台８丁目西公園　北側,習志野台８丁目西公園　北側,35.7200277,140.0606837,
千葉県,船橋市,562,習志野台８丁目４２－１５習志野台８丁目公園　東側入口右,習志野台８丁目公園　東側入口右,35.720481,140.0629445,
千葉県,船橋市,563,習志野台８丁目５４－３習志野台８丁目東公園　北側,習志野台８丁目東公園　北側,35.7199962,140.0647744,
千葉県,船橋市,564,習志野台８丁目２３－１七ツ台公園　北側,七ツ台公園　北側,35.7182096,140.0623175,
千葉県,船橋市,565,三咲３丁目５－１０三咲公民館　児童ホーム運動場フェンス,三咲公民館　児童ホーム運動場フェンス,35.752572,140.0345569,
千葉県,船橋市,566,三咲４丁目１１三咲まちかどスポーツ広場　道路側フェンス,三咲まちかどスポーツ広場　道路側フェンス,35.7502304,140.0361182,
千葉県,船橋市,567,三咲３丁目１２三咲３丁目公園　東側,三咲３丁目公園　東側,35.7544954,140.0332101,
千葉県,船橋市,568,三咲３丁目１６三咲３丁目子供の広場　公園内南側,三咲３丁目子供の広場　公園内南側,35.7505481,140.0308884,
千葉県,船橋市,569,三咲５丁目３３三咲第７調整池　北側,三咲第７調整池　北側,35.7473245,140.0298658,
千葉県,船橋市,570,みやぎ台３丁目１７番みやぎ台第１調整池　西側フェンス,みやぎ台第１調整池　西側フェンス,35.7561466,140.0372156,
千葉県,船橋市,571,三咲３丁目１１－３８三咲３丁目２号公園,三咲３丁目２号公園,35.751688,140.0329341,緯度経度は怪しい
千葉県,船橋市,572,三咲２丁目２三咲第１４号調整池　フェンス前,三咲第１４号調整池　フェンス前,35.7493168,140.0301557,
千葉県,船橋市,573,二和東５丁目３６旧国家公務員宿舎　北側フェンス,旧国家公務員宿舎　北側フェンス,35.7529464,140.0222945,
千葉県,船橋市,574,二和東５丁目６３二和東５丁目公園　南側フェンス,二和東５丁目公園　南側フェンス,35.7504788,140.025942,
千葉県,船橋市,575,二和東５丁目６１市営二和東第二団地　北側,市営二和東第二団地　北側,35.7510033,140.027348,
千葉県,船橋市,576,二和東５丁目４７－５二和白百合公園　北側,二和白百合公園　北側,35.7510627,140.0245205,
千葉県,船橋市,577,二和東６丁目１４市営二和東第一団地広場　南側,市営二和東第一団地広場　南側,35.7550381,140.0221341,
千葉県,船橋市,578,二和東３丁目５二和東３丁目ふれあい公園　東側,二和東３丁目ふれあい公園　東側,35.7479148,140.0214886,
千葉県,船橋市,579,二和東６丁目３４－１６二和あけぼの公園　東側,二和あけぼの公園　東側,35.7526863,140.026896,
千葉県,船橋市,580,咲が丘３丁目２２咲が丘３丁目公園　東側フェンス,咲が丘３丁目公園　東側フェンス,35.75794490000001,140.025749,
千葉県,船橋市,581,二和東５丁目３９－１三咲小学校　西側フェンス,三咲小学校　西側フェンス,35.753022,140.0235461,
千葉県,船橋市,582,二和東５丁目３９－１三咲小学校　北側フェンス,三咲小学校　北側フェンス,35.753022,140.0235461,
千葉県,船橋市,583,大穴北２丁目６大穴県営住宅　２号棟脇,大穴県営住宅　２号棟脇,35.7455914,140.0432891,
千葉県,船橋市,584,大穴北８丁目１－１大穴新谷津公園　公園内南側,大穴新谷津公園　公園内南側,35.7435461,140.0403562,
千葉県,船橋市,585,大穴北８丁目４９３－１大穴新田市民の森　南側ゴミ収集所左,大穴新田市民の森　南側ゴミ収集所左,35.744401,140.0463627,
千葉県,船橋市,586,大穴北８丁目４９３－６大穴新田市民の森　東側ゴミ収集所右,大穴新田市民の森　東側ゴミ収集所右,35.744401,140.0463627,
千葉県,船橋市,587,咲が丘２丁目２６－１咲西公園　東側フェンス,咲西公園　東側フェンス,35.75792360000001,140.021248,
千葉県,船橋市,588,咲が丘１丁目３０－１咲が丘大込公園　咲が丘ファミールハイツ入,咲が丘大込公園　咲が丘ファミールハイツ入,35.76015,140.0164832,
千葉県,船橋市,589,咲が丘１丁目２２－１咲が丘小学校　通用門左側フェンス,咲が丘小学校　通用門左側フェンス,35.759999,140.018453,
千葉県,船橋市,590,高野台５丁目２７－１八木が谷竹の子公園　南側フェンス,八木が谷竹の子公園　南側フェンス,35.7681202,140.0319547,
千葉県,船橋市,591,高野台３丁目２２－１八木が谷北公園　公園内南側,八木が谷北公園　公園内南側,35.7693159,140.0305799,
千葉県,船橋市,592,高野台４丁目１８－１高野台公園　道路側フェンス,高野台公園　道路側フェンス,35.7667407,140.0315547,
千葉県,船橋市,593,高野台１丁目１－６高野台西公園　西側中央フェンス,高野台西公園　西側中央フェンス,35.7640543,140.0241927,
千葉県,船橋市,594,八木が谷４－５４６－１八木が谷第２県営住宅内公園　西側入口左,八木が谷第２県営住宅内公園　西側入口左,35.7622228,140.0360065,
千葉県,船橋市,595,八木が谷３丁目１７－１八木が谷第１号公園　西側入口左,八木が谷第１号公園　西側入口左,35.7641615,140.0338056,
千葉県,船橋市,596,みやぎ台４丁目８－９八木が谷第２号公園　東側入口右,八木が谷第２号公園　東側入口右,35.7599777,140.0401281,
千葉県,船橋市,597,八木が谷２丁目１７－１８八木が谷公園　入口右,八木が谷公園　入口右,35.7615339,140.0324028,
千葉県,船橋市,598,高野台４丁目４高野台１号緑地　南側,高野台１号緑地　南側,35.7653875,140.0293682,
千葉県,船橋市,599,八木が谷４丁目１八木が谷４丁目公園　西側フェンス前,八木が谷４丁目公園　西側フェンス前,35.7590428,140.0348361,
千葉県,船橋市,600,小室町８９９小室小学校　西側入口右土手,小室小学校　西側入口右土手,35.7927624,140.0737719,
千葉県,船橋市,601,小室町８９８小室中学校　西側正門左,小室中学校　西側正門左,35.794022,140.074353,
千葉県,船橋市,602,小室町３３１３小室公園　南側駐車場出入口右,小室公園　南側駐車場出入口右,35.7900949,140.07393,
千葉県,船橋市,603,小室町２８５０小室北公園　南東側入口間,小室北公園　南東側入口間,35.7946563,140.0700962,
千葉県,船橋市,604,小室町３３０８小室公民館　南側,小室公民館　南側,35.7881586,140.0744077,
千葉県,船橋市,605,小室町３４３３小室４号緑地　南東側入口右,小室４号緑地　南東側入口右,35.7879887,140.0687725,
千葉県,船橋市,606,小室町２６５０小室緑地　西側駐車禁止標識向側,小室緑地　西側駐車禁止標識向側,35.7925536,140.0692064,
千葉県,船橋市,607,小室町３１１４小室西公園　北側,小室西公園　北側,35.7891356,140.0689382,
千葉県,船橋市,608,小室町９０３小室南公園　西側,小室南公園　西側,35.7885646,140.0721306,
千葉県,船橋市,609,神保町１９アンデルセン公園臨時駐車場　北側,アンデルセン公園臨時駐車場　北側,35.7615881,140.0574321,
千葉県,船橋市,610,masked,masked,35.7660275,140.0791107,緯度経度は怪しい
千葉県,船橋市,611,豊富町６２５－５豊富町公園　南側,豊富町公園　南側,35.7629688,140.0714037,緯度経度は怪しい
千葉県,船橋市,612,豊富町１２豊富中学校　正門右,豊富中学校　正門右,35.7629,140.063981,
千葉県,船橋市,613,鈴身町７５４－１２すずみ町つつじ公園　公園内,すずみ町つつじ公園　公園内,35.7663371,140.0687216,
千葉県,船橋市,614,豊富町１豊富小学校　南通用門フェンス,豊富小学校　南通用門フェンス,35.7610636,140.0663978,
千葉県,船橋市,615,豊富町６５０－３１豊富第２調整池　北側,豊富第２調整池　北側,35.7638712,140.0664388,
千葉県,船橋市,616,神保町１０２神保青果物集荷場　山林前,神保青果物集荷場　山林前,35.7595212,140.0491262,
千葉県,船橋市,617,金堀町３４９－１市特別支援学校　正門右側駐車場前フェン,市特別支援学校　正門右側駐車場前フェン,35.7578465,140.0558824,
千葉県,船橋市,618,豊富町４北部公民館　駐車場出口左,北部公民館　駐車場出口左,35.7616407,140.0657044,
千葉県,船橋市,619,咲が丘３丁目１３－１咲が丘緑地公園　北側,咲が丘緑地公園　北側,35.7600955,140.0271001,
千葉県,船橋市,620,咲が丘３丁目１３－１咲が丘緑地公園　南側,咲が丘緑地公園　南側,35.7600955,140.0271001,
千葉県,船橋市,621,咲が丘４丁目１４－２５咲が丘やまばと公園　東側,咲が丘やまばと公園　東側,35.7592175,140.0295302,
千葉県,船橋市,622,八木が谷１丁目９－５八木が谷共和公園　道路側フェンス,八木が谷共和公園　道路側フェンス,35.7607386,140.0303975,
千葉県,船橋市,623,八木が谷２丁目３－１八木が谷小学校　西側フェンス,八木が谷小学校　西側フェンス,35.7594857,140.031537,
千葉県,船橋市,624,八木が谷２丁目２０八木が谷第１調整池　南側,八木が谷第１調整池　南側,35.7608527,140.0315195,
千葉県,船橋市,625,みやぎ台２丁目１６八木が谷の森緑地　東側,八木が谷の森緑地　東側,35.7589537,140.039114,
千葉県,船橋市,626,みやぎ台２丁目１０－１八木が谷第３号公園　北側,八木が谷第３号公園　北側,35.7576798,140.0380366,
千葉県,船橋市,627,咲が丘４丁目３４八木が谷県営住宅給水塔前,八木が谷県営住宅給水塔前,35.7576453,140.0299386,
千葉県,船橋市,628,三咲７丁目２４－１北老人福祉センター（北部保健センター）,北老人福祉センター（北部保健センター）,35.7480347,140.0382012,
千葉県,船橋市,629,三咲８丁目２０－１４大穴第３号公園　西側南入口横,大穴第３号公園　西側南入口横,35.7507968,140.041737,
千葉県,船橋市,630,三咲８丁目２０－１大穴第２号公園　西側入口左,大穴第２号公園　西側入口左,35.7498377,140.0406476,
千葉県,船橋市,631,大穴北３丁目３１大穴北３丁目緑地　北側スロープ左,大穴北３丁目緑地　北側スロープ左,35.7506334,140.0440602,
千葉県,船橋市,632,大穴北１丁目６大穴北小学校正門左側民地,大穴北小学校正門左側民地,35.7461808,140.0381784,
千葉県,船橋市,633,大穴北１丁目２１－１３大穴高島台公園　公園内南側,大穴高島台公園　公園内南側,35.7458389,140.0398605,
千葉県,船橋市,634,大穴北３丁目７－２６大穴パンダ公園　東側,大穴パンダ公園　東側,35.74797890000001,140.0418361,
千葉県,船橋市,635,大穴北１丁目３１－１１大穴中央公園　北側,大穴中央公園　北側,35.7438578,140.0385384,
千葉県,船橋市,636,三咲５丁目２８三咲第２調整池　西側,三咲第２調整池　西側,35.7482119,140.0328289,
千葉県,船橋市,637,三咲８丁目４番三咲８丁目緑地　北東道路沿い,三咲８丁目緑地　北東道路沿い,35.7516332,140.039106,
千葉県,船橋市,638,二和東１丁目９－１１二和小学校　西側体育館側フェンス,二和小学校　西側体育館側フェンス,35.741304,140.0212927,
千葉県,船橋市,639,南三咲１丁目１７－１御滝グリーンゴルフ　北側,御滝グリーンゴルフ　北側,35.7331684,140.0244079,
千葉県,船橋市,640,二和西１丁目８二和西公園　東側,二和西公園　東側,35.7426857,140.0086592,
千葉県,船橋市,641,二和西３丁目６－４３星影神社　北側フェンス,星影神社　北側フェンス,35.7429119,140.0173437,
千葉県,船橋市,642,南三咲１丁目１０－１０南三咲公園　南側,南三咲公園　南側,35.7323138,140.0215593,
千葉県,船橋市,643,二和西５丁目７－１７身体障害者福祉作業所「太陽」　道路側駐,身体障害者福祉作業所「太陽」　道路側駐,35.7472178,140.0136334,
千葉県,船橋市,644,二和東２丁目３０１－６３二和東第２調整池　東側フェンス,二和東第２調整池　東側フェンス,35.7446093,140.0251822,
千葉県,船橋市,645,三咲１丁目４三咲１丁目４号子供の広場　北側フェンス前,三咲１丁目４号子供の広場　北側フェンス前,35.7433774,140.0276122,
千葉県,船橋市,646,二和西１丁目３－１県立船橋二和高校　西側付近,県立船橋二和高校　西側付近,35.7451577,140.0111359,
千葉県,船橋市,647,南三咲３丁目４３０－４南三咲ゲートボール場　西側,南三咲ゲートボール場　西側,35.7395662,140.027178,
千葉県,船橋市,648,古和釜町３４９－１古和釜十字路公園　フェンス中央部,古和釜十字路公園　フェンス中央部,35.7466636,140.0593524,緯度経度は怪しい
千葉県,船橋市,649,古和釜町３６５－１東光寺　ブロック塀,東光寺　ブロック塀,35.7474295,140.0610657,
千葉県,船橋市,650,古和釜町７８８－８３古和釜公園　東側,古和釜公園　東側,35.7403723,140.0507686,
千葉県,船橋市,651,古和釜町５９０－２４古和釜南公園　公園内西側,古和釜南公園　公園内西側,35.737664,140.0545516,
千葉県,船橋市,652,古和釜町７８８－８３古和釜公園　西側,古和釜公園　西側,35.7403723,140.0507686,
千葉県,船橋市,653,古和釜町586,県立古和釜高等学校,35.739969, 140.054381,
