prefecture,city,number,address,name,lat,long,note
千葉県,野田市,1-1,野田722番地,野田愛宕神社脇,35.9503284,139.861586,
千葉県,野田市,1-2,野田350番地,キッコーマン社員駐車場前,35.9449946,139.8634444,
千葉県,野田市,1-3,野田350番地の4,野田児童遊園前,35.9451389,139.864669,
千葉県,野田市,1-4,野田399番地,スポーツクラブルネサンス向側,35.9445157,139.8672553,
千葉県,野田市,1-5,野田794番地,中央小グラウンド東門脇,35.9467896,139.8663255,
千葉県,野田市,1-6,野田793番地,中央小グラウンド北門脇,35.9486126,139.8655659,
千葉県,野田市,1-7,野田611番地,野田学童保育所前,35.9473485,139.8650549,
千葉県,野田市,2-1,野田376番地の1,春風館道場前,35.9447157,139.8655577,
千葉県,野田市,2-2,上花輪753番地の1,宝山広場前,35.9360815,139.8617568,
千葉県,野田市,2-3,野田178番地,平成食品工業前,35.9416415,139.867866,
千葉県,野田市,2-4,上花輪629番地,上花輪香取神社脇,35.941417,139.8595792,
千葉県,野田市,2-5,上花輪498番地,市営上花輪団地２号棟前,35.9402791,139.8563616,
千葉県,野田市,2-6,上花輪729番地,中華花輪屋前,35.937481,139.8605883,
千葉県,野田市,2-7,上花輪766番地,masked,35.9370673,139.8612726,
千葉県,野田市,3-1,清水787番地,清水台小学校入口脇,35.9531642,139.8515465,
千葉県,野田市,3-2,清水760番地,清水台小学校南側,35.952322,139.85248,
千葉県,野田市,3-3,堤台438番地の133,松山第一公園北側,35.9535805,139.8475105,
千葉県,野田市,3-4,堤台484番地の1,野田市消防団第６分団器具置場脇,35.9512481,139.8467583,
千葉県,野田市,3-5,桜の里一丁目４番地,桜の里公園前,35.9559528,139.8489678,
千葉県,野田市,3-6,中野台53番地,堤台児童遊園前,35.9447757,139.8553665,
千葉県,野田市,3-7,中野台17番地の1,乳児保育所入口脇,35.9487739,139.8543748,
千葉県,野田市,4-1,山崎1594番地の81,上宿第二公園前,35.9356792,139.8904246,
千葉県,野田市,4-2,山崎1594番地の41,上宿公園東側,35.9353025,139.8869821,
千葉県,野田市,4-3,山崎1870番地の6,梅郷駅西口前,35.9301405,139.8898437,
千葉県,野田市,4-4,山崎1065番地,masked,35.9277575,139.8863528,
千葉県,野田市,4-5,山崎1736番地,うめさとこども館前,35.9296181,139.887399,
千葉県,野田市,4-6,山崎1503番地,南部小学校西側,35.9306313,139.8849595,
千葉県,野田市,4-7,山崎2794番地,masked,35.9294786,139.880252,
千葉県,野田市,4-8,山崎1314番地,市営西大和田第一団地1号棟前,35.9329561,139.8798705,
千葉県,野田市,5-1,山崎2733番地,山崎小学校東門前,35.9286006,139.9009734,
千葉県,野田市,5-2,山崎2733番地,山崎小学校正門前,35.9286006,139.9009734,
千葉県,野田市,5-3,山崎2008番地,南コミュニティ会館前,35.9308171,139.8967137,
千葉県,野田市,5-4,山崎1964番地,masked,35.9306299,139.893955,
千葉県,野田市,5-5,山崎1873番地の10,梅郷駅東口前,35.931025,139.8918023,
千葉県,野田市,5-6,山崎2022番地の1,中地第二児童遊園前,35.9298422,139.8945074,
千葉県,野田市,5-7,山崎2380番地の13,東新田公園前,35.9239077,139.9006938,
千葉県,野田市,5-8,山崎2122番地,どんぐり公園前,35.9257116,139.893105,
千葉県,野田市,6-1,今上531番地の1,今上児童遊園脇(墓地脇),35.9242603,139.879354,
千葉県,野田市,6-2,今上1460番地,masked,35.9274392,139.8742493,
千葉県,野田市,6-3,今上2020番地の1,今上中組自治会館前,35.9255736,139.8690929,
千葉県,野田市,6-4,今上1946番地の1,masked,35.9219705,139.8707883,
千葉県,野田市,6-5,今上1782番地の3,今上下組自治会館脇,35.9176592,139.8725758,
千葉県,野田市,6-6,今上157番地,須賀製畳脇,35.9145163,139.8754654,
千葉県,野田市,7-1,目吹1771番地,masked,35.9706667,139.8821786,
千葉県,野田市,7-2,鶴奉25番地,鶴奉公園北側,35.9575496,139.8750285,
千葉県,野田市,7-3,鶴奉174番地の1,東部公民館前,35.9621435,139.8811931,
千葉県,野田市,7-4,鶴奉220番地,東部小学校裏,35.9610367,139.8868202,
千葉県,野田市,7-5,鶴奉262番地,補修事務所前,35.958964,139.8854827,
千葉県,野田市,7-6,目吹1410番地,塩田商店前,35.9641098,139.8879885,
千葉県,野田市,7-7,目吹1368番地の7,masked,35.9616156,139.8900315,
千葉県,野田市,7-8,目吹133番地,masked,35.9626333,139.8995996,
千葉県,野田市,7-9,目吹175番地,masked,35.964822,139.9044978,
千葉県,野田市,7-10,目吹563番地,飯田梨園前,35.9667632,139.8997541,
千葉県,野田市,8-1,横内37番地,masked,35.9515566,139.880108,
千葉県,野田市,8-2,中根6番地の4,イオンノア店駐車場入口脇,35.9486819,139.8776674,
千葉県,野田市,8-3,中根6番地の46,イオンノア店駐車場南角,35.9495659,139.8779954,
千葉県,野田市,8-4,花井238番地,masked,35.9420834,139.8817738,
千葉県,野田市,8-5,花井250番地の38,中根八幡公園北側,35.9409287,139.8775849,
千葉県,野田市,8-6,中根31番地,中根鹿嶋神社脇,35.9448193,139.8771515,
千葉県,野田市,8-7,中根97番地,キッコーマン野田工場製造第2部前,35.9448173,139.8719501,
千葉県,野田市,9-1,柳沢24番地,野田健康福祉センター前,35.9539848,139.867051,
千葉県,野田市,9-2,野田869番地,第一中学校前,35.9517309,139.8679694,
千葉県,野田市,9-3,野田869番地,第一中学校南側,35.9500071,139.8652423,
千葉県,野田市,9-4,野田826番地,愛宕児童遊園前,35.9521292,139.8695243,
千葉県,野田市,9-5,清水公園東二丁目17番地,けやき公園前,35.9558703,139.8630459,
千葉県,野田市,9-6,宮崎45番地,宮崎小学校正門脇,35.9490253,139.8722612,
千葉県,野田市,9-7,野田788番地の3,愛宕駅東口駅前広場,35.9506673,139.8647261,
千葉県,野田市,10-1,吉春928番地の5,七光台駅西口,35.9702018,139.8518411,
千葉県,野田市,10-2,谷津25番地の1,北部小学校前,35.9685002,139.8555865,
千葉県,野田市,10-3,谷津384番地,北部公民館前,35.9686658,139.8531894,
千葉県,野田市,10-4,清水公園東一丁目26番地,さくら公園,35.9618734,139.860166,
千葉県,野田市,10-5,吉春646番地の2,masked,35.9682785,139.8622345,
千葉県,野田市,10-6,清水公園東一丁目2番地の1,清水公園駅東口前,35.9598892,139.8599589,
千葉県,野田市,10-7,吉春29番地,㈱シティ倉庫脇,35.9581606,139.8647243,
千葉県,野田市,10-8,光葉町三丁目11番地,光葉町第六公園,35.9652315,139.8464085,
千葉県,野田市,10-9,清水公園東一丁目4番地,つつじ公園,35.9618734,139.860166,
千葉県,野田市,10-10,光葉町一丁目26番地,光葉町第三公園,35.9661392,139.8515272,
千葉県,野田市,11-1,岩名1700番地,岩名中学校前,35.9674571,139.8381316,
千葉県,野田市,11-2,岩名1015番地の5,masked,35.9689179,139.8433658,
千葉県,野田市,11-3,岩名1008番地,masked,35.9670956,139.8438262,
千葉県,野田市,11-4,岩名1169番地の2,masked,35.963061,139.8409411,
千葉県,野田市,11-5,岩名675番地の2,masked,35.9605977,139.8397221,
千葉県,野田市,11-6,岩名1123番地,masked,35.9616553,139.842105,
千葉県,野田市,12-1,谷津1145番地の3,谷吉会館前,35.9884979,139.8427273,
千葉県,野田市,12-2,日の出町16番地,日の出町北公園前,35.9872156,139.8379239,
千葉県,野田市,12-3,日の出町25番地,日の出町南公園前,35.9845365,139.8394601,
千葉県,野田市,12-4,吉春1287番地の6,masked,35.9881313,139.8439891,
千葉県,野田市,12-5,吉春1182番地の2,まめバス木戸口バス停脇,35.9897742,139.8493668,
千葉県,野田市,12-6,谷吉112番地,ファミリーマート谷津店向側,35.987022,139.8486479,
千葉県,野田市,12-7,船形1603番地,中村材木店前,35.988379,139.8510032,
千葉県,野田市,13-1,中里3026番地の7,中里上自治会館脇,35.9963417,139.8387006,
千葉県,野田市,13-2,中里2764番地,阿部権現神社前,36.0016855,139.8390412,
千葉県,野田市,13-3,中里939番地,川間小学校南門脇,35.9969997,139.845016,
千葉県,野田市,13-4,中里1622番地,masked,36.0009159,139.8544106,
千葉県,野田市,13-5,中里720番地,川間公民館前,35.9954511,139.8433496,
千葉県,野田市,13-6,中里136番地の1,川間中学校前,35.9927802,139.8357347,
千葉県,野田市,13-7,中里497番地の1,ちば東葛農業協同組合川間支店前,35.9931241,139.8441093,
千葉県,野田市,14-1,船形4535,船形紫ま会館前,35.9919253,139.8641758,
千葉県,野田市,14-2,船形2005番地の1,masked,35.9953271,139.8614793,
千葉県,野田市,14-3,船形2410番地の1,野田市船形2410番地1地先交差点,35.9916099,139.8515499,
千葉県,野田市,14-4,船形2370番地の1,masked,35.9912895,139.8558012,
千葉県,野田市,14-5,船形1107番地,masked,35.9865017,139.8605536,
千葉県,野田市,14-6,船形1173番地の1,野田市船形多世代交流センター前,35.9863501,139.8662341,
千葉県,野田市,14-7,泉一丁目3番地の2,たっぱた公園前,35.9832421,139.8629124,
千葉県,野田市,14-8,船形670番地,船形下自治会館脇,35.9794779,139.8752106,
千葉県,野田市,15-1,東金野井1265番地,金野井天神社入口,35.9972381,139.8222148,
千葉県,野田市,15-2,東金野井850番地,東金野井浄水場東側,35.9894611,139.8253191,
千葉県,野田市,15-3,尾崎1443番地の1,尾崎小学校南側,35.9887128,139.8305774,
千葉県,野田市,15-4,尾崎1415番地,尾崎小学校前,35.9897027,139.8298741,
千葉県,野田市,15-5,尾崎2227番地,威徳院入口,35.9884061,139.8352317,
千葉県,野田市,15-6,日の出町4番地,日の出町西公園前,35.9858838,139.8342194,
千葉県,野田市,15-7,尾崎1181番地の2,マルギクヤ菓子店前,35.984984,139.835012,
千葉県,野田市,16-1,小山4335番地,masked,36.0057279,139.8625119,
千葉県,野田市,16-2,小山3127番地,小山自治会館入口,36.0085527,139.8682167,
千葉県,野田市,16-3,小山2900番地,小山稲荷陵前,36.0104759,139.8705824,
千葉県,野田市,16-4,小山3644番地の1,鈴木モータース前,36.0032337,139.8743121,
千葉県,野田市,16-5,船形4649番地,masked,35.9982761,139.8688517,
千葉県,野田市,17-1,西三ケ尾578番地,西三ケ尾正西房前,35.931839,139.915796,
千葉県,野田市,17-2,上三ケ尾324番地,masked,35.9281044,139.9183734,
千葉県,野田市,17-3,西三ケ尾988番地,福田第二小学校前,35.9287025,139.9220886,
千葉県,野田市,17-4,下三ケ尾807番地,masked,35.928262,139.9266702,
千葉県,野田市,17-5,下三ケ尾601番地の1,普門寺前,35.9226095,139.9236288,
千葉県,野田市,17-6,下三ケ尾44番地の2,下三ヶ尾自治会館前,35.9194488,139.9213533,
千葉県,野田市,17-7,下三ケ尾20番地,masked,35.9214004,139.9191295,
千葉県,野田市,18-1,瀬戸1087番地の1,福田土地改良区揚水機場前,35.9531531,139.9185976,
千葉県,野田市,18-2,三ツ堀1372番地,福田第一小学校前,35.9486523,139.9199649,
千葉県,野田市,18-3,三ツ堀1175番地,masked,35.9430446,139.9150256,
千葉県,野田市,18-4,瀬戸970番地,福田公民館前,35.9448206,139.9212667,
千葉県,野田市,18-5,三ツ堀586番地の6,福田郵便局脇,35.9420556,139.9242908,
千葉県,野田市,18-6,三ツ堀70番地,東屋酒店向側,35.9408724,139.9296236,
千葉県,野田市,18-7,瀬戸587番地,masked,35.9365878,139.9363946,
千葉県,野田市,18-8,三ツ堀265番地,野田市清掃工場前,35.9391246,139.9274301,
千葉県,野田市,19-1,木野崎2559番地の1,高根自治会館先,35.964455,139.90825,
千葉県,野田市,19-2,木野崎2380番地の8,masked,35.9605776,139.9104975,
千葉県,野田市,19-3,木野崎918番地,masked,35.9606233,139.9155781,
千葉県,野田市,19-4,木野崎812番地,木野崎香取神社前,35.9590228,139.9185499,
千葉県,野田市,19-5,木野崎891番地の2,木野崎農業構造改善センター前,35.9593627,139.9163748,
千葉県,野田市,19-6,木野崎281番地の2,masked,35.9528959,139.9135081,
千葉県,野田市,19-7,木野崎399番地,新町自治会館前,35.9565368,139.9078094,
千葉県,野田市,19-8,木野崎1709番地,大久保ガソリンスタンド脇,35.9457445,139.9073164,
千葉県,野田市,20-1,清水921番地,市営野球場前,35.9617435,139.8514833,
千葉県,野田市,20-2,清水898番地の1,清水公園南側,35.9562207,139.8545845,
千葉県,野田市,20-3,清水451番地の1,エル101薬局脇,35.9586836,139.856549,
千葉県,野田市,20-4,清水673番地,出井ノ下東公園南側,35.9509128,139.854233,
千葉県,野田市,20-5,清水654番地の1,masked,35.9521405,139.8574398,
千葉県,野田市,20-6,清水673番地の226,出井ノ下西公園前,35.9509128,139.854233,
千葉県,野田市,20-7,清水668番地,清水八幡神社境内,35.9508456,139.8576871,
千葉県,野田市,21-1,七光台448番地の1,ドラッグストアセキ川間店東向側,35.9831869,139.8382282,
千葉県,野田市,21-2,七光台242番地の1,七光台会館前,35.9829301,139.8476713,
千葉県,野田市,21-3,七光台170番地の3,光ビジネスフォームム㈱野田工場前,35.9808048,139.8490038,
千葉県,野田市,21-4,七光台20番地の1,七光台小学校前,35.9800608,139.8535611,
千葉県,野田市,21-5,七光台305番地の8,七光台第六公園,35.9829279,139.8466783,
千葉県,野田市,21-6,蕃昌47番地,蕃昌昌光会館脇,35.9791733,139.8585567,
千葉県,野田市,21-7,蕃昌21番地の3,羽田自動車商会前,35.977626,139.861256,
千葉県,野田市,21-8,七光台242番地の2,七光台児童公園,35.9829186,139.8476144,
千葉県,野田市,22-1,尾崎台20番地の2,尾崎南第一公園西側,35.9845335,139.8374519,
千葉県,野田市,22-2,尾崎304番地の1,川間駅前青年館向側,35.9807194,139.8331555,
千葉県,野田市,22-3,尾崎台20番地の2,尾崎南第一公園北側,35.9845335,139.8374519,
千葉県,野田市,22-4,尾崎825番地の15,川間駅北口駅前広場,35.9793999,139.8303701,
千葉県,野田市,22-5,尾崎229番地の2,堂山公園前,35.9831873,139.8293249,
千葉県,野田市,22-6,尾崎台3番地の1,尾崎南第二公園,35.9838742,139.8316486,
千葉県,野田市,23-1,清水482番地,清水高等学校正門脇,35.9611477,139.8565216,
千葉県,野田市,23-2,清水371番地の2,清水市民の森,35.9577921,139.8592865,
千葉県,野田市,23-3,清水246番地,旧日本専売公社野田営業所前,35.9557329,139.8606094,
千葉県,野田市,23-4,清水246番地,旧日本専売公社野田営業所脇,35.9557329,139.8606094,
千葉県,野田市,23-5,清水193番地の2,島田冷菓前,35.9529557,139.8592399,
千葉県,野田市,24-1,柳沢139番地,柳沢小学校脇,35.9625882,139.867776,
千葉県,野田市,24-2,鶴奉586番地,庚申塚公園前,35.9586423,139.8696059,
千葉県,野田市,24-3,鶴奉5番地の1,中央公民館前,35.9566619,139.8731574,
千葉県,野田市,24-4,鶴奉7番地の1,野田市役所前,35.9550627,139.8747948,
千葉県,野田市,24-5,宮崎81番地,宮崎公園前,35.9525294,139.8742111,
千葉県,野田市,24-6,宮崎150番地,市営住宅宮崎団地向側,35.9538111,139.8764872,
千葉県,野田市,24-7,鶴奉73番地,あさひ育成園前,35.9563841,139.880834,
千葉県,野田市,25-1,中根324番地,野田市水道部前,35.9450533,139.8894571,
千葉県,野田市,25-2,木野崎1901番地の4,上鹿野公園前,35.9477571,139.8971988,
千葉県,野田市,25-3,大殿井371番地の68,長割公園前(スポーツ公園前),35.944843,139.8982779,
千葉県,野田市,25-4,木野崎1758番地,鹿野公園前,35.946566,139.902451,
千葉県,野田市,25-5,大殿井83番地の175,真福寺第二公園前(南公園前),35.9440263,139.8991159,
千葉県,野田市,25-6,大殿井83番地,真福寺第一公園前,35.9434319,139.9019917,
千葉県,野田市,25-7,宮崎324番地の4,野田ガス(株)旧ガス貯蔵所前,35.9429582,139.9026513,
千葉県,野田市,26-1,上花輪1358番地,太子堂長命寺前,35.9377043,139.867714,
千葉県,野田市,26-2,上花輪1176番地,太子堂自治会館前,35.9339877,139.8723112,
千葉県,野田市,26-3,桜木11番地,桜台公園西側,35.9351663,139.8771273,
千葉県,野田市,26-4,中根139番地,第二中学校南側,35.940884,139.8769197,
千葉県,野田市,26-5,桜台139番地,第二中学校西側,35.9369174,139.8738809,
千葉県,野田市,26-6,野田110番地,キッコーマン野田工場製造第1部東側,35.9402221,139.870092,
千葉県,野田市,26-7,上花輪1459番地の2,キッコーマン野田工場製造第1部南側,35.9402498,139.8707567,
千葉県,野田市,26-8,上花輪1104番地の3,太子堂太陽公園北側,35.9351257,139.8667378,
千葉県,野田市,27-1,山崎2704番地,県営野田山崎住宅入口,35.9214799,139.9030052,
千葉県,野田市,27-2,山崎2638番地の75,西亀山第三公園前,35.9190299,139.9038231,
千葉県,野田市,27-3,山崎2697番地,西亀山青年館前,35.920444,139.905183,
千葉県,野田市,27-4,山崎2696番地の14,デイリーストアスミノヤ東側月極駐車場前,35.921625,139.904194,
千葉県,野田市,27-5,山崎2641番地,東京理科大学グラウンド北側,35.9215996,139.906914,
千葉県,野田市,27-6,山崎2641番地,東京理科大学西側,35.921896,139.910287,
千葉県,野田市,27-7,山崎2658番地の3,東京理科大学4号館前,35.917609,139.9086159,
千葉県,野田市,28-1,中野台168番地,欅のホール前,35.9461542,139.8588271,
千葉県,野田市,28-2,中野台254番地の1,野田中野台県営住宅前,35.9442283,139.8576048,
千葉県,野田市,28-3,中野台521番地の3,キッコーマン野田工場製造第3部北側,35.940975,139.854889,
千葉県,野田市,28-4,中野台843番地の1,野田市中野台交差点脇,35.9426324,139.8514305,
千葉県,野田市,28-5,中野台鹿島町32番地の1,第一号鹿島町公園前,35.943496,139.8489662,
千葉県,野田市,28-6,中野台鹿島町3番地,第二号鹿島町公園前,35.9460403,139.852807,
千葉県,野田市,28-7,中野台305番地,中野台鹿島神社東側,35.9469834,139.8551523,
千葉県,野田市,29-1,花井190番地,masked,35.9379088,139.8853034,
千葉県,野田市,29-2,花井一丁目13番地,花井一丁目公園前,35.9379672,139.8817302,
千葉県,野田市,29-3,花井10番地の1,masked,35.9355087,139.8882099,
千葉県,野田市,29-4,花井67番地,南部中学校正門脇,35.9359877,139.8851696,
千葉県,野田市,29-5,花井160番地の38,花井三丁歩公園北側,35.9370262,139.8814617,
千葉県,野田市,29-6,山崎1328番地,市営西大和田第三団地4号棟前,35.9337108,139.8776535,
千葉県,野田市,29-7,桜木20番地,桜木自治会駐車場前,35.9351663,139.8771273,
千葉県,野田市,30-1,岩名一丁目16番地,川間駅南第一公園前,35.9762537,139.8283289,
千葉県,野田市,30-2,岩名一丁目55番地,川間駅南第三公園西側,35.973354,139.831639,
千葉県,野田市,30-3,岩名一丁目55番地,川間駅南第三公園東側,35.973289,139.83226,
千葉県,野田市,30-4,岩名二丁目39番地,川間駅南中央公園西側,35.9727714,139.8380916,
千葉県,野田市,30-5,岩名二丁目12番地,岩木小学校前,35.974821,139.8381408,
千葉県,野田市,30-6,岩名二丁目12番地,岩木小学校北側,35.975875,139.838661,
千葉県,野田市,30-7,岩名二丁目59番地,川間駅南第五公園前,35.9710032,139.8366859,
千葉県,野田市,30-8,岩名二丁目39番地,川間駅南中央公園東側,35.9727714,139.8380916,
千葉県,野田市,31-1,上花輪新町3番地の14,朝日ヶ丘公園前,35.9411618,139.8594721,
千葉県,野田市,31-2,上花輪新町14番地,花輪保育所前,35.9379593,139.8633659,
千葉県,野田市,31-3,上花輪新町19番地,上花輪新町公園南口脇,35.9374392,139.8639866,
千葉県,野田市,31-4,上花輪新町23番地,上花輪新町青年館前,35.9379593,139.8633659,
千葉県,野田市,31-5,上花輪新町19番地,上花輪新町公園東口脇,35.9374392,139.8639866,
千葉県,野田市,31-6,野田7番地の2,新下町バス停前,35.9385829,139.8656552,
千葉県,野田市,32-1,山崎2226番地,masked,35.926234,139.8910122,
千葉県,野田市,32-2,山崎梅の台4番地,梅の台公園前,35.9237388,139.8886509,
千葉県,野田市,32-3,みずき二丁目42番地,みずき第4号緑地,35.9186314,139.8842816,
千葉県,野田市,32-4,山崎貝塚町26番地,史跡山崎貝塚南側,35.9223508,139.8937733,
千葉県,野田市,32-5,みずき二丁目43番地の1,みずき緑道入口脇(山崎梅の台側),35.9243924,139.886373,
千葉県,野田市,32-6,山崎貝塚町26番地の4,史跡山崎貝塚北側,35.9218864,139.8945773,
千葉県,野田市,32-7,みずき二丁目44番地,みずき緑道南口脇,35.9238596,139.8860899,
千葉県,野田市,33-1,山崎2549番地,島会館駐車場西側,35.9190144,139.8989225,
千葉県,野田市,33-2,山崎746番地の1,masked,35.9170136,139.8952402,
千葉県,野田市,33-3,山崎850番地,masked,35.9185377,139.8958139,
千葉県,野田市,33-4,山崎2556番地の1,山崎児童遊園前,35.9168501,139.9003669,
千葉県,野田市,33-5,山崎2549番地,島会館前,35.9190144,139.8989225,
千葉県,野田市,33-6,山崎2570番地の15,島公園前,35.9195112,139.8995214,
千葉県,野田市,33-7,山崎2702番地,江戸川病院前,35.92072,139.9005885,
千葉県,野田市,34-1,西三ケ尾484番地の279,野田梅郷団地11号公園前,35.9355514,139.9209274,
千葉県,野田市,34-2,三ツ堀433番地の133,野田梅郷団地8号公園前,35.9378038,139.9217612,
千葉県,野田市,34-3,三ツ堀454番地の16,野田梅郷団地7号公園前,35.9390527,139.916654,
千葉県,野田市,34-4,二ツ塚461番地の74,野田梅郷団地5号公園前,35.938262,139.915052,
千葉県,野田市,34-5,三ツ堀969番地の371,野田梅郷団地4号公園前,35.9398346,139.9138704,
千葉県,野田市,34-7,二ツ塚485番地の2,二ツ塚小学校前,35.939463,139.9107742,
千葉県,野田市,35-1,尾崎807番地の3,川間トンボ公園前,35.9779147,139.8299157,
千葉県,野田市,35-2,岩名2009番地,尾崎前公園前,35.9782764,139.8365591,
千葉県,野田市,35-3,春日町11番地,川間駅南第四公園北側,35.9772981,139.8355778,
千葉県,野田市,35-4,春日町16番地の1,北コミュニテイ会館東側,35.9788233,139.8410229,
千葉県,野田市,35-5,春日町40番地,春日町公園前,35.978254,139.8420866,
千葉県,野田市,35-6,五木新町28番地,五木新町公園前,35.9738772,139.8451289,
千葉県,野田市,35-7,五木新町12番地,川間駅南第二公園北側,35.9738772,139.8451289,
千葉県,野田市,36-1,関宿台町2883番地,masked,36.0930823,139.7888234,
千葉県,野田市,36-2,関宿台町1401番地3,関宿あおぞら広場前,36.0912022,139.7818428,
千葉県,野田市,36-3,関宿台町2690番地2,台町東1号公園,36.0912893,139.7855894,
千葉県,野田市,36-4,関宿台町6363番地1,masked,36.0899364,139.7918375,
千葉県,野田市,36-5,関宿台町2558番地1,関宿公民館前,36.0889426,139.7890731,
千葉県,野田市,36-6,関宿台町171番地,関宿小学校校門脇,36.0866907,139.7871416,
千葉県,野田市,36-7,関宿台町2103番地2,masked,36.086674,139.7894547,
千葉県,野田市,37-1,関宿台町361番地3,masked,36.0840202,139.7902443,
千葉県,野田市,37-2,関宿台町2027番地1,ネクスタラッピィ（株）千葉工場南側,36.0860005,139.7909907,
千葉県,野田市,37-3,関宿台町1006番地1,下納谷浅間神社前,36.077466,139.7928784,
千葉県,野田市,37-4,関宿元町131番地,masked,36.077084,139.784324,
千葉県,野田市,37-5,はやま19番地2,はやま第２号緑地,36.0689538,139.7912438,
千葉県,野田市,38-1,はやま2番地1,はやま第二公園,36.0700019,139.7939672,
千葉県,野田市,38-2,東高野35番地2,masked,36.0694035,139.7973633,
千葉県,野田市,38-3,西高野343番地4,masked,36.0660777,139.7977556,
千葉県,野田市,38-4,新田戸445番地1,中戸揚水ポンプ場前,36.0600122,139.7983002,
千葉県,野田市,38-5,新田戸686番地,諏訪神社前,36.060159,139.8017785,
千葉県,野田市,38-6,新田戸596番地,由岐油店前,36.0572288,139.8003015,
千葉県,野田市,38-7,中戸49番地,中戸児童遊園前,36.0566875,139.7984709,
千葉県,野田市,39-1,新田戸834番地,西山団地入口前,36.0603938,139.8068253,
千葉県,野田市,39-2,桐ケ作1099番地,桐ケ作児童遊園前,36.0576451,139.8060879,
千葉県,野田市,39-3,柏寺246番地1,岡安酒店前,36.0509517,139.8069099,
千葉県,野田市,39-4,柏寺296番地,ちば東葛農業協同組合二川支店前,36.0493446,139.8081821,
千葉県,野田市,39-5,桐ケ作480番地1,関宿学校給食センター前,36.0496569,139.8091812,
千葉県,野田市,39-6,桐ケ作464番地,二川小学校前,36.0496432,139.8096408,
千葉県,野田市,39-7,桐ケ作1567番地,桐ケ作香取神社前,36.0560024,139.8169573,
千葉県,野田市,39-8,桐ケ作51番地1,二川公民館前,36.0506465,139.8148662,
千葉県,野田市,40-1,桐ケ作418番地,二川中学校前,36.0464558,139.8089009,
千葉県,野田市,40-2,古布内1450番地6,古布内公園,36.0468137,139.8188725,
千葉県,野田市,40-3,古布内879番地2,masked,36.0420641,139.8211214,
千葉県,野田市,40-4,古布内1636番地,山一倉庫前,36.050414,139.8143749,
千葉県,野田市,40-5,古布内1733番地5,masked,36.0495386,139.8206018,
千葉県,野田市,40-6,古布内1165番地,斉藤設備前,36.0455289,139.8259875,
千葉県,野田市,40-7,古布内299番地,田村商店前,36.0406492,139.8308186,
千葉県,野田市,41-1,なみき三丁目17番地10,イースタン精工㈱脇,36.0418202,139.8177071,
千葉県,野田市,41-2,なみき二丁目16番地,なみき二丁目公園,36.0394049,139.8167893,
千葉県,野田市,41-3,なみき二丁目3番地2,関宿中央ターミナル脇,36.0361669,139.8212132,
千葉県,野田市,41-4,木間ケ瀬620番地,関宿複合センター前,36.0321267,139.8221407,
千葉県,野田市,41-5,東宝珠花550番地,東宝公会堂前,36.0264348,139.8190411,
千葉県,野田市,41-6,東宝珠花237番地1,いちいのホール前,36.0258721,139.8206448,
千葉県,野田市,41-7,東宝珠花260番地1,関宿保健センター前,36.0257566,139.8222365,
千葉県,野田市,41-8,東宝珠花234番地1,関宿中央小学校校門脇,36.0251387,139.823257,
千葉県,野田市,42-1,木間ケ瀬1933番地2,羽貫須賀神社前,36.0305977,139.8245423,
千葉県,野田市,42-2,木間ケ瀬2073番地,木間ケ瀬浄水場前,36.0273226,139.8232555,
千葉県,野田市,42-3,木間ケ瀬1866番地1,木間ケ瀬1866-1地先植樹帯,36.0261136,139.827261,
千葉県,野田市,42-4,木間ケ瀬1790番地1,木間ケ瀬第二児童遊園前,36.027779,139.83123,
千葉県,野田市,42-5,木間ケ瀬762番地3,masked,36.0305514,139.8286269,
千葉県,野田市,42-6,木間ケ瀬479番地,masked,36.0318286,139.8336958,
千葉県,野田市,42-8,木間ケ瀬505番地,masked,36.0342817,139.8329287,
千葉県,野田市,43-1,木間ケ瀬1369番地1,メープルアベニュ-団地入口,36.028554,139.8432776,
千葉県,野田市,43-2,木間ケ瀬3393番地1,木間ケ瀬中学校前,36.0255216,139.8466685,
千葉県,野田市,43-3,木間ケ瀬3640番地,木間ケ瀬小学校校門前,36.0215821,139.8460856,
千葉県,野田市,43-4,木間ケ瀬9370番地1,和田商店南向側,36.0214777,139.8595044,
千葉県,野田市,43-5,木間ケ瀬5894番地1,木間ケ瀬5894番地1ごみ集積場脇,36.0123063,139.8454084,
千葉県,野田市,43-6,木間ケ瀬6183番地1,大山自治会館入口,36.0087934,139.8474474,
千葉県,野田市,43-7,木間ケ瀬3161番地1,木間ケ瀬郵便局脇,36.019349,139.8404771,
千葉県,野田市,44-1,木間ケ瀬4263番地1,木間ケ瀬第一児童遊園前,36.0137976,139.840715,
千葉県,野田市,44-2,木間ケ瀬2935番地,木間ケ瀬公民館前,36.0190149,139.8407134,
千葉県,野田市,44-3,木間ケ瀬2764番地9,鈴木建具店前,36.0171807,139.8373119,
千葉県,野田市,44-5,木間ケ瀬2568番地,masked,36.0219701,139.8337274,
千葉県,野田市,44-6,木間ケ瀬2464番地,関宿グリーンテニスクラブ前,36.0208342,139.8326574,
千葉県,野田市,44-7,木間ケ瀬4376番地,関宿高校前,36.0130116,139.8390588,
千葉県,野田市,45-1,木間ケ瀬5409番地1,新宿団地入口前,36.009773,139.836685,
千葉県,野田市,45-2,木間ケ瀬5290番地,masked,36.0101903,139.8327073,
千葉県,野田市,45-3,岡田587番地43,下尻坪１公園前,36.0158384,139.8265551,
千葉県,野田市,45-4,岡田740番地3,ＪＡちば東葛岡田集出荷場前,36.0105443,139.825488,
千葉県,野田市,45-5,木間ケ瀬5046番地,新宿須賀神社前,36.0157684,139.8305653,
千葉県,野田市,45-6,木間ケ瀬5159番地3,masked,36.014925,139.8315148,
千葉県,野田市,45-7,平井412番地1,平井中継ポンプ場前,36.0190227,139.8260979,
千葉県,野田市,45-8,岡田550番地5,岡田農業構造改善センター前,36.0170256,139.8217895,
千葉県,野田市,46-1,みずき一丁目35番地の1,みずき緑道入口前,35.9250542,139.8834079,
千葉県,野田市,46-2,みずき一丁目6番地,みずき一丁目公園前,35.9251262,139.8835291,
千葉県,野田市,46-3,みずき二丁目43番地,いなげや野田みずき店脇,35.9238596,139.8860899,
千葉県,野田市,46-4,みずき三丁目1番地,ホーマックスーパーデポ野田みずき店,35.9228361,139.8818309,
千葉県,野田市,46-5,みずき二丁目19番地,みずき公園前,35.9238596,139.8860899,
千葉県,野田市,46-6,みずき三丁目2番地の3,みずき小学校前,35.9195615,139.885712,
千葉県,野田市,46-7,みずき四丁目8番地,みずき四丁目公園前,35.9173754,139.8899315,
千葉県,野田市,dummy,dummy,dummy,,,削除
千葉県,野田市,dummy,dummy,dummy,,,削除
千葉県,野田市,dummy,dummy,dummy,,,削除
千葉県,野田市,dummy,dummy,dummy,,,削除
千葉県,野田市,dummy,dummy,dummy,,,削除
千葉県,野田市,dummy,dummy,dummy,,,削除
千葉県,野田市,dummy,dummy,dummy,,,削除
千葉県,野田市,dummy,dummy,dummy,,,削除
千葉県,野田市,dummy,dummy,dummy,,,削除
千葉県,野田市,dummy,dummy,dummy,,,削除
千葉県,野田市,dummy,dummy,dummy,,,削除
千葉県,野田市,dummy,dummy,dummy,,,削除
