prefecture,city,number,address,name,lat,long,note
千葉県,香取市,1-1,香取1060-2付近小林建築事務所横,小林建築事務所横,35.8859404,140.5151559,緯度経度は怪しい
千葉県,香取市,1-2,香取1479-1又見青年館,又見青年館,35.8863715,140.5224732,
千葉県,香取市,1-3,香取1296-1付近香取神宮駐車場,香取神宮駐車場,35.8835872,140.5236923,
千葉県,香取市,1-4,新市場205付近新市場区ゴミステ-ション横,新市場区ゴミステーション横,35.8786798,140.523863,
千葉県,香取市,1-5,丁子1158鈴木宅前,masked,35.8872581,140.5344078,
千葉県,香取市,1-6,吉原420-4付近東関道香取インタ-入口信号,東関道香取インター入口信号,35.8786987,140.5325707,
千葉県,香取市,1-7,吉原461-3付近多田本田入口,多田本田入口,35.874436,140.53787,緯度経度は怪しい
千葉県,香取市,1-8,多田700付近多田本田遊園地,多田本田遊園地,35.8780336,140.5436347,
千葉県,香取市,1-9,多田1232多田新田公会堂前,多田新田公会堂前,35.8707526,140.5381369,
千葉県,香取市,1-10,多田2155付近山田区ゴミステ-ション前,山田区ゴミステーション前,35.8741164,140.5327454,
千葉県,香取市,1-11,新部200新部釜塚公民館前,新部釜塚公民館前,35.8799307,140.5106329,
千葉県,香取市,2-1,返田729返田神社,返田神社,35.8626948,140.5158884,緯度経度は怪しい
千葉県,香取市,2-2,下小野1599旧神南小学校正門,旧神南小学校正門,35.8547221,140.5238592,
千葉県,香取市,2-3,下小野1218下小野1218高木宅前,masked,35.851936,140.5276033,
千葉県,香取市,2-4,下小野169-1付近下小野入口バス停前,下小野入口バス停前,35.850874,140.531074,緯度経度は怪しい
千葉県,香取市,2-5,九美上112-16九美上第三公民館,九美上第三公民館,35.837078,140.521433,
千葉県,香取市,2-6,九美上139九美上第二公民館,九美上第二公民館,35.8452892,140.5106809,
千葉県,香取市,2-7,九美上29-1わらびが丘小学校正門,わらびが丘小学校正門,35.8442026,140.5053258,緯度経度は怪しい
千葉県,香取市,2-8,九美上25-109九美上第四公民館,九美上第四公民館,35.8416868,140.4981642,
千葉県,香取市,3-1,本矢作511天の宮神社横,天の宮神社横,35.8441414,140.4861895,緯度経度は怪しい
千葉県,香取市,3-2,本矢作42付近旧佐原農協福田倉庫前,旧佐原農協福田倉庫前,35.8411309,140.4892687,
千葉県,香取市,3-3,福田240旧福田小学校正門,旧福田小学校正門,35.8381162,140.4841094,
千葉県,香取市,3-4,伊地山532-1旧伊地山幼稚園正門,旧伊地山幼稚園正門,35.8271899,140.4849823,
千葉県,香取市,3-5,福田958-184北ノ台集出荷場,北ノ台集出荷場,35.8216582,140.4580571,
千葉県,香取市,3-6,伊地山847-29付近伊地山新田公民館先,伊地山新田公民館先,35.8267221,140.4703666,緯度経度は怪しい
千葉県,香取市,3-7,福田873-18台深公民館,台深公民館,35.834846,140.4695959,緯度経度は怪しい
千葉県,香取市,4-1,大根2-1付近大根2-1橋本屋商店裏,大根２－１橋本屋商店裏,35.872919,140.49578,
千葉県,香取市,4-2,大根1151付近まんまる保育園前,まんまる保育園前,35.867048,140.496272,
千葉県,香取市,4-3,大根703付近旧佐原農協南支店前,旧佐原農協南支店前,35.8616689,140.5002795,
千葉県,香取市,4-4,大根2012-2付近セブンイレブン香取大根店脇,セブンイレブン香取大根店脇,35.852399,140.5089288,
千葉県,香取市,4-5,長山462-1付近長山農村広場,長山農村広場,35.8579784,140.4903932,緯度経度は怪しい
千葉県,香取市,4-6,観音203-1観音青年館,観音青年館,35.8658457,140.4737695,
千葉県,香取市,4-7,観音441-1付近観音太陽光発電所前,観音太陽光発電所前,35.8697196,140.4778687,緯度経度は怪しい
千葉県,香取市,4-8,鳥羽299-7付近鳥羽公会堂前,鳥羽公会堂前,35.8682747,140.4697394,緯度経度は怪しい
千葉県,香取市,4-9,観音481付近竟成小学校,竟成小学校,35.869472,140.481745,
千葉県,香取市,4-10,与倉913与倉913高橋ガラス店前,与倉９１３高橋ガラス店前,35.8735558,140.4742536,
千葉県,香取市,4-11,与倉859-5付近鳥羽台佐原グリ-ンプラザ入口,鳥羽台佐原グリーンプラザ入口,35.8736648,140.4707394,
千葉県,香取市,5-1,森戸394有限会社高橋商事前,有限会社高橋商事前,35.8990959,140.4741122,
千葉県,香取市,5-2,大戸565大戸神社前,大戸神社前,35.8841745,140.4625027,緯度経度は怪しい
千葉県,香取市,5-3,片野地先片野遊園地跡,片野遊園地跡,35.8740029,140.4579538,緯度経度は怪しい
千葉県,香取市,5-4,上小川672-1上小川区コミュニティ-センタ-,上小川区コミュニティーセンター,35.8812311,140.4506229,緯度経度は怪しい
千葉県,香取市,5-5,大戸877東大戸小学校,東大戸小学校,35.8874732,140.4583884,
千葉県,香取市,5-6,大戸1077-1付近旧佐原農協東大戸支所横,旧佐原農協東大戸支所横,35.8874732,140.4583884,緯度経度は怪しい
千葉県,香取市,5-7,大戸川189付近大戸駅前バス停,大戸駅前バス停,35.8930251,140.4559791,
千葉県,香取市,5-8,関568-4関568-4小林宅前,masked,35.8750661,140.4435252,
千葉県,香取市,6-1,佐原イ6-1付近上水道第一水源ポンプ場,上水道第一水源ポンプ場,35.8965727,140.4891245,緯度経度は怪しい
千葉県,香取市,6-2,岩ケ崎台8-13付近岩ケ崎台第1号公園,岩ケ崎台第一号公園,35.897417,140.4848459,
千葉県,香取市,6-3,玉造3丁目2付近玉造南公園,玉造南公園,35.8876285,140.4812936,
千葉県,香取市,6-4,佐原イ1020-2付近諏訪神社前,諏訪神社前,35.8912019,140.4897719,
千葉県,香取市,6-5,佐原イ537-2付近京葉銀行佐原支店駐車場,京葉銀行佐原支店駐車場,35.892803,140.494336,
千葉県,香取市,6-6,佐原イ533-1-1付近東関戸薬師堂裏,東関戸薬師堂裏,35.8917583,140.4952503,
千葉県,香取市,7-1,篠原ロ903-8付近向津公会堂横,向津公会堂横,35.905331,140.5083641,緯度経度は怪しい
千葉県,香取市,7-2,佐原ニ1670付近佐原二1670林商店前,佐原二１６７０林商店前,35.9126092,140.4968263,
千葉県,香取市,7-3,佐原ニ2122荒川天妃社,荒川天妃社,35.9149248,140.5006231,緯度経度は怪しい
千葉県,香取市,7-4,笄島3904付近笄島中央バス停横,笄島中央バス停横,35.927485,140.492198,
千葉県,香取市,7-5,長島771付近長島児童遊園,長島児童遊園,35.9283367,140.5018271,
千葉県,香取市,7-6,佐原ハ5001-42付近新中洲橋際,新中洲橋際,35.924479,140.525817,
千葉県,香取市,7-7,篠原ロ903付近篠原新田観音堂,篠原新田観音堂,35.9073104,140.5162241,
千葉県,香取市,7-8,津宮3398-4付近津宮新田水神社,津宮新田水神社,35.9080225,140.5269545,緯度経度は怪しい
千葉県,香取市,7-9,石納1648-2付近石納消防機庫,石納消防機庫,35.9212008,140.4642581,
千葉県,香取市,7-10,野間谷原313付近野間谷原消防機庫,野間谷原消防機庫,35.924588,140.4583274,
千葉県,香取市,8-1,佐原イ1312-19付近橋替団地バス停前,橋替団地バス停前,35.8836394,140.4843259,
千葉県,香取市,8-2,牧野2855-1付近永井建設倉庫前,永井建設倉庫前,35.8800866,140.4892549,
千葉県,香取市,8-3,佐原イ1870付近佐原小学校第一校舎前,佐原小学校第一校舎前,35.8863312,140.4984296,
千葉県,香取市,8-4,佐原イ599付近中宿慈眼寺横,中宿慈眼寺横,35.890015,140.4950727,
千葉県,香取市,8-5,佐原イ1726付近町並み観光駐車場,町並み観光駐車場,35.8882292,140.4964463,
千葉県,香取市,8-6,佐原イ2685付近県立佐原高等学校正門,県立佐原高等学校正門,35.8884733,140.5053322,
千葉県,香取市,8-7,佐原イ3501佐原イ3501及川宅前,masked,35.8903714,140.5031714,
千葉県,香取市,8-8,牧野1752付近観福寺駐車場脇,観福寺駐車場脇,35.8819622,140.4993539,
千葉県,香取市,9-1,八筋川甲151付近八筋川消防機庫,八筋川消防機庫,35.938892,140.502107,緯度経度は怪しい
千葉県,香取市,9-2,八筋川甲598付近八筋川甲598水海宅前,masked,35.947465,140.5087279,緯度経度は怪しい
千葉県,香取市,9-3,八筋川甲1993-2付近旧湖東小学校正門,旧湖東小学校正門,35.9507007,140.5056741,
千葉県,香取市,9-4,大島279付近大島消防機庫前,大島消防機庫前,35.938892,140.502107,緯度経度は怪しい
千葉県,香取市,9-5,三島3付近三島地蔵尊,三島地蔵尊,35.9535194,140.5149942,
千葉県,香取市,9-6,境島197-1境島水神社,境島水神社,35.94984,140.5187239,
千葉県,香取市,10-1,扇島2474-2付近扇島2474-2遠藤宅前,masked,35.9307455,140.5347992,
千葉県,香取市,10-2,扇島769-1付近旧佐原農協北支店前,旧佐原農協北支店前,35.9318321,140.5361024,
千葉県,香取市,10-3,加藤洲685付近新島小学校正門,新島小学校正門,35.9277746,140.5406544,
千葉県,香取市,10-4,加藤洲878加藤洲新田公民館,加藤洲新田公民館,35.9258431,140.5452619,
千葉県,香取市,10-5,磯山74磯山願海寺,磯山願海寺,35.9237045,140.5501005,緯度経度は怪しい
千葉県,香取市,10-6,扇島1407付近扇島下の洲児童遊園,扇島下の洲児童遊園,35.9224193,140.5543102,
千葉県,香取市,10-7,市和田154-1付近市和田排水機場,市和田排水機場,35.9236303,140.5629118,
千葉県,香取市,10-8,市和田763付近市和田消防機庫前,市和田消防機庫前,35.912611,140.57218,
千葉県,香取市,11-1,附洲新田44-2付近附洲橋際,附洲橋際,35.9080943,140.5829938,緯度経度は怪しい
千葉県,香取市,11-2,津宮318津宮318本宮宅前,masked,35.8988318,140.5242533,
千葉県,香取市,11-3,津宮824津宮郵便局駐車場脇,津宮郵便局駐車場脇,35.9008765,140.529204,
千葉県,香取市,11-4,津宮601-1付近津宮601-1本宮宅前,masked,35.8963866,140.5286528,
千葉県,香取市,11-5,津宮1215付近水の郷小学校正門,水の郷小学校正門,35.898486,140.529506,
千葉県,香取市,11-6,津宮995付近大岸児童遊園,大岸児童遊園,35.900307,140.5355213,
千葉県,香取市,12-1,大倉丁子105大倉丁子105有本宅前,masked,35.8984547,140.5454603,緯度経度は怪しい
千葉県,香取市,12-2,大倉159付近大倉159三津越商店前,大倉１５９三津越商店前,35.8964131,140.5530199,
千葉県,香取市,12-3,大倉304付近丸峰入口,丸峰入口,35.8946406,140.5597268,
千葉県,香取市,12-4,大倉501付近旧大倉小学校正門,旧大倉小学校正門,35.890868,140.56685,
千葉県,香取市,12-5,大倉762-3付近水郷団地入口,水郷団地入口,35.8839012,140.5703941,
千葉県,香取市,12-6,大倉1246付近大倉1246多田宅前,masked,35.882609,140.5614992,緯度経度は怪しい
千葉県,香取市,13-1,谷中995付近谷中消防機庫前,谷中消防機庫前,35.8923253,140.4519154,緯度経度は怪しい
千葉県,香取市,13-2,みずほ台2丁目83-92付近堀之内公園,堀之内公園,35.8860934,140.4320552,
千葉県,香取市,13-3,西部田1352付近西部田公民館前,西部田公民館前,35.8888882,140.4285148,
千葉県,香取市,13-4,堀之内2172付近木内宅前,masked,35.8921443,140.4336088,
千葉県,香取市,13-5,堀之内1514-1付近飯嶋宅前,masked,35.8892798,140.4365675,緯度経度は怪しい
千葉県,香取市,13-6,寺内474-2付近寺内474-2木内商店前,寺内４７４－２木内商店前,35.885518,140.437977,
千葉県,香取市,13-7,鴇崎888鴇崎農村協同館,鴇崎農村協同館,35.879099,140.4396398,
千葉県,香取市,13-8,西和田686-1付近西和田公民館前,西和田公民館前,35.8775066,140.4347929,緯度経度は怪しい
千葉県,香取市,14-1,佐原ロ2127付近役所正面,役所正面,35.8975678,140.4985674,
千葉県,香取市,14-2,佐原ロ2127付近佐原消防署前,佐原消防署前,35.8975678,140.4985674,
千葉県,香取市,14-3,佐原ロ2097付近佐原ロ2097佐原板金工業組合横,佐原ロ２０９７佐原板金工業組合横,35.9027935,140.4986627,緯度経度は怪しい
千葉県,香取市,14-4,佐原ロ2028-92水郷町児童遊園,水郷町児童遊園,35.9003024,140.4961997,緯度経度は怪しい
千葉県,香取市,14-5,佐原イ211付近旧佐原中央図書館前,旧佐原中央図書館前,35.8931481,140.4950855,緯度経度は怪しい
千葉県,香取市,14-6,北1丁目1-4付近北1丁目公園,北１丁目公園,35.8974904,140.4917181,
千葉県,香取市,14-7,北2丁目11-2付近わんぱく公園,わんぱく公園,35.8984022,140.4939709,
千葉県,香取市,14-8,佐原イ172-2下水道入船橋ポンプ場横,下水道入船橋ポンプ場横,35.8939751,140.4967024,
千葉県,香取市,14-9,篠原イ571櫻井宅前,masked,35.8977688,140.4993404,緯度経度は怪しい
千葉県,香取市,14-10,石納972多田島公会堂,多田島公会堂,35.915007,140.4643967,
千葉県,香取市,14-11,川尻231-2川尻231-2根本宅前,masked,35.9120587,140.4463934,緯度経度は怪しい
千葉県,香取市,14-12,飯島1985飯島消防機庫,飯島消防機庫,35.938892,140.502107,緯度経度は怪しい
千葉県,香取市,15-1,長岡106-2川口建設前,川口建設前,35.8001498,140.5996317,
千葉県,香取市,15-2,府馬2831-1入小保内青年館前,入小保内青年館前,35.7990457,140.6061087,
千葉県,香取市,15-3,府馬2997-1かとり農協山田支店前,かとり農協山田支店前,35.7978984,140.6073436,緯度経度は怪しい
千葉県,香取市,15-4,府馬2407帰命台五叉路,帰命台五叉路,35.8033914,140.6097994,
千葉県,香取市,15-5,府馬2605-2遠茶区民センタ-前,遠茶区民センター前,35.8058317,140.6053901,緯度経度は怪しい
千葉県,香取市,15-6,府馬4466-1原宿青年館,原宿青年館,35.7936425,140.6001166,
千葉県,香取市,15-7,府馬3429-4旧府馬小学校前,旧府馬小学校前,35.7907485,140.6044791,
千葉県,香取市,15-8,志高769宮前東光寺前,宮前東光寺前,35.7866811,140.6184388,
千葉県,香取市,15-9,古内462-1古内青年館横,古内青年館横,35.790987,140.6130711,緯度経度は怪しい
千葉県,香取市,15-10,府馬3212-2在郷絵鳩商店横,在郷絵鳩商店横,35.7966268,140.6117577,緯度経度は怪しい
千葉県,香取市,16-1,新里1586-1新里根柄見集落センタ-横,新里根柄見集落センター横,35.7841814,140.5702854,緯度経度は怪しい
千葉県,香取市,16-2,新里1324-3新里原之台構造改善センタ-前,新里原之台構造改善センター前,35.7824124,140.5641176,
千葉県,香取市,16-3,新里1092新里中央十字路,新里中央十字路,35.77927,140.5656835,
千葉県,香取市,16-4,新里384付近新里高木英次商店前,新里高木英次商店前,35.776109,140.5655584,
千葉県,香取市,16-5,桐谷530付近桐谷倉庫前,桐谷倉庫前,35.7744373,140.5789769,
千葉県,香取市,16-6,鳩山329-5付近鳩山田中屋商店前,鳩山田中屋商店前,35.7800334,140.5817796,
千葉県,香取市,16-7,小川495小川495林宅前T字路,masked,35.7605975,140.5613541,緯度経度は怪しい
千葉県,香取市,16-8,小川550付近小川医王寺前,小川医王寺前,35.7623598,140.5649457,
千葉県,香取市,17-1,山倉2347-1付近山倉大神前,山倉大神前,35.7904369,140.5387527,緯度経度は怪しい
千葉県,香取市,17-2,山倉2092付近山倉青年館横,山倉青年館横,35.7895834,140.5357786,緯度経度は怪しい
千葉県,香取市,17-3,山倉1935付近山倉観福寺下十字路,山倉観福寺下十字路,35.7876845,140.5348888,
千葉県,香取市,17-4,山倉486付近旧山倉小学校正門前,旧山倉小学校正門前,35.782971,140.535682,緯度経度は怪しい
千葉県,香取市,17-5,山倉1711山倉1711斎藤宅前,masked,35.7852914,140.5328263,
千葉県,香取市,17-6,山倉3020付近三浦谷やすらぎの家前,三浦谷やすらぎの家前,35.8006357,140.5188883,
千葉県,香取市,17-7,大角717大角717稲荷神社下,大角７１７稲荷神社下,35.7790098,140.5413195,緯度経度は怪しい
千葉県,香取市,17-8,大角1769-1大角原集落センタ-入口,大角原集落センター入口,35.7962141,140.5511894,緯度経度は怪しい
千葉県,香取市,17-9,大角1545番地19付近山倉運動広場前,山倉運動広場前,35.7837801,140.5542022,
千葉県,香取市,18-1,小見1661-107付近吉野平児童遊園,吉野平児童遊園,35.8372526,140.5930604,
千葉県,香取市,18-2,小見1025旧八都小学校プ-ル横,旧八都小学校プール横,35.8290703,140.5916267,
千葉県,香取市,18-3,高野312-1高野青年館裏,高野青年館裏,35.8291292,140.6066831,緯度経度は怪しい
千葉県,香取市,18-4,竹之内677付近竹之内宮下コミュニティ-センタ-前,竹之内宮下コミュニティーセンター前,35.8216428,140.5918582,緯度経度は怪しい
千葉県,香取市,18-5,田部80-1付近オ-トボディY前,オートボディY前,35.8187217,140.5953801,
千葉県,香取市,18-6,田部604かとり農協田部倉庫横,かとり農協田部倉庫横,35.8149861,140.5982948,
千葉県,香取市,18-7,川上523付近川上旧消防機庫横,川上旧消防機庫横,35.830805,140.5995713,
千葉県,香取市,18-8,米野井564米野井青年館下,米野井青年館下,35.8298939,140.5807273,緯度経度は怪しい
千葉県,香取市,18-9,小見1098-1かとり農協本店前,かとり農協本店前,35.8313259,140.5949875,緯度経度は怪しい
千葉県,香取市,19-1,仁良300-1山田支所前,山田支所前,35.8033895,140.5752345,
千葉県,香取市,19-2,仁良783-7付近仁良青年館横,仁良青年館横,35.8014497,140.5663612,
千葉県,香取市,19-3,仁良922付近仁良熊野神社入口,仁良熊野神社入口,35.8033882,140.5618284,緯度経度は怪しい
千葉県,香取市,19-4,神生280付近神生新福禅寺入口,神生新福禅寺入口,35.8153339,140.566533,
千葉県,香取市,19-5,神生252付近神生525神生バス停横,神生５２５神生バス停横,35.815319,140.5697961,
千葉県,香取市,19-6,神生961付近神生772原新田バス停横,神生７７２原新田バス停横,35.8166989,140.5615077,緯度経度は怪しい
千葉県,香取市,20-1,岩部340-1付近農村協同館前,農村協同館前,35.8067737,140.5052207,
千葉県,香取市,20-2,岩部700付近栗源市民センタ-西側入口,栗源市民センター西側入口,35.810013,140.501861,
千葉県,香取市,20-3,岩部1560-1岩部駐在所脇,岩部駐在所脇,35.8144172,140.5043902,
千葉県,香取市,20-4,岩部1084-3大畑公会堂前,大畑公会堂前,35.8158532,140.5120833,
千葉県,香取市,20-5,岩部1984-3付近東野区民センタ-前,東野区民センター前,35.8285812,140.5166923,
千葉県,香取市,20-6,助沢717付近JR助沢停留所前,JR助沢停留所前,35.8228615,140.503033,緯度経度は怪しい
千葉県,香取市,20-7,西田部603-1付近西田部青年館前,西田部青年館前,35.7934684,140.5056556,緯度経度は怪しい
千葉県,香取市,20-8,苅毛530付近苅毛消防庫前,苅毛消防庫前,35.8035044,140.5005028,
千葉県,香取市,20-9,荒北805-1付近荒北区民センタ-前,荒北区民センター前,35.815083,140.4919535,
千葉県,香取市,21-1,高萩799付近魚光鮮魚店前,魚光鮮魚店前,35.8168042,140.5290037,
千葉県,香取市,21-2,高萩650付近高萩青年館下,高萩青年館下,35.8154258,140.5306425,
千葉県,香取市,21-3,高萩687-4付近高木理容店前,高木理容店前,35.8131913,140.5304955,
千葉県,香取市,21-4,高萩432-4付近受所区民センタ-前,受所区民センター前,35.8285929,140.5292675,緯度経度は怪しい
千葉県,香取市,21-5,高萩1367-17付近高萩1367-17杉崎宅前,masked,35.8157339,140.5413055,緯度経度は怪しい
千葉県,香取市,21-6,高萩1654-50上の台区民センタ-前,上の台区民センター前,35.8245001,140.5434035,緯度経度は怪しい
千葉県,香取市,21-7,高萩1577-10付近中峰区民センタ-前,中峰区民センター前,35.808473,140.547008,
千葉県,香取市,22-1,沢1487付近千葉交通バス沢火の見停留所前,千葉交通バス沢火の見停留所前,35.8039223,140.4725574,
千葉県,香取市,22-2,沢81付近千葉交通バス西沢停留所前,千葉交通バス西沢停留所前,35.805802,140.4810764,
千葉県,香取市,22-3,沢1460-1沢区民センタ-前,沢区民センター前,35.8049959,140.4749425,
千葉県,香取市,22-4,沢2618-9付近開進やすらぎの家前,開進やすらぎの家前,35.814589,140.460524,
千葉県,香取市,22-5,沢2729付近倉沢公民館前,倉沢公民館前,35.8148674,140.474854,緯度経度は怪しい
千葉県,香取市,22-6,沢1037-8宿原区民センタ-前,宿原区民センター前,35.817781,140.4798706,
千葉県,香取市,22-7,沢1813付近旧沢小学校前,旧沢小学校前,35.8048668,140.4765344,
千葉県,香取市,23-1,小見川3888-4東大根塚青年館前,東大根塚青年館前,35.8483332,140.6140451,
千葉県,香取市,23-2,小見川1002付近水郷電機前,水郷電機前,35.85183,140.609542,緯度経度は怪しい
千葉県,香取市,23-3,小見川551NTT小見川電話交換センタ-,NTT小見川電話交換センター,35.8551193,140.6053451,緯度経度は怪しい
千葉県,香取市,23-4,小見川873付近小見川中央小学校専用駐車場,小見川中央小学校専用駐車場,35.8527667,140.6050123,
千葉県,香取市,23-5,小見川100-1付近小見川中央小学校来客用駐車場,小見川中央小学校来客用駐車場,35.8527667,140.6050123,緯度経度は怪しい
千葉県,香取市,23-6,小見川1396-1付近旧小見川図書館前,旧小見川図書館前,35.8487049,140.6035736,
千葉県,香取市,23-7,下小川527付近火の見前,火の見前,35.8472574,140.595461,
千葉県,香取市,23-8,下小川1302付近ファミリ-マ-ト駐車場前,ファミリーマート駐車場前,35.8411609,140.5973984,
千葉県,香取市,23-9,小見川1585-2付近小見川市民センタ-前,小見川市民センター前,35.8472074,140.6042546,
千葉県,香取市,23-10,羽根川171付近羽根川集会所前,羽根川集会所前,35.8450872,140.6008319,
千葉県,香取市,23-11,入会地3-298付近小見川京浜団地公園,小見川京浜団地公園,35.8420915,140.6143251,緯度経度は怪しい
千葉県,香取市,23-12,小見川1842-1付近白井ハイツ前,白井ハイツ前,35.8429275,140.6102894,
千葉県,香取市,24-1,小見川448付近内浜公園,内浜公園,35.8566489,140.6061008,
千葉県,香取市,24-2,八日市場951八坂神社前,八坂神社前,35.858078,140.6014922,緯度経度は怪しい
千葉県,香取市,24-3,野田841-2野田青年館前,野田青年館前,35.8552894,140.5978948,緯度経度は怪しい
千葉県,香取市,24-4,野田640-1付近小見川中学校下交差点,小見川中学校下交差点,35.8561147,140.5915344,
千葉県,香取市,24-5,本郷62小見川社会福祉センタ-前,小見川社会福祉センター前,35.8484746,140.5873449,緯度経度は怪しい
千葉県,香取市,24-6,野田248付近菅澤商店倉庫前,菅澤商店倉庫前,35.850801,140.5999688,緯度経度は怪しい
千葉県,香取市,24-7,野田328付近菅澤商店前,菅澤商店前,35.850801,140.5999688,
千葉県,香取市,24-8,野田444-1付近ニュ-栄食堂前,ニュー栄食堂前,35.8518434,140.5873515,
千葉県,香取市,24-9,野田1711付近城山公園広場前,城山公園広場前,35.8577403,140.5912859,
千葉県,香取市,25-1,小見川4653-28付近長谷川商事入口,長谷川商事入口,35.8568993,140.6081705,
千葉県,香取市,25-2,小見川4872付近くろべ運動公園入口,くろべ運動公園入口,35.8580974,140.6112353,
千葉県,香取市,25-3,小見川4866-387付近住金住宅団地西公園,masked,35.8579644,140.614398,緯度経度は怪しい
千葉県,香取市,25-4,小見川4866-656付近住金住宅団地東公園,masked,35.8591494,140.6162376,緯度経度は怪しい
千葉県,香取市,25-5,小見川4866-468付近住金住宅団地北公園,masked,35.8597665,140.6145471,緯度経度は怪しい
千葉県,香取市,25-6,小見川5716新開町区民会館脇,新開町区民会館脇,35.8595192,140.6107269,
千葉県,香取市,25-7,小見川4866-736小見川B&G海洋センタ-,小見川B&G海洋センター,35.8557916,140.6134994,緯度経度は怪しい
千葉県,香取市,26-1,阿玉川728小見川東小学校,小見川東小学校,35.844042,140.622155,
千葉県,香取市,26-2,阿玉川1016-1付近旧マルカ商店前,旧マルカ商店前,35.8458942,140.6259184,
千葉県,香取市,26-3,阿玉川809-4付近アタリヤ農園倉庫前,アタリヤ農園倉庫前,35.8473835,140.6247736,
千葉県,香取市,26-4,川頭4付近阿玉川堰前交差点,阿玉川堰前交差点,35.8437089,140.6184369,
千葉県,香取市,26-5,岡飯田482岡飯田区民センタ-,岡飯田区民センター,35.830239,140.6419923,
千葉県,香取市,26-6,布野105布野集会所,布野集会所,35.8355985,140.6276789,
千葉県,香取市,26-7,川頭162-1付近川頭集会所前,川頭集会所前,35.8407445,140.6204476,
千葉県,香取市,26-8,北原地新田426-1付近北原地新田入口,北原地新田入口,35.8357407,140.620808,
千葉県,香取市,26-9,下飯田1197付近県営住宅,masked,35.8401052,140.6272165,
千葉県,香取市,27-1,五郷内1421付近五郷内研修所前,五郷内研修所前,35.8247008,140.6226709,
千葉県,香取市,27-2,五郷内2105-2付近旧小見川南保育所前,旧小見川南保育所前,35.8231318,140.6279563,
千葉県,香取市,27-3,和泉984付近和泉観音前,和泉観音前,35.8240604,140.6378747,
千葉県,香取市,27-4,五郷内2218付近旧小見川南小学校先三叉路,旧小見川南小学校先三叉路,35.8177204,140.630399,緯度経度は怪しい
千葉県,香取市,27-5,貝塚1595付近石毛商店前,石毛商店前,35.8150362,140.6389686,
千葉県,香取市,27-6,阿玉台845-2付近七五三商店横,七五三商店横,35.814786,140.62428,緯度経度は怪しい
千葉県,香取市,27-7,久保721-1付近細野宅前,masked,35.8181995,140.6193703,
千葉県,香取市,28-1,八本374付近八本大経院前,八本大経院前,35.8240021,140.5698108,
千葉県,香取市,28-2,山川152山川集会所,山川集会所,35.8387696,140.5707763,
千葉県,香取市,28-3,白井430白井清涼院,白井清涼院,35.8334472,140.5690318,
千葉県,香取市,28-4,内野23-2付近小見川西小学校プ-ル脇,小見川西小学校プール脇,35.843021,140.565177,
千葉県,香取市,28-5,虫幡583農協旧神里支所前,農協旧神里支所前,35.8434516,140.5674942,
千葉県,香取市,28-6,虫幡207付近北総測量前,北総測量前,35.8437305,140.5719049,
千葉県,香取市,28-7,木内1040付近木内区民センタ-入口,木内区民センター入口,35.8500296,140.5740902,
千葉県,香取市,28-8,油田795油田青年館前,油田青年館前,35.8370902,140.5528888,
千葉県,香取市,28-9,織幡642織幡青年館前,織幡青年館前,35.8515075,140.5449295,
千葉県,香取市,28-10,木内1214-1付近(株)ライテック横,㈱ライテック横,35.8576143,140.5575226,
千葉県,香取市,28-11,上小堀583付近上小堀青年館前,上小堀青年館前,35.8572585,140.5728072,緯度経度は怪しい
千葉県,香取市,28-12,上小堀1498-1付近新福寺児童遊園,新福寺児童遊園,35.8638615,140.5642572,
千葉県,香取市,29-1,一ノ分目番外7-3付近旧小見川北小学校利北分校前,旧小見川北小学校利北分校前,35.8991085,140.5864536,
千葉県,香取市,29-2,三ノ分目新田地先三ノ分目新田入口,三ノ分目新田入口,35.8867778,140.5938215,緯度経度は怪しい
千葉県,香取市,29-3,大倉6133-4付近大倉新田ふれあいセンタ-前,大倉新田ふれあいセンター前,35.9029034,140.5705811,緯度経度は怪しい
千葉県,香取市,30-1,一ノ分目995一ノ分目青年館前,一ノ分目青年館前,35.8823436,140.5769635,
千葉県,香取市,30-2,一ノ分目332-1付近水郷団地東南側入口,水郷団地東南側入口,35.8791132,140.5727726,
千葉県,香取市,30-3,三ノ分目209-5付近大塚山古墳前,大塚山古墳前,35.8785721,140.5819819,
千葉県,香取市,30-4,富田800小見川北小学校前,小見川北小学校前,35.875084,140.585622,
千葉県,香取市,30-5,富田965-3付近富田消防庫,富田消防庫,35.8719934,140.5911714,
千葉県,香取市,30-6,富田992-4付近ホソネ理容店前,ホソネ理容店前,35.8734966,140.5894834,
千葉県,香取市,30-7,増田575-1付近増田入口,増田入口,35.8708503,140.5796062,緯度経度は怪しい
千葉県,香取市,30-8,下小堀1下小堀諏訪神社,下小堀諏訪神社,35.8660014,140.5954509,緯度経度は怪しい
