prefecture,city,number,address,name,lat,long
神奈川県,平塚市,1ー1,花水台１２,花水台公園北側フェンス,35.3192848,139.3343864
神奈川県,平塚市,1ー2,唐ヶ原２０４−４,下花水公園西側フェンス,35.3140313,139.3316908
神奈川県,平塚市,1ー3,撫子原１２,なでしこ公園東側,35.3157919,139.3339107
神奈川県,平塚市,1ー4,撫子原１−２４,撫子原ポンプ場西側フェンス,35.3205823,139.3312152
神奈川県,平塚市,1ー5,花水台４２−１,なでしこ小学校北側フェンス,35.316495,139.3383903
神奈川県,平塚市,1ー6,花水台４２−１,なでしこ小学校南側フェンス,35.316495,139.3383903
神奈川県,平塚市,1ー7,花水台４２−１,なでしこ小学校東側フェンス,35.316495,139.3383903
神奈川県,平塚市,2ー1,黒部丘２０,黒部丘ちびっこ公園西側フェンス,35.3228816,139.3349414
神奈川県,平塚市,2ー2,黒部丘２０,黒部丘ちびっこ公園東側フェンス,35.3228816,139.3349414
神奈川県,平塚市,2ー3,黒部丘１２−７,県立平塚工科高等学校西側フェンス,35.3211414,139.3377064
神奈川県,平塚市,2ー4,黒部丘１２−７,県立平塚工科高等学校東側フェンス,35.3211414,139.3377064
神奈川県,平塚市,2ー5,黒部丘２８−７,道路脇,35.321397,139.3323845
神奈川県,平塚市,2ー6,黒部丘９−２１付近,奏ハイツ西側駐車場,35.3227155,139.3387269
神奈川県,平塚市,2ー7,黒部丘１２−７,県立平塚工科高等学校北側フェンス,35.3211414,139.3377064
神奈川県,平塚市,3ー1,虹ヶ浜２２,虹ヶ浜住宅集会所西側,35.3138686,139.3412051
神奈川県,平塚市,3ー2,菫平７−２８,月湘庵西側,35.3198269,139.3396193
神奈川県,平塚市,3ー3,菫平３,浜岳公園西側,35.3202317,139.3416808
神奈川県,平塚市,3ー4,菫平３,浜岳公園南側,35.3202317,139.3416808
神奈川県,平塚市,3ー5,虹ケ浜２３−３,虹ケ浜東公園南側鉄柵,35.3157416,139.3357342
神奈川県,平塚市,3ー6,菫平１５,菫平西公園南側,35.318559,139.3421566
神奈川県,平塚市,3ー7,菫平１２,菫平南公園南側,35.3179251,139.3434253
神奈川県,平塚市,4ー1,龍城ヶ丘４−２６,市立浜岳中学校西側,35.3197607,139.3442998
神奈川県,平塚市,4ー2,龍城ヶ丘４−２６,市立浜岳中学校南側,35.3197607,139.3442998
神奈川県,平塚市,4ー3,龍城ヶ丘１７−３,龍城ヶ丘東公園北側,35.3166458,139.3474188
神奈川県,平塚市,4ー4,龍城ヶ丘５−６２,市立花水小学校北側,35.319119,139.3449852
神奈川県,平塚市,4ー5,龍城ヶ丘１４,龍城ヶ丘公園北側,35.3169932,139.3464386
神奈川県,平塚市,4ー6,袖ヶ浜８,湘南海岸公園袖ヶ浜児童広場北側,35.316001,139.3507209
神奈川県,平塚市,4ー7,袖ヶ浜６,袖ヶ浜南公園北側,35.3170097,139.3521484
神奈川県,平塚市,5ー1,桃浜町１３,羽衣公園西側,35.3245151,139.3451698
神奈川県,平塚市,5ー2,桃浜町１３,羽衣公園東側,35.3245151,139.3451698
神奈川県,平塚市,5ー3,松風町２０,松影児童公園南側,35.3236627,139.3480246
神奈川県,平塚市,5ー4,松風町３,松風町児童公園西側,35.3231709,139.3515933
神奈川県,平塚市,5ー5,桃浜町３４,桃浜公園西側,35.32162599999999,139.3440597
神奈川県,平塚市,5ー6,桃浜町３４,桃浜公園南側,35.32162599999999,139.3440597
神奈川県,平塚市,5ー7,松風町２５,県有地南側,35.3216237,139.348659
神奈川県,平塚市,6ー1,八重咲町５,八重咲ビル向かい緑地,35.3262744,139.34969
神奈川県,平塚市,6ー2,代官町３６−４０,湘南平塚モータースクール南側フェンス,35.3261718,139.3574047
神奈川県,平塚市,6ー3,八重咲町２,駅南口広場駐輪場東側フェンス,35.327085,139.3514509
神奈川県,平塚市,6ー4,代官町３３,ＯＳＣ湘南シティ入口脇歩道ガードレール,35.328636,139.356894
神奈川県,平塚市,6ー5,代官町３２,長姫児童公園南側,35.3274488,139.3559553
神奈川県,平塚市,6ー6,八重咲町２２,村井弦齋公園南側,35.3245621,139.3502451
神奈川県,平塚市,6ー7,代官町１８,青柳児童公園南側,35.3256284,139.3550035
神奈川県,平塚市,7ー1,夕陽ヶ丘３２,夕陽ヶ丘児童公園北側,35.3240102,139.3550829
神奈川県,平塚市,7ー2,夕陽ヶ丘６０,三島児童公園南側,35.3243275,139.3592295
神奈川県,平塚市,7ー3,久領堤５,競輪場前交差点東側,35.3261825,139.3623561
神奈川県,平塚市,7ー4,夕陽ヶ丘９,茜児童公園西側,35.3222143,139.3543691
神奈川県,平塚市,7ー5,夕陽ヶ丘２２−１,市立港小学校北西側,35.32197170000001,139.3567289
神奈川県,平塚市,7ー6,夕陽ヶ丘２２−１,市立港小学校南東側,35.32197170000001,139.3567289
神奈川県,平塚市,7ー7,夕陽ヶ丘２１,須賀公園南側（高浜高校バス停入口付近）,35.3213915,139.3565898
神奈川県,平塚市,8ー1,高浜台１,高浜公園北側,35.3199974,139.3542104
神奈川県,平塚市,8ー2,高浜台７−１,市立太洋中学校北側フェンス,35.3204952,139.3564807
神奈川県,平塚市,8ー3,高浜台１１,高浜台第２公園北側,35.3200984,139.3588899
神奈川県,平塚市,8ー4,高浜台３２,湘南海岸公園西側,35.3176411,139.3554794
神奈川県,平塚市,8ー5,高浜台２９,高浜台第３公園北側,35.3169651,139.36117
神奈川県,平塚市,8ー6,千石河岸３８,汐崎公園東側,35.3185054,139.3652355
神奈川県,平塚市,8ー7,千石河岸３１−６,平塚漁港南側市道端,35.319617,139.3656941
神奈川県,平塚市,9ー1,札場町４,須賀第１駐車場南側,35.3241741,139.3622213
神奈川県,平塚市,9ー2,札場町３８,港公園北側,35.32447459999999,139.3642043
神奈川県,平塚市,9ー3,幸町７,幸町公園南西側,35.3221267,139.3600003
神奈川県,平塚市,9ー4,幸町７,幸町公園北西側,35.3221267,139.3600003
神奈川県,平塚市,9ー5,札場町３８,港公園東側,35.32447459999999,139.3642043
神奈川県,平塚市,9ー6,幸町１８,月見公園南西側,35.3198796,139.3604762
神奈川県,平塚市,9ー7,幸町１８,月見公園北東側,35.3198796,139.3604762
神奈川県,平塚市,10ー1,天沼７−１０,市立松原小学校西側,35.3350089,139.3562897
神奈川県,平塚市,10ー2,堤町２,馬入緑道堤町交差点脇,35.3379666,139.3596038
神奈川県,平塚市,10ー3,中堂３,馬入緑道中堂３付近,35.333651,139.3613488
神奈川県,平塚市,10ー4,八千代町５,馬入児童公園南側,35.3324424,139.3542897
神奈川県,平塚市,10ー5,八千代町１８,八千代町公園西側,35.3320888,139.3587313
神奈川県,平塚市,10ー6,老松町１２,老松町公園北側,35.3298529,139.3574622
神奈川県,平塚市,10ー7,馬入本町１１,蔵邸公園北側,35.3307755,139.3622213
神奈川県,平塚市,10ー8,須賀２７００,エア・ウォーター・パフォーマンスケミカル�竃k側,35.3359996,139.371691
神奈川県,平塚市,11ー1,浅間町４−３,市立崇善小学校西側,35.3330642,139.3460494
神奈川県,平塚市,11ー2,浅間町８−１,市立江陽中学校西側,35.3358663,139.3468252
神奈川県,平塚市,11ー3,浅間町８−１,市立江陽中学校南側,35.3358663,139.3468252
神奈川県,平塚市,11ー4,浅間町１−１,八幡山公園南側,35.3337249,139.3486729
神奈川県,平塚市,11ー5,浅間町９−１,平塚市役所南西側,35.3358316,139.3503979
神奈川県,平塚市,11ー6,宮の前７,東雲児童公園南側,35.330736,139.351289
神奈川県,平塚市,11ー7,宝町１０,宝町児童公園北側,35.3291324,139.3537346
神奈川県,平塚市,11ー8,宮松町２５,宮松町あおぞら公園東側植栽,35.3389635,139.3544484
神奈川県,平塚市,12ー1,御殿四丁目１８,立堀親水公園北側,35.3446246,139.3232879
神奈川県,平塚市,12ー2,御殿四丁目５−１,市立中原中学校北側,35.3509288,139.3255157
神奈川県,平塚市,12ー3,御殿四丁目５−１,市立中原中学校東側,35.3509288,139.3255157
神奈川県,平塚市,12ー4,御殿四丁目５−１,市立中原中学校南側,35.3509288,139.3255157
神奈川県,平塚市,12ー5,御殿三丁目３−３,大縄橋公園北側,35.3490848,139.3301204
神奈川県,平塚市,12ー6,中原三丁目２０−１６,日枝神社東側,35.3491361,139.3312746
神奈川県,平塚市,12ー7,中原三丁目４,伊勢山公園東側,35.3511131,139.3332764
神奈川県,平塚市,12ー8,中原三丁目６,松が丘青少年広場北側,35.3524386,139.3340693
神奈川県,平塚市,13ー1,見附町１６−３,見附台公園西側植栽,35.3297212,139.342791
神奈川県,平塚市,13ー2,見附町１６−１,ひらしん平塚文化芸術ホール東側植栽,35.3296584,139.343455
神奈川県,平塚市,13ー3,見附町１−８,市立崇善公民館西側植栽,35.3290778,139.3440349
神奈川県,平塚市,13ー4,明石町２１,明石町公園西側,35.3309271,139.3461214
神奈川県,平塚市,13ー5,明石町２１,明石町公園南側,35.3309271,139.3461214
神奈川県,平塚市,13ー6,明石町８−１,新宿公園北側,35.3304014,139.3488969
神奈川県,平塚市,13ー7,錦町８,錦町公園南側,35.3267423,139.3435839
神奈川県,平塚市,13ー8,錦町１付近,中央地下道上部市道ガードレール,35.3269394,139.345487
神奈川県,平塚市,14ー1,豊原町２２,森田屋ベーカリー前豊原町緑地,35.3344333,139.3356549
神奈川県,平塚市,14ー2,豊原町２１−３６,平塚建設会館南側,35.3350021,139.3359522
神奈川県,平塚市,14ー3,立野町４０,八間通り公園西側,35.3344125,139.3391435
神奈川県,平塚市,14ー4,追分１−４３,福祉会館入口脇植栽,35.3355491,139.3455796
神奈川県,平塚市,14ー5,立野町３３,立野町児童公園東側,35.3340957,139.3397779
神奈川県,平塚市,14ー6,立野町３１−２０,栗原ホーム北側植栽,35.3354908,139.3395068
神奈川県,平塚市,14ー7,追分１,浅間緑地東側,35.33559760000001,139.3459628
神奈川県,平塚市,15ー1,平塚四丁目２７,柳町公園東側,35.3273742,139.33399
神奈川県,平塚市,15ー2,平塚四丁目１９,西仲町公園東側,35.3282051,139.3346242
神奈川県,平塚市,15ー3,平塚二丁目２７,東仲町公園北側,35.3286639,139.3385885
神奈川県,平塚市,15ー4,平塚二丁目２０−１,大鳥公園南側,35.3300879,139.3384845
神奈川県,平塚市,15ー5,平塚三丁目４,四十瀬川公園西側,35.3253498,139.3366063
神奈川県,平塚市,15ー6,平塚三丁目４,四十瀬川公園東側,35.3253498,139.3366063
神奈川県,平塚市,15ー7,平塚一丁目１５,二十四軒町公園北側,35.325878,139.3398571
神奈川県,平塚市,16ー1,上平塚１,上平塚公園西側,35.331962,139.3256659
神奈川県,平塚市,16ー2,桜ヶ丘６,桜ヶ丘ポンプ場東側,35.3282517,139.3267757
神奈川県,平塚市,16ー3,中里３３−１,市立春日野中学校南側正門横,35.3319632,139.3314392
神奈川県,平塚市,16ー4,中里３３−１,市立春日野中学校東側,35.3319632,139.3314392
神奈川県,平塚市,16ー5,中里１０−１,市立富士見小学校西側,35.3329061,139.3343147
神奈川県,平塚市,16ー6,中里１０−１,市立富士見小学校南側,35.3329061,139.3343147
神奈川県,平塚市,16ー7,平塚五丁目１６,柳町西公園西側フェンス,35.3285128,139.3311359
神奈川県,平塚市,16ー8,中里５０−１,県立平塚農商高等学校商業校舎東側道路フェンス,35.3315605,139.3281762
神奈川県,平塚市,17ー1,達上ヶ丘１４,達上ヶ丘公園西側,35.3358994,139.3258245
神奈川県,平塚市,17ー2,達上ヶ丘１４,達上ヶ丘公園たんじょう池入口,35.3358994,139.3258245
神奈川県,平塚市,17ー3,諏訪町２８,大久保公園東側,35.3356313,139.3315323
神奈川県,平塚市,17ー4,諏訪町２８,大久保公園西側,35.3356313,139.3315323
神奈川県,平塚市,17ー5,諏訪町２８,大久保公園南側,35.3356313,139.3315323
神奈川県,平塚市,17ー6,諏訪町２０−１２,県立平塚看護大学校新館北側,35.3350608,139.3338549
神奈川県,平塚市,17ー7,諏訪町９,諏訪町公園西側,35.3382526,139.3337521
神奈川県,平塚市,18ー1,南原二丁目１１−４０,ブロック塀,35.3404573,139.3274694
神奈川県,平塚市,18ー2,南原二丁目１５−１,市立南原公民館前,35.3401707,139.3253733
神奈川県,平塚市,18ー3,南原三丁目８,南原公園入口脇植栽,35.3409448,139.3237635
神奈川県,平塚市,18ー4,南原一丁目１９−１,平塚市民病院西側植栽,35.3364429,139.3256331
神奈川県,平塚市,18ー5,南原一丁目１１−３１,市立南原小学校西側,35.338259,139.32718
神奈川県,平塚市,18ー6,南原一丁目１１−３１,市立南原小学校東側,35.338259,139.32718
神奈川県,平塚市,18ー7,南原一丁目５−３,市立南原保育園前,35.3375259,139.3282284
神奈川県,平塚市,19ー1,御殿二丁目１７−３８,市立中原公民館入口,35.3444307,139.3269046
神奈川県,平塚市,19ー2,御殿二丁目１７−５,市立ひばり幼稚園東側,35.3446985,139.3275956
神奈川県,平塚市,19ー3,御殿二丁目１８,御殿公園南側,35.343556,139.327727
神奈川県,平塚市,19ー4,御殿二丁目８−９,市立中原小学校南側,35.3441528,139.3296273
神奈川県,平塚市,19ー5,御殿二丁目８−９,市立中原小学校東側,35.3441528,139.3296273
神奈川県,平塚市,19ー6,中原二丁目１８,（株）池田理化向側畑地万年塀,35.3444656,139.3328008
神奈川県,平塚市,19ー7,御殿一丁目３２−３２,サニーライフ平塚御殿東側フェンス,35.3398187,139.3313341
神奈川県,平塚市,20ー1,大原１,平塚市総合公園西駐車場植栽道路側,35.3409158,139.3418493
神奈川県,平塚市,20ー2,中原二丁目１４,中原公園南側,35.3453161,139.3345449
神奈川県,平塚市,20ー3,大原３,大原公園西側,35.3453545,139.3413637
神奈川県,平塚市,20ー4,大原１−１４,市立大原小学校西側,35.3445364,139.3385489
神奈川県,平塚市,20ー5,大原１,平塚球場東側(北入口),35.3409158,139.3418493
神奈川県,平塚市,20ー6,大原１−１４,市立大原公民館前植栽,35.3445364,139.3385489
神奈川県,平塚市,20ー7,大原１,総合公園多目的広場南側,35.3409158,139.3418493
神奈川県,平塚市,21ー1,東中原一丁目１２−２,市立松が丘小学校北側,35.3550373,139.340771
神奈川県,平塚市,21ー2,東中原二丁目１４−２,市立しらさぎ保育園東側,35.353404,139.3373794
神奈川県,平塚市,21ー3,東中原二丁目５,東中原公園北側,35.3472204,139.3344657
神奈川県,平塚市,21ー4,東中原一丁目１２−１,市立大野中学校西側,35.3541219,139.3420476
神奈川県,平塚市,21ー5,東中原一丁目１２−１,市立大野中学校南側,35.3541219,139.3420476
神奈川県,平塚市,21ー6,東中原二丁目１５−１０,東中原住宅１０号棟西側,35.3525007,139.3369601
神奈川県,平塚市,21ー7,東中原二丁目３,東中原住宅１号棟南側,35.3466612,139.3364478
神奈川県,平塚市,22ー1,西真土四丁目１３,今里西ちびっ子広場フェンス,35.362853,139.3505623
神奈川県,平塚市,22ー2,西真土四丁目３−１,市立真土小学校東側,35.3605547,139.3490332
神奈川県,平塚市,22ー3,西真土四丁目３−１,市立真土小学校南側,35.3605547,139.3490332
神奈川県,平塚市,22ー4,西真土三丁目１８,真土大塚山公園北西側,35.3595296,139.3480246
神奈川県,平塚市,22ー5,西真土四丁目１,坂口バス停脇道路フェンス,35.360558,139.3505623
神奈川県,平塚市,22ー6,西真土二丁目１−３５,三菱ケミカル（株）平塚工場東側フェンス,35.3564465,139.342563
神奈川県,平塚市,22ー7,西真土三丁目１８,真土大塚山公園東側鉄柵,35.3595296,139.3480246
神奈川県,平塚市,23ー1,西八幡一丁目１１４,市有地南側フェンス,35.3399106,139.3488176
神奈川県,平塚市,23ー2,西八幡一丁目４−３,�潟pイロットコーポレーション平塚事業所南西フェンス,35.3424802,139.3461992
神奈川県,平塚市,23ー3,西八幡一丁目５−２,高砂香料工業（株）平塚工場東側フェンス,35.3406322,139.3500875
神奈川県,平塚市,23ー4,西八幡一丁目１３,八幡公園西側,35.3432657,139.3461214
神奈川県,平塚市,23ー5,西八幡一丁目１３,八幡公園北側,35.3432657,139.3461214
神奈川県,平塚市,23ー6,西八幡一丁目１０−２２,市立八幡公民館西側,35.3426796,139.3480819
神奈川県,平塚市,23ー7,西八幡一丁目１１４,市有地北側フェンス,35.3399106,139.3488176
神奈川県,平塚市,24ー1,東八幡三丁目１０−１３,匠建設（株）西側,35.3455387,139.3567542
神奈川県,平塚市,24ー2,東八幡五丁目１,古河電気工業（株）平塚事業所正門横,35.3552928,139.3588106
神奈川県,平塚市,24ー3,東八幡三丁目８−１,市立八幡小学校北側,35.3439748,139.3584462
神奈川県,平塚市,24ー4,東八幡四丁目６−１,荒井工業脇水路フェンス,35.3477613,139.3585559
神奈川県,平塚市,24ー5,東八幡三丁目８−１,市立八幡小学校南側フェンス,35.3439748,139.3584462
神奈川県,平塚市,24ー6,東八幡一丁目１４−２,日産車体（株）八幡寮北側フェンス,35.341694,139.355267
神奈川県,平塚市,24ー7,東八幡一丁目１４−２,日産車体（株）相模寮南側フェンス,35.341694,139.355267
神奈川県,平塚市,25ー1,四之宮六丁目１５−1,平塚ふじみ園南側,35.3639038,139.3594918
神奈川県,平塚市,25ー2,四之宮五丁目３−２０,ブロック塀,35.3556476,139.3603729
神奈川県,平塚市,25ー3,四之宮五丁目８−２９,四之宮公園東側,35.3560305,139.3597033
神奈川県,平塚市,25ー4,四之宮六丁目１０−３２,（株）トーリク平塚センター東側フェンス,35.3619476,139.359963
神奈川県,平塚市,25ー5,東真土二丁目１−１,市立大野小学校正門脇フェンス,35.3532108,139.3585627
神奈川県,平塚市,25ー6,四之宮三丁目２０−２６,市立四之宮公民館西側,35.3529454,139.3610769
神奈川県,平塚市,25ー7,四之宮四丁目３−３３,前鳥神社入口交差点北側,35.3547333,139.3641935
神奈川県,平塚市,25ー8,東真土二丁目１−１,市立大野小学校東側,35.3532108,139.3585627
神奈川県,平塚市,26ー1,田村三丁目１２−５,市立神田公民館南側,35.3737559,139.3588162
神奈川県,平塚市,26ー2,田村二丁目９−１,田村第２公園東側,35.3713986,139.3613178
神奈川県,平塚市,26ー3,田村五丁目１４,小松原公園南側,35.3722135,139.3642837
神奈川県,平塚市,26ー4,田村七丁目２０−５,田村宮の前公園西側,35.373051,139.3681842
神奈川県,平塚市,26ー5,田村七丁目２０−１,宮の前住宅１号棟西側,35.3719313,139.3677552
神奈川県,平塚市,26ー6,田村二丁目１０,太陽公園南側,35.3705179,139.359921
神奈川県,平塚市,26ー7,田村二丁目３−１２,若葉公園西側,35.368245,139.3595906
神奈川県,平塚市,26ー8,田村一丁目１９,田村長者公園南側,35.3653545,139.3576209
神奈川県,平塚市,27ー1,吉際４−７付近,大神橋北側歩道フェンス,35.3889887,139.358055
神奈川県,平塚市,27ー2,大神５−１２−１７,市立大神公民館東側植栽,35.3907905,139.3657772
神奈川県,平塚市,27ー3,大神５−１,大神公園南側,35.3892515,139.3672187
神奈川県,平塚市,27ー4,大神５−３−７２,市立大神保育園前,35.3889879,139.3649582
神奈川県,平塚市,27ー5,大神３−１５−１,環境事業センター北側植栽,35.3834119,139.3703449
神奈川県,平塚市,27ー6,大神３−３−８,柳ノ内バス停脇水路フェンス,35.3824415,139.3650506
神奈川県,平塚市,27ー7,大神５−１１,大神第４公園西側,35.3892515,139.3672187
神奈川県,平塚市,28ー1,横内３８２４,県営横内団地２９号棟東側,35.3668277,139.3459778
神奈川県,平塚市,28ー2,横内３９０７,県営横内団地４５号棟東側,35.3671022,139.3473513
神奈川県,平塚市,28ー3,横内３８２４,県営横内団地３３号棟南側,35.3668277,139.3459778
神奈川県,平塚市,28ー4,横内３１３０,県営横内団地２６号棟東側,35.3658091,139.3478048
神奈川県,平塚市,28ー5,横内３０５７,県営横内団地１０号棟南側,35.3679597,139.3458581
神奈川県,平塚市,28ー6,横内４３３６,伊達建設資材置場南側,35.3646508,139.353207
神奈川県,平塚市,28ー7,横内４３２２,水路フェンス,35.3701431,139.3526243
神奈川県,平塚市,29ー1,下島９９９−５,下島西公園西側,35.3689567,139.3412051
神奈川県,平塚市,29ー2,城所６４９,市立大住中学校南側,35.3715434,139.3240905
神奈川県,平塚市,29ー3,小鍋島６０８−３,市立城島小学校南側,35.3723107,139.3297186
神奈川県,平塚市,29ー4,小鍋島６２１−１,城島ふれあいの里前,35.3721666,139.3313935
神奈川県,平塚市,29ー5,小鍋島２７１−１,市立城島公民館西側,35.37298639999999,139.3328404
神奈川県,平塚市,29ー6,大島８２０,十輪寺西側,35.3768691,139.3437425
神奈川県,平塚市,29ー7,大島７９０−１,大島北バス停前フェンス,35.3775448,139.342932
神奈川県,平塚市,29ー8,下島３８４,霊山寺前フェンス,35.3701057,139.3407862
神奈川県,平塚市,30ー1,豊田平等寺３６９,平等寺南側,35.3531722,139.3241363
神奈川県,平塚市,30ー2,豊田本郷１７９４,ブロック塀,35.3573818,139.3274694
神奈川県,平塚市,30ー3,南豊田３６６−１,市立豊田公民館前,35.3563575,139.330096
神奈川県,平塚市,30ー4,豊田宮下５５２,市立豊田小学校西側,35.3587493,139.3294711
神奈川県,平塚市,30ー5,豊田宮下５５２,市立豊田小学校北側,35.3587493,139.3294711
神奈川県,平塚市,30ー6,豊田小嶺３９２,豊田小嶺公園東側,35.3599415,139.3337144
神奈川県,平塚市,30ー7,豊田打間木６６９,打間木上バス停脇フェンス,35.3645555,139.3426332
神奈川県,平塚市,31ー1,寺田縄４１１,平塚養護学校前バス停脇フェンス,35.3586686,139.3158372
神奈川県,平塚市,31ー2,入野５１４,金田小学校東側フェンス,35.3517853,139.3158372
神奈川県,平塚市,31ー3,寺田縄５９０,県立平塚養護学校南側フェンス,35.359616,139.3090353
神奈川県,平塚市,31ー4,寺田縄９６６,ブロック塀,35.3591213,139.3212171
神奈川県,平塚市,31ー5,寺田縄２２４,ブロック塀,35.3557846,139.3201388
神奈川県,平塚市,31ー6,寺田縄４２４−１,ＪＡ湘南あさつゆ広場駐車場南側フェンス,35.3574014,139.3103344
神奈川県,平塚市,31ー7,入野１０６,市立金田公民館向側フェンス,35.3534385,139.3200454
神奈川県,平塚市,31ー8,長持５３８−１,しまむらストアー長持店西側フェンス,35.3472359,139.3203551
神奈川県,平塚市,32ー1,纒２２６,市立松延小学校南側,35.3415605,139.3122887
神奈川県,平塚市,32ー2,纒２２６,市立松延小学校東側,35.3415605,139.3122887
神奈川県,平塚市,32ー3,徳延３２,旭第１公園東側,35.3367509,139.3183735
神奈川県,平塚市,32ー4,纒４６６,薬王寺南側,35.3430096,139.3163022
神奈川県,平塚市,32ー5,纒６９１,しののめ橋第一自転車バイク駐車場 西側フェンス,35.340562,139.3212115
神奈川県,平塚市,32ー6,徳延３５８,徳延神社北側,35.337912,139.3178405
神奈川県,平塚市,32ー7,徳延７２３,ＦＵＪＩ徳延店第２駐車場北側,35.3350118,139.316895
神奈川県,平塚市,32ー8,徳延５４１,徳延公園北側鉄柵,35.3357126,139.3189163
神奈川県,平塚市,33ー1,万田９２６,ブロック塀,35.3256751,139.3028364
神奈川県,平塚市,33ー2,万田５９８,ブロック塀,35.326184,139.3060696
神奈川県,平塚市,33ー3,万田４９３,貝塚の里公園北側植栽,35.3292059,139.3060498
神奈川県,平塚市,33ー4,万田１１２０,水路フェンス,35.3267694,139.2989896
神奈川県,平塚市,33ー5,万田６１０−１,万田南公園西側フェンス,35.3249539,139.3070162
神奈川県,平塚市,33ー6,万田４３７,県道公所大磯線植栽帯,35.3270174,139.3056932
神奈川県,平塚市,33ー7,高根１３０,畑地,35.3255134,139.313301
神奈川県,平塚市,33ー8,万田９３９−４,社会福祉法人真幸会ケアハウス湘南の里西側フェンス,35.3272918,139.3032763
神奈川県,平塚市,34ー1,高村２６,高村団地４９号棟北側,35.3350633,139.3058227
神奈川県,平塚市,34ー2,出縄４３７−２,市営出縄中谷戸住宅前市道ガードレール,35.331867,139.300681
神奈川県,平塚市,34ー3,出縄２０７,弁天池横市道ガードレール,35.3304468,139.3019871
神奈川県,平塚市,34ー4,高村４５,市立勝原小学校西側正門横,35.332951,139.3051106
神奈川県,平塚市,34ー5,高村１９９,高村公園北東角,35.3335854,139.3063271
神奈川県,平塚市,34ー6,高村２６,高村団地３２号棟東側,35.3350633,139.3058227
神奈川県,平塚市,34ー7,高村１６６,市立山城中学校北側正門横,35.3318686,139.3077394
神奈川県,平塚市,35ー1,公所３８０,公所北交差点脇緑地帯,35.3493926,139.3032703
神奈川県,平塚市,35ー2,公所４８４−１,ラークヒル前市道ガードレール,35.34491140000001,139.300593
神奈川県,平塚市,35ー3,公所７３２,万年塀,35.3457486,139.303864
神奈川県,平塚市,35ー4,日向岡二丁目１６,向山公園西側,35.3407499,139.2980071
神奈川県,平塚市,35ー5,日向岡二丁目９−１,市立旭陵中学校南側,35.3401364,139.3000545
神奈川県,平塚市,35ー6,公所２０７,水路フェンス,35.3480825,139.2992176
神奈川県,平塚市,35ー7,日向岡二丁目１,山王山公園北側,35.3391634,139.3020481
神奈川県,平塚市,35ー8,日向岡一丁目１６,叶谷公園西側,35.3388312,139.2975416
神奈川県,平塚市,36ー1,上吉沢１８１０,飛谷津バス停前市道フェンス,35.3469448,139.2771132
神奈川県,平塚市,36ー2,上吉沢１２１０,ガードレール,35.343899,139.2796633
神奈川県,平塚市,36ー3,めぐみが丘二丁目２４,めぐみが丘公園北側,35.3503953,139.2933325
神奈川県,平塚市,36ー4,めぐみが丘一丁目１０,めぐみが丘中央公園南側,35.3486654,139.2950755
神奈川県,平塚市,36ー5,上吉沢５９４,市立吉沢小学校入口市道植栽,35.3464008,139.287514
神奈川県,平塚市,36ー6,上吉沢３９２,市立吉沢公民館正門左側,35.3437178,139.2911516
神奈川県,平塚市,36ー7,めぐみが丘２−２４,めぐみが丘公園西側,35.3503953,139.2933325
神奈川県,平塚市,36ー8,下吉沢４９０,松岩寺バス折り返し場北側畑地,35.334215,139.2866779
神奈川県,平塚市,37ー1,土屋４０３９,土屋霊園入口バス停脇県道フェンス,35.3481223,139.2588002
神奈川県,平塚市,37ー2,土屋１１２７,座禅川橋　北西歩道フェンス,35.3499895,139.2609576
神奈川県,平塚市,37ー3,土屋１８６４−１,土屋公民館前植栽,35.3505508,139.2624017
神奈川県,平塚市,37ー4,土屋１２１８,畑地,35.3529727,139.2644382
神奈川県,平塚市,37ー5,土屋１２７３,土屋橋バス停脇県道フェンス,35.35535180000001,139.2697433
神奈川県,平塚市,37ー6,土屋１４２２−１,寺分ちびっ子広場前,35.3481223,139.2588002
神奈川県,平塚市,37ー7,土屋２２０１,東海大学運動場広場西側,35.347626,139.2703885
神奈川県,平塚市,37ー8,土屋２４９５−１,湘南農協土沢支所東側道路端,35.3450087,139.2712227
神奈川県,平塚市,38ー1,南金目３６,土屋橋バス停脇県道フェンス,35.3563806,139.2699061
神奈川県,平塚市,38ー2,南金目９６６,市立金目公民館前,35.3614743,139.2905647
神奈川県,平塚市,38ー3,南金目１０１３,市立金目中学校正門右側,35.360557,139.2918873
神奈川県,平塚市,38ー4,南金目９０７,市立金目小学校正門右側,35.3587709,139.2901513
神奈川県,平塚市,38ー5,南金目１７４７,川前会館南東市道ガードレール,35.3576948,139.2888663
神奈川県,平塚市,38ー6,南金目１８３７,市道脇,35.3541438,139.2869377
神奈川県,平塚市,38ー7,千須谷１６３,千須谷公民館前水路フェンス,35.3506711,139.2904805
神奈川県,平塚市,39ー1,広川２４８付近,広川バス停向かい北東側畑地,35.3535232,139.3031574
神奈川県,平塚市,39ー2,片岡２４２,片岡下宗高信号　水路フェンス,35.366328,139.3031655
神奈川県,平塚市,39ー3,片岡６６７,グランドホール金目店専用駐車場南側フェンス,35.359935,139.3024537
神奈川県,平塚市,39ー4,広川５２,ＮＴＴ東日本金目電話交換センター西側,35.3556441,139.3023848
神奈川県,平塚市,39ー5,広川１２,市立金旭中学校南側,35.3564092,139.3041144
神奈川県,平塚市,39ー6,広川１２,市立金旭中学校東側,35.3564092,139.3041144
神奈川県,平塚市,39ー7,広川５２,ＮＴＴ東日本金目電話交換センター北側,35.3556441,139.3023848
神奈川県,平塚市,40ー1,真田四丁目３４−４９,相原建設（株）北側,35.3718613,139.278547
神奈川県,平塚市,40ー2,真田四丁目１０−１５,さなだ幼稚園南側フェンス,35.3665199,139.2747965
神奈川県,平塚市,40ー3,真田四丁目３８６−６,真田公園北東側,35.3697229,139.2752717
神奈川県,平塚市,40ー4,真田一丁目１４−２６,真田与一公園西側,35.3714493,139.2844599
神奈川県,平塚市,40ー5,北金目二丁目１５,塚越古墳公園北側,35.3667835,139.2846183
神奈川県,平塚市,40ー6,北金目９２２,金目親水公園南側,35.3642707,139.2816082
神奈川県,平塚市,40ー7,北金目二丁目３９−１,市立みずほ小学校正門横,35.3638904,139.2875399
神奈川県,平塚市,40ー8,北金目四丁目１−１,東海大学湘南キャンパス南門西側フェンス,35.3608458,139.2725605
神奈川県,平塚市,41ー1,岡崎２６５７,駒形神社西側土手,35.379469,139.2994905
神奈川県,平塚市,41ー2,岡崎５９５１,みどりヶ丘北公園南側,35.3775397,139.3064535
神奈川県,平塚市,41ー3,岡崎３２３３,みどりヶ丘南公園北側,35.376087,139.3049607
神奈川県,平塚市,41ー4,岡崎３２６９,王御住運動広場北側,35.3758147,139.3067927
神奈川県,平塚市,41ー5,岡崎３０９３,ひらおか幼稚園駐車場フェンス北側,35.3747741,139.3020405
神奈川県,平塚市,41ー6,岡崎３７００付近,岡崎城址入口バス停付近市道ガードレール,35.3741823,139.311759
神奈川県,平塚市,41ー7,岡崎３４３０,市立岡崎小学校南側,35.3729122,139.3066837
神奈川県,平塚市,41ー8,岡崎３８８４,資材置場南西側,35.3719337,139.3118743
神奈川県,平塚市,42ー1,田村四丁目３１−１,市立神田中学校北側,35.3791828,139.3587127
神奈川県,平塚市,42ー2,田村六丁目１−１,市立神田小学校北側,35.37623380000001,139.36319
神奈川県,平塚市,42ー3,田村六丁目１−１,市立神田小学校南側,35.37623380000001,139.36319
神奈川県,平塚市,42ー4,田村四丁目５−４,神奈川中央交通西�兜ｽ塚営業所 南側フェンス,35.3762157,139.3581402
神奈川県,平塚市,42ー5,田村四丁目１８４−１,田村けやき公園東側,35.3784512,139.3589692
神奈川県,平塚市,42ー6,田村九丁目２１,天神森北公園東側,35.3776684,139.368012
神奈川県,平塚市,42ー7,田村八丁目６−１６付近,畠田橋西側植栽,35.3777133,139.3660368
神奈川県,平塚市,43ー1,山下１０９６−２,山下北公園東側,35.3344898,139.314955
神奈川県,平塚市,43ー2,山下９８０−６,県営山下団地集会所東側,35.3321222,139.3135668
神奈川県,平塚市,43ー3,山下４１３,八幡神社西側,35.3298657,139.3183735
神奈川県,平塚市,43ー4,山下７９１−３,山下西公園北側,35.3308538,139.3152375
神奈川県,平塚市,43ー5,山下８０１−３,市立山下小学校西側,35.3305732,139.3166694
神奈川県,平塚市,43ー6,山下８０１−３,市立山下小学校南側,35.3305732,139.3166694
神奈川県,平塚市,43ー7,山下８０１−３,市立山下小学校北側,35.3305732,139.3166694
神奈川県,平塚市,43ー8,山下１０−１,山下の里公園入口脇植栽,35.3298657,139.3183735
神奈川県,平塚市,44ー1,横内４５５,神田寺西側,35.3782515,139.3534077
神奈川県,平塚市,44ー2,横内１９４８−３,市立横内中学校東側,35.373752,139.3537574
神奈川県,平塚市,44ー3,横内１９４８−３,市立横内中学校西側,35.373752,139.3537574
神奈川県,平塚市,44ー4,横内２７３８,ブロック塀,35.3718759,139.3506741
神奈川県,平塚市,44ー5,横内２６８７,市立横内小学校南側,35.3718298,139.3523041
神奈川県,平塚市,44ー6,横内２６８７,市立横内小学校東側,35.3718298,139.3523041
神奈川県,平塚市,44ー7,横内３６３８,水路フェンス,35.3674317,139.3534813
神奈川県,平塚市,45ー1,根坂間７３８,大町バス停脇水路フェンス,35.341379,139.3046652
神奈川県,平塚市,45ー2,河内１３２,マックスバリュ平塚河内店公園南側フェンス,35.3439261,139.3114137
神奈川県,平塚市,45ー3,河内６９−３,河内緑地東側,35.3414943,139.3091663
神奈川県,平塚市,45ー4,根坂間６５１付近,日向岡トンネル東側出口植栽,35.3383459,139.3032381
神奈川県,平塚市,45ー5,河内４４０,市立旭北公民館西側,35.3382342,139.3103561
神奈川県,平塚市,45ー6,河内３０７,市立旭小学校北側,35.3349974,139.3091994
神奈川県,平塚市,45ー7,河内３０７,市立旭小学校東側,35.3349974,139.3091994
神奈川県,平塚市,46ー1,ふじみ野二丁目３７,ふじみ野第２公園東側,35.3820223,139.3014934
神奈川県,平塚市,46ー2,ふじみ野二丁目６,ふじみ野第１公園南側,35.3825287,139.3056536
神奈川県,平塚市,46ー3,ふじみ野一丁目２４,ふじみ野第３公園北側,35.3800416,139.3040291
神奈川県,平塚市,46ー4,ふじみ野一丁目２４,ふじみ野第３公園南側,35.3800416,139.3040291
神奈川県,平塚市,46ー5,ふじみ野一丁目３５,岡崎郵便局北側市道,35.3782243,139.3026424
神奈川県,平塚市,46ー6,ふじみ野一丁目１７,ふじみ野第４公園西側,35.3784648,139.3040291
神奈川県,平塚市,46ー7,ふじみ野一丁目１７,ふじみ野第４公園東側,35.3784648,139.3040291
神奈川県,平塚市,47ー1,四之宮一丁目１１−３６,日産車体（株）中原寮南側フェンス,35.3492829,139.3468609
神奈川県,平塚市,47ー2,四之宮一丁目１０−１,市立神明中学校西側,35.3496389,139.3497659
神奈川県,平塚市,47ー3,四之宮一丁目１０−１,市立神明中学校北側,35.3496389,139.3497659
神奈川県,平塚市,47ー4,四之宮一丁目１０−１,市立神明中学校南側,35.3496389,139.3497659
神奈川県,平塚市,47ー5,四之宮一丁目３−３９,神奈川県環境科学センター北側,35.347627,139.351427
神奈川県,平塚市,47ー6,四之宮二丁目１８−２６,マックスバリュ平塚四之宮店北側公園フェンス,35.3514121,139.3549554
神奈川県,平塚市,47ー7,四之宮二丁目１７−２１,マックスバリュ平塚四之宮店屋外駐車場東側フェンス,35.3514717,139.3554172
神奈川県,平塚市,48ー1,東真土二丁目１２−１,市立大野公民館西側フェンス,35.3555801,139.3547955
神奈川県,平塚市,48ー2,東真土四丁目４−７,ドラッグストアセイムス西側フェンス,35.3602365,139.3537261
神奈川県,平塚市,48ー3,東真土二丁目１２−１,市立大野公民館南側フェンス,35.3555801,139.3547955
神奈川県,平塚市,48ー4,東真土四丁目１３,真土一の域公園東側,35.3624265,139.3565898
神奈川県,平塚市,48ー5,東真土四丁目１０−４,水路フェンス,35.3614284,139.3544583
神奈川県,平塚市,48ー6,東真土一丁目１−９４,アール元気真土店東側駐輪場植栽,35.35320730000001,139.3527322
神奈川県,平塚市,48ー7,東真土一丁目１０−５１,真土東公園西側,35.3557482,139.3524381
