prefecture,city,number,address,name,lat,long,note
神奈川県,海老名市,１ - １,中央一丁目20番47号,さがみ農協海老名支店東側フェンス,35.4533877,139.3961424,
神奈川県,海老名市,１ - ２,中央一丁目５番,海老名中央公園東側植栽（公園銘板前）,35.4523474,139.3939582,
神奈川県,海老名市,１ - ３,中央二丁目86番１（中央2-1-21付近）,まちかど公園北側植栽（南向き）,35.4496147,139.3922644,
神奈川県,海老名市,１ - ４,勝瀬４番40号,勝瀬文化センター西側フェンス,35.4464158,139.3975295,
神奈川県,海老名市,１ - ５,国分南一丁目1935番１（国分南1-20-15付近）,史跡相模国分寺跡（海老名市温故館跡南側フェンス）,35.4534765,139.3990715,
神奈川県,海老名市,１ - ６,国分南三丁目1062番91（国分南3-20-25付近）,市道1296号線（国分南原児童遊園の並び土手）,35.4487928,139.4004466,
神奈川県,海老名市,１ - ７,中央一丁目５番,海老名中央公園西側植栽（築山西面）,35.4523474,139.3939582,
神奈川県,海老名市,２ - １,大谷南一丁目３番７号,一般宅生垣,35.439106,139.394485,緯度経度は怪しい
神奈川県,海老名市,２ - ２,大谷南四丁目3219番地の２（大谷南4-８-35付近）,一般宅畑地,35.4310341,139.395119,
神奈川県,海老名市,２ - ３,大谷南四丁目21番１号,大谷コミュニティセンター北側フェンス,35.4330867,139.3978528,
神奈川県,海老名市,２ - ４,大谷南二丁目10番１号,大谷中学校東側フェンス,35.437469,139.396576,緯度経度は怪しい
神奈川県,海老名市,２ - ５,大谷南二丁目3601番４地先（大谷南2-8-3付近）,市道31号線道路敷地,35.437328,139.39682,緯度経度は怪しい
神奈川県,海老名市,２ - ６,大谷南五丁目７番27号,資源化センター北側植栽,35.4330004,139.4025564,
神奈川県,海老名市,２ - ７,大谷南四丁目3285番１（大谷南4-20-1付近）,大谷近隣公園東側入口植栽,35.4327613,139.3973466,
神奈川県,海老名市,３ - １,中新田1529番３（中新田1-5-25付近）,大島記念公園西側フェンス,35.439892,139.386185,緯度経度は怪しい
神奈川県,海老名市,３ - ２,中新田一丁目15番１号,中新田小学校北側フェンス,35.4390473,139.3860812,
神奈川県,海老名市,３ - ３,中新田一丁目26番１号,海老名高校北側フェンス,35.4418491,139.3879814,
神奈川県,海老名市,３ - ４,中新田二丁目795番地１先（中新田二丁目16番14号地先付近）,西部排水路東側フェンス（中新田コミュニティセンター西側）,35.4426907,139.3820952,
神奈川県,海老名市,３ - ５,中新田二丁目903番地１地先（中新田二丁目22番24号地先）,排水路東側フェンス,35.44066,139.3806325,
神奈川県,海老名市,３ - ６,中新田三丁目2010番15(中新田3-25-1付近）,中新田神成畑児童遊園東側フェンス,35.436813,139.3798781,
神奈川県,海老名市,３ - ７,中新田五丁目5002番17（中新田5-6-7付近）,中新田赤松原第一公園北側ガードパイプ,35.432068,139.381302,緯度経度は怪しい
神奈川県,海老名市,３ - ８,中新田四丁目４番１号東側,上台ノ原団地東側ガードパイプ,35.4345566,139.3844561,
神奈川県,海老名市,４ - １,河原口一丁目335番2号（河原口1-8-5付近）,一般宅前角地芝生,35.4454671,139.375764,
神奈川県,海老名市,４ - ２,河原口二丁目12番28号,河原口自治会館東側フェンス,35.4480109,139.377377,
神奈川県,海老名市,４ - ３,河原口二丁目27番3号,海老名市歴史資料収蔵館東側植栽,35.44947550000001,139.3763486,
神奈川県,海老名市,４ - ４,河原口三丁目13番１号,有鹿小学校北西側フェンス,35.4528137,139.3787025,
神奈川県,海老名市,４ - ５,上郷一丁目５番１号,一般宅石塀,35.4529257,139.3796365,
神奈川県,海老名市,４ - ６,上郷一丁目146番１号（上郷1-14-19付近）,県立相模三川公園駐車場東側植栽,35.4557513,139.381224,
神奈川県,海老名市,４ - ７,上郷717番地,水道局海老名営業所西側フェンス,35.4526312,139.3840752,
神奈川県,海老名市,５ - １,扇町116番地（扇町16-1付近）,市道307号線（ＪＲ海老名駅北側フェンス）,35.4546351,139.3902283,
神奈川県,海老名市,５ - ２,扇町125番地（扇町11-2付近）,扇町第一公園南側フェンス,35.455727,139.388733,緯度経度は怪しい
神奈川県,海老名市,５ - ３,上今泉2028番地,今泉小学校東側フェンス,35.4613763,139.3926297,
神奈川県,海老名市,５ - ４,扇町115番地（扇町14-5付近）,海老名駅西口第２有料自転車駐車場北側フェンス,35.455727,139.388733,緯度経度は怪しい
神奈川県,海老名市,５ - ５,上今泉2028番地,今泉小学校南側フェンス,35.4613763,139.3926297,
神奈川県,海老名市,５ - ６,扇町905-1（扇町13-1付近）,市道2680号線（ららぽーと沿い北西側ガードパイプ）,35.4564826,139.389146,
神奈川県,海老名市,５ - ７,泉二丁目1004番１号（泉2-1-7付近）,市道307号線（タック海老名側緑地）,35.460014,139.389496,緯度経度は怪しい
神奈川県,海老名市,５ - ８,扇町117番地（扇町3-1付近）,市道2680号線ガードパイプ（ローソン海老名駅西口店前）,35.4542261,139.387894,
神奈川県,海老名市,６ - １,上今泉一丁目887番地の１（上今泉1-14-40付近）,さくらい幼稚園グラウンド側フェンス,35.4658367,139.4008636,
神奈川県,海老名市,６ - ２,上今泉一丁目23番１号,上星小学校北側フェンス,35.4665715,139.4030293,
神奈川県,海老名市,６ - ３,上今泉一丁目848番2,市道２号線（常泉院前）ガードパイプ,35.4662241,139.4014983,
神奈川県,海老名市,６ - ４,上今泉四丁目８番28号,えびな北高齢者施設入口北側フェンス,35.4698671,139.4025302,
神奈川県,海老名市,６ - ５,上今泉四丁目949番41（上今泉4-12-19付近）,上今泉第一児童遊園西側フェンス,35.4697187,139.3996157,
神奈川県,海老名市,６ - ６,上今泉五丁目19番28,上今泉第二児童公園南東側フェンス,35.4692714,139.4071793,
神奈川県,海老名市,６ - ７,上今泉五丁目24番（上今泉5-20-21付近）,上今泉五丁目遊水池南側フェンス,35.4699921,139.4083249,
神奈川県,海老名市,６ - ８,上今泉一丁目５番５号,上今泉一丁目遊水池北側フェンス,35.4654241,139.4048321,
神奈川県,海老名市,７ - １,柏ケ谷364番地,(株)パブコ 北側工場南西側フェンス,35.4642884,139.4122942,
神奈川県,海老名市,７ - ２,柏ケ谷600番１,柏ケ谷第二児童公園北側フェンス,35.4630408,139.4128888,
神奈川県,海老名市,７ - ３,柏ケ谷704番地,相模鉄道遊水池北側フェンス,35.463161,139.411957,緯度経度は怪しい
神奈川県,海老名市,７ - ４,柏ケ谷884番地,柏ケ谷中学校南側フェンス,35.4691055,139.4167269,
神奈川県,海老名市,７ - ５,柏ケ谷600番１,柏ケ谷第二児童公園西側フェンス,35.4630408,139.4128888,
神奈川県,海老名市,７ - ６,柏ケ谷1090番地,柏ケ谷小学校東側フェンス,35.4665034,139.4171041,
神奈川県,海老名市,７ - ７,柏ケ谷637番地の５,市道1146号線（セブンイレブンかしわ台駅前店前道路向かい側）,35.465893,139.415314,緯度経度は怪しい
神奈川県,海老名市,８ - １,上河内1045番地の１,焼肉店南側フェンス,35.4213981,139.3955356,
神奈川県,海老名市,８ - ２,杉久保南四丁目33番23号,一般宅西側大谷石塀,35.4191422,139.3999959,
神奈川県,海老名市,８ - ３,中河内1154番地,さがみ農協有馬支店東側フェンス,35.4166049,139.3913664,
神奈川県,海老名市,８ - ４,本郷1240番地の4,居合公民館敷地,35.4021063,139.3906325,
神奈川県,海老名市,８ - ５,本郷1568番地の１,フードワン海老名店北側フェンス,35.409271,139.395966,緯度経度は怪しい
神奈川県,海老名市,８ - ６,本郷3238番地の１,一般宅南側ブロック塀,35.409271,139.395966,緯度経度は怪しい
神奈川県,海老名市,８ - ７,本郷4601番地,有馬中学校南側フェンス,35.4160481,139.3961109,
神奈川県,海老名市,８ - ８,本郷4626番地の１,本郷コミュニティセンター西側フェンス,35.4133914,139.39549,
神奈川県,海老名市,９ - １,上今泉1840番地,今泉中学校南側フェンス,35.4655795,139.3931098,
神奈川県,海老名市,９ - ２,上今泉1840番地,今泉中学校東側フェンス,35.4655795,139.3931098,
神奈川県,海老名市,９ - ３,下今泉三丁目３番37号,一般宅東側ブロック塀,35.46842840000001,139.3884784,
神奈川県,海老名市,９ - ４,上今泉三丁目1911番１（上今泉3-4-28付近）,上今泉涯第二児童遊園東側フェンス,35.470726,139.397446,緯度経度は怪しい
神奈川県,海老名市,９ - ５,上今泉二丁目1505番１（上今泉2-12-62付近）,一般宅畑地,35.4652328,139.3983266,
神奈川県,海老名市,９ - ６,上今泉二丁目９番28号,海老名市消防第７分団資機材置場北側フェンス,35.4679359,139.3990026,
神奈川県,海老名市,９ - ７,上今泉三丁目10番８号,センチュリー・カーサ西側フェンス,35.4711591,139.3984416,
神奈川県,海老名市,９ - ８,下今泉五丁目498番地先(下今泉5-8-15付近）,市道310号線ガードパイプ（下今泉あさま広場西側）,35.4646739,139.3900443,
神奈川県,海老名市,10 - １,今里三丁目217番地の３（今里3-3-35付近）,海老名市立今里庭球場フェンス（神社前バス停際）,35.427765,139.386169,緯度経度は怪しい
神奈川県,海老名市,10 - ２,今里三丁目19番50号,一般宅敷地,35.42574219999999,139.3870139,
神奈川県,海老名市,10 - ３,社家五丁目182番２,社家駅自転車等置場東側ガードパイプ,35.418802,139.3792777,
神奈川県,海老名市,10 - ４,社家三丁目18番１号,社家コミュニティセンター北側植栽,35.42394609999999,139.3848405,
神奈川県,海老名市,10 - ５,社家五丁目115番地,社家駅自転車等置場北側ガードパイプ,35.418802,139.3792777,
神奈川県,海老名市,10 - ６,社家五丁目10番１号,社家小学校西側フェンス,35.4203797,139.3809401,
神奈川県,海老名市,10 - ７,中新田五丁目20番７号,山王社境内東側ブロック塀,35.4287397,139.382464,
神奈川県,海老名市,10 - ８,社家二丁目９番21号,社家自治会館西側フェンス,35.4257058,139.3805335,
神奈川県,海老名市,10 - ９,社家4032番地１,海老名運動公園南東側出入口フェンス,35.429985,139.377808,緯度経度は怪しい
神奈川県,海老名市,11 - １,門沢橋四丁目11番14号,渋谷神社西側塀,35.4046548,139.3784617,
神奈川県,海老名市,11 - ２,中野727番地先（中野3-13-16付近）,市道110号線ガードフェンス（東側排水路前）,35.41291,139.373383,緯度経度は怪しい
神奈川県,海老名市,11 - ３,中野三丁目1929番2（中野3-20-15付近）,鶏舎東側植栽,35.412678,139.381607,緯度経度は怪しい
神奈川県,海老名市,11 - ４,門沢橋一丁目1029番3（門沢橋2-4-1付近）,門沢橋駅東側自転車等置場北側フェンス,35.40835870000001,139.3818168,
神奈川県,海老名市,11 - ５,門沢橋一丁目19番１号,門沢橋小学校南側フェンス,35.4083762,139.3794811,
神奈川県,海老名市,11 - ６,門沢橋二丁目22番７号,門沢橋保育園北側フェンス,35.4068681,139.375747,
神奈川県,海老名市,11 - ７,門沢橋二丁目2138番１（門沢橋2-6-19付近）,門沢橋第一児童公園西側フェンス,35.4069112,139.3781463,
神奈川県,海老名市,12 - １,浜田町５番13号,浜田歴史公園西側フェンス,35.4444828,139.4022296,
神奈川県,海老名市,12 - ２,国分寺台２丁目19番４号先,市道大谷峰線植栽（下浜田バス停南・駐車場西）,35.4377426,139.4033413,
神奈川県,海老名市,12 - ３,国分寺台１丁目5580番地の230（国分寺台2-9-1付近）,市道979号線先空地,35.443168,139.4040384,
神奈川県,海老名市,12 - ４,国分寺台１丁目4124番148（国分寺台1-9-1付近）,国分寺台第一児童公園東側フェンス,35.4445327,139.4031093,
神奈川県,海老名市,12 - ５,国分寺台２丁目5556番40（国分寺台2-4-7付近）,相鉄ローゼン(株)駐車場東側フェンス,35.4408381,139.4043525,
神奈川県,海老名市,12 - ６,国分寺台２丁目13番１号,大谷小学校北側フェンス,35.4397571,139.4027187,
神奈川県,海老名市,12 - ７,国分寺台２丁目13番１号,大谷小学校東側フェンス,35.4397571,139.4027187,
神奈川県,海老名市,13 - １,東柏ケ谷二丁目２番11号,平塚信用金庫海老名支店北側石塀,35.4689169,139.4225756,
神奈川県,海老名市,13 - ２,東柏ケ谷二丁目1554番地の２先（東柏ケ谷2-4-14付近）,市道23号線ガードパイプ（広場）,35.469612,139.426407,緯度経度は怪しい
神奈川県,海老名市,13 - ３,東柏ケ谷二丁目1678番５（東柏ケ谷2-14-12付近）,柏ケ谷第一児童公園北側植栽,35.4689542,139.425092,
神奈川県,海老名市,13 - ４,東柏ケ谷二丁目1709番地付近（東柏ケ谷2-18-19付近）,市道2151号線ガードパイプ,35.4701566,139.425941,
神奈川県,海老名市,13 - ５,東柏ケ谷二丁目1766番３（東柏ケ谷1-29-31付近）,東柏ケ谷近隣公園東側植栽,35.4696283,139.4269037,
神奈川県,海老名市,13 - ６,東柏ケ谷二丁目1766番３（東柏ケ谷1-29-31付近）,東柏ケ谷近隣公園北側植栽,35.4696283,139.4269037,
神奈川県,海老名市,13 - ７,東柏ケ谷二丁目1766番３（東柏ケ谷1-29-31付近）,東柏ケ谷近隣公園西側植栽,35.4696283,139.4269037,
神奈川県,海老名市,14 - １,東柏ケ谷三丁目1297番地の17先（東柏ケ谷3-3-15付近）,さがみ野駅北側ロータリー内（南面）,35.473522,139.430115,緯度経度は怪しい
神奈川県,海老名市,14 - ２,東柏ケ谷三丁目1846番地の１（東柏ケ谷3-12-14付近）,相鉄ライフ第２駐車場南側フェンス,35.4723775,139.4304457,
神奈川県,海老名市,14 - ３,東柏ケ谷三丁目17番38号,東柏ケ谷三丁目自治会館植栽,35.4733215,139.4308654,
神奈川県,海老名市,14 - ４,東柏ケ谷四丁目４番１号,(株)中村屋神奈川工場西側フェンス,35.472874,139.4324716,
神奈川県,海老名市,14 - ５,東柏ケ谷四丁目14番３号,一般宅石塀,35.4746806,139.4333663,
神奈川県,海老名市,14 - ６,東柏ケ谷四丁目９番12号先,市道27号線植栽（一般宅前）,35.4736255,139.4338552,
神奈川県,海老名市,14 - ７,東柏ケ谷四丁目2082番２（東柏ケ谷4-7-3付近）,いちご広場ガードパイプ,35.473448,139.4343772,
神奈川県,海老名市,15 - １,国分北一丁目39番32号,富士エクスプレス(株)東側フェンス,35.4629199,139.3977731,
神奈川県,海老名市,15 - ２,国分北一丁目437番４（国分北1-3-6付近）,国分尼寺公園東側フェンス,35.459854,139.395279,緯度経度は怪しい
神奈川県,海老名市,15 - ３,国分北一丁目434番２（国分北1-2-1付近）,市道62号線ガードパイプ（えびな国分団地南）,35.459854,139.395279,緯度経度は怪しい
神奈川県,海老名市,15 - ４,国分北一丁目437番４（国分北1-2-6付近）,国分尼寺公園西側植栽,35.459854,139.395279,緯度経度は怪しい
神奈川県,海老名市,15 - ５,国分北一丁目3029番（国分北1-21-36付近）,国分第二公園南側フェンス,35.4609324,139.3968614,
神奈川県,海老名市,16 - １,さつき町１番地先（さつき町1-21-1付近）,市道1750号線フェンス（ＪＲ厚木駅東側）,35.4463606,139.3795207,
神奈川県,海老名市,16 - ２,さつき町９番地,さつき町第一児童公園西側柵,35.4469438,139.3821058,
神奈川県,海老名市,16 - ３,さつき町58番地,海西中学校北側フェンス,35.4480476,139.3798927,
神奈川県,海老名市,16 - ４,さつき町51番地の２,海老名市立えびな市民活動センター多目的グラウンド東側フェンス,35.4475831,139.3812821,
神奈川県,海老名市,16 - ５,さつき町58番地,海西中学校西側フェンス,35.4480476,139.3798927,
神奈川県,海老名市,16 - ６,河原口５丁目923番13（河原口5-16-17付近）,河原口一大縄公園南側フェンス,35.4506146,139.3827305,
神奈川県,海老名市,16 - ７,めぐみ町７番１号,海老名市立中央図書館南側植栽,35.4513149,139.3859731,
神奈川県,海老名市,16 - ８,めぐみ町６番１号,海老名市文化会館南側植栽,35.452356,139.3867415,
神奈川県,海老名市,16 - ９,めぐみ町６番３号,海老名市総合福祉会館南側植栽,35.4519478,139.3858675,
神奈川県,海老名市,16 - 10,めぐみ町507番11（めぐみ町5-1付近）,ビナ・よりみち広場南側植栽,35.4514111,139.388996,
神奈川県,海老名市,16 - 11,さつき町58番地,海西中学校南側フェンス,35.4480476,139.3798927,
神奈川県,海老名市,17 - １,国分寺台２丁目10番23号,国分寺台文化センター北側フェンス,35.4392742,139.4055143,
神奈川県,海老名市,17 - ２,国分寺台３丁目5345番63（国分寺台3-4-2付近）,国分寺台第三児童公園北側フェンス前空地,35.4382521,139.4061251,
神奈川県,海老名市,17 - ３,国分寺台３丁目13番21号,樽井集会所南側フェンス,35.4345802,139.4089015,
神奈川県,海老名市,17 - ４,国分寺台３丁目5344番56（国分寺台3-12-37付近）,国分寺台樽井児童遊園南側フェンス,35.4359758,139.40562,
神奈川県,海老名市,17 - ５,国分寺台４丁目5137番235（国分寺台4-10-12）,国分寺台第四児童公園北側フェンス,35.4336281,139.4052638,
神奈川県,海老名市,17 - ６,国分寺台５丁目5137番123（国分寺台5-7-18付近）,国分寺台鍛冶返児童遊園南側フェンス,35.4324447,139.4087102,
神奈川県,海老名市,17 - ７,国分寺台５丁目5137番242地先（国分寺台5-2-14付近）,国分寺台緑道（5137番242付近）,35.4336799,139.4092657,
神奈川県,海老名市,18 - １,東柏ケ谷五丁目14番１号,芝浦メカトロニクス(株)さがみ野事業所西側フェンス,35.47007019999999,139.4311854,
神奈川県,海老名市,18 - ２,東柏ケ谷五丁目14番１号,芝浦メカトロニクス(株)さがみ野事業所南側フェンス,35.47007019999999,139.4311854,
神奈川県,海老名市,18 - ３,東柏ケ谷五丁目14番11号,ルアンジュさがみ野北側植栽,35.4705772,139.4303829,
神奈川県,海老名市,18 - ４,東柏ケ谷五丁目14番11号,ルアンジュさがみ野西側植栽,35.4705772,139.4303829,
神奈川県,海老名市,18 - ５,東柏ケ谷六丁目９番７号,東柏ケ谷小学校西側フェンス,35.4681168,139.4349394,
神奈川県,海老名市,18 - ６,東柏ケ谷六丁目1452番７（東柏ケ谷6-12-31）,東柏ケ谷六丁目自治会館前フェンス,35.469322,139.434723,緯度経度は怪しい
神奈川県,海老名市,18 - ７,東柏ケ谷六丁目1444番13（東柏ケ谷6-19-3付近）,東柏ケ谷東原第四公園西側フェンス,35.4691008,139.4331832,
神奈川県,海老名市,19 - １,上今泉六丁目11番15号,北部公園臨時駐車場東側フェンス,35.4678658,139.410275,
神奈川県,海老名市,19 - ２,国分北三丁目3649番137（国分北3-29-8付近）,大松原第４児童遊園北側フェンス,35.461227,139.403503,緯度経度は怪しい
神奈川県,海老名市,19 - ３,国分北三丁目19番31号,一般宅東側フェンス塀,35.461193,139.405243,緯度経度は怪しい
神奈川県,海老名市,19 - ４,柏ケ谷271番４,柏ケ谷271番４ 緑地,35.463161,139.411957,緯度経度は怪しい
神奈川県,海老名市,19 - ５,国分北三丁目3360番地１（国分北三丁目５番付近）,国分第一児童公園北側フェンス,35.461227,139.403503,緯度経度は怪しい
神奈川県,海老名市,19 - ６,国分北四丁目10番１号,杉本小学校西側フェンス,35.4648588,139.4084142,
神奈川県,海老名市,19 - ７,柏ケ谷112番地,一般宅東側石塀,35.462873,139.4080651,
神奈川県,海老名市,19 - ８,国分北三丁目4074番17（国分北3-21-10付近）,緑地やすらぎ公園北東側植栽,35.461227,139.403503,緯度経度は怪しい
神奈川県,海老名市,19 - ９,上今泉六丁目335番地（上今泉6-14-1付近）,海老名市北部公園体育館テニスコート北側フェンス,35.468578,139.409515,緯度経度は怪しい
神奈川県,海老名市,19 - 10,国分北三丁目3402番106（国分北3-3-34付近）,市道1964号線植栽（国分北三丁目遊水池対面）,35.461227,139.403503,緯度経度は怪しい
神奈川県,海老名市,20 - １,杉久保南一丁目248番１（杉久保南1-4-1付近）,杉久保第二児童公園南側フェンス,35.423336,139.39624,緯度経度は怪しい
神奈川県,海老名市,20 - ２,杉久保北二丁目293番3,市道１号線ガードパイプ（城山バス停前）,35.4263176,139.3964186,
神奈川県,海老名市,20 - ３,杉久保北四丁目４番１号,杉久保小学校西側フェンス,35.4282149,139.4036057,
神奈川県,海老名市,20 - ４,杉久保北四丁目1711番１（杉久保北4-12付近）,杉久保富谷児童公園南側フェンス,35.426997,139.4019797,
神奈川県,海老名市,20 - ５,杉久保北二丁目22番１号,豊受神社南側フェンス,35.4259103,139.3982585,
神奈川県,海老名市,20 - ６,杉久保北四丁目2083番地先（杉久保北4-34-23）,市道39号線ガードパイプ（相鉄バス折返場南東側）,35.427055,139.402313,緯度経度は怪しい
神奈川県,海老名市,20 - ７,杉久保北四丁目1711番１（杉久保北4-12付近）,杉久保富谷児童公園西側柵,35.426997,139.4019797,
神奈川県,海老名市,20 - ８,杉久保北三丁目1299番１（杉久保北3-6-20付近）,一般宅空地,35.429302,139.400314,緯度経度は怪しい
神奈川県,海老名市,21 - １,望地二丁目508番（望地2-4-14付近）,望地道上第三公園東側フェンス,35.4544629,139.4055849,
神奈川県,海老名市,21 - ２,国分南二丁目1634番19（国分南2-17-41付近）,国分第三公園西側植栽,35.457049,139.400411,
神奈川県,海老名市,21 - ３,国分南二丁目1613番５（国分南2-35-25付近）,国分やまに平児童遊園西側フェンス,35.4564087,139.4034331,
神奈川県,海老名市,21 - ４,国分南二丁目1697番２（国分南2-37-5付近）,国分やまに平第２児童遊園入口フェンス,35.4547735,139.4028701,
神奈川県,海老名市,21 - ５,望地一丁目177番31（望地1-5-5付近）,望地道下公園入口右側フェンス,35.4523292,139.4059501,
神奈川県,海老名市,21 - ６,望地二丁目24番１号,海老名障がい者第二デイサービスセンター東側フェンス,35.4568484,139.4057304,
神奈川県,海老名市,21 - ７,国分南四丁目14番１号,国分コミュニティセンター駐車場ガードパイプ,35.4526314,139.4030841,
神奈川県,海老名市,21 - ８,望地二丁目341番４（望地2-12付近）,望地道上公園北側フェンス,35.4555379,139.407412,
神奈川県,海老名市,22 - １,中央三丁目1491番地の１地先（中央3-1-24東側）,海老名駅東口第２有料自転車駐車場東側フェンス,35.4490517,139.390032,
神奈川県,海老名市,22 - ２,勝瀬175番地の１,海老名市役所広告塔横植栽,35.4461558,139.3908833,
神奈川県,海老名市,22 - ３,大谷北一丁目40番３（大谷北1-4-1付近）,大谷第一児童公園西側フェンス,35.4443773,139.3932602,
神奈川県,海老名市,22 - ４,大谷北二丁目3889番地の１（大谷北2-13-22付近）,神明社参道入口横フェンス,35.444389,139.397827,緯度経度は怪しい
神奈川県,海老名市,22 - ５,大谷北二丁目3923番９（大谷北2-21-18付近）,大谷市場公園東側,35.444389,139.397827,緯度経度は怪しい
神奈川県,海老名市,22 - ６,大谷北二丁目４番29号,一般宅西側フェンス,35.444828,139.395248,緯度経度は怪しい
神奈川県,海老名市,22 - ７,中新田377番地,海老名市役所分庁舎（えびなこどもセンター）北側フェンス,35.4445296,139.3862598,
神奈川県,海老名市,22 - ８,中新田445番地先,市道402号線（海老名総合病院駐車場前ガードパイプ）,35.4466763,139.3861123,
神奈川県,海老名市,22 - ９,河原口1385番１,河原口相沢公園南側植栽,35.444267,139.377228,緯度経度は怪しい
神奈川県,海老名市,22 - 10,勝瀬175番地の１,海老名市役所西側フェンス（防災倉庫裏）,35.4461558,139.3908833,
神奈川県,海老名市,23 - １,国分北二丁目3896番地の１（国分北2-18-28付近）,市民農園（サングレイス海老名壱番館前）,35.460217,139.399155,緯度経度は怪しい
神奈川県,海老名市,23 - ２,国分北二丁目3255番地の３（国分北2-8-10付近）,市道1636号線敷地（ふたば愛子園坂入口道路南）,35.460217,139.399155,緯度経度は怪しい
神奈川県,海老名市,23 - ３,国分北二丁目７番46号,海老名市文化財収蔵庫西側フェンス,35.458839,139.397568,緯度経度は怪しい
神奈川県,海老名市,23 - ４,国分北一丁目3224番地の２（国分北2-6-20付近）,相模国分尼寺跡歴史公園広場東側フェンス,35.459854,139.395279,緯度経度は怪しい
神奈川県,海老名市,23 - ５,国分北三丁目２番15号,市営国分北三丁目住宅南側フェンス,35.458206,139.402069,緯度経度は怪しい
神奈川県,海老名市,23 - ６,国分北二丁目3850番地2（国分北2-23-1付近）,市道1224号線敷地,35.460217,139.399155,緯度経度は怪しい
神奈川県,海老名市,24 - １,上郷三丁目2491番13（上郷3-8-50東付近）,市道62号線ガードパイプ,35.461178,139.381195,緯度経度は怪しい
神奈川県,海老名市,24 - ２,下今泉一丁目1079番２地先（下今泉1-14-1付近）,市道256号線ガードレール・フェンス,35.4623332,139.3865001,
神奈川県,海老名市,24 - ３,下今泉一丁目17番55号,下今泉コミュニティセンター東側植栽,35.4627421,139.3858831,
神奈川県,海老名市,24 - ４,下今泉一丁目1119番100（下今泉1-24-22付近）,下今泉第二公園南側フェンス,35.4612565,139.3849249,
神奈川県,海老名市,24 - ５,上郷三丁目12番30号,相模三川公園スポーツ広場管理棟フェンス,35.4630397,139.3828483,
