prefecture,city,number,address,name,lat,long,note
東京都,三鷹市,1-1,中原二丁目5番,中原緑地西側,35.6648856,139.5740752,
東京都,三鷹市,1-2,中原一丁目19番,中原一丁目19番先中仙川遊歩道植込,35.6638186,139.573916,
東京都,三鷹市,1-3,中原二丁目22番,中原二丁目22番先中仙川遊歩道植込,35.6650531,139.5720054,
東京都,三鷹市,1-4,中原四丁目8番,中原児童公園,35.6639894,139.5700352,
東京都,三鷹市,1-5,中原四丁目26番,中原雑木林公園,35.6652642,139.566672,
東京都,三鷹市,1-6,中原四丁目34番,中仙川いちょう児童遊園,35.6681584,139.5660352,
東京都,三鷹市,1-7,中原四丁目26番,中原つつじヶ丘児童遊園,35.6652642,139.566672,
東京都,三鷹市,2-1,新川一丁目2番,都営三鷹新川一丁目アパート集会所北側,35.6665906,139.5790112,
東京都,三鷹市,2-2,新川一丁目11番,新川あおやぎ公園西側フェンス,35.6686548,139.5754286,
東京都,三鷹市,2-3,新川一丁目1番,三鷹市東部水再生センター,35.6690107,139.5770208,
東京都,三鷹市,2-4,中原一丁目26番,中原一丁目地区公会堂,35.6656813,139.5762247,
東京都,三鷹市,2-5,新川一丁目11番,新川中原コミュニティ・センター前,35.6686548,139.5754286,
東京都,三鷹市,2-6,新川一丁目7番,第五中学校南側フェンス,35.6707792,139.5774985,
東京都,三鷹市,2-7,新川一丁目7番,第五中学校西側フェンス,35.6707792,139.5774985,
東京都,三鷹市,3-1,中原二丁目12番,中原小学校正門横,35.6702935,139.5709705,
東京都,三鷹市,3-2,中原四丁目17番,中原青少年広場北側,35.6693739,139.5676272,
東京都,三鷹市,3-3,新川四丁目4番,スカイパレスツカサ西側畑,35.6696027,139.5735179,
東京都,三鷹市,3-4,中原二丁目12番,中原小学校北側,35.6702935,139.5709705,
東京都,三鷹市,3-5,中原四丁目17番,中原青少年広場西側,35.6693739,139.5676272,
東京都,三鷹市,3-6,中原二丁目12番,中原小学校西門横,35.6702935,139.5709705,
東京都,三鷹市,3-7,中原二丁目17番,東台小学校東側フェンス,35.6675658,139.5709108,
東京都,三鷹市,4-1,新川四丁目25番,三鷹市新川ポンプ場,35.674138,139.572293,
東京都,三鷹市,4-2,新川四丁目25番,新川・島屋敷通り団地9号棟前駐車場植込,35.674138,139.572293,
東京都,三鷹市,4-3,新川五丁目6番,新川・島屋敷通り団地5号棟北側公園植込,35.675134,139.5716074,
東京都,三鷹市,4-4,新川五丁目6番,新川・島屋敷通り団地7号棟南側植込,35.675134,139.5716074,
東京都,三鷹市,4-5,中原三丁目13番,都営中原三丁目アパート駐車場東側,35.6727711,139.5653984,
東京都,三鷹市,4-6,新川五丁目1番,丸池公園(勝渕神社鳥居前),35.6767645,139.5722804,
東京都,三鷹市,4-7,新川五丁目15番,中原三丁目交差点際,35.6747376,139.5677864,
東京都,三鷹市,4-8,新川五丁目6番,新川・島屋敷通り団地18号棟南側植込,35.675134,139.5716074,
東京都,三鷹市,5-1,北野三丁目9番,北野こりす公園,35.6779023,139.5798869,
東京都,三鷹市,5-2,北野三丁目12番,北野公園南側,35.6785341,139.5786131,
東京都,三鷹市,5-3,北野一丁目7番,東京都水道局三鷹北野8号水源,35.6792136,139.5854007,
東京都,三鷹市,5-4,北野三丁目1番,北野小南側正門横,35.6801483,139.5835857,
東京都,三鷹市,5-5,北野四丁目10番,北野地区公会堂北側,35.6732595,139.5811608,
東京都,三鷹市,5-6,北野三丁目12番,北野公園西側,35.6785341,139.5786131,
東京都,三鷹市,5-7,北野三丁目6番,北野中央公園,35.6749785,139.5811608,
東京都,三鷹市,5-8,北野一丁目9番,北野ハピネスセンター北側フェンス,35.6798497,139.5857789,
東京都,三鷹市,6-1,新川二丁目1番,三鷹新川給水所,35.6803118,139.5773393,
東京都,三鷹市,6-2,新川二丁目12番,第六中学校北側,35.681467,139.5755878,
東京都,三鷹市,6-3,新川六丁目4番,第一小学校北側,35.68201800000001,139.5698561,
東京都,三鷹市,6-4,新川六丁目26番,新川児童公園,35.6825504,139.5676272,
東京都,三鷹市,6-5,新川六丁目7番,仙川平和公園東側,35.6797853,139.5685824,
東京都,三鷹市,6-6,新川二丁目7番,新川谷端児童公園,35.6763402,139.5749509,
東京都,三鷹市,6-7,新川六丁目30番,JA東京むさし三鷹緑化センター北側,35.6814928,139.5657168,
東京都,三鷹市,6-8,新川六丁目7番,仙川平和公園南側,35.6797853,139.5685824,
東京都,三鷹市,7-1,牟礼五丁目8番,市立東部図書館,35.683917,139.579827,
東京都,三鷹市,7-2,牟礼二丁目14番,三鷹台団地2号棟西側,35.6855484,139.5817978,
東京都,三鷹市,7-3,牟礼二丁目5番,宮下橋南東際上水土堤,35.689036,139.5845845,
東京都,三鷹市,7-4,牟礼一丁目14番,牟礼東地区公会堂,35.6852337,139.5870529,
東京都,三鷹市,7-5,牟礼二丁目14番,三鷹台団地13号棟西側,35.6855484,139.5817978,
東京都,三鷹市,7-6,牟礼二丁目13番,三鷹市東多世代交流センター,35.6854854,139.5838381,
東京都,三鷹市,7-7,牟礼二丁目14番,三鷹台団地12号棟東側,35.6855484,139.5817978,
東京都,三鷹市,7-8,牟礼五丁目8番,三鷹のぞみ幼稚園北側,35.683917,139.579827,
東京都,三鷹市,8-1,牟礼六丁目23番,牟礼さくら児童遊園,35.68678999999999,139.5735179,
東京都,三鷹市,8-2,牟礼七丁目1番,牟礼古判塚青少年広場西側,35.6819884,139.5748613,
東京都,三鷹市,8-3,下連雀五丁目2番,東京弘済園フェンス,35.6859693,139.5711297,
東京都,三鷹市,8-4,牟礼七丁目3番,牟礼ひばり野児童公園,35.6830277,139.5759062,
東京都,三鷹市,8-5,牟礼七丁目6番,牟礼コミュニティ・センター前,35.6832553,139.5728631,
東京都,三鷹市,8-6,牟礼六丁目11番,西山産業北側,35.6866565,139.5750473,
東京都,三鷹市,8-7,牟礼七丁目3番,牟礼南児童遊園,35.6830277,139.5759062,
東京都,三鷹市,8-8,牟礼七丁目6番,牟礼コミュニティ・センター南側,35.6832553,139.5728631,
東京都,三鷹市,9-1,牟礼三丁目9番,牟礼地区公会堂南側,35.6887086,139.5800462,
東京都,三鷹市,9-2,牟礼四丁目13番,第三中学校北門横,35.6915711,139.5754286,
東京都,三鷹市,9-3,牟礼四丁目6番,高山小学校グラウンド東側,35.689478,139.5773393,
東京都,三鷹市,9-4,牟礼四丁目17番,第三中学校第二グラウンド南側,35.6908495,139.5739956,
東京都,三鷹市,9-5,牟礼四丁目6番,高山小学校北門横,35.689478,139.5773393,
東京都,三鷹市,9-6,牟礼四丁目15番,明星学園高校西側フェンス,35.6930912,139.5735179,
東京都,三鷹市,9-7,牟礼四丁目1番,都営住宅集会所東側,35.6910001,139.5800462,
東京都,三鷹市,9-8,牟礼四丁目15番,明星学園高校東側フェンス,35.6930912,139.5735179,
東京都,三鷹市,10-1,井の頭二丁目13番,井の頭福祉住宅ピアいのかしら東側,35.6920464,139.5871425,
東京都,三鷹市,10-2,井の頭二丁目11番,宮下橋北西際上水土堤,35.69019189999999,139.5851419,
東京都,三鷹市,10-3,井の頭一丁目3番,井の頭東部地区公会堂,35.6896108,139.5915122,
東京都,三鷹市,10-4,井の頭一丁目6番,國學院大學久我山中学高等学校第三グラウンド北東側フェンス,35.6877635,139.5911937,
東京都,三鷹市,10-5,井の頭一丁目19番,東京電力三鷹台変電所北側,35.6878614,139.5875307,
東京都,三鷹市,10-6,井の頭一丁目9番,井の頭東児童遊園,35.6878705,139.5894617,
東京都,三鷹市,10-7,井の頭一丁目3番,三鷹台児童公園,35.6896108,139.5915122,
東京都,三鷹市,10-8,井の頭一丁目4番,三鷹市井の頭ポンプ場西側,35.6884327,139.5908552,
東京都,三鷹市,11-1,井の頭三丁目35番,井の頭公園駅前駐在所向,35.697653,139.5825144,
東京都,三鷹市,11-2,井の頭三丁目3番,井の頭第一駐輪場,35.6960042,139.5841068,
東京都,三鷹市,11-3,井の頭二丁目34番,第五小学校東側プール前,35.6922155,139.5816386,
東京都,三鷹市,11-4,井の頭三丁目16番,井の頭上水北児童遊園,35.6924818,139.5805239,
東京都,三鷹市,11-5,井の頭二丁目34番,第五小学校北側フェンス,35.6922155,139.5816386,
東京都,三鷹市,11-6,井の頭二丁目32番,井の頭コミュニティ・センター本館西側,35.693688,139.5838679,
東京都,三鷹市,11-7,井の頭三丁目35番,井の頭公園駅コイン駐車場東側空地,35.697653,139.5825144,
東京都,三鷹市,12-1,井の頭四丁目4番,井の頭つくし児童遊園,35.6960272,139.5797277,
東京都,三鷹市,12-2,井の頭五丁目21番,井の頭野草児童遊園,35.6943901,139.5740752,
東京都,三鷹市,12-3,井の頭五丁目7番,明星学園小学校南側フェンス,35.6952064,139.5773393,
東京都,三鷹市,12-4,井の頭五丁目17番,井の頭恩賜公園南入口,35.6962123,139.5741548,
東京都,三鷹市,12-5,井の頭五丁目17番,井の頭恩賜公園東入口,35.6962123,139.5741548,
東京都,三鷹市,12-6,井の頭五丁目7番,明星学園中学校西側フェンス,35.6952064,139.5773393,
東京都,三鷹市,12-7,井の頭五丁目22番,井の頭新橋児童遊園北側,35.6943608,139.5747121,
東京都,三鷹市,13-1,下連雀二丁目12番,有三記念館向上水土堤(歩道側),35.6994479,139.5676272,
東京都,三鷹市,13-2,下連雀二丁目10番,むらさき児童公園東側,35.6960406,139.5669904,
東京都,三鷹市,13-3,下連雀一丁目1番,万助橋バス停際遊歩道植込,35.6962303,139.5706521,
東京都,三鷹市,13-4,下連雀一丁目25番,第四小学校東門横,35.6952515,139.5685824,
東京都,三鷹市,13-5,下連雀一丁目10番,下連雀ふじの木児童遊園,35.6918644,139.56906,
東京都,三鷹市,13-6,下連雀一丁目25番,第四小学校北側,35.6952515,139.5685824,
東京都,三鷹市,13-7,下連雀一丁目9番,下連雀きつねくぼ児童遊園,35.6917562,139.5698561,
東京都,三鷹市,13-8,下連雀一丁目18番,下連雀一丁目18番先上水土堤(歩道側),35.6992417,139.5697765,
東京都,三鷹市,14-1,下連雀三丁目7番,下連雀三丁目7番先上水土堤(歩道側),35.7007281,139.5637154,
東京都,三鷹市,14-2,下連雀四丁目4番,下連雀つぼみ児童遊園,35.6962862,139.5647617,
東京都,三鷹市,14-3,下連雀四丁目9番,下連雀あじさい児童遊園,35.6960584,139.5634881,
東京都,三鷹市,14-4,下連雀三丁目1番,むらさき橋際上水土堤(歩道側),35.7001788,139.5659357,
東京都,三鷹市,14-5,下連雀三丁目3番,下連雀三丁目3番先上水土堤(歩道側),35.6994697,139.5649109,
東京都,三鷹市,14-6,下連雀三丁目14番,下連雀三丁目14番先上水土堤(歩道側),35.7002502,139.562938,
東京都,三鷹市,14-7,下連雀三丁目6番,下連雀児童公園,35.6998804,139.5644433,
東京都,三鷹市,15-1,下連雀三丁目37番,禅林寺通り第2駐輪場,35.7006601,139.5601253,
東京都,三鷹市,15-2,下連雀三丁目45番,三鷹駅南口西側構内フェンス,35.7025334,139.5596677,
東京都,三鷹市,15-3,下連雀三丁目21番,さくら通り第2駐輪場,35.6994246,139.5618962,
東京都,三鷹市,15-4,下連雀三丁目40番,masked,35.6981096,139.5593493,
東京都,三鷹市,15-5,下連雀三丁目21番,さくら通り第1駐輪場,35.6994246,139.5618962,
東京都,三鷹市,15-6,下連雀三丁目32番,東京点字出版所,35.6991538,139.5605739,
東京都,三鷹市,15-7,下連雀三丁目30番,市立しろがね通り第一駐輪場,35.6979826,139.5613391,
東京都,三鷹市,15-8,下連雀三丁目24番,下連雀三丁目24番先上水土堤(歩道側),35.7019623,139.5619758,
東京都,三鷹市,16-1,上連雀二丁目7番,上連雀あんず児童遊園,35.7004588,139.5580759,
東京都,三鷹市,16-2,上連雀二丁目21番,三鷹もりのこ保育園向フェンス,35.70252139999999,139.5568025,
東京都,三鷹市,16-3,上連雀三丁目16番,上連雀すずかけ児童遊園,35.701436,139.551192,
東京都,三鷹市,16-4,上連雀三丁目1番,電車庫通り駐輪場,35.7012201,139.5527836,
東京都,三鷹市,16-5,上連雀三丁目1番,上連雀三丁目暫定集合施設前,35.7012201,139.5527836,
東京都,三鷹市,16-6,上連雀二丁目17番,上五会館向駐車場,35.7013015,139.5560863,
東京都,三鷹市,16-7,上連雀二丁目12番,上連雀新道北地区公会堂,35.700432,139.556902,
東京都,三鷹市,17-1,下連雀四丁目13番,タイムズ下連雀第18駐車場向,35.6935395,139.5622146,
東京都,三鷹市,17-2,下連雀四丁目8番,下連雀四丁目8番緑地,35.6925716,139.56312,
東京都,三鷹市,17-3,下連雀四丁目18番,八幡神社バス停横,35.6939925,139.5601452,
東京都,三鷹市,17-4,下連雀四丁目6番,下連雀しらかば児童公園,35.69332320000001,139.5638065,
東京都,三鷹市,17-5,下連雀四丁目19番,下連雀きたうら児童公園,35.6964759,139.5600457,
東京都,三鷹市,17-6,下連雀四丁目15番,コーポレート連雀40東側,35.6961461,139.5615779,
東京都,三鷹市,17-7,下連雀四丁目14番,NTT三鷹ビル前,35.6935687,139.5615779,
東京都,三鷹市,18-1,上連雀四丁目26番,上連雀児童公園,35.697935,139.5558376,
東京都,三鷹市,18-2,上連雀五丁目16番,水源の森あけぼのふれあい公園東側,35.6978578,139.5523459,
東京都,三鷹市,18-3,上連雀四丁目11番,あけぼの保育園南側,35.6937441,139.5577576,
東京都,三鷹市,18-4,上連雀四丁目18番,第四中学校西側フェンス,35.6958859,139.556325,
東京都,三鷹市,18-5,上連雀四丁目18番,第四中学校正門横,35.6958859,139.556325,
東京都,三鷹市,18-6,上連雀四丁目12番,第三小学校東側,35.6952548,139.5575984,
東京都,三鷹市,18-7,上連雀四丁目12番,masked,35.6952548,139.5575984,
東京都,三鷹市,18-8,上連雀四丁目1番,福祉コアかみれん駐車場フェンス,35.6974478,139.5589514,
東京都,三鷹市,19-1,下連雀六丁目6番,下連雀みなみうら児童公園,35.689138,139.5676272,
東京都,三鷹市,19-2,下連雀八丁目2番,下連雀そよかぜ児童遊園,35.6857715,139.5678461,
東京都,三鷹市,19-3,下連雀六丁目13番,第六小学校裏門南,35.688396,139.56508,
東京都,三鷹市,19-4,下連雀五丁目4番,杏林大学井の頭キャンパス南側フェンス,35.6852477,139.5696968,
東京都,三鷹市,19-5,下連雀六丁目13番,第六小学校正門横,35.688396,139.56508,
東京都,三鷹市,19-6,下連雀六丁目16番,都営下連雀六丁目アパート1号棟東側,35.690712,139.5653188,
東京都,三鷹市,19-7,下連雀八丁目10番,下連雀みなみ児童遊園,35.686628,139.5646025,
東京都,三鷹市,19-8,下連雀五丁目7番,NTTDATA三鷹ビル吉祥寺通り敷地内,35.6886027,139.5692298,
東京都,三鷹市,20-1,下連雀七丁目9番,下連雀児童遊園,35.688256,139.5618962,
東京都,三鷹市,20-2,下連雀七丁目2番,都営下連雀七丁目第3アパート2号棟東側,35.6893138,139.5638065,
東京都,三鷹市,20-3,下連雀七丁目17番,東京電力三鷹変電所西側,35.6897758,139.5599861,
東京都,三鷹市,20-4,下連雀七丁目5番,下連雀けやき広場南側,35.6900737,139.5628514,
東京都,三鷹市,20-5,下連雀七丁目17番,大成高校グランド南側フェンス,35.6897758,139.5599861,
東京都,三鷹市,20-6,下連雀七丁目17番,大成高校グランド西側バス停際フェンス,35.6897758,139.5599861,
東京都,三鷹市,20-7,下連雀七丁目15番,連雀コミュニティ・センター北側,35.6921661,139.5609411,
東京都,三鷹市,21-1,下連雀九丁目9番,下連雀市民ゲートボール場,35.6859242,139.5596677,
東京都,三鷹市,21-2,下連雀九丁目9番,南浦小学校東門横,35.6859242,139.5596677,
東京都,三鷹市,21-3,下連雀九丁目10番,第一中学校テニスコート西側植込,35.6851439,139.5595085,
東京都,三鷹市,21-4,上連雀八丁目26番,山中第2児童遊園北側,35.6867412,139.5551313,
東京都,三鷹市,21-5,下連雀九丁目3番,下連雀ひかり児童遊園,35.6849529,139.5624932,
東京都,三鷹市,21-6,上連雀八丁目3番,三鷹市立図書館本館西側,35.684995,139.5580759,
東京都,三鷹市,21-7,上連雀八丁目21番,山中地区公会堂東側,35.6853736,139.5552904,
東京都,三鷹市,21-8,上連雀八丁目12番,上連雀のぞみ児童遊園,35.684174,139.5556883,
東京都,三鷹市,22-1,上連雀七丁目26番,神明社前,35.6938491,139.5523459,
東京都,三鷹市,22-2,上連雀七丁目29番,上連雀みどり児童遊園東側,35.692708,139.5514705,
東京都,三鷹市,22-3,上連雀七丁目7番,第七小学校東門横,35.6924583,139.5545742,
東京都,三鷹市,22-4,上連雀七丁目7番,第七小学校西門横,35.6924583,139.5545742,
東京都,三鷹市,22-5,上連雀六丁目23番,上連雀こだま児童遊園東側,35.6903121,139.5568821,
東京都,三鷹市,22-6,上連雀六丁目14番,連雀中央公園西側,35.6916212,139.5579963,
東京都,三鷹市,22-7,上連雀六丁目14番,連雀中央公園東側,35.6916212,139.5579963,
東京都,三鷹市,22-8,上連雀七丁目8番,上連雀交通公園東側,35.693851,139.553281,
東京都,三鷹市,23-1,上連雀九丁目5番,山中第1児童遊園西側,35.6850522,139.5544946,
東京都,三鷹市,23-2,上連雀九丁目16番,上連雀なかよし児童遊園東側,35.6859099,139.5521867,
東京都,三鷹市,23-3,上連雀九丁目41番,三鷹上連雀給水所東側フェンス,35.6872716,139.5505952,
東京都,三鷹市,23-4,野崎二丁目13番,なんじゃもんじゃの森東側ネットフェンス,35.6853341,139.5475713,
東京都,三鷹市,23-5,上連雀九丁目25番,上連雀くすのき児童遊園北側,35.68804739999999,139.5516297,
東京都,三鷹市,23-6,上連雀九丁目29番,上連雀みなみ児童公園北側,35.6841712,139.5510726,
東京都,三鷹市,23-7,野崎二丁目4番,野崎地区公会堂西側,35.6842091,139.5486854,
東京都,三鷹市,23-8,井口二丁目11番,聖徳学園三鷹キャンパス東側,35.6883263,139.5478896,
東京都,三鷹市,24-1,井口三丁目13番,井口北児童遊園,35.6959749,139.5434337,
東京都,三鷹市,24-2,井口三丁目8番,井口すぎな児童遊園,35.6916801,139.5434337,
東京都,三鷹市,24-3,井口三丁目7番,井口小学校西門横,35.6915721,139.5442293,
東京都,三鷹市,24-4,井口一丁目14番,井口東児童遊園,35.6943103,139.5485262,
東京都,三鷹市,24-5,井口一丁目22番,井口あさかぜ児童遊園,35.6922648,139.5462982,
東京都,三鷹市,24-6,井口一丁目13番,井口コミュニティ・センターテニスコート西側フェンス,35.6928828,139.5482786,
東京都,三鷹市,24-7,井口一丁目12番,masked,35.690173,139.5482079,
東京都,三鷹市,24-8,井口一丁目6番,井口特設グラウンド東側フェンス,35.6931067,139.5497994,
東京都,三鷹市,25-1,井口五丁目4番,井口第2都営児童遊園,35.6963527,139.5351592,
東京都,三鷹市,25-2,深大寺一丁目10番,深大寺ひばり児童遊園,35.6923588,139.5403306,
東京都,三鷹市,25-3,井口四丁目12番,井口太陽の広場児童遊園西側,35.6914151,139.5335681,
東京都,三鷹市,25-4,井口四丁目12番,都営三鷹井ロアパート5号棟西側,35.6914151,139.5335681,
東京都,三鷹市,25-5,深大寺三丁目3番,西野保育園南側,35.6918424,139.5367504,
東京都,三鷹市,25-6,深大寺一丁目16番,深大寺北児童遊園(鶏鳴幼稚園北側),35.6932552,139.5379437,
東京都,三鷹市,25-7,深大寺一丁目13番,深大寺居村児童遊園西側グランド,35.6907385,139.538978,
東京都,三鷹市,25-8,深大寺三丁目16番,都営深大寺児童遊園南側,35.6907947,139.5353979,
東京都,三鷹市,26-1,野崎三丁目8番,野崎かきの木児童公園東側,35.6819431,139.5417031,
東京都,三鷹市,26-2,野崎三丁目14番,第二中学校入口横塀,35.6867334,139.5435928,
東京都,三鷹市,26-3,野崎三丁目19番,第二小学校入口横植込,35.6855675,139.5424788,
東京都,三鷹市,26-4,井口二丁目15番,井口矢崎新田児童遊園西側,35.68799449999999,139.5465369,
東京都,三鷹市,26-5,深大寺二丁目10番,東野第2児童遊園北側,35.6904662,139.5441498,
東京都,三鷹市,26-6,深大寺二丁目3番,三鷹市西多世代交流センター南側,35.688719,139.5447863,
東京都,三鷹市,26-7,深大寺二丁目6番,東野児童公園西側,35.6895137,139.5446272,
東京都,三鷹市,26-8,深大寺二丁目29番,三鷹市高齢者センターけやき苑,35.6852108,139.5408875,
東京都,三鷹市,27-1,大沢三丁目4番,大沢地区公会堂南側,35.6816614,139.5347614,
東京都,三鷹市,27-2,大沢二丁目6番,大沢台小学校正門横,35.6802108,139.5359548,
東京都,三鷹市,27-3,大沢二丁目8番,大沢のびのび児童遊園西側,35.680348,139.5345228,
東京都,三鷹市,27-4,大沢二丁目17番,大沢の里駐輪場付近,35.6787258,139.5308633,
東京都,三鷹市,27-5,大沢二丁目11番,第七中学校東側,35.6777794,139.5327726,
東京都,三鷹市,27-6,大沢一丁目11番,大沢高台児童遊園南側,35.6754866,139.5404301,
東京都,三鷹市,27-7,大沢三丁目10番,大沢むつみ児童遊園,35.6877303,139.5352491,
東京都,三鷹市,27-8,大沢六丁目6番,市営大沢住宅北側,35.6780517,139.5276018,
東京都,三鷹市,28-1,大沢四丁目9番,羽沢小学校東門横フェンス,35.6699923,139.5386598,
東京都,三鷹市,28-2,大沢二丁目20番,大沢崖の道児童遊園,35.67491589999999,139.5327726,
東京都,三鷹市,28-3,大沢五丁目21番,野川大沢調節池フェンス,35.6715378,139.5314997,
東京都,三鷹市,28-4,大沢四丁目25番,大沢コミュニティ・センター北側,35.668461,139.5377051,
東京都,三鷹市,28-5,大沢四丁目20番,大沢四丁目児童遊園西側フェンス,35.6656209,139.5394256,
東京都,三鷹市,28-6,大沢四丁目9番,羽沢小学校西側フェンス,35.6699923,139.5386598,
東京都,三鷹市,28-7,大沢四丁目25番,大沢コミュニティ・センター西側,35.668461,139.5377051,
東京都,三鷹市,28-8,大沢五丁目7番,都立武蔵野の森公園 (大沢総合グラウンド北側フェンス),35.668873,139.533409,
東京都,三鷹市,29-1,上連雀一丁目6番,メゾンリーヴル向JRフェンス,35.7036667,139.5568025,
東京都,三鷹市,29-2,上連雀一丁目10番,電車庫歩道橋下フェンス,35.703398,139.554946,
東京都,三鷹市,29-3,上連雀一丁目15番,上連雀堀合地区公会堂,35.7030387,139.552147,
東京都,三鷹市,29-4,上連雀一丁目15番,堀合児童公園北側,35.7030387,139.552147,
東京都,三鷹市,29-5,上連雀一丁目19番,上連雀一丁目19番先堀合遊歩道植込,35.7056758,139.550436,
東京都,三鷹市,29-6,上連雀一丁目15番,堀合児童公園南側,35.7030387,139.552147,
東京都,三鷹市,29-7,上連雀一丁目22番,堀合遊歩道公園西側,35.7029122,139.551391,
東京都,三鷹市,30-1,下連雀八丁目4番,下連雀いこいの広場,35.6847922,139.5671496,
東京都,三鷹市,30-2,野崎一丁目1番,三鷹市役所正面玄関横,35.6831888,139.5599861,
東京都,三鷹市,30-3,野崎一丁目1番,三鷹市第二庁舎東門横,35.6831888,139.5599861,
東京都,三鷹市,30-4,新川六丁目35番,シルバー人材センター東側フェンス,35.6825968,139.563707,
東京都,三鷹市,30-5,下連雀八丁目7番,三鷹ハイテクセンター東側フェンス,35.6854823,139.5646025,
東京都,三鷹市,30-6,新川六丁目37番,三鷹中央防災公園・元気創造プラザ北側,35.6819259,139.562533,
東京都,三鷹市,30-7,野崎一丁目11番,野崎吉野東児童遊園西側,35.6833237,139.5539375,
