prefecture,city,number,address,name,lat,long
東京都,世田谷区,1-1,池尻3丁目27番,池尻三丁目公園南側,35.649602,139.6790439
東京都,世田谷区,1-2,池尻3丁目10番10号,masked,35.6512992,139.6801555
東京都,世田谷区,1-3,池尻3丁目10番10号,masked,35.6512992,139.6801555
東京都,世田谷区,1-4,池尻4丁目22番,池尻見晴し広場西側,35.6527937,139.6789343
東京都,世田谷区,1-5,池尻3丁目27番,池尻三丁目公園北側,35.649602,139.6790439
東京都,世田谷区,1-6,池尻3丁目1番18号,池尻クラブ南側,35.6511465,139.682687
東京都,世田谷区,1-7,池尻4丁目7番1号,筑波大学附属駒場中・高等学校西側,35.65493980000001,139.6809897
東京都,世田谷区,1-8,池尻3丁目1番先,三菱UFJ銀行池尻ビル北側,35.6512658,139.6831612
東京都,世田谷区,2-1,池尻1丁目1番4号,旧都立青鳥特別支援学校南側,35.6415788,139.6844523
東京都,世田谷区,2-2,池尻1丁目5番,世田谷公園東側（自衛隊中央病院前）,35.6439318,139.6804684
東京都,世田谷区,2-3,池尻1丁目5番,世田谷公園東側（旧東京都立青鳥特別支援学校前）,35.6439318,139.6804684
東京都,世田谷区,2-4,池尻2丁目4番10号,池尻小学校西側,35.6458976,139.6794503
東京都,世田谷区,2-5,池尻2丁目3番,都営池尻二丁目アパート８号棟南側,35.647082,139.683724
東京都,世田谷区,2-6,池尻1丁目5番,世田谷公園駐車場北側,35.6439318,139.6804684
東京都,世田谷区,2-7,池尻2丁目4番10号,池尻小学校南側,35.6458976,139.6794503
東京都,世田谷区,2-8,池尻2丁目4番10号,池尻２丁目体育館東側,35.6458976,139.6794503
東京都,世田谷区,3-1,三宿2丁目26番11号,多聞小学校南側,35.6525964,139.6739124
東京都,世田谷区,3-2,三宿1丁目12番6号,三宿小学校東側,35.6482153,139.6764312
東京都,世田谷区,3-3,三宿2丁目27番27号,三宿の森緑地北側,35.6508601,139.6735504
東京都,世田谷区,3-4,三宿1丁目29番先,烏山川緑道,35.6504889,139.6746279
東京都,世田谷区,3-5,三宿2丁目26番11号,多聞小学校東側,35.6525964,139.6739124
東京都,世田谷区,3-6,三宿2丁目27番27号,三宿の森緑地西側,35.6508601,139.6735504
東京都,世田谷区,3-7,三宿1丁目12番6号,三宿小学校西側,35.6482153,139.6764312
東京都,世田谷区,3-8,三宿1丁目6番先,烏山川緑道（三宿橋西）,35.6507581,139.6772595
東京都,世田谷区,4-1,太子堂5丁目7番4号,太子堂小学校東側,35.6462449,139.6674265
東京都,世田谷区,4-2,太子堂3丁目27番17号,太子堂中学校北側,35.6508127,139.6692636
東京都,世田谷区,4-3,太子堂5丁目24番27号,太子堂保育園北側,35.6490846,139.6660183
東京都,世田谷区,4-4,太子堂3丁目1番30号,したのやばし公園東側,35.6489906,139.6719602
東京都,世田谷区,4-5,太子堂5丁目23番4号,太子堂八幡広場南側,35.6474276,139.665732
東京都,世田谷区,4-6,太子堂3丁目27番17号,太子堂中学校西側,35.6508127,139.6692636
東京都,世田谷区,4-7,太子堂5丁目7番4号,太子堂小学校南側,35.6462449,139.6674265
東京都,世田谷区,4-8,太子堂3丁目27番17号,太子堂中学校東側,35.6508127,139.6692636
東京都,世田谷区,5-1,太子堂2丁目6番33号,太子堂二丁目郵政宿舎東側,35.6466096,139.6738852
東京都,世田谷区,5-2,太子堂4丁目6番8号,第二たちばな荘西側,35.6436325,139.6663061
東京都,世田谷区,5-3,太子堂2丁目17番,三軒茶屋ふれあい広場東側,35.6452946,139.6705809
東京都,世田谷区,5-4,太子堂4丁目15番1号,目青不動教学院北側,35.6449039,139.6682916
東京都,世田谷区,5-5,太子堂2丁目31番先,烏山川緑道（一善橋脇）,35.6473423,139.6714381
東京都,世田谷区,5-6,太子堂2丁目20番3号,太子堂やまもも公園東側,35.6451104,139.6720512
東京都,世田谷区,5-7,太子堂2丁目6番,太子堂サクラ通り広場北側,35.6460145,139.6741468
東京都,世田谷区,5-8,太子堂2丁目38番,烏山川緑道（山中橋北）,35.6486026,139.6720761
東京都,世田谷区,6-1,太子堂1丁目13番15号,財務省太子堂公務員宿舎西側,35.6435334,139.673269
東京都,世田谷区,6-2,三軒茶屋1丁目4番1号,中里小学校西側,35.6391165,139.6742715
東京都,世田谷区,6-3,三軒茶屋1丁目23番4号,三軒茶屋保育園南側,35.6405928,139.6697424
東京都,世田谷区,6-4,太子堂1丁目3番46号,太子堂調理場東側,35.6453617,139.6784125
東京都,世田谷区,6-5,三軒茶屋1丁目4番1号,中里小学校南側,35.6391165,139.6742715
東京都,世田谷区,6-6,三軒茶屋1丁目10番11号,正蓮寺南側,35.6401502,139.671888
東京都,世田谷区,6-7,太子堂1丁目15番,masked,35.6414996,139.6736514
東京都,世田谷区,6-8,太子堂1丁目13番15号,財務省太子堂公務員宿舎北側,35.6435334,139.673269
東京都,世田谷区,7-1,三軒茶屋2丁目33番18号,世田谷丸山公園北側,35.6411071,139.6660957
東京都,世田谷区,7-2,三軒茶屋2丁目43番先,蛇崩川緑道（三軒茶屋小学校北）,35.6406851,139.6629065
東京都,世田谷区,7-3,三軒茶屋2丁目7番8号,防衛省共済組合三軒茶屋独身寮,35.6418893,139.6674916
東京都,世田谷区,7-4,三軒茶屋2丁目27番8号,三軒茶屋公園北側,35.6421409,139.6640526
東京都,世田谷区,7-5,三軒茶屋2丁目42番1号,三軒茶屋小学校北側,35.6406044,139.6632852
東京都,世田谷区,7-6,三軒茶屋2丁目47番先,蛇崩川緑道（環七通り沿い）,35.6404193,139.6617105
東京都,世田谷区,7-7,三軒茶屋2丁目1番先,蛇崩川緑道（世田谷警察北）,35.6401555,139.6680094
東京都,世田谷区,7-8,三軒茶屋2丁目42番1号,三軒茶屋小学校東側,35.6406044,139.6632852
東京都,世田谷区,8-1,若林1丁目38番先,烏山川緑道,35.6461175,139.6644911
東京都,世田谷区,8-2,若林2丁目27番16号,masked,35.6482627,139.6639768
東京都,世田谷区,8-3,若林1丁目32番,若林ふれあいひろば公園東側,35.6470392,139.6631058
東京都,世田谷区,8-4,若林1丁目35番,東京電力(株)東世田谷変電所北側,35.6459363,139.6633051
東京都,世田谷区,8-5,若林2丁目29番8号,東京電力(株)NO.55鉄塔西側,35.6492591,139.6646243
東京都,世田谷区,8-6,若林1丁目14番3号,世田谷若葉幼稚園南側,35.6439805,139.6621192
東京都,世田谷区,8-7,若林2丁目29番8号,東京電力(株)NO.55鉄塔北側,35.6492591,139.6646243
東京都,世田谷区,8-8,若林2丁目1番,烏山川緑道,35.6459293,139.6653383
東京都,世田谷区,9-1,若林4丁目6番先,烏山川緑道（谷中橋東側）,35.646702,139.6588803
東京都,世田谷区,9-2,若林3丁目34番16号,若林天満宮東側,35.6451306,139.6604548
東京都,世田谷区,9-3,若林3丁目11番先,緑の小道,35.6436673,139.6555021
東京都,世田谷区,9-4,若林5丁目38番1号,教育総合センター東側,35.650328,139.6592247
東京都,世田谷区,9-5,若林3丁目10番,UR都市機構世田谷通りシティハイツ若林北側,35.6423313,139.6584418
東京都,世田谷区,9-6,若林5丁目27番18号,若林小学校西側,35.6494457,139.6578489
東京都,世田谷区,9-7,若林3丁目10番,UR都市機構世田谷通りシティハイツ若林東側,35.6423313,139.6584418
東京都,世田谷区,9-8,若林5丁目18番13号,若林児童館南側,35.6486311,139.6569784
東京都,世田谷区,10-1,梅丘3丁目8番1号,世田谷中学校北側,35.6504528,139.6549333
東京都,世田谷区,10-2,代田3丁目27番20号,旧代田保育園南側,35.6550577,139.6585
東京都,世田谷区,10-3,代田3丁目30番16号,すみれ公園北側,35.6544254,139.6571164
東京都,世田谷区,10-4,梅丘3丁目9番1号,山崎小学校西側,35.6511751,139.65482
東京都,世田谷区,10-5,梅丘3丁目2番1号,道路予定地南側,35.6499072,139.6577908
東京都,世田谷区,10-6,梅丘3丁目8番1号,世田谷中学校東側,35.6504528,139.6549333
東京都,世田谷区,10-7,梅丘3丁目8番1号,世田谷中学校南側,35.6504528,139.6549333
東京都,世田谷区,11-1,若林4丁目41番13号,若林こども公園南側,35.6486234,139.6555918
東京都,世田谷区,11-2,若林4丁目34番,若林公園北西側,35.6472297,139.6549341
東京都,世田谷区,11-3,世田谷4丁目22番,世田谷区役所西棟北側,35.6468681,139.6514066
東京都,世田谷区,11-4,世田谷4丁目22番,世田谷区役所第二庁舎南側,35.6468681,139.6514066
東京都,世田谷区,11-5,世田谷4丁目21番27号,世田谷区役所東棟北側工事フェンス,35.6459934,139.6529117
東京都,世田谷区,11-6,若林4丁目34番,若林公園北側,35.6472297,139.6549341
東京都,世田谷区,11-7,世田谷4丁目2番2号,世田谷四丁目公園西側,35.6433826,139.6551732
東京都,世田谷区,11-8,世田谷4丁目7番16号,世田谷駅南自転車等駐車場東側,35.642823,139.6505807
東京都,世田谷区,11-9,世田谷4丁目22番,世田谷４－２２事務所西側,35.6468681,139.6514066
東京都,世田谷区,12-1,弦巻1丁目9番18号,弦巻小学校南側,35.6398583,139.6525276
東京都,世田谷区,12-2,世田谷1丁目15番,駐車場南側,35.6423196,139.651038
東京都,世田谷区,12-3,弦巻1丁目9番18号,弦巻小学校西側,35.6398583,139.6525276
東京都,世田谷区,12-4,弦巻1丁目9番18号,弦巻小学校東側,35.6398583,139.6525276
東京都,世田谷区,12-5,弦巻1丁目9番18号,弦巻小学校北側,35.6398583,139.6525276
東京都,世田谷区,12-6,世田谷1丁目8番,(株)松栄運輸世田谷車庫脇フェンス,35.640813,139.6534194
東京都,世田谷区,13-1,弦巻2丁目23番1号,事務センター南側,35.6364183,139.6531275
東京都,世田谷区,13-2,弦巻1丁目42番22号,弦巻中学校東側,35.6373351,139.6494015
東京都,世田谷区,13-3,弦巻1丁目42番22号,弦巻中学校南側,35.6373351,139.6494015
東京都,世田谷区,13-4,弦巻2丁目29番,東弦巻保育園南側,35.6355636,139.6512871
東京都,世田谷区,13-5,弦巻1丁目42番22号,弦巻中学校西側,35.6373351,139.6494015
東京都,世田谷区,13-6,弦巻1丁目51番12号,世田谷清掃事務所弦巻分室北側,35.6377213,139.6477522
東京都,世田谷区,13-7,弦巻2丁目15番,弦巻二丁目広場南側,35.6342562,139.6533397
東京都,世田谷区,13-8,弦巻1丁目26番11号,弦巻区民センター遊び場南側,35.6369659,139.6518248
東京都,世田谷区,14-1,弦巻3丁目23番12号,松丘小学校北側,35.6389337,139.6447609
東京都,世田谷区,14-2,弦巻3丁目23番12号,松丘小学校西側,35.6389337,139.6447609
東京都,世田谷区,14-3,弦巻4丁目32番1号,区営弦巻四丁目アパ－ト１号棟北側,35.6382792,139.6422826
東京都,世田谷区,14-4,弦巻3丁目10番17号,弦巻三丁目公園北側,35.6348604,139.6457074
東京都,世田谷区,14-5,弦巻3丁目15番5号,弦巻保育園東側,35.6367585,139.64499
東京都,世田谷区,14-6,弦巻4丁目21番,弦巻４－２１北側,35.6369011,139.643117
東京都,世田谷区,14-7,弦巻3丁目16番,教育会館東側,35.6378345,139.6444122
東京都,世田谷区,14-8,弦巻3丁目15番1号,弦巻どんぐり山公園北側,35.6371802,139.6451909
東京都,世田谷区,15-1,弦巻5丁目31番,日本中央競馬会弦巻公園南側,35.6375628,139.6380361
東京都,世田谷区,15-2,弦巻5丁目26番,masked,35.6380381,139.6370798
東京都,世田谷区,15-3,弦巻5丁目28番,馬事公苑関係者駐車場西側,35.6370797,139.6361235
東京都,世田谷区,15-4,弦巻5丁目13番,松丘公園南側,35.63830240000001,139.6405865
東京都,世田谷区,15-5,弦巻5丁目21番10号,松丘幼稚園南側,35.6379123,139.6386809
東京都,世田谷区,15-6,弦巻5丁目10番23号,世田谷いちい保育園東側,35.6371769,139.6403295
東京都,世田谷区,15-7,弦巻5丁目36番18号,弦巻五丁目放置自転車等保管所北側,35.6358339,139.6383051
東京都,世田谷区,15-8,弦巻5丁目13番,松丘公園北側,35.63830240000001,139.6405865
東京都,世田谷区,16-1,世田谷2丁目4番15号,桜小学校西側,35.6427152,139.6457287
東京都,世田谷区,16-2,世田谷2丁目30番16号,上町児童館東側,35.6430675,139.6428604
東京都,世田谷区,16-3,世田谷2丁目25番10号,世田谷地区会館西側,35.6407924,139.6405008
東京都,世田谷区,16-4,桜3丁目19番10号,masked,35.6407168,139.634741
東京都,世田谷区,16-5,桜3丁目33番,東京農業大学稲花小学校北側,35.641777,139.6353266
東京都,世田谷区,16-6,世田谷1丁目38番20号,浄光寺南側,35.6403087,139.6469262
東京都,世田谷区,16-7,世田谷3丁目11番3号,東京医療保健大学本館北側,35.6440033,139.6478259
東京都,世田谷区,16-8,世田谷3丁目12番19号,東京医療保健大学別館東側,35.6437068,139.6481957
東京都,世田谷区,17-1,桜1丁目48番15号,桜木中学校東側,35.6461349,139.6422801
東京都,世田谷区,17-2,桜1丁目27番28号,桜木ふれあい緑地東側,35.6447641,139.6427089
東京都,世田谷区,17-3,桜2丁目18番3号,区立桜保育園東側,35.642715,139.6355308
東京都,世田谷区,17-4,桜2丁目3番4号,桜みんなの公園南側,35.6426166,139.6365219
東京都,世田谷区,17-5,桜2丁目18番,和光小学校北側,35.6435565,139.6357848
東京都,世田谷区,17-6,桜1丁目48番15号,桜木中学校南側,35.6461349,139.6422801
東京都,世田谷区,17-7,桜2丁目3番4号,桜みんなの公園西側,35.6426166,139.6365219
東京都,世田谷区,17-8,桜1丁目48番15号,桜木中学校北側,35.6461349,139.6422801
東京都,世田谷区,18-1,豪徳寺2丁目24番7号,豪徳寺北側,35.6481349,139.6469827
東京都,世田谷区,18-2,豪徳寺2丁目24番7号,豪徳寺南側,35.6481349,139.6469827
東京都,世田谷区,18-3,梅丘2丁目1番11号,城山小学校西側,35.6486724,139.6506445
東京都,世田谷区,18-4,梅丘2丁目1番11号,城山小学校南側,35.6486724,139.6506445
東京都,世田谷区,18-5,豪徳寺2丁目24番7号,豪徳寺東側,35.6481349,139.6469827
東京都,世田谷区,18-6,豪徳寺2丁目10番,駐車場北側,35.6479562,139.6494337
東京都,世田谷区,18-7,豪徳寺2丁目14番1号,世田谷城阯公園東側,35.6467803,139.6468233
東京都,世田谷区,19-1,代田1丁目26番19号,天理教本月分教会東側,35.6533267,139.6618429
東京都,世田谷区,19-2,代田1丁目10番6号,都営代田一丁目第２アパート６号棟東側,35.6518847,139.660714
東京都,世田谷区,19-3,代田1丁目26番19号,天理教本月分教会北側,35.6533267,139.6618429
東京都,世田谷区,19-4,代田2丁目17番3号,円乗院東側,35.6553756,139.6610377
東京都,世田谷区,19-5,代田1丁目13番14号,花見堂複合施設北側,35.6580202,139.6592425
東京都,世田谷区,19-6,代田1丁目13番14号,花見堂複合施設南側,35.6580202,139.6592425
東京都,世田谷区,19-7,代田1丁目23番1号,代田南広場東側,35.6528761,139.6605944
東京都,世田谷区,20-1,梅丘1丁目8番8号,masked,35.6540944,139.6540028
東京都,世田谷区,20-2,豪徳寺1丁目33番8号,masked,35.654033,139.6484573
東京都,世田谷区,20-3,豪徳寺1丁目25番17号,豪徳寺一丁目オリーブ公園,35.6536734,139.6478618
東京都,世田谷区,20-4,梅丘1丁目61番16号,梅丘複合施設東側,35.6533923,139.6523433
東京都,世田谷区,20-5,梅丘1丁目2番18号,梅丘児童遊園東側,35.6526115,139.653005
東京都,世田谷区,20-6,梅丘2丁目19番8号,円光院幼稚園南側,35.6503785,139.6522269
東京都,世田谷区,20-7,梅丘2丁目19番8号,円光院幼稚園南西側,35.6503785,139.6522269
東京都,世田谷区,20-8,梅丘2丁目19番8号,円光院幼稚園東側,35.6503785,139.6522269
東京都,世田谷区,21-1,宮坂1丁目16番先,烏山川緑道（経堂大橋公園東）,35.6475319,139.6383151
東京都,世田谷区,21-2,宮坂2丁目1番,乗泉寺世田谷別院北側,35.6509062,139.6451209
東京都,世田谷区,21-3,宮坂2丁目28番,小田急クローゼット経堂Ｃ棟脇,35.6528795,139.6438542
東京都,世田谷区,21-4,宮坂2丁目1番5号,乗泉寺世田谷別院南側,35.6509187,139.6447708
東京都,世田谷区,21-5,宮坂2丁目14番2号,masked,35.6508697,139.641469
東京都,世田谷区,21-6,宮坂1丁目5番30号,鷗友学園女子中学校・高等学校駐車場東側,35.6472596,139.6404314
東京都,世田谷区,21-7,宮坂1丁目26番,世田谷八幡宮南側,35.6482114,139.6444008
東京都,世田谷区,21-8,宮坂1丁目5番30号,鷗友学園女子中学校・高等学校西側,35.6472596,139.6404314
東京都,世田谷区,22-1,経堂5丁目38番11号,南台公園西側,35.6489481,139.6307046
東京都,世田谷区,22-2,桜丘1丁目1番1号,東京農業大学西側,35.6443671,139.6322784
東京都,世田谷区,22-3,桜丘1丁目19番17号,桜丘小学校南側,35.6446155,139.6312602
東京都,世田谷区,22-4,経堂4丁目13番,駐車場西側,35.6483365,139.6284734
東京都,世田谷区,22-5,経堂5丁目12番13号,経堂五丁目特別保護区東側,35.6458694,139.6312487
東京都,世田谷区,22-6,桜丘1丁目19番17号,桜丘小学校北側,35.6446155,139.6312602
東京都,世田谷区,22-7,経堂5丁目38番先,烏山川緑道（新道橋脇）,35.6489481,139.6307046
東京都,世田谷区,22-8,経堂5丁目17番17号,大旺新洋(株)世田谷寮東側,35.6467135,139.6311628
東京都,世田谷区,23-1,桜丘3丁目33番27号,masked,35.641894,139.6271039
東京都,世田谷区,23-2,桜丘2丁目1番39号,桜丘中学校東側,35.6432739,139.6298826
東京都,世田谷区,23-3,桜丘2丁目7番,都営桜丘二丁目第５アパート２４号棟東側,35.6447775,139.6281348
東京都,世田谷区,23-4,桜丘2丁目1番,桜丘貯水槽用地南側,35.6429081,139.629589
東京都,世田谷区,23-5,桜丘2丁目4番2号,都営桜丘二丁目第２アパート２号棟西側,35.6441639,139.6286691
東京都,世田谷区,23-6,桜丘3丁目4番8号,桜丘南公園東側,35.6402198,139.6298779
東京都,世田谷区,23-7,桜丘2丁目13番15号,桜丘二丁目児童遊園東側,35.6455841,139.6268001
東京都,世田谷区,23-8,桜丘3丁目10番19号,桜丘三丁目児童遊園北側,35.64246300000001,139.6278161
東京都,世田谷区,24-1,桜丘5丁目50番,水道局南部支所駐車場北側,35.6477979,139.6185936
東京都,世田谷区,24-2,桜丘5丁目19番1号,笹原小学校北側,35.645236,139.6212423
東京都,世田谷区,24-3,桜丘5丁目36番11号,桜丘５－３６遊び場北側,35.64547450000001,139.6192309
東京都,世田谷区,24-4,桜丘5丁目19番1号,笹原小学校南側,35.645236,139.6212423
東京都,世田谷区,24-5,桜丘2丁目17番25号,masked,35.6449585,139.624142
東京都,世田谷区,24-6,桜丘4丁目23番12号,桜丘すみれば自然庭園西側,35.64200930000001,139.619474
東京都,世田谷区,24-7,桜丘5丁目2番19号,桜丘幼稚園東側,35.6432447,139.6249747
東京都,世田谷区,24-8,桜丘5丁目42番1号,弁天公園南側,35.6469132,139.6183546
東京都,世田谷区,25-1,経堂4丁目38番先,烏山川緑道（石仏公園脇）,35.6499987,139.6294197
東京都,世田谷区,25-2,経堂1丁目38番先,烏山川緑道（中村橋脇）,35.6481951,139.6337105
東京都,世田谷区,25-3,経堂3丁目37番13号,経堂地区会館西側,35.6518114,139.6321625
東京都,世田谷区,25-4,経堂1丁目40番,経堂一丁目整圧器室東側,35.6494068,139.632378
東京都,世田谷区,25-5,経堂1丁目37番先,烏山川緑道（中村橋脇）,35.6483924,139.6341312
東京都,世田谷区,25-6,経堂4丁目33番9号,経堂四丁目児童遊園北側,35.6497382,139.6278161
東京都,世田谷区,25-7,経堂3丁目18番先,烏山川緑道（二本橋西）,35.6516785,139.6275172
東京都,世田谷区,25-8,経堂4丁目35番先,烏山川緑道（二本橋東）,35.650783,139.6290312
東京都,世田谷区,26-1,宮坂3丁目40番11号,東京電力(株)上北沢変電所北側,35.65654360000001,139.6349851
東京都,世田谷区,26-2,宮坂3丁目34番,山下西公園西側,35.6546685,139.6370798
東京都,世田谷区,26-3,宮坂3丁目15番15号,子ども・子育て総合センター東側,35.65396399999999,139.6373512
東京都,世田谷区,26-4,宮坂3丁目11番,道路代替地東側,35.6518901,139.6374783
東京都,世田谷区,26-5,宮坂3丁目2番先,北沢川緑道,35.653243,139.6399489
東京都,世田谷区,26-6,宮坂3丁目19番7号,経堂児童遊園西側,35.6533196,139.6360438
東京都,世田谷区,26-7,宮坂3丁目22番3号,masked,35.6543412,139.6355954
東京都,世田谷区,26-8,宮坂3丁目7番先,北沢川緑道（宮坂三丁目交差点脇）,35.6533332,139.6380361
東京都,世田谷区,27-1,代沢4丁目36番,代沢せせらぎ公園西側,35.6538747,139.6712787
東京都,世田谷区,27-2,代沢5丁目8番19号,代沢地区会館東側,35.6575018,139.6681199
東京都,世田谷区,27-3,代沢3丁目25番3号,北沢八幡児童遊園南側,35.6557664,139.6697088
東京都,世田谷区,27-4,代沢5丁目1番10号,代沢小学校東側,35.6549168,139.6674512
東京都,世田谷区,27-5,代沢4丁目35番1号,東急バス(株)バス整備工場南側,35.6538922,139.6717122
東京都,世田谷区,27-6,代沢4丁目36番,代沢せせらぎ公園増設予定地東側,35.6538747,139.6712787
東京都,世田谷区,27-7,代沢5丁目1番10号,代沢小学校西側,35.6549168,139.6674512
東京都,世田谷区,27-8,代沢5丁目1番10号,代沢小学校北側,35.6549168,139.6674512
東京都,世田谷区,28-1,代沢1丁目23番17号,富士中学校東側,35.6567787,139.6782088
東京都,世田谷区,28-2,代沢1丁目24番3号,都営代沢一丁目アパート３号棟西側,35.6563029,139.6765268
東京都,世田谷区,28-3,代沢1丁目23番17号,富士中学校北側,35.6567787,139.6782088
東京都,世田谷区,28-4,代沢1丁目23番,下代田児童遊園南側,35.6564151,139.677419
東京都,世田谷区,28-5,代沢1丁目24番1号,都営代沢一丁目アパート１号棟西側,35.65641859999999,139.6764022
東京都,世田谷区,28-6,代沢1丁目36番先,京王井の頭線線路沿い（駒場東大前３号踏切東[駒場東大前駅側],35.6594442,139.6765399
東京都,世田谷区,28-7,代沢1丁目23番17号,富士中学校西側（プール前）,35.6567787,139.6782088
東京都,世田谷区,29-1,代沢2丁目30番先,自転車歩行者道,35.6598265,139.669051
東京都,世田谷区,29-2,代沢2丁目42番15号,池之上小学校南側,35.6599162,139.6732855
東京都,世田谷区,29-3,代沢2丁目37番18号,池之上青少年交流センター東側,35.6593774,139.6733606
東京都,世田谷区,29-4,代沢2丁目4番20号,masked,35.6575857,139.67428
東京都,世田谷区,29-5,代沢2丁目26番先,自転車歩行者道,35.6585844,139.668727
東京都,世田谷区,29-6,代沢2丁目27番,代沢草の丘広場西側,35.6578034,139.6685675
東京都,世田谷区,29-7,代沢2丁目6番5号,ＮＨＫ池の上寮２号棟南側,35.6581385,139.6734621
東京都,世田谷区,30-1,代田2丁目36番,下北線路街東側,35.6590829,139.6642619
東京都,世田谷区,30-2,代田5丁目27番19号,京王電鉄代田変電所南側,35.6617979,139.6614089
東京都,世田谷区,30-3,代田5丁目32番9号,代田五丁目公園北側,35.6617223,139.6632603
東京都,世田谷区,30-4,代田5丁目6番,世田谷代田駅北側,35.6586302,139.6617105
東京都,世田谷区,30-5,代田5丁目19番1号,北沢土木公園管理事務所南側,35.6599919,139.6640376
東京都,世田谷区,30-6,代田5丁目34番24号,東京醫科大学図書館世田谷分室南側,35.6615469,139.6653094
東京都,世田谷区,30-7,代田5丁目34番24号,東京醫科大学図書館世田谷分室北側,35.6615469,139.6653094
東京都,世田谷区,31-1,代田4丁目18番13号,masked,35.6613389,139.6582558
東京都,世田谷区,31-2,代田4丁目38番52号,羽根木公園北側,35.6587089,139.6560466
東京都,世田谷区,31-3,代田4丁目38番52号,羽根木公園東側,35.6587089,139.6560466
東京都,世田谷区,31-4,代田4丁目2番3号,代田小学校西側,35.6585909,139.6584717
東京都,世田谷区,31-5,代田4丁目2番3号,代田小学校南側,35.6585909,139.6584717
東京都,世田谷区,31-6,代田4丁目3番9号,ひだまり公園西側,35.6596484,139.6579948
東京都,世田谷区,31-7,代田3丁目57番1号,代田八幡神社東側,35.6572244,139.6597093
東京都,世田谷区,32-1,大原2丁目30番43号,和田堀給水所西側,35.6691635,139.6570048
東京都,世田谷区,32-2,大原2丁目32番11号,大原緊急資材置場北側,35.668188,139.6564254
東京都,世田谷区,32-3,羽根木2丁目17番5号,羽根木神社西側,35.6683984,139.6577044
東京都,世田谷区,32-4,羽根木2丁目8番1号,masked,35.6668244,139.6587806
東京都,世田谷区,32-5,羽根木1丁目19番,京王井の頭線線路沿い（新代田駅西側）,35.66323510000001,139.6590796
東京都,世田谷区,32-6,羽根木1丁目20番先,京王井の頭線線路沿い,35.6628502,139.6581229
東京都,世田谷区,32-7,大原2丁目32番11号,大原緊急資材置場南側,35.668188,139.6564254
東京都,世田谷区,32-8,大原2丁目13番先,玉川上水緑道,35.6704467,139.6604349
東京都,世田谷区,33-1,代田6丁目30番,東京都交通局代田操車場南側,35.6633979,139.6611325
東京都,世田谷区,33-2,大原1丁目56番先,玉川上水緑道（環七通り脇）,35.6703072,139.66187
東京都,世田谷区,33-3,大原1丁目4番6号,下北沢小学校北側,35.6665629,139.6645011
東京都,世田谷区,33-4,大原1丁目4番6号,下北沢小学校南側,35.6665629,139.6645011
東京都,世田谷区,33-5,代田6丁目12番39号,下北沢成徳高等学校東側,35.6648914,139.6649933
東京都,世田谷区,33-6,代田6丁目11番,代田北広場北側,35.6653084,139.6629862
東京都,世田谷区,33-7,大原1丁目44番先,玉川上水緑道,35.6707412,139.6633051
東京都,世田谷区,33-8,代田6丁目21番5号,守山地区会館北側,35.6654506,139.6617015
東京都,世田谷区,34-1,北沢4丁目32番20号,北沢中学校第二校舎北側,35.6681879,139.6721957
東京都,世田谷区,34-2,北沢5丁目31番先,玉川上水第二緑道（きたざわ苑西）,35.6711262,139.6703218
東京都,世田谷区,34-3,北沢5丁目13番3号,北沢五丁目児童遊園南側,35.6697429,139.6660848
東京都,世田谷区,34-4,北沢5丁目12番3号,北沢中学校北側,35.6691006,139.6668174
東京都,世田谷区,34-5,北沢4丁目32番20号,北沢中学校第二校舎南西側,35.6681879,139.6721957
東京都,世田谷区,34-6,北沢4丁目26番27号,北沢４－２６遊び場西側,35.6677905,139.6686672
東京都,世田谷区,34-7,北沢4丁目32番20号,北沢中学校第二校舎南側,35.6681879,139.6721957
東京都,世田谷区,34-8,北沢5丁目12番3号,北沢中学校南側,35.6691006,139.6668174
東京都,世田谷区,35-1,北沢3丁目9番,北沢３－９（遊歩道）,35.6642536,139.67088
東京都,世田谷区,35-2,北沢3丁目8番,小田急線東北沢駅機械棟北側,35.6650138,139.6722356
東京都,世田谷区,35-3,北沢3丁目22番,旧下北沢臨時置場東側,35.6644178,139.6696839
東京都,世田谷区,35-4,北沢3丁目22番,区管理地北側,35.6644178,139.6696839
東京都,世田谷区,35-5,北沢3丁目26番,どんぐりひろば公園（公園内）,35.664216,139.6686473
東京都,世田谷区,35-6,北沢3丁目4番,北沢公園北側,35.6666155,139.6724748
東京都,世田谷区,35-7,北沢1丁目3番,北沢一丁目児童遊園西側,35.6610248,139.6762228
東京都,世田谷区,35-8,北沢1丁目46番,区管理道路,35.6629689,139.6700028
東京都,世田谷区,36-1,松原6丁目27番9号,東京電力(株)松原変電所南側,35.6585183,139.6510051
東京都,世田谷区,36-2,松原6丁目43番先,北沢川緑道,35.6563316,139.6487363
東京都,世田谷区,36-3,松原6丁目5番11号,梅丘中学校西側,35.6594002,139.6526011
東京都,世田谷区,36-4,松原6丁目37番,都立光明学園東側,35.6576848,139.6506294
東京都,世田谷区,36-5,松原6丁目5番11号,梅丘中学校南側,35.6594002,139.6526011
東京都,世田谷区,36-6,松原6丁目5番11号,梅丘中学校東側,35.6594002,139.6526011
東京都,世田谷区,36-7,豪徳寺1丁目49番先,北沢川緑道,35.6550077,139.6473613
東京都,世田谷区,36-8,豪徳寺1丁目55番23号,善性寺北側,35.6562258,139.6460694
東京都,世田谷区,36-9,豪徳寺1丁目55番23号,善性寺西側,35.6562258,139.6460694
東京都,世田谷区,37-1,松原5丁目45番,駐車場南側,35.6635966,139.6514266
東京都,世田谷区,37-2,松原5丁目43番26号,松原小学校南側,35.66479169999999,139.6512572
東京都,世田谷区,37-3,松原5丁目35番14号,松原公園北側,35.6627531,139.6487961
東京都,世田谷区,37-4,松原5丁目11番20号,masked,35.6617644,139.6510266
東京都,世田谷区,37-5,松原5丁目30番23号,赤羽根公園東側,35.6628903,139.6529253
東京都,世田谷区,37-6,松原5丁目30番3号,東洋製罐(株)コーポ松原駐輪場北側,35.6625112,139.6526304
東京都,世田谷区,37-7,松原5丁目43番26号,松原小学校西側,35.66479169999999,139.6512572
東京都,世田谷区,38-1,松原1丁目35番15号,京王電鉄(株)旧京王井の頭線お忘れ物取扱所北側,35.6684355,139.6512481
東京都,世田谷区,38-2,松原1丁目6番先,京王電鉄(株)旧資材置場南側,35.6694274,139.6546949
東京都,世田谷区,38-3,松原1丁目7番,京王電鉄(株)工事現場北側,35.6683609,139.6533383
東京都,世田谷区,38-4,松原1丁目7番20号,扶桑会館西側,35.6686238,139.6526852
東京都,世田谷区,38-5,松原1丁目32番,京王電鉄(株)工事現場南側,35.6684405,139.6520643
東京都,世田谷区,38-6,松原1丁目11番4号,松原北保,35.6666324,139.6537145
東京都,世田谷区,38-7,松原1丁目41番先,京王線線路沿い（明大前駅東）,35.6688856,139.6517454
東京都,世田谷区,38-8,松原1丁目11番4号,松原北保育園南側,35.6666324,139.6537145
東京都,世田谷区,39-1,松原2丁目7番34号,日本学園北側,35.6653293,139.6491495
東京都,世田谷区,39-2,松原2丁目12番9号,masked,35.6650924,139.6467555
東京都,世田谷区,39-3,松原2丁目17番22号,二階堂高等学校北側,35.6662681,139.6489704
東京都,世田谷区,39-4,松原2丁目17番22号,日本女子体育大学附属みどり幼稚園西側,35.6662681,139.6489704
東京都,世田谷区,39-5,松原2丁目7番34号,日本学園西側,35.6653293,139.6491495
東京都,世田谷区,39-6,松原2丁目7番34号,日本学園東側,35.6653293,139.6491495
東京都,世田谷区,39-7,松原2丁目8番11号,駐車場西側,35.6636962,139.6477951
東京都,世田谷区,40-1,松原3丁目41番15号,NTT松沢営業所別館西側,35.6672168,139.6416394
東京都,世田谷区,40-2,赤堤5丁目27番12号,消防庁赤堤寮西側,35.6650429,139.6377607
東京都,世田谷区,40-3,松原3丁目22番12号,弁天児童遊園東側,35.6662811,139.6449402
東京都,世田谷区,40-4,松原3丁目31番,下高井戸公共駐車場ひまわり広場東側,35.666543,139.6428978
東京都,世田谷区,40-5,赤堤4丁目44番,松沢小学校西側,35.6653142,139.6393113
東京都,世田谷区,40-6,松原3丁目27番30号,京王線線路沿い（下高井戸駅東側）,35.6660226,139.6431469
東京都,世田谷区,40-7,赤堤4丁目44番,松沢小学校南側,35.6653142,139.6393113
東京都,世田谷区,40-8,赤堤5丁目22番10号,赤堤けやき公園西側,35.6639613,139.6368407
東京都,世田谷区,41-1,赤堤4丁目34番,松沢小学校第二運動場南側,35.6642959,139.6396301
東京都,世田谷区,41-2,松原3丁目1番6号,masked,35.6631404,139.646436
東京都,世田谷区,41-3,松原3丁目5番9号,masked,35.6631372,139.6448448
東京都,世田谷区,41-4,赤堤4丁目1番10号,赤堤保育園北側,35.6602964,139.6413912
東京都,世田谷区,41-5,松原3丁目3番10号,masked,35.6641498,139.6450218
東京都,世田谷区,41-6,赤堤4丁目10番1号,赤松公園北側,35.6615871,139.6409352
東京都,世田谷区,41-7,松原3丁目20番16号,菅原神社北側,35.6651643,139.6462324
東京都,世田谷区,41-8,赤堤4丁目10番1号,赤松公園南側,35.6615871,139.6409352
東京都,世田谷区,42-1,赤堤2丁目25番18号,三界寺本堂北側,35.6586337,139.6438144
東京都,世田谷区,42-2,赤堤2丁目36番16号,masked,35.659197,139.646071
東京都,世田谷区,42-3,赤堤2丁目51番,赤松ぼっくり庭園緑地南側,35.6594464,139.6482381
東京都,世田谷区,42-4,赤堤2丁目25番2号,あかつつみ幼稚園南側,35.6583369,139.6435774
東京都,世田谷区,42-5,赤堤2丁目29番1号,masked,35.6582064,139.6468512
東京都,世田谷区,42-6,赤堤2丁目51番,赤松ぼっくり庭園緑地東側,35.6594464,139.6482381
東京都,世田谷区,43-1,赤堤1丁目41番24号,赤堤小学校北側,35.6563923,139.637289
東京都,世田谷区,43-2,赤堤1丁目15番,北沢川緑道ユリの木公園,35.6540415,139.6435354
東京都,世田谷区,43-3,赤堤1丁目41番24号,赤堤生涯学習センター（赤堤小学校内）南側,35.6563923,139.637289
東京都,世田谷区,43-4,赤堤3丁目28番,西福寺南側,35.6592556,139.6370798
東京都,世田谷区,43-5,赤堤3丁目20番1号,カトリック赤堤教会東側,35.6587757,139.6391804
東京都,世田谷区,43-6,赤堤1丁目41番24号,赤堤小学校西側,35.6563923,139.637289
東京都,世田谷区,43-7,赤堤3丁目28番,西福寺西側,35.6592556,139.6370798
東京都,世田谷区,43-8,赤堤1丁目41番24号,赤堤小学校東側,35.6563923,139.637289
東京都,世田谷区,44-1,桜上水3丁目19番12号,緑丘中学校西側,35.660718,139.6310282
東京都,世田谷区,44-2,桜上水2丁目8番10号,㈱ギコウ,35.6585742,139.6260432
東京都,世田谷区,44-3,桜上水3丁目23番,日本大学文理学部陸上競技場北側,35.6625283,139.632677
東京都,世田谷区,44-4,桜上水3丁目19番12号,緑丘中学校北側,35.660718,139.6310282
東京都,世田谷区,44-5,桜上水1丁目23番3号,経堂小学校南側,35.656582,139.630595
東京都,世田谷区,44-6,桜上水1丁目21番18号,masked,35.656498,139.6291044
東京都,世田谷区,44-7,桜上水3丁目19番12号,緑丘中学校南側,35.660718,139.6310282
東京都,世田谷区,44-8,桜上水1丁目23番3号,経堂小学校東側,35.656582,139.630595
東京都,世田谷区,45-1,桜上水5丁目3番45号,桜上水しいの木公園東側,35.6645485,139.6281547
東京都,世田谷区,45-2,桜上水5丁目34番16号,京王電鉄(株)上北沢変電所北側,35.66800190000001,139.6277349
東京都,世田谷区,45-3,桜上水5丁目19番6号,masked,35.667319,139.6295082
東京都,世田谷区,45-4,桜上水4丁目5番2号,松沢中学校南側,35.6657697,139.6343019
東京都,世田谷区,45-5,桜上水4丁目2番,日本大学弓道部南側,35.6641999,139.6340515
東京都,世田谷区,45-6,桜上水4丁目3番5号,都立松原高等学校南側,35.6649907,139.6347765
東京都,世田谷区,45-7,桜上水4丁目3番5号,都立松原高等学校東側,35.6649907,139.6347765
東京都,世田谷区,45-8,桜上水4丁目5番2号,松沢中学校東側,35.6657697,139.6343019
東京都,世田谷区,46-1,上北沢4丁目1番,駐車場北側,35.6682203,139.6285531
東京都,世田谷区,46-2,上北沢3丁目11番8号,masked,35.6677876,139.6268578
東京都,世田谷区,46-3,上北沢3丁目30番19号,masked,35.6680265,139.6225602
東京都,世田谷区,46-4,上北沢4丁目10番先,京王線線路沿い（上北沢駅東側）,35.6685474,139.6261627
東京都,世田谷区,46-5,上北沢3丁目8番9号,上北沢区民センター東側,35.6675725,139.625589
東京都,世田谷区,46-6,上北沢3丁目32番,京王線連続立体交差事業用地東側,35.6684541,139.6243301
東京都,世田谷区,46-7,上北沢4丁目14番先,京王線線路沿い（上北沢駅脇）,35.6690027,139.624091
東京都,世田谷区,47-1,上北沢5丁目9番1号,京王バス(株)永福町営業所世田谷車庫南側,35.6717003,139.620007
東京都,世田谷区,47-2,上北沢4丁目35番12号,区立八幡山北自転車等駐車場西側,35.6709005,139.6165521
東京都,世田谷区,47-3,上北沢5丁目15番17号,上北沢やのかみ広場北側,35.6734963,139.6176376
東京都,世田谷区,47-4,上北沢5丁目17番6号,上北沢五丁目公園南側,35.6725281,139.6177919
東京都,世田谷区,47-5,上北沢4丁目22番29号,上北沢小学校南側,35.6698696,139.6209857
東京都,世田谷区,47-6,上北沢4丁目23番22号,masked,35.6706717,139.6212533
東京都,世田谷区,47-7,上北沢4丁目22番29号,上北沢小学校北側,35.6698696,139.6209857
東京都,世田谷区,47-8,上北沢4丁目25番3号,上北沢保育園南側,35.6697182,139.6201884
東京都,世田谷区,48-1,八幡山3丁目37番7号,都営八幡山アパート南側,35.6683883,139.6145405
東京都,世田谷区,48-2,上北沢2丁目1番7号,都立中部総合精神保健福祉センタ－北側,35.6691589,139.6176104
東京都,世田谷区,48-3,上北沢2丁目1番12号,松沢けやき広場,35.6669926,139.6203463
東京都,世田谷区,48-4,上北沢2丁目1番1号,都立松沢病院東側,35.6667953,139.6202856
東京都,世田谷区,48-5,八幡山3丁目32番25号,八幡山こぶし広場北側,35.6686089,139.6163701
東京都,世田谷区,48-6,八幡山3丁目9番21号,八幡山三丁目公園北側,35.66497010000001,139.6167712
東京都,世田谷区,48-7,八幡山3丁目6番2号,masked,35.6636019,139.6161013
東京都,世田谷区,49-1,八幡山1丁目13番5号,八幡山はなもも広場西側,35.6614985,139.6213273
東京都,世田谷区,49-2,八幡山1丁目27番24号,八幡山公園東側,35.6631188,139.6189123
東京都,世田谷区,49-3,上北沢1丁目20番,上北沢一丁目公園南側,35.6619899,139.6246488
東京都,世田谷区,49-4,八幡山1丁目14番1号,八幡山小学校西側,35.6620589,139.6213324
東京都,世田谷区,49-5,上北沢1丁目32番3号,松沢保育園南側,35.6638535,139.6241613
東京都,世田谷区,49-6,八幡山2丁目9番11号,東京都動物愛護相談センター西側,35.6598003,139.6149887
東京都,世田谷区,49-7,八幡山1丁目11番5号,山下こども公園西側,35.6604494,139.6208244
東京都,世田谷区,49-8,八幡山1丁目3番8号,希望丘東公園北側,35.6605182,139.6234636
東京都,世田谷区,50-1,船橋4丁目20番1号,船橋希望中学校北側,35.6557366,139.6188163
東京都,世田谷区,50-2,船橋4丁目9番1号,希望丘小学校東側,35.6563715,139.6215862
東京都,世田谷区,50-3,船橋7丁目8番,UR都市機構希望ヶ丘団地西側,35.6580877,139.6192309
東京都,世田谷区,50-4,船橋7丁目8番,UR都市機構希望ヶ丘団地南側,35.6580877,139.6192309
東京都,世田谷区,50-5,船橋4丁目9番1号,希望丘小学校北側,35.6563715,139.6215862
東京都,世田谷区,50-6,船橋4丁目20番1号,船橋希望中学校東側,35.6557366,139.6188163
東京都,世田谷区,50-7,船橋4丁目2番10号,世田谷船橋郵便局東側,35.6549388,139.6226347
東京都,世田谷区,50-8,船橋6丁目21番1号,葭根公園南側,35.657958,139.6229009
東京都,世田谷区,51-1,船橋3丁目18番1号,都立千歳丘高等学校西側,35.6525556,139.6250603
東京都,世田谷区,51-2,船橋5丁目11番15号,masked,35.6559467,139.6288313
東京都,世田谷区,51-3,船橋1丁目13番17号,masked,35.6489007,139.6231778
東京都,世田谷区,51-4,船橋5丁目14番19号,区立船橋東保育園南側,35.6548051,139.6276321
東京都,世田谷区,51-5,船橋5丁目17番28号,西経堂児童遊園入口側,35.65489820000001,139.6254685
東京都,世田谷区,51-6,船橋3丁目18番1号,都立千歳丘高等学校南側,35.6525556,139.6250603
東京都,世田谷区,51-7,船橋1丁目4番21号,船橋一丁目広場東側,35.6492326,139.6247723
東京都,世田谷区,51-8,船橋3丁目5番先,烏山川緑道（西経堂第二児童遊園脇）,35.6527322,139.6256846
東京都,世田谷区,52-1,船橋4丁目41番1号,船橋小学校南側,35.6528568,139.6164525
東京都,世田谷区,52-2,船橋2丁目43番,有隣病院駐車場東側,35.6510603,139.6177969
東京都,世田谷区,52-3,船橋7丁目22番1号,大東学園高等学校北側,35.6582917,139.6160618
東京都,世田谷区,52-4,船橋7丁目9番1号,千歳温水プール北側,35.6590925,139.6165363
東京都,世田谷区,52-5,船橋4丁目41番1号,船橋小学校東側,35.6528568,139.6164525
東京都,世田谷区,52-6,船橋7丁目19番,希望ヶ丘スイミングクラブ駐車場南側,35.6574071,139.6154069
東京都,世田谷区,52-7,船橋2丁目17番,畑地西側,35.65175139999999,139.6198683
東京都,世田谷区,52-8,船橋7丁目9番2号,希望丘公園南側,35.6583141,139.6178904
東京都,世田谷区,53-1,粕谷1丁目23番18号,粕谷八幡神社北側,35.6628224,139.6118802
東京都,世田谷区,53-2,千歳台4丁目24番1号,千歳台小学校西側,35.6590087,139.6131016
東京都,世田谷区,53-3,粕谷1丁目7番8号,東京ガス世田谷整圧所南側,35.6601614,139.6120708
東京都,世田谷区,53-4,千歳台4丁目24番1号,千歳台小学校北側,35.6590087,139.6131016
東京都,世田谷区,53-5,千歳台4丁目2番7号,希望丘記念公園南側,35.654593,139.6140028
東京都,世田谷区,53-6,千歳台3丁目31番,畑東側,35.6536472,139.6123
東京都,世田谷区,53-7,千歳台3丁目15番7号,希望丘南公園南側,35.651981,139.6142119
東京都,世田谷区,53-8,千歳台4丁目11番,希望丘中公園南側,35.6561919,139.6138136
東京都,世田谷区,54-1,千歳台6丁目7番1号,塚戸小学校南側,35.6566698,139.6078761
東京都,世田谷区,54-2,祖師谷6丁目20番,塚戸公園南側,35.6553882,139.60764
東京都,世田谷区,54-3,千歳台6丁目15番1号,千歳中学校東側,35.658458,139.6061937
東京都,世田谷区,54-4,千歳台6丁目11番,千歳台三角公園南側,35.6575977,139.6052106
東京都,世田谷区,54-5,千歳台6丁目15番1号,千歳中学校北側,35.658458,139.6061937
東京都,世田谷区,54-6,千歳台6丁目14番16号,廻沢西公園北側,35.6583724,139.6039219
東京都,世田谷区,54-7,粕谷3丁目8番1号,都立芦花高等学校東側,35.6592653,139.6042088
東京都,世田谷区,54-8,祖師谷6丁目33番,祖師谷六丁目広場東側,35.6576871,139.603299
東京都,世田谷区,55-1,千歳台2丁目29番24号,masked,35.6521531,139.6124046
東京都,世田谷区,55-2,千歳台2丁目23番9号,廻沢南公園北側,35.6497375,139.6133904
東京都,世田谷区,55-3,祖師谷2丁目5番,masked,35.6483943,139.6104679
東京都,世田谷区,55-4,祖師谷2丁目5番,masked,35.6483943,139.6104679
東京都,世田谷区,55-5,祖師谷2丁目10番10号,祖師谷駐車場西側,35.6493232,139.6087898
東京都,世田谷区,55-6,祖師谷2丁目5番,masked,35.6483943,139.6104679
東京都,世田谷区,55-7,祖師谷2丁目1番6号,masked,35.647404,139.610946
東京都,世田谷区,56-1,千歳台1丁目10番51号,小田急線高架下小田急クローゼット祖師ヶ谷大蔵北側,35.6451826,139.6161614
東京都,世田谷区,56-2,祖師谷2丁目5番38号,祖師谷わかば保育園西側,35.6481558,139.6123548
東京都,世田谷区,56-3,千歳台1丁目22番,笠森公園南側,35.6469089,139.6169205
東京都,世田谷区,56-4,千歳台1丁目4番1号,笠森公園西側,35.6464989,139.6165919
東京都,世田谷区,56-5,祖師谷1丁目11番14号,masked,35.6456308,139.608949
東京都,世田谷区,56-6,祖師谷2丁目5番,公社管理空き地南側（３０号棟前）,35.6483943,139.6104679
東京都,世田谷区,56-7,祖師谷1丁目6番先,オダクル祖師ヶ谷大蔵第一駐輪場北側,35.6453695,139.6107865
東京都,世田谷区,56-8,千歳台1丁目36番8号,千歳台一丁目広場西側,35.6486247,139.6154866
東京都,世田谷区,57-1,祖師谷5丁目29番16号,masked,35.6535531,139.6084339
東京都,世田谷区,57-2,祖師谷4丁目36番先,仙川（大石橋脇）,35.6487922,139.6027415
東京都,世田谷区,57-3,祖師谷3丁目52番38号,成城学園初等学校北側,35.6454992,139.6021939
東京都,世田谷区,57-4,祖師谷3丁目52番38号,成城学園初等学校東側,35.6454992,139.6021939
東京都,世田谷区,57-5,祖師谷4丁目22番6号,祖師谷四丁目広場東側,35.6481956,139.6067472
東京都,世田谷区,57-6,祖師谷3丁目49番1号,祖師谷小学校南側,35.6453162,139.6043308
東京都,世田谷区,57-7,祖師谷4丁目11番先,仙川（稲荷山橋脇）,35.6465685,139.6020247
東京都,世田谷区,57-8,祖師谷4丁目28番19号,祖師谷ぞうさん広場北側,35.6491002,139.6059273
東京都,世田谷区,58-1,成城2丁目21番16号,カトリック成城教会東側,35.6384038,139.599929
東京都,世田谷区,58-2,成城3丁目6番23号,masked,35.6370011,139.5964886
東京都,世田谷区,58-3,成城1丁目14番1号,NTT砧ビル北側,35.6350332,139.6016783
東京都,世田谷区,58-4,成城3丁目3番1号,明正小学校北側,35.6351233,139.5996545
東京都,世田谷区,58-5,成城3丁目18番12号,成城駐車場北側,35.633786,139.5980153
東京都,世田谷区,58-6,成城3丁目3番1号,明正小学校東側,35.6351233,139.5996545
東京都,世田谷区,58-7,成城3丁目18番12号,成城排水調整所南側,35.633786,139.5980153
東京都,世田谷区,58-8,成城1丁目6番7号,成城一丁目公園南側,35.6319817,139.6034452
東京都,世田谷区,59-1,成城4丁目27番先,野川（神明橋脇）,35.641274,139.589601
東京都,世田谷区,59-2,祖師谷3丁目13番4号,砧土木管理事務所水防施設西側,35.6413114,139.6021093
東京都,世田谷区,59-3,成城6丁目1番,成城学園高等学校西側,35.6413351,139.6013078
東京都,世田谷区,59-4,成城4丁目22番,成城みつ池緑地保全地区西側,35.6403792,139.591114
東京都,世田谷区,59-5,成城6丁目14番10号,成城北第二自転車等駐車場西側,35.6414476,139.5989534
東京都,世田谷区,59-6,成城4丁目31番,成城四丁目緑地西側,35.6442983,139.5892825
東京都,世田谷区,59-7,成城6丁目3番10号,成城六丁目事務所棟西側,35.6408121,139.6005338
東京都,世田谷区,59-8,祖師谷3丁目14番23号,祖師谷三丁目公園東側,35.6429706,139.6023433
東京都,世田谷区,60-1,成城9丁目17番先,仙川（鞍橋南）,35.6522323,139.6004317
東京都,世田谷区,60-2,上祖師谷4丁目34番8号,上祖師谷四丁目公園南側,35.6541568,139.5943193
東京都,世田谷区,60-3,上祖師谷3丁目4番7号,上祖師谷パンダ公園西側,35.6542478,139.6019102
東京都,世田谷区,60-4,成城9丁目25番1号,都立総合工科高等学校東側,35.65162249999999,139.5947621
東京都,世田谷区,60-5,成城9丁目6番1号,千歳小学校北側,35.65133429999999,139.5975635
東京都,世田谷区,60-6,成城8丁目28番,都営成城アパートポンプ室西側,35.6481025,139.593742
東京都,世田谷区,60-7,成城7丁目4番,成城学園第二グランド東側,35.6469148,139.6007503
東京都,世田谷区,60-8,上祖師谷4丁目1番,都立祖師谷公園南側,35.653883,139.5988389
東京都,世田谷区,60-9,成城8丁目28番,都営成城アパート集会室北側,35.6481025,139.593742
東京都,世田谷区,61-1,上祖師谷2丁目37番,駐車場東側,35.6640935,139.5973865
東京都,世田谷区,61-2,上祖師谷2丁目31番,上祖師谷二丁目ファミリー農園南側,35.6621941,139.5988389
東京都,世田谷区,61-3,上祖師谷7丁目10番1号,上祖師谷中学校西側,35.6602846,139.5935217
東京都,世田谷区,61-4,上祖師谷7丁目10番1号,上祖師谷中学校南側,35.6602846,139.5935217
東京都,世田谷区,61-5,上祖師谷6丁目9番先,仙川（祖師谷中橋脇）,35.6593581,139.5982017
東京都,世田谷区,61-6,上祖師谷7丁目15番,畑東側,35.6593685,139.5918307
東京都,世田谷区,61-7,上祖師谷6丁目6番2号,畑南側,35.6581052,139.595434
東京都,世田谷区,61-8,上祖師谷5丁目9番4号,上祖師谷五丁目公園南側,35.6568776,139.5933195
東京都,世田谷区,62-1,南烏山6丁目14番12号,成城消防署烏山出張所東側,35.6681998,139.5964098
東京都,世田谷区,62-2,南烏山6丁目2番19号,烏山区民センター前広場西側,35.6688454,139.6005333
東京都,世田谷区,62-3,南烏山6丁目12番,コーシャハイム千歳烏山１号棟東側,35.6676983,139.5975646
東京都,世田谷区,62-4,南烏山5丁目36番先,京王線線路沿い（千歳烏山駅西）,35.6672831,139.5995557
東京都,世田谷区,62-5,南烏山5丁目17番23号,烏山中央自転車等駐車場東側,35.6671953,139.6015368
東京都,世田谷区,62-6,南烏山5丁目21番1号,千歳烏山南公園南側,35.6661205,139.602403
東京都,世田谷区,62-7,南烏山6丁目6番先,京王線線路沿い（千歳烏山駅西）,35.6678958,139.599476
東京都,世田谷区,62-8,上祖師谷1丁目24番12号,上祖師谷広場東側,35.6639448,139.5992342
東京都,世田谷区,63-1,粕谷4丁目13番先,水際の散歩道（粕谷区民センター脇）,35.6633594,139.6045734
東京都,世田谷区,63-2,粕谷4丁目17番16号,masked,35.6639858,139.6039814
東京都,世田谷区,63-3,上祖師谷1丁目13番9号,東台広場東側,35.6631763,139.6023084
東京都,世田谷区,63-4,上祖師谷1丁目16番13号,上祖師谷一丁目公園北側,35.6630931,139.6010689
東京都,世田谷区,63-5,上祖師谷1丁目3番,養鶏場北側,35.6605792,139.602164
東京都,世田谷区,63-6,粕谷3丁目30番先,水際の散歩道,35.6626034,139.6046531
東京都,世田谷区,63-7,粕谷4丁目9番27号,烏山土木公園管理事務所北西側,35.6642004,139.6054902
東京都,世田谷区,64-1,南烏山1丁目14番21号,masked,35.6691215,139.6111151
東京都,世田谷区,64-2,南烏山2丁目1番,駐車場東側,35.66496,139.6071223
東京都,世田谷区,64-3,南烏山2丁目22番7号,南烏山ふれあいの家南側,35.6681998,139.6059126
東京都,世田谷区,64-4,粕谷2丁目22番先,烏山ふれあい散歩道（芦花中学校北側）,35.6658486,139.6111051
東京都,世田谷区,64-5,南烏山1丁目16番23号,南烏山なんてん公園東側,35.667889,139.612502
東京都,世田谷区,64-6,粕谷2丁目19番先,烏山ふれあい散歩道（南烏山１－１遊び場脇）,35.6660458,139.613017
東京都,世田谷区,64-7,粕谷2丁目22番2号,芦花中学校南側,35.6658486,139.6111051
東京都,世田谷区,64-8,南烏山2丁目6番4号,コーシャハイム芦花公園４号棟南側,35.6661852,139.6070201
東京都,世田谷区,64-9,粕谷2丁目19番,都営粕谷二丁目アパート西側,35.6660458,139.613017
東京都,世田谷区,65-1,南烏山6丁目32番9号,南烏山六丁目広場北側,35.6714036,139.5986149
東京都,世田谷区,65-2,南烏山4丁目26番1号,烏山中学校東側,35.67196680000001,139.6005114
東京都,世田谷区,65-3,南烏山4丁目26番1号,烏山中学校西側,35.67196680000001,139.6005114
東京都,世田谷区,65-4,南烏山6丁目31番2号,都営南烏山六丁目アパート２号棟南側,35.6710059,139.5982615
東京都,世田谷区,65-5,南烏山3丁目11番先,masked,35.6705928,139.6061665
東京都,世田谷区,65-6,南烏山4丁目21番2号,区立南烏山りんれい広場西側,35.6704399,139.6034434
東京都,世田谷区,65-7,南烏山4丁目11番先,京王線線路沿い（千歳烏山駅東）,35.6684836,139.6014671
東京都,世田谷区,65-8,南烏山3丁目24番3号,烏山下宿広場南側,35.6717861,139.6084902
東京都,世田谷区,66-1,上北沢5丁目48番,都営上北沢五丁目第３アパート２号棟西側,35.6752957,139.6128577
東京都,世田谷区,66-2,北烏山2丁目3番,masked,35.6799206,139.6012282
東京都,世田谷区,66-3,北烏山2丁目10番15号,北烏山二丁目公園西側,35.6807109,139.5996353
東京都,世田谷区,66-4,北烏山1丁目57番8号,masked,35.6783485,139.6044477
東京都,世田谷区,66-5,北烏山3丁目13番35号,烏山北保育園東側,35.6774034,139.6018842
東京都,世田谷区,66-6,北烏山1丁目39番,北烏山一丁目広場北側,35.675835,139.605131
東京都,世田谷区,66-7,北烏山3丁目13番,masked,35.676087,139.6020247
東京都,世田谷区,66-8,北烏山1丁目20番1号,烏山公園東側,35.6747538,139.6057308
東京都,世田谷区,67-1,北烏山4丁目28番1号,専光寺西側,35.6797434,139.5946717
東京都,世田谷区,67-2,北烏山6丁目3番1号,烏山北小学校西側,35.6739093,139.5995983
東京都,世田谷区,67-3,北烏山3丁目19番7号,masked,35.6766215,139.6004289
東京都,世田谷区,67-4,北烏山3丁目6番16号,北烏山三丁目公園南側,35.6728418,139.6006607
東京都,世田谷区,67-5,北烏山6丁目3番1号,烏山北小学校東側,35.6739093,139.5995983
東京都,世田谷区,67-6,北烏山3丁目1番10号,masked,35.6730209,139.6035331
東京都,世田谷区,67-7,北烏山6丁目24番15号,カクヤス城西センター北側,35.6760197,139.5977893
東京都,世田谷区,67-8,北烏山6丁目12番21号,西之谷公園北側,35.672794,139.5967334
東京都,世田谷区,68-1,北烏山8丁目9番2号,区営北烏山八丁目アパート南側,35.67554,139.5894324
東京都,世田谷区,68-2,北烏山5丁目15番1号,妙壽寺西側,35.6792602,139.5941259
東京都,世田谷区,68-3,北烏山8丁目19番1号,日本女子体育大学北側,35.6772515,139.5901875
東京都,世田谷区,68-4,北烏山8丁目3番,北烏山ファミリー農園東側,35.6764324,139.5915122
東京都,世田谷区,68-5,北烏山8丁目19番,日本女子体育大学陸上競技場南側,35.676936,139.5899196
東京都,世田谷区,68-6,北烏山5丁目16番,日本女子体育大学運動場東側,35.6804337,139.5932641
東京都,世田谷区,68-7,北烏山8丁目18番,日本女子体育大学西側,35.6763431,139.5888047
東京都,世田谷区,68-8,北烏山5丁目1番4号,寺町通り区民集会所南側,35.6766185,139.5973805
東京都,世田谷区,69-1,北烏山9丁目21番10号,UR都市機構シティハイツ烏山東側,35.6722801,139.5917725
東京都,世田谷区,69-2,給田5丁目2番19号,給田五丁目公園東側,35.6722347,139.5884414
東京都,世田谷区,69-3,北烏山9丁目18番29号,北烏山九丁目公園東側,35.6726511,139.5946122
東京都,世田谷区,69-4,給田4丁目24番1号,給田小学校南側,35.6714356,139.5919918
東京都,世田谷区,69-5,北烏山9丁目23番30号,(株)INPEX技術研究所北側,35.6734567,139.5930469
東京都,世田谷区,69-6,北烏山9丁目26番31号,北烏山えのき公園東側,35.6738253,139.5907756
東京都,世田谷区,69-7,給田4丁目28番,masked,35.6713638,139.589601
東京都,世田谷区,69-8,給田4丁目11番26号,給田放置自転車等保管所東側,35.6682158,139.5918731
東京都,世田谷区,70-1,給田3丁目6番10号,ヒロハウス西側,35.667158,139.593653
東京都,世田谷区,70-2,給田1丁目2番1号,烏山小学校東側,35.66360420000001,139.5931298
東京都,世田谷区,70-3,給田2丁目1番1号,佼成学園女子高校西側,35.6661535,139.5966034
東京都,世田谷区,70-4,給田2丁目13番6号,給田保育園南側,35.6650393,139.5933539
東京都,世田谷区,70-5,給田1丁目19番9号,真光寺北側,35.6626641,139.5881628
東京都,世田谷区,70-6,給田1丁目2番1号,烏山小学校西側,35.66360420000001,139.5931298
東京都,世田谷区,70-7,給田1丁目3番7号,六所神社西側,35.6623815,139.5920208
東京都,世田谷区,70-8,給田2丁目11番1号,佼成学園幼稚園東側,35.6630615,139.5955039
東京都,世田谷区,71-1,砧6丁目8番,山野小学校第二校庭北側,35.6438657,139.6138136
東京都,世田谷区,71-2,砧4丁目36番1号,富士見公園東側,35.6437853,139.6152376
東京都,世田谷区,71-3,砧6丁目12番1号,西山野公園南側,35.6429371,139.6122204
東京都,世田谷区,71-4,砧2丁目8番,東京都水道局大蔵給水所北側,35.6426672,139.6164289
東京都,世田谷区,71-5,砧6丁目7番1号,山野小学校北側,35.6428361,139.6125317
東京都,世田谷区,71-6,砧6丁目7番1号,山野小学校東側,35.6428361,139.6125317
東京都,世田谷区,71-7,砧4丁目5番11号,草山公園西側,35.6406437,139.6122204
東京都,世田谷区,71-8,砧4丁目15番14号,観音公園東側,35.6380324,139.6151679
東京都,世田谷区,72-1,砧5丁目2番1号,日本大学商学部南側,35.634575,139.6095139
東京都,世田谷区,72-2,砧8丁目32番先,仙川（打越橋脇）,35.6396293,139.603299
東京都,世田谷区,72-3,砧7丁目15番14号,ゆかり文化幼稚園西側,35.6384287,139.605346
東京都,世田谷区,72-4,砧7丁目14番16号,砧七丁目広場東側,35.6386112,139.6066408
東京都,世田谷区,72-5,砧5丁目9番,砧五丁目ファミリー農園南側,35.6381534,139.6103085
東京都,世田谷区,72-6,砧5丁目15番8号,masked,35.6371825,139.607897
東京都,世田谷区,72-7,砧7丁目2番先,仙川（石井戸橋脇）,35.6346115,139.6056089
東京都,世田谷区,72-8,砧5丁目20番1号,砧五丁目北公園南側,35.6391528,139.6099837
東京都,世田谷区,73-1,砧1丁目11番2号,都営砧一丁目アパート２号棟西側,35.6371945,139.6152675
東京都,世田谷区,73-2,大蔵2丁目11番1号,国立成育医療研究センター南側,35.6321658,139.6134153
東京都,世田谷区,73-3,砧3丁目26番11号,砧郵政宿舎西側,35.6372404,139.6124895
東京都,世田谷区,73-4,砧1丁目32番17号,砧一丁目広場北側,35.6401568,139.6184936
東京都,世田谷区,73-5,大蔵1丁目11番14号,駐車場北側,35.6349313,139.6171894
東京都,世田谷区,73-6,大蔵2丁目4番12号,masked,35.6349811,139.6154666
東京都,世田谷区,73-7,大蔵2丁目8番1号,サレジアン国際学園世田谷中学高等学校南側,35.6331512,139.6140409
東京都,世田谷区,73-8,大蔵1丁目4番,世田谷市場駐輪場東側,35.6332635,139.6213024
東京都,世田谷区,74-1,大蔵5丁目1番先,仙川（清水橋東）,35.6279905,139.6099899
東京都,世田谷区,74-2,大蔵4丁目6番,大蔵運動公園南西側,35.6287908,139.6109369
東京都,世田谷区,74-3,大蔵5丁目9番先,仙川（上谷戸橋脇）,35.6316494,139.6083968
東京都,世田谷区,74-4,大蔵5丁目22番3号,田直公園北側,35.6281128,139.6065626
東京都,世田谷区,74-5,大蔵5丁目1番先,仙川（石井戸公園向かい）,35.6279905,139.6099899
東京都,世田谷区,74-6,大蔵5丁目8番2号,masked,35.6300407,139.6079836
東京都,世田谷区,74-7,大蔵4丁目6番1号,大蔵運動公園東側,35.6300924,139.6116024
東京都,世田谷区,75-1,岡本3丁目18番先,谷戸川（庚申橋脇）,35.6278485,139.6160442
東京都,世田谷区,75-2,岡本1丁目10番先,谷戸川（七之橋脇）,35.6241478,139.6200277
東京都,世田谷区,75-3,岡本2丁目9番1号,都立世田谷総合高等学校東側,35.6190353,139.61946
東京都,世田谷区,75-4,岡本3丁目35番10号,玉川幼稚園西側,35.624797,139.614558
東京都,世田谷区,75-5,岡本1丁目25番4号,岡本地区会館南側,35.6250505,139.6195098
東京都,世田谷区,75-6,岡本2丁目33番24号,岡本福祉作業ホ－ム東側,35.6235922,139.6171707
東京都,世田谷区,75-7,岡本2丁目9番1号,都立世田谷総合高等学校西側,35.6190353,139.61946
東京都,世田谷区,75-8,岡本1丁目30番先,谷戸川（世田谷岡本郵便局前）,35.6265512,139.6192309
東京都,世田谷区,76-1,宇奈根2丁目4番,宇奈根龍王公園南側,35.6206896,139.5998742
東京都,世田谷区,76-2,鎌田4丁目3番1号,砧南小学校西側,35.6223599,139.6118719
東京都,世田谷区,76-3,宇奈根2丁目23番20号,宇奈根地区会館東側,35.6234258,139.6026209
東京都,世田谷区,76-4,鎌田3丁目13番20号,砧南中学校北側,35.621152,139.6133427
東京都,世田谷区,76-5,宇奈根1丁目1番1号,駒澤大学玉川校舎西側,35.6177225,139.6081216
東京都,世田谷区,76-6,鎌田2丁目4番,砧下浄水所用地北側,35.6176079,139.6112644
東京都,世田谷区,76-7,鎌田4丁目16番先,野川（天神森橋脇）,35.6224444,139.609034
東京都,世田谷区,76-8,鎌田1丁目6番1号,鎌田１－６遊び場南側,35.6169832,139.6172791
東京都,世田谷区,76-9,大蔵6丁目7番先,仙川（氷川橋脇）,35.6256066,139.6119017
東京都,世田谷区,77-1,喜多見3丁目11番1号,喜多見小学校北側,35.6259706,139.6009843
東京都,世田谷区,77-2,喜多見6丁目9番1号,砧小学校北側,35.6317161,139.6053107
東京都,世田谷区,77-3,喜多見1丁目26番,喜多見まえこうち緑道,35.623178,139.5957329
東京都,世田谷区,77-4,喜多見5丁目21番18号,喜多見５－２１遊び場（竹山緑地西側）,35.6287867,139.5991574
東京都,世田谷区,77-5,喜多見3丁目11番1号,喜多見小学校西側,35.6259706,139.6009843
東京都,世田谷区,77-6,喜多見5丁目11番,喜多見複合施設南側,35.6289291,139.6014671
東京都,世田谷区,77-7,喜多見1丁目4番10号,喜多見１－４遊び場北側,35.6225094,139.5985203
東京都,世田谷区,77-8,喜多見5丁目7番,次大夫堀公園（水道橋脇）北側,35.6294971,139.6023433
東京都,世田谷区,78-1,喜多見4丁目27番24号,みやっぱら公園北側,35.6295035,139.5934782
東京都,世田谷区,78-2,喜多見7丁目30番先,野川（雁追橋脇）,35.6330086,139.5970071
東京都,世田谷区,78-3,喜多見7丁目31番,次大夫掘公園西側,35.6320888,139.5982814
東京都,世田谷区,78-4,喜多見2丁目9番,砧浄水場西側,35.622858,139.5926271
東京都,世田谷区,78-5,喜多見4丁目20番1号,喜多見中学校南側,35.6252697,139.5951655
東京都,世田谷区,78-6,喜多見2丁目10番45号,喜多見公園東側,35.6249,139.5951
東京都,世田谷区,78-7,喜多見7丁目26番先,滝下橋緑道,35.6341419,139.5927067
東京都,世田谷区,78-8,喜多見2丁目10番45号,喜多見公園北側,35.6249,139.5951
東京都,世田谷区,79-1,喜多見8丁目1番先,野川（中之橋脇）,35.6353922,139.5927863
東京都,世田谷区,79-2,喜多見9丁目25番5号,きたみふれあい広場西口前,35.64187810000001,139.5878561
東京都,世田谷区,79-3,喜多見9丁目25番1号,小田急電鉄(株)喜多見総合事務所西側,35.6383921,139.5895716
東京都,世田谷区,79-4,喜多見9丁目7番10号,カトリック礼拝会南側,35.6378347,139.5881199
東京都,世田谷区,79-5,喜多見9丁目1番34号,オダクル喜多見第１南側,35.6372317,139.5892861
東京都,世田谷区,79-6,喜多見9丁目25番,野川（きたみふれあい広場脇）,35.6408096,139.5888047
東京都,世田谷区,79-7,喜多見9丁目25番5号,きたみふれあい広場,35.64187810000001,139.5878561
東京都,世田谷区,80-1,下馬2丁目33番,都営下馬二丁目アパート２号棟西側,35.641036,139.6766215
東京都,世田谷区,80-2,下馬2丁目32番,こどものひろば公園北側,35.6420736,139.677419
東京都,世田谷区,80-3,下馬2丁目39番,都営下馬アパート９号棟東側,35.6428711,139.6766079
東京都,世田谷区,80-4,下馬2丁目38番23号,都立青鳥特別支援学校南西側,35.6425711,139.6758852
東京都,世田谷区,80-5,下馬2丁目32番,こどものひろば公園南側,35.6420736,139.677419
東京都,世田谷区,80-6,下馬2丁目31番,こどものひろば公園東側,35.6425865,139.678695
東京都,世田谷区,80-7,下馬2丁目31番,こどものひろば公園南側（下馬防災倉庫前）,35.6425865,139.678695
東京都,世田谷区,81-1,下馬1丁目42番12号,駒繋小学校西側,35.6401364,139.6810859
東京都,世田谷区,81-2,下馬1丁目4番先,蛇崩川緑道,35.6382229,139.6837195
東京都,世田谷区,81-3,下馬1丁目42番12号,駒繋小学校北側,35.6401364,139.6810859
東京都,世田谷区,81-4,下馬1丁目4番3号,東急バス(株)下馬営業所西側,35.6381141,139.6837098
東京都,世田谷区,81-5,下馬2丁目11番6号,西澄寺北側,35.63927990000001,139.6779174
東京都,世田谷区,81-6,下馬1丁目42番12号,駒繋小学校南側,35.6401364,139.6810859
東京都,世田谷区,81-7,下馬2丁目11番6号,西澄寺東側,35.63927990000001,139.6779174
東京都,世田谷区,81-8,下馬1丁目42番12号,駒繋小学校東側,35.6401364,139.6810859
東京都,世田谷区,82-1,下馬4丁目28番3号,駒繋公園南側,35.6377096,139.6808583
東京都,世田谷区,82-2,下馬4丁目18番1号,駒留中学校東側,35.6372712,139.6785215
東京都,世田谷区,82-3,下馬4丁目18番1号,駒留中学校西側,35.6372712,139.6785215
東京都,世田谷区,82-4,下馬4丁目1番5号,東京学芸大学附属高校西側,35.6346928,139.6774153
東京都,世田谷区,82-5,下馬4丁目1番5号,東京学芸大学附属高校北側,35.6346928,139.6774153
東京都,世田谷区,82-6,下馬4丁目1番5号,東京学芸大学附属高校東側,35.6346928,139.6774153
東京都,世田谷区,82-7,下馬6丁目42番1号,下馬公園西側,35.6328225,139.6796767
東京都,世田谷区,82-8,下馬4丁目1番1号,下馬中央公園南側,35.63361039999999,139.6779302
東京都,世田谷区,83-1,野沢3丁目34番16号,中丸小学校東側,35.6328366,139.6730507
東京都,世田谷区,83-2,野沢3丁目34番16号,中丸小学校北側,35.6328366,139.6730507
東京都,世田谷区,83-3,野沢3丁目19番6号,野沢公園西側,35.6318079,139.6758068
東京都,世田谷区,83-4,野沢3丁目40番,龍雲寺駐車場北側,35.6314528,139.6708002
東京都,世田谷区,83-5,野沢3丁目29番23号,(株)野沢園南側,35.6310252,139.6732279
東京都,世田谷区,83-6,野沢3丁目2番12号,南原公園東側,35.6279984,139.6763025
東京都,世田谷区,83-7,野沢3丁目34番16号,中丸小学校南側,35.6328366,139.6730507
東京都,世田谷区,83-8,野沢3丁目19番6号,野沢公園北側,35.6318079,139.6758068
東京都,世田谷区,84-1,上馬1丁目16番,墓地西側,35.6384695,139.6676506
東京都,世田谷区,84-2,野沢2丁目4番6号,鶴ケ久保公園南側,35.6332381,139.6709597
東京都,世田谷区,84-3,野沢1丁目3番,龍雲寺墓地西側,35.6344112,139.6691058
東京都,世田谷区,84-4,上馬1丁目10番18号,上馬公園南側,35.6369416,139.6684643
東京都,世田谷区,84-5,野沢1丁目4番3号,旭小学校東側,35.635377,139.6700477
東京都,世田谷区,84-6,野沢1丁目4番3号,旭小学校南側,35.635377,139.6700477
東京都,世田谷区,84-7,野沢1丁目8番14号,野沢地区会館南側,35.6347168,139.6710787
東京都,世田谷区,84-8,野沢2丁目4番6号,鶴ケ久保公園北側,35.6332381,139.6709597
東京都,世田谷区,84-9,野沢2丁目26番20号,野沢二丁目公園南側,35.6340161,139.6674039
東京都,世田谷区,85-1,上馬2丁目24番17号,中里地区会館東側,35.6388086,139.6667968
東京都,世田谷区,85-2,上馬2丁目26番13号,上馬二丁目公園西側,35.6393841,139.6673013
東京都,世田谷区,85-3,上馬2丁目30番1号,衆議院上馬寮南側,35.6394419,139.6653948
東京都,世田谷区,85-4,上馬2丁目30番9号,上馬北公園西側,35.639575,139.6651389
東京都,世田谷区,85-5,上馬2丁目24番17号,中里地区会館北側,35.6388086,139.6667968
東京都,世田谷区,85-6,上馬2丁目17番14号,上馬塩田緑地東側,35.6380884,139.6649606
東京都,世田谷区,85-7,上馬2丁目30番1号,衆議院上馬寮東側,35.6394419,139.6653948
東京都,世田谷区,86-1,野沢4丁目10番22号,masked,35.6319605,139.6673021
東京都,世田谷区,86-2,上馬4丁目12番3号,(学)東育学院コドモの園幼稚園南側,35.6359867,139.662203
東京都,世田谷区,86-3,上馬4丁目12番3号,児童養護施設東京育成園北側,35.6359867,139.662203
東京都,世田谷区,86-4,野沢4丁目8番,野沢４丁目８番植栽東側,35.6313434,139.6688775
東京都,世田谷区,86-5,上馬4丁目2番9号,上馬マンション北側,35.6345163,139.6626958
東京都,世田谷区,86-6,野沢4丁目1番18号,野沢四丁目東整圧器室北側,35.6300056,139.6717272
東京都,世田谷区,86-7,野沢4丁目8番,東京電力(株)駒沢変電所西側,35.6313434,139.6688775
東京都,世田谷区,86-8,野沢4丁目22番1号,野沢児童遊園西側,35.6334567,139.665177
東京都,世田谷区,87-1,駒沢2丁目39番25号,駒沢中学校西側,35.6368214,139.6558957
東京都,世田谷区,87-2,上馬4丁目29番,東海輸送駐車場西側,35.6374252,139.6590796
東京都,世田谷区,87-3,上馬4丁目37番2号,区営上馬四丁目アパート２号棟東側,35.6383865,139.6595978
東京都,世田谷区,87-4,上馬5丁目34番,駒留公園南側,35.6400513,139.660998
東京都,世田谷区,87-5,駒沢2丁目39番25号,駒沢中学校東側,35.6368214,139.6558957
東京都,世田谷区,87-6,駒沢2丁目39番25号,駒沢中学校北側,35.6368214,139.6558957
東京都,世田谷区,87-7,上馬5丁目23番13号,上馬五丁目郵政宿舎西側,35.6405605,139.6561694
東京都,世田谷区,87-8,上馬5丁目13番,小泉公園北側,35.6378333,139.6565285
東京都,世田谷区,88-1,駒沢2丁目10番6号,駒沢小学校北側,35.6329189,139.6578804
東京都,世田谷区,88-2,駒沢1丁目22番,駒沢一丁目西公園北側,35.6298512,139.6570068
東京都,世田谷区,88-3,駒沢1丁目13番,松之木都市林南側,35.6316338,139.6594782
東京都,世田谷区,88-4,駒沢1丁目23番1号,駒澤大学東側,35.6287952,139.6571149
東京都,世田谷区,88-5,駒沢1丁目22番,masked,35.6298512,139.6570068
東京都,世田谷区,88-6,駒沢3丁目21番,駒沢はらっぱプレーパーク西側,35.6323575,139.6525297
東京都,世田谷区,88-7,駒沢3丁目19番,駒沢緑泉公園西側,35.6321017,139.6532942
東京都,世田谷区,88-8,駒沢2丁目10番6号,駒沢小学校南側,35.6329189,139.6578804
東京都,世田谷区,89-1,新町3丁目5番3号,旧昭和オプトロニクス(株)南側,35.6326722,139.6495723
東京都,世田谷区,89-2,新町3丁目5番3号,旧昭和オプトロニクス（株）西側,35.6326722,139.6495723
東京都,世田谷区,89-3,新町2丁目25番,新町２－２５遊び場東側,35.6311173,139.6469628
東京都,世田谷区,89-4,新町2丁目18番3号,個人タクシー事業団協同組合南側,35.6289842,139.6489589
東京都,世田谷区,89-5,新町2丁目21番,新町南公園西側,35.6296227,139.6482381
東京都,世田谷区,89-6,新町2丁目23番3号,都営新町二丁目アパート３号棟東側,35.6302735,139.6473304
東京都,世田谷区,89-7,新町2丁目25番,新町２－２５遊び場南側,35.6311173,139.6469628
東京都,世田谷区,90-1,桜新町1丁目1番,桜新町さくらっ子公園西側,35.6280912,139.6455807
東京都,世田谷区,90-2,桜新町2丁目21番6号,masked,35.6325968,139.6404729
東京都,世田谷区,90-3,桜新町2丁目6番1号,世田谷新町公園南側,35.6331176,139.6440933
東京都,世田谷区,90-4,桜新町1丁目31番,桜新町一丁目緑地北側,35.6276684,139.6440933
東京都,世田谷区,90-5,桜新町1丁目21番,駐車場東側,35.6303706,139.6415429
東京都,世田谷区,90-6,桜新町1丁目30番14号,桜新町区民集会所東側,35.6283229,139.6439889
東京都,世田谷区,90-7,桜新町2丁目6番6号,桜新町放置自転車等保管所南側,35.6327697,139.6439638
東京都,世田谷区,90-8,桜新町2丁目6番6号,桜新町放置自転車等保管所西側,35.6327697,139.6439638
東京都,世田谷区,91-1,深沢6丁目8番18号,駒澤大学深沢校舎南側,35.6249913,139.6547307
東京都,世田谷区,91-2,新町1丁目26番29号,深沢中学校東側,35.6267405,139.6486025
東京都,世田谷区,91-3,深沢6丁目8番18号,駒澤大学深沢校舎西側,35.6249913,139.6547307
東京都,世田谷区,91-4,新町1丁目26番29号,深沢中学校南側,35.6267405,139.6486025
東京都,世田谷区,91-5,深沢7丁目3番14号,都立深沢高等学校東側,35.6233399,139.6480388
東京都,世田谷区,91-6,深沢6丁目14番2号,醫王寺南側,35.6220222,139.6530308
東京都,世田谷区,91-7,深沢7丁目1番1号,日本体育大学南側,35.6217833,139.6490041
東京都,世田谷区,92-1,駒沢公園1番,都立駒沢オリンピック公園硬式野球場西側,35.6269033,139.6582908
東京都,世田谷区,92-2,駒沢5丁目24番3号,masked,35.6266369,139.65608
東京都,世田谷区,92-3,新町1丁目4番24号,深沢小学校西側,35.6274021,139.6516686
東京都,世田谷区,92-4,新町1丁目15番15号,深沢広場北側,35.6268614,139.6507502
東京都,世田谷区,92-5,駒沢4丁目33番,駒沢４－３３遊び場西側,35.6276896,139.652702
東京都,世田谷区,92-6,新町1丁目5番,新町一丁目公園西側,35.6285804,139.6520643
東京都,世田谷区,92-7,駒沢公園1番,都立駒沢オリンピック公園弓道場南側,35.6269033,139.6582908
東京都,世田谷区,92-8,新町1丁目4番24号,深沢小学校北側,35.6274021,139.6516686
東京都,世田谷区,93-1,深沢3丁目7番1号,東深沢小学校南側,35.618197,139.6585215
東京都,世田谷区,93-2,深沢4丁目3番1号,東京学芸大学附属世田谷中学校東側,35.6204366,139.6594169
東京都,世田谷区,93-3,深沢2丁目16番24号,masked,35.6190223,139.6607428
東京都,世田谷区,93-4,深沢4丁目10番1号,東京学芸大学附属世田谷小学校西側,35.6202631,139.6577533
東京都,世田谷区,93-5,深沢4丁目18番28号,東深沢中学校西側,35.6189196,139.6538977
東京都,世田谷区,93-6,深沢3丁目7番1号,東深沢小学校北側,35.618197,139.6585215
東京都,世田谷区,93-7,深沢4丁目10番1号,東京学芸大学附属世田谷小学校南側,35.6202631,139.6577533
東京都,世田谷区,93-8,深沢3丁目13番12号,深沢公園東側,35.6160183,139.6581976
東京都,世田谷区,93-9,深沢4丁目3番1号,東京学芸大学附属世田谷中学校西側,35.6204366,139.6594169
東京都,世田谷区,94-1,用賀1丁目5番1号,桜町小学校北側,35.6244364,139.6419414
東京都,世田谷区,94-2,用賀1丁目15番先,谷沢川（宇佐前橋脇）,35.6236688,139.6377174
東京都,世田谷区,94-3,中町5丁目10番20号,日体幼稚園北側,35.6229813,139.6431369
東京都,世田谷区,94-4,用賀1丁目25番2号,masked,35.6225266,139.6361995
東京都,世田谷区,94-5,用賀1丁目5番1号,桜町小学校東側,35.6244364,139.6419414
東京都,世田谷区,94-6,深沢8丁目14番1号,深沢の杜緑地東側,35.6245811,139.6456874
東京都,世田谷区,94-7,用賀1丁目5番1号,桜町小学校南側,35.6244364,139.6419414
東京都,世田谷区,94-8,用賀1丁目19番先,谷沢川（栄橋脇）,35.6222348,139.6377174
東京都,世田谷区,95-1,用賀4丁目34番,京西小学校第二校庭南側,35.6299934,139.6313421
東京都,世田谷区,95-2,用賀4丁目6番（高架下）,用賀高架下広場北側,35.6260126,139.6316283
東京都,世田谷区,95-3,用賀4丁目27番4号,京西小学校西側,35.6293218,139.63171
東京都,世田谷区,95-4,用賀2丁目24番15号,用賀二丁目広場南側,35.6253188,139.6390706
東京都,世田谷区,95-5,用賀4丁目7番1号,エコプラザ用賀南側,35.6271247,139.6307248
東京都,世田谷区,95-6,用賀2丁目4番1号,都立桜町高等学校北側,35.6263072,139.640185
東京都,世田谷区,95-7,用賀4丁目9番10号,用賀くすのき公園南側,35.6272818,139.6323979
東京都,世田谷区,95-8,用賀2丁目22番6号,用賀二丁目北広場南側,35.6259181,139.6383565
東京都,世田谷区,95-9,用賀2丁目4番1号,都立桜町高等学校東側,35.6263072,139.640185
東京都,世田谷区,96-1,上用賀5丁目15番1号,用賀中学校南側,35.6306418,139.627061
東京都,世田谷区,96-2,上用賀1丁目24番1号,都営上用賀一丁目アパート１号棟西側,35.6341295,139.6342706
東京都,世田谷区,96-3,上用賀1丁目24番2号,上用賀第二広場東側,35.6339854,139.6343802
東京都,世田谷区,96-4,上用賀3丁目19番8号,上用賀３丁目１９番西側,35.6330254,139.6293927
東京都,世田谷区,96-5,上用賀3丁目8番4号,上用賀３－８遊び場南側,35.6314123,139.6297204
東京都,世田谷区,96-6,上用賀5丁目24番8号,上用賀放置自転車等保管所西側,35.6321248,139.6251617
東京都,世田谷区,96-7,上用賀5丁目15番1号,用賀中学校西側,35.6306418,139.627061
東京都,世田谷区,96-8,上用賀5丁目15番1号,用賀中学校北側,35.6306418,139.627061
東京都,世田谷区,97-1,上用賀6丁目25番1号,関東中央病院東側,35.637332,139.6260301
東京都,世田谷区,97-2,上用賀6丁目25番1号,関東中央病院西側,35.637332,139.6260301
東京都,世田谷区,97-3,上用賀2丁目1番1号,馬事公苑西側,35.6368685,139.6343504
東京都,世田谷区,97-4,上用賀4丁目16番,上用賀四丁目管理地,35.6360455,139.6307046
東京都,世田谷区,97-5,上用賀6丁目14番1号,用賀小学校東側,35.6356117,139.6261328
東京都,世田谷区,97-6,上用賀4丁目32番,上用賀公園西側,35.6382713,139.6291109
東京都,世田谷区,97-7,上用賀6丁目13番18号,用賀公園南側,35.6350791,139.6268798
東京都,世田谷区,97-8,上用賀6丁目14番1号,用賀小学校南側,35.6356117,139.6261328
東京都,世田谷区,98-1,瀬田5丁目30番1号,フラワーランド（瀬田農業公園）南側,35.6256403,139.6243799
東京都,世田谷区,98-2,玉川台2丁目30番,masked,35.6250805,139.6291109
東京都,世田谷区,98-3,瀬田5丁目23番,駐車場北側,35.6248709,139.6252065
東京都,世田谷区,98-4,玉川台2丁目30番,masked,35.6250805,139.6291109
東京都,世田谷区,98-5,玉川台2丁目30番,masked,35.6250805,139.6291109
東京都,世田谷区,98-6,玉川台2丁目6番18号,玉川台中広場南側,35.6237488,139.6310682
東京都,世田谷区,98-7,玉川台1丁目10番9号,masked,35.6233878,139.6337975
東京都,世田谷区,98-8,玉川台2丁目25番10号,玉川台二丁目公園西側,35.6255635,139.6310233
東京都,世田谷区,99-1,瀬田4丁目32番19号,かさ守稲荷神社東側,35.6218405,139.6268793
東京都,世田谷区,99-2,瀬田3丁目12番19号,東京電力(株)用賀変電所西側,35.6214675,139.6362882
東京都,世田谷区,99-3,瀬田2丁目17番1号,瀬田中学校東側,35.6182258,139.6323907
東京都,世田谷区,99-4,瀬田2丁目17番1号,瀬田中学校北側,35.6182258,139.6323907
東京都,世田谷区,99-5,瀬田2丁目15番1号,瀬田小学校南側,35.6185538,139.6312162
東京都,世田谷区,99-6,瀬田1丁目15番,セント・メリーズインターナショナル・スクール西側,35.6151969,139.633414
東京都,世田谷区,99-7,瀬田4丁目41番21号,瀬田四丁目旧小坂緑地東側,35.6216375,139.6234196
東京都,世田谷区,99-8,瀬田2丁目17番1号,瀬田中学校南側,35.6182258,139.6323907
東京都,世田谷区,100-1,玉川4丁目6番1号,二子玉川小学校東側,35.6164553,139.6266308
東京都,世田谷区,100-2,玉川3丁目38番先,砧線跡地歩行者自転車道,35.6168183,139.6226569
東京都,世田谷区,100-3,玉川4丁目38番先,丸子川（区立瀬田四丁目南緑地付近）,35.6196465,139.6227365
東京都,世田谷区,100-4,玉川4丁目6番1号,二子玉川小学校北側,35.6164553,139.6266308
東京都,世田谷区,100-5,玉川4丁目9番先,丸子川（治大夫橋東）,35.6178106,139.6261598
東京都,世田谷区,100-6,玉川4丁目16番6号,玉川保育園東側,35.6177344,139.6241309
東京都,世田谷区,100-7,玉川3丁目31番先,谷川緑道,35.614607,139.6239317
東京都,世田谷区,100-8,玉川4丁目4番（高架下）,はなみずき広場西側,35.6158654,139.6268798
東京都,世田谷区,101-1,上野毛3丁目15番34号,多摩美術大学南側,35.6141864,139.6362118
東京都,世田谷区,101-2,上野毛3丁目23番先,丸子川（稲荷橋脇）,35.6101809,139.6348484
東京都,世田谷区,101-3,玉川2丁目11番先,丸子川,35.6128601,139.6307116
東京都,世田谷区,101-4,玉川1丁目20番1号,旧都立玉川高等学校プール北側,35.6093259,139.6339459
東京都,世田谷区,101-5,玉川1丁目7番2号,玉川福祉作業所東側,35.6102929,139.628102
東京都,世田谷区,101-6,玉川1丁目20番1号,旧都立玉川高等学校西側,35.6093259,139.6339459
東京都,世田谷区,101-7,玉川2丁目1番7号,玉川税務署南側,35.6116855,139.6308717
東京都,世田谷区,101-8,玉川2丁目17番10号,東京都市大学二子幼稚園北側,35.6140265,139.6289914
東京都,世田谷区,102-1,中町5丁目19番3号,玉川中町公園南側,35.6199755,139.6422602
東京都,世田谷区,102-2,上野毛4丁目10番1号,上野毛四丁目緑地南側,35.6190294,139.638746
東京都,世田谷区,102-3,中町4丁目21番1号,玉川中学校東側,35.6172843,139.6430572
東京都,世田谷区,102-4,中町4丁目23番1号,中町小学校西側,35.6172843,139.6430571
東京都,世田谷区,102-5,中町5丁目19番3号,玉川中町公園北側,35.6199755,139.6422602
東京都,世田谷区,102-6,中町4丁目38番21号,中町幼稚園北側,35.6163729,139.6392835
東京都,世田谷区,102-7,中町3丁目21番17号,玉川中学校南側,35.6158979,139.6436223
東京都,世田谷区,102-8,中町4丁目1番11号,中町四丁目公園西側,35.617159,139.643157
東京都,世田谷区,102-9,中町3丁目26番1号,谷沢川（田向橋南側）,35.6148246,139.6423797
東京都,世田谷区,103-1,中町2丁目10番13号,等々力園西側,35.6138944,139.6468293
東京都,世田谷区,103-2,中町2丁目20番11号,金剛寺東側,35.6129792,139.6443343
東京都,世田谷区,103-3,中町2丁目29番1号,玉川小学校南側,35.6108492,139.6436715
東京都,世田谷区,103-4,中町2丁目34番1号,中町二丁目公園南側,35.6117025,139.6413038
東京都,世田谷区,103-5,中町2丁目29番1号,玉川小学校東側,35.6108492,139.6436715
東京都,世田谷区,103-6,中町1丁目24番9号,中町南公園西側,35.6092216,139.6410497
東京都,世田谷区,103-7,中町2丁目29番1号,玉川小学校西側,35.6108492,139.6436715
東京都,世田谷区,103-8,中町1丁目14番9号,権蔵橋公園西側,35.6081766,139.6436781
東京都,世田谷区,104-1,野毛1丁目25番1号,玉川野毛町公園北側,35.6057106,139.6433465
東京都,世田谷区,104-2,野毛1丁目25番1号,玉川野毛町公園西側,35.6057106,139.6433465
東京都,世田谷区,104-3,野毛1丁目25番1号,玉川野毛町公園東側,35.6057106,139.6433465
東京都,世田谷区,104-4,野毛3丁目13番先,丸子川,35.6049848,139.6377971
東京都,世田谷区,104-5,野毛2丁目8番先,丸子川（大日橋脇）,35.6017413,139.6411444
東京都,世田谷区,104-6,野毛1丁目23番,公園予定地南側,35.6040186,139.6437745
東京都,世田谷区,104-7,野毛1丁目3番7号,玉川清掃事務所西側,35.5996437,139.6445265
東京都,世田谷区,105-1,深沢5丁目38番1号,都立園芸高等学校北側,35.6188508,139.6479808
東京都,世田谷区,105-2,深沢5丁目11番1号,深沢神社東側,35.6200436,139.6515068
東京都,世田谷区,105-3,等々力8丁目22番1号,玉川郵便局東側,35.6160862,139.6499964
東京都,世田谷区,105-4,等々力8丁目10番1号,東京都市大学等々力中学校・高等学校東側,35.6139779,139.6521071
東京都,世田谷区,105-5,等々力7丁目26番1号,等々力小学校南側,35.6162743,139.6531604
東京都,世田谷区,105-6,等々力7丁目26番1号,等々力小学校西側,35.6162743,139.6531604
東京都,世田谷区,105-7,等々力7丁目13番9号,畑南側,35.6141402,139.6551433
東京都,世田谷区,105-8,等々力7丁目26番1号,等々力小学校東側,35.6162743,139.6531604
東京都,世田谷区,105-9,深沢5丁目38番1号,都立園芸高等学校南側,35.6188508,139.6479808
東京都,世田谷区,106-1,等々力3丁目4番1号,玉川総合支所西側,35.608643,139.6483178
東京都,世田谷区,106-2,等々力3丁目27番7号,玉川神社西側,35.6107829,139.6514764
東京都,世田谷区,106-3,等々力2丁目31番,等々力２－３１遊び場東側,35.6076511,139.6484374
東京都,世田谷区,106-4,等々力3丁目2番（高架下）,(財)東京都道路整備保全公社等々力駐車場西側,35.6088691,139.6495932
東京都,世田谷区,106-5,等々力2丁目38番,等々力渓谷公園東側,35.6071809,139.6466439
東京都,世田谷区,106-6,等々力2丁目21番15号,トヨタ自動車(株)等々力アパート北側,35.6070269,139.6514369
東京都,世田谷区,106-7,等々力3丁目2番2号,等々力自転車等駐車場,35.6084337,139.6491638
東京都,世田谷区,106-8,等々力2丁目17番14号,尾山台地区会館駐輪場北側,35.6057644,139.6524116
東京都,世田谷区,107-1,等々力1丁目32番10号,東京電力(株)尾山台変電所北側,35.6042277,139.6494076
東京都,世田谷区,107-2,玉堤1丁目12番,東京都市大学テニスコ－ト南側,35.5953019,139.6520643
東京都,世田谷区,107-3,尾山台2丁目11番3号,宇佐神社南側,35.6001964,139.6548573
東京都,世田谷区,107-4,尾山台2丁目5番6号,尾山台ナザレン幼稚園西側,35.5998648,139.650494
東京都,世田谷区,107-5,玉堤2丁目11番1号,玉堤小学校南側,35.5995324,139.6476004
東京都,世田谷区,107-6,玉堤1丁目28番1号,東京都市大学南側,35.5992675,139.6515687
東京都,世田谷区,107-7,尾山台2丁目17番10号,狐塚古墳緑地西側,35.6021808,139.6514791
東京都,世田谷区,107-8,玉堤2丁目11番1号,玉堤小学校西側,35.5995324,139.6476004
東京都,世田谷区,108-1,等々力5丁目20番15号,等々力五丁目はなみずき公園西側,35.610033,139.6555419
東京都,世田谷区,108-2,等々力5丁目24番,畑東側,35.610042,139.6574709
東京都,世田谷区,108-3,尾山台3丁目27番23号,尾山台中学校南側,35.6054497,139.6552031
東京都,世田谷区,108-4,尾山台2丁目25番7号,東京電力(株)渋谷電力所多摩川分室西側,35.6023013,139.6559613
東京都,世田谷区,108-5,尾山台3丁目27番23号,尾山台中学校北側,35.6054497,139.6552031
東京都,世田谷区,108-6,尾山台3丁目27番23号,尾山台中学校西側,35.6054497,139.6552031
東京都,世田谷区,108-7,尾山台3丁目11番1号,尾山台小学校西側,35.6041963,139.6542266
東京都,世田谷区,108-8,尾山台3丁目11番1号,尾山台小学校北側,35.6041963,139.6542266
東京都,世田谷区,109-1,奥沢7丁目7番,玉川聖学院体育館棟北側,35.6066142,139.6645011
東京都,世田谷区,109-2,等々力6丁目15番,等々力六丁目公園南側,35.6128468,139.6571662
東京都,世田谷区,109-3,奥沢7丁目41番,浄真寺西側,35.6078658,139.6608335
東京都,世田谷区,109-4,等々力6丁目4番1号,八幡中学校南側,35.610983,139.6611134
東京都,世田谷区,109-5,等々力6丁目4番1号,八幡中学校西側,35.610983,139.6611134
東京都,世田谷区,109-6,奥沢7丁目34番6号,九品仏広場東側,35.6064531,139.661867
東京都,世田谷区,109-7,奥沢7丁目6番1号,masked,35.6070744,139.6644413
東京都,世田谷区,109-8,等々力6丁目34番,等々力六丁目広場西側,35.6126973,139.6580432
東京都,世田谷区,110-1,玉川田園調布1丁目19番1号,東京都水道局研修・開発センター北側,35.5999095,139.660425
東京都,世田谷区,110-2,尾山台1丁目11番,道路脇花壇,35.5998074,139.6568474
東京都,世田谷区,110-3,玉川田園調布1丁目19番1号,玉川浄水場用地北側,35.5999095,139.660425
東京都,世田谷区,110-4,奥沢8丁目12番1号,九品仏小学校北側,35.6032526,139.6604614
東京都,世田谷区,110-5,奥沢8丁目12番1号,九品仏小学校西側,35.6032526,139.6604614
東京都,世田谷区,110-6,奥沢8丁目12番1号,九品仏小学校南側,35.6032526,139.6604614
東京都,世田谷区,110-7,玉川田園調布1丁目19番,ぽかぽか広場西側,35.6006619,139.6614714
東京都,世田谷区,110-8,玉川田園調布1丁目19番1号,玉川浄水場用地東側,35.5999095,139.660425
東京都,世田谷区,111-1,奥沢5丁目22番1号,奥沢神社東側,35.6052705,139.6710195
東京都,世田谷区,111-2,奥沢5丁目42番14号,自由が丘駅第一自転車等駐車場南側,35.6063027,139.6670725
東京都,世田谷区,111-3,奥沢5丁目41番1号,masked,35.6056535,139.6669781
東京都,世田谷区,111-4,玉川田園調布2丁目17番15号,八幡小学校北側,35.60236630000001,139.6671622
東京都,世田谷区,111-5,玉川田園調布2丁目17番15号,八幡小学校西側,35.60236630000001,139.6671622
東京都,世田谷区,111-6,奥沢4丁目13番,ユアスペースエンヤ奥沢４丁目北側,35.6013632,139.6692852
東京都,世田谷区,111-7,奥沢5丁目22番1号,奥沢神社南側,35.6052705,139.6710195
東京都,世田谷区,111-8,玉川田園調布2丁目17番15号,八幡小学校東側,35.60236630000001,139.6671622
東京都,世田谷区,112-1,奥沢2丁目39番9号,奥沢二丁目公園西側,35.6075232,139.6724748
東京都,世田谷区,112-2,奥沢2丁目33番2号,読書空間みかも南側,35.6063547,139.6730928
東京都,世田谷区,112-3,奥沢3丁目5番7号,旧奥沢まちづくりセンター南側,35.5999857,139.6731327
東京都,世田谷区,112-4,奥沢3丁目1番1号,奥沢小学校西側,35.59946410000001,139.6753243
東京都,世田谷区,112-5,奥沢2丁目31番16号,masked,35.6071888,139.674659
東京都,世田谷区,112-6,奥沢3丁目29番3号,玉川消防署奥沢消防出張所東側,35.60158699999999,139.6726542
東京都,世田谷区,112-7,奥沢3丁目1番1号,奥沢小学校南側,35.59946410000001,139.6753243
東京都,世田谷区,112-8,奥沢3丁目1番1号,奥沢小学校東側,35.59946410000001,139.6753243
東京都,世田谷区,113-1,奥沢1丁目60番6号,東京電力(株)大岡山変電所北側,35.6052987,139.6783614
東京都,世田谷区,113-2,奥沢1丁目42番1号,奥沢中学校西側,35.6027682,139.6795634
東京都,世田谷区,113-3,奥沢1丁目36番11号,井上香料製造所西側,35.60316760000001,139.6769006
東京都,世田谷区,113-4,奥沢1丁目19番2号,奥沢公園東側,35.6010315,139.6791735
東京都,世田谷区,113-5,奥沢1丁目42番1号,奥沢中学校東側,35.6027682,139.6795634
東京都,世田谷区,113-6,奥沢1丁目42番1号,奥沢中学校南側,35.6027682,139.6795634
東京都,世田谷区,113-7,奥沢1丁目2番13号,南奥沢保育園南側,35.5994575,139.6801238
東京都,世田谷区,113-8,奥沢1丁目1番1号,東玉川小学校西側,35.5983796,139.6799062
東京都,世田谷区,114-1,東玉川2丁目9番10号,田園調布学園運動場西側,35.5939961,139.6765517
東京都,世田谷区,114-2,東玉川2丁目9番10号,田園調布学園運動場東側,35.5939961,139.6765517
東京都,世田谷区,114-3,東玉川2丁目9番10号,田園調布学園運動場南側,35.5939961,139.6765517
東京都,世田谷区,114-4,東玉川1丁目19番15号,東玉川地区会館北側,35.5971462,139.6787953
東京都,世田谷区,114-5,東玉川2丁目20番8号,田園調布学園第二校舎北側,35.5958451,139.6742493
東京都,世田谷区,114-6,東玉川1丁目9番21号,masked,35.5955132,139.6797183
東京都,世田谷区,114-7,東玉川2丁目21番8号,田園調布学園本校舎南側,35.5954922,139.6739171
東京都,世田谷区,114-8,東玉川1丁目9番4号,masked,35.5952247,139.6792809
