prefecture,city,number,address,name,lat,long,note
東京都,八王子市,001-1,元横山町1-29,学校給食センター(元横山) 北側,35.6656776,139.3381921,
東京都,八王子市,001-2,元横山町2-14-3,第一小学校東側コンクリート塀,35.6608493,139.3362496,
東京都,八王子市,001-3,本町25,椎名内科向かい側植込,35.6624694,139.3331179,
東京都,八王子市,001-4,元横山町3-24,元横西公園北側,35.6662409,139.3318494,
東京都,八王子市,001-5,元横山町2-14-3,第一小学校南側コンクリート塀,35.6608493,139.3362496,
東京都,八王子市,001-6,元横山町2-18-1,妙薬寺北側ブロック塀,35.6632594,139.3354985,
東京都,八王子市,001-7,元横山町2-14-3,第一小学校西側フェンス,35.6608493,139.3362496,
東京都,八王子市,001-8,元横山町1-74-1,元横一丁目公園フェンス,35.6589938,139.3398571,
東京都,八王子市,002-1,八木町7-1,第二小学校南側フェンス,35.6616833,139.3218511,
東京都,八王子市,002-2,八木町8,八木町公園東側植込,35.66185249999999,139.3210684,
東京都,八王子市,002-3,追分町10-6,藤和シティホームズ西八王子西側,35.6606639,139.3172823,
東京都,八王子市,002-4,元本郷町1-1,善能寺北側塀,35.662627,139.3229708,
東京都,八王子市,002-5,大横町1-8,エコス大横店南側フェンス,35.6614686,139.3295814,
東京都,八王子市,002-6,八木町7-1,第二小学校北側フェンス東側,35.6616833,139.3218511,
東京都,八王子市,003-1,寺町28-4,いちょう公園南大通り側,35.6559728,139.3329593,
東京都,八王子市,003-2,子安町4-31,子安公園西側,35.652613,139.3354171,
東京都,八王子市,003-3,上野町1-6,念仏院西側大谷石塀,35.6567296,139.3282561,
東京都,八王子市,003-4,天神町23-1,天神公園北側フェンス,35.6573842,139.3301053,
東京都,八王子市,003-5,中町9,西放射線中町公園 (風車の広場)北側,35.6586951,139.3352585,
東京都,八王子市,003-6,子安町4-44-5,子安濱村こかげ公園南側,35.6554047,139.3352269,
東京都,八王子市,003-7,寺町29-15,第三小学校北側フェンス,35.6555464,139.3320872,
東京都,八王子市,003-8,子安町4-31,子安公園南側,35.652613,139.3354171,
東京都,八王子市,004-1,新町5,竹の花公園北側,35.6622372,139.3416808,
東京都,八王子市,004-2,東町5-6,クリエイトホール北側植込,35.658532,139.3399542,
東京都,八王子市,004-3,明神町2-15-1,第四小学校西側フェンス,35.6579237,139.3458141,
東京都,八王子市,004-4,明神町2-15-1,第四小学校南側フェンス,35.6579237,139.3458141,
東京都,八王子市,004-5,明神町1-119-5,北田南公園北側,35.6573894,139.34628,
東京都,八王子市,004-6,明神町2-9,明神町なかよし公園北西フェンス,35.6565176,139.3469402,
東京都,八王子市,004-7,明神町4-19-1,第五中学校北側植込,35.6610785,139.344372,
東京都,八王子市,004-8,明神町4-20-1,都立南多摩中等教育学校南側植込,35.6608289,139.3446884,
東京都,八王子市,005-1,長房町45-2,せきれい児童遊園フェンス前植込,35.6614667,139.3082986,
東京都,八王子市,005-2,千人町3-4,千人町桑の実児童公園西側先,35.6581642,139.3106065,
東京都,八王子市,005-3,千人町3-5-17,千人保育園東側フェンス,35.658833,139.3100705,
東京都,八王子市,005-4,千人町3-7-7,第五小学校東側入口脇フェンス,35.6590822,139.3079233,
東京都,八王子市,005-5,千人町3-7,第五小学校西側入口脇フェンス,35.6586,139.308644,
東京都,八王子市,005-6,千人町4-8-1,都立八王子桑志高等学校敷地西側市道フェンス,35.6579193,139.3047423,
東京都,八王子市,005-7,千人町4-7,千人町どんぐり広場北側,35.6576291,139.3064856,
東京都,八王子市,006-1,子安町1-22-25,清流寺東側空地,35.6524316,139.3439258,
東京都,八王子市,006-2,子安町2-2-11,子安東公園南侧植込,35.6517423,139.3400118,
東京都,八王子市,006-3,子安町2-18-1,いずみの森義務教育学校北側フェンス,35.650136,139.3425393,
東京都,八王子市,006-4,子安町1-12-8,八王子ハローワーク西側フェンス,35.6538404,139.3407156,
東京都,八王子市,006-5,片倉町533,由井中学校西側フェンス,35.6446506,139.3382383,
東京都,八王子市,006-6,子安町1-385-77,子安六万坊公園北側フェンス,35.65075059999999,139.3412051,
東京都,八王子市,006-7,子安町2-22,六本杉公園北側フェンス,35.6490856,139.3416808,
東京都,八王子市,006-8,子安町2-6-1,子安市民センター西側,35.6508263,139.3446049,
東京都,八王子市,006-9,子安町2-22,六本杉公園南側フェンス,35.6490856,139.3416808,
東京都,八王子市,007-1,上野町32-1,バス停「南大通り」南側空地,35.6551542,139.3260374,
東京都,八王子市,007-2,上野町39-1,金剛院南側ブロック塀,35.6567818,139.3271325,
東京都,八王子市,007-3,台町4-40-12,千人町分教会南側コンクリート塀,35.6567002,139.3163226,
東京都,八王子市,007-4,台町3-1-18,台町見晴公園南側,35.6528985,139.3264587,
東京都,八王子市,007-5,台町3-25-1,八王子拓真高等学校西側植込,35.6551997,139.3164217,
東京都,八王子市,007-6,台町4-2-1,第七小学校北側フェンス,35.6567292,139.3243301,
東京都,八王子市,007-7,台町4-2-1,第七小学校東側フェンス,35.6567292,139.3243301,
東京都,八王子市,007-8,台町4-33-13,小児・障害メディカルセンター 東側フェンス,35.6575553,139.3185718,
東京都,八王子市,008-1,中野上町5-10-5,(株) サンエス西側ブロック塀,35.6740019,139.3160644,
東京都,八王子市,008-2,中野上町1-22-11,中野保育園南側フェンス,35.6667539,139.3248385,
東京都,八王子市,008-3,中野上町2-14-1,第九小学校南側フェンス,35.6707902,139.324343,
東京都,八王子市,008-4,中野上町2-14-1,第九小学校西側フェンス,35.6707902,139.324343,
東京都,八王子市,008-5,中野上町4-28-1,第二中学校西側フェンス,35.6704537,139.3150149,
東京都,八王子市,008-6,中野上町2-31,日本機械工業(株)八王子工場北西側フェンス,35.6707172,139.3193246,
東京都,八王子市,008-7,中野上町4-10-15,八王子市補修センター北側ブロック塀,35.6694565,139.3195624,
東京都,八王子市,009-1,暁町1-30,東三まちの広場フェンス,35.6696916,139.3338314,
東京都,八王子市,009-2,大和田町7-5-1,第十小学校北側フェンス,35.6662063,139.3438879,
東京都,八王子市,009-3,大和田町7-5-1,第十小学校南東側フェンス,35.6662063,139.3438879,
東京都,八王子市,009-4,富士見町21,西花田原公園東側 (入口沿い),35.6690857,139.3460421,
東京都,八王子市,009-5,大和田町7-6-1,大和田七丁目アパート1号棟前駐車場フェンス,35.6662474,139.3446554,
東京都,八王子市,009-6,大和田町7-21-1,八王子郵便局北側,35.6667491,139.3407344,
東京都,八王子市,009-7,富士見町4-8,富士見町緑地,35.6681308,139.3507206,
東京都,八王子市,009-8,大和田町5-9-1,大和田市民センター東側植込,35.6630136,139.3519167,
東京都,八王子市,009-9,暁町3-1-1,ひよどり山中学校南門横フェンス,35.675414,139.3388611,
東京都,八王子市,010-1,暁町2-12,ひよどり公園北側フェンス,35.6736085,139.3327017,
東京都,八王子市,010-2,中野山王3-12,中田遺跡公園南側,35.6743177,139.3236049,
東京都,八王子市,010-3,中野山王3-25-1,清水小学校東側,35.6759405,139.3201755,
東京都,八王子市,010-4,中野山王1-6-14,信用土地(株) 西側コンクリート塀,35.6713088,139.3290905,
東京都,八王子市,010-5,中野山王3-1-1,中野北小学校北側フェンス,35.6738654,139.3269726,
東京都,八王子市,010-6,中野山王3-1-1,中野北小学校南側フェンス,35.6738654,139.3269726,
東京都,八王子市,010-7,中野山王3-12,中田遺跡公園北側,35.6743177,139.3236049,
東京都,八王子市,011-1,大和田町4-25,北の原公園北側,35.6674992,139.3553208,
東京都,八王子市,011-2,大和田町4-19-1,大和田小学校北側フェンス,35.6653799,139.3542947,
東京都,八王子市,011-3,大和田町4-19,大和田小学校南東側フェンス,35.6654752,139.3542104,
東京都,八王子市,011-4,大和田町4-1839-21,大和台公園北側フェンス,35.6634006,139.3526243,
東京都,八王子市,011-5,大和田町5-40,石川道公園南側,35.668586,139.352545,
東京都,八王子市,011-6,大和田町2-8,南原公園東南,35.6623448,139.3579381,
東京都,八王子市,011-7,大和田町2-20,大和田公園西側,35.6654314,139.3600797,
東京都,八王子市,012-1,台町2-2,富士森公園こども広場北側,35.6502736,139.321742,
東京都,八王子市,012-2,台町2-2,富士森公園東側,35.6502736,139.321742,
東京都,八王子市,012-3,台町2-2,野球場西側植込,35.6502736,139.321742,
東京都,八王子市,012-4,散田町2-37-1,八王子市教育センター正門横フェンス,35.6489931,139.319414,
東京都,八王子市,012-5,散田町2-2-1,第七中学校南面フェンス,35.65065,139.3162458,
東京都,八王子市,012-6,散田町2-60,朝日ヶ丘富士見公園,35.6481532,139.3132218,
東京都,八王子市,012-7,散田町2-68,散田南公園北側フェンス,35.6483008,139.3114782,
東京都,八王子市,013-1,みつい台2-47,谷野北公園北側,35.6846766,139.3211477,
東京都,八王子市,013-2,みつい台1-6,左入公園南側,35.6797735,139.3287576,
東京都,八王子市,013-3,みつい台1-14,谷野東公園,35.6816404,139.3301846,
東京都,八王子市,013-4,みつい台2-8,谷野南公園東側,35.6817701,139.3251507,
東京都,八王子市,013-5,中野町2726-7,中野市民センター北側植込,35.6817955,139.3185814,
東京都,八王子市,013-6,中野町2665-1,工学院大学南側フェンス,35.6831124,139.3180961,
東京都,八王子市,013-7,中野町2726-8,甲の原体育館東側植込,35.6812359,139.3183026,
東京都,八王子市,013-8,中野町2634-26,甲の原北公園北側,35.6814038,139.3220192,
東京都,八王子市,014-1,元本郷町4-9,元本郷公園西側,35.6640557,139.3131425,
東京都,八王子市,014-2,大横町11-1,商工会議所駐車場北フェンス,35.6642788,139.3293631,
東京都,八王子市,014-3,平岡町31,東平岡公園北側,35.6645147,139.3263794,
東京都,八王子市,014-4,元本郷町2-13,市営住宅元本郷団地4号棟北側,35.6644548,139.3195624,
東京都,八王子市,014-5,元本郷町4-11-1,コンビニ向かい側民家塀,35.6644141,139.3142548,
東京都,八王子市,014-6,元本郷町3-14-1,市営住宅元本郷団地1号棟北側駐車場前,35.6647621,139.3168916,
東京都,八王子市,014-7,元本郷町4-21,八王子市役所来庁者駐車場東側,35.667195,139.3148861,
東京都,八王子市,015-1,緑町222,緑町霊園北側フェンス,35.6468443,139.325983,
東京都,八王子市,015-2,上野町97,第六中学校東側フェンス,35.6537479,139.3300514,
東京都,八王子市,015-3,上野町97,第六中学校西側フェンス,35.6537479,139.3300514,
東京都,八王子市,015-4,上野町27-2,上野町公園西側フェンス,35.6547379,139.3285198,
東京都,八王子市,015-5,台町1-6-15,八王子実践高校北側フェンス,35.6513972,139.3289161,
東京都,八王子市,015-6,台町1-12,八王子実践高校体育館南側フェンス,35.650399,139.3280441,
東京都,八王子市,015-7,緑町120-3,緑町もみじ公園東側植込,35.6467576,139.3283919,
東京都,八王子市,030-1,東浅川町31,都立陵南公園西側植込,35.6483646,139.2929958,
東京都,八王子市,030-2,長房町1442-12,長泉寺東側市道フェンス,35.6528955,139.2893266,
東京都,八王子市,030-3,長房町1289-28,長房町消防団機具置場フェンス,35.6517751,139.2860244,
東京都,八王子市,030-4,東浅川町269,原宿町会館前フェンス,35.6464888,139.2888713,
東京都,八王子市,030-5,長房町1369先,都立陵南公園北側フェンス,35.6492922,139.2900318,
東京都,八王子市,030-6,東浅川町296-2,原宿町会内三角地花壇歩道側,35.6469746,139.2906409,
東京都,八王子市,030-7,東浅川町31,都立陵南公園北側,35.6483646,139.2929958,
東京都,八王子市,031-1,高尾町1735,旧浅川支所東側フェンス,35.6427977,139.2749596,
東京都,八王子市,031-2,高尾町1576-4,高尾駅北口臨時駐輪場フェンス,35.6420217,139.2802779,
東京都,八王子市,031-3,西浅川町26-1先,西浅川児童遊園,35.6398745,139.2721077,
東京都,八王子市,031-4,高尾町1652-1,浅川事務所東側フェンス,35.6436067,139.2768954,
東京都,八王子市,031-5,廿里町33-3,御嶽神社横,35.6435329,139.2800784,
東京都,八王子市,031-6,廿里町11-1,廿里町公会堂向かい,35.6456402,139.2822977,
東京都,八王子市,032-1,高尾町2359,消防団第11分団第11部器具置場東側畑,35.6425485,139.2802113,
東京都,八王子市,032-2,高尾町1797-1,高尾山口駅北交差点,35.6425485,139.2802113,
東京都,八王子市,032-3,南浅川町3074先,東京都水道局南浅川配水所,35.6178736,139.2617391,
東京都,八王子市,032-4,高尾町2241先,高尾山口駅横公園脇遊歩道フェンス (トイレ手前),35.6323348,139.2699259,
東京都,八王子市,033-1,裏高尾町1214,裏高尾増圧ポンプ所付近,35.6379289,139.2284034,
東京都,八王子市,033-2,裏高尾町915外,高尾梅の郷まちの広場,35.6386789,139.2560092,
東京都,八王子市,033-3,裏高尾町273,駒木野病院北側万年塀,35.6406499,139.269429,
東京都,八王子市,034-1,初沢町1231,高尾駅南口バス停中央植込,35.6414261,139.2835747,
東京都,八王子市,034-2,初沢町1335,浅川小学校東側フェンス,35.6406189,139.2813055,
東京都,八王子市,034-3,狭間町1994-156,紅葉台中公園西側,35.6315336,139.2802399,
東京都,八王子市,034-4,狭間町1461-1,狭間公園南側,35.6371818,139.2854104,
東京都,八王子市,034-5,狭間町1464-1,八王子狭間住宅南側児童公園フェンス,35.6385197,139.2881278,
東京都,八王子市,034-6,狭間町1800-50,額公園,35.63516250000001,139.2859606,
東京都,八王子市,034-7,初沢町1429-29先,三和団地自治会案内図付近,35.6366643,139.2765588,
東京都,八王子市,035-1,東浅川町550-22,東浅川小学校南側フェンス,35.642722,139.2866523,
東京都,八王子市,035-2,東浅川町559,東浅川公園西側フェンス,35.646956,139.2963041,
東京都,八王子市,035-3,東浅川町559,東浅川公園東側フェンス,35.646956,139.2963041,
東京都,八王子市,035-4,東浅川町550-22,東浅川小学校西側フェンス,35.642722,139.2866523,
東京都,八王子市,035-5,東浅川町553-9,陵南中学校南側フェンス,35.6461149,139.2935246,
東京都,八王子市,035-6,東浅川町618-2,(有)協和製作所付近,35.6442039,139.2992784,
東京都,八王子市,035-7,狭間町1461-1,狭間公園西側,35.6371818,139.2854104,
東京都,八王子市,035-8,東浅川町553-9,陵南中学校西側フェンス,35.6461149,139.2935246,
東京都,八王子市,040-1,越野13,越野下根公園敷地内,35.6299931,139.3900695,
東京都,八王子市,040-2,越野4,越野吹上公園,35.6299931,139.3900695,
東京都,八王子市,040-3,下柚木2-10-6,由木中央市民センター前道路沿い,35.6270052,139.3826709,
東京都,八王子市,040-4,下柚木498,旧由木事務所跡地野猿街道沿いフェンス,35.6284593,139.3828367,
東京都,八王子市,040-5,下柚木260-1,バス停「殿ヶ谷戸」前畑,35.6296166,139.3792777,
東京都,八王子市,040-6,越野9,NTT由木電話交換局フェンス,35.6299931,139.3900695,
東京都,八王子市,040-7,下柚木3-9,下柚木小学校北側土手,35.6210036,139.3779552,
東京都,八王子市,040-8,下柚木2-20,大片瀬公園敷地内,35.6328776,139.3803904,
東京都,八王子市,040-9,越野37,越野北八幡公園南側敷地内,35.6305599,139.3930521,
東京都,八王子市,041-1,上柚木538-1,由木西小学校西側フェンス,35.6231356,139.3614335,
東京都,八王子市,041-2,中山772-1,白山神社下公園フェンス,35.6269745,139.3615074,
東京都,八王子市,041-3,上柚木1148-1,バス停「上柚木」前フェンス,35.6192543,139.3678533,
東京都,八王子市,041-4,上柚木330-1,上柚木駐在所南側道路フェンス,35.6192543,139.3678533,
東京都,八王子市,041-5,上柚木320-1先,日影橋北西側,35.6192543,139.3678533,
東京都,八王子市,041-6,中山1155,中山小学校南側フェンス,35.6256974,139.358434,
東京都,八王子市,042-1,南陽台1-11,海公園西側,35.6336403,139.3740413,
東京都,八王子市,042-2,長沼町1560-14,都立長沼公園平山口階段下,35.6415105,139.3691226,
東京都,八王子市,042-3,南陽台3-6,北楽公園敷地内西寄り,35.6361019,139.3765801,
東京都,八王子市,042-4,南陽台2-9,竹の子公園敷地内,35.6323831,139.3765801,
東京都,八王子市,042-5,南陽台3-1755-57,バス停「南陽台中央」北側空地,35.6351369,139.3773735,
東京都,八王子市,050-1,堀之内2-23-4,信号「八王子堀之内東」東側梅林フェンス,35.6289093,139.4014983,
東京都,八王子市,050-2,堀之内2-25-1,堀之内洗馬川公園東側道路沿い,35.6289093,139.4014983,
東京都,八王子市,050-3,堀之内2-18-1,堀之内引切公園北側フェンス,35.6289093,139.4014983,
東京都,八王子市,050-4,東中野212-1,松原公園南側フェンス,35.64228860000001,139.4121796,
東京都,八王子市,050-5,東中野50-1先,(株)加藤ガス東側空地,35.6357498,139.4084837,
東京都,八王子市,050-6,東中野293-5,東中野かじざか公園入口左側植込,35.64385040000001,139.4120332,
東京都,八王子市,050-7,東中野1347先,由木東小学校北側フェンス,35.63369,139.4079759,
東京都,八王子市,050-8,東中野1347先,由木東小学校東側フェンス,35.63369,139.4079759,
東京都,八王子市,050-9,東中野244-7,天野谷戸公園北側道路沿い,35.6396597,139.4119403,
東京都,八王子市,051-1,松が谷161,バス停「大塚公園」前道路沿い,35.6303137,139.4148348,
東京都,八王子市,051-2,松が谷140,望地公園南側,35.6303137,139.4148348,
東京都,八王子市,051-3,松が谷50先,バス停「松が谷小学校」前道路沿い,35.6303137,139.4148348,
東京都,八王子市,051-4,松が谷12先,バス停「松が谷」前道路沿い,35.628588,139.414152,
東京都,八王子市,051-5,松が谷153-1,大塚橋西側フェンス,35.6303137,139.4148348,
東京都,八王子市,051-6,松が谷168-1,乳母ヶ谷公園西側道路沿い,35.6303137,139.4148348,
東京都,八王子市,052-1,鹿島19先,都営鹿島16番地団地南側道路沿い,35.6321458,139.4249979,
東京都,八王子市,052-2,鹿島13先,鹿島小学校南側校門横フェンス (プール側),35.6321458,139.4249979,
東京都,八王子市,052-3,鹿島117先,バス停「鹿島」前道路沿い,35.6321458,139.4249979,
東京都,八王子市,052-4,鹿島111-1,梶川緑地西側道路沿い,35.6342226,139.4214741,
東京都,八王子市,052-5,鹿島104-1,大塚東公園西側バス停「山根入」,35.6314593,139.4246505,
東京都,八王子市,052-6,大塚272-3,大塚なかおね公園西側フェンス,35.6435115,139.4133056,
東京都,八王子市,052-7,大塚58-70,由木ヶ丘公園北側フェンス左寄り,35.63895979999999,139.4143958,
東京都,八王子市,052-8,大塚670-8先,大塚宮田公園西側道路沿い,35.6364474,139.4192073,
東京都,八王子市,060-1,別所2-5,秋葉台小学校西側,35.6090535,139.3892438,
東京都,八王子市,060-2,別所2-1-3,VIA長池立体駐車場南側,35.6150722,139.3961707,
東京都,八王子市,060-3,別所2-28,別所中学校入口脇,35.6172618,139.3995934,
東京都,八王子市,060-4,別所2-33-2,別所公園東側入口脇,35.6175448,139.3991667,
東京都,八王子市,060-5,別所2-44,別所小学校西側,35.6172618,139.3995934,
東京都,八王子市,060-6,別所2-44,別所小学校北側,35.6172618,139.3995934,
東京都,八王子市,060-7,別所2-33-2,別所公園南,35.6175448,139.3991667,
東京都,八王子市,060-8,別所1-8,別所ふれあい公園東側,35.6164591,139.3919742,
東京都,八王子市,061-1,別所1-34-1,松木中学校南側フェンス,35.61802840000001,139.3918819,
東京都,八王子市,061-2,松木1,大石やかた公園,35.6233269,139.3919742,
東京都,八王子市,061-3,松木22,松木えのき公園,35.6233269,139.3919742,
東京都,八王子市,061-4,松木57-3,松木小学校正門脇,35.6220662,139.3938675,
東京都,八王子市,061-5,松木36,松木峰ヶ谷戸公園,35.6233269,139.3919742,
東京都,八王子市,061-6,別所1-31先,蓮生寺公園北西側,35.6207638,139.3939915,
東京都,八王子市,061-7,別所1-29,多摩ニュータウン蓮生寺団地集会所東側,35.6164591,139.3919742,
東京都,八王子市,061-8,松木80先,富士見台公園第2駐車場東,35.6233269,139.3919742,
東京都,八王子市,062-1,南大沢2-27先,南大沢中郷公園入口西側,35.6116716,139.3794039,
東京都,八王子市,062-2,南大沢3-3,柏木小学校西側フェンス,35.6103973,139.3830305,
東京都,八王子市,062-3,南大沢3-13先,バス停「南大沢団地」前,35.6061086,139.3831789,
東京都,八王子市,062-4,南大沢3-16-2,トミンハイム南大沢東北側,35.6035419,139.3832029,
東京都,八王子市,062-5,南大沢2-28先,東光寺橋フェンス南端,35.6120212,139.3824516,
東京都,八王子市,062-6,南大沢1,南大沢駅北口歩行者通路上フェンス,35.6192032,139.3818168,
東京都,八王子市,062-7,南大沢2-221,南大沢長谷戸公園前,35.6120212,139.3824516,
東京都,八王子市,062-8,南大沢1-19,南大沢日向公園東側,35.6192032,139.3818168,
東京都,八王子市,063-1,南大沢1-1,バス停「だいり橋」向い側土手,35.60608,139.3779859,
東京都,八王子市,063-2,南大沢5-5,宮上中学校東側入口道路沿い,35.6165701,139.3739937,
東京都,八王子市,063-3,上柚木3-5,公団南大沢学園2番街西南角,35.6139371,139.3690919,
東京都,八王子市,063-4,上柚木3-13先,バス停「三徳プラザ前」前道路先,35.6133241,139.3688736,
東京都,八王子市,063-5,南大沢5-10,宮上小学校正門西側,35.6161934,139.372239,
東京都,八王子市,063-6,上柚木3-15,上柚木小学校西側土手,35.6173679,139.3716612,
東京都,八王子市,063-7,上柚木2-40-1,上柚木公園健康広場南側,35.6199279,139.3701693,
東京都,八王子市,063-8,上柚木2-40-1,上柚木公園内野球場前児童遊園植込,35.6199279,139.3701693,
東京都,八王子市,064-1,水2-2194-1,板木会館東側,35.6664381,139.3160068,
東京都,八王子市,064-2,鍵水2-83,パークフィーネ南大沢一番館前,35.6664381,139.3160068,
東京都,八王子市,064-3,水2-81,絹の道一番街北側,35.6664381,139.3160068,
東京都,八王子市,064-4,南大沢5-14-8,宮上駐在所西側植込前壁面,35.6128987,139.3686268,
東京都,八王子市,064-5,鍵水2-67,水中学校東,35.6664381,139.3160068,
東京都,八王子市,064-6,鍵水2-74,水小学校北西側,35.6664381,139.3160068,
東京都,八王子市,064-7,鍵水2-66,水公園西側入口脇,35.6229508,139.3085136,
東京都,八王子市,065-1,鍵水31-1先,信号「由木西小入口」前,35.6664381,139.3160068,
東京都,八王子市,065-2,鍵水1028-1,鏡水公会堂前,35.6664381,139.3160068,
東京都,八王子市,065-3,水1026-1,縫水まちの広場南側フェンス前,35.6664381,139.3160068,
東京都,八王子市,065-4,水1672-5先,多摩美術大学入口東側,35.6664381,139.3160068,
東京都,八王子市,065-5,水1609先,信号「多摩美大西」東方先,35.6664381,139.3160068,
東京都,八王子市,065-6,雞水1423-2,バス停「鍵水入口」東方,35.6664381,139.3160068,
東京都,八王子市,066-1,南大沢4-21-1先,バス停「九反甫公園」前,35.6065496,139.3782791,
東京都,八王子市,066-2,南大沢4-18,南大沢小学校正門脇,35.608397,139.3743189,
東京都,八王子市,066-3,南大沢4,都立小山内裏公園東,35.6079847,139.3767388,
東京都,八王子市,066-4,南大沢4-15,多摩ニュータウン南大沢団地4号棟東側,35.6079847,139.3767388,
東京都,八王子市,066-5,南大沢4-112先,四季の丘南緑地西側,35.6079847,139.3767388,
東京都,八王子市,066-6,南大沢4-10,公団シティハイツ南大沢西側,35.611535,139.37837,
東京都,八王子市,066-7,南大沢4-18,南大沢小学校北側校門脇,35.608397,139.3743189,
東京都,八王子市,067-1,別所1-55,長池小学校西側道路沿い,35.6164591,139.3919742,
東京都,八王子市,067-2,別所1-56-2,松木公園西側駐車場前植込,35.6118844,139.3900894,
東京都,八王子市,067-3,別所1-56-2,松木公園東側植込,35.6118844,139.3900894,
東京都,八王子市,067-4,別所1-38-42,公団ビューコート別所3号棟集会所前,35.6164591,139.3919742,
東京都,八王子市,067-5,別所1-53,多摩ニュータウン別所一丁目第2団地1号棟駐車場裏植込,35.6164591,139.3919742,
東京都,八王子市,067-6,別所1-40,別所やまざくら公園南側,35.6164591,139.3919742,
東京都,八王子市,067-7,別所1-126,別所坂公園下歩道橋前広場,35.6164591,139.3919742,
東京都,八王子市,067-8,別所1-55,長池小学校北側道路植込,35.6164591,139.3919742,
東京都,八王子市,080-1,並木町15-15,旧横山事務所前,35.6511012,139.3003784,
東京都,八王子市,080-2,並木町9-27,並木町ふれあい公園内フェンス,35.6525959,139.3037142,
東京都,八王子市,080-3,並木町37-18先,バス停「桑志高校」南側信号前緑地,35.6552186,139.3059539,
東京都,八王子市,080-4,長房町420-2,都立富士森高校河川沿いフェンス,35.6572177,139.3022253,
東京都,八王子市,080-5,並木町24-17,稲荷森神社北西塀,35.6532134,139.3008199,
東京都,八王子市,080-6,長房町506-2,長房市民センター西側フェンス,35.6504277,139.2953471,
東京都,八王子市,081-1,散田町1-16,東雲第二公園西側,35.6528718,139.3172639,
東京都,八王子市,081-2,散田町3-10-1,南多摩病院南側フェンス,35.6554048,139.3129955,
東京都,八王子市,081-3,散田町3-1先,西八王子駅南口線路沿いフェンス,35.6557888,139.3120667,
東京都,八王子市,081-4,散田町1-1,西八王子ハイツA棟西側垣根,35.6555274,139.3153617,
東京都,八王子市,081-5,散田町3-14-20,NTT八王子駐車場南側フェンス,35.6526959,139.3091295,
東京都,八王子市,081-6,散田町2-6-1,散田給水所北側フェンス,35.651348,139.3146606,
東京都,八王子市,081-7,散田町3-24,東散田公園内,35.6517746,139.3096555,
東京都,八王子市,082-1,山田町1889-6,めじろ台東公園東側,35.6424286,139.3139973,
東京都,八王子市,082-2,山田町1577,山田橋前廣園禅寺駐車場フェンス,35.6468838,139.3165109,
東京都,八王子市,082-3,山田町1553,山田小学校南門東側フェンス,35.6468303,139.3135971,
東京都,八王子市,082-4,山田町1889-6,めじろ台東公園西側,35.6424286,139.3139973,
東京都,八王子市,082-5,緑町412-26,緑町西公園北側,35.6452668,139.3209,
東京都,八王子市,082-6,山田町1683,桝形公園北側植込,35.6441717,139.3152032,
東京都,八王子市,082-7,小比企町469-11,小比企北公園南側,35.6372905,139.3221781,
東京都,八王子市,083-1,長房町256,第二開戸橋北,35.6592287,139.297873,
東京都,八王子市,083-2,長房町109,長房東アバート人形塚公園東側,35.6589912,139.3018621,
東京都,八王子市,083-3,長房町310,中舟田公園北側フェンス,35.6544055,139.2968186,
東京都,八王子市,083-4,長房町341,長房児童館南側塀,35.6572997,139.2983702,
東京都,八王子市,083-5,長房町109,長房東アパート人形塚公園西側,35.6589912,139.3018621,
東京都,八王子市,083-6,長房町704,開戸橋南,35.6582033,139.2962531,
東京都,八王子市,084-1,めじろ台1-1,めじろ台駅前道路沿い植込,35.6432469,139.3077142,
東京都,八王子市,084-2,めじろ台4-40,めじろ台西公園西側植込,35.6435821,139.3025235,
東京都,八王子市,084-3,めじろ台2-22-17,めじろ台二丁目公園西側,35.64064949999999,139.310765,
東京都,八王子市,084-4,めじろ台2-68,向原公園北側フェンス,35.64064949999999,139.310765,
東京都,八王子市,084-5,めじろ台3-43-2,めじろ台南公園,35.6398381,139.3072038,
東京都,八王子市,084-6,めじろ台4-45,めじろ台中公園内植込,35.6435821,139.3025235,
東京都,八王子市,084-7,めじろ台1-2,めじろ台富士見公園,35.64647739999999,139.308229,
東京都,八王子市,085-1,散田町5-22-36,横山中学校南東フェンス,35.648772,139.3027216,
東京都,八王子市,085-2,田町5-13,散田公園西側,35.665878,139.335097,
東京都,八王子市,085-3,散田町5-23-1,散田小学校正門横フェンス,35.6472396,139.3008632,
東京都,八王子市,085-4,散田町5-28,椿公園北側フェンス,35.6458733,139.3007803,
東京都,八王子市,085-5,散田町4-9,中散田公園南側フェンス,35.65144009999999,139.3033952,
東京都,八王子市,085-6,散田町5-22-36,横山中学校北側フェンス,35.648772,139.3027216,
東京都,八王子市,086-1,城山手1-30,船田運動広場フェンス,35.6558004,139.2893714,
東京都,八王子市,086-2,長房町719,長房北アパート汚水処理場北側フェンス,35.6570244,139.2934336,
東京都,八王子市,086-3,長房町719,長房北アパート75号棟跡地北側,35.6570244,139.2934336,
東京都,八王子市,086-4,城山手1-4,出羽山公園南側,35.6559377,139.2862026,
東京都,八王子市,086-5,城山手1-4,出羽山公園東側,35.6559377,139.2862026,
東京都,八王子市,086-6,城山手1-4,出羽山公園西側,35.6559377,139.2862026,
東京都,八王子市,086-7,城山手1-22,城山手こぶし公園敷地内北側,35.6521836,139.2862818,
東京都,八王子市,087-1,長房町588,長房アパート西29号棟南側フェンス,35.6552365,139.2924253,
東京都,八王子市,087-2,長房町588,長房アパート西3号棟北側バス停後方,35.6552365,139.2924253,
東京都,八王子市,087-3,長房町588,長房アパート西1号棟南側バス停前,35.6552365,139.2924253,
東京都,八王子市,087-4,長房町588,長房アパート西28号棟北側駐車場南側フェンス,35.6552365,139.2924253,
東京都,八王子市,087-5,長房町520,長房南アパート52号棟東側公園北側フェンス,35.6537675,139.294338,
東京都,八王子市,087-6,長房町588,長房南アパート船田遺跡公園北側,35.6552365,139.2924253,
東京都,八王子市,100-1,館町1870-129,ゆりのき台中央公園,35.629103,139.300592,
東京都,八王子市,100-2,館町2435-1,たてまち幼稚園前市道脇フェンス,35.6278008,139.2948871,
東京都,八王子市,100-3,椚田町172,椚田中学校校庭側門フェンス,35.6340891,139.3080154,
東京都,八王子市,100-4,館町156,館事務所南側フェンス,35.6342906,139.3064748,
東京都,八王子市,100-5,館町1601,ひまわり保育園南側,35.630816,139.289388,
東京都,八王子市,100-6,館町1163南,八王子医療センターバス折り返し場手前空地,35.6313353,139.287985,
東京都,八王子市,100-7,館町701,上館バス停向かい,35.6336615,139.2876422,
東京都,八王子市,100-8,館町74,横山第一小学校北側フェンス,35.630816,139.289388,
東京都,八王子市,101-1,寺田町830-1,寺田工務店横,35.6198821,139.3018896,
東京都,八王子市,101-2,寺田町400-22,バス停「寺田東」前,35.6207091,139.3083279,
東京都,八王子市,101-3,寺田町405-5,緑が丘小学校正門脇,35.6226018,139.3101082,
東京都,八王子市,101-4,寺田町1057先,バス停「グリーンヒル寺田」 北側寺田緑地,35.6223797,139.3018531,
東京都,八王子市,101-5,寺田町432,グリーンヒル寺田127号棟北側歩道,35.6186246,139.3004182,
東京都,八王子市,101-6,寺田町283,榛名橋先フェンス,35.6198821,139.3018896,
東京都,八王子市,101-7,寺田町1107,バス停「鍛冶谷戸」脇フェンス,35.6224426,139.3004174,
東京都,八王子市,101-8,寺田町1455-3,旧稲荷山小学校南側フェンス,35.620445,139.3001159,
東京都,八王子市,102-1,寺田町432-21,寺田緑地,35.6244157,139.3109554,
東京都,八王子市,102-2,大船町1030,みなみ野下大船公園(大船会館入口脇),35.6210967,139.313301,
東京都,八王子市,102-3,大船町105,バス停「下大船」前,35.6210967,139.313301,
東京都,八王子市,102-4,大船町135-6,大船久保田公園東側フェンス,35.6264635,139.3123793,
東京都,八王子市,102-5,大船町156-12,大船前田緑地北側道路沿い,35.6272402,139.3133862,
東京都,八王子市,103-1,館町2786,館中学校正門脇,35.6278394,139.2908318,
東京都,八王子市,103-2,館町1097-30先,高尾山学園正門脇,35.6246893,139.287985,
東京都,八王子市,103-3,館町1097,館ヶ丘団地3-6号棟東側植込,35.6283425,139.2871561,
東京都,八王子市,103-4,館町1097,館ヶ丘団地1-8号棟西側,35.6283425,139.2871561,
東京都,八王子市,103-5,館町1097,館ヶ丘団地1-14号棟東側広場,35.6283425,139.2871561,
東京都,八王子市,103-6,館町1097-2先,高尾山学園北側,35.6307597,139.2851276,
東京都,八王子市,103-7,館町1097-13,信号「医療センター入口」東側,35.6326784,139.2871692,
東京都,八王子市,104-1,椚田町517-1,八王子市椚田運動場西側,35.635558,139.3134001,
東京都,八王子市,104-2,椚田町500-2,下椚田公園南側フェンス,35.63883,139.315545,
東京都,八王子市,104-3,椚田町582-9,二軒在家公園南側コンクリート壁,35.6391689,139.3030493,
東京都,八王子市,104-4,田町571-2,椚田小学校南側フェンス,35.6659961,139.3358135,
東京都,八王子市,104-5,椚田町571-2,椚田小学校西側フェンス,35.6366261,139.3023268,
東京都,八王子市,104-6,椚田町1220-2,東京工業高専グランド南側歩道沿い(西寄り),35.6396277,139.2989004,
東京都,八王子市,104-7,椚田町1220-2,東京工業高専東側フェンス,35.6396277,139.2989004,
東京都,八王子市,104-8,狭間町1453,エスフォルタアリーナ東側,35.6399243,139.2924966,
東京都,八王子市,110-1,諏訪町7,諏訪町公園北東側,35.679144,139.2930156,
東京都,八王子市,110-2,上壱分方町306,上壱分方町民家ブロック塀,35.6806699,139.289203,
東京都,八王子市,110-3,上壱分方町747-1,元八王子市民センター前植込,35.6831287,139.2862501,
東京都,八王子市,110-4,諏訪町196-4,諏訪町・森公園南側フェンス,35.6774067,139.2921214,
東京都,八王子市,110-5,上壱分方町799-2,上壱分方小学校西側フェンス,35.6847917,139.2841826,
東京都,八王子市,110-6,諏訪町110-3,特養ホーム諏訪の森道路沿い花壇,35.67564840000001,139.2933034,
東京都,八王子市,110-7,諏訪町1922,松枝住宅2号棟北側緣地,35.6823018,139.2931139,
東京都,八王子市,111-1,大楽寺町419-1,元八王子事務所東側フェンス,35.6713388,139.2930552,
東京都,八王子市,111-2,弐分方町744,弐分方公園東側,35.6714726,139.2854104,
東京都,八王子市,111-3,元八王子町1-514,石井ハイツ南側フェンス,35.6670116,139.290542,
東京都,八王子市,111-4,弐分方町384-1,ヘアサロンよしもと北側フェンス,35.6732739,139.2856679,
東京都,八王子市,111-5,弐分方町761,元八王子小学校東側フェンス,35.6698397,139.2920716,
東京都,八王子市,111-6,四谷町555,四谷中学校東側フェンス,35.6775659,139.2960659,
東京都,八王子市,111-7,弐分方町463,柳沢さくら公園南側植込,35.6714726,139.2854104,
東京都,八王子市,111-8,元八王子町1-80-3,消防団第8分団第5部器具置場フェンス,35.6669028,139.2883712,
東京都,八王子市,112-1,横川町539-1,スーパーアルプス横川店駐車場北側フェンス,35.666185,139.3038592,
東京都,八王子市,112-2,横川町812-1,横川下原公園北側入口フェンス,35.6671161,139.2976002,
東京都,八王子市,112-3,横川町467先,横川公園南側フェンス,35.664752,139.3063415,
東京都,八王子市,112-4,横川町899,デイサービスセンター東側民家ブロック塀,35.6654569,139.2979477,
東京都,八王子市,112-5,横川町937-15先,横川つつじ公園,35.6636452,139.2964819,
東京都,八王子市,112-6,横川町980-2,横川西公園フェンス,35.663709,139.2941842,
東京都,八王子市,112-7,横川町615-38,つつじヶ丘緑地北側,35.6624595,139.2991977,
東京都,八王子市,113-1,川町789先,松子舞西公園フェンス,35.6680668,139.2819812,
東京都,八王子市,113-2,元八王子町2-3355-4,道場根東公園前植込,35.6640072,139.2774846,
東京都,八王子市,113-3,元八王子町2-3344-10,梶原谷とちの木公園北側,35.6626287,139.2749203,
東京都,八王子市,113-4,元八王子町2-1927-8,元八王子町二丁目ガソリンスタンド北側空地フェンス,35.658148,139.2812963,
東京都,八王子市,113-5,元八王子町2-3320-7,道場根中央公園北東隅切り,35.6647042,139.2760143,
東京都,八王子市,113-6,元八王子町3-2408,信号「八王子城跡入口」 東側民家ブロック塀,35.6573178,139.2725686,
東京都,八王子市,113-7,元八王子町3-2153-226,霞が丘公園南側フェンス,35.6529677,139.272037,
東京都,八王子市,113-8,元八王子町3-2750-484,高尾台西公園東側フェンス,35.6512233,139.2689441,
東京都,八王子市,114-1,叶谷町1521,元八王子東小学校北側フェンス,35.6712618,139.3039102,
東京都,八王子市,114-2,大楽寺町566,西蓮寺陣馬街道側万年塀,35.6698174,139.3010491,
東京都,八王子市,114-3,叶谷町1521,元八王子東小学校南側ブロック塀,35.6712618,139.3039102,
東京都,八王子市,114-4,泉町682-1,八王子泉町住宅3号棟西側フェンス,35.6767285,139.2990401,
東京都,八王子市,114-5,叶谷町1072-1,叶谷公園西側入口脇フェンス,35.6711356,139.3001715,
東京都,八王子市,114-6,泉町692-5,並木原公園西側植込,35.674134,139.3031574,
東京都,八王子市,114-7,泉町1413-1,泉町ふれあい公園南側フェンス,35.674134,139.3031574,
東京都,八王子市,114-8,泉町1343先,泉町会館前,35.674134,139.3031574,
東京都,八王子市,115-1,横川町305,横川小学校北側フェンス,35.66724480000001,139.3075357,
東京都,八王子市,115-2,横川町305,横川小学校西側校門脇フェンス,35.66724480000001,139.3075357,
東京都,八王子市,115-3,横川町108,横川町住宅11号棟北側植込,35.6676935,139.3093411,
東京都,八王子市,115-4,横川町108,横川町住宅8号棟東側歩道橋下フェンス,35.6676935,139.3093411,
東京都,八王子市,115-5,横川町108,横川町住宅1号棟東側フェンス,35.6676935,139.3093411,
東京都,八王子市,115-6,横川町364,横川中学校西側フェンス,35.6685343,139.3054843,
東京都,八王子市,115-7,横川町412-1,横川北ちびっ子広場西側,35.6639568,139.3006218,
東京都,八王子市,116-1,川町128,川町運動場入口横フェンス,35.6718124,139.2729715,
東京都,八王子市,116-2,川町295-1,バス停「タウン入口」 向い側空地,35.6648637,139.2664018,
東京都,八王子市,116-3,川町128-287,グリーンタウン高尾内汚水処理場北側フェンス,35.6718124,139.2729715,
東京都,八王子市,116-4,川町128-294,グリーンタウン高尾バス折返場南側調整池植込,35.6718124,139.2729715,
東京都,八王子市,116-5,川町128-318,よしの沢公園南側植込,35.6718124,139.2729715,
東京都,八王子市,116-6,川町175,バス停「川町落合橋」 東側民家ブロック塀,35.6713332,139.2769881,
東京都,八王子市,116-7,川町244先,グリーンタウン高尾内公園南側,35.6695463,139.2672237,
東京都,八王子市,130-1,西寺方町79-1,東京都八王子福祉園南側植込,35.6736864,139.2651201,
東京都,八王子市,130-2,西寺方町260-4,恩方市民センター北側,35.673953,139.2686351,
東京都,八王子市,130-3,下恩方町1369,恩方第一小学校北側,35.6701831,139.2549799,
東京都,八王子市,130-4,下恩方町3395,恩方老人憩いの家駐車場内フェンス,35.6675484,139.2492363,
東京都,八王子市,130-5,下恩方町1369,恩方第一小学校西側フェンス,35.6701831,139.2549799,
東京都,八王子市,130-6,上恩方町11,恩方中学校南側フェンス,35.6701028,139.2424306,
東京都,八王子市,130-7,下恩方町1314,恩方上宿公園南側フェンス,35.6711494,139.2543661,
東京都,八王子市,130-8,下恩方町281-1,西東京バス(株) 恩方営業所プロック塀,35.6783723,139.2570388,
東京都,八王子市,131-1,上恩方町1242,興慶寺入口,35.6712039,139.1980228,
東京都,八王子市,131-2,上恩方町4741先,夕やけ小やけふれあいの里第二駐車場前,35.6712039,139.1980228,
東京都,八王子市,131-3,上恩方町2008先,夕やけ小やけふれあいの里育苗園(温室)前植込,35.67177110000001,139.2162545,
東京都,八王子市,131-4,上恩方町2924,降宿醍醐会館横,35.6789135,139.1904458,
東京都,八王子市,131-5,上恩方町2193,恩方第二小学校正門脇,35.6727195,139.2105014,
東京都,八王子市,131-6,上恩方町3993,案下会館付近,35.664606,139.1923381,
東京都,八王子市,132-1,小津町135,多摩火薬機工(株)前,35.6770331,139.2467402,
東京都,八王子市,132-2,小津町560,小津町会館入口交差点,35.6793938,139.2353086,
東京都,八王子市,133-1,西寺方町1019-422先,夕焼け台公園北側フェンス,35.6854174,139.2676701,
東京都,八王子市,133-2,西寺方町1061-3先,陵北児童遊園北側フェンス,35.683177,139.2695733,
東京都,八王子市,133-3,下恩方町667,元木まちの広場向かい,35.6737726,139.2582563,
東京都,八王子市,133-4,下恩方町515-1,元木小学校西側フェンス,35.6810413,139.2643633,
東京都,八王子市,133-5,下恩方町357-2,下恩方地区運動場,35.6777869,139.2604866,
東京都,八王子市,133-6,西寺方町451-5,飲食店東側梅林,35.6766219,139.2687289,
東京都,八王子市,140-1,川口町919-1,川口中部まちの広場南側フェンス,35.6933436,139.2799448,
東京都,八王子市,140-2,川口町957,川口小学校東側民家ブロック塀,35.6914018,139.2817864,
東京都,八王子市,140-3,川口町1184,飲食店向かい側民家ブロック塀,35.6888277,139.287208,
東京都,八王子市,140-4,川口町2694-5,鳥栖公園東側フェンス,35.6883659,139.2878456,
東京都,八王子市,140-5,川口町2590,クリーニング屋前畑,35.6932777,139.2831964,
東京都,八王子市,140-6,川口町1970-1,川口東部会館門柱東側フェンス,35.69050900000001,139.2884405,
東京都,八王子市,140-7,川口町1984,神明児童遊園西側フェンス,35.6913643,139.2885375,
東京都,八王子市,140-8,川口町1890,堀口児童遊園,35.6910859,139.2915999,
東京都,八王子市,141-1,楢原町1812,原桜並木公園北側,35.6863107,139.3086468,
東京都,八王子市,141-2,犬目町1,中犬目まちの広場東側民家フェンス,35.6904667,139.3054585,
東京都,八王子市,141-3,犬目町56,陶鎔小学校北側フェンス,35.6881013,139.3082655,
東京都,八王子市,141-4,犬目町1-1,中犬目まちの広場西側フェンス,35.6904667,139.3054585,
東京都,八王子市,141-5,犬目町964-6,堀西公園フェンス,35.6894313,139.3026735,
東京都,八王子市,141-6,大目町84,バス停「下犬目」畑前,35.6664381,139.3160068,
東京都,八王子市,142-1,上川町2347-1,央道上川橋西側畑,35.6983921,139.2693014,
東京都,八王子市,142-2,上川町1207,上川中部児童遊園東側,35.7046535,139.2539268,
東京都,八王子市,142-3,上川町1115-1,上川口小学校正門前道路南側,35.7039502,139.254221,
東京都,八王子市,142-4,上川町448-1,東京都水道局上川配水所西側斜面,35.7039502,139.254221,
東京都,八王子市,142-5,上川町596,上川西部会館向かい側民家ブロック塀,35.7113978,139.2360267,
東京都,八王子市,142-6,上川町3462 1,ROAD REST南側桃畑,35.7039502,139.254221,
東京都,八王子市,142-7,上川町1769-1,信号「上川橋」東側空地,35.7039502,139.254221,
東京都,八王子市,143-1,美山町1308-1,石材店向かい側空地,35.6823436,139.2595567,
東京都,八王子市,143-2,美山町1311先,信号「八王子西インター」 東側フェンス,35.6893109,139.2503299,
東京都,八王子市,143-3,美山町2189,バス停「小足」西民家植込,35.6937864,139.2421255,
東京都,八王子市,143-4,美山町895,特養ホーム徳寿園北側民家植込,35.6852458,139.249757,
東京都,八王子市,143-5,美山町1886-1,美山小学校校庭南側フェンス,35.6893109,139.2503299,
東京都,八王子市,143-6,美山町1372-9,バス停「萩園」前フェンス,35.6843609,139.2552355,
東京都,八王子市,143-7,美山町2321-1,美山工業団地西側駐車場前,35.6893109,139.2503299,
東京都,八王子市,144-1,楢原町1578-5,楢原斎場フェンス,35.6810854,139.3018104,
東京都,八王子市,144-2,楢原町308-6,楢原小学校東側入口手前畑南側,35.6768117,139.3088132,
東京都,八王子市,144-3,清川町6-12,清川1号公園西側,35.6736639,139.2600318,
東京都,八王子市,144-4,清川町32-5,清川2号公園西側,35.6740299,139.2816284,
東京都,八王子市,144-5,楢原町318-1,原鹿島公園北側,35.6769055,139.3096592,
東京都,八王子市,144-6,原町1235,楢原中学校東側植込,35.6664381,139.3160068,
東京都,八王子市,144-7,原町1444,歯科医院東側フェンス,35.6664381,139.3160068,
東京都,八王子市,144-8,楢原町315-7,一本松公園南側フェンス,35.6786578,139.3088886,
東京都,八王子市,145-1,川口町1515-12,川口下川原公園南民家ブロック塀,35.6853464,139.2953351,
東京都,八王子市,145-2,川口町3838,川口やまゆり館南側植込,35.6865724,139.2987994,
東京都,八王子市,145-3,原町601-13,松枝小学校南側フェンス,35.6664381,139.3160068,
東京都,八王子市,145-4,楢原町601,都立八王子北高校東側フェンス,35.6855677,139.303612,
東京都,八王子市,145-5,川口町1676,駒形公園南側フェンス,35.6883659,139.2878456,
東京都,八王子市,145-6,川口町1811-17,唐松公園東側フェンス,35.6900409,139.3003046,
東京都,八王子市,150-1,宮下町1-1,宮下町防災倉庫フェンス,35.7030024,139.3162022,
東京都,八王子市,150-2,加住町1-191,旧加住中学校正門脇フェンス,35.7020247,139.3168279,
東京都,八王子市,150-3,加住町1-338,加住市民センター前植込,35.69954130000001,139.3238824,
東京都,八王子市,150-4,丹木町1-16,信号「丹木町二丁目」東,35.6955412,139.3299566,
東京都,八王子市,150-5,丹木町3-42,金子牧場入口畑,35.696317,139.3253489,
東京都,八王子市,150-6,丹木町3-182-1,明王公園北側,35.6957951,139.3235851,
東京都,八王子市,150-7,加住町1-170-2,加住事務所,35.7006469,139.3159952,
東京都,八王子市,150-8,加住町1-191,加住小中学校西側フェンス,35.7020247,139.3168279,
東京都,八王子市,151-1,滝山町1-592-2,道の駅南側フェンス,35.686723,139.3414733,
東京都,八王子市,151-2,滝山町2-411-1,信号「純心学園前」南側駐車場フェンス,35.6929638,139.3367649,
東京都,八王子市,151-3,滝山町1-142,大雄ビル西側畑,35.6919133,139.3412051,
東京都,八王子市,151-4,尾崎町69-1,尾崎児童遊園北側,35.68010659999999,139.3442009,
東京都,八王子市,151-5,滝山町1-353,左入緑地公園南西畑,35.6817711,139.3427944,
東京都,八王子市,152-1,谷野町311先,創価大学西駐輪場フェンス,35.6872709,139.3255526,
東京都,八王子市,152-2,丹木町1-333-1先,創価大学正門北駐車場フェンス,35.6891663,139.3308584,
東京都,八王子市,152-3,谷野町646,バス停「谷野町南」東畑,35.6836308,139.3315392,
東京都,八王子市,152-4,谷野町244,谷萩公園北側,35.6886033,139.3227376,
東京都,八王子市,152-5,谷野町1190-3,信号「谷野町南」東側植込,35.68697,139.3234464,
東京都,八王子市,152-6,谷野町967-10,谷野栃ヶ澤公園西側,35.6829264,139.3297256,
東京都,八王子市,153-1,戸吹町343,信号「戸吹町西」東畑,35.7077689,139.2962248,
東京都,八王子市,153-2,戸吹町166,戸吹会館東側フェンス,35.70829210000001,139.2966219,
東京都,八王子市,153-3,戸吹町1472,大棚橋南側駐車場フェンス,35.7077689,139.2962248,
東京都,八王子市,153-4,戸吹町1797,戸吹清掃事業所北側植込,35.7077689,139.2962248,
東京都,八王子市,153-5,戸吹町2110,戸吹廣町西緑地入口右側フェンス,35.7077689,139.2962248,
東京都,八王子市,154-1,高月町247,高月集会所南側畑,35.7075418,139.3234464,
東京都,八王子市,154-2,高月町400,高月浄水所正門脇フェンス,35.7109304,139.3237437,
東京都,八王子市,154-3,高月町1236,信号「東秋川橋南」東,35.716423,139.3184399,
東京都,八王子市,160-1,小比企町2387-12,小比企下向公園東側,35.6410217,139.3310535,
東京都,八王子市,160-2,小比企町3506-5,農産物直売所西側フェンス,35.6327943,139.3195874,
東京都,八王子市,160-3,小比企町1687-1,聖パウロ病院東側三叉路付近緑地,35.6372905,139.3221781,
東京都,八王子市,160-4,小比企町1201,由井第三小学校東側フェンス,35.6425109,139.3280243,
東京都,八王子市,160-5,小比企町1140-1,小比企稲荷前公園北側,35.6429149,139.3294561,
東京都,八王子市,161-1,片倉町119-4,由井事務所北側フェンス,35.6432909,139.3333206,
東京都,八王子市,161-2,片倉町449,來光寺公園北側,35.6359502,139.3391719,
東京都,八王子市,161-3,片倉町718,JR片倉駅北口フェンス,35.6397055,139.3414231,
東京都,八王子市,161-4,片倉町1175-1,片倉かまぬき公園西側擁壁植込,35.6359502,139.3391719,
東京都,八王子市,161-5,片倉町702-1,由井市民センター西側塀,35.6413618,139.3401954,
東京都,八王子市,161-6,西片倉町1-14-1,由井かたくら学童保育所北側フェンス前,35.635387,139.3329593,
東京都,八王子市,161-7,片倉町3506,片倉つどいの森公園西側,35.6390097,139.3324461,
東京都,八王子市,161-8,片倉町702,川久保公園東側フェンス,35.64099,139.3403441,
東京都,八王子市,162-1,みなみ野6-14-1,みなみ野小学校正門横植込,35.632734,139.3228513,
東京都,八王子市,162-2,みなみ野1-6先,みなみ野の丘公園東側,35.6334238,139.3288369,
東京都,八王子市,162-3,兵衛1-8,兵衛下平公園南側,35.6283246,139.3301846,
東京都,八王子市,162-4,みなみ野4-26,みなみ野かしのき公園西側,35.6281069,139.3205136,
東京都,八王子市,162-5,みなみ野2-9,みなみ野毘沙門の丘緑地西側,35.6282375,139.3289161,
東京都,八王子市,162-6,みなみ野5-29,栃谷戸公園東側植込,35.6295225,139.3184564,
東京都,八王子市,162-7,みなみ野4-3-1,みなみ野君田小学校東側フェンス,35.6266406,139.3251011,
東京都,八王子市,162-8,みなみ野3-13,みなみ野菖蒲谷戸公園北西側,35.62950960000001,139.3251903,
東京都,八王子市,162-9,みなみ野6-13,みなみ野けやき公園南側,35.6316588,139.3214251,
東京都,八王子市,163-1,片倉町1221-7,片倉まちの広場東側農地,35.6319424,139.347626,
東京都,八王子市,163-2,片倉町1074-148,片倉台小学校北側植込,35.6321106,139.3442238,
東京都,八王子市,163-3,片倉町1643,都立片倉高校北東側ネットフェンス,35.6297662,139.3399463,
東京都,八王子市,163-4,片倉町937-104,片倉台すずかけ公園,35.6359502,139.3391719,
東京都,八王子市,163-5,片倉町1296-15,片倉台中央公園東側,35.6300749,139.3474821,
東京都,八王子市,163-6,片倉町1357-99,片倉台坂の上公園東側,35.6276341,139.3468079,
東京都,八王子市,163-7,打越町888-122,片倉台藤美公園南側,35.6405249,139.3526243,
東京都,八王子市,164-1,七国3-125,七国公園北東,35.6171066,139.325983,
東京都,八王子市,164-2,七国5-28,七国第四緑地東側植込,35.61969390000001,139.3216233,
東京都,八王子市,164-3,七国6-1,宇津貫公園北側植込,35.6250339,139.3255669,
東京都,八王子市,164-4,七国6-1,宇津貫公園南西侧植込,35.6250339,139.3255669,
東京都,八王子市,164-5,七国6-25,七国君田公園北西側フェンス,35.62348720000001,139.3223367,
東京都,八王子市,164-6,七国2-13,七国の丘公園西側角,35.6203589,139.3251903,
東京都,八王子市,164-7,兵衛2-8,兵衛和田内公園南西側,35.6218287,139.3331972,
東京都,八王子市,164-8,七国3-42,七国シフォンの丘公園,35.6177598,139.3249525,
東京都,八王子市,170-1,北野町585-1,北野公園西側歩道と公園の境,35.6500038,139.3603724,
東京都,八王子市,170-2,打越町348-1,由井第一小学校北門西側フェンス,35.6457567,139.3567881,
東京都,八王子市,170-3,打越町2012,打越土入公園,35.6405249,139.3526243,
東京都,八王子市,170-4,北野町549-5,北野事務所正門西側フェンス,35.6460239,139.3531783,
東京都,八王子市,170-5,打越町349-1,打越中学校南門西側フェンス,35.6453039,139.3581364,
東京都,八王子市,170-6,北野町572,岸田公園東側,35.65030369999999,139.3513554,
東京都,八王子市,170-7,北野町591-2,信号「新浅川橋南」 東側フェンス,35.6522084,139.3537745,
東京都,八王子市,170-8,北野町512,和田公園北西植込,35.6518089,139.350013,
東京都,八王子市,171-1,長沼町707-3,長沼小学校西側道路沿いフェンス,35.642503,139.3653513,
東京都,八王子市,171-2,長沼町204,ほたる公園南側フェンス,35.6415105,139.3691226,
東京都,八王子市,171-3,長沼町1303-1,向河原公園南側,35.6415105,139.3691226,
東京都,八王子市,171-4,長沼町1308,春日橋南駐車場フェンス,35.645269,139.3608567,
東京都,八王子市,171-5,長沼町701-2(地番表示),長沼駅北口西側ネットフェンス,35.6415105,139.3691226,
東京都,八王子市,171-6,長沼町104-285,長沼両田公園西側フェンス,35.6423313,139.3753008,
東京都,八王子市,171-7,長沼町793-2,長沼山下公園南側,35.6432816,139.3643531,
東京都,八王子市,171-8,長沼町271-2,下谷戸公園東側フェンス,35.6417361,139.3717795,
東京都,八王子市,172-1,絹ヶ丘2-13-4,絹ヶ丘緑地北東側フェンス,35.6369407,139.3576917,
東京都,八王子市,172-2,絹ヶ丘1-73,絹ヶ丘給水所フェンス,35.6346636,139.363887,
東京都,八王子市,172-3,絹ヶ丘1-593-159,ディスカウントストア南側市道フェンス,35.6392458,139.362142,
東京都,八王子市,172-4,絹ヶ丘3-1,絹ヶ丘3-1空地,35.631857,139.3617785,
東京都,八王子市,172-5,絹ヶ丘1-48-8,北野台公園東側フェンス,35.6377575,139.3619505,
東京都,八王子市,172-6,北野台1-1,北野台とりよせ公園バス停東側,35.6353123,139.3565105,
東京都,八王子市,172-7,絹ヶ丘2-48先,絹ヶ丘緑地東側ネットフェンス,35.6347568,139.3593658,
東京都,八王子市,173-1,北野台4-20,西武北野台中央公園南側バス停脇,35.6286698,139.352307,
東京都,八王子市,173-2,北野台5-42,打越南部公園東側,35.6314096,139.3493727,
東京都,八王子市,173-3,北野台1-31,北野台ながれの公園北側,35.6316867,139.3560346,
東京都,八王子市,173-4,北野台2-29,北野台こもれび公園北側,35.6267374,139.3547656,
東京都,八王子市,173-5,北野台5-21,打越岡谷公園南側フェンス,35.6325703,139.3522277,
東京都,八王子市,173-6,北野台4-21-1,高嶺小学校南側,35.6287244,139.3507861,
東京都,八王子市,173-7,北野台4-20,北野台中央公園北西側,35.6286698,139.352307,
東京都,八王子市,173-8,北野台3-30,北野台ひざかり公園北側,35.6257058,139.3522277,
東京都,八王子市,180-1,石川町2101,バス停「北八王子駅入口」前,35.6766777,139.3627765,
東京都,八王子市,180-2,石川町2065,第八小学校正門脇,35.6714242,139.3606448,
東京都,八王子市,180-3,石川町2959,北八王子駅ロータリー外緑地,35.6766777,139.3627765,
東京都,八王子市,180-4,暁町2-41,都立小宮公園大谷弁天池南東,35.6711775,139.3415223,
東京都,八王子市,180-5,石川町1850-4,東海大学八王子病院入口向かい側フェンス,35.6766777,139.3627765,
東京都,八王子市,180-6,大谷町768-5,前大谷公園北側,35.6706301,139.3457233,
東京都,八王子市,180-7,石川町2973-1,大矢化学工業(株) 交差点フェンス,35.6752368,139.3713791,
東京都,八王子市,180-8,石川町1920,石川あさくらの公園向かい,35.6710439,139.3584478,
東京都,八王子市,181-1,石川町438,石川市民センター正面玄関脇花壇,35.6805807,139.3644045,
東京都,八王子市,181-2,石川町1241-11,石川桑原公園西側フェンス,35.6784827,139.3679377,
東京都,八王子市,181-3,小宮町844-2先,クリエイトS・D八王子小宮町店前都道フェンス,35.686413,139.3707687,
東京都,八王子市,181-4,小宮町876-1,小宮会館,35.68759319999999,139.3702104,
東京都,八王子市,181-5,小宮町1140-1,小宮上方緑地,35.68789,139.3678533,
東京都,八王子市,181-6,小宮町501番地,八王子水再生センター南側外周フェンス,35.6916179,139.3653128,
東京都,八王子市,181-7,石川町759先,鶴見児童遊園北側,35.6824244,139.3706284,
東京都,八王子市,181-8,小宮町638先,八石公園西側歩道フェンス,35.6906335,139.3649777,
東京都,八王子市,182-1,久保山町2-44,宇津木台中公園北側フェンス,35.6875052,139.3570657,
東京都,八王子市,182-2,宇津木町84,中村第2まちの広場北東入口フェンス,35.6816969,139.3526243,
東京都,八王子市,182-3,久保山町2-26-7先,宇津木台緑地南側,35.6897212,139.3542735,
東京都,八王子市,182-4,丸山町12-9,滝山台丸山公園西側,35.6906801,139.3517444,
東京都,八王子市,182-5,久保山町2-18,宇津木台小学校北側入口フェンス,35.6875052,139.3570657,
東京都,八王子市,182-6,久保山町2-48,久保山公園東側トイレ前,35.6875052,139.3570657,
東京都,八王子市,182-7,久保山町2-55,石川中学校北側フェンス前,35.6875052,139.3570657,
東京都,八王子市,183-1,高倉町42,新田公園北側,35.6656453,139.3665841,
東京都,八王子市,183-2,高倉町63,松風公園西側,35.6656453,139.3665841,
東京都,八王子市,183-3,高倉町23-39先,高倉緑地北東側,35.6699214,139.370729,
東京都,八王子市,183-4,高倉町68,都立八王子東高校北西フェンス,35.6656453,139.3665841,
東京都,八王子市,183-5,高倉町69,高倉南公園西側,35.6656453,139.3665841,
東京都,八王子市,183-6,大和田町1-1-1,八王子大和田町アパート1号棟北側,35.6650028,139.3621023,
東京都,八王子市,183-7,高倉町67-2,高倉小学校南側,35.6615999,139.3655132,
