prefecture,city,number,address,name,lat,long,note
東京都,台東区,1-1,台東１丁目２５番５号,台東複合施設西側植込,35.701733,139.7777606,
東京都,台東区,1-2,台東１丁目２５番５号,台東複合施設南側植込,35.701733,139.7777606,
東京都,台東区,1-3,秋葉原４番１号,区立秋葉原練塀公園南側サク,35.7019489,139.774171,
東京都,台東区,1-4,台東１丁目１１番１０号,区立台東保育園西側植込,35.701182,139.7765129,
東京都,台東区,1-5,秋葉原４番１号,区立秋葉原練塀公園北側サク,35.7019489,139.774171,
東京都,台東区,2-1,台東４丁目２１番１５号,区立平成小学校西側ヘイ,35.7063254,139.780145,
東京都,台東区,2-2,台東４丁目２１番１５号,区立平成小学校北側金網,35.7063254,139.780145,
東京都,台東区,2-3,台東４丁目２１番３号,区立竹町公園南側植込,35.705574,139.7804632,
東京都,台東区,2-4,上野５丁目２１番５号,旧御徒町保育園跡地西側フェンス,35.70619080000001,139.7749326,
東京都,台東区,2-5,台東４丁目１３番３号,区立御徒町公園東側植込,35.7062328,139.7778783,
東京都,台東区,2-6,台東４丁目１３番３号,区立御徒町公園南側植込,35.7062328,139.7778783,
東京都,台東区,2-7,台東４丁目１３番１６号,区立御徒町台東中学校北側植込,35.7068743,139.7773481,
東京都,台東区,2-8,台東４丁目２１番３号,区立竹町公園東側植込,35.705574,139.7804632,
東京都,台東区,2-9,台東４丁目１３番１６号,区立御徒町台東中学校西側植込,35.7068743,139.7773481,
東京都,台東区,3-1,東上野３丁目２４番６号,東上野区民館西側植込,35.7112593,139.7796763,
東京都,台東区,3-2,東上野２丁目２３番１６号,永寿総合病院西側植込,35.7097066,139.779693,
東京都,台東区,3-3,東上野３丁目３２番１５号,成就院北側ヘイ,35.710672,139.7825117,
東京都,台東区,3-4,東上野２丁目２３番３号,区立西町公園南側植込,35.7091733,139.7799353,
東京都,台東区,3-5,東上野３丁目１９番６号,東京地下鉄株式会社東側植込,35.7115251,139.7779323,
東京都,台東区,4-1,東上野４丁目２２番８号,台東保健所東側植込,35.7144926,139.7814632,
東京都,台東区,4-2,東上野４丁目５番６号,台東区役所南側植込（西寄り）,35.7125889,139.7799389,
東京都,台東区,4-3,東上野５丁目５番２１号,（宗）龍谷寺南側ヘイ,35.7127071,139.7827453,
東京都,台東区,4-4,東上野４丁目２４番１２号,学校法人上野学園南側サク,35.7150873,139.7818624,
東京都,台東区,4-5,東上野４丁目５番１号,区立広徳公園西側（台東区役所東側）,35.7125885,139.7806983,
東京都,台東区,4-6,東上野５丁目１４番４号,土木事務所西側サク,35.7137534,139.7815177,
東京都,台東区,4-7,上野７丁目１番１号,ＪＲ東日本旅客鉄道株式会社上野駅中央通り横ロータリーフェンス,35.71327430000001,139.7767286,
東京都,台東区,4-8,東上野４丁目１番２号,旧ハローワーク上野東側フェンス,35.7120366,139.780482,
東京都,台東区,5-1,上野１丁目１６番２０号,区立黒門小学校東側ヘイ,35.7069115,139.7713181,
東京都,台東区,5-2,上野１丁目１６番２０号,区立黒門小学校北側サク,35.7069115,139.7713181,
東京都,台東区,5-3,上野１丁目１６番２０号,区立黒門小学校西側サク,35.7069115,139.7713181,
東京都,台東区,6-1,池之端２丁目９番８号,区立池之端児童遊園都電サク,35.7155596,139.7673833,
東京都,台東区,6-2,上野公園２番,区立したまちミュージアム入口脇植込,35.7099523,139.7723008,緯度経度は怪しい
東京都,台東区,6-3,上野公園２番,池之端交番隣植込（右隣）,35.7099523,139.7723008,緯度経度は怪しい
東京都,台東区,6-4,上野公園２番,不忍通り水上音楽堂脇植込,35.7099523,139.7723008,緯度経度は怪しい
東京都,台東区,6-5,上野公園９番,上野動物園清水坂ヘイ,35.7162967,139.7729587,緯度経度は怪しい
東京都,台東区,6-6,池之端２丁目５番４７号,七倉稲荷神社東側ヘイ,35.7151884,139.7663161,
東京都,台東区,6-7,上野公園１０番１４号,都立上野高等学校西側フェンス,35.7186527,139.7698496,
東京都,台東区,7-1,入谷２丁目２３番８号,区立大正小学校東側植込,35.7209514,139.7880944,
東京都,台東区,7-2,入谷２丁目２３番８号,区立大正小学校南側植込,35.7209514,139.7880944,
東京都,台東区,7-3,入谷２丁目２３番８号,区立大正小学校西側植込,35.7209514,139.7880944,
東京都,台東区,7-4,松が谷４丁目１５番１２号,区立松が谷公園南側植込,35.7185056,139.7862588,
東京都,台東区,7-5,松が谷３丁目２３番７号,区立入谷南公園北側植込,35.7171351,139.7855626,
東京都,台東区,7-6,松が谷３丁目２３番７号,区立入谷南公園南側植込,35.7171351,139.7855626,
東京都,台東区,7-7,松が谷３丁目２３番７号,区立入谷南公園西側植込,35.7171351,139.7855626,
東京都,台東区,7-8,松が谷４丁目５番１号,区立松が谷梅園公園東側植込,35.7172539,139.7876474,
東京都,台東区,7-9,入谷１丁目２８番７号,正覚寺南側ヘイ,35.7219581,139.7865354,
東京都,台東区,8-1,下谷１丁目２番１０号,都営下谷一丁目アパート西側サク,35.7178633,139.7819325,
東京都,台東区,8-2,下谷２丁目５番１４号,東京電力パワーグリッド根岸変電所サク,35.7212919,139.7828423,
東京都,台東区,8-3,北上野２丁目１５番１号,区立駒形中学校校舎　南側ヘイ,35.7174063,139.7842594,
東京都,台東区,8-4,北上野２丁目９番７号,区立山伏公園南側植込,35.7166155,139.7835595,
東京都,台東区,8-5,北上野２丁目１９番,区立駒形中学校第２運動場北側金網,35.7176091,139.7843593,
東京都,台東区,8-6,下谷１丁目５番１２号,上野郵便局北側ヘイ,35.7188926,139.7810324,
東京都,台東区,8-7,下谷１丁目１２番８号,旧坂本小学校跡地暫定広場,35.7200164,139.7821822,
東京都,台東区,8-8,北上野２丁目２４番１３号,北上野二丁目用地北側フェンス,35.718959,139.7841296,
東京都,台東区,8-9,北上野２丁目１５番１号,区立駒形中学校校舎北側ヘイ,35.7174063,139.7842594,
東京都,台東区,9-1,根岸４丁目９番５号,不動尊（御行の松）ヘイ,35.7254247,139.7821434,
東京都,台東区,9-2,根岸４丁目１番３号,安楽寺北側ヘイ,35.7243658,139.7841096,
東京都,台東区,9-3,根岸３丁目１２番,防災広場根岸の里北側植込,35.72435,139.781848,
東京都,台東区,9-4,根岸３丁目１２番４８号,千手院ヘイ,35.7230796,139.7815381,
東京都,台東区,9-5,上野公園１８番２０号,区立忍岡中学校南側金網,35.7184713,139.779345,
東京都,台東区,9-6,上野桜木１丁目１４番５５号,区立上野中学校西側ヘイ,35.72082839999999,139.7743059,
東京都,台東区,9-7,上野桜木２丁目２４番,上野桜木自転車保管所西側金網,35.7238849,139.7736745,
東京都,台東区,9-8,根岸２丁目１０番４号,書道博物館南側植込,35.7247243,139.7761708,
東京都,台東区,9-9,根岸３丁目９番８号,区立根岸小学校北側ヘイ,35.7235187,139.7790245,
東京都,台東区,9-10,根岸３丁目９番６号,区立上根岸公園南側植込,35.7235915,139.7784702,
東京都,台東区,9-11,上野公園１３先,区立国立博物館横ポケットパーク北門側,35.717732,139.7755217,
東京都,台東区,9-12,根岸２丁目２０番９号,防災根岸職員住宅西側植込,35.7260952,139.7749557,
東京都,台東区,10-1,根岸４丁目１６番２３号,区立根岸公園北側金網,35.7255904,139.7856603,
東京都,台東区,10-2,下谷３丁目１番２９号,区立柏葉中学校北側ヘイ,35.723844,139.78675,
東京都,台東区,10-3,竜泉１丁目１５番９号,区立弁天院公園西側ヘイ,35.7235861,139.7878077,
東京都,台東区,10-4,下谷３丁目１番２９号,区立柏葉中学校西側ヘイ,35.723844,139.78675,
東京都,台東区,10-5,下谷３丁目５番１２号,区立金杉公園南側金網,35.7240988,139.7859671,
東京都,台東区,11-1,竜泉１丁目２０番１９号,西徳寺南側ヘイ,35.7234028,139.7903777,
東京都,台東区,11-2,竜泉２丁目１９番３号,千束稲荷神社西側ヘイ,35.7270118,139.7903823,
東京都,台東区,11-3,竜泉２丁目１８番６号,東京電カパワーグリッド株式会社上野支社北側植込,35.7270991,139.7898696,
東京都,台東区,11-4,竜泉３丁目１９番１号,区立一葉記念公園南側植込,35.7256157,139.7925638,
東京都,台東区,11-5,竜泉３丁目２１番７号,masked,35.7256052,139.7914302,
東京都,台東区,11-6,竜泉１丁目２１番１７号,大音寺南側ヘイ,35.724135,139.7908078,
東京都,台東区,12-1,三ノ輪１丁目２３番９号,区立東泉小学校門脇サク,35.7284495,139.7921548,
東京都,台東区,12-2,三ノ輪１丁目２３番９号,区立東泉小学校北側金網,35.7284495,139.7921548,
東京都,台東区,12-3,三ノ輪１丁目２３番２号,区立東盛公園東側サク,35.7285353,139.7928585,
東京都,台東区,12-4,根岸５丁目１８番１１号,都営根岸５丁目アパート北側サク,35.7292272,139.7904565,
東京都,台東区,12-5,三ノ輪２丁目５番５号,区立三ノ輪児童遊園東側植込,35.7293867,139.7930557,
東京都,台東区,13-1,谷中２丁目９番１６号,区立谷中小学校門脇植込,35.7237486,139.7652878,
東京都,台東区,13-2,谷中５丁目５番,防災広場初音の森西側サク,35.72521,139.7669651,
東京都,台東区,13-3,谷中４丁目２番１１号,本妙院南側ヘイ,35.7217806,139.7679062,
東京都,台東区,13-4,谷中５丁目２２番２２号,長安寺ヘイ,35.7248438,139.7671248,
東京都,台東区,13-5,谷中７丁目２番,谷中霊園ヘイ,35.7233543,139.7712782,
東京都,台東区,13-6,上野桜木２丁目１０番６号,したまちミュージアム付設展示場西側鉄サク,35.7213306,139.7709223,
東京都,台東区,13-7,谷中４丁目２番５号,瑞輪寺東側ヘイ,35.7230969,139.7680433,
東京都,台東区,13-8,谷中２丁目９番１６号,区立谷中小学校南側金網,35.7237486,139.7652878,
東京都,台東区,13-9,谷中５丁目１０番１０号,谷中ほたるさわポケットパーク東側ヘイ,35.726675,139.7669781,
東京都,台東区,14-1,柳橋１丁目２０番４号,株式会社久月北側フェンス,35.6976411,139.7867713,
東京都,台東区,14-2,浅草橋２丁目２６番８号,区立台東育英小学校西側ヘイ,35.699897,139.7855836,
東京都,台東区,14-3,蔵前１丁目３番４号,区立浅草中学校南側金網,35.6999678,139.7901021,
東京都,台東区,14-4,鳥越２丁目４番１号,鳥越神社南側ヘイ,35.7020327,139.7855958,
東京都,台東区,14-5,蔵前１丁目３番４号,区立浅草中学校東側金網,35.6999678,139.7901021,
東京都,台東区,14-6,蔵前１丁目４番８号,区立御蔵前公園南側植込,35.7004759,139.7894641,
東京都,台東区,14-7,鳥越２丁目４番１号,鳥越神社東側ヘイ,35.7020327,139.7855958,
東京都,台東区,14-8,鳥越２丁目１３番１８号,長壽院東側ヘイ,35.7024539,139.7874023,
東京都,台東区,14-9,浅草橋２丁目２６番８号,区立台東育英小学校北側ヘイ,35.699897,139.7855836,
東京都,台東区,14-10,浅草橋２丁目２６番８号,区立台東育英小学校東側ヘイ,35.699897,139.7855836,
東京都,台東区,15-1,浅草橋５丁目１番８号,柳北スポーツプラザ南側植込,35.6992895,139.7821968,
東京都,台東区,15-2,浅草橋５丁目１番８号,柳北スポーツプラザ西側植込,35.6992895,139.7821968,
東京都,台東区,15-3,浅草橋５丁目１番２４号,都立忍岡高等学校東側植込,35.7005629,139.7825018,
東京都,台東区,15-4,浅草橋５丁目１番２４号,都立忍岡高等学校北側植込,35.7005629,139.7825018,
東京都,台東区,15-5,浅草橋２丁目２３番５号,区立浅草橋保育園東側鉄サク,35.7002312,139.7847213,
東京都,台東区,15-6,浅草橋５丁目１番３５号,区立柳北公園西側植込,35.6994394,139.7827414,
東京都,台東区,15-7,浅草橋５丁目２０番５号,カトリック浅草教会東側ヘイ,35.7013252,139.7817465,
東京都,台東区,16-1,小島２丁目９番１０号,旧小島小学校表門ヘイ,35.7061929,139.7837985,
東京都,台東区,16-2,小島２丁目９番１０号,旧小島小学校東側金網,35.7061929,139.7837985,
東京都,台東区,16-3,三筋１丁目９番１号,区立小島児童遊園南側植込,35.7035274,139.7846189,
東京都,台東区,16-4,小島２丁目９番１０号,旧小島小学校北側ヘイ,35.7061929,139.7837985,
東京都,台東区,16-5,元浅草２丁目１番１４号,吉祥院西側ヘイ,35.7099802,139.7846389,
東京都,台東区,16-6,元浅草１丁目６番２２号,都立白鷗高等学校南側鉄サク,35.7081585,139.7830018,
東京都,台東区,16-7,元浅草１丁目６番２２号,都立白鷗高等学校北側植込,35.7081585,139.7830018,
東京都,台東区,17-1,蔵前４丁目１５番９号,区立精華公園東側植込,35.7037408,139.7890232,
東京都,台東区,17-2,寿１丁目１０番９号,ことぶきこども園表門ヘイ,35.7070296,139.7889732,
東京都,台東区,17-3,寿１丁目１０番９号,ことぶきこども園東側ヘイ,35.7070296,139.7889732,
東京都,台東区,17-4,蔵前４丁目１９番１１号,区立蔵前小学校南側金網,35.7044415,139.7893321,
東京都,台東区,17-5,蔵前４丁目１９番１１号,区立蔵前小学校東側金網,35.7044415,139.7893321,
東京都,台東区,17-6,蔵前４丁目１５番９号,区立精華公園西側植込,35.7037408,139.7890232,
東京都,台東区,17-7,蔵前２丁目１番,区立蔵前公園北側サク,35.7025961,139.7910007,
東京都,台東区,17-8,蔵前２丁目１番１５号,東京都下水道局北部下水道事務所フェンス,35.7019385,139.7905987,
東京都,台東区,17-9,蔵前４丁目１５番９号,区立精華公園北側植込,35.7037408,139.7890232,
東京都,台東区,17-10,蔵前２丁目１１番１０号,学校法人蔵前幼稚園鉄サク,35.7035242,139.7928916,
東京都,台東区,18-1,西浅草１丁目５番５号,東本願寺北側ヘイ,35.7114482,139.7899192,
東京都,台東区,18-2,雷門２丁目２番３号,区立駒形公園西側植込,35.7089581,139.7967284,
東京都,台東区,18-3,寿１丁目４番１号,区立済美公園南側植込,35.706788,139.7898921,
東京都,台東区,18-4,元浅草３丁目２０番６号,区立菊屋橋公園西側植込,35.7087125,139.7868573,
東京都,台東区,18-5,西浅草１丁目５番５号,東本願寺東側ヘイ,35.7114482,139.7899192,
東京都,台東区,18-6,寿２丁目１０番４号,金龍寺西側ヘイ,35.7092665,139.7906207,
東京都,台東区,18-7,雷門１丁目５番１５号,区立田原小学校　東側植込,35.7097658,139.7928485,
東京都,台東区,18-8,西浅草１丁目５番５号,東本願寺南側フェンス,35.7114482,139.7899192,
東京都,台東区,19-1,花川戸２丁目４番３号,区立花川戸公園北側植込,35.7142005,139.7998006,
東京都,台東区,19-2,花川戸２丁目５番６号,区立花川戸公園西側植込,35.7141191,139.7993511,
東京都,台東区,19-3,花川戸１丁目１４番１５号,区立浅草小学校門前植込,35.7135121,139.7991615,
東京都,台東区,19-4,花川戸１丁目１４番１５号,区立浅草小学校南側ヘイ,35.7135121,139.7991615,
東京都,台東区,19-5,花川戸１丁目１４番１５号,区立浅草小学校北側ヘイ,35.7135121,139.7991615,
東京都,台東区,19-6,浅草２丁目３０番１７号,浅草観音堂裏交差点ソバヘイ,35.7158232,139.7966512,
東京都,台東区,19-7,浅草１丁目３８番６号,区立浅草公会堂南側植込,35.712552,139.7952909,
東京都,台東区,20-1,松が谷１丁目１３番１６号,区立松葉小学校門脇ヘイ,35.7122044,139.786067,
東京都,台東区,20-2,松が谷１丁目１３番１６号,区立松葉小学校西側植込,35.7122044,139.786067,
東京都,台東区,20-3,西浅草３丁目１６番１３号,感應稲荷神社南側ヘイ,35.71451,139.7921793,
東京都,台東区,20-4,松が谷１丁目１２番６号,区立松葉公園南側植込,35.7121798,139.7874152,
東京都,台東区,20-5,松が谷１丁目１２番６号,区立松葉公園東側植込,35.7121798,139.7874152,
東京都,台東区,20-6,松が谷３丁目７番２号,曹源寺西側ヘイ,35.7151287,139.7863167,
東京都,台東区,20-7,西浅草２丁目２１番１２号,区立西浅草川村公園南側植込,35.7140199,139.7895575,
東京都,台東区,20-8,西浅草３丁目２５番７号,区立金竜公園南側植込,35.7171279,139.7908809,
東京都,台東区,20-9,松が谷２丁目１４番９号,東京電力パワーグリッド松葉町変電所駐車場南側ヘイ,35.7137567,139.7875364,
東京都,台東区,20-10,東上野６丁目１６番３号,区立清島児童遊園植込,35.71345030000001,139.7834225,
東京都,台東区,20-11,松が谷１丁目１３番１６号,区立松葉小学校北側ヘイ,35.7122044,139.786067,
東京都,台東区,20-12,松が谷２丁目１９番７号,涼源寺南側ヘイ,35.7144565,139.7857469,
東京都,台東区,21-1,浅草４丁目２４番１５号,区立千束幼稚園入口ヘイ,35.7193617,139.7943208,
東京都,台東区,21-2,浅草４丁目２４番１１号,区立千束小学校西側ヘイ,35.7193558,139.7940471,
東京都,台東区,21-3,千束１丁目９番９号,区立金竜小学校西側植込,35.7186107,139.7901674,
東京都,台東区,21-4,千束１丁目９番９号,区立金竜小学校東側植込,35.7186107,139.7901674,
東京都,台東区,21-5,千束３丁目２２番,ＮＴＴ吉原西側鉄サク,35.7219047,139.793248,
東京都,台東区,21-6,浅草５丁目５８番７号,区立千草公園東側植込,35.7219808,139.7964143,
東京都,台東区,21-7,千束４丁目４０番６号,区立吉原公園南側植込,35.7249682,139.7951658,
東京都,台東区,21-8,千束４丁目４０番６号,区立吉原公園北側植込,35.7249682,139.7951658,
東京都,台東区,21-9,浅草４丁目２４番１１号,区立千東小学校東側ヘイ,35.7193558,139.7940471,
東京都,台東区,21-10,千束１丁目９番９号,区立金竜小学校北側植込,35.7186107,139.7901674,
東京都,台東区,22-1,浅草４丁目４７番２号,区立富士公園南側植込,35.71882,139.7977229,
東京都,台東区,22-2,浅草４丁目４８番９号,区立富士小学校東側ヘイ,35.718953,139.7983418,
東京都,台東区,22-3,浅草７丁目９番１０号,区立山谷堀公園吉野橋際,35.7185863,139.8023988,
東京都,台東区,22-4,浅草７丁目４番１１号,区立山谷堀公園今戸橋際,35.7170166,139.8026393,
東京都,台東区,22-5,浅草７丁目４番９号,区立待乳山聖天公園西側植込,35.7172241,139.8031521,
東京都,台東区,22-6,浅草７丁目１番,区立隅田公園植込（少年野球場前）,35.7148094,139.8027765,
東京都,台東区,22-7,浅草４丁目４８番９号,区立富士小学校西側鉄サク,35.718953,139.7983418,
東京都,台東区,22-8,浅草４丁目４７番２号,区立富士公園西側植込,35.71882,139.7977229,
東京都,台東区,22-9,浅草５丁目３番２号,浅草富士浅間神社西側サク,35.71929730000001,139.7984221,
東京都,台東区,23-1,今戸２丁目１番８号,区立桜橋中学校門脇ヘイ,35.720506,139.807283,
東京都,台東区,23-2,今戸２丁目２４番１号,区立今戸公園南側植込,35.7213724,139.8061384,
東京都,台東区,23-3,今戸１丁目５番２２号,今戸神社東側ヘイ,35.7193524,139.8036915,
東京都,台東区,23-4,今戸１丁目８番１３号,都立浅草高等学校北側植込,35.7194737,139.8027575,
東京都,台東区,23-5,今戸１丁目１番,区立隅田公園植込（野球場前）,35.718695,139.8063821,
東京都,台東区,23-6,今戸２丁目１３番６号,熱田神社東側ヘイ,35.72130629999999,139.8023448,
東京都,台東区,23-7,今戸２丁目３２番１６号,長昌寺西側ヘイ,35.7224103,139.805469,
東京都,台東区,24-1,東浅草２丁目２７番１９号,区立東浅草小学校表門ヘイ,35.724484,139.7980525,
東京都,台東区,24-2,東浅草２丁目２７番１号,区立日本堤公園南側フェンス,35.7242802,139.7982822,
東京都,台東区,24-3,日本堤２丁目２５番４号,たなか多目的センター南側ヘイ,35.727885,139.7972429,
東京都,台東区,24-4,東浅草２丁目７番,区立山谷堀公園植込（地方橋際）,35.7232209,139.7986818,
東京都,台東区,24-5,東浅草２丁目１２番１３号,東禅寺西側ヘイ,35.7242942,139.8002162,
東京都,台東区,24-6,日本堤２丁目２５番４号,たなか多目的センター西側ヘイ,35.727885,139.7972429,
東京都,台東区,24-7,清川２丁目１４番７号,福祉プラザ台東清峰会西側植込,35.7271983,139.8013589,
東京都,台東区,24-8,東浅草１丁目４番,区立山谷堀公園南側植込（山谷掘橋際）,35.7211354,139.8002801,
東京都,台東区,24-9,浅草５丁目７３番１２号,東京都下水道局日本堤ポンプ所東側フェンス,35.722806,139.7983621,
東京都,台東区,25-1,清川１丁目１４番２１号,区立石浜公園東側植込,35.7246952,139.8034936,
東京都,台東区,25-2,清川１丁目１４番２１号,区立石浜小学校門脇サク,35.7246952,139.8034936,
東京都,台東区,25-3,清川１丁目４番１３号,浄雲寺東側ヘイ,35.7232862,139.8027688,
東京都,台東区,25-4,橋場２丁目１９番７号,区立橋場公園北側サク,35.7276921,139.8072799,
東京都,台東区,25-5,橋場１丁目２８番３号,区立妙亀塚公園西側植込,35.7255603,139.8054847,
東京都,台東区,25-6,清川１丁目１４番２１号,区立石浜小学校南側ヘイ,35.7246952,139.8034936,
東京都,台東区,25-7,清川２丁目２２番１６号,区立玉姫保育園南側鉄サク,35.7274601,139.8039481,
東京都,台東区,25-8,清川２丁目１３番１８号,区立玉姫公園北側植込,35.727243,139.8022442,
