prefecture,city,number,address,name,lat,long,note
東京都,品川区,1-1,北品川 5-2-6,御殿山小学校／正門右横植込み,35.6231884,139.7315136,
東京都,品川区,1-2,北品川 5-7,目黒川沿い遊歩道（小関橋前）／鉄柵,35.6210509,139.7311943,
東京都,品川区,1-3,北品川 5-8,目黒川沿い遊歩道（小関公園前）／鉄柵,35.619586,139.7335,
東京都,品川区,1-4,北品川 5-8,目黒川沿い遊歩道（居木橋前）／鉄柵,35.619586,139.7335,
東京都,品川区,1-5,北品川 5-20,御殿山通り（ONビル公開空地前）／植込み,35.6195974,139.7352653,
東京都,品川区,1-6,北品川 6-6-32,御殿山の丘公園／植込み,35.6250254,139.733589,
東京都,品川区,1-7,東五反田 2-15-6,五反田保育園／フェンス,35.6214961,139.7292237,
東京都,品川区,1-8,北品川 5-3,御殿山幼稚園前／歩道植込み,35.6224552,139.7318328,
東京都,品川区,2-1,北品川 3-9-5,権現山公園／植込み,35.6176316,139.7380593,
東京都,品川区,2-2,北品川 3-9-30,品川学園／山手通り側植込み,35.6179999,139.7383195,
東京都,品川区,2-3,北品川 3-10-13,子供の森公園／東側植込み,35.6163369,139.738209,
東京都,品川区,2-4,北品川 3-11-22,品川保健センター／植込み,35.61655500000001,139.7406677,
東京都,品川区,2-5,北品川 3-9-30,品川学園／プール側植込み,35.6179999,139.7383195,
東京都,品川区,2-6,南品川 4-7-5,日本ペイントホールディングス／植込み,35.61413,139.7367144,
東京都,品川区,2-7,南品川 4-2,目黒川沿い遊歩道（大龍寺前）／鉄柵,35.6145,139.740392,
東京都,品川区,2-8,南品川 4-1-11,くりのき保育園／南側フェンス,35.6144383,139.7381314,
東京都,品川区,3-1,北品川 1-8,東京都交通局品川営業所／駐車場フェンス,35.6234756,139.7417267,
東京都,品川区,3-2,北品川 1-30-21,品海公園／フェンス,35.6201077,139.7423644,
東京都,品川区,3-3,北品川 2-7-21,聖蹟公園／山手通り側柵,35.6188712,139.7439667,
東京都,品川区,3-4,東品川 1-7-17,品川浦公園前／歩道植込み,35.6209687,139.7425039,
東京都,品川区,3-5,東品川 1-8-30,台場保育園／フェンス,35.6208791,139.7436955,
東京都,品川区,3-6,東品川 1-8-30,台場小学校／東側植込み,35.6208791,139.7436955,
東京都,品川区,3-7,東品川 1-2-11,東品川一丁目公園／植込み,35.6226929,139.7442452,
東京都,品川区,3-8,東品川 2-5,天王洲球場／都営アパート側植込み,35.62077379999999,139.7501948,
東京都,品川区,2-3,東品川 2-3-2,アイル品川（旧東品川清掃作業所）／植込み,35.6225439,139.7513627,
東京都,品川区,4-1,東品川 1-35,目黒川護岸（洲崎橋前）／鉄柵,35.6179127,139.7455639,
東京都,品川区,4-2,東品川 1-36-15,洲崎公園／入口横植込み,35.6178965,139.7461727,
東京都,品川区,4-3,東品川 3-1-5,福栄会／東側植込み,35.6156573,139.7469212,
東京都,品川区,4-4,東品川 3-14-9,東品川公園／植込み,35.614944,139.7465519,
東京都,品川区,4-5,東品川 3-27-22,八潮高校／西側植込み,35.6120164,139.7473853,
東京都,品川区,4-6,東品川 3-10,品川シーサイドレジデンス前／歩道植込み,35.6153979,139.7500351,
東京都,品川区,4-7,東品川 3-30-15,東海中学校／ジュネーヴ平和通り側鉄柵,35.6125624,139.7489145,
東京都,品川区,4-8,東品川 3-32-8,敬老公園／鉄柵,35.61274,139.750259,緯度経度は怪しい
東京都,品川区,4-9,南品川 1-3,目黒川護岸（鎮守橋前）／鉄柵,35.6161253,139.744147,
東京都,品川区,5-1,南品川2-7-25,真了寺／万年堀,35.6114926,139.7436589,
東京都,品川区,5-2,東品川4-1,元なぎさ通り(マンションニュー東品川前)／歩道植込み,35.6089355,139.7485979,
東京都,品川区,5-3,東品川4-9,元なぎさ通り(秀和東品川レジデンス前)／歩道植込み,35.6092746,139.7453244,
東京都,品川区,5-4,東品川4-10-1,元なぎさ通り(住友不動産品川ビル前)／歩道植込み,35.6079489,139.745873,
東京都,品川区,5-5,東品川4-12,天王洲通り(品川シーサイド公園前)／植込み,35.61027200000001,139.749772,
東京都,品川区,5-6,東品川4-12,天王洲通り(品川シーサイド駅前)／歩道植込み,35.61027200000001,139.749772,
東京都,品川区,5-7,南品川2-8-23,天妙国寺／万年堀,35.6118372,139.7429442,
東京都,品川区,5-8,南品川2-9-18,常行寺／城南小側墓地堀,35.6137557,139.7426697,
東京都,品川区,6-1,南品川5-2,南五公園／側道側植込み,35.6122094,139.7404354,
東京都,品川区,6-2,南品川5-3-20,品川第二地域センター／植込み,35.6113164,139.7412928,
東京都,品川区,6-3,南品川5-12-4,品川エトワール女子高等学校／北側堀,35.6085657,139.7402033,
東京都,品川区,6-4,南品川6-7-15,二日市公園／擬木柵,35.6114227,139.7390323,
東京都,品川区,6-5,南品川6-8-8,浅間台小学校／石垣,35.6111302,139.7360536,
東京都,品川区,6-6,南品川6-10-5,東京健康科学専門学校／鉄柵,35.6097454,139.736264,
東京都,品川区,6-7,南品川6-15-5,ゼームス坂(ユニバーサルドラッグ前)／歩道植込み,35.6104472,139.738936,
東京都,品川区,6-8,南品川6-18,浅間台公園／植込み,35.6085642,139.7368818,
東京都,品川区,7-1,西品川1-7-9,品川消防署大崎出張所／フェンス,35.6135585,139.7316338,
東京都,品川区,7-2,西品川1-8-1,東京都下水道局品川出張所／フェンス,35.612914,139.7301541,
東京都,品川区,7-3,西品川2-6-13,三ツ木公園／フェンス,35.6139836,139.726242,
東京都,品川区,7-4,西品川2-9-1,三ツ木児童遊園／植込み,35.6137627,139.7243101,
東京都,品川区,7-5,西品川3-10-6,大崎中学校／北側フェンス,35.6158446,139.7233473,
東京都,品川区,7-6,西品川3-10-6,大崎中学校／裏門側フェンス,35.6158446,139.7233473,
東京都,品川区,7-7,西品川3-12-2,鷺ヶ崎公園／鉄柵,35.6155489,139.7245894,
東京都,品川区,7-8,西品川3-16-28,三木小学校／正門横フェンス,35.6152827,139.7270962,
東京都,品川区,8-1,大崎4-2-16,立正大学／西側フェンス,35.6208522,139.7237103,
東京都,品川区,8-2,大崎2-1,大崎駅西口ThinkPark前／歩道植込み,35.6184454,139.7272033,
東京都,品川区,8-3,大崎2-2,ひふみ公園前／歩道植込み,35.6186751,139.7261657,
東京都,品川区,8-4,大崎2-11,ル・サンク大崎ウィズタワー前／歩道植込み,35.6169484,139.7293806,
東京都,品川区,8-5,大崎3-12-22,芳水小学校／東側植込み,35.619161,139.7247662,
東京都,品川区,8-6,大崎5-2,大崎五丁目遊園／植込み,35.6220403,139.7263254,
東京都,品川区,8-7,大崎4-2-16,立正大学／峰原坂側フェンス,35.6208522,139.7237103,
東京都,品川区,8-8,大崎5-2-1,大崎保育園前／植込み,35.6218757,139.7264281,
東京都,品川区,8-9,大崎5-5-17,大崎公園／公園内生け垣,35.622696,139.724754,
東京都,品川区,9-1,東五反田 1-5-3,島津山眼科前／ガードレール,35.6269011,139.726612,
東京都,品川区,9-2,東五反田2-1-14,五反田南公園／鉄柵,35.6252507,139.7244896,
東京都,品川区,9-3,東五反田2-11-3,日野学園／総合体育館西側植込み,35.6242042,139.7283208,
東京都,品川区,9-4,東五反田2-11-3,日野学園／総合体育館東側植込み,35.6242042,139.7283208,
東京都,品川区,9-5,西五反田 1-10,大崎橋広場／植込み,35.6247196,139.7239709,
東京都,品川区,9-6,西五反田2-20,目黒川沿い区道（木村橋前）／植込み,35.6260902,139.7215861,
東京都,品川区,9-7,大崎 1-11,山手通り（ゲートシティ大崎前）／歩道植込み,35.616947,139.729553,緯度経度は怪しい
東京都,品川区,9-8,大崎1-14,目黒川護岸（居木橋公園前）／鉄柵,35.6184538,139.7329504,
東京都,品川区,10-1,東五反田 5-9-22,NTT東日本関東病院／北側植込み,35.6312661,139.7256638,
東京都,品川区,10-2,上大崎 1-19-19,第三日野小学校／北側植込み,35.63278010000001,139.7240331,
東京都,品川区,10-3,上大崎 1-19-19,第三日野小学校／南側フェンス,35.63278010000001,139.7240331,
東京都,品川区,10-4,上大崎1-23-15,北品川四谷線／歩道植込み,35.6325405,139.7209221,
東京都,品川区,10-5,東五反田 5-9-22,NTT東日本関東病院健康管理棟／東側植込み,35.6312661,139.7256638,
東京都,品川区,10-6,東五反田5-21-3,花房山通り／歩道植込み,35.6287311,139.720958,
東京都,品川区,10-7,東五反田5-21-10,五反田児童遊園／フェンス,35.6291451,139.7205462,
東京都,品川区,10-8,東五反田5-25-27,五反田公園桜並木／植込み,35.6278694,139.7239778,
東京都,品川区,11-1,西五反田 2-22,目黒川沿い区道（ジニアスビル前）／植込み,35.6254359,139.7206588,
東京都,品川区,11-2,西五反田2-32-7,北品川四谷線（大崎郵便局前）／歩道植込み,35.6252433,139.7189529,
東京都,品川区,11-3,西五反田3-7,北品川四谷線（レジディアタワー前）／歩道植込み,35.6257668,139.7182646,
東京都,品川区,11-4,西五反田6-4,第一日野小学校／第二グラウンドフェンス,35.6224216,139.7154715,
東京都,品川区,11-5,西五反田6-6-20,荏原健康センター仮施設／北側フェンス,35.6226697,139.717482,
東京都,品川区,11-6,西五反田6-5-32,第一日野小学校／正門右横植込み,35.6220486,139.7165089,
東京都,品川区,11-7,西五反田6-6-18,中原保育園仮設園舎／南側フェンス,35.6231658,139.7171474,
東京都,品川区,11-8,西五反田7-2,山手通り（城南信用金庫本店前）／歩道植込み,35.62325,139.7198607,
東京都,品川区,12-1,西五反田 3-9-10,西五反田保育園／植込み,35.6265179,139.716886,
東京都,品川区,12-2,西五反田3-12,目黒川沿い区道（亀の甲橋横高架下）／鉄柵,35.6277076,139.7148707,
東京都,品川区,12-3,西五反田3-13,目黒川沿い区道（オークプレイス目黒パーテラス前）／植込み,35.628225,139.7139753,
東京都,品川区,12-4,西五反田5-14-2,攻玉社学園／西側コンクリート塀,35.6245335,139.7131918,
東京都,品川区,12-5,西五反田4-28-9,かむろ坂（かむろ坂公園前）／歩道植込み,35.62503299999999,139.7116313,
東京都,品川区,12-6,西五反田4-29-9,第四日野小学校／南側植込み,35.625639,139.7129454,
東京都,品川区,12-7,西五反田5-14-2,攻玉社学園／北側コンクリート塀,35.6245335,139.7131918,
東京都,品川区,12-8,西五反田5-28-16,西霧ヶ谷公園／植込み,35.6230537,139.7118058,
東京都,品川区,13-1,上大崎 2-9,山手線沿い区道(齋藤宅前)／ガードレール,35.6367957,139.7157109,
東京都,品川区,13-2,上大崎 2-13-30,目黒通り(oakmeguroビル前)／歩道植込み,35.6345279,139.7182756,
東京都,品川区,13-3,上大崎 2-16,上大崎橋／フェンス,35.6344204,139.7158705,
東京都,品川区,13-4,上大崎 2-17,上大崎新橋／フェンス,35.6360474,139.7148872,
東京都,品川区,13-5,上大崎 3-10-41,花房山通り／石垣,35.6310856,139.717086,
東京都,品川区,13-6,上大崎 4-6-19,学校法人杉野学園本校舎／鉄柵,35.6316128,139.7158178,
東京都,品川区,13-7,上大崎 3-10-7,上大崎特別養護老人ホーム／入口植込み,35.6331537,139.718475,
東京都,品川区,13-8,西五反田 3-6-15,谷山公園／入口横植込み,35.6274889,139.7182646,
東京都,品川区,13-9,西五反田 3-6-3,大崎第一地域センター前／歩道植込み,35.6277987,139.7168136,
東京都,品川区,14-1,東大井 3-4-4,東大井公園／西側植込み,35.604133,139.7387878,
東京都,品川区,14-2,東大井 3-6-18,東大井三丁目区営住宅／ポンプ室前鉄柵,35.6028924,139.7394068,
東京都,品川区,14-3,東大井 3-13-1,来福寺／西門の壁,35.6016267,139.7375439,
東京都,品川区,14-4,東大井 4-1,池上通り(仙台味噌月極駐車場前)／歩道植込み,35.6065177,139.7394763,
東京都,品川区,14-5,東大井 4-8-4,大井公園／西側鉄柵,35.6053949,139.7406564,
東京都,品川区,14-6,東大井 3-4-4,東大井公園／東側フェンス,35.604133,139.7387878,
東京都,品川区,14-7,東大井 4-15-9,立会小学校／植込み,35.6044709,139.7401955,
東京都,品川区,14-8,東大井 5-23-37,池上通り(三菱鉛筆前)／歩道植込み,35.6046177,139.7368068,
東京都,品川区,15-1,東大井 1-4-11,鮫洲運動公園／北側植込み,35.6058589,139.7451579,
東京都,品川区,15-2,東大井 1-4-11,鮫洲運動公園／西側フェンス,35.6058589,139.7451579,
東京都,品川区,15-3,東大井 1-4,元なぎさ通り(ローソン前)／歩道植込み,35.6059444,139.7450351,
東京都,品川区,15-4,東大井 1-12-17,関東運輸局東京運輸支局／バス停側植込み,35.6047213,139.7470091,
東京都,品川区,15-5,東大井 2-10-14,鮫浜小学校／校庭フェンス,35.601238,139.7405144,
東京都,品川区,15-6,東大井 2-1-8,品川運輸／ブロック塀,35.6029976,139.7406339,
東京都,品川区,15-7,東大井 1-16-15,鮫洲入江公園／植込み,35.603859,139.7440857,
東京都,品川区,15-8,東大井 2-26-18,新浜川公園／公衆便所前鉄柵,35.5976727,139.7409779,
東京都,品川区,16-1,東大井 6-12,立会道路(関ヶ原公園前)／植込み,35.6028628,139.7355746,
東京都,品川区,16-2,東大井 3-18-34,浜川中学校／西側裏門鉄柵,35.6004098,139.7385882,
東京都,品川区,16-3,東大井 6-17,立会道路(東京品川病院病棟前)／植込み,35.6008227,139.7346267,
東京都,品川区,16-4,南大井 4-2,立会川護岸(昭和橋前)／西側鉄柵,35.5986929,139.7371003,
東京都,品川区,16-5,南大井 4-3-27,浜川小学校／南側植込み,35.5982507,139.735959,
東京都,品川区,16-6,南大井 5-7-10,南大井5丁目区営住宅／塀,35.598059,139.7341738,
東京都,品川区,16-7,南大井 4-8-22,浜川公園／東側植込み,35.5969821,139.7354549,
東京都,品川区,16-8,南大井 4-8-22,浜川公園／西側植込み,35.5969821,139.7354549,
東京都,品川区,17-1,南大井 6-1,桐畑公園／鉄柵,35.5930506,139.7320723,
東京都,品川区,17-2,南大井 3-27-5,大井海岸公園／東側植込み,35.5884576,139.7335091,
東京都,品川区,17-3,南大井 4-16-2,鈴ヶ森小学校／東側入口鉄柵,35.5941696,139.7347963,
東京都,品川区,17-4,南大井 4-18,鈴ヶ森公園／西側植込み,35.5935643,139.7347863,
東京都,品川区,17-5,南大井 5-16-1,大井水神公園(空気抜き塔前)／大井町駅寄り鉄柵,35.595539,139.732661,
東京都,品川区,17-6,南大井 6-2-15,水神保育園／鉄柵,35.5928069,139.7329176,
東京都,品川区,17-7,南大井 6-15-2,大井水神公園(品川モニュメント前)／大森駅寄り植込み,35.5908623,139.7298373,
東京都,品川区,17-8,南大井 5-19-1,桜新道(ケアセンター南大井前)／歩道植込み,35.5946801,139.7339881,
東京都,品川区,17-9,南大井 6-26-1,桜新道(大森ベルポート前)／歩道植込み,35.5881399,139.7320642,
東京都,品川区,18-1,大井 1-3,区役所通り(イトーヨーカドー前)／歩道植込み,35.6072745,139.7340679,
東京都,品川区,18-2,大井 1-46-8,大井中央公園／植込み鉄柵,35.6045241,139.7321808,
東京都,品川区,18-3,大井 1-50,阪急大井町ガーデン前／歩道植込み,35.6055517,139.7340679,
東京都,品川区,18-4,大井 2-1-13,森下児童遊園／鉄柵,35.6065557,139.7295679,
東京都,品川区,18-5,大井 2-22-15,渡辺駐車場／ブロック塀,35.6037904,139.7289593,
東京都,品川区,18-6,大井 2-27-20,大井第二地域センター前／歩道植込み,35.6040309,139.7304515,
東京都,品川区,18-7,大井 3-7-19,山中小学校／正門横鉄柵,35.6029445,139.7300946,
東京都,品川区,18-8,大井 3-7-19,山中小学校／裏門横鉄柵,35.6029445,139.7300946,
東京都,品川区,19-1,大井 4-14-8,大井在宅介護支援センター／フェンス,35.6018464,139.7328551,
東京都,品川区,19-2,大井 4-22-30,大井倉田児童遊園／植込み,35.6001009,139.732222,
東京都,品川区,19-3,大井 5-19-5,滝王子公園／植込み,35.5982567,139.7285403,
東京都,品川区,19-4,大井 6-1-32,大井第一小学校／正門右横植込み,35.5986759,139.7312783,
東京都,品川区,19-5,大井 6-1-32,大井第一小学校／南門右横植込み,35.5986759,139.7312783,
東京都,品川区,19-6,大井 6-1-32,大井第一小学校／北側コンクリート塀,35.5986759,139.7312783,
東京都,品川区,19-7,大井 6-8-2,大井鹿島公園／植込み,35.596832,139.7325513,
東京都,品川区,19-8,大井 6-18-36,鹿島神社／石垣,35.5958427,139.7299271,
東京都,品川区,20-1,大井 3-22-3,やまなか公園／植込み,35.600798,139.727762,
東京都,品川区,20-2,大井 5-1-37,伊藤学園／東側コンクリート塀,35.5997938,139.726088,
東京都,品川区,20-3,大井 5-1-37,伊藤学園／西側鉄柵,35.5997938,139.726088,
東京都,品川区,20-4,大井 7-29-11,鹿島康塚児童遊園／鉄柵,35.5939855,139.7289543,
東京都,品川区,20-5,大井 5-28-21,大場宅駐車場／コンクリート塀,35.5978457,139.725781,
東京都,品川区,20-6,西大井 1-5,光学通り(ニコン跡地前)／歩道植込み,35.603422,139.7263852,
東京都,品川区,20-7,西大井 1-6,光学通り(ニコン前)／歩道植込み,35.6018078,139.7254474,
東京都,品川区,20-8,西大井 1-6-13,品川翔英／正門右横塀,35.6021176,139.726206,
東京都,品川区,21-1,西大井 1-1,横須賀線沿い遊歩道（Jタワー西大井前）／西側植込み,35.6008455,139.7216165,
東京都,品川区,21-2,西大井 1-3,西大井駅前交番前／歩道植込み,35.6018348,139.7219357,
東京都,品川区,21-3,西大井 1-4-10,西大井広場／南側入口鉄柵,35.6025649,139.7228834,
東京都,品川区,21-4,西大井 2-5-21,ウェルカムセンター原／南側植込み,35.5993621,139.7220005,
東京都,品川区,21-5,西大井 2-5-21,ヘルスケアタウンにしおおい／北側フェンス,35.5993621,139.7220005,
東京都,品川区,21-6,西大井 3-1-5,出石児童遊園／フェンス,35.5979206,139.723921,
東京都,品川区,21-7,西大井 3-16-27,出石公園／鉄柵,35.594882,139.7232127,
東京都,品川区,21-8,西大井 4-23-12,西大井四丁目防災活動広場／植込み,35.5928266,139.7193968,
東京都,品川区,22-1,西大井 5-5-14,冨士見台中学校／正門右横コンクリート塀,35.597931,139.7155812,
東京都,品川区,22-2,西大井 5-6-8,伊藤小学校／正門左横鉄柵,35.5986376,139.7168281,
東京都,品川区,22-3,西大井 5-7-3,富士見ケ丘児童遊園／入口右横鉄柵,35.5993954,139.7162795,
東京都,品川区,22-4,西大井 5-22-8,旧伊藤幼稚園／入口左横鉄柵,35.5982406,139.7166885,
東京都,品川区,22-5,西大井 6-1-14,原っぱ公園／入口右横鉄柵,35.6010097,139.7137957,
東京都,品川区,22-6,西大井 6-3-1,西大井六丁目ふれあい広場／植込み,35.6012382,139.716307,
東京都,品川区,22-7,西大井 6-10-21,西大井六丁目区営住宅／フェンス,35.6004332,139.7198122,
東京都,品川区,22-8,西大井 6-17-5,西大井六丁目第二区営住宅5号棟／植込み,35.600526,139.7157236,
東京都,品川区,23-1,小山台 1-18-24,小山台小学校／正門右横植込み,35.6227804,139.7032732,
東京都,品川区,23-2,小山台 1-20,かむろ坂（都築電気小山台ビル前）／歩道植込み,35.6226119,139.7055771,
東京都,品川区,23-3,小山台 1-30-3,かむろ坂（マートルコート目黒不動前）／歩道植込み,35.6234742,139.7077151,
東京都,品川区,23-4,小山台 1-33-8,かむろ坂（TOP不動前前）／歩道植込み,35.6242506,139.7098159,
東京都,品川区,23-5,小山台 2-2,小山台公園／歩道植込み,35.6247022,139.6988554,
東京都,品川区,23-6,小山台 2-7,林試の森公園水車門入口／区道植込み,35.6238918,139.7035825,
東京都,品川区,23-7,小山 3-3-32,小山台高校／正門右横植込み,35.6213293,139.7038725,
東京都,品川区,23-8,小山 3-3-32,小山台高校／体育館裏側植込み,35.6213293,139.7038725,
東京都,品川区,24-1,小山 2-9-16,後地公園／公園内植込み,35.6215573,139.7093314,
東京都,品川区,24-2,小山 1-11,不動前緑道公園／公園内東側植込み,35.622745,139.7087687,
東京都,品川区,24-3,小山 2-4-6,後地小学校／正門左横生け垣,35.6216771,139.7087558,
東京都,品川区,24-4,荏原 1-24-18,荏原さくら公園／植込み,35.6188747,139.7141175,
東京都,品川区,24-5,小山 2-13-10,星薬科大学テニスコート／入口左横フェンス,35.6203539,139.7108333,
東京都,品川区,24-6,荏原 1-4-13,わくわく広場／鉄柵,35.6201318,139.7125829,
東京都,品川区,24-7,荏原 1-21-9,中原東公園／植込み,35.6185336,139.7148692,
東京都,品川区,24-8,荏原 1-24-30,荏原第一中学校／正門右横鉄柵,35.6196522,139.7128731,
東京都,品川区,25-1,荏原 5-1-2,荏原中央公園／公園内植込み,35.6158699,139.7042418,
東京都,品川区,25-2,小山 4-4-5,補助26号線(ファミリーマート前)／ガードパイプ,35.6186561,139.7041052,
東京都,品川区,25-3,小山4-11,武蔵小山緑道公園(小山台会館裏)／公園内植込み,35.61893740000001,139.7014283,
東京都,品川区,25-4,小山5-3,武蔵小山緑道公園(西小山駅寄り)／公園内植込み,35.6173653,139.7005507,
東京都,品川区,25-5,小山5-10-6,小山小学校／西側コンクリート塀,35.616026,139.7032775,
東京都,品川区,25-6,小山5-10-6,小山小学校／南側コンクリート塀,35.616026,139.7032775,
東京都,品川区,25-7,荏原 5-2-1,三英社製作所／ブロック塀,35.6153817,139.7047506,
東京都,品川区,25-8,荏原5-5-12,しいの木公園／植込み,35.6149905,139.7032792,
東京都,品川区,26-1,小山 5-20-9,石井宅／鉄柵,35.6163759,139.7005685,
東京都,品川区,26-2,小山5-20-19,荏原第六中学校／北側鉄柵,35.6163375,139.6998838,
東京都,品川区,26-3,小山6-7-2,立会道路(東ビル前)／歩道植込み,35.6149853,139.6996775,
東京都,品川区,26-4,小山6-12,西小山緑道公園／公園内北側植込み,35.6140927,139.6971801,
東京都,品川区,26-5,小山6-21-11,立会道路(シティハウス西小山前)／歩道植込み,35.6129289,139.7006704,
東京都,品川区,26-6,小山6-23-11,コーポ洗足／フェンス,35.6126405,139.6991832,
東京都,品川区,26-7,小山6-26,西小山緑道公園／公園内南側植込み,35.6123251,139.6964166,
東京都,品川区,26-8,荏原 5-6-5,荏原区民センター／生け垣,35.6145376,139.7021404,
東京都,品川区,27-1,荏原 2-3,星薬科大学／私道植込み,35.6175131,139.7123594,
東京都,品川区,27-2,荏原2-9-6,荏原保健センター／旧道沿い植込み,35.6170405,139.7110029,
東京都,品川区,27-3,荏原2-16-18,荏原保育園／フェンス,35.6166695,139.7089707,
東京都,品川区,27-4,荏原3-3-10,荏三公園／フェンス,35.6180202,139.7072524,
東京都,品川区,27-5,荏原4-5-2,スクエア荏原(平塚公園)／植込み,35.6158526,139.7076978,
東京都,品川区,27-6,荏原4-5-22,平塚幼稚園／入口脇植込み,35.61507,139.7076751,
東京都,品川区,27-7,荏原2-9-6,荏原保健センター／中原街道側植込み,35.6170405,139.7110029,
東京都,品川区,27-8,荏原4-16-11,荏原西保育園／入口脇フェンス,35.6139046,139.7061488,
東京都,品川区,28-1,小山 7-14-18,小山在宅介護支援センター／鉄柵,35.6090121,139.696503,
東京都,品川区,28-2,荏原 6-16-4,荏原南公園／北東側入口植込み,35.6115663,139.7027946,
東京都,品川区,28-3,荏原6-16-4,立会道路(荏原南公園前)／植込み,35.6115663,139.7027946,
東京都,品川区,28-4,荏原6-17-12,荏原第二地域センター／植込み,35.6110617,139.7044202,
東京都,品川区,28-5,荏原7-5-14,小山八幡神社／西側万年塀,35.6118988,139.6994374,
東京都,品川区,28-6,荏原7-18-15,洗足うさぎ幼稚園／フェンス,35.6099511,139.6986864,
東京都,品川区,28-7,旗の台 1-6-1,第二延山小学校／東側鉄柵,35.6100958,139.7035609,
東京都,品川区,28-8,旗の台1-6-1,第二延山小学校／西側鉄柵,35.6100958,139.7035609,
東京都,品川区,29-1,旗の台 1-11-17,清水台小学校／フェンス,35.6071012,139.7029891,
東京都,品川区,29-2,旗の台 1-11-17,清水台小学校／正門左側コンクリート塀,35.6071012,139.7029891,
東京都,品川区,29-3,旗の台 5-19-9,旗の台公園／北側タイル塀,35.6037474,139.7002316,
東京都,品川区,29-4,旗の台 1-5-8,立会道路(昭和大学病院前)／歩道植込み,35.6083886,139.7035693,
東京都,品川区,29-5,旗の台 6-22-21,香蘭女学校／西側フェンス,35.6069146,139.7017794,
東京都,品川区,29-6,旗の台 6-22-24,三光教会／中原街道側壁面,35.6064937,139.7011292,
東京都,品川区,29-7,旗の台 6-29-11,中原街道(エクセリア旗の台前)／歩道植込み,35.6045492,139.6983491,
東京都,品川区,29-8,旗の台 2-10-9,中原街道／歩道植込み,35.6061938,139.7016631,
東京都,品川区,30-1,旗の台 3-1-8,文教大学学園／万年塀,35.6060052,139.7056415,
東京都,品川区,30-2,旗の台 3-6-12,旗岡八幡神社／入口右側石柵,35.6048218,139.7080972,
東京都,品川区,30-3,旗の台 3-6-18,法蓮寺駐車場／左側生け垣,35.6043042,139.7081863,
東京都,品川区,30-4,旗の台 3-16,立会川児童遊園／遊園内植込み,35.6042116,139.7062154,
東京都,品川区,30-5,旗の台 4-7-11,旗台小学校／東側フェンス,35.603248,139.7042236,
東京都,品川区,30-6,旗の台 4-7-11,旗台小学校／西側生け垣,35.603248,139.7042236,
東京都,品川区,30-7,旗の台 3-11,立会川児童遊園／植込み,35.605199,139.7041609,
東京都,品川区,30-8,旗の台 5-11-13,荏原第五中学校／校庭側コンクリート塀,35.6030741,139.7016107,
東京都,品川区,31-1,平塚 1-18,補助26号線(ニューシティアパートメツ戸越前)／歩道植込み,35.6126999,139.7139553,
東京都,品川区,31-2,平塚 2-1-14,中原街道(戸越銀座ラウンドビル前)／歩道植込み,35.6188714,139.7165488,
東京都,品川区,31-3,平塚 2-2-3,平塚保育園／北側フェンス,35.6187794,139.7174327,
東京都,品川区,31-4,平塚 2-7-6,東電パワーグリッド戸越変電所／コンクリート塀,35.6170986,139.7157857,
東京都,品川区,31-5,平塚 2-19-20,京陽小学校／東側万年塀,35.6147396,139.7135339,
東京都,品川区,31-6,平塚 2-19-20,京陽小学校／西側フェンス,35.6147396,139.7135339,
東京都,品川区,31-7,平塚 3-9-1,ひらさん広場／西側植込み,35.613901,139.7127683,
東京都,品川区,31-8,平塚 3-16,補助26号線(荏原平塚学園前)／歩道植込み,35.615851,139.709531,
東京都,品川区,32-1,中延 1-1-5,荏原税務署／鉄柵,35.613843,139.7097715,
東京都,品川区,32-2,中延 1-5,補助26号線(P・Oビル前)／歩道植込み,35.6127373,139.7124392,
東京都,品川区,32-3,中延 1-11-15,中延小学校／東側フェンス,35.6124108,139.7089881,
東京都,品川区,32-4,中延 1-11-15,中延小学校／体育館側フェンス,35.6124108,139.7089881,
東京都,品川区,32-5,西中延 1-4-21,中原街道(NTT荏原ビル前)／歩道植込み,35.6138343,139.7081308,
東京都,品川区,32-6,西中延 1-7-23,荏原郵便局／通用門鉄柵,35.6129564,139.707449,
東京都,品川区,32-7,東中延 1-2,補助26号線(センチュリーハイツ品川戸越前)／歩道植込み,35.6119977,139.7136361,
東京都,品川区,32-8,東中延 1-8-9,東中はなみずき公園／公園内植込み,35.61105149999999,139.7127983,
東京都,品川区,33-1,中延 3-2-3,荏原中延駅先昭和通り交差路／南側植込み,35.60915749999999,139.7111621,
東京都,品川区,33-2,中延 3-3,東急池上線上／植込み,35.6086258,139.7104643,
東京都,品川区,33-3,西中延 2-1,中原街道／歩道植込み,35.610047,139.70584,
東京都,品川区,33-4,西中延 2-14,中原街道(昭和大学病院附属東病院前)／歩道植込み,35.609327,139.705692,
東京都,品川区,33-5,西中延 2-17-5,延山小学校／正門右側フェンス,35.6088967,139.7084794,
東京都,品川区,33-6,西中延 2-17-5,延山小学校／体育館裏植込み,35.6088967,139.7084794,
東京都,品川区,33-7,西中延 3-2,延山くすのき公園西側向かい／植込み,35.6076762,139.7074721,
東京都,品川区,33-8,西中延 3-10-11,西中お日さま公園／植込み,35.607044,139.7060758,
東京都,品川区,34-1,中延 4-9-8,宮野駐車場横／フェンス,35.6049596,139.7119978,
東京都,品川区,34-2,中延 4-16,法蓮寺仲通り墓地／フェンス,35.6045098,139.7095067,
東京都,品川区,34-3,中延 5-14-5,荏原町公園／公園内植込み,35.6019283,139.7089291,
東京都,品川区,34-4,中延 5-7,立会川緑道／植込み,35.6032031,139.7075918,
東京都,品川区,34-5,中延 5-12-11,中延みちしるべ防災広場／広場内植込み,35.60118629999999,139.708338,
東京都,品川区,34-6,中延 6-2-18,源氏前小学校／東側植込み,35.6036335,139.7116263,
東京都,品川区,34-7,中延 6-4-15,源氏前公園／植込み,35.6021317,139.7127092,
東京都,品川区,34-8,中延 6-8,立会川緑道（中延特別養護老人ホーム前）／植込み,35.6018754,139.7114816,
東京都,品川区,35-1,戸越 1-4-11,戸越ひだまり広場／植込み,35.6170709,139.7194075,
東京都,品川区,35-2,戸越 1-7-17,戸越台公園／植込み,35.6161517,139.7175863,
東京都,品川区,35-3,戸越 1-9-6,戸越一丁目防災活動広場／フェンス,35.6166061,139.718504,
東京都,品川区,35-4,戸越 1-15-23,戸越台中学校／東側植込み,35.6157739,139.7172071,
東京都,品川区,35-5,戸越 1-15-23,戸越台中学校／正面入口植込み,35.6157739,139.7172071,
東京都,品川区,35-6,戸越 1-29-21,わかば公園／植込み,35.6155918,139.7216215,
東京都,品川区,35-7,戸越 2-1-8,戸越二丁目広場／広場内,35.6144427,139.7185435,
東京都,品川区,35-8,戸越 3-9-20,戸越児童遊園／フェンス,35.6119751,139.7157708,
東京都,品川区,36-1,東中延 2-5-10,東中延保育園／塀,35.607835,139.7138741,
東京都,品川区,36-2,戸越 5-2-1,補助26号線(カスタリア戸越前)／歩道植込み,35.6107196,139.7160832,
東京都,品川区,36-3,戸越 5-10-7,伊藤駐車場／フェンス,35.6091438,139.7184418,
東京都,品川区,36-4,戸越 5-12-10,戸越五丁目防災活動広場／植込み,35.6098338,139.7168281,
東京都,品川区,36-5,戸越 6-8-12,戸越南公園／鉄柵,35.6069619,139.717346,
東京都,品川区,36-6,戸越 6-14-1,大原公園／鉄柵,35.6071647,139.7143344,
東京都,品川区,36-7,戸越 6-17-3,大原小学校／正門側フェンス,35.6067304,139.7165389,
東京都,品川区,36-8,戸越 6-17-3,大原小学校／東側植込み,35.6067304,139.7165389,
東京都,品川区,37-1,戸越4-5-10,宮前小学校／北門側フェンス,35.6119321,139.7184498,
東京都,品川区,37-2,戸越4-5-10,宮前小学校／南門側フェンス,35.6119321,139.7184498,
東京都,品川区,37-3,豊町1-16-23,旧三井文庫第二書庫前／コンクリート塀,35.6122807,139.7205223,
東京都,品川区,37-4,豊町1-16-23,文庫の森公園／東側植込み,35.6122807,139.7205223,
東京都,品川区,37-5,豊町2-1-7,大崎高校／植込み,35.6094313,139.7207595,
東京都,品川区,37-6,豊町2-1-11,戸越小学校／体育館側鉄柵,35.610399,139.7214568,
東京都,品川区,37-7,豊町2-1-30,戸越公園／東側フェンス,35.6106389,139.7229383,
東京都,品川区,37-8,豊町2-15-20,品川学藝高等学校／鉄柵,35.6103313,139.725627,
東京都,品川区,38-1,豊町3-5-31,旧荏原第四中跡地／生け垣,35.6090229,139.7209533,
東京都,品川区,38-2,豊町3-10-22,伊藤駐車場／フェンス,35.6080889,139.7232127,
東京都,品川区,38-3,豊町4-1-12,豊町児童遊園／フェンス,35.6070981,139.7192037,
東京都,品川区,38-4,豊町5-14-7,豊町5-14開放広場／フェンス,35.6047422,139.7208195,
東京都,品川区,38-5,豊町4-24-15,杜松ホーム／北側植込み,35.605989,139.722614,
東京都,品川区,38-6,豊町3-5-31,旧荏原第四中跡地／線路側フェンス,35.6090229,139.7209533,
東京都,品川区,38-7,豊町5-2-7,東電パワーグリッド旧荏原変電所社宅／フェンス,35.60655089999999,139.7188115,
東京都,品川区,38-8,豊町4-17-1,豊四中央防災広場／植込み,35.6066443,139.7206863,
東京都,品川区,39-1,豊町6-11,ゆたか防災広場／植込み,35.6057178,139.717944,
東京都,品川区,39-2,豊町6-17-1,平澤宅／万年塀,35.6052245,139.7161047,
東京都,品川区,39-3,二葉4-3-15,上神明児童遊園／北側鉄柵,35.6024324,139.7146137,
東京都,品川区,39-4,二葉4-4-10,上神明小学校／北門脇鉄柵,35.6027275,139.7149283,
東京都,品川区,39-5,二葉4-4-10,上神明小学校／正門脇鉄柵,35.6027275,139.7149283,
東京都,品川区,39-6,二葉4-13,二葉公園／植込み,35.6038938,139.7180551,
東京都,品川区,39-7,豊町6-16-3,豊町公園／植込み,35.6045539,139.7163936,
東京都,品川区,39-8,二葉4-26-11,上神明児童遊園／南側生け垣,35.6022485,139.7143344,
東京都,品川区,40-1,西品川1-27,しながわ中央公園／北側植込み,35.6095936,139.7288448,
東京都,品川区,40-2,西品川1-27,しながわ中央公園／南側植込み,35.6095936,139.7288448,
東京都,品川区,40-3,広町2-1-36,品川区役所防災センター／植込み,35.6092011,139.730228,
東京都,品川区,40-4,広町2-1-36,品川区役所総合庁舎前／歩道植込み,35.6092011,139.730228,
東京都,品川区,40-5,二葉1-1,神明児童遊園／植込み,35.608124,139.7254474,
東京都,品川区,40-6,二葉1-3-40,豊葉の杜学園／南側植込み,35.6072719,139.7255807,
東京都,品川区,40-7,豊町2-4-4,大盛湯／ブロック塀,35.6103045,139.7234663,
東京都,品川区,40-8,豊町2-17,立会道路／植込み,35.6095904,139.7248089,
東京都,品川区,41-1,南大井 1-22-1,鈴ヶ森道路児童遊園／植込み,35.5945157,139.7366224,
東京都,品川区,41-2,南大井 1-12,みなみ児童遊園／立会川交番横植込み,35.5966227,139.7375803,
東京都,品川区,41-3,南大井 1-13-8,みなみ児童遊園／区営住宅入口脇植込み,35.5959542,139.7372599,
東京都,品川区,41-4,南大井 2-3-14,鈴ヶ森中学校／南側フェンス,35.5931752,139.7379318,
東京都,品川区,41-5,南大井 2-3-14,鈴ヶ森中学校／西側フェンス,35.5931752,139.7379318,
東京都,品川区,41-6,勝島 1-6-5,わかくさ公園／植込み,35.597716,139.7444545,
東京都,品川区,41-7,勝島 1-9-11,浜川荘／植込み,35.5978132,139.7429289,
東京都,品川区,41-8,勝島 3-2-2,しながわ区民公園／植込み(銅像モニュメント付近),35.588081,139.736908,緯度経度は怪しい
東京都,品川区,41-9,勝島 1-6-10,勝島町住宅2号棟前／歩道植込み,35.5980105,139.745051,
東京都,品川区,42-1,八潮 5-1-3,八潮北保育園／正門左側鉄柵,35.6046987,139.7530329,
東京都,品川区,42-2,八潮 5-2-1,明晴学園／南側植込み,35.6043313,139.7534786,
東京都,品川区,42-3,八潮 5-11,八潮学園／入口左側植込み,35.6009635,139.7530694,
東京都,品川区,42-4,八潮 5-11,八潮学園／南側植込み,35.6009635,139.7530694,
東京都,品川区,42-5,八潮 5-11-16,八潮公園／公園内地域センター寄り公園入口植込み,35.6009635,139.7530694,
東京都,品川区,42-6,八潮 5-11-16,八潮公園／公園内多目的広場東側植込み,35.6009635,139.7530694,
東京都,品川区,42-7,八潮 5-12-65,潮路北第一ハイツ65号棟／東側フェンス,35.6024413,139.7534621,
東京都,品川区,43-1,八潮 5-5,パトリア品川／植込み,35.5995245,139.7501948,
東京都,品川区,43-2,八潮 5-6-1,しおじ公園／32号棟東側植込み,35.5975741,139.7505566,
東京都,品川区,43-3,八潮 5-7,しおじ公園／ポンプ場側道路脇植込み,35.59597,139.751801,緯度経度は怪しい
東京都,品川区,43-4,八潮 5-8,しおじ公園／44号棟南側植込み,35.5970394,139.7540276,
東京都,品川区,43-5,八潮 5-9-11,こみゅにてぃぷらざ八潮／入口右側植込み,35.5980051,139.7524123,
東京都,品川区,43-6,八潮 5-9-11,こみゅにてぃぷらざ八潮／南側斜面植込み,35.5980051,139.7524123,
東京都,品川区,43-7,八潮 5-10-60,八潮中央保育園／入口左側鉄柵,35.5993859,139.7512211,
