prefecture,city,number,address,name,lat,long,note
東京都,国立市,1-1,富士見台2-47-1国立市役所南側,国立市役所南側,35.683915,139.441366,
東京都,国立市,1-2,富士見台3-7ＵＲ都市機構第３団地２号棟北側,ＵＲ都市機構第３団地２号棟北側,35.6851609,139.4373595,
東京都,国立市,1-3,富士見台2-46ＵＲ都市機構第２団地６号棟東側フェンス,ＵＲ都市機構第２団地６号棟東側フェンス,35.6855911,139.4418445,
東京都,国立市,1-4,中3-4-1都立第五商業高等学校東側石壁前,都立第五商業高等学校東側石壁前,35.6890346,139.4399152,
東京都,国立市,1-5,中3-1-10学園通り桐朋高等学校施設課北側,学園通り桐朋高等学校施設課北側,35.6899324,139.4449524,
東京都,国立市,1-6,富士見台2-1東京都多摩障害者スポーツセンター東側,東京都多摩障害者スポーツセンター東側,35.6863541,139.4467803,
東京都,国立市,1-7,富士見台2-20谷保第二公園北側,谷保第二公園北側,35.6828865,139.4447625,
東京都,国立市,1-8,谷保1556-1東京都水道局谷保一号水源西側フェンス,東京都水道局谷保一号水源西側フェンス,35.6796459,139.4418018,
東京都,国立市,2-1,中1-15-1くにたち公民館北側,くにたち公民館北側,35.6968943,139.4434628,
東京都,国立市,2-2,中1-16国立駅南第２自転車駐車場北側叶ビル前,国立駅南第２自転車駐車場北側叶ビル前,35.6974079,139.4456617,
東京都,国立市,2-3,中2-1一橋大学東側南角,一橋大学東側南角,35.6944035,139.4454577,
東京都,国立市,2-4,中2-16一橋大学グラウンド東南角,一橋大学グラウンド東南角,35.692419,139.4435268,
東京都,国立市,2-5,中2-16一橋大学グラウンド西側南角,一橋大学グラウンド西側南角,35.692419,139.4435268,
東京都,国立市,2-6,中2-1一橋大学西側北寄り,一橋大学西側北寄り,35.6944035,139.4454577,
東京都,国立市,2-7,中2-3-22中里歯科西側駐車場フェンス,中里歯科西側駐車場フェンス,35.6954657,139.4389292,
東京都,国立市,2-8,中1-3-1市立第八小学校北側信号寄り,市立第八小学校北側信号寄り,35.6982454,139.4368255,
東京都,国立市,3-1,谷保6026市立第一小学校東側,市立第一小学校東側,35.6807341,139.4368267,
東京都,国立市,3-2,谷保6017本町学童南側フェンス,本町学童南側フェンス,35.6799285,139.4374263,
東京都,国立市,3-3,矢川3-16-1社会福祉法人滝乃川学園若葉寮西側,社会福祉法人滝乃川学園若葉寮西側,35.6803405,139.4293937,
東京都,国立市,3-4,矢川3-22-1石田街道堀江駐車場東側フェンス,石田街道堀江駐車場東側フェンス,35.681683,139.431366,緯度経度は怪しい
東京都,国立市,3-5,谷保6064-1田中賢治宅北側フェンス,田中賢治宅北側フェンス,35.6817788,139.4338325,
東京都,国立市,3-6,谷保6923佐伯ツル宅駐車場北側フェンス際,佐伯ツル宅駐車場北側フェンス際,35.6840719,139.4326232,
東京都,国立市,3-7,谷保7038-1ヤマト運輸（株）国立支店フェンス西側,ヤマト運輸（株）国立支店フェンス西側,35.6836,139.4358,
東京都,国立市,4-1,北1-5国立駅北口三菱ＵＦＪ銀行国立支店西側歩道,国立駅北口三菱ＵＦＪ銀行国立支店西側歩道,35.699697,139.447296,
東京都,国立市,4-2,東1-14-7ＮＴＴ東日本コミュニティスペース駐車場前,ＮＴＴ東日本コミュニティスペース駐車場前,35.69789650000001,139.4499283,
東京都,国立市,4-3,東3-3-11都営国立東３丁目第２アパート１号棟西側,都営国立東３丁目第２アパート１号棟西側,35.695127,139.4528175,
東京都,国立市,4-4,東3-10一橋大学ラグビーグラウンド西側南角,一橋大学ラグビーグラウンド西側南角,35.69337,139.4535619,
東京都,国立市,4-5,東2-4一橋大学西側南角,一橋大学西側南角,35.694357,139.4474345,
東京都,国立市,4-6,東1-5国立駅南口三井住友銀行前緑地,国立駅南口三井住友銀行前緑地,35.698589,139.447037,緯度経度は怪しい
東京都,国立市,4-7,北2-37-6他中央線高架下自転車駐車場北側,中央線高架下自転車駐車場北側,35.700089,139.438354,緯度経度は怪しい
東京都,国立市,4-8,北2-6-35北大通りちびっこ広場４９号フェンス南向き,北大通りちびっこ広場４９号フェンス南向き,35.7006668,139.4403159,
東京都,国立市,5-1,北3－7くにたち北市民プラザ入口電話ボックス右側,くにたち北市民プラザ入口電話ボックス右側,35.699295,139.43045,緯度経度は怪しい
東京都,国立市,5-2,北3－11－37北第一公園西側北大通り側南向き,北第一公園西側北大通り側南向き,35.6999006,139.4313526,
東京都,国立市,5-3,北3－35ＵＲ都市機構いちょう並木国立1号棟前,ＵＲ都市機構いちょう並木国立1号棟前,35.7017037,139.4281287,
東京都,国立市,5-4,北3－22都営国立北3丁目アパート第二集会所北側,都営国立北3丁目アパート第二集会所北側,35.701603,139.430725,緯度経度は怪しい
東京都,国立市,5-5,北3－22都営国立北3丁目アパート14号棟受水槽前,都営国立北3丁目アパート14号棟受水槽前,35.7014125,139.4307154,
東京都,国立市,5-6,北3－2－4都営国立北3丁目第2アパート4号棟東南角,都営国立北3丁目第2アパート4号棟東南角,35.700085,139.432373,緯度経度は怪しい
東京都,国立市,5-7,北2－29市立第四小学校体育館南側フェンス,市立第四小学校体育館南側フェンス,35.700816,139.436047,
東京都,国立市,6-1,西1－5都営国立西1丁目アパート6号棟東側,都営国立西1丁目アパート6号棟東側,35.6975114,139.4310132,
東京都,国立市,6-2,西1－5都営国立西1丁目アパート3号棟前,都営国立西1丁目アパート3号棟前,35.6975114,139.4310132,
東京都,国立市,6-3,西2－9－22国立音高テニスコート北側フェンス,国立音高テニスコート北側フェンス,35.6938356,139.4368165,
東京都,国立市,6-4,西2－12国立音高東側バス停際フェンス,国立音高東側バス停際フェンス,35.694214,139.436325,緯度経度は怪しい
東京都,国立市,6-5,西2－12国立音高北側西角フェンス,国立音高北側西角フェンス,35.694214,139.436325,緯度経度は怪しい
東京都,国立市,6-6,西2－18中央郵政研修センター東側正門バス停際フェンス,中央郵政研修センター東側正門バス停際フェンス,35.69137500000001,139.4319853,
東京都,国立市,6-7,西2－18中央郵政研修センター北側西寄り郵便局付近,中央郵政研修センター北側西寄り郵便局付近,35.69137500000001,139.4319853,
東京都,国立市,6-8,西2－13市立第二小学校西側フェンス（小さい門の南側）,市立第二小学校西側フェンス（小さい門の南側）,35.6934922,139.4351628,
東京都,国立市,7-1,東4－24－1市立第三小学校東側フェンス,市立第三小学校東側フェンス,35.687912,139.451401,緯度経度は怪しい
東京都,国立市,7-2,東4－30－4都立国立高校正門前緑地,都立国立高校正門前緑地,35.6882252,139.4485322,
東京都,国立市,7-3,東4－30－9桐朋学園東交差点東側緑地東歩道向き,桐朋学園東交差点東側緑地東歩道向き,35.688683,139.450424,緯度経度は怪しい
東京都,国立市,7-4,東2－26都営国立東2丁目アパート1号棟南側バス停付近,都営国立東2丁目アパート1号棟南側バス停付近,35.6908868,139.4496901,
東京都,国立市,7-5,東2－26都営国立東2丁目アパート2号棟東側フェンス,都営国立東2丁目アパート2号棟東側フェンス,35.6908868,139.4496901,
東京都,国立市,7-6,東3－17都営国立東3丁目アパート1号棟北側,都営国立東3丁目アパート1号棟北側,35.6913269,139.4533891,
東京都,国立市,7-7,東3－18－32東福祉館東側,東福祉館東側,35.6914741,139.4548984,
東京都,国立市,7-8,東4－24－1市立第一中学校体育館北側,市立第一中学校体育館北側,35.687912,139.451401,緯度経度は怪しい
東京都,国立市,8-1,谷保1348－1市立第三中学校西側フェンス,市立第三中学校西側フェンス,35.6772007,139.4400474,
東京都,国立市,8-2,谷保1348－1市立第三中学校東門際,市立第三中学校東門際,35.6772007,139.4400474,
東京都,国立市,8-3,谷保7－28－3谷保東遊園北側,谷保東遊園北側,35.6722411,139.4506788,
東京都,国立市,8-4,泉1－7泉中央遊園北東側,泉中央遊園北東側,35.67556320000001,139.4349254,
東京都,国立市,8-5,泉2－3－2泉第一遊園西側,泉第一遊園西側,35.6739427,139.4304558,
東京都,国立市,8-6,泉3－29－10わかばの家北側緑地帯（フレスポ店舗出口正面）,わかばの家北側緑地帯（フレスポ店舗出口正面）,35.67637,139.4278675,
東京都,国立市,8-7,泉3－29－11フレスポ国立南北側入口緑地帯,フレスポ国立南北側入口緑地帯,35.6770622,139.4267449,
東京都,国立市,9-1,富士見台1-7ＵＲ都市機構第1団地2号棟前たまご広場東側,ＵＲ都市機構第1団地2号棟前たまご広場東側,35.6840437,139.4479601,
東京都,国立市,9-2,富士見台1-7ＵＲ都市機構第1団地11号棟南側フェンス,ＵＲ都市機構第1団地11号棟南側フェンス,35.6838622,139.4474233,
東京都,国立市,9-3,富士見台1-7ＵＲ都市機構第1団地3号棟西側フェンス,ＵＲ都市機構第1団地3号棟西側フェンス,35.6838622,139.4474233,
東京都,国立市,9-4,富士見台1-6-4ＵＲ都市機構第1団地6号棟北側フェンス街灯下,ＵＲ都市機構第1団地6号棟北側フェンス街灯下,35.685956,139.448078,
東京都,国立市,9-5,富士見台1-28-19ＵＲ都市機構第1団地36号棟北側緑地,ＵＲ都市機構第1団地36号棟北側緑地,35.6860206,139.4513085,
東京都,国立市,9-6,富士見台1-7ＵＲ都市機構第1団地16号棟北側駐車場フェンス,ＵＲ都市機構第1団地16号棟北側駐車場フェンス,35.6838622,139.4474233,
東京都,国立市,9-7,富士見台1-27ＵＲ都市機構第1団地22号棟南側フェンス,ＵＲ都市機構第1団地22号棟南側フェンス,35.683754,139.45018,緯度経度は怪しい
東京都,国立市,10-1,富士見台3-30市立第二中学校西側フェンス,市立第二中学校西側フェンス,35.687786,139.434464,緯度経度は怪しい
東京都,国立市,10-2,富士見台4-4矢川上公園テニスコート北側,矢川上公園テニスコート北側,35.6878444,139.4323564,
東京都,国立市,10-3,西2-29澤登公勇宅東側塀前,澤登公勇宅東側塀前,35.6912816,139.4370292,
東京都,国立市,10-4,西3-8-32都営国立西3丁目アパート住宅消防水利北側,都営国立西3丁目アパート住宅消防水利北側,35.6885755,139.4375574,
東京都,国立市,10-5,富士見台3-9-1富士見公園北東側,富士見公園北東側,35.6866918,139.4385178,
東京都,国立市,10-6,富士見台3-30市立第二中学校南側フェンス,市立第二中学校南側フェンス,35.687786,139.434464,緯度経度は怪しい
東京都,国立市,10-7,富士見台3-20総合教育センター東側フェンス,総合教育センター東側フェンス,35.685516,139.434631,緯度経度は怪しい
東京都,国立市,10-8,富士見台4-8-1矢川駅北第1自転車駐車場,矢川駅北第1自転車駐車場,35.6860508,139.4304032,
東京都,国立市,11-1,谷保6600市立第六小学校東門際,市立第六小学校東門際,35.685079,139.427595,
東京都,国立市,11-2,富士見台4-17-1都営国立富士見台4丁目アパート1号棟北東側緑地帯,都営国立富士見台4丁目アパート1号棟北東側緑地帯,35.6872803,139.4285244,
東京都,国立市,11-3,矢川3-10-1四軒在家公園入口右側西向き,四軒在家公園入口右側西向き,35.681263,139.4269112,
東京都,国立市,11-4,青柳2-8-1消防団貯水槽北側フェンス,消防団貯水槽北側フェンス,35.6824781,139.423005,
東京都,国立市,11-5,青柳3-22-25都営青柳南アパート3号棟西側,都営青柳南アパート3号棟西側,35.685307,139.420731,緯度経度は怪しい
東京都,国立市,11-6,青柳1-37緑川東公園南向き,緑川東公園南向き,35.6857213,139.4225372,
東京都,国立市,11-7,青柳1-22-6青柳北遊園東側フェンス,青柳北遊園東側フェンス,35.684163,139.4256244,
東京都,国立市,11-8,谷保6600市立第六小学校北側西寄り,市立第六小学校北側西寄り,35.685079,139.427595,
東京都,国立市,12-1,富士見台1-47-7市立第七小学校西側フェンス,市立第七小学校西側フェンス,35.6810098,139.4507333,
東京都,国立市,12-2,谷保4130谷保下組公会堂前北側フェンス,谷保下組公会堂前北側フェンス,35.6762446,139.4497085,
東京都,国立市,12-3,谷保5022谷保駅南口緑地北側,谷保駅南口緑地北側,35.677238,139.448334,緯度経度は怪しい
東京都,国立市,12-4,谷保5012谷保駅上り線ホーム北側フェンス（セブンイレブン前）,谷保駅上り線ホーム北側フェンス（セブンイレブン前）,35.677238,139.448334,緯度経度は怪しい
東京都,国立市,12-5,富士見台1-12-9東京みどり農協富士見台支店駐車場フェンス,東京みどり農協富士見台支店駐車場フェンス,35.6830597,139.4496959,
東京都,国立市,12-6,富士見台1-9谷保第一公園北側,谷保第一公園北側,35.6828079,139.4489496,
東京都,国立市,12-7,富士見台1-9谷保第一公園南側,谷保第一公園南側,35.6828079,139.4489496,
