prefecture,city,number,address,name,lat,long
東京都,墨田区,01-01,墨田区横網 １- ８- １,両国中学校西側遊歩道,35.6978182,139.7959199
東京都,墨田区,01-02,墨田区横網 １-１２- １,旧安田庭園（バス停前）,35.698552,139.7945165
東京都,墨田区,01-03,墨田区横網 １-１２- １,旧安田庭園（横網１-１０向）,35.698552,139.7945165
東京都,墨田区,01-04,墨田区横網 ２- ３-２５,横網町公園（NTT向）,35.6991289,139.796014
東京都,墨田区,01-05,墨田区横網 ２- ３-２５,横網町公園（清澄通り沿い）,35.6991289,139.796014
東京都,墨田区,01-06,墨田区横網 ２- ３-２５,横網町公園（蔵前橋通り沿い）,35.6991289,139.796014
東京都,墨田区,01-07,墨田区亀沢 １- ７- ７,東京電力パワーグリッド㈱本所変電所,35.6966913,139.7977528
東京都,墨田区,02-01,墨田区両国 １-１１- ２,両国橋児童遊園,35.6938947,139.7897699
東京都,墨田区,02-02,墨田区両国 １- １先,一之橋際歩道,35.6919629,139.7908509
東京都,墨田区,02-03,墨田区両国 ４-２５- ３,両国公園（北側）,35.6935409,139.7960447
東京都,墨田区,02-04,墨田区両国 ４-２５- ３,両国公園（南側）,35.6935409,139.7960447
東京都,墨田区,02-05,墨田区両国 ４-２６- ６,両国小学校（両国４-２７向）,35.6937743,139.7952098
東京都,墨田区,02-06,墨田区両国 ４-２６- ６,両国小学校（公園側）,35.6937743,139.7952098
東京都,墨田区,02-07,墨田区両国 ４-３６-１６,両国第一児童遊園,35.6951945,139.7955942
東京都,墨田区,02-08,墨田区千歳 ２- ２-１１,都水道局墨田営業所用地（北側）,35.6905142,139.7957363
東京都,墨田区,02-09,墨田区千歳 ２- ２-１１,都水道局墨田営業所用地（南側）,35.6905142,139.7957363
東京都,墨田区,03-01,墨田区緑 １-１４-２０,（株）福島（福島質店）,35.6941807,139.799241
東京都,墨田区,03-02,墨田区緑 ２- １先,西竪川橋際橋台敷,35.6926806,139.8010666
東京都,墨田区,03-03,墨田区緑 ２-１２-１２,緑小学校（緑２-１３向）,35.694038,139.8009593
東京都,墨田区,03-04,墨田区緑 ２-１２-１２,緑小学校（緑２-８向）,35.694038,139.8009593
東京都,墨田区,03-05,墨田区緑 ２-２３- ３,緑町公園,35.6957766,139.8013589
東京都,墨田区,03-06,墨田区緑 ３- ７- ３,みどりコミュニティセンター,35.6936311,139.8032901
東京都,墨田区,03-07,墨田区緑 ３- ８-１２,玉の肌石鹸㈱正門横,35.6939603,139.8039155
東京都,墨田区,03-08,墨田区緑 ３- ８-１２,玉の肌石鹸㈱北側,35.6939603,139.8039155
東京都,墨田区,03-09,墨田区緑 ４-３５- ９,ふれあいセンター,35.6957915,139.80739
東京都,墨田区,04-01,墨田区立川 １- ５- ２,立川保育園,35.6903712,139.7994232
東京都,墨田区,04-02,墨田区立川 １-１８-１５先,二之橋際橋台敷（清澄通り）,35.6919506,139.7982375
東京都,墨田区,04-03,墨田区立川 ２-１４- ９,立川二丁目緑地広場,35.6920679,139.8018626
東京都,墨田区,04-04,墨田区立川 ４-１２-２１,菊川公園（南側）,35.6915472,139.8075527
東京都,墨田区,04-05,墨田区立川 ４-１２-２１,菊川公園（立川４-１３向）,35.6915472,139.8075527
東京都,墨田区,04-06,墨田区立川 ４-１９-１４,三之橋際橋台敷（三つ目通り）,35.6923055,139.8058843
東京都,墨田区,04-07,墨田区菊川 １-１８-１０,中和小学校,35.6899714,139.8024628
東京都,墨田区,04-08,墨田区菊川 １-１８-２５,中和公園,35.6899145,139.8027575
東京都,墨田区,04-09,墨田区菊川 ３-１３,菊川橋児童遊園,35.6890296,139.8091512
東京都,墨田区,05-01,墨田区江東橋１- ７-１４,都立両国高校通用門左（京葉道路側）,35.6945319,139.8096308
東京都,墨田区,05-02,墨田区江東橋１- ７-１４,都立両国高校正門右（江東橋１-５向）,35.6945319,139.8096308
東京都,墨田区,05-03,墨田区江東橋２- ４-１１,江東橋公園（江東橋２－８向）,35.6938248,139.811629
東京都,墨田区,05-04,墨田区江東橋２-１９,ハローワーク脇歩道（植込地）,35.6962404,139.8113892
東京都,墨田区,05-05,墨田区江東橋４- １- ３,竪川第一公園（江東橋４－８向）,35.6933735,139.8172164
東京都,墨田区,05-06,墨田区江東橋４-１７- １,錦糸堀公園（江東橋４-１６向）,35.6947397,139.816425
東京都,墨田区,05-07,墨田区江東橋４-１７- １,錦糸堀公園（江東橋４-１8向）,35.6947397,139.816425
東京都,墨田区,05-08,墨田区江東橋４-２３-１５,都立墨東病院,35.6942111,139.8183906
東京都,墨田区,06-01,墨田区錦糸 １- ９-１２,錦糸小学校（正門右側）,35.6984981,139.8113947
東京都,墨田区,06-02,墨田区錦糸 １- ９-１２,錦糸小学校（西側）,35.6984981,139.8113947
東京都,墨田区,06-03,墨田区錦糸 ３- ２,錦糸町駅北口アルカイースト前植込地（北斎通り）,35.6975201,139.8145865
東京都,墨田区,06-04,墨田区錦糸 ４-１５- １,錦糸公園北側植込地（オリナス向）,35.6995329,139.8172131
東京都,墨田区,06-05,墨田区錦糸 ４-１５- １,錦糸公園入口左植込地（四ツ目通り側）,35.6995329,139.8172131
東京都,墨田区,06-06,墨田区錦糸 ４-１５- １,錦糸公園南側植込地,35.6995329,139.8172131
東京都,墨田区,06-07,墨田区太平 １- １- １,大横川親水公園（法恩寺橋際）,35.7007191,139.8086966
東京都,墨田区,06-08,墨田区太平 １-１３-１０,太平保育園,35.7001419,139.81047
東京都,墨田区,06-09,墨田区太平 １-２７-１３,横川橋保育園,35.7021626,139.810802
東京都,墨田区,07-01,墨田区亀沢 ３-２４- ３,日進公園（亀沢３-２３向）,35.698591,139.8043558
東京都,墨田区,07-02,墨田区亀沢 ４- ５,大横川親水公園（長崎橋跡際）,35.6968107,139.8085118
東京都,墨田区,07-03,墨田区亀沢 ４-１１-１５,竪川中学校（三ツ目通り側）,35.6968588,139.8056745
東京都,墨田区,07-04,墨田区亀沢 ４-１１-１５,竪川中学校（正門側）,35.6968588,139.8056745
東京都,墨田区,07-05,墨田区亀沢 ４-１８- ８,大横川親水公園（旧ささのは児童遊園）,35.6985212,139.8081865
東京都,墨田区,07-06,墨田区亀沢 ４-１８先,清平橋際橋台敷,35.6984291,139.8084319
東京都,墨田区,07-07,墨田区石原 ４-３３-１４,錦糸中学校（石原４-２６向）,35.7014222,139.8069733
東京都,墨田区,07-08,墨田区石原 ４-３３-１４,錦糸中学校（石原４-３０向）,35.7014222,139.8069733
東京都,墨田区,08-01,墨田区亀沢 ２- ６,緑町テニスコート東側,35.6963462,139.8010792
東京都,墨田区,08-02,墨田区亀沢 ２- ６,緑町テニスコート南側,35.6963462,139.8010792
東京都,墨田区,08-03,墨田区亀沢 ２- ７,緑町公園前植込地（北斎通り）,35.696768,139.8005198
東京都,墨田区,08-04,墨田区亀沢 ２-１３- ７,亀沢第一児童遊園,35.6978207,139.8018834
東京都,墨田区,08-05,墨田区亀沢 ２-２０-１２,エムエフ両国マンション（亀沢２-１４向）,35.6982636,139.8011192
東京都,墨田区,08-06,墨田区石原 ２- １- ５,二葉小学校（石原１-６向）,35.6997507,139.8002751
東京都,墨田区,08-07,墨田区石原 ２- １- ５,二葉小学校（亀沢２-１９向）,35.6997507,139.8002751
東京都,墨田区,08-08,墨田区石原 ２- １- ５,二葉小学校（石原２-２向）,35.6997507,139.8002751
東京都,墨田区,09-01,墨田区本所 １-１３-１７,天理教東本大教会（本所１-１２向）,35.7031985,139.7993872
東京都,墨田区,09-02,墨田区本所 １-１３-１７,天理教東本大教会（正門右）,35.7031985,139.7993872
東京都,墨田区,09-03,墨田区本所 １-３２- ５,凸版印刷㈱本所ＧＣビル,35.7044886,139.797573
東京都,墨田区,09-04,墨田区本所 ２- １-１６,外手小学校東側,35.702456,139.8004798
東京都,墨田区,09-05,墨田区本所 ２- １-１６,外手小学校南側,35.702456,139.8004798
東京都,墨田区,09-06,墨田区本所 ２- ２-１９,若宮公園（石原２-２６向）,35.7022765,139.8011292
東京都,墨田区,09-07,墨田区本所 ２- ２-１９,若宮公園（本所２-５向）,35.7022765,139.8011292
東京都,墨田区,09-08,墨田区本所 ３-１５- ５,TOKYOシェアオフィス墨田,35.7035812,139.8026509
東京都,墨田区,10-01,墨田区東駒形１- ６- ４,本所保健センター,35.7054417,139.7980825
東京都,墨田区,10-02,墨田区東駒形３- １-１０,本所中学校（東駒形３-１０向）,35.7070502,139.8029273
東京都,墨田区,10-03,墨田区東駒形３- １-１０,本所中学校（正門脇）,35.7070502,139.8029273
東京都,墨田区,10-04,墨田区吾妻橋１-１２- １,吾妻橋公園,35.7091745,139.7989901
東京都,墨田区,10-05,墨田区吾妻橋１-１２-１５,吾妻橋公園（安全支援センター付近）,35.708147,139.7981255
東京都,墨田区,10-06,墨田区吾妻橋１-２３,隅田川緑道公園（３号）,35.7111403,139.8006998
東京都,墨田区,10-07,墨田区吾妻橋１-２３,隅田川緑道公園（３号）入口,35.7111403,139.8006998
東京都,墨田区,10-08,墨田区吾妻橋１-２３先,墨田区役所角前植込地,35.7111403,139.8006998
東京都,墨田区,11-01,墨田区本所 ４- １- ４,本四三ツ目児童遊園,35.7028904,139.8049802
東京都,墨田区,11-02,墨田区本所 ４- ８- 6,大横川親水公園（旧もみじばし児童遊園）,35.7032122,139.8078597
東京都,墨田区,11-03,墨田区東駒形４- ５- ４,中ノ郷信用組合,35.7056506,139.8055618
東京都,墨田区,11-04,墨田区東駒形４-１５,大横川親水公園（業平橋際）,35.7079069,139.8075527
東京都,墨田区,11-05,墨田区東駒形４-１８- ４,横川小学校（東駒形４-１９向）,35.706758,139.806184
東京都,墨田区,11-06,墨田区東駒形４-１８- ４,横川小学校（東駒形４-１６向）,35.706758,139.806184
東京都,墨田区,11-07,墨田区東駒形４-１８-２１,横川公園（東駒形４-１０向）,35.7071079,139.8062739
東京都,墨田区,11-08,墨田区吾妻橋３-１３- ６,都下水道局業平橋ポンプ所（吾妻橋３-１０向）※建物,35.7100954,139.8053836
東京都,墨田区,12-01,墨田区横川 １- １- １,大横川親水公園（旧横川橋児童遊園植込地）,35.7038208,139.8085083
東京都,墨田区,12-02,墨田区横川 １-１７- ７,日本たばこ産業㈱生産技術センター（西側）,35.7056071,139.8099597
東京都,墨田区,12-03,墨田区横川 １-１７- ７,日本たばこ産業㈱生産技術センター（通用門右側）,35.7056071,139.8099597
東京都,墨田区,12-04,墨田区業平 １- ６,大横川親水公園（平川橋跡際）,35.7072224,139.808352
東京都,墨田区,12-05,墨田区業平 ２- ３- ２,業平公園（東側）,35.7063829,139.8123484
東京都,墨田区,12-06,墨田区業平 ２- ３- ２,業平公園（業平小学校側）,35.7063829,139.8123484
東京都,墨田区,12-07,墨田区業平 ２- ４- ８,業平小学校（業平２－１向）,35.7066995,139.8117
東京都,墨田区,12-08,墨田区押上 １- ８先,東武鉄道線路脇金網（押上駅前交番向）,35.7112086,139.8141868
東京都,墨田区,12-09,墨田区押上 １-１１- ７,押上通り商店街入口植込地,35.7100597,139.8141592
東京都,墨田区,13-01,墨田区太平 ４-２１- ２,日本郵便株式会社本所郵便局,35.7026383,139.8177326
東京都,墨田区,13-02,墨田区横川 ５- ２- ８,横川東公園,35.7030717,139.8177614
東京都,墨田区,13-03,墨田区横川 ５- ２-３０,柳島小学校（横川５-６向）,35.7042745,139.8176935
東京都,墨田区,13-04,墨田区横川 ５- ７- ４,すみだ保健子育て総合センター,35.7051487,139.8175628
東京都,墨田区,13-05,墨田区横川 ５- ９- １,横川さくら保育園前植込地,35.7051497,139.8175223
東京都,墨田区,13-06,墨田区横川 ５-１０-１３,柳島児童遊園,35.7049185,139.8163758
東京都,墨田区,13-07,墨田区業平 ５- １- １,くるみ児童遊園,35.706249,139.8161702
東京都,墨田区,13-08,墨田区業平 ５- ６- ２,なりひらホーム,35.7071095,139.8180555
東京都,墨田区,14-01,墨田区向島 ３-３６- ７,すみだ福祉保健センター,35.7133262,139.8107783
東京都,墨田区,14-02,墨田区向島 ３-３７-２５,都立本所高校（向島３-３９向）,35.714601,139.8112975
東京都,墨田区,14-03,墨田区向島 ３-３７-２５,都立本所高校（墨田中学校向）,35.714601,139.8112975
東京都,墨田区,14-04,墨田区向島 ４- ９-１３,秋葉神社,35.7169637,139.8128669
東京都,墨田区,14-05,墨田区向島 ４-２５-２２,墨田中学校（向島４-２６向）,35.71478,139.8117839
東京都,墨田区,14-06,墨田区押上 ２-１５- １,中之郷児童遊園,35.712557,139.8127511
東京都,墨田区,14-07,墨田区押上 ２-１６,ＥＳＴＡ ＧＡＲＤＥＮ前,35.7119638,139.8126681
東京都,墨田区,14-08,墨田区押上 ２-１８-１２,ファミリーマート東武鉄道本社店前,35.7123478,139.8136273
東京都,墨田区,15-01,墨田区向島 １- ３,隅田公園（向島１-６・７向）,35.7127771,139.8033953
東京都,墨田区,15-02,墨田区向島 １- ３,隅田公園（そよ風ひろば東側）,35.7127771,139.8033953
東京都,墨田区,15-03,墨田区向島 １-３３- ３,小梅児童遊園（向島１-３０向）,35.7104327,139.8081805
東京都,墨田区,15-04,墨田区向島 ２- １,隅田公園（墨堤通り側）,35.7148777,139.8057662
東京都,墨田区,15-05,墨田区向島 ２- １,隅田公園（向島２-２向）,35.7148777,139.8057662
東京都,墨田区,15-06,墨田区向島 ２- ４-１０,小梅小学校（体育館前）,35.714066,139.8062082
東京都,墨田区,15-07,墨田区向島 ２- ４-１０,小梅小学校（三囲神社向）,35.714066,139.8062082
東京都,墨田区,15-08,墨田区向島 ３-１２-１４,常泉寺,35.7128164,139.8069133
東京都,墨田区,16-01,墨田区向島 ５- ５,隅田公園（少年野球場前）,35.7183872,139.8093466
東京都,墨田区,16-02,墨田区向島 ５- ６-１３,隅田公園自動車駐車場（屋内プール体育館跡地前植込地）,35.7193463,139.8099405
東京都,墨田区,16-03,墨田区向島 ５-１６,隅田公園（少年野球場向）,35.7186879,139.8101103
東京都,墨田区,16-04,墨田区向島 ５-４０-１４,言問小学校（向島５-１４向）,35.7186613,139.8113855
東京都,墨田区,16-05,墨田区向島 ５-４０-１４,言問小学校（向島５-２０向）,35.7186613,139.8113855
東京都,墨田区,16-06,墨田区向島 ５-４０-１４,言問小学校（向島５-３５向）,35.7186613,139.8113855
東京都,墨田区,16-07,墨田区向島 ５-４０-１４,言問小学校（向島５-３９向）,35.7186613,139.8113855
東京都,墨田区,17-01,墨田区立花 １-１０- ２,立花一丁目こども広場,35.7062095,139.8266388
東京都,墨田区,17-02,墨田区立花 １-１８- ６,立花吾嬬の森小学校（立花２-２３向）,35.7062854,139.8298557
東京都,墨田区,17-03,墨田区立花 １-１８- ６,立花吾嬬の森小学校（立花１-１７向）,35.7062854,139.8298557
東京都,墨田区,17-04,墨田区立花 １-２３,東武鉄道東あずま駅脇金網,35.7065387,139.8319154
東京都,墨田区,17-05,墨田区立花 １-２７- ９,立花児童館,35.7055101,139.8288298
東京都,墨田区,17-06,墨田区立花 ２- ４- ３,日産東京販売㈱墨田店駐車場前,35.7095328,139.8283766
東京都,墨田区,17-07,墨田区立花 ２-３２-１２,東あずま公園,35.7078761,139.8303773
東京都,墨田区,18-01,墨田区立花 １-２４,公団立花一丁目団地内植込地（１号棟前）,35.7057371,139.8315348
東京都,墨田区,18-02,墨田区立花 １-２５-２７,立花幼稚園,35.7049953,139.8312949
東京都,墨田区,18-03,墨田区立花 １-２６,公団立花一丁目団地内植込地（２号棟脇）,35.7060865,139.8302555
東京都,墨田区,18-04,墨田区立花 １-２６,公団立花一丁目団地内植込地（２号棟向）,35.7060865,139.8302555
東京都,墨田区,18-05,墨田区立花 １-２６,公団立花一丁目団地内植込地（３号棟脇）,35.7060865,139.8302555
東京都,墨田区,18-06,墨田区立花 １-２８,公団立花一丁目団地内植込地（４号棟前）,35.7044437,139.8300956
東京都,墨田区,18-07,墨田区立花 １-２８,公団立花一丁目団地内植込地（東あずま保育園向）,35.7044437,139.8300956
東京都,墨田区,19-01,墨田区立花 ３-２４- ３,福寿公園,35.7079224,139.834494
東京都,墨田区,19-02,墨田区立花 ４-１３,東武鉄道線路脇植込地（丸八通り）,35.7090538,139.831215
東京都,墨田区,19-03,墨田区立花 ４-２２-１１,東吾嬬小学校（立花４-１４向）,35.7085514,139.8320448
東京都,墨田区,19-04,墨田区立花 ４-２２-１１,東吾嬬小学校（丸八通り沿い）,35.7085514,139.8320448
東京都,墨田区,19-05,墨田区立花 ４-２９- ７,都立橘高校（立花４-１７向）,35.7089171,139.8336537
東京都,墨田区,19-06,墨田区立花 ４-２９- ７,都立橘高校（立花６-２向）,35.7089171,139.8336537
東京都,墨田区,19-07,墨田区立花 ４-３０- １,都営立花四丁目アパート（立花４-３７向植込地）,35.7091632,139.8353228
東京都,墨田区,20-01,墨田区立花 ５-１２-１３,立花五丁目こども広場,35.7148256,139.8305753
東京都,墨田区,20-02,墨田区立花 ５-１９- ２,たちばな仲よし公園,35.7126884,139.8302555
東京都,墨田区,20-03,墨田区立花 ５-３８- ３,中川公園,35.712184,139.8318081
東京都,墨田区,20-04,墨田区立花 ５-４８- ２,吾嬬立花中学校（立花5-50向）,35.7127541,139.8318546
東京都,墨田区,20-05,墨田区立花 ５-４８- ２,吾嬬立花中学校（正門脇）,35.7127541,139.8318546
東京都,墨田区,20-06,墨田区立花 ６- ８- １,都営立花六丁目住宅（受水槽金網）,35.710985,139.8347981
東京都,墨田区,20-07,墨田区立花 ６- ８-４４,平井橋第二公園,35.7110837,139.8352129
東京都,墨田区,20-08,墨田区立花 ６-１４- ５,立花六丁目児童遊園,35.7104257,139.8377617
東京都,墨田区,21-01,墨田区東墨田１- ６- ２,新平井橋公園（平野石油㈱前）,35.7157203,139.8304354
東京都,墨田区,21-02,墨田区東墨田２- ７,都営東墨田二丁目アパート植込地（中居堀通り側）,35.719276,139.8303554
東京都,墨田区,21-03,墨田区東墨田２-１５-１３,旧木下川小学校跡地（東墨田２-１２向）,35.7218991,139.8332815
東京都,墨田区,21-04,墨田区東墨田２-１５-１３,旧木下川小学校跡地（東墨田２-１４向）,35.7218991,139.8332815
東京都,墨田区,21-05,墨田区東墨田２-１９-１３,八広油脂前植込地（ゆりのき橋通り）,35.7223597,139.8321399
東京都,墨田区,21-06,墨田区東墨田３- ４-１４,東墨田公園（東京佐川急便㈱跡地 ㈱丸萬商店前）,35.7197023,139.8355198
東京都,墨田区,21-07,墨田区東墨田３-１９- ６,東墨田テニスコート,35.7184163,139.837062
東京都,墨田区,22-01,墨田区押上 １-３２- ３先,三井のリパーク前植込地,35.7114009,139.816325
東京都,墨田区,22-02,墨田区押上 １-４７- ８,わんぱく天国（押上１-４８向）,35.7091287,139.8174152
東京都,墨田区,22-03,墨田区押上 １-４７- ８,わんぱく天国（押上１-４６向）,35.7091287,139.8174152
東京都,墨田区,22-04,墨田区押上 ２-４３,東武鉄道押上二丁目高架下,35.713427,139.8157855
東京都,墨田区,22-05,墨田区押上 ３-４６-１７,押上小学校（正門脇）,35.7119818,139.8191075
東京都,墨田区,22-06,墨田区押上 ３-４６-１７,押上小学校（押上３-１６向）,35.7119818,139.8191075
東京都,墨田区,22-07,墨田区押上 ３-４８- １,押上第一児童遊園,35.7115795,139.820222
東京都,墨田区,22-08,墨田区押上 ３-５７- ３,押上第二児童遊園,35.7116068,139.8213212
東京都,墨田区,23-01,墨田区文花 １-１９-１２,あずま百樹園植込地,35.7096898,139.8239494
東京都,墨田区,23-02,墨田区文花 １-２０- ７,文花子育てひろば,35.7105756,139.822356
東京都,墨田区,23-03,墨田区文花 １-２２- ７,文花中学校（体育館裏）,35.7096162,139.8225104
東京都,墨田区,23-04,墨田区文花 １-２２- ７,文花中学校（プール裏）,35.7096162,139.8225104
東京都,墨田区,23-05,墨田区文花 １-２９,都営文花一丁目団地（２号棟横）,35.7078604,139.820342
東京都,墨田区,23-06,墨田区文花 １-３０,都営文花一丁目団地（給水塔鉄柵）,35.7076877,139.8224205
東京都,墨田区,23-07,墨田区文花 １-３２-１１,文花宮前橋公園,35.7086768,139.8243991
東京都,墨田区,23-08,墨田区文花 ２- ７- ４,宮元児童遊園植込地,35.7094756,139.8266927
東京都,墨田区,24-01,墨田区京島 ２-２０-１７,京島南公園,35.7130072,139.8218958
東京都,墨田区,24-02,墨田区京島 ３-１７- ３先,セントラルコート曳舟前植込地（明治通り）,35.7162907,139.8239759
東京都,墨田区,24-03,墨田区京島 ３-４４-１４,原公園,35.7129594,139.8234348
東京都,墨田区,24-04,墨田区京島 ３-４５,京島三丁目ぐるぐる広場,35.7132466,139.8239394
東京都,墨田区,24-05,墨田区京島 ３-５５- ４,清水機械製作所前植込地（明治通り）,35.7146156,139.8257133
東京都,墨田区,24-06,墨田区京島 ３-６４- ９,第四吾嬬小学校,35.7131277,139.8248638
東京都,墨田区,24-07,墨田区文花 ３-１６- ８先,那須電機鉄工寮前植込地（明治通り）,35.7126992,139.8275294
東京都,墨田区,24-08,墨田区文花 ３-２２-１０,東武鉄道小村井駅脇,35.7103458,139.828216
東京都,墨田区,25-01,墨田区八広 １-２８-２１,都立日本橋高校,35.7200484,139.8243292
東京都,墨田区,25-02,墨田区八広 １-３８-１３,みわさと公園,35.7212602,139.8251386
東京都,墨田区,25-03,墨田区八広 ２-３６- ３,第三吾嬬小学校（八広２-２３向）,35.7172198,139.8281417
東京都,墨田区,25-04,墨田区八広 ２-３６- ３,第三吾嬬小学校（八広はなみずき通り向）,35.7172198,139.8281417
東京都,墨田区,25-05,墨田区八広 ２-４３-１６,舟原公園,35.7151332,139.8267826
東京都,墨田区,25-06,墨田区八広 ３-１３-１９,八広中央公園,35.7190955,139.8271473
東京都,墨田区,25-07,墨田区八広 ３-２１- ６,都営八広三丁目アパート（６号棟前）,35.7177861,139.8278329
東京都,墨田区,25-08,墨田区八広 ３-２４- ８,八広三丁目広場,35.7196784,139.8287723
東京都,墨田区,26-01,墨田区八広 ４- ４- ４,吾嬬第二中学校（八広４－１１向）,35.7220573,139.8272873
東京都,墨田区,26-02,墨田区八広 ４- ４- ４,吾嬬第二中学校（裏門左）,35.7220573,139.8272873
東京都,墨田区,26-03,墨田区八広 ４-１１- ６,あおぎり児童遊園,35.7224188,139.8271374
東京都,墨田区,26-04,墨田区八広 ４-１２先,八広四丁目植樹帯,35.722749,139.8266177
東京都,墨田区,26-05,墨田区八広 ４-３５-１７,八広地域プラザ,35.722963,139.8294849
東京都,墨田区,26-06,墨田区八広 ６-５３-１６,吾嬬西公園（公園内）,35.7242304,139.8302437
東京都,墨田区,26-07,墨田区八広 ６-５３-１６,吾嬬西公園前植込地,35.7242304,139.8302437
東京都,墨田区,26-08,墨田区八広 ６-５４,CASA AZZUL左前植込地（八広はなみずき通り),35.723524,139.8309751
東京都,墨田区,27-01,墨田区八広 ５- ７- ６,八広第一児童遊園,35.724033,139.8241793
東京都,墨田区,27-02,墨田区八広 ５-１０- ２,都立墨田特別支援学校（八広図書館前）,35.7252349,139.8251272
東京都,墨田区,27-03,墨田区八広 ５-１０-１４,八広公園（八広５－１１向）,35.7259399,139.8250337
東京都,墨田区,27-04,墨田区八広 ５-１０-１４,八広公園（曳舟川通り）,35.7259399,139.8250337
東京都,墨田区,27-05,墨田区八広 ５-１２-１５,八広小学校,35.7266365,139.8254231
東京都,墨田区,27-06,墨田区八広 ６-１３- １,八広六西児童遊園,35.7283812,139.8282767
東京都,墨田区,27-07,墨田区八広 ６-２４- ６,向島文化幼稚園,35.7271014,139.8276525
東京都,墨田区,27-08,墨田区八広 ６-３５- １,墨田区屋外体育施設管理事務所,35.7265104,139.8294025
東京都,墨田区,28-01,墨田区京島 １- １- １先,イーストコア曳舟前植込地（曳舟川通り）,35.7164622,139.8171844
東京都,墨田区,28-02,墨田区京島 １-２２- ３,京島西公園,35.7156716,139.8190629
東京都,墨田区,28-03,墨田区京島 １-２８- ２,曳舟小学校（幼稚園裏）,35.7165828,139.8210117
東京都,墨田区,28-04,墨田区京島 １-２８- ２,曳舟小学校（八広中央通り側）（四ツ目通り）,35.7165828,139.8210117
東京都,墨田区,28-05,墨田区京島 １-３９- １,曳舟西ビューハイツ,35.7184906,139.8197424
東京都,墨田区,28-06,墨田区京島 １-４０- １,曳舟さくら公園,35.7186217,139.820083
東京都,墨田区,28-07,墨田区京島 １-４４前,BLESS曳舟明治通り側植込地（京島１－４４－３前）,35.7187354,139.8209815
東京都,墨田区,28-08,墨田区京島 ２- ９- ３,帝都ビークルショップサービス工場,35.71472,139.8198223
東京都,墨田区,29-01,墨田区東向島２- ７- ５,ふじのき公園,35.7173481,139.8154208
東京都,墨田区,29-02,墨田区東向島２-２４,東武鉄道高架下,35.7197095,139.816425
東京都,墨田区,29-03,墨田区東向島２-４６- ７,東向島ふじ公園（東向島２-４２向）,35.7203371,139.8183734
東京都,墨田区,29-04,墨田区東向島６- ８- １,第三寺島小学校（東向島６-６向）,35.7209635,139.8205768
東京都,墨田区,29-05,墨田区東向島６-１９-１２,さつき公園,35.7226853,139.820252
東京都,墨田区,29-06,墨田区八広 １- ７- ４,けやき児童遊園,35.7213468,139.8220314
東京都,墨田区,29-07,墨田区八広 １-１６-１１,ひいらぎ広場,35.7196934,139.8219408
東京都,墨田区,29-08,墨田区八広 １-１７-１５,寺島中学校（八広１－１６向）,35.7197018,139.8229701
東京都,墨田区,29-09,墨田区八広 １-１７-１５,寺島中学校（日本橋高等学校向）,35.7197018,139.8229701
東京都,墨田区,30-01,墨田区東向島１- ７- ８,ヒノデワシ㈱,35.721917,139.8134059
東京都,墨田区,30-02,墨田区東向島１-１６- ２,第一寺島小学校（東向島１-１３向）,35.7215986,139.8144255
東京都,墨田区,30-03,墨田区東向島３-１８- ３,向島百花園（正門右脇）,35.724246,139.8150048
東京都,墨田区,30-04,墨田区東向島３-１８- ３,向島百花園（都バス停｢百花園｣前）,35.724246,139.8150048
東京都,墨田区,30-05,墨田区東向島３-３４-１４,都立墨田川高校（地蔵坂通り）,35.7218422,139.8160628
東京都,墨田区,30-06,墨田区東向島３-３４-１４,都立墨田川高校（通用門右脇）,35.7218422,139.8160628
東京都,墨田区,30-07,墨田区堤通 １- ６- １,堤通公園（堤通１-１１向）,35.7237979,139.8117938
東京都,墨田区,30-08,墨田区堤通 １- ８,区立堤通公園（北側）,35.7240605,139.8102702
東京都,墨田区,31-01,墨田区東向島４- ８-２０,長寿庭園,35.7271415,139.8154013
東京都,墨田区,31-02,墨田区東向島４-１２-１９,東向島北公園（公園南側・東向島４-２０向）,35.7256347,139.8161951
東京都,墨田区,31-03,墨田区東向島４-１２-１９,東向島北公園（公園北側・東向島４-１３向）,35.7256347,139.8161951
東京都,墨田区,31-04,墨田区東向島４-１８- ９,旧向島中学校（東向島４-３８向）,35.7261216,139.817669
東京都,墨田区,31-05,墨田区東向島４-１８- ９,旧向島中学校（東向島４-２４向）,35.7261216,139.817669
東京都,墨田区,31-06,墨田区東向島４-３０- ２,第二寺島小学校,35.7247299,139.8186379
東京都,墨田区,31-07,墨田区東向島５-１６- ２,向島保健センター,35.7258029,139.8210771
東京都,墨田区,31-08,墨田区東向島５-２４- １,こでまり児童遊園（東向島５-２３向）,35.7276905,139.8217758
東京都,墨田区,32-01,墨田区墨田 ３-１０- ２,東清寺,35.7293259,139.8215399
東京都,墨田区,32-02,墨田区墨田 ３-１８-１０,いちご広場,35.7302181,139.8212809
東京都,墨田区,32-03,墨田区墨田 ４- ６- ５,隅田小学校,35.734026,139.8219808
東京都,墨田区,32-04,墨田区墨田 ４- ７- ６,東京電力パワーグリッド㈱隅田変電所,35.7333321,139.8213856
東京都,墨田区,32-05,墨田区墨田 ４-２２- ４,すみだ保育園,35.7320508,139.8230444
東京都,墨田区,32-06,墨田区墨田 ４-２３-１２,隅田児童遊園,35.7325051,139.8232999
東京都,墨田区,32-07,墨田区墨田 ４-３４-２０,隅田東第二児童遊園（墨田４－３２向）,35.7326907,139.8241893
東京都,墨田区,32-08,墨田区墨田 ４-５６- １,東隅田駐車場,35.7300344,139.8255284
東京都,墨田区,33-01,墨田区墨田 １- ４- １先,バス停｢白鬚橋｣向かい横植込地（墨堤通り） 都民ハイム墨田一丁目１号棟前,35.7285179,139.8141468
東京都,墨田区,33-02,墨田区墨田 １- ４- ４先,スポーツプラザ梅若体育館前歩道脇植栽,35.7291061,139.8153559
東京都,墨田区,33-03,墨田区墨田 １- ４-４２,区立白鬚公園向かい側歩道植栽（墨田１-５向）,35.7280809,139.8150593
東京都,墨田区,33-04,墨田区墨田 １-１３- ３,境児童遊園（墨田２-２９向）,35.7286524,139.8177823
東京都,墨田区,33-05,墨田区墨田 ２- １- １,東京トヨペット㈱墨田店脇歩道植込地,35.7302119,139.8143467
東京都,墨田区,33-06,墨田区墨田 ２- ６-２０,正福寺,35.7325285,139.8167397
東京都,墨田区,33-07,墨田区墨田 ２-２６- ５,梅若小学校,35.7300376,139.8149861
東京都,墨田区,33-08,墨田区墨田 ２-３８-１３,梅若保育園,35.7308907,139.8176333
東京都,墨田区,34-01,墨田区墨田 ２-１１-１２,成林庵,35.7334603,139.818105
東京都,墨田区,34-02,墨田区墨田 ５- ５- ５先,居酒屋ダイニング“笑”斜め 左前植込地（墨堤通り）,35.7360286,139.8182844
東京都,墨田区,34-03,墨田区墨田 ５-１６,特別支援学校設置予定地（鐘紡跡地）,35.73861,139.8179438
東京都,墨田区,34-04,墨田区墨田 ５-２７先,東武鉄道線路敷地,35.7402212,139.8187431
東京都,墨田区,34-05,墨田区墨田 ５-４２-１７,圓徳寺,35.7345672,139.8191038
東京都,墨田区,34-06,墨田区墨田 ５-４９- ５,旧隅田小学校,35.736225,139.8211296
東京都,墨田区,34-07,墨田区墨田 ５-５０- ２,鐘ヶ淵駅西口駐輪場,35.7334513,139.8200086
東京都,墨田区,35-01,墨田区堤通 ２- ２- １,東白鬚公園（野球場裏植込地・堤通２ー６先）,35.7323568,139.8137977
東京都,墨田区,35-02,墨田区堤通 ２- ２- １,東白鬚公園（桜堤中学校・堤通２－１９前）,35.7323568,139.8137977
東京都,墨田区,35-03,墨田区堤通 ２- ３先,都営白鬚東アパート３号棟前植込地（墨堤通り）,35.7286073,139.8126681
東京都,墨田区,35-04,墨田区堤通 ２- ６- ７先,隅田川神社鳥居前植込地（墨堤通り）,35.7344474,139.8165049
東京都,墨田区,35-05,墨田区堤通 ２- ７- ２７先,都営白鬚東アパート10号棟前植込地（墨堤通り）,35.7338923,139.8165295
東京都,墨田区,35-06,墨田区堤通 ２- ８-１６先,都営白鬚東アパート16号棟右斜め前植込地（墨堤通り）,35.7358821,139.8175669
東京都,墨田区,35-07,墨田区堤通 ２-１０先,都営白鬚東アパート1８号棟前植込地（墨堤通り）,35.7368399,139.8174641