prefecture,city,number,address,name,lat,long,note
東京都,多摩市,01-01,関戸6丁目12番地1,多摩市役所南側,35.63709060000001,139.4463635,
東京都,多摩市,01-02,関戸6丁目12番地1,多摩市役所第2庁舎西側,35.63709060000001,139.4463635,
東京都,多摩市,01-03,関戸6丁目9番地,坂下公園西側,35.6388125,139.448507,
東京都,多摩市,01-04,関戸6丁目2番地,車橋バス停(南田橋南側),35.6388125,139.448507,
東京都,多摩市,01-05,諏訪1丁目3番地,永山橋公園南側,35.6338499,139.4476648,
東京都,多摩市,01-06,永山1丁目21番地,大橋公園北側,35.6320574,139.445965,
東京都,多摩市,01-07,貝取1758番地1,乞田五差路バス停北側,35.622297,139.4402459,
東京都,多摩市,01-08,永山1丁目11番地1,滝の上公園南側,35.6320574,139.445965,
東京都,多摩市,02-01,関戸4丁目19番地5,市立健康センター(関戸・一ノ宮コミュニティセンター) 南側,35.64896969999999,139.4495366,
東京都,多摩市,02-02,関戸5丁目18番地,大栗橋公園東側(都道沿),35.6444224,139.451049,
東京都,多摩市,02-03,関戸5丁目19番地11,大栗橋バス停東側 (鉄塔フェンス),35.6444224,139.451049,
東京都,多摩市,02-04,関戸4丁目72番地先,聖蹟桜ヶ丘駅前交差点南側,35.6495785,139.4469976,
東京都,多摩市,02-05,関戸3丁目19番地8先,関戸市営第2住宅北側(多摩中西側),35.6499172,139.4561335,
東京都,多摩市,02-06,関戸1丁目11番地1先,聖蹟桜ヶ丘駅東口高架下南側歩道,35.6505265,139.4473744,
東京都,多摩市,02-07,関戸2丁目43番地3,聖蹟桜ヶ丘駅東自転車駐車場 南歩道側,35.6512535,139.4494463,
東京都,多摩市,02-08,関戸2丁目63番地,ろくせぶ公園北側,35.6512918,139.451049,
東京都,多摩市,03-01,連光寺3丁目64番地,連光寺小学校(北側)入口,35.642302,139.4599472,
東京都,多摩市,03-02,連光寺2丁目27番地16,連光寺本村集会所南側,35.6413873,139.4548624,
東京都,多摩市,03-03,連光寺3丁目79番地21,春日神社バス停,35.642302,139.4599472,
東京都,多摩市,03-04,連光寺1丁目42番地50,向ノ岡橋南側,35.6458523,139.4574047,
東京都,多摩市,03-05,連光寺1丁目21番地1,向ノ岡公園北側,35.6478055,139.4600479,
東京都,多摩市,03-06,連光寺3丁目8番地2,かじあがり公園南側,35.642302,139.4599472,
東京都,多摩市,03-07,連光寺4丁目14番地9,連光寺坂上交差点南側法面,35.6403952,139.4652014,
東京都,多摩市,03-08,連光寺5丁目17番地,大谷戸公園入口(西側),35.6374065,139.4605829,
東京都,多摩市,04-01,聖ヶ丘3丁目66番地,聖ヶ丘小学校(東側)入口,35.6305354,139.4605829,
東京都,多摩市,04-02,聖ヶ丘3丁目51番地,聖ヶ丘小学校体育館西側下遊歩道交差点,35.6311251,139.4589215,
東京都,多摩市,04-03,聖ヶ丘2丁目21番地1,ひじり館南側(橋の欄干),35.6311119,139.4580971,
東京都,多摩市,04-04,聖ヶ丘2丁目18番地,聖ヶ丘橋バス停西側,35.6338867,139.4561335,
東京都,多摩市,04-05,聖ヶ丘3丁目48番地,聖ヶ丘緑地(聖ヶ丘橋東側広場入口),35.6305354,139.4605829,
東京都,多摩市,04-06,聖ヶ丘2丁目17番地,聖ヶ丘中学校西側,35.6338867,139.4561335,
東京都,多摩市,04-07,聖ヶ丘2丁目53番地,聖ヶ丘第2児童公園北側(聖ヶ丘2丁目バス停南側),35.6338867,139.4561335,
東京都,多摩市,04-08,連光寺5丁目8番地2,連光寺公園駐車場北側(駐車場入口横),35.6374065,139.4605829,
東京都,多摩市,05-01,諏訪5丁目12番地,諏訪中学校南側,35.6214049,139.4535912,
東京都,多摩市,05-02,諏訪4丁目,諏訪4-2-8号棟東側,35.6240947,139.4574047,
東京都,多摩市,05-03,諏訪5丁目2番地,諏訪5丁目商店街南側,35.6214049,139.4535912,
東京都,多摩市,05-04,諏訪2丁目10番地,諏訪第3公園南側,35.6238459,139.4515748,
東京都,多摩市,05-05,諏訪2丁目14番地,都市再生機構東日本支社多摩事業本部(永山北公園交差点東側),35.62610129999999,139.451049,
東京都,多摩市,05-06,諏訪3丁目4番地4,諏訪第4公園西側,35.6245122,139.4536497,
東京都,多摩市,05-07,諏訪4丁目28番地,諏訪第6公園北側,35.6240947,139.4574047,
東京都,多摩市,06-01,永山5丁目13番地,瓜生小学校(北側)入口,35.6171517,139.4459708,
東京都,多摩市,06-02,永山4丁目8番地,永山第7公園南側,35.6198604,139.449778,
東京都,多摩市,06-03,永山4丁目2番地,永山4丁目交番北側(諏訪南公園バス停),35.6198604,139.449778,
東京都,多摩市,06-04,永山4丁目7番地3,永山南公園南側,35.6225172,139.4498748,
東京都,多摩市,06-05,永山5丁目13番地,瓜生小学校南側,35.6171517,139.4459708,
東京都,多摩市,06-06,永山5丁目15番地,5丁目バス停南側,35.6190209,139.4463542,
東京都,多摩市,06-07,永山5丁目31番地,永山第4西側,35.6171705,139.445965,
東京都,多摩市,06-08,永山6丁目26番地,小野路第3公園東側,35.6143651,139.444694,
東京都,多摩市,07-01,永山2丁目7番地,多摩永山中学校(南側)入口,35.6274771,139.445965,
東京都,多摩市,07-02,永山2丁目8番地,永山小学校(東側)入口,35.6274771,139.445965,
東京都,多摩市,07-03,永山2丁目1番地14,JTB北側遊歩道 (トンネル付近),35.6301895,139.448235,
東京都,多摩市,07-04,永山3丁目10番地1,永山第5公園,35.6228965,139.445965,
東京都,多摩市,07-05,永山2丁目5番地,永山北公園北側,35.6277213,139.4486923,
東京都,多摩市,07-06,永山2丁目3番地,諏訪2丁目バス停前,35.62762439999999,139.4438716,
東京都,多摩市,07-07,永山3丁目13番地,永山第3公園東側,35.6228965,139.445965,
東京都,多摩市,07-08,永山2丁目19番地30,瓜生公園西側,35.6278422,139.4432859,
東京都,多摩市,08-01,愛宕1丁目54番地,東愛宕小学校北側入口,35.6350233,139.4332678,
東京都,多摩市,08-02,百草1135番地2先,和田稲荷塚集会場東側 (水路フェンス),35.638096,139.4352185,
東京都,多摩市,08-03,愛宕2丁目62番地,愛宕東バス停南側,35.6357106,139.4397763,
東京都,多摩市,08-04,愛宕2丁目62番地,愛宕第1公園(南側)入口,35.6357106,139.4397763,
東京都,多摩市,08-05,愛宕2丁目2番地,愛宕東公園バス停北側,35.6341153,139.440061,
東京都,多摩市,08-06,愛宕1丁目66番地,愛宕東公園内北側遊歩道,35.6344067,139.4319861,
東京都,多摩市,08-07,愛宕1丁目65番地,愛宕神社バス停南側,35.6344067,139.4319861,
東京都,多摩市,09-01,和田234番地,和田中学校(東側)入口,35.6423343,139.427539,
東京都,多摩市,09-02,和田159番地,殿田橋北公園,35.6442709,139.430567,
東京都,多摩市,09-03,和田75番地,多摩第二小学校正門(南側) 入口,35.644701,139.4325817,
東京都,多摩市,09-04,和田1659番地,新堂公園西側,35.6498503,139.4347406,
東京都,多摩市,09-05,和田133番地1,殿田中央公園,35.6423343,139.427539,
東京都,多摩市,09-06,和田392番地,和田さく公園,35.6423343,139.427539,
東京都,多摩市,09-07,和田2006番地4,大栗川・かるがも館西側,35.6410431,139.4274107,
東京都,多摩市,09-08,和田485番地2,地獄堂バス停(永山駅行)西側,35.6423343,139.427539,
東京都,多摩市,10-01,和田1254番地12,かえる公園付近(三方の森コミュニティ会館),35.6462004,139.4160667,
東京都,多摩市,10-02,和田1261番地,12号棟東側法面,35.646551,139.4170776,
東京都,多摩市,10-03,和田1261番地,17号棟東側(遊歩道内),35.646551,139.4170776,
東京都,多摩市,10-04,和田1261番地,21号棟東側(遊歩道内),35.646551,139.4170776,
東京都,多摩市,10-05,和田1261番地,26号棟北東側,35.646551,139.4170776,
東京都,多摩市,10-06,和田1261番地,1号棟西側(遊歩道内),35.646551,139.4170776,
東京都,多摩市,10-07,和田1307番地9,百草団地バス停東側,35.6423343,139.427539,
東京都,多摩市,11-01,一ノ宮1丁目18番地8,一ノ宮集会所西側,35.6528357,139.4417969,
東京都,多摩市,11-02,一ノ宮2丁目27番地2,宮之下公園東側,35.6542702,139.4437533,
東京都,多摩市,11-03,関戸1丁目2番地3,京王電鉄(株)診療所南側,35.6523292,139.4459686,
東京都,多摩市,11-04,関戸1丁目5番地5,ザ・スクエア東側歩道花壇,35.6526716,139.4475679,
東京都,多摩市,11-05,一ノ宮3丁目8番地8先,セブンイレブン西側歩道,35.649032,139.4431508,
東京都,多摩市,11-06,東寺方1丁目16番地5,くるまぼり公園南側,35.648303,139.4421958,
東京都,多摩市,11-07,一ノ宮4丁目16番地,三角公園北側,35.6500903,139.4396105,
東京都,多摩市,11-08,関戸1丁目19番地2,せいせき公園東側,35.6532942,139.4465812,
東京都,多摩市,12-01,桜ヶ丘1丁目1番地3,桜ケ丘集会所西側,35.6411506,139.444517,
東京都,多摩市,12-02,桜ヶ丘1丁目17番地7,ゆう桜ケ丘入口,35.6398753,139.4465577,
東京都,多摩市,12-03,桜ケ丘4丁目26番地,山神社北側,35.6403591,139.4416527,
東京都,多摩市,12-04,桜ヶ丘4丁目10番地1,水道事務所フエンス (東側),35.6439142,139.4442141,
東京都,多摩市,12-05,桜ヶ丘4丁目33番地,金比羅神社北側歩道 (いろは坂通り),35.6439369,139.4427877,
東京都,多摩市,12-06,桜ヶ丘1丁目60番地4,かすみ緑地南側,35.64402219999999,139.447236,
東京都,多摩市,12-07,桜ヶ丘1丁目31番地先,桜ケ丘1-31北側 (桜ヶ丘東通り歩道防護柵),35.64402219999999,139.447236,
東京都,多摩市,12-08,桜ケ丘2丁目31番地8先,多摩市役所西交差点北側,35.63605020000001,139.4441181,
東京都,多摩市,13-01,貝取1丁目26番地1,市民活動・交流センター(南側)入口,35.6251221,139.4398474,
東京都,多摩市,13-02,貝取1丁目40番地,貝取山緑地(貝取1-40-1南側),35.6287822,139.4408557,
東京都,多摩市,13-03,貝取1丁目63番地,みどり公園西側,35.6268774,139.4402459,
東京都,多摩市,13-04,貝取2丁目1番地4,貝取北公園北側(貝取北公園角交差点),35.6237874,139.4405478,
東京都,多摩市,13-05,貝取2丁目9番地1,青陵中学校北側,35.620149,139.4385879,
東京都,多摩市,13-06,貝取2丁目9番地2,青陵中学校西側 (とちのき公園バス停),35.622297,139.4402459,
東京都,多摩市,13-07,貝取2丁目12番地,貝取2-12-8号棟西側(遊歩道内),35.6234972,139.4391893,
東京都,多摩市,14-01,豊ヶ丘4丁目6番地,豊ヶ丘商店街西側 (ゆたか橋北側),35.6135661,139.4370689,
東京都,多摩市,14-02,豊ヶ丘4丁目4番地,豊ヶ丘4-2-7号棟東側法面,35.6135661,139.4370689,
東京都,多摩市,14-03,豊ヶ丘4丁目4番地,旧豊ヶ丘中学校(南側)入口,35.6135661,139.4370689,
東京都,多摩市,14-04,豊ヶ丘5丁目12番地,豊ヶ丘南公園北側,35.6154567,139.4332568,
東京都,多摩市,14-05,豊ヶ丘5丁目11番地,豊ヶ丘第8公園東側,35.6154567,139.4332568,
東京都,多摩市,14-06,豊ヶ丘6丁目4番地,旧南豊ヶ丘小学校正門(北側),35.6115496,139.4333458,
東京都,多摩市,14-07,南野2丁目7番地先,グランドール南野北側防護柵,35.6089588,139.434712,
東京都,多摩市,15-01,落合3丁目24番地,東落合小学校西側,35.618177,139.4300801,
東京都,多摩市,15-02,落合3丁目5番地,多摩青木葉交差点南側,35.6216422,139.4303802,
東京都,多摩市,15-03,落合3丁目27番地,落合第1公園東側,35.6190995,139.4315394,
東京都,多摩市,15-04,落合3丁目29番地,落合商店街(落合第2歩道橋北側),35.618177,139.4300801,
東京都,多摩市,15-05,落合3丁目30番地1,落合南公園東側,35.618177,139.4300801,
東京都,多摩市,15-06,落合2丁目15番地1,青木葉公園東側,35.6174465,139.4271692,
東京都,多摩市,15-07,落合2丁目35番地,多摩中央公園西側 (レンガ坂橋南側),35.6207985,139.4242006,
東京都,多摩市,16-01,乞田712番地,多摩第3小学校(北側)入口,35.6316097,139.4361854,
東京都,多摩市,16-02,乞田1126番地4,大貝戸公園南側(愛宕交番前交差点),35.6322875,139.4408814,
東京都,多摩市,16-03,貝取1丁目3番地,釜沼公園西側,35.6268774,139.4402459,
東京都,多摩市,16-04,乞田810番地2,乞田・貝取コミュニティセンター(ふれあい館) 西側,35.6308932,139.4350883,
東京都,多摩市,16-05,豊ヶ丘1丁目6番地,豊ヶ丘第1緑地北側,35.6283672,139.4326214,
東京都,多摩市,16-06,豊ヶ丘1丁目20番地,八幡公園西側,35.6283672,139.4326214,
東京都,多摩市,16-07,落合1丁目5番地5,長久保公園北側,35.626848,139.4264471,
東京都,多摩市,17-01,鶴牧5丁目43番地,南鶴牧小学校(北側)入口,35.6108214,139.4218217,
東京都,多摩市,17-02,鶴牧4丁目4番地,奈良原公園北側(奈良原公園バス停),35.6134658,139.4213315,
東京都,多摩市,17-03,鶴牧3丁目13番地,鶴牧3-13-3号棟東側(鶴牧3丁目バス停),35.6183214,139.4205513,
東京都,多摩市,17-04,鶴牧4丁目5番地,富士見通下バス停,35.6137415,139.4205513,
東京都,多摩市,17-05,鶴牧5丁目1番地,鶴牧商店街東側(鶴牧センター前バス停),35.6108214,139.4218217,
東京都,多摩市,17-06,鶴牧5丁目1番地,鶴牧商店街西側(はなみずき橋東側遊歩道内),35.6108214,139.4218217,
東京都,多摩市,17-07,鶴牧5丁目14番地先,鶴牧 5-14-30号棟西側(遊歩道内),35.6108214,139.4218217,
東京都,多摩市,17-08,鶴牧4丁目4番地,奈良原公園西側(テニスコート西側),35.6134658,139.4213315,
東京都,多摩市,18-01,諏訪1丁目60番地1,北諏訪小学校(東側)入口,35.6302894,139.4502553,
東京都,多摩市,18-02,諏訪1丁目66番地,多摩消防署南側(多摩消防署交差点),35.6318271,139.451049,
東京都,多摩市,18-03,諏訪1丁目55番地,馬引沢第2公園,35.6318271,139.451049,
東京都,多摩市,18-04,諏訪1丁目9番地18先,諏訪荘A棟西側(川沿フエンス),35.6344144,139.449899,
東京都,多摩市,18-05,聖ヶ丘1丁目27番地,丘の上公園南側,35.6378523,139.453909,
東京都,多摩市,18-06,馬引沢2丁目5番地,馬引沢第1公園南側,35.6309239,139.4551802,
東京都,多摩市,18-07,馬引沢2丁目16番地1,馬引沢第3公園西側,35.6309239,139.4551802,
東京都,多摩市,18-08,諏訪2丁目13番,北諏訪小学校南側(遊歩道内),35.62610129999999,139.451049,
東京都,多摩市,19-01,豊ヶ丘2丁目4番地1,豊ヶ丘小学校(北側)入口,35.6202371,139.4351628,
東京都,多摩市,19-02,豊ヶ丘2丁目10番地先,豊ヶ丘第1公園北側,35.6202371,139.4351628,
東京都,多摩市,19-03,豊ヶ丘2丁目34番地,とちの木公園南側(青陵中学校北交差点),35.6202371,139.4351628,
東京都,多摩市,19-04,豊ヶ丘3丁目2番地1,豊ヶ丘第3公園東側(貝取2丁目バス停),35.6182284,139.4364364,
東京都,多摩市,19-05,豊ヶ丘2丁目4番地1,豊ヶ丘小学校(南側)入口,35.6202371,139.4351628,
東京都,多摩市,19-06,落合1丁目15番地1,あおぞらぱれっと保育園前,35.6260331,139.4295925,
東京都,多摩市,19-07,落合1丁目34番地先,(株)ベネッセコーポレーション北側(遊歩道内),35.6236946,139.4273633,
東京都,多摩市,19-08,落合1丁目40番地1,多摩センター大橋東側(パルテノン大通り遊歩道),35.6243057,139.4238167,
東京都,多摩市,20-01,落合5丁目6番地,西落合小学校(南側) 入口,35.6137929,139.4237671,
東京都,多摩市,20-02,落合5丁目6番地,西落合小学校(北側)入口,35.6137929,139.4237671,
東京都,多摩市,20-03,落合5丁目5番地,宝野公園北側(トイレ北側),35.6146567,139.4256331,
東京都,多摩市,20-04,落合5丁目5番地,宝野公園東側,35.6146567,139.4256331,
東京都,多摩市,20-05,落合5丁目8番地,落合5-8-21号棟(管理事務所集会所)南側遊歩道内,35.6146567,139.4256331,
東京都,多摩市,20-06,落合6丁目5番地,鶴牧・落合・南野コミュニティセンター(トムハウス) 西側,35.6110662,139.4281567,
東京都,多摩市,20-07,落合6丁目8番地,荻久保公園西側,35.6105914,139.4269037,
東京都,多摩市,20-08,落合5丁目1番地2,プロムナード多摩中央団地西側法面,35.6175038,139.4235239,
東京都,多摩市,21-01,鶴牧6丁目5番地1,鶴牧中学校(北側)入口,35.6136781,139.4139317,
東京都,多摩市,21-02,山王下1丁目6番地,山王下公園南側,35.6261909,139.4210359,
東京都,多摩市,21-03,中沢1丁目3番地,高岸公園南側,35.6190944,139.4097538,
東京都,多摩市,21-04,鶴牧2丁目4番地,中組公園北側,35.61906580000001,139.4167402,
東京都,多摩市,21-05,中沢2丁目23番地,二反田公園東側,35.6203252,139.4141996,
東京都,多摩市,21-06,唐木田1丁目5番地1,唐木田駅市営自転車駐車場(唐木田駅南側),35.6144454,139.4094431,
東京都,多摩市,21-07,唐木田1丁目42番地1,李久保公園北側,35.6149442,139.4065785,
東京都,多摩市,21-08,唐木田1丁目19番地,土橋公園北側,35.6149442,139.4065785,
東京都,多摩市,22-01,貝取3丁目9番地,貝取小学校(西側)入口,35.6174013,139.4408814,
東京都,多摩市,22-02,貝取4丁目13番地,貝取南公園東側,35.6166695,139.4397348,
東京都,多摩市,22-03,貝取3丁目11番地,貝取第5公園東側(南瓜生バス停),35.6144774,139.4421224,
東京都,多摩市,22-04,貝取4丁目10番地先,貝取5丁目バス停西側,35.6144682,139.4402463,
東京都,多摩市,22-05,貝取5丁目2番地,貝取5-1-3号棟西側,35.6112771,139.4382206,
東京都,多摩市,22-06,貝取4丁目14番地,貝取第7公園西側(貝取商店街東側),35.614596,139.4396105,
東京都,多摩市,22-07,貝取4丁目13番地,貝取南公園西側 (サッカー場西側),35.6166695,139.4397348,
東京都,多摩市,23-01,落合4丁目14番地,落合中学校(東側)入口,35.6135966,139.4300801,
東京都,多摩市,23-02,落合4丁目14番地,落合中学校西側(落合中学校西交差点),35.6135966,139.4300801,
東京都,多摩市,23-03,落合4丁目23番地,落合第3公園東側,35.6135966,139.4300801,
東京都,多摩市,23-04,落合4丁目1番地,落合4丁目バス停西側,35.6135966,139.4300801,
東京都,多摩市,23-05,落合4丁目18番地1,豊ヶ丘5丁目バス停留所,35.6112511,139.4293257,
東京都,多摩市,23-06,落合4丁目11番地,落合第4公園西側,35.6135966,139.4300801,
東京都,多摩市,23-07,落合4丁目11番地,東京医療学院大学入口,35.6135966,139.4300801,
東京都,多摩市,24-01,愛宕1丁目52番地,東愛宕中学校バス停西側,35.6344067,139.4319861,
東京都,多摩市,24-02,愛宕1丁目52番地,東愛宕中学校東側交差点,35.6344067,139.4319861,
東京都,多摩市,24-03,愛宕3丁目55番地1,谷戸根緑地東側,35.633047,139.4335744,
東京都,多摩市,24-04,愛宕3丁目59番地,愛宕第3公園北側,35.633047,139.4335744,
東京都,多摩市,24-05,愛宕1丁目62番地3,旧西愛宕小学校東側(愛宕4丁目バス停東側),35.6344067,139.4319861,
東京都,多摩市,24-06,愛宕4丁目62番地1,愛宕第4公園北側,35.6294266,139.4281742,
東京都,多摩市,24-07,愛宕4丁目58番地2,上之根公園階段上(愛宕4-28-2号棟東側),35.6294266,139.4281742,
東京都,多摩市,25-01,東寺方626番地7,東寺方地区市民ホール北側,35.6432988,139.4377334,
東京都,多摩市,25-02,東寺方588番地1,市立総合体育館南側,35.6435993,139.4363446,
東京都,多摩市,25-03,落川1148番地1,東寺方中央公園都道側北寄り,35.6387568,139.4370689,
東京都,多摩市,25-04,落川1184番地5,落川北公園,35.6412127,139.4385131,
東京都,多摩市,25-05,東寺方100番地,東寺方小学校(東側)入口,35.647988,139.4389602,
東京都,多摩市,25-06,和田1769番地5,明神橋公園,35.6486172,139.4379146,
東京都,多摩市,25-07,和田1209番地1,和田バス停南側,35.6423343,139.427539,
