prefecture,city,number,address,name,lat,long
東京都,大田区,1-1,田園調布二丁目31番16号,田園調布小学校 正門右側フェンス,35.5956084,139.6677851
東京都,大田区,1-2,田園調布二丁目31番16号,田園調布小学校 西側フェンス,35.5956084,139.6677851
東京都,大田区,1-3,田園調布一丁目11番２号,区道 植込（ハウス101前）,35.5864611,139.6702289
東京都,大田区,1-4,田園調布一丁目62番 先,多摩川台公園 入口左側石塀,35.5907945,139.666016
東京都,大田区,1-5,田園調布一丁目53番10号,田園調布せせらぎ公園 集会室入口右側フェンス,35.5889836,139.6695614
東京都,大田区,1-6,田園調布二丁目60番１号,田園調布中学校 南東側フェンス,35.5982319,139.6705311
東京都,大田区,1-7,田園調布三丁目31番１号,宝来公園 北東側入口右側植込,35.594434,139.6641822
東京都,大田区,1-8,田園調布三丁目31番１号,宝来公園 南西側入口左側植込,35.594434,139.6641822
東京都,大田区,2-1,田園調布五丁目43番６号,都立田園調布特別支援学校 北東側フェンス,35.5956774,139.6543362
東京都,大田区,2-2,田園調布四丁目44番９号,シニアステーション田園調布西 南側フェンス,35.5918997,139.6614913
東京都,大田区,2-3,田園調布四丁目48番 先,丸子川 護岸壁（キャノン㈱田園調布テニスガーデン前）,35.5928868,139.6597971
東京都,大田区,2-4,田園調布五丁目50番 先,丸子川 護岸壁（コンフォート田園調布前）,35.5939493,139.6584916
東京都,大田区,2-5,田園調布四丁目42番 先,丸子川 護岸壁（丸子川側道始点）,35.5914942,139.6630261
東京都,大田区,2-6,田園調布五丁目30番 先,丸子川 護岸壁（庵谷橋南西側）,35.595027,139.657804
東京都,大田区,2-7,田園調布五丁目43番６号,都立田園調布特別支援学校 西側フェンス,35.5956774,139.6543362
東京都,大田区,3-1,雪谷大塚町12番１号,調布大塚小学校 西側校門左側フェンス,35.5904123,139.678705
東京都,大田区,3-2,雪谷大塚町12番１号,調布大塚小学校 北側フェンス,35.5904123,139.678705
東京都,大田区,3-3,雪谷大塚町４番６号,調布地域庁舎 南側フェンス,35.5931589,139.680578
東京都,大田区,3-4,雪谷大塚町８番５号,芝信用金庫雪が谷支店 駐車場南側鉄柵,35.5916268,139.6802513
東京都,大田区,3-5,雪谷大塚町17番20号,雪谷大塚中央児童公園 西側植込,35.5917742,139.6784558
東京都,大田区,3-6,雪谷大塚町１番,雪谷大塚町自転車駐輪場 西側フェンス,35.5943382,139.6810876
東京都,大田区,3-7,南雪谷二丁目21番１号,田園調布郵便局 東側コンクリート塀,35.588904,139.6784558
東京都,大田区,3-8,雪谷大塚町13番20号,ふくし公園 東側入口横植込,35.589558,139.6777729
東京都,大田区,4-1,田園調布本町７番１号,嶺町特別出張所 北東側フェンス,35.5879021,139.6773814
東京都,大田区,4-2,田園調布本町７番15号,田園調布保育園 入口右側フェンス,35.5872472,139.6771331
東京都,大田区,4-3,田園調布本町35番８号,六郷用水 遊歩道（東光院南西側）,35.5837624,139.6733546
東京都,大田区,4-4,田園調布本町39番11号,桜ヶ丘テニスコート 東側コンクリート擁壁,35.585463,139.6712065
東京都,大田区,4-5,田園調布本町43番10号 先,桜坂 西側植込（ベルエール田園調布前）,35.5860144,139.6748985
東京都,大田区,4-6,田園調布一丁目29番22号,玉川寮 北側塀,35.5894204,139.6713927
東京都,大田区,4-7,田園調布一丁目22番３号,田園調布一丁目東公園 入口横フェンス,35.5907248,139.6756646
東京都,大田区,4-8,田園調布本町32番12号,大田区環境公社 正面入口横フェンス,35.5843381,139.6712702
東京都,大田区,5-1,田園調布南28番７号,東調布第一小学校 入口右側フェンス,35.5823894,139.6776682
東京都,大田区,5-2,田園調布南25番１号,大田図書館 入口左側植込,35.5816199,139.6762083
東京都,大田区,5-3,東嶺町19番 先,嶺興産㈱管理駐車場 万年塀,35.5819694,139.6845969
東京都,大田区,5-4,東嶺町26番18号,東嶺公園 南西側大谷石塀,35.5815234,139.6849159
東京都,大田区,5-5,東嶺町31番18号,白山神社 正門右側石垣,35.57928,139.6832006
東京都,大田区,5-6,西嶺町16番21号,長久保様所有テニスコート 入口右側ブロック塀,35.580089,139.6808504
東京都,大田区,5-7,田園調布本町１番６号,東原くすのき公園北西側植込,35.5844989,139.679083
東京都,大田区,5-8,北嶺町34番３号,本覚寺 北側コンクリート塀,35.5855977,139.6811598
東京都,大田区,6-1,南久が原二丁目17番１号,東調布第三小学校 北側フェンス,35.5774433,139.6852348
東京都,大田区,6-2,南久が原一丁目３番１号,大森第七中学校 グラウンド北東鉄柵,35.578275,139.689935
東京都,大田区,6-3,南久が原一丁目３番１号,大森第七中学校 グラウンド北西側塀,35.578275,139.689935
東京都,大田区,6-4,南久が原二丁目17番１号,東調布第三小学校 南側フェンス,35.5774433,139.6852348
東京都,大田区,6-5,南久が原二丁目３番 先,南久が原圃場 入口右側フェンス,35.5788404,139.6877075
東京都,大田区,6-6,南久が原二丁目30番５号,鵜の木特別出張所 入口右側植込,35.5748852,139.6852748
東京都,大田区,6-7,南久が原二丁目24番１号,鵜ノ木八幡神社 北側ブロック塀,35.5760281,139.6848777
東京都,大田区,6-8,南久が原二丁目17番１号,東調布第三小学校 西側フェンス,35.5774433,139.6852348
東京都,大田区,7-1,田園調布南６番10号,嶺町小学校 北東側校門左側植込,35.57816,139.6747588
東京都,大田区,7-2,田園調布南３番８号,田園調布南公園 災害用田園調布南備蓄倉庫横植込,35.5792115,139.6752261
東京都,大田区,7-3,鵜の木二丁目32番20号,鵜の木二丁目児童公園 北東側植込,35.5731706,139.6800634
東京都,大田区,7-4,田園調布南６番10号,嶺町小学校 西側フェンス植込,35.57816,139.6747588
東京都,大田区,7-5,鵜の木三丁目11番13号,多摩堤保育園 南西側フェンス,35.57758330000001,139.678889
東京都,大田区,7-6,鵜の木三丁目32番10号,鵜の木老人いこいの家 門扉左側フェンス,35.5769725,139.6748571
東京都,大田区,7-7,鵜の木三丁目24番13号,鵜の木三丁目中央児童公園 南西側入口左側植込,35.5763604,139.6770449
東京都,大田区,7-8,鵜の木三丁目22番13号,鵜の木三丁目児童公園前鉄柵,35.5773313,139.6766215
東京都,大田区,7-9,田園調布南６番10号,嶺町小学校 南西側フェンス植込,35.57816,139.6747588
東京都,大田区,8-1,千鳥二丁目５番１号,千鳥小学校 正門フェンス,35.5714628,139.6922492
東京都,大田区,8-2,千鳥二丁目３番15号,つきやま公園 入口西側植込,35.5715478,139.6937383
東京都,大田区,8-3,千鳥一丁目１番３号,くさっぱら公園 北側植込,35.574037,139.691297
東京都,大田区,8-4,千鳥二丁目５番１号,千鳥小学校 南側フェンス,35.5714628,139.6922492
東京都,大田区,8-5,千鳥二丁目28番12号,ちどりみなみ児童公園 東側鉄柵,35.5689349,139.6928923
東京都,大田区,8-6,千鳥二丁目34番10号,千鳥郵便局 車庫入口右側鉄柵,35.5686085,139.6956333
東京都,大田区,8-7,千鳥三丁目７番５号,こども発達センターわかばの家 西側塀,35.5730371,139.6903783
東京都,大田区,8-8,千鳥三丁目22番17号,千鳥三丁目児童公園 南側鉄柵,35.5704635,139.6909779
東京都,大田区,9-1,久が原四丁目12番10号,久原小学校 正門左側植込,35.5800363,139.6945974
東京都,大田区,9-2,久が原二丁目16番16号,久が原なかよし児童公園 入口右側植込,35.5821464,139.6957641
東京都,大田区,9-3,久が原四丁目３番６号,区営久が原四丁目アパート 北側フェンス,35.5826753,139.6950905
東京都,大田区,9-4,久が原五丁目13番12号,（株）寺岡精工本社 西側バスケットコートフェンス,35.5779481,139.6995089
東京都,大田区,9-5,久が原五丁目７番20号,久が原さくら児童公園 西側入口横植込,35.5775042,139.6952855
東京都,大田区,9-6,久が原四丁目２番10号,久が原西部八幡児童遊園 南側塀,35.5822701,139.6932114
東京都,大田区,9-7,久が原五丁目24番10号,久が原南台児童公園 正門入口右側鉄柵,35.5750429,139.6958671
東京都,大田区,9-8,久が原六丁目７番４号,スクランブルパーク児童公園 北側柵,35.57656660000001,139.6902899
東京都,大田区,9-9,久が原六丁目８番７号,世界心道教東京支庁 東側鉄柵,35.5759959,139.691975
東京都,大田区,10-1,久が原一丁目11番１号,松仙小学校 正門右側鉄柵,35.5859034,139.6909457
東京都,大田区,10-2,東嶺町12番17号,松仙児童公園 東側植込,35.58512899999999,139.6869697
東京都,大田区,10-3,久が原一丁目11番１号,松仙小学校 東側フェンス,35.5859034,139.6909457
東京都,大田区,10-4,久が原一丁目11番１号,松仙小学校 北側フェンス,35.5859034,139.6909457
東京都,大田区,10-5,久が原一丁目１番９号,久が原ハーモニー保育園 南西側植込,35.5874397,139.6920548
東京都,大田区,10-6,南雪谷五丁目18番３号,区立雪谷文化センター南東側植込,35.588159,139.6906609
東京都,大田区,10-7,久が原三丁目27番18号,久が原公園 西側植込,35.5816606,139.6909779
東京都,大田区,10-8,南雪谷五丁目13番１号,東調布公園管理事務所 南西側植込,35.5881899,139.6892141
東京都,大田区,10-9,久が原一丁目11番１号,松仙小学校 南側フェンス,35.5859034,139.6909457
東京都,大田区,11-1,仲池上二丁目13番１号,大森第十中学校 正門右側植込,35.5846622,139.6995734
東京都,大田区,11-2,仲池上一丁目３番20号,仲池富士見児童公園 入口右側擁壁,35.5894191,139.6988854
東京都,大田区,11-3,仲池上二丁目13番１号,大森第十中学校 東側フェンス,35.5846622,139.6995734
東京都,大田区,11-4,仲池上一丁目29番17号,醍醐倉庫㈱ 西側植込,35.5863285,139.6955695
東京都,大田区,11-5,仲池上二丁目26番 先,呑川 護岸壁(ビアースコード西馬込前),35.5840323,139.6983169
東京都,大田区,11-6,仲池上二丁目24番８号,特別養護老人ホーム池上 東側フェンス,35.5845969,139.6977604
東京都,大田区,11-7,仲池上二丁目27番13号,呑川 護岸壁（仲池児童公園前）,35.5832991,139.698636
東京都,大田区,11-8,久が原二丁目３番１号,久が原久根児童公園 西側植込,35.5845403,139.6967214
東京都,大田区,12-1,東雪谷五丁目７番１号,池雪小学校 東側正門右側フェンス,35.5905708,139.694726
東京都,大田区,12-2,東雪谷四丁目５番10号,都立北療育医療センター城南分園 入口右側植込,35.5937351,139.6929758
東京都,大田区,12-3,東雪谷四丁目５番10号,荏原病院 正面入口左側植込（木柵前）,35.5937351,139.6929758
東京都,大田区,12-4,東雪谷五丁目33番13号 先,呑川 護岸壁（赤松マンション前）,35.5897477,139.6912902
東京都,大田区,12-5,仲池上一丁目31番５号,日本ロジテム㈱三幸営業所 東側植込,35.588146,139.6961829
東京都,大田区,12-6,上池台三丁目16番15号,上池台三丁目公園 西側鉄柵（公衆トイレ前）,35.5928038,139.6979978
東京都,大田区,12-7,上池台五丁目23番 先,北西側フェンス,35.5917836,139.6983169
東京都,大田区,12-8,上池台五丁目37番13号,池上みどり幼稚園 駐車場北側フェンス,35.590123,139.6970405
東京都,大田区,13-1,上池台五丁目５番１号,上池台障害者福祉会館 南側植込,35.5955786,139.7015832
東京都,大田区,13-2,上池台五丁目17番10号,大久保坂児童公園前 区道,35.5931695,139.7003789
東京都,大田区,13-3,上池台四丁目19番４号,上池台射水坂公園 東側フェンス,35.5984482,139.7022262
東京都,大田区,13-4,上池台四丁目23番９号,小池保育園 東側フェンス,35.5970201,139.701086
東京都,大田区,13-5,上池台五丁目18番 先,エルパーキング上池台 西側コンクリート塀,35.5931175,139.6996732
東京都,大田区,13-6,上池台五丁目11番17号,上池台保育園 入口右側石塀,35.5925488,139.7006704
東京都,大田区,13-7,上池台五丁目15番５号,稲荷坂児童公園 植込,35.5943718,139.701189
東京都,大田区,13-8,上池台四丁目40番５号,ライフ上池台 北側鉄柵,35.5950371,139.7002601
東京都,大田区,14-1,上池台二丁目22番７号,小池小学校 正門右側フェンス,35.5974473,139.6947271
東京都,大田区,14-2,上池台二丁目22番７号,小池小学校 北側フェンス,35.5974473,139.6947271
東京都,大田区,14-3,上池台一丁目36番１号 先,上池台小池公園 南側フェンス,35.5986644,139.6969657
東京都,大田区,14-4,上池台一丁目48番25号,東京都水道局上池台給水所 北側フェンス,35.6005088,139.6997192
東京都,大田区,14-5,上池台二丁目35番18号,子ども家庭支援センター 西側フェンス,35.5979723,139.6916559
東京都,大田区,14-6,上池台一丁目36番１号,上池台小池公園 北側植込,35.5986644,139.6969657
東京都,大田区,14-7,東雪谷一丁目27番15号,東京電力パワーグリッド㈱洗足変電所 西側塀,35.5992433,139.6900406
東京都,大田区,14-8,上池台三丁目39番 先,洗足流れ 疑木柵（溜井橋南西側）,35.5954688,139.6940889
東京都,大田区,15-1,南雪谷三丁目９番23号,雪谷小学校 正門左側鉄柵,35.5925135,139.6862796
東京都,大田区,15-2,南雪谷三丁目７番17号,日下山児童公園 植込,35.5916754,139.6842268
東京都,大田区,15-3,南雪谷五丁目１番１号,雪谷中学校 南東側フェンス,35.5898324,139.6895235
東京都,大田区,15-4,南雪谷五丁目１番１号,雪谷中学校 北西側フェンス,35.5898324,139.6895235
東京都,大田区,15-5,東雪谷二丁目11番11号 先,一の橋児童遊園 西側フェンス,35.5958601,139.6839389
東京都,大田区,15-6,東雪谷二丁目25番１号,雪ヶ谷児童遊園 西側大谷石擁壁,35.5967258,139.6862819
東京都,大田区,15-7,東雪谷三丁目６番１号,雪谷保育園 北東側植込,35.5946702,139.690938
東京都,大田区,15-8,南雪谷一丁目19番 先,呑川 護岸壁（ジオ南雪谷前）,35.5940597,139.6848162
東京都,大田区,15-9,東雪谷三丁目25番６号,ピノキオ児童公園 南東側植込,35.5914671,139.689277
東京都,大田区,16-1,南千束三丁目35番２号,洗足池小学校 正門左側コンクリート擁壁,35.59998059999999,139.6860026
東京都,大田区,16-2,南千束三丁目23番10号,千束保育園 北側フェンス,35.6014411,139.6874284
東京都,大田区,16-3,南千束三丁目35番２号,洗足池小学校 東側フェンス,35.59998059999999,139.6860026
東京都,大田区,16-4,石川町二丁目23番１号,石川台中学校 西側フェンス,35.5991986,139.6811972
東京都,大田区,16-5,石川町一丁目１番１号,東京科学大学 東側鉄柵,35.6016212,139.6842374
東京都,大田区,16-6,石川町一丁目19番10号,区道 緑地（日商岩井大岡山第一マンション南側）,35.6028869,139.6823637
東京都,大田区,16-7,石川町二丁目23番１号,石川台中学校 北側フェンス,35.5991986,139.6811972
東京都,大田区,16-8,石川町二丁目24番２号 先,呑川 護岸壁（しばざくらきんたろう児童公園前）,35.5982461,139.6822684
東京都,大田区,17-1,北千束二丁目35番８号,赤松小学校 東側フェンス,35.6064056,139.6924057
東京都,大田区,17-2,南千束一丁目33番１号,大森第六中学校 体育館側フェンス,35.6018712,139.6931896
東京都,大田区,17-3,南千束二丁目３番 先,洗足池公園 東側フェンス,35.6022425,139.6920149
東京都,大田区,17-4,南千束一丁目19番１号,南千束東児童公園 北側植込,35.60360060000001,139.6936103
東京都,大田区,17-5,南千束一丁目33番１号,大森第六中学校 正門左側フェンス,35.6018712,139.6931896
東京都,大田区,17-6,南千束一丁目33番１号,大森第六中学校 南側校門左側植込,35.6018712,139.6931896
東京都,大田区,17-7,南千束二丁目５番 先,洗足池公園 弁天神社前植込,35.6033483,139.6906588
東京都,大田区,17-8,南千束二丁目15番 先,洗足池公園 西側鉄柵,35.6036969,139.6893826
東京都,大田区,18-1,北千束一丁目20番15号,清水窪小学校 西側コンクリート塀,35.6088579,139.688272
東京都,大田区,18-2,北千束三丁目16番１号,千束児童遊園 東側鉄柵,35.6070271,139.6870894
東京都,大田区,18-3,北千束一丁目20番15号,清水窪小学校 東側体育館前フェンス,35.6088579,139.688272
東京都,大田区,18-4,北千束一丁目36番５号,東京科学大学北千束宿舎棟 北側フェンス,35.6106546,139.6860452
東京都,大田区,18-5,北千束一丁目38番１号,昭和大学大岡山寮 西側コンクリート塀,35.6098458,139.6874084
東京都,大田区,18-6,北千束一丁目３番 先,都道318号線（環状七号線） 歩道植込,35.6103239,139.691636
東京都,大田区,18-7,北千束一丁目20番15号,清水窪小学校 北側フェンス,35.6088579,139.688272
東京都,大田区,18-8,北千束三丁目36番２号,東京科学大学 事務局３号館前フェンス,35.6055943,139.6849957
東京都,大田区,19-1,大森南三丁目18番26号,大森第四小学校 北側サービスヤード横植込,35.5651953,139.7427322
東京都,大田区,19-2,大森南二丁目10番４号,大森南二丁目第二児童公園 北側入口右側植込,35.5623459,139.743498
東京都,大田区,19-3,大森南二丁目14番１号,区営大森南二丁目アパート 北側金網フェンス,35.5624929,139.7415121
東京都,大田区,19-4,大森南三丁目18番26号,大森第四小学校 東門横植込,35.5651953,139.7427322
東京都,大田区,19-5,大森南四丁目９番１号,大森東特別出張所 北側入口右側植込,35.5668555,139.7459238
東京都,大田区,19-6,大森南四丁目14番２号,大森南四丁目公園 西側入口横鉄柵,35.5657703,139.7458832
東京都,大田区,19-7,大森南五丁目２番25号,森ヶ崎水再生センター 南西側公園入口横防災倉庫左側フェンス,35.5653942,139.7486033
東京都,大田区,19-8,大森南五丁目２番25号,森ヶ崎水再生センター 事務棟入口右側フェンス,35.5653942,139.7486033
東京都,大田区,20-1,大森東五丁目６番24号,中富小学校 南西側校門右側フェンス,35.569304,139.7413375
東京都,大田区,20-2,大森東五丁目６番24号,中富小学校 東側鉄柵,35.569304,139.7413375
東京都,大田区,20-3,大森東四丁目11番４号,貴船堀公園 南西側入口左側フェンス,35.5694637,139.7397757
東京都,大田区,20-4,大森東四丁目33番９号,旧呑川緑地 植栽地（茨田様宅前）,35.56575770000001,139.7389853
東京都,大田区,20-5,大森東四丁目35番１号,弁天神社 北側鉄柵,35.5667844,139.7370773
東京都,大田区,20-6,大森東五丁目18番２号,アクト建機㈱ 西側塀,35.5691241,139.7429664
東京都,大田区,20-7,大森東五丁目１番 先,貴船堀公園 フェンス遊技場前鉄柵,35.5697872,139.740135
東京都,大田区,20-8,大森東五丁目37番 先,旧呑川緑地 植込,35.5680418,139.7437775
東京都,大田区,21-1,大森東三丁目１番18号,大森第一小学校 東側植込,35.5703699,139.7354631
東京都,大田区,21-2,大森東三丁目１番18号,大森第一小学校 西側植込,35.5703699,139.7354631
東京都,大田区,21-3,大森東三丁目13番 先,貴船堀公園 北東側入口左側フェンス,35.5704486,139.7390971
東京都,大田区,21-4,大森東三丁目16番 先,貴船堀公園 北側鉄柵,35.5708339,139.7391648
東京都,大田区,21-5,大森東三丁目28番１号,アコーディア・ガーデン 東京ベイ 北側万年塀,35.5734875,139.7389807
東京都,大田区,21-6,大森東四丁目１番１号,大森東中学校 北側正門左側フェンス,35.5685843,139.73671
東京都,大田区,21-7,大森中一丁目５番１号,大森山谷公園 北西側植込,35.571339,139.733569
東京都,大田区,21-8,大森中一丁目22番６号,大森中川端児童公園 南側入口横植込,35.5687054,139.7351057
東京都,大田区,21-9,大森中二丁目３番６号,北側ブロック塀,35.5673845,139.7305557
東京都,大田区,22-1,大森東一丁目29番１号,大森東小学校 正門右側フェンス,35.5756291,139.7387031
東京都,大田区,22-2,大森東一丁目13番８号,美原児童公園 南側鉄柵,35.5761866,139.737725
東京都,大田区,22-3,大森東一丁目29番１号,大森東小学校 南側フェンス,35.5756291,139.7387031
東京都,大田区,22-4,大森東一丁目30番１号,都堀公園 西側入口左側植込,35.5778034,139.7383886
東京都,大田区,22-5,大森東一丁目31番１号,シティコープ大森東１号棟 入口植込,35.57816940000001,139.7388427
東京都,大田区,22-6,大森東一丁目34番1号,東京都下水道局大森東ポンプ所 北側フェンス,35.5761666,139.74187
東京都,大田区,22-7,大森東一丁目36番９号,大森東一丁目第二公園 西側植込,35.5753246,139.7399753
東京都,大田区,22-8,平和島五丁目３番１号,㈱住友倉庫東京支店 西側フェンス,35.5789693,139.7428269
東京都,大田区,23-1,大森本町一丁目10番５号,大森第五小学校 北側校門フェンス,35.5820551,139.7377101
東京都,大田区,23-2,大森本町一丁目６番１号先,八幡橋児童公園 北側植込,35.58574309999999,139.736916
東京都,大田区,23-3,大森本町一丁目８番 先,平和島入口児童遊園 南側鉄柵,35.5837194,139.7375404
東京都,大田区,23-4,大森本町二丁目２番５号,大森スポーツセンター 北側コンクリート塀,35.5809468,139.7373408
東京都,大田区,23-5,大森本町二丁目16番 先,区道 植込（サンコー商事管理駐車場前）,35.579451,139.7374606
東京都,大田区,23-6,大森本町二丁目23番１号,都堀公園 南側フェンス,35.5786178,139.7379795
東京都,大田区,23-7,平和島二丁目１番 先,日本自動車ターミナル㈱京浜事業部 入口左側フェンス,35.5874638,139.7437636
東京都,大田区,23-8,平和島四丁目２番２号,平和島公園（野球場）西側入口左側植込,35.5816876,139.7419676
東京都,大田区,24-1,大森西二丁目26番３号,開桜小学校 正門右側フェンス,35.5759289,139.7310246
東京都,大田区,24-2,大森西二丁目26番３号,開桜小学校 東側校門左側フェンス,35.5759289,139.7310246
東京都,大田区,24-3,大森西二丁目５番２号,㈱イズミック 東側万年塀,35.5780634,139.7319042
東京都,大田区,24-4,大森西二丁目16番２号,こらぼ大森 北側フェンス,35.5768376,139.730045
東京都,大田区,24-5,大森西二丁目25番 先,大森西二丁目第二児童公園 北側フェンス,35.575714,139.7305557
東京都,大田区,24-6,大森西三丁目20番先,ほのぼの通り 西側ガードレール,35.5726332,139.730984
東京都,大田区,24-7,大森西三丁目３番 先,内川 フェンス（大田福祉作業所前）,35.5747244,139.7302364
東京都,大田区,24-8,大森西三丁目４番19号,大森西交通公園 南側植込,35.5743485,139.7313538
東京都,大田区,25-1,大森西二丁目21番１号,大森第八中学校 南側フェンス,35.5758704,139.727061
東京都,大田区,25-2,大森西二丁目21番１号,大森第八中学校 北側鉄柵（大森西保育園前）,35.5758704,139.727061
東京都,大田区,25-3,大森西一丁目８番６号,おおもり園 北側コンクリート塀,35.5786318,139.7269243
東京都,大田区,25-4,大森西一丁目16番18号 先,内川 フェンス（特別養護老人ホーム大森前）,35.5757043,139.7252479
東京都,大田区,25-5,大森西四丁目３番３号,内川 フェンス（アルページュ大森前）,35.5750004,139.7229813
東京都,大田区,25-6,大森西二丁目22番２号,三和公園 西側フェンス,35.5759336,139.7284141
東京都,大田区,25-7,大森西三丁目２番２号,富士見橋保育園 南側フェンス,35.5743871,139.7283965
東京都,大田区,25-8,大森西三丁目２番 先,内川 フェンス（大森学園高等学校前）,35.5747385,139.7284804
東京都,大田区,26-1,大森西五丁目22番18号,大森第三小学校 北側鉄柵,35.5707729,139.7258742
東京都,大田区,26-2,大森西五丁目22番18号,大森第三小学校 南側植込,35.5707729,139.7258742
東京都,大田区,26-3,大森西四丁目13番11号,大森西第二保育園 入口右側フェンス,35.5728049,139.7221352
東京都,大田区,26-4,大森西五丁目２番12号,大森三輪公園 東側植込,35.5720397,139.7264052
東京都,大田区,26-5,大森西五丁目14番３号,谷戸児童公園 西側鉄柵,35.5696099,139.7298373
東京都,大田区,26-6,大森西六丁目12番１号,鶴渡公園 北側鉄柵,35.5683683,139.7251281
東京都,大田区,26-7,大森西七丁目１番４号,邦西ふれあい児童公園 東側植込,35.5711896,139.7202236
東京都,大田区,26-8,大森西五丁目22番18号,大森第三小学校 西側フェンス,35.5707729,139.7258742
東京都,大田区,26-9,大森西四丁目10番19号,大森西四丁目公園 西側鉄柵,35.5730487,139.723482
東京都,大田区,27-1,大森北六丁目18番１号,大森第二中学校 北側鉄柵,35.5799788,139.7315949
東京都,大田区,27-2,大森北二丁目８番５号,清花公園 南側植込,35.5854716,139.7334453
東京都,大田区,27-3,大森北二丁目18番２号,大森北公園 東側植込,35.5869589,139.7355332
東京都,大田区,27-4,大森北六丁目32番12号,大森神社 社務所前石柵,35.5804522,139.7356083
東京都,大田区,27-5,大森北三丁目18番25号,最徳寺 北側ブロック塀,35.5833888,139.7307153
東京都,大田区,27-6,大森北三丁目25番２号,大森北保育園 東側フェンス,35.5833888,139.7307153
東京都,大田区,27-7,大森北六丁目18番１号,大森第二中学校 西側コンクリート塀,35.5799788,139.7315949
東京都,大田区,27-8,大森北六丁目４番８号,入新井第五小学校 東側フェンス,35.581229,139.7334992
東京都,大田区,27-9,大森北三丁目５番13号,密厳院 西側万年塀,35.5808062,139.7255272
東京都,大田区,28-1,大森北四丁目６番７号,入新井第一小学校 東側校門左側フェンス,35.5841866,139.7272432
東京都,大田区,28-2,大森北四丁目６番７号,入新井第一小学校 南側フェンス,35.5841866,139.7272432
東京都,大田区,28-3,大森北一丁目１番 先,ＪＲ大森駅東口広場 植込（寿司屋前）,35.5880763,139.7293235
東京都,大田区,28-4,大森北一丁目３番 先,区道 緑地南側植込,35.587463,139.7288795
東京都,大田区,28-5,大森北一丁目26番 先,森っ子広場 南側植込,35.5849667,139.7292786
東京都,大田区,28-6,大森北三丁目24番25号,大森北三丁目梅の花児童公園 西側植込,35.5833888,139.7307153
東京都,大田区,28-7,大森北四丁目27番３号,入新井西公園 東側鉄柵,35.5852351,139.7260759
東京都,大田区,28-8,大森北四丁目15番19号,みどり石川児童公園 植込,35.5825547,139.7285004
東京都,大田区,28-9,大森北五丁目3番11号,入三西公園 南側植込,35.5815397,139.725208
東京都,大田区,29-1,山王一丁目26番33号,山王小学校 北東側鉄柵,35.5918628,139.7256828
東京都,大田区,29-2,山王一丁目26番33号,山王小学校 南側鉄柵,35.5918628,139.7256828
東京都,大田区,29-3,山王一丁目５番14号,みこころ児童公園 東側植込,35.59162250000001,139.7265962
東京都,大田区,29-4,山王一丁目41番21号,蘇峰公園 表門入口左側鉄柵,35.5932715,139.7211177
東京都,大田区,29-5,山王三丁目25番１号,サンサン根岸児童公園 東側鉄柵,35.5848007,139.7230231
東京都,大田区,29-6,山王二丁目８番,大森駅西口自転車駐輪場,35.5888245,139.7267244
東京都,大田区,29-7,山王三丁目32番６号,山王公園 東側鉄柵,35.5874014,139.7248987
東京都,大田区,29-8,山王三丁目37番６号,サンサン児童公園 南側フェンス,35.5859911,139.723464
東京都,大田区,29-9,山王四丁目23番５号,弁天池児童遊園 入口北側鉄柵,35.5878641,139.7209729
東京都,大田区,30-1,南馬込三丁目10番１号,馬込第二小学校 正門左側フェンス,35.5873345,139.7174223
東京都,大田区,30-2,南馬込二丁目９番１号,きたのこばと児童公園 西側植込,35.5908143,139.7161249
東京都,大田区,30-3,南馬込二丁目26番30号,馬込東中学校 東側コンクリート塀,35.5897345,139.7174134
東京都,大田区,30-4,南馬込二丁目26番30号,馬込東中学校 北側コンクリート塀,35.5897345,139.7174134
東京都,大田区,30-5,南馬込三丁目24番１号,大倉山公園 北側石垣,35.5855651,139.7186301
東京都,大田区,30-6,南馬込三丁目29番１号,都営南馬込三丁目アパート 西側植込,35.5839042,139.7177696
東京都,大田区,30-7,南馬込四丁目26番５号,南馬込中和児童公園入口植込,35.5858724,139.7136361
東京都,大田区,30-8,南馬込四丁目29番１号,馬込郵政宿舎 北東側植込,35.5872558,139.7140651
東京都,大田区,31-1,南馬込一丁目34番１号,馬込小学校 南側校門左側フェンス,35.5913103,139.7113125
東京都,大田区,31-2,南馬込一丁目９番３号,南馬込一丁目児童公園 南側フェンス,35.5939671,139.7132372
東京都,大田区,31-3,南馬込一丁目13番６号,たぬき山公園 北側植込,35.5927195,139.7150925
東京都,大田区,31-4,南馬込一丁目40番11号,しんめい児童公園 西側フェンス,35.5911849,139.7130231
東京都,大田区,31-5,南馬込五丁目２番10号,長遠寺 南側鉄製柵（毛利ハイツ馬込前）,35.5912015,139.7098057
東京都,大田区,31-6,南馬込五丁目11番13号,郷土博物館 入口右側コンクリート塀,35.5885412,139.7106382
東京都,大田区,31-7,南馬込一丁目34番１号,馬込小学校 北側校門左側フェンス,35.5913103,139.7113125
東京都,大田区,31-8,南馬込一丁目34番１号,馬込小学校 東側フェンス,35.5913103,139.7113125
東京都,大田区,32-1,北馬込一丁目28番１号,馬込第三小学校 正門左側フェンス,35.5987766,139.7071328
東京都,大田区,32-2,北馬込一丁目28番１号,馬込第三小学校 北側フェンス,35.5987766,139.7071328
東京都,大田区,32-3,北馬込一丁目７番 先,北馬込わくわく公園 西側フェンス,35.6010405,139.7027846
東京都,大田区,32-4,北馬込一丁目28番１号,馬込第三小学校 西側フェンス,35.5987766,139.7071328
東京都,大田区,32-5,北馬込二丁目38番６号,馬込三本松児童公園,35.5985458,139.7117868
東京都,大田区,32-6,北馬込二丁目５番５号,宗福寺駐車場 南側フェンス,35.5990058,139.7096065
東京都,大田区,32-7,北馬込一丁目７番 先,北馬込わくわく公園 東側トイレ前植込み,35.6010405,139.7027846
東京都,大田区,32-8,中馬込一丁目６番５号,馬込浅間西児童公園,35.5970733,139.7058863
東京都,大田区,32-9,北馬込二丁目14番7号,北馬込寺郷公園 東側,35.5974931,139.7092574
東京都,大田区,33-1,中馬込三丁目13番１号,貝塚中学校 北側校門左側鉄柵,35.5939541,139.7051317
東京都,大田区,33-2,中馬込一丁目19番１号,地域包括支援センター馬込 正門右側鉄柵,35.5946843,139.7047394
東京都,大田区,33-3,中馬込三丁目25番５号,馬込特別出張所 北側塀,35.5940042,139.7099202
東京都,大田区,33-4,中馬込三丁目11番10号,都立大田桜台高等学校 東側ブロック塀,35.5924062,139.7035645
東京都,大田区,33-5,中馬込三丁目13番１号,貝塚中学校 南側鉄柵,35.5939541,139.7051317
東京都,大田区,33-6,中馬込三丁目29番７号,まごめばし児童公園 東側入口左側鉄柵,35.5931657,139.7105241
東京都,大田区,33-7,西馬込一丁目９番21号,馬込二本木公園 東側コンクリート擁壁,35.59125400000001,139.706842
東京都,大田区,33-8,西馬込一丁目27番12号,馬込ゆりの木公園 南側植込,35.5892174,139.7046197
東京都,大田区,33-9,中馬込三丁目13番１号,貝塚中学校 西側フェンス,35.5939541,139.7051317
東京都,大田区,34-1,南馬込六丁目６番１号,梅田小学校 体育館入口左側フェンス,35.5839409,139.7070446
東京都,大田区,34-2,南馬込四丁目９番15号,ひばり児童遊園前鉄柵植込,35.5853961,139.709407
東京都,大田区,34-3,南馬込六丁目17番５号 先,馬込桜並木通り 柵（グリーンパークＭＫ前）,35.5842754,139.7115116
東京都,大田区,34-4,南馬込六丁目38番１号,東京都交通局馬込車両基地 入口右側フェンス,35.5841627,139.7052258
東京都,大田区,34-5,西馬込二丁目８番15号,馬込西公園 グラウンド入口右側植込,35.5883597,139.7031905
東京都,大田区,34-6,西馬込二丁目18番６号,西馬込駅前第二駐輪場(区営) 南西側鉄柵,35.587088,139.7032035
東京都,大田区,34-7,西馬込二丁目35番６号,馬込中学校 北側校門左側フェンス,35.5842472,139.7024576
東京都,大田区,34-8,南馬込六丁目６番１号,梅田小学校 北側フェンス,35.5839409,139.7070446
東京都,大田区,34-9,南馬込五丁目18番３号,こうま児童公園 東側フェンス,35.5884176,139.7085293
東京都,大田区,35-1,池上一丁目32番８号,池上会館 入口植込,35.577179,139.7063878
東京都,大田区,35-2,池上一丁目30番14号 先,呑川 フェンス（浄国橋北東側）,35.5755369,139.7092225
東京都,大田区,35-3,池上二丁目２番13号,池上梅園 西側鉄柵,35.5816215,139.702704
東京都,大田区,35-4,池上一丁目33番８号,池上小学校 東側校門右側鉄柵,35.5765585,139.7058585
東京都,大田区,35-5,池上三丁目２番９号 先,呑川 フェンス（谷築橋北西側）,35.5774588,139.7012089
東京都,大田区,35-6,池上一丁目11番１号,本門寺公園,35.5789249,139.7074122
東京都,大田区,35-7,池上三丁目38番17号,徳持神社 北側ブロック塀,35.5731935,139.6996991
東京都,大田区,35-8,池上四丁目20番６号 先,呑川 フェンス（イースタンパレス池上前）,35.5756507,139.7045886
東京都,大田区,35-9,池上一丁目15番１号,大森第四中学校 正門左側フェンス,35.5778439,139.7090138
東京都,大田区,36-1,池上七丁目18番１号,徳持小学校 北側体育館前フェンス,35.5697782,139.7007402
東京都,大田区,36-2,池上七丁目18番１号,徳持小学校 南側校門右側フェンス,35.5697782,139.7007402
東京都,大田区,36-3,池上七丁目18番１号,徳持小学校 西側フェンス,35.5697782,139.7007402
東京都,大田区,36-4,池上六丁目40番３号,池上福祉園 東側植込,35.5678398,139.7056277
東京都,大田区,36-5,池上六丁目37番７号,池上六丁目児童公園 南側フェンス,35.5676877,139.7033132
東京都,大田区,36-6,池上八丁目13番４号,徳持児童公園 北側鉄柵,35.5694354,139.698656
東京都,大田区,36-7,池上八丁目15番８号,徳持第二児童公園 南側鉄柵,35.5694822,139.6964023
東京都,大田区,36-8,池上八丁目20番10号,徳持公園 北側入口中央植込,35.5679756,139.6971203
東京都,大田区,36-9,池上八丁目22番８号,都営池上八丁目アパート 南側植込,35.5676445,139.698577
東京都,大田区,37-1,中央八丁目９番１号,池上第二小学校 南側校門右側フェンス,35.5737642,139.7132544
東京都,大田区,37-2,中央八丁目９番１号,池上第二小学校 東側校門右側フェンス,35.5737642,139.7132544
東京都,大田区,37-3,中央八丁目５番 先,呑川 フェンス,35.5740334,139.7120402
東京都,大田区,37-4,中央八丁目16番16号 先,呑川 フェンス（東京電力社宅前）,35.5721858,139.7155758
東京都,大田区,37-5,中央八丁目29番４号,中央八丁目児童館 南側フェンス,35.5735183,139.718577
東京都,大田区,37-6,中央八丁目38番１号,区営中央八丁目アパート 北側フェンス（駐輪場前）,35.5729186,139.7191332
東京都,大田区,37-7,中央八丁目24番 先,呑川 フェンス,35.5711599,139.7172272
東京都,大田区,37-8,池上五丁目27番16号,女塚なかよし公園 南西側入口左側鉄柵,35.572876,139.7114816
東京都,大田区,38-1,中央三丁目５番８号,入新井第四小学校 西側校門右側フェンス,35.57761989999999,139.7167982
東京都,大田区,38-2,中央三丁目５番８号,入新井第四小学校 正門横フェンス,35.57761989999999,139.7167982
東京都,大田区,38-3,中央三丁目31番３号,さくらコート前植木,35.575313,139.7206829
東京都,大田区,38-4,中央三丁目16番９号,新井宿観音堂前植木,35.5758509,139.718655
東京都,大田区,38-5,中央三丁目２番２号,株式会社ＯＪＫの前あたり道路,35.5784981,139.7182047
東京都,大田区,38-6,中央三丁目33番６号,さくら通り三丁目公園 入口,35.5742148,139.7204392
東京都,大田区,38-7,中央三丁目５番８号,入新井第四小学校 観音通り側フェンス,35.57761989999999,139.7167982
東京都,大田区,38-8,中央七丁目15番15号,市野倉南児童公園 公園内植込,35.574934,139.7150576
東京都,大田区,39-1,中央四丁目12番８号,大森第三中学校 正門右側フェンス,35.5806571,139.7156266
東京都,大田区,39-2,中央四丁目12番８号,大森第三中学校 南西側植込,35.5806571,139.7156266
東京都,大田区,39-3,中央四丁目26番12号,グランメゾン市野倉 西側フェンス,35.5780294,139.7151845
東京都,大田区,39-4,中央五丁目30番15号,佐伯山緑地,35.5811425,139.714473
東京都,大田区,39-5,中央五丁目14番１号,中央五丁目公園 北側植込,35.5814268,139.7121499
東京都,大田区,39-6,中央五丁目30番15号,佐伯山緑地 東門横フェンス,35.5811425,139.714473
東京都,大田区,39-7,中央六丁目27番３号,東急バス 池上営業所 車庫裏万年塀,35.5769142,139.7146137
東京都,大田区,39-8,南馬込四丁目49番11号,龍子公園 西側塀,35.5828767,139.7161897
東京都,大田区,40-1,中央二丁目15番１号,入新井第二小学校 西側柵,35.5788826,139.7211775
東京都,大田区,40-2,中央一丁目21番6号,新井宿特別出張所 西側植込,35.579712,139.7196588
東京都,大田区,40-3,中央一丁目14番１号,春日神社 鳥居左側石柵,35.58144,139.7204818
東京都,大田区,40-4,中央二丁目15番１号,入新井第二小学校 南側フェンス,35.5788826,139.7211775
東京都,大田区,40-5,大森西一丁目２番８号,コトー大森 西側入口左側塀,35.5800803,139.7242652
東京都,大田区,40-6,大森西一丁目12番14号,大森西一丁目児童公園 東側鉄柵,35.57765120000001,139.7229632
東京都,大田区,40-7,大森西四丁目２番19号,新井宿七丁目児童公園 西側植込,35.5745265,139.7217126
東京都,大田区,40-8,山王三丁目14番14号,東京ガスライフバル東大田 北西側フェンス,35.5821749,139.7220806
東京都,大田区,40-9,中央二丁目15番１号,入新井第二小学校 東側柵,35.5788826,139.7211775
東京都,大田区,41-1,東蒲田一丁目19番25号,東蒲小学校 北側フェンス,35.5635482,139.7290691
東京都,大田区,41-2,東蒲田一丁目19番25号,東蒲小学校 東側フェンス,35.5635482,139.7290691
東京都,大田区,41-3,東蒲田二丁目38番,東蒲中南側呑川 護岸壁,35.5609997,139.7289593
東京都,大田区,41-4,東蒲田二丁目38番１号,東蒲中学校 北東側塀,35.5612066,139.7294083
東京都,大田区,41-5,東蒲田二丁目38番１号,東蒲中学校 西側校門右側フェンス,35.5612066,139.7294083
東京都,大田区,41-6,東蒲田二丁目16番 先,旧呑川緑地 北側植込（東蒲田二丁目側）,35.5620861,139.7302364
東京都,大田区,41-7,大森中三丁目18番 先,旧呑川緑地 北側植込（大森中三丁目側）,35.5650579,139.7340679
東京都,大田区,41-8,大森中三丁目32番 先,旧呑川緑地 植込,35.5631653,139.7323916
東京都,大田区,42-1,南蒲田一丁目12番11号,南蒲小学校 北側正門右側フェンス,35.55800139999999,139.7267643
東京都,大田区,42-2,南蒲田一丁目12番11号,南蒲小学校 南側校門右側フェンス,35.55800139999999,139.7267643
東京都,大田区,42-3,南蒲田一丁目１番25号 先,呑川護岸壁（夫婦橋親水公園北西側）,35.5608957,139.724768
東京都,大田区,42-4,南蒲田一丁目17番14号,南一児童公園 南側植込,35.5578685,139.7254474
東京都,大田区,42-5,西糀谷一丁目12番20号,南蒲公園南側植込,35.558251,139.7281711
東京都,大田区,42-6,南蒲田二丁目11番３号,南二児童公園 北側植込,35.5562713,139.7235568
東京都,大田区,42-7,南蒲田一丁目20番20号,大田区産業プラザPiO南側植込,35.5588185,139.7240974
東京都,大田区,42-8,西糀谷一丁目12番１号,安泰寺 北側石塀,35.5589441,139.7280414
東京都,大田区,42-9,西糀谷四丁目12番 先,糀谷駅自転車駐車場 北東側植込,35.5552146,139.7290391
東京都,大田区,43-1,蒲田二丁目10番１号,北蒲広場 西側鉄柵,35.5660346,139.7255632
東京都,大田区,43-2,蒲田二丁目10番１号,北蒲広場 東側門右側フェンス,35.5660346,139.7255632
東京都,大田区,43-3,蒲田二丁目10番１号,北蒲広場 南側フェンス,35.5660346,139.7255632
東京都,大田区,43-4,蒲田三丁目18番２号 先,呑川 護岸壁（仲之橋東側）,35.5625072,139.7216553
東京都,大田区,43-5,蒲田三丁目25番６号,聖跡蒲田梅屋敷公園 入口右側植込,35.5649697,139.7272127
東京都,大田区,43-6,蒲田三丁目19番 先,呑川 護岸壁（蒲三アイリス児童公園前）,35.5624303,139.7232127
東京都,大田区,43-7,蒲田二丁目16番19号,蒲田二丁目児童公園 南側フェンス,35.5668056,139.7237757
東京都,大田区,43-8,蒲田四丁目17番 先,京浜蒲田公園内 南側植込,35.5610929,139.7222948
東京都,大田区,44-1,蒲田一丁目30番１号,蒲田小学校 北側鉄柵,35.5636803,139.7211027
東京都,大田区,44-2,蒲田一丁目30番１号,蒲田小学校 南側校門右側鉄柵,35.5636803,139.7211027
東京都,大田区,44-3,蒲田一丁目４番23号,本蒲田保育園 鉄柵,35.5679315,139.7217219
東京都,大田区,44-4,蒲田一丁目７番２号,蒲田一丁目公園 西側植込,35.567204,139.7209481
東京都,大田区,44-5,蒲田一丁目12番５号,蒲田中学校 正門左側植込,35.5657098,139.7188332
東京都,大田区,44-6,蒲田一丁目12番５号,蒲田中学校 グラウンド南側フェンス,35.5657098,139.7188332
東京都,大田区,44-7,蒲田一丁目30番１号,蒲田小学校 西側鉄柵,35.5636803,139.7211027
東京都,大田区,44-8,蒲田一丁目28番10号,呑川（ベルメゾン蒲田前）,35.5642847,139.7186534
東京都,大田区,45-1,蒲田本町一丁目５番１号,新宿小学校 西側フェンス（歩道橋横）,35.5572406,139.7159104
東京都,大田区,45-2,蒲田本町一丁目５番１号,新宿小学校 東側校門右側フェンス,35.5572406,139.7159104
東京都,大田区,45-3,蒲田本町二丁目３番６号,本二北児童公園 東側植込,35.5581188,139.7203395
東京都,大田区,45-4,蒲田本町二丁目10番11号,本二児童公園 東側鉄柵,35.5568731,139.7193819
東京都,大田区,45-5,蒲田本町一丁目１番５号,蒲田本町一丁目公園 植込,35.5575087,139.7158145
東京都,大田区,45-6,蒲田四丁目35番１号,仲蒲田公園 西側植込,35.5592318,139.7207535
東京都,大田区,45-7,蒲田五丁目13番14号,大田区役所本庁舎 東側植込,35.5613247,139.7159766
東京都,大田区,45-8,蒲田本町二丁目30番７号,蒲田本町二丁目公園 東側フェンス,35.556847,139.720884
東京都,大田区,46-1,北糀谷二丁目２番５号,北糀谷小学校 東側校門右側フェンス,35.5631737,139.7339582
東京都,大田区,46-2,北糀谷二丁目２番５号,北糀谷小学校 西側校門右側コンクリート塀,35.5631737,139.7339582
東京都,大田区,46-3,北糀谷一丁目１番16号,区営北糀谷一丁目アパート16号棟 南側鉄柵,35.5651613,139.7358041
東京都,大田区,46-4,北糀谷一丁目21番10号 先,呑川フェンス（東京バイオテクノロジー専門学校前）,35.561181,139.7366607
東京都,大田区,46-5,北糀谷二丁目13番 先,呑川フェンス（麻賀製作所前）,35.5610023,139.7318328
東京都,大田区,46-6,西糀谷一丁目６・７番 先,呑川フェンス,35.5602685,139.7321521
東京都,大田区,46-7,大森南一丁目３番７号,旧呑川緑地 南側入口右側,35.5651372,139.7379396
東京都,大田区,46-8,大森南一丁目24番６号 先,大森南一丁目公園 北側植込,35.5612754,139.7379915
東京都,大田区,47-1,西糀谷三丁目13番21号,糀谷小学校 南東側校門右側鉄柵,35.5554224,139.7343401
東京都,大田区,47-2,西糀谷三丁目13番21号,糀谷小学校 北側正門左側鉄柵,35.5554224,139.7343401
東京都,大田区,47-3,西糀谷一丁目17番19号,仲江名公園 南側植込,35.5580923,139.7324116
東京都,大田区,47-4,西糀谷二丁目14番14号,西糀谷さざんか公園 南側入口左側植込,35.5586714,139.7366124
東京都,大田区,47-5,西糀谷二丁目26番７号,糀谷児童館 東側フェンス,35.557432,139.737261
東京都,大田区,47-6,西糀谷三丁目４番13号,西糀谷三丁目児童公園 西側鉄柵,35.5566643,139.7353451
東京都,大田区,47-7,西糀谷三丁目19番18号,天祖神社 西側入口左側フェンス,35.5547683,139.738209
東京都,大田区,47-8,西糀谷三丁目６番23号,糀谷中学校 北側コンクリート塀,35.556339,139.7365655
東京都,大田区,47-9,西糀谷三丁目６番23号,糀谷中学校 東側校門左側コンクリート塀,35.556339,139.7365655
東京都,大田区,48-1,東糀谷五丁目18番23号,東糀谷小学校 西側フェンス,35.5586381,139.7444002
東京都,大田区,48-2,東糀谷一丁目４番10号,東糀谷一丁目公園 東側入口左側鉄柵,35.5602046,139.7404952
東京都,大田区,48-3,東糀谷一丁目19番20号,東糀谷一丁目児童公園 西側植込,35.5577392,139.7416596
東京都,大田区,48-4,東糀谷四丁目１番７号,東糀谷児童館 東側鉄柵,35.556962,139.743528
東京都,大田区,48-5,東糀谷四丁目10番12号 先,南前掘緑地 北側植込,35.5541736,139.7433583
東京都,大田区,48-6,東糀谷五丁目３番12号,東糀谷五丁目公園 南側植込,35.5606304,139.7452445
東京都,大田区,48-7,東糀谷五丁目14番 先,北前堀緑地 南側植込,35.5590419,139.7446856
東京都,大田区,48-8,東糀谷四丁目５番１号,東糀谷防災公園 北側植込,35.556369,139.7457236
東京都,大田区,49-1,羽田旭町７番１号,コミュニティセンター羽田旭 西側フェンス,35.5536316,139.7473112
東京都,大田区,49-2,羽田旭町２番 先,都道首都高速１号線高架下 東側フェンス,35.55281,139.746522
東京都,大田区,49-3,羽田５丁目５番先,武蔵野の路植込（区道）,35.55035540000001,139.7525903
東京都,大田区,49-4,羽田旭町16番５号,東京都下水道局南部下水道事務所羽田ポンプ所 南側塀,35.5509589,139.7520958
東京都,大田区,49-5,東糀谷三丁目９番２号 先,南前堀緑地 南側植込,35.5535837,139.7425951
東京都,大田区,49-6,東糀谷三丁目15番６号 先,南前堀緑地 南側植込,35.5537579,139.7452345
東京都,大田区,49-7,羽田一丁目４番１号,京浜急行バス㈱羽田営業所 北側万年塀,35.55154479999999,139.7446374
東京都,大田区,49-8,羽田５丁目６番先,武蔵野の路植込（区道）,35.5498122,139.7519515
東京都,大田区,49-9,羽田五丁目２番７号,穴守稲荷神社駐車場 南側石塀,35.5506482,139.7500252
東京都,大田区,50-1,羽田三丁目３番14号,羽田小学校 南側正門右側植込,35.5482385,139.7465419
東京都,大田区,50-2,羽田三丁目３番14号,羽田小学校 南側フェンス,35.5482385,139.7465419
東京都,大田区,50-3,羽田三丁目27番 先,都道高速横浜羽田空港線高架下 羽田（3）駐車場東側フェンス,35.5455209,139.7435679
東京都,大田区,50-4,羽田六丁目９番 先,武蔵野の路 植込,35.5467069,139.7515522
東京都,大田区,50-5,羽田五丁目15番 先,武蔵野の路 植込,35.5486628,139.7519515
東京都,大田区,50-6,羽田五丁目12番16号,羽田五丁目児童公園 西側植込,35.5493121,139.7498728
東京都,大田区,50-7,羽田三丁目７番12号,羽田三丁目ひろば児童公園 南側フェンス,35.5471578,139.7446058
東京都,大田区,50-8,羽田四丁目18番12号,六間堀仲羽公園 西側植込,35.5489275,139.7447018
東京都,大田区,51-1,本羽田三丁目４番22号,萩中小学校 北東側校門左側コンクリート塀,35.5489668,139.7387496
東京都,大田区,51-2,本羽田三丁目11番５号,都立つばさ総合高等学校正門左側植込,35.5473626,139.7394579
東京都,大田区,51-3,本羽田三丁目15番２号,都南小学校 南側校門右側鉄柵,35.5468652,139.7355148
東京都,大田区,51-4,本羽田三丁目17番20号,区営本羽田三丁目アパート 西側フェンス,35.5483155,139.7338842
東京都,大田区,51-5,本羽田三丁目23番 先,本羽田公園 南側フェンス,35.5460991,139.7369417
東京都,大田区,51-6,羽田二丁目６番 先,羽田西前公園 西側フェンス,35.5479633,139.7435679
東京都,大田区,51-7,萩中三丁目７番１号,サンシマダ商事駐車場 西側万年塀,35.552094,139.7398471
東京都,大田区,51-8,萩中三丁目26番46号,萩中公園 西側植込（右側植え込みに移す）,35.5504603,139.7389973
東京都,大田区,52-1,萩中二丁目10番11号,大田生活実習所 西側フェンス,35.5507648,139.7305064
東京都,大田区,52-2,萩中一丁目５番18号,萩中神社 東側ブロック塀,35.552317,139.7277845
東京都,大田区,52-3,萩中二丁目14番１号,中萩中小学校 南西側鉄柵,35.5505188,139.7314687
東京都,大田区,52-4,萩中二丁目３番２号,サンライフ南蒲田 北側フェンス,35.5527863,139.7313415
東京都,大田区,52-5,萩中二丁目14番１号,中萩中小学校 正門右側鉄柵,35.5505188,139.7314687
東京都,大田区,52-6,本羽田一丁目６番２号,本羽田本町公園 北側鉄柵,35.5487468,139.7286323
東京都,大田区,52-7,本羽田二丁目８番12号,本羽田第二児童公園 東側入口右側植込,35.5468834,139.730775
東京都,大田区,52-8,本羽田二丁目10番15号,本羽田第三公園 南側鉄柵,35.5474371,139.73311
東京都,大田区,52-9,本羽田二丁目12番１号,本羽田二丁目第２工場アパート（テクノウイング）北東側広場前植込,35.5464545,139.7319127
東京都,大田区,53-1,本羽田一丁目２番４号,出雲小学校 正門右側鉄柵,35.5500688,139.7259662
東京都,大田区,53-2,本羽田一丁目２番４号,出雲小学校 南側校門右側鉄柵,35.5500688,139.7259662
東京都,大田区,53-3,本羽田一丁目14番13号,本羽田一丁目公園 入口右側植込,35.5479252,139.7251648
東京都,大田区,53-4,萩中一丁目２番１号,萩中保育園 北側植込,35.5524412,139.7239228
東京都,大田区,53-5,南六郷一丁目10番３号,いずも保育園 南東側フェンス,35.5492749,139.7216564
東京都,大田区,53-6,南六郷一丁目25番９号,南六郷一丁目児童公園 南側フェンス,35.5469182,139.7232127
東京都,大田区,53-7,南六郷一丁目33番１号,南六郷保育園 東側鉄柵,35.5452911,139.7252787
東京都,大田区,53-8,南蒲田二丁目17番１号,住宅供給公社コーシャハイム南蒲田１号棟 入口スロープ前植込,35.5548066,139.7241382
東京都,大田区,53-9,本羽田一丁目２番４号,出雲小学校 西側鉄柵,35.5500688,139.7259662
東京都,大田区,54-1,東六郷二丁目３番１号,東六郷小学校 南西側植込,35.5507017,139.7181489
東京都,大田区,54-2,東六郷二丁目３番１号,東六郷小学校 正門右側植込,35.5507017,139.7181489
東京都,大田区,54-3,東六郷一丁目12番11号,大田ナーシングホーム翔裕園 北東側植込,35.5538217,139.7196452
東京都,大田区,54-4,東六郷一丁目13番25号,東六郷保育園 南側フェンス,35.5525981,139.71894
東京都,大田区,54-5,東六郷一丁目17番８号,㈱永谷園 正面左側植込（七辻通り側）,35.5513594,139.7212484
東京都,大田区,54-6,東六郷二丁目18番２号,都立六郷工科高等学校 第一京浜側植込柵,35.5489451,139.715661
東京都,大田区,54-7,東六郷二丁目18番19号,都立城南特別支援学校 プール前フェンス,35.5472606,139.716878
東京都,大田区,54-8,東六郷二丁目18番19号,都立城南特別支援学校 南西側鉄柵,35.5472606,139.716878
東京都,大田区,55-1,南六郷三丁目７番１号,南六郷小学校 正門右側植込,35.5449129,139.7161498
東京都,大田区,55-2,南六郷二丁目35番１号,ＵＲ都市機構南六郷二丁目団地 駐車場前植込,35.5448995,139.720863
東京都,大田区,55-3,南六郷二丁目35番９号 先,南六郷緑地 西側植込,35.5448824,139.722224
東京都,大田区,55-4,南六郷三丁目２番１号,南六郷中学校 東側フェンス,35.5463098,139.7167102
東京都,大田区,55-5,南六郷三丁目２番１号,南六郷中学校 正門右側フェンス,35.5463098,139.7167102
東京都,大田区,55-6,南六郷三丁目7番1号,南六郷小学校南西植込み,35.5449129,139.7161498
東京都,大田区,55-7,南六郷三丁目18番２号,南六郷三丁目児童館 西側植込,35.5445527,139.7180451
東京都,大田区,55-8,南六郷二丁目22番２号,トミンハイム南六郷二丁目 北側植込,35.5463282,139.7193093
東京都,大田区,56-1,仲六郷一丁目26番１号,仲六郷小学校 南側フェンス,35.5537551,139.7176611
東京都,大田区,56-2,仲六郷一丁目２番２号,都営仲六郷一丁目アパート２号棟 東側フェンス,35.5552018,139.7134789
東京都,大田区,56-3,仲六郷一丁目６番27号,町屋児童公園 東側鉄柵,35.5548253,139.7142745
東京都,大田区,56-4,仲六郷一丁目12番１号,仲よし児童公園 北側植込,35.5553202,139.7170074
東京都,大田区,56-5,仲六郷二丁目10番,鉄柵、植え込み,35.550937,139.7164937
東京都,大田区,56-6,仲六郷一丁目26番１号,仲六郷小学校 西側植込み,35.5537551,139.7176611
東京都,大田区,56-7,仲六郷二丁目40番１号,区道管理用地 歩道フェンス,35.5490408,139.7141841
東京都,大田区,56-8,仲六郷一丁目26番１号,仲六郷小学校 北側フェンス,35.5537551,139.7176611
東京都,大田区,57-1,東六郷三丁目７番１号,六郷小学校 北門左側鉄柵,35.5452844,139.7137858
東京都,大田区,57-2,東六郷三丁目26番６号,メガロン東六郷 北西側ブロック塀,35.5405349,139.7115512
東京都,大田区,57-3,仲六郷三丁目7番2号,仲六郷三丁目公園東側フェンス,35.5482369,139.7136262
東京都,大田区,57-4,南六郷三丁目15番10号,新産業創造支援施設 南側フェンス,35.543109,139.7165728
東京都,大田区,57-5,南六郷三丁目23番８号,南六郷福祉園 北側植込,35.5417531,139.7143475
東京都,大田区,57-6,仲六郷三丁目11番11号,六郷中学校 正門左側フェンス,35.5483014,139.7106486
東京都,大田区,57-7,仲六郷三丁目14番３号,東京電力パワーグリッド㈱六郷変電所 南側フェンス,35.5469012,139.7127499
東京都,大田区,57-8,仲六郷三丁目30番 先,トウキョウパブリック仲六郷第二駐車場 北東側フェンス,35.547076,139.713687
東京都,大田区,58-1,西六郷三丁目28番23号,高畑小学校 西側正門左側鉄柵,35.5452812,139.7062449
東京都,大田区,58-2,西六郷三丁目16番16号,西六郷三丁目公園 南側鉄柵,35.5465392,139.7053536
東京都,大田区,58-3,西六郷三丁目27番 先,高畑小学校グラウンド 南西側フェンス,35.5454028,139.7072527
東京都,大田区,58-4,西六郷三丁目30番８号,高畑第三児童公園 南側フェンス,35.5453298,139.7049936
東京都,大田区,58-5,西六郷四丁目23番３号,多摩川緑地管理事務所 東側フェンス,35.5407985,139.7050385
東京都,大田区,58-6,西六郷四丁目１番16号,高畑第二児童公園 南側鉄柵,35.544508,139.707025
東京都,大田区,58-7,西六郷三丁目16番16号,西六郷三丁目公園 東側鉄柵,35.5465392,139.7053536
東京都,大田区,58-8,仲六郷四丁目27番11号,京急六郷土手駅 高架下駐輪場フェンス,35.5410298,139.7079209
東京都,大田区,58-9,西六郷四丁目27番14号,西六郷四丁目公園 南西側入口右側植込,35.5416816,139.7043122
東京都,大田区,59-1,西六郷二丁目３番１号,西六郷小学校 北側正門左側フェンス,35.5516241,139.7088884
東京都,大田区,59-2,西六郷二丁目３番１号,西六郷小学校 南側フェンス,35.5516241,139.7088884
東京都,大田区,59-3,西六郷一丁目４番10号,志茂田中学校 南側校門左側フェンス,35.5555374,139.7102206
東京都,大田区,59-4,西六郷一丁目４番10号,志茂田中学校 北西側フェンス,35.5555374,139.7102206
東京都,大田区,59-5,西六郷一丁目６番１号,西六郷タイヤ公園内 南側植込み,35.5528759,139.7114647
東京都,大田区,59-6,西六郷一丁目12番12号,志茂田小学校 南側校門フェンス,35.5542313,139.7090777
東京都,大田区,59-7,西六郷二丁目８番７号,東側大谷石塀,35.551305,139.7067571
東京都,大田区,59-8,西六郷二丁目30番３号,西六郷二丁目児童公園 東側フェンス,35.5498824,139.7067827
東京都,大田区,60-1,西蒲田一丁目19番１号,おなづか小学校 南側正門右側フェンス,35.5702547,139.7132471
東京都,大田区,60-2,西蒲田一丁目19番１号,おなづか小学校 東側校門左側フェンス,35.5702547,139.7132471
東京都,大田区,60-3,西蒲田一丁目４番１号 先,呑川 護岸壁（双流橋南東側）,35.571148,139.7164591
東京都,大田区,60-4,西蒲田一丁目８番22号 先,区道 植込（日蓮橋南東側）,35.5726182,139.7135514
東京都,大田区,60-5,西蒲田一丁目18番７号,西蒲田一丁目児童公園 北側入口右側植込,35.5702756,139.7134109
東京都,大田区,60-6,西蒲田四丁目４番１号,西蒲田大平橋児童公園 北側鉄柵,35.5699536,139.7166586
東京都,大田区,60-7,西蒲田四丁目20番 先,呑川 護岸壁（ソレイユ西蒲田前）,35.5682239,139.7170675
東京都,大田区,60-8,西蒲田四丁目19番 先,呑川 護岸壁（ドミールナカムラ横）,35.5678259,139.7178656
東京都,大田区,61-1,西蒲田二丁目３番１号,蓮沼中学校 東側校門左側フェンス,35.5707621,139.7074422
東京都,大田区,61-2,西蒲田二丁目３番１号,蓮沼中学校 南側校門左側フェンス,35.5707621,139.7074422
東京都,大田区,61-3,西蒲田三丁目13番12号,西蒲田保育園,35.5687313,139.7105796
東京都,大田区,61-4,西蒲田三丁目13番12号,大田区職員西蒲田寮 北側フェンス,35.5687313,139.7105796
東京都,大田区,61-5,西蒲田三丁目19番１号,ふれあいはすぬま 北側フェンス,35.5679459,139.7077584
東京都,大田区,61-6,西蒲田三丁目19番１号,ふれあいはすぬま 南側フェンス,35.5679459,139.7077584
東京都,大田区,61-7,池上五丁目12番17号,東京電力パワーグリッド㈱品川支社大田事務所 駐車場入口右側鉄柵,35.572374,139.7055771
東京都,大田区,61-8,池上五丁目15番18号,池上五丁目公園 西側植込,35.5711149,139.7061406
東京都,大田区,62-1,西蒲田六丁目19番１号,相生小学校 東側正門右側フェンス,35.5654928,139.7120701
東京都,大田区,62-2,西蒲田六丁目19番１号,相生小学校 南西側校門左側フェンス,35.5654928,139.7120701
東京都,大田区,62-3,西蒲田五丁目13番30号 先,呑川 護岸壁（日本工学院２号館前）,35.5656145,139.7164426
東京都,大田区,62-4,西蒲田六丁目13番13号,熊野神社 南側石塀,35.5661912,139.7091623
東京都,大田区,62-5,西蒲田七丁目68番 先,ＪＲ蒲田駅西口 右側植込,35.5625768,139.7157979
東京都,大田区,62-6,西蒲田六丁目26番６号,蓮沼ジュニア児童公園 南側鉄柵,35.5649617,139.7090679
東京都,大田区,62-7,西蒲田七丁目40番８号,御園神社 西側入口左側石柵,35.5631285,139.7106947
東京都,大田区,62-8,西蒲田七丁目１番 先,蒲田交差公園 南側植込,35.5619846,139.7143892
東京都,大田区,62-9,西蒲田五丁目20番８号,西蒲田五丁目青葉児童公園,35.5655162,139.7141918
東京都,大田区,63-1,西蒲田八丁目５番１号,御園中学校 正門左側フェンス,35.5612757,139.7121194
東京都,大田区,63-2,西蒲田八丁目５番１号,御園中学校 南側校門右側フェンス,35.5612757,139.7121194
東京都,大田区,63-3,西蒲田八丁目６番12号,西蒲田公園 西側植込,35.561096,139.7108084
東京都,大田区,63-4,新蒲田一丁目1番先（環八高架下）,区営蒲田駅西口環八下自転車駐車場,35.559492,139.7135563
東京都,大田区,63-5,新蒲田一丁目17番25号,富士通ソリューションスクエア 北側フェンス,35.5580623,139.7131113
東京都,大田区,63-6,新蒲田一丁目７番 先,都道311号線（環状八号線） 歩道植込,35.559285,139.7123432
東京都,大田区,63-7,新蒲田一丁目19番,郵政寮 新蒲田庁舎,35.5577811,139.7103645
東京都,大田区,64-1,新蒲田三丁目３番18号,道塚小学校 南側正門右側フェンス,35.5582487,139.706764
東京都,大田区,64-2,新蒲田三丁目３番18号,道塚小学校 西側フェンス 「道塚小学校」の看板前,35.5582487,139.706764
東京都,大田区,64-3,新蒲田二丁目１番 先,都道311号線（環状八号線） 歩道植込,35.5596317,139.7083099
東京都,大田区,64-4,新蒲田三丁目３番18号,道塚小学校 東側フェンス,35.5582487,139.706764
東京都,大田区,64-5,多摩川二丁目24番43号,タワーふれあい公園 横の植込み,35.55438360000001,139.7033069
東京都,大田区,64-6,新蒲田三丁目27番11号,東京電力パワーグリッド㈱道塚変電所 東側フェンス,35.5555448,139.707743
東京都,大田区,64-7,新蒲田三丁目30番１号,道塚南公園 南側鉄柵,35.5546319,139.707687
東京都,大田区,64-8,新蒲田三丁目32番10号,道塚第三児童公園 南側鉄柵,35.5549525,139.7065346
東京都,大田区,65-1,東矢口三丁目９番20号,矢口東小学校 南側校門左側フェンス,35.5637413,139.7051084
東京都,大田区,65-2,東矢口三丁目９番20号,矢口東小学校 西側校門右側フェンス,35.5637413,139.7051084
東京都,大田区,65-3,東矢口三丁目９番20号,矢口東小学校 東側フェンス,35.5637413,139.7051084
東京都,大田区,65-4,東矢口二丁目１番１号,安方中学校 東側フェンス,35.5667333,139.7016967
東京都,大田区,65-5,東矢口二丁目１番１号,安方中学校 西側フェンス,35.5667333,139.7016967
東京都,大田区,65-6,東矢口二丁目１番１号,安方中学校 北側フェンス,35.5667333,139.7016967
東京都,大田区,65-7,東矢口三丁目11番26号,小林児童公園 北側鉄柵,35.5630512,139.7034329
東京都,大田区,65-8,東矢口三丁目24番８号,東矢口三丁目公園 北側鉄柵,35.56144099999999,139.7060858
東京都,大田区,66-1,多摩川一丁目18番22号,矢口小学校 南東側フェンス,35.56253,139.6980974
東京都,大田区,66-2,多摩川一丁目18番22号,矢口小学校 東側フェンス,35.56253,139.6980974
東京都,大田区,66-3,東矢口二丁目３番 先,日本体育大学荏原高等学校 グラウンド西側鉄柵,35.5663585,139.698636
東京都,大田区,66-4,多摩川一丁目５番11号,安方神社 社務所前鉄柵,35.5631731,139.7012089
東京都,大田区,66-5,多摩川二丁目11番12号,区営多摩川二丁目アパート12号棟 南側植込,35.5585687,139.7032668
東京都,大田区,66-6,多摩川二丁目13番４号,多摩川二丁目児童公園 北側植込,35.5587462,139.699702
東京都,大田区,66-7,多摩川一丁目18番22号,矢口小学校 南西側フェンス,35.56253,139.6980974
東京都,大田区,66-8,東矢口二丁目３番 先,日本体育大学荏原高等学校 グラウンド東側鉄柵,35.5663585,139.698636
東京都,大田区,66-9,矢口三丁目１番５号,特別養護老人ホームいずみえん 南側フェンス,35.5611026,139.6960896
東京都,大田区,67-1,矢口三丁目26番25号,多摩川小学校 北側鉄柵,35.5593159,139.6907359
東京都,大田区,67-2,矢口三丁目26番25号,多摩川小学校 西側鉄柵,35.5593159,139.6907359
東京都,大田区,67-3,矢口二丁目12番26号,区営矢口二丁目第二アパート 西側フェンス,35.5633872,139.6934077
東京都,大田区,67-4,矢口二丁目16番６号,北側万年塀,35.5630912,139.6937606
東京都,大田区,67-5,矢口二丁目21番17号,矢口二丁目小公園 東側入口右側鉄柵,35.5616728,139.6901802
東京都,大田区,67-6,矢口三丁目17番３号,東八幡神社 北側鉄柵,35.557835,139.6950024
東京都,大田区,67-7,矢口二丁目26番７号,矢口二丁目児童公園 東側植込,35.5623075,139.6950262
東京都,大田区,67-8,矢口三丁目33番29号,東京都下水道局南部下水道事務所矢口ポンプ所 北側フェンス,35.55993309999999,139.6901388
東京都,大田区,68-1,下丸子一丁目７番１号,矢口西小学校 南側校門左側フェンス,35.5683954,139.6876028
東京都,大田区,68-2,下丸子一丁目７番１号,矢口西小学校 西側校門左側フェンス,35.5683954,139.6876028
東京都,大田区,68-3,下丸子一丁目10番２号,東京電力パワーグリッド㈱矢口変電所 南側万年塀,35.5689706,139.6899409
東京都,大田区,68-4,下丸子二丁目18番10号,下丸子なかよし公園 北側入口左側フェンス,35.5660244,139.6877873
東京都,大田区,68-5,矢口一丁目19番８号,武蔵新田児童公園 入口右側植込,35.5664416,139.6937898
東京都,大田区,68-6,矢口一丁目26番10号,都立矢口特別支援学校 東側フェンス,35.5648867,139.6944855
東京都,大田区,68-7,矢口一丁目26番10号,都立矢口特別支援学校 南側フェンス,35.5648867,139.6944855
東京都,大田区,69-1,下丸子三丁目１番１号,大田区民プラザ 正面植込,35.5713825,139.6868301
東京都,大田区,69-2,下丸子三丁目10番８号,下丸子児童遊園 西側コンクリート柵,35.5702479,139.6860824
東京都,大田区,69-3,下丸子四丁目21番２号,下丸子公園 運動広場フェンス,35.5703823,139.680101
東京都,大田区,69-4,下丸子四丁目２番14号,あけぼの児童公園 北側植込,35.572979,139.6824841
東京都,大田区,69-5,下丸子四丁目９番３号,下丸子余情公園 入口左側植込,35.5723179,139.6814098
東京都,大田区,69-6,下丸子四丁目16番５号,六所神社 北西側万年塀,35.5692506,139.6831512
東京都,大田区,69-7,下丸子四丁目21番２号,下丸子公園 中央入口右側植込,35.5703823,139.680101
東京都,大田区,69-8,下丸子四丁目24番１号,くすのき公園 北西側入口右側植込,35.571652,139.6782902
東京都,大田区,70-1,下丸子二丁目23番１号,矢口中学校 西側コンクリート塀,35.5641684,139.6858815
東京都,大田区,70-2,下丸子二丁目11番６号,共同リネンサプライ㈱ 入口右側コンクリート塀,35.5655951,139.684323
東京都,大田区,70-3,下丸子二丁目11番１号,㈱白洋舎東京支店 東側コンクリート塀,35.5663114,139.6842983
東京都,大田区,70-4,下丸子二丁目20番15号,下丸子保育園 南東側フェンス,35.5643397,139.6877183
東京都,大田区,70-5,下丸子二丁目24番27号,下丸子二丁目公園 南東側鉄柵,35.5627686,139.6865549
東京都,大田区,70-6,下丸子二丁目23番１号,矢口中学校 南側コンクリート塀,35.5641684,139.6858815
