prefecture,city,number,address,name,lat,long
東京都,新宿区,01-01,新宿区四谷三栄町7,三栄公園　三栄通り側,35.687923,139.7267956
東京都,新宿区,01-02,新宿区四谷三栄町12-16,新宿歴史博物館　裏側,35.6899316,139.7256868
東京都,新宿区,01-03,新宿区四谷三栄町7,三栄公園　四谷税務署側,35.687923,139.7267956
東京都,新宿区,01-04,新宿区四谷本塩町16,外堀通り　外堀公園前 (位置情報が見つかりませんでした),35.6884691,139.7307855
東京都,新宿区,01-05,新宿区四谷1-番番地,外堀通り　JR 四ツ谷駅アトレ横,35.6853727,139.7287997
東京都,新宿区,01-06,新宿区市谷本村町1-無番地,外堀通り　八幡前交番向かい,35.6911034,139.7334293
東京都,新宿区,01-07,新宿区四谷坂町11,津の守坂児童遊園,35.6915815,139.7255771
東京都,新宿区,01-08,新宿区四谷本塩町14-1,納国通り　第２日中ビル前,35.6907558,139.7287679
東京都,新宿区,02-01,新宿区四谷1-12,四谷中学校　通用門,35.6823955,139.7287298
東京都,新宿区,02-02,新宿区若葉2-9,西念寺,35.6846586,139.7257316
東京都,新宿区,02-03,新宿区四谷2-6,四谷小学校　校庭側,35.6866887,139.7248575
東京都,新宿区,02-04,新宿区四谷2-6,四谷小学校　西側,35.6866887,139.7248575
東京都,新宿区,02-05,新宿区若葉3-4,岩蔭公園,35.6828461,139.7246493
東京都,新宿区,02-06,新宿区須賀町5,須賀神社,35.6852071,139.723049
東京都,新宿区,02-07,新宿区若葉1-1,法善寺,35.687295,139.7227106
東京都,新宿区,02-08,新宿区四谷1-12,四谷中学校　正門側,35.6823955,139.7287298
東京都,新宿区,03-01,新宿区愛住町11,愛住公園,35.6899738,139.7195415
東京都,新宿区,03-02,新宿区四谷4-17,大木戸子ども園　南側,35.689118,139.716016
東京都,新宿区,03-03,新宿区四谷4-16,外苑西通り　川辺新宿郵便ビル前,35.6885948,139.7148132
東京都,新宿区,03-04,新宿区四谷4-20,四谷ひろば　正門側,35.689791,139.7179334
東京都,新宿区,03-05,新宿区荒木町10,荒木公園,35.6898962,139.7226222
東京都,新宿区,03-06,新宿区四谷4-9,大木戸児童遊園,35.6877686,139.7163475
東京都,新宿区,03-07,新宿区愛住町14-3,浄運寺,35.6905077,139.7191524
東京都,新宿区,03-08,新宿区片町4,外苑東通り　曙橋下,35.6920155,139.7240906
東京都,新宿区,04-01,新宿区南元町19,外苑東通り　信濃町駅南口バス停付近,35.6794558,139.7209381
東京都,新宿区,04-02,新宿区左門町5,左門公園,35.6864923,139.7196213
東京都,新宿区,04-03,新宿区南元町4,二葉保育園,35.67988,139.7236915
東京都,新宿区,04-04,新宿区南元町4,とよまち公園,35.67988,139.7236915
東京都,新宿区,04-05,新宿区南元町20,芳みなもと町公園,35.6801866,139.726465
東京都,新宿区,04-06,新宿区南元町18,みなみ児童遊園,35.6792327,139.7210037
東京都,新宿区,04-07,新宿区信濃町35,慶應義塾大学病院　南側,35.6812775,139.717706
東京都,新宿区,04-08,新宿区大京町30,四谷第四小学校　正門側,35.6819081,139.7160408
東京都,新宿区,05-01,新宿区新宿2-19,靖国通り　新宿カドビル前,35.6914114,139.7074122
東京都,新宿区,05-02,新宿区新宿1-32,花園西公園,35.690665,139.7118008
東京都,新宿区,05-03,新宿区新宿1-25,花園東公園,35.690336,139.7141947
東京都,新宿区,05-04,新宿区新宿1-22-1,花園小学校,35.6895594,139.7134804
東京都,新宿区,05-05,新宿区新宿2-15-18,成覚寺,35.6913458,139.7092101
東京都,新宿区,05-06,新宿区内藤町87,四谷地域センター　夜間通用口側,35.6875602,139.7145057
東京都,新宿区,05-07,新宿区新宿1-33-15,靖国通り　アサンプ京浜支店前,35.6911136,139.7123085
東京都,新宿区,05-08,新宿区新宿2-9,新宿公園,35.6898826,139.7090835
東京都,新宿区,06-01,新宿区津久戸町5-1,JCHO東京新宿メディカルセンター　東側,35.7034157,139.7421308
東京都,新宿区,06-02,新宿区白銀町29,白銀公園,35.7034004,139.738698
東京都,新宿区,06-03,新宿区新小川町4-22,東京電力新小川町変電所,35.7057286,139.7432485
東京都,新宿区,06-04,新宿区揚場町1-18,福井ビル前植え込み,35.7022554,139.7436505
東京都,新宿区,06-05,新宿区津久戸町2-2,津久戸小学校　JCHO東京新宿メディカルセンター側,35.7026812,139.7419775
東京都,新宿区,06-06,新宿区津久戸町2-2,津久戸小学校　正門側,35.7026812,139.7419775
東京都,新宿区,06-07,新宿区若宮町20,若宮公園　東側,35.6997226,139.7404895
東京都,新宿区,06-08,新宿区神楽坂5-36,毘沙門天　善国寺,35.7014454,139.7392437
東京都,新宿区,06-09,新宿区神楽坂5,箱石地　神楽坂上交差点付近,35.7022532,139.738698
東京都,新宿区,07-01,新宿区北町26,愛日小学校　正門東側,35.699694,139.7340364
東京都,新宿区,07-02,新宿区中町33,JCHO東京新宿メディカルセンター中町宿舎,35.6996611,139.7361929
東京都,新宿区,07-03,新宿区払方町25,東京電力市ヶ谷変電所,35.6968283,139.7340474
東京都,新宿区,07-04,新宿区市谷田町3-無番地,外堀通り　新見附橋付近,35.6965166,139.738698
東京都,新宿区,07-05,新宿区北町26,愛日小学校　正門西側,35.699694,139.7340364
東京都,新宿区,07-06,新宿区市谷田町3-21,専門学校　東京ホスピタリティ・アカデミー　北側,35.6967145,139.7379802
東京都,新宿区,07-07,新宿区中町5,市ヶ谷公園,35.6991713,139.7356644
東京都,新宿区,08-01,新宿区水道町1-28,江戸川小学校　正門北側,35.7066852,139.7366324
東京都,新宿区,08-02,新宿区水道町1-28,江戸川小学校　正門南側,35.7066852,139.7366324
東京都,新宿区,08-03,新宿区西五軒町13-1,白日通り　住友不動産飯田橋ビル3号館前,35.7082181,139.7376602
東京都,新宿区,08-04,新宿区水道町4,さくら児童遊園,35.7084468,139.7366224
東京都,新宿区,08-05,新宿区東五軒町6,神田川　東五軒町バス停前,35.7072972,139.7393516
東京都,新宿区,08-06,新宿区東五軒町5-24,東五軒町地域交流館,35.7067825,139.740129
東京都,新宿区,08-07,新宿区水道町4-13,日白通り　マルエツ江戸川橋店前,35.7083953,139.736343
東京都,新宿区,09-01,新宿区矢来町109,タイムズ矢来町駐車場,35.7038901,139.7335774
東京都,新宿区,09-02,新宿区横寺町52,あさひ児童遊園　牛込箪笥地域センター通用門横,35.7008593,139.7338185
東京都,新宿区,09-03,新宿区矢来町76-4,新潮社クラブ　東側,35.7022217,139.7332792
東京都,新宿区,09-04,新宿区横寺町20,長葉寺,35.7018834,139.7347479
東京都,新宿区,09-05,新宿区箪笥町1,南鳳院前公衆便所横,35.7010379,139.7358041
東京都,新宿区,09-06,新宿区横寺町55,株式会社　旺文社,35.7004661,139.7332542
東京都,新宿区,09-07,新宿区箪笥町42,南鳳院,35.7005324,139.735846
東京都,新宿区,10-01,新宿区市谷山伏町1-3,市谷小学校　大久保通り側,35.6996239,139.7288668
東京都,新宿区,10-02,新宿区市谷山伏町1-3,市谷小学校　東側,35.6996239,139.7288668
東京都,新宿区,10-03,新宿区北山伏町4-1,牛込第一中学校　校庭側,35.7004674,139.7305114
東京都,新宿区,10-04,新宿区北山伏町4-1,牛込第一中学校　体育館側,35.7004674,139.7305114
東京都,新宿区,10-05,新宿区矢来町1-1,矢来町ハイツ　西側,35.7018222,139.7324215
東京都,新宿区,10-06,新宿区矢来町1-1,矢来町ハイツ　東側,35.7018222,139.7324215
東京都,新宿区,10-07,新宿区矢来町38,矢来公園,35.7030875,139.731277
東京都,新宿区,11-01,新宿区二十騎町1-34,masked,35.6981445,139.7307612
東京都,新宿区,11-02,新宿区市谷加賀町2-6-1,市ヶ谷加賀町アパート　D棟,35.6975968,139.7290203
東京都,新宿区,11-03,新宿区市谷加賀町2-6-1,市ヶ谷加賀町アパート　H棟,35.6975968,139.7290203
東京都,新宿区,11-04,新宿区細工町3-12,NTT弁公ビル　大久保通り側,35.6994157,139.7325343
東京都,新宿区,11-05,新宿区市谷長延寺町8,長延保育園,35.6940893,139.7343473
東京都,新宿区,11-06,新宿区市谷加賀町1-3-1,牛込第二中学校　東側,35.6976774,139.7314468
東京都,新宿区,11-07,新宿区市谷砂土原町1-1,ルーテル市ヶ谷センター　北側植え込み,35.6941014,139.736343
東京都,新宿区,11-08,新宿区市谷田町1-無番地,外堀通り　市谷橋付近,35.692623,139.7361434
東京都,新宿区,12-01,新宿区市谷仲之町4-27,トミンハイム仲之町,35.696179,139.7223814
東京都,新宿区,12-02,新宿区市谷本村町6-1,外苑東通り　第五機動隊前,35.6933128,139.7251617
東京都,新宿区,12-03,新宿区河田町2-5,月桂寺,35.6973119,139.7229116
東京都,新宿区,12-04,新宿区市谷仲之町4-33,牛込仲之小学校,35.6957775,139.7236472
東京都,新宿区,12-05,新宿区市谷薬王寺町2,外苑東通り　市谷薬王寺町　都有地,35.6969677,139.7262455
東京都,新宿区,12-06,新宿区市谷仲之町2-42,区立防災センター,35.6938675,139.7239709
東京都,新宿区,12-07,新宿区市谷仲之町4-42,外苑東通り　市谷仲之町交差点付近,35.6954374,139.7245994
東京都,新宿区,13-01,新宿区山吹町35,やまぶき児童遊園,35.7076832,139.7300768
東京都,新宿区,13-02,新宿区山吹町81,都立新宿山吹高等学校　正門　鶴巻町側,35.7072001,139.7292472
東京都,新宿区,13-03,新宿区榎町79,浜松キ駐車場横,35.7066245,139.7268078
東京都,新宿区,13-04,新宿区榎町77,浜松寺　外苑東通り側,35.7063236,139.7272931
東京都,新宿区,13-05,新宿区榎町77,浜松寺　大日本印刷側,35.7063236,139.7272931
東京都,新宿区,13-06,新宿区榎町7,大日本印刷(株)　桜町ソリューションセンター,35.7059067,139.7289772
東京都,新宿区,13-07,新宿区山吹町81,都立新宿山吹高等学校　正門　江戸川橋通り側,35.7072001,139.7292472
東京都,新宿区,13-08,新宿区榎町33,都有地　弁天町交差点付近,35.7045602,139.727343
東京都,新宿区,14-01,新宿区早稲田鶴巻町507,鶴巻南公園　東側,35.7079263,139.7249685
東京都,新宿区,14-02,新宿区戸塚町1-104,早稲田大学21号館（大隈記念講堂）早大正門バス停付近,35.7096019,139.7230381
東京都,新宿区,14-03,新宿区早稲田鶴巻町507,鶴巻南公園　西側,35.7079263,139.7249685
東京都,新宿区,14-04,新宿区戸塚町1-538,早稲田大学24号館,35.7091502,139.7228208
東京都,新宿区,14-05,新宿区早稲田鶴巻町140,鶴巻小学校　南側,35.7080307,139.7249386
東京都,新宿区,14-06,新宿区早稲田鶴巻町140,鶴巻小学校　正門側,35.7080307,139.7249386
東京都,新宿区,14-07,新宿区早稲田鶴巻町140,鶴巻小学校　北側,35.7080307,139.7249386
東京都,新宿区,15-01,新宿区西早稲田2-1–11,穴八幡宮　早稲田通り側,35.7072839,139.7172682
東京都,新宿区,15-02,新宿区早稲田南町36,早稲田町町保育園分園　早稲田通り側,35.7052617,139.7240521
東京都,新宿区,15-03,新宿区早稲田南町25,早稲田小学校　正門,35.7038898,139.7233659
東京都,新宿区,15-04,新宿区早稲田南町25,早稲田小学校　西側,35.7038898,139.7233659
東京都,新宿区,15-05,新宿区喜久井町20,牛込第二中学校グランドフェンス,35.703618,139.7220953
東京都,新宿区,15-06,新宿区弁天町121,都営弁天アパート　西側,35.7023525,139.7262495
東京都,新宿区,15-07,新宿区弁天町50,牛込保健センター（建設中）,35.7037014,139.7271235
東京都,新宿区,16-01,新宿区若松町27,わかまつ児童遊園,35.7001911,139.7180252
東京都,新宿区,16-02,新宿区岩松町38-1,宝祥寺　下戸坂坂側,35.6938253,139.7033559
東京都,新宿区,16-03,新宿区原町2-62,大龍寺,35.7023302,139.7216266
東京都,新宿区,16-04,新宿区原町3-74,原町公園,35.6998595,139.7227338
東京都,新宿区,16-05,新宿区原町1-50,原町駐車場,35.7003472,139.7253074
東京都,新宿区,16-06,新宿区原町1-10,牛込柳町駅　自転車等駐輪場,35.6997421,139.7249186
東京都,新宿区,16-07,新宿区若松町1-1,都営若松町アパート　1号棟東側,35.6988098,139.7220668
東京都,新宿区,16-08,新宿区若松町1-2,都営若松町アパート　2号棟東側,35.698408,139.7220727
東京都,新宿区,16-09,新宿区若松町6-1,抜弁天通り　若松町　都有地,35.6997631,139.7202362
東京都,新宿区,17-01,新宿区戸山1-20-1,masked,35.7028024,139.7177355
東京都,新宿区,17-02,新宿区戸山1-21,国立国際医療研究センター 北側戸山4号館玄関前,35.7036272,139.7160102
東京都,新宿区,17-03,新宿区戸山1-21,国立国際医療研究センター 戸山ハイツ10号棟向かい,35.7036272,139.7160102
東京都,新宿区,17-04,新宿区戸山1-21,国立国際医療研究センター 戸山ハイツ3号棟向かい,35.7036272,139.7160102
東京都,新宿区,17-05,新宿区戸山1-21,国立国際医療研究センター 障害者福祉センター前,35.7036272,139.7160102
東京都,新宿区,17-06,新宿区戸山1ｰ22-1,全国障害者総合福祉センター(戸山サンライズ)横,35.7033803,139.7176372
東京都,新宿区,17-07,新宿区戸山1-6-15,区立旺子アパート,35.702127,139.7196937
東京都,新宿区,18-01,新宿区余丁町14-8,masked,35.6956379,139.7171855
東京都,新宿区,18-02,新宿区河田町6-25,東京女子医科大学病院第二別館,35.6968376,139.7185339
東京都,新宿区,18-03,新宿区河田町3-3,区営河田町アパート集会所前,35.6955134,139.7203224
東京都,新宿区,18-04,新宿区若松町12-22,masked,35.6996559,139.7171722
東京都,新宿区,18-05,新宿区若松町13-1,余丁町小学校 北側,35.6993089,139.7156046
東京都,新宿区,18-06,新宿区余丁町8-5,抜弁天 諏訪神社,35.6976146,139.7133618
東京都,新宿区,18-07,新宿区若松町13-1,余丁町小学校 東側,35.6993089,139.7156046
東京都,新宿区,18-08,新宿区若松町19-1,総務省統計局 北側,35.7001501,139.7153157
東京都,新宿区,18-09,新宿区余丁町12-36,環状4号線 余丁町児童遊園向かい,35.6961067,139.7160754
東京都,新宿区,19-01,新宿区住吉町13,住吉公園 東側,35.6945229,139.7196213
東京都,新宿区,19-02,新宿区住吉町13,住吉公園 南側,35.6945229,139.7196213
東京都,新宿区,19-03,新宿区住吉町11-11,masked,35.6951665,139.7197198
東京都,新宿区,19-04,新宿区市谷台町11,イチカワダイマチ１１パーキング,35.6942817,139.7186636
東京都,新宿区,19-05,新宿区住吉町3-2,靖国通り 第二山田ビル前,35.6922431,139.7204544
東京都,新宿区,19-06,新宿区住吉町6,道路線地,35.6926315,139.7216963
東京都,新宿区,19-07,新宿区住吉町6-2,住吉町共栄会防災自転車緑地,35.692674,139.7224046
東京都,新宿区,20-01,新宿区富久町21,富久さくら公園 南側,35.693477,139.714144
東京都,新宿区,20-02,新宿区富久町9-23,譲魔亭 東側,35.6910388,139.7159721
東京都,新宿区,20-03,新宿区富久町21,富久さくら公園 東側,35.693477,139.714144
東京都,新宿区,20-04,新宿区富久町15,外苑西通り 富久町交差点付近,35.6918889,139.7139553
東京都,新宿区,20-05,新宿区富久町7-24,富久小学校 北側,35.6923869,139.7163133
東京都,新宿区,20-06,新宿区富久町7-24,富久小学校 正門側,35.6923869,139.7163133
東京都,新宿区,20-07,新宿区富久町1,富久町遊び場,35.6920707,139.7186961
東京都,新宿区,20-08,新宿区富久町22-1,都立総合芸術高校 東側,35.6936863,139.7161099
東京都,新宿区,21-01,新宿区戸山3-17-1,旧東京都健康支援組合 明治通り側,35.7061324,139.7095267
東京都,新宿区,21-02,新宿区戸山3-20-2,西早稲田中学校 明治通り側 バス停向かい,35.7080709,139.7099919
東京都,新宿区,21-03,新宿区戸山3-20-2,西早稲田中学校 正門側,35.7080709,139.7099919
東京都,新宿区,21-04,新宿区戸山3-20-1,学習院女子中・高 館A体育館前,35.7068494,139.712717
東京都,新宿区,21-05,新宿区戸山3-20-1,学習院女子大学 5号館前,35.7068494,139.712717
東京都,新宿区,21-06,新宿区戸山3-2,都立戸山公園 軽田口,35.7055213,139.7140052
東京都,新宿区,21-07,新宿区西早稲田2-3,荒井山公園,35.7079108,139.7160501
東京都,新宿区,21-08,新宿区西早稲田2-19-14,財務省 西早稲田寮,35.709549,139.7102249
東京都,新宿区,22-01,新宿区戸山2-34-2,東戸山小学校 大久保通り側,35.7023933,139.7112822
東京都,新宿区,22-02,新宿区戸山2-33,都立戸山公園 コープとうきょう戸山店前,35.7025431,139.7092461
東京都,新宿区,22-03,新宿区戸山2-27-2,戸山シニア活動館 西側入口,35.7045666,139.7108034
東京都,新宿区,22-04,新宿区戸山2-7,都立戸山公園 稲穂山下北側,35.7045433,139.713701
東京都,新宿区,22-05,新宿区戸山2-27-2,戸山シニア活動館 北側,35.7045666,139.7108034
東京都,新宿区,22-06,新宿区戸山2-34-2,東戸山小学校 通用門側,35.7023933,139.7112822
東京都,新宿区,22-07,新宿区戸山2-18,戸山第二保育園,35.7021054,139.7124392
東京都,新宿区,23-01,新宿区新宿7-27,明治通り DOMO HOTEL前,35.6981303,139.7078789
東京都,新宿区,23-02,新宿区新宿7-26-35,東京電力戸山変電所,35.700532,139.7085521
東京都,新宿区,23-03,新宿区新宿7-26,東大久保児童遊園,35.6987852,139.7084794
東京都,新宿区,23-04,新宿区新宿7-20,大久保通り 都営戸山ハイツバス停前,35.7005594,139.7097062
東京都,新宿区,23-05,新宿区新宿7-14-6,㈱福留,35.6992574,139.7114617
東京都,新宿区,23-06,新宿区新宿7-3-29,新宿ここ・から広場 北側,35.7008435,139.7123608
東京都,新宿区,23-07,新宿区新宿7-3-29,新宿ここ・から広場 南側,35.7008435,139.7123608
東京都,新宿区,24-01,新宿区新宿6-13-10,東大久保一丁目アパート,35.6949541,139.7088841
東京都,新宿区,24-02,新宿区新宿6-15-22,新宿中学校 天神門側,35.6955722,139.7108909
東京都,新宿区,24-03,新宿区新宿6-14-2,天神小学校 正門側,35.6955769,139.7100706
東京都,新宿区,24-04,新宿区新宿6-14-2,天神小学校 消防団倉庫前,35.6955769,139.7100706
東京都,新宿区,24-05,新宿区新宿6-28-1,明治通り 日清食品前,35.6954346,139.7072054
東京都,新宿区,24-06,新宿区新宿6-1-1,東京医科大学 紫門側,35.6935755,139.7117509
東京都,新宿区,24-07,新宿区新宿5-7-20,(株)NTTドコモ新四谷ビル 裏込み,35.6927531,139.7098502
東京都,新宿区,24-08,新宿区新宿6-14-2,天神小学校 プール側,35.6955769,139.7100706
東京都,新宿区,24-09,新宿区新宿6-1-1,東京医科大学 正門側,35.6935755,139.7117509
東京都,新宿区,25-01,新宿区大久保2-12-7,大久保地区センター 東側駐輪場,35.7016237,139.7067817
東京都,新宿区,25-02,新宿区大久保3-1-2,新宿コズミックスポーツセンター,35.7050204,139.7080698
東京都,新宿区,25-03,新宿区大久保3-1-1,中央図書館(旧戸山中学校)南側,35.7052383,139.7071312
東京都,新宿区,25-04,新宿区大久保3-1-1,中央図書館(旧戸山中学校)正門側,35.7052383,139.7071312
東京都,新宿区,25-05,新宿区大久保3-5,都立戸山公園 サービスセンター,35.7070166,139.704859
東京都,新宿区,25-06,新宿区大久保3-5,都立戸山公園 新宿スポーツセンター前植込み,35.7070166,139.704859
東京都,新宿区,25-07,新宿区大久保3-9,大久保三角公園,35.708718,139.703742
東京都,新宿区,25-08,新宿区大久保3-12,masked,35.7074201,139.7069335
東京都,新宿区,26-01,新宿区大久保1-7,小泉八雲記念公園 西側,35.6997143,139.7049488
東京都,新宿区,26-02,新宿区大久保1-2,明治通り 日本赤十字社東京都支部前,35.699386,139.7038418
東京都,新宿区,26-03,新宿区大久保1-7,小泉八雲記念公園 南側,35.6997143,139.7049488
東京都,新宿区,26-04,新宿区大久保1-17-20,再友友会公園 東側,35.6992253,139.7023947
東京都,新宿区,26-05,新宿区大久保1-1-21,大久保小学校 正門前,35.6996339,139.7057501
東京都,新宿区,26-06,新宿区大久保1-1-21,大久保小学校 運用門側,35.6996339,139.7057501
東京都,新宿区,26-07,新宿区大久保1-17-20,西大久保公園 西側,35.6992253,139.7023947
東京都,新宿区,27-01,新宿区歌舞伎町2-43,大久保公園 北側,35.6972837,139.7014533
東京都,新宿区,27-02,新宿区新宿5-18-21,新宿区役所第二分庁舎 明治通り側入口,35.6942739,139.7057655
東京都,新宿区,27-03,新宿区歌舞伎町1-4-1,新宿区役所 西側,35.6937714,139.703639
東京都,新宿区,27-04,新宿区歌舞伎町1-1-13,東京電力 角筈変電所,35.6934515,139.7044601
東京都,新宿区,27-05,新宿区新宿5-18-21,吉本興業(株) 東京本部,35.6942739,139.7057655
東京都,新宿区,27-06,新宿区歌舞伎町2-43,大久保公園 南側,35.6972837,139.7014533
東京都,新宿区,28-01,新宿区大久保3-8,新宿中継・資源センター,35.7079674,139.7029442
東京都,新宿区,28-02,新宿区百人町2-18-21,百人町保育園,35.703305,139.6981646
東京都,新宿区,28-03,新宿区百人町2-1-38,戸山小学校 西側,35.7039534,139.7020151
東京都,新宿区,28-04,新宿区百人町2-1-38,戸山小学校 東側,35.7039534,139.7020151
東京都,新宿区,28-05,新宿区大久保3-6-1,海城学園,35.7046461,139.7017905
東京都,新宿区,28-06,新宿区大久保2-28,大久保現公園,35.7037892,139.704141
東京都,新宿区,28-07,新宿区百人町2-1-38,戸山小学校 旧戸山幼稚園側,35.7039534,139.7020151
東京都,新宿区,28-08,新宿区百人町2-23-5,日本キリスト教婦人短期職員会,35.7022169,139.6965339
東京都,新宿区,29-01,新宿区百人町4-1,戸戸山公園 線路側(3号地),35.7077712,139.7010294
東京都,新宿区,29-02,新宿区百人町4-2-1,南戸山小学校 北側,35.707913,139.6989622
東京都,新宿区,29-03,新宿区百人町4-2-1,南戸山小学校 正門側,35.707913,139.6989622
東京都,新宿区,29-04,新宿区百人町3-28,百人町ふれあい公園,35.705719,139.6959237
東京都,新宿区,29-05,新宿区百人町4-2,西戸山公園 西側(1号地),35.7077825,139.6992743
東京都,新宿区,29-06,新宿区百人町4-7-1,南戸山生涯学習館,35.7088882,139.6957209
東京都,新宿区,29-07,新宿区百人町3-24-1,東京都健康安全研究センター,35.7063759,139.6981374
東京都,新宿区,29-08,新宿区百人町3-28-8,国土交通省東京第一営繕事務所 正門右側,35.7046859,139.6957579
東京都,新宿区,30-01,新宿区戸塚町1-100,早稲田高校 東側,35.7077711,139.7204094
東京都,新宿区,30-02,新宿区西早稲田1-6,早稲田大学19号館 北側,35.7092181,139.718903
東京都,新宿区,30-03,新宿区西早稲田1-20,早稲田大学18号館 北側,35.7110481,139.718105
東京都,新宿区,30-04,新宿区西早稲田1-6,早稲田大学17号館 北側,35.7092181,139.718903
東京都,新宿区,30-05,新宿区西早稲田1-22,大日坂公園,35.7117801,139.7177858
東京都,新宿区,30-06,新宿区戸塚町1-104-19,早稲田大学20号館 西側,35.7103021,139.7224944
東京都,新宿区,30-07,新宿区西早稲田1-23,新目白通り 都市施設 獏状1号線北側,35.712114,139.71891
東京都,新宿区,31-01,新宿区西早稲田3-19-5,西早稲田リサイクル活動センター,35.7110069,139.7123153
東京都,新宿区,31-02,新宿区西早稲田3-10-12,戸塚第一小学校 体育館側,35.7109967,139.7150326
東京都,新宿区,31-03,新宿区西早稲田3-10-12,戸塚第一小学校 正門側,35.7109967,139.7150326
東京都,新宿区,31-04,新宿区西早稲田3-16-24,売鋺院 東側,35.7120038,139.7136675
東京都,新宿区,31-05,新宿区西早稲田3-3-5,甘泉園公園 西側,35.7101599,139.7164291
東京都,新宿区,31-06,新宿区西早稲田3-3-5,甘泉園公園 北側,35.7101599,139.7164291
東京都,新宿区,31-07,新宿区西早稲田3-無番地,新目白通り 面影橋付近,35.7113392,139.7134765
東京都,新宿区,32-01,新宿区高田馬場2-11-10,神田川 戸田学橋付近,35.7136506,139.7078208
東京都,新宿区,32-02,新宿区高田馬場1-26,西田馬場駅前ロータリー,35.7129978,139.7049388
東京都,新宿区,32-03,新宿区高田馬場1-25-21,戸塚第二小学校 正門側,35.7126019,139.7059104
東京都,新宿区,32-04,新宿区高田馬場1-25-21,戸塚第一小学校 東門側,35.7126019,139.7059104
東京都,新宿区,32-05,新宿区高田馬場1-33,西武新宿線高田馬場駅 戸山口付近,35.7112587,139.7038218
東京都,新宿区,32-06,新宿区高田馬場1-14,女医内寄場地,35.7090424,139.705976
東京都,新宿区,32-07,新宿区高田馬場1-12-6,諏訪神社,35.7091255,139.7076765
東京都,新宿区,33-01,新宿区高田馬場4-15,コーシャハイム高田馬場 北側,35.7119924,139.701189
東京都,新宿区,33-02,新宿区高田馬場4-15,コーシャハイム高田馬場 東側,35.7119924,139.701189
東京都,新宿区,33-03,新宿区高田馬場4-35,旧西戸山第二中学校プール跡地,35.7094253,139.6971203
東京都,新宿区,33-04,新宿区高田馬場4-22-39,masked,35.7109744,139.7009297
東京都,新宿区,33-05,新宿区高田馬場4-36-12,新宿NPO協働推進センター しんえい子ども園側,35.7098426,139.696301
東京都,新宿区,33-06,新宿区高田馬場4-4–32,天理教牛込大教会,35.7124261,139.7031108
東京都,新宿区,34-01,新宿区下落合1-1,清水川橋公園,35.715959,139.7042
東京都,新宿区,34-02,新宿区下落合1-7-7,東京富士大学,35.7153429,139.6999706
東京都,新宿区,34-03,新宿区高田馬場3-6-20,東京電力自変電所,35.7143502,139.7016673
東京都,新宿区,34-04,新宿区高田馬場3-21,皿若稲公園,35.7130104,139.6987586
東京都,新宿区,34-05,新宿区高田馬場3-18-21,戸塚第一小学校 正門側,35.714563,139.6973444
東京都,新宿区,34-06,新宿区高田馬場3-45,神田川 久保南商店付近,35.7141963,139.6953054
東京都,新宿区,34-07,新宿区高田馬場3-42-1,西田馬場コーポラス,35.7135281,139.6956419
東京都,新宿区,34-08,新宿区高田馬場3-37-26,観音寺,35.711138,139.6948873
東京都,新宿区,35-01,新宿区下落合2-2,masked,35.7167454,139.703742
東京都,新宿区,35-02,新宿区下落合2-11,おとめ山公園 南側,35.7180155,139.7025065
東京都,新宿区,35-03,新宿区下落合2-11,おとめ山公園 おとめ山通り 東側,35.7180155,139.7025065
東京都,新宿区,35-04,新宿区下落合3-14-25,日本キリスト教団 目白教会,35.7221329,139.7005922
東京都,新宿区,35-05,新宿区下落合3-12-33,下落合地域交流館,35.7212428,139.6995114
東京都,新宿区,35-06,新宿区下落合2-24-6,落合中学校 体育館側,35.7193037,139.6995515
東京都,新宿区,35-07,新宿区下落合2-9-34,落合第四小学校 北側,35.7183098,139.7002376
東京都,新宿区,35-08,新宿区下落合2-9-34,落合第四幼稚園 正面西側,35.7183098,139.7002376
東京都,新宿区,36-01,新宿区下落合4-1-9,東京消防庁 下落合第一,35.7168109,139.6975939
東京都,新宿区,36-02,新宿区中落合2-21-11,山手通り 中落合2丁目歩道橋付近,35.7208533,139.6914297
東京都,新宿区,36-03,新宿区下落合4-18,下落合公園,35.7202299,139.6967214
東京都,新宿区,36-04,新宿区下落合4-6-7,落合第一特別出張所,35.7186826,139.6949982
東京都,新宿区,36-05,新宿区中落合2-5-1,聖母病院,35.7198318,139.6944397
東京都,新宿区,36-06,新宿区中落合2-5-21,聖母ホーム,35.7190265,139.6944617
東京都,新宿区,36-07,新宿区中落合2-8-15,東新エナジー株式会社 ENEOS下落合駅前SS,35.7171235,139.6941433
東京都,新宿区,36-08,新宿区中落合2-13-27,落合第一小学校 正門右側,35.7194639,139.691522
東京都,新宿区,37-01,新宿区中落合4-6,近東実業庭園,35.7191491,139.6861921
東京都,新宿区,37-02,新宿区中落合3-1,山手通り 日白通り交差点付近,35.7223184,139.6919351
東京都,新宿区,37-03,新宿区西落合1-6-5,落合第二中学校 東側,35.720633,139.6846816
東京都,新宿区,37-04,新宿区西落合1-6-5,落合第二中学校 西側,35.720633,139.6846816
東京都,新宿区,37-05,新宿区西落合1-2,あおぞら児童遊園,35.7212399,139.6851552
東京都,新宿区,37-06,新宿区中落合3-7-1,新宿消防署 落合出張所,35.720618,139.6903573
東京都,新宿区,37-07,新宿区中落合3-15-3,masked,35.7224363,139.6895975
東京都,新宿区,37-08,新宿区中落合3-27,東京電力管理地 新目白通り側,35.7213649,139.6862779
東京都,新宿区,38-01,新宿区中落合1-6,妙正寺川 新落合橋付近,35.7166386,139.6902401
東京都,新宿区,38-02,新宿区中落合1-5,中落合公園 東側,35.716744,139.691616
東京都,新宿区,38-03,新宿区中落合1-9,山手通り 西武バス中落合停留所付近,35.718584,139.6890635
東京都,新宿区,38-04,新宿区中井2-1,山手通り 新目白通り交差点付近,35.7189007,139.6884254
東京都,新宿区,38-05,新宿区中落合1-5,妙正寺川 昭和橋付近,35.716744,139.691616
東京都,新宿区,38-06,新宿区中落合1-1,妙正寺川 落合橋付近,35.7166238,139.6941687
東京都,新宿区,38-07,新宿区中落合1-20,中井駅前 妙正寺川フェンス,35.7149704,139.6887644
東京都,新宿区,38-08,新宿区中落合1ｰ4-1,新目白通り DUOSTAGE下落合橋,35.7173794,139.6914033
東京都,新宿区,39-01,新宿区上落合1-1,下水道路せせらぎの里 八幡通り側,35.7149529,139.6946473
東京都,新宿区,39-02,新宿区上落合2-26-4,masked,35.7109717,139.6862938
東京都,新宿区,39-03,新宿区上落合1-7,八幡公園,35.7124443,139.691616
東京都,新宿区,39-04,新宿区上落合1-26-19,戸塚八幡神社,35.7127322,139.6911336
東京都,新宿区,39-05,新宿区上落合2-16,上落合公園,35.7141057,139.6884852
東京都,新宿区,39-06,新宿区上落合2-10-23,落合第二小学校 正門側,35.7129258,139.6890379
東京都,新宿区,39-07,新宿区上落合2-25-19,作びる会幼稚園,35.7118467,139.6871891
東京都,新宿区,39-08,新宿区上落合1-1,神田川 せせらぎ橋付近,35.7149529,139.6946473
東京都,新宿区,40-01,新宿区西落合3-1-18,大江戸線 落合南長崎駅,35.7230645,139.6835592
東京都,新宿区,40-02,新宿区西落合4-13,西落合北公園 東側,35.7258137,139.6785355
東京都,新宿区,40-03,新宿区西落合2-17-17,御霊神社,35.7218649,139.6761331
東京都,新宿区,40-04,新宿区西落合2-1,鶴ヶ谷公園,35.7233681,139.6779773
東京都,新宿区,40-05,新宿区西落合4-11-21,落合第六小学校 北側,35.727362,139.6785172
東京都,新宿区,40-06,新宿区西落合4-13,西落合北公園 南側,35.7258137,139.6785355
東京都,新宿区,40-07,新宿区西落合4-11-21,落合第五小学校 体育館側,35.727362,139.6785172
東京都,新宿区,40-08,新宿区西落合4-11-21,落合第五小学校,35.727362,139.6785172
東京都,新宿区,41-01,新宿区西落合2-19,西落合公園野球場,35.7200135,139.6769405
東京都,新宿区,41-02,新宿区西落合1-31-24,西落合子ども園,35.7197585,139.6795708
東京都,新宿区,41-03,新宿区西落合1-30-10,あゆみの家 南側,35.720933,139.678841
東京都,新宿区,41-04,新宿区西落合1-12-20,落合第三小学校 南側,35.7209041,139.6824384
東京都,新宿区,41-05,新宿区西落合1-12-20,落合第三小学校 東側,35.7209041,139.6824384
東京都,新宿区,41-06,新宿区西落合2-19,妙正寺川 四村橋付近,35.7200135,139.6769405
東京都,新宿区,41-07,新宿区西落合2-19,西落合公園,35.7200135,139.6769405
東京都,新宿区,41-08,新宿区西落合1-12-20,落合第三小学校 西側,35.7209041,139.6824384
東京都,新宿区,42-01,新宿区上落合3-11,上落合西公園,35.7118136,139.6836099
東京都,新宿区,42-02,新宿区上落合3-4-12,長勝寺,35.7128238,139.6854169
東京都,新宿区,42-03,新宿区上落合3-16,みなか児童遊園,35.7140211,139.683241
東京都,新宿区,42-04,新宿区上落合3-1-6,落合第五小学校 正門側,35.7146245,139.6857927
東京都,新宿区,42-05,新宿区中井2-4,中井東公園 東側,35.717241,139.6871492
東京都,新宿区,42-06,新宿区中井2-4-4,山手通り 一の坂下,35.7167295,139.6871691
東京都,新宿区,42-07,新宿区中井2-24-16,民家,35.7153624,139.682358
東京都,新宿区,42-08,新宿区中井1-14,落合公園 南側,35.7147839,139.679971
東京都,新宿区,43-01,新宿区北新宿4-6-1,東京都子供家庭総合センター,35.7081822,139.6938496
東京都,新宿区,43-02,新宿区北新宿4-37,神田上水公園 亀脇橋横,35.7081007,139.69026
東京都,新宿区,43-03,新宿区北新宿4-12,北柏木公園,35.707224,139.6928923
東京都,新宿区,43-04,新宿区北新宿4-37,神田上水公園 南小滝橋付近,35.7081007,139.69026
東京都,新宿区,43-05,新宿区北新宿4-37,神田上水公園 柏木不動尊前,35.7081007,139.69026
東京都,新宿区,43-06,新宿区北新宿4-2-1,中央卸売市場建替市場 西側,35.7056096,139.693606
東京都,新宿区,43-07,新宿区北新宿4-2-1,中央卸売市場建替市場 正門左側,35.7056096,139.693606
東京都,新宿区,44-01,新宿区北新宿3-20,北新宿公園 北側,35.7023237,139.688904
東京都,新宿区,44-02,新宿区北新宿3-17-1,淀橋第四小学校 鬼神社側,35.7043432,139.691436
東京都,新宿区,44-03,新宿区北新宿3-17-1,淀橋第四小学校 東側,35.7043432,139.691436
東京都,新宿区,44-04,新宿区北新宿3-23-7,関屋寺 西塀,35.7039717,139.6904357
東京都,新宿区,44-05,新宿区北新宿3-39-1,masked,35.7053768,139.6880415
東京都,新宿区,44-06,新宿区北新宿3-20,北新宿公園 西側,35.7023237,139.688904
東京都,新宿区,44-07,新宿区北新宿3-22-7,日本学生支援機構 東京日本語教育センター,35.7035345,139.6893789
東京都,新宿区,45-01,新宿区北新宿1-5-1,NTT東日本 東京北支店 北側壁,35.6996089,139.6957258
東京都,新宿区,45-02,新宿区北新宿1-8-22,東京法務局新宿出張所,35.7012513,139.694965
東京都,新宿区,45-03,新宿区北新宿1-32-13,新宿池田文化会館,35.699219,139.6915618
東京都,新宿区,45-04,新宿区北新宿1-21-10,大智学園高等学校 西側,35.6980106,139.692655
東京都,新宿区,45-05,新宿区北新宿1-21-10,大智学園高等学校 東側,35.6980106,139.692655
東京都,新宿区,45-06,新宿区北新宿1-5-1,NTT東日本 東京北支店 南側壁,35.6996089,139.6957258
東京都,新宿区,45-07,新宿区北新宿1-19,税務署通り 新宿税務署前,35.6979102,139.6948478
東京都,新宿区,46-01,新宿区北新宿2-11-1,柏木小学校 北側,35.7004908,139.6893914
東京都,新宿区,46-02,新宿区北新宿2-11-1,柏木小学校 西側,35.7004908,139.6893914
東京都,新宿区,46-03,新宿区北新宿2-11-1,柏木小学校 南側,35.7004908,139.6893914
東京都,新宿区,46-04,新宿区北新宿2-3-7,柏木地域センター,35.6985457,139.6902468
東京都,新宿区,46-05,新宿区北新宿2-7,神田川 末広橋付近,35.7015333,139.6881861
東京都,新宿区,46-06,新宿区北新宿2-22,神田川 栄橋付近,35.6969273,139.6870694
東京都,新宿区,46-07,新宿区北新宿2-14,神田川 伏見橋付近,35.6985476,139.6884254
東京都,新宿区,47-01,新宿区西新宿8-2-44,西新宿中学校 南側,35.69599,139.6948495
東京都,新宿区,47-02,新宿区西新宿7-14,柏木公園 東側,35.6950107,139.6972798
東京都,新宿区,47-03,新宿区西新宿7-12-5,常泉院 西側,35.69403,139.6965799
東京都,新宿区,47-04,新宿区西新宿8-2-44,西新宿中学校 東側,35.69599,139.6948495
東京都,新宿区,47-05,新宿区西新宿8-2-44,西新宿中学校 西側,35.69599,139.6948495
東京都,新宿区,47-06,新宿区西新宿7ｰ7-19,税務署通り 新宿シティタワー前,35.6974781,139.6966416
東京都,新宿区,47-07,新宿区西新宿7-14,柏木公園 北側,35.6950107,139.6972798
東京都,新宿区,48-01,新宿区西新宿2-5,東京都庁議会棟 北側,35.6896415,139.6926437
東京都,新宿区,48-02,新宿区西新宿3-2-8,甲州街道 佐鳴ビルデング前,35.6864796,139.693632
東京都,新宿区,48-03,新宿区西新宿2-8,東京都庁第一本庁舎 北側,35.6888529,139.6913975
東京都,新宿区,48-04,新宿区西新宿1-24,中央通り 工学院大学前,35.6901768,139.6952567
東京都,新宿区,48-05,新宿区西新宿1-23,工学院大学 西側,35.689742,139.6957641
東京都,新宿区,49-01,新宿区西新宿6-7-1,東京医科大学病院 西側,35.6940092,139.6922477
東京都,新宿区,49-02,新宿区西新宿5-15,神田川 相生橋付近,35.6934472,139.6853628
東京都,新宿区,49-03,新宿区西新宿6-12-30,芸能花倉（旧淀橋第三小学校）正門右側,35.6939663,139.6888979
東京都,新宿区,49-04,新宿区西新宿6-12-30,芸能花倉（旧淀橋第三小学校）校庭側,35.6939663,139.6888979
東京都,新宿区,49-05,新宿区西新宿6-6,西新宿6丁目北通り ヒルトン東京前,35.6926082,139.6916599
東京都,新宿区,49-06,新宿区西新宿5-13,淀橋けやきはし公園,35.6935916,139.6859926
東京都,新宿区,49-07,新宿区西新宿5-7-4,十字通り トーシンフォーシス新宿前ら1丁目表箪笥前 輸入衣装館側,35.6919987,139.6867536
東京都,新宿区,49-08,新宿区西新宿5-20,はごろも児童遊園 神田川沿い,35.6929945,139.6845969
東京都,新宿区,49-09,新宿区西新宿5-1,淀橋さくら公園 神田川沿い,35.6957504,139.6877075
東京都,新宿区,50-01,新宿区西新宿2-11-5,新宿中央公園 SHUKNOVA袋,35.6910994,139.6901793
東京都,新宿区,50-02,新宿区西新宿2-11,新宿中央公園 熊野神社前交番横,35.6914969,139.6892185
東京都,新宿区,50-03,新宿区西新宿4-9,十二社児童遊園,35.689039,139.6856337
東京都,新宿区,50-04,新宿区西新宿4-35-5,西新宿小学校 東側,35.6856595,139.6879043
東京都,新宿区,50-05,新宿区西新宿4-36,こばと児童遊園,35.6860227,139.6865111
東京都,新宿区,50-06,新宿区西新宿3-19-1,東京都交通局 渋谷自動車営業所新宿支所,35.6845594,139.6868257
東京都,新宿区,50-07,新宿区西新宿4-35-5,西新宿小学校 校舎側,35.6856595,139.6879043
東京都,新宿区,50-08,新宿区西新宿2-10,新宿中央公園 南側入口付近,35.6877076,139.689706
東京都,新宿区,50-09,新宿区西新宿4-20-11,新宿養護学校 南側,35.6883052,139.6860942
