prefecture,city,number,address,name,lat,long
東京都,杉並区,1-1,方南1-38-8,都営方南一丁目アパート,35.6787218,139.6619554
東京都,杉並区,1-2,方南2-6-11,方南二丁目公園,35.6807241,139.6590796
東京都,杉並区,1-3,方南1-52-24,上水橋緑地,35.6797595,139.6590657
東京都,杉並区,1-4,方南1-51-20,方南中央公園,35.6792083,139.6600213
東京都,杉並区,1-5,方南1-45-16,区営方南一丁目第2アパート,35.6787541,139.6646062
東京都,杉並区,1-6,方南2-28-24,方南公園,35.6854691,139.6587607
東京都,杉並区,1-7,方南1-3-4,杉並清掃事務所方南支所,35.6741612,139.6602511
東京都,杉並区,1-8,方南1-2-14,子どもの遊び場80番,35.6740865,139.6611557
東京都,杉並区,1-9,方南2-22-3,都営方南二丁目第2アパート北側,35.6842788,139.6574054
東京都,杉並区,2-1,和泉4-18,ﾘﾊﾞｰｻｲﾄﾞﾊｲﾂ8号棟前,35.6799613,139.653231
東京都,杉並区,2-2,和泉4-18-5,和泉がけ公園,35.6805305,139.6530109
東京都,杉並区,2-3,和泉4-18-28,一本橋公園,35.6796644,139.6511518
東京都,杉並区,2-4,和泉4-4-1,専修大学附属高等学校北側,35.677138,139.6553327
東京都,杉並区,2-5,和泉1-44-26,旧新泉小学校東側,35.6756057,139.6565123
東京都,杉並区,2-6,和泉1-44-26,旧新泉小学校南側,35.6756057,139.6565123
東京都,杉並区,2-7,和泉1-44-26,旧新泉小学校西側,35.6756057,139.6565123
東京都,杉並区,2-8,和泉1-7,子どもの遊び場96番東側,35.6729399,139.6577243
東京都,杉並区,3-1,和泉3-21-29,熊野神社,35.6763631,139.6479093
東京都,杉並区,3-2,和泉2-17-21,杉並和泉学園北東側,35.6751422,139.6483505
東京都,杉並区,3-3,和泉3-22-22,貴船神社,35.6777647,139.6482979
東京都,杉並区,3-4,和泉2-41-18,レストナック幼稚園,35.6766662,139.6524039
東京都,杉並区,3-5,和泉3-2-11,民地,35.6746293,139.6461517
東京都,杉並区,3-6,和泉2-26-12,日本大学鶴ヶ丘高等学校,35.6731152,139.6532925
東京都,杉並区,3-7,和泉2-2-1,子どもの遊び場96番西側,35.672155,139.6561299
東京都,杉並区,3-8,和泉3-8-18,永福和泉地域区民センター,35.6753439,139.6462454
東京都,杉並区,4-1,堀ノ内1‐9‐26,だいじょうじ公園,35.6835838,139.6512146
東京都,杉並区,4-2,堀ノ内1-12-16,大宮小学校北側,35.6834963,139.6492771
東京都,杉並区,4-3,堀ノ内1-12-16,大宮小学校北西側,35.6834963,139.6492771
東京都,杉並区,4-4,和泉3-52-18,大圓寺北西側,35.6812666,139.647341
東京都,杉並区,4-5,和泉3-52-18,大圓寺南側,35.6812666,139.647341
東京都,杉並区,4-6,和泉4-17-29,べんてんばし公園,35.6812059,139.651903
東京都,杉並区,4-7,和泉4-18-28,和泉緑地,35.6796644,139.6511518
東京都,杉並区,4-8,和泉3-61-19,和田堀変電所,35.6819853,139.6485629
東京都,杉並区,5-1,永福2-6-23,永福南公園,35.6713342,139.6393113
東京都,杉並区,5-2,永福1-24-6,永福稲荷神社,35.6724661,139.6431939
東京都,杉並区,5-3,永福1-28-12,民地,35.6726333,139.6456644
東京都,杉並区,5-4,永福1-10-11,子どもの遊び場５０番,35.67268079999999,139.647478
東京都,杉並区,5-5,永福1-7-6,ひまわり公園,35.6694232,139.642125
東京都,杉並区,5-6,永福2-16-33,永福小学校北東側,35.6730541,139.6393113
東京都,杉並区,5-7,永福2-16-33,永福小学校北西側,35.6730541,139.6393113
東京都,杉並区,5-8,永福2-1-12,永福中央公園,35.6707202,139.6417023
東京都,杉並区,6-1,永福3-51,井ノ頭通り沿い（永福３－５１付近）,35.6784563,139.6379565
東京都,杉並区,6-2,永福4-26-4,永福北公園,35.6804586,139.6420061
東京都,杉並区,6-3,永福4-25-7,旧永福図書館,35.6807601,139.6407893
東京都,杉並区,6-4,大宮2-13,都営大宮二丁目アパート,35.6806658,139.6366813
東京都,杉並区,6-5,永福3-56-29,理性寺,35.67915680000001,139.6362928
東京都,杉並区,6-6,大宮2-13-13,宮元公園,35.6809499,139.6366863
東京都,杉並区,6-7,永福3-40-6,西永福公園,35.67776,139.636761
東京都,杉並区,6-8,永福3-1-1,向陽橋水防倉庫,35.6738896,139.6358246
東京都,杉並区,7-1,下高井戸2-27-5,下高井戸公園,35.6705994,139.6358844
東京都,杉並区,7-2,下高井戸3-26-1,下高井戸区民集会所,35.6722971,139.6360378
東京都,杉並区,7-3,下高井戸3-24-1,向陽中学校南門,35.6732588,139.6345272
東京都,杉並区,7-4,下高井戸2-19,玉川上水第三公園北側,35.6685959,139.6396301
東京都,杉並区,7-5,下高井戸3-24-1,向陽中学校西門,35.6732588,139.6345272
東京都,杉並区,7-6,下高井戸2-14-2,玉川上水第三公園,35.6695156,139.6362629
東京都,杉並区,7-7,下高井戸2-1,玉川上水第三公園南側,35.6677359,139.6396301
東京都,杉並区,7-8,下高井戸2-28-23,おおぞら公園南　入り口付近,35.6709251,139.6369603
東京都,杉並区,8-1,下高井戸4-39-3,八幡神社,35.6751209,139.6301536
東京都,杉並区,8-2,下高井戸4-16-24,高井戸第三小学校東側,35.6720571,139.6307689
東京都,杉並区,8-3,下高井戸4-16-24,高井戸第三小学校西側,35.6720571,139.6307689
東京都,杉並区,8-4,下高井戸1-24-15,桜上水北自転車駐車場,35.6683333,139.6324091
東京都,杉並区,8-5,下高井戸4-12,玉川上水第二公園桜上水マンション前,35.6718674,139.6287125
東京都,杉並区,8-6,下高井戸4-9,玉川上水第二公園桜上水女子会館前,35.6717741,139.6268798
東京都,杉並区,8-7,下高井戸4-19-6,子ども・子育てプラザ下高井戸,35.67315019999999,139.630389
東京都,杉並区,8-8,下高井戸5-23-12,塚山公園,35.6749751,139.62476
東京都,杉並区,9-1,浜田山1-25‐24,浜田山一丁目公園,35.6783486,139.629838
東京都,杉並区,9-2,浜田山1-36-3,浜田山会館,35.6804683,139.6300187
東京都,杉並区,9-3,浜田山2-5-1,柏の宮公園南側,35.6775515,139.6263741
東京都,杉並区,9-4,浜田山2-15-41,新日本製鉄浜田山グラウンド東側,35.6803201,139.6266238
東京都,杉並区,9-5,浜田山1-17-10,浜田山南公園,35.6772402,139.6324677
東京都,杉並区,9-6,浜田山2‐17‐1,浜田山公園東側,35.6811204,139.6265729
東京都,杉並区,9-7,浜田山2-5-1,柏の宮公園東側,35.6775515,139.6263741
東京都,杉並区,9-8,浜田山2-17-1,浜田山公園南側,35.6811204,139.6265729
東京都,杉並区,10-1,浜田山4-23-1,浜田山小学校南西側,35.68476,139.6294794
東京都,杉並区,10-2,浜田山4-18-31,浜田山保育園,35.687388,139.6259847
東京都,杉並区,10-3,浜田山4-23-1,浜田山小学校西側,35.68476,139.6294794
東京都,杉並区,10-4,浜田山4-23-1,浜田山小学校東側,35.68476,139.6294794
東京都,杉並区,10-5,成田西1-2-30,成田かっぱ公園,35.6845767,139.6376078
東京都,杉並区,10-6,浜田山4-3-9,都営浜田山四丁目第２アパート,35.6822638,139.6337897
東京都,杉並区,10-7,浜田山3-11-17,浜田山東公園,35.6811517,139.6316608
東京都,杉並区,10-8,浜田山3-35-7,浜田山かなめ公園,35.6836552,139.6262922
東京都,杉並区,10-9,成田西1-8,都立和田堀公園白山前橋付近,35.6858747,139.6348484
東京都,杉並区,11-1,和田1-54-28,和田さくらの坂公園南側,35.693315,139.665445
東京都,杉並区,11-2,和田1-21-7,救心製薬株式会社　駐車場,35.691213,139.6643865
東京都,杉並区,11-3,和田1-53-1,東京都住宅供給公社　コーシャハイム新中野テラス南側,35.6938141,139.664435
東京都,杉並区,11-4,和田1-38-19,和田中央公園東側,35.692149,139.6614775
東京都,杉並区,11-5,和田1-38-18,和田中央児童館,35.6924093,139.6610927
東京都,杉並区,11-6,和田1-40-5,救世軍ブース記念病院,35.6905247,139.6602787
東京都,杉並区,11-7,和田1-54-28,和田さくらの坂公園北側,35.693315,139.665445
東京都,杉並区,11-8,和田1-48-16,和田東公園,35.6928704,139.6629065
東京都,杉並区,12-1,和田2-31-21,和田区民集会所,35.690978,139.6574064
東京都,杉並区,12-2,和田2-30-21,和田小学校南側,35.6909311,139.6572858
東京都,杉並区,12-3,和田2-30-21,和田小学校東側,35.6909311,139.6572858
東京都,杉並区,12-4,和田2-1,和田公園東側,35.6873557,139.6613119
東京都,杉並区,12-5,和田2-5,朝日橋際,35.6869707,139.6603552
東京都,杉並区,12-6,和田2-27-8,和田堀ホーム,35.69025999999999,139.6551732
東京都,杉並区,12-7,和田2-30-21,和田小学校西側,35.6909311,139.6572858
東京都,杉並区,13-1,和田3-55-30,蚕糸の森公園北側,35.6978117,139.6557734
東京都,杉並区,13-2,和田3-40-10,高南中学校東側,35.6957793,139.6579287
東京都,杉並区,13-3,和田3-40-10,高南中学校西側,35.6957793,139.6579287
東京都,杉並区,13-4,和田3-41-20,和田北公園,35.696296,139.6588205
東京都,杉並区,13-5,和田3-15-18,和田西公園,35.692393,139.655243
東京都,杉並区,13-6,和田3-55-30,蚕糸の森公園南西側,35.6978117,139.6557734
東京都,杉並区,13-7,和田3-53-18,合同宿舎　高円寺住宅,35.6966506,139.6549355
東京都,杉並区,13-8,和田3-55-30,蚕糸の森公園北西側,35.6978117,139.6557734
東京都,杉並区,14-1,堀ノ内2-17-32,堀ノ内南公園,35.6880598,139.6535066
東京都,杉並区,14-2,堀ノ内2-8-7,堀ノ内保育園,35.6866267,139.6530307
東京都,杉並区,14-3,堀ノ内1-17-2,済美小学校西側,35.6841583,139.6501113
東京都,杉並区,14-4,堀ノ内1-17-24,済美小学校東側,35.6853859,139.6498606
東京都,杉並区,14-5,堀ノ内1-17-24,済美小学校北側,35.6853859,139.6498606
東京都,杉並区,14-6,堀ノ内1-16-38,大宮中学校北側,35.6862707,139.6488518
東京都,杉並区,14-7,堀ノ内1-16-38,大宮中学校東側,35.6862707,139.6488518
東京都,杉並区,14-8,堀ノ内1-27-40,済美公園,35.6867812,139.6490452
東京都,杉並区,15-1,梅里1-14-2,梅里児童遊園,35.6962233,139.6516373
東京都,杉並区,15-2,梅里1-14-22,東京都交通局小滝橋自動車営業所杉並支所北側,35.697614,139.6512385
東京都,杉並区,15-3,梅里1-2-27,堀ノ内斎場,35.6957149,139.6513526
東京都,杉並区,15-4,梅里1-22-32,セシオン杉並南側,35.6969229,139.6538674
東京都,杉並区,15-5,梅里1-22-32,セシオン杉並西側,35.6969229,139.6538674
東京都,杉並区,15-6,梅里1-1-55,梅里公園,35.694697,139.6540868
東京都,杉並区,15-7,堀ノ内3-49-11,堀ノ内東公園,35.6921368,139.6535938
東京都,杉並区,15-8,堀ノ内3-48-8,妙法寺門前,35.692299,139.6525344
東京都,杉並区,16-1,堀ノ内3-24-11,堀之内小学校西側,35.6933515,139.6465991
東京都,杉並区,16-2,堀ノ内3-24-11,堀之内小学校東側,35.6933515,139.6465991
東京都,杉並区,16-3,堀ノ内3-20-23,堀ノ内山谷児童遊園,35.6915827,139.6476004
東京都,杉並区,16-4,堀ノ内3-44-10,堀ノ内三丁目公園,35.693752,139.6508088
東京都,杉並区,16-5,松ノ木2-33-6,松ノ木保育園,35.69228680000001,139.6460857
東京都,杉並区,16-6,松ノ木3-3-4,旧堀ノ内松ノ木会議室,35.6926499,139.6445118
東京都,杉並区,16-7,堀ノ内2-40,都立和田堀公園（善福寺川北側）,35.68935950000001,139.6463052
東京都,杉並区,16-8,堀ノ内3-37-4,ゆうゆう梅里堀ノ内館,35.6932894,139.6497601
東京都,杉並区,17-1,松ノ木2-24-13,松ノ木中央公園,35.6911785,139.6434765
東京都,杉並区,17-2,松ノ木1-12-20,合同宿舎　松の木住宅６号棟西（瀬田貫井線沿い）,35.688122,139.6422752
東京都,杉並区,17-3,松ノ木1-2-26,松ノ木小学校北側,35.6873954,139.6423947
東京都,杉並区,17-4,松ノ木1-2-26,松ノ木小学校東側,35.6873954,139.6423947
東京都,杉並区,17-5,松ノ木1-3-22,松ノ木運動場,35.6856333,139.6420655
東京都,杉並区,17-6,大宮2-26,都立和田堀公園,35.68447889999999,139.6417023
東京都,杉並区,17-7,大宮2-2-10,和田堀公園プール,35.6819264,139.6414709
東京都,杉並区,18-1,梅里2-34-20,梅里中央公園内,35.6963024,139.6414831
東京都,杉並区,18-2,梅里2-11-17,清見寺東側,35.6970892,139.644716
東京都,杉並区,18-3,梅里2-26-1,梅里２丁目駐車場,35.6975287,139.6422602
東京都,杉並区,18-4,梅里2-34-20,梅里中央公園南東側,35.6963024,139.6414831
東京都,杉並区,18-5,梅里2-12-2,かっぱ公園,35.6963273,139.6449701
東京都,杉並区,18-6,梅里2-34-20,梅里中央公園西側,35.6963024,139.6414831
東京都,杉並区,18-7,梅里2-34-20,梅里中央公園北側,35.6963024,139.6414831
東京都,杉並区,19-1,高円寺南1-29,桃園川緑道稲荷橋際,35.7007293,139.6603552
東京都,杉並区,19-2,高円寺南1-28-4,高円寺東保育園,35.7004926,139.6607239
東京都,杉並区,19-3,高円寺南1-19-16,株式会社ビー・エム・エル駐車場南側,35.7010723,139.6553327
東京都,杉並区,19-4,高円寺南1-15-13,杉並第三小学校南門脇,35.6999805,139.6564036
東京都,杉並区,19-5,高円寺南1-15-13,杉並第三小学校西側,35.6999805,139.6564036
東京都,杉並区,19-6,高円寺南1-33,桃園川緑道環七寄り,35.7011558,139.6566082
東京都,杉並区,19-7,高円寺南1-13-8,杉並第三小学校東側,35.6991206,139.6549341
東京都,杉並区,19-8,高円寺南1-34-9,桃園川緑道環七東側,35.7015352,139.6550782
東京都,杉並区,20-1,高円寺南4-3-10,桃園川緑道環状七号線側,35.70211949999999,139.6534949
東京都,杉並区,20-2,高円寺南2-40-24,高円寺図書館,35.7013753,139.6509682
東京都,杉並区,20-3,高円寺南2-2-12,高円寺南二丁目公園,35.6985554,139.6533298
東京都,杉並区,20-4,高円寺南2-32-30,聖心学園幼稚園南側,35.6994052,139.6527383
東京都,杉並区,20-5,高円寺南2-36-31,高円寺清掃事務所,35.6997672,139.6542506
東京都,杉並区,20-6,高円寺南2-47-7,高南小公園,35.7020017,139.6484423
東京都,杉並区,20-7,高円寺南2-51,桃園川緑道高円寺南四丁目信号際,35.7024576,139.6502309
東京都,杉並区,20-8,高円寺南2-50,桃園川緑道宝橋際,35.7026606,139.6489555
東京都,杉並区,21-1,阿佐谷南2-30,桃園川緑道杉並学院南側,35.70448030000001,139.6429775
東京都,杉並区,21-2,阿佐谷南1-24-21,杉並第六小学校西側,35.7014851,139.6432623
東京都,杉並区,21-3,高円寺南3-16-14,馬橋保育園,35.699734,139.6454682
東京都,杉並区,21-4,高円寺南3-30-26,高円寺南公園,35.7023357,139.6444122
東京都,杉並区,21-5,高円寺南3-24-15,高円寺保健センター,35.7016183,139.6456775
東京都,杉並区,21-6,阿佐谷南1-24-21,杉並第六小学校北側,35.7014851,139.6432623
東京都,杉並区,21-7,阿佐谷南1-24-21,杉並第六小学校東側,35.7014851,139.6432623
東京都,杉並区,21-8,高円寺南3-5-10,信濃育英会信濃学寮,35.6986369,139.6448516
東京都,杉並区,22-1,高円寺北1-26-8,都営高円寺北一丁目アパート公園,35.7089183,139.6565953
東京都,杉並区,22-2,高円寺北1-4-11,高円寺学園東側,35.7065364,139.6554883
東京都,杉並区,22-3,高円寺北1-4-11,高円寺学園北側,35.7065364,139.6554883
東京都,杉並区,22-4,高円寺北1-28-2,高円寺北一みどり公園,35.7081823,139.6577716
東京都,杉並区,22-5,高円寺北1-5-2,高円寺自転車集積所,35.7057641,139.6561983
東京都,杉並区,22-6,高円寺南5-13-23,高円寺いこい公園,35.7019846,139.6601359
東京都,杉並区,22-7,高円寺南5-19,高円寺谷中緑地,35.7028683,139.6559007
東京都,杉並区,22-8,高円寺南5-11-7,高円寺東公園,35.7022521,139.6584418
東京都,杉並区,23-1,高円寺北2-32-7,コンビプラザ高円寺北保育園,35.7083397,139.6528901
東京都,杉並区,23-2,高円寺北2-14-13,旧杉並第四小学校南側,35.7070326,139.6534643
東京都,杉並区,23-3,高円寺北2-14-13,旧杉並第四小学校西側,35.7070326,139.6534643
東京都,杉並区,23-4,高円寺北2-6,ＪＲ高円寺駅北口広場,35.70584789999999,139.64996
東京都,杉並区,23-5,高円寺南4-46,ＪＲ高円寺駅南口広場,35.7049084,139.649912
東京都,杉並区,23-6,高円寺南4-1-8,高南みどり公園,35.7019769,139.654376
東京都,杉並区,23-7,高円寺南4-31-7,高円寺中央公園西側,35.7036813,139.6517355
東京都,杉並区,23-8,高円寺南4-31-7,高円寺中央公園南側,35.7036813,139.6517355
東京都,杉並区,24-1,高円寺北4-35-5,馬橋公園北東側,35.7095981,139.6430594
東京都,杉並区,24-2,高円寺北4-35-5,馬橋公園西側,35.7095981,139.6430594
東京都,杉並区,24-3,高円寺北4-28-5,馬橋小学校南側,35.7088503,139.6437895
東京都,杉並区,24-4,高円寺北4-28-5,馬橋小学校西側,35.7088503,139.6437895
東京都,杉並区,24-5,高円寺北3-20-15,高円寺北公園,35.7069987,139.6488758
東京都,杉並区,24-6,高円寺北3-25-9,高円寺北区民集会所,35.7076681,139.6483596
東京都,杉並区,24-7,高円寺北4-2-17,馬橋児童館,35.7059153,139.6434635
東京都,杉並区,24-8,高円寺北3-26-9,馬橋北第二公園,35.7080793,139.6471928
東京都,杉並区,25-1,阿佐谷南1-17-3,阿佐ケ谷中学校西側,35.7007545,139.6363725
東京都,杉並区,25-2,阿佐谷南1-15-1,杉並区役所南側,35.6997417,139.6361999
東京都,杉並区,25-3,阿佐谷南1-15-1,杉並区役所北東側,35.6997417,139.6361999
東京都,杉並区,25-4,阿佐谷南1-42-7,阿佐谷東保育園西側,35.7020567,139.6398158
東京都,杉並区,25-5,阿佐谷南1-48,中杉通り植栽（三井住友銀行前）,35.704094,139.636841
東京都,杉並区,25-6,阿佐谷南1-13-33,民地,35.6994638,139.6391399
東京都,杉並区,25-7,阿佐谷南1-21-28,阿佐谷にしはら公園,35.6999056,139.6412241
東京都,杉並区,25-8,阿佐谷南1-42-7,阿佐谷東保育園東側,35.7020567,139.6398158
東京都,杉並区,26-1,阿佐谷南3-2-19,産業商工会館西側,35.7017767,139.6352867
東京都,杉並区,26-2,阿佐谷南3-36,ＪＲ阿佐ヶ谷駅南口広場南側,35.7042772,139.6361963
東京都,杉並区,26-3,阿佐谷南3-19-2,杉並第七小学校南側,35.7029235,139.6312336
東京都,杉並区,26-4,阿佐谷南3-19-2,杉並第七小学校北西側,35.7029235,139.6312336
東京都,杉並区,26-5,阿佐谷南3-16-18,阿佐谷南公園,35.7033539,139.6296164
東京都,杉並区,26-6,阿佐谷南3-12-12,阿佐谷南保育園,35.7029547,139.6289567
東京都,杉並区,26-7,阿佐谷南3-48-16,文化学園大学杉並中学・高等学校,35.7043078,139.6280834
東京都,杉並区,26-8,阿佐谷南3-4-16,阿佐谷ことり公園,35.7014397,139.6340166
東京都,杉並区,27-1,阿佐谷北1-39-24,阿佐谷中央公園,35.7092028,139.6380063
東京都,杉並区,27-2,阿佐谷北1-7-3,河北総合病院,35.706719,139.6387534
東京都,杉並区,27-3,阿佐谷北1-1-1,阿佐谷けやき公園,35.7052206,139.6411278
東京都,杉並区,27-4,阿佐谷北1-5-27,杉並第一小学校東側,35.7058737,139.6367943
東京都,杉並区,27-5,阿佐谷北2-32-21,阿佐谷西公園,35.707352,139.6328562
東京都,杉並区,27-6,阿佐谷北1-26-18,世尊院幼稚園第二園庭,35.7074126,139.6363991
東京都,杉並区,27-7,阿佐谷北2-38-22,法仙庵北側,35.7077989,139.6344101
東京都,杉並区,27-8,阿佐谷北1-11,阿佐谷北児童遊園,35.7063679,139.6409053
東京都,杉並区,28-1,阿佐谷北4-20,中杉通り沿道（阿佐谷北４－２０付近）,35.7124942,139.6354859
東京都,杉並区,28-2,阿佐谷北5-45-13,Aさんの庭,35.7108303,139.6406462
東京都,杉並区,28-3,阿佐谷北6-7-8,阿佐谷北第二児童遊園,35.7140439,139.639655
東京都,杉並区,28-4,阿佐谷北5-45-24,杉森中学校北側,35.7113734,139.6417686
東京都,杉並区,28-5,阿佐谷北5-45-24,杉森中学校東側,35.7113734,139.6417686
東京都,杉並区,28-6,阿佐谷北5-35-5,お伊勢の森児童遊園,35.7107963,139.639912
東京都,杉並区,28-7,阿佐谷北6-30-14,小七山公園,35.7161891,139.6361235
東京都,杉並区,28-8,阿佐谷北5-18-10,阿佐ヶ谷教会,35.708068,139.6397447
東京都,杉並区,29-1,阿佐谷北3-36-2,阿佐谷こぶし緑地,35.7115953,139.6332546
東京都,杉並区,29-2,本天沼1-2-19,杉並第九小学校西側,35.7135657,139.633009
東京都,杉並区,29-3,阿佐谷北3-29-12,山吹あさがやきた保育園,35.7110971,139.6315774
東京都,杉並区,29-4,阿佐谷北4-6-9,阿佐谷北社宅　社宅西側,35.7106915,139.6349153
東京都,杉並区,29-5,阿佐谷北3-36-14,阿佐谷図書館,35.7116923,139.6332577
東京都,杉並区,29-6,阿佐谷北3-32-25,都営阿佐谷北三丁目アパート,35.7110607,139.6306779
東京都,杉並区,29-7,本天沼2-3-10,本天沼南公園,35.71227990000001,139.6276229
東京都,杉並区,29-8,本天沼2-40-26,区営本天沼二丁目第二アパート,35.7148358,139.6288278
東京都,杉並区,30-1,天沼1-45-33,日本大学第二高等学校東側,35.7098966,139.6273425
東京都,杉並区,30-2,天沼1-45-33,日本大学第二高等学校北側,35.7098966,139.6273425
東京都,杉並区,30-3,天沼1-15-26,(株)テツゲン社宅,35.7074156,139.6299182
東京都,杉並区,30-4,天沼1-31-14,日本大学幼稚園,35.7077844,139.6276797
東京都,杉並区,30-5,天沼1-45-33,日本大学第二高等学校東南角,35.7098966,139.6273425
東京都,杉並区,30-6,天沼2-30-11,都営天沼二丁目アパート　集会所南側,35.7091766,139.623684
東京都,杉並区,30-7,天沼2-46-3,天沼小学校北側,35.7106763,139.6229756
東京都,杉並区,30-8,天沼2-46-3,天沼小学校南側,35.7106763,139.6229756
東京都,杉並区,31-1,天沼3-19-14,フェニックス杉並,35.710262,139.620377
東京都,杉並区,31-2,天沼3-31,天沼もえぎ公園,35.7073619,139.6218601
東京都,杉並区,31-3,天沼3-19-16,子ども・子育てプラザ天沼,35.7101745,139.620809
東京都,杉並区,31-4,天沼3-23-1,天沼弁天池公園東側,35.7087659,139.6211231
東京都,杉並区,31-5,天沼3-15-20,旧若杉小学校北側,35.7087597,139.6186809
東京都,杉並区,31-6,天沼3-15-20,旧若杉小学校北東側,35.7087597,139.6186809
東京都,杉並区,31-7,天沼3-15-20,旧若杉小学校東南側,35.7087597,139.6186809
東京都,杉並区,31-8,天沼3-23-1,天沼弁天池公園北側,35.7087659,139.6211231
東京都,杉並区,32-1,本天沼2-14-28,杉並本天沼社宅　社宅２号棟東側フェンス,35.7130634,139.6257444
東京都,杉並区,32-2,本天沼3-10-20,天沼中学校北側,35.7119604,139.6213697
東京都,杉並区,32-3,本天沼3-10-20,天沼中学校南側,35.7119604,139.6213697
東京都,杉並区,32-4,清水1-19,しみず有料駐車場,35.710172,139.6176376
東京都,杉並区,32-5,清水2-9,清水森公園,35.7134811,139.6173189
東京都,杉並区,32-6,清水1-35,松原氏所有若松駐車場,35.7121772,139.6176376
東京都,杉並区,32-7,清水2-17-12,清水いづみ公園,35.7139846,139.6157256
東京都,杉並区,32-8,清水2-20-8,清水いこいの森,35.71469099999999,139.6169006
東京都,杉並区,33-1,成田東2-7,都立善福寺川緑地道路沿い,35.6873673,139.6335734
東京都,杉並区,33-2,成田東1-21-1,東田小学校南東側,35.6909763,139.6387538
東京都,杉並区,33-3,成田東1-21-1,東田小学校西側,35.6909763,139.6387538
東京都,杉並区,33-4,成田東2-19-8,成三公園,35.68957049999999,139.6354859
東京都,杉並区,33-5,成田東1-4,東京電力鉄塔杉並線№13,35.6873115,139.638594
東京都,杉並区,33-6,成田東1-21-1,東田小学校北東側,35.6909763,139.6387538
東京都,杉並区,33-7,成田東2ｰ29ｰ5,区営成田東二丁目第二アパート,35.6903141,139.6355756
東京都,杉並区,33-8,成田東2-39,都立善福寺川緑地尾崎橋際,35.6912212,139.6338921
東京都,杉並区,34-1,成田東4-3-4,プラウドシティ阿佐ヶ谷ヴィラ,35.6954345,139.6332912
東京都,杉並区,34-2,成田東4-17-14,天桂寺北西側,35.6971424,139.6369514
東京都,杉並区,34-3,成田東4-3-6,成宗さくら公園,35.6966906,139.6329724
東京都,杉並区,34-4,成田東4-18-9,海雲寺北東側,35.6965454,139.6375281
東京都,杉並区,34-5,成田東3-28-5,成田図書館,35.6951644,139.6377124
東京都,杉並区,34-6,成田東3-17-30,杉並土木事務所,35.6924322,139.6340345
東京都,杉並区,34-7,成田東3-19-17,東田中学校南側,35.6944598,139.63444
東京都,杉並区,34-8,成田東3-19-17,東田中学校北側,35.6944598,139.63444
東京都,杉並区,35-1,荻窪3-47-2,荻窪体育館,35.7025117,139.6269097
東京都,杉並区,35-2,荻窪3-40-23,中央図書館北側,35.7018876,139.626788
東京都,杉並区,35-3,成田東5-15-15,成宗公園,35.70131,139.6286826
東京都,杉並区,35-4,成田東5-39-11,杉並都税事務所南側,35.6997177,139.6343272
東京都,杉並区,35-5,成田東5-29-3,須賀神社,35.6979422,139.6316808
東京都,杉並区,35-6,成田東5-5-5,なりむね児童遊園,35.6987053,139.6287075
東京都,杉並区,35-7,荻窪3-33-12,大田黒公園北東側,35.700526,139.6245591
東京都,杉並区,35-8,荻窪3-33-12,大田黒公園北側,35.700526,139.6245591
東京都,杉並区,36-1,成田西4-15-15,都立杉並高等学校,35.6970512,139.6314541
東京都,杉並区,36-2,成田西2-12-4,成田西公園,35.689978,139.6236927
東京都,杉並区,36-3,成田西3-1,都立善福寺川緑地相生橋際,35.6925338,139.6333044
東京都,杉並区,36-4,成田西1-22-13,杉並児童交通公園,35.6889213,139.6311012
東京都,杉並区,36-5,成田西3-10-38,子ども・子育てプラザ成田西,35.6912516,139.6307711
東京都,杉並区,36-6,成田西2-6-18,都立豊多摩高等学校北西側,35.687115,139.628052
東京都,杉並区,36-7,成田西2-6-18,都立豊多摩高等学校南側,35.687115,139.628052
東京都,杉並区,36-8,成田西4-12-1,研修センター杉並寮,35.695559,139.629244
東京都,杉並区,37-1,荻窪3-7,シャレール荻窪北側,35.6969733,139.6257643
東京都,杉並区,37-2,荻窪3-12,松渓橋際,35.696368,139.6243481
東京都,杉並区,37-3,荻窪3-7,シャレール荻窪南側,35.6969733,139.6257643
東京都,杉並区,37-4,荻窪1-56-3,ゆう杉並,35.6945288,139.6275455
東京都,杉並区,37-5,荻窪1-50-33,天神橋公園,35.6945014,139.6259072
東京都,杉並区,37-6,荻窪1-38-15,西田小学校南側,35.6942235,139.6217954
東京都,杉並区,37-7,荻窪1-38-15,西田小学校西側,35.6942235,139.6217954
東京都,杉並区,37-8,荻窪1-39-1,松溪公園,35.6949914,139.6219802
東京都,杉並区,38-1,荻窪2-40-1,松渓橋公園,35.6975565,139.6228561
東京都,杉並区,38-2,荻窪2-27-8,荻窪公園南東側,35.6976958,139.6201023
東京都,杉並区,38-3,荻窪2-25-1,中道寺,35.6965964,139.6196663
東京都,杉並区,38-4,荻窪2-40,都営荻窪二丁目アパート,35.6976158,139.6227365
東京都,杉並区,38-5,荻窪2-3-1,松溪中学校北側,35.6959586,139.6219814
東京都,杉並区,38-6,荻窪2-3-1,松溪中学校東側,35.6959586,139.6219814
東京都,杉並区,38-7,荻窪2-15-11,西田公園,35.6954521,139.6207447
東京都,杉並区,39-1,南荻窪4-3-22,与謝野公園,35.6986763,139.6157397
東京都,杉並区,39-2,荻窪5-7-20,都立荻窪高等学校西側,35.7021177,139.6197109
東京都,杉並区,39-3,荻窪4-15-27,荻窪つどい公園,35.699966,139.6219924
東京都,杉並区,39-4,荻窪5-10-25,桃井第二小学校北東側,35.7014812,139.6175291
東京都,杉並区,39-5,荻窪4-21-21-16,荻窪南第一自転車駐車場,35.7032746,139.6228822
東京都,杉並区,39-6,南荻窪4-23-6,東京都杉並児童相談所,35.7011385,139.6150272
東京都,杉並区,39-7,荻窪5-7-20,都立荻窪高等学校南側,35.7021177,139.6197109
東京都,杉並区,39-8,荻窪4-31,NTTル・パルク24H荻窪駐車場,35.703919,139.6227365
東京都,杉並区,40-1,南荻窪3-28-7,たんぽぽ公園,35.7031525,139.6107068
東京都,杉並区,40-2,南荻窪2-25-16,荻窪第一児童遊園,35.6986628,139.612539
東京都,杉並区,40-3,南荻窪4-40-11,東京電力株式会社　荻窪支社,35.7029901,139.6160271
東京都,杉並区,40-4,南荻窪2-20,南荻窪区民農園,35.699517,139.6087951
東京都,杉並区,40-5,南荻窪2-37-28,神明中学校東側,35.7002541,139.6088249
東京都,杉並区,40-6,南荻窪2-37-28,神明中学校南側,35.7002541,139.6088249
東京都,杉並区,40-7,南荻窪2-37-22,天祖神社,35.7004876,139.6095817
東京都,杉並区,40-8,南荻窪2-1-1,大宮前体育館西側,35.6967585,139.6107467
東京都,杉並区,41-1,西荻南３-４-５,西荻南児童公園,35.7014615,139.6020396
東京都,杉並区,41-2,西荻南1-8-16,高井戸第四小学校南東側,35.6981683,139.602372
東京都,杉並区,41-3,西荻南1-8-16,高井戸第四小学校北側,35.6981683,139.602372
東京都,杉並区,41-4,西荻南1-8-16,高井戸第四小学校西側,35.6981683,139.602372
東京都,杉並区,41-5,西荻南3-18-9,西荻窪平和児童遊園,35.7032583,139.6020446
東京都,杉並区,41-6,西荻南1‐6-6-19,大宮前児童遊園,35.6973382,139.6012382
東京都,杉並区,41-7,西荻南1-5-2,民地,35.6968144,139.6011448
東京都,杉並区,41-8,西荻南1-8-16,高井戸第四小学校北東側,35.6981683,139.602372
東京都,杉並区,42-1,上荻3-5,中田橋周辺,35.7066587,139.6076799
東京都,杉並区,42-2,上荻2-21-6,上荻窪児童遊園,35.7064022,139.6131878
東京都,杉並区,42-3,上荻3-1,神明橋際,35.705599,139.609994
東京都,杉並区,42-4,上荻2-5-19,JR東日本荻窪変電所植込,35.7046118,139.6110139
東京都,杉並区,42-5,上荻2-36-6,上荻窪第三児童遊園,35.7090091,139.6112445
東京都,杉並区,42-6,上荻3-14-3,民地,35.7080713,139.6103377
東京都,杉並区,42-7,上荻3-16-6,上荻窪会議室跡地,35.7086986,139.607869
東京都,杉並区,42-8,上荻3-29-5,杉並会館南側,35.710427,139.607879
東京都,杉並区,43-1,西荻北1-19-9,マイルドハート西荻,35.7076332,139.6066801
東京都,杉並区,43-2,西荻北1-19-22,西荻北子供園,35.7077566,139.6071102
東京都,杉並区,43-3,西荻北1-9-5,西荻南区民集会所,35.704748,139.608875
東京都,杉並区,43-4,西荻北2-10-7,桃井第三小学校南側,35.7050769,139.6028361
東京都,杉並区,43-5,西荻北2-10-7,桃井第三小学校北側,35.7050769,139.6028361
東京都,杉並区,43-6,西荻北3-25-3,西荻北中央公園,35.706006,139.597694
東京都,杉並区,43-7,西荻北2-27-18,西荻北保育園,35.7073109,139.6026083
東京都,杉並区,43-8,西荻北2-37-20,関根橋・山下橋間,35.7081873,139.60308
東京都,杉並区,44-1,清水3-1-9,沓掛小学校東側,35.7159341,139.6213334
東京都,杉並区,44-2,本天沼2-38-32,天沼児童遊園,35.7145435,139.6269844
東京都,杉並区,44-3,本天沼3-39-7,わかたけ公園,35.7169231,139.6227266
東京都,杉並区,44-4,清水3-1-9,沓掛小学校南側,35.7159341,139.6213334
東京都,杉並区,44-5,清水3-1-9,沓掛小学校西側,35.7159341,139.6213334
東京都,杉並区,44-6,清水3-21-21,妙正寺公園北側,35.7173829,139.6181156
東京都,杉並区,44-7,清水3-21-21,妙正寺公園東側,35.7173829,139.6181156
東京都,杉並区,44-8,清水3-20-12,妙正寺体育館,35.7184277,139.6177048
東京都,杉並区,45-1,下井草2-38-2,民地,35.7226045,139.6259732
東京都,杉並区,45-2,下井草2-34-9,子どもの遊び場35番,35.722039,139.6260581
東京都,杉並区,45-3,下井草2-31-1,上ノ台公園,35.7210392,139.6262872
東京都,杉並区,45-4,下井草2-16-19,区営下井草二丁目アパート南側,35.7193651,139.6279947
東京都,杉並区,45-5,下井草2-15-13,銀杏稲荷公園北側,35.7190535,139.6268798
東京都,杉並区,45-6,下井草1-28-5,東原中学校北側,35.7178166,139.6312524
東京都,杉並区,45-7,下井草1-28-5,東原中学校南側,35.7178166,139.6312524
東京都,杉並区,45-8,下井草1-3-12,一本松公園,35.7153809,139.6345396
東京都,杉並区,46-1,下井草5-22,遊歩道植込,35.7242095,139.6165063
東京都,杉並区,46-2,下井草4-22-4,桃井第五小学校西側,35.7215896,139.6193803
東京都,杉並区,46-3,下井草4-22-4,桃井第五小学校南側,35.7215896,139.6193803
東京都,杉並区,46-4,下井草3-26-5,下井草図書館,35.7209399,139.6232575
東京都,杉並区,46-5,下井草5-1-18,下井草いこいの森,35.7195554,139.6160442
東京都,杉並区,46-6,下井草4-3-29,中瀬中学校南側,35.7195494,139.6194152
東京都,杉並区,46-7,下井草4-3-29,中瀬中学校北側,35.7195494,139.6194152
東京都,杉並区,46-8,下井草5-7-22,井草地域区民センター,35.7206705,139.6165432
東京都,杉並区,47-1,井草2-25-4,八成小学校東側,35.7284116,139.620167
東京都,杉並区,47-2,井草2-25-4,八成小学校南側,35.7284116,139.620167
東京都,杉並区,47-3,井草2-15-15,井草保育園,35.7269964,139.6199032
東京都,杉並区,47-4,井草3-20-10,井草北公園,35.7280524,139.6162733
東京都,杉並区,47-5,井草1-17-16,井草さくら公園,35.7257967,139.6230264
東京都,杉並区,47-6,井草3-13-18,ニチイケアハウス井草,35.7266146,139.6155264
東京都,杉並区,47-7,井草4-13,井草森公園東側,35.7268631,139.6128577
東京都,杉並区,47-8,井草1-32-1,区営井草一丁目アパート東側,35.7270978,139.6225859
東京都,杉並区,47-9,井草2-25-4,八成小学校北側,35.7284116,139.620167
東京都,杉並区,48-1,今川1-19-8,今川一丁目公園,35.7186931,139.6135945
東京都,杉並区,48-2,上井草2-28-3,四宮保育園,35.7226878,139.6087455
東京都,杉並区,48-3,上井草2-12-26,四宮小学校東側,35.720612,139.6105176
東京都,杉並区,48-4,上井草2-12-26,四宮小学校南側,35.720612,139.6105176
東京都,杉並区,48-5,上井草1-6-13,柿木図書館,35.7202731,139.6121243
東京都,杉並区,48-6,今川2-13-24,井荻中学校東側,35.7181069,139.6104805
東京都,杉並区,48-7,今川2-13-24,井荻中学校西側,35.7181069,139.6104805
東京都,杉並区,48-8,今川2-20-7,観泉寺幼稚園,35.7186022,139.6068435
東京都,杉並区,49-1,上井草3-35-23,早稲田大学上井草グラウンド,35.724528,139.6013875
東京都,杉並区,49-2,上井草3-28-1,上井草スポーツセンター,35.7230768,139.6025822
東京都,杉並区,49-3,上井草3-20-11,井草中学校東側,35.7219398,139.6026723
東京都,杉並区,49-4,上井草3-14-12,三谷小学校東側,35.7201704,139.6019998
東京都,杉並区,49-5,上井草3-14-12,三谷小学校南側,35.7201704,139.6019998
東京都,杉並区,49-6,今川3-25-1,都立農芸高校東側,35.7181499,139.6034527
東京都,杉並区,49-7,今川4-11,新町鳥居先公園,35.7156343,139.5993964
東京都,杉並区,49-8,今川3-25-1,都立農芸高校西側,35.7181499,139.6034527
東京都,杉並区,49-9,上井草3-12-10,三谷公園,35.7196198,139.5996253
東京都,杉並区,50-1,善福寺3-18,都立善福寺公園北側,35.7158356,139.5889311
東京都,杉並区,50-2,善福寺3-13-10,善福寺北児童館,35.7177392,139.5927853
東京都,杉並区,50-3,善福寺3-3-5,桃井第四小学校北側,35.716862,139.5940928
東京都,杉並区,50-4,善福寺3-3-5,桃井第四小学校南側,35.716862,139.5940928
東京都,杉並区,50-5,善福寺2-6-1,東京女子大学,35.7100725,139.5918833
東京都,杉並区,50-6,善福寺2-18,都立善福寺公園中央入口脇,35.7118447,139.5940406
東京都,杉並区,50-7,善福寺2-31,都立善福寺公園南側,35.71294,139.5918307
東京都,杉並区,50-8,善福寺3-27,都立善福寺公園西側,35.7152784,139.5876899
東京都,杉並区,51-1,桃井1-33-9,中通公園南側,35.7140331,139.6115831
東京都,杉並区,51-2,桃井2-10-9,桃井児童館,35.7120006,139.6107821
東京都,杉並区,51-3,桃井2-6-1,桃井第一小学校北側,35.7121553,139.6097012
東京都,杉並区,51-4,桃井2-6-1,桃井第一小学校東側,35.7121553,139.6097012
東京都,杉並区,51-5,桃井2-4-2,薬王院,35.7114717,139.6085163
東京都,杉並区,51-6,桃井2-12-12,桃井みどりの里,35.7127172,139.6110548
東京都,杉並区,51-7,桃井2-24-18,私立聖心保育園,35.7147386,139.6109996
東京都,杉並区,51-8,桃井1-19-6,桃井公園,35.7113372,139.6125444
東京都,杉並区,52-1,西荻北5-6,第二西荻北駐車場,35.7084692,139.6002725
東京都,杉並区,52-2,西荻北4-38-6,坂の上のけやき公園,35.7082216,139.5978832
東京都,杉並区,52-3,西荻北4-38-17,井荻公園,35.7082216,139.5978832
東京都,杉並区,52-4,善福寺1-9-19,井荻小学校西側,35.7112298,139.5952451
東京都,杉並区,52-5,善福寺1-8-3,荻窪中学校南側,35.710253,139.5970622
東京都,杉並区,52-6,善福寺1-8-3,荻窪中学校北側,35.710253,139.5970622
東京都,杉並区,52-7,善福寺1-10-19,井荻小学校東側,35.7108968,139.5960614
東京都,杉並区,52-8,善福寺2-14-21,善福寺２丁目社宅　社宅東側,35.711134,139.5948967
東京都,杉並区,53-1,松庵3-24-8,松庵わかくさ公園,35.7032989,139.596278
東京都,杉並区,53-2,松庵3-10-3,松庵稲荷神社,35.6996624,139.5959081
東京都,杉並区,53-3,松庵2-10-9,松庵東公園,35.6971344,139.5955836
東京都,杉並区,53-4,松庵1-16-1,まつぼっくり緑地,35.6963973,139.5934234
東京都,杉並区,53-5,松庵2-20-7,松庵梅林公園,35.6987926,139.5932144
東京都,杉並区,53-6,松庵1-14-22,松庵公園,35.6969298,139.5921068
東京都,杉並区,53-7,松庵2-23-24,松庵小学校西側,35.7001161,139.5931447
東京都,杉並区,53-8,松庵2-23-24,松庵小学校東側,35.7001161,139.5931447
東京都,杉並区,54-1,宮前5-19-8,大宮前保育園,35.6947505,139.6012398
東京都,杉並区,54-2,宮前5-19-2,なかよし公園,35.6951545,139.6017061
東京都,杉並区,54-3,宮前5-14-7,西宮公園奥側フェンス,35.6937345,139.6007877
東京都,杉並区,54-4,宮前4-21-32,都立西高等学校北側,35.6915257,139.6051774
東京都,杉並区,54-5,宮前4-21-32,都立西高等学校西側,35.6915257,139.6051774
東京都,杉並区,54-6,宮前5-1-25,西宮中学校南側,35.6919587,139.6017268
東京都,杉並区,54-7,宮前5-1-25,西宮中学校北側,35.6919587,139.6017268
東京都,杉並区,54-8,宮前4-13-6,区営宮前四丁目アパート北側通路内,35.6921207,139.6031298
東京都,杉並区,55-1,宮前3-15-10,大宮前公園北側,35.6963865,139.6073812
東京都,杉並区,55-2,宮前3-15-10,大宮前公園西側,35.6963865,139.6073812
東京都,杉並区,55-3,宮前3-29-2,小鳩公園,35.6963724,139.6083121
東京都,杉並区,55-4,南荻窪1-28-11,南荻窪公園,35.6964527,139.6130419
東京都,杉並区,55-5,宮前2-27‐30,宮下公園,35.6921668,139.6152924
東京都,杉並区,55-6,宮前2-2-30,松宮公園,35.6908012,139.6159788
東京都,杉並区,55-7,宮前2-12-1,宮前中学校,35.6933205,139.6107467
東京都,杉並区,55-8,宮前2-15-3,大善公園,35.6932656,139.6114898
東京都,杉並区,55-9,宮前2-12,宮前公園,35.6935946,139.6106272
東京都,杉並区,56-1,久我山5-39,都営久我山五丁目アパート26号棟,35.6910153,139.6013875
東京都,杉並区,56-2,久我山4-36-1,久我山児童遊園,35.6928562,139.5933438
東京都,杉並区,56-3,久我山4-30‐19,さざんか公園,35.6940951,139.5905566
東京都,杉並区,56-4,久我山4-13-18,区営久我山四丁目アパート,35.6905465,139.5961856
東京都,杉並区,56-5,久我山4-49-1,高井戸第二小学校西側,35.6918128,139.5991753
東京都,杉並区,56-6,久我山4-49-1,高井戸第二小学校北側,35.6918128,139.5991753
東京都,杉並区,56-7,久我山4-49-1,高井戸第二小学校北東側,35.6918128,139.5991753
東京都,杉並区,56-8,久我山5-36,東京電力大宮前開閉塔,35.690277,139.6024428
東京都,杉並区,57-1,久我山3-37-14,久我山稲荷神社,35.6885128,139.5964695
東京都,杉並区,57-2,久我山3-25,久我山中央緑地,35.6875198,139.5990843
東京都,杉並区,57-3,久我山3-23-20,久我山会館,35.6865794,139.5993565
東京都,杉並区,57-4,久我山3-10-16,久我山区民農園,35.6864463,139.592784
東京都,杉並区,57-5,久我山3-5-37,兵庫橋公園,35.6853063,139.5946186
東京都,杉並区,57-6,久我山1-7-41,岩崎通信機株式会社東側,35.6827526,139.597837
東京都,杉並区,57-7,久我山1-8,都営久我山アパート南東側,35.6832156,139.5952003
東京都,杉並区,57-8,久我山1-8,都営久我山アパート南西側,35.6832156,139.5952003
東京都,杉並区,58-1,高井戸西3-6-18,高井戸西公園,35.6895143,139.6133655
東京都,杉並区,58-2,高井戸西2-17,高井戸丸太緑地,35.6859969,139.6138136
東京都,杉並区,58-3,高井戸西2-2-1,高井戸小学校東側,35.6839238,139.6149485
東京都,杉並区,58-4,高井戸西2-7-36,桐の木公園,35.6847869,139.6103529
東京都,杉並区,58-5,高井戸西1-31-16,高井戸保育園,35.6828302,139.6130295
東京都,杉並区,58-6,高井戸西1-22,髙砂橋際,35.6825093,139.6087154
東京都,杉並区,58-7,高井戸西1-12-1,浴風会北西側,35.67963,139.609787
東京都,杉並区,58-8,高井戸西1-12-2,昭栄公園,35.6802126,139.6083271
東京都,杉並区,59-1,高井戸東4-12,柳窪公園,35.690031,139.618819
東京都,杉並区,59-2,高井戸東4-3-23,合同宿舎　高井戸住宅（公園側）,35.6879057,139.6210833
東京都,杉並区,59-3,高井戸東3-34,松林寺西側,35.6862433,139.6208244
東京都,杉並区,59-4,高井戸東4-3-23,合同宿舎　高井戸住宅（北側）,35.6879057,139.6210833
東京都,杉並区,59-5,高井戸東3-20-3,高井戸保健センター,35.6849764,139.6202725
東京都,杉並区,59-6,高井戸東3-7-8,高井戸東三丁目児童遊園,35.683449,139.615952
東京都,杉並区,59-7,高井戸東3-9-34,高井戸藤が丘公園,35.685505,139.617157
東京都,杉並区,59-8,高井戸東3-7-5,高井戸地域区民センター北側歩道沿い,35.6836296,139.6166262
東京都,杉並区,59-9,高井戸東3-14-23,高井戸正用公園,35.684605,139.624252
東京都,杉並区,60-1,高井戸東2-27,神田川河川敷(高井戸橋西側）,35.6826075,139.6166019
東京都,杉並区,60-2,高井戸東1-18-5,こども発達センター,35.6826144,139.6199081
東京都,杉並区,60-3,高井戸東1-28-1,高井戸中学校,35.6813092,139.6231698
東京都,杉並区,60-4,高井戸東2-13-16,つくだ公園,35.6796723,139.6151181
東京都,杉並区,60-5,高井戸東1-12-1,高井戸東小学校西側,35.6796413,139.6196193
東京都,杉並区,60-6,高井戸東1-28-2,三井の森公園,35.6807883,139.6225772
東京都,杉並区,60-7,下高井戸5-17-1,都立杉並総合高等学校南西側,35.6761768,139.6234237
東京都,杉並区,60-8,上高井戸3-9-6,東京電力高井戸変電所,35.6753281,139.6145605
東京都,杉並区,61-1,上高井戸2-12-8,上高井戸みどりの里,35.677866,139.608356
東京都,杉並区,61-2,上高井戸2-8,民地,35.6782011,139.6104679
東京都,杉並区,61-3,上高井戸2-15,宝陽幼稚園前,35.6782705,139.6074409
東京都,杉並区,61-4,上高井戸2-16-13,富士見丘中学校北東側,35.679196,139.606755
東京都,杉並区,61-5,上高井戸2-16-13,富士見丘中学校西側,35.679196,139.606755
東京都,杉並区,61-6,上高井戸2-17-32,上高井戸西原緑地,35.67844350000001,139.6063799
東京都,杉並区,61-7,上高井戸1-32,民地,35.6764918,139.6087154
東京都,杉並区,62-1,久我山5-12-17,民地,35.6879307,139.6054291
東京都,杉並区,62-2,久我山5-30-25,久我山東児童遊園,35.6885755,139.6045734
東京都,杉並区,62-3,久我山5-24-23,富士見丘北公園,35.6877893,139.6080182
東京都,杉並区,62-4,久我山5-18-7,久我山小学校東側,35.6860576,139.6062922
東京都,杉並区,62-5,久我山5-18-7,久我山小学校西側,35.6860576,139.6062922
東京都,杉並区,62-6,久我山2-22-64,富士見丘児童遊園北側道路沿い,35.683501,139.6069331
東京都,杉並区,62-7,久我山5-12-17,久我山東原公園,35.6879307,139.6054291
東京都,杉並区,62-8,久我山2-19-1,（新築）富士見丘小学校北東側,35.6833074,139.6051655
東京都,杉並区,63-1,和泉4-44-1,弁天橋東緑地,35.680922,139.6544956
東京都,杉並区,63-2,堀ノ内1-7,堀之内橋,35.6851917,139.6559462
東京都,杉並区,63-3,堀ノ内1-7-29,和田堀橋・定塚橋間,35.68591809999999,139.6558418
東京都,杉並区,63-4,堀ノ内1-3-1,泉南中学校南西側,35.6842818,139.6555299
東京都,杉並区,63-5,和泉4-50-6,和泉保健センター南側,35.6826505,139.6559031
東京都,杉並区,63-6,堀ノ内1-7,定塚橋際,35.6851917,139.6559462
東京都,杉並区,63-7,和泉4-41-1,泉南緑地,35.6804698,139.6557929
東京都,杉並区,64-1,上高井戸1-27-15,医王寺北西側,35.6739606,139.6120602
東京都,杉並区,64-2,上高井戸1-30-48,細淵マンション,35.6729142,139.610668
東京都,杉並区,64-3,上高井戸1-24-5,上高井戸宿公園,35.6724299,139.6128577
東京都,杉並区,64-4,上高井戸1-29-3,民地,35.6729478,139.6111649
東京都,杉並区,64-5,上高井戸1-17-11,民地,35.6714383,139.6111748
東京都,杉並区,64-6,上高井戸1-15-3,上高井戸南公園,35.6708707,139.6127332
東京都,杉並区,64-7,上高井戸1-4,京王電鉄㈱八幡山駅北側,35.6709375,139.6141323
東京都,杉並区,65-1,井草4-15,井草森公園北側,35.7276526,139.6112644
東京都,杉並区,65-2,井草4-12,井草森公園南側,35.7269513,139.6109458
東京都,杉並区,65-3,上井草1-26-18,柿木公園,35.723626,139.61231
東京都,杉並区,65-4,上井草2-41-11,四宮森児童館北側遊歩道,35.7243207,139.6082196
東京都,杉並区,65-5,上井草2-39-23,区営上井草二丁目アパート,35.7239993,139.6064448
東京都,杉並区,65-6,井草5-7,民地,35.7256553,139.604892
東京都,杉並区,65-7,井草5-16,民地,35.726852,139.6063058
東京都,杉並区,65-8,井草4-8,井草ひまわり公園,35.7262206,139.6112644
東京都,杉並区,66-1,桃井3-8-1,桃井原っぱ公園北側,35.7129357,139.6074409
東京都,杉並区,66-2,桃井4-3-2,勤労福祉会館,35.7125642,139.6021868
東京都,杉並区,66-3,桃井3-10,ロイヤルパークス荻窪西側,35.7139824,139.6064851
東京都,杉並区,66-4,桃井3-8-1,桃井原っぱ公園南側,35.7129357,139.6074409
東京都,杉並区,66-5,上荻4-2-10,関根文化公園,35.7088607,139.6049717
東京都,杉並区,66-6,上荻4-19-2,荻窪八幡神社,35.7106438,139.6064206
東京都,杉並区,66-7,桃井3-5,桃井三丁目緑地,35.7119078,139.604892
東京都,杉並区,66-8,桃井3-8-1,桃井原っぱ公園東側,35.7129357,139.6074409
東京都,杉並区,67-1,井草2-35-12,グランドメゾン杉並シーズン　南側,35.7308375,139.618034
東京都,杉並区,67-2,井草2-35-12,グランドメゾン杉並シーズン　南西側,35.7308375,139.618034
