prefecture,city,number,address,name,lat,long,note
東京都,東村山市,1-1,本町1-2-3,東村山市役所北側,35.7546184,139.4685107,
東京都,東村山市,1-2,本町1-2-3,東村山市役所東側,35.7546184,139.4685107,
東京都,東村山市,1-3,本町1-21-6,北久保駐車場東側,35.7571495,139.4687552,
東京都,東村山市,1-4,本町4-8,都営本町アパート27号棟北側,35.7525781,139.4696613,
東京都,東村山市,1-5,本町4-10,都営本町アパート20号棟東側,35.7541036,139.4725795,
東京都,東村山市,1-6,本町4-15-16,市立第一保育園南側,35.7534175,139.4734942,
東京都,東村山市,1-7,本町4-11,都営本町アパート第2集会室横,35.7529154,139.4712035,
東京都,東村山市,1-8,本町4-19-26,本町児童館西側,35.7537343,139.4749654,
東京都,東村山市,2-1,久米川町4-11-1,市立久米川小学校正門横,35.7623054,139.4715509,
東京都,東村山市,2-2,久米川町4-4-10,天王森保育園南側フェンス,35.7611695,139.472177,
東京都,東村山市,2-3,本町2-31-1,イトーヨーカ堂東村山店西側(敷地内),35.759208,139.4670092,
東京都,東村山市,2-4,本町2-3,東村山駅東口ロータリー(植込),35.7604301,139.4670787,
東京都,東村山市,2-5,久米川町3-30-5,TAC東村山スポーツセンター,35.7610943,139.4804292,
東京都,東村山市,2-6,久米川町0-2,masked,35.767809,139.4745686,
東京都,東村山市,2-7,久米川町4-11-1,市立久米川小学校グラウンド東側フェンス,35.7623054,139.4715509,
東京都,東村山市,2-8,久米川町4-31-34,masked,35.7665978,139.472629,
東京都,東村山市,3-1,久米川町2-4-1,市立第二中学校正門南側,35.770053,139.4748833,
東京都,東村山市,3-2,久米川町2-4-1,市立第二中学校体育館入口西側,35.770053,139.4748833,
東京都,東村山市,3-3,久米川町5-6-20,久米川町5丁目交差点熊野神社入口北側,35.7704365,139.4728301,
東京都,東村山市,3-4,久米川町1-49,都営久米川町1丁目アパート集会室前,35.7704732,139.4792079,
東京都,東村山市,3-5,久米川町1-39-1,masked,35.76791619999999,139.4837553,
東京都,東村山市,3-6,久米川町2-40-10,市立久米川東小学校南側フェンス,35.7656582,139.4826374,
東京都,東村山市,3-7,久米川町2-5-10,ボナールマンション西側植木畑(駐車場),35.7690333,139.4763403,
東京都,東村山市,3-8,久米川町2-23-4,masked,35.7646682,139.4809269,
東京都,東村山市,4-1,秋津町3-48-1,市立秋津小学校正門前,35.7729069,139.4818658,
東京都,東村山市,4-2,秋津町3-48-1,市立秋津小学校グラウンド東側,35.7729069,139.4818658,
東京都,東村山市,4-3,秋津町3-38-2,masked,35.7753267,139.4794553,
東京都,東村山市,4-4,秋津町4-7-10,masked,35.7765431,139.4833236,
東京都,東村山市,4-5,秋津町3-51-25,秋津児童館東側,35.7733435,139.4834685,
東京都,東村山市,4-6,秋津町4-25-1,秋津第2児童遊園(秋水園南),35.7792467,139.4847718,
東京都,東村山市,4-7,秋津町2-15,肥沼氏所有植木畑(志木街道沿),35.771506,139.4879218,
東京都,東村山市,4-8,秋津町2-17-10,秋津文化センター,35.7710415,139.4865894,
東京都,東村山市,5-1,秋津町4-35-11,市立秋津東小学校正門横,35.7753442,139.4887123,
東京都,東村山市,5-2,秋津町5-20-3,茂野豆腐店南側畑,35.7766846,139.4936455,
東京都,東村山市,5-3,秋津町5-25-34,JR新秋津駅前ロータリー,35.7766846,139.4936455,
東京都,東村山市,5-4,秋津町1-31-9,関駐車場(ブロック塀),35.7721098,139.4936455,
東京都,東村山市,5-5,秋津町5-17-1,新秋津駅第5駐輪場,35.77633460000001,139.4925952,
東京都,東村山市,5-6,秋津町1-28,都営秋津1丁目アパート1号棟北側,35.7721098,139.4936455,
東京都,東村山市,5-7,秋津町5-1,都営秋津5丁目アパート6号棟西側公園,35.7797045,139.4950566,
東京都,東村山市,5-8,秋津町2-29-14,市立第六中学校グラウンド北側,35.7697923,139.4899895,
東京都,東村山市,6-1,青葉町2-33-1,市立青葉小学校正門横,35.7646662,139.4901203,
東京都,東村山市,6-2,青葉町2-15-10,青葉第2児童遊園,35.7624849,139.4844733,
東京都,東村山市,6-3,青葉町2-24-1,青葉町2丁目第3仲よし広場西側,35.7631857,139.4885577,
東京都,東村山市,6-4,青葉町2-35,青葉児童クラブ西側,35.7631857,139.4885577,
東京都,東村山市,6-5,青葉町3-1-2,都営青葉町3丁目アパート2号棟南側公園,35.7669063,139.4949175,
東京都,東村山市,6-6,青葉町4-1-13,青葉町第3児童遊園,35.7676153,139.5000029,
東京都,東村山市,6-7,青葉町3-21-30,星ヶ丘公園,35.7695081,139.4942815,
東京都,東村山市,6-8,青葉町2-33-1,市立青葉小学校グラウンド東側,35.7646662,139.4901203,
東京都,東村山市,7-1,青葉町4-1-1,全生園正門横,35.7659534,139.4957562,
東京都,東村山市,7-2,青葉町4-1-1,全生園事務室前,35.7659534,139.4957562,
東京都,東村山市,7-3,青葉町4-1-1,全生園公会堂前,35.7659534,139.4957562,
東京都,東村山市,7-4,青葉町4-1-1,全生園ゲートボール場,35.7659534,139.4957562,
東京都,東村山市,7-5,青葉町4-1-1,全生園野球場北側,35.7659534,139.4957562,
東京都,東村山市,8-1,青葉町1-7-1,多摩北部医療センター入口前,35.7609442,139.4941943,
東京都,東村山市,8-2,青葉町1-7-1,多摩北部医療センター前信号,35.7609442,139.4941943,
東京都,東村山市,8-3,青葉町1-7-1,旧東村山ナーシングホーム東,35.7609442,139.4941943,
東京都,東村山市,8-4,青葉町1-27-23,青葉町1丁目第3仲よし広場,35.7606717,139.4936455,
東京都,東村山市,8-5,青葉町1-7-70,さくらコート青葉町東側,35.7580335,139.4928311,
東京都,東村山市,8-6,青葉町1-7,青葉駐在所(交番)横,35.7606717,139.4936455,
東京都,東村山市,8-7,青葉町1-2-13,青葉町1丁目第4仲よし広場,35.758628,139.4902362,
東京都,東村山市,9-1,恩多町4-38-1,市立第五中学校正門横,35.7606761,139.4808064,
東京都,東村山市,9-2,恩多町4-23-2,都立東村山高校南側畑,35.7581958,139.4762674,
東京都,東村山市,9-3,恩多町4-17-1,市立大岱小学校北側,35.7564647,139.4787957,
東京都,東村山市,9-4,恩多町4-27-1,masked,35.7580316,139.4758402,
東京都,東村山市,9-5,恩多町3-2-31,當麻氏所有畑東側,35.75323059999999,139.4809269,
東京都,東村山市,9-6,恩多町5-26-1,恩多児童遊園,35.75757979999999,139.486014,
東京都,東村山市,9-7,恩多町5-2-7,masked,35.7571081,139.4831484,
東京都,東村山市,9-8,恩多町5-31-7,東村山市恩多分室入口横,35.7600927,139.4877926,
東京都,東村山市,10-1,恩多町5-47-1,市立野火止小学校正門横,35.7563054,139.4856964,
東京都,東村山市,10-2,恩多町5-45-4,野火止児童クラブ東側,35.7567635,139.4870871,
東京都,東村山市,10-3,恩多町1-36-5,恩多町1丁目第1仲よし広場,35.7534253,139.4904836,
東京都,東村山市,10-4,恩多町1-1-5,万年園直売所西側,35.7540349,139.4885577,
東京都,東村山市,10-5,恩多町2-29-40,恩多町2丁目第2仲よし広場,35.7496858,139.4834704,
東京都,東村山市,10-6,恩多町2-1,都営恩多町2丁目アパート駐車場前,35.7490172,139.4797425,
東京都,東村山市,10-7,恩多町3-33-1,恩多稲荷公園,35.7521762,139.4818452,
東京都,東村山市,10-8,恩多町1-55-5,大岱公園,35.7540349,139.4885577,
東京都,東村山市,11-1,萩山町5-2-1,市立第三中学校正門横,35.7481868,139.4765534,
東京都,東村山市,11-2,萩山町5-2-1,市立第三中学校北門横,35.7481868,139.4765534,
東京都,東村山市,11-3,栄町1-7-2,都営栄町1丁目アパート3号棟西側公園,35.7497751,139.4752108,
東京都,東村山市,11-4,栄町1-18-18,栄町1丁目第2仲よし広場,35.7497656,139.4768533,
東京都,東村山市,11-5,萩山町5-5,masked,35.7469748,139.4788264,
東京都,東村山市,11-6,萩山町5-3,masked,35.74511,139.4834704,
東京都,東村山市,11-7,萩山町5-6,masked,35.74511,139.4834704,
東京都,東村山市,11-8,栄町1-22,都営栄町1丁目アパート集会室南側,35.7502527,139.4749974,
東京都,東村山市,12-1,萩山町1-36-3,萩山第2児童遊園西側,35.7380508,139.4837192,
東京都,東村山市,12-2,萩山町1-36-3,萩山第2児童遊園北側,35.7380508,139.4837192,
東京都,東村山市,12-3,萩山町1-35-1,希望の郷 東村山通用口東側,35.7366682,139.4833579,
東京都,東村山市,12-4,萩山町1-28-1,フレーシア北西(水道道路),35.7372674,139.4856701,
東京都,東村山市,12-5,萩山町1-14,都営萩山町1丁目アパート1号棟北側,35.7391602,139.4840233,
東京都,東村山市,12-6,萩山町1-6,江戸街道・水道道路の交差点,35.7371443,139.4854069,
東京都,東村山市,12-7,萩山町1-7,西武鉄道独身寮東側,35.7371443,139.4854069,
東京都,東村山市,13-1,萩山町2-15,市立萩山小学校正門前公園,35.7415905,139.4790193,
東京都,東村山市,13-2,萩山町4-16-1,市立萩山小学校北門横,35.7430335,139.4778718,
東京都,東村山市,13-3,萩山町4-5-8,萩山町4丁目仲よし広場,35.7454039,139.4758644,
東京都,東村山市,13-4,萩山町2-3-2,萩山公園,35.7415905,139.4790193,
東京都,東村山市,13-5,萩山町2-7-1,都営萩山町2丁目アパート7号棟東側公園,35.7410793,139.475489,
東京都,東村山市,13-6,萩山町2-1-1,西武鉄道萩山駅北口駅前広場,35.74011540000001,139.4775216,
東京都,東村山市,13-7,萩山町2-13,都営萩山町2丁目アパート3号棟南側,35.7415905,139.4790193,
東京都,東村山市,14-1,萩山町3-17,都営萩山町3丁目アパート集会所,35.7450665,139.4716977,
東京都,東村山市,14-2,萩山町3-6,都営萩山町3丁目第2アパート南側,35.7447332,139.4726613,
東京都,東村山市,14-3,萩山町3-17,都営萩山町3丁目アパート1号棟北側,35.7450665,139.4716977,
東京都,東村山市,14-4,萩山町3-17,都営萩山町3丁目アパート10号棟南側公園内,35.7450665,139.4716977,
東京都,東村山市,14-5,萩山町3-17,都営萩山町3丁目アパート7号棟東側,35.7450665,139.4716977,
東京都,東村山市,14-6,萩山町3-26,逸見病院南(水道道路),35.7447332,139.4726613,
東京都,東村山市,14-7,萩山町3-17,都営萩山町3丁目アパート14号棟北側,35.7450665,139.4716977,
東京都,東村山市,15-1,栄町3-34-1,市立八坂小学校南側フェンス,35.7493636,139.465918,
東京都,東村山市,15-2,栄町3-34-1,市立八坂小学校体育館入口左側,35.7493636,139.465918,
東京都,東村山市,15-3,栄町2-16,磯田ビル前緑地帯,35.7494214,139.4701182,
東京都,東村山市,15-4,栄町2-3,久米川駅前広場広告塔際,35.7494214,139.4701182,
東京都,東村山市,15-5,栄町2-23-1,都営栄町2丁目第2アパート南側公園,35.7483663,139.4717008,
東京都,東村山市,15-6,栄町3-15,都営栄町3丁目第2アパート北側公園,35.747875,139.4663039,
東京都,東村山市,15-7,栄町3-24,八坂駅西、水道道路線路際,35.747875,139.4663039,
東京都,東村山市,15-8,栄町3-16,八坂駅東、水道道路際,35.747875,139.4663039,
東京都,東村山市,16-1,富士見町1-5-2,市立第一中学校正門横,35.7425268,139.46074,
東京都,東村山市,16-2,富士見町1-2-49,南台公園西側,35.7422392,139.4586403,
東京都,東村山市,16-3,富士見町1-16-12,南台小学校グランド南側フェンス,35.7442045,139.4554611,
東京都,東村山市,16-4,富士見町5-4-57,市立富士見小学校東門,35.7467308,139.4583903,
東京都,東村山市,16-5,富士見町1-2-73,富士見町1丁目第1仲よし広場南側,35.7422392,139.4586403,
東京都,東村山市,16-6,富士見町1-7-35,市立富士見図書館前,35.7439397,139.4612754,
東京都,東村山市,16-7,富士見町1-2,富士見文化センター入口バス停横,35.7422392,139.4586403,
東京都,東村山市,16-8,富士見町5-4-5.7,市立富士見小学校正門横,35.74571359999999,139.4634587,
東京都,東村山市,17-1,富士見町2-4-12,私立明法学院高校正門横,35.7438878,139.4538937,
東京都,東村山市,17-2,富士見町2-1-2,万寿園バス停前,35.7446141,139.4543984,
東京都,東村山市,17-3,富士見町2-7-40,サンホーム正門横(植込),35.7397385,139.4545242,
東京都,東村山市,17-4,富士見町3-16-9,富士見第2児童遊園,35.7479224,139.4523201,
東京都,東村山市,17-5,富士見町3-2-35,富士見町3丁目第1仲よし広場,35.7479224,139.4523201,
東京都,東村山市,17-6,富士見町4-16-1,富士見第1児童遊園,35.7514653,139.449778,
東京都,東村山市,17-7,富士見町4-12-6,アベニール21 (北側畑),35.7514653,139.449778,
東京都,東村山市,17-8,富士見町2-9-9,富士見町2丁目第1仲よし広場西側,35.7392526,139.454013,
東京都,東村山市,18-1,美住町1-3,美住町1丁目第2アパート集会室横,35.747995,139.461464,
東京都,東村山市,18-2,美住町1-19-73,美住町1丁目第1仲よし広場,35.7503878,139.4612185,
東京都,東村山市,18-3,美住町2-2,美住町2丁目第2仲よし広場北側水道道路,35.7541328,139.4605829,
東京都,東村山市,18-4,美住町2-23-1,市立第七中学校グランド南側フェンス,35.7555918,139.4595102,
東京都,東村山市,18-5,美住町2-6-9,美住公園,35.7541328,139.4605829,
東京都,東村山市,18-6,美住町1-4,グリーンタウン美住一番街5号棟横,35.7487555,139.4649635,
東京都,東村山市,18-7,美住町1-5,都営美住町1丁目アパート2号棟北側公園,35.7479202,139.4633185,
東京都,東村山市,18-8,美住町2-23-1,市立第七中学校テニスコート前,35.7555918,139.4595102,
東京都,東村山市,19-1,廻田町3-28-1,市立回田小学校正門横,35.7589419,139.4462364,
東京都,東村山市,19-2,廻田町4-12-1,金山神社北側,35.7579843,139.4500362,
東京都,東村山市,19-3,廻田町2-12-6,きくや駐車場西側水道道路,35.7544067,139.4484642,
東京都,東村山市,19-4,廻田町1-10-1,masked,35.7556133,139.4529557,
東京都,東村山市,19-5,廻田町4-18-3,廻田文化センター西側,35.7592249,139.4513361,
東京都,東村山市,19-6,多摩湖町2-10-3,啓和パーキング北側,35.7616664,139.4453295,
東京都,東村山市,19-7,多摩湖町3-15-18,西武鉄道多摩湖駅構内,35.7663065,139.4425891,
東京都,東村山市,19-8,多摩湖町3-8-36,多摩湖町3丁目第1仲よし広場,35.7652081,139.4427877,
東京都,東村山市,20-1,野口町3-24-1,市立第四中学校正門横,35.7641292,139.4535919,
東京都,東村山市,20-2,多摩湖町1-33-1,都営多摩湖町1丁目第2アパート3号棟北側,35.7647783,139.4501532,
東京都,東村山市,20-3,多摩湖町4-3,masked,35.7669575,139.448507,
東京都,東村山市,20-4,野口町3-20-7,やつだ池児童遊園,35.7635054,139.455498,
東京都,東村山市,20-5,野口町3-45-1,市立北山小学校西門横,35.766482,139.4551504,
東京都,東村山市,20-6,野口町2-20,前川公園東側,35.7599629,139.4580404,
東京都,東村山市,20-7,野口町2-15-10,セブンイレブン横駐車場,35.7570559,139.4609395,
東京都,東村山市,20-8,野口町3-50-24,野口町3丁目第1仲よし広場,35.7660468,139.4525407,
東京都,東村山市,21-1,諏訪町1-4-1,市立化成小学校正門横,35.7645894,139.4657711,
東京都,東村山市,21-2,野口町4-31,masked,35.7655681,139.4605829,
東京都,東村山市,21-3,諏訪町1-4-1,市立化成小学校グラウンド西側門,35.7645894,139.4657711,
東京都,東村山市,21-4,諏訪町2-10-13,八国山団地井戸跡,35.7713749,139.4650325,
東京都,東村山市,21-5,野口町4-13-10,masked,35.7638846,139.4608428,
東京都,東村山市,21-6,野口町4-14-1,弁天池公園,35.7632851,139.4626493,
東京都,東村山市,21-7,野口町1-41,東村山駅西口ロータリー,35.7612095,139.4652994,
東京都,東村山市,21-8,野口町1-26-22,小山ハイツ西側,35.7585639,139.462609,
