prefecture,city,number,address,name,lat,long,note
東京都,武蔵野市,1~1,吉祥寺東町4-6,市立吉祥寺東町緑地 東側道路沿い,35.7071826,139.5924678,
東京都,武蔵野市,1~2,吉祥寺東町3-5,市立本宿公園 南側植木沿い,35.7084255,139.5888047,
東京都,武蔵野市,1~3,吉祥寺東町3-28-3,市立東保育園 西側入口鉄柵沿い,35.7065864,139.5908785,
東京都,武蔵野市,1~4,吉祥寺東町4-18,市立本田東公園南側,35.7040622,139.5941401,
東京都,武蔵野市,1~5,吉祥寺南町5-3-16,masked,35.7025856,139.590258,
東京都,武蔵野市,1~6,吉祥寺東町4-1-9,市立本宿小学校 正門南側,35.7051273,139.5906354,
東京都,武蔵野市,1~7,吉祥寺東町4-1-9,市立本宿小学校 北側鉄柵沿い,35.7051273,139.5906354,
東京都,武蔵野市,1~8,吉祥寺東町4-1-9,市立本宿小学校 校庭東側,35.7051273,139.5906354,
東京都,武蔵野市,2~1,吉祥寺南町2-14,末広通り第3自転車駐車場 西側,35.7018639,139.5838779,
東京都,武蔵野市,2~2,吉祥寺南町4-25-5,ゆとりえ西側植込み,35.6986821,139.5915364,
東京都,武蔵野市,2~3,吉祥寺南町2-27-1,市立第三小学校 プール西側,35.7031291,139.5864237,
東京都,武蔵野市,2~4,吉祥寺南町2-35-9,市立第三小学校 校庭東側,35.7025672,139.5870354,
東京都,武蔵野市,2~5,吉祥寺南町4-2406-4,資産活用課所有地東側,35.7032126,139.5798551,
東京都,武蔵野市,2~6,吉祥寺南町4-18,南町市民農園 吾妻通り沿い,35.7015424,139.5905566,
東京都,武蔵野市,2~7,吉祥寺南町4-4,市立さつき公園 東側,35.6996673,139.5875506,
東京都,武蔵野市,3~1,吉祥寺南町3-13,タイムズ吉祥寺南町3丁目駐車場 東側フェンス沿い,35.6988546,139.5867344,
東京都,武蔵野市,3~2,吉祥寺南町3-13-1,吉祥寺南町コミセン南側駐車場,35.6992539,139.5866782,
東京都,武蔵野市,3~3,吉祥寺南町3-6-15,市立南保育園西側,35.6994436,139.5859253,
東京都,武蔵野市,3~4,吉祥寺南町3-6-15,市立南保育園 東側,35.6994436,139.5859253,
東京都,武蔵野市,3~5,吉祥寺南町3-46,東京都所有地 西側,35.697246,139.5905566,
東京都,武蔵野市,3~6,吉祥寺南町3-25,市立本田南公園 東側,35.6981225,139.588536,
東京都,武蔵野市,3~7,吉祥寺南町3-41,市立東部公園 西側,35.69564039999999,139.5888844,
東京都,武蔵野市,4~1,吉祥寺東町2-16,市立東町公園 東側,35.7123041,139.5838679,
東京都,武蔵野市,4~2,吉祥寺東町2-5,市立八幡通り公園西側,35.7102194,139.5817182,
東京都,武蔵野市,4~3,吉祥寺東町2-29-12,市立0123吉祥寺 南側,35.7093604,139.5849296,
東京都,武蔵野市,4~4,吉祥寺東町2-39-2,masked,35.7088244,139.5865553,
東京都,武蔵野市,4~5,吉祥寺東町1-17,吉祥寺の杜 宮本小路公園 公園内北西の植栽前,35.7058459,139.5841864,
東京都,武蔵野市,4~6,吉祥寺東町1-23-8,市立第三中学校 南側,35.7076207,139.5872072,
東京都,武蔵野市,4~7,吉祥寺東町1-15,市立本田北公園 東側,35.7074559,139.5849827,
東京都,武蔵野市,4~8,吉祥寺東町1-19-17,masked,35.7052403,139.5854803,
東京都,武蔵野市,5~1,吉祥寺本町1-10,masked,35.7061931,139.5793908,
東京都,武蔵野市,5~2,吉祥寺本町1-11,FFビル前バス停西側,35.705678,139.579601,
東京都,武蔵野市,5~3,吉祥寺本町1-1,北口ロータリー広場植栽ポット,35.705678,139.579601,
東京都,武蔵野市,5~4,吉祥寺本町1-21-13,市立吉祥寺図書館 東側,35.7050228,139.5822357,
東京都,武蔵野市,5~5,吉祥寺本町1-18,吉祥寺大通り東第3自転車駐車場 東側,35.7041557,139.5812405,
東京都,武蔵野市,5~6,吉祥寺南町2-5-7,末広通り自転車駐車場 西側,35.701966,139.581758,
東京都,武蔵野市,5~7,吉祥寺南町1-6,市立吉祥寺南公園 南側,35.7014395,139.5803647,
東京都,武蔵野市,6~1,吉祥寺北町1-24-1,masked,35.7089275,139.575946,
東京都,武蔵野市,6~2,吉祥寺北町2-16,市立青葉公園 東側,35.7127732,139.5773592,
東京都,武蔵野市,6~3,吉祥寺北町1-22-10,吉祥寺北コミセン 東側,35.7122698,139.5779902,
東京都,武蔵野市,6~4,吉祥寺北町2-13,市立北町子ども広場 南側,35.714306,139.57925,
東京都,武蔵野市,6~5,吉祥寺北町2-4-5,市立第四小学校 北側,35.7116106,139.5807528,
東京都,武蔵野市,6~6,吉祥寺北町2-4-5,市立第四小学校 南側,35.7116106,139.5807528,
東京都,武蔵野市,6~7,吉祥寺北町2-734-2,23,35.7135755,139.5795685,
東京都,武蔵野市,6~8,吉祥寺北町1-3,北ーパーキング 東側,35.7094977,139.580285,
東京都,武蔵野市,7~1,吉祥寺本町2-3-1,東急百貨店吉祥寺店 西側駐輪場 柵,35.7049939,139.5777451,
東京都,武蔵野市,7~2,御殿山1-17,都立井の頭自然文化園 北側角,35.7008124,139.5706521,
東京都,武蔵野市,7~3,吉祥寺本町2-11-2,吉祥寺二葉栄養調理専門職学校 西側植込み,35.7035953,139.5763043,
東京都,武蔵野市,7~4,御殿山1-17,都立井の頭自然文化園 南側,35.7008124,139.5706521,
東京都,武蔵野市,7~5,吉祥寺本町2-17,西三条通り第2自転車駐車場東側,35.7045333,139.5761451,
東京都,武蔵野市,7~6,御殿山1-6,御殿山第3自転車駐車場 南側,35.7029481,139.5755878,
東京都,武蔵野市,7~7,御殿山1-6-1,御殿山自転車駐車場 南側,35.70288439999999,139.5765829,
東京都,武蔵野市,8~1,吉祥寺北町3-3,成蹊学園 5号館西側 けやき並木道東側,35.7127725,139.5728295,
東京都,武蔵野市,8~2,吉祥寺北町3-3,成蹊学園 山桜通り 南側塀沿い,35.7127725,139.5728295,
東京都,武蔵野市,8~3,吉祥寺北町3-8,市立かくれみの公園 北側,35.7134616,139.5711297,
東京都,武蔵野市,8~4,吉祥寺本町4-12,市立野田南公園 東側,35.7067485,139.5731199,
東京都,武蔵野市,8~5,吉祥寺本町4-17-16,市立第一小学校 西側,35.7089489,139.5735333,
東京都,武蔵野市,8~6,吉祥寺本町4-31,成蹊通り 歩道 バス停 (成蹊通り) 南側,35.7089882,139.5703337,
東京都,武蔵野市,8~7,吉祥寺本町4-14,市立もみのき公園西側,35.7058296,139.572085,
東京都,武蔵野市,8~8,吉祥寺本町4-30-2,masked,35.7083863,139.5706213,
東京都,武蔵野市,9~1,吉祥寺本町3-7,吉祥寺西公園 北側,35.7047648,139.5728612,
東京都,武蔵野市,9~2,吉祥寺本町3-27-19,市立井之頭小学校 北側,35.7035386,139.568871,
東京都,武蔵野市,9~3,吉祥寺本町3-27-19,市立井之頭小学校 東側,35.7035386,139.568871,
東京都,武蔵野市,9~4,吉祥寺本町3-27-19,市立井之頭小学校 南側,35.7035386,139.568871,
東京都,武蔵野市,9~5,御殿山2-10,御殿山通り 歩道植込み,35.7019094,139.5680053,
東京都,武蔵野市,9~6,御殿山2-14,玉川上水遊歩道 フェンス沿い,35.7013429,139.5661148,
東京都,武蔵野市,9~7,御殿山2-20,玉川上水遊歩道 フェンス沿い,35.7022297,139.5631697,
東京都,武蔵野市,10~1,吉祥寺北町3-16,市立北裏公園 南側,35.7182124,139.5736771,
東京都,武蔵野市,10~2,吉祥寺北町5-6,市立扶桑通り公園 東側,35.7175199,139.5716074,
東京都,武蔵野市,10~3,吉祥寺北町5-6-14,masked,35.7182236,139.5720651,
東京都,武蔵野市,10~4,吉祥寺北町5-11-41,市立第四中学校 北側,35.7193314,139.5687316,
東京都,武蔵野市,10~5,吉祥寺北町5-11-33,市営プール 西側,35.7188001,139.5677483,
東京都,武蔵野市,10~6,緑町3-1,市立緑町ふれあい広場 北側,35.7194708,139.5665128,
東京都,武蔵野市,10~7,吉祥寺北町5-11-20,総合体育館 西側,35.7178551,139.5674521,
東京都,武蔵野市,11~1,吉祥寺北町4-9,市立なかよし公園 北側,35.715055,139.5683499,
東京都,武蔵野市,11~2,吉祥寺北町4-11-46,水道部庁舎 南側,35.7139884,139.5665242,
東京都,武蔵野市,11~3,吉祥寺北町4-8,中央図書館広場 南側,35.71198,139.5659434,
東京都,武蔵野市,11~4,吉祥寺北町4-1,かえで公園 東側 歩道沿い,35.7122255,139.5684232,
東京都,武蔵野市,11~5,中町3-9-5,市立第一中学校 西側,35.7109878,139.5661985,
東京都,武蔵野市,11~6,中町3-9-5,市立第一中学校 南側,35.7109878,139.5661985,
東京都,武蔵野市,11~7,中町3-25-7,武蔵野赤十字保育園 西側,35.7082107,139.5682144,
東京都,武蔵野市,11~8,吉祥寺北町4-8,うさぎ山公園内 西側,35.71198,139.5659434,
東京都,武蔵野市,12~1,中町2-10,横河電機㈱グラウンド 東側,35.7063671,139.5634881,
東京都,武蔵野市,12~2,中町1-27,三鷹駅中町第4自転車駐車場 南側,35.7041509,139.5642045,
東京都,武蔵野市,12~3,中町1-18,中町第2自転車駐車場 北側フェンス沿い,35.704031,139.562135,
東京都,武蔵野市,12~4,中町1-14,三鷹駅舎東側広場(国木田独歩の碑)の柵内,35.70333400000001,139.5609411,
東京都,武蔵野市,12~5,中町2-9,文化会館通り 歩道,35.7045453,139.5622009,
東京都,武蔵野市,12~6,中町2-30,成蹊通り 歩道,35.7063307,139.5681844,
東京都,武蔵野市,12~7,中町1-14,三鷹駅北口西側 玉川上水フェンス沿い,35.70333400000001,139.5609411,
東京都,武蔵野市,12~8,中町1-18,中町第2自転車駐車場 南側生垣沿い,35.704031,139.562135,
東京都,武蔵野市,13~1,緑町2-2-28,市庁舎北側,35.7177674,139.5661616,
東京都,武蔵野市,13~2,緑町1-7,えのき公園 北側,35.7143454,139.5583223,
東京都,武蔵野市,13~3,緑町2-1-36,三井住友銀行武蔵野寮 東側,35.7158206,139.5651397,
東京都,武蔵野市,13~4,緑町2-3,都市再生機構B9号棟 西側,35.717105,139.562488,
東京都,武蔵野市,13~5,緑町2-3,都市再生機構A3号棟 西側,35.717105,139.562488,
東京都,武蔵野市,13~6,緑町2-6,都立武蔵野中央公園 東側道路沿い(都営武蔵野緑町二丁目第3アパート3号棟西側),35.7179859,139.5614187,
東京都,武蔵野市,13~7,緑町1-7-27,第一榎本荘駐車場 北側,35.7157995,139.5597296,
東京都,武蔵野市,13~8,緑町2-6,市立こうちゃん公園 南側,35.7179859,139.5614187,
東京都,武蔵野市,14~1,関前3-2-20,第五小学校 西側,35.7129743,139.5562988,
東京都,武蔵野市,14~2,西久保3-46-6,旧西久保保育園跡地 入口北側フェンス沿い,35.7115877,139.5604636,
東京都,武蔵野市,14~3,西久保3-11-11,masked,35.71317519999999,139.5609772,
東京都,武蔵野市,14~4,西久保3-9,市立城山仮設広場 東側,35.7108077,139.5603044,
東京都,武蔵野市,14~5,西久保3-23,masked,35.713314,139.5587126,
東京都,武蔵野市,14~6,西久保3-13,市立西久保児童公園西側,35.712227,139.559884,
東京都,武蔵野市,14~7,関前3-2-20,市立第五小学校 東側,35.7129743,139.5562988,
東京都,武蔵野市,15~1,西久保2-15,市立西久保2丁目防災広場 西側,35.7089406,139.5588718,
東京都,武蔵野市,15~2,西久保1-6,市立三谷公園南側,35.7072289,139.5605929,
東京都,武蔵野市,15~3,西久保1-30,市立野鳥の森公園 北側,35.7049989,139.5558475,
東京都,武蔵野市,15~4,西久保1-23-7,西久保コミセン 北側,35.706036,139.5568566,
東京都,武蔵野市,15~5,西久保1-43,市立西久保公園 北側,35.7061029,139.5536192,
東京都,武蔵野市,15~6,西久保1-24,ふじ公園 北側植栽,35.7066586,139.5571209,
東京都,武蔵野市,15~7,西久保2-443-3、2-440-5,masked,35.7094262,139.5579132,
東京都,武蔵野市,15~8,西久保2-11,城山ひろば公園 西側植込み,35.7086003,139.5592697,
東京都,武蔵野市,16~1,八幡町1-3,グリーンパーク遊歩道 南側植込み,35.7159779,139.5568025,
東京都,武蔵野市,16~2,八幡町2-3-10,都立武蔵野北高校 グランド西側,35.7201493,139.5576286,
東京都,武蔵野市,16~3,八幡町3-5-25,市立千川小学校 東側,35.7186784,139.5526287,
東京都,武蔵野市,16~4,八幡町1-6-6,水道部八幡町資材置場 伏見通り側,35.7152477,139.5541156,
東京都,武蔵野市,16~5,八幡町4-1,市立伏見通り公園 伏見通り側植込み内,35.7183014,139.5552904,
東京都,武蔵野市,16~6,八幡町4-10,・市立八幡町いこいの広場 北側敷地南側植込み,35.7202617,139.5562454,
東京都,武蔵野市,16~7,八幡町4-17,市立八幡町公園 北側,35.7190316,139.5549721,
東京都,武蔵野市,17~1,関前2-1-19,masked,35.7097957,139.5543251,
東京都,武蔵野市,17~2,関前3-14,市立関前公園 東側,35.7129056,139.5543354,
東京都,武蔵野市,17~3,関前2-31-6,masked,35.7119721,139.5467557,
東京都,武蔵野市,17~4,関前3-21,グリーンパーク遊歩道入口,35.7142084,139.5540171,
東京都,武蔵野市,17~5,関前4-13,市立関前四丁目公園西側,35.7141233,139.547253,
東京都,武蔵野市,17~6,関前3-37-26,市立関前南小学校 南側,35.7128143,139.5501127,
東京都,武蔵野市,17~7,関前3-40,市立大師通り公園 南側,35.7143495,139.5489639,
東京都,武蔵野市,17~8,関前1-6,市立久保公園 北側,35.7084515,139.5523459,
東京都,武蔵野市,18~1,関前5-1,桜橋公園 西側植栽,35.7100033,139.5434337,
東京都,武蔵野市,18~2,境4-6,境山野公園 北側,35.7079287,139.5418423,
東京都,武蔵野市,18~3,境4-2-15,市立第二小学校 南側,35.7085515,139.5420661,
東京都,武蔵野市,18~4,境4-13-28,都立武蔵高校 南側,35.7073153,139.5391073,
東京都,武蔵野市,18~5,境4-13-28,都立武蔵高校 東側(屋外バスケットコート前),35.7073153,139.5391073,
東京都,武蔵野市,18~6,境4-11,玉川上水遊歩道 フェンス沿い,35.7096433,139.5387077,
東京都,武蔵野市,18~7,関前5-11,市立ひぐち橋公園 南側,35.7126666,139.5415241,
東京都,武蔵野市,19~1,境1-23,市立本村公園 東側,35.7026137,139.5485262,
東京都,武蔵野市,19~2,境3-20-10,市立第六中学校 東側,35.708369,139.5458403,
東京都,武蔵野市,19~3,境1-19,masked,35.7046262,139.5467756,
東京都,武蔵野市,19~4,境2-14,スイングビル東側 植込み,35.7027176,139.5431154,
東京都,武蔵野市,19~5,境2-3-7,市民会館駐車場北側,35.7053164,139.543279,
東京都,武蔵野市,19~6,境2-6,市立かわばた公園 北側,35.7056966,139.5405693,
東京都,武蔵野市,19~7,境2-9,市立山中南公園南側,35.7049664,139.5408875,
東京都,武蔵野市,19~8,境2-22,市立末広公園 東側,35.7058624,139.5385007,
東京都,武蔵野市,20~1,境5-6,亜細亜大学 第二アジア会館 北側フェンス沿い,35.7068995,139.5358624,
東京都,武蔵野市,20~2,桜堤1-3,都市再生機構22号棟 東南側,35.7087951,139.5336494,
東京都,武蔵野市,20~3,桜堤1-3,サンヴァリエ桜堤24号棟 北側駐車場植込み,35.7087951,139.5336494,
東京都,武蔵野市,20~4,桜堤1-6,市立第2浄水場公園西側,35.7097797,139.5369492,
東京都,武蔵野市,20~5,境5-10-15,masked,35.7043145,139.5347178,
東京都,武蔵野市,20~6,桜堤1-1,都市再生機構5号棟 南東側,35.7082105,139.5372277,
東京都,武蔵野市,20~7,境5-15,市立さかい西公園 北側,35.7021363,139.5338863,
東京都,武蔵野市,20~8,桜堤1-7-23,桜堤調理場 敷地内公園北側,35.71100759999999,139.534831,
東京都,武蔵野市,21~1,境南町2-3,武蔵境駅南口ロータリー 植込み,35.7013068,139.5442293,
東京都,武蔵野市,21~2,境南町1-26,武蔵野赤十字病院 東側,35.6967375,139.5479916,
東京都,武蔵野市,21~3,境南町1-26,武蔵野赤十字病院 西側,35.6967375,139.5479916,
東京都,武蔵野市,21~4,境南町2-11-8,聖徳学園 南側,35.698759,139.5463812,
東京都,武蔵野市,21~5,境南町1-9,イトーヨーカドー第4駐車場前境南通り沿い植込み 南側,35.7002237,139.5475713,
東京都,武蔵野市,21~6,境南町2-27-27,市立境南小学校 西側,35.6971302,139.5444829,
東京都,武蔵野市,21~7,境南町2-12-19,武蔵境駅南自転車駐車場 西側,35.6991543,139.5441434,
東京都,武蔵野市,21~8,境南町2-3,武蔵野プレイス東側 歩道植込み,35.7013068,139.5442293,
東京都,武蔵野市,22~1,境南町4-1512-70、71,市道第89号線残地(市有地),35.699553,139.5351616,
東京都,武蔵野市,22~2,境南町3-14,市立境本公園 東側,35.699448,139.5410467,
東京都,武蔵野市,22~3,境南町3-22-9,境南コミセン 南側,35.698223,139.5400521,
東京都,武蔵野市,22~4,境南町5-1-1,市立境南保育園 北側,35.6970388,139.5408294,
東京都,武蔵野市,22~5,境南町5-10,市立境南くつろぎ公園 北側,35.695693,139.5370686,
東京都,武蔵野市,22~6,境南町3-17,市立もみじ山公園 東側,35.6998586,139.5385554,
東京都,武蔵野市,22~7,境南町4-21,市立境南中央公園 南側,35.6990289,139.5361139,
東京都,武蔵野市,22~8,境南町4-6,市立境南西公園 北側,35.7012236,139.5342841,
東京都,武蔵野市,23~1,桜堤2-14,玉川上水 新橋付近 南堤,35.7119427,139.5291132,
東京都,武蔵野市,23~2,桜堤2-1,桜堤団地中央公園 北側,35.7081269,139.5327726,
東京都,武蔵野市,23~3,桜堤2-7,市立くぬぎ公園 東側,35.7109105,139.5329317,
東京都,武蔵野市,23~4,桜堤2-1,くぬぎ橋通り 歩道,35.7081269,139.5327726,
東京都,武蔵野市,23~5,桜堤2-9,玉川上水 曙橋付近 南堤,35.7119846,139.5313406,
東京都,武蔵野市,23~6,桜堤3-8,都立小金井公園 東側,35.7153851,139.5273632,
東京都,武蔵野市,23~7,桜堤3-8,都立小金井公園 東側,35.7153851,139.5273632,
