prefecture,city,number,address,name,lat,long
東京都,江東区,1-1,新大橋1-5-3,新大橋永谷マンション・新一公園北側,35.688331,139.793248
東京都,江東区,1-2,新大橋3-8-7,森下駅第2自転車駐車場東側,35.68812740000001,139.7959648
東京都,江東区,1-3,新大橋3-1-15,区立八名川小学校北側,35.6869185,139.7955764
東京都,江東区,1-4,新大橋3-1-15,区立八名川小学校西側,35.6869185,139.7955764
東京都,江東区,1-5,森下1-3-17,深川神明宮北側,35.6865668,139.7974421
東京都,江東区,1-6,新大橋3-1-15,区立八名川小学校東側,35.6869185,139.7955764
東京都,江東区,1-7,森下1-3-17,深川神明宮西側石柵,35.6865668,139.7974421
東京都,江東区,1-8,常盤2-12-1,区立常盤二丁目児童遊園,35.6849902,139.7972456
東京都,江東区,2-1,森下3-5-16,区立森下三丁目第一児童遊園,35.6878532,139.8010592
東京都,江東区,2-2,森下2-5-16,区立森下公園北側,35.6862434,139.7997157
東京都,江東区,2-3,森下2-5-16,区立森下公園南側,35.6862434,139.7997157
東京都,江東区,2-4,森下4-16-2,区立森下四丁目児童遊園,35.6860422,139.8036715
東京都,江東区,2-5,森下3-13-9,区立高森公園,35.6844804,139.8028914
東京都,江東区,2-6,森下4-9-22,区立深川第一中学校東側,35.68525169999999,139.8058203
東京都,江東区,2-7,森下4-9-22,区立深川第一中学校西側,35.68525169999999,139.8058203
東京都,江東区,2-8,森下3-13-13,コープ森下東側,35.6850783,139.803247
東京都,江東区,3-1,白河1-5-15,区立白河一丁目公園東側,35.6826366,139.7999897
東京都,江東区,3-2,清澄2-11-5,区立清澄二丁目公園北側,35.6827097,139.7962895
東京都,江東区,3-3,白河1-3-26,深川江戸資料館東側植込,35.6808483,139.8000303
東京都,江東区,3-4,清澄2-2,都立清澄公園北側植込み,35.6802894,139.7955653
東京都,江東区,3-5,清澄3-3,都立清澄庭園東側入口横塀,35.6794684,139.7985641
東京都,江東区,3-6,三好1-4-14,松林院コンクリート塀,35.6799393,139.8009901
東京都,江東区,3-7,清澄2-2,都立清澄公園南側植込み,35.6802894,139.7955653
東京都,江東区,3-8,清澄3-3,都立清澄庭園児童公園部分南側,35.6794684,139.7985641
東京都,江東区,4-1,森下5-1-7,都立墨田工業高等学校北側,35.6853152,139.8069533
東京都,江東区,4-2,森下5-6-1,区立森下五丁目児童遊園西側,35.685395,139.8076148
東京都,江東区,4-3,白河3-18-17,区立白河三丁目水辺公園,35.68372129999999,139.8037949
東京都,江東区,4-4,白河4-9-17,区立元加賀幼稚園南側,35.6829673,139.8078115
東京都,江東区,4-5,白河4-3-19,区立元加賀小学校東側鉄柵,35.6822182,139.8083874
東京都,江東区,4-6,白河4-3-27,区立元加賀公園南東側,35.6817742,139.8090213
東京都,江東区,4-7,白河4-3-27,区立元加賀公園南側,35.6817742,139.8090213
東京都,江東区,4-8,三好4-1-1,東京都現代美術館北東側,35.6798258,139.8084276
東京都,江東区,5-1,平野4-6,都立木場公園「東京都現代美術館前」バス停前,35.6781038,139.8080323
東京都,江東区,5-2,平野2-8-5,銭高組平野住宅「フォンテーヌ平野」前,35.6787101,139.8031371
東京都,江東区,5-3,平野3-6-13,区立深川第六中学校東側,35.6788755,139.8056141
東京都,江東区,5-4,平野2-4-25,浄心寺南側,35.6785226,139.8018055
東京都,江東区,5-5,平野3-3-9,木場公園平野三丁目ハイツ北側,35.6776257,139.8057844
東京都,江東区,5-6,平野2-2-42,東浴信用組合平野倉庫西側,35.6772354,139.8006762
東京都,江東区,5-7,平野3-3先,区立福富川公園広場,35.6774468,139.8053149
東京都,江東区,5-8,平野4-6-1,都立木場公園西側「木場公園」バス停前,35.6767764,139.8076583
東京都,江東区,6-1,毛利2-13,都立猿江恩賜公園北側東寄り,35.6897556,139.8198739
東京都,江東区,6-2,毛利2-13,都立猿江恩賜公園北側西寄り,35.6897556,139.8198739
東京都,江東区,6-3,毛利1-14-1,区立深川第七中学校西側,35.6912523,139.8137613
東京都,江東区,6-4,毛利2-2-2,区立毛利小学校体育館通用門横,35.6914734,139.8164266
東京都,江東区,6-5,毛利1-14-1,区立深川第七中学校東側,35.6912523,139.8137613
東京都,江東区,6-6,毛利2-13,都立猿江恩賜公園(毛利2丁目)南側,35.6897556,139.8198739
東京都,江東区,6-7,住吉2-28,都立猿江恩賜公園(住吉2丁目) 北側ティアラ江東寄り,35.688355,139.8185833
東京都,江東区,6-8,住吉2-28,都立猿江恩賜公園(住吉2丁目)北側住吉駅寄り,35.688355,139.8185833
東京都,江東区,7-1,住吉1-19-20,区立住利公園南側,35.6900376,139.8126781
東京都,江東区,7-2,住吉1-12-2,区立東川小学校北側,35.6880942,139.8124732
東京都,江東区,7-3,住吉1-12-2,区立東川小学校西側,35.6880942,139.8124732
東京都,江東区,7-4,住吉1-8-13,区立住吉一丁目公園,35.6874847,139.8117608
東京都,江東区,7-5,猿江1-11-5,区立猿江一丁目公園北側,35.6863631,139.8130677
東京都,江東区,7-6,猿江2-16-18,都立墨東特別支援学校,35.68614,139.8176043
東京都,江東区,7-7,猿江2-3-10,区立猿江二丁目公園北側,35.6860422,139.8152809
東京都,江東区,7-8,猿江1-5-3,エステート猿江北側鉄柵,35.6848416,139.8116352
東京都,江東区,8-1,扇橋1-20-1,区営扇橋一丁目アパート1号棟東側,35.6839847,139.8108706
東京都,江東区,8-2,扇橋1-20-9,区立扇橋一丁目児童遊園西側,35.6832674,139.8107797
東京都,江東区,8-3,石島18-5,区立扇橋小学校西側,35.6811494,139.8123002
東京都,江東区,8-4,石島18-23,区立扇橋公園南側,35.6808512,139.8116936
東京都,江東区,8-5,千石1-12-12,区立深川第四中学校東側,35.6789301,139.8124283
東京都,江東区,8-6,千石1-7-8,区立千石児童遊園,35.6778255,139.8140366
東京都,江東区,8-7,千石1-5-28,区立千石運動公園東側,35.6774229,139.8129136
東京都,江東区,8-8,千石1-5-7,東京都タクシーメーター深川検査場西側,35.6774058,139.8123496
東京都,江東区,9-1,扇橋3-20-11,区立扇橋三丁目公園南側,35.6840154,139.8186682
東京都,江東区,9-2,扇橋3-7-16,区立三島橋公園北側,35.6828862,139.820342
東京都,江東区,9-3,千田16-5,区立江東公園西側,35.6823044,139.8163126
東京都,江東区,9-4,海辺1-3,区立川南海辺公園西側,35.6800364,139.8177039
東京都,江東区,9-5,千石2-9-12,区立川南小学校北側,35.6796496,139.8172193
東京都,江東区,9-6,千石2-7-4,区立千石公園西側,35.6793931,139.8155153
東京都,江東区,9-7,千石2-9-22,区立川南公園南側,35.6793413,139.8165049
東京都,江東区,9-8,千石3-2-11,都立大江戸高等学校南側,35.6793826,139.8178638
東京都,江東区,10-1,佐賀2-8-26,区立中の堀公園,35.679523,139.7922227
東京都,江東区,10-2,深川1-11-18,区立亀堀公園北側,35.678625,139.7956652
東京都,江東区,10-3,深川1-6-15,区立深川一丁目保育園東側,35.677438,139.7963117
東京都,江東区,10-4,深川1-6-38,区立亀堀公園南側,35.6774189,139.7955653
東京都,江東区,10-5,佐賀1-15-5,区立佐賀町公園,35.676981,139.7910365
東京都,江東区,10-6,深川2-17-26,区立明治小学校南側,35.6761443,139.7981665
東京都,江東区,10-7,冬木22-10,区立深川第二中学校西側,35.6763642,139.8002801
東京都,江東区,10-8,深川1-3-10,区立深川一丁目児童遊園,35.6755602,139.7956951
東京都,江東区,10-9,冬木22-10,区立深川第二中学校プール南側,35.6763642,139.8002801
東京都,江東区,11-1,永代1-7-8,区立永代公園,35.6741085,139.788374
東京都,江東区,11-2,門前仲町1-20-1,区立油堀川公園,35.6747578,139.7951388
東京都,江東区,11-3,門前仲町1-1-6,区立臨海小学校北側,35.6724921,139.7932081
東京都,江東区,11-4,門前仲町1-1-6,区立臨海小学校東側,35.6724921,139.7932081
東京都,江東区,11-5,門前仲町1-1-1,区立臨海公園西側,35.6719266,139.7929384
東京都,江東区,11-6,門前仲町1-1-1,区立臨海公園南側,35.6719266,139.7929384
東京都,江東区,11-7,越中島1-3-4,区立越中島一丁目児童遊園,35.6704493,139.7893345
東京都,江東区,11-8,越中島1-3-23,越中島プール南側,35.6690522,139.7895061
東京都,江東区,12-1,富岡1-17-9,区立深川公園庭球場側,35.6722881,139.798907
東京都,江東区,12-2,富岡1-18-7,区立数矢小学校裏門横,35.6725832,139.7996757
東京都,江東区,12-3,富岡1-14-10,区立深川公園南側,35.6723608,139.7974731
東京都,江東区,12-4,富岡1-16-10,区立深川公園富岡八幡宮側,35.6719219,139.7989315
東京都,江東区,12-5,富岡1-20,区立八幡堀遊歩道南側,35.6723507,139.7992687
東京都,江東区,12-6,牡丹2-1-2,区立牡丹町公園北側,35.6699595,139.7949406
東京都,江東区,12-7,牡丹2-1-2,区立牡丹町公園東側,35.6699595,139.7949406
東京都,江東区,12-8,牡丹3-14-9,牡丹町住宅駐車場南側,35.6693477,139.799381
東京都,江東区,13-1,古石場1-11-11,古石場福祉会館南側,35.669235,139.7947851
東京都,江東区,13-2,越中島2-16-13,区立調練橋公園北側,35.6677666,139.7959249
東京都,江東区,13-3,越中島2-2,東京海洋大学プール正面塀,35.6691735,139.7920894
東京都,江東区,13-4,越中島3-7-1,区立深川第三中学校西側,35.666599,139.7964085
東京都,江東区,13-5,古石場2-14-4,区立古石場二丁目児童遊園,35.6666734,139.8004729
東京都,江東区,13-6,越中島3-6-38,区立越中島小学校正門横,35.6657354,139.7970136
東京都,江東区,13-7,塩浜1-3-10,江東区塩浜保育園,35.66348079999999,139.8007629
東京都,江東区,13-8,塩浜1-4-4,区立浜園公園,35.6618791,139.8021451
東京都,江東区,13-9,塩浜1-5-1,都営塩浜一丁目アパート西側,35.6605226,139.8009564
東京都,江東区,14-1,木場4-1,都立木場公園西側,35.6749227,139.8096135
東京都,江東区,14-2,木場3-8,区立木場親水公園北側,35.6736749,139.8053948
東京都,江東区,14-3,木場3-6-9,区立木場三丁目公園,35.67435469999999,139.8040785
東京都,江東区,14-4,木場5-7,都立木場公園東側,35.6719469,139.8077126
東京都,江東区,14-5,木場5-7,都立木場公園南側,35.6719469,139.8077126
東京都,江東区,14-6,木場2-11-1,江東区道路事務所南側,35.6705929,139.8033536
東京都,江東区,14-7,木場1-2-2,区立平久小学校東側,35.6674638,139.8026426
東京都,江東区,14-8,木場6-4-18,区立平久公園,35.6667952,139.8074175
東京都,江東区,14-9,古石場3-1-4,区立古石場三丁目公園,35.6648062,139.8016303
東京都,江東区,15-1,東陽5-13,区立横十間親水公園,35.6733612,139.8123513
東京都,江東区,15-2,東陽5-29-39,区立東陽五丁目公園東側,35.67287779999999,139.813512
東京都,江東区,15-3,東陽5-32-19,都立深川高等学校東側,35.6710439,139.8156328
東京都,江東区,15-4,東陽5-32-9,都立深川高等学校西側,35.6715721,139.8153858
東京都,江東区,15-5,東陽3-23-20,東京都交通局東陽操車所東側,35.6697241,139.8148343
東京都,江東区,15-6,東陽3-27-27,区立東陽公園南側,35.6697817,139.8156197
東京都,江東区,-15,東陽3-8-11,区立沢海橋第二児童遊園,35.6695763,139.8090819
東京都,江東区,15-8,東陽3-22-1,都営東陽三丁目アパート1号棟北側,35.6691595,139.8137208
東京都,江東区,16-1,東陽6-3,うるおいの木かげ道路横十間川沿い植込み,35.6744537,139.8158761
東京都,江東区,16-2,東陽6-1-13,区立豊住公園北側,35.6742707,139.8108042
東京都,江東区,16-3,東陽6-1-13,区立豊住公園東側緑地,35.6742707,139.8108042
東京都,江東区,16-4,東陽4-11-45,都立江東特別支援学校北側,35.6737307,139.8177995
東京都,江東区,16-5,東陽4-11,江東区役所北側駐車場前植込み,35.6729139,139.8173043
東京都,江東区,16-6,東陽4-11,江東区役所西側緑地,35.6729139,139.8173043
東京都,江東区,16-7,東陽4-11-3,江東区文化センター南側植込み,35.672574,139.8184192
東京都,江東区,16-8,東陽4-3-12,都営東陽四丁目アパート12号棟北側,35.6707622,139.8170844
東京都,江東区,17-1,東陽1-29,区立洲崎川緑道公園大門通り西側植込み,35.668471,139.811898
東京都,江東区,17-2,東陽2-1-20,区立南陽小学校西側,35.6683966,139.8138818
東京都,江東区,17-3,東陽2-1-8,区立東陽中学校北側,35.666729,139.8140678
東京都,江東区,17-4,東陽2-3-6,区立教育センター西側植込み,35.6675612,139.8190979
東京都,江東区,17-5,東陽2-1-8,区立東陽中学校西側,35.666729,139.8140678
東京都,江東区,17-6,東陽2-3-6,東陽図書館南遊歩道,35.6675612,139.8190979
東京都,江東区,17-7,東陽1-39-8,区立東陽一丁目第二公園北側,35.666187,139.8126044
東京都,江東区,17-8,東陽1-19,東陽一丁目子供の広場跡地北側,35.6657129,139.8104301
東京都,江東区,19-1,塩浜2-26-8,区立塩浜二丁目児童遊園東側,35.6650163,139.8158654
東京都,江東区,19-2,塩浜2-21-14,区立深川第八中学校南側(東寄),35.6647534,139.8120686
東京都,江東区,19-3,塩浜2-21-14,区立深川第八中学校南側(西寄),35.6647534,139.8120686
東京都,江東区,19-4,塩浜2-10-14,区立塩浜公園南側,35.6646127,139.8109096
東京都,江東区,19-5,塩浜2-27,東京地下鉄(株) 深川アルファ96東側,35.6642828,139.8161852
東京都,江東区,19-6,塩浜2-11-6,社会福祉事業団新幸荘南側,35.6638004,139.8096237
東京都,江東区,19-7,塩浜2-5-15,社会福祉事業団新塩崎荘北側入口横,35.6621398,139.8049362
東京都,江東区,19-8,塩浜2-6-3,区立塩崎保育園植込み,35.6609264,139.8086421
東京都,江東区,20-1,枝川3-11,区立暁橋公園西側,35.6598239,139.8131903
東京都,江東区,20-2,枝川3-5-3,区立枝川小学校西側,35.6591783,139.8102626
東京都,江東区,20-3,枝川3-3-5,区立枝川三丁目公園西側,35.6588724,139.8083819
東京都,江東区,20-4,枝川1-8-5,区立朝凪公園北側,35.6577924,139.8021181
東京都,江東区,20-5,枝川2-18,区立枝川橋第二児童遊園北側,35.6573177,139.8059543
東京都,江東区,20-6,枝川1-6-19,区立枝川一丁目公園東側,35.6573234,139.8036366
東京都,江東区,20-7,枝川1-5-1,都営枝川一丁目アパート南側,35.6576787,139.8040761
東京都,江東区,20-8,潮見1-29,都営潮見一丁目アパート遊園北側,35.655969,139.815987
東京都,江東区,20-9,潮見1-29,江東区清掃事務所西側鉄柵,35.655969,139.815987
東京都,江東区,21-1,豊洲1-3-15,区立豊洲一丁目公園,35.6617577,139.793588
東京都,江東区,21-2,豊洲1-2-27,豊洲ハイライズ南側コンクリート壁,35.6616341,139.792616
東京都,江東区,21-3,豊洲3-6-1,区立豊洲北小学校正門脇植込み,35.658481,139.7978115
東京都,江東区,21-4,豊洲3-5,区立豊洲三丁目公園南側,35.6591263,139.7954282
東京都,江東区,21-5,豊洲3-5,区立豊洲三丁目公園子どもの広場西側,35.6591263,139.7954282
東京都,江東区,21-6,豊洲3-4-8,ホームセンタースーパービバホーム豊洲店南側,35.6569919,139.7979664
東京都,江東区,22-1,豊洲4-5-30先,区立豊洲四丁目公園北部西側,35.6549257,139.7983971
東京都,江東区,22-2,豊洲4-3,区立豊洲四丁目第二公園,35.6545343,139.7982822
東京都,江東区,22-3,豊洲4-5,区立豊洲四丁目公園南部西側,35.6547589,139.7995608
東京都,江東区,22-4,豊洲4-10,UR都市機構豊洲四丁目団地1号棟スロープ脇,35.6546793,139.7997207
東京都,江東区,22-5,豊洲4-4-4,区立豊洲小学校南門横植込み,35.6538191,139.7979526
東京都,江東区,22-6,豊洲4-11-18,区立深川第五中学校北側,35.652476,139.7998611
東京都,江東区,22-7,豊洲4-10,UR都市機構豊洲4丁目団地2号棟南西側,35.6546793,139.7997207
東京都,江東区,22-8,豊洲4-11-18,区立深川第五中学校西側,35.652476,139.7998611
東京都,江東区,23-1,東雲1-7,区立東雲緑道公園南部鉄柵,35.6465424,139.7987617
東京都,江東区,23-2,東雲1-8,都営東雲一丁目アパート4号棟児童遊園前,35.645444,139.799668
東京都,江東区,23-3,東雲2-4-17,区立東雲公園西側,35.6430758,139.7985869
東京都,江東区,23-4,東雲2-7-41,東京都交通局東雲庁舎植込み,35.6437557,139.8025882
東京都,江東区,23-5,東雲2-7-6,区立東雲二丁目公園,35.6428727,139.8039662
東京都,江東区,23-6,東雲2-4-11,区立東雲小学校北側,35.6426765,139.7989323
東京都,江東区,23-7,東雲2-4-11,区立東雲小学校西側,35.6426765,139.7989323
東京都,江東区,23-8,有明2-10,区立有明小・中学校北側,35.6388488,139.7946064
東京都,江東区,24-1,東雲1-9-46,グランチャ東雲南東側植込,35.6491817,139.803512
東京都,江東区,24-2,東雲1-9,東雲キャナルコート21号棟北側,35.6455427,139.8057045
東京都,江東区,24-3,東雲1-9,ブリリアイスト東雲キャナルコート西側,35.6455427,139.8057045
東京都,江東区,24-4,東雲1-9,東雲キャナルコート19号棟南側,35.6455427,139.8057045
東京都,江東区,24-5,東雲1-9先,区立東雲水辺公園,35.6455427,139.8057045
東京都,江東区,24-6,東雲1-9,東雲キャナルコート14号棟北東側,35.6455427,139.8057045
東京都,江東区,24-7,東雲1-9,東雲キャナルコート14号棟東側,35.6455427,139.8057045
東京都,江東区,25-1,辰巳1-5-15,住宅供給公社辰巳しののめ住宅南側,35.6525221,139.8068508
東京都,江東区,25-2,辰巳1-3,都営辰巳一丁目アパート5号棟北側集会所前,35.651273,139.8077126
東京都,江東区,25-3,辰巳1-8,都営辰巳一丁目アパート46号棟南側,35.6511477,139.8102702
東京都,江東区,25-4,辰巳1-8,都営辰巳一丁目アパート44号棟南側,35.6511477,139.8102702
東京都,江東区,25-5,辰巳1-3,都営辰巳一丁目アパート5号棟南側,35.651273,139.8077126
東京都,江東区,25-6,辰巳1-1,辰巳橋東側鉄柵,35.6489822,139.8090107
東京都,江東区,25-7,辰巳1-1-22,区立第二辰巳小学校北側,35.6483693,139.8080948
東京都,江東区,25-8,辰巳1-1-22,区立第二辰巳小学校南東側,35.6483693,139.8080948
東京都,江東区,26-1,辰巳2-5-1,住宅供給公社辰巳あけぼの住宅入口横,35.6535255,139.8162701
東京都,江東区,26-2,辰巳1-9,都営辰巳一丁目アパート48号棟北側,35.64958379999999,139.8099505
東京都,江東区,26-3,辰巳1-9,都営辰巳一丁目アパート61号棟南側,35.64958379999999,139.8099505
東京都,江東区,26-4,辰巳1-10,都営辰巳一丁目アパート64号棟北側,35.64811650000001,139.8105899
東京都,江東区,26-5,辰巳2-1,七号地港湾住宅駐車場フェンス,35.6466595,139.8127273
東京都,江東区,26-6,辰巳1-10-57,区立辰巳中学校東側鉄柵,35.6469539,139.811592
東京都,江東区,26-7,辰巳1-11-1,区立辰巳小学校西側,35.6465675,139.8106549
東京都,江東区,27-1,亀戸3-36-20,区立亀島小学校記念公園,35.7067739,139.8193527
東京都,江東区,27-2,亀戸3-51-10,新和自動車(株)北側,35.70561,139.8237226
東京都,江東区,27-3,亀戸3-57-22,香取神社東側,35.7042914,139.8252123
東京都,江東区,27-4,亀戸4-26-22,区立香取小学校南側,35.7036667,139.8262167
東京都,江東区,27-5,亀戸4-27-6,区立香取公園東側,35.7035395,139.8272973
東京都,江東区,27-6,亀戸3-6,亀戸天神社東側駐車場,35.7024884,139.8209715
東京都,江東区,27-7,亀戸4-43-8,区立亀戸四丁目公園けやきひろば北側,35.7026488,139.829376
東京都,江東区,27-8,亀戸4-51-1,区立第二亀戸中学校西側,35.702359,139.8322085
東京都,江東区,27-9,亀戸4-35-12,宝蓮寺南側,35.7020268,139.8275971
東京都,江東区,28-1,亀戸2-6,UR都市機構亀戸二丁目団地4号棟北側,35.701139,139.821891
東京都,江東区,28-2,亀戸2-6-3,UR都市機構 亀戸二丁目団地3号棟東側,35.7009043,139.8224726
東京都,江東区,28-3,亀戸2-6,UR都市機構 亀戸二丁目団地1号棟東側,35.701139,139.821891
東京都,江東区,28-4,亀戸2-5-7,区立第一亀戸小学校北側,35.6987998,139.8219308
東京都,江東区,28-5,亀戸2-5-7,区立第一亀戸小学校西側,35.6987998,139.8219308
東京都,江東区,28-6,亀戸2-2-20,東京電力パワーグリッド(株)墨東制御所西側,35.6985595,139.8201421
東京都,江東区,28-7,亀戸2-2-20,東京電力パワーグリッド(株)墨東制御所南側,35.6985595,139.8201421
東京都,江東区,28-8,亀戸2-4-13,区立文泉公園南側,35.6981177,139.8219992
東京都,江東区,29-1,亀戸5-22-22,区立水神小学校西側,35.7004545,139.8282378
東京都,江東区,29-2,亀戸5-22-22,区立水神小学校東側,35.7004545,139.8282378
東京都,江東区,29-3,亀戸5-22-22,区立水神小学校南側,35.7004545,139.8282378
東京都,江東区,29-4,亀戸8-2,都立亀戸中央公園北側,35.6993452,139.8345732
東京都,江東区,29-5,亀戸8-2,都立亀戸中央公園スポーツセンター向側,35.6993452,139.8345732
東京都,江東区,29-6,亀戸8-2,都立亀戸中央公園西側,35.6993452,139.8345732
東京都,江東区,29-7,亀戸8-2,都立亀戸中央公園南西側,35.6993452,139.8345732
東京都,江東区,29-8,亀戸5-44-8,白石工業(株)北側,35.6982482,139.8312989
東京都,江東区,30-1,亀戸1-9-5,区立亀戸西公園東側,35.695656,139.8226603
東京都,江東区,30-2,亀戸1-22,区立亀戸公園西側,35.6967596,139.8224135
東京都,江東区,30-3,亀戸1-12-10,区立第三亀戸中学校北側,35.6950718,139.8212442
東京都,江東区,30-4,亀戸1-12-10,区立第三亀戸中学校東側,35.6950718,139.8212442
東京都,江東区,30-5,亀戸1-12-10,区立第三亀戸中学校南側,35.6950718,139.8212442
東京都,江東区,30-6,亀戸1-24-6,区立亀戸第三保育園南側,35.6946499,139.8240444
東京都,江東区,30-7,亀戸1-15-10,区立竪川第一公園北側,35.6940131,139.8225004
東京都,江東区,31-1,亀戸6-62-5,亀戸駅東口自転車駐車場,35.6972744,139.8296783
東京都,江東区,31-2,亀戸6-30-1先,区立亀戸緑道公園北詰,35.6963756,139.8280184
東京都,江東区,31-3,亀戸6-20-8先,区立亀戸緑道公園中詰,35.6957875,139.8280687
東京都,江東区,31-4,亀戸6-18,区立亀戸南公園東側,35.6953028,139.827697
東京都,江東区,31-5,亀戸6-36-1,区立第二亀戸小学校東側,35.6947817,139.8303305
東京都,江東区,31-6,亀戸6-47,区立亀戸平岩公園北側,35.6944858,139.8319346
東京都,江東区,31-7,亀戸6-7-9先,区立亀戸緑道公園南詰,35.6948324,139.827777
東京都,江東区,31-8,亀戸6-33-10,区立竪川河川敷公園,35.6939726,139.8292161
東京都,江東区,32-1,亀戸9-33,区立亀戸九丁目緑道公園,35.6997468,139.8416191
東京都,江東区,32-2,亀戸9-22-4,区立浅間竪川小学校北側,35.6986467,139.84189
東京都,江東区,32-3,亀戸9-37-23,区立亀戸運動公園南側,35.6987061,139.8383814
東京都,江東区,32-4,亀戸9-33,住宅供給公社亀戸九丁目住宅駐車場入口,35.6997468,139.8416191
東京都,江東区,32-5,亀戸9-19,区立亀戸九丁目公園,35.69858910000001,139.8441692
東京都,江東区,32-6,亀戸7-15-5,区立亀戸七丁目北公園南側,35.6979231,139.8354478
東京都,江東区,32-7,亀戸9-21-13,(株)野村工務店横,35.6978662,139.84198
東京都,江東区,32-8,亀戸9-19-7,日商岩井亀戸マンション西側鉄柵,35.6984386,139.8443562
東京都,江東区,33-1,亀戸7-42,都営亀戸七丁目第三アパート7号棟北側,35.6967785,139.8356927
東京都,江東区,33-2,亀戸7-39-9,区立亀戸図書館前,35.6969774,139.839331
東京都,江東区,33-3,亀戸7-8-13,区立亀戸東公園西側,35.6964781,139.8334838
東京都,江東区,33-4,亀戸7-57-12,都営亀戸七丁目アパート12号棟東側,35.6960596,139.8374515
東京都,江東区,33-5,亀戸7-56-3,都営亀戸七丁目アパート3号棟南側,35.6961607,139.8355521
東京都,江東区,33-6,亀戸7-65-12,中央学院大学中央高等学校東側,35.6958324,139.8401734
東京都,江東区,33-7,亀戸7-67-2,コーシャハイム亀戸七丁目西側,35.6947921,139.8391547
東京都,江東区,34-1,亀戸9-9,区立亀戸緑地公園北寄り,35.6967867,139.8443292
東京都,江東区,34-2,亀戸9-9,区立亀戸緑地公園南側,35.6967867,139.8443292
東京都,江東区,34-3,亀戸9-2-2,区立亀戸中学校正門横,35.6955848,139.8416905
東京都,江東区,34-4,亀戸9-15-1,区立亀戸浅間公園北側,35.6959784,139.8440243
東京都,江東区,34-5,亀戸9-15-1,区立亀戸浅間公園南側,35.6959784,139.8440243
東京都,江東区,34-6,亀戸9-13-1,東京城東病院東側植込み,35.6952072,139.8460244
東京都,江東区,34-7,亀戸9-13-1,東京城東病院南側植込み,35.6952072,139.8460244
東京都,江東区,35-1,大島2-27-19,区立大島防災公園南側,35.6919011,139.8240044
東京都,江東区,35-2,大島2-11-7,区立大島二丁目公園西側,35.691525,139.8232324
東京都,江東区,35-3,大島2-41-4,区立第一大島小学校西側,35.6898197,139.8255348
東京都,江東区,35-4,大島2-1,都営地下鉄排気塔南側,35.6896968,139.8205018
東京都,江東区,35-5,大島2-41-4,区立第一大島小学校南側,35.6898197,139.8255348
東京都,江東区,35-6,大島1-34-8,区立大島一丁目公園北側,35.6881539,139.8256713
東京都,江東区,35-7,大島1-2-31,都立科学技術高等学校東側,35.6870338,139.8212599
東京都,江東区,35-8,大島1-2-31,都立科学技術高等学校西側,35.6870338,139.8212599
東京都,江東区,35-9,大島1-2-31,都立科学技術高等学校南側,35.6870338,139.8212599
東京都,江東区,36-1,大島3-22-1,都立城東高等学校北側,35.6925527,139.8302305
東京都,江東区,36-2,大島3-7先,区立大島緑道公園城東高校西側,35.691204,139.8278569
東京都,江東区,36-3,大島3-26-1,大島三丁目団地1号棟南側,35.6922899,139.831506
東京都,江東区,36-4,大島3-27-18,区立第二大島中学校北側,35.6918017,139.831076
東京都,江東区,36-5,大島3-9先,区立大島緑道公園城東高校南西側,35.6916,139.8281068
東京都,江東区,36-6,大島3-15-10付近,区立大島緑道公園内大島なかよし保育園前,35.6906187,139.8288317
東京都,江東区,36-7,大島3-14先,区立大島緑道公園城東郵便局西側,35.6898168,139.8283366
東京都,江東区,37-1,大島4-5-1,江東区総合区民センター北側植込,35.68903580000001,139.8269998
東京都,江東区,37-2,大島4-1,UR都市機構 大島四丁目団地7号棟北側,35.6893312,139.8262479
東京都,江東区,37-3,大島4-1,UR都市機構 大島四丁目団地2号棟北側,35.6893312,139.8262479
東京都,江東区,37-4,大島4-1,UR都市機構 大島四丁目団地1号棟西側,35.6893312,139.8262479
東京都,江東区,37-5,大島4-18-5,区立大島南央小学校西側,35.6872443,139.8317747
東京都,江東区,37-6,大島4-18-5,区立大島南央小学校南側,35.6872443,139.8317747
東京都,江東区,37-7,大島4-1,住宅供給公社西大島住宅西側鉄柵,35.6893312,139.8262479
東京都,江東区,37-8,大島4-1-23,区立大島西中学校東側,35.6861824,139.8275271
東京都,江東区,38-1,大島5-15-13,都営大島五丁目第2アパート13号棟北側,35.6879897,139.8335937
東京都,江東区,38-2,大島5-14-11,都営大島五丁目第2アパート11号棟西側,35.6877925,139.8333087
東京都,江東区,38-3,大島5-38-1,区立大島幼稚園東側,35.6872173,139.8359879
東京都,江東区,38-4,大島5-38-1,区立大島幼稚園西側,35.6872173,139.8359879
東京都,江東区,38-5,大島5-52,区立小名木川小学校(仮校舎)東側,35.6875058,139.8375218
東京都,江東区,38-6,大島5-24-4,都営大島五丁目第2アパート4号棟北側,35.686687,139.8342494
東京都,江東区,38-7,大島5-27,区立大島五丁目公園南東側,35.6864424,139.8356927
東京都,江東区,38-8,大島5-27,区立大島五丁目公園南側,35.6864424,139.8356927
東京都,江東区,39-1,大島6-1,UR都市機構 大島六丁目団地6号棟東側,35.68982,139.8335
東京都,江東区,39-2,大島6-1,UR都市機構 大島六丁目団地7号棟西側,35.68982,139.8335
東京都,江東区,39-3,大島6-1,UR都市機構 大島六丁目団地6号棟西側,35.68982,139.8335
東京都,江東区,39-4,大島6-1,UR都市機構 大島六丁目団地5号棟東側,35.68982,139.8335
東京都,江東区,39-5,大島6-1,UR都市機構 大島六丁目団地3号棟西側,35.68982,139.8335
東京都,江東区,39-6,大島6-7-8,区立第四大島小学校西側,35.6912314,139.8340258
東京都,江東区,39-7,大島6-7-8,区立第四大島小学校東側,35.6912314,139.8340258
東京都,江東区,39-8,大島6-1,UR都市機構 大島六丁目団地2号棟南側,35.68982,139.8335
東京都,江東区,40-1,大島9-7-9,都営大島九丁目アパート9号棟南側,35.6941005,139.84547
東京都,江東区,40-2,大島7-28-1,UR都市機構 大島七丁目団地東側,35.6934431,139.8401302
東京都,江東区,40-3,大島7-27-17,区立大島七丁目公園北側,35.6927651,139.8405655
東京都,江東区,40-4,大島9-5-3,区立第三大島小学校北側,35.6923996,139.844959
東京都,江東区,40-5,大島7-16,区立こどもの広場北側,35.6924433,139.8392111
東京都,江東区,40-6,大島9-5-3,区立第三大島小学校南側,35.6923996,139.844959
東京都,江東区,40-7,大島7-39-2,区立第三大島幼稚園東側,35.6912784,139.8437527
東京都,江東区,40-8,大島7-39-3,UR都市機構 東大島駅前ハイツ3号棟西側,35.6910915,139.8437801
東京都,江東区,41-1,大島9-2,都立大島・小松川公園わんさか広場北側,35.6887639,139.8454488
東京都,江東区,41-2,大島8-11-3,都営大島八丁目第2アパート3号棟北側,35.688585,139.8398493
東京都,江東区,41-3,大島8-11-2,都営大島八丁目第2アパート2号棟西側,35.6885797,139.8392761
東京都,江東区,41-4,大島9-2,都立大島・小松川公園わんさか広場西側バス停前,35.6887639,139.8454488
東京都,江東区,41-5,大島8-11-5,都営大島八丁目第2アパート5号棟南側,35.687954,139.8396474
東京都,江東区,41-6,大島8-40-13,区立第五大島小学校南側正門前,35.6882079,139.8446191
東京都,江東区,41-7,大島8-39-22,イトーピア東大島マンション東側鉄柵,35.68732079999999,139.8448954
東京都,江東区,41-8,大島8-12-22,区立大島中学校南側,35.6864623,139.8398617
東京都,江東区,42-1,北砂2-16先,区立北砂緑道公園西側,35.6845977,139.8249787
東京都,江東区,42-2,北砂1-3-25,区立北砂第二公園,35.6838301,139.82306
東京都,江東区,42-3,北砂1-1,北一団地自治会集会所東側,35.6814664,139.8220407
東京都,江東区,42-4,北砂1-2-9,江東区スポーツ会館駐輪場前,35.6841736,139.821624
東京都,江東区,42-5,北砂1-3-36,区立北砂小学校正門横,35.6831307,139.8234736
東京都,江東区,42-6,北砂1-1-4,区立北砂保育園東側コンクリート塀,35.6816974,139.821721
東京都,江東区,42-7,北砂1-1-6,区立北砂一丁目公園南側,35.6829208,139.8217231
東京都,江東区,42-8,南砂1-5-30,ウィンザーハイム南砂北側,35.6806307,139.821701
東京都,江東区,43-1,北砂2-9-14,区立北砂二丁目公園西側,35.6791467,139.8262679
東京都,江東区,43-2,北砂4-19-30,北砂四丁目住宅東側,35.6773653,139.8308552
東京都,江東区,43-3,北砂4-13-23,区立砂町小学校西側,35.677746,139.8294019
東京都,江東区,43-4,北砂2-1-37,志演尊空神社石垣,35.6775903,139.8266429
東京都,江東区,43-5,北砂4-13-23,区立砂町小学校正門横,35.677746,139.8294019
東京都,江東区,43-6,北砂4-19-30,北砂四丁目住宅南側,35.6773653,139.8308552
東京都,江東区,43-7,北砂4-20-24,区立砂町中央公園東側植込み,35.67666570000001,139.8316204
東京都,江東区,43-8,南砂5-6-1,区立境川公園西側,35.6766057,139.8287764
東京都,江東区,44-1,北砂3-5-41,ゾンネンハイム北砂北側,35.6847205,139.8303523
東京都,江東区,44-2,北砂3-5-41,ゾンネンハイム北砂南側植込み,35.6847205,139.8303523
東京都,江東区,44-3,北砂3-3-5,日本通運()株小名木川事業所北側,35.6832384,139.8275199
東京都,江東区,44-4,北砂3-3-5,日本通運()株小名木川事業所西側,35.6832384,139.8275199
東京都,江東区,44-5,北砂5-1-2,区立北砂公園西側植込み,35.6800153,139.8312953
東京都,江東区,44-6,北砂5-1-7,江東区砂町文化センター南側植込み,35.6804141,139.8319955
東京都,江東区,45-1,北砂5-20-16,区立亀高小学校東側鉄柵,35.6849911,139.8343547
東京都,江東区,45-2,北砂5-20-16,区立亀高小学校正門横,35.6849911,139.8343547
東京都,江東区,45-3,北砂5-20-17,区立第四砂町中学校南側,35.6847729,139.8323593
東京都,江東区,45-4,北砂5-20,都市機構 北砂五丁目 UR団地7号棟西側植込み,35.6833488,139.8317645
東京都,江東区,45-5,北砂5-20,都市機構 北砂五丁目 UR団地2号棟東側植込み,35.6833488,139.8317645
東京都,江東区,45-6,北砂5-20,都市機構 北砂五丁目 UR団地4号棟北側植込み,35.6833488,139.8317645
東京都,江東区,45-7,北砂5-20,都市機構 北砂五丁目 UR団地5号棟東側植込み,35.6833488,139.8317645
東京都,江東区,45-8,北砂5-20,都市機構 北砂五丁目 UR団地4号棟東側植込み,35.6833488,139.8317645
東京都,江東区,46-1,北砂6-16-12,丸八児童遊園東側,35.6853639,139.8376068
東京都,江東区,46-2,北砂6-19,区立仙台堀川公園緑道南東側,35.6852964,139.8385714
東京都,江東区,46-3,北砂6-16-28,区立砂町中学校南側,35.6846877,139.8368022
東京都,江東区,46-4,北砂6-26-6,区立第六砂町小学校裏門横,35.6817177,139.8375768
東京都,江東区,46-5,北砂6-26-8,亀高公園園內,35.6814498,139.8385754
東京都,江東区,46-6,北砂6-26-8,区立亀高公園東側,35.6814498,139.8385754
東京都,江東区,46-7,北砂6-27-24,森工業(株)垣根,35.6803859,139.8379924
東京都,江東区,47-1,東砂2-13,都営東砂二丁目アパート22号棟東側,35.6855401,139.8438493
東京都,江東区,47-2,東砂2-13,都営東砂二丁目アパート13号棟南側,35.6855401,139.8438493
東京都,江東区,47-3,東砂2-13,都営東砂二丁目アパート集会所東側,35.6855401,139.8438493
東京都,江東区,47-4,東砂2-13,都営東砂二丁目アパート16号棟南側,35.6855401,139.8438493
東京都,江東区,47-5,東砂2-13,都営東砂二丁目アパート1号棟南側,35.6855401,139.8438493
東京都,江東区,47-6,東砂2-6-5,都営東砂二丁目第3アパート5号棟西側,35.6841746,139.8428585
東京都,江東区,47-7,東砂2-12-14,区立東砂小学校東側,35.6837859,139.8439843
東京都,江東区,47-8,東砂2-12-14,区立東砂小学校西側,35.6837859,139.8439843
東京都,江東区,48-1,東砂1-2,区立東砂一丁目公園南西側,35.6830161,139.8396909
東京都,江東区,48-2,東砂1-2-1,都営東砂一丁目アパート1号棟西側,35.6826352,139.8395909
東京都,江東区,48-3,東砂3-16,区立東砂三丁目公園北側,35.6817416,139.8442692
東京都,江東区,48-4,東砂1-5-3,区立東砂第三保育園東側,35.6820889,139.8406079
東京都,江東区,48-5,東砂3-17-17,区立東砂三丁目第二公園南側,35.6815007,139.8421933
東京都,江東区,48-6,東砂3-19-5,区立東砂三丁目第2児童遊園北側,35.6809809,139.84213
東京都,江東区,48-7,東砂3-21-5,区立第七砂町小学校正門西側,35.6789175,139.8423998
東京都,江東区,48-8,東砂3-21-5,区立第七砂町小学校正門東側,35.6789175,139.8423998
東京都,江東区,49-1,東砂4-20-20,区立城東公園北側駐輪場鉄柵,35.6788996,139.8394338
東京都,江東区,49-2,東砂4-20-20,区立城東公園西側植込み,35.6788996,139.8394338
東京都,江東区,49-3,東砂4-20-2,愛和病院南側鉄柵,35.6778677,139.8387792
東京都,江東区,49-4,北砂7-7-1,UR都市機構 北砂7丁目団地正面植込み,35.678511,139.8367722
東京都,江東区,49-5,北砂7-2-30,区立北砂七丁目児童遊園南側植込み,35.6778646,139.8352258
東京都,江東区,49-6,東砂5-6-12,日本ウィリング(株) 平和工場北側塀,35.6773931,139.8417201
東京都,江東区,49-7,東砂5-10,東砂五丁目ハイツ4号棟前公園,35.6764932,139.8424098
東京都,江東区,49-8,北砂7-9,区立仙台堀川公園入口植込み,35.6765202,139.8360125
東京都,江東区,50-1,南砂1-3-18,区立南砂一丁目第二公園東側,35.6788355,139.8209815
東京都,江東区,50-2,南砂1-2-18,区立第二南砂中学校東側鉄柵,35.6779676,139.821451
東京都,江東区,50-3,南砂1-2-18,区立第二南砂中学校南側,35.6779676,139.821451
東京都,江東区,50-4,南砂1-16-8,東江運輸(株)駐車場南側,35.6772222,139.8242668
東京都,江東区,50-5,南砂1-1-6,区立南砂一丁目公園,35.677293,139.8210908
東京都,江東区,50-6,南砂1-1先,区立仙台堀川公園,35.6766489,139.8206517
東京都,江東区,50-7,南砂2-13-18,区立第四砂町小学校北側,35.675033,139.8220467
東京都,江東区,50-8,南砂2-24,区立南砂二丁目公園西側,35.6744687,139.8251386
東京都,江東区,51-1,南砂5-24,南砂五丁目アパート東側児童遊園,35.6749082,139.8352129
東京都,江東区,51-2,南砂5-24,都営南砂五丁目アパート9号棟東側植込み,35.6749082,139.8352129
東京都,江東区,51-3,南砂5-19-13,区立金森公園北側,35.6747853,139.8322004
東京都,江東区,51-4,南砂5-19,区立仙台堀川公園内広場,35.6745704,139.8318546
東京都,江東区,51-5,南砂4-4,区立南砂四丁目公園南東側柵,35.6745679,139.8289762
東京都,江東区,51-6,南砂6-5-7,区立南砂六丁目公園南側鉄柵,35.6730521,139.8345739
東京都,江東区,51-7,南砂4-3-21,区立南砂四丁目西公園,35.6739097,139.827667
東京都,江東区,51-8,南砂6-7-52,区立江東図書館前,35.6718104,139.8340775
東京都,江東区,52-1,東砂7-17-30,区立第二砂町小学校東側,35.6752587,139.8389962
東京都,江東区,52-2,東砂7-18,区立仙台堀川公園砂町区民農園横鉄柵,35.6751012,139.837132
東京都,江東区,52-3,東砂7-15-3,区立砂町公園南側植込み,35.6745125,139.8397174
東京都,江東区,52-4,東砂7-19-24,都立東高等学校正門横植込み,35.6737704,139.8365955
東京都,江東区,52-5,東砂7-13-10,都営東砂七丁目アパート10号棟北側,35.6729686,139.8400954
東京都,江東区,52-6,東砂7-13-9,都営東砂七丁目アパート9号棟南側鉄柵,35.6732472,139.8397857
東京都,江東区,52-7,東砂7-19,区立仙台堀川公園南東側塀(柵),35.6733781,139.837132
東京都,江東区,53-1,南砂2-3-20,区立南砂中学校北側,35.6736584,139.8234512
東京都,江東区,53-2,南砂2-3-20,区立南砂中学校西側,35.6736584,139.8234512
東京都,江東区,53-3,南砂2-3,住宅供給公社南砂住宅テニスコート金網,35.6716116,139.8233798
東京都,江東区,53-4,南砂2-3-21,区立南砂小学校体育館東側,35.6721346,139.8244741
東京都,江東区,53-5,南砂2-3-13,区立旧南砂西小学校西側,35.6719798,139.8213606
東京都,江東区,53-6,南砂2-3-21,区立南砂小学校東側,35.6721346,139.8244741
東京都,江東区,53-7,南砂2-3,住宅供給公社南砂住宅7号棟南側植込み,35.6716116,139.8233798
東京都,江東区,53-8,南砂2-3-23,区立南砂二丁目南公園南側,35.6716116,139.8233798
東京都,江東区,53-9,南砂2-3,住宅供給公社南砂住宅1号棟南側植込み,35.6716116,139.8233798
東京都,江東区,54-1,南砂3-11,都営南砂三丁目アパート12号棟横集会所東側,35.6697094,139.8305154
東京都,江東区,54-2,南砂3-14,区立南砂三丁目公園内グランド東側植込み,35.6701954,139.8329091
東京都,江東区,54-3,南砂3-10-3,区立第三砂町中学校正門横,35.6696272,139.8294175
東京都,江東区,54-4,南砂3-14-21,区立南砂三丁目公園東側,35.6696049,139.8332839
東京都,江東区,54-5,南砂7-14-18,富賀岡八幡宮南側石垣,35.6692852,139.8375912
東京都,江東区,54-6,南砂3-2,都営南砂三丁目第三アパート西側鉄柵,35.6704343,139.8268975
東京都,江東区,54-7,新砂3-3-47,区立新砂のぞみ公園南側植込み,35.6660034,139.8323344
東京都,江東区,54-8,新砂3-3,都営新砂三丁目アパート駐車場植込み,35.6660034,139.8323344
東京都,江東区,55-1,東砂7-5-27,区立第五砂町幼稚園北側金網,35.67144860000001,139.8387503
東京都,江東区,55-2,東砂7-5-17,区立東砂七丁目児童遊園西側鉄柵,35.6709239,139.8378873
東京都,江東区,55-3,東砂8-10-9,区立第二砂町中学校北側鉄柵,35.6681589,139.8399708
東京都,江東区,55-4,東砂8-10-9,区立第二砂町中学校東側鉄柵,35.6681589,139.8399708
東京都,江東区,55-5,東砂8-24,区立東砂八丁目公園,35.66759020000001,139.8424098
東京都,江東区,55-6,東砂8-10-9,区立第二砂町中学校南側鉄柵,35.6681589,139.8399708
東京都,江東区,55-7,東砂8-11-5,区立第五砂町小学校東側フェンス,35.6670653,139.8388809
東京都,江東区,55-8,新砂3-4-1,区立新砂めぐみ公園南側植込み,35.66687410000001,139.8346813
東京都,江東区,56-1,有明1-7-13,区立有明西学園東側,35.6372759,139.7842805
東京都,江東区,56-2,有明1-4-11,ブリリアマーレ有明南側植込み,35.6372165,139.7874765
東京都,江東区,56-3,有明1-7-13,区立有明西学園西側,35.6372759,139.7842805
東京都,江東区,56-4,有明2-3-5,江東区有明スポーツセンター北側,35.6332705,139.7838999
東京都,江東区,56-5,有明2-3-5,江東区有明スポーツセンター東側,35.6332705,139.7838999
東京都,江東区,57-1,豊洲2-3,区立豊洲公園東側植込み,35.6524575,139.7932695
東京都,江東区,57-2,豊洲2-3,区立豊洲公園南側,35.6524575,139.7932695
東京都,江東区,57-3,豊洲5-3,都営豊洲五丁目アパート東側植込み,35.6527289,139.7955653
東京都,江東区,57-4,豊洲5-1-35,区立豊洲西小学校北東側,35.6511372,139.7949876
東京都,江東区,57-5,豊洲6-2-1,区立豊洲六丁目第二公園,35.6500945,139.7922397
東京都,江東区,57-6,豊洲6-2-35,区立豊洲六丁目公園,35.6466772,139.7909608
