prefecture,city,number,address,name,lat,long,note
東京都,狛江市,1-1,和泉本町1-1-5,市役所正門植込,35.634931,139.578499,
東京都,狛江市,1-2,元和泉1-3-1,えきまえ広場柵,35.633536,139.577329,
東京都,狛江市,1-3,和泉本町1-1-5,市役所裏門左側植込,35.634931,139.578499,
東京都,狛江市,1-4,中和泉1-5,masked,35.634704,139.576862,
東京都,狛江市,1-5,中和泉1-18-18,松原児童遊園北側フェンス際,35.635486,139.573788,
東京都,狛江市,1-6,和泉本町1-7,ザ・パークハウス狛江前畑脇,35.636907,139.578772,
東京都,狛江市,1-7,masked,masked,35.633026,139.578653,
東京都,狛江市,1-8,東和泉1-18,狛江駅南口ロータリーバス停前植込,35.631912,139.577578,
東京都,狛江市,2-1,和泉本町4-3-1,緑野小学校正門左側フェンス際,35.641001,139.571125,
東京都,狛江市,2-2,和泉本町3-25-1,市民総合体育館入口左側植込,35.642044,139.573049,
東京都,狛江市,2-3,和泉本町 3-27-13,さくら児童遊園内フェンス際,35.643253,139.573471,都議選からは変更
東京都,狛江市,2-4,和泉本町 3-25-1,市民プール塀際(上和泉通り),35.641575,139.572845,都議選からは変更
東京都,狛江市,2-5,中和泉2-26-13,masked,35.639126,139.569508,
東京都,狛江市,2-6,中和泉2-18,中和泉第２マンション東側畑脇,35.639561,139.569822,
東京都,狛江市,2-7,中和泉5-18,小田急バス狛江営業所裏畑脇,35.641612,139.56699,
東京都,狛江市,2-8,中和泉5-12,名古屋商店駐車場右側フェンス際,35.640302,139.568184,
東京都,狛江市,3-1,猪方1-11-1,狛江第三小学校西門左側フェンス際,35.628077,139.584945,
東京都,狛江市,3-2,猪方1-11-1,狛江第三小学校南門左側フェンス際,35.628077,139.584945,
東京都,狛江市,3-3,猪方2-8,白幡菅原神社前畑フェンス際,35.627142,139.582276,
東京都,狛江市,3-4,岩戸南1-13,masked,35.630127,139.582037,
東京都,狛江市,3-5,岩戸南1-6-15,小川商店フェンス際,35.630406,139.58544,
東京都,狛江市,3-6,猪方1-7-18,masked,35.628642,139.581444,
東京都,狛江市,3-7,岩戸南1-2-12,岩戸第二児童遊園内フェンス際,35.631766,139.584037,
東京都,狛江市,3-8,東和泉2-9,清水川公園(二中通り側)出入口フェンス際,35.630097,139.580365,
東京都,狛江市,4-1,西和泉1-16-1,西和泉体育館西門ブロック塀際,35.640268,139.565144,
東京都,狛江市,4-2,西和泉2-1,旧多摩川住宅ニ-１号棟北側,35.638232,139.563408,
東京都,狛江市,4-3,中和泉5-23,狛江ショッピングセンター入口脇 根川フェンス際,35.641024,139.565,
東京都,狛江市,4-4,中和泉5-29,小田急バス狛江営業所向い なかいずみ農園脇,35.642927,139.566839,
東京都,狛江市,4-5,西和泉1-16-1,西和泉グランド東門左側植込(体育館寄り),35.640268,139.565144,
東京都,狛江市,4-6,西和泉1-15,西和泉バス停脇,35.638509,139.56516,
東京都,狛江市,4-7,西和泉2-15,旧多摩川住宅ニ棟駐車場植込(根川地区センター向い側),35.635613,139.563488,
東京都,狛江市,5-1,東野川1-35-13,狛江第五小学校正門右側生垣,35.644059,139.581415,
東京都,狛江市,5-2,東野川2-10-6,小足立児童グランド南側フェンス際,35.644084,139.579469,
東京都,狛江市,5-3,東野川2-19-2,ツグミ児童遊園フェンス際,35.646369,139.578996,
東京都,狛江市,5-4,東野川2-17-1,都営東野川二丁目アパート１号棟東側植込,35.645988,139.579803,
東京都,狛江市,5-5,東野川3-16-4,みつおさ児童公園南側フェンス際,35.64607,139.584236,
東京都,狛江市,5-6,東野川1-30,いわどきた農園休憩所脇,35.641156,139.582912,
東京都,狛江市,5-7,東野川3-14,東 野 川 市 民 テニスコート駐 車 場 右 側 フェンス際,35.646918,139.582276,
東京都,狛江市,5-8,東野川4-9,東野川保育園みんなの家横竹林フェンス際,35.644566,139.583549,
東京都,狛江市,6-1,駒井町1-21-1,狛江第六小学校正門右側フェンス際,35.624434,139.585152,
東京都,狛江市,6-2,駒井町1-12-1,駒井・上村中ひだまり公園フェンス際,35.625505,139.585858,
東京都,狛江市,42,岩戸南4-18-3,狛江みずほ幼稚園グランドフェンス際,,,削除
東京都,狛江市,6-4,駒井町2-35,駒井バス停向い畑脇,35.623809,139.588407,
東京都,狛江市,6-5,駒井町1-21-1,狛江第六小学校東門左側フェンス際,35.624434,139.585152,
東京都,狛江市,6-6,駒井町2-30-9,masked,35.623251,139.58605,
東京都,狛江市,6-7,駒井町3-9,駒井西バス停南側駐車場フェンス際,35.62298,139.583151,
東京都,狛江市,7-1,西野川1-6-9,野川地域センター北側フェンス際,35.646175,139.575548,
東京都,狛江市,7-2,西野川4-14-1,小足立のびのび公園脇,35.647674,139.572961,
東京都,狛江市,7-3,西野川3-5,グリーンリバー美野和向い側畑フェンス際(八幡通り),35.645228,139.572403,
東京都,狛江市,7-4,西野川4-4,松浦歯科医院前生垣,35.646464,139.570493,
東京都,狛江市,7-5,西野川2-34,ウェルスコート参番館西側歩道,35.649171,139.575429,
東京都,狛江市,7-6,西野川1-25-56,神代団地56号棟西側生垣,35.648469,139.577741,
東京都,狛江市,7-7,西野川1-1,消防団野川分団器具置場横畑脇,35.644448,139.576862,
東京都,狛江市,7-8,西野川4-38-7,本村児童遊園フェンス際,35.649858,139.573207,
東京都,狛江市,8-1,中和泉3-33-1,和泉小学校東門右側フェンス際,35.634657,139.568288,
東京都,狛江市,8-2,中和泉3-34-2,masked,35.635096,139.567378,
東京都,狛江市,8-3,中和泉4-3-32,アイディスクエア駐車場植込,35.637591,139.566668,
東京都,狛江市,8-4,中和泉3-13-5,エトワール狛江北側フェンス際,35.637311,139.569448,
東京都,狛江市,8-5,中和泉3-2,フォンテーヌ向い側畑脇,35.635594,139.571607,
東京都,狛江市,8-6,元和泉2-15-4,田中橋児童遊園植込(バス停脇),35.632861,139.57105,
東京都,狛江市,8-7,中和泉3-21,中和泉樹林地フェンス際,35.635386,139.56914,
東京都,狛江市,9-1,和泉本町 4-7-14,藤塚第一児童公園フェンス際,35.644279,139.567535,都議選からは変更
東京都,狛江市,9-2,和泉本町4-7,都営狛江アパート18号棟北側生垣(公園通り),35.643736,139.56906,
東京都,狛江市,9-3,和泉本町4-7-23,都営狛江アパート23号棟南側植込,35.644041,139.569239,
東京都,狛江市,9-4,和泉本町 4-7-39,藤塚第四児童公園植込,35.644279,139.567535,都議選からは変更
東京都,狛江市,9-5,和泉本町4-7-25,都営狛江アパート25号棟西側植込,35.643335,139.568527,
東京都,狛江市,9-6,和泉本町4-7-2,狛江営業所バス停脇,35.643199,139.567651,
東京都,狛江市,9-7,和泉本町4-7-9,都営狛江アパート９号棟西側植込,35.644064,139.567444,
東京都,狛江市,10-1,岩戸南3-15-1,岩戸児童センター入口左側フェンス際,35.629136,139.587926,
東京都,狛江市,10-2,岩戸南3-2,二の橋バス停裏植込,35.631563,139.589942,
東京都,狛江市,10-3,岩戸南3-3,masked,35.6314,139.589282,
東京都,狛江市,10-4,岩戸南3-7-13,masked,35.63104,139.590338,
東京都,狛江市,10-5,岩戸南3-11-9,ひかり作業所右側フェンス際,35.630022,139.591724,
東京都,狛江市,10-6,岩戸南3-7-5,はなみずき児童遊園フェンス際,35.630501,139.590298,
東京都,狛江市,10-7,岩戸南3-20,masked,35.628098,139.590158,
東京都,狛江市,11-1,和泉本町2-15-1,狛江第一中学校南門左側フェンス際,35.640766,139.577314,
東京都,狛江市,11-2,和泉本町2-15-2,市民グランド入口左側フェンス際,35.640442,139.579252,
東京都,狛江市,14-8,岩戸北1-13-1,ヴェルディア狛江北側フェンス際,35.6382354,139.5801157,105へ移動(78)
東京都,狛江市,11-3,岩戸北2-11,電力中央研究所デュオ狛江北・南館前,35.6383397,139.5833902,78へ移動(79)
東京都,狛江市,11-4,岩戸北2-11,電力中央研究所正門側フェンス際(一中通り),35.6383397,139.5833902,79へ移動(80)
東京都,狛江市,14-7,岩戸北1-6,masked,35.6363734,139.5810016,104へ移動(81)
東京都,狛江市,11-5,和泉本町1-30-5,masked,35.6379948,139.5748514,80に移動(82)
東京都,狛江市,11-6,和泉本町1-15,東京電力パワーグリッド狛江変電所向い側畑脇,35.6380835,139.5781354,81へ移動(83)
東京都,狛江市,12-1,猪方4-11-1,南部地域センター右側植込,35.6233581,139.5798036,83に移動(84)
東京都,狛江市,12-2,猪方3-3,masked,35.6267379,139.5755878,84へ移動
東京都,狛江市,12-3,猪方3-25-19,masked,35.6250906,139.5759499,85へ移動
東京都,狛江市,12-4,猪方3-14,masked,35.6258277,139.5797277,86へ移動
東京都,狛江市,12-5,猪方3-6,masked,35.6279533,139.57718,87へ移動
東京都,狛江市,12-6,猪方3-11,masked,35.6274191,139.5794092,88へ移動
東京都,狛江市,12-7,猪方4-9-4,三菱ケミカル多摩寮門左側植込,35.6239303,139.5796148,89へ移動
東京都,狛江市,13-1,元和泉1-23-1,狛江第三中学校正門左側フェンス際,35.6296583,139.5738538,90へ移動
東京都,狛江市,13-2,東和泉3-10-23,玉泉寺山門左側ブロック塀際,35.6267533,139.5740603,91へ移動
東京都,狛江市,13-3,東和泉4-5,和泉多摩川駅前芝生植込,35.6268768,139.5718462,92へ移動
東京都,狛江市,13-4,元和泉3-6-11,和泉多摩川児童公園フェンス際,35.6281291,139.5718905,93へ移動
東京都,狛江市,13-5,元和泉2-8-1,元和泉市民テニスコート南側フェンス際,35.6303557,139.5717666,94へ移動
東京都,狛江市,13-6,元和泉1-14-7,ジョイハイツ入口右側フェンス際,35.6321984,139.5750012,95へ移動
東京都,狛江市,13-7,東和泉1-35-13,ツクイ狛江デイサービスセンター前フェンス際,35.6291059,139.575689,96へ移動
東京都,狛江市,13-8,東和泉1-32-21,こまえ工房西側植込,35.630457,139.5760571,97へ移動
東京都,狛江市,14-1,岩戸北4-15-7,旧慶岸寺幼稚園入口右側フェンス際,35.6337376,139.5887348,98へ移動と名前変更(住所は一緒)
東京都,狛江市,14-2,岩戸北4-1-14,土屋レジデンスブロック塀際,35.6337363,139.5857527,99へ移動
東京都,狛江市,14-3,岩戸北4-2-2,masked,35.6353703,139.5863605,100へ移動
東京都,狛江市,14-4,岩戸北3-20-2,駄倉保育園西側フェンス際,35.6329014,139.5816401,101へ移動
東京都,狛江市,103,和泉本町1-2-34,小田急線高架下施設前,,,削除
東京都,狛江市,14-5,岩戸北4-5,インディペンデンスヴィレッジ成城西前駐車場フェンス際,35.6355638,139.5853917,102へ移動
東京都,狛江市,14-6,岩戸北4-2-19,グラン・ドミール入口左側フェンス際,35.6347019,139.5866747,103へ移動
