prefecture,city,number,address,name,lat,long,note
東京都,福生市,1-1,福生市本町5番地,福生市役所第2棟北側(階段手摺り),35.7385654,139.326855,
東京都,福生市,1-2,福生市大字福生479番地,masked,35.7363872,139.3243552,
東京都,福生市,1-3,福生市北田園二丁目9番地1,中央体育館(田園通側公用車置き場フェンス),35.7352762,139.3228123,
東京都,福生市,1-4,福生市本町25番地4,ひふみ公園南側(入口右側花壇),35.7393424,139.3294413,
東京都,福生市,1-5,福生市志茂73番地,志茂公園北側(入口右側花壇),35.7362833,139.3308091,
東京都,福生市,1-6,福生市大字福生786番地1,(株)大多摩ハム小林商会前(駐車場フェンス),35.7416032,139.3310615,
東京都,福生市,1-7,福生市本町43番地,スズケン福生支店 (東側フェンス),35.7408838,139.3302509,
東京都,福生市,1-8,福生市志茂232番地,中福生会館前(道路側フェンス町会掲示板左側),35.735975,139.3267519,
東京都,福生市,2-1,福生市大字福生1055番地,福生第一小学校西門脇右(格子型フェンス),35.7419383,139.3255173,
東京都,福生市,2-2,福生市大字福生773番地13,福生駅西口公園(植え込みの中に設置),35.7422633,139.3276912,
東京都,福生市,2-3,福生市加美平三丁目10番地,加美平南公園西側(消火栓標識より右側柵),35.7466896,139.3242349,
東京都,福生市,2-4,福生市加美平三丁目26番地,加美平西公園北側(フェンスを使用、警察署側寄って),35.7491254,139.3209994,
東京都,福生市,2-5,福生市大字福生1290番地,福生第四小学校南門脇(プール更衣室前擁壁付近),35.7453879,139.3221121,
東京都,福生市,2-6,福生市大字福生618番地,長徳寺駐車場(金網フェンス),35.7423446,139.3379224,
東京都,福生市,2-7,福生市大字福生1280番地1,わかぎり図書館(西側フェンス),35.7462052,139.3207907,
東京都,福生市,3-1,福生市大字熊川762番地,masked,35.7278061,139.336029,
東京都,福生市,3-2,福生市大字熊川769番地,masked,35.7284049,139.3353279,
東京都,福生市,3-3,福生市大字熊川711番地3,鍋二公園トイレ側入り口左側(金網フェンス),35.7266806,139.3347676,
東京都,福生市,3-4,福生市大字熊川689番地35,清水坂ゲートボール場入口右側(金網フェンス),35.7259531,139.3343269,
東京都,福生市,3-5,福生市大字熊川623番地,福生第二小学校東門脇(体育館付近の擁壁),35.7246863,139.3361703,
東京都,福生市,3-6,福生市大字熊川1395番地8,武蔵野橋公園,35.7219194,139.3416313,
東京都,福生市,3-7,福生市大字熊川521番地,masked,35.7253732,139.33914,
東京都,福生市,4-1,福生市牛浜59番地2,牛一公園中央植栽部分,35.7348394,139.33115,
東京都,福生市,4-2,福生市牛浜82番地,牛一会館西側(山車倉庫脇フェンス),35.7340505,139.3326477,
東京都,福生市,4-3,福生市牛浜162番地,福生第三小学校前(フェンス),35.7357132,139.3360018,
東京都,福生市,4-4,福生市牛浜163番地,福生公園西側(レンガ・格子フェンス),35.7337731,139.337219,
東京都,福生市,4-5,福生市大字福生2351番地,フレンドシップパーク (16号線側花壇の中),35.7393807,139.3376241,
東京都,福生市,4-6,福生市大字福生196番地7,原ケ谷戸どんぐり公園入口(左側坂上フェンス),35.73747280000001,139.3342092,
東京都,福生市,4-7,福生市大字福生286番地,親和児童遊園北側入口右側フェンス,35.7396391,139.3319881,
東京都,福生市,4-8,福生市福生2250番地11,原ヶ谷戸児童公園南側入口左側フェンス,35.7414867,139.3346837,
東京都,福生市,5-1,福生市加美平一丁目9番地1,福生第六小学校西門脇(左側格子フェンス),35.74867090000001,139.3234464,
東京都,福生市,5-2,福生市東町3番地12,西友()株福生店駐車場前(ブロック上金網部分),35.7443418,139.3273102,
東京都,福生市,5-3,福生市加美平一丁目6番地,福生病院北側(立体駐車場裏植栽部分),35.74867090000001,139.3234464,
東京都,福生市,5-4,福生市大字福生921番地,藤の木児童遊園西側(擁壁上格子フェンス),35.7463508,139.3290954,
東京都,福生市,5-5,福生市加美平一丁目6番地,福生病院裏側(搬入口左側植栽部分),35.74867090000001,139.3234464,
東京都,福生市,5-6,福生市武蔵野台二丁目9番地,武蔵野台南公園南側(玉垣の上格子フェンス),35.7453852,139.3319237,
東京都,福生市,5-7,福生市武蔵野台二丁目17番地1,都営武蔵野台二丁目アパート2号棟南側(格子フェンス),35.7487609,139.3302313,
東京都,福生市,6-1,福生市大字熊川215番地,都立多摩工業高校北門脇 (バス停前植え込み付近),35.7159554,139.3385544,
東京都,福生市,6-2,福生市大字熊川271番地1,真福寺第三駐車場,35.7191538,139.3363596,
東京都,福生市,6-3,福生市大字熊川311番地1,真福寺駐車場,35.7257937,139.3373992,
東京都,福生市,6-4,福生市大字熊川63番地12,アパート前(格子フェンス),35.7184706,139.3339174,
東京都,福生市,6-5,福生市大字熊川199番地1,わかたけ図書館西側,35.7181151,139.335016,
東京都,福生市,6-6,福生市大字熊川95番地,熊川住宅1号棟東側(植え込みの中),35.7145074,139.333792,
東京都,福生市,6-7,福生市大字熊川95番地,熊川住宅12号棟東側(植え込みの中),35.7145074,139.333792,
東京都,福生市,7-1,福生市加美平一丁目22番地1,福生第二中学校西門脇(擁壁上格子フェンス),35.74867090000001,139.3234464,
東京都,福生市,7-2,福生市武蔵野台一丁目28番地10,武蔵野台第五児童遊園 (植え込みの中),35.7523525,139.3305185,
東京都,福生市,7-3,福生市加美平四丁目1番地,加美平住宅6号棟南側(植え込みの中),35.7529799,139.3268735,
東京都,福生市,7-4,福生市加美平四丁目1番地,加美平住宅1号棟南側(掲示板横植え込みの中),35.7529799,139.3268735,
東京都,福生市,7-5,福生市武蔵野台2丁目32,東京都水道局福生武蔵野台浄水所(西側フェンス),35.7515479,139.329504,
東京都,福生市,7-6,福生市加美平二丁目12番地,加美平北公園北側(鉄パイプを利用),35.7490856,139.3237635,
東京都,福生市,7-7,福生市加美平一丁目21番地,加美平野球場南側(交差点近くのフェンス),35.7393161,139.3281339,
東京都,福生市,8-1,福生市大字熊川1143番地1,熊川児童館横(生垣根部分),35.7301699,139.3412403,
東京都,福生市,8-2,福生市大字熊川978番地,市営住宅跡地,35.7316399,139.3335611,
東京都,福生市,8-3,福生市大字熊川929番地1,田村駐車場(ほたる通り側月極駐車場フェンス),35.7318436,139.334763,
東京都,福生市,8-4,福生市大字熊川845番地,福生第一中学校南側(バックネット付近),35.73148219999999,139.3382813,
東京都,福生市,8-5,福生市大字熊川1108番地,第四市営住宅B号棟西側(芝生植え込みの中),35.7312578,139.3396693,
東京都,福生市,8-6,福生市大字熊川1076番地12,福生市民会館駐車場前(入口右側),35.7328867,139.3404782,
東京都,福生市,8-7,福生市大字熊川1315番地1,都営熊川アパート1号棟西側(植え込みの中),35.7275374,139.3414213,
東京都,福生市,9-1,福生市南田園三丁目1番地1,福生第三中学校正門脇(右側擁壁上フェンス),35.7295417,139.3317089,
東京都,福生市,9-2,福生市北田園一丁目1番地1,福生第七小学校正門脇(左側擁壁上フェンス),35.7352762,139.3228123,
東京都,福生市,9-3,福生市南田園三丁目15番地,桜公園(多摩川の堤側鉄パイプ),35.7301077,139.3283315,
東京都,福生市,9-4,福生市南田園二丁目7番地,福生団地1号棟東側(福生団地南交差点植え込みの中),35.7266544,139.3298069,
東京都,福生市,9-5,福生市南田園一丁目12番地1,明神下公園東側(鉄パイプ),35.7269516,139.3304224,
東京都,福生市,9-6,福生市南田園二丁目12番地,富士見公園東側(鉄パイプ),35.7263257,139.3316908,
東京都,福生市,9-7,福生市南田園一丁目2番地2,福生第五小学校正門脇(入口左側擁壁上格子フェンス),35.7203716,139.331998,
東京都,福生市,10-1,福生市大字熊川1663番地,遊歩道入口(植え込みの中),35.721844,139.3461729,
東京都,福生市,10-2,福生市大字熊川1697番地,西武線拝島駅前ロータリー,35.7217912,139.3444872,
東京都,福生市,10-3,福生市大字熊川1640番地1,都営熊川第2アパート3号棟南側(植え込みの中),35.7238048,139.3468549,
東京都,福生市,10-4,福生市大字熊川1495番地,拝島自動車教習所株)(入口脇(万年塀),35.7248023,139.3452506,
東京都,福生市,10-5,福生市大字熊川1667番地,遊歩道(植え込みの中),35.7257937,139.3373992,
東京都,福生市,10-6,福生市大字熊川1697番地14,西武鉄道敷地(月極有料駐車場の前),35.7217912,139.3444872,
東京都,福生市,10-7,福生市大字熊川1620番地,福東公園南入口左脇(金網フェンス),35.7234706,139.3503762,
東京都,福生市,11-1,福生市武蔵野台一丁目8番地7,福生地域体育館北側(駐車場入口左側),35.7462488,139.3341485,
東京都,福生市,11-2,福生市大字福生2151番地12,わらつけ公園入口脇(右側擁壁上フェンス),35.7439514,139.3365441,
東京都,福生市,11-3,福生市大字福生2125番地3,保健センター入口脇(植え込みの中),35.7442083,139.3342596,
東京都,福生市,11-4,福生市大字福生1980番地,目白第二病院駐車場フェンス,35.7492769,139.3375896,
東京都,福生市,11-5,福生市武蔵野台一丁目1番地先,東福生駅西口前(ロータリー際植え込みの中),35.7485488,139.3329593,
東京都,福生市,11-6,福生市武蔵野台一丁目14番地,武蔵野台東公園西側(植え込みの中),35.7485488,139.3329593,
東京都,福生市,11-7,福生市武蔵野台一丁目23番地1,日本蓄電器工業株()グランド北側(金網フェンス),35.7495696,139.3320476,
