prefecture,city,number,address,name,lat,long
東京都,立川市,１－１,富士見町２－２１－３,立川市富士見二遊び場南東角植え込み,35.7005978,139.4022921
東京都,立川市,１－２,富士見町１－１３－６,富士見一北公園東側植え込み,35.7017805,139.3981647
東京都,立川市,１－３,富士見町５－２,富士見町５丁目信号西側植え込み,35.6978297,139.4022524
東京都,立川市,１－４,富士見町４－４－１,市立四小北東角フェンス,35.697544,139.400415
東京都,立川市,１－５,富士見町５－１９－１４,住宅南側ブロック塀,35.6941362,139.3999546
東京都,立川市,１－６,富士見町１－３５,西立川駅ロータリー南側フェンス,35.7029377,139.3937995
東京都,立川市,１－７,富士見町１－７,沢良駐車場南側万年塀,35.6988317,139.3977678
東京都,立川市,１－８,富士見町３－１７－１,富士見公園北側植え込み,35.6967831,139.3950027
東京都,立川市,２－１,柴崎町１－１－８,諏訪の森公園南側植え込み,35.6960959,139.4068986
東京都,立川市,２－２,柴崎町５－１１－２６,柴崎福祉会館北側植え込み,35.6881289,139.4010661
東京都,立川市,２－３,柴崎町４－１１,立川公園根川緑道南側植え込み,35.688616,139.4073133
東京都,立川市,２－４,柴崎町２－２０－３,市立一小西側フェンス,35.6944724,139.4074517
東京都,立川市,２－５,柴崎町２－２０－３,市立一小南側フェンス,35.6944724,139.4074517
東京都,立川市,２－６,柴崎町１－１６－３,柴崎会館東側フェンス（植え込み）,35.6923609,139.4073718
東京都,立川市,２－７,柴崎町４－１９－５,柴崎四西公園東側植え込み,35.6906317,139.4038472
東京都,立川市,２－８,柴崎町１－３－４,市立立川一中南側植え込み,35.6945469,139.4040483
東京都,立川市,３－１,柴崎町３－１５－２１,柴崎公園西側植え込み,35.6937933,139.4104085
東京都,立川市,３－２,柴崎町６－１５,親水広場東側植え込み,35.6878587,139.4104766
東京都,立川市,３－３,錦町２－１３－５,都立立川高等学校南西フェンス（植え込み）,35.692582,139.4130088
東京都,立川市,３－４,錦町２－１３－５,都立立川高等学校北西植え込み,35.692582,139.4130088
東京都,立川市,３－５,柴崎町３－２,立川駅南口ロータリー内北側植え込み,35.6974909,139.4143584
東京都,立川市,３－６,柴崎町６－１４,立川公園ガニガラ広場南側植え込み,35.6894346,139.4107848
東京都,立川市,３－７,錦町２－８－１５,錦二南公園南側フェンス,35.6928872,139.4149935
東京都,立川市,４－１,錦町３－２－２６,子ども未来センター北側植え込み,35.6940641,139.4195886
東京都,立川市,４－２,錦町１－５－１３,錦第二公園南側植え込み,35.6975553,139.4177009
東京都,立川市,４－３,錦町３－２－２６,子ども未来センター駐車場南側植え込み,35.6940641,139.4195886
東京都,立川市,４－４,錦町３－４－１,市立三小南側植え込み,35.6918577,139.4201957
東京都,立川市,４－５,錦町３－４－１,市立三小北側植え込み,35.6918577,139.4201957
東京都,立川市,４－６,錦町３－１２－１,錦児童館西側フェンス,35.6915565,139.4163829
東京都,立川市,４－７,錦町４－１０－２０,錦四公園東側フェンス,35.6894317,139.4213463
東京都,立川市,４－８,錦町３－２－２６,子ども未来センター駐車場東側植え込み,35.6940641,139.4195886
東京都,立川市,５－１,羽衣町２－１１－７,東立川公園北側鉄柵,35.6961496,139.4298044
東京都,立川市,５－２,羽衣町２－５５－１,羽衣東公園西側フェンス,35.6925148,139.4299804
東京都,立川市,５－３,羽衣町２－２６－１０,羽衣公園南側植え込み,35.6941928,139.4284078
東京都,立川市,５－４,羽衣町３－１７,立川グリーンセンター西側フェンス,35.6894641,139.423648
東京都,立川市,５－５,羽衣町２－４２－２７,正楽院南西角ブロック塀,35.6945009,139.4257523
東京都,立川市,５－６,羽衣町２－２９－２２,市立六小南側植え込み,35.6955484,139.4273206
東京都,立川市,５－７,羽衣町１－２１－１１,西国立保育園分園東側フェンス,35.6954995,139.4236352
東京都,立川市,５－８,羽衣町１－１２－１,緑川第一公園東側植え込み,35.6976269,139.4259011
東京都,立川市,６－１,曙町３－７－１０,東京都保健医療局保健政策部疾病対策課立川分室北側フェンス,35.6990465,139.4235191
東京都,立川市,６－２,曙町３－３９ー１,曙第五公園南側植え込み,35.7043719,139.4244421
東京都,立川市,６－３,曙町３－３２－５,立川競輪場フェンス,35.7022402,139.4229875
東京都,立川市,６－４,曙町３－２３－１,市立二小南東角倉庫前フェンス,35.7011366,139.4206188
東京都,立川市,６－５,曙町３－２８－２５,曙三東公園西側フェンス,35.7021988,139.4241741
東京都,立川市,６－６,曙町３－１７－３０,アートアベニュー立川１号棟南東角植え込み,35.6999388,139.4245609
東京都,立川市,６－７,曙町３－３－２９,ＮＴＴ新立川ビル南側フェンス,35.6995371,139.4191605
東京都,立川市,６－８,曙町３－３０,"曙町運動広場（立川競輪場第２駐車場）西側
フェンス",35.7039199,139.4273801
東京都,立川市,７－１,高松町３－２２－５,立川市旧健康会館入口植え込み,35.7029841,139.419163
東京都,立川市,７－２,曙町２－４,立川駅北口デッキ北側郵便ポスト東側の植え込み,35.6994176,139.4124975
東京都,立川市,７－３,曙町２－８,市制５０周年記念憩いの場,35.7007654,139.414676
東京都,立川市,７－４,高松町３－２６－１４,住宅南側ブロック塀,35.7013787,139.4178499
東京都,立川市,７－５,曙町２－３４－７,ファーレ　イーストビル東側植え込み,35.7021231,139.4148173
東京都,立川市,７－６,曙町２－１,立川駅東地下道北側フェンス,35.69835080000001,139.4168964
東京都,立川市,７－７,曙町２－５－１先,立川市立川北駅下有料自転車駐車場西側フェンス,35.6995881,139.4130088
東京都,立川市,７－８,高松町３－６－９,高松学童保育所東側フェンス,35.7041125,139.4155691
東京都,立川市,８－１,高松町２－３９－１９,住宅南側フェンス,35.707444,139.4217212
東京都,立川市,８－２,高松町２－３７－１４,高砂公園東側植え込み,35.7065337,139.423251
東京都,立川市,８－３,高松町２－３７,高砂公園南側駐車場入口鉄柵,35.7065337,139.423251
東京都,立川市,８－４,高松町１－１０－１４,高松一公園東側鉄柵,35.706369,139.4180899
東京都,立川市,８－５,高松町１－１２－２５,市立五小正門左側植え込み,35.7078547,139.4188442
東京都,立川市,８－６,高松町１－１００,㈱立飛リアルエステート東側フェンス,35.7081726,139.4142196
東京都,立川市,８－７,高松町１－１２－２５,市立五小プール目隠し部,35.7078547,139.4188442
東京都,立川市,８－８,高松町１－１００,㈱立飛リアルエステート北側万年塀,35.7081726,139.4142196
東京都,立川市,９－１,栄町６－３,都営栄町６丁目アパート東側植え込み,35.7154765,139.4230922
東京都,立川市,９－２,栄町２－５２－１７,住宅南西側万年塀,35.7124084,139.429839
東京都,立川市,９－３,栄町２－４５－８,昭和一高旧正門左側信号前植え込み,35.7130493,139.4268476
東京都,立川市,９－４,栄町５－２１－１,（江の島道東住宅内）公社住宅内東側植え込み,35.7151684,139.4262252
東京都,立川市,９－５,栄町２－４５－８,昭和一高西門体育館前植え込み,35.7130493,139.4268476
東京都,立川市,９－６,栄町４－６－２,さかえ会館西側フェンス,35.710857,139.4250116
東京都,立川市,９－７,栄町４－３２,南部公園西側植え込み,35.7126136,139.4236778
東京都,立川市,９－８,栄町３－８－１,岩﨑倉庫（北立川倉庫）入口左側フェンス,35.7087026,139.4228803
東京都,立川市,10－１,幸町３－１－１,住宅入口北（左）側塀,35.717868,139.4299059
東京都,立川市,10－２,幸町２－１０－１０,幸二西公園東側鉄柵,35.7210826,139.4256331
東京都,立川市,10－３,幸町２－５２－６,九番公園北側フェンス,35.7210826,139.4256331
東京都,立川市,10－４,幸町２－１－１,市立八小西側植え込み,35.7192624,139.4252154
東京都,立川市,10－５,幸町２－１－１,市立八小南側プールより右側植え込み,35.7192624,139.4252154
東京都,立川市,10－６,幸町２－２－３,西けやき台団地９号棟南側鉄柵,35.7210905,139.4244093
東京都,立川市,10－７,栄町６－２６,江の島南公園北側鉄柵,35.7170257,139.4213666
東京都,立川市,10－８,泉町７８６－１１,泉市民体育館東側植え込み,35.719181,139.4188135
東京都,立川市,11－１,柏町２－１８－６,住宅北側ブロック塀,35.72278660000001,139.4153386
東京都,立川市,11－２,柏町１－１２－１,青柳公園北側植え込み,35.7190363,139.4142508
東京都,立川市,11－３,柏町１－３１－１,市立十小南西角フェンス（植え込み）,35.7193559,139.4129294
東京都,立川市,11－４,砂川町１－２4,中央南北線北国有地フェンス,35.7224941,139.4065785
東京都,立川市,11－５,砂川町１－６５－７,畑地南側,35.723229,139.4088599
東京都,立川市,11－６,柏町１－２２－２４,畑地北側,35.7193559,139.4129294
東京都,立川市,11－７,柏町１－２,ＮＴＴ砂川交換センター南側鉄柵,35.7193559,139.4129294
東京都,立川市,12－１,上砂町２－４１－６,住宅北側石塀,35.7252786,139.3943325
東京都,立川市,12－２,上砂町１－１３－１,都営上砂町１丁目アパート４号棟南側植え込み,35.7205924,139.3891467
東京都,立川市,12－３,上砂町１－５－３３,市立大山小北側フェンス,35.7185073,139.3923283
東京都,立川市,12－４,上砂町２－１８－１,市立九小西側（正門脇）フェンス,35.7238945,139.3931298
東京都,立川市,12－５,砂川町２－２,ファーマーズセンターみのーれ立川臨時駐車場北側フェンス,35.7223128,139.3976885
東京都,立川市,12－６,上砂町１－１３－１,都営上砂町１丁目アパート19号棟南側植え込み,35.7205924,139.3891467
東京都,立川市,12－７,砂川町２－３２,畑地南側東植え込み,35.7223128,139.3976885
東京都,立川市,12－８,上砂町２－１８－１,市立九小南西角フェンス,35.7238945,139.3931298
東京都,立川市,13－１,西砂町１－２３－８,西武立川駅北口有料自転車駐車場東側フェンス,35.7269289,139.3697293
東京都,立川市,13－２,西砂町３－４７,中里野球場南東角フェンス,35.7284188,139.3571282
東京都,立川市,13－３,西砂町２－３４－２,市立西砂小西側フェンス,35.7273714,139.3644797
東京都,立川市,13－４,西砂町２－３４－２,市立西砂小北側フェンス,35.7273714,139.3644797
東京都,立川市,13－５,西砂町５－１１－２,住宅南側石塀,35.7310518,139.3608233
東京都,立川市,13－６,西砂町２－２６、２－２８,殿ヶ谷緑道境界ガードパイプ,35.7276069,139.3615074
東京都,立川市,13－７,西砂町３－６８,西砂スポーツ広場南側フェンス,35.7284188,139.3571282
東京都,立川市,14－１,若葉町１－８,若葉一第二公園北側フェンス,35.7204348,139.4354913
東京都,立川市,14－２,若葉町１－２７－１,若葉公園北側フェンス,35.7177171,139.4370689
東京都,立川市,14－３,若葉町１－１３－２,けやき台団地２２号棟西側植え込み,35.7192247,139.435224
東京都,立川市,14－４,若葉町１－１３－２,若葉町駐在所西側生垣,35.7192247,139.435224
東京都,立川市,14－５,若葉町１－１３－２,けやき台団地１９号棟北側植え込み,35.7192247,139.435224
東京都,立川市,14－６,若葉町１－１３－２,けやき台団地内ドラッグストア前植え込み,35.7192247,139.435224
東京都,立川市,14－７,若葉町１－１３－２,けやき台団地５号棟西側植え込み,35.7192247,139.435224
東京都,立川市,14－８,若葉町２－２７－４,若葉二公園西側植え込み,35.7137374,139.4441211
東京都,立川市,15－１,富士見町６－４８－１５,富士見六西公園南側植え込み,35.6924475,139.3906225
東京都,立川市,15－２,富士見町７－６－１２,富士見七南公園北側植え込み,35.6935322,139.397743
東京都,立川市,15－３,富士見町６－１８,富士見町団地１８～１９号棟間東側植え込み,35.6932981,139.3927678
東京都,立川市,15－４,富士見町６－６９－１,市立新生小南側フェンス,35.6947465,139.3940128
東京都,立川市,15－５,富士見町７－４５－１,富士見七公園南側植え込み,35.6918926,139.3962144
東京都,立川市,15－６,富士見町６－３３,富士見町団地３３～３４号棟間東側植え込み,35.6942958,139.3895934
東京都,立川市,15－７,富士見町６－５６,"都営富士見町六丁目アパート５６号棟東側公園
植え込み",35.6915714,139.3922123
東京都,立川市,15－８,富士見町６－６８,（富士見町住宅内）第一小川ビル南植え込み,35.6929254,139.3955455
東京都,立川市,16－１,栄町３－３９,栄三南公園南側フェンス,35.7085014,139.4256331
東京都,立川市,16－２,栄町３－３３－３,栄保育園南側フェンス,35.7078187,139.4291747
東京都,立川市,16－３,栄町１－３８－３,住宅東畑側の植え込み,35.7059883,139.4307154
東京都,立川市,16－４,栄町２－２－１,市立南砂小南側植え込み,35.7083954,139.4299676
東京都,立川市,16－５,栄町２－３,栄緑地入口植え込み,35.7111921,139.4294448
東京都,立川市,16－６,栄町２－３０,住宅北側所有地　(医療対応在宅ケアホスピス栄町植栽スペース）,35.7111921,139.4294448
東京都,立川市,16－７,栄町３－６５,栄緑地西南側フェンス,35.7085014,139.4256331
東京都,立川市,17－１,若葉町４－２５－１,若葉町団地２４号棟北西植え込み,35.7229305,139.4424302
東京都,立川市,17－２,若葉町４－２５－１,若葉町団地８号棟南側植え込み,35.7229305,139.4424302
東京都,立川市,17－３,若葉町４－２５－１,若葉町団地西集会所東側植え込み,35.7229305,139.4424302
東京都,立川市,17－４,若葉町３－１９－５,市立九中南側フェンス,35.7224425,139.4374307
東京都,立川市,17－５,若葉町４－２４－１,旧若葉小南側植え込み,35.7248066,139.4349854
東京都,立川市,17－６,若葉町３－１９－５,市立九中北西角フェンス,35.7224425,139.4374307
東京都,立川市,17－７,若葉町３－５１－１,畑地東側,35.7210359,139.4396105
東京都,立川市,18－１,幸町４－２２－４,住宅南側ブロック塀,35.7227879,139.429827
東京都,立川市,18－２,幸町４－５２－１,幸町団地５～６号棟間西側植え込み,35.7261467,139.4296285
東京都,立川市,18－３,幸町４－５２－３,幸学童保育所南側フェンス,35.7262281,139.4293746
東京都,立川市,18－４,幸町５－６８－１,市立幸小北側植え込み,35.7249396,139.4224569
東京都,立川市,18－５,幸町５－３５－１,住宅生垣前,35.7234089,139.4238515
東京都,立川市,18－６,幸町５－５７－１４,幸福祉会館西側フェンス,35.7258842,139.4232473
東京都,立川市,18－７,幸町５－４９,川越道緑地植え込み,35.7249396,139.4224569
東京都,立川市,18－８,幸町５－６８－１,市立幸小南門東側植え込み,35.7249396,139.4224569
東京都,立川市,19－１,一番町４－６２－３,市営一番町北住宅２号棟前,35.7342978,139.3815615
東京都,立川市,19－２,一番町６－１７－１,立川一番町東３４～３５号棟間バス停付近植え込み,35.7350955,139.374877
東京都,立川市,19－３,一番町２－１９－１７,市民所有地東側,35.7266308,139.3773735
東京都,立川市,19－４,一番町５－８－５,市立松中小南側フェンス,35.7317389,139.3768997
東京都,立川市,19－５,一番町５－８－５,松中団地北側バスターミナル内南植え込み,35.7317389,139.3768997
東京都,立川市,19－６,一番町５－８－６,立川一番町五丁目アパート有料駐車場東側生垣,35.7313323,139.3755101
東京都,立川市,19－７,一番町４－７３－２,㈱べジテック（立川加工センター）南入口左植え込み,35.7334148,139.3789531
東京都,立川市,19－８,一番町３－１３－１０,天王橋東公園北側植え込み,35.7294331,139.378643
東京都,立川市,20－１,砂川町４－２７,砂川四公園北西フェンス,35.7258337,139.4021333
東京都,立川市,20－２,上砂町４－２７－２,畑地北西角植え込み,35.7277356,139.3913393
東京都,立川市,20－３,砂川町３－１０－２,住宅入口左側垣根,35.7256316,139.3961887
東京都,立川市,20－４,上砂町４－２２－１,砂川医院南側フェンス,35.7261611,139.3921377
東京都,立川市,20－５,砂川町３－２６－１,こんぴら橋会館南側フェンス,35.7278865,139.3994971
東京都,立川市,20－６,砂川町３－４５－５,住宅東側ブロック塀,35.7289124,139.4003039
東京都,立川市,20－７,砂川町３－１２－１,見影橋公園北側フェンス,35.7280622,139.3964285
東京都,立川市,21－１,柏町４－８－４,市立柏小南西角フェンス,35.7272864,139.4146139
東京都,立川市,21－２,砂川町５－７－１,住宅南側ブロック塀,35.7235964,139.4077383
東京都,立川市,21－３,柏町５－３－１０,立川市柏町汚水中継ポンプ場鉄柵,35.7317348,139.4139231
東京都,立川市,21－４,砂川町６－４１－１,立川砂川給水所南側鉄柵,35.7299721,139.4074783
東京都,立川市,21－５,柏町４－５１－１,立川柏町団地３号棟北側植え込み,35.7297139,139.4155785
東京都,立川市,21－６,柏町４－５１－１,立川柏町団地１３号棟北側植え込み,35.7297139,139.4155785
東京都,立川市,21－７,砂川町５－２５－１,「砂川中央地区北多目的運動広場」野球場北側平成新道沿いフェンス,35.7248049,139.4053729
東京都,立川市,21－８,柏町４－２３－２６,柏四公園北側フェンス,35.7287059,139.4148348
東京都,立川市,22－１,上砂町５－４４,西武鉄道武蔵砂川駅北西側鉄道柵,35.7289883,139.3919997
東京都,立川市,22－２,砂川町７－４２－３,畑地西側植え込み,35.7322685,139.4053084
東京都,立川市,22－３,上砂町５－１２－２,市立上砂川小東側フェンス,35.7308517,139.3919742
東京都,立川市,22－４,上砂町５－１２－２,市立上砂川小西側フェンス,35.7308517,139.3919742
東京都,立川市,22－５,砂川町８－５８,畑地東側植え込み,35.7316615,139.3995934
東京都,立川市,22－６,砂川町８－２３－４,畑地西側,35.7316615,139.3995934
東京都,立川市,22－７,砂川町７－５６－４０,砂川三番北公園西側フェンス,35.7322685,139.4053084
東京都,立川市,22－８,上砂町５－５９－５,上砂五西公園西側植え込み,35.7308517,139.3919742
東京都,立川市,23－１,一番町２－１０－１５,一番橋公園北側フェンス,35.7266308,139.3773735
東京都,立川市,23－２,一番町１－４０－２,一番一公園北東側植え込み（フェンス）,35.7234959,139.3837212
東京都,立川市,23－３,上砂町３－２７－１,市立第五中北東フェンス（植え込み）,35.7243366,139.3869181
東京都,立川市,23－４,上砂町３－２７－１,市立第五中北側フェンス,35.7243366,139.3869181
東京都,立川市,23－５,上砂町３－２４－４,上砂三公園南側植え込み(フェンス),35.7219281,139.3868953
東京都,立川市,23－６,一番町１－１８－１,住宅西側ブロック塀,35.7217123,139.3815122
東京都,立川市,23－７,上砂町３－４３,住宅南側畑地植え込み,35.7219281,139.3868953
東京都,立川市,24－１,西砂町６－２４－３,スクールＩＥ東隣駐車場フェンス,35.73030079999999,139.3660484
東京都,立川市,24－２,西砂町６－２８－３,市立第七中西側フェンス,35.7335637,139.3680013
東京都,立川市,24－３,西砂町６－２８－３,市立第七中北東角フェンス,35.7335637,139.3680013
東京都,立川市,24－４,西砂町５－５３－１４,西砂北公園西側鉄柵,35.733211,139.3640457
東京都,立川市,24－５,西砂町５－１１－１０,西砂第二公園西側植え込み,35.733211,139.3640457
東京都,立川市,24－６,西砂町４－４０－２６,西砂四公園東南植え込み,35.7346839,139.3564312
東京都,立川市,24－７,西砂町４－１１－１,住宅南側石塀,35.7319725,139.3554825
東京都,立川市,25－１,錦町５－６－４３,市立第七小南側フェンス,35.6905908,139.4147907
東京都,立川市,25－２,錦町５－６－４３,市立第七小東側フェンス,35.6905908,139.4147907
東京都,立川市,25－３,錦町６－１５－２０,高齢者就労生きがい支援センター西側フェンス,35.6869433,139.4199389
東京都,立川市,25－４,錦町６－１１－９,小川鉄工㈱東側フェンス,35.6876156,139.4163541
東京都,立川市,25－５,錦町６－６,都営錦町六丁目アパート１号棟西側植え込み,35.6876425,139.4203925
東京都,立川市,25－６,錦町６－３－１,都立立川緑高等学校南側植え込み,35.6890127,139.4190507
東京都,立川市,25－７,錦町６－２７－１５,至誠ホームアウリンコ北側植え込み,35.6858665,139.4154983
東京都,立川市,25－８,錦町５－２０,立川市下水処理場北側鉄柵,35.6855138,139.4119767
東京都,立川市,26－１,泉町１１４８－２,広域防災基地北東角フェンス,35.7160588,139.4034033
東京都,立川市,26－２,緑町３２５６,"独立行政法人国立病院機構
災害医療センター南東側植え込み",35.7069476,139.4077767
東京都,立川市,26－３,緑町３２５６,"独立行政法人国立病院機構
災害医療センター北西側植え込み",35.7069476,139.4077767
東京都,立川市,26－４,緑町３２３３－２,東京都立川地域防災センター正面北側植え込み,35.7062714,139.4078227
東京都,立川市,26－５,緑町８,緑町北公園西側植え込み,35.7069104,139.4034033
東京都,立川市,26－６,泉町１１５６－９,立川市役所西側植え込み,35.7138321,139.4077861
東京都,立川市,26－７,泉町１２３１－１,広域防災基地北側フェンス,35.7184146,139.4005161
