prefecture,city,number,address,name,lat,long,note
東京都,練馬区,1,小竹町1-5-2,コージャハイム小竹町2号棟東側塀,35.7393756,139.6792134,
東京都,練馬区,2,小竹町1-13,やくも公園,35.7407049,139.6779773,
東京都,練馬区,3,小竹町1-60,江古田駅北公園内,35.7382459,139.6731127,
東京都,練馬区,4,小竹町2-6-7,小竹小学校西門横,35.7437984,139.6792173,
東京都,練馬区,5,小竹町2-43-1,小竹図書館,35.741912,139.6759978,
東京都,練馬区,6,小竹町2-6-7,小竹小学校北側,35.7437984,139.6792173,
東京都,練馬区,7,小竹町2-70,小竹みどり公園,35.744786,139.6749468,
東京都,練馬区,8,小竹町1-59-2,浅間神社西側石柵,35.7381299,139.6726243,
東京都,練馬区,9,栄町33,区立江古田駅第二自転車駐車場,35.7386957,139.6719166,
東京都,練馬区,10,栄町11-6,天理教本京分教会塀,35.7382272,139.6679496,
東京都,練馬区,11,栄町40-7,栄町保育園南側塀,35.7395946,139.6713135,
東京都,練馬区,12,栄町17,東京都道路整備保全公社桜台駐車場,35.7395017,139.6676904,
東京都,練馬区,13,羽沢1-21,環七くすのき緑地 北側,35.7427367,139.6712787,
東京都,練馬区,14,羽沢1-22,環七くすのき緑地 南側,35.7430181,139.6721558,
東京都,練馬区,15,羽沢1-11,武蔵野音楽大学第二駐車場,35.7412004,139.6711989,
東京都,練馬区,16,桜台1-28,金津賀桜台第2駐車場,35.7407761,139.6680094,
東京都,練馬区,17,桜台1-27,区立新桜台駅自転車駐車場,35.7404798,139.6674512,
東京都,練馬区,18,桜台1-47-1,個人宅塀,35.7410348,139.6626474,
東京都,練馬区,19,桜台2-18-1,開進第三小学校西側塀,35.7431941,139.6673731,
東京都,練馬区,20,桜台2-18-1,開進第三小学校体育館横,35.7431941,139.6673731,
東京都,練馬区,21,桜台2-28,桜台かしのき緑地,35.7444514,139.6652187,
東京都,練馬区,22,桜台2-18-1,開進第三小学校南側塀,35.7431941,139.6673731,
東京都,練馬区,23,桜台2-49,しいの木公園,35.74407619999999,139.6625078,
東京都,練馬区,24,桜台5-22,シダ公園,35.7438788,139.6582824,
東京都,練馬区,25,桜台5-10-5,開進第二小学校正門横,35.7423989,139.6581976,
東京都,練馬区,26,桜台5-10-5,開進第二小学校裏門金網,35.7423989,139.6581976,
東京都,練馬区,27,桜台5-41-12,桜台保育園,35.7443634,139.6572999,
東京都,練馬区,28,桜台5-45-3,(旧)練馬ゴルフ練習場駐車場,35.7450537,139.6577542,
東京都,練馬区,29,桜台6-13-3,武蔵野音楽大学桜台宿舎,35.7453909,139.6611004,
東京都,練馬区,30,桜台6-40,高稲荷公園東側,35.74892639999999,139.6590796,
東京都,練馬区,31,桜台6-41,高稲荷公園北側,35.7489856,139.657804,
東京都,練馬区,32,旭丘1-22,西武鉄道長崎変電所 西側フェンス,35.7340257,139.6775785,
東京都,練馬区,33,旭丘2-8-4,東京電力江古田変電所,35.7351362,139.6770003,
東京都,練馬区,34,旭丘2-42-1,日本大学芸術学部南側鉄柵,35.7373059,139.6748751,
東京都,練馬区,35,旭丘2-21-1,旭丘小学校東側,35.7367718,139.6778713,
東京都,練馬区,36,旭丘2-21-1,旭丘小学校北側,35.7367718,139.6778713,
東京都,練馬区,37,旭丘2-24-1,日本大学芸術学部東側フェンス,35.7358214,139.6792361,
東京都,練馬区,38,旭丘2-40-1,旭丘中学校正門横,35.7370352,139.6773729,
東京都,練馬区,39,旭丘1-44-8,えごのみ児童遊園,35.7342116,139.6744038,
東京都,練馬区,40,豊玉上1-23-4,北新井公園,35.7352399,139.6687918,
東京都,練馬区,41,豊玉上1-26-1,武蔵大学十一号館東柵,35.7360976,139.6672747,
東京都,練馬区,42,豊玉上1-26-1,武蔵高、中学校校庭西側,35.7360976,139.6672747,
東京都,練馬区,43,豊玉北1-16-1,豊玉東小学校正門横,35.7325276,139.6679595,
東京都,練馬区,44,豊玉北1-16-1,豊玉東小学校南側,35.7325276,139.6679595,
東京都,練馬区,45,豊玉北2-3-1,三笠製薬南側塀,35.7341917,139.6669793,
東京都,練馬区,46,豊玉北2-7,ゆたか緑地,35.7324281,139.6657768,
東京都,練馬区,47,豊玉北2-24-5,豊玉第二中学校プール横塀,35.7349008,139.6644014,
東京都,練馬区,48,豊玉上2-7-1,都バス練馬支所前フェンス,35.7382078,139.6647419,
東京都,練馬区,49,豊玉上2-16-1,豊玉第二小学校正門横,35.7373987,139.6625776,
東京都,練馬区,50,豊玉上2-18-1,中新井公園南側,35.7369339,139.6613119,
東京都,練馬区,51,豊玉上2-22-15,豊玉リサイクルセンター,35.7370847,139.6599964,
東京都,練馬区,52,豊玉北3-7-8,豊玉北児童遊園,35.7328932,139.6614324,
東京都,練馬区,53,豊玉北4-15-1,下水道局練馬出張所東側鉄柵,35.7358215,139.6588603,
東京都,練馬区,54,豊玉北2-16-1,豊玉第二小学校東柵,35.7344874,139.6651955,
東京都,練馬区,55,豊玉北2-24-5,豊玉第二中学校環七通り側,35.7349008,139.6644014,
東京都,練馬区,56,豊玉北2-7-1,都バス練馬支所裏駐車場フェンス,35.7323477,139.6661555,
東京都,練馬区,57,豊玉中1-9-11,豊玉第四保育園プール横堤,35.7308153,139.6614065,
東京都,練馬区,58,豊玉中1-23-4,豊玉中いっちょうめ公園北側,35.7308033,139.6629862,
東京都,練馬区,59,豊玉南2-1-20,豊玉中学校正門横,35.7287367,139.6586311,
東京都,練馬区,60,豊玉南1-16-1,徳殿公園北側,35.72636170000001,139.6588703,
東京都,練馬区,61,豊玉南2-1-20,豊玉中学校西側,35.7287367,139.6586311,
東京都,練馬区,62,豊玉南2-14-1,豊玉南小学校正門横,35.727824,139.656355,
東京都,練馬区,63,豊玉南2-14-1,豊玉南小学校東側,35.727824,139.656355,
東京都,練馬区,64,豊玉南3-32,学田公園,35.7293971,139.649354,
東京都,練馬区,65,豊玉南3-11-8,富士稲荷公園,35.7285216,139.6524379,
東京都,練馬区,66,豊玉中3-3-12,はつらつセンター豊玉（旧豊玉高齢者センター）,35.7320289,139.6553736,
東京都,練馬区,67,豊玉北6-8-2,旧情報公開室跡地南側,35.7337423,139.6518325,
東京都,練馬区,68,豊玉中4-2-20,豊玉小学校南門横,35.7328996,139.6517295,
東京都,練馬区,69,豊玉中4-2-20,豊玉小学校西門横,35.7328996,139.6517295,
東京都,練馬区,70,豊玉中4-5,豊玉錦公園東側,35.7310369,139.6518251,
東京都,練馬区,71,豊玉北5-24-11,NTT東日本練馬ビル裏柵,35.7350541,139.6538697,
東京都,練馬区,72,豊玉北6-8,豊玉公園西側,35.7339017,139.6518251,
東京都,練馬区,73,豊玉北6-12-1,練馬区役所北側,35.7356702,139.6517044,
東京都,練馬区,74,豊玉中3-18-1,豊玉さくら公園南側,35.7308292,139.6539775,
東京都,練馬区,75,練馬1-17-37,練馬文化センター,35.7394261,139.6537642,
東京都,練馬区,76,練馬1-17-6,平成つつじ公園東側車道沿い,35.737494,139.6509221,緯度経度は怪しい
東京都,練馬区,77,練馬2-7-5,南町小学校正門横,35.7408882,139.6529742,
東京都,練馬区,78,練馬3-11-7,練馬はらっぱ公園,35.7389398,139.6462304,
東京都,練馬区,79,練馬2-7-5,南町小学校西門横,35.7408882,139.6529742,
東京都,練馬区,80,練馬2-9-4,練馬けやき公園,35.7404481,139.6512617,
東京都,練馬区,81,練馬3-18,練馬区役所第2駐輪場北側フェンス,35.7379074,139.6503903,
東京都,練馬区,82,練馬1-17-6,平成つつじ公園西側車道沿い,35.737494,139.6509221,緯度経度は怪しい
東京都,練馬区,83,練馬2-13-3,練馬保育園,35.7421869,139.6514301,
東京都,練馬区,84,練馬2-18-14,くりやま児童遊園,35.7425819,139.6555583,
東京都,練馬区,85,練馬2-27-28,開進第二中学校北側フェンス,35.7430485,139.6519115,
東京都,練馬区,86,練馬2-27-28,開進第二中学校正門横,35.7430485,139.6519115,
東京都,練馬区,87,練馬2-29-10,練馬総合運動場南側フェンス,35.745174,139.6546677,
東京都,練馬区,88,練馬2-29-10,練馬総合運動場北側フェンス,35.745174,139.6546677,
東京都,練馬区,89,練馬4-20,石神井川沿い柵（中之橋付近）,35.7445056,139.6486366,
東京都,練馬区,90,練馬4-2,白山神社北側フェンス,35.74033240000001,139.6498323,
東京都,練馬区,91,中村1-8,ちどり児童遊園,35.7326867,139.6479193,
東京都,練馬区,92,中村北2-21,中村北公園,35.7359215,139.6422602,
東京都,練馬区,93,中村1-14-1,中村児童遊園西側,35.7330399,139.6473513,
東京都,練馬区,94,中村2-8-1,中村小学校東側,35.7315834,139.6444022,
東京都,練馬区,95,中村2-8-1,中村小学校西門横,35.7315834,139.6444022,
東京都,練馬区,96,中村2-25-3,中村児童館西側フェンス,35.7318197,139.6423,
東京都,練馬区,97,中村北1-9,区役所中村北駐車場,35.73526500000001,139.6479193,
東京都,練馬区,98,中村北1-12-5,東京電力練馬制御所鉄柵,35.7366955,139.6469624,
東京都,練馬区,99,中村1-15-1,南蔵院東側（南蔵院通り側）堀,35.7312873,139.6464542,
東京都,練馬区,100,中村3-3-12,個人宅保護樹林地堀,35.7336832,139.6408169,
東京都,練馬区,101,中村3-35-14,中村橋寮正門横,35.7313364,139.636771,
東京都,練馬区,102,中村3-26,個人所有駐車場フェンス,35.7336047,139.6373986,
東京都,練馬区,103,中村北4-17-1,中村西小学校南側,35.7342404,139.6353208,
東京都,練馬区,104,中村北3-6-1,中村公園,35.7343557,139.6405068,
東京都,練馬区,105,中村北4-8-26,富士見高校裏堀,35.735678,139.6377124,
東京都,練馬区,106,中村北4－17－1,中村西小学校正門横,35.7342404,139.6353208,
東京都,練馬区,107,中村北4－17－1,中村西小学校北側,35.7342404,139.6353208,
東京都,練馬区,108,中村南1－27,個人所有農園北側,35.7262853,139.6469628,
東京都,練馬区,109,中村南1－32－21,中村中学校東側通用門横,35.7284463,139.6456376,
東京都,練馬区,110,中村南1－32－21,中村中学校西側植込,35.7284463,139.6456376,
東京都,練馬区,111,中村南1－32－21,中村中学校南側堺,35.7284463,139.6456376,
東京都,練馬区,112,中村南2－23－12,中村地域集会所,35.72979,139.642741,
東京都,練馬区,113,中村南2－22－4,中村南公園,35.7291996,139.6428181,
東京都,練馬区,114,中村南3－2－1,八幡神社東側,35.7298441,139.6410846,
東京都,練馬区,115,中村南3－4,いなげやina21練馬中村南店駐車場,35.7287069,139.6405683,
東京都,練馬区,116,向山1－5－7,向山保育園,35.7378109,139.6422006,
東京都,練馬区,117,向山2－14－11,向山小学校東側,35.740626,139.641076,
東京都,練馬区,118,向山2－14－11,向山小学校正門横,35.740626,139.641076,
東京都,練馬区,119,向山4－3－26,向山わんぱく公園,35.7413077,139.6380853,
東京都,練馬区,120,向山1－14,中村橋東自転車駐車場北側フェンス,35.7373682,139.6396301,
東京都,練馬区,121,向山3－1－21,向山庭園北側,35.742088,139.6466924,
東京都,練馬区,122,向山3－13－5,向山公園,35.7444309,139.6410506,
東京都,練馬区,123,向山4－33,石神井川沿い柵(西田中橋付近),35.7442614,139.6361235,
東京都,練馬区,124,貫井1－36－15,練馬第三小学校体育館横,35.7377077,139.6352967,
東京都,練馬区,125,貫井2－31－13,練馬第二小学校南側,35.7416341,139.6337916,
東京都,練馬区,126,貫井5－15－19,貫井北児童遊園,35.7445078,139.6338921,
東京都,練馬区,127,貫井2－14－13,貫井中学校通用門横,35.7396352,139.6331628,
東京都,練馬区,128,貫井2－14－13,貫井中学校南側,35.7396352,139.6331628,
東京都,練馬区,129,貫井2－31－13,練馬第二小学校正門横,35.7416341,139.6337916,
東京都,練馬区,130,貫井4－2－3,貫井公園,35.73975679999999,139.6313421,
東京都,練馬区,131,貫井4－40－3,個人宅ブロック塀,35.7429039,139.6304616,
東京都,練馬区,132,貫井1－36,中村橋西自転車駐車場北側フェンス,35.736877,139.6352411,
東京都,練馬区,133,貫井3－25,富士見ランド公園,35.7372274,139.6271985,
東京都,練馬区,134,富士見台3－30,富士見台自転車集積所北側フェンス,35.7375862,139.6228248,
東京都,練馬区,135,貫井3－45－19,都立第四商業高等学校裏門横,35.73989720000001,139.6273481,
東京都,練馬区,136,貫井3－45－19,都立第四商業高等学校正門横,35.73989720000001,139.6273481,
東京都,練馬区,137,貫井3－52,まんさく緑地,35.7409055,139.6270705,
東京都,練馬区,138,富士見台3－18－1,ぞうさん児童遊園,35.7408014,139.6238869,
東京都,練馬区,139,貫井4－24－9,貫井保育園正門フェンス,35.7421863,139.6273778,
東京都,練馬区,140,富士見台3－53－1,こぶし公園,35.738418,139.6211829,
東京都,練馬区,141,富士見台3－62,石神井川沿い歩道の欄(富士見橋付近),35.7408058,139.6191812,
東京都,練馬区,142,富士見台4－16－10,富士見台小学校南側フェンス,35.7442212,139.6228909,
東京都,練馬区,143,富士見台4－5,南光グラウンド環八沿いフェンス,35.7422927,139.6244894,
東京都,練馬区,144,高野台2－10－1,二之橋児童遊園,35.7452831,139.620187,
東京都,練馬区,145,高野台2－1－18,石神井川沿い歩道の欄(大野橋付近),35.74640249999999,139.6244627,
東京都,練馬区,146,富士見台4－16－10,富士見台小学校正門横,35.7442212,139.6228909,
東京都,練馬区,147,富士見台4－45,つり堀遊園,35.74496740000001,139.6208244,
東京都,練馬区,148,高野台2－25－1,生涯学習センター分館,35.7478659,139.6209502,
東京都,練馬区,149,氷川台1－2,城北中央公園駐車場入口横,35.7579525,139.6728344,
東京都,練馬区,150,氷川台2－11－7,ねりま青少年心理相談室前,35.7555889,139.6689153,
東京都,練馬区,151,氷川台2－18－24,仲町小学校体育館横,35.757442,139.6686124,
東京都,練馬区,152,氷川台2－18－24,仲町小学校東門横,35.757442,139.6686124,
東京都,練馬区,153,平和台1－25－3,平和台児童公園北側,35.7573867,139.6645333,
東京都,練馬区,154,平和台2－12－5,平和台体育館植込,35.759363,139.661642,
東京都,練馬区,155,平和台1－36－17,平和台図書館,35.7600789,139.6647605,
東京都,練馬区,156,平和台2－37,仲町西児童遊園,35.7605716,139.6604349,
東京都,練馬区,157,氷川台1－2,城北中央公園児童公園入口横,35.7579525,139.6728344,
東京都,練馬区,158,氷川台4－20－3,ひばりヶ丘児童遊園,35.7539888,139.6664944,
東京都,練馬区,159,早宮1－8,石神井川沿い柵,35.7496673,139.6616308,
東京都,練馬区,160,早宮１－１６－５０,開進第一中学校正門横,35.7526625,139.6596733,
東京都,練馬区,161,早宮１－１６－５０,開進第一中学校裏門,35.7526625,139.6596733,
東京都,練馬区,162,早宮１－１８,早宮史跡公園,35.7509514,139.6601957,
東京都,練馬区,163,早宮１－３２－６,石神井川沿い柵(早宮橋付近),35.7491425,139.6565664,
東京都,練馬区,164,氷川台４－４７－１２,氷川台保育園,35.7527478,139.6640727,
東京都,練馬区,165,氷川台４－３４－４,氷川台さくら公園,35.7556778,139.6652219,
東京都,練馬区,166,早宮２－１８－３１,早宮第二自転車駐車場南西側,35.7568386,139.6518002,
東京都,練馬区,167,平和台３－１３－１,区立平和台三丁目アパート,35.7556891,139.6616358,
東京都,練馬区,168,平和台３－２９,個人所有畑,35.7563639,139.6585215,
東京都,練馬区,169,平和台４－５－１２,ふれあい公園,35.7582552,139.6581727,
東京都,練馬区,170,早宮２－１－３１,開進第一小学校正門横,35.7546151,139.6586909,
東京都,練馬区,171,早宮２－１－３１,開進第一小学校体育館横,35.7546151,139.6586909,
東京都,練馬区,172,早宮２－１３－５,早宮公園西側,35.7559263,139.6532521,
東京都,練馬区,173,早宮２－１６－３２,平和台駅第二自転車駐車場,35.756815,139.6552782,
東京都,練馬区,174,錦１－３２,個人所有駐車場横,35.7617377,139.6708002,
東京都,練馬区,175,錦１－３７,個人所有駐車場前,35.7610568,139.6685974,
東京都,練馬区,176,錦２－５－２,にしき平和台団地,35.7608345,139.665496,
東京都,練馬区,177,北町１－１０,田柄川緑道北町児童館付近,35.7638809,139.6670526,
東京都,練馬区,178,北町１－１２－１,NTT東日本北町営業所裏塀,35.7641431,139.6656066,
東京都,練馬区,179,北町１－１４－１１,北町小学校南側柵,35.7642812,139.6641124,
東京都,練馬区,180,北町１－１４－１１,北町小学校正門横,35.7642812,139.6641124,
東京都,練馬区,181,北町１－３８－２３,電車の見える公園,35.7668976,139.6677203,
東京都,練馬区,182,北町２－５,自衛隊官舎南側塀,35.76513449999999,139.6616308,
東京都,練馬区,183,北町２－７,自衛隊官舎南側塀,35.7657959,139.6597174,
東京都,練馬区,184,北町２－１３,田柄川緑道第３駐車場北側,35.7659543,139.6617105,
東京都,練馬区,185,北町２－１１,田柄川緑道都営住宅三号棟南側,35.7666156,139.6597971,
東京都,練馬区,186,北町３－１,田柄川緑道北町中学校裏,35.7668521,139.6570068,
東京都,練馬区,187,北町３－１－３４,北町中学校東側フェンス,35.7672044,139.6569514,
東京都,練馬区,188,北町３－３,北町保育園,35.7676912,139.6558907,
東京都,練馬区,189,北町３－１３－９,北町みのり公園,35.7676031,139.6521348,
東京都,練馬区,190,春日町１－３０－１１,練馬東小学校北側,35.7525163,139.6482699,
東京都,練馬区,191,春日町２－４－３０,春日公園,35.7554908,139.6485769,
東京都,練馬区,192,春日町１－３０－１１,練馬東小学校正門横,35.7525163,139.6482699,
東京都,練馬区,193,春日町１－３０－１１,練馬東小学校東側,35.7525163,139.6482699,
東京都,練馬区,194,春日町２－２８－２７,はぎのき児童遊園,35.7571519,139.6467875,
東京都,練馬区,195,春日町２－１２－１,春日町備蓄倉庫,35.7555546,139.6473114,
東京都,練馬区,196,春日町２－１４－２２,練馬東中学校南側,35.7573511,139.6482007,
東京都,練馬区,197,春日町２－１４－２２,練馬東中学校正門横,35.7573511,139.6482007,
東京都,練馬区,198,早宮４－４０,宮が谷戸緑地,35.7462785,139.6482381,
東京都,練馬区,199,早宮３－１３－３１,早宮保育園,35.7502141,139.6532298,
東京都,練馬区,200,早宮３－３４,個人宅前駐車場,35.7479777,139.6517454,
東京都,練馬区,201,早宮４－１０－１７,早宮小学校正門横,35.7519252,139.6506792,
東京都,練馬区,202,早宮４－１０－１７,早宮小学校グラウンド前,35.7519252,139.6506792,
東京都,練馬区,203,早宮３－３７－８,なかみや児童遊園,35.7492519,139.6520643,
東京都,練馬区,204,早宮４－１７－７,北宮児童遊園,35.7497654,139.651028,
東京都,練馬区,205,早宮３－４１－２１,ふたば児童遊園,35.7476714,139.6506294,
東京都,練馬区,206,春日町３－１４－２４,寿福寺幼稚園塀,35.749038,139.642385,
東京都,練馬区,207,春日町４－１６－９,春日町青少年館,35.7525688,139.6392416,
東京都,練馬区,208,春日町４－２６－１４,けやき児童公園,35.7562292,139.6428404,
東京都,練馬区,209,春日町４－３７－２４,北豊島園自動車学校駐車場西側フェンス,35.7563049,139.6375503,
東京都,練馬区,210,春日町３－１２,長谷川ちびっこ遊び場,35.7495215,139.6408256,
東京都,練馬区,211,春日町３－１０－７,春日町三丁目公園,35.7483673,139.6410198,
東京都,練馬区,212,春日町３－２８－５,春日町三丁目アパート５号棟前,35.7506631,139.6418631,
東京都,練馬区,213,春日町４－１４,春日町四丁目アパート２号棟脇公園,35.7526471,139.6405865,
東京都,練馬区,214,高松1-13,練馬幼稚園南側,35.7464383,139.6331749,
東京都,練馬区,215,高松1-24-1,練馬中学校正門横,35.7476292,139.6346181,
東京都,練馬区,216,高松1-40-1,わかみや公園,35.7497464,139.6328562,
東京都,練馬区,217,高松2-12,もちのき憩いの森,35.7465761,139.6317405,
東京都,練馬区,218,高松3-16-1,高松小学校西側,35.7499225,139.6266109,
東京都,練馬区,219,谷原1-20-17,みのわ公園,35.7516784,139.6210496,
東京都,練馬区,220,高松4-8-13,さかえ幼稚園塀,35.7518208,139.6305543,
東京都,練馬区,221,谷原1-7-5,谷原総合体育館（北側）,35.7493853,139.6214074,
東京都,練馬区,222,谷原1-18-1,高原公園,35.7506372,139.6237225,
東京都,練馬区,223,北町7-12-15,どんぐり山の森緑地,35.7624237,139.6520344,
東京都,練馬区,224,北町6-16-1,わらべ児童遊園,35.7599519,139.6544647,
東京都,練馬区,225,北町6-19-7,北町なかよし公園,35.7606623,139.655158,
東京都,練馬区,226,北町7-3-8,北町西小学校南側,35.7613313,139.6533485,
東京都,練馬区,227,北町7-3-8,北町西小学校正門横,35.7613313,139.6533485,
東京都,練馬区,228,北町5-3,うめのき憩いの森,35.7634744,139.6557313,
東京都,練馬区,229,北町8-2-12,北町福祉作業所,35.764209,139.6510678,
東京都,練馬区,230,北町8-15-11,北西大松公園内,35.7663188,139.649171,
東京都,練馬区,231,田柄3-3-1,田柄中学校東門横,35.7591931,139.641973,
東京都,練馬区,232,田柄3-9,田柄防衛省宿舎東側塀,35.7579398,139.6391519,
東京都,練馬区,233,田柄3-9,田柄防衛省宿舎北側塀,35.7579398,139.6391519,
東京都,練馬区,234,田柄3-9,田柄第二住宅南側塀,35.7579398,139.6391519,
東京都,練馬区,235,田柄3-9,田柄第二住宅西側塀,35.7579398,139.6391519,
東京都,練馬区,236,田柄5-20,ともだち公園,35.759212,139.6348484,
東京都,練馬区,237,田柄5-5-2,田柄梅林公園,35.7547805,139.6327341,
東京都,練馬区,238,北町8-31-20,北八風の子公園,35.7671163,139.6480886,
東京都,練馬区,239,田柄2-17-27,田柄幼稚園,35.7653422,139.6447533,
東京都,練馬区,240,田柄2-19-19,田柄小学校正門 ※休校日は正門に鍵がかかっており、入れない場合があるので注意。,35.7658248,139.6435795,
東京都,練馬区,241,田柄2-6-22,田柄第二保育園,35.7636048,139.6447708,
東京都,練馬区,242,田柄2-45-1,たがら公園,35.7693067,139.643376,
東京都,練馬区,243,田柄4-5-2,田柄中央児童公園,35.7623545,139.6412241,
東京都,練馬区,244,田柄4-12-10,田柄特別養護老人ホーム,35.7627512,139.6355932,
東京都,練馬区,245,田柄4-14-15,個人宅塀,35.7649889,139.6368839,
東京都,練馬区,246,北町8-28-10,北町地域集会所裏手,35.7677151,139.6496689,
東京都,練馬区,247,旭町2-1,都営住宅用地外周フェンス,35.7674906,139.6244894,
東京都,練馬区,248,旭町2-11,光が丘公園西信号緑道,35.7713906,139.6252862,
東京都,練馬区,249,旭町2-29-1,旭町小学校正門横,35.7731773,139.6276144,
東京都,練馬区,250,旭町2-1-35,都立光丘高等学校,35.7680166,139.6250173,
東京都,練馬区,251,旭町2-39,旭町二丁目公園,35.7704263,139.6307046,
東京都,練馬区,252,旭町2-36,旭町2丁目アパート2号棟前,35.771443,139.6303858,
東京都,練馬区,253,旭町3-5-10,豊渓中学校フェンス,35.7744789,139.6276866,
東京都,練馬区,254,旭町3-17-4,出世稲荷神社,35.775932,139.6259436,
東京都,練馬区,255,高松6-30-1,高松大門公園,35.759514,139.6189711,
東京都,練馬区,256,土支田1-35-2,土支田エイト公園,35.7649922,139.6158859,
東京都,練馬区,257,高松6-17-1,東京都立練馬特別支援学校,35.7582419,139.6142484,
東京都,練馬区,258,土支田2-26-28,豊渓小学校正門横,35.7633064,139.6155416,
東京都,練馬区,259,土支田2-32,どんぐり児童遊園,35.7635848,139.6144509,
東京都,練馬区,260,土支田2-40-21,土支田地域集会所,35.7642833,139.6116372,
東京都,練馬区,261,土支田3-17,土支田公園,35.7582677,139.6055292,
東京都,練馬区,262,土支田3-31,土支田農業公園児童遊園,35.7612023,139.6094323,
東京都,練馬区,263,土支田2-38-1,土支田なごみ公園,35.7630005,139.6115831,
東京都,練馬区,264,大泉町1-44,風の丘公園,35.7672207,139.6053699,
東京都,練馬区,265,土支田4-28-1,土支田八幡宮,35.76785539999999,139.6133058,
東京都,練馬区,266,土支田4-31-24,土支田庭球場,35.7694625,139.6150613,
東京都,練馬区,267,土支田4-47-21,八坂中学校正門横,35.7693092,139.6120312,
東京都,練馬区,268,土支田４－４７－２１,八坂中学校グラウンド横,35.7693092,139.6120312,
東京都,練馬区,269,大泉町１－３－１８,稲荷山図書館,35.7653353,139.6092267,
東京都,練馬区,270,大泉町１－１７,八坂台児童公園,35.7680539,139.6106272,
東京都,練馬区,271,大泉町１－１９,越後山の森緑地,35.7704228,139.6104679,
東京都,練馬区,272,谷原２－９－２６,谷原小学校東側フェンス,35.750824,139.6146003,
東京都,練馬区,273,谷原３－９,きたっぱら憩いの森,35.7540199,139.6170002,
東京都,練馬区,274,谷原４－１０－５,谷原中学校裏門横,35.7549212,139.6151404,
東京都,練馬区,275,谷原５－５,谷原児童公園,35.7513908,139.6119017,
東京都,練馬区,276,谷原４－９－１,北原小学校北側フェンス,35.7553259,139.6141821,
東京都,練馬区,277,谷原５－１６－４１,谷原保育園正門横,35.7503974,139.6107865,
東京都,練馬区,278,谷原６－４,北原公園,35.754885,139.6106272,
東京都,練馬区,279,高野台４－２９,高野台四丁目児童遊園,35.7489437,139.6145306,
東京都,練馬区,280,谷原３－２７,中の台児童遊園,35.75558000000001,139.6173189,
東京都,練馬区,281,高野台１－８－３４,石神井東中学校正門横,35.74261389999999,139.6172293,
東京都,練馬区,282,高野台３－１－１０,順天堂練馬病院（北側）,35.7421245,139.6150022,
東京都,練馬区,283,高野台１－８－３４,石神井東中学校（北側）,35.74261389999999,139.6172293,
東京都,練馬区,284,高野台３－２９－２７,高野台中央公園,35.7466325,139.6137588,
東京都,練馬区,285,高野台３－１－１０,順天堂練馬病院（南側）,35.7421245,139.6150022,
東京都,練馬区,286,石神井町１－１,和田堀公園,35.7398381,139.6109458,緯度経度は怪しい
東京都,練馬区,287,石神井町１－１,和田堀第二公園,35.7398381,139.6109458,緯度経度は怪しい
東京都,練馬区,288,石神井町１－１－５３,長光寺橋公園,35.7398381,139.6109458,緯度経度は怪しい
東京都,練馬区,289,富士見台２－１３－３,都営富士見台二丁目アパート３号棟前,35.73372610000001,139.6246876,
東京都,練馬区,290,富士見台１－２２－４,富士見台特別養護老人ホーム,35.7333738,139.621083,
東京都,練馬区,291,富士見台１－４－３,千川児童遊園,35.733405,139.6262424,
東京都,練馬区,292,南田中２－３,西武バス車庫裏芝生,35.7336794,139.6187529,
東京都,練馬区,293,南田中２－１３－１,南が丘小学校正門横フェンス,35.7341117,139.6169891,
東京都,練馬区,294,南田中２－１３－１,南が丘小学校北西側学童クラブ前フェンス,35.7341117,139.6169891,
東京都,練馬区,295,南田中３－９－１,石神井東小学校正門横,35.737576,139.6200824,
東京都,練馬区,296,南田中３－９－１,石神井東小学校北門横,35.737576,139.6200824,
東京都,練馬区,297,南田中３－３１,都営南田中アパート５号館前公園,35.7390014,139.6166815,
東京都,練馬区,298,下石神井３－４－１２,下石神井坂下公園,35.7344236,139.6090141,
東京都,練馬区,299,南田中４－８－２３,南が丘中学校南側フェンス,35.7342489,139.6133406,
東京都,練馬区,300,南田中４－８－２３,南が丘中学校北側フェンス,35.7342489,139.6133406,
東京都,練馬区,301,南田中５－２５－２８,石神井川沿い歩道の柵（和田前歩道橋付近）,35.739392,139.6097066,
東京都,練馬区,302,南田中５－１５－２５,南田中児童館,35.73781719999999,139.611534,
東京都,練馬区,303,南田中４－１８,おくらやま憩いの森,35.7349113,139.6122204,
東京都,練馬区,304,南田中５－１５－３７,南田中小学校通用門横,35.7374684,139.6111051,
東京都,練馬区,305,南田中５－３,元締山の森緑地西側,35.738353,139.614828,
東京都,練馬区,306,石神井町２－１３－２６,石神井公園駅北第二自転車駐車場,35.7451556,139.6091001,
東京都,練馬区,307,石神井町２－１６－３４,光和小学校正門横,35.74637670000001,139.6073015,
東京都,練馬区,308,石神井町４－１１－３５,光和公園,35.7468451,139.604892,
東京都,練馬区,309,石神井町８－１－１,都営石神井町八丁目アパート１号棟 東側植え込み,35.7448683,139.6033189,
東京都,練馬区,310,石神井町８－１－１０,男女共同参画センターえーる,35.745377,139.6017857,
東京都,練馬区,311,石神井町８－１－２０,石神井町八丁目緑地,35.7453229,139.602184,緯度経度は怪しい
東京都,練馬区,312,石神井町８－１８,梨の木緑地,35.7475109,139.5966089,
東京都,練馬区,313,石神井町８－４１,みんなの広場公園,35.7481537,139.5982017,
東京都,練馬区,314,石神井町２－１８,むくのき公園,35.7463833,139.6087154,
東京都,練馬区,315,石神井町５－１２－１６,石神井公園ふるさと文化館正面,35.737569,139.5997304,
東京都,練馬区,316,石神井町３－３０－２６,石神井庁舎北側,35.7434317,139.6028635,
東京都,練馬区,317,石神井町５－１２－１６,石神井プール（石神井公園ふるさと文化館横）,35.737569,139.5997304,
東京都,練馬区,318,石神井町５－１３－１０,白百合福祉作業所,35.7363118,139.5998649,
東京都,練馬区,319,石神井町５－１９,石神井公園ピノキオ庭園南側,35.7383341,139.6047327,
東京都,練馬区,320,石神井町５－２０,石神井公園駐車場,35.7392135,139.6058478,
東京都,練馬区,321,石神井町５－２２,石神井公園野外音楽堂付近,35.7391919,139.6024229,
東京都,練馬区,322,石神井町7-3-9,東京電力石神井変電所,35.7440403,139.6013502,
東京都,練馬区,323,石神井町3-30-26,石神井庁舎南側,35.7434317,139.6028635,
東京都,練馬区,324,下石神井1-3-39,向三谷公園,35.7301866,139.6121108,
東京都,練馬区,325,下石神井2-1-2,区営下石神井二丁目アパート,35.728985,139.6095365,
東京都,練馬区,326,下石神井2-7-23,石神井南中学校北側,35.7299096,139.6093825,
東京都,練馬区,327,下石神井6-39,くらまえ緑地,35.7334052,139.6013875,
東京都,練馬区,328,下石神井2-20-18,下石神井小学校南西側,35.7315785,139.6053303,
東京都,練馬区,329,下石神井4-4-1,下石神井千川児童遊園,35.7278481,139.6062461,
東京都,練馬区,330,下石神井5-17-25,こまどり公園,35.7307735,139.6004708,
東京都,練馬区,331,下石神井6-1-18,上久保児童遊園,35.7323703,139.6052106,
東京都,練馬区,332,下石神井6-8-15,下石神井地区区民館,35.7338015,139.6035924,
東京都,練馬区,333,石神井台1-1-25,石神井小学校北側,35.7353878,139.5996518,
東京都,練馬区,334,石神井台1-32-1,石神井中学校東側,35.7404132,139.5955449,
東京都,練馬区,335,石神井台1-32-1,石神井中学校北側,35.7404132,139.5955449,
東京都,練馬区,336,石神井台3-2-16,新緑の森児童遊園,35.7426231,139.5935571,
東京都,練馬区,337,石神井台1-33-44,石神井松の風文化公園北側,35.7393448,139.5941339,
東京都,練馬区,338,石神井台1-33-44,石神井松の風文化公園西側,35.7393448,139.5941339,
東京都,練馬区,339,石神井台3-40-2,翠泉公園,35.7423218,139.5880085,
東京都,練馬区,340,石神井台1-28,三宝寺池入口,35.7379795,139.5976442,
東京都,練馬区,341,石神井台2-17-9,石神井台公園,35.7356203,139.5905566,
東京都,練馬区,342,石神井台2-18-13,石神井台児童館,35.7355775,139.5897222,
東京都,練馬区,343,石神井台4-1-26,あさがお児童遊園,35.732164,139.5894418,
東京都,練馬区,344,石神井台5-14,花の木憩いの森,35.7366714,139.583231,
東京都,練馬区,345,石神井台4-10-11,扇橋公園,35.7327691,139.5881478,
東京都,練馬区,346,石神井台6-16-1,西武バス(株)上石神井営業所,35.7392437,139.582589,
東京都,練馬区,347,石神井台5-1-32,上石神井北小学校南側,35.7358049,139.5890387,
東京都,練馬区,348,石神井台2-18-13,石神井台敬老館東側,35.7355775,139.5897222,
東京都,練馬区,349,石神井台6-2-6,沼辺緑地,35.7402086,139.5869561,
東京都,練馬区,350,上石神井2-22-1,上石神井駅北第三自転車駐車場,35.7263348,139.5951696,
東京都,練馬区,351,上石神井1-9,区営上石神井一丁目第二アパート1号棟前,35.7244941,139.5927863,
東京都,練馬区,352,上石神井2-2-43,井草高等学校正門横,35.72789880000001,139.5989733,
東京都,練馬区,353,上石神井3-16-15,都営上石神井三丁目アパート15号棟 西側植込み,35.7303918,139.5955881,
東京都,練馬区,354,上石神井2-16-27,上石神井東公園,35.7285428,139.5955334,
東京都,練馬区,355,上石神井1-2,上石神井駅車両管理所前塀,35.7256802,139.5950161,
東京都,練馬区,356,上石神井3-2-26,上石神井こもれび公園,35.7306092,139.598361,
東京都,練馬区,357,上石神井3-19-10,さくらの辻公園,35.7349275,139.5999041,緯度経度は怪しい
東京都,練馬区,358,上石神井南町7-14,原久保児童遊園,35.7230938,139.5964795,
東京都,練馬区,359,関町南1-3,若竹スポーツ広場,35.7211277,139.594379,
東京都,練馬区,360,上石神井南町20,関東バス株式会社車庫北側,35.7233512,139.5916582,
東京都,練馬区,361,上石神井1-32-33,平成公園,35.7229399,139.5877053,
東京都,練馬区,362,上石神井1-32-37,上石神井体育館入口,35.7225898,139.5873554,
東京都,練馬区,363,上石神井4-10-9,上石神井小学校正門横,35.7270937,139.5889839,
東京都,練馬区,364,上石神井4-15-27,上石神井中学校南側,35.7278981,139.5875406,
東京都,練馬区,365,上石神井4-15-27,上石神井中学校北側,35.7278981,139.5875406,
東京都,練馬区,366,上石神井4-21-3,都営上石神井アパート上石神井保育園,35.730256,139.5879111,
東京都,練馬区,367,関町南2-8,千川上水南側(久山橋付近),35.7206289,139.5849827,
東京都,練馬区,368,関町南2-7-37,たけした公園,35.7203864,139.5861945,
東京都,練馬区,369,関町南2-14-6,関町すずしろ公園,35.71506979999999,139.5852215,
東京都,練馬区,370,関町南2-15,関町一丁目児童遊園,35.7142208,139.5857789,
東京都,練馬区,371,立野町15-33,個人宅塀,35.7196937,139.5822172,
東京都,練馬区,372,立野町17-13,立野小学校正門横,35.7181148,139.5805388,
東京都,練馬区,373,立野町17-13,立野小学校通用門横,35.7181148,139.5805388,
東京都,練馬区,374,立野町32-1,立野公園東側,35.7175192,139.5784634,
東京都,練馬区,375,関町東1-3-2,日の出児童遊園,35.7247308,139.5858784,
東京都,練馬区,376,関町東1－18,個人宅塀,35.7233725,139.5829125,
東京都,練馬区,377,関町東1－19－4,関町ひがし公園,35.7238052,139.5827196,
東京都,練馬区,378,関町東2－7－10,日本カトリック神学院裏,35.7286563,139.5811626,
東京都,練馬区,379,関町南3－10－3,石神井西中学校南側フェンス,35.7198163,139.5802651,
東京都,練馬区,380,関町南3－15－35,関町福祉園,35.7224659,139.5795134,
東京都,練馬区,381,関町北1－1－5,石神井西小学校北側,35.7239657,139.5806407,
東京都,練馬区,382,関町北1－7－2,関区民センター,35.7245242,139.5776975,
東京都,練馬区,383,関町東1－22－13,都営関町東1丁目アパート13号棟北側植込み,35.7250417,139.5813331,
東京都,練馬区,384,関町南4－1－27,関町カトレヤ幼稚園,35.7199608,139.5766501,
東京都,練馬区,385,関町南4－9－28,関町特別養護老人ホーム,35.722122,139.5741806,
東京都,練馬区,386,関町南4－15－8,さんかく児童遊園,35.7211631,139.5717666,
東京都,練馬区,387,関町南4－19,きたうら公園,35.7216448,139.56906,
東京都,練馬区,388,関町南4－22－8,三ツ塚はなみずき公園,35.7216533,139.5673088,
東京都,練馬区,389,関町南4－22,三ツ塚南緑地,35.7216533,139.5673088,
東京都,練馬区,390,関町北3－23－34,関町小学校正門横,35.7254287,139.572692,
東京都,練馬区,391,関町北3－38,武蔵関公園弁天橋横,35.7273788,139.5700551,
東京都,練馬区,392,関町南4－12－19,わかば児童公園,35.7207601,139.574314,
東京都,練馬区,393,関町北4－2,武蔵関駅西自転車駐車場,35.72796330000001,139.5756674,
東京都,練馬区,394,関町北4－9,武蔵関駅北自転車駐車場,35.728847,139.5759062,
東京都,練馬区,395,関町北4－32－48,石神井高校正門横,35.7306553,139.5714303,
東京都,練馬区,396,関町北4－34－23,関中学校西側,35.7302413,139.5748613,
東京都,練馬区,397,関町北4－34－23,関中学校正門横,35.7302413,139.5748613,
東京都,練馬区,398,関町北5－12－1,関町北公園,35.7327142,139.5727219,
東京都,練馬区,399,関町北4－32－48,石神井高校西側植込み,35.7306553,139.5714303,
東京都,練馬区,400,関町北5－13－40,関町北小学校正門横,35.73188280000001,139.573561,
東京都,練馬区,401,三原台1－19,北田中児童遊園,35.75366229999999,139.6052903,
東京都,練馬区,402,三原台2－11,三原台ののはな公園,35.7571723,139.6060072,
東京都,練馬区,403,三原台1－22－15,三原緑地西側,35.7544912,139.6042455,
東京都,練馬区,404,三原台3－18－30,泉新小学校東側フェンス,35.7542877,139.6015471,
東京都,練馬区,405,三原台3－7,三原台公園,35.7511657,139.5996353,
東京都,練馬区,406,三原台3－13－41,三原台中学校西側,35.7545252,139.6007044,
東京都,練馬区,407,三原台3－18－30,泉新小学校西側フェンス,35.7542877,139.6015471,
東京都,練馬区,408,大泉町2－11－25,橋戸小学校正門横,35.7590107,139.6025627,
東京都,練馬区,409,東大泉1－2,東大泉はなみずき児童遊園,35.747984,139.5956532,
東京都,練馬区,410,東大泉1－8－16,個人宅フェンス,35.748348,139.5946725,
東京都,練馬区,411,東大泉1－3－3,東大泉第二児童遊園,35.74689710000001,139.5942581,
東京都,練馬区,412,東大泉1－22－1,大泉東小学校北側,35.7491174,139.591557,
東京都,練馬区,413,東大泉1－22－1,大泉東小学校西側,35.7491174,139.591557,
東京都,練馬区,414,東大泉1－27－30,大泉幼稚園,35.750232,139.5892875,
東京都,練馬区,415,東大泉2－9－4,NTT東日本大泉ビル横フェンス,35.7510237,139.594241,
東京都,練馬区,416,東大泉2－11－21,大泉特別養護老人ホーム,35.7510059,139.5960981,
東京都,練馬区,417,東大泉5－11,千坪憩いの森,35.7443772,139.5907955,
東京都,練馬区,418,東大泉5－40,あかしあ児童公園,35.7480796,139.5875312,
東京都,練馬区,419,東大泉6－21－1,大泉第二中学校正門横,35.744387,139.5846816,
東京都,練馬区,420,東大泉6－21－1,大泉第二中学校西側,35.744387,139.5846816,
東京都,練馬区,421,東大泉7－27－51,東大泉地域集会所,35.7435115,139.5803995,
東京都,練馬区,422,東大泉5－22－1,東京学芸大学附属国際中等教育学校,35.7454824,139.5877715,緯度経度は怪しい
東京都,練馬区,423,東大泉6－45－3,東大泉六丁目緑地,35.7467714,139.5841549,
東京都,練馬区,424,東大泉7－26,井頭憩いの森北側,35.74288680000001,139.5787723,
東京都,練馬区,425,東大泉7－20－1,東大泉第一保育園,35.7423969,139.5773012,
東京都,練馬区,426,大泉町1－43－30,個人宅前,35.7676574,139.6038367,
東京都,練馬区,427,大泉町3－23,大泉町もみじやま公園,35.7672946,139.6023824,
東京都,練馬区,428,大泉町2－41－26,北大泉地区民館北側,35.7647401,139.6040815,
東京都,練馬区,429,大泉町4－15－15,北大泉保育園・児童館外壁,35.7628134,139.599924,
東京都,練馬区,430,大泉町3－5－7,都立大泉桜高等学校東側塀,35.7640566,139.5975351,
東京都,練馬区,431,大泉町3－16－23,大泉第一小学校正門横,35.76536189999999,139.5985701,
東京都,練馬区,432,大泉町4－7－3,向下橋公園,35.7609195,139.6007503,
東京都,練馬区,433,大泉町3－31－44,北大泉野球場南側フェンス,35.7669586,139.5967533,
東京都,練馬区,434,大泉町6－22－3,みやのくぼの森緑地,35.7574187,139.5927863,
東京都,練馬区,435,大泉町4－28－22,大泉北小学校正門横,35.7622354,139.596228,
東京都,練馬区,436,大泉町5－24－12,大泉運動場西側フェンス,35.7622568,139.5932266,
東京都,練馬区,437,大泉町4－28－22,大泉北小学校北側,35.7622354,139.596228,
東京都,練馬区,438,大泉町2－9－34,大泉橘戸公園西側,35.7589446,139.601487,
東京都,練馬区,439,大泉町5－4－32,大泉北中学校北側塀,35.75958809999999,139.5962107,
東京都,練馬区,440,大泉町5－4－32,大泉北中学校校庭側フェンス,35.75958809999999,139.5962107,
東京都,練馬区,441,大泉学園町1－7－11,大泉学園消防出張所,35.7591486,139.5891282,
東京都,練馬区,442,大泉学園町4－17－32,大泉学園中学校南側,35.7662686,139.5903843,
東京都,練馬区,443,大泉学園町4－2－4,こぐれの森緑地,35.7635722,139.5907508,
東京都,練馬区,444,大泉学園町4－7－1,大泉学園小学校正門横,35.7656863,139.5936957,
東京都,練馬区,445,大泉学園町4－17－32,大泉学園中学校体育館前,35.7662686,139.5903843,
東京都,練馬区,446,大泉学園町5－8－8,大泉保健相談所,35.7670962,139.5866442,
東京都,練馬区,447,大泉学園町5－11－47,大泉学園緑小学校南側,35.7663149,139.5855961,
東京都,練馬区,448,大泉学園町7－7－26,大泉風致地区公園,35.7710298,139.586828,
東京都,練馬区,449,大泉学園町4－21－1,大泉北地域集会所,35.7656079,139.5884677,
東京都,練馬区,450,大泉学園町3－6－22,個人所有野菜畑フェンス,35.7628927,139.5839995,
東京都,練馬区,451,大泉学園町3－9－20,大泉学園町福祉園,35.7612559,139.5822387,
東京都,練馬区,452,大泉学園町3－22－1,大泉第三小学校正門横,35.7637102,139.5800362,
東京都,練馬区,453,大泉学園町6－3－37,おもかげの森緑地,35.767987,139.5806831,
東京都,練馬区,454,大泉学園町6－26－26,大泉公園,35.7721661,139.5834798,
東京都,練馬区,455,西大泉3－29－31,学園コーポ塀,35.7596372,139.5774294,
東京都,練馬区,456,大泉学園町3－22－1,大泉第三小学校西側,35.7637102,139.5800362,
東京都,練馬区,457,西大泉4－18,西大泉4丁目個人所有地,35.7664014,139.5746325,
東京都,練馬区,458,大泉学園町5－14－36,すずしろ公園,35.7652377,139.5845049,
東京都,練馬区,459,大泉学園町2－2－2,大泉中島公園,35.7550622,139.5845348,
東京都,練馬区,460,西大泉3－3－1,都営西大泉三丁目アパート1号棟南側,35.7541851,139.5832708,
東京都,練馬区,461,大泉学園町2－27－15,個人宅塀西側,35.7562447,139.5838082,
東京都,練馬区,462,西大泉3－13－3,諏訪神社,35.7559046,139.5803746,
東京都,練馬区,463,西大泉3－19－27,大泉西中学校西門脇植栽,35.7578298,139.5797377,
東京都,練馬区,464,西大泉3－19－27,大泉西中学校東門脇植栽,35.7578298,139.5797377,
東京都,練馬区,465,西大泉3－21－16,西大泉保育園,35.7595279,139.578942,
東京都,練馬区,466,大泉学園町2－21－17,大泉図書館,35.7608211,139.5872669,
東京都,練馬区,467,西大泉5－2,西大泉さくら緑地,35.7600346,139.5730403,
東京都,練馬区,468,西大泉1－24－1,大泉第四小学校体育館横,35.7553891,139.5744036,
東京都,練馬区,469,西大泉1－22,竹の子憩いの森,35.7549539,139.5746325,
東京都,練馬区,470,西大泉1－24－1,大泉第四小学校北側,35.7553891,139.5744036,
東京都,練馬区,471,西大泉1－36－5,のぞみ児童遊園,35.7534247,139.5698063,
東京都,練馬区,472,西大泉5－3－32,西大泉地区民館,35.760222,139.5726074,
東京都,練馬区,473,西大泉2－14,西大泉二丁目樹木育成場,35.7578867,139.5762247,
東京都,練馬区,474,西大泉6－19－39,むさしの広場公園,35.7612685,139.5647617,
東京都,練馬区,475,西大泉5－25－30,西大泉こさっぱら緑地,35.7602157,139.5690788,
東京都,練馬区,476,南大泉1－6,梅の木児童遊園,35.7379001,139.5767024,
東京都,練馬区,477,南大泉1－22－45,南泉台児童遊園,35.7386827,139.5742543,
東京都,練馬区,478,南大泉4－1,大泉井頭公園南西側,35.7439903,139.5765431,
東京都,練馬区,479,南大泉2－19－26,南大泉地区民館,35.7391102,139.5704837,
東京都,練馬区,480,南大泉1－41－6,都営南大泉一丁目アパート6号棟西側植え込み,35.7432331,139.5763586,
東京都,練馬区,481,南大泉3－14－25,南大泉かきのき児童遊園,35.7434654,139.5712275,
東京都,練馬区,482,南大泉3－20,南大泉三丁目児童遊園,35.7420196,139.5695376,
東京都,練馬区,483,南大泉4－29－11,大泉第二小学校西側,35.7441668,139.5725726,
東京都,練馬区,484,南大泉4－29－11,大泉第二小学校北側,35.7441668,139.5725726,
東京都,練馬区,485,大泉学園町9－4－3,都立大泉中央公園北西入口,35.7749087,139.5974862,
東京都,練馬区,486,大泉学園町7－12－32,特別養護老人ホームやすらぎの里大泉,35.7729849,139.5910991,
東京都,練馬区,487,大泉学園町7－17－40,くりの木の森緑地,35.775267,139.5873714,
東京都,練馬区,488,大泉学園町8－9,大泉学園公園,35.7728133,139.5919701,
東京都,練馬区,489,大泉学園町9－2－1,大泉学園桜中学校正門横,35.7774654,139.5909882,
東京都,練馬区,490,大泉学園町9－2－2,大泉学園桜小学校正門横,35.7772262,139.5919014,
東京都,練馬区,491,大泉学園町9－4－3,都立大泉中央公園西入口,35.7749087,139.5974862,
東京都,練馬区,492,大泉学園町9－4－3,都立大泉中央公園駐車場出口,35.7749087,139.5974862,
東京都,練馬区,493,南大泉3－25－25,南大泉自転車駐車場,35.7465621,139.5680675,
東京都,練馬区,494,南大泉4－9,大泉井頭公園,35.7471846,139.5778966,
東京都,練馬区,495,南大泉5－6,南大泉五丁目児童遊園,35.7510094,139.5779762,
東京都,練馬区,496,南大泉5－21,たけやま緑地,35.7502957,139.5747917,
東京都,練馬区,497,南大泉5－25－29,大泉第六小学校北側,35.7511388,139.5711814,
東京都,練馬区,498,南大泉5－25－29,大泉第六小学校南側,35.7511388,139.5711814,
東京都,練馬区,499,南大泉6－10,ひよどり児童遊園,35.7525935,139.5730403,
東京都,練馬区,500,南大泉6－16－1,大泉交通公園,35.7531227,139.5718263,
東京都,練馬区,501,光が丘1－1,むつみ台団地1号棟東,35.7687006,139.6403814,
東京都,練馬区,502,光が丘1－3－1,光が丘児童館,35.7677114,139.6391197,
東京都,練馬区,503,光が丘1－4－1,光が丘第八小学校正門横,35.7683862,139.6373737,
東京都,練馬区,504,光が丘1－4－1,光が丘第八小学校東側,35.7683862,139.6373737,
東京都,練馬区,505,田柄4－31－23,個人所有畑,35.7671804,139.6411643,
東京都,練馬区,506,光が丘1－2,むつみ台団地2号棟西,35.76813509999999,139.6396699,
東京都,練馬区,507,光が丘1－6－3－101,光が丘第二保育園,35.7678101,139.6358446,
東京都,練馬区,508,旭町1－12,旭町区民農園,35.7635409,139.6232146,
東京都,練馬区,509,旭町1－26,八丁堀天満宮参道,35.7646555,139.6215414,
東京都,練馬区,510,旭町1－33－22,旭町第二保育園,35.7658207,139.6246637,
東京都,練馬区,511,高松5－24－1,光が丘四季の香小学校南側,35.7619573,139.6251214,
東京都,練馬区,512,高松5－24－1,光が丘四季の香小学校東側,35.7619573,139.6251214,
東京都,練馬区,513,光が丘5－2－6,四季の香ローズガーデン,35.76073969999999,139.6256767,
東京都,練馬区,514,光が丘5－2,四季の香ローズガーデン光が丘団地バス停横,35.7623323,139.6270292,緯度経度は怪しい
東京都,練馬区,515,光が丘6－5－1,光が丘第一中学校北側フェンス,35.7602801,139.6222292,
東京都,練馬区,516,光が丘7－2－1,光が丘春の風小学校東側,35.7554524,139.6261972,
東京都,練馬区,517,光が丘7－3－1,光が丘第四保育園,35.7566003,139.626027,
東京都,練馬区,518,高松5－3,高清平公園,35.7530551,139.6224178,
東京都,練馬区,519,光が丘7－1－1,光が丘第二中学校南側フェンス,35.7539048,139.6264117,
東京都,練馬区,520,光が丘7－8,光が丘地区区民館向かい歩道橋下,35.7578055,139.6249675,
東京都,練馬区,521,光が丘7－4,大通り南公園駐車場横,35.7574189,139.624421,
東京都,練馬区,522,光が丘7－7,大通り南公園北側7－7－3号棟横,35.7573997,139.6228959,
東京都,練馬区,523,光が丘7－7,光が丘7丁目西交差点7－7－1号棟前,35.7573997,139.6228959,
東京都,練馬区,524,光が丘2－4－8,光が丘さくら幼稚園園庭フェンス,35.7628298,139.6322012,
東京都,練馬区,525,光が丘2－1－1,光が丘秋の陽小学校東側フェンス,35.7617208,139.6348104,
東京都,練馬区,526,光が丘2－6－1,旧光が丘第五小学校入口左側フェンス,35.7617466,139.6322786,
東京都,練馬区,527,光が丘2－1－1,光が丘秋の陽小学校南側フェンス,35.7617208,139.6348104,
東京都,練馬区,528,光が丘2－9－6,光が丘区民センター,35.7594045,139.6297633,
東京都,練馬区,529,光が丘4－1,練馬光が丘病院跡施設向い,35.7640529,139.6269369,
東京都,練馬区,530,光が丘4－1－4,光が丘体育館,35.763942,139.6300699,
東京都,練馬区,531,光が丘3－2－1,光が丘第三中学校東門,35.7550678,139.6314736,
東京都,練馬区,532,光が丘3－2－1,光が丘第三中学校北側,35.7550678,139.6314736,
東京都,練馬区,533,光が丘3－3－1,学校教育支援センター光が丘第一前,35.7546518,139.6269993,
東京都,練馬区,534,光が丘3－1－1,こども発達支援センターフェンス,35.7542106,139.6310344,
東京都,練馬区,535,光が丘3－3,夏の雲公園内3－3－6号棟横,35.7462304,139.632034,緯度経度は怪しい
東京都,練馬区,536,光が丘3－4,夏の雲公園南側,35.7544596,139.6276766,
東京都,練馬区,537,光が丘3－4,夏の雲公園庭球場前道路,35.7544596,139.6276766,
東京都,練馬区,538,光が丘3-8,いちょう通り8番街,35.7567503,139.6276766,
東京都,練馬区,539,桜台3-46,石神井川歩道沿い柵(丸山橋付近),35.7487881,139.6651389,
東京都,練馬区,540,桜台3-8-10,個人所有駐車場,35.74797909999999,139.6685775,
東京都,練馬区,541,桜台3-28-1,開進第三中学校北側生垣,35.7458301,139.6655488,
東京都,練馬区,542,桜台3-28-1,桜台体育館入口横,35.7458301,139.6655488,
東京都,練馬区,543,桜台3-34-4,練馬清掃事務所桜台分室,35.7469407,139.6665542,
東京都,練馬区,544,桜台3-28-1,開進第三中学校グラウンド側フェンス,35.7458301,139.6655488,
東京都,練馬区,545,桜台3-48-43,桜台テニスクラブ,35.748315,139.6633859,
東京都,練馬区,546,羽沢2-13-17,羽沢児童遊園,35.7457625,139.6710013,
東京都,練馬区,547,羽沢2-33-1,開進第四小学校正門横,35.748298,139.6717272,
東京都,練馬区,548,羽沢2-33-1,開進第四小学校東側,35.748298,139.6717272,
東京都,練馬区,549,羽沢3-24-1,開進第四中学校生垣,35.750636,139.6730429,
東京都,練馬区,550,羽沢3-2,羽根木憩いの森,35.7498345,139.6734317,
東京都,練馬区,551,氷川台3-14-26,荘厳寺南側塀,35.7530765,139.6702422,
東京都,練馬区,552,氷川台3-20,石神井川歩道沿い柵(仲羽橋付近),35.7498843,139.6692852,
東京都,練馬区,553,氷川台3-26-23,個人宅塀,35.7514946,139.666614,
東京都,練馬区,554,東大泉3-54,憩いの丘公園,35.75598859999999,139.5884464,
東京都,練馬区,555,東大泉3-53-1,東大泉地区区民館横,35.75597,139.5878766,
東京都,練馬区,556,東大泉3-8-11,外山橋南児童遊園,35.7524134,139.5919104,
東京都,練馬区,557,東大泉3-59,東大泉弁天池公園,35.7559191,139.5907557,
東京都,練馬区,558,東大泉4-25-1,大泉小学校正門横,35.7521115,139.5839724,
東京都,練馬区,559,東大泉4-25-1,大泉小学校グラウンド横,35.7521115,139.5839724,
東京都,練馬区,560,東大泉4-27-35,大泉中学校正門横,35.7525129,139.5855649,
東京都,練馬区,561,東大泉4-27-35,大泉中学校グラウンド横,35.7525129,139.5855649,
東京都,練馬区,562,田柄1-5-27,田柄第二小学校正門横,35.759373,139.642564,
東京都,練馬区,563,田柄1-5-27,田柄第二小学校東側フェンス,35.759373,139.642564,
東京都,練馬区,564,田柄1-10,南田柄樹木育成場(南側),35.7606872,139.6463251,
東京都,練馬区,565,田柄1-10,南田柄樹木育成場(東側),35.7606872,139.6463251,
東京都,練馬区,566,田柄1-16,田柄1丁目区民農園,35.7597102,139.6488758,
東京都,練馬区,567,田柄1-29-5,個人宅西側塀,35.7612414,139.6436663,
東京都,練馬区,568,田柄3-20-4,田柄通り沿い畑のフェンス,35.7606394,139.6416113,
東京都,練馬区,569,田柄3-28-13,田柄地区区民館裏フェンス,35.7621604,139.637279,
東京都,練馬区,570,春日町5-11,春日憩いの森,35.7473154,139.6407259,緯度経度は怪しい
東京都,練馬区,571,春日町5-35-5,春日町かしのき緑地,35.7506371,139.6360986,
東京都,練馬区,572,春日町6-11-36,練馬小学校東側,35.7519254,139.6355756,
東京都,練馬区,573,春日町6-13-28,中ノ宮竹林公園,35.7519538,139.6338921,
東京都,練馬区,574,春日町5-12-1,春日小学校正門横,35.7469033,139.6400584,
東京都,練馬区,575,春日町6-11-36,練馬小学校正門横,35.7519254,139.6355756,
東京都,練馬区,576,春日町5-20-25,春日町南地区区民館,35.7477203,139.6385196,
東京都,練馬区,577,春日町5-30-1,春日町地域集会所,35.75057049999999,139.6394308,
東京都,練馬区,578,石神井台7-24-45,石神井台七丁目児童遊園,35.7330529,139.5797582,
東京都,練馬区,579,石神井台8-6-33,石神井台小学校通用門横,35.7356196,139.5810912,
東京都,練馬区,580,石神井台8-6-33,石神井台小学校西側,35.7356196,139.5810912,
東京都,練馬区,581,石神井台4-5-56,上石神井公園,35.7312522,139.5843457,
東京都,練馬区,582,石神井台4-5-14,石神井台地域集会所,35.7316924,139.5852936,
東京都,練馬区,583,石神井台4-21-22,白ふじ幼稚園,35.7335781,139.5837684,
東京都,練馬区,584,石神井台7-19,都営石神井台七丁目アパート2号棟横,35.730894,139.5804443,
東京都,練馬区,585,石神井台8-21,けやき憩いの森,35.7371445,139.5822755,
