prefecture,city,number,address,name,lat,long,note
東京都,西東京市,01-01,新町5-17,都営保谷新町五丁目アパート22号棟西側道路脇,35.7150465,139.5332499,
東京都,西東京市,01-02,新町5-18,新町つつじ公園入口西側柵(南寄り),35.7138517,139.5327726,
東京都,西東京市,01-03,新町5-1,新町児童遊園北側柵,35.7146157,139.5364321,
東京都,西東京市,01-04,新町5-1,新町第二児童遊園南側柵(東寄り),35.7146157,139.5364321,
東京都,西東京市,01-05,新町5-2-7,新町福祉会館東側道路脇(北寄り),35.71296,139.5364025,
東京都,西東京市,01-06,新町5-2-7,新町福祉会館西側道路脇(南寄り),35.71296,139.5364025,
東京都,西東京市,01-07,新町3-12,おおぞら公園北側柵(西寄り),35.7160757,139.5357957,
東京都,西東京市,01-08,新町6-9,上保谷新田公園南側柵(東寄り),35.715162,139.5307042,
東京都,西東京市,02-01,向台町5-4,向台運動場西側植込み,35.7209938,139.5299087,
東京都,西東京市,02-02,向台町6-15,向台第四児童遊園東側柵(南寄り),35.7221578,139.5255337,
東京都,西東京市,02-03,向台町6-7-28,上向台小学校北側正門西側柵,35.7201608,139.5262107,
東京都,西東京市,02-04,向台町6-7-28,上向台小学校南門西側柵,35.7201608,139.5262107,
東京都,西東京市,02-05,向台町5-4,田無市民公園東側植込み(北寄り),35.7209938,139.5299087,
東京都,西東京市,02-06,向台町5-4,田無市民公園南側植込み(西寄り),35.7209938,139.5299087,
東京都,西東京市,02-07,向台町4-20,向台四丁目第一公園東側柵,35.719261,139.533409,
東京都,西東京市,02-08,向台町3-5,おおぞら北公園中央植込み(南寄り),35.7173283,139.5350001,
東京都,西東京市,03-01,向台町2-1-1,向台小学校西門北側柵,35.7220181,139.5392217,
東京都,西東京市,03-02,向台町2-1-1,向台小学校東門北側柵,35.7220181,139.5392217,
東京都,西東京市,03-03,向台町3-10,向台植物公園東側柵(北寄り),35.7216137,139.5367504,
東京都,西東京市,03-04,向台町2-14-9,田無第四中学校正門西側柵,35.7197739,139.5405975,
東京都,西東京市,03-05,向台町2-5,向台公園南側入口東側柵,35.7205737,139.5423197,
東京都,西東京市,03-06,向台町3-1,向台三丁目第1緑地東側道路脇(南寄り),35.7220253,139.5385206,
東京都,西東京市,03-07,新町2-10,保谷新町二丁目アパート公園西側植込み(南寄り),35.7163976,139.542817,
東京都,西東京市,03-08,新町1-4,柳橋出張所南側植込み(西寄り),35.7155545,139.5458804,
東京都,西東京市,04-01,柳沢5-15,柳沢第三児童遊園北側柵,35.7264447,139.5501177,
東京都,西東京市,04-02,南町2-2,南町第一児童遊園西側柵(北寄り),35.7254839,139.5468552,
東京都,西東京市,04-03,柳沢5-10,柳沢第一児童遊園北側柵(東寄り),35.7234537,139.5497994,
東京都,西東京市,04-04,南町2-12-37,柳沢小学校正門北側柵,35.722287,139.5481631,
東京都,西東京市,04-05,南町2-12-37,柳沢小学校北側階段西側柵,35.722287,139.5481631,
東京都,西東京市,04-06,向台町1-7-25,田無柳沢児童センター北側柵(西寄り),35.7212064,139.546633,
東京都,西東京市,04-07,向台町1-6,向台第二公園東側中央植込み,35.7201427,139.5455024,
東京都,西東京市,04-08,向台町1-6,貸倉庫(田無向台倉庫)南側道路セットバック部分柵,35.7201427,139.5455024,
東京都,西東京市,05-01,柳沢2-8,かりん公園南側植込み,35.723894,139.5558475,
東京都,西東京市,05-02,柳沢2-13,柳沢第四公園東側柵,35.7232508,139.5542558,
東京都,西東京市,05-03,柳沢2-6,むくのき公園東側道路脇(北寄り),35.723475,139.5564046,
東京都,西東京市,05-04,柳沢3-4,柳沢第三市民集会所東側道路脇(北寄り),35.7218088,139.5542995,
東京都,西東京市,05-05,柳沢3-4,UR新柳沢団地4号棟西側植込み(北寄り),35.7218088,139.5542995,
東京都,西東京市,05-06,柳沢4-2-11,保谷第二小学校南東門西側柵(東寄り),35.7204918,139.5496751,
東京都,西東京市,05-07,柳沢3-8-22,柳沢中学校東門南側塀(北寄り),35.7206115,139.5525717,
東京都,西東京市,05-08,柳沢3-4,ひょうたん島公園南側植込み(西寄り),35.7218088,139.5542995,
東京都,西東京市,06-01,東伏見2-3,西武新宿線東伏見駅南口西側柵,35.7287274,139.5628514,
東京都,西東京市,06-02,東伏見6-1-28,東伏見小学校南側道路脇(西寄り),35.7259876,139.5594488,
東京都,西東京市,06-03,東伏見6-1-28,東伏見小学校東門南側柵(北寄り),35.7259876,139.5594488,
東京都,西東京市,06-04,東伏見5-1-2,東伏見交差点南東側植込み南側,35.724382,139.5578969,
東京都,西東京市,06-05,東伏見2-13,ひがしふしみ保育園正門向側東伏見緑道公園南側植込み,35.7278696,139.5598866,
東京都,西東京市,06-06,東伏見1-7,東伏見緑道公園西側柵,35.7268085,139.558633,
東京都,西東京市,06-07,東伏見3-7,下野谷公園北側柵,35.7238279,139.5633615,
東京都,西東京市,07-01,保谷町3-23,保谷第二公園西側柵,35.7300186,139.5509931,
東京都,西東京市,07-02,保谷町3-13,保谷第三児童遊園(南)南側柵,35.7298924,139.5529825,
東京都,西東京市,07-03,保谷町3-13,都営保谷本町三丁目アパート3号棟東側植込み,35.7298924,139.5529825,
東京都,西東京市,07-04,柳沢1-15,柳沢公民館入口東側柵(西寄り),35.7280672,139.5537784,
東京都,西東京市,07-05,東伏見1-1,都立東伏見公園西側道路管理課資材置き場柵,35.7285209,139.5558608,
東京都,西東京市,07-06,柳沢1-14,柳沢自転車等保管所西側植込み(南寄り),35.7272479,139.5536988,
東京都,西東京市,07-07,柳沢6-4,柳沢せせらぎ公園西側道路脇植込み(南寄り),35.727033,139.5522526,
東京都,西東京市,07-08,柳沢1-12,しじゅうから第二公園東側柵,35.7279974,139.5555093,
東京都,西東京市,08-01,田無町2-1,西武新宿線田無駅北口ロータリー中央歩道植込み東側歩道脇(北寄り),35.7281808,139.540251,
東京都,西東京市,08-02,南町5-6,南町スポーツ・文化交流センター「きらっと」北側柵(西寄り),35.7263352,139.5380715,
東京都,西東京市,08-03,南町5-6,田無庁舎南側入口北側植込み,35.7263352,139.5380715,
東京都,西東京市,08-04,南町4-9,南町児童広場北側柵(東寄り),35.7249538,139.5404102,
東京都,西東京市,08-05,南町4-22,南町第四児童遊園西側入口南側柵(北寄り),35.7241279,139.5388985,
東京都,西東京市,08-06,南町3-23,都営田無南町三丁目アパ-ト1号棟西側道路脇柵,35.7256469,139.5424788,
東京都,西東京市,08-07,南町3-18,都営田無南町三丁目第三アパ-ト老人憩いの家駐車場東側柵(北寄り),35.7227558,139.5431154,
東京都,西東京市,08-08,南町6-3,三角地公園南側柵,35.72467,139.5340454,
東京都,西東京市,09-01,芝久保町1-2,芝久保一丁目緑地(西寄り),35.7261558,139.5304656,
東京都,西東京市,09-02,芝久保町1-16,芝久保児童館北側植込み,35.7245658,139.525446,
東京都,西東京市,09-03,芝久保町1-14,せみ公園南側道路脇,35.7236636,139.5262496,
東京都,西東京市,09-04,芝久保町1-15,芝久保児童館公園南側道路脇植込み,35.7238499,139.525295,
東京都,西東京市,09-05,芝久保町1-23,芝久保一丁目第二公園東側柵,35.7249522,139.5230679,
東京都,西東京市,09-06,南町6-9-37,田無第一中学校北側柵(東寄り),35.7240716,139.5311475,
東京都,西東京市,09-07,南町6-9-37,田無第一中学校西側柵(南寄り),35.7240716,139.5311475,
東京都,西東京市,09-08,芝久保町1-18,芝久保運動場北側植込み(東寄り),35.7231776,139.5243405,
東京都,西東京市,10-1,芝久保町3-7-1,芝久保小学校東側柵,35.7288709,139.5222327,
東京都,西東京市,10-2,芝久保町3-7-1,芝久保小学校北側柵,35.7288709,139.5222327,
東京都,西東京市,10-3,芝久保町3-19,芝久保三丁目ふれあい公園入口東側柵,35.7296243,139.5194092,
東京都,西東京市,10-4,芝久保町3-3,都営田無芝久保三丁目アパートポンプ場北側植込み,35.7290721,139.5268859,
東京都,西東京市,10-5,芝久保町2-13,芝久保二丁目第一公園西側柵,35.7266752,139.5276814,
東京都,西東京市,10-6,芝久保町2-17,masked,35.726218,139.525136,
東京都,西東京市,10-7,芝久保町2-15,masked,35.727767,139.525425,
東京都,西東京市,10-8,芝久保町2-19,masked,35.7256426,139.5228293,
東京都,西東京市,11-1,芝久保町5-5,芝久保五丁目第一公園東側植込み,35.7340503,139.5269456,
東京都,西東京市,11-2,芝久保町5-7-1,けやき小学校西門南側柵,35.7343104,139.5265605,
東京都,西東京市,11-3,芝久保町5-10,東京都水道局給水所東側柵,35.733458,139.523227,
東京都,西東京市,11-4,芝久保町5-4-48,芝久保公民館正面入口西側塀,35.7326829,139.5281019,
東京都,西東京市,11-5,田無町7-8,都営田無本町七丁目アパート14号棟西側柵(南寄り),35.7328664,139.5307838,
東京都,西東京市,11-6,田無町7-5,都営田無本町七丁目アパート19号棟南側公園西側道路脇(南寄り),35.7318504,139.531102,
東京都,西東京市,11-7,田無町7-11,都営田無本町七丁目アパート18号棟東側植込み北側道路脇(東寄り),35.7323153,139.5318975,
東京都,西東京市,11-8,芝久保町4-20,芝久保第一公園東側道路脇(備蓄庫北),35.7311337,139.5192501,
東京都,西東京市,12-1,西原町4-10,都営西原町四丁目アパート西原第一児童遊園西側柵,35.7394872,139.5307042,
東京都,西東京市,12-2,西原町5-3,西原五丁目第1公園入口南側柵(南寄り),35.7396789,139.5309156,
東京都,西東京市,12-3,西原町3-7-B1,美容室エポック向側公社西原団地B-1号棟南側柵(西寄り),35.7361154,139.5328158,
東京都,西東京市,12-4,西原町4-4,西原四丁目第1公園南側柵,35.7375491,139.5276814,
東京都,西東京市,12-5,西原町4-5,西原自然公園東側入口南側石垣,35.7381639,139.5299087,
東京都,西東京市,12-6,西原町1-7,masked,35.7334476,139.5377051,
東京都,西東京市,12-7,西原町3-4-1,田無第三中学校東南門北側柵,35.7343476,139.5308645,
東京都,西東京市,12-8,西原町3-4-1,田無第三中学校西門南側柵(北寄り),35.7343476,139.5308645,
東京都,西東京市,13-1,田無町4-5-21,田無小学校北側正門西側柵,35.7288317,139.5377816,
東京都,西東京市,13-2,田無町4-5-21,田無小学校西門南側柵,35.7288317,139.5377816,
東京都,西東京市,13-3,田無町4-5-21,田無小学校東側柵(南寄り),35.7288317,139.5377816,
東京都,西東京市,13-4,田無町4-20,田無町四丁目第1公園南側植込み(東寄り),35.7300173,139.5368299,
東京都,西東京市,13-5,田無町7-20,田無七丁目第2公園北側柵,35.7314808,139.5353183,
東京都,西東京市,13-6,田無町4-10,田無四丁目第3公園南側柵(西寄り),35.7272957,139.5345228,
東京都,西東京市,13-7,田無町4-17-14,障害者総合支援センター「フレンドリー」西側植込み(南寄り),35.7293719,139.5356763,
東京都,西東京市,13-8,田無町4-14,田無四丁目第1緑地南側植込み(西寄り),35.727553,139.5351592,
東京都,西東京市,14-1,田無町3-7-2,コール田無南側植込み,35.7291483,139.5437007,
東京都,西東京市,14-2,田無町1-1,北原交差点緑地(東寄り),35.7316438,139.5425783,
東京都,西東京市,14-3,南町1-15,南町一丁目第1公園西側植込み(集会所北側),35.7269335,139.5456616,
東京都,西東京市,14-4,南町3-14,田無駅ガード下西駐輪場北側植込み,35.7236459,139.5447863,
東京都,西東京市,14-5,田無町2-14,プリンスハイツ田無東側植込み東側歩道脇,35.728194,139.5431154,
東京都,西東京市,14-6,南町1-15,南町第二児童遊園北側道路脇柵,35.7269335,139.5456616,
東京都,西東京市,14-7,南町1-1,都営田無南町一丁目アパート1号棟西側柵(北寄り),35.7275637,139.5443885,
東京都,西東京市,14-8,南町3-6,都営田無南町三丁目第2アパート1号棟南側広場南側道路脇柵(東寄り),35.7270202,139.5437519,
東京都,西東京市,15-1,泉町1-6,泉町上宿公園南側道路脇,35.7367354,139.547253,
東京都,西東京市,15-2,保谷町5-2,第2えのき児童遊園西側柵(北寄り),35.7356825,139.5499586,
東京都,西東京市,15-3,保谷町5-4,保谷なかよし公園西側柵(南寄り),35.7342508,139.5499273,
東京都,西東京市,15-4,北原町2-16,北原二丁目第1公園東側植込み,35.7351337,139.5447067,
東京都,西東京市,15-5,北原町1-16-2,北原児童館西側柵(南寄り),35.7336715,139.5446796,
東京都,西東京市,15-6,北原町2-3,都営田無北原町アパート7号棟西側柵(南寄り・北原二丁目バス停近く),35.7361104,139.544468,
東京都,西東京市,15-7,北原町1-2,北原一丁目第1緑地東側植込み(北寄り),35.7325264,139.5430358,
東京都,西東京市,15-8,保谷町5-18,西浦公園西側柵,35.7320275,139.5469347,
東京都,西東京市,16-1,保谷町1-6,保谷障害者福祉センター東側柵(南寄り),35.7351361,139.5556883,
東京都,西東京市,16-2,中町6-10,中町六丁目バス停西側植込み,35.7367457,139.5564842,
東京都,西東京市,16-3,保谷町1-14,本町小学校西側正門北側柵,35.7327965,139.5552108,
東京都,西東京市,16-4,保谷町1-17,保谷中学校北側柵(備蓄庫裏),35.7331534,139.5568025,
東京都,西東京市,16-5,保谷町1-17,保谷中学校東側柵(南寄り),35.7331534,139.5568025,
東京都,西東京市,16-6,保谷町2-3,保谷第一公園南側柵(東寄り),35.7315687,139.5562454,
東京都,西東京市,16-7,保谷町2-6,保谷第一公園南側柵(西寄り),35.7309754,139.5551313,
東京都,西東京市,16-8,保谷町6-4,都営保谷本町六丁目アパート3号棟受水槽南側道路脇,35.7360763,139.5534998,
東京都,西東京市,17-1,富士町1-7,URプロムナード東伏見79号棟西側道路脇(南寄り),35.73358,139.5596618,
東京都,西東京市,17-2,富士町1-7,はこべら保育園東側公園北側道路脇,35.73358,139.5596618,
東京都,西東京市,17-3,富士町1-16,都営保谷富士町一丁目アパート1号棟東側植込み(北寄り),35.7331788,139.562533,
東京都,西東京市,17-4,富士町2-1,富士町二丁目児童遊園南側道路脇柵,35.7347911,139.5634682,
東京都,西東京市,17-5,富士町4-24,都営保谷富士町四丁目アパート児童遊園北側植込み(西寄り),35.7307769,139.5642045,
東京都,西東京市,17-6,富士町1-3,関道児童遊園東側道路脇柵,35.7347051,139.5588718,
東京都,西東京市,17-7,富士町4-17,西武新宿線東伏見駅北口東側線路脇植込み,35.7292128,139.5647617,
東京都,西東京市,17-8,富士町1-7-82,URプロムナード東伏見82号棟東側公園北側植込み(西寄り),35.7330437,139.5587943,
東京都,西東京市,18-1,中町4-8,天神山交差点西武バス折返所西側柵(南寄り),35.7371699,139.5660352,
東京都,西東京市,18-2,中町3-13,碧山森緑地保全地域東側柵,35.7397912,139.5618962,
東京都,西東京市,18-3,中町5-11-4,碧山小学校北門西側柵,35.7383533,139.5629603,
東京都,西東京市,18-4,中町5-11-4,碧山小学校西側柵,35.7383533,139.5629603,
東京都,西東京市,18-5,中町4-4-16,なかまち保育園南側柵,35.737204,139.564304,
東京都,西東京市,18-6,中町4-4-1,中町児童館北側柵(西寄り),35.7374669,139.5644234,
東京都,西東京市,18-7,東町5-5,中西台公園北側柵(西寄り),35.7385141,139.5679456,
東京都,西東京市,18-8,富士町3-8,都営保谷富士町三丁目アパート受水槽南側植込み(西寄り),35.7333325,139.5685824,
東京都,西東京市,19-1,東町2-10,都営保谷東町二丁目アパート受水槽南側柵,35.7472221,139.5613391,
東京都,西東京市,19-2,東町2-4-13,市立武道場西側植込み(南寄り),35.7460648,139.5605332,
東京都,西東京市,19-3,東町3-14,西武池袋線保谷駅南口ロータリー保谷駅前交番東側歩道北側柵(東寄り),35.7482191,139.5684332,
東京都,西東京市,19-4,東町4-13-21,保谷駅南口自転車駐車場西側柵,35.7455833,139.5662452,
東京都,西東京市,19-5,東町1-1,明保中学校南門西側柵,35.7430393,139.5628514,
東京都,西東京市,19-6,東町1-4,都営保谷東町一丁目アパート1号棟北側植込み(東寄り),35.744242,139.5615779,
東京都,西東京市,19-7,東町4-3,都営保谷東町四丁目アパート16号棟西側植込み(北寄り),35.7413764,139.5679456,
東京都,西東京市,19-8,東町6-3,ヴェレーナ西東京かえで通りガードレール植込み(北寄り),35.7419362,139.56508,
東京都,西東京市,20-1,泉町6-7,泉町第三公園西側柵,35.74566,139.5587126,
東京都,西東京市,20-2,泉町5-9,泉町きつつき公園東側柵(北寄り),35.7430477,139.5575115,
東京都,西東京市,20-3,中町6-6,なえぎ山公園北側植込み,35.7369451,139.5583943,
東京都,西東京市,20-4,中町1-5,保谷庁舎北側壁(東寄り),35.7415744,139.5588718,
東京都,西東京市,20-5,中町1-5,保谷庁舎第一駐車場西側植込み,35.7415744,139.5588718,
東京都,西東京市,20-6,中町1-6,保谷庁舎東側植込み,35.7415953,139.5599861,
東京都,西東京市,20-7,泉町3-12-35,エコプラザ西東京東側植込み(北寄り),35.7410832,139.5568131,
東京都,西東京市,20-8,中町1-1-5,中町分庁舎東側柵,35.7387366,139.5551744,
東京都,西東京市,21-1,住吉町1-15,住吉第四公園北側柵(東寄り),35.7432052,139.5475365,
東京都,西東京市,21-2,住吉町1-14-28,旧ひばりが丘中学校東側校門東側柵,35.7426801,139.547999,
東京都,西東京市,21-3,住吉町1-20,住吉町上宿公園南側柵,35.743452,139.5491628,
東京都,西東京市,21-4,住吉町6-1,住吉会館「ルピナス」南側植込み,35.7435594,139.551391,
東京都,西東京市,21-5,泉町1-9,泉町第一児童遊園北側生垣(西寄り),35.7384237,139.5478896,
東京都,西東京市,21-6,泉町2-20,泉町第二児童遊園北側柵,35.7389515,139.5520276,
東京都,西東京市,21-7,泉町2-5,都営保谷泉町二丁目アパート公園受水槽西側植込み,35.7384907,139.5503564,
東京都,西東京市,21-8,保谷町1-3-35,保谷小学校西門北側柵,35.7373762,139.5547549,
東京都,西東京市,22-1,谷戸町3-13,谷戸三丁目第1緑地西側道路脇,35.7455858,139.546139,
東京都,西東京市,22-2,谷戸町1-17-27,谷戸公民館西側柵,35.7412465,139.5442094,
東京都,西東京市,22-3,谷戸町2-1,住友重機械工業前バス停南側植込み(北寄り),35.7434269,139.5400919,
東京都,西東京市,22-4,緑町3-2,いこいの森公園西口北側植込み,35.7407228,139.5397737,
東京都,西東京市,22-5,緑町3-3,いこいの森公園東側遊歩道北側植込み(西寄り),35.7409831,139.5427175,
東京都,西東京市,22-6,谷戸町1-17-27,谷戸第二小学校東側駐車場入口北側柵,35.7412465,139.5442094,
東京都,西東京市,22-7,北原町2-9-1,田無第二中学校北側正門東側柵,35.7384499,139.5450274,
東京都,西東京市,22-8,北原町3-6,北原第二児童遊園北側道路脇柵,35.7374309,139.5429562,
東京都,西東京市,23-1,ひばりが丘3-1,ひばりが丘児童センター西側道路脇柵(南寄り),35.7445066,139.5348902,
東京都,西東京市,23-2,ひばりが丘3-3,URひばりが丘パークヒルズ3-4号棟前広場西側植込み(南寄り),35.7445359,139.5359416,
東京都,西東京市,23-3,ひばりが丘3-3,ひばりが丘団地バス停西側植込み,35.7445359,139.5359416,
東京都,西東京市,23-4,ひばりが丘4-3,都営ひばりが丘四丁目アパート集会所西側植込み,35.7410466,139.5310224,
東京都,西東京市,23-5,ひばりが丘3-2,ひばりが丘中学校新校舎南西側柵(長岡屋精肉店向側),35.7445138,139.5354436,
東京都,西東京市,23-6,緑町3-8,都営田無緑町三丁目アパ-ト2号棟北側植込み,35.7421612,139.5380233,
東京都,西東京市,23-7,緑町3-8-3,みどり学童クラブ北側道路脇植込み,35.7422458,139.5383657,
東京都,西東京市,23-8,緑町2-11,緑町二丁目第4公園西側道路脇,35.7407168,139.5351592,
東京都,西東京市,24-1,ひばりが丘2-2,はなみずき公園南側植込み(西寄り),35.7480264,139.5412058,
東京都,西東京市,24-2,谷戸町2-12,都営田無谷戸二丁目アパ-ト10号棟東側植込み,35.7471913,139.5427293,
東京都,西東京市,24-3,ひばりが丘2-8-27,ひばりが丘福祉会館西側柵,35.7485427,139.5377954,
東京都,西東京市,24-4,ひばりが丘2-3-4,都営ひばりが丘二丁目アパート4号棟ひばりが丘公民館北側柵,35.7473585,139.54058,
東京都,西東京市,24-5,ひばりが丘2-3-5,都営ひばりが丘二丁目アパート5号棟ひばりが丘保育園南側柵(西寄り),35.7471199,139.5402908,
東京都,西東京市,24-6,ひばりが丘3-6-9,URひばりが丘パークヒルズ6-9号棟東側植込み(南寄り),35.7465707,139.5364122,
東京都,西東京市,24-7,ひばりが丘2-6-25,中原小学校南側柵(そよかぜ保育園向側),35.7469267,139.5376732,
東京都,西東京市,24-8,谷戸町2-8,谷戸二丁目第1公園南側植込み(西寄り),35.7458521,139.5420639,
東京都,西東京市,25-1,ひばりが丘1-2-1,ひばりが丘図書館正面入口向い側植込み(南寄り),35.7517913,139.5435138,
東京都,西東京市,25-2,住吉町3-9,西武池袋線ひばりヶ丘駅南口東側塀,35.7511301,139.5453433,
東京都,西東京市,25-3,住吉町4-6-12,アスクひばりヶ丘保育園西側柵(北寄り),35.7472711,139.5500587,
東京都,西東京市,25-4,谷戸町3-19,谷戸町三丁目第3緑地道路脇,35.7484799,139.5446272,
東京都,西東京市,25-5,住吉町3-12,村山ビル東側線路脇柵,35.7500279,139.5475713,
東京都,西東京市,25-6,住吉町4-4,住吉町第三公園南側柵(西寄り),35.7476446,139.5512318,
東京都,西東京市,25-7,住吉町5-2-1,住吉小学校北側道路脇柵(西寄り),35.7460259,139.552515,
東京都,西東京市,25-8,住吉町5-2-1,住吉小学校南側道路脇柵,35.7460259,139.552515,
東京都,西東京市,26-1,ひばりが丘北4-1,ひばりビル向側線路脇柵,35.7527757,139.5437519,
東京都,西東京市,26-2,ひばりが丘北3-2,ひばりが丘北三丁目第1公園(南側),35.7516108,139.5464761,
東京都,西東京市,26-3,栄町2-10-9,栄小学校南門西側柵,35.7521511,139.55295,
東京都,西東京市,26-4,栄町2-4,栄町二丁目樹林地南側柵,35.7502616,139.5528831,
東京都,西東京市,26-5,ひばりが丘北2-2,ひばりが丘北わんぱく公園西側柵,35.7549771,139.5520276,
東京都,西東京市,26-6,ひばりが丘北1-6-8,ひばりが丘北児童センター南側柵,35.7525284,139.5492772,
東京都,西東京市,26-7,ひばりが丘北1-8,都営ひばりが丘北一丁目アパート22号棟北側公園北側道路脇植込み,35.7524593,139.5507543,
東京都,西東京市,26-8,ひばりが丘北3-3,ひばりヶ丘駅北口ロータリー植込み,35.752196,139.5455024,
東京都,西東京市,27-1,下保谷1-4-4,保谷第一小学校西門南側柵,35.7499236,139.5579403,
東京都,西東京市,27-2,下保谷1-4-4,保谷第一小学校北門西側柵,35.7499236,139.5579403,
東京都,西東京市,27-3,下保谷2-5-8,都営下保谷二丁目アパート8号棟西側駐輪場西側植込み,35.7528665,139.560232,
東京都,西東京市,27-4,栄町1-12,西東京市健康広場南側道路脇,35.7501751,139.554793,
東京都,西東京市,27-5,下保谷5-5,下保谷第三児童遊園西側柵,35.7511395,139.5609411,
東京都,西東京市,27-6,下保谷1-6,下保谷第四児童遊園北側柵,35.7506249,139.5596677,
東京都,西東京市,27-7,下保谷2-9,下保谷第一ポケットパーク南側植込み,35.7513049,139.5588718,
東京都,西東京市,28-1,下保谷3-3,白子南公園南側柵,35.7538569,139.5641249,
東京都,西東京市,28-2,下保谷4-3-18,下保谷児童センター南側道路脇植込み(東寄り),35.7505533,139.5650219,
東京都,西東京市,28-3,下保谷4-8,あらやしき公園北側柵(西寄り),35.7503071,139.566672,
東京都,西東京市,28-4,下保谷4-8,あらやしき公園東側植込み,35.7503071,139.566672,
東京都,西東京市,28-5,下保谷4-14,西武池袋線保谷駅北口西側柵,35.7487872,139.5677728,
東京都,西東京市,28-6,下保谷2-6-15,下保谷ポンプ場北側柵(西寄り),35.7532327,139.5623056,
東京都,西東京市,28-7,下保谷3-8-15,しもほうや保育園東側柵,35.7547824,139.5665924,
東京都,西東京市,28-8,下保谷3-12,下保谷森林公園西側柵(南寄り),35.7537125,139.5673088,
東京都,西東京市,29-1,北町3-7,伏見通り西側植込み,35.7582938,139.5609411,
東京都,西東京市,29-2,北町2-13-17,青嵐中学校東門南側柵,35.7564279,139.5561537,
東京都,西東京市,29-3,北町2-13-17,青嵐中学校南側柵(テニスコート前),35.7564279,139.5561537,
東京都,西東京市,29-4,北町5-4,北宮ノ脇公園東側道路脇柵(備蓄庫裏),35.7569916,139.5612595,
東京都,西東京市,29-5,北町2-17,北町坊が谷戸公園北側柵,35.7545393,139.5569617,
東京都,西東京市,29-6,北町6-2,伏見通り上通り入口交差点西側植込み,35.75476,139.5599861,
東京都,西東京市,29-7,北町1-2,北町ふれあい広場西側柵,35.7535022,139.5561659,
