prefecture,city,number,address,name,lat,long,note
東京都,豊島区,1-1,東池袋3-14-1,東池袋公園南側鉄柵東池袋3-4前,35.730911,139.717682,
東京都,豊島区,1-2,東池袋2-58-7,東池袋二丁目第三公園鉄柵公園北側,35.733864,139.718536,
東京都,豊島区,1-3,東池袋1-50-23,池袋駅前公園植込みD-BOX前,35.732986,139.713272,
東京都,豊島区,1-4,東池袋2-38-10,区民ひろば朋有植込み東池袋2-39-14前,35.732029,139.721313,
東京都,豊島区,1-5,東池袋3-14-1,東池袋公園鉄柵北側鉄柵,35.730911,139.717682,
東京都,豊島区,1-6,東池袋2-58-7,東池袋二丁目第三公園鉄柵シルバー人材センター前,35.733864,139.718536,
東京都,豊島区,1-7,東池袋3-14-1,東池袋公園鉄柵ハローワーク池袋前,35.730911,139.717682,
東京都,豊島区,2-1,上池袋2-5-1,区立健康プラザとしまJR線路沿い歩道JR線路沿い歩道,35.734627,139.715485,
東京都,豊島区,2-2,上池袋2-25-9,上池袋公園植込み入口左側・上池袋二丁目アパート前,35.736141,139.715973,
東京都,豊島区,2-3,上池袋2-35-22,東部子ども家庭支援センター上池袋2-42-5前,35.737057,139.718262,
東京都,豊島区,2-4,上池袋2-45-15,上池袋さくら公園南側フェンス上池袋2-31前,35.738304,139.717316,
東京都,豊島区,2-5,上池袋2-38-4,子安稲荷神社塀上池袋2-37-8前,35.736,139.718414,
東京都,豊島区,2-6,上池袋2-45-15,上池袋さくら公園金網上池袋2-32-10前,35.738304,139.717316,
東京都,豊島区,2-7,上池袋2-45,JR池袋運輸区金網上池袋3-12-4前,35.738461,139.717041,
東京都,豊島区,3-1,上池袋3-7,掘之内公園植込み上池袋3-27—16前,35.738766,139.718887,
東京都,豊島区,3-2,上池袋3-7,堀之内公園南側植込み公園南側,35.738766,139.718887,
東京都,豊島区,3-3,上池袋3-13,上池袋三丁目第三児童遊園上池袋3-12-13前,35.739964,139.71698,
東京都,豊島区,3-4,上池袋3-17-1,道路工事事務所南側植込み南側植込み,35.740772,139.718094,
東京都,豊島区,3-5,上池袋4-18-11,東京都第四建設事務所豊島工区北側フェンス上池袋4-17側,35.740597,139.721619,
東京都,豊島区,3-6,上池袋4-28ー1,池袋第一小学校校庭側フェンスグラウンド側フェンス,35.741055,139.718796,
東京都,豊島区,3-7,上池袋3-13,上池袋三丁目第三児童遊園東側公園東側,35.739964,139.71698,
東京都,豊島区,3-8,上池袋4-19,上池袋くすのき公園植込み公園内東側入口,35.740681,139.720947,
東京都,豊島区,4-1,上池袋1-30-20,上池袋東公園柵公園北側入口,35.735855,139.722549,
東京都,豊島区,4-2,北大塚3-22-1,空蝉橋通り鉄柵ホテルビアンカドゥエ前,35.733398,139.726044,
東京都,豊島区,4-3,上池袋1-14-9,上池袋一丁目児童遊園鉄柵上池袋1-14-7前,35.735897,139.720474,
東京都,豊島区,4-4,上池袋1-30-20,上池袋東公園公園内草地,35.735855,139.722549,
東京都,豊島区,4-5,上池袋1-18-24,豊成小学校北側鉄柵上池袋1-31-5前,35.734558,139.722198,
東京都,豊島区,4-6,上池袋1-18-24,豊成小学校南側塀正門向かって左側,35.734558,139.722198,
東京都,豊島区,4-7,上池袋1-36-1,宮仲公園鉄柵南側,35.735874,139.72464,
東京都,豊島区,4-8,上池袋1-36-1,宮仲公園鉄柵北側,35.735874,139.72464,
東京都,豊島区,5-1,西巣鴨2-27,西巣鴨二丁目児童遊園鉄柵南側角,35.740234,139.727509,
東京都,豊島区,5-2,西巣鴨2-16-1,区営西巣鴨2丁目第二アパート西巣鴨2-15前,35.739216,139.726471,
東京都,豊島区,5-3,西巣鴨1-22,巣鴨新田簡易駐車場金網,35.736458,139.72702,
東京都,豊島区,5-4,西巣鴨1-27-1,西巣鴨小学校鉄柵西巣鴨1-24-11前,35.737968,139.725739,
東京都,豊島区,5-5,西巣鴨2-14-11,区民ひろば西巣鴨第二金網西巣鴨2-15前,35.73877,139.727966,
東京都,豊島区,5-6,西巣鴨1-27-1,西巣鴨小学校鉄柵西巣鴨新田通り側,35.737968,139.725739,
東京都,豊島区,5-7,西巣鴨2-27-7,西巣鴨二丁目公園鉄柵西巣鴨2-36-18前,35.740192,139.727692,
東京都,豊島区,5-8,西巣鴨2-39-5,千川上水公園植込み明治通り沿い,35.741837,139.726105,
東京都,豊島区,6-1,西巣鴨3-17-1,巣鴨北中学校外周塀,35.740887,139.72821,
東京都,豊島区,6-2,西巣鴨3-17-1,巣鴨北中学校外周フェンス前植込み,35.740887,139.72821,
東京都,豊島区,6-3,西巣鴨3-20-1,大正大学鉄柵明治通り沿い入口向かって右側,35.741486,139.728256,
東京都,豊島区,6-4,西巣鴨4-9-1,旧朝日中学校校舎塀スポ-ツ開放通用門向かって左,35.743286,139.729126,
東京都,豊島区,6-5,西巣鴨4-9-1,旧朝日中学校校舎門正門向かって左側,35.743286,139.729126,
東京都,豊島区,6-6,西巣鴨4-22-19,西巣鴨体育場鉄柵テニスコート北側,35.744404,139.731354,
東京都,豊島区,6-7,西巣鴨4-22-19,西巣鴨体育場テニスコート金網テニスコート西側金網,35.744404,139.731354,
東京都,豊島区,7-1,巣鴨5-22-1,朝日公園鉄柵巣鴨5-23-1前公園トイレ横,35.741009,139.732559,
東京都,豊島区,7-2,巣鴨5-1-5,中央卸売市場豊島市場金網巣鴨2-16-6前,35.737183,139.734894,
東京都,豊島区,7-3,巣鴨5-1,中央卸売市場豊島市場植込み本妙寺参道沿い,35.737614,139.735352,
東京都,豊島区,7-4,巣鴨5-22-1,朝日公園鉄柵巣鴨5-17前,35.741009,139.732559,
東京都,豊島区,7-5,巣鴨5-33-1,朝日小学校正門側鉄柵正門左側巣鴨5-16前,35.740524,139.732941,
東京都,豊島区,7-6,巣鴨5-33-1,朝日小学校裏側鉄柵区民ひろば朝日東側,35.740524,139.732941,
東京都,豊島区,7-7,巣鴨5-1,中央卸売市場豊島市場塀駒込五丁目寄りフェンス,35.737614,139.735352,
東京都,豊島区,8-1,駒込3-13-1,駒込小学校正門側鉄柵入口向かって左側,35.737717,139.743149,
東京都,豊島区,8-2,駒込3-12,門と蔵のある広場植込み駒込小学校前,35.737671,139.74234,
東京都,豊島区,8-3,駒込7-3,(896番1のうち)染井霊園塀,35.739399,139.737732,
東京都,豊島区,8-4,駒込3-24-3,女子栄養短期大学正門塀駒込3-16前,35.738861,139.74556,
東京都,豊島区,8-5,駒込6-3,染井よしの桜の里公園植込み駒込6-10-2,35.738544,139.741501,
東京都,豊島区,8-6,駒込6-3ー1,染井よしの桜の里公園植込み駒込6-3-7,35.738174,139.741455,
東京都,豊島区,8-7,駒込7-2-23,天理教東本墓地駒込7-12-2前,35.740093,139.739182,
東京都,豊島区,8-8,駒込7-7-4,駒込七丁目第二児童遊園東南側鉄柵入口向かって右,35.74081,139.738281,
東京都,豊島区,9-1,駒込2-2-4,区民ひろば駒込入口鉄柵JR線路側,35.737057,139.746658,
東京都,豊島区,9-2,駒込1-22-1,駒込東公園鉄柵駒込1-14-12前,35.735409,139.749771,
東京都,豊島区,9-3,駒込1-22-1,駒込東公園鉄柵駒込1-21-10前,35.735409,139.749771,
東京都,豊島区,9-4,駒込1-13-6,コーシャハイム駒込北植込み駒込1-12-9前,35.735115,139.748566,
東京都,豊島区,9-5,駒込2-2,駒込駅北口ガードレールJR駒込駅北口前,35.736862,139.74675,
東京都,豊島区,9-6,駒込2-3-23,駒込公園鉄柵公園南側中央付近,35.737206,139.746948,
東京都,豊島区,9-7,駒込2-2-2,駒込地域文化創造館入口向かって右側,35.736813,139.746643,
東京都,豊島区,10-1,駒込5-4,駒込西公園駒込5-3-2前,35.738083,139.739075,
東京都,豊島区,10-2,駒込4-5,駒込中学校鉄柵駒込4-4-19前,35.735744,139.742126,
東京都,豊島区,10-3,駒込5-5(902番1のうち),染井霊園塀巣鴨2-14-7前,35.738087,139.737244,
東京都,豊島区,10-4,駒込4-7,駒込四丁目公園鉄柵JR線路前,35.735207,139.741821,
東京都,豊島区,10-5,駒込4-5-1,駒込中学校鉄柵駒込4-4-5前,35.735249,139.742142,
東京都,豊島区,10-6,駒込5-1-19,仰高小学校鉄柵校庭側入口向かって右側,35.736187,139.738739,
東京都,豊島区,10-7,駒込5-4-21,東京スイミングセンター金網駒込6-6-5前,35.738483,139.739227,
東京都,豊島区,10-8,駒込5-1-3,駒込第二若草保育園鉄柵建物前中央付近,35.735794,139.737976,
東京都,豊島区,11-1,巣鴨3-1,宮下橋横JR線路沿いガードレール巣鴨3-1-9前,35.732342,139.736282,
東京都,豊島区,11-2,巣鴨3-14-1,清和小学校通用門側鉄柵巣鴨3-13-12前,35.735237,139.732895,
東京都,豊島区,11-3,巣鴨3-14-1,清和小学校北側鉄柵巣鴨4-21-14前,35.735237,139.732895,
東京都,豊島区,11-4,巣鴨3-14-1,清和小学校北側フェンス大塚ろう学校前,35.735237,139.732895,
東京都,豊島区,11-5,巣鴨4-26-18,NTT巣鴨ビル白山通り側鉄柵,35.737888,139.733887,
東京都,豊島区,11-6,巣鴨4-20-8,都立大塚ろう学校金網巣鴨4-3-11前,35.736271,139.731369,
東京都,豊島区,11-7,巣鴨4-20-8,都立大塚ろう学校西側塀巣鴨4-10-12前,35.736271,139.731369,
東京都,豊島区,11-8,巣鴨3-27,巣鴨駅西側JR線路沿いガードレール線路沿いガードレール,35.733353,139.738327,
東京都,豊島区,12-1,北大塚2-8-6前,区道沿いコンクリート壁大塚駅北口第三自転車駐車場付近,35.733528,139.726532,
東京都,豊島区,12-2,北大塚1-12,巣鴨公園鉄柵北大塚1-13前,35.732227,139.732346,
東京都,豊島区,12-3,北大塚1-12,巣鴨公園鉄柵北大塚1-22前,35.732227,139.732346,
東京都,豊島区,12-4,北大塚2-23-16,東電パワーグリッド株式会社西巣鴨変電所鉄柵,35.734386,139.727905,
東京都,豊島区,12-5,北大塚2-6,歩道沿い鉄柵北大塚2-6歩道沿い鉄柵,35.732529,139.727783,
東京都,豊島区,12-6,北大塚2-4,空蝉橋北ガードパイプ北大塚2-3前,35.732891,139.726547,
東京都,豊島区,12-7,北大塚2-31,都電荒川線横鉄柵センシア山手大塚前,35.734062,139.72937,
東京都,豊島区,12-8,北大塚1-15-10,都営北大塚一丁目アパート前植込み東部区民事務所前,35.731419,139.731461,
東京都,豊島区,13-1,巣鴨1-37-1,江戸橋公園鉄柵線路側,35.731678,139.736526,
東京都,豊島区,13-2,巣鴨1-37-1,江戸橋公園鉄柵巣鴨1-40-7前,35.731678,139.736526,
東京都,豊島区,13-3,南大塚1-24-10,巣鴨小学校裏門北側南大塚1-26-10前,35.728336,139.734299,
東京都,豊島区,13-4,南大塚1-24-10,巣鴨小学校正門側鉄柵南大塚1-15-13前,35.728336,139.734299,
東京都,豊島区,13-5,南大塚1-12-11,南大塚一丁目児童遊園フェンス公園東側,35.727581,139.734329,
東京都,豊島区,13-6,巣鴨1-39,JR山手線江戸川橋横ガードレール橋の南側,35.731506,139.736038,
東京都,豊島区,13-7,巣鴨1-37-1,江戸橋公園鉄柵公園西側,35.731678,139.736526,
東京都,豊島区,13-8,南大塚1-24-10,巣鴨小学校南側鉄柵南大塚1-11-16前,35.728336,139.734299,
東京都,豊島区,14-1,南大塚2-5-1,南大塚からたち公園植込み南大塚2-6前,35.725986,139.7341,
東京都,豊島区,14-2,南大塚2-8-1,東京都立大塚病院植込み南大塚2-9前,35.724743,139.73204,
東京都,豊島区,14-3,南大塚2-27-1,南大塚公園西側フェンス西側フェンス,35.7276,139.731461,
東京都,豊島区,14-4,南大塚2-27-1,南大塚公園公園南側,35.7276,139.731461,
東京都,豊島区,14-5,南大塚2-36-1,南大塚ホール駐車場植込みホール下,35.728771,139.730331,
東京都,豊島区,14-6,南大塚2-36-3,南大塚二丁目児童遊園鉄柵入口向かって西側,35.728748,139.730026,
東京都,豊島区,14-7,南大塚2-8-1,東京都立大塚病院植込み病院東側、看護職員宿舎裏,35.724743,139.73204,
東京都,豊島区,15-1,南大塚3-18-1,西巣鴨中学校スポーツ通用門側鉄柵南大塚3-12前,35.728054,139.727386,
東京都,豊島区,15-2,南大塚3-18-1,西巣鴨中学校裏門側鉄柵南大塚3-17-12前,35.728054,139.727386,
東京都,豊島区,15-3,南大塚3-18-1,西巣鴨中学校北西側鉄柵南大塚3-22-13前,35.728054,139.727386,
東京都,豊島区,15-4,南大塚3-27-1,大塚台公園東側鉄柵南大塚3-37-5と28-1の間の前,35.72987,139.725769,
東京都,豊島区,15-5,南大塚3-27-1,大塚台公園鉄柵東池袋2-3-7前,35.72987,139.725769,
東京都,豊島区,15-6,南大塚3-33,大塚駅前ガードパイプ前南大塚3-31-1前,35.731735,139.727615,
東京都,豊島区,15-7,南大塚3-27-1,大塚台公園フェンス南西側,35.72987,139.725769,
東京都,豊島区,15-8,東池袋2-26-1,東池袋青空公園内公園内,35.730911,139.723206,
東京都,豊島区,16-1,東池袋3-1-6,東池袋中央公園植込み東池袋3-16前,35.728058,139.719589,
東京都,豊島区,16-2,東池袋4-18-11,東池袋四丁目公園植込み公園北側、東側,35.726936,139.720337,
東京都,豊島区,16-3,東池袋4-32,区道沿い歩道鉄柵東池袋4-32と42の間,35.726406,139.721802,
東京都,豊島区,16-4,東池袋4-40-1,朋有小学校フェンス東池袋4-42イケサンパーク前,35.728016,139.723251,
東京都,豊島区,16-5,東池袋4-41-30,総合体育場野球場フェンス東池袋3-18豊島郵便局前,35.729256,139.723236,
東京都,豊島区,16-6,東池袋4-41-30,総合体育場テニスコート金網東池袋3-23前,35.729256,139.723236,
東京都,豊島区,16-7,東池袋4-40-1,朋有小学校フェンス正門向かって左側,35.728016,139.723251,
東京都,豊島区,16-8,東池袋3-17-1,豊島自動車練習所フェンス練習コースフェンス,35.729713,139.720261,
東京都,豊島区,17-1,南池袋2-21ー1,南池袋公園フェンス南池袋2-22-1正門向かって左側,35.727013,139.714264,
東京都,豊島区,17-2,南池袋2-21-1,南池袋公園鉄柵南池袋2-22-1前,35.727013,139.714264,
東京都,豊島区,17-3,南池袋2-45-1,豊島区役所プロント・ファミリーマート前植え込み,35.725555,139.717392,
東京都,豊島区,17-4,南池袋4-1-3,雑司が谷中央児童遊園雑司が谷2-24-8前,35.720829,139.717331,
東京都,豊島区,17-5,南池袋4-25(265番1のうち),雑司が谷霊園鉄柵南池袋4-10-15前,35.723427,139.719635,
東京都,豊島区,17-6,南池袋4-25(99番1のうち),雑司が谷霊園鉄柵首都高速5号線下,35.723427,139.719635,
東京都,豊島区,17-7,南池袋4-25(262番のうち),雑司が谷霊園金網南池袋4-19-1藤乃家前,35.723427,139.719635,
東京都,豊島区,17-8,東池袋4-22-1,日出町公園植込み東池袋4-8側,35.727478,139.718811,
東京都,豊島区,18-1,南池袋1-27,西武池袋駅前緑地帯駅前横断歩道付近,35.729515,139.712906,
東京都,豊島区,18-2,南池袋3-17-1,蓮光院塀南池袋3-7前,35.723763,139.712845,
東京都,豊島区,18-3,南池袋3-5-12,区民ひろば南池袋植込み北西側,35.723572,139.714096,
東京都,豊島区,18-4,南池袋3-18-12,南池袋小学校鉄柵南池袋3-4音楽大学前,35.723652,139.714279,
東京都,豊島区,18-5,雑司が谷3-1-7,千登世橋教育文化センター石垣雑司が谷3-3前,35.719677,139.713486,
東京都,豊島区,18-6,雑司が谷3-20-14,大鳥神社石垣雑司が谷3-19前,35.721985,139.715912,
東京都,豊島区,18-7,南池袋3-17,南池ふくろうひろば南池袋3-11-3前,35.724636,139.713242,
東京都,豊島区,18-8,南池袋1-15,西武鉄道変電所フェンスメトロポリタン駐車場出口前,35.725822,139.709427,
東京都,豊島区,19-1,雑司が谷1-11-9,下水道局雑司が谷合同庁舎塀雑司が谷1-12-2前,35.721119,139.718735,
東京都,豊島区,19-2,雑司が谷1-11-9,下水道局雑司が谷合同庁舎塀南池袋1-14前,35.721119,139.718735,
東京都,豊島区,19-3,雑司が谷1-36-3,雑司が谷一丁目公園植込み雑司が谷1-26-15前,35.720615,139.721085,
東京都,豊島区,19-4,雑司が谷1-52,区道ガードレール雑司が谷1-50-20前,35.719852,139.723129,
東京都,豊島区,19-5,雑司が谷2-11-8,雑司が谷公園雑司が谷公園園内,35.718876,139.716339,
東京都,豊島区,19-6,雑司が谷2-12-1,雑司が谷公園雑司が谷2-9-1前,35.718666,139.716721,
東京都,豊島区,19-7,雑司が谷2-12-1,雑司が谷公園南側雑司が谷公園前,35.718666,139.716721,
東京都,豊島区,19-8,雑司が谷1-3,日本女子大学寮万年塀日本女子大入り口近く,35.719131,139.720535,
東京都,豊島区,20-1,高田1-2-10,高田第二公園鉄柵入口向かって左側,35.713341,139.720886,
東京都,豊島区,20-2,高田2-6-2,高田二丁目中央児童遊園高田2-5-18(ダイナシティ高田馬場)前,35.715141,139.712692,
東京都,豊島区,20-3,高田1-23-33,高田一丁目児童遊園文京区目白台1-13の西側,35.714676,139.71727,
東京都,豊島区,20-4,高田1-15-10,環状四号線予定地仮囲いフェンス,35.714279,139.71788,
東京都,豊島区,20-5,高田2-12-7,高南小学校植込み高田2-12-7,35.715977,139.713959,
東京都,豊島区,20-6,高田2-4-16,(株)岡山紙器所西側フェンス,35.715107,139.713669,
東京都,豊島区,20-7,高田1-28-3,高田公園鉄柵高田1-28-4パインハウス前,35.71513,139.715393,
東京都,豊島区,21-1,高田3-18-7,高田第三公園植込み高田3-17-9前,35.715172,139.70694,
東京都,豊島区,21-2,高田3-24-1,大正製薬株式会社本社ビル鉄柵高田3-36-4前,35.715042,139.7108,
東京都,豊島区,21-3,高田3-34-1,大正セントラルテニスコート金網入口向かって左消火栓左側,35.715679,139.708466,
東京都,豊島区,21-4,高田3-24-1,大正製薬株式会社本社ビル鉄柵高田3-37前,35.715042,139.7108,
東京都,豊島区,21-5,目白1-3,学校法人学習院馬場前高田3-35前,35.717487,139.706818,
東京都,豊島区,21-6,目白1-1-1,千登世橋中学校通用門側鉄柵高田3-41-8前,35.716621,139.712204,
東京都,豊島区,21-7,目白1-5-1,学習院中等科植込み目白通り沿い,35.721264,139.707245,
東京都,豊島区,22-1,目白2-20-26,区民ひろば目白鉄柵南側,35.722149,139.710129,
東京都,豊島区,22-2,目白2-11-6,目白小学校塀目白通り沿い目白駅側,35.720531,139.709396,
東京都,豊島区,22-3,目白2-11-6,目白小学校植込み目白通り沿い警察署寄り,35.720531,139.709396,
東京都,豊島区,22-4,目白2-11-6,目白小学校目白2-13側,35.720531,139.709396,
東京都,豊島区,22-5,目白2-23-9,目白第二保育園塀,35.723106,139.709183,
東京都,豊島区,22-6,目白2-11-15,川村学園第二校舎塀校舎西側,35.72105,139.708008,
東京都,豊島区,22-7,目白3-15-17,目白三丁目公園公園南側、東側,35.722797,139.706436,
東京都,豊島区,23-1,西池袋1-8-1,東京芸術劇場植込み西池袋3-21前,35.728905,139.707977,
東京都,豊島区,23-2,西池袋2-2,西武池袋線フェンス駐車場向かい,35.724869,139.707108,
東京都,豊島区,23-3,西池袋1-1-40,ウイロード出入口付近歩道鉄柵喫煙所付近,35.729939,139.71051,
東京都,豊島区,23-4,西池袋2-14-2,上り屋敷公園鉄柵西池袋2-32-7前,35.726273,139.705414,
東京都,豊島区,23-5,西池袋2-14-2,上り屋敷公園鉄柵西池袋2-15前,35.726273,139.705414,
東京都,豊島区,23-6,西池袋1-6-1,ホテルメトロポリタン植込み西池袋1-6-1,35.727894,139.70816,
東京都,豊島区,23-7,西池袋2-14-2,上り屋敷公園鉄柵北側,35.726273,139.705414,
東京都,豊島区,24-1,西池袋3-20-1,西池袋公園西池袋3-33豊島税務署前,35.728878,139.706284,
東京都,豊島区,24-2,西池袋3-20-1,西池袋公園西池袋3-2前,35.728878,139.706284,
東京都,豊島区,24-3,西池袋3-20-1,西池袋公園鉄柵西池袋3-31前,35.728878,139.706284,
東京都,豊島区,24-4,西池袋3-20-1,西池袋公園南側植込み公園通りキャッチボール場脇,35.728878,139.706284,
東京都,豊島区,24-5,西池袋5-10,立教大学5号館塀立教大学正門前,35.731441,139.703781,
東京都,豊島区,24-6,西池袋5-16,立教大学高校グラウンド西側西池袋5-20前,35.731281,139.702087,
東京都,豊島区,24-7,西池袋5-24,谷端川南緑道鉄柵大通り脇西池袋5-24-10西池袋中央ビル隣,35.73246,139.700378,
東京都,豊島区,24-8,西池袋3-14,池袋第三小学校池袋第三小学校フェンス,35.728317,139.70285,
東京都,豊島区,25-1,西池袋4-7-1,西池袋中学校正門左側植込み西池袋4-6-16前,35.727245,139.700989,
東京都,豊島区,25-2,西池袋4-7-1,西池袋中学校校庭側入口左側金網西池袋4-4-17前,35.727245,139.700989,
東京都,豊島区,25-3,西池袋4-7-1,西池袋中学校東側塀西池袋4-8-10前,35.727245,139.700989,
東京都,豊島区,25-4,西池袋4-12-7,masked,35.728085,139.699173,
東京都,豊島区,25-5,西池袋4-28,谷端川南緑道緑地帯植込み宮下橋近く,35.72723,139.698837,
東京都,豊島区,25-6,西池袋4-40-18,西池袋第二公園東側鉄柵西池袋4-31-5前,35.727596,139.697021,
東京都,豊島区,25-7,西池袋4-40-18,西池袋第二公園山手通り側鉄柵山手通り沿い,35.727596,139.697021,
東京都,豊島区,26-1,目白4-22-6,住友ゴム目白寮塀南西角,35.725437,139.701462,
東京都,豊島区,26-2,目白4-11-21,目白の森入り口横植込み目白4-6-7前,35.723061,139.699188,
東京都,豊島区,26-3,目白5-24-12,旧真和中学校北西側目白5-29-6前,35.725456,139.696732,
東京都,豊島区,26-4,目白4-31-8,目白図書館入口向かって左側,35.725758,139.698761,
東京都,豊島区,26-5,目白5-2,新宿下落合四郵便局裏鉄柵目白5-12駐車場前,35.722179,139.69632,
東京都,豊島区,26-6,目白5-18-2,目白第一保育園鉄柵入口横,35.723522,139.695496,
東京都,豊島区,26-7,目白5-24-12,旧真和中学校正門側鉄柵,35.725456,139.696732,
東京都,豊島区,26-8,目白5-24-12,旧真和中学校東側鉄柵,35.725456,139.696732,
東京都,豊島区,27-1,南長崎1-10-5,富士見台小学校鉄柵南長崎1-14-2前,35.724331,139.692856,
東京都,豊島区,27-2,南長崎1-10-5,富士見台小学校正門側鉄柵正門向かって右側,35.724331,139.692856,
東京都,豊島区,27-3,南長崎1-10-5,富士見台小学校フェンス校庭側入口向かって右側,35.724331,139.692856,
東京都,豊島区,27-4,南長崎1-20-1,椎名町公園南側植込み南長崎1-15前,35.725658,139.693512,
東京都,豊島区,27-5,南長崎1-21-8,椎名町公園西側金網南長崎1-22前,35.726448,139.692703,
東京都,豊島区,27-6,南長崎1-21-8,椎名町公園北側フェンス南長崎1-24-3前,35.726448,139.692703,
東京都,豊島区,27-7,南長崎2-3-21,南長崎第二保育園鉄柵南長崎2-3-22・23前,35.723747,139.689423,
東京都,豊島区,27-8,南長崎1-6,区民ひろば富士見台鉄柵南長崎1-4前,35.724087,139.691559,
東京都,豊島区,28-1,長崎3-25-15,長崎公園北側植込み長崎3-26前,35.73093,139.688309,
東京都,豊島区,28-2,長崎1-28-22,カトリック豊島教会塀千早1-2前,35.729256,139.69725,
東京都,豊島区,28-3,長崎2-6-3,長崎小学校正門側鉄柵長崎2-5前,35.7288164,139.6901343,
東京都,豊島区,28-4,長崎2-6-3,長崎小学校校舎側鉄柵長崎3-9前,35.7288164,139.6901343,
東京都,豊島区,28-5,長崎2-25-11,長崎二丁目中央児童遊園公園内植込み,35.729984,139.691483,
東京都,豊島区,28-6,長崎1-9-30,椎名橋自転車駐車場フェンス椎名町駅前ひろば,35.726517,139.695587,
東京都,豊島区,28-7,長崎2-6-3,長崎小学校植込み体育館そば,35.7288164,139.6901343,
東京都,豊島区,28-8,長崎3-25-15,長崎公園南側敷地長崎3-17-7前,35.73093,139.688309,
東京都,豊島区,29-1,南長崎6-20-15,区民ひろばさくら第一南長崎6-19-14前,35.729729,139.681107,
東京都,豊島区,29-2,南長崎4-30,椎名町小学校学校園前南長崎4-30-24前,35.726543,139.685791,
東京都,豊島区,29-3,南長崎3-37-2,南長崎公園植込み南長崎3-37-16前,35.726681,139.688431,
東京都,豊島区,29-4,南長崎4-30-5,椎名町小学校正門側鉄柵正門向かって右側,35.7262,139.68544,
東京都,豊島区,29-5,南長崎4-30-5,椎名町小学校校庭側鉄柵校庭側,35.7262,139.68544,
東京都,豊島区,29-6,南長崎5-12-7,南長崎五丁目稲荷神社境内仮児童遊園石柵南長崎5-13前,35.727985,139.683578,
東京都,豊島区,29-7,南長崎6-15-6,特別養護老人ホーム風かおる里敷地南長崎6-9-11前,35.730793,139.678741,
東京都,豊島区,29-8,南長崎6-35-17,南長崎六丁目児童遊園南長崎36-13前,35.732037,139.679245,
東京都,豊島区,30-1,南長崎4-10-1,NTT落合(別館)ビル鉄柵南長崎3-9前,35.724285,139.685791,
東京都,豊島区,30-2,南長崎4-10-1,NTT落合(別館)ビル鉄柵南長崎4-9前,35.724285,139.685791,
東京都,豊島区,30-3,南長崎4-13-5,南長崎スポーツセンター南長崎4-12前,35.724266,139.683182,
東京都,豊島区,30-4,南長崎4-13-5,南長崎スポーツセンター南長崎4-14前,35.724266,139.683182,
東京都,豊島区,30-5,南長崎6-1-20,南長崎はらっぱ公園鉄柵目白通り側,35.728424,139.680573,
東京都,豊島区,30-6,南長崎6-1-20,南長崎はらっぱ公園鉄柵南長崎5-6-6前,35.728424,139.680573,
東京都,豊島区,30-7,南長崎6-3-8,鹿島ドーミー南長崎塀目白通り側,35.729229,139.678741,
東京都,豊島区,31-1,千早4-9-21,豊島高校東側金網千早4-33前,35.738995,139.682526,
東京都,豊島区,31-2,長崎5-28-5,長五さくら公園植込み入口向かって左側,35.733864,139.683563,
東京都,豊島区,31-3,長崎5-31-29,明豊中学校鉄柵千川通り沿い入口向かって右側,35.735836,139.684738,
東京都,豊島区,31-4,長崎6-16-1,さくら小学校鉄柵南東側長崎6-17前,35.735325,139.67981,
東京都,豊島区,31-5,長崎6-16-1,さくら小学校鉄柵北東側正門向かって左側,35.735325,139.67981,
東京都,豊島区,31-6,長崎6-40-10,千早スポーツフィールド鉄柵校庭側長崎6-40ー7前,35.737312,139.682129,
東京都,豊島区,31-7,千早4-8-19,千早スポーツフィールド鉄柵校舎側正門向かって右側,35.738831,139.681702,
東京都,豊島区,31-8,千早4-31-13,千早四丁目公園鉄柵千早4-32区営アパート前,35.738842,139.685074,
東京都,豊島区,32-1,千早3-46-21,都立千早高等学校南東側鉄柵千早3-38-7前,35.736462,139.684937,
東京都,豊島区,32-2,長崎4-36-1,長崎幼稚園ブロック塀入口向かって左側,35.731152,139.685532,
東京都,豊島区,32-3,長崎4-3-8,長崎四丁目うめの木児童遊園西側,35.729254,139.6853593,
東京都,豊島区,32-4,千早3-33-5,千早小学校西側鉄柵千早3-34前,35.734627,139.687241,
東京都,豊島区,32-5,千早3-33-5,千早小学校校舎側鉄柵入口向かって右側,35.734627,139.687241,
東京都,豊島区,32-6,千早3-33-5,千早小学校校庭側鉄柵入口向かって右側,35.734627,139.687241,
東京都,豊島区,32-7,千早3-46-21,都立千早高等学校西側鉄柵明豊中校庭向かい,35.736462,139.684937,
東京都,豊島区,32-8,千早3-46-21,都立千早高等学校北東側金網千早3-45前,35.736462,139.684937,
東京都,豊島区,33-1,千早2-31-10,千早公園植込み千早2-38前,35.735001,139.690002,
東京都,豊島区,33-2,千早2-44-2,千早図書館植込み千早2-35-10前,35.735462,139.688583,
東京都,豊島区,33-3,千早2-34-2,千早緑地公園鉄柵千早2-25前,35.734108,139.689041,
東京都,豊島区,33-4,千早2-31-10,千早公園植込み千早2-33前,35.735001,139.690002,
東京都,豊島区,33-5,千早2-35-15,千早二丁目公園鉄柵千早2-36-1元井工場前,35.735115,139.68895,
東京都,豊島区,33-6,千早2-39-16,千川中学校南側千川中学校,35.735889,139.691254,
東京都,豊島区,33-7,千早2-39-16,千川中学校東側千川中学校,35.735889,139.691254,
東京都,豊島区,34-1,千早1-3-17,千早町宿舎1前金網千早1-14-4白樺マンション前,35.730713,139.696518,
東京都,豊島区,34-2,千早1-7,千早フラワー公園東側金網千早1-6-9千早ハウス前,35.730854,139.693619,
東京都,豊島区,34-3,千早1-8,千早フラワー公園西側金網公園管理事務所前,35.731281,139.693497,
東京都,豊島区,34-4,千早1-23-18,千早第二公園塀千早1-22前,35.732224,139.69696,
東京都,豊島区,34-5,要町2-3-20,要小学校西側鉄柵要町2-5-12,35.734295,139.694336,
東京都,豊島区,34-6,要町2-3-20,要小学校正門左側鉄柵要町2-1-16前,35.734295,139.694336,
東京都,豊島区,34-7,要町2-3-20,要小学校北側鉄柵要町2-7前,35.734295,139.694336,
東京都,豊島区,35-1,要町3-7-10,区民ひろば千早鉄柵要町3-16前,35.737194,139.68721,
東京都,豊島区,35-2,要町3-19-2,千川児童遊園南側鉄柵千早4-40前,35.73819,139.686646,
東京都,豊島区,35-3,要町3-47-8,豊島体育館鉄柵要町3-48-6前,35.740055,139.688995,
東京都,豊島区,35-4,要町3-44-8,千川駅北自転車駐車場要町通り側フェンス,35.739151,139.688568,
東京都,豊島区,35-5,要町3-47-8,豊島体育館駐車場前要町3-43前,35.740055,139.688995,
東京都,豊島区,35-6,要町3-19-2,千川児童遊園北側鉄柵要町3-19-11前,35.73819,139.686646,
東京都,豊島区,35-7,要町3-22-11,千川駅西自転車駐車場要町3-12前,35.738655,139.688583,
東京都,豊島区,35-8,要町3-55-18,ふるさと千川館南側入口,35.74028,139.688797,
東京都,豊島区,36-1,高松2-25-9,区民ひろば高松金網高松2-16前,35.73887696,139.6975361,
東京都,豊島区,36-2,高松2-33-11,高松二丁目児童遊園金網入口向かって右側,35.7378468,139.699421,
東京都,豊島区,36-3,高松2-57-22,高松小学校正門側鉄柵正門向かって左側,35.739727,139.697296,
東京都,豊島区,36-4,高松2-57-22,高松小学校南門側鉄柵南門向かって右側,35.739727,139.697296,
東京都,豊島区,36-5,高松3-8-17,区営高松三丁目第三アパート植込み高松3-9前,35.74096296,139.695195,
東京都,豊島区,36-6,高松3-5-6,高松三丁目児童遊園フェンス豊南高校前,35.74070881,139.6979985,
東京都,豊島区,36-7,高松3-10-7,旧高松第一保育園金網高松3-9-22前,35.74172407,139.6959408,
東京都,豊島区,36-8,高松2-57-22,高松小学校西側鉄柵高松2-14前,35.739727,139.697296,
東京都,豊島区,37-1,要町1-5-1,要町第一区民集会室要町1-5-1,35.732933,139.695969,
東京都,豊島区,37-2,要町1-19,要町通り沿い植込みえびす通り商店街入り口近く,35.73383736,139.6970125,
東京都,豊島区,37-3,要町1-40-2,masked,35.735649,139.697571,
東京都,豊島区,37-4,高松1-9-21,千川中学校北側フェンス高松1-12前,35.73607712,139.7001044,
東京都,豊島区,37-5,高松1-7-13,高松第二保育園階段前フェンス,35.73621109,139.6987796,
東京都,豊島区,37-6,高松1-9-21,千川中学校南門側鉄柵校庭側入口向かって右側,35.73607712,139.7001044,
東京都,豊島区,37-7,高松1-9-21,千川中学校山手通り側鉄柵通り沿い角,35.73607712,139.7001044,
東京都,豊島区,38-1,池袋3-2-5,谷端川親水公園前植込み遊歩道沿い,35.733402,139.700363,
東京都,豊島区,38-2,池袋3-30-8,みらい館大明西側鉄柵池袋3-31前,35.735687,139.7043,
東京都,豊島区,38-3,池袋3-29-10,池袋第二公園横植込み北側植込み,35.736084,139.7061,
東京都,豊島区,38-4,池袋3-30-8,みらい館大明正門側鉄柵正門向かって左側,35.735687,139.7043,
東京都,豊島区,38-5,池袋3-1-6,祥雲寺入口向かって左側,35.73299,139.701874,
東京都,豊島区,38-6,池袋s,池袋幼稚園鉄柵通り沿い,35.7348314,139.7077314,緯度経度は怪しい
東京都,豊島区,38-7,池袋3-44-20,御嶽北公園鉄柵入口向かって右側,35.737141,139.706223,
東京都,豊島区,38-8,池袋3-58,池袋三丁目自転車保管所正門向かって右側,35.735138,139.707504,
東京都,豊島区,39-1,池袋4-23-8,池袋小学校南側鉄柵日本キリスト教団向かい,35.737732,139.709106,
東京都,豊島区,39-2,池袋2-74-1,池袋ふれあい公園植込み池袋2-73前,35.736004,139.710587,
東京都,豊島区,39-3,池袋4-23-8,池袋小学校北側鉄柵池袋4-30前,35.737732,139.709106,
東京都,豊島区,39-4,池袋4-22-9,池袋公園鉄柵南側,35.738152,139.708481,
東京都,豊島区,39-5,池袋4-22-9,池袋公園鉄柵入口向かって右側,35.738152,139.708481,
東京都,豊島区,39-6,池袋4-23-8,池袋小学校校庭側鉄柵入口向かって左側,35.737732,139.709106,
東京都,豊島区,39-7,池袋4-23-8,池袋小学校校舎側鉄柵池袋4-22前,35.737732,139.709106,
東京都,豊島区,39-8,池袋4-30-20,豊島地方合同庁舎駐車場鉄柵川越街道沿い,35.738251,139.710159,
東京都,豊島区,40-1,池袋本町1-6-8,池袋本町一丁目児童遊園金網川越街道沿い,35.737743,139.713852,
東京都,豊島区,40-2,池袋本町1-6-8,池袋本町一丁目児童遊園北側鉄柵池袋本町1-8前,35.737743,139.713852,
東京都,豊島区,40-3,池袋本町1-27-1,池袋本町公園南側植込み池袋本町1-15前,35.739395,139.713989,
東京都,豊島区,40-4,池袋本町1-27-1,池袋本町公園北側植込み池袋本町1-45前,35.739395,139.713989,
東京都,豊島区,40-5,池袋本町1-7-3,豊島清掃事務所東側植込み池袋本町1-8前,35.737816,139.713181,
東京都,豊島区,40-6,池袋本町1-43-1,池袋本町小学校・池袋中学校連携校鉄柵池袋本町1-29前,35.73988,139.714996,
東京都,豊島区,40-7,池袋本町1-27-1,池袋本町公園西側鉄柵歩道沿い鉄柵,35.739395,139.713989,
東京都,豊島区,40-8,池袋本町2-10-1,学校法人豊昭学園東側金網池袋本町2-12-4駐車場前,35.740459,139.710449,
東京都,豊島区,41-1,池袋本町3-7-15,池袋本町三丁目チビッ子児童遊園鉄柵池袋本町3-22前,35.74382,139.712723,
東京都,豊島区,41-2,池袋本町3-9-3,池袋本町三丁目第二児童遊園鉄柵児童遊園南側中央付近,35.743561,139.712494,
東京都,豊島区,41-3,池袋本町3-13-7,池袋本町三丁目児童遊園鉄柵氷川神社前,35.74332,139.711105,
東京都,豊島区,41-4,池袋本町3-29-8,株式会社栄工舎塀池袋本町3-30-5前,35.74511,139.711884,
東京都,豊島区,41-5,池袋本町4-36-1,旧文成小学校東側鉄柵池袋本町4-34-4前,35.743793,139.714645,
東京都,豊島区,41-6,池袋本町4-41,池袋本町電車の見える公園南側池袋本町4-31前,35.744633,139.715805,
東京都,豊島区,41-7,池袋本町4-36-1,旧文成小学校北側鉄柵正門向かって右側,35.743793,139.714645,
東京都,豊島区,41-8,池袋本町4-36-1,旧文成小学校南側鉄柵池袋本町4-18-5,35.743793,139.714645,
