prefecture,city,number,address,name,lat,long
東京都,足立区,01-01,足立区千住関屋町16-1,千寿第八小学校(東側),35.742351,139.8057944
東京都,足立区,01-02,足立区千住関屋町17,関屋公園(西側),35.7417158,139.8070732
東京都,足立区,01-03,足立区千住東1-1,千住東一丁目児童遊園,35.7435176,139.803157
東京都,足立区,01-04,足立区千住東1-25-3,東武鉄道(株)浅草電気信号区北千住分区,35.7443795,139.8063174
東京都,足立区,01-05,足立区千住関屋町17,関屋公園(東側),35.7417158,139.8070732
東京都,足立区,01-06,足立区千住曙町42-4,日本郵便株式会社　足立郵便局(墨堤通り側),35.7434152,139.8114476
東京都,足立区,01-07,足立区千住関屋町16-1,千寿第八小学校(西側),35.742351,139.8057944
東京都,足立区,01-08,足立区千住曙町35,千住曙町公園(西側),35.7424808,139.8165049
東京都,足立区,02-01,足立区柳原2-49-1,千寿桜堤中学校(西側),35.7492856,139.8128519
東京都,足立区,02-02,足立区柳原2-38-1,masked,35.7479698,139.8127054
東京都,足立区,02-03,足立区柳原1-1,柳原南児童遊園(南東側),35.7463043,139.8108297
東京都,足立区,02-04,足立区柳原1-21,柳原千草園(北北東側),35.7454421,139.8145865
東京都,足立区,02-05,足立区柳原1-25,柳原一丁目児童遊園(北側),35.746212,139.812748
東京都,足立区,02-06,足立区柳原2-38-1,masked,35.7479698,139.8127054
東京都,足立区,02-07,足立区柳原2-49-1,千寿桜堤中学校(北側),35.7492856,139.8128519
東京都,足立区,03-01,足立区日ノ出町26-1,公社コーシャハイム北千住(南西側),35.7512477,139.8069684
東京都,足立区,03-02,足立区日ノ出町27,UR日の出町団地1号棟(西側),35.752142,139.8086314
東京都,足立区,03-03,足立区日ノ出町27,UR日の出町団地3号棟(東側),35.752142,139.8086314
東京都,足立区,03-04,足立区日ノ出町19-3,masked,35.751382,139.8114928
東京都,足立区,03-05,足立区千住旭町45,東武線フェンス北千住~小菅間,35.7521219,139.8069133
東京都,足立区,03-06,足立区千住旭町30,千住旭公園(東側),35.7505405,139.8092311
東京都,足立区,03-07,足立区千住旭町35-17,masked,35.7493131,139.8081764
東京都,足立区,04-01,足立区千住旭町10-31,千寿常東小学校(北西側),35.7483141,139.8079024
東京都,足立区,04-02,足立区千住旭町5,北千住駅東口ロータリー(西側),35.7485983,139.8063061
東京都,足立区,04-03,足立区千住東2-21,公社千住東町住宅2号棟,35.745331,139.810255
東京都,足立区,04-04,足立区千住東2-14,東京電機大学千住東グラウンド(南側),35.7458292,139.8080323
東京都,足立区,04-05,足立区千住旭町10-31,千寿常東小学校(南東側),35.7483141,139.8079024
東京都,足立区,04-06,足立区千住東2-21,公社千住東町住宅1号棟(北側),35.745331,139.810255
東京都,足立区,04-07,足立区千住旭町10-31,千寿常東小学校(南西側),35.7483141,139.8079024
東京都,足立区,05-01,足立区千住3-30,千寿本町小学校(東側),35.7513968,139.8025976
東京都,足立区,05-02,足立区千住3-30,千寿本町小学校(北側),35.7513968,139.8025976
東京都,足立区,05-03,足立区千住5-13-5,トミンタワー千住五丁目(西側),35.7564477,139.8023373
東京都,足立区,05-04,足立区千住5-6-2,千住本町住区センター(北側),35.7547211,139.803714
東京都,足立区,05-05,足立区千住5-24,千住めぐみプチテラス,35.7546123,139.8050751
東京都,足立区,05-06,足立区千住4-31-1,masked,35.7539508,139.8055772
東京都,足立区,05-07,足立区千住4-22,千住ほんちょう公園(南側),35.7527146,139.8042759
東京都,足立区,05-08,足立区千住5-13-5,学びピア21,35.7564477,139.8023373
東京都,足立区,06-01,足立区千住1-25-1,東京藝術大学千住校地(南側),35.7474006,139.802266
東京都,足立区,06-02,足立区千住仲町48-2,masked,35.744198,139.8020559
東京都,足立区,06-03,足立区千住仲町19-3,足立区千住庁舎,35.746451,139.8013558
東京都,足立区,06-04,足立区千住2-11,潤徳女子高等学校(西側),35.7493508,139.8004763
東京都,足立区,06-05,足立区千住仲町28,千住仲町公園(墨堤通り方面),35.7438172,139.8013989
東京都,足立区,06-06,足立区千住1-2-2,masked,35.7477034,139.8001185
東京都,足立区,06-07,足立区千住2-11,潤徳女子高等学校(東側),35.7493508,139.8004763
東京都,足立区,06-08,足立区千住1-25-1,東京藝術大学千住校地(東側),35.7474006,139.802266
東京都,足立区,07-01,足立区千住河原町4-7,第一中学校(北側),35.7436073,139.7955183
東京都,足立区,07-02,足立区千住河原町4-7,第一中学校(南側),35.7436073,139.7955183
東京都,足立区,07-03,足立区千住河原町10-13,masked,35.743626,139.7980485
東京都,足立区,07-04,足立区千住河原町37-4,masked,35.7433197,139.801249
東京都,足立区,07-05,足立区千住橋戸町33,masked,35.7404733,139.7968525
東京都,足立区,07-06,足立区千住橋戸町50,足立市場(北側),35.7401066,139.8002263
東京都,足立区,07-07,足立区千住河原町4-7,第一中学校(西側),35.7436073,139.7955183
東京都,足立区,07-08,足立区千住橋戸町千住大橋々台敷,大橋公園(園内),35.7393668,139.7975506
東京都,足立区,08-01,足立区千住緑町1-1,千住大橋さくら公園(南側),35.7434286,139.7938073
東京都,足立区,08-02,足立区千住緑町2-1,千住スポーツ公園(南側),35.7445146,139.7950858
東京都,足立区,08-03,足立区千住緑町2-1,千住スポーツ公園(北側),35.7445146,139.7950858
東京都,足立区,08-04,足立区千住宮元町6-1,千寿小学校(南側),35.7455002,139.7968035
東京都,足立区,08-05,足立区千住緑町2-17-11,緑町保育園(西側),35.7454412,139.7924097
東京都,足立区,08-06,足立区千住緑町2-1,千住スポーツ公園(西側),35.7445146,139.7950858
東京都,足立区,08-07,足立区千住宮元町24-1,masked,35.7471399,139.7962753
東京都,足立区,08-08,足立区千住緑町3-30,帝京科学大学千住キャンパスグラウンド(墨堤通り側),35.7485914,139.7938073
東京都,足立区,09-01,足立区千住中居町15-1,NTT千住ビル,35.7494424,139.7987512
東京都,足立区,09-02,足立区千住中居町24,千住中居町公園(西側),35.7498479,139.7967639
東京都,足立区,09-03,足立区千住桜木1-5,帝京科学大学テニスコート(西側),35.7488113,139.7922093
東京都,足立区,09-04,足立区千住桜木2-3-1,帝京科学大学千住キャンパス8号館(東側),35.7542358,139.7897937
東京都,足立区,09-05,足立区千住桜木1-8-15,千寿桜小学校(東側),35.7501231,139.793874
東京都,足立区,09-06,足立区千住桜木1-15,元宿堀跡緑道,35.7539005,139.7914901
東京都,足立区,09-07,足立区千住桜木2-15,都営千住桜木二丁目アパート1号棟(北側),35.7553652,139.7870956
東京都,足立区,09-08,足立区千住桜木2-16,尾竹橋公園(北側),35.7541693,139.7866163
東京都,足立区,10-01,足立区千住大川町17-1,千寿双葉小学校(北側),35.755521,139.7995084
東京都,足立区,10-02,足立区千住大川町35,千住公園(西側),35.7560234,139.7973233
東京都,足立区,10-03,足立区千住大川町44,大川町土手下通公園(北側),35.7567193,139.7947662
東京都,足立区,10-04,足立区千住元町18-17,元宿さくら公園(西側),35.7553133,139.7931032
東京都,足立区,10-05,足立区千住大川町17-1,千寿双葉小学校(東側),35.755521,139.7995084
東京都,足立区,10-06,足立区千住柳町26,千住柳町児童遊園(北側),35.754472,139.7964043
東京都,足立区,10-07,足立区千住元町5,千住元町児童遊園(東側),35.753458,139.793248
東京都,足立区,10-08,足立区千住元町16-9,masked,35.7547125,139.793595
東京都,足立区,10-09,足立区千住元町34-1,帝京科学大学2号館(西側),35.7558514,139.7915446
東京都,足立区,11-01,足立区東保木間2-2-9,masked,35.7922563,139.8107697
東京都,足立区,11-02,足立区東保木間2-27-1,総合スポーツセンター(北側),35.7921695,139.8137724
東京都,足立区,11-03,足立区東保木間1-5-16-101,南保木間保育園(東側),35.79039,139.8123793
東京都,足立区,11-04,足立区東保木間1-11,吉右衛門堀公園(南側),35.7884267,139.8123484
東京都,足立区,11-05,足立区東保木間1-25-3,都営東保木間一丁目アパート3号棟(東側),35.7903435,139.8150411
東京都,足立区,11-06,足立区東保木間2-32,総合スポーツセンター公園テニスコート(北側),35.7936671,139.8159453
東京都,足立区,11-07,足立区東保木間2-13,東保木間公園(西側),35.7941611,139.8123484
東京都,足立区,12-01,足立区加賀1-2,加賀公園(南側),35.7894183,139.7612147
東京都,足立区,12-02,足立区加賀2-25-22,加賀中学校(南東側),35.7929618,139.7601366
東京都,足立区,12-03,足立区加賀2-31-5,都営足立加賀二丁目アパート5号棟(東側),35.7936883,139.7603512
東京都,足立区,12-04,足立区皿沼1-19-1,皿沼小学校(西側),35.7942539,139.7636007
東京都,足立区,12-05,足立区皿沼1-19-1,皿沼小学校(東側),35.7942539,139.7636007
東京都,足立区,12-06,足立区皿沼2-11-1,masked,35.7924083,139.7677937
東京都,足立区,12-07,足立区皿沼2-25,皿沼公園(北側),35.7922618,139.7647288
東京都,足立区,12-08,足立区皿沼3-33,舎人公園前バス停前(尾久橋通り沿い),35.7951543,139.7687222
東京都,足立区,13-01,足立区伊興1-8-4,都営伊興町アパート集会所(東側),35.7893194,139.7847962
東京都,足立区,13-02,足立区西新井2-27,いかずち公園(北側),35.7850797,139.7832607
東京都,足立区,13-03,足立区栗原4-7,栗原中央公園(北側),35.7846042,139.7842194
東京都,足立区,13-04,足立区西新井2-1-4,masked,35.7829414,139.7829879
東京都,足立区,13-05,足立区西新井2-7-8,URフレール西新井第二8号棟(南側),35.7832538,139.781167
東京都,足立区,13-06,足立区栗原4-25-9,栗原北小学校(南側),35.7878963,139.7868659
東京都,足立区,13-07,足立区栗原4-19-15,栗原北住区センター(北側),35.7867863,139.7850155
東京都,足立区,13-08,足立区栗原3-26-5,勝田堀公園(南側),35.7812013,139.7864565
東京都,足立区,14-01,足立区新田1-14-11,都営新田一丁目アパート11号棟(南西側),35.7760556,139.7404044
東京都,足立区,14-02,足立区新田2-10,都立足立新田高等学校(西側),35.7703689,139.7412526
東京都,足立区,14-03,足立区新田2-3-16,UR新田二丁目団地(南西側),35.7720661,139.7398042
東京都,足立区,14-04,足立区新田2-2-2,都営新田二丁目第2アパート2号棟(新田センター),35.7715118,139.7380457
東京都,足立区,14-05,足立区新田2-10,都立足立新田高等学校(北東側),35.7703689,139.7412526
東京都,足立区,14-06,足立区新田2-13,新田公園(北側),35.7721075,139.7423703
東京都,足立区,14-07,足立区新田2-30-1,新田学園グラウンド(西側),35.7745763,139.7422621
東京都,足立区,14-08,足立区新田1-8-5,新田稲荷公園(北東側),35.7755465,139.7378706
東京都,足立区,15-01,足立区江北3-8-10,江北みどり公園(北側),35.7722096,139.7629717
東京都,足立区,15-02,足立区椿1-5,南椿公園(西側),35.7779162,139.7589787
東京都,足立区,15-03,足立区堀之内1-21,堀之内北公園(南側),35.7772373,139.7551456
東京都,足立区,15-04,足立区江北3-39-4,江北地域学習センター(北側),35.7758665,139.7601804
東京都,足立区,15-05,足立区江北2ー8-2,江北コミュニティセンター(南側),35.7672085,139.7632274
東京都,足立区,15-06,足立区江北2-7-1,江北二丁目児童遊園(南側),35.7680748,139.7641198
東京都,足立区,15-07,足立区堀之内2-1,足立堀之内公園(西側),35.7751593,139.7581801
東京都,足立区,15-08,足立区江北2-22,江北ふれあい公園(西側),35.7686976,139.7660067
東京都,足立区,16-01,足立区江北4-30,江北四丁目第三児童遊園(尾久橋通り側),35.7736759,139.7698405
東京都,足立区,16-02,足立区江北4-29,江北四丁目児童遊園(西側),35.7739929,139.7692015
東京都,足立区,16-03,足立区江北4-16,江北平成公園(北側),35.7734686,139.7637205
東京都,足立区,16-04,足立区江北4-8,江北平成公園(西側),35.7724243,139.7660067
東京都,足立区,16-05,足立区江北4-26,江北四丁目第二児童遊園(北側),35.7750666,139.7679036
東京都,足立区,16-06,足立区江北4-20,上沼田第二公園(東側),35.7746638,139.7652479
東京都,足立区,16-07,足立区江北4-16,江北平成公園(南側),35.7734686,139.7637205
東京都,足立区,17-01,足立区扇2-30-1,扇小学校(南側),35.7643493,139.7682803
東京都,足立区,17-02,足立区江北1-10-1,都営江北一丁目アパート下水処理場(東側),35.7657621,139.7669504
東京都,足立区,17-03,足立区江北1-9,高野二号緑地児童遊園(東側),35.767594,139.7673644
東京都,足立区,17-04,足立区扇2-37,北宮城町公園(北側),35.7666675,139.769521
東京都,足立区,17-05,足立区江北1-15-19,都営江北一丁目第三アパート4号棟(北側),35.76832,139.7679235
東京都,足立区,17-06,足立区江北1-17-1,江北桜中学校(西側),35.7704137,139.7689943
東京都,足立区,17-07,足立区扇2-13,扇西公園(北西側),35.7628054,139.7663261
東京都,足立区,17-08,足立区江北1-26,江北一丁目公園(東側),35.769497,139.7672846
東京都,足立区,18-01,足立区扇1-7-1,寺地小学校(北西側),35.7608549,139.7748241
東京都,足立区,18-02,足立区扇1-22-46,扇いちょう公園(北西側),35.7626631,139.7728386
東京都,足立区,18-03,足立区扇1-12,扇一丁目児童遊園(西側),35.7612943,139.773994
東京都,足立区,18-04,足立区扇1-6-3,扇南公園(北側),35.7614502,139.775991
東京都,足立区,18-05,足立区扇1-36-2,扇一丁目親栄児童遊園(北側),35.7638892,139.7776486
東京都,足立区,18-06,足立区扇1-41-5,扇東公園(南側),35.7648697,139.7771893
東京都,足立区,18-07,足立区扇1-26-3,扇一丁目のびのび児童遊園(西側),35.7618444,139.7744545
東京都,足立区,18-08,足立区扇1-47-35,扇中央公園(扇住区センター隣),35.7656928,139.7749526
東京都,足立区,19-01,足立区本木北町7-1,本木小学校(東側),35.7649741,139.7804057
東京都,足立区,19-02,足立区本木南町17-1,masked,35.7631126,139.7821673
東京都,足立区,19-03,足立区本木東町18-17,本木保育園(南側),35.7669268,139.7816671
東京都,足立区,19-04,足立区本木2-9,本木二丁目ことり児童遊園(西側),35.7646024,139.7858173
東京都,足立区,19-05,足立区本木2-18-6,masked,35.7660332,139.7842185
東京都,足立区,19-06,足立区本木南町4-2,masked,35.7610822,139.7826635
東京都,足立区,19-07,足立区本木西町16-1,第六中学校(南側),35.7622823,139.7797629
東京都,足立区,19-08,足立区本木西町19-1,本木みどり児童遊園(東側),35.7633053,139.7791864
東京都,足立区,20-01,足立区興野1-18-38,興本体育館(北西側),35.7682788,139.7823629
東京都,足立区,20-02,足立区興野2-14-11,masked,35.7687474,139.7770318
東京都,足立区,20-03,足立区興野2-28-25,興野ふれあい公園(北側),35.7711901,139.7773147
東京都,足立区,20-04,足立区興野1-18-38,興本地域学習センター(図書館南側),35.7682788,139.7823629
東京都,足立区,20-05,足立区興野1-13-19,興野公園(北側),35.7696143,139.7822768
東京都,足立区,20-06,足立区扇3-14,扇北公園(北側),35.7704619,139.7711185
東京都,足立区,20-07,足立区扇3ー9ー4,扇なかよし公園(北東側),35.7693716,139.7739514
東京都,足立区,20-08,足立区興野2-30-5,興野二丁目児童遊園(南西側),35.771133,139.7751346
東京都,足立区,21-01,足立区西新井本町4-9-27,西新井小学校(東側),35.7748106,139.7814232
東京都,足立区,21-02,足立区西新井本町4-14,公社興野町住宅C-7号棟(南側),35.772867,139.7778283
東京都,足立区,21-03,足立区西新井本町5-3-3,興野北公園(東側),35.7729084,139.7840452
東京都,足立区,21-04,足立区西新井本町5-13-1,masked,35.7719437,139.7814232
東京都,足立区,21-05,足立区西新井本町5-7,西新井本町公園(東側),35.7753933,139.7819825
東京都,足立区,21-06,足立区西新井栄町3-1-21,さかえっこ学童保育室(西側),35.7752076,139.7839098
東京都,足立区,21-07,足立区西新井本町4-14,公社興野町住宅C-11号棟(北側),35.772867,139.7778283
東京都,足立区,21-08,足立区西新井本町4-23,奥野邑公園(西側),35.7719698,139.7755916
東京都,足立区,22-01,足立区西新井本町2-3-1,第五中学校(南側),35.7768975,139.7755367
東京都,足立区,22-02,足立区西新井本町2-3-1,第五中学校(西側),35.7768975,139.7755367
東京都,足立区,22-03,足立区西新井本町1-4-2,西新井本町一丁目にこにこ児童遊園(南側),35.7757843,139.7802536
東京都,足立区,22-04,足立区西新井本町1-5-7,masked,35.7754285,139.7795104
東京都,足立区,22-05,足立区扇3-24-11,都営扇三丁目第2アパート(13号棟東側),35.7745507,139.7736267
東京都,足立区,22-06,足立区扇3-24-15,扇彫刻のある公園(北側),35.7732495,139.7724328
東京都,足立区,22-07,足立区西新井本町2-25-1,高野公園(北側),35.7768749,139.7712805
東京都,足立区,22-08,足立区西新井本町2-13,西新井本町二丁目児童遊園(南側),35.7772232,139.7738143
東京都,足立区,23-01,足立区西新井栄町2-10-18,栗原小学校(西側),35.7767778,139.7879126
東京都,足立区,23-02,足立区西新井栄町1-7-1,masked,35.7740723,139.7927687
東京都,足立区,23-03,足立区西新井栄町1-21,東武線フェンス西新井~梅島間,35.7752811,139.7850983
東京都,足立区,23-04,足立区西新井栄町2-24-1,masked,35.7769069,139.7857665
東京都,足立区,23-05,足立区西新井栄町1-19-1,西新井さかえ公園(西側),35.7734129,139.7872939
東京都,足立区,23-06,足立区西新井栄町1-19-1,西新井さかえ公園(東側),35.7734129,139.7872939
東京都,足立区,23-07,足立区西新井栄町2-8-15,足立都税事務所(西側),35.777958,139.7882313
東京都,足立区,23-08,足立区西新井栄町1-1-1,亀田小学校(南側),35.7732004,139.7922788
東京都,足立区,24-01,足立区関原3-38-3,関原小学校(西側),35.770281,139.7870333
東京都,足立区,24-02,足立区関原3-30,関原公園(園内東側),35.7718134,139.7871755
東京都,足立区,24-03,足立区関原3-32-14,第七中学校(西側),35.7734194,139.7862474
東京都,足立区,24-04,足立区関原3-32-14,第七中学校(北西側),35.7734194,139.7862474
東京都,足立区,24-05,足立区関原3-24-11,masked,35.7706362,139.7887535
東京都,足立区,24-06,足立区関原3-15-5,関原三丁目公園(園内西側),35.7717433,139.7906037
東京都,足立区,24-07,足立区関原3-32-14,第七中学校(東側),35.7734194,139.7862474
東京都,足立区,25-01,足立区関原2-14-18,関原中央公園(北側),35.7694041,139.7921393
東京都,足立区,25-02,足立区関原2-35-22,masked,35.7664888,139.7884439
東京都,足立区,25-03,足立区関原2-42-2,中曽根児童遊園(西側),35.766467,139.7866462
東京都,足立区,25-04,足立区関原1-13,本木一丁目児童遊園(東側),35.7642975,139.7884539
東京都,足立区,25-05,足立区関原1-5-13,関原一丁目にこにこ児童遊園(西側),35.7627288,139.7895925
東京都,足立区,25-06,足立区関原2-10-10,地域包括支援センター関原(南側),35.7679035,139.7906562
東京都,足立区,25-07,足立区関原1-12-18,関原一丁目さんかく児童遊園(南側),35.7637288,139.7888074
東京都,足立区,25-08,足立区関原1-21,関原の森まちづくり工房館(西側),35.764511,139.7877348
東京都,足立区,26-01,足立区宮城1-27-25,宮城小学校(東側),35.7593078,139.7570521
東京都,足立区,26-02,足立区宮城1-38-3,宮城公園(西側),35.7618545,139.7584196
東京都,足立区,26-03,足立区小台2-1-31,都立小台橋高等学校(東側),35.7552281,139.7607506
東京都,足立区,26-04,足立区小台2-2-19,小台公園(北側),35.7553679,139.759937
東京都,足立区,26-05,足立区小台1-20,足立小台駅前広場(西側),35.7546442,139.7706392
東京都,足立区,26-06,足立区宮城1-8-4,江南中学校(南側),35.7576326,139.754953
東京都,足立区,26-07,足立区宮城2-1-14,みやぎ水再生センター,35.759758,139.7523385
東京都,足立区,26-08,足立区宮城1-27,南宮城公園(西側),35.759533,139.7567427
東京都,足立区,27-01,足立区梅田4-24-18,梅田ポンプ所(南側),35.7626508,139.7927743
東京都,足立区,27-02,足立区梅田3-7-5,梅田三丁目プチテラス(北側),35.7634692,139.7979841
東京都,足立区,27-03,足立区梅田3-13-24,梅田南公園(北側),35.7635981,139.795785
東京都,足立区,27-04,足立区梅田4-2-19,梅田保育園(北側),35.7625421,139.7949148
東京都,足立区,27-05,足立区梅田4-24-18,梅田ポンプ所(北西側),35.7626508,139.7927743
東京都,足立区,27-06,足立区梅田3-25-2,梅田中央公園(東側),35.7645598,139.7957251
東京都,足立区,27-07,足立区梅田4-39-12,masked,35.7662329,139.7924674
東京都,足立区,27-08,足立区梅田1-24-10,川田橋排水場(南側),35.7625009,139.8007396
東京都,足立区,28-01,足立区梅田5-22-1,梅田ほのぼのプチテラス(東側),35.7709599,139.7938073
東京都,足立区,28-02,足立区梅田6-26-1,梅田公園(西側),35.7675388,139.7975231
東京都,足立区,28-03,足立区梅田6-2-28,masked,35.7667328,139.7999302
東京都,足立区,28-04,足立区梅田2-24-4,masked,35.7657431,139.7987158
東京都,足立区,28-05,足立区梅田5-12-12,梅田五丁目児童遊園(園内南東側),35.7687941,139.794127
東京都,足立区,28-06,足立区梅田5-9-5,masked,35.7676053,139.7923972
東京都,足立区,28-07,足立区梅田6-31,都バス梅田バス発着所(西側),35.7693951,139.795805
東京都,足立区,28-08,足立区梅田5-25-16,梅田五丁目フレンド公園(南側),35.7700604,139.7954754
東京都,足立区,29-01,足立区梅田7-33-1,エルソフィア(南側),35.7706125,139.7982591
東京都,足立区,29-02,足立区梅田8-14-3,亀田トレイン公園(東側),35.7743595,139.7930288
東京都,足立区,29-03,足立区梅田8-12,梅田八丁目第二児童遊園,35.7722045,139.7947662
東京都,足立区,29-04,足立区梅田8-13,梅田亀田公園(南側),35.7724462,139.793268
東京都,足立区,29-05,足立区梅島1-27-6,梅島東公園(南側),35.7737064,139.802213
東京都,足立区,29-06,足立区梅田7-25-15,梅田七丁目児童遊園(南側),35.7699092,139.8011127
東京都,足立区,29-07,足立区梅島1-2-33,第四中学校(西側),35.7707707,139.8030272
東京都,足立区,29-08,足立区梅田7-20,梅島公園(北側),35.7696116,139.8002801
東京都,足立区,29-09,足立区梅田7-13,梅田図書館(西側),35.7684492,139.8005997
東京都,足立区,30-01,足立区梅島3-37-4,梅島第一小学校(南側),35.777392,139.7952007
東京都,足立区,30-02,足立区梅島3-31-19,障がい福祉センターあしすと(北東側),35.7773917,139.7929005
東京都,足立区,30-03,足立区梅島3-23-3,第十中学校(東側),35.7771061,139.7942134
東京都,足立区,30-04,足立区梅島2-32,masked,35.7783757,139.8013989
東京都,足立区,30-05,足立区梅島3-17-10,梅島西公園(北側),35.774538,139.7946863
東京都,足立区,30-06,足立区梅島2-19-19,梅島二丁目公園(北側),35.7761182,139.7983826
東京都,足立区,30-07,足立区梅島2-14-5,梅島住区センター(南側),35.7754055,139.7993415
東京都,足立区,30-08,足立区梅島3-27,西新井公園,35.7754195,139.7934877
東京都,足立区,31-01,足立区青井6-13-10,栗島小学校(北側),35.7762947,139.8126531
東京都,足立区,31-02,足立区青井4-12,masked,35.7764252,139.8174641
東京都,足立区,31-03,足立区青井4-35-16,masked,35.7736784,139.8221567
東京都,足立区,31-04,足立区青井4-21,青和西児童遊園(東側),35.7742283,139.8184234
東京都,足立区,31-05,足立区青井1-7-35,都立青井高等学校テニスコート(西側フェンス),35.7737874,139.8115035
東京都,足立区,31-06,足立区青井5-11-40,青井住区センター(南側),35.7769755,139.8198223
東京都,足立区,31-07,足立区青井1-11,青井公園(西側),35.7750774,139.8126681
東京都,足立区,31-08,足立区青井1-3,青井ふれあい公園(南西側),35.7724295,139.8110695
東京都,足立区,32-01,足立区中央本町1-3-9,都立足立高等学校(東側),35.7698727,139.8047553
東京都,足立区,32-02,足立区中央本町1-5-3,足立保健所(国道4号線側),35.771045,139.8039821
東京都,足立区,32-03,足立区足立4-18,末広公園(北側),35.7669783,139.8058743
東京都,足立区,32-04,足立区足立4-35-10,masked,35.7661406,139.8070382
東京都,足立区,32-05,足立区中央本町3-8-2,水道局足立営業所(駐車場側),35.7721447,139.8078218
東京都,足立区,32-06,足立区中央本町2-13-2,やよい公園(北側),35.7703635,139.808048
東京都,足立区,32-07,足立区中央本町2-4,若松公園(南側),35.7687982,139.8080657
東京都,足立区,32-08,足立区足立4-41,五反野駅交通広場(西側),35.7662426,139.8085118
東京都,足立区,33-01,足立区東綾瀬3-4,東綾瀬公園(東側),35.7704773,139.8323344
東京都,足立区,33-02,足立区東綾瀬3-4,東綾瀬公園(手打ちそば富士向かい),35.7704773,139.8323344
東京都,足立区,33-03,足立区東和3-10,東和三丁目児童遊園(東側),35.7703768,139.8388912
東京都,足立区,33-04,足立区谷中2-4,しょうぶ沼公園(北側),35.775829,139.8303654
東京都,足立区,33-05,足立区谷中2-23,谷中公園(南側),35.7761883,139.8358526
東京都,足立区,33-06,足立区東和3-2-15,masked,35.7692947,139.8377634
東京都,足立区,33-07,足立区東和3-17-15,蒲原中学校(南東側),35.7726566,139.8365294
東京都,足立区,33-08,足立区谷中2-23,谷中公園(東側),35.7761883,139.8358526
東京都,足立区,34-01,足立区足立3-28,東武線フェンス小菅~五反野間,35.7642406,139.8113892
東京都,足立区,34-02,足立区足立3-11-5,足立小学校(西側),35.7642094,139.8098256
東京都,足立区,34-03,足立区足立2-36,足立二丁目あかしあ児童遊園(西側),35.7606707,139.8110695
東京都,足立区,34-04,足立区足立2-44,日吉児童遊園(北側),35.759279,139.8124283
東京都,足立区,34-05,足立区足立3-11-5,足立小学校(北側),35.7642094,139.8098256
東京都,足立区,34-06,足立区足立2-34,足立二丁目児童遊園(北側),35.7604416,139.8121086
東京都,足立区,35-01,足立区西綾瀬4-7-27,弘道小学校(南側),35.7651962,139.8197397
東京都,足立区,35-02,足立区西綾瀬4-2-4,masked,35.7628744,139.8184734
東京都,足立区,35-03,足立区西綾瀬1-4,裏門堰親水水路(西側),35.7607121,139.8161852
東京都,足立区,35-04,足立区西綾瀬2-1,五反野コミュニティ公園(北東側),35.7613778,139.8142667
東京都,足立区,35-05,足立区西綾瀬3-29,西綾瀬三丁目児童遊園(西側),35.7658442,139.8168246
東京都,足立区,35-06,足立区西綾瀬3-3-1,西綾瀬そよかぜ公園(南側),35.7620484,139.8166348
東京都,足立区,35-07,足立区西綾瀬3-29,都営西綾瀬三丁目アパート(北側),35.7658442,139.8168246
東京都,足立区,35-08,足立区西綾瀬4-7-27,弘道小学校(西側),35.7651962,139.8197397
東京都,足立区,36-01,足立区弘道1-38-15,第十一中学校(北側),35.7698907,139.8138371
東京都,足立区,36-02,足立区青井2-27,青井二丁目第二児童遊園(南側),35.7736889,139.8154657
東京都,足立区,36-03,足立区弘道2-3-5,弘道中央公園(北西側),35.7683984,139.815146
東京都,足立区,36-04,足立区青井2-10-18,masked,35.7703249,139.8164649
東京都,足立区,36-05,足立区弘道1-26,弘道一丁目ふれあい児童遊園(西側),35.7688356,139.81051
東京都,足立区,36-06,足立区弘道1-10,弘道いこい公園(南東側),35.7672457,139.8122684
東京都,足立区,36-07,足立区弘道1-20-8,弘道第一小学校(北側),35.7686446,139.8142168
東京都,足立区,36-08,足立区弘道1-20-8,弘道第一小学校(東側),35.7686446,139.8142168
東京都,足立区,37-01,足立区加平1-12-12,東加平小学校(北側),35.7767024,139.8282543
東京都,足立区,37-02,足立区加平2-23,川端第一公園(東側),35.7825924,139.8264178
東京都,足立区,37-03,足立区加平3-13,加平第一公園(西側),35.7808771,139.8292961
東京都,足立区,37-04,足立区加平3-5-9,加平第二公園(南西側),35.7789308,139.8280168
東京都,足立区,37-05,足立区加平2-2,川端第二公園(北東側),35.7783518,139.8251386
東京都,足立区,37-06,足立区綾瀬6-24,東綾瀬公園(じゃぶじゃぶ池),35.7704274,139.8266577
東京都,足立区,37-07,足立区綾瀬7-16-11,都営綾瀬七丁目アパート11号棟(西側),35.7724546,139.8281471
東京都,足立区,37-08,足立区綾瀬7-5-2,下の公園(北西側),35.7744032,139.8267376
東京都,足立区,37-09,足立区綾瀬6-37,東綾瀬公園(北西側),35.7713942,139.8281767
東京都,足立区,38-01,足立区綾瀬3-20-1,東京武道館(東側),35.7655724,139.8256242
東京都,足立区,38-02,足立区綾瀬5-5,東綾瀬公園(職業能力開発センター北東側),35.767764,139.8253785
東京都,足立区,38-03,足立区東綾瀬1-29-23,masked,35.7659876,139.8342906
東京都,足立区,38-04,足立区綾瀬3-17-9,綾瀬住区センター(北側),35.7647114,139.8245738
東京都,足立区,38-05,足立区綾瀬4-18-5,五兵衛公園(北側),35.7657105,139.8231798
東京都,足立区,38-06,足立区綾瀬3-23-14,東綾瀬中学校(北側),35.7651889,139.8270221
東京都,足立区,38-07,足立区綾瀬4-26-5,蛭沼公園(西側),35.7674169,139.8229001
東京都,足立区,38-08,足立区綾瀬5-4,東綾瀬公園(職業能力開発センター向かい),35.7671903,139.8253785
東京都,足立区,38-09,足立区東綾瀬1-11-12,下河原公園(北側),35.7636834,139.8341734
東京都,足立区,39-01,足立区綾瀬2-42-3,普賢寺公園(東側),35.759199,139.8304954
東京都,足立区,39-02,足立区綾瀬2-23,masked,35.7611779,139.8273772
東京都,足立区,39-03,足立区綾瀬1-16,伊藤谷公園(北側),35.7577923,139.8232199
東京都,足立区,39-04,足立区綾瀬2-41,綾瀬二丁目ふれあい公園(北側),35.7575076,139.8286664
東京都,足立区,39-05,足立区綾瀬3-10-20,東綾瀬公園(足立成和信用金庫側),35.7629526,139.8274907
東京都,足立区,39-06,足立区綾瀬3‐9,東綾瀬公園(セブンイレブン側),35.7636631,139.8277684
東京都,足立区,39-07,足立区綾瀬3-10,東綾瀬公園(綾瀬小学校側),35.7628991,139.8273772
東京都,足立区,39-08,足立区綾瀬2-4,綾南公園(北東側),35.7583798,139.8266577
東京都,足立区,39-09,足立区綾瀬2-46-1,河添公園(南側),35.7616747,139.8307452
東京都,足立区,40-01,足立区東和1-17-12,北三谷小学校(北東側),35.7674473,139.8385414
東京都,足立区,40-02,足立区東和2-23-9,masked,35.7701292,139.8406492
東京都,足立区,40-03,足立区東和2-13,北三谷公園(南側),35.7691369,139.8408105
東京都,足立区,40-04,足立区東和2-27,第六天公園(北側),35.7703773,139.8440893
東京都,足立区,40-05,足立区東綾瀬2-15-15,東綾瀬小学校(東側),35.766902,139.8355627
東京都,足立区,40-06,足立区東和1-15-15,西沼公園(北東側),35.7667708,139.8363324
東京都,足立区,40-07,足立区東綾瀬2-17,八か村落しファミリー公園(西側),35.7679799,139.835053
東京都,足立区,40-08,足立区東綾瀬2-10,東綾瀬公園(URパークタウン東綾瀬6号棟西側),35.7682222,139.8322544
東京都,足立区,41-01,足立区東和5-9,稗田公園(南側),35.7755094,139.839531
東京都,足立区,41-02,足立区東和5-9,稗田公園(北東側),35.7755094,139.839531
東京都,足立区,41-03,足立区東和4-6-18,東和親水公園(北側),35.7720102,139.8436894
東京都,足立区,41-04,足立区東和4-6-18,東和親水公園(南側),35.7720102,139.8436894
東京都,足立区,41-05,足立区東和4-3-18,masked,35.7721249,139.8425198
東京都,足立区,41-06,足立区東和5-1-9,東谷中公園(北側),35.7738142,139.8360125
東京都,足立区,41-07,足立区東和4-14-2,都営東和四丁目アパート2号棟(北側),35.7738296,139.8417908
東京都,足立区,41-08,足立区東和4-25-4,都営東和四丁目第3アパート4号棟(西側),35.7744808,139.8432995
東京都,足立区,42-01,足立区中川1-19-32,長門小学校(南西側),35.7674725,139.8562914
東京都,足立区,42-02,足立区中川1-19-32,長門小学校(東側),35.7674725,139.8562914
東京都,足立区,42-03,足立区中川2-24-2,都営中川二丁目アパート(西側),35.768616,139.8571663
東京都,足立区,42-04,足立区中川2-4-12,masked,35.7683808,139.8536067
東京都,足立区,42-05,足立区中川2-25,中川二丁目公園(西側),35.7692494,139.8570463
東京都,足立区,42-06,足立区中川1-10,隅田あいあい児童遊園(西側),35.765809,139.8532869
東京都,足立区,42-07,足立区中川2-19-13,masked,35.7684297,139.8553738
東京都,足立区,43-01,足立区中川4-41-27,大谷田小学校(南側),35.7712311,139.8489228
東京都,足立区,43-02,足立区中川5-1-1,中川水再生センター(東側),35.7760284,139.8495761
東京都,足立区,43-03,足立区中川5-1,中川公園B地区(南東側),35.7719097,139.8516471
東京都,足立区,43-04,足立区中川3-21-2,masked,35.7702765,139.8549208
東京都,足立区,43-05,足立区中川4-41-27,大谷田小学校(東側),35.7712311,139.8489228
東京都,足立区,43-06,足立区中川5-1,中川公園A地区(西側),35.7719097,139.8516471
東京都,足立区,43-07,足立区中川5-1,中川公園B地区(東側),35.7719097,139.8516471
東京都,足立区,43-08,足立区中川4-42,大谷田南公園(北西側),35.7720502,139.8488079
東京都,足立区,44-01,足立区大谷田3-17-20,中川小学校(東側),35.7801694,139.8417344
東京都,足立区,44-02,足立区大谷田3-17-20,中川小学校(北側),35.7801694,139.8417344
東京都,足立区,44-03,足立区大谷田3-7-17,五丁田公園(北側),35.7777804,139.8414202
東京都,足立区,44-04,足立区大谷田4-4-1,大谷田公園(西側),35.7784712,139.8376818
東京都,足立区,44-05,足立区大谷田4-4-1,大谷田公園(東側),35.7784712,139.8376818
東京都,足立区,44-06,足立区大谷田4-16,大谷田記念公園(北東側),35.780862,139.8385714
東京都,足立区,44-07,足立区大谷田5-4,柳田公園(北側),35.7827417,139.8382515
東京都,足立区,44-08,足立区大谷田5-20-1,郷土博物館(南側),35.7843542,139.8417201
東京都,足立区,45-01,足立区神明南1-16-1,第十三中学校(南側),35.7902249,139.8289509
東京都,足立区,45-02,足立区神明1-1-11,masked,35.7921105,139.8288363
東京都,足立区,45-03,足立区神明南2-14-5,神明南材料置場(北側),35.7898441,139.8313449
東京都,足立区,45-04,足立区神明南2-17,雪見公園(北側),35.7913349,139.8324943
東京都,足立区,45-05,足立区神明南2-6-18,神明障がい福祉施設(バス停横),35.787748,139.8331207
東京都,足立区,45-06,足立区神明南1-3-23,神明南ふれあい公園(東側),35.7874538,139.8293172
東京都,足立区,45-07,足立区神明1-5-12,神明北公園(北側),35.7935379,139.8306553
東京都,足立区,45-08,足立区北加平町16,北加平公園(北東側),35.7854658,139.8292961
東京都,足立区,46-01,足立区南花畑3-22-1,花畑小学校(北側),35.7929078,139.8263207
東京都,足立区,46-02,足立区南花畑2-4-5,花畑東部十号公園(東側),35.7877947,139.8192584
東京都,足立区,46-03,足立区南花畑1-16-26,堺田公園(東側),35.7888651,139.8251186
東京都,足立区,46-04,足立区南花畑2-37-8,花畑東部二号公園(北側),35.7923256,139.8214312
東京都,足立区,46-05,足立区南花畑3-1-4,花保さくら公園(西側),35.7899453,139.8225804
東京都,足立区,46-06,足立区南花畑2-40,南花畑二丁目児童遊園(東側),35.7922639,139.8190629
東京都,足立区,46-07,足立区南花畑2-41-1,花保中学校(西側),35.7926101,139.8179984
東京都,足立区,46-08,足立区南花畑2-19-1,花保小学校(南側),35.7901139,139.8182127
東京都,足立区,47-01,足立区南花畑4-4,masked,35.7934168,139.8219408
東京都,足立区,47-02,足立区花畑1-10-16,前谷公園(北側),35.8002672,139.8113093
東京都,足立区,47-03,足立区花畑2-9-9,樫ノ木公園(東側),35.8029368,139.8170545
東京都,足立区,47-04,足立区花畑1-29-1,花畑第一小学校(北側),35.7993177,139.8164905
東京都,足立区,47-05,足立区南花畑4-11,都営花畑第3アパート4号棟(東側),35.7947652,139.8192228
東京都,足立区,47-06,足立区南花畑4-15-1,下沼公園(北側),35.7970407,139.8181036
東京都,足立区,47-07,足立区南花畑5-15,都営保木間第5アパート11号棟(北側),35.7965341,139.8121885
東京都,足立区,47-08,足立区花畑1-31-1,花畑中学校(北側),35.7996792,139.8148612
東京都,足立区,48-01,足立区花畑4-21-1,花畑西小学校(東側),35.8038699,139.8079823
東京都,足立区,48-02,足立区花畑4-20,都営花畑四丁目アパート駐車場(北側),35.8036578,139.8070732
東京都,足立区,48-03,足立区花畑5-8-71,UR花畑団地71号棟(北側),35.8063998,139.8057345
東京都,足立区,48-04,足立区花畑4-21-1,花畑西小学校(南側),35.8038699,139.8079823
東京都,足立区,48-05,足立区花畑3-28-1,花畑町土地区画整理組合記念公園(南東側),35.8040369,139.8126681
東京都,足立区,48-06,足立区保木間5-17,陣川戸公園(西側),35.8018861,139.8075834
東京都,足立区,48-07,足立区花畑3-6,花又公園(東側),35.8015757,139.8124283
東京都,足立区,48-08,足立区花畑4-40,花畑公園(東側),35.8061282,139.8078724
東京都,足立区,49-01,足立区保木間3-6-6,渕江中学校(東側),35.795748,139.8043508
東京都,足立区,49-02,足立区保木間2-4-2,八ツ口公園(北側),35.7942083,139.8035467
東京都,足立区,49-03,足立区保木間1-34-15,八十町公園(南側),35.7905862,139.8091512
東京都,足立区,49-04,足立区保木間4-9-1,名地公園(南側),35.7974446,139.8038314
東京都,足立区,49-05,足立区保木間1-17,糯田公園(北側),35.7914032,139.8040362
東京都,足立区,49-06,足立区保木間2-17,元渕江公園(北西側),35.7925075,139.8064338
東京都,足立区,49-07,足立区保木間2-28,野耕地公園(西側),35.793493,139.8090713
東京都,足立区,49-08,足立区保木間3-19,在家公園(西側),35.7955607,139.8077925
東京都,足立区,50-01,足立区一ツ家3-20-1,東栗原小学校(南側),35.781242,139.8137172
東京都,足立区,50-02,足立区一ツ家4-16-1,一ツ家第一公園(北西側),35.7801697,139.8176697
東京都,足立区,50-03,足立区一ツ家4-11,一ツ家第一公園(北側),35.781212,139.8170645
東京都,足立区,50-04,足立区一ツ家2-18-1,一ツ家第三公園(南西側),35.7832241,139.8146815
東京都,足立区,50-05,足立区六町4-1,六町公園(北側),35.7846374,139.8211414
東京都,足立区,50-06,足立区六町3-3-11,加平小学校(南側),35.785077,139.8179438
東京都,足立区,50-07,足立区一ツ家4-16,一ツ家第一公園(西側),35.780745,139.8185833
東京都,足立区,50-08,足立区西加平2-2,一ツ家第一公園(南側),35.7795979,139.8185833
東京都,足立区,50-09,足立区一ツ家3-15-1,一ツ家中央公園(南側),35.7803277,139.8130677
東京都,足立区,51-01,足立区島根3-28-11,島根小学校(西側),35.7801958,139.7920594
東京都,足立区,51-02,足立区栗原2-6-14,UR栗原団地14号棟(南側),35.7827403,139.7881942
東京都,足立区,51-03,足立区栗原1-15-8,井堀北公園(西側),35.7806851,139.7877498
東京都,足立区,51-04,足立区栗原2-7-4,UR栗原団地4号棟(東側),35.7820366,139.7886736
東京都,足立区,51-05,足立区島根4-30,島根四丁目児童遊園(南側),35.7842466,139.7947662
東京都,足立区,51-06,足立区栗原2-5,UR栗原団地7号棟(西側),35.7836296,139.7896524
東京都,足立区,51-07,足立区島根4-19-1,島根住区センター(東側),35.7827012,139.7966219
東京都,足立区,51-08,足立区栗原2-3-1,石塚公園(東側),35.7833126,139.7902916
東京都,足立区,52-01,足立区竹の塚3-6-3,保木間小学校(西側),35.7904646,139.7990464
東京都,足立区,52-02,足立区竹の塚3-11-9,UR竹の塚第一団地9号(北側),35.7925609,139.8014769
東京都,足立区,52-03,足立区六月1-6-1,島六ふれあい公園(西側),35.7854064,139.8005198
東京都,足立区,52-04,足立区竹の塚3-8-1,保木間公園(南東側),35.7902929,139.8021528
東京都,足立区,52-05,足立区六月1-17-10,新六月公園(北東側),35.7867182,139.8010542
東京都,足立区,52-06,足立区竹の塚3-6-3,保木間小学校(北側),35.7904646,139.7990464
東京都,足立区,52-07,足立区六月1-10-21,六月一丁目公園(北側),35.7860361,139.799431
東京都,足立区,52-08,足立区六月1-30-1,六月中学校(北側),35.7878485,139.800365
東京都,足立区,53-01,足立区竹の塚1-8-1,竹の塚小学校(南側),35.7889144,139.7912564
東京都,足立区,53-02,足立区竹の塚1-19,masked,35.7907808,139.7910207
東京都,足立区,53-03,足立区竹の塚2-25-17,竹の塚地域学習センター(北側),35.7925194,139.7950659
東京都,足立区,53-04,足立区竹の塚2-25-3,竹の塚第六公園(南側),35.7920314,139.794966
東京都,足立区,53-05,足立区竹の塚2-4,竹の塚第九公園(西側),35.7889711,139.7956452
東京都,足立区,53-06,足立区六月2-29-3,都営六月二丁目第2アパート3号棟(西側),35.787498,139.7957251
東京都,足立区,53-07,足立区六月2-9-12,masked,35.7860963,139.7948359
東京都,足立区,53-08,足立区六月3-17-1,六月町公園(西側),35.787282,139.7922592
東京都,足立区,54-01,足立区竹の塚6-3,竹の塚第五公園(西側),35.7941698,139.7938565
東京都,足立区,54-02,足立区竹の塚6-12-1,masked,35.7954968,139.7943367
東京都,足立区,54-03,足立区竹の塚6-19-1,竹の塚第一公園(東側),35.7968173,139.7934078
東京都,足立区,54-04,足立区竹の塚5-27-16,masked,35.7981489,139.794986
東京都,足立区,54-05,足立区竹の塚5-23,竹の塚第二公園(南側),35.7961565,139.7967639
東京都,足立区,54-06,足立区西保木間1-10-3,渕江小学校(西側),35.7962921,139.7983137
東京都,足立区,54-07,足立区竹の塚4-7-1,竹の塚第三公園(南側),35.7936135,139.7990014
東京都,足立区,54-08,足立区竹の塚5-10,竹の塚第四公園(南側),35.7941498,139.7967639
東京都,足立区,55-01,足立区西保木間4-2-1,西保木間小学校(南東側),35.8025496,139.7962096
東京都,足立区,55-02,足立区西保木間3-2,保木間児童遊園(西側),35.803339,139.8002001
東京都,足立区,55-03,足立区西保木間3-1-16,masked,35.8033474,139.8013612
東京都,足立区,55-04,足立区西保木間3-14-6,西保木間北公園(西側),35.8041106,139.7996557
東京都,足立区,55-05,足立区西保木間4-2-1,西保木間小学校(南側),35.8025496,139.7962096
東京都,足立区,55-06,足立区竹の塚7-21-20,masked,35.8009466,139.7974144
東京都,足立区,55-07,足立区西保木間4-4-11,都営西保木間四丁目アパート11号棟(西側),35.8014742,139.7951807
東京都,足立区,55-08,足立区竹の塚7-19,竹北公園(西側),35.8008129,139.7960447
東京都,足立区,56-01,足立区西竹の塚1-8-1,第十四中学校(西側),35.7932795,139.7881314
東京都,足立区,56-02,足立区西竹の塚1-8-1,第十四中学校(北東側),35.7932795,139.7881314
東京都,足立区,56-03,足立区西竹の塚1-8-1,第十四中学校(南側),35.7932795,139.7881314
東京都,足立区,56-04,足立区伊興本町1-7-1,伊興町前沼児童遊園(南側),35.7976893,139.7875301
東京都,足立区,56-05,足立区西竹の塚1-19-10,masked,35.7952245,139.7887933
東京都,足立区,56-06,足立区伊興本町1-13-25,masked,35.7993177,139.7865769
東京都,足立区,56-07,足立区西竹の塚2-12,前沼公園(南側),35.7965295,139.7896524
東京都,足立区,56-08,足立区西竹の塚1-9,大境公園(南西側),35.7917171,139.788374
東京都,足立区,57-01,足立区伊興4-16-1,伊興小学校(北側),35.7959102,139.7807841
東京都,足立区,57-02,足立区伊興5-21,伊興ファミリー公園(南東側),35.7988752,139.7793562
東京都,足立区,57-03,足立区伊興4-11-25,伊興保育園(北側),35.7975131,139.7829711
東京都,足立区,57-04,足立区伊興3-23-20,masked,35.7947405,139.7828629
東京都,足立区,57-05,足立区伊興4-8-13,はやぶさ公園(南側),35.7961984,139.784539
東京都,足立区,57-06,足立区伊興4-16-1,伊興小学校(東側),35.7959102,139.7807841
東京都,足立区,57-07,足立区伊興5-17-1,伊興中学校(南東側),35.799527,139.7817209
東京都,足立区,57-08,足立区西伊興3-16,幼児公園(北東側),35.7990424,139.7759112
東京都,足立区,58-01,足立区西新井4-34-1,西新井第二小学校(南側),35.7890549,139.7774959
東京都,足立区,58-02,足立区伊興2-6-1,西伊興小学校(南西側),35.7925972,139.7797656
東京都,足立区,58-03,足立区西新井3-25-1,諏訪木東公園(南側),35.7899438,139.7814183
東京都,足立区,58-04,足立区西伊興1-6-13,諏訪木北公園(西側),35.7924449,139.7765003
東京都,足立区,58-05,足立区谷在家1-17-1,みだまえ公園(南側),35.78685,139.7711284
東京都,足立区,58-06,足立区西伊興1-11,舎人公園(南東側),35.792047,139.7738343
東京都,足立区,58-07,足立区西新井4-19-13,masked,35.7859545,139.7738438
東京都,足立区,58-08,足立区西新井4-26,諏訪木第三公園(南側),35.7876368,139.7739972
東京都,足立区,58-09,足立区西新井3-15-1,西新井中央公園(フレール西新井中央公園側),35.7879043,139.7807442
東京都,足立区,59-01,足立区西新井6-21-3,西新井第一小学校(東側),35.7799976,139.7771793
東京都,足立区,59-02,足立区西新井6-44,西中第一公園(東側),35.7825859,139.7761508
東京都,足立区,59-03,足立区西新井5-17-1,新西新井公園(北東側),35.7846821,139.777379
東京都,足立区,59-04,足立区西新井5-28,西新井みどり公園(東側),35.7844175,139.7730355
東京都,足立区,59-05,足立区西新井1-29,中郷公園(北側),35.7817609,139.7807043
東京都,足立区,59-06,足立区西新井7-17,足立富士見公園(北側),35.781528,139.7716901
東京都,足立区,59-07,足立区西新井6-9-1,西新井西公園(西側),35.7793557,139.773994
東京都,足立区,59-08,足立区西新井1-20-4,西新井蓮沼公園(西側),35.7802366,139.7826216
東京都,足立区,60-01,足立区江北7-4-1,上沼田公園(第3上沼田保育園側),35.7791135,139.7632113
東京都,足立区,60-02,足立区鹿浜4-16,鹿浜東公園(西側),35.7819288,139.7589787
東京都,足立区,60-03,足立区江北7-16,上沼田北公園(東側),35.7819741,139.7640898
東京都,足立区,60-04,足立区鹿浜4-20-22,鹿浜五色桜小学校(北西側),35.7811124,139.7603363
東京都,足立区,60-05,足立区江北6-29,UR江北六丁目団地3号棟(北側),35.780933,139.7679235
東京都,足立区,60-06,足立区江北7-16-1,上沼田北公園(西側),35.7819741,139.7640898
東京都,足立区,60-07,足立区椿2-21,東椿公園(西側),35.7788137,139.7612147
東京都,足立区,60-08,足立区江北6-10,上沼田東公園(北西側),35.7799939,139.7680833
東京都,足立区,61-01,足立区鹿浜2-24-2,鹿浜いきいき館(北側),35.7805455,139.7491597
東京都,足立区,61-02,足立区鹿浜1-15-1,古内公園(北側),35.7776038,139.7532141
東京都,足立区,61-03,足立区鹿浜2-22,島糀屋公園(北側),35.7815809,139.7481188
東京都,足立区,61-04,足立区鹿浜5-10,江北公園(鹿浜五丁目)(東側),35.7861741,139.7509933
東京都,足立区,61-05,足立区鹿浜1-2,江北公園(鹿浜一丁目)(東側),35.7765695,139.7495561
東京都,足立区,61-06,足立区鹿浜5-25-1,鹿浜こども園(都住鹿浜五丁目アパート向かい),35.7853809,139.754906
東京都,足立区,61-07,足立区鹿浜3-26,北鹿浜公園(西側),35.7825105,139.7548597
東京都,足立区,61-08,足立区鹿浜3-12-3,masked,35.780208,139.7531856
東京都,足立区,62-01,足立区谷在家3-13-2,谷在家北公園(北側),35.7877989,139.7656343
東京都,足立区,62-02,足立区谷在家2-13,谷在家公園(南西側),35.7849572,139.7661664
東京都,足立区,62-03,足立区谷在家2-24-1,鹿浜第一小学校(東側),35.785967,139.7673994
東京都,足立区,62-04,足立区谷在家3-22-10,都営谷在家アパート10号棟(東側),35.7895953,139.7686623
東京都,足立区,62-05,足立区鹿浜6-8-1,鹿浜地域学習センター(南側),35.7839321,139.758349
東京都,足立区,62-06,足立区鹿浜6-18,一本木公園(南側),35.7867425,139.7579405
東京都,足立区,62-07,足立区鹿浜7-21,押部南公園(北側),35.7839427,139.7618536
東京都,足立区,62-08,足立区鹿浜8-12,押部北公園(南側),35.7879345,139.7630516
東京都,足立区,63-01,足立区舎人1-25-32,舎人小学校(東側),35.8060576,139.7688251
東京都,足立区,63-02,足立区舎人1-3-26,舎人地域学習センター(南側),35.8061722,139.7729456
東京都,足立区,63-03,足立区入谷7-7,入谷緑地公園(北東側),35.8005645,139.7618536
東京都,足立区,63-04,足立区入谷1-3-1,入谷日の出公園(北側),35.8030721,139.7716476
東京都,足立区,63-05,足立区舎人5-4-19,舎人はなさく公園(北側),35.8089206,139.7669651
東京都,足立区,63-06,足立区入谷1-28-1,入谷中郷公園(北側),35.8043923,139.7647188
東京都,足立区,63-07,足立区入谷1-18-1,入谷町屋公園(北西側),35.8037327,139.767604
東京都,足立区,63-08,足立区入谷5-12,入谷中郷南恐竜公園(西側),35.8038148,139.762812
東京都,足立区,64-01,足立区青井3-12-2,青井小学校(東側),35.7707704,139.8211464
東京都,足立区,64-02,足立区弘道2-25-5,都営弘道二丁目第三アパート5号棟(東側),35.7680958,139.8190284
東京都,足立区,64-03,足立区弘道2-28,都営五反野北町アパート集会場(北西側),35.7685833,139.820262
東京都,足立区,64-04,足立区弘道2-16,弘道第一公園(北西側),35.7682668,139.8171444
東京都,足立区,64-05,足立区青井3-18,青和ばら公園(西側),35.771947,139.8175506
東京都,足立区,64-06,足立区青井3-5-22,五反野公園(園内フェンス),35.7702131,139.8184234
東京都,足立区,64-07,足立区青井3-22,青和コミュニティ公園(西側),35.7729531,139.8181036
東京都,足立区,64-08,足立区青井3-22,青和コミュニティ公園(東側),35.7729531,139.8181036
東京都,足立区,65-01,足立区花畑6-3,あいぐみ緑地公園(北側),35.8057635,139.8155457
東京都,足立区,65-02,足立区花畑7-10-7,花畑七丁目アパート7号棟(西側),35.8089035,139.8188731
東京都,足立区,65-03,足立区花畑5-13,毛長公園(南側),35.8067753,139.8115926
東京都,足立区,65-04,足立区花畑8-3-1,都営花畑第4アパート1号棟(西側),35.8111717,139.8221596
東京都,足立区,65-05,足立区花畑8-5,都営花畑第4アパート中央バス停(南側),35.8135655,139.8217809
東京都,足立区,65-06,足立区花畑5-15-65,UR花畑団地65号棟(南側),35.8059773,139.8123683
東京都,足立区,65-07,足立区花畑6-12-35,花畑北中学校(南東側),35.8068424,139.8167894
東京都,足立区,65-08,足立区花畑6-4-6,桜花小学校(北側),35.8053826,139.8164685
東京都,足立区,66-01,足立区六木1-6-10,中川北小学校(北西側),35.7901174,139.8395709
東京都,足立区,66-02,足立区六木1-5-18,都営六ツ木町アパート18号棟(北西側),35.7917269,139.8387602
東京都,足立区,66-03,足立区佐野2-43-5,佐野地域学習センター(西側),35.7881299,139.840288
東京都,足立区,66-04,足立区六木1-3,六木公園(南側),35.7903944,139.8364123
東京都,足立区,66-05,足立区六木1-7,佐野公園(南側),35.7891181,139.8398508
東京都,足立区,66-06,足立区佐野1-5,八百免公園(北東側),35.7844638,139.8434495
東京都,足立区,66-07,足立区佐野2-10,大鳥公園(北西側),35.7864284,139.8404306
東京都,足立区,66-08,足立区佐野2-4,佐野第三公園(北西側),35.7859581,139.8369721
東京都,足立区,67-01,足立区東伊興1-4-15,東伊興小学校(南側),35.8026395,139.7857474
東京都,足立区,67-02,足立区東伊興3-23,伊興公園(西側),35.8045811,139.7936475
東京都,足立区,67-03,足立区東伊興1-4-15,東伊興小学校(北東側),35.8026395,139.7857474
東京都,足立区,67-04,足立区東伊興4-9-1,伊興遺跡公園(北東側),35.8044191,139.786361
東京都,足立区,67-05,足立区東伊興2-4,東伊興淵之宮公園(北側),35.8046666,139.7900419
東京都,足立区,67-06,足立区東伊興3-10,白旗塚史跡公園(北側),35.8006288,139.7923691
東京都,足立区,67-07,足立区伊興本町2-13-4,令和　伊興本町公園(南側),35.8022422,139.7875305
東京都,足立区,67-08,足立区西伊興4-8-22,はんの木橋公園(北西側),35.8045276,139.7800951
東京都,足立区,68-01,足立区平野3-6-3,平野小学校(西側),35.7829467,139.8081147
東京都,足立区,68-02,足立区一ツ家1-16,一ツ家第二公園(西側),35.781539,139.8094709
東京都,足立区,68-03,足立区平野1-27-2,東島根中学校(東側),35.7810974,139.8085843
東京都,足立区,68-04,足立区平野1-4,都営足立平野一丁目アパート2号棟(北側),35.7810814,139.8040362
東京都,足立区,68-05,足立区平野3-18-4,都営足立平野三丁目アパート4号棟(北側),35.7858899,139.806264
東京都,足立区,68-06,足立区東六月町5-20,東六月町ひまわり作業所(東側),35.7886045,139.8042147
東京都,足立区,68-07,足立区東六月町10-4,都営六月町アパート4号棟(東側),35.7875075,139.8090812
東京都,足立区,68-08,足立区一ツ家1-23-7,一ツ家第四公園(南側),35.7837719,139.8098106
東京都,足立区,69-01,足立区入谷3-6-1,入谷中学校(南東側),35.8086051,139.7606258
東京都,足立区,69-02,足立区入谷4-8,入谷区民農園(西側),35.8054358,139.7618536
東京都,足立区,69-03,足立区入谷2-8,入谷鶴巻ゆうぐ公園(北側),35.8082493,139.7660067
東京都,足立区,69-04,足立区入谷8-2,都営足立入谷町アパート2号棟(入谷八丁目交差点側),35.8042324,139.7584995
東京都,足立区,69-05,足立区舎人6-3,舎人いきいき公園(東側),35.8131804,139.7647288
東京都,足立区,69-06,足立区入谷9-29,舎人一号公園(東側),35.8071984,139.7548261
東京都,足立区,69-07,足立区入谷3-8-1,足立入谷小学校(南側),35.8111033,139.7610051
東京都,足立区,69-08,足立区舎人6-10-11,都営舎人町アパート11号棟(西側),35.8124434,139.7633771
東京都,足立区,70-01,足立区中央本町4-20-5,都営足立中央本町四丁目アパート5号棟(南側),35.774865,139.8097701
東京都,足立区,70-02,足立区中央本町5-23-1,栗島中学校(南側),35.7782435,139.8110195
東京都,足立区,70-03,足立区中央本町5-23-1,栗島中学校(北東側),35.7782435,139.8110195
東京都,足立区,70-04,足立区中央本町5-23-1,栗島中学校(北西側),35.7782435,139.8110195
東京都,足立区,70-05,足立区中央本町4-16,東中央公園(南側),35.7752877,139.8076409
東京都,足立区,70-06,足立区中央本町1-14,中央公園(南側),35.7740905,139.8043212
東京都,足立区,70-07,足立区中央本町4-16,東中央公園(北側),35.7752877,139.8076409
東京都,足立区,70-08,足立区中央本町1-17-1,足立区役所(正面入り口),35.7750049,139.8044358
東京都,足立区,71-01,足立区大谷田2-25,中川防災公園(北側),35.7841243,139.8452889
東京都,足立区,71-02,足立区大谷田2-1-10,中川東小学校(西側),35.7816097,139.8441792
東京都,足立区,71-03,足立区大谷田2-1-9,おおやたこども園(都立足立東高等学校正門前),35.7809892,139.8442098
東京都,足立区,71-04,足立区大谷田1-36,大谷田一丁目第二児童遊園(園内),35.7803338,139.8465685
東京都,足立区,71-05,足立区大谷田1-37-1,第十二中学校(西側),35.7799667,139.8471727
東京都,足立区,71-06,足立区大谷田1-1-3,UR大谷田一丁目団地3号棟(北東側),35.7780505,139.843767
東京都,足立区,71-07,足立区大谷田2-3,大谷田二丁目児童遊園(北側),35.7814326,139.8460886
東京都,足立区,71-08,足立区大谷田1-26,大谷田一丁目児童遊園(東側),35.7783614,139.8488079
東京都,足立区,72-01,足立区古千谷本町4-12-16,古千谷小学校(東側),35.8068126,139.7789484
東京都,足立区,72-02,足立区古千谷本町4-14,見沼代親水公園(古千谷本町4丁目),35.8068482,139.7775088
東京都,足立区,72-03,足立区古千谷本町2-24,古千谷西公園(南側),35.8055074,139.7732751
東京都,足立区,72-04,足立区古千谷本町1-13-1,masked,35.8018227,139.7716027
東京都,足立区,72-05,足立区古千谷本町2-11,古千谷さくら公園(西側),35.8039144,139.7759112
東京都,足立区,72-06,足立区古千谷本町4-12-16,古千谷小学校(西側),35.8068126,139.7789484
東京都,足立区,72-07,足立区古千谷本町3-6-1,見沼代親水公園(管理事務所北東側),35.8084494,139.7767186
東京都,足立区,72-08,足立区古千谷本町4-9-2,古千谷橋排水場(南側),35.8068203,139.7809134
東京都,足立区,73-01,足立区辰沼1-2-4,都営辰沼町アパート4号棟(東側),35.7854029,139.835931
東京都,足立区,73-02,足立区谷中5-11,辰沼公園(西側),35.7836584,139.8340935
東京都,足立区,73-03,足立区谷中5-12-1,辰沼小学校(南側),35.7835731,139.8359625
東京都,足立区,73-04,足立区谷中3-14-1,谷中中学校(東側),35.7800378,139.8356587
東京都,足立区,73-05,足立区谷中4-18,沖谷公園(北西側),35.7807173,139.8333738
東京都,足立区,73-06,足立区谷中3-14-1,谷中中学校(南側),35.7800378,139.8356587
東京都,足立区,73-07,足立区谷中5-11-10,辰沼公園(北東側),35.7836584,139.8340935
東京都,足立区,73-08,足立区谷中5-12-1,辰沼小学校(北側),35.7835731,139.8359625
東京都,足立区,74-01,足立区島根2-9-22,中島根小学校(北側),35.7823856,139.7998905
東京都,足立区,74-02,足立区島根1-11-8,masked,35.7795489,139.7978472
東京都,足立区,74-03,足立区島根1-4,masked,35.7804345,139.7995608
東京都,足立区,74-04,足立区島根2-33-2,中島根保育園(東側),35.7840563,139.8015105
東京都,足立区,74-05,足立区島根2ー24-11,都営島根二丁目第二アパート11号棟(南側),35.7834229,139.8004356
東京都,足立区,74-06,足立区島根2-14,島根公園(東側),35.7831736,139.7992412
東京都,足立区,74-07,足立区島根2-29,島根二丁目児童遊園(西側),35.7817951,139.8025976
東京都,足立区,74-08,足立区島根2-9-22,中島根小学校(東側),35.7823856,139.7998905
東京都,足立区,75-01,足立区神明3-29,神明水の森公園(南東側),35.8004252,139.8372919
東京都,足立区,75-02,足立区神明2-9,神明東公園(西側),35.7946625,139.8365523
東京都,足立区,75-03,足立区六木4-8,六木北公園(南西側),35.7972888,139.8384114
東京都,足立区,75-04,足立区神明3-13-18,神明水の森公園(泉の広場)(東側),35.7968217,139.8342234
東京都,足立区,75-05,足立区六木3-21-11,六木小学校(北西側),35.796664,139.8410254
東京都,足立区,75-06,足立区六木3-49,六木水の森公園(南西側),35.7972293,139.844889
東京都,足立区,75-07,足立区六木3-5,六木第四公園(北側),35.7947006,139.8430496
東京都,足立区,75-08,足立区六木3-34,六木中央公園(北側),35.7976911,139.8404906
東京都,足立区,76-01,足立区新田3-10,新田三丁目公園(南側),35.7731636,139.7442864
東京都,足立区,76-02,足立区新田3-20-19,新田ポンプ所(北東側),35.768724,139.7438473
東京都,足立区,76-03,足立区新田2-10,都立足立新田高等学校(テニスコート西側),35.7703689,139.7412526
東京都,足立区,76-04,足立区新田3-34-2,新田学園第一校舎(東側),35.7689897,139.7473341
東京都,足立区,76-05,足立区新田3-30,新田学園第二校舎(東側),35.7710671,139.7462026
東京都,足立区,76-06,足立区新田3-35,URハートアイランド新田四番街(南側),35.7690865,139.7494202
東京都,足立区,76-07,足立区新田3-35,URハートアイランド新田三番街(東側),35.7690865,139.7494202
東京都,足立区,76-08,足立区新田3-34,新田さくら公園(西側),35.76825,139.7466817
東京都,足立区,77-01,足立区舎人3-7,見沼代親水公園(舎人三丁目7番地付近),35.8122565,139.7729556
東京都,足立区,77-02,足立区舎人5-14,masked,35.8111635,139.7681132
東京都,足立区,77-03,足立区舎人4-8,舎人四丁目公園(南東側),35.8168152,139.7666456
東京都,足立区,77-04,足立区舎人5-21-34,舎人児童遊園(北西側),35.8127804,139.769754
東京都,足立区,77-05,足立区舎人5-29,見沼代親水公園駅ロータリー内(北側),35.8145012,139.77016
東京都,足立区,77-06,足立区舎人6-4-1,舎人第一小学校(南側),35.8141871,139.7643594
東京都,足立区,77-07,足立区舎人6-8-17,舎人町公園(東側),35.8142002,139.7642246
東京都,足立区,77-08,足立区舎人3-15-7,舎人三丁目みどり公園(南側),35.8163086,139.771428
