prefecture,city,number,address,name,lat,long
神奈川県,横浜市青葉区,1-1,青葉区田奈町51番地,田奈小学校正門横,35.53888504,139.499483
神奈川県,横浜市青葉区,1-2,青葉区田奈町42番地,田奈第一公園,35.53899749,139.503621
神奈川県,横浜市青葉区,1-3,青葉区田奈町11番地,田奈第三公園,35.53804024,139.5081277
神奈川県,横浜市青葉区,1-4,青葉区田奈町51番地,田奈小学校北側フェンス,35.53931961,139.5005759
神奈川県,横浜市青葉区,1-5,青葉区田奈町26番地,田奈第二公園,35.53819189,139.5057027
神奈川県,横浜市青葉区,1-6,青葉区恩田町101番地,バス停「中恩田橋」後フェンス,35.54228371,139.4965267
神奈川県,横浜市青葉区,1-7,青葉区田奈町73番地,東急ストア田奈店前ガードレール,35.5356345,139.5034647
神奈川県,横浜市青葉区,1-8,青葉区恩田町3112番地２,バス停「苗万坂」横ガードレール,35.54463761,139.4986297
神奈川県,横浜市青葉区,2-1,青葉区すみよし台36番地３,奈良中学校入口ガードレール,35.55660936,139.4944494
神奈川県,横浜市青葉区,2-2,青葉区すみよし台32番地９,すみよし台第一公園,35.55588035,139.4937622
神奈川県,横浜市青葉区,2-3,青葉区奈良町1052番地,バス停「北ケ谷」横ガードレール,35.55505495,139.4887424
神奈川県,横浜市青葉区,2-4,青葉区すみよし台24番地４,すみよし台第二公園,35.55313738,139.4931232
神奈川県,横浜市青葉区,2-5,青葉区すみよし台28番地,すみよし台２号雨水調整池フェンス前ガードレール,35.55487094,139.4923835
神奈川県,横浜市青葉区,2-6,青葉区すみよし台８番地１,すみよし台第三公園,35.55092775,139.4928371
神奈川県,横浜市青葉区,2-7,青葉区すみよし台13番地２,すみよし台第四公園,35.5520043,139.4956157
神奈川県,横浜市青葉区,3-1,青葉区奈良町2964番地10,奈良町第三公園,35.56353503,139.4734678
神奈川県,横浜市青葉区,3-2,青葉区奈良町1566番地356,奈良町第五公園,35.56370967,139.4772588
神奈川県,横浜市青葉区,3-3,青葉区奈良町2880番地４,奈良町大田平公園,35.56170939,139.4725951
神奈川県,横浜市青葉区,3-4,青葉区奈良町2821番地４,奈良町大田平第二公園,35.56344703,139.4701354
神奈川県,横浜市青葉区,3-5,青葉区奈良町1566番地369,奈良町第四公園,35.56489852,139.4795599
神奈川県,横浜市青葉区,3-6,青葉区奈良町1541番地２,奈良小学校正門横,35.56296255,139.4805525
神奈川県,横浜市青葉区,3-7,青葉区奈良町1566番地,学園奈良８号雨水調整池ガードレール,35.56149399,139.4779931
神奈川県,横浜市青葉区,3-8,青葉区奈良町2913番地,奈良北団地入口横植込み,35.56304869,139.4755811
神奈川県,横浜市青葉区,4-1,青葉区桜台47番地,青葉台小学校南門横,35.55078686,139.5095542
神奈川県,横浜市青葉区,4-2,青葉区桜台42番地,桜台公園北側,35.54944541,139.5087787
神奈川県,横浜市青葉区,4-3,青葉区桜台42番地,桜台公園東側,35.55143281,139.5133445
神奈川県,横浜市青葉区,4-4,青葉区若草台８番地４,若草台第一公園北側,35.5542881,139.5065031
神奈川県,横浜市青葉区,4-5,青葉区若草台20番地５,若草台地区センター,35.55520676,139.504377
神奈川県,横浜市青葉区,4-6,青葉区桜台47番地,青葉台小学校校庭門横,35.55092999,139.5108396
神奈川県,横浜市青葉区,4-7,青葉区若草台６番地１,若草台第二公園,35.55323532,139.5095705
神奈川県,横浜市青葉区,4-8,青葉区若草台８番地４,若草台第一公園東側,35.55407732,139.5070237
神奈川県,横浜市青葉区,5-1,青葉区青葉台一丁目14番地,ドレッセ青葉台アベニュー東側,35.54541462,139.5170724
神奈川県,横浜市青葉区,5-2,青葉区青葉台二丁目25番地２,青葉台中学校正門横,35.54783173,139.5153393
神奈川県,横浜市青葉区,5-3,青葉区青葉台二丁目25番地２,青葉台中学校西門横,35.54695756,139.5143976
神奈川県,横浜市青葉区,5-4,青葉区青葉台二丁目16番地１,青葉台第二公園,35.54520965,139.5145856
神奈川県,横浜市青葉区,5-5,青葉区青葉台一丁目11番地,青葉台第三公園前ガードレール,35.54429808,139.5204475
神奈川県,横浜市青葉区,5-6,青葉区青葉台二丁目５番地１,青葉台東急スクエアSouth-1前ガードパイプ,35.54258169,139.516376
神奈川県,横浜市青葉区,5-7,青葉区青葉台一丁目12番地１,青葉台公園,35.54498202,139.5181555
神奈川県,横浜市青葉区,5-8,青葉区桜台42番地,桜台公園南側土手,35.548343,139.5097902
神奈川県,横浜市青葉区,6-1,青葉区松風台10番地,松風台公園,35.54462636,139.5102531
神奈川県,横浜市青葉区,6-2,青葉区松風台42番地,松風台第二公園,35.54557314,139.506214
神奈川県,横浜市青葉区,6-3,青葉区榎が丘49番地１,榎が丘第三公園,35.542586,139.5040885
神奈川県,横浜市青葉区,6-4,青葉区榎が丘29番地,榎が丘小学校正門脇,35.54196697,139.509037
神奈川県,横浜市青葉区,6-5,青葉区榎が丘29番地,榎が丘小学校スロープ門横,35.54160686,139.5097239
神奈川県,横浜市青葉区,6-6,青葉区榎が丘16番地１,榎が丘第二公園,35.54049303,139.511865
神奈川県,横浜市青葉区,6-7,青葉区榎が丘20番地,恩田配水池フェンス,35.53882664,139.5120523
神奈川県,横浜市青葉区,6-8,青葉区松風台29番地２,松風台第三公園,35.54504343,139.5005357
神奈川県,横浜市青葉区,7-1,青葉区しらとり台52番地,歩道ガードレール,35.53226581,139.5164129
神奈川県,横浜市青葉区,7-2,青葉区しらとり台66番地,バス停「前川神社前」後フェンス,35.53416947,139.5104198
神奈川県,横浜市青葉区,7-3,青葉区しらとり台21番地５,しらとり台第三公園,35.53637961,139.5111088
神奈川県,横浜市青葉区,7-4,青葉区しらとり台82番地１,下台交差点北西側フェンス,35.53128147,139.5169122
神奈川県,横浜市青葉区,7-5,青葉区しらとり台５番地１,しらとり台第一公園,35.53896836,139.515617
神奈川県,横浜市青葉区,7-6,青葉区しらとり台42番地,しらとり台第二公園,35.53392158,139.5150759
神奈川県,横浜市青葉区,7-7,青葉区しらとり台74番地,下台西側交差点南西側ガードレール,35.53118062,139.5141772
神奈川県,横浜市青葉区,7-8,青葉区しらとり台14番地９,しらとり台第四公園,35.53731467,139.5141603
神奈川県,横浜市青葉区,8-1,青葉区つつじが丘９番地１,バス停「つつじ橋」先ガードパイプ,35.54127112,139.5180247
神奈川県,横浜市青葉区,8-2,青葉区つつじが丘３番地２,つつじが丘第二公園,35.54202472,139.5203725
神奈川県,横浜市青葉区,8-3,青葉区つつじが丘22番地,つつじが丘第一公園,35.53853016,139.5177449
神奈川県,横浜市青葉区,8-4,青葉区つつじが丘33番地１,つつじが丘第四公園,35.53647593,139.5193871
神奈川県,横浜市青葉区,8-5,青葉区つつじが丘34番地１,つつじが丘小学校前交差点ガードパイプ,35.53608188,139.5204735
神奈川県,横浜市青葉区,8-6,青葉区つつじが丘34番地１,つつじが丘小学校校門横,35.53564157,139.5206508
神奈川県,横浜市青葉区,8-7,青葉区さつきが丘８番地,さつきが丘小学校東側フェンス,35.53262381,139.5191221
神奈川県,横浜市青葉区,8-8,青葉区さつきが丘19番地,さつきが丘公園,35.53044971,139.5223954
神奈川県,横浜市青葉区,9-1,青葉区藤が丘二丁目５番地５,藤が丘駅前ガードパイプ,35.54333488,139.5282311
神奈川県,横浜市青葉区,9-2,青葉区藤が丘二丁目９番地,藤が丘第五公園,35.54252902,139.5257973
神奈川県,横浜市青葉区,9-3,青葉区藤が丘二丁目18番地,藤が丘公園北東側,35.54302755,139.5248106
神奈川県,横浜市青葉区,9-4,青葉区藤が丘二丁目18番地,藤が丘公園南側,35.54184857,139.5233599
神奈川県,横浜市青葉区,9-5,青葉区藤が丘二丁目20番地,藤が丘第四公園,35.54234179,139.5219643
神奈川県,横浜市青葉区,9-6,青葉区藤が丘二丁目30番地,藤が丘小学校校門横,35.53966877,139.5254457
神奈川県,横浜市青葉区,9-7,青葉区藤が丘二丁目42番地,藤が丘第三公園,35.53887995,139.5266747
神奈川県,横浜市青葉区,9-8,青葉区藤が丘二丁目30番地,藤が丘小学校東側,35.53941453,139.5265012
神奈川県,横浜市青葉区,10-1,青葉区梅が丘34番地,ドミール梅が丘向かいガードレール,35.53312198,139.5262066
神奈川県,横浜市青葉区,10-2,青葉区梅が丘４番地,梅が丘公園,35.53813067,139.5221909
神奈川県,横浜市青葉区,10-3,青葉区梅が丘５番地,谷本中学校東門横,35.53657286,139.5231251
神奈川県,横浜市青葉区,10-4,青葉区梅が丘５番地,谷本中学校南門横,35.53636059,139.5221525
神奈川県,横浜市青葉区,10-5,青葉区梅が丘40番地,梅が丘第三公園西側,35.53436413,139.5228104
神奈川県,横浜市青葉区,10-6,青葉区梅が丘29番地２,梅が丘第二公園,35.53506741,139.5298807
神奈川県,横浜市青葉区,10-7,青葉区梅が丘40番地,梅が丘第三公園北側,35.53476846,139.5231875
神奈川県,横浜市青葉区,11-1,青葉区藤が丘一丁目10番地,藤が丘第二公園,35.5468869,139.5287552
神奈川県,横浜市青葉区,11-2,青葉区千草台17番地１,千草台公園南西側,35.54192977,139.5348956
神奈川県,横浜市青葉区,11-3,青葉区藤が丘一丁目29番地１,藤が丘駅前公園,35.54432089,139.5280128
神奈川県,横浜市青葉区,11-4,青葉区下谷本町36番地,青葉自動車学校向かい道路フェンス,35.54603321,139.5348451
神奈川県,横浜市青葉区,11-5,青葉区千草台17番地１,千草台公園北西側,35.542489,139.5348421
神奈川県,横浜市青葉区,11-6,青葉区藤が丘一丁目55番地,谷本小学校グラウンド入口横,35.54247199,139.5368101
神奈川県,横浜市青葉区,11-7,青葉区藤が丘一丁目55番地,谷本小学校北側フェンス,35.54345599,139.5349418
神奈川県,横浜市青葉区,11-8,青葉区藤が丘一丁目25番地14,歩道ガードパイプ,35.54577795,139.530258
神奈川県,横浜市青葉区,12-1,青葉区千草台50番地１,緑が丘中学校正門横,35.53619571,139.5365893
神奈川県,横浜市青葉区,12-2,青葉区千草台50番地１,緑が丘中学校グラウンド脇,35.53632745,139.5353884
神奈川県,横浜市青葉区,12-3,青葉区千草台27番地,千草台第二公園南東側,35.53917528,139.5315274
神奈川県,横浜市青葉区,12-4,青葉区千草台27番地,千草台第二公園南西側,35.5391627,139.5310171
神奈川県,横浜市青葉区,12-5,青葉区千草台44番地,千草台第三公園南側,35.53720637,139.5356462
神奈川県,横浜市青葉区,12-6,青葉区千草台44番地,千草台第三公園北東側,35.53758742,139.5357297
神奈川県,横浜市青葉区,12-7,青葉区千草台51番地40,千草台第四公園,35.53659518,139.5322945
神奈川県,横浜市青葉区,13-1,青葉区柿の木台42番地,柿の木台第一公園,35.55296346,139.526821
神奈川県,横浜市青葉区,13-2,青葉区もえぎ野21番地,上谷本第二公園,35.54991532,139.5223138
神奈川県,横浜市青葉区,13-3,青葉区もえぎ野16番地,もえぎ野小学校正門横ガードレール,35.54875553,139.5228812
神奈川県,横浜市青葉区,13-4,青葉区もえぎ野16番地,もえぎ野小学校東門横,35.54848011,139.5238146
神奈川県,横浜市青葉区,13-5,青葉区もえぎ野７番地１,もえぎ野公園,35.54760668,139.525712
神奈川県,横浜市青葉区,13-6,青葉区もえぎ野２番地,ヤマダデンキ  テックランド青葉店横ガードレール,35.54360618,139.5218323
神奈川県,横浜市青葉区,13-7,青葉区柿の木台22番地,柿の木台第二公園,35.55102767,139.5308953
神奈川県,横浜市青葉区,13-8,青葉区もえぎ野４番地１,もえぎ野中学校プール横フェンス,35.54500154,139.5241868
神奈川県,横浜市青葉区,14-1,青葉区上谷本町724番地,三陽幼稚園前交差点北西側ガードレール,35.55893823,139.5171383
神奈川県,横浜市青葉区,14-2,青葉区みたけ台42番地,みたけ台公園南側,35.55491832,139.5222539
神奈川県,横浜市青葉区,14-3,青葉区みたけ台30番地,みたけ台中学校南側,35.55644325,139.5207216
神奈川県,横浜市青葉区,14-4,青葉区みたけ台４番地,上谷本第一公園,35.55266645,139.5218479
神奈川県,横浜市青葉区,14-5,青葉区みたけ台42番地,みたけ台公園西側,35.55545531,139.5214032
神奈川県,横浜市青葉区,14-6,青葉区上谷本町107番地２,あおば支援学校前交差点北東側フェンス,35.5574039,139.5231377
神奈川県,横浜市青葉区,14-7,青葉区みたけ台30番地,みたけ台中学校北側校門横,35.55735529,139.521121
神奈川県,横浜市青葉区,15-1,青葉区鉄町2144番地,歩道ガードレール,35.56885671,139.5300721
神奈川県,横浜市青葉区,15-2,青葉区鉄町1284番地,歩道フェンス,35.56469099,139.5286499
神奈川県,横浜市青葉区,15-3,青葉区鉄町1165番地,子金橋南西側フェンス,35.56172596,139.5296583
神奈川県,横浜市青葉区,15-4,青葉区鉄町1397番地,くろがね青少年野外活動センター駐車場,35.56206695,139.5241229
神奈川県,横浜市青葉区,15-5,青葉区鉄町427番地,鉄小学校正門横,35.56229823,139.5206372
神奈川県,横浜市青葉区,15-6,青葉区鉄町845番地,中鉄（なかくろがね）交差点南西側,35.56133662,139.5253369
神奈川県,横浜市青葉区,15-7,青葉区鉄町1674番地,歩道ガードパイプ,35.56425615,139.51653
神奈川県,横浜市青葉区,16-1,青葉区大場町389番地１,大場富士塚公園,35.56734908,139.5378405
神奈川県,横浜市青葉区,16-2,青葉区大場町380番地２,大場かやのき公園北側,35.56343732,139.5367488
神奈川県,横浜市青葉区,16-3,青葉区大場町380番地,大場第一２号雨水調整池前柵,35.5625359,139.5350345
神奈川県,横浜市青葉区,16-4,青葉区大場町273番地,大場町一心会会館向かいガードレール,35.55984544,139.5348009
神奈川県,横浜市青葉区,16-5,青葉区大場町156番地51,稲荷前第三公園,35.56040417,139.5334601
神奈川県,横浜市青葉区,16-6,青葉区大場町174番地127,稲荷前第二公園,35.56282311,139.5307582
神奈川県,横浜市青葉区,16-7,青葉区大場町174番地294,稲荷前第一公園,35.56206525,139.5324241
神奈川県,横浜市青葉区,16-8,青葉区大場町383番地３,大場地域ケアプラザ,35.56298808,139.5384314
神奈川県,横浜市青葉区,17-1,青葉区寺家町556番地,バス停「四季の家」後フェンス,35.56716178,139.5043287
神奈川県,横浜市青葉区,17-2,青葉区鴨志田町538番地１,鴨志田公園,35.56413973,139.5031578
神奈川県,横浜市青葉区,17-3,青葉区鴨志田町532番地,鴨志田緑小学校正門横,35.56383228,139.5044143
神奈川県,横浜市青葉区,17-4,青葉区鴨志田町555番地,鴨志田第四公園,35.56166866,139.5043118
神奈川県,横浜市青葉区,17-5,青葉区鴨志田町506番地,鴨志田第三公園,35.56094873,139.5081335
神奈川県,横浜市青葉区,17-6,青葉区鴨志田町536番地,鴨志田中学校正門横,35.56607786,139.5039477
神奈川県,横浜市青葉区,17-7,青葉区寺家町118番地,ふるさと村入口交差点南西側ガードレール,35.56910072,139.5091218
神奈川県,横浜市青葉区,17-8,青葉区鴨志田町512番地,市営鴨志田住宅６号棟裏法面,35.56197925,139.5082079
神奈川県,横浜市青葉区,18-1,青葉区鴨志田町812番地７,鴨志田中央交差点南東側フェンス,35.55958934,139.5065075
神奈川県,横浜市青葉区,18-2,青葉区鴨志田町817番地４,鴨志田第五公園,35.55828548,139.5049661
神奈川県,横浜市青葉区,18-3,青葉区鴨志田町805番地,鴨志田第一小学校通用門横,35.55722386,139.508827
神奈川県,横浜市青葉区,18-4,青葉区たちばな台二丁目10番地,たちばな台第三公園,35.55531229,139.5104529
神奈川県,横浜市青葉区,18-5,青葉区たちばな台二丁目２番地３,たちばな台第四公園,35.55393061,139.5127928
神奈川県,横浜市青葉区,18-6,青葉区たちばな台二丁目24番地１,マクドナルド環状4号線たちばな台店前歩道植込み,35.55851189,139.5128445
神奈川県,横浜市青葉区,18-7,青葉区鴨志田町805番地,鴨志田第一小学校正門横,35.55715257,139.5099646
神奈川県,横浜市青葉区,19-1,青葉区荏田町2360番地,江田駅西口植込み,35.55867758,139.5512103
神奈川県,横浜市青葉区,19-2,青葉区荏田北二丁目19番地１,小黒公園,35.55852151,139.5412696
神奈川県,横浜市青葉区,19-3,青葉区市ケ尾町1639番地１,市ケ尾遺跡公園,35.55678557,139.5396519
神奈川県,横浜市青葉区,19-4,青葉区市ケ尾町1678番地７,禅当寺公園,35.55691887,139.5375241
神奈川県,横浜市青葉区,19-5,青葉区市ケ尾町1178番地８,市ケ尾第一公園,35.5538839,139.5379353
神奈川県,横浜市青葉区,19-6,青葉区市ケ尾町31番地４,青葉区役所前植込み,35.55252961,139.5368616
神奈川県,横浜市青葉区,19-7,青葉区市ケ尾町1162番地５,市ケ尾第二公園,35.55358249,139.5422707
神奈川県,横浜市青葉区,19-8,青葉区荏田北二丁目５番地６,長谷第一公園,35.55545123,139.5431796
神奈川県,横浜市青葉区,19-9,青葉区市ケ尾町1854番地,市ケ尾高校東交差点西側フェンス,35.55677161,139.5323701
神奈川県,横浜市青葉区,20-1,青葉区荏田西一丁目４番地２,荏田富士塚公園,35.55413458,139.5466661
神奈川県,横浜市青葉区,20-2,青葉区市ケ尾町1159番地１,市ケ尾第四公園,35.55229012,139.5429988
神奈川県,横浜市青葉区,20-3,青葉区市ケ尾町1153番地１,市ケ尾第三公園,35.550512,139.5397764
神奈川県,横浜市青葉区,20-4,青葉区市ケ尾町1157番地14,市が尾駅前公園,35.55228383,139.5419964
神奈川県,横浜市青葉区,20-5,青葉区市ケ尾町23番地１,市ケ尾病院前植込み,35.54793524,139.5402415
神奈川県,横浜市青葉区,20-6,青葉区市ケ尾町1069番地,市ケ尾町公園,35.5484115,139.5429201
神奈川県,横浜市青葉区,20-7,青葉区荏田西一丁目15番地,神奈川都市交通向かい側ガードレール,35.55024422,139.546154
神奈川県,横浜市青葉区,20-8,青葉区市ケ尾町1154番地,市が尾駅西口正面ガードパイプ,35.55182781,139.5410537
神奈川県,横浜市青葉区,21-1,青葉区市ケ尾町519番地,東市ケ尾小学校校門横,35.54280946,139.5471239
神奈川県,横浜市青葉区,21-2,青葉区市ケ尾町449番地,市ケ尾下根公園,35.54057365,139.5464931
神奈川県,横浜市青葉区,21-3,青葉区市ケ尾町539番地,市ケ尾鶴蒔公園北側,35.54687784,139.5445362
神奈川県,横浜市青葉区,21-4,青葉区市ケ尾町649番地,歩道ガードレール,35.54446891,139.5431252
神奈川県,横浜市青葉区,21-5,青葉区市ケ尾町531番地１,市ケ尾中学校北側フェンス,35.54611115,139.5468182
神奈川県,横浜市青葉区,21-6,青葉区市ケ尾町490番地,泉天ケ谷公園南西側,35.54131073,139.5496076
神奈川県,横浜市青葉区,21-7,青葉区市ケ尾町490番地,泉天ケ谷公園南東側,35.54157461,139.5504078
神奈川県,横浜市青葉区,21-8,青葉区市ケ尾町539番地,市ケ尾鶴蒔公園南西側,35.54643336,139.5439529
神奈川県,横浜市青葉区,22-1,青葉区荏田町464番地,荏田第四公園,35.55468873,139.5562577
神奈川県,横浜市青葉区,22-2,青葉区荏田町487番地１,池尻公園,35.55708111,139.5548933
神奈川県,横浜市青葉区,22-3,青葉区荏田町449番地10,荏田第三公園,35.55654426,139.5579115
神奈川県,横浜市青葉区,22-4,青葉区荏田町494番地８,かたらい宿公園,35.55962344,139.5619041
神奈川県,横浜市青葉区,22-5,青葉区荏田町435番地５,荏田第二公園,35.55889053,139.5575437
神奈川県,横浜市青葉区,22-6,青葉区荏田町432番地９,荏田第一公園,35.5597627,139.5595497
神奈川県,横浜市青葉区,22-7,都筑区荏田南町694番地,荏田小学校校門横,35.55754676,139.5632215
神奈川県,横浜市青葉区,22-8,青葉区荏田町353番地６,荏田第五公園,35.56191961,139.5606199
神奈川県,横浜市青葉区,23-1,青葉区あざみ野南一丁目４番地１,赤田東公園多目的運動場フェンス,35.56215788,139.5531326
神奈川県,横浜市青葉区,23-2,青葉区荏田町319番地８,荏田宿公園,35.5637957,139.5603641
神奈川県,横浜市青葉区,23-3,青葉区新石川一丁目31番地１,向根公園,35.56595475,139.5584692
神奈川県,横浜市青葉区,23-4,青葉区新石川一丁目20番地１,山内小学校校門横,35.5692183,139.5560039
神奈川県,横浜市青葉区,23-5,青葉区新石川一丁目15番地,新石川中村公園,35.56589502,139.5558256
神奈川県,横浜市青葉区,23-6,青葉区新石川二丁目12番地１,新石川公園,35.57345158,139.5563524
神奈川県,横浜市青葉区,23-7,青葉区あざみ野南一丁目12番地９,あざみ野南三百久保公園,35.56436357,139.5560365
神奈川県,横浜市青葉区,23-8,青葉区荏田町246番地24,荏田釈迦堂公園,35.56429776,139.5578572
神奈川県,横浜市青葉区,24-1,青葉区あざみ野一丁目19番地,あざみ野一丁目公園,35.57237193,139.5493689
神奈川県,横浜市青葉区,24-2,青葉区あざみ野二丁目１番地５,あざみ野駅北側交差点東側ガードパイプ,35.56893858,139.5534492
神奈川県,横浜市青葉区,24-3,青葉区あざみ野一丁目８番地,和田橋上ガードパイプ,35.57071384,139.5531379
神奈川県,横浜市青葉区,24-4,青葉区あざみ野二丁目25番地,あざみ野東公園北側,35.56765581,139.5477579
神奈川県,横浜市青葉区,24-5,青葉区あざみ野二丁目25番地,あざみ野東公園南側,35.56655272,139.5472316
神奈川県,横浜市青葉区,24-6,青葉区あざみ野一丁目29番地,あざみ野中学校通用門横,35.57173269,139.5462881
神奈川県,横浜市青葉区,24-7,青葉区あざみ野一丁目29番地,あざみ野中学校東側校門横,35.57167927,139.5479759
神奈川県,横浜市青葉区,24-8,青葉区あざみ野二丁目３番地２,山内地区センター前,35.56694867,139.5538755
神奈川県,横浜市青葉区,25-1,青葉区美しが丘五丁目28番地54,バス停「元石川町」前植込み,35.57653183,139.5488321
神奈川県,横浜市青葉区,25-2,青葉区美しが丘五丁目９番地,美しが丘第八公園東側,35.57498082,139.5526066
神奈川県,横浜市青葉区,25-3,青葉区美しが丘五丁目９番地,美しが丘第八公園西側,35.57533033,139.5518809
神奈川県,横浜市青葉区,25-4,青葉区美しが丘五丁目34番地,バス停「牛込」横植込み,35.57183114,139.5520365
神奈川県,横浜市青葉区,25-5,青葉区美しが丘五丁目26番地１,美しが丘五丁目公園,35.57677109,139.5511598
神奈川県,横浜市青葉区,25-6,青葉区美しが丘五丁目４番地,山内中学校校門横,35.57735861,139.552558
神奈川県,横浜市青葉区,25-7,青葉区美しが丘五丁目４番地,山内中学校東側フェンス,35.57681597,139.5533797
神奈川県,横浜市青葉区,26-1,青葉区荏子田一丁目７番地１,荏子田朝日公園,35.57906492,139.5442762
神奈川県,横浜市青葉区,26-2,青葉区あざみ野四丁目19番地,あざみ野四丁目北公園北側,35.57569002,139.5445669
神奈川県,横浜市青葉区,26-3,青葉区あざみ野四丁目６番地１,あざみ野第一小学校校門横,35.57219743,139.542774
神奈川県,横浜市青葉区,26-4,青葉区荏子田一丁目13番地３,荏子田公園南側,35.57863879,139.5401483
神奈川県,横浜市青葉区,26-5,青葉区あざみ野四丁目19番地,あざみ野四丁目北公園南側,35.57481793,139.5446728
神奈川県,横浜市青葉区,26-6,青葉区荏子田一丁目13番地,荏子田公園北西側フェンス,35.57999303,139.5399116
神奈川県,横浜市青葉区,26-7,青葉区あざみ野四丁目１番地,あざみ野陸橋北側詰フェンス,35.57050516,139.5427893
神奈川県,横浜市青葉区,26-8,青葉区あざみ野四丁目５番地４,あざみ野四丁目南公園,35.57257904,139.5421208
神奈川県,横浜市青葉区,27-1,青葉区美しが丘一丁目19番地,たまプラーザ団地４街区８号棟前ガードパイプ,35.5829916,139.5519195
神奈川県,横浜市青葉区,27-2,青葉区美しが丘一丁目23番地,道路横植込み,35.58398603,139.5538276
神奈川県,横浜市青葉区,27-3,青葉区美しが丘一丁目21番地,たまプラーザ団地集会所入口横,35.5819687,139.5548171
神奈川県,横浜市青葉区,27-4,青葉区美しが丘二丁目22番地,美しが丘公園多目的広場入口横,35.58164135,139.5570404
神奈川県,横浜市青葉区,27-5,青葉区美しが丘一丁目20番地,たまプラーザ団地内ロータリー,35.58136709,139.5537849
神奈川県,横浜市青葉区,27-6,青葉区美しが丘四丁目18番地,山内公園,35.58073617,139.552278
神奈川県,横浜市青葉区,27-7,青葉区美しが丘一丁目７番地,東急百貨店たまプラーザ店  ノースプラザ前植込み,35.57797252,139.5576434
神奈川県,横浜市青葉区,28-1,青葉区美しが丘二丁目29番地,美しが丘小学校東側法面,35.58386545,139.557805
神奈川県,横浜市青葉区,28-2,青葉区美しが丘二丁目25番地,美しが丘遊水池西側植込み,35.58270876,139.5591644
神奈川県,横浜市青葉区,28-3,青葉区美しが丘二丁目25番地,美しが丘東小学校正門横,35.58202619,139.56028
神奈川県,横浜市青葉区,28-4,青葉区美しが丘一丁目１番地５,たまプラーザ駅前交番東側交差点南西側,35.57852868,139.559641
神奈川県,横浜市青葉区,28-5,青葉区美しが丘二丁目２番地４,美しが丘第五公園,35.57858131,139.5617129
神奈川県,横浜市青葉区,28-6,青葉区美しが丘二丁目22番地,美しが丘公園南側,35.5811931,139.5581155
神奈川県,横浜市青葉区,28-7,青葉区美しが丘二丁目22番地,美しが丘公園北西側,35.5826131,139.5574482
神奈川県,横浜市青葉区,28-8,青葉区美しが丘二丁目14番地７,ミニストップたまプラーザ店前歩道植込み,35.57950659,139.5605842
神奈川県,横浜市青葉区,29-1,青葉区美しが丘三丁目42番地,美しが丘第二公園,35.58712525,139.5495262
神奈川県,横浜市青葉区,29-2,青葉区美しが丘三丁目41番地,美しが丘中学校北門横,35.58815371,139.5508591
神奈川県,横浜市青葉区,29-3,青葉区美しが丘三丁目41番地,美しが丘中学校南門横,35.58701205,139.5507717
神奈川県,横浜市青葉区,29-4,青葉区美しが丘二丁目42番地,美しが丘第四公園,35.58699782,139.5531854
神奈川県,横浜市青葉区,29-5,青葉区美しが丘三丁目35番地,バス停「美しが丘三丁目」横植込み,35.58465102,139.5519812
神奈川県,横浜市青葉区,29-6,青葉区美しが丘三丁目22番地,バス停「平津三叉路」横植込み,35.58666166,139.5461248
神奈川県,横浜市青葉区,29-7,青葉区美しが丘三丁目68番地１,美しが丘第六公園,35.5869967,139.5451052
神奈川県,横浜市青葉区,30-1,青葉区元石川町5422番地,平川橋南側ガードレール,35.58288872,139.5440447
神奈川県,横浜市青葉区,30-2,青葉区美しが丘四丁目42番地,美しが丘第七公園南西側,35.58409467,139.5447089
神奈川県,横浜市青葉区,30-3,青葉区美しが丘四丁目42番地,美しが丘第七公園北西側,35.58468688,139.5449998
神奈川県,横浜市青葉区,30-4,青葉区美しが丘四丁目31番地,元石川小学校正門横,35.58291602,139.5493938
神奈川県,横浜市青葉区,30-5,青葉区美しが丘四丁目31番地,元石川小学校通用門横,35.58349847,139.5478617
神奈川県,横浜市青葉区,30-6,青葉区美しが丘四丁目18番地,山内公園西側,35.5801153,139.5514416
神奈川県,横浜市青葉区,30-7,青葉区元石川町7291番地,保木入口交差点西側フェンス,35.58674343,139.5423043
神奈川県,横浜市青葉区,30-8,青葉区美しが丘四丁目18番地,山内公園南側,35.57968719,139.5518755
神奈川県,横浜市青葉区,31-1,青葉区すすき野三丁目４番地３,すすき野中学校ガードレール,35.57704841,139.5312715
神奈川県,横浜市青葉区,31-2,青葉区荏子田二丁目24番地８,荏子田夕日公園,35.58018303,139.5325522
神奈川県,横浜市青葉区,31-3,青葉区すすき野三丁目４番地１,旧すすき野小学校西側ガードレール,35.57867913,139.5299791
神奈川県,横浜市青葉区,31-4,青葉区すすき野三丁目６番地17,すすき野団地Ｂ地区駐車場ガードレール,35.58226472,139.5294053
神奈川県,横浜市青葉区,31-5,青葉区すすき野三丁目６番地22,すすき野団地Ｃ地区駐車場ガードレール,35.5811109,139.5278789
神奈川県,横浜市青葉区,31-6,青葉区すすき野三丁目４番地１,旧すすき野小学校北側ガードレール,35.57974429,139.5305336
神奈川県,横浜市青葉区,31-7,青葉区荏子田二丁目17番地８,荏子田朝霧公園,35.58032237,139.5377832
神奈川県,横浜市青葉区,31-8,青葉区荏子田二丁目31番地,歩道ガードレール,35.58219974,139.5351918
神奈川県,横浜市青葉区,32-1,青葉区すすき野二丁目８番地６,すすき野二丁目北公園,35.57683906,139.5253603
神奈川県,横浜市青葉区,32-2,青葉区すすき野一丁目11番地１,嶮山公園,35.5772306,139.5276257
神奈川県,横浜市青葉区,32-3,青葉区すすき野一丁目２番地１,すすき野公園,35.57320751,139.5307227
神奈川県,横浜市青葉区,32-4,青葉区すすき野一丁目６番地,嶮山小学校校門横,35.57524114,139.5299963
神奈川県,横浜市青葉区,32-5,青葉区すすき野一丁目１番地８,すすき野第二公園,35.57388905,139.5320897
神奈川県,横浜市青葉区,32-6,青葉区すすき野二丁目３番地,すすき野二丁目南公園,35.57294793,139.5278872
神奈川県,横浜市青葉区,32-7,青葉区もみの木台４番地１,もみの木公園,35.57146336,139.5258544
神奈川県,横浜市青葉区,32-8,青葉区すすき野二丁目５番地９,すすき野二丁目公園,35.57558539,139.5273567
神奈川県,横浜市青葉区,33-1,青葉区桂台二丁目19番地１,桂台二丁目第四公園,35.55036195,139.5011811
神奈川県,横浜市青葉区,33-2,青葉区桂台二丁目34番地,桂台二丁目公園,35.55257718,139.5012398
神奈川県,横浜市青葉区,33-3,青葉区桂台一丁目11番地18,バス停「青葉台小学校入口」向かい歩道植込み,35.55017397,139.5076257
神奈川県,横浜市青葉区,33-4,青葉区桂台一丁目14番地,桂台グラウンド,35.54943863,139.5042492
神奈川県,横浜市青葉区,33-5,青葉区桂台二丁目37番地12,桂台二丁目第三公園,35.55351612,139.4990164
神奈川県,横浜市青葉区,33-6,青葉区桂台一丁目７番地,桂台公園北東側,35.5498812,139.5056703
神奈川県,横浜市青葉区,33-7,青葉区桂台二丁目36番地,恩田小学校校門横,35.55273619,139.4997632
神奈川県,横浜市青葉区,33-8,青葉区桂台一丁目７番地,桂台公園南西側,35.54878444,139.5047599
神奈川県,横浜市青葉区,34-1,青葉区美しが丘西二丁目16番地１,美しが丘西保野公園,35.58801562,139.5294214
神奈川県,横浜市青葉区,34-2,青葉区美しが丘西三丁目34番地,楓公園,35.58431466,139.5312988
神奈川県,横浜市青葉区,34-3,青葉区美しが丘西三丁目65番地１,保木公園,35.58647673,139.5360348
神奈川県,横浜市青葉区,34-4,青葉区美しが丘西三丁目60番地15,美しが丘西地区センター植込み,35.58530137,139.5353539
神奈川県,横浜市青葉区,34-5,青葉区美しが丘西二丁目８番地１,美しが丘西薬師台公園,35.58966685,139.5336192
神奈川県,横浜市青葉区,34-6,青葉区美しが丘西二丁目28番地１,美しが丘西早渕台公園,35.5904748,139.5281157
神奈川県,横浜市青葉区,34-7,青葉区美しが丘西一丁目５番地８,美しが丘西保島公園,35.58868264,139.5384418
神奈川県,横浜市青葉区,34-8,青葉区美しが丘西一丁目16番地１,美しが丘西追分公園,35.5896356,139.5406657
神奈川県,横浜市青葉区,35-1,青葉区荏田西四丁目８番地１,泉田向公園,35.54651673,139.5500892
神奈川県,横浜市青葉区,35-2,青葉区荏田西三丁目14番地１,荏田西グラウンド,35.55097739,139.5496654
神奈川県,横浜市青葉区,35-3,青葉区荏田西四丁目５番地１,荏田西小学校校門横植込み,35.54794058,139.5490631
神奈川県,横浜市青葉区,35-4,青葉区市ケ尾町531番地１,市ケ尾中学校東側フェンス,35.5453154,139.5471275
神奈川県,横浜市青葉区,35-5,青葉区荏田西三丁目10番地27,泉公園,35.54821896,139.5479694
神奈川県,横浜市青葉区,35-6,青葉区荏田西二丁目16番地１,青葉スポーツプラザ北側,35.5545077,139.5532755
神奈川県,横浜市青葉区,35-7,青葉区荏田西二丁目８番地１,荏田猿田公園,35.55582997,139.5513896
神奈川県,横浜市青葉区,35-8,青葉区荏田西二丁目３番地３,荏田西二丁目公園,35.55731815,139.5530911
神奈川県,横浜市青葉区,36-1,青葉区新石川三丁目11番地１,申田公園,35.5764004,139.5628581
神奈川県,横浜市青葉区,36-2,青葉区新石川四丁目17番地１,高津公園,35.57388431,139.5664039
神奈川県,横浜市青葉区,36-3,青葉区新石川二丁目12番地１,新石川公園東側,35.57308276,139.5580682
神奈川県,横浜市青葉区,36-4,青葉区新石川三丁目１番地,たまプラーザ駅南口バス停前ガードパイプ,35.57664084,139.5584736
神奈川県,横浜市青葉区,36-5,青葉区新石川二丁目25番地,新石川日向公園,35.5711371,139.5589616
神奈川県,横浜市青葉区,36-6,青葉区新石川三丁目12番地１,新石川小学校校門横植込み,35.57652028,139.5615931
神奈川県,横浜市青葉区,36-7,青葉区新石川三丁目17番地,たまプラーザもみじ保育園前ガードパイプ,35.57550294,139.5605723
神奈川県,横浜市青葉区,36-8,青葉区新石川三丁目12番地１,新石川小学校北側フェンス,35.57708349,139.5622419
神奈川県,横浜市青葉区,37-1,青葉区あざみ野南三丁目１番地１,赤田西公園,35.56134137,139.5502257
神奈川県,横浜市青葉区,37-2,青葉区あざみ野三丁目２番地２,あざみ野三丁目東公園,35.57026443,139.5425269
神奈川県,横浜市青葉区,37-3,青葉区あざみ野三丁目15番地１,あざみ野西公園,35.56806491,139.5410692
神奈川県,横浜市青葉区,37-4,青葉区あざみ野三丁目４番地,あざみ野三丁目公園,35.5704748,139.5399112
神奈川県,横浜市青葉区,37-5,青葉区あざみ野三丁目29番地３,あざみ野第二小学校東側入口横,35.56446846,139.5424253
神奈川県,横浜市青葉区,37-6,青葉区あざみ野三丁目29番地３,あざみ野第二小学校西側入口横,35.56382222,139.5412937
神奈川県,横浜市青葉区,37-7,青葉区あざみ野南二丁目12番地１,あざみ野南宇多り公園,35.56433383,139.5513609
神奈川県,横浜市青葉区,37-8,青葉区あざみ野南三丁目12番地20,あざみ野南鍛冶谷公園,35.56418732,139.5469576
神奈川県,横浜市青葉区,38-1,青葉区荏子田三丁目８番地,荏子田小学校校門横フェンス,35.57454348,139.5356356
神奈川県,横浜市青葉区,38-2,青葉区荏子田三丁目14番地,荏子田グラウンド,35.57494596,139.5337225
神奈川県,横浜市青葉区,38-3,青葉区大場町584番地15,大場子ノ神公園,35.56906234,139.5352135
神奈川県,横浜市青葉区,38-4,青葉区黒須田13番地,バス停「黒須田小学校入口」後フェンス,35.56667445,139.5315948
神奈川県,横浜市青葉区,38-5,青葉区荏子田三丁目８番地,荏子田小学校正門横,35.57510717,139.5357123
神奈川県,横浜市青葉区,38-6,青葉区黒須田34番地３,黒須田前田公園,35.56787272,139.5318418
神奈川県,横浜市青葉区,38-7,青葉区黒須田10番地１,黒須田坂下公園西側,35.56489566,139.5303675
神奈川県,横浜市青葉区,38-8,青葉区黒須田10番地１,黒須田坂下公園東側,35.56524792,139.5309788
神奈川県,横浜市青葉区,39-1,青葉区奈良一丁目４番地１,奈良山公園北側,35.55699937,139.4854772
神奈川県,横浜市青葉区,39-2,青葉区奈良三丁目４番地,奈良三丁目市ノ久保公園,35.55319041,139.4855363
神奈川県,横浜市青葉区,39-3,青葉区奈良二丁目29番地,奈良の丘小学校北西側植込み,35.5516461,139.4860909
神奈川県,横浜市青葉区,39-4,青葉区奈良二丁目29番地,奈良の丘小学校南西側ガードレール,35.55072946,139.48633
神奈川県,横浜市青葉区,39-5,青葉区奈良二丁目14番地１,奈良二丁目長谷公園,35.55104884,139.4888758
神奈川県,横浜市青葉区,39-6,青葉区奈良一丁目４番地１,奈良山公園南西側,35.55478785,139.4854673
神奈川県,横浜市青葉区,39-7,青葉区奈良三丁目19番地１,奈良三丁目熊ヶ谷公園,35.5490191,139.4839011
神奈川県,横浜市青葉区,39-8,青葉区奈良一丁目２番地１,奈良センター中央橋南東側植込み,35.55680057,139.4836816
神奈川県,横浜市青葉区,40-1,青葉区奈良町2415番地210,奈良町第七公園,35.56896363,139.4776352
神奈川県,横浜市青葉区,40-2,青葉区奈良町2423番地189,奈良町第九公園,35.57080537,139.4767148
神奈川県,横浜市青葉区,40-3,青葉区奈良町882番地,こどもの国橋南側,35.55925916,139.4872395
神奈川県,横浜市青葉区,40-4,青葉区奈良町2423番地236,奈良町第八公園,35.56868159,139.4754773
神奈川県,横浜市青葉区,40-5,青葉区奈良町2423番地197,奈良町第六公園,35.56752862,139.478541
神奈川県,横浜市青葉区,40-6,青葉区奈良町1843番地11,奈良地区センター入口横ガードパイプ,35.56308411,139.4828256
神奈川県,横浜市青葉区,40-7,青葉区奈良五丁目15番地,奈良五丁目駒狩公園,35.56005812,139.4815051
神奈川県,横浜市青葉区,40-8,青葉区奈良四丁目１番地１,奈良センター西橋北西側植込み,35.55741303,139.4830662
神奈川県,横浜市青葉区,41-1,青葉区あかね台一丁目14番地２,あかね台鍛冶谷公園,35.54453609,139.4874097
神奈川県,横浜市青葉区,41-2,青葉区恩田町2057番地３,バス停「徳恩寺前」後フェンス,35.54634515,139.4918599
神奈川県,横浜市青葉区,41-3,青葉区恩田町24番地,バス停「堀の内」後フェンス,35.53931748,139.491066
神奈川県,横浜市青葉区,41-4,青葉区あかね台二丁目２番地,あかね台堀の内公園,35.53989893,139.4872598
神奈川県,横浜市青葉区,41-5,青葉区あかね台二丁目20番地,あかね台西が谷公園,35.54152309,139.4834168
神奈川県,横浜市青葉区,41-6,青葉区あかね台二丁目７番地,あかね台第三公園,35.54061239,139.4854207
神奈川県,横浜市青葉区,41-7,青葉区あかね台一丁目25番地,あかね台熊の谷公園内植込み,35.54163068,139.487681
神奈川県,横浜市青葉区,41-8,青葉区あかね台一丁目９番地,恩田駅西側植込み,35.54563496,139.4919366
神奈川県,横浜市青葉区,42-1,青葉区桜台８番地１,桜台第二公園,35.55136782,139.5179402
神奈川県,横浜市青葉区,42-2,青葉区桜台13番地,桜台雨水調整池前ガードレール,35.55118816,139.5162467
神奈川県,横浜市青葉区,42-3,青葉区たちばな台一丁目12番地７,たちばな台第二公園,35.5581985,139.5144355
神奈川県,横浜市青葉区,42-4,青葉区たちばな台一丁目４番地２,たちばな台公園,35.55418944,139.5166573
神奈川県,横浜市青葉区,42-5,青葉区たちばな台一丁目２番地３,たちばな台２丁目交差点南東側ガードパイプ,35.55434425,139.5140497
神奈川県,横浜市青葉区,42-6,青葉区たちばな台一丁目11番地１,みたけ台小学校下交差点北東側ガードパイプ,35.55687579,139.5133825
神奈川県,横浜市青葉区,42-7,青葉区みたけ台18番地,みたけ台小学校東門前ガードパイプ,35.55636345,139.5178097
神奈川県,横浜市青葉区,42-8,青葉区みたけ台18番地,みたけ台小学校南門脇ガードレール,35.55580405,139.5174269
