prefecture,city,number,address,name,lat,long
宮城県,丸森町,丸森第１投票区,丸森町字田町北20-1,個人宅地（塀）,37.9190712,140.7635723
宮城県,丸森町,丸森第１投票区,丸森町字町西41,旧オノワ商店向側,37.8650246,140.8289557
宮城県,丸森町,丸森第１投票区,丸森町字山崎前1-1,個人宅地前,37.9104103,140.7623332
宮城県,丸森町,丸森第１投票区,丸森町字除27-1,ＪＡみやぎ仙南丸森地区本部入口,37.9140638,140.7657881
宮城県,丸森町,丸森第１投票区,丸森町字田町南10-1,旧町営鳥屋住宅西側,37.9157834,140.7655145
宮城県,丸森町,丸森第１投票区,丸森町字花田地内,旧ツルハドラッグ西側（道路敷）,37.9097861,140.7650444
宮城県,丸森町,丸森第１投票区,丸森町字竹谷64-3,個人宅地前,37.9055171,140.7657181
宮城県,丸森町,丸森第１投票区,丸森町字城東6-1,小野建業社資材置場,37.9098303,140.782348
宮城県,丸森町,丸森第１投票区,丸森町字鳥屋120,丸森町役場西北角,37.9117098,140.7669419
宮城県,丸森町,丸森第２投票区,丸森町字銀杏73-1,船山建設北側,37.8972091,140.7693056
宮城県,丸森町,丸森第２投票区,丸森町字和田西24,個人宅地南,37.8889624,140.7697143
宮城県,丸森町,丸森第２投票区,丸森町字石倉前地内,上滝十文字地区花壇（道路敷）,37.8818123,140.7774158
宮城県,丸森町,丸森第２投票区,丸森町字天王2-2,八雲神社下ポンプ置場横（道路敷）,37.8939758,140.7773582
宮城県,丸森町,丸森第３投票区,丸森町字川田島地内,県道と町道羽出庭線の交差点（道路敷）,37.9083825,140.7228512
宮城県,丸森町,丸森第３投票区,丸森町字欠入上21,欠入コミュニティセンター前（フェンス）,37.884736,140.7111184
宮城県,丸森町,丸森第４投票区,丸森町字深田4-1,羽出庭ポンプ置場前（道路敷）,37.9653356,140.6685865
宮城県,丸森町,丸森第４投票区,丸森町字大巻北22,川前防火水槽（フェンス）,37.9115173,140.7654231
宮城県,丸森町,金山投票区,丸森町金山字下片山171-3,山正タクシー営業所北西側（道路敷）,37.9033548,140.7889054
宮城県,丸森町,金山投票区,丸森町金山字西新田63-3,旧金山駐在所国道向側,37.9042503,140.7966666
宮城県,丸森町,金山投票区,丸森町金山字下前川原1,旧金山小学校町道側（フェンス）,37.900972,140.7984148
宮城県,丸森町,金山投票区,丸森町金山字町83,旧ＪＡ金山支店前国道沿（花壇）,37.8981766,140.7994751
宮城県,丸森町,金山投票区,金山字南新田272-2,長根小斎線と雉子尾長根線の交差点(道路敷),37.90173954,140.8005514
宮城県,丸森町,金山投票区,丸森町金山字角の内12,金山一区ポンプ置場横（道路敷）,37.8863874,140.7990121
宮城県,丸森町,筆甫第１投票区,丸森町筆甫字宮脇64,裏区ポンプ置場隣,37.8373349,140.7308456
宮城県,丸森町,筆甫第１投票区,丸森町筆甫字平舘地内,筆甫まちづくりセンター入口（道路敷）,37.8315303,140.7276193
宮城県,丸森町,筆甫第１投票区,丸森町筆甫字中井1-4,個人宅地前,37.8261011,140.7286044
宮城県,丸森町,筆甫第１投票区,丸森町筆甫字肱曲12-3,個人宅地（自宅下の物置前）,37.8261379,140.7202507
宮城県,丸森町,筆甫第１投票区,丸森町筆甫字鷲の平上5,鷲の平部落集会所前,37.8412914,140.7701258
宮城県,丸森町,筆甫第１投票区,丸森町筆甫字北山南地内,北山ポンプ置場向側（道路敷）,37.8529108,140.7230122
宮城県,丸森町,筆甫第１投票区,丸森町筆甫字川下一27-1,旧川下集乳所（個人宅の下）,37.851115,140.749924
宮城県,丸森町,筆甫第２投票区,丸森町筆甫字川平一69-2,川平天王寺バス停横（道路敷）,37.8013281,140.7384608
宮城県,丸森町,筆甫第２投票区,丸森町筆甫字下南山2-5,下南山荻平集会所裏,37.7797234,140.8007657
宮城県,丸森町,大内第１投票区,丸森町大内字青葉南16-2,青葉コミュニティセンター前（ブロック塀）,37.8337523,140.8342419
宮城県,丸森町,大内第１投票区,丸森町大内字佐野西上106,佐野ポンプ置場前,37.8483972,140.8260626
宮城県,丸森町,大内第２投票区,丸森町大内字神明地内,中平橋残地（道路敷）,37.8816939,140.819381
宮城県,丸森町,大内第２投票区,丸森町大内字沼端上地内,西向ホース乾燥塔東（道路敷）,37.8750709,140.8147976
宮城県,丸森町,大内第２投票区,丸森町大内字西畑81-1,旧大内診療所跡地,37.8650417,140.8277178
宮城県,丸森町,大内第２投票区,丸森町大内字西畑15-2,旧大内農協隣り,37.8684067,140.8252901
宮城県,丸森町,大内第２投票区,丸森町大内字町西7,大内活性化センター駐車場脇,37.8669607,140.826177
宮城県,丸森町,大内第２投票区,丸森町大内字黒佐野103,旧黒佐野分校前石碑横（道路敷）,37.8373656,140.8111044
宮城県,丸森町,大内第２投票区,丸森町大内字東福田地内,農免道路東福田交差点脇（道路敷）,37.8573814,140.8001093
宮城県,丸森町,大内第２投票区,丸森町大内字南平地内,大内山村広場入口（道路敷）,37.8562241,140.817232
宮城県,丸森町,大内第３投票区,丸森町大内字下梅ケ作地内,伊手コミュニティセンター下貯水槽前,37.8989125,140.8278449
宮城県,丸森町,大内第３投票区,丸森町大内字後藤61-1,個人宅地（西側）,37.8936647,140.8296168
宮城県,丸森町,大内第３投票区,丸森町大内字七夕西25-1,小野ガソリンスタンド向側（駐車場）,37.8902002,140.8118979
宮城県,丸森町,小斎投票区,丸森町小斎字郷ノ目11-1,商店隣（梅畑の側）,37.907118,140.8314075
宮城県,丸森町,小斎投票区,丸森町小斎字古舘95,旧小斎小学校体育館前（道路敷）,37.9182968,140.8231899
宮城県,丸森町,小斎投票区,丸森町小斎字山崎51,小斎まちづくりセンター南側,37.9188285,140.8217097
宮城県,丸森町,小斎投票区,丸森町小斎字北向60-2,六角バス停前（畑）,37.9221393,140.8235207
宮城県,丸森町,小斎投票区,丸森町小斎字北新96-1,北新集会所横,37.9137636,140.8224074
宮城県,丸森町,舘矢間投票区,丸森町舘矢間舘山字坪石地内,丸森橋左岸,37.9224321,140.765473
宮城県,丸森町,舘矢間投票区,丸森町字大舘一丁目103,佐々木ストアー向側,37.9292617,140.7626636
宮城県,丸森町,舘矢間投票区,丸森町舘矢間舘山字玉川29-1,舘矢間小学校北側,37.9242202,140.7724548
宮城県,丸森町,舘矢間投票区,丸森町舘矢間館山字坪石32,旧舘矢間土地改良区前,37.9235945,140.767823
宮城県,丸森町,舘矢間投票区,丸森町舘矢間舘山字西原18,個人宅地前,37.9227684,140.7795864
宮城県,丸森町,舘矢間投票区,丸森町木沼字堀内166,北丸森ふれあい広場前,37.9418971,140.7723629
宮城県,丸森町,舘矢間投票区,丸森町舘矢間館山字塚合61,セブンイレブン丸森舘矢間店向側,37.9228783,140.7683683
宮城県,丸森町,舘矢間投票区,丸森町舘矢間松掛字新薬師堂195,個人宅地前,37.9419977,140.7618661
宮城県,丸森町,舘矢間投票区,丸森町舘矢間山田字西畑94,個人宅地前,37.9317209,140.7306913
宮城県,丸森町,大張投票区,丸森町大張川張字沢尻地内,大張分団第３班ポンプ置場西側（道路敷）,37.9380984,140.7026244
宮城県,丸森町,大張投票区,丸森町大張大蔵字明神15-3,大張分団第２班ポンプ置場隣,37.9569228,140.6903895
宮城県,丸森町,大張投票区,丸森町大張大蔵字川前39-3,大張まちづくりセンター向側,37.9371426,140.6764607
宮城県,丸森町,大張投票区,丸森町大張川張字久保15-3,大張第６区集会所隣（道路敷）,37.9269225,140.6844821
宮城県,丸森町,大張投票区,丸森町大張川張字宿13-1,大耕農村広場（旧丸森西中学校入口付近）,37.9346645,140.6661509
宮城県,丸森町,大張投票区,丸森町大張大蔵字台58-1,旧伊藤商店南側,37.9370116,140.6734272
宮城県,丸森町,耕野　投票区,丸森町耕野字登花東5-3,国道349号旧耕野小学校方面入口,37.9103445,140.6618164
宮城県,丸森町,耕野　投票区,丸森町耕野字沼65-2,耕野ふるさと交流センター,37.9144677,140.667232
宮城県,丸森町,耕野　投票区,丸森町耕野字大釜西1,個人宅地（ブロック塀）,37.9140791,140.6487157
宮城県,丸森町,耕野　投票区,丸森町耕野字鍋堀1-4,旧ＪＡ耕野支店前,37.921698,140.6444116
宮城県,丸森町,耕野　投票区,丸森町耕野字新田23,耕野分団第４班ホース乾燥塔脇（道路敷）,37.9243439,140.6526334
宮城県,丸森町,耕野　投票区,丸森町耕野字宮ノ田5-1,大黒堂停留所横,37.938215,140.6553266