prefecture,city,number,address,name,lat,long,note
宮城県,仙台市,1,太白区長町南一丁目6-10,太白障害者福祉ｾﾝﾀｰ西側（植栽）,38.2241825,140.8803644,
宮城県,仙台市,2,太白区長町南三丁目5地内,長町南三丁目北公園東側,38.223164,140.875748,緯度経度は怪しい
宮城県,仙台市,3,太白区長町南四丁目3地内,地底の森ﾐｭｰｼﾞｱﾑ駐車場（植栽）,38.2229,140.872757,緯度経度は怪しい
宮城県,仙台市,4,太白区長町七丁目22-20,仙台南県税事務所,38.227627,140.874054,緯度経度は怪しい
宮城県,仙台市,5,太白区鹿野三丁目7地内,鹿野三丁目公園西側,38.225712,140.869965,緯度経度は怪しい
宮城県,仙台市,6,太白区泉崎二丁目9地内,泉崎二丁目公園北西側,38.2226717,140.8665459,
宮城県,仙台市,7,太白区長町七丁目23-1,長町南小学校西側,38.226013,140.874359,緯度経度は怪しい
宮城県,仙台市,8,太白区長町南三丁目1地内,地下鉄長町南駅駐輪場（植栽）,38.22461,140.8766,
宮城県,仙台市,9,太白区長町南四丁目2地内,長町南四丁目北公園西側,38.223553,140.871841,緯度経度は怪しい
宮城県,仙台市,10,太白区大野田三丁目12地内,土手前公園,38.209637,140.879974,緯度経度は怪しい
宮城県,仙台市,11,太白区大野田五丁目23地内,大野田ｺﾐｭﾆﾃｨ･ｾﾝﾀｰ,38.216759,140.875198,緯度経度は怪しい
宮城県,仙台市,12,太白区長町南四丁目21地内,長町南四丁目南公園北側,38.219837,140.873489,緯度経度は怪しい
宮城県,仙台市,13,太白区富沢四丁目2地内,地下鉄富沢駅西側（植栽）,38.214836,140.869873,緯度経度は怪しい
宮城県,仙台市,14,太白区大野田四丁目27地内,大野田観音堂公園北側,38.212322,140.875092,緯度経度は怪しい
宮城県,仙台市,15,太白区大野田五丁目27-2,大野田小学校東側,38.2174314,140.8750693,
宮城県,仙台市,16,太白区大野田一丁目4地内,歩道ﾌｪﾝｽ（館腰線、袋東公園西側）,38.217232,140.878616,緯度経度は怪しい
宮城県,仙台市,17,太白区太子堂4地内,太子堂公園,38.215839,140.880753,緯度経度は怪しい
宮城県,仙台市,18,太白区土手内一丁目7地内,土手内一丁目東公園,38.227539,140.860794,緯度経度は怪しい
宮城県,仙台市,19,太白区鹿野二丁目9地内,歩道ﾌｪﾝｽ(鹿野小学校北側),38.228783,140.870483,緯度経度は怪しい
宮城県,仙台市,20,太白区二ツ沢10地内,東北工業大学長町ｷｬﾝﾊﾟｽ西側(長岫橋と大学入口の間のﾌｪﾝｽ),38.236389,140.871231,緯度経度は怪しい
宮城県,仙台市,21,太白区緑ケ丘三丁目38地内,二ツ沢公園,38.235207,140.86705,緯度経度は怪しい
宮城県,仙台市,22,太白区緑ケ丘一丁目9地内,緑ケ丘2号緑地,38.230633,140.868195,緯度経度は怪しい
宮城県,仙台市,23,太白区鹿野本町6地内,水路ﾌｪﾝｽ(鹿野橋ﾊﾞｽ停付近),38.232262,140.872955,緯度経度は怪しい
宮城県,仙台市,24,太白区鹿野一丁目8-1,長町中学校南東側,38.2299851,140.8736364,
宮城県,仙台市,25,太白区緑ケ丘三丁目5地内,緑ケ丘4号緑地,38.232925,140.866821,緯度経度は怪しい
宮城県,仙台市,26,太白区桜木町13地内,桜木町公園南側,38.244446,140.851913,緯度経度は怪しい
宮城県,仙台市,27,太白区八木山本町一丁目18地内,八木山本町一丁目公園,38.242592,140.847626,緯度経度は怪しい
宮城県,仙台市,28,太白区八木山本町一丁目40地内,水路ﾌｪﾝｽ（八木山本町二丁目ﾊﾞｽ停付近）,38.239052,140.848892,緯度経度は怪しい
宮城県,仙台市,29,太白区八木山本町一丁目40-1,八木山小学校西側,38.2387196,140.8485827,
宮城県,仙台市,30,太白区八木山東二丁目27-1,八木山中学校南東側（法面）,38.2368132,140.8460327,
宮城県,仙台市,31,太白区八木山東二丁目27-1,八木山中学校北西側（ﾌｪﾝｽ）,38.2368132,140.8460327,
宮城県,仙台市,32,太白区八木山本町一丁目43地内,歩道ﾌｪﾝｽ（地下鉄八木山動物公園駅西出口側）,38.2434348,140.8440172,
宮城県,仙台市,33,太白区八木山本町二丁目38地内,松風公園南側,38.2389042,140.8408654,
宮城県,仙台市,34,太白区青山二丁目27地内,青山二丁目公園,38.237988,140.861557,緯度経度は怪しい
宮城県,仙台市,35,太白区青山一丁目10-28,青山保育所南側,38.2406604,140.8584145,
宮城県,仙台市,36,太白区桜木町39地内,市道敷,38.242828,140.855606,緯度経度は怪しい
宮城県,仙台市,37,太白区八木山弥生町4地内,歩道ﾌｪﾝｽ（仙台城南高校入口付近）,38.243996,140.859283,緯度経度は怪しい
宮城県,仙台市,38,太白区青山二丁目40地内,市道敷（水路ｶﾞｰﾄﾞﾚｰﾙ）,38.23785,140.863556,緯度経度は怪しい
宮城県,仙台市,39,太白区青山二丁目45地内,青山二丁目3号公園南側,38.237373,140.862595,緯度経度は怪しい
宮城県,仙台市,40,太白区青山一丁目32地内,水路ﾌｪﾝｽ（市道幅員の広い箇所）,38.241348,140.858948,緯度経度は怪しい
宮城県,仙台市,41,太白区八木山香澄町25-20,太白消防署八木山出張所（植栽）,38.2459583,140.8571609,
宮城県,仙台市,42,太白区向山三丁目19-1,向山小学校東側(向山児童館脇植栽),38.243791,140.8669661,
宮城県,仙台市,43,太白区萩ケ丘28地内,萩ケ丘公園（植栽）,38.239567,140.867523,緯度経度は怪しい
宮城県,仙台市,44,太白区八木山弥生町17地内,大泉山保存緑地北側（市道沿いﾌｪﾝｽ）,38.240948,140.862198,緯度経度は怪しい
宮城県,仙台市,45,太白区長嶺15地内,市道敷（萩ケ丘ﾊﾞｽ停付近ｶﾞｰﾄﾞﾚｰﾙ）,38.23811,140.86908,緯度経度は怪しい
宮城県,仙台市,46,太白区八木山香澄町12地内,仙台城南高等学校ｸﾞﾗｳﾝﾄﾞ（南西側法面）,38.2453717,140.8622695,
宮城県,仙台市,47,太白区萩ケ丘9-1,愛宕中学校(向山ｺﾐｭﾆﾃｨ・ｾﾝﾀｰ西側法面),38.2414146,140.871077,
宮城県,仙台市,48,太白区向山四丁目28地内,民地（向山四丁目ﾊﾞｽ停付近）,38.243317,140.874969,緯度経度は怪しい
宮城県,仙台市,49,太白区向山四丁目26-34,学校法人三島学園　ますみ保育園・ますみ幼稚園(ﾌｪﾝｽ）,38.2429442,140.8799277,
宮城県,仙台市,50,太白区向山三丁目1地内,歩道ﾌｪﾝｽ(東北電子産業向),38.245213,140.871262,緯度経度は怪しい
宮城県,仙台市,51,太白区向山四丁目27地内,向山公園,38.243004,140.876297,緯度経度は怪しい
宮城県,仙台市,52,太白区越路17地内,歩道ﾌｪﾝｽ(越路ﾊﾞｽ停近く),38.243401,140.88002,緯度経度は怪しい
宮城県,仙台市,53,太白区茂ケ崎二丁目1-1,野草園（正門右側ﾌｪﾝｽ）,38.2387997,140.8739392,
宮城県,仙台市,54,太白区向山一丁目8地内,向山一丁目公園南側,38.249153,140.864954,
宮城県,仙台市,55,太白区門前町4地内,歩道ﾌｪﾝｽ（大年寺前ﾊﾞｽ停付近）,38.23634,140.879105,緯度経度は怪しい
宮城県,仙台市,56,太白区長町五丁目8-18,交通局長町営業所北側,38.228996,140.882111,緯度経度は怪しい
宮城県,仙台市,57,太白区長町四丁目6-1,長町小学校南側,38.23156,140.880753,緯度経度は怪しい
宮城県,仙台市,58,太白区長町二丁目4地内,長町二丁目公園南側,38.233906,140.884064,緯度経度は怪しい
宮城県,仙台市,59,太白区長町四丁目6-1,長町小学校東側,38.23156,140.880753,緯度経度は怪しい
宮城県,仙台市,60,太白区根岸町15地内,歩道ﾌｪﾝｽ（県第二総合運動場西側）,38.237328,140.885437,緯度経度は怪しい
宮城県,仙台市,61,太白区鹿野一丁目2地内,福寿さくら公園,38.23203720000001,140.8766669,
宮城県,仙台市,62,太白区長町五丁目1地内,長町駅西口広場公園（植栽）,38.227646,140.885315,緯度経度は怪しい
宮城県,仙台市,63,太白区長町二丁目1地内,水路ﾌｪﾝｽ(仙台南高校前ﾊﾞｽ停付近),38.235741,140.884033,緯度経度は怪しい
宮城県,仙台市,64,太白区あすと長町四丁目4地内,あすと長町中央公園西側（植栽）,38.2226257,140.8872267,
宮城県,仙台市,65,太白区あすと長町一丁目6地内,JR長町駅東口広場（駐輪場脇植栽）,38.226936,140.886566,緯度経度は怪しい
宮城県,仙台市,66,太白区あすと長町一丁目1-1,仙台市立病院東側（植栽）,38.2319186,140.8883235,
宮城県,仙台市,67,太白区郡山三丁目6地内,〆木公園北側,38.224449,140.894485,緯度経度は怪しい
宮城県,仙台市,68,太白区八本松一丁目16-1,八本松小学校東側,38.2259791,140.8978568,
宮城県,仙台市,69,太白区郡山三丁目27-10,資材倉庫(旧環境事業所西側ﾌｪﾝｽ),38.2216038,140.8954029,
宮城県,仙台市,70,太白区八本松二丁目4-20,八本松市民ｾﾝﾀｰ（ﾌｪﾝｽ）,38.22891740000001,140.8925718,
宮城県,仙台市,71,太白区八本松二丁目5地内,八本松公園（児童館側入口西側植栽),38.228741,140.8927,緯度経度は怪しい
宮城県,仙台市,72,太白区郡山二丁目2地内,長町副都心1号公園北側,38.223625,140.88855,緯度経度は怪しい
宮城県,仙台市,73,太白区東郡山一丁目10-1,宮城自動車学校南側（ﾌｪﾝｽ),38.22261450000001,140.9030415,
宮城県,仙台市,74,太白区東郡山二丁目17地内,飯田公園,38.221546,140.904892,緯度経度は怪しい
宮城県,仙台市,75,太白区郡山字行新田1-1,郡山小学校西側,38.216309,140.899765,緯度経度は怪しい
宮城県,仙台市,76,太白区東郡山二丁目25地内,郡山源兵衛東公園,38.218838,140.906952,緯度経度は怪しい
宮城県,仙台市,77,太白区郡山字谷地田西3地内,谷地田西公園,38.214203,140.896011,緯度経度は怪しい
宮城県,仙台市,78,太白区郡山字新橋北8地内,郡山新橋北公園,38.217266,140.8965,緯度経度は怪しい
宮城県,仙台市,79,太白区郡山字深町2地内,郡山老人福祉ｾﾝﾀｰ前（ｶﾞｰﾄﾞﾊﾟｲﾌﾟ）,38.227097,140.890472,緯度経度は怪しい
宮城県,仙台市,80,太白区郡山五丁目10-1,郡山中学校南側,38.2199684,140.8933617,
宮城県,仙台市,81,太白区郡山六丁目5-1,東長町小学校北側,38.2189361,140.8892438,
宮城県,仙台市,82,太白区郡山八丁目7地内,天王前公園南側,38.212849,140.890427,緯度経度は怪しい
宮城県,仙台市,83,太白区あすと長町三丁目12地内,ＪＲ太子堂駅東口広場（駐輪場脇植栽）,38.217461,140.884247,緯度経度は怪しい
宮城県,仙台市,84,太白区東大野田地内,市道敷（仙台南部道路北側）,38.208691,140.887833,緯度経度は怪しい
宮城県,仙台市,85,太白区東大野田10地内,東大野田西公園西側,38.210251,140.886688,緯度経度は怪しい
宮城県,仙台市,86,太白区東大野田2地内,東大野田公園（東大野田ﾊﾞｽ停付近）,38.210571,140.884094,緯度経度は怪しい
宮城県,仙台市,87,太白区郡山六丁目6-6,郡山市営住宅西側（植栽）,38.2198115,140.8873239,
宮城県,仙台市,88,太白区四郎丸字渡道48地内,市道ｶﾞｰﾄﾞﾌｪﾝｽ（四郎丸小学校前ﾊﾞｽ停脇）,38.190109,140.909256,緯度経度は怪しい
宮城県,仙台市,89,太白区四郎丸字吹上77地内,吹上1号公園東側,38.193237,140.914352,緯度経度は怪しい
宮城県,仙台市,90,太白区四郎丸字吹上6-3,四郎丸小学校北側（ｶﾞｰﾄﾞﾊﾟｲﾌﾟ）,38.193043,140.91095,緯度経度は怪しい
宮城県,仙台市,91,太白区四郎丸字吹上51,東中田市民ｾﾝﾀｰ,38.193237,140.914352,緯度経度は怪しい
宮城県,仙台市,92,太白区袋原五丁目1-10,袋原保育所東側,38.1978181,140.9151253,
宮城県,仙台市,93,太白区袋原六丁目59地内,小平公園北側,38.196114,140.911789,緯度経度は怪しい
宮城県,仙台市,94,太白区袋原五丁目17-33,向日葵ﾌｧﾐﾘｰ正面西側（植栽）,38.1956585,140.9178742,
宮城県,仙台市,95,太白区四郎丸字昭和裏26地内,四郎丸昭和裏3号公園,38.189423,140.913589,緯度経度は怪しい
宮城県,仙台市,96,太白区四郎丸字大宮26-1,四郎丸市営住宅1号棟南側（植栽）,38.193233,140.916687,緯度経度は怪しい
宮城県,仙台市,97,太白区四郎丸字落合23-1,四郎丸東市営住宅1号棟南側（植栽）,38.196304,140.920135,緯度経度は怪しい
宮城県,仙台市,98,太白区四郎丸字昭和北1,東四郎丸小学校西側,38.193542,140.924255,緯度経度は怪しい
宮城県,仙台市,99,太白区四郎丸字昭和中78地内,昭和中公園,38.190369,140.922501,緯度経度は怪しい
宮城県,仙台市,100,太白区四郎丸字落合23-1,四郎丸東市営住宅3号棟東側（植栽）,38.196304,140.920135,緯度経度は怪しい
宮城県,仙台市,101,太白区四郎丸字戸ノ内93地内,四郎丸戸ノ内2号公園,38.188786,140.917023,緯度経度は怪しい
宮城県,仙台市,102,太白区四郎丸字大宮26-1,四郎丸市営住宅7号棟西側（植栽）,38.193233,140.916687,緯度経度は怪しい
宮城県,仙台市,103,太白区中田町字寺浦10地内,寺浦公園東側,38.194958,140.89946,緯度経度は怪しい
宮城県,仙台市,104,太白区中田町字境29地内,中田境東公園（堰場ﾊﾞｽ停東南方向）,38.189564,140.904755,緯度経度は怪しい
宮城県,仙台市,105,太白区東中田五丁目13地内,中田中央公園南側（駐車場入口脇ﾌｪﾝｽ）,38.19832299999999,140.8995096,
宮城県,仙台市,106,太白区東中田二丁目20地内,中法地公園西側,38.202274,140.898392,緯度経度は怪しい
宮城県,仙台市,107,太白区中田町前沖143地内,JCHO仙台南病院前（ｶﾞｰﾄﾞﾊﾟｲﾌﾟ）,38.1906772,140.8997262,
宮城県,仙台市,108,太白区中田町字二軒橋14地内,中田二軒橋公園,38.196125,140.894455,緯度経度は怪しい
宮城県,仙台市,109,太白区東中田三丁目5地内,南首長北公園東側,38.20175340000001,140.9027696,
宮城県,仙台市,110,太白区袋原二丁目24地内,袋原北公園南側,38.2048443,140.9109594,
宮城県,仙台市,111,太白区袋原一丁目31地内,袋原・原公園,38.202629,140.906845,緯度経度は怪しい
宮城県,仙台市,112,太白区中田二丁目15地内,中田二丁目公園,38.20348,140.890427,緯度経度は怪しい
宮城県,仙台市,113,太白区中田四丁目1-1,中田小学校北側,38.200436,140.8872191,
宮城県,仙台市,114,太白区中田五丁目2地内,JR南仙台駅東口広場（駐輪場側植栽）,38.1964,140.88382,緯度経度は怪しい
宮城県,仙台市,115,太白区中田四丁目1-5,中田市民ｾﾝﾀｰ南側,38.1993769,140.8876401,
宮城県,仙台市,116,太白区中田五丁目14-1,ｺﾐｭﾆﾃｨ消防ｾﾝﾀｰ（植栽）,38.1969065,140.8888264,
宮城県,仙台市,117,太白区中田六丁目6地内,中田六丁目西公園,38.192627,140.884766,緯度経度は怪しい
宮城県,仙台市,118,太白区中田七丁目16地内,くりっこ保育園駐車場,38.191116,140.887634,緯度経度は怪しい
宮城県,仙台市,119,太白区東中田二丁目9-26,中田老人憩の家,38.2004859,140.895268,
宮城県,仙台市,120,太白区西中田六丁目20-3,西中田市営住宅3号棟北側（ﾌｪﾝｽ）,38.1902036,140.8812342,
宮城県,仙台市,121,太白区西中田七丁目1地内,西中田公園北側,38.1935337,140.8783477,
宮城県,仙台市,122,太白区西中田七丁目7-1,西中田小学校東側,38.1927967,140.876136,
宮城県,仙台市,123,太白区西中田三丁目19地内,安久公園東側,38.1982392,140.876336,
宮城県,仙台市,124,太白区西中田四丁目1地内,JR南仙台駅西口広場（中央部植栽）,38.1969341,140.8831562,
宮城県,仙台市,125,太白区西中田二丁目12地内,柳生天神公園南側,38.202042,140.879578,緯度経度は怪しい
宮城県,仙台市,126,太白区西中田三丁目1地内,西中田三丁目公園西側,38.199699,140.880356,緯度経度は怪しい
宮城県,仙台市,127,太白区西中田七丁目31地内,栗ノ木公園西側,38.1899887,140.8778725,
宮城県,仙台市,128,太白区西中田四丁目4地内,安久東公園南側,38.1966294,140.8809391,
宮城県,仙台市,129,太白区柳生字野添6地内,市道敷（西中田二丁目ﾊﾞｽ停付近）,38.202648,140.875992,緯度経度は怪しい
宮城県,仙台市,130,太白区柳生字台畑100,柳生小学校北側,38.198696,140.871811,緯度経度は怪しい
宮城県,仙台市,131,太白区柳生七丁目21地内,柳生市民ｾﾝﾀｰ北駐車場南側,38.199352,140.867844,緯度経度は怪しい
宮城県,仙台市,132,太白区柳生二丁目11地内,荒田公園東側,38.193275,140.872513,緯度経度は怪しい
宮城県,仙台市,133,太白区柳生六丁目7地内,柳生六丁目公園北側,38.196812,140.863113,緯度経度は怪しい
宮城県,仙台市,134,太白区柳生一丁目11地内,柳生一丁目公園東側,38.197418,140.870697,緯度経度は怪しい
宮城県,仙台市,135,太白区柳生四丁目11地内,柳生四丁目公園南側,38.194828,140.86731,緯度経度は怪しい
宮城県,仙台市,136,太白区柳生七丁目24地内,柳生七丁目公園西側,38.198593,140.865616,緯度経度は怪しい
宮城県,仙台市,137,太白区西多賀三丁目１-1,みやぎ生協西多賀店東側（市道沿い植栽）,38.2221342,140.8563689,
宮城県,仙台市,138,太白区富沢三丁目11地内,富沢三丁目公園西側,38.2174752,140.8600963,
宮城県,仙台市,139,太白区富沢二丁目4-1,富沢中学校正門脇,38.2186109,140.8636114,
宮城県,仙台市,140,太白区西多賀二丁目3-1,西多賀小学校正門脇,38.2198183,140.8588856,
宮城県,仙台市,141,太白区富沢二丁目6地内,富沢二丁目公園,38.2197135,140.8641282,
宮城県,仙台市,142,太白区富沢一丁目2地内,富沢公園南側,38.217075,140.870224,緯度経度は怪しい
宮城県,仙台市,143,太白区富田字上野中4番1,八坂神社前（富田ちびっ子広場東側）,38.212658,140.847839,緯度経度は怪しい
宮城県,仙台市,144,太白区富田字八幡東29地内,歩道ﾌｪﾝｽ（唐松橋西側）,38.217358,140.852798,緯度経度は怪しい
宮城県,仙台市,145,太白区大塒町6地内,大塒4号公園,38.234848,140.858917,緯度経度は怪しい
宮城県,仙台市,146,太白区大塒町39地内,はたとや公園,38.232315,140.859329,緯度経度は怪しい
宮城県,仙台市,147,太白区大塒町13地内,大塒3号公園,38.235138,140.857224,緯度経度は怪しい
宮城県,仙台市,148,太白区芦の口2地内,芦ノ口羽黒台公園,38.231293,140.856033,緯度経度は怪しい
宮城県,仙台市,149,太白区芦の口1-1,歩道ﾌｪﾝｽ（芦口小学校正門脇）,38.23064,140.856201,緯度経度は怪しい
宮城県,仙台市,150,太白区西の平二丁目9地内,西の平二丁目公園,38.233273,140.849152,緯度経度は怪しい
宮城県,仙台市,151,太白区大塒町1地内,市道ﾌｪﾝｽ（大塒緑地北東側）,38.233982,140.861893,緯度経度は怪しい
宮城県,仙台市,152,太白区西の平二丁目27地内,西の平二丁目2号公園南側,38.232006,140.850601,緯度経度は怪しい
宮城県,仙台市,153,太白区西多賀四丁目23地内,名召公園,38.223576,140.846191,緯度経度は怪しい
宮城県,仙台市,154,太白区鈎取四丁目6地内,鈎取寺西公園,38.22287,140.839706,緯度経度は怪しい
宮城県,仙台市,155,太白区鈎取三丁目1地内,鈎取三丁目2号公園,38.227734,140.839554,緯度経度は怪しい
宮城県,仙台市,156,太白区鈎取二丁目9地内,光塩幼稚園第二ｸﾞﾗｳﾝﾄﾞ東側,38.225018,140.843124,緯度経度は怪しい
宮城県,仙台市,157,太白区鈎取四丁目17地内,鈎取四丁目東公園,38.22588,140.839676,緯度経度は怪しい
宮城県,仙台市,158,太白区鈎取四丁目17地内,鈎取四丁目西公園,38.22588,140.839676,緯度経度は怪しい
宮城県,仙台市,159,太白区鈎取二丁目2地内,後田公園,38.2243595,140.8440615,
宮城県,仙台市,160,太白区西多賀三丁目10-1,西多賀中学校ｸﾞﾗｳﾝﾄﾞ東側,38.2258688,140.8522727,
宮城県,仙台市,161,太白区金剛沢一丁目1-1,金剛沢小学校北側,38.2291087,140.8485837,
宮城県,仙台市,162,太白区金剛沢一丁目24地内,横森2号公園,38.229889,140.845032,緯度経度は怪しい
宮城県,仙台市,163,太白区金剛沢一丁目24地内,金剛沢一丁目公園,38.229889,140.845032,緯度経度は怪しい
宮城県,仙台市,164,太白区三神峯二丁目15地内,横森ひかり公園東側,38.228523,140.847321,緯度経度は怪しい
宮城県,仙台市,165,太白区金剛沢一丁目7-1,金剛沢ｺﾐｭﾆﾃｨ･ｾﾝﾀｰ前,38.2313838,140.8465159,
宮城県,仙台市,166,太白区西の平一丁目7地内,金山公園北側,38.228718,140.851059,緯度経度は怪しい
宮城県,仙台市,167,太白区金剛沢一丁目10地内,金剛沢一丁目5号公園,38.230408,140.84697,緯度経度は怪しい
宮城県,仙台市,168,太白区金剛沢三丁目18地内,金剛沢羽黒台公園（法面）,38.233067,140.840424,緯度経度は怪しい
宮城県,仙台市,169,太白区八木山南一丁目6地内,八木山南一丁目東公園,38.23756,140.83638,緯度経度は怪しい
宮城県,仙台市,170,太白区鈎取三丁目12地内,鈎取三丁目7号公園西側,38.230869,140.838516,緯度経度は怪しい
宮城県,仙台市,171,太白区八木山南三丁目4地内,八木山南公園北西側,38.2356984,140.8342147,
宮城県,仙台市,172,太白区八木山南五丁目3-2,八木山南小学校正門脇,38.2334825,140.8316497,
宮城県,仙台市,173,太白区八木山南四丁目4地内,八木山南四丁目緑地公園北側,38.233826,140.837708,緯度経度は怪しい
宮城県,仙台市,174,太白区金剛沢二丁目8地内,金剛沢公園東側,38.232487,140.83963,緯度経度は怪しい
宮城県,仙台市,175,太白区鈎取本町一丁目12-60,masked,38.2215744,140.8351743,
宮城県,仙台市,176,太白区ひより台23-12,ひより台東部町内会集会所,38.2289327,140.8257929,
宮城県,仙台市,177,太白区上野山一丁目21-8,上野山保育所南側,38.2257404,140.8286044,
宮城県,仙台市,178,太白区上野山一丁目22地内,上野山保存緑地(月ケ丘ﾊﾞｽ停付近),38.226051,140.827835,緯度経度は怪しい
宮城県,仙台市,179,太白区上野山二丁目40地内,上野山公園（法面）,38.226025,140.823502,緯度経度は怪しい
宮城県,仙台市,180,太白区上野山一丁目11-1,上野山児童館南側,38.2268716,140.8319208,
宮城県,仙台市,181,太白区鈎取本町二丁目4地内,鈎取本町二丁目南公園,38.2237749,140.8369838,
宮城県,仙台市,182,太白区山田本町5地内,山田羽黒堂中公園,38.216656,140.828049,緯度経度は怪しい
宮城県,仙台市,183,太白区山田北前町9地内,仙台市鈎取球場北側,38.221989,140.829544,緯度経度は怪しい
宮城県,仙台市,184,太白区山田北前町36-1,山田中学校ｸﾞﾗｳﾝﾄﾞ南側,38.2204979,140.8288095,
宮城県,仙台市,185,太白区旗立二丁目1地内,山田羽黒堂公園,38.22319,140.817902,緯度経度は怪しい
宮城県,仙台市,186,太白区山田上ノ台町21地内,山田上ノ台町1号公園,38.2164,140.830612,緯度経度は怪しい
宮城県,仙台市,187,太白区山田北前町15-1,太白消防署,38.2203441,140.8303897,
宮城県,仙台市,188,太白区山田上ノ台町11地内,縄文の森広場駐車場東側,38.218964,140.834549,緯度経度は怪しい
宮城県,仙台市,189,太白区人来田一丁目30地内,仙台南ﾆｭｰﾀｳﾝ市民運動広場東側(南ﾆｭｰﾀｳﾝ西ﾊﾞｽ停付近ﾌｪﾝｽ）,38.224464,140.804382,緯度経度は怪しい
宮城県,仙台市,190,太白区日本平16地内,日本平公園,38.221264,140.811127,緯度経度は怪しい
宮城県,仙台市,191,太白区人来田一丁目34地内,生出前公園東側,38.226009,140.804626,緯度経度は怪しい
宮城県,仙台市,192,太白区人来田一丁目1地内,人来田1号緑地(人来田小学校北東側ﾌｪﾝｽ）,38.224644,140.80954,緯度経度は怪しい
宮城県,仙台市,193,太白区日本平49地内,日本平緑地公園西側,38.220959,140.808746,緯度経度は怪しい
宮城県,仙台市,194,太白区人来田一丁目3-1,人来田保育所東側,38.2234026,140.8095716,
宮城県,仙台市,195,太白区人来田二丁目13地内,人来田山1号公園,38.221848,140.806381,緯度経度は怪しい
宮城県,仙台市,196,太白区太白一丁目23地内,太白公園南東側,38.232845,140.818146,緯度経度は怪しい
宮城県,仙台市,197,太白区太白一丁目5-1,太白小学校正門脇,38.2313785,140.8173024,
宮城県,仙台市,198,太白区太白二丁目9地内,太白団地市営住宅9-1棟前（法面）,38.232552,140.814133,緯度経度は怪しい
宮城県,仙台市,199,太白区太白三丁目4地内,太白三丁目東公園,38.230717,140.81485,緯度経度は怪しい
宮城県,仙台市,200,太白区太白三丁目7地内,市道法面(太白ｺﾐｭﾆﾃｨ･ｾﾝﾀｰ北側),38.230648,140.81308,緯度経度は怪しい
宮城県,仙台市,201,太白区太白二丁目20地内,太白団地市営住宅20-11棟前（法面）,38.235844,140.819366,緯度経度は怪しい
宮城県,仙台市,202,太白区山田自由ケ丘36地内,旗立西公園北側,38.228161,140.810333,緯度経度は怪しい
宮城県,仙台市,203,太白区茂庭台四丁目1-10,茂庭台市民ｾﾝﾀｰ西側（植栽),38.2356138,140.7820929,
宮城県,仙台市,204,太白区茂庭台四丁目26地内,市道沿い緑地帯（茂庭台四丁目ﾊﾞｽ停付近市営住宅側）,38.240799,140.786942,緯度経度は怪しい
宮城県,仙台市,205,太白区茂庭台四丁目17-1,茂庭台小学校北側,38.23748399999999,140.7839493,
宮城県,仙台市,206,太白区茂庭台一丁目11地内,茂庭台一丁目南公園(茂庭台一丁目ﾊﾞｽ停付近),38.230988,140.7822465,
宮城県,仙台市,207,太白区茂庭台三丁目7地内,茂庭台三丁目南公園東側,38.235157,140.784943,緯度経度は怪しい
宮城県,仙台市,208,太白区茂庭台三丁目25地内,茂庭台三丁目北公園西側,38.237766,140.787292,緯度経度は怪しい
宮城県,仙台市,209,太白区茂庭台四丁目25地内,市道沿い緑地帯（茂庭台五丁目ﾊﾞｽ停付近市営住宅側）,38.239967,140.783615,緯度経度は怪しい
宮城県,仙台市,210,太白区茂庭台二丁目14地内,茂庭台二丁目公園東側,38.231873,140.783585,緯度経度は怪しい
宮城県,仙台市,211,太白区茂庭字人来田中24-1,歩道ﾌｪﾝｽ（国道286号線南側、茂庭荘入口ﾊﾞｽ停付近）,38.217724,140.804611,緯度経度は怪しい
宮城県,仙台市,212,太白区茂庭字人来田西92,masked,38.215206,140.80159,緯度経度は怪しい
宮城県,仙台市,213,太白区茂庭二丁目8-1,生出市民ｾﾝﾀｰ北側,38.2213219,140.7901493,
宮城県,仙台市,214,太白区茂庭字門野18地内,市道敷（竜鳳前）,38.221519,140.785522,緯度経度は怪しい
宮城県,仙台市,215,太白区茂庭字大沢46-3,民地（茂庭ﾊﾞｽ停付近),38.218384,140.787109,緯度経度は怪しい
宮城県,仙台市,216,太白区茂庭字本郷地内,市道敷(茂庭字本郷､嶺岸､西前境界付近),38.224491,140.785141,緯度経度は怪しい
宮城県,仙台市,217,太白区茂庭字人来田西65-44,人来田西公園,38.214638,140.798141,緯度経度は怪しい
宮城県,仙台市,218,太白区茂庭字中ノ瀬中1地内,茂庭中ノ瀬公園東側,38.219849,140.791916,緯度経度は怪しい
宮城県,仙台市,219,太白区茂庭一丁目9地内,歩道ﾌｪﾝｽ（中ノ瀬東交差点付近）,38.222496,140.793289,緯度経度は怪しい
宮城県,仙台市,220,太白区茂庭字川添西地内,県道法面(飲食店龍宝向),38.214481,140.760086,緯度経度は怪しい
宮城県,仙台市,221,太白区茂庭字合ノ沢南38-2,旧赤石分校（赤石文化財収蔵庫）（赤石交差点付近）,38.215832,140.755859,緯度経度は怪しい
宮城県,仙台市,222,太白区坪沼字大苗3,masked,38.212341,140.754288,緯度経度は怪しい
宮城県,仙台市,223,太白区坪沼字山田69地内,国道286号線赤石ﾊﾟｰｷﾝｸﾞｴﾘｱ（植栽）,38.19492,140.769135,緯度経度は怪しい
宮城県,仙台市,224,太白区茂庭字中谷地南42-3,民地（秋保ｳﾞｨﾚｯｼﾞ前、中谷地ﾊﾞｽ停付近）,38.218971,140.743027,緯度経度は怪しい
宮城県,仙台市,225,太白区坪沼字寺山1,善敬寺（北東側市道交差点付近法面）,38.189964,140.783325,緯度経度は怪しい
宮城県,仙台市,226,太白区坪沼字北ノ上66,畑法面(乗合ﾀｸｼｰ営団入口乗場付近),38.201565,140.763214,緯度経度は怪しい
宮城県,仙台市,227,太白区坪沼字長田中9-1,ろりぽっぷ小学校南側（ﾌｪﾝｽ),38.192165,140.774307,緯度経度は怪しい
宮城県,仙台市,228,太白区坪沼字長田西26地内,歩道ﾌｪﾝｽ（県道沿いｺﾝﾋﾞﾆ店向）,38.192745,140.768188,緯度経度は怪しい
宮城県,仙台市,229,太白区坪沼字館前中41地内,歩道ﾌｪﾝｽ(町内会集会所、乗合ﾀｸｼｰ舘前中乗場付近),38.194458,140.763016,緯度経度は怪しい
宮城県,仙台市,230,太白区秋保町湯元字除4-92,除緑地敷地,38.22176,140.734787,緯度経度は怪しい
宮城県,仙台市,231,太白区秋保町湯向30-4,湯元小学校校門向緑地,38.229553,140.718658,緯度経度は怪しい
宮城県,仙台市,232,太白区秋保町湯元字太夫83-2,masked,38.232632,140.710739,緯度経度は怪しい
宮城県,仙台市,233,太白区秋保町湯元字枇杷原11-32,masked,38.223667,140.730804,緯度経度は怪しい
宮城県,仙台市,234,太白区秋保町湯元字湯向24-11,湯元保育所北側,38.23138,140.716385,緯度経度は怪しい
宮城県,仙台市,235,太白区秋保町湯元字薬師47-1,ﾎﾃﾙ佐勘第1駐車場,38.226665,140.717926,緯度経度は怪しい
宮城県,仙台市,236,太白区秋保町湯元字薬師32-8,ﾎﾃﾙ佐勘西側市道植樹帯,38.227493,140.722198,緯度経度は怪しい
宮城県,仙台市,237,太白区秋保町湯元字寺田原46-17,masked,38.224533,140.725861,緯度経度は怪しい
宮城県,仙台市,238,太白区秋保町湯元字除9,ﾎﾃﾙ瑞鳳駐車場,38.220364,140.734344,緯度経度は怪しい
宮城県,仙台市,239,太白区秋保町長袋字諏訪前6-4,秋保神社東側,38.267185,140.668427,緯度経度は怪しい
宮城県,仙台市,240,太白区秋保町長袋字大原31,菅原医院,38.267185,140.668427,緯度経度は怪しい
宮城県,仙台市,241,太白区秋保町境野字羽山12-1地先,masked,38.238438,140.69516,緯度経度は怪しい
宮城県,仙台市,242,太白区秋保町長袋字下河原4,masked,38.267185,140.668427,緯度経度は怪しい
宮城県,仙台市,243,太白区秋保町長袋字町12,masked,38.267185,140.668427,緯度経度は怪しい
宮城県,仙台市,244,太白区秋保町長袋字町32-1,民地（自動販売機 北側),38.267185,140.668427,緯度経度は怪しい
宮城県,仙台市,245,太白区秋保町長袋字大原45-1,秋保総合支所南側（植栽）,38.267185,140.668427,緯度経度は怪しい
宮城県,仙台市,246,太白区秋保町境野字濱井場51-2,県道仙台山寺線道路敷（境野濱井場待避所）,38.241295,140.707001,緯度経度は怪しい
宮城県,仙台市,247,太白区秋保町境野字中原96,masked,38.254692,140.698593,緯度経度は怪しい
宮城県,仙台市,248,太白区秋保町長袋字宿12,masked,38.267185,140.668427,緯度経度は怪しい
宮城県,仙台市,249,太白区秋保町馬場字町北5,masked,38.314266,140.564575,緯度経度は怪しい
宮城県,仙台市,250,太白区秋保町馬場字鷹ノ巣7-1,秋保大滝駐車場向更地,38.314266,140.564575,緯度経度は怪しい
宮城県,仙台市,251,太白区秋保町馬場字町南18-1,masked,38.314266,140.564575,緯度経度は怪しい
宮城県,仙台市,252,太白区秋保町馬場字上の原23-6,masked,38.314266,140.564575,緯度経度は怪しい
宮城県,仙台市,253,太白区秋保町馬場字中84-3,masked,38.314266,140.564575,緯度経度は怪しい
宮城県,仙台市,254,太白区秋保町馬場字新田町75-6先,masked,38.314266,140.564575,緯度経度は怪しい
宮城県,仙台市,255,太白区秋保町馬場字新田町45-2,滝原交流ｾﾝﾀｰ東側,38.314266,140.564575,緯度経度は怪しい
宮城県,仙台市,256,太白区秋保町馬場字野尻町南23,masked,38.314266,140.564575,緯度経度は怪しい
宮城県,仙台市,257,太白区秋保町馬場字野尻町南89,県道仙台山寺線道路敷（野尻ﾗｲﾌﾞｶﾒﾗ西側）,38.314266,140.564575,緯度経度は怪しい
宮城県,仙台市,258,太白区富沢西四丁目12-1,富沢小学校東側,38.2097206,140.862926,
宮城県,仙台市,259,太白区南大野田29-1,市水道局正面（植栽）,38.2091497,140.8729294,
宮城県,仙台市,260,太白区南大野田11地内,南大野田公園北西側,38.210617,140.872467,緯度経度は怪しい
宮城県,仙台市,261,太白区富沢南一丁目22地内,富沢南一丁目南公園北側,38.212677,140.867264,緯度経度は怪しい
宮城県,仙台市,262,太白区富沢南一丁目10地内,富沢南一丁目北公園西側,38.214012,140.865997,緯度経度は怪しい
宮城県,仙台市,263,太白区富沢南二丁目15地内,富沢南二丁目公園東側,38.211014,140.866501,緯度経度は怪しい
宮城県,仙台市,264,太白区富沢西一丁目21地内,市道敷(杉の下橋付近ｶﾞｰﾄﾞﾌｪﾝｽ),38.214546,140.86055,緯度経度は怪しい
宮城県,仙台市,265,太白区富沢南二丁目1地内,地下鉄高架下ﾌｪﾝｽ（ｸｲｰﾝﾊﾟﾙ斎藤東側）,38.212101,140.869385,緯度経度は怪しい
宮城県,仙台市,1,宮城野区銀杏町3番,宮城野区文化センター駐車場北側,38.26523,140.9085185,
宮城県,仙台市,2,宮城野区五輪二丁目12番35号,仙台市宮城野区役所北側東駐車場南側,38.2662174,140.9099994,
宮城県,仙台市,3,宮城野区原町六丁目2番,仙台東郵便局西側（道路敷）,38.270535,140.911453,緯度経度は怪しい
宮城県,仙台市,4,宮城野区五輪二丁目12番35号,仙台市宮城野区役所立体駐車場北側,38.2662174,140.9099994,
宮城県,仙台市,5,宮城野区五輪二丁目12番70号,宮城野区文化センター南側入口西側,38.2655728,140.9099667,
宮城県,仙台市,6,宮城野区五輪二丁目84番地24,坂下交差点南東道路管理地西側,38.264858,140.90596,緯度経度は怪しい
宮城県,仙台市,7,宮城野区銀杏町5番3号,コーポさとみ前北側,38.2644426,140.908306,
宮城県,仙台市,8,宮城野区銀杏町1番7号,乳銀杏保育園向い（道路敷）,38.2634843,140.9067264,
宮城県,仙台市,9,宮城野区苦竹二丁目2番,（株）ブルースカイ駐車場東側,38.269981,140.921585,緯度経度は怪しい
宮城県,仙台市,10,宮城野区苦竹一丁目6番47号,masked,38.2685697,140.9162797,
宮城県,仙台市,11,宮城野区平成一丁目5番,仙台市平成一丁目公園南側,38.2713816,140.9155758,
宮城県,仙台市,12,宮城野区南目館15番,苦竹駅自転車等駐車場北側,38.267822,140.919006,緯度経度は怪しい
宮城県,仙台市,13,宮城野区日の出町二丁目1番13号,日の出自動車学校北側,38.26925080000001,140.9328165,
宮城県,仙台市,14,宮城野区新田一丁目14番,（有）芝原金物店向い駐車場北側,38.272929,140.9185873,
宮城県,仙台市,15,宮城野区日の出町一丁目３番,栄大建設(株)北向い（河川敷）,38.2718836,140.9337058,
宮城県,仙台市,16,宮城野区新田一丁目16番11号,湘南荘北側,38.2748624,140.9180882,
宮城県,仙台市,17,宮城野区新田二丁目11番30号,新田コミュニティ・センター東側,38.276097,140.9234302,
宮城県,仙台市,18,宮城野区新田三丁目18番19号,masked,38.2781493,140.930018,
宮城県,仙台市,19,宮城野区新田二丁目22番,仙台市新田二丁目公園北側,38.278011,140.9245682,
宮城県,仙台市,20,宮城野区新田四丁目30番1号,仙台市立新田小学校北側,38.2762543,140.9285537,
宮城県,仙台市,21,宮城野区新田四丁目20番,仙台市新田公園西側,38.273834,140.927689,緯度経度は怪しい
宮城県,仙台市,22,宮城野区新田五丁目8番,仙台市川北公園南側,38.27256,140.928665,緯度経度は怪しい
宮城県,仙台市,23,宮城野区新田三丁目24番,仙台市屋舗公園北側,38.280247,140.929794,緯度経度は怪しい
宮城県,仙台市,24,宮城野区銀杏町32番,仙台市銀杏町緑地北側,38.263901,140.911896,緯度経度は怪しい
宮城県,仙台市,25,宮城野区宮城野三丁目5番,ＪＲ北宮城野ＡＰ児童公園北側,38.2605245,140.9103752,
宮城県,仙台市,26,宮城野区宮千代一丁目36番,仙台市南宮城野公園北側,38.256149,140.910446,緯度経度は怪しい
宮城県,仙台市,27,宮城野区東宮城野2番1号,仙台市立宮城野小学校北側,38.2608717,140.916043,
宮城県,仙台市,28,宮城野区宮千代一丁目36番,仙台市南宮城野公園東側,38.256149,140.910446,緯度経度は怪しい
宮城県,仙台市,29,宮城野区萩野町二丁目7番,仙台市志波北公園東側,38.254623,140.914246,緯度経度は怪しい
宮城県,仙台市,30,宮城野区宮千代一丁目9番,仙台市宮千代公園西側,38.254086,140.9104,緯度経度は怪しい
宮城県,仙台市,31,宮城野区萩野町二丁目7番,仙台市志波北公園南側,38.254623,140.914246,緯度経度は怪しい
宮城県,仙台市,32,宮城野区東宮城野3番1号,仙台市立仙台工業高等学校北側,38.2605328,140.9177393,
宮城県,仙台市,33,宮城野区東宮城野5番1号,仙台市立東宮城野小学校南側,38.25936919999999,140.919212,
宮城県,仙台市,34,宮城野区東宮城野5番1号,仙台市立東宮城野小学校東側,38.25936919999999,140.919212,
宮城県,仙台市,35,宮城野区萩野町三丁目10番,仙台市萩野町公園南側,38.2579,140.919601,緯度経度は怪しい
宮城県,仙台市,36,宮城野区萩野町三丁目6番,仙台市清水田公園南側,38.256969,140.916595,緯度経度は怪しい
宮城県,仙台市,37,宮城野区宮千代三丁目3番,仙台市谷地館公園東側,38.2533,140.917526,緯度経度は怪しい
宮城県,仙台市,38,宮城野区宮千代三丁目3番,仙台市谷地館公園南側,38.2533,140.917526,緯度経度は怪しい
宮城県,仙台市,39,宮城野区宮城野一丁目13番,仙台市宮城野一丁目公園北側,38.257702,140.897232,緯度経度は怪しい
宮城県,仙台市,40,宮城野区宮城野二丁目11番,宮城野原公園総合運動場交番南側,38.2577321,140.9017877,
宮城県,仙台市,41,宮城野区宮城野二丁目11番,宮城野原公園総合運動場南東側,38.2577321,140.9017877,
宮城県,仙台市,42,宮城野区宮城野二丁目11番,宮城野原公園総合運動場正面入口,38.2577321,140.9017877,
宮城県,仙台市,43,宮城野区宮城野二丁目14番27号,仙台市立東華中学校南側,38.2545491,140.8998012,
宮城県,仙台市,44,宮城野区宮城野二丁目14番27号,仙台市立東華中学校北側,38.2545491,140.8998012,
宮城県,仙台市,45,宮城野区宮千代一丁目22番,仙台市宮千代西公園西側,38.253426,140.906525,緯度経度は怪しい
宮城県,仙台市,46,宮城野区五輪一丁目4番25号,仙台市立宮城野中学校南側通用門脇,38.2626006,140.9000472,
宮城県,仙台市,47,宮城野区五輪一丁目4番22号,杜のひろば・宮城野駐車場前北側,38.2614016,140.9003831,
宮城県,仙台市,48,宮城野区宮城野二丁目20番,仙台市五輪一丁目公園南側,38.258396,140.904556,緯度経度は怪しい
宮城県,仙台市,49,宮城野区宮城野二丁目4番1号,仙台育英学園北東側,38.2610527,140.9042122,
宮城県,仙台市,50,宮城野区五輪二丁目7番,交差点北側（道路敷）,38.2629268,140.9054059,
宮城県,仙台市,51,宮城野区宮城野二丁目4番1号,仙台育英学園南東側,38.2610527,140.9042122,
宮城県,仙台市,52,宮城野区五輪一丁目7番,FKビル駐車場北側,38.2633554,140.9025057,
宮城県,仙台市,53,宮城野区五輪一丁目3番,仙台市榴岡公園北側西寄り,38.260661,140.8973171,
宮城県,仙台市,54,宮城野区榴岡四丁目9番,仙台市榴岡四丁目西公園北側,38.2577781,140.8882123,
宮城県,仙台市,55,宮城野区榴岡五丁目12番,榴ヶ岡駅自転車等駐車場南側,38.2591726,140.8928945,
宮城県,仙台市,56,宮城野区榴ケ岡103番地2,仙台市立榴岡小学校正門脇,38.2615582,140.8909033,
宮城県,仙台市,57,宮城野区榴岡五丁目4番,仙台市榴岡五丁目公園西側,38.257675,140.893143,緯度経度は怪しい
宮城県,仙台市,58,宮城野区五輪一丁目3番,仙台市榴岡公園南側,38.260661,140.8973171,
宮城県,仙台市,59,宮城野区五輪一丁目3番,仙台市榴岡公園東側（道路敷）,38.260661,140.8973171,
宮城県,仙台市,60,宮城野区榴岡三丁目3番,仙台市榴岡三丁目公園南側,38.260677,140.887589,緯度経度は怪しい
宮城県,仙台市,61,宮城野区榴岡三丁目3番,仙台市榴岡三丁目公園東側,38.260677,140.887589,緯度経度は怪しい
宮城県,仙台市,62,宮城野区清水沼一丁目6番,仙台市清水沼公園北側,38.265903,140.898178,緯度経度は怪しい
宮城県,仙台市,63,宮城野区清水沼一丁目6番,仙台市清水沼公園西側,38.265903,140.898178,緯度経度は怪しい
宮城県,仙台市,64,宮城野区清水沼一丁目6番,仙台市清水沼公園東側,38.265903,140.898178,緯度経度は怪しい
宮城県,仙台市,65,宮城野区原町二丁目6番1号,仙台市立原町小学校正門脇,38.2664749,140.9040154,
宮城県,仙台市,66,宮城野区原町二丁目6番1号,仙台市立原町小学校西側,38.2664749,140.9040154,
宮城県,仙台市,67,宮城野区五輪二丁目8番,グランデールコマツ北向い（道路敷）,38.2641374,140.9066587,
宮城県,仙台市,68,宮城野区原町二丁目4番,仙台市原町カッコウ公園南側,38.2654507,140.9058034,
宮城県,仙台市,69,宮城野区原町二丁目6番1号,仙台市立原町小学校北東側,38.2664749,140.9040154,
宮城県,仙台市,70,宮城野区幸町二丁目24番,仙台市立幸町南小学校グラウンド東側,38.2734042,140.8984082,
宮城県,仙台市,71,宮城野区幸町二丁目24番,仙台市立幸町南小学校グラウンド南側,38.2734042,140.8984082,
宮城県,仙台市,72,宮城野区幸町五丁目2番1号,仙台市立幸町南小学校正門前,38.2740914,140.8994629,
宮城県,仙台市,73,宮城野区幸町五丁目6番,仙台市幸町市営住宅６－1棟東側,38.2745423,140.9018315,
宮城県,仙台市,74,宮城野区大梶16番2号,仙台市宮城野障害者福祉センター正門西側,38.2726287,140.9074077,
宮城県,仙台市,75,宮城野区大梶12番,レックスユウ宮城野南側（道路敷）,38.2706873,140.9024026,
宮城県,仙台市,76,宮城野区幸町二丁目2番,仙台市幸町公園南側,38.2752456,140.8938284,
宮城県,仙台市,77,宮城野区幸町三丁目12番1号,仙台市ガス局幸町三丁目部品倉庫西側,38.2749368,140.9028506,
宮城県,仙台市,78,宮城野区幸町一丁目15番1号,仙台市立幸町中学校東側,38.2776225,140.892817,
宮城県,仙台市,79,宮城野区幸町一丁目15番1号,仙台市立幸町中学校南側,38.2776225,140.892817,
宮城県,仙台市,80,宮城野区幸町二丁目19番1号,仙台市立幸町小学校北側,38.2770896,140.8974634,
宮城県,仙台市,81,宮城野区幸町三丁目13番13号,仙台市幸町市民センター東側,38.2767215,140.903195,
宮城県,仙台市,82,宮城野区幸町五丁目13番1号,仙台市ガス局正門脇,38.2735323,140.9070954,
宮城県,仙台市,83,宮城野区幸町五丁目13番1号,仙台市ガス局技術センター東側,38.2735323,140.9070954,
宮城県,仙台市,84,宮城野区安養寺一丁目1番,仙台市安養寺一丁目公園南側,38.2874172,140.8999818,
宮城県,仙台市,85,宮城野区安養寺二丁目17番,仙台市安養寺二丁目公園北側,38.284531,140.903,緯度経度は怪しい
宮城県,仙台市,86,宮城野区安養寺二丁目2番1号,仙台市枡江コミュニティ・センター南側（道路敷）,38.2842389,140.9061552,
宮城県,仙台市,87,宮城野区枡江15番1号,仙台市立枡江小学校西側（道路敷）,38.2810036,140.9038389,
宮城県,仙台市,88,宮城野区二の森14番,仙台市立枡江小学校グラウンド西向い側（道路敷）,38.279544,140.9023489,
宮城県,仙台市,89,宮城野区枡江1番2号,小百合園東側（道路敷）,38.2795956,140.9074511,
宮城県,仙台市,90,宮城野区蟹沢5番,仙台市与兵衛沼公園北側,38.285271,140.898651,緯度経度は怪しい
宮城県,仙台市,91,宮城野区鶴ケ谷四丁目12番,仙台市鶴ケ谷四丁目西公園北側,38.291691,140.907288,緯度経度は怪しい
宮城県,仙台市,92,宮城野区鶴ケ谷三丁目17番,仙台市立鶴谷小学校正門脇,38.290825,140.910141,緯度経度は怪しい
宮城県,仙台市,93,宮城野区鶴ケ谷三丁目10番,仙台市鶴ケ谷三丁目公園南側,38.289616,140.908615,緯度経度は怪しい
宮城県,仙台市,94,宮城野区鶴ケ谷二丁目3番,仙台市鶴ケ谷二丁目公園北側,38.288231,140.914001,緯度経度は怪しい
宮城県,仙台市,95,宮城野区鶴ケ谷一丁目19番,宮城県仙台第三高等学校北側（道路敷）,38.286999,140.908096,緯度経度は怪しい
宮城県,仙台市,96,宮城野区鶴ケ谷二丁目4番,仙台市鶴ケ谷第一市営住宅３棟南側,38.287598,140.91243,緯度経度は怪しい
宮城県,仙台市,97,宮城野区鶴ケ谷一丁目34番,仙台市鶴ケ谷一丁目西公園東側,38.288387,140.904892,緯度経度は怪しい
宮城県,仙台市,98,宮城野区安養寺一丁目14番,仙台市若葉公園東側,38.2875858,140.8964217,
宮城県,仙台市,99,宮城野区鶴ケ谷北二丁目11番,仙台市大久保山公園西側,38.298401,140.917358,緯度経度は怪しい
宮城県,仙台市,100,宮城野区鶴ケ谷北一丁目7番,仙台市鶴ケ谷山沢公園東側,38.296555,140.913559,緯度経度は怪しい
宮城県,仙台市,101,宮城野区鶴ケ谷五丁目16番,仙台市鶴ケ谷五丁目公園南側,38.294369,140.913559,緯度経度は怪しい
宮城県,仙台市,102,宮城野区鶴ケ谷五丁目24番,仙台市立鶴谷中学校北側,38.291794,140.91481,緯度経度は怪しい
宮城県,仙台市,103,宮城野区鶴ケ谷五丁目24番,仙台市立鶴谷中学校南側,38.291794,140.91481,緯度経度は怪しい
宮城県,仙台市,104,宮城野区鶴ケ谷四丁目22番,仙台市鶴ケ谷四丁目東公園東側,38.292351,140.910034,緯度経度は怪しい
宮城県,仙台市,105,宮城野区鶴ケ谷四丁目22番,仙台市鶴ケ谷四丁目東公園西側,38.292351,140.910034,緯度経度は怪しい
宮城県,仙台市,106,宮城野区鶴ケ谷六丁目1番,仙台市鶴ケ谷中央公園西側,38.291382,140.917923,緯度経度は怪しい
宮城県,仙台市,107,宮城野区鶴ケ谷八丁目6番,仙台市鶴ケ谷八丁目公園南側,38.287079,140.917191,緯度経度は怪しい
宮城県,仙台市,108,宮城野区鶴ケ谷六丁目2番,仙台市立鶴谷東小学校南側,38.290718,140.919983,緯度経度は怪しい
宮城県,仙台市,109,宮城野区鶴ケ谷六丁目10番,仙台市鶴ケ谷六丁目公園西側,38.291595,140.923294,緯度経度は怪しい
宮城県,仙台市,110,宮城野区鶴ケ谷六丁目1番,仙台市鶴ケ谷中央公園南西側,38.291382,140.917923,緯度経度は怪しい
宮城県,仙台市,111,宮城野区鶴ケ谷七丁目29番,仙台市鶴ケ谷七丁目北公園東側,38.28886,140.921921,緯度経度は怪しい
宮城県,仙台市,112,宮城野区鶴ケ谷七丁目8番,仙台市鶴ケ谷七丁目南公園南側,38.286674,140.919312,緯度経度は怪しい
宮城県,仙台市,113,宮城野区鶴ケ谷一丁目10番,仙台市鶴ケ谷一丁目東公園東側,38.28587,140.912277,緯度経度は怪しい
宮城県,仙台市,114,宮城野区燕沢二丁目23番１号,仙台市立西山小学校正門脇,38.2833419,140.915059,
宮城県,仙台市,115,宮城野区鶴ケ谷七丁目35番地,つばめさわ教会東側（道路敷）,38.287643,140.920105,緯度経度は怪しい
宮城県,仙台市,116,宮城野区燕沢二丁目12番,仙台市燕沢二丁目北公園西側,38.28537000000001,140.9152824,
宮城県,仙台市,117,宮城野区燕沢三丁目2番18号,masked,38.2837373,140.9246055,
宮城県,仙台市,118,宮城野区東仙台七丁目10番,仙台市安養寺下東公園北向い（道路敷）,38.2810822,140.916573,
宮城県,仙台市,119,宮城野区東仙台七丁目4番,仙台市安養寺下西公園南側,38.281422,140.913177,緯度経度は怪しい
宮城県,仙台市,120,宮城野区東仙台四丁目16番,光ヶ丘スペルマン病院向側バス停脇（道路敷）,38.2778897,140.9108473,
宮城県,仙台市,121,宮城野区燕沢一丁目25番,交差点東側三角地帯（道路敷）,38.281509,140.923782,緯度経度は怪しい
宮城県,仙台市,122,宮城野区小鶴三丁目1番,仙台市小鶴市営住宅1-7棟東側,38.2806908,140.9255532,
宮城県,仙台市,123,宮城野区東仙台二丁目16番,仙台市立東仙台中学校東側（道路敷）,38.2775725,140.9176568,
宮城県,仙台市,124,宮城野区東仙台四丁目８番,仙台市宮の杜なかのさと公園西側,38.2754368,140.9098938,
宮城県,仙台市,125,宮城野区東仙台五丁目18番,仙台市案内公園南側,38.2748789,140.913556,
宮城県,仙台市,126,宮城野区東仙台三丁目6番45号,仙台市立東仙台保育所西側,38.2722669,140.9099338,
宮城県,仙台市,127,宮城野区東仙台五丁目32番17号,仙台市東仙台コミュニティ・センター東側,38.2780488,140.9150708,
宮城県,仙台市,128,宮城野区鶴ケ谷東三丁目6番,仙台市鶴ケ谷菖蒲沢公園南側,38.293655,140.92778,緯度経度は怪しい
宮城県,仙台市,129,宮城野区岩切二丁目6番,仙台市菖蒲沢東公園西側,38.2947769,140.9338442,
宮城県,仙台市,130,宮城野区鶴ケ谷東二丁目18番,仙台市鶴ケ谷南公園西側,38.290813,140.928467,緯度経度は怪しい
宮城県,仙台市,131,宮城野区燕沢東三丁目8番1号,仙台市立燕沢小学校北側,38.2881805,140.9305245,
宮城県,仙台市,132,宮城野区燕沢東二丁目2番,駐車場西側,38.2868094,140.9298067,
宮城県,仙台市,133,宮城野区燕沢東三丁目8番1号,仙台市立燕沢小学校東側,38.2881805,140.9305245,
宮城県,仙台市,134,宮城野区燕沢東一丁目9番,仙台市燕沢東一丁目きただ公園東側,38.285645,140.933594,緯度経度は怪しい
宮城県,仙台市,135,宮城野区燕沢一丁目27番,仙台市交通局東仙台営業所北側（道路敷）,38.2828298,140.9255307,
宮城県,仙台市,136,宮城野区岩切字昭和北2番地16地先,masked,38.309967,140.93129,緯度経度は怪しい
宮城県,仙台市,137,宮城野区岩切字今市5番地,masked,38.296745,140.938324,緯度経度は怪しい
宮城県,仙台市,138,宮城野区岩切字堰下82番地,仙台市鴻巣３号公園南側,38.295452,140.955536,緯度経度は怪しい
宮城県,仙台市,139,宮城野区岩切字土手外東5番地内,今市橋東側バス停脇(道路敷）,38.301014,140.949875,緯度経度は怪しい
宮城県,仙台市,140,宮城野区岩切字三所北42番地,仙台市三所北２号公園北側,38.302628,140.945251,緯度経度は怪しい
宮城県,仙台市,141,宮城野区岩切字今市東1番地2,仙台市立岩切小学校正門西側,38.298878,140.942535,緯度経度は怪しい
宮城県,仙台市,142,宮城野区岩切字三所南88番地2,仙台市岩切市民センター東側,38.30109,140.944885,緯度経度は怪しい
宮城県,仙台市,143,宮城野区岩切字鴻巣33番地,仙台市鴻巣1号公園東側,38.297764,140.948975,緯度経度は怪しい
宮城県,仙台市,144,宮城野区鶴ケ谷字金堀278番地先,玉川重機工業（有）向い（道路敷）,38.302063,140.924973,緯度経度は怪しい
宮城県,仙台市,145,宮城野区田子字袋河原42番地,仙台市田子袋河原公園西側,38.291065,140.957764,緯度経度は怪しい
宮城県,仙台市,146,宮城野区田子二丁目12番1号,仙台市立田子中学校北側,38.2785922,140.9579984,
宮城県,仙台市,147,宮城野区田子三丁目9番,仙台市上田子2号公園東側,38.2822819,140.9631467,
宮城県,仙台市,148,宮城野区田子二丁目1番1号,仙台市立田子小学校正門脇,38.280153,140.9629546,
宮城県,仙台市,149,宮城野区田子一丁目13番,仙台市田子要害東公園南側,38.2787061,140.962972,
宮城県,仙台市,150,宮城野区田子西一丁目11番,仙台市田子西市営住宅3棟西側植栽場,38.287888,140.956848,緯度経度は怪しい
宮城県,仙台市,151,宮城野区田子一丁目25番,仙台市福田町第一市営住宅4A棟東側,38.2763272,140.9576655,
宮城県,仙台市,152,宮城野区田子三丁目12番,仙台市福田町第二市営住宅5A棟北側,38.283999,140.9615112,
宮城県,仙台市,153,宮城野区仙石6番,仙台市仙石西公園東側,38.27309,140.946075,緯度経度は怪しい
宮城県,仙台市,154,宮城野区福住町9番,仙台市福住町公園北側,38.27317,140.952942,緯度経度は怪しい
宮城県,仙台市,155,宮城野区福田町一丁目11番1号,仙台市立高砂小学校西側,38.2734529,140.9578394,
宮城県,仙台市,156,宮城野区福田町一丁目133番12号,防災資機材倉庫西側,38.272835,140.959457,緯度経度は怪しい
宮城県,仙台市,157,宮城野区扇町六丁目3番6号,仙台市中央卸売市場食肉市場西側,38.2678506,140.9562193,
宮城県,仙台市,158,宮城野区福田町二丁目4番6号,masked,38.2696595,140.9604215,
宮城県,仙台市,159,宮城野区福室二丁目395番地2,陸前高砂駅前ロータリー西側,38.273106,140.967499,緯度経度は怪しい
宮城県,仙台市,160,宮城野区高砂一丁目24番9号,仙台市高砂市民センター東側,38.2703053,140.9737777,
宮城県,仙台市,161,宮城野区高砂二丁目8番,仙台市高砂二丁目向田公園南側,38.2678007,140.9705193,
宮城県,仙台市,162,宮城野区高砂一丁目28番,仙台市高砂緑地公園宮城野消防署高砂分署西向い,38.269058,140.972336,緯度経度は怪しい
宮城県,仙台市,163,宮城野区白鳥一丁目25番,仙台市蒲生土手前２号公園東側,38.2659345,140.9764924,
宮城県,仙台市,164,宮城野区白鳥一丁目32番1号,仙台市立高砂中学校東側,38.2648502,140.9769977,
宮城県,仙台市,165,宮城野区白鳥一丁目2番,仙台市蒲生土手前公園北側,38.2628151,140.9807374,
宮城県,仙台市,166,宮城野区白鳥一丁目8番,仙台市蒲生蓬田前公園南側,38.2649314,140.9810261,
宮城県,仙台市,167,宮城野区白鳥二丁目24番,仙台市耳取公園北側,38.2611425,140.9850235,
宮城県,仙台市,168,宮城野区蒲生五丁目19番,（仮称）蒲生北部１号公園北側,38.2593,140.996826,緯度経度は怪しい
宮城県,仙台市,169,宮城野区蒲生二丁目1番4号,仙台市西原排水機場東側,38.2622965,140.9998915,
宮城県,仙台市,170,宮城野区福室五丁目6番,仙台市福室上町東公園西側,38.280224,140.96994,緯度経度は怪しい
宮城県,仙台市,171,宮城野区福室三丁目34番,仙台市福室上町南公園西側,38.27867610000001,140.9688856,
宮城県,仙台市,172,宮城野区福室五丁目9番36号,仙台市福室市民センター駐車場西側,38.2792212,140.9712382,
宮城県,仙台市,173,宮城野区福室五丁目11番,仙台市福室公園北側,38.2824469,140.9706447,
宮城県,仙台市,174,宮城野区福室五丁目23番,仙台市高砂市営住宅F-1号棟北側,38.281277,140.973679,緯度経度は怪しい
宮城県,仙台市,175,宮城野区中野字高橋前65番地,仙台市立中野中学校東側,38.260414,141.014694,緯度経度は怪しい
宮城県,仙台市,176,宮城野区福室五丁目23番,仙台市高砂市営住宅C棟南側,38.281277,140.973679,緯度経度は怪しい
宮城県,仙台市,177,宮城野区中野一丁目13番,なかの一丁目西公園南側,38.271709,140.978851,緯度経度は怪しい
宮城県,仙台市,178,宮城野区栄三丁目5番,仙台市宿在家公園東側,38.282852,140.978806,緯度経度は怪しい
宮城県,仙台市,179,宮城野区栄三丁目12番1号,仙台市立中野栄小学校正門脇,38.28323,140.982208,緯度経度は怪しい
宮城県,仙台市,180,宮城野区栄四丁目4番,仙台市栄公園西側,38.282291,140.982101,緯度経度は怪しい
宮城県,仙台市,181,宮城野区栄二丁目16番,仙台市福在公園東側,38.2812,140.979645,緯度経度は怪しい
宮城県,仙台市,182,宮城野区栄四丁目10番,仙台市中野栄駅前公園北側,38.2804843,140.9834591,
宮城県,仙台市,183,宮城野区栄五丁目15番,仙台市栄五丁目公園南側,38.28302,140.987946,緯度経度は怪しい
宮城県,仙台市,184,宮城野区出花二丁目7番,仙台市出花二丁目公園西側,38.278465,140.987778,緯度経度は怪しい
宮城県,仙台市,185,宮城野区出花一丁目12番,仙台市出花一丁目公園西側,38.277142,140.984024,緯度経度は怪しい
宮城県,仙台市,186,宮城野区岩切字若宮前72番地内,洞ノ口交差点西側交差点南側（道路敷）,38.305428,140.950226,緯度経度は怪しい
宮城県,仙台市,187,宮城野区岩切字青津目137番地8,仙台市岩切東コミュニティ・センター南側,38.306553,140.95314,緯度経度は怪しい
宮城県,仙台市,188,宮城野区岩切分台三丁目3番,仙台市岩切分台三丁目公園東側,38.308239,140.95578,緯度経度は怪しい
宮城県,仙台市,189,宮城野区岩切分台二丁目29番,仙台市岩切分台二丁目さんかく公園東側,38.307468,140.958786,緯度経度は怪しい
宮城県,仙台市,190,宮城野区岩切分台一丁目1番地2,みやぎ生活協同組合岩切店西側,38.3043726,140.9559637,
宮城県,仙台市,191,宮城野区岩切字洞ノ口191番地,仙台市交通局バス回転場北側,38.301113,140.954941,緯度経度は怪しい
宮城県,仙台市,192,宮城野区岩切字洞ノ口95番地3,岩切駅前ロータリー西側,38.301464,140.953293,緯度経度は怪しい
宮城県,仙台市,193,宮城野区岩切字東河原330番地,仙台市東河原公園北側,38.299305,140.954163,緯度経度は怪しい
宮城県,仙台市,194,宮城野区岡田字下高土手54番地,上岡田公会堂北側,38.244495,140.98085,緯度経度は怪しい
宮城県,仙台市,195,宮城野区岡田字北在家67番地,仙台市立岡田小学校南西側,38.256504,140.978912,緯度経度は怪しい
宮城県,仙台市,196,宮城野区蒲生字上屋倉24番地,仙台市上屋倉公園南側,38.255714,140.985931,緯度経度は怪しい
宮城県,仙台市,197,宮城野区蒲生字南屋ケ城1番地,仙台市港南西公園南側,38.258362,140.982056,緯度経度は怪しい
宮城県,仙台市,198,宮城野区蒲生字南城道田5番地,仙台市港南東公園南側,38.25721,140.98378,緯度経度は怪しい
宮城県,仙台市,199,宮城野区岡田字堀切前12番地2,masked,38.250187,140.981903,緯度経度は怪しい
宮城県,仙台市,200,宮城野区岡田字浜通22番地,（有）菊ペン塗装店駐車場西側,38.244984,140.985336,緯度経度は怪しい
宮城県,仙台市,201,宮城野区蒲生字中通108番地3,仙台市岡田ポンプ場西側,38.249252,140.989792,緯度経度は怪しい
宮城県,仙台市,202,宮城野区蒲生字鍋沼33番地,masked,38.252048,140.989227,緯度経度は怪しい
宮城県,仙台市,203,宮城野区福田町二丁目30番,仙台市福田町砂押公園西側,38.2663838,140.964566,
宮城県,仙台市,204,宮城野区扇町六丁目5番,仙台市扇町六丁目公園北西側,38.266155,140.958496,緯度経度は怪しい
宮城県,仙台市,205,宮城野区福田町四丁目13番6号,masked,38.2621769,140.9618848,
宮城県,仙台市,206,宮城野区福田町南一丁目7番,仙台市福田町南一丁目公園北側,38.258633,140.960114,緯度経度は怪しい
宮城県,仙台市,207,宮城野区鶴巻一丁目10番,仙台市鶴巻一丁目西公園南側,38.262756,140.963699,緯度経度は怪しい
宮城県,仙台市,208,宮城野区鶴巻一丁目15番1号,仙台市立鶴巻小学校西側,38.2629114,140.9677667,
宮城県,仙台市,209,宮城野区福田町四丁目5番,仙台市福田町四丁目公園南側,38.264042,140.960739,緯度経度は怪しい
宮城県,仙台市,210,宮城野区新田東四丁目1番,仙台市新田東総合運動場北側（道路敷）,38.279317,140.9365805,
宮城県,仙台市,211,宮城野区新田東四丁目1番の1,仙台市新田東総合運動場西側,38.2774978,140.9370497,
宮城県,仙台市,212,宮城野区新田東四丁目1番の1,仙台市新田東総合運動場南側,38.2774978,140.9370497,
宮城県,仙台市,213,宮城野区新田東三丁目6番,小鶴新田駅前ロータリー南側,38.273655,140.935303,緯度経度は怪しい
宮城県,仙台市,214,宮城野区新田東一丁目11番,仙台市新田東中央公園北側,38.277592,140.932632,緯度経度は怪しい
宮城県,仙台市,215,宮城野区新田東一丁目11番,仙台市新田東中央公園西側,38.277592,140.932632,緯度経度は怪しい
宮城県,仙台市,216,宮城野区新田東二丁目2番,仙台市新田東二丁目公園南側,38.27589,140.931686,緯度経度は怪しい
宮城県,仙台市,217,宮城野区新田東一丁目11番の2,水道局用地南西側,38.2774841,140.9325425,
宮城県,仙台市,1,泉区七北田字駕篭沢１５地先,旧 仙台徳洲会病院（跡地）南側Y字路交差点,38.326298,140.874908,緯度経度は怪しい
宮城県,仙台市,2,泉区泉中央一丁目２１－１,県営七北田住宅西側,38.3232805,140.8784633,
宮城県,仙台市,3,泉区泉中央一丁目４６地内,泉中央５号公園北側,38.321785,140.875229,緯度経度は怪しい
宮城県,仙台市,4,泉区泉中央一丁目７地内,地下鉄泉中央駅前タクシープール南側,38.322908,140.8806849,
宮城県,仙台市,5,泉区泉中央二丁目１－１,泉区役所東側,38.3263979,140.8806402,
宮城県,仙台市,6,泉区泉中央二丁目１８－３,泉中央公園東側,38.3271706,140.8801134,
宮城県,仙台市,7,泉区泉中央二丁目２９地内,七北田七ツ沼調整池西側,38.3278171,140.8801611,
宮城県,仙台市,8,泉区泉中央四丁目２２－１,泉中央四丁目公園西側,38.322647,140.886627,緯度経度は怪しい
宮城県,仙台市,9,泉区高玉町９－１,高玉南公園北側,38.318064,140.8921035,
宮城県,仙台市,10,泉区市名坂字萩清水地内,仙台白百合女子大学入口バス停東側,38.318024,140.904007,緯度経度は怪しい
宮城県,仙台市,11,泉区市名坂字鹿島地内,運転免許センター前バス停西側,38.31411,140.904449,緯度経度は怪しい
宮城県,仙台市,12,泉区市名坂字東裏５３－１,泉区中央市民センター西側,38.3204,140.890625,緯度経度は怪しい
宮城県,仙台市,13,泉区七北田字東裏６０,七北田保育所西側,38.323158,140.892044,緯度経度は怪しい
宮城県,仙台市,14,泉区七北田字白水沢１２６,七北田愛宕公園南側入口,38.331326,140.888443,緯度経度は怪しい
宮城県,仙台市,15,泉区市名坂字野蔵１０１－３７,市名坂野蔵公園南側,38.31284,140.899994,緯度経度は怪しい
宮城県,仙台市,16,泉区天神沢一丁目１７地内,天神沢市営住宅３号棟南側,38.321941,140.898056,緯度経度は怪しい
宮城県,仙台市,17,泉区天神沢二丁目（主要地方道仙台三本木線沿い）,東北学院大学泉キャンパス北側法面,38.328026,140.90155,緯度経度は怪しい
宮城県,仙台市,18,泉区古内字古内４２地先,古内集会所向い側,38.324387,140.843597,緯度経度は怪しい
宮城県,仙台市,19,泉区上谷刈字長命３地先（上谷刈字羽黒山8-2向い付近),なのはなサポートセンター敷地付近,38.319344,140.854736,緯度経度は怪しい
宮城県,仙台市,20,泉区野村字一本杉２－４地内,県道泉塩釜線仙台商業高等学校入口付近,38.325832,140.868225,緯度経度は怪しい
宮城県,仙台市,21,泉区野村字東原前７,野村小学校北側,38.325493,140.860596,緯度経度は怪しい
宮城県,仙台市,22,泉区野村字新桂島前６０,泉総合運動場東側,38.328297,140.863541,緯度経度は怪しい
宮城県,仙台市,23,泉区野村字筒岫８９－２,シェルコムせんだい駐車場入口付近,38.328213,140.85849,緯度経度は怪しい
宮城県,仙台市,24,泉区野村字上野前２５地先,ローソン（仙台野村店）斜め向い,38.326641,140.850235,緯度経度は怪しい
宮城県,仙台市,25,泉区古内字古内18-1地内（古内字古内20-1向い）,県道大衡仙台線エネオス・ガソリンスタンド向い側,38.324387,140.843597,緯度経度は怪しい
宮城県,仙台市,26,泉区将監十三丁目１地内（集会所脇）,将監十三丁目公園東側,38.339939,140.869476,緯度経度は怪しい
宮城県,仙台市,27,泉区将監九丁目１２地内,将監九丁目１２Ｙ字路交差点緑地,38.333069,140.87114,緯度経度は怪しい
宮城県,仙台市,28,泉区将監十丁目３－１,将監中央小学校東側,38.336716,140.873167,
宮城県,仙台市,29,泉区将監十丁目９地内,将監公園南側,38.334513,140.8717025,
宮城県,仙台市,30,泉区将監十丁目１－２０６,宮城県泉高等学校前南側横断地下道付近,38.3353163,140.8733695,
宮城県,仙台市,31,泉区将監十丁目２９－１,将監西小学校西側,38.3348452,140.8686671,
宮城県,仙台市,32,泉区将監十一丁目５－４８,県営将監第五住宅４８号棟北側,38.3392252,140.8731412,
宮城県,仙台市,33,泉区将監五丁目１－２０,県営将監第二住宅２０号棟北東擁壁下,38.3389224,140.8807144,
宮城県,仙台市,34,泉区将監殿三丁目２０地内,ヨークベニマル泉将監殿店南側緑地,38.341984,140.876175,緯度経度は怪しい
宮城県,仙台市,35,泉区将監六丁目４-１７４（六丁目4-32付近）,県営将監第三住宅３２号棟南側,38.3381562,140.8765569,
宮城県,仙台市,36,泉区将監六丁目３－６,県営将監第一住宅６号棟北側,38.3376112,140.8798239,
宮城県,仙台市,37,泉区将監殿四丁目２３,将北４号公園北東側,38.341228,140.871979,緯度経度は怪しい
宮城県,仙台市,38,泉区将監殿五丁目１７,将北いこいの公園東側,38.34502,140.873703,緯度経度は怪しい
宮城県,仙台市,39,泉区将監八丁目２８地内,将監市民センター向側（将監風致公園内）,38.332943,140.876831,緯度経度は怪しい
宮城県,仙台市,40,泉区将監八丁目２８地内（九丁目5-4 向い付近）,将監八丁目将監運動公園南西角法面,38.332943,140.876831,緯度経度は怪しい
宮城県,仙台市,41,泉区将監一丁目11地内（一丁目10-2 向い付近）,将監一丁目西公園東側,38.329044,140.885529,緯度経度は怪しい
宮城県,仙台市,42,泉区将監二丁目１１地内（二丁目11-4付近）,将監二丁目東公園西側,38.330795,140.883286,緯度経度は怪しい
宮城県,仙台市,43,泉区将監二丁目地内（二丁目22-2向い付近）,将監二丁目緑地北側,38.330414,140.881897,緯度経度は怪しい
宮城県,仙台市,44,泉区将監三丁目１０－１,将監小学校東側,38.3330195,140.8817747,
宮城県,仙台市,45,泉区将監四丁目１９地内,将監四丁目公園南側,38.334923,140.882919,緯度経度は怪しい
宮城県,仙台市,46,泉区将監四丁目２８－１,将監第一公社住宅１号棟北側,38.3365436,140.8819854,
宮城県,仙台市,47,泉区将監四丁目４－１,泉消防署北側,38.336335,140.8864227,
宮城県,仙台市,48,泉区向陽台一丁目２１地内,向陽台ふれあい公園北側,38.336693,140.893219,緯度経度は怪しい
宮城県,仙台市,49,泉区向陽台三丁目２６地内,向陽台中央公園南側,38.339035,140.899307,緯度経度は怪しい
宮城県,仙台市,50,泉区向陽台五丁目６－１２,向陽台小学校東側,38.3344368,140.8984163,
宮城県,仙台市,51,泉区向陽台五丁目２１－４１,向陽台コミュニティ・センター南側,38.3366845,140.9016151,
宮城県,仙台市,52,泉区山の寺一丁目３７地内(一丁目27-19向い),山の寺一丁目北バス停付近,38.33075,140.898987,緯度経度は怪しい
宮城県,仙台市,53,泉区向陽台二丁目２７地内(二丁目27-7隣り),向陽台二丁目公園北側,38.341084,140.89447,緯度経度は怪しい
宮城県,仙台市,54,泉区山の寺一丁目３７地内(一丁目11-28向い付近),山の寺一丁目公園前バス停南側,38.33075,140.898987,緯度経度は怪しい
宮城県,仙台市,55,泉区山の寺二丁目５地内（６街区西側）,山の寺二丁目西側法面 階段向い側(国道４号線上り車線 山の寺入口坂道),38.331177,140.892288,緯度経度は怪しい
宮城県,仙台市,56,泉区永和台２地内(永和台3-5付近),永和台団地入口バス停付近公園北側,38.331551,140.902954,緯度経度は怪しい
宮城県,仙台市,57,泉区永和台２８－２１,永和台集会所北側,38.32823870000001,140.9053063,
宮城県,仙台市,58,泉区松陵二丁目４地内,松陵公園東側,38.326916,140.912003,緯度経度は怪しい
宮城県,仙台市,59,泉区松陵二丁目５－１地内,ヤマザワ松陵店前ガス局整圧器室南側,38.3285072,140.9127187,
宮城県,仙台市,60,泉区松陵三丁目３５,泉松陵小学校東側,38.3317862,140.9076201,
宮城県,仙台市,61,泉区松陵三丁目５０－２,松陵三丁目北公園南側,38.3326117,140.9099444,
宮城県,仙台市,62,泉区歩坂町１４地内(14-5隣り),歩坂町公園西側,38.322639,140.908569,緯度経度は怪しい
宮城県,仙台市,63,泉区歩坂町５９地内(67-25向い付近),百合ケ丘中央公園西側,38.325348,140.907394,緯度経度は怪しい
宮城県,仙台市,64,泉区松陵一丁目３－２,松陵一丁目南公園西側,38.3187925,140.9120094,
宮城県,仙台市,65,泉区松陵四丁目１－１,松陵四丁目公園西側,38.3305947,140.9141883,
宮城県,仙台市,66,泉区松陵四丁目２８－２,宮城県立松陵支援学校西側,38.3327033,140.9171349,
宮城県,仙台市,67,泉区松陵四丁目４０－２,松陵四丁目北公園南側,38.3333769,140.9161474,
宮城県,仙台市,68,泉区松陵五丁目２０－２,松陵市民センター南側,38.3281374,140.9142308,
宮城県,仙台市,69,泉区松陵五丁目２０－３,泉消防署松陵出張所西側,38.3281237,140.9135062,
宮城県,仙台市,70,泉区松陵五丁目３２,松陵中学校西側,38.3291633,140.9167843,
宮城県,仙台市,71,泉区鶴が丘一丁目５－４３外（一丁目28-25付近）,鶴が丘一丁目公園西側,38.3185733,140.9251901,
宮城県,仙台市,72,泉区鶴が丘一丁目２３－１６,鶴が丘一丁目東公園西側,38.3228828,140.9249651,
宮城県,仙台市,73,泉区鶴が丘一丁目３７－１,鶴が丘コミュニティ・センター東側,38.3154536,140.9233393,
宮城県,仙台市,74,泉区鶴が丘一丁目３５０,鶴が丘小学校正門前,38.315876,140.930038,緯度経度は怪しい
宮城県,仙台市,75,泉区鶴が丘二丁目２,松森小学校北側,38.319972,140.9190004,
宮城県,仙台市,76,泉区鶴が丘二丁目９－１,鶴が丘二丁目集会所西側,38.322109,140.915497,緯度経度は怪しい
宮城県,仙台市,77,泉区鶴が丘三丁目１７地内(三丁目17-20隣り),鶴が丘児童センター付近緑地,38.322803,140.9189,緯度経度は怪しい
宮城県,仙台市,78,泉区鶴が丘四丁目１０－８,鶴が丘四丁目東公園東側,38.3270753,140.9217576,
宮城県,仙台市,79,泉区市名坂字高島１－３地先,清水寺駐車場向い側,38.31424,140.913086,緯度経度は怪しい
宮城県,仙台市,80,泉区鶴が丘二丁目１３－２,鶴が丘二丁目南公園西側,38.317463,140.914829,
宮城県,仙台市,81,泉区松森字阿比古３３,泉環境事業所西側,38.30542,140.921844,緯度経度は怪しい
宮城県,仙台市,82,泉区松森字城前１３５,松森工場西側,38.312576,140.916397,緯度経度は怪しい
宮城県,仙台市,83,泉区松森字城前９－２,松森市民センター北側,38.314053,140.91684,緯度経度は怪しい
宮城県,仙台市,84,泉区松森字松木沢９－４,松木沢北公園東側,38.313786,140.924118,緯度経度は怪しい
宮城県,仙台市,85,泉区松森字鼠堂１地先,セブンイレブン仙台鶴が丘店前,38.313904,140.922409,緯度経度は怪しい
宮城県,仙台市,86,泉区南光台東一丁目４４地内,南光台東一丁目南公園西側,38.2981457,140.9071901,
宮城県,仙台市,87,泉区南光台東一丁目４９－２２,南光台東児童センター南側,38.2971633,140.9081647,
宮城県,仙台市,88,泉区南光台東一丁目３３地内(二丁目18-11向い付近),南光台東一丁目緑地東側,38.299755,140.909882,緯度経度は怪しい
宮城県,仙台市,89,泉区南光台東二丁目７地内,南光台東二丁目南公園西側,38.297115,140.911026,緯度経度は怪しい
宮城県,仙台市,90,泉区南光台東二丁目３１,南光台東二丁目東公園南側,38.299175,140.916443,緯度経度は怪しい
宮城県,仙台市,91,泉区南光台東二丁目１６－１,南光台東小学校北側,38.2987285,140.9110002,
宮城県,仙台市,92,泉区南光台東三丁目１－１,南光台東中学校北側,38.3025277,140.9157759,
宮城県,仙台市,93,泉区南光台南一丁目５地内,南光台南一丁目公園南側,38.297001,140.901733,緯度経度は怪しい
宮城県,仙台市,94,泉区南光台南二丁目５地内,南光台南二丁目北公園東側,38.2964774,140.9036936,
宮城県,仙台市,95,泉区南光台南二丁目８－４５,前坂集会所西側,38.2959452,140.9020056,
宮城県,仙台市,96,泉区南光台南三丁目３５地内,前坂南集会所南側,38.292282,140.903183,緯度経度は怪しい
宮城県,仙台市,97,泉区南光台南二丁目２９,南光台南二丁目公園北側,38.2933594,140.8990676,
宮城県,仙台市,98,泉区南光台南三丁目１１地内,南光台南三丁目公園北側,38.295452,140.907013,緯度経度は怪しい
宮城県,仙台市,99,泉区南光台南三丁目２７地内,南光台南三丁目南公園北側,38.293884,140.903992,緯度経度は怪しい
宮城県,仙台市,100,泉区南光台一丁目７１地内(一丁目3-6付近）,小松島新堤橋バス停西側 緑地,38.288063,140.89299,緯度経度は怪しい
宮城県,仙台市,101,泉区南光台一丁目５８地内,南光台一丁目公園北側,38.2906305,140.8943386,
宮城県,仙台市,102,泉区南光台二丁目１地内（二丁目1-5付近),南光台入口バス停付近（水道局 旧南光台分水所南側）,38.289375,140.890976,緯度経度は怪しい
宮城県,仙台市,103,泉区南光台三丁目１５地内(四丁目1-28付近),南光台三丁目交差点西側歩道緑地,38.29652,140.891724,緯度経度は怪しい
宮城県,仙台市,104,泉区南光台一丁目３２地内,南光台一丁目・二丁目隣接変則交差点付近法面,38.292236,140.898727,緯度経度は怪しい
宮城県,仙台市,105,泉区南光台二丁目２５地内,南光台東区流量計測所南側,38.295609,140.898407,緯度経度は怪しい
宮城県,仙台市,106,泉区南光台三丁目１地内,南光台三丁目公園東側,38.294212,140.890564,緯度経度は怪しい
宮城県,仙台市,107,泉区南光台三丁目１－２４,社会福祉法人つどいの家（南光台三丁目公園前バス停付近）,38.2939434,140.8909758,
宮城県,仙台市,108,泉区松森字明神４１地内,松森前ヶ沢公園東側,38.307362,140.899567,緯度経度は怪しい
宮城県,仙台市,109,泉区南光台六丁目７地内,南光台六丁目西公園西側,38.302223,140.897079,緯度経度は怪しい
宮城県,仙台市,110,泉区南光台七丁目３４－１,南光台やすらぎ公園南側,38.3002279,140.9035752,
宮城県,仙台市,111,泉区南光台七丁目１地内,南光台ふれあい広場南側,38.300758,140.898148,緯度経度は怪しい
宮城県,仙台市,112,泉区南光台七丁目１０－１,南光台小学校西側,38.3009138,140.9002688,
宮城県,仙台市,113,泉区松森字新田２０９地内,新田八沢公園南側,38.30357,140.907928,緯度経度は怪しい
宮城県,仙台市,114,泉区南光台七丁目３２地内,南光台七丁目公園北側,38.300571,140.905121,緯度経度は怪しい
宮城県,仙台市,115,泉区松森字明神４３地内,松森明神北公園入口北側付近,38.308304,140.899612,緯度経度は怪しい
宮城県,仙台市,116,泉区南光台五丁目２,旭丘堤橋西側交差点南西花壇内,38.301281,140.892975,緯度経度は怪しい
宮城県,仙台市,117,泉区旭丘堤二丁目１２－３０４,旭丘堤橋北西側たもと,38.3021104,140.8873116,
宮城県,仙台市,118,泉区旭丘堤二丁目２２地内,地下鉄黒松駅南側,38.30275,140.88623,緯度経度は怪しい
宮城県,仙台市,119,泉区旭丘堤二丁目２９,真美沢公園入口付近,38.3041688,140.8907045,
宮城県,仙台市,120,泉区旭丘堤二丁目２１地内,地下鉄黒松駅入口前,38.30373,140.887436,緯度経度は怪しい
宮城県,仙台市,121,泉区旭丘堤二丁目４地内,旭丘堤２丁目４番街区内緑地帯,38.301506,140.887985,緯度経度は怪しい
宮城県,仙台市,122,泉区南光台五丁目６地内,旭丘橋北側（交差点東方向付近）,38.302002,140.894043,緯度経度は怪しい
宮城県,仙台市,123,泉区八乙女中央五丁目２６－３０９,愛隣町西公園南側,38.311256,140.883926,緯度経度は怪しい
宮城県,仙台市,124,泉区黒松一丁目９地内,黒松一丁目公園南側,38.304333,140.882339,緯度経度は怪しい
宮城県,仙台市,125,泉区八乙女中央五丁目１７地内,真実沢西公園東側,38.312126,140.886368,緯度経度は怪しい
宮城県,仙台市,126,泉区黒松二丁目２０地内,黒松二丁目公園東側,38.3079843,140.8818663,
宮城県,仙台市,127,泉区黒松三丁目１－１８,黒松第二公社住宅１８号棟南側,38.3050667,140.8853278,
宮城県,仙台市,128,泉区黒松三丁目２－８,黒松公社住宅７号棟北側,38.3081928,140.8850734,
宮城県,仙台市,129,泉区七北田字杉ノ田地内,地方主要道仙台泉線（下り）向原バス停付近,38.309967,140.879852,緯度経度は怪しい
宮城県,仙台市,130,泉区八乙女中央一丁目６地内,地下鉄八乙女駅前杉ノ田交差点,38.313103,140.883392,緯度経度は怪しい
宮城県,仙台市,131,泉区東黒松１９－３３地内,そらのこ保育園斜め向い側,38.3098765,140.8890956,
宮城県,仙台市,132,泉区松森字不動１４８,八乙女小学校西側,38.307358,140.894836,緯度経度は怪しい
宮城県,仙台市,133,泉区東黒松１１,八乙女南公園北側入口付近,38.307045,140.891525,緯度経度は怪しい
宮城県,仙台市,134,泉区八乙女四丁目９地内,八乙女四丁目公園西側入口付近,38.310551,140.898834,緯度経度は怪しい
宮城県,仙台市,135,泉区八乙女二丁目４－１,八乙女二丁目公園西側,38.309448,140.893051,緯度経度は怪しい
宮城県,仙台市,136,泉区八乙女三丁目１３地内,八乙女中央公園北側,38.308739,140.894714,緯度経度は怪しい
宮城県,仙台市,137,泉区八乙女四丁目２－２,みやぎ生活協同組合南側,38.3110578,140.8952934,
宮城県,仙台市,138,泉区八乙女一丁目５－９,八乙女一丁目公園南側,38.311523,140.891418,緯度経度は怪しい
宮城県,仙台市,139,泉区みずほ台５９,みずほ台公園南側,38.31279,140.878693,緯度経度は怪しい
宮城県,仙台市,140,泉区みずほ台７４,みずほ台南公園北側,38.310963,140.874313,緯度経度は怪しい
宮城県,仙台市,141,泉区虹の丘一丁目３－３０,虹の丘一丁目東公園西側,38.30529,140.874435,緯度経度は怪しい
宮城県,仙台市,142,泉区虹の丘一丁目９－３,虹の丘一丁目公園東側,38.306492,140.874496,緯度経度は怪しい
宮城県,仙台市,143,泉区虹の丘一丁目１０－１,虹の丘小学校西側,38.307377,140.873138,緯度経度は怪しい
宮城県,仙台市,144,泉区虹の丘一丁目１８地内,三島学園東北生活文化大学・高等学校入り口付近,38.302814,140.87027,緯度経度は怪しい
宮城県,仙台市,145,泉区虹の丘二丁目１０,虹の丘公園南側,38.306725,140.867188,緯度経度は怪しい
宮城県,仙台市,146,泉区虹の丘四丁目１０－６,県営虹の丘住宅集会所北側,38.3031253,140.8659295,
宮城県,仙台市,147,泉区上谷刈四丁目９（四丁目9-36隣り付近）,上谷刈新中谷地公園東側,38.315681,140.87088,緯度経度は怪しい
宮城県,仙台市,148,泉区上谷刈二丁目１地内（二丁目1-20付近）,狼河原公園西側,38.317406,140.873703,緯度経度は怪しい
宮城県,仙台市,149,泉区上谷刈一丁目３－３３,仙台市北部警察官待機宿舎入口右側,38.3162905,140.8784427,
宮城県,仙台市,150,泉区上谷刈三丁目８地内（三丁目7-14付近）,仮屋敷公園北側,38.31797,140.86911,緯度経度は怪しい
宮城県,仙台市,151,泉区上谷刈五丁目２３－８,丸山集会所(シーアイタウン八乙女町内会集会所）前,38.3125378,140.8697743,
宮城県,仙台市,152,泉区上谷刈字沼地内（上谷刈字沼下20-5付近）,仙台市下水道北管理センター入口付近,38.321957,140.869751,緯度経度は怪しい
宮城県,仙台市,153,泉区上谷刈四丁目１７地内（四丁目16-1付近）,長左エ門公園南側,38.315018,140.876099,緯度経度は怪しい
宮城県,仙台市,154,泉区加茂一丁目２４－１,加茂一丁目公園北側,38.312904,140.862976,緯度経度は怪しい
宮城県,仙台市,155,泉区加茂一丁目８－１地先,加茂一丁目ガソリンスタンド向い側,38.3145779,140.8655733,
宮城県,仙台市,156,泉区加茂二丁目２３－７,県営加茂住宅７号棟北側,38.31422999999999,140.8596007,
宮城県,仙台市,157,泉区加茂三丁目４－３,加茂三丁目公園東側,38.316322,140.85231,緯度経度は怪しい
宮城県,仙台市,158,泉区加茂一丁目３地内（一丁目4-3向い付近）,加茂入口バス停法面,38.314575,140.867981,緯度経度は怪しい
宮城県,仙台市,159,泉区加茂四丁目３,加茂小学校南側,38.313652,140.853851,緯度経度は怪しい
宮城県,仙台市,160,泉区加茂五丁目５－４,加茂五丁目公園東側,38.314777,140.848022,緯度経度は怪しい
宮城県,仙台市,161,泉区長命ケ丘二丁目１－２付近,長命ケ丘二丁目公園北側,38.316204,140.842896,緯度経度は怪しい
宮城県,仙台市,162,泉区長命ケ丘二丁目１１－１,長命ケ丘中学校北側,38.3125558,140.8400528,
宮城県,仙台市,163,泉区長命ケ丘四丁目２１－１３,長命ケ丘四丁目西公園南側,38.311047,140.836868,緯度経度は怪しい
宮城県,仙台市,164,泉区長命ケ丘五丁目２－１,長命ケ丘保育所北側,38.316523,140.8374423,
宮城県,仙台市,165,泉区長命ケ丘五丁目14地内（五丁目11-3向い付近）,長命ケ丘公園野球場東側,38.313934,140.834122,緯度経度は怪しい
宮城県,仙台市,166,泉区長命ケ丘五丁目１４－１,長命ケ丘小学校北側,38.3137352,140.8355265,
宮城県,仙台市,167,泉区長命ケ丘六丁目１０－１２,長命ケ丘児童センター東側,38.3136539,140.8311594,
宮城県,仙台市,168,泉区長命ケ丘東8-2（長命ケ丘東5-2向い付近）,長命ケ丘東公園南側,38.313515,140.843552,緯度経度は怪しい
宮城県,仙台市,169,泉区南中山一丁目２８－１,南中山一丁目南公園西側,38.3029982,140.830203,
宮城県,仙台市,170,泉区南中山二丁目８－３,南中山二丁目公園西側,38.3089213,140.8288758,
宮城県,仙台市,171,泉区南中山六丁目１８地内,ヨークベニマル南中山店駐車場出入り口向い側緑地,38.311508,140.81987,緯度経度は怪しい
宮城県,仙台市,172,泉区南中山二丁目２６－１,南中山中学校西側,38.3077399,140.8267999,
宮城県,仙台市,173,泉区南中山三丁目１０－２,南中山三丁目公園西側,38.312183,140.826477,緯度経度は怪しい
宮城県,仙台市,174,泉区南中山三丁目40地内（三丁目26-2向い付近）,南中山公園南側,38.315029,140.824829,緯度経度は怪しい
宮城県,仙台市,175,泉区南中山四丁目１８－１,南中山児童センター東側,38.3128034,140.8207898,
宮城県,仙台市,176,泉区南中山五丁目４地内(4-22付近),南中山五丁目公園 東側法面,38.310005,140.811737,緯度経度は怪しい
宮城県,仙台市,177,泉区北中山一丁目１２－２５,北中山一丁目ポンプ場東側,38.3172598,140.8247176,
宮城県,仙台市,178,泉区北中山一丁目１８－１１,北中山コミュニティ・センター西側,38.3189826,140.8202493,
宮城県,仙台市,179,泉区西中山二丁目１５,西中山バス停付近バス方向変換所前,38.30595,140.807175,緯度経度は怪しい
宮城県,仙台市,180,泉区北中山二丁目１６－２,北中山二丁目公園南側,38.318459,140.814667,緯度経度は怪しい
宮城県,仙台市,181,泉区北中山二丁目２７－５,北中山小学校西側,38.3159689,140.81425,
宮城県,仙台市,182,泉区北中山三丁目7（三丁目6-14向い付近）,北中山三丁目公園西側,38.314709,140.813049,緯度経度は怪しい
宮城県,仙台市,183,泉区北中山四丁目２５－６,北中山四丁目公園東側,38.312492,140.80899,緯度経度は怪しい
宮城県,仙台市,184,泉区北中山四丁目２０－１５,北中山四丁目北公園北側,38.3146281,140.8081134,
宮城県,仙台市,185,泉区実沢字宮東 地内（実沢字蒜屋敷25より南方面歩道）,実沢大橋北側野菜ハウス付近歩道,38.324665,140.824295,緯度経度は怪しい
宮城県,仙台市,186,泉区実沢字一本橋２０,旧実沢小学校南側,38.328545,140.821747,緯度経度は怪しい
宮城県,仙台市,187,泉区実沢字上３０－２,林泉寺入口付近市道沿い北側,38.323902,140.816299,緯度経度は怪しい
宮城県,仙台市,188,泉区実沢字二ノ関西地内（二ノ関屋敷32-5付近）,株式会社フコク仙台センター資材置場北側市道待避所付近,38.32568,140.811371,緯度経度は怪しい
宮城県,仙台市,189,泉区実沢字立田地内（実沢字八沢橋本11-1 付近）,八沢川バス停付近,38.32843,140.83522,緯度経度は怪しい
宮城県,仙台市,190,泉区小角字窪上東 地先（泉区小角字館前4付近）,窪バス停前西側,38.328102,140.80484,緯度経度は怪しい
宮城県,仙台市,191,泉区小角字下河原地内,泉自動車学校向い側歩道,38.329475,140.80809,緯度経度は怪しい
宮城県,仙台市,192,泉区館一丁目地内（館一丁目8-10付近),館一丁目公園東側,38.310085,140.794769,緯度経度は怪しい
宮城県,仙台市,193,泉区館一丁目10地内（館一丁目10-5付近）,泉ビレジ一丁目バス停付近（緑道）,38.309444,140.797577,緯度経度は怪しい
宮城県,仙台市,194,泉区館二丁目地内（館二丁目16-1付近）,館二丁目公園内館二丁目集会所南側,38.314442,140.795105,緯度経度は怪しい
宮城県,仙台市,195,泉区館三丁目地内（館三丁目2-8付近）,館三丁目西公園東側,38.319767,140.797699,緯度経度は怪しい
宮城県,仙台市,196,泉区館五丁目18地内（館五丁目18-3付近）,泉ビレジ五丁目バス停付近（緑道）,38.320011,140.80072,緯度経度は怪しい
宮城県,仙台市,197,泉区館六丁目１７－１,館中学校北側,38.3168415,140.7984105,
宮城県,仙台市,198,泉区館七丁目１－１７,館小学校西側,38.3117755,140.7988318,
宮城県,仙台市,199,泉区館四丁目28地内（館四丁目28-1付近）,館ゆりのき緑道,38.321781,140.798584,緯度経度は怪しい
宮城県,仙台市,200,泉区住吉台西一丁目７－７,住吉台西一丁目公園北側,38.327087,140.782394,緯度経度は怪しい
宮城県,仙台市,201,泉区住吉台西二丁目７－５,住吉台西二丁目公園北側,38.32946,140.777496,緯度経度は怪しい
宮城県,仙台市,202,泉区住吉台西四丁目１－１,住吉台小学校東側,38.3296387,140.7826184,
宮城県,仙台市,203,泉区住吉台東五丁目地内（住吉台東五丁目13-9 付近）,住吉台東五丁目公園西側,38.328644,140.791183,緯度経度は怪しい
宮城県,仙台市,204,泉区住吉台西四丁目地内（住吉台西四丁目25-3付近）,住吉台西四丁目東公園東側,38.331371,140.779846,緯度経度は怪しい
宮城県,仙台市,205,泉区住吉台東一丁目3-9（東二丁目8-20向い付近）,住吉台東一丁目公園北側,38.32674360000001,140.7850949,
宮城県,仙台市,206,泉区住吉台東一丁目11地内（住吉台東一丁目10-8付近）,住吉台東一丁目東公園南側,38.32692,140.786728,緯度経度は怪しい
宮城県,仙台市,207,泉区住吉台東四丁目６－８,住吉台東四丁目公園北側,38.33175019999999,140.7898363,
宮城県,仙台市,208,泉区西田中字萱場中 地内（西田中字並木南1-9向い）,住吉台南側入口ガソリンスタンド向い側,38.323414,140.790466,緯度経度は怪しい
宮城県,仙台市,209,泉区根白石字堂ノ沢 地内（根白石字町西上24 南隣）,ＪＡ仙台旧根白石支店跡地（高長商店 南隣）,38.366169,140.820984,緯度経度は怪しい
宮城県,仙台市,210,泉区根白石字判在家後 15 地先(判在家後28-4より北西方向付近),早坂自動車商会西側 国道457号線 Ｙ字路,38.334621,140.805847,緯度経度は怪しい
宮城県,仙台市,211,泉区根白石字杉下前２４,根白石市民センター西側,38.355473,140.811874,緯度経度は怪しい
宮城県,仙台市,212,泉区根白石字判在家 地内(根白石字新坂上8 斜め向い付近),年川水管橋下 西側たもと,38.334621,140.805847,緯度経度は怪しい
宮城県,仙台市,213,泉区根白石字町尻道下２８地内,ＪＡ仙台根白石支店駐車場西側,38.355473,140.811874,緯度経度は怪しい
宮城県,仙台市,214,泉区根白石字愛宕下西１１－２,山田川右岸新館下橋西側,38.355473,140.811874,緯度経度は怪しい
宮城県,仙台市,215,泉区西田中字萩坂前29 地先(西田中字萩坂前25 付近),住吉台北側入口付近,38.334827,140.789169,緯度経度は怪しい
宮城県,仙台市,216,泉区根白石字上館地内,国道457号線バイパス西田中住吉神社入口,38.33868,140.806503,緯度経度は怪しい
宮城県,仙台市,217,泉区福岡字平場 地内（福岡字上野原1-16付近）,県道泉ケ岳公園線七北田ダム入口バス停付近,38.388371,140.733109,緯度経度は怪しい
宮城県,仙台市,218,泉区福岡字大前通 地内（福岡字下野中沢2-15付近）,県道泉ケ岳公園線旗枠バス停付近,38.388371,140.733109,緯度経度は怪しい
宮城県,仙台市,219,泉区福岡字西泉９地先,西泉バス停付近,38.388371,140.733109,緯度経度は怪しい
宮城県,仙台市,220,泉区福岡字阿弥陀前 地内（福岡字阿弥陀前14-1付近）,ミニストップ仙台泉福岡店北側入口付近,38.388371,140.733109,緯度経度は怪しい
宮城県,仙台市,221,泉区福岡字堰添１０,福岡小学校西側,38.388371,140.733109,緯度経度は怪しい
宮城県,仙台市,222,泉区福岡字台 地先（福岡字狐崎20-1付近）,国道457号線バイパス福岡浄水場入口付近,38.388371,140.733109,緯度経度は怪しい
宮城県,仙台市,223,泉区福岡字熊ケ沢 地内（福岡字上畑31付近),県道泉ケ丘熊ケ根線杉の崎公会堂前バス停付近,38.388371,140.733109,緯度経度は怪しい
宮城県,仙台市,224,泉区福岡字川崎 地内（福岡字川崎4-4付近）,県道泉ケ岳公園線川崎上バス停西側,38.388371,140.733109,緯度経度は怪しい
宮城県,仙台市,225,泉区朴沢字狩集 地内（朴沢字狩集19付近）,水道局西脇配水ポンプ場東側,38.391838,140.785614,緯度経度は怪しい
宮城県,仙台市,226,泉区朴沢字南６８－１,朴沢集会所南側,38.391838,140.785614,緯度経度は怪しい
宮城県,仙台市,227,泉区朴沢字上鳥居原 地内（朴沢字上鳥居原2-5付近）,水道局朴沢ポンプ場南側,38.391838,140.785614,緯度経度は怪しい
宮城県,仙台市,228,泉区朴沢字原前４－３,朴沢クリーンセンター西側,38.391838,140.785614,緯度経度は怪しい
宮城県,仙台市,229,泉区朴沢字二階１５－２地内,勝山企業（株）勝山酒造部泉蔵入口付近,38.391838,140.785614,緯度経度は怪しい
宮城県,仙台市,230,泉区朴沢字大原地内,国道４５７号線下り線（朴沢大原地内）右カーブ付近,38.391838,140.785614,緯度経度は怪しい
宮城県,仙台市,231,泉区朴沢字小原前２４－４地先,国道４５７号線下り線ほこだて仏光堂根白石店南側Ｙ字路,38.391838,140.785614,緯度経度は怪しい
宮城県,仙台市,232,泉区朴沢字小田 地内 (朴沢字上原7付近),国道４５７号線上り線朴沢字小田地内Ｙ字路付近,38.391838,140.785614,緯度経度は怪しい
宮城県,仙台市,233,泉区寺岡一丁目１２－２９,寺岡一丁目公園東側,38.338039,140.837158,緯度経度は怪しい
宮城県,仙台市,234,泉区寺岡二丁目３－３０向い側,寺岡山南側,38.3353275,140.8310438,
宮城県,仙台市,235,泉区寺岡二丁目５－１,寺岡二丁目公園南側,38.336605,140.833649,緯度経度は怪しい
宮城県,仙台市,236,泉区寺岡二丁目１４－４,寺岡市民センター北側,38.3411439,140.8290161,
宮城県,仙台市,237,泉区寺岡三丁目１－３,寺岡児童センター東側,38.3405893,140.8263919,
宮城県,仙台市,238,泉区寺岡六丁目１２－８,寺岡六丁目公園南側,38.343498,140.831802,緯度経度は怪しい
宮城県,仙台市,239,泉区寺岡二丁目１２地内,寺岡中央公園東側,38.340321,140.833313,緯度経度は怪しい
宮城県,仙台市,240,泉区寺岡三丁目１６地内（13街区西側）,寺岡緑地（谷間公園）東側,38.339405,140.824844,緯度経度は怪しい
宮城県,仙台市,241,泉区高森一丁目1 地内（高森一丁目1-194付近）,高森一丁目東公園東側,38.338661,140.83992,緯度経度は怪しい
宮城県,仙台市,242,泉区高森三丁目１,高森小学校西側,38.3407907,140.8460901,
宮城県,仙台市,243,泉区高森六丁目15 地内（高森六丁目28-6付近）,高森六丁目公園南側,38.343243,140.851028,緯度経度は怪しい
宮城県,仙台市,244,泉区高森四丁目2 地内（高森四丁目2-108付近）,高森四丁目公園西側,38.336697,140.844894,緯度経度は怪しい
宮城県,仙台市,245,泉区高森五丁目２８－１,高森五丁目公園北側,38.33482,140.851318,緯度経度は怪しい
宮城県,仙台市,246,泉区高森六丁目1 地内（高森七丁目1-4付近）,高森東公園東側,38.340916,140.853226,緯度経度は怪しい
宮城県,仙台市,247,泉区高森六丁目２－１,高森中学校南側,38.339455,140.850494,緯度経度は怪しい
宮城県,仙台市,248,泉区北高森３０－１,北高森みはらしの丘公園南側,38.3469771,140.861295,
宮城県,仙台市,249,泉区桂一丁目３－１向い側,桂一丁目バス停南側緑地,38.3335961,140.8610263,
宮城県,仙台市,250,泉区桂二丁目34地内（桂三丁目7-11付近）,桂中央公園東側,38.339622,140.859406,緯度経度は怪しい
宮城県,仙台市,251,泉区桂二丁目35地内（桂二丁目11-7付近）,桂大倉緑地東側,38.337124,140.85643,緯度経度は怪しい
宮城県,仙台市,252,泉区桂三丁目１－１,桂小学校西側,38.339218,140.864944,緯度経度は怪しい
宮城県,仙台市,253,泉区桂三丁目13-4外（桂三丁目16-26付近）,桂三丁目公園西側,38.341297,140.864639,緯度経度は怪しい
宮城県,仙台市,254,泉区桂四丁目２９－１,桂四丁目公園西側,38.342789,140.86792,緯度経度は怪しい
宮城県,仙台市,255,泉区桂一丁目15地内（泉区桂一丁目16-7付近）,ダイシン桂店北側緑地（道路脇）,38.337029,140.866028,緯度経度は怪しい
宮城県,仙台市,256,泉区大沢二丁目１１－１,大沢二丁目公園西側,38.351246,140.875351,緯度経度は怪しい
宮城県,仙台市,257,泉区泉ケ丘一丁目１２－１４付近,泉ケ丘一丁目東公園北側,38.353253,140.8708974,
宮城県,仙台市,258,泉区泉ケ丘二丁目１０－１４付近,泉ケ丘二丁目公園南側,38.3537598,140.8685728,
宮城県,仙台市,259,泉区泉ケ丘二丁目13地内(泉ケ丘老人憩いの家13-7から南進),泉ケ丘二丁目１１街区西側 法面階段付近,38.35326,140.867264,緯度経度は怪しい
宮城県,仙台市,260,泉区泉ケ丘四丁目１１－２９,泉ケ丘児童センター東側,38.3580737,140.8663584,
宮城県,仙台市,261,泉区泉ケ丘五丁目２４地内（五丁目29-6向い側）,泉ケ丘五丁目公園北側,38.360775,140.864075,緯度経度は怪しい
宮城県,仙台市,262,泉区泉ケ丘三丁目１－２６,泉ケ丘コミュニティ・センター駐車場北側,38.3567486,140.8703094,
宮城県,仙台市,263,泉区明通四丁目１２－１,泉ケ丘小学校東側,38.356564,140.861984,緯度経度は怪しい
宮城県,仙台市,264,泉区泉ケ丘三丁目１４－１５,宮城交通北営業所南側法面,38.3588005,140.8727799,
宮城県,仙台市,265,泉区明石南一丁目11（明石南一丁目10-1付近）,明石南一丁目公園南側,38.339645,140.889236,緯度経度は怪しい
宮城県,仙台市,266,泉区明石南二丁目31地内（明石南二丁目9-12付近）,明石南一丁目バス停付近緑地,38.342857,140.890686,緯度経度は怪しい
宮城県,仙台市,267,泉区明石南四丁目20（明石南四丁目2-10付近）,明石南二丁目バス停付近緑地,38.345802,140.886627,緯度経度は怪しい
宮城県,仙台市,268,泉区明石南三丁目８,明石南運動広場南側法面,38.342018,140.887268,緯度経度は怪しい
宮城県,仙台市,269,泉区明石南四丁目８－３,明石南四丁目公園南側,38.345184,140.886948,緯度経度は怪しい
宮城県,仙台市,270,泉区明石南五丁目2地内（明石南五丁目2-2付近）,明石南五丁目南公園西側,38.341339,140.885132,緯度経度は怪しい
宮城県,仙台市,271,泉区明石南六丁目15（明石南六丁目1-1付近）,明石南六丁目公園西側入口,38.34499,140.883194,緯度経度は怪しい
宮城県,仙台市,272,泉区紫山一丁目20地内(集会所左側　紫山一丁目16-3付近),紫山一丁目公園南側,38.350262,140.82785,緯度経度は怪しい
宮城県,仙台市,273,泉区紫山二丁目３１－４,紫山二丁目公園西側,38.347183,140.827698,緯度経度は怪しい
宮城県,仙台市,274,泉区紫山三丁目14地内（紫山三丁目9-12付近),紫山三丁目公園西側,38.346912,140.823654,緯度経度は怪しい
宮城県,仙台市,275,泉区紫山四丁目8地内(集会所左側　紫山四丁目18-5付近),紫山四丁目公園北側,38.349277,140.820816,緯度経度は怪しい
宮城県,仙台市,276,泉区紫山四丁目8地内（紫山四丁目22-14付近）,紫山四丁目公園南側,38.349277,140.820816,緯度経度は怪しい
宮城県,仙台市,277,泉区紫山五丁目12（泉区紫山二丁目23-4向い付近),紫山公園南側,38.350563,140.824417,緯度経度は怪しい
宮城県,仙台市,278,泉区紫山五丁目12（紫山五丁目40-3向い付近）,紫山公園北側,38.350563,140.824417,緯度経度は怪しい
宮城県,仙台市,1,若林区一本杉町2-1,南小泉中学校塀西側,38.243681,140.904682,
宮城県,仙台市,2,若林区一本杉町2-1,南小泉中学校塀北側,38.243681,140.904682,
宮城県,仙台市,3,若林区保春院前丁3-1,若林区役所北側,38.2441912,140.9015314,
宮城県,仙台市,4,若林区南小泉一丁目1-1,若林区文化センター前敷地北側,38.2425647,140.9010572,
宮城県,仙台市,5,若林区一本杉町8-7先,南小泉茂庭線歩道柵（一本杉町8-7西側）,38.242607,140.908249,緯度経度は怪しい
宮城県,仙台市,6,若林区南小泉四丁目17-10先,歩道柵（南小泉四丁目17-10南側）,38.2381109,140.9052966,
宮城県,仙台市,7,若林区南小泉一丁目9-17,増尾造園(株)前敷地南側,38.2415578,140.9006479,
宮城県,仙台市,8,若林区若林四丁目2-1,若林老人憩の家塀西側,38.2302158,140.900329,
宮城県,仙台市,9,若林区若林三丁目15-20,若林市民センター塀東側,38.2313598,140.9019476,
宮城県,仙台市,10,若林区若林七丁目8-20先,歩道柵（若林七丁目8-20北東側）,38.2271688,140.9063668,
宮城県,仙台市,11,若林区若林四丁目4地内（若林四丁目43-74）,若林公園南側,38.228577,140.900208,緯度経度は怪しい
宮城県,仙台市,12,若林区若林四丁目2-20,若林市営住宅敷地（集会所前植込）,38.2297346,140.9019666,
宮城県,仙台市,13,若林区古城三丁目26-10,南小泉交通公園西側,38.2323106,140.9063924,
宮城県,仙台市,14,若林区若林二丁目7-1,若林西市営住宅集会所前,38.2316003,140.895528,
宮城県,仙台市,15,若林区若林一丁目3-10,早昌不動産・若林一丁目3-10敷地南側,38.2347122,140.8919384,
宮城県,仙台市,16,若林区南材木町84,南材木町小学校塀南側,38.2410943,140.8890845,
宮城県,仙台市,17,若林区南材木町84,南材木町小学校塀北側,38.2410943,140.8890845,
宮城県,仙台市,18,若林区南小泉字八軒小路9-1,八軒中学校塀西側,38.240814,140.892395,緯度経度は怪しい
宮城県,仙台市,19,若林区南小泉字八軒小路5-4,南材コミュニティ・センター敷地西側,38.240334,140.893509,緯度経度は怪しい
宮城県,仙台市,20,若林区舟丁27-2先,歩道柵（ポケットパーク内）,38.2430934,140.8878616,
宮城県,仙台市,21,若林区河原町二丁目1-11,弘進ゴム(株)塀北側,38.2396545,140.8925915,
宮城県,仙台市,22,若林区河原町一丁目4-20先,河原町駐車場柵北側,38.2387793,140.8894751,
宮城県,仙台市,23,若林区南染師町59先,水路柵（南染師町59南側）,38.24420629999999,140.8926148,
宮城県,仙台市,24,若林区荒町86,荒町小学校西側正門右側柵,38.2485509,140.8810051,
宮城県,仙台市,25,若林区土樋225-2先（土樋223-8地先）,愛宕橋欄干北東側,38.2464339,140.881465,
宮城県,仙台市,26,若林区荒町36-6外,荒町公園西側,38.248158,140.884033,緯度経度は怪しい
宮城県,仙台市,27,若林区荒町86-2,荒町市民センター北側植栽,38.2490762,140.881866,
宮城県,仙台市,28,若林区土樋一丁目11-8先,地下鉄愛宕橋駅出入口前植込,38.2473988,140.8810994,
宮城県,仙台市,29,若林区石名坂83,東北電力(株)石名坂アパート塀東側,38.2435321,140.8862767,
宮城県,仙台市,30,若林区五橋三丁目1-1先（五橋三丁目324-9地先）,歩道柵（東海住宅北目町歩道橋南東側付近）,38.2550871,140.8823288,
宮城県,仙台市,31,若林区南鍛冶町68-1先,歩道柵（南鍛冶町68-1東側・南鍛冶町橋下）,38.248277,140.8888927,
宮城県,仙台市,32,若林区連坊一丁目7-27,連坊小路小学校塀東側,38.2523199,140.888423,
宮城県,仙台市,33,若林区新寺三丁目6,新寺三丁目公園南側,38.2550467,140.8880012,
宮城県,仙台市,34,若林区新寺四丁目2地内,新寺四丁目公園北側,38.2538962,140.8914266,
宮城県,仙台市,35,若林区新寺五丁目9地内,新寺五丁目公園西側,38.255638,140.896072,緯度経度は怪しい
宮城県,仙台市,36,若林区元茶畑4先,連坊駅エレベーター出口前植込,38.2501485,140.8938565,
宮城県,仙台市,37,若林区元茶畑4,宮城県仙台第一高等学校塀西側,38.2501485,140.8938565,
宮城県,仙台市,38,若林区連坊二丁目10-33先(連坊二丁目328-1),連坊あづま児童公園南側,38.251041,140.89418,緯度経度は怪しい
宮城県,仙台市,39,若林区元茶畑10-16先,歩道柵（東漸寺北側）,38.2499336,140.8902717,
宮城県,仙台市,40,若林区連坊二丁目6-5先,若林消防団連坊分団連坊部コミュニティ消防センター柵,38.2539763,140.8938165,
宮城県,仙台市,41,若林区木ノ下一丁目25-25先,聖ウルスラ学院木ノ下キャンパス南側植込,38.250026,140.8965014,
宮城県,仙台市,42,若林区白萩25地内（白萩町62番地）,白萩公園南側,38.251045,140.908234,緯度経度は怪しい
宮城県,仙台市,43,若林区木ノ下五丁目7-30,東北電力(株)木ノ下アパート塀西側,38.2477105,140.9033697,
宮城県,仙台市,44,若林区木ノ下五丁目4-7先,水路上歩道柵（木ノ下五丁目4-7東側）,38.2491613,140.9056534,
宮城県,仙台市,45,若林区椌木通61-1先(61-13),椌木緑地西側,38.248173,140.898148,緯度経度は怪しい
宮城県,仙台市,46,若林区木ノ下一丁目23-23,連坊コミュニティ・センター別館木ノ下コミュニティ防災センター前,38.2499653,140.8989256,
宮城県,仙台市,47,若林区木ノ下三丁目16地内,薬師堂駅駐輪場南側植込,38.25005,140.904846,緯度経度は怪しい
宮城県,仙台市,48,若林区一本杉町17-10,南小泉小学校塀北側,38.2446041,140.904495,
宮城県,仙台市,49,若林区一本杉町25地内,一本杉町公園西側,38.245502,140.903687,緯度経度は怪しい
宮城県,仙台市,50,若林区大和町一丁目22地内,大和町一丁目東公園西側,38.246559,140.909164,緯度経度は怪しい
宮城県,仙台市,51,若林区大和町一丁目19地内（大和町一丁目205-32）,大和町一丁目南公園南側,38.247795,140.908554,緯度経度は怪しい
宮城県,仙台市,52,若林区一本杉町19-22先,歩道柵（薬師高砂堀通り若林区役所北東交差点付近）,38.2453338,140.9021694,
宮城県,仙台市,53,若林区中倉一丁目4-10先,宮城の萩大通り道路植栽地（整骨院西側）,38.2453006,140.9095785,
宮城県,仙台市,54,若林区中倉一丁目11地内（102-15）,中倉一丁目公園北側,38.243584,140.91011,緯度経度は怪しい
宮城県,仙台市,55,若林区大和町三丁目16-1,大和小学校塀北側,38.2462198,140.917347,
宮城県,仙台市,56,若林区大和町三丁目16-1,大和小学校塀東側,38.2462198,140.917347,
宮城県,仙台市,57,若林区大和町四丁目21地内,牛踏公園北側,38.2492745,140.9186638,
宮城県,仙台市,58,若林区大和町五丁目7地内,松木公園南側,38.2503566,140.9217669,
宮城県,仙台市,59,若林区卸町四丁目3-1,仙台市中央卸売市場塀（正門脇バス停付近）,38.2584087,140.9343733,
宮城県,仙台市,60,若林区中倉二丁目24-1,県営中倉住宅塀南側,38.2438322,140.9191541,
宮城県,仙台市,61,若林区大和町五丁目29-26,大和町市営住宅入口フェンス,38.2467385,140.9239395,
宮城県,仙台市,62,若林区大和町四丁目19地内,卸町駅南側入口植込,38.250725,140.919922,緯度経度は怪しい
宮城県,仙台市,63,若林区遠見塚一丁目22-1,遠見塚小学校塀西側,38.2386242,140.9126174,
宮城県,仙台市,64,若林区遠見塚二丁目22-28先,遠見塚二丁目南公園東側,38.2397543,140.9133023,
宮城県,仙台市,65,若林区遠見塚二丁目16地内,遠見塚二丁目２号公園北側,38.240356,140.9095,緯度経度は怪しい
宮城県,仙台市,66,若林区遠見塚二丁目15-24先,遠見塚二丁目公園東側,38.2410095,140.9113632,
宮城県,仙台市,67,若林区遠見塚東9地内,遠見塚東公園北側,38.2357071,140.9141879,
宮城県,仙台市,68,若林区遠見塚一丁目4-33先,宮城の萩大通り・遠見塚一丁目4-33西側歩道植込,38.2379009,140.9075013,
宮城県,仙台市,69,若林区遠見塚一丁目14-1,南小泉保育所塀東側,38.2379326,140.9100792,
宮城県,仙台市,70,若林区遠見塚二丁目25-20,若林消防署敷地東側,38.2427951,140.9139975,
宮城県,仙台市,71,若林区蒲町41-1,蒲町小学校塀東側,38.2423959,140.929292,
宮城県,仙台市,72,若林区蒲町9-1,蒲町中学校塀南側,38.2474864,140.9278515,
宮城県,仙台市,73,若林区なないろの里一丁目11-18,なないろの里２号公園南側,38.241453,140.9278513,
宮城県,仙台市,74,若林区蒲町32地内,蒲町公園西側,38.242638,140.925064,緯度経度は怪しい
宮城県,仙台市,75,若林区かすみ町9-1,交通局霞の目営業所塀南側,38.2403987,140.9205668,
宮城県,仙台市,76,若林区蒲町東11-1,七郷中央公園西側,38.2452659,140.9333536,
宮城県,仙台市,77,若林区霞目二丁目15-37,浪分神社柵南側,38.2353928,140.9276854,
宮城県,仙台市,78,若林区なないろの里三丁目5-19,なないろの里５号公園北側,38.2385439,140.9344903,
宮城県,仙台市,79,若林区なないろの里三丁目2-29,なないろの里６号公園北側,38.2374579,140.9307206,
宮城県,仙台市,80,若林区荒井三丁目17-1,七郷小学校塀南側,38.2409413,140.9421237,
宮城県,仙台市,81,若林区荒井三丁目7-2,七郷市民センター塀北側,38.2426051,140.9410587,
宮城県,仙台市,82,若林区荒井東一丁目9,荒井駅南側バスプール,38.241802,140.949707,緯度経度は怪しい
宮城県,仙台市,83,若林区荒井字四ツ谷東69,四ツ谷公会堂,38.236736,140.96167,緯度経度は怪しい
宮城県,仙台市,84,若林区荒井字五才北138先（荒井字五才北161-2）,歩道柵（笹新田西バス停西側）,38.247189,140.945343,緯度経度は怪しい
宮城県,仙台市,85,若林区,masked,38.221474,140.948547,緯度経度は怪しい
宮城県,仙台市,86,若林区荒井東二丁目1-1,荒井東市営住宅敷地西側,38.2363381,140.9508354,
宮城県,仙台市,87,若林区荒井南67,荒井南１号公園南側,38.237144,140.942444,緯度経度は怪しい
宮城県,仙台市,88,若林区荒井七丁目14-1,荒井７丁目公園東側,38.2403119,140.9469397,
宮城県,仙台市,89,若林区伊在三丁目2-1,荒井小学校塀北側,38.2476801,140.9407374,
宮城県,仙台市,90,若林区伊在三丁目2-1,荒井小学校塀西側,38.2476801,140.9407374,
宮城県,仙台市,91,若林区六丁の目北町1-68,六丁の目北町1-68塀南側,38.2509919,140.9479427,
宮城県,仙台市,92,若林区六丁の目北町9-3,六丁の目北町公園西側,38.25246,140.94957,緯度経度は怪しい
宮城県,仙台市,93,若林区六丁の目南町6-2,六丁の目南町公園北側,38.24941140000001,140.9409372,
宮城県,仙台市,94,若林区卸町東二丁目4-1,卸町東二丁目公園南側,38.2594952,140.9484133,
宮城県,仙台市,95,若林区六丁の目中町9-1,六丁の目中町西公園北側,38.2530951,140.9391254,
宮城県,仙台市,96,若林区伊在二丁目21-1,伊在二丁目公園南側,38.2460804,140.9379717,
宮城県,仙台市,97,若林区二木字山王77-2,東六郷コミュニティ・センター塀北側,38.198811,140.948593,緯度経度は怪しい
宮城県,仙台市,98,若林区種次字道元47-2先（二木字笠神341先）,歩道柵（種次入口バス停北側）,38.201672,140.945786,緯度経度は怪しい
宮城県,仙台市,99,若林区二木字山王3先,歩道柵（東六郷コミュニティ・センター前バス停東側）,38.200439,140.952118,緯度経度は怪しい
宮城県,仙台市,100,若林区種次字中屋敷47-1先,種次公会堂南側フェンス,38.196323,140.945969,緯度経度は怪しい
宮城県,仙台市,101,若林区三本塚字下新田222-1先（三本塚字下新田374）,歩道柵（長屋敷作業組合穀物共同乾燥調製施設向側）,38.212402,140.961548,緯度経度は怪しい
宮城県,仙台市,102,若林区二木字大口5先,歩道柵（井土浜バス停前）,38.199455,140.957428,緯度経度は怪しい
宮城県,仙台市,103,若林区種次字南番古55-1,中野バス停西側,38.192047,140.953461,緯度経度は怪しい
宮城県,仙台市,104,若林区三本塚字権太125,三本塚公会堂,38.209435,140.95195,緯度経度は怪しい
宮城県,仙台市,105,若林区六郷11-11,六郷小学校塀北側,38.21538899999999,140.9331421,
宮城県,仙台市,106,若林区六郷13-1,六郷中学校塀西側,38.2134536,140.9340645,
宮城県,仙台市,107,若林区今泉二丁目3-33先（今泉二丁目73-37）,飯田前公園（今泉神社前バス停付近）,38.212681,140.927338,緯度経度は怪しい
宮城県,仙台市,108,若林区今泉字久保田東32-65,若林消防署六郷分署塀北側（入口西側）,38.2113,140.930054,緯度経度は怪しい
宮城県,仙台市,109,若林区上飯田二丁目17地内（上飯田二丁目145-29）,土手畑２号公園南側,38.217632,140.9133,緯度経度は怪しい
宮城県,仙台市,110,若林区上飯田三丁目1-3先,歩道柵（上飯田三丁目バス停南側）,38.2184118,140.9210229,
宮城県,仙台市,111,若林区今泉字鹿子穴140,今泉運動場駐車場塀北側,38.205452,140.926208,緯度経度は怪しい
宮城県,仙台市,112,若林区日辺字沖田東15,ニッペリア敷地東側,38.213764,140.920212,緯度経度は怪しい
宮城県,仙台市,113,若林区今泉一丁目3-19,六郷市民センター塀南側,38.2149069,140.9275154,
宮城県,仙台市,114,若林区上飯田四丁目17-3先,上飯田大町６号公園北側,38.2170158,140.9294184,
宮城県,仙台市,115,若林区沖野三丁目20-1,沖野小学校塀西側,38.2259822,140.9140646,
宮城県,仙台市,116,若林区沖野三丁目31地内（沖野三丁目91-5）,中柵東７号公園西側,38.226597,140.915817,緯度経度は怪しい
宮城県,仙台市,117,若林区沖野二丁目26地内,館西３号公園南側,38.230427,140.91452,緯度経度は怪しい
宮城県,仙台市,118,若林区沖野二丁目14地内,新神柵公園北側,38.229465,140.911728,緯度経度は怪しい
宮城県,仙台市,119,若林区沖野一丁目41-3先,水路北側（沖野一丁目41-3南側）,38.2314346,140.9110581,
宮城県,仙台市,120,若林区沖野二丁目29-50,沖野中学校塀西側,38.2293731,140.9167171,
宮城県,仙台市,121,若林区沖野五丁目4-33,六郷幼稚園塀東側,38.2237221,140.9105941,
宮城県,仙台市,122,若林区沖野二丁目15-30,沖野二丁目15-30塀東側,38.2286499,140.9119853,
宮城県,仙台市,123,若林区沖野字高野南89,沖野東小学校塀西側,38.222298,140.923355,緯度経度は怪しい
宮城県,仙台市,124,若林区沖野七丁目34-43,沖野市民センター塀東側,38.22499570000001,140.9222325,
宮城県,仙台市,125,若林区沖野七丁目11地内,中柵東４号公園南側,38.227242,140.917023,緯度経度は怪しい
宮城県,仙台市,126,若林区沖野六丁目16地内,河原下６号公園南側,38.22448,140.916702,緯度経度は怪しい
宮城県,仙台市,127,若林区沖野六丁目29-3先,館南９号公園北側,38.2253024,140.9194362,
宮城県,仙台市,128,若林区上飯田字天神41-1先,天神公園南側,38.218578,140.925964,緯度経度は怪しい
宮城県,仙台市,129,若林区上飯田一丁目17-58,つどいの家・コペル塀西側,38.2205371,140.9174608,
宮城県,仙台市,130,若林区古城二丁目1-1,古城小学校塀西側,38.2361507,140.8970807,
宮城県,仙台市,131,若林区若林一丁目8-6-1先（若林一丁目79-24）,若林一丁目北公園北側,38.235664,140.897827,緯度経度は怪しい
宮城県,仙台市,132,若林区古城一丁目1-15,古城コミュニティ・センター塀南側,38.2380194,140.8961715,
宮城県,仙台市,133,若林区文化町15地内,文化町２号公園南側,38.241131,140.894836,緯度経度は怪しい
宮城県,仙台市,134,若林区文化町9-3先（78-9地先）,水路柵（文化町9-3北側）,38.2427157,140.8969494,
宮城県,仙台市,135,若林区南小泉三丁目21-22先（135-1地先）,水路柵（古城二丁目バス停付近・北側のバス停の東側）,38.2373879,140.899031,
宮城県,仙台市,136,若林区若林一丁目8地内,若林一丁目公園南側,38.235138,140.897797,緯度経度は怪しい
宮城県,仙台市,137,若林区古城二丁目5地内,宮城刑務所（南小泉三丁目バス停南側）,38.237816,140.903595,緯度経度は怪しい
宮城県,仙台市,138,若林区大和町二丁目9-15,大和コミュニティ・センター西側,38.2473247,140.9148247,
宮城県,仙台市,139,若林区中倉二丁目19-25,大和児童館南側フェンス,38.2457152,140.9171166,
宮城県,仙台市,140,若林区大和町二丁目1-14先,市道２６７号南側植栽地（大和町二丁目1-14北側）,38.2487378,140.9120745,
宮城県,仙台市,141,若林区志波町4-18先,市道２６７号北側植栽地（大和町二丁目バス停付近）,38.2492303,140.9121214,
宮城県,仙台市,142,若林区大和町二丁目29-18先,宮城の萩大通り道路植栽地（ピザ店西側）,38.2466437,140.9101319,
宮城県,仙台市,143,若林区大和町三丁目18,尼坪公園北側,38.2462939,140.9165497,
宮城県,仙台市,144,若林区大和町三丁目18,尼坪公園西側,38.2462939,140.9165497,
宮城県,仙台市,145,若林区大和町四丁目6-1先,ヨークマルシェ大和町店南側植栽地,38.2492783,140.9144661,
宮城県,仙台市,1,青葉区上杉一丁目１０番１号,仙台市立上杉山通小学校東側,38.2717653,140.8739352,
宮城県,仙台市,2,青葉区上杉一丁目１４番内（14番地の9）,仙台市外記丁通公園北側,38.271748,140.8714025,
宮城県,仙台市,3,青葉区上杉二丁目１番内(338番地の1),仙台市勝山公園東側,38.2736294,140.8729002,
宮城県,仙台市,4,青葉区上杉二丁目１番内(338番地の1),仙台市勝山公園南側,38.2736294,140.8729002,
宮城県,仙台市,5,青葉区上杉四丁目１番内(239番地の3外),仙台市上杉公園南側,38.2711919,140.8788165,
宮城県,仙台市,6,青葉区本町二丁目２１番内(21番地の1),仙台市錦町公園東側,38.2661384,140.8753224,
宮城県,仙台市,7,青葉区本町三丁目９番内(9番地の3外),仙台市勾当台公園北側,38.2654534,140.8717418,
宮城県,仙台市,8,青葉区本町三丁目９番内(9番地の2外),仙台市勾当台公園南側,38.2654534,140.8717418,
宮城県,仙台市,9,青葉区上杉一丁目５番1号,青葉区役所西側,38.269075,140.8704473,
宮城県,仙台市,10,青葉区木町通一丁目７番３６号,仙台市立木町通小学校北側,38.2710134,140.8645156,
宮城県,仙台市,11,青葉区木町通一丁目７番内(343番地),仙台市北三番丁公園東側,38.27059149999999,140.8637734,
宮城県,仙台市,12,青葉区木町通二丁目４番１号,仙台市立第二中学校南側,38.2736003,140.8644094,
宮城県,仙台市,13,青葉区星陵町４番１号,東北大学加齢医学研究所南側,38.2742253,140.8603138,
宮城県,仙台市,14,青葉区星陵町１番１号,東北大学病院南側,38.2718765,140.8605924,
宮城県,仙台市,15,青葉区木町通一丁目3番内,（公財）仙台市建設公社駐車場,38.2678907,140.8631009,
宮城県,仙台市,16,青葉区春日町７番内（7番地の11）,仙台市春日町公園西側,38.266621,140.865714,
宮城県,仙台市,17,青葉区本町三丁目９番内(9番地の3外),仙台市勾当台公園市民広場,38.2654534,140.8717418,
宮城県,仙台市,18,青葉区木町通一丁目７番３６号,仙台市立木町通小学校西側,38.2710134,140.8645156,
宮城県,仙台市,19,青葉区通町一丁目１番１号,仙台市立通町小学校南側,38.2765746,140.8631272,
宮城県,仙台市,20,青葉区柏木一丁目５番３５号,柏木保育園北側,38.275081,140.8623262,
宮城県,仙台市,21,青葉区木町１４番内,仙台北山郵便局南側,38.2795501,140.8599876,
宮城県,仙台市,22,青葉区北山一丁目７番内（183番地の1）,北山一丁目７番内（輪王寺前バス停東側）,38.2815905,140.85917,
宮城県,仙台市,23,青葉区青葉町６番内(183番地の2),仙台市通町公園南側,38.2808482,140.8635368,
宮城県,仙台市,24,青葉区通町一丁目6番10号,仙台市通町市営住宅北側,38.2778817,140.8670844,
宮城県,仙台市,25,青葉区通町一丁目１番１号,仙台市立通町小学校西側,38.2765746,140.8631272,
宮城県,仙台市,26,青葉区通町二丁目３番内,月極駐車場エルタスパーク南側,38.2796028,140.865913,
宮城県,仙台市,27,青葉区上杉六丁目７番１号,仙台市立上杉山中学校西側,38.2781874,140.8737637,
宮城県,仙台市,28,青葉区上杉六丁目４番１号,宮城教育大学附属中学校西側,38.27792,140.8756334,
宮城県,仙台市,29,青葉区堤通雨宮町１番２０号,仙台厚生病院西側,38.2778689,140.8714001,
宮城県,仙台市,30,青葉区上杉六丁目７番１号,仙台市立上杉山中学校北側,38.2781874,140.8737637,
宮城県,仙台市,31,青葉区堤通雨宮町４番１７号,宮城県仙台合同庁舎西側,38.2779919,140.8677748,
宮城県,仙台市,32,青葉区上杉六丁目４番１号,宮城教育大学附属小学校北側,38.27792,140.8756334,
宮城県,仙台市,33,青葉区堤町一丁目３番内（101番90）,堤町一丁目３番内　ファミリーマート北側,38.2826894,140.8709985,
宮城県,仙台市,34,青葉区堤町一丁目１０番内,堤町一丁目１０番内　日浄寺入口東側,38.283497,140.8692376,
宮城県,仙台市,35,青葉区宮町四丁目４番１７号,仙台市立北六番丁小学校北側,38.2762062,140.882464,
宮城県,仙台市,36,青葉区宮町四丁目５番５７号,東北電力宮町アパート,38.274513,140.8824633,
宮城県,仙台市,37,青葉区宮町四丁目３番４３号,masked,38.2755124,140.8805063,
宮城県,仙台市,38,青葉区宮町四丁目４番１７号,仙台市立北六番丁小学校西側,38.2762062,140.882464,
宮城県,仙台市,39,青葉区東照宮一丁目３番１号,仙台市立五城中学校北側,38.279265,140.8833694,
宮城県,仙台市,40,青葉区東照宮一丁目１８番１号,仙台市児童相談所西側,38.2810727,140.8829683,
宮城県,仙台市,41,青葉区宮町五丁目３番５号,東急ドエルアルス東照宮明水館東側,38.2771181,140.8843467,
宮城県,仙台市,42,青葉区上杉五丁目５番内（209番地の3）,仙台市上杉杜の公園,38.27475039999999,140.8788122,
宮城県,仙台市,43,青葉区宮町一丁目２番１号,仙台市立東六番丁小学校西側,38.2660626,140.8841655,
宮城県,仙台市,44,青葉区小田原四丁目3番内（115番地の155）,仙台市小田原四丁目公園北側,38.267888,140.889025,
宮城県,仙台市,45,青葉区花京院一丁目１番内(195番地の10外）,花京院緑地南側,38.2638393,140.8806623,
宮城県,仙台市,46,青葉区中央一丁目3番10号（宮城野橋の下）,仙台駅自転車保管所北側,38.2631798,140.881998,
宮城県,仙台市,47,青葉区中央一丁目３番内（33番地の10）,宮城野橋南西側,38.2628806,140.8809099,
宮城県,仙台市,48,青葉区宮町二丁目１番２３号,宮町県職員住宅,38.270705,140.8831138,
宮城県,仙台市,49,青葉区小田原四丁目３番２０号,常盤木学園西側,38.2696668,140.8899353,
宮城県,仙台市,50,青葉区小田原四丁目１４番内（115番地の132）,仙台市小田原青葉のまち公園,38.2680718,140.8916187,
宮城県,仙台市,51,青葉区一番町二丁目１番４号,仙台市立東二番丁小学校東側,38.2589858,140.8750167,
宮城県,仙台市,52,青葉区五橋一丁目１番内(1番地の7),仙台市五橋公園東側,38.2560649,140.8815029,
宮城県,仙台市,53,青葉区中央四丁目５番１号,イムス明理会仙台総合病院,38.25756579999999,140.8773822,
宮城県,仙台市,54,青葉区五橋一丁目１番内(1番地の7),仙台市五橋公園南側,38.2560649,140.8815029,
宮城県,仙台市,55,青葉区中央一丁目１番内,仙台駅ペデストリアンデッキ北側,38.2595621,140.882225,
宮城県,仙台市,56,青葉区一番町三丁目７番１号,電力ビル本館西側,38.2616873,140.8734806,
宮城県,仙台市,57,青葉区中央一丁目１番内,仙台駅ペデストリアンデッキ南側,38.2595621,140.882225,
宮城県,仙台市,58,青葉区五橋二丁目２番１号,仙台市立五橋中学校東側,38.2521422,140.8792063,
宮城県,仙台市,59,青葉区五橋二丁目２番１号,仙台市立五橋中学校北側,38.2521422,140.8792063,
宮城県,仙台市,60,青葉区土樋一丁目１０番内,東北学院大学(職員用駐車場北側）,38.2479001,140.8787932,
宮城県,仙台市,61,青葉区片平二丁目１番１号,東北大学電気通信研究所南側,38.2515119,140.8753007,
宮城県,仙台市,62,青葉区片平二丁目１番１号,東北大学ナノスピン総合研究棟西側,38.2515119,140.8753007,
宮城県,仙台市,63,青葉区片平二丁目１番１号,東北大学多元物質科学研究所南側,38.2515119,140.8753007,
宮城県,仙台市,64,青葉区片平二丁目１番１号,東北大学金属材料研究所北側,38.2515119,140.8753007,
宮城県,仙台市,65,青葉区片平一丁目７番１号,仙台市立片平丁小学校西側,38.2556168,140.869749,
宮城県,仙台市,66,青葉区一番町一丁目１７番内,裁判所向三角公園,38.2571523,140.8692537,
宮城県,仙台市,67,青葉区大手町１０番内,仙台市大手町公園,38.2562285,140.8618532,
宮城県,仙台市,68,青葉区花壇１番内(70番地の9),仙台市評定河原野球場,38.2565148,140.8671451,
宮城県,仙台市,69,青葉区霊屋下１２番内(１０８番地）,瑞鳳殿第２駐車場,38.2542527,140.8684379,
宮城県,仙台市,70,青葉区大手町500番地,仙臺大神宮南西側,38.2575046,140.8632691,
宮城県,仙台市,71,青葉区米ケ袋一丁目１番３５号,仙台市片平市民センタ－,38.2538803,140.8705711,
宮城県,仙台市,72,青葉区片平一丁目７番１号,仙台市立片平丁小学校東側,38.2556168,140.869749,
宮城県,仙台市,73,青葉区立町８番１号,仙台市立立町小学校南側,38.3032537,140.8510983,緯度経度は怪しい
宮城県,仙台市,74,青葉区立町８番１号,仙台市立立町小学校西側,38.3032537,140.8510983,緯度経度は怪しい
宮城県,仙台市,75,青葉区国分町二丁目９番内(9番地の13外),仙台市元鍛冶町公園北西側,38.264142,140.8688273,
宮城県,仙台市,76,青葉区桜ケ岡公園３番内(3番地の2外),仙台市西公園（トークネットホール仙台南側),38.2620441,140.8606659,
宮城県,仙台市,77,青葉区桜ケ岡公園１番内(1番地の1外),仙台市西公園(大町交番)北側,38.2604743,140.8622262,
宮城県,仙台市,78,青葉区大町二丁目４番内（４番地の２）,西松建設㈱南側駐車場,38.25936859999999,140.8654329,
宮城県,仙台市,79,青葉区国分町一丁目２番内(2番地の2),仙台市肴町公園北側,38.2609736,140.8699796,
宮城県,仙台市,80,青葉区桜ケ岡公園１番内(1番地の1外),仙台市西公園（大町西公園駅）南側,38.2604743,140.8622262,
宮城県,仙台市,81,青葉区川内大工町無番地,川内大工町地内（仙台第二高等学校東南先）,38.2627218,140.858362,
宮城県,仙台市,82,青葉区川内澱橋通１番地,仙台第二高等学校西側,38.2636548,140.8571033,
宮城県,仙台市,83,青葉区川内41番地先（43番地の2）,仙台市地下鉄川内駅前,38.2592159,140.8508118,緯度経度は怪しい
宮城県,仙台市,84,青葉区川内亀岡町６３番地の１,仙台市川内コミュニティ･センター,38.2608387,140.8462787,
宮城県,仙台市,85,青葉区荒巻字三居沢地内(11番地の5外),交通公園前バス停北側,38.2682608,140.8397943,緯度経度は怪しい
宮城県,仙台市,86,青葉区川内追廻無番地,博物館国際センター前バス停,38.2540456,140.8603161,
宮城県,仙台市,87,青葉区川内４１番地,東北大学川内北キャンパス前,38.2592159,140.8508118,緯度経度は怪しい
宮城県,仙台市,88,青葉区荒巻字青葉３４１番地の６,仙台市青葉山町内会集会所,38.2488144,140.824552,緯度経度は怪しい
宮城県,仙台市,89,青葉区折立四丁目２番１号,仙台市立折立小学校西側,38.2602146,140.8085736,
宮城県,仙台市,90,青葉区折立四丁目１４番２号,住宅供給公社アパート,38.2617407,140.8047623,
宮城県,仙台市,91,青葉区西花苑二丁目１０番１号,西花苑一丁目・二丁目集会所北側,38.2634948,140.8001589,
宮城県,仙台市,92,青葉区西花苑一丁目４番内,仙台市西花苑公園野球場南側,38.2675322,140.8010815,
宮城県,仙台市,93,青葉区折立三丁目４番内（８番地の６）,仙台市青葉区折立公園西側,38.2657067,140.8055112,
宮城県,仙台市,94,青葉区折立三丁目２０番２号,仙台市広瀬川浄化センター南側,38.26333839999999,140.8085862,
宮城県,仙台市,95,青葉区折立一丁目２番先,折立一丁目２番先（ガス局施設）,38.2636462,140.8111549,
宮城県,仙台市,96,青葉区茂庭字湯ノ沢６３番地の１,masked,38.2529407,140.8061959,緯度経度は怪しい
宮城県,仙台市,97,青葉区八幡一丁目６番２号,宮城第一高等学校西側,38.26877229999999,140.851595,
宮城県,仙台市,98,青葉区八幡一丁目９番２７号,尚絅学院高等学校グラウンド北側,38.2672889,140.8546688,
宮城県,仙台市,99,青葉区角五郎一丁目１番内,角五郎一丁目１番内東側,38.26685519999999,140.8543032,
宮城県,仙台市,100,青葉区角五郎一丁目９番内,澱ポンプ場北側,38.266192,140.8544661,
宮城県,仙台市,101,青葉区八幡六丁目７番先（43番地の88）,八幡六丁目バス停西側,38.2694834,140.8352857,
宮城県,仙台市,102,青葉区角五郎二丁目１５番内,角五郎国家公務員宿舎北側,38.264261,140.8492261,
宮城県,仙台市,103,青葉区八幡五丁目１番内,牛越橋北側,38.267706,140.8434574,
宮城県,仙台市,104,青葉区八幡六丁目１１番先(42番地の44）,聖橋南側,38.268618,140.8345478,
宮城県,仙台市,105,青葉区柏木二丁目３番内(393番地の10),仙台市北五番丁公園南側,38.2721317,140.8546362,
宮城県,仙台市,106,青葉区八幡二丁目1番先（363番地の4）,八幡二丁目1番12号東側,38.2723424,140.8515499,緯度経度は怪しい
宮城県,仙台市,107,青葉区八幡一丁目2番先(112番地),八幡一丁目2番12号東側,38.2689965,140.8549148,
宮城県,仙台市,108,青葉区八幡二丁目９番１号,仙台市立八幡小学校西側,38.2715553,140.853015,
宮城県,仙台市,109,青葉区八幡四丁目１０番１号,晃福ハイツ南側,38.2712364,140.8483824,
宮城県,仙台市,110,青葉区八幡四丁目１６番１号,仙台市立第一中学校東側,38.2720728,140.8467644,
宮城県,仙台市,111,青葉区柏木二丁目3番48号,仙台市北六番丁市営住宅北側,38.27222030000001,140.8555238,
宮城県,仙台市,112,青葉区八幡二丁目１２番４号,東北電力八幡アパート１号棟北側,38.2730038,140.8516701,
宮城県,仙台市,113,青葉区柏木三丁目１番１７号,東北大学昭和舎跡地西側,38.2762401,140.8585784,
宮城県,仙台市,114,青葉区星陵町４番１号,東北大学加齢医学研究所北側,38.2742253,140.8603138,
宮城県,仙台市,115,青葉区柏木三丁目３番１号,仙台市柏木市民センター南側,38.2767156,140.8599714,緯度経度は怪しい
宮城県,仙台市,116,青葉区柏木三丁目６番３号,県営新坂住宅東側,38.276451,140.8538057,
宮城県,仙台市,117,青葉区新坂町８番内（87番地の4）,仙台市北山市民センター東側,38.2787934,140.8531895,
宮城県,仙台市,118,青葉区柏木三丁目５番１６号,八雲神社南側,38.2753162,140.8545163,
宮城県,仙台市,119,青葉区柏木三丁目１番１７号,東北大学昭和舎跡地南側,38.2762401,140.8585784,
宮城県,仙台市,120,青葉区三条町３番１号,仙台市立三条中学校東側,38.2797602,140.8539805,
宮城県,仙台市,121,青葉区三条町３番１号,仙台市立三条中学校西側,38.2797602,140.8539805,
宮城県,仙台市,122,青葉区三条町１７番内,三条町バス停,38.2799893,140.8513244,
宮城県,仙台市,123,青葉区三条町１９番１号,東北大学国際交流会館西側,38.2787595,140.8507024,
宮城県,仙台市,124,青葉区北山二丁目１０番内,仙台市北山霊園,38.2840775,140.8540506,
宮城県,仙台市,125,青葉区北山三丁目３番内,仙台市亀ケ岡公園南西側,38.2831661,140.8517483,
宮城県,仙台市,126,青葉区菊田町７番内,菊田山公園西側,38.28461679999999,140.8472689,
宮城県,仙台市,127,青葉区国見二丁目１６番１号,仙台市立国見小学校北側,38.2770519,140.8444456,
宮城県,仙台市,128,青葉区国見二丁目１６番１号,仙台市立国見小学校南側,38.2770519,140.8444456,
宮城県,仙台市,129,青葉区国見三丁目１１番内,国見四丁目バス停,38.2747678,140.8428412,
宮城県,仙台市,130,青葉区国見三丁目６番内,仙台市水道局荒巻配水所南側,38.2724321,140.8412842,
宮城県,仙台市,131,青葉区国見五丁目９番１号,仙台市国見コミュニティ広場南側,38.27504709999999,140.8361745,
宮城県,仙台市,132,青葉区国見六丁目１２番内,仙台市水道局国見浄水場南側,38.277432,140.8350976,
宮城県,仙台市,133,青葉区国見六丁目４０番内,国見第二駐車場南側,38.276495,140.8309237,
宮城県,仙台市,134,青葉区国見六丁目７８番内（1001番地の2）,国見六丁目７８番内北側,38.2829114,140.8308423,
宮城県,仙台市,135,青葉区貝ケ森五丁目６番１号,仙台市立貝森小学校跡施設南側,38.2866483,140.8392603,
宮城県,仙台市,136,青葉区貝ケ森五丁目４番内(35番地の130),仙台市貝ケ森１号公園南側,38.28645400000001,140.8415945,
宮城県,仙台市,137,青葉区貝ケ森三丁目３番内(6番地の234),貝ケ森三丁目調整池北側,38.2853307,140.8439706,
宮城県,仙台市,138,青葉区貝ケ森一丁目３２番内(4番地の312),仙台市貝ケ森中央公園東側,38.2836045,140.8430841,
宮城県,仙台市,139,青葉区貝ケ森一丁目４番６号,仙台市貝ケ森市民センター東側,38.2815132,140.8424171,
宮城県,仙台市,140,青葉区貝ケ森三丁目２８番内(18番地の310),仙台市貝ケ森３号公園南側,38.2818566,140.83849,
宮城県,仙台市,141,青葉区貝ケ森六丁目２９番内(2番地の28),仙台市貝ケ森メープル公園北側,38.2808077,140.8438017,
宮城県,仙台市,142,青葉区中山一丁目６番１号,仙台市立中山小学校西側,38.2920393,140.85,
宮城県,仙台市,143,青葉区中山一丁目６番１号,仙台市立中山小学校南側,38.2920393,140.85,
宮城県,仙台市,144,青葉区滝道８番内(61番地の150),仙台市たきみち公園西側,38.2921037,140.8527852,
宮城県,仙台市,145,青葉区滝道３３番内,ふれあいパーク北側,38.293414,140.8481304,
宮城県,仙台市,146,青葉区川平一丁目１５番内(1番地の1277),仙台市川平一丁目公園東側,38.2947932,140.8458214,
宮城県,仙台市,147,青葉区中山二丁目４１番内（215番地の132）,中山二丁目４１番内北側,38.2890979,140.8397657,
宮城県,仙台市,148,青葉区中山二丁目１７番１号,認定こども園TOBINOKO南側,38.2881835,140.8464041,
宮城県,仙台市,149,青葉区中山二丁目３２番内(102番地の68),仙台市中山山の神公園南側,38.2882066,140.8427626,
宮城県,仙台市,150,青葉区中山六丁目１６番１号,仙台市立中山中学校西側,38.2969071,140.8397345,
宮城県,仙台市,151,青葉区中山三丁目１３番１号,仙台市中山市民センター,38.2918866,140.8371348,
宮城県,仙台市,152,青葉区中山七丁目１番内,仙台市水道局中山第一配水所東側,38.2943058,140.8357606,
宮城県,仙台市,153,青葉区中山三丁目２０番内(1番地の2),仙台市うどう沼公園北側,38.2945439,140.8326271,
宮城県,仙台市,154,青葉区中山七丁目２１番内(16番地の324),仙台市中山公園東側,38.2964461,140.8338887,
宮城県,仙台市,155,青葉区中山八丁目３４番内(21番地の67),仙台市中山北公園東側,38.296725,140.8292422,
宮城県,仙台市,156,青葉区中山九丁目４番内(1番地の30),仙台市すぎとや西公園南側,38.2998558,140.8309142,
宮城県,仙台市,157,青葉区西勝山５番内（10番地の681）,仙台市西勝山公園北側,38.2984431,140.8382055,
宮城県,仙台市,158,青葉区川平三丁目３６番１号,仙台市立川平小学校北側,38.30581,140.8383824,
宮城県,仙台市,159,青葉区川平三丁目３５番内(35番地),仙台市川平三丁目西公園西側,38.3064515,140.8372458,
宮城県,仙台市,160,青葉区川平五丁目１３番内(13番地の1),仙台市川平市営住宅公園南側,38.3075218,140.8372324,
宮城県,仙台市,161,青葉区川平三丁目14番内(14番地の2),仙台市川平三丁目東公園南側,38.30726930000001,140.8409391,
宮城県,仙台市,162,青葉区川平四丁目１番内(1番地の1),仙台市川平緑地西側,38.3034173,140.8391794,
宮城県,仙台市,163,青葉区川平四丁目９番内(9番地),仙台市川平北公園北側,38.30122660000001,140.8354596,
宮城県,仙台市,164,青葉区川平四丁目３１番内(31番地の8),仙台市川平四丁目公園東側,38.3040524,140.8320955,
宮城県,仙台市,165,青葉区桜ケ丘八丁目１番１号,仙台市立桜丘小学校西側,38.3032429,140.8495324,
宮城県,仙台市,166,青葉区桜ケ丘六丁目２３番内(13番地の2100),仙台市桜ケ丘六丁目公園北側,38.3027914,140.8464007,
宮城県,仙台市,167,青葉区桜ケ丘七丁目４番内(71番地の353),仙台市桜ケ丘七丁目公園西側,38.3051933,140.8467404,
宮城県,仙台市,168,青葉区桜ケ丘八丁目２番内(1番地の14),仙台市桜ケ丘公園野球場南側,38.3041036,140.8520095,
宮城県,仙台市,169,青葉区桜ケ丘四丁目１１番内(13番地の1995),仙台市桜ケ丘四丁目公園西側,38.3030624,140.8522221,
宮城県,仙台市,170,青葉区桜ケ丘三丁目３９番内(13番地の2002),仙台市桜ケ丘三丁目公園西側,38.3024414,140.8557233,
宮城県,仙台市,171,青葉区桜ケ丘二丁目１７番内（荒巻泉線歩道）,桜ケ丘団地入口バス停北側,38.2957884,140.8524979,
宮城県,仙台市,172,青葉区桜ケ丘一丁目２７番１２号,県営桜ケ丘住宅１２号棟西側,38.2963811,140.8460412,
宮城県,仙台市,173,青葉区荒巻神明町１３番内(252番地の2),仙台市立荒巻小学校(プール)西側,38.2866445,140.8578202,
宮城県,仙台市,174,青葉区荒巻神明町１２番内(249番地の98外),仙台市荒巻公園北側,38.2865055,140.8587363,
宮城県,仙台市,175,青葉区山手町１番内（16番地の2）,山手町１番内東側,38.2862331,140.8551929,
宮城県,仙台市,176,青葉区荒巻本沢二丁目１２番先,荒巻本沢二丁目１２番先,38.28948219999999,140.8553952,
宮城県,仙台市,177,青葉区荒巻中央１５番内(108番地の11),仙台市荒巻中央西公園東側,38.2908688,140.8574498,
宮城県,仙台市,178,青葉区山手町２３番内(438番地の9),仙台市山手町２号公園西側,38.2886587,140.854039,
宮城県,仙台市,179,青葉区荒巻本沢二丁目６番先,仙台市荒巻学校給食センター対向,38.2887852,140.8521865,
宮城県,仙台市,180,青葉区荒巻本沢二丁目１番先（720番地の4）,ビバホーム西側,38.2876131,140.8492262,
宮城県,仙台市,181,青葉区東勝山二丁目３１番１号,仙台市立北仙台中学校北側,38.2932945,140.8637775,
宮城県,仙台市,182,青葉区東勝山二丁目３３番内(５番地の467外),仙台市東勝山二丁目公園西側,38.2918841,140.8638117,
宮城県,仙台市,183,青葉区東勝山二丁目２８番内(5番地の168),仙台市勝山南公園北側,38.29373349999999,140.8646875,
宮城県,仙台市,184,青葉区北根四丁目１０番１１号(110番地の2),北根四丁目西バス停（仙台市北仙台コミュニティ･センター)西側,38.2976995,140.868642,
宮城県,仙台市,185,青葉区東勝山一丁目２５番内(19番地の227),東勝山一丁目２５番内南側,38.2976328,140.8701948,
宮城県,仙台市,186,青葉区藤松５番内(201番地の3),東勝山団地入口バス停（勝山橋)南側,38.2991105,140.8753787,
宮城県,仙台市,187,青葉区鷺ケ森一丁目４番内(9番地の1),仙台市藤松保存緑地北側,38.2944368,140.8722598,
宮城県,仙台市,188,青葉区鷺ケ森一丁目３７番内(1番地の642),仙台市水の森一丁目公園東側,38.2901808,140.8663934,
宮城県,仙台市,189,青葉区北根黒松２番先(271番地の6),ワッセ西側,38.3076784,140.8796435,
宮城県,仙台市,190,青葉区北根黒松１８番内（橋梁脇）,森林公園大橋南側脇,38.3011298,140.8815704,
宮城県,仙台市,191,青葉区北根三丁目１３番内(4番地の71),北根三丁目バス停南側,38.3003986,140.876642,
宮城県,仙台市,192,青葉区北根三丁目２０番内,県道仙台泉線北根橋東側,38.301437,140.8770928,
宮城県,仙台市,193,青葉区北根三丁目２２番内(1番地の56),黒松団地入口バス停東側,38.30294689999999,140.8784638,
宮城県,仙台市,194,青葉区双葉ケ丘一丁目３番先(52番地の211),双葉ケ丘橋北側,38.3008389,140.8746753,
宮城県,仙台市,195,青葉区北根黒松４番内(1番地の199),仙台市北根黒松北公園東側,38.3060002,140.8803045,
宮城県,仙台市,196,青葉区台原五丁目１６番１号,仙台市立台原小学校西側,38.2867625,140.8800747,
宮城県,仙台市,197,青葉区旭ケ丘一丁目２４番内(28番地の647),瞑想の松バス停東側,38.286401,140.882555,
宮城県,仙台市,198,青葉区台原五丁目１番２号,みやぎ生活協同組合台原店西側,38.2822343,140.8772376,
宮城県,仙台市,199,青葉区台原五丁目2番5号（243番14）,仙台市台原児童館北側,38.2841829,140.8789112,
宮城県,仙台市,200,青葉区台原森林公園１番内（７０３番地の１１）,仙台市台原四丁目北公園,38.28877110000001,140.8785789,
宮城県,仙台市,201,青葉区台原森林公園１番３号,仙台市台原コミュニティ・センター西側,38.2892824,140.8788352,緯度経度は怪しい
宮城県,仙台市,202,青葉区台原森林公園１番内,仙台市台原自転車保管所東側,38.28877110000001,140.8785789,
宮城県,仙台市,203,青葉区旭ケ丘一丁目３１番内 (1番地の19),青葉消防団小松島分団機械器具置場南側,38.2901966,140.8837067,
宮城県,仙台市,204,青葉区台原二丁目7番内（17番地の25）,台原二丁目７番内（一本杉橋）南西側法面,38.285977,140.8731521,
宮城県,仙台市,205,青葉区旭ケ丘三丁目２７番１号,仙台市立旭丘小学校東側,38.2964818,140.8864197,
宮城県,仙台市,206,青葉区旭ケ丘三丁目２５番１５号,仙台市旭ケ丘市民センタ－南側,38.2955291,140.884169,
宮城県,仙台市,207,青葉区旭ケ丘三丁目２７番５号,日立システムズホール仙台北側,38.2965211,140.8844119,
宮城県,仙台市,208,青葉区旭ケ丘三丁目２５番１５号,仙台市旭ケ丘市民センタ－西側,38.2955291,140.884169,
宮城県,仙台市,209,青葉区旭ケ丘二丁目３１番内(20番地の449外),旭ケ丘二丁目３１番内,38.2928359,140.8876635,
宮城県,仙台市,210,青葉区旭ケ丘一丁目２１番内(21番地の254),旭ケ丘一丁目２１番内　台原南小泉（その２）線北側,38.2895707,140.8853169,
宮城県,仙台市,211,青葉区旭ケ丘四丁目３４番内(801番地の4),仙台市科学館前バス停,38.29882,140.8840653,
宮城県,仙台市,212,青葉区旭ケ丘四丁目１０番内(1番地の427),旭ケ丘四丁目１０番内　鶴ケ谷中山（その２）線南側,38.3011145,140.8862429,
宮城県,仙台市,213,青葉区小松島二丁目１番１号,仙台市立小松島小学校東側,38.28082089999999,140.8891296,
宮城県,仙台市,214,青葉区小松島二丁目１番１号,仙台市立小松島小学校南側,38.28082089999999,140.8891296,
宮城県,仙台市,215,青葉区小松島四丁目14番地内（28番地の29外）,仙台市小松島四丁目公園南側,38.2866197,140.8883369,
宮城県,仙台市,216,青葉区小松島四丁目５番内(53番地の1),仙台市小松島公園（小松島南光センター前）,38.2849811,140.8868265,
宮城県,仙台市,217,青葉区東照宮二丁目1番地内（301番地の45外）,仙台市東照宮二丁目公園入口,38.2781186,140.8853376,
宮城県,仙台市,218,青葉区小松島新堤７番１号,小松島デイサービスセンター南側,38.2852811,140.8922824,
宮城県,仙台市,219,青葉区小松島新堤４番内(5番地の10),小松島新堤４番内 グラウンド南側,38.284008,140.8951619,
宮城県,仙台市,220,青葉区高松三丁目１７番３０号,仙台市小松島市営住宅南側,38.2807245,140.8961062,
宮城県,仙台市,221,青葉区下愛子字観音堂５番地の1,広瀬文化センター北側,38.2686354,140.7641587,
宮城県,仙台市,222,青葉区上愛子字新宮前1番地の２地内,仙台市立愛子小学校前,38.268818,140.759519,
宮城県,仙台市,223,青葉区上愛子字新宮前１７番地の２地内,宮城総合支所・愛子小学校前バス停西側,38.2676401,140.7587414,
宮城県,仙台市,224,青葉区愛子中央六丁目１４９番地の２地先,愛子中央六丁目１４９番地の２地先,38.2722603,140.7581023,
宮城県,仙台市,225,青葉区愛子中央一丁目２０１番地の１,ＪＲ仙山線愛子駅南口自転車駐車場フェンス,38.2728359,140.7631614,
宮城県,仙台市,226,青葉区愛子中央一丁目１０７,仙台市立広瀬中学校東側,38.261827,140.880183,緯度経度は怪しい
宮城県,仙台市,227,青葉区愛子中央三丁目２７番内（２３番地の３７）,仙台市上原公園東側,38.2744401,140.7574541,
宮城県,仙台市,228,青葉区愛子中央一丁目９番１号,仙台市立広瀬中学校西側,38.273006,140.7619065,
宮城県,仙台市,229,青葉区上愛子字松原４４番地の１,仙台市宮城広瀬体育館西側,38.2738455,140.7361036,
宮城県,仙台市,230,青葉区上愛子字松原３９番地の１,仙台市宮城広瀬グラウンド南側,38.2741007,140.7387336,緯度経度は怪しい
宮城県,仙台市,231,青葉区上愛子字街道99番地の2地先,仙台高等専門学校（入口）,38.27399630000001,140.745871,
宮城県,仙台市,232,青葉区上愛子字車４６番地の１,二岩町内会集会所,38.2722195,140.7442859,
宮城県,仙台市,233,青葉区上愛子字北内３番地の１４地内,仙台市北内南公園,38.2707366,140.7492592,
宮城県,仙台市,234,青葉区上愛子字大岩１番地の２,上愛子大岩１番地の２,38.2693786,140.7346249,
宮城県,仙台市,235,青葉区上愛子字松原４７番地の１０,仙台市松原公園北側,38.2714724,140.7354739,緯度経度は怪しい
宮城県,仙台市,236,青葉区上愛子字松原９番地の１,masked,38.2714864,140.7290071,
宮城県,仙台市,237,青葉区上愛子字下十三枚田30番地の１,仙台市交通局白沢出張所,38.2753086,140.7139673,
宮城県,仙台市,238,青葉区上愛子字大道３３番地の２,赤生木集会所,38.27923639999999,140.7021313,緯度経度は怪しい
宮城県,仙台市,239,青葉区上愛子字大道２番地の２,大針バス停,38.2777805,140.7085932,緯度経度は怪しい
宮城県,仙台市,240,青葉区上愛子字大針２番地先,上愛子字大針２番地先,38.2740647,140.7087611,緯度経度は怪しい
宮城県,仙台市,241,青葉区上愛子字赤生木３５番地の３,ＪＲ仙山線第２赤生木踏切南側,38.2780365,140.6990494,緯度経度は怪しい
宮城県,仙台市,242,青葉区上愛子字白沢３８番地,masked,38.2863612,140.6904171,緯度経度は怪しい
宮城県,仙台市,243,青葉区上愛子字白沢８番地の６５地先,上愛子字白沢８番地の６５地先,38.2849267,140.6908637,緯度経度は怪しい
宮城県,仙台市,244,青葉区上愛子字道半３６番地の５,国道４８号線(熊ヶ根橋)南側,38.2880754,140.6887425,緯度経度は怪しい
宮城県,仙台市,245,青葉区熊ケ根字石積４７番地,仙台市宮城西市民センター東側,38.2990509,140.6843662,
宮城県,仙台市,246,青葉区熊ケ根字町一番の四番地先,熊ケ根字町一番の四番地先,38.2925993,140.6866072,緯度経度は怪しい
宮城県,仙台市,247,青葉区熊ケ根字町二番４７番地,masked,38.2937933,140.6894399,緯度経度は怪しい
宮城県,仙台市,248,青葉区熊ケ根字関一番２番地の３地先,熊ケ根字関一番２番地の３地先（店舗)東側,38.3026651,140.6729507,緯度経度は怪しい
宮城県,仙台市,249,青葉区大倉字新田５番地の４,大手門集会所,38.3073183,140.6896351,緯度経度は怪しい
宮城県,仙台市,250,青葉区新川字清水尻３２番地の６地先,新川生活センター西側,38.3046815,140.6393557,緯度経度は怪しい
宮城県,仙台市,251,青葉区新川字中屋敷４６番地の２地先,旧仙台市立作並小学校新川分校北側,38.3030129,140.6306022,緯度経度は怪しい
宮城県,仙台市,252,青葉区作並字岩谷堂西１６番地の１０３,仙台市新川団地１号公園,38.3080822,140.6292779,緯度経度は怪しい
宮城県,仙台市,253,青葉区新川字佐手山５番地の７７５地先,新川字佐手山５番地の７７５地先北側,38.29908959999999,140.654839,緯度経度は怪しい
宮城県,仙台市,254,青葉区作並字北子原5番地の１0地内,旧仙台市立作並小学校北側,38.3170839,140.6360463,緯度経度は怪しい
宮城県,仙台市,255,青葉区作並字棒目木５番地の１,仙台ハイランド入口,38.3082054,140.6630679,緯度経度は怪しい
宮城県,仙台市,256,青葉区作並字川崎７番地内,作並字川崎７番地内,38.3094024,140.6569384,緯度経度は怪しい
宮城県,仙台市,257,青葉区作並字小坂東１２番地の４地内,ニッカウヰスキー工場（ニッカ橋)南側,38.31199170000001,140.6473443,緯度経度は怪しい
宮城県,仙台市,258,青葉区作並字檀ノ原１０番地の４,作並字檀ノ原１０番地の４,38.3193331,140.6239664,緯度経度は怪しい
宮城県,仙台市,259,青葉区作並字元木２番地の７,湯のまち作並観光交流館ラサンタ,38.330708,140.6159037,緯度経度は怪しい
宮城県,仙台市,260,青葉区大倉字久保１番地の10,定義交流センター,38.3625015,140.6715436,緯度経度は怪しい
宮城県,仙台市,261,青葉区大倉字赤坂3番地の5地先,大倉字赤坂3番地の5地先,38.3664681,140.6664704,緯度経度は怪しい
宮城県,仙台市,262,青葉区大倉字東菖蒲沼３番地の１,白木集会所,38.3876357,140.6458488,緯度経度は怪しい
宮城県,仙台市,263,青葉区大倉字向田１６番地の３０地先,大倉字向田１６番地の３０地先,38.355859,140.7141481,緯度経度は怪しい
宮城県,仙台市,264,青葉区大倉字神明前１２番地先,大倉日向集会所入口,38.3329589,140.6999527,緯度経度は怪しい
宮城県,仙台市,265,青葉区大倉字栗生２３番地の２,栗生上バス停,38.3351445,140.6877594,緯度経度は怪しい
宮城県,仙台市,266,青葉区大倉字伊呂波１６番地の１,仙台市水道局大倉送水ポンプ場,38.352732,140.6833218,緯度経度は怪しい
宮城県,仙台市,267,青葉区大倉字薬師12番地先,大倉字薬師12地先,38.336035,140.6967866,緯度経度は怪しい
宮城県,仙台市,268,青葉区大倉字一本木3番地の1地内,大倉字一本木3番地の1地内,38.3025551,140.7022366,緯度経度は怪しい
宮城県,仙台市,269,青葉区大倉字新山12番地の4地先,大倉字新山12番地の4地先,38.3143421,140.7049109,緯度経度は怪しい
宮城県,仙台市,270,青葉区大倉字大原新田２１番地の２地先,特別養護老人ホーム思行園入口,38.2938005,140.6961122,緯度経度は怪しい
宮城県,仙台市,271,青葉区,西川前集会所,38.29174829999999,140.7061682,緯度経度は怪しい
宮城県,仙台市,272,青葉区芋沢字二尺木４４番地の１地先,芋沢字二尺木４４番地の１地先,38.2802669,140.7068163,緯度経度は怪しい
宮城県,仙台市,273,青葉区芋沢字柿崎南５番地の２地先,芋沢字柿崎南５番地の２地先,38.2756481,140.7211674,
宮城県,仙台市,274,青葉区芋沢字沢田下３５番地の５地先,芋沢字沢田下３５番地の５地先,38.2939165,140.7310304,緯度経度は怪しい
宮城県,仙台市,275,青葉区芋沢字青野木２３０番地先,青野木中バス停,38.2871471,140.7226678,緯度経度は怪しい
宮城県,仙台市,276,青葉区芋沢字青野木６６５番地先,千代福祉会ますみ学園東側,38.2871471,140.7226678,緯度経度は怪しい
宮城県,仙台市,277,青葉区芋沢字青野木３５９番地の１０地先,芋沢字青野木359番地の10地先,38.2824247,140.7223998,緯度経度は怪しい
宮城県,仙台市,278,青葉区芋沢字青野木６９番地の１,畑前バス停東側,38.2871471,140.7226678,緯度経度は怪しい
宮城県,仙台市,279,青葉区芋沢字赤坂１６番地の１,仙台市立川前小学校南東側法面,38.28933869999999,140.74612,
宮城県,仙台市,280,青葉区赤坂三丁目３番地の１,仙台市赤坂３号公園西側,38.2925151,140.7459664,
宮城県,仙台市,281,青葉区赤坂一丁目２番地の１,仙台市立大沢中学校南側,38.2921539,140.7501592,
宮城県,仙台市,282,青葉区赤坂一丁目１４番地の９,赤坂ニュータウン集会所,38.2928485,140.7512901,
宮城県,仙台市,283,青葉区高野原四丁目３番内(3番地の8),仙台市高野原四丁目公園西側,38.2898996,140.7585104,
宮城県,仙台市,284,青葉区芋沢字大勝草上野原95番地の２地先,芋沢字大勝草上野原95番地の２地先,38.2800905,140.7777274,
宮城県,仙台市,285,青葉区芋沢字大竹原２５番地の１,二本松バス停西側,38.2840006,140.767449,
宮城県,仙台市,286,青葉区芋沢字花坂上野原１３番地の３地先,仙台市水道局中原浄水場東側,38.28163929999999,140.7593339,緯度経度は怪しい
宮城県,仙台市,287,青葉区高野原二丁目１２番地１,高野原集会所南側,38.2880505,140.7698349,
宮城県,仙台市,288,青葉区芋沢字長坂１番地の３,仙台市立大沢小学校西側,38.3004824,140.7742758,
宮城県,仙台市,289,青葉区芋沢字唄坂１１番地の１,芋沢唄坂バス停,38.2969024,140.7775441,緯度経度は怪しい
宮城県,仙台市,290,青葉区芋沢字鹿野１２番地の２地内,長泉寺前バス停西側,38.292248,140.7831631,
宮城県,仙台市,291,青葉区芋沢字横前39番地の2地内,芋沢字横前３９番地の２地内,38.2925345,140.760765,緯度経度は怪しい
宮城県,仙台市,292,青葉区芋沢字平4番地の２地先,芋沢平バス停東側,38.3028099,140.7714654,
宮城県,仙台市,293,青葉区芋沢字荒屋敷３６番地,上区集会所北側,38.3101277,140.760037,
宮城県,仙台市,294,青葉区芋沢字塩野沢１５番地の３,塩野沢バス停,38.3143821,140.7810944,緯度経度は怪しい
宮城県,仙台市,295,青葉区みやぎ台三丁目２１番１号,みやぎ台集会所,38.3111628,140.7685949,
宮城県,仙台市,296,青葉区みやぎ台一丁目９６番地の２０３地先,みやぎ台一丁目９６番地の２０３地先,38.3050242,140.7748738,
宮城県,仙台市,297,青葉区みやぎ台一丁目２５番内(96番地の25),仙台市みやぎ台３号公園,38.3061314,140.7765781,
宮城県,仙台市,298,青葉区みやぎ台二丁目１４番内(96番地の336),仙台市みやぎ台１号公園南側,38.3075138,140.7719286,
宮城県,仙台市,299,青葉区みやぎ台三丁目１２番内(119番地の445),仙台市みやぎ台５号公園南側,38.3094943,140.7686044,
宮城県,仙台市,300,青葉区みやぎ台三丁目１２番内(119番地の445),仙台市みやぎ台５号公園北側,38.3094943,140.7686044,
宮城県,仙台市,301,青葉区みやぎ台四丁目１番地の３,仙台市みやぎ台四丁目２号緑地,38.3087021,140.7654433,
宮城県,仙台市,302,青葉区みやぎ台四丁目１６番内(1番地の123),仙台市みやぎ台２号公園,38.3114655,140.7669072,
宮城県,仙台市,303,青葉区芋沢字大竹中5番地,大竹集会所入口,38.2819226,140.7879617,
宮城県,仙台市,304,青葉区芋沢字大竹１７番地の８地内,大竹バス停東側,38.2798958,140.7864171,緯度経度は怪しい
宮城県,仙台市,305,青葉区芋沢字大竹新田２０番地の１地先,芋沢字大竹大竹新田２０番地の１地先,38.2776191,140.7918252,
宮城県,仙台市,306,青葉区芋沢字大竹新田１０番地の２地先,大竹新田バス停北側,38.2772769,140.7915816,
宮城県,仙台市,307,青葉区芋沢字大竹南１番地,masked,38.2832491,140.7892587,緯度経度は怪しい
宮城県,仙台市,308,青葉区南吉成四丁目１６番内(16番地の3),仙台市南吉成四丁目公園,38.2883013,140.814423,緯度経度は怪しい
宮城県,仙台市,309,青葉区吉成二丁目１１番１６号,吉成集会所,38.291991,140.8192599,
宮城県,仙台市,310,青葉区吉成三丁目５番２８号,宮城総合支所吉成証明発行センタ－,38.2907612,140.8194975,
宮城県,仙台市,311,青葉区南吉成二丁目８番内(8番地の3),仙台市南吉成二丁目公園西側,38.284898,140.8195795,
宮城県,仙台市,312,青葉区南吉成七丁目９番内(9番地の5),仙台市大石ケ原公園,38.282645,140.8167883,
宮城県,仙台市,313,青葉区南吉成四丁目１番地の３,南吉成第二集会所,38.2863963,140.814443,
宮城県,仙台市,314,青葉区南吉成二丁目９番地の１,南吉成第一集会所,38.284282,140.8207829,
宮城県,仙台市,315,青葉区中山台一丁目１０番地の５,仙台市南吉成コミュニティ・センター,38.2992188,140.8133535,
宮城県,仙台市,316,青葉区中山台西３０番内(30番地の１),仙台市中山台西公園,38.3040327,140.8121455,
宮城県,仙台市,317,青葉区中山台四丁目17外,仙台市中山台２号緑地,38.2978005,140.8094498,
宮城県,仙台市,318,青葉区中山台二丁目１８番内(18番地),仙台市中山台二丁目公園(冒険公園）,38.3016619,140.8155713,
宮城県,仙台市,319,青葉区中山台二丁目２２番内(22番地の11),仙台市中山台４号緑地東側,38.2887756,140.8718622,緯度経度は怪しい
宮城県,仙台市,320,青葉区中山吉成一丁目１２番内(62番地の316),仙台市中山吉成一丁目公園南側,38.2992701,140.8193055,
宮城県,仙台市,321,青葉区中山吉成二丁目２番内(66番地の281),仙台市中山吉成二丁目公園,38.296811,140.8217838,
宮城県,仙台市,322,青葉区郷六字葛岡下２９番地,郷六集会所,38.2663511,140.8161001,
宮城県,仙台市,323,青葉区郷六字葛岡下３２番地の５,ＪＲ仙山線葛岡駅入口,38.2672745,140.8180648,
宮城県,仙台市,324,青葉区郷六字葛岡下２６番地の６,ＪＲ仙山線葛岡駅（葛岡駐車場）,38.268119,140.8179329,
宮城県,仙台市,325,青葉区郷六字石山５８番地の２地内,郷六字石山５８番地内,38.26537,140.8194798,緯度経度は怪しい
宮城県,仙台市,326,青葉区郷六字大霜５０番地の２,郷六字大霜５０番地の２,38.2598432,140.8199918,
宮城県,仙台市,327,青葉区郷六字龍沢３４番地先,郷六字龍沢３４番地先（西仙台バッティングセンター)西側,38.2691478,140.8087697,
宮城県,仙台市,328,青葉区郷六字沼田８番地の３,郷六字沼田８番地の３,38.26429230000001,140.8157117,
宮城県,仙台市,329,青葉区郷六字葛岡５１番地内,郷六字葛岡５１番地内（仙台北環状線)西側,38.2735689,140.8155846,緯度経度は怪しい
宮城県,仙台市,330,青葉区落合二丁目１５番１５号,仙台市落合市民センター,38.2731589,140.7883703,
宮城県,仙台市,331,青葉区落合四丁目２番内,ＪＲ仙山線 大垣踏切北側,38.2749997,140.7808889,
宮城県,仙台市,332,青葉区栗生五丁目２９番内,栗生五丁目２９番地（北側）,38.2668545,140.7885351,
宮城県,仙台市,333,青葉区落合二丁目１２番7号,仙台市落合保育所西側法面,38.2731659,140.791393,
宮城県,仙台市,334,青葉区落合二丁目１０１番地の４,仙台市下愛子下河原公園,38.2732586,140.7931181,
宮城県,仙台市,335,青葉区栗生二丁目６番内(6番地の1),仙台市栗生二丁目北公園,38.2673085,140.796272,
宮城県,仙台市,336,青葉区栗生一丁目２番内,栗生一丁目団地入口,38.2615155,140.7953035,緯度経度は怪しい
宮城県,仙台市,337,青葉区栗生六丁目６番地の６,仙台市立栗生小学校,38.2677094,140.7849108,
宮城県,仙台市,338,青葉区福沢町9番9号,仙台市福沢市民センター,38.2740964,140.8890613,
宮城県,仙台市,339,青葉区中江一丁目12番内（1番内の176）,仙台市中江西公園,38.2741215,140.8910301,
宮城県,仙台市,340,青葉区中江一丁目17番内（101番内の113）,仙台市中江公園南側,38.27346259999999,140.8931216,
宮城県,仙台市,341,青葉区中江二丁目15番1号,東北財務局中江住宅東側,38.272151,140.8948865,
宮城県,仙台市,342,青葉区中江一丁目17番1号,県営中江東アパート1号北側,38.2736063,140.8928944,
宮城県,仙台市,343,青葉区福沢町3番内（306番地の3）,仙台市高松通公園北側,38.2730246,140.8883912,
宮城県,仙台市,344,青葉区小田原七丁目4番20号,東北電力小田原アパート,38.2714554,140.8898029,
宮城県,仙台市,345,青葉区小田原六丁目1番内（26番地の2）,仙台市旅籠町公園西側,38.2711087,140.8851754,
宮城県,仙台市,346,青葉区吉成一丁目12番1号,仙台市立吉成中学校西側,38.2888591,140.8248457,
宮城県,仙台市,347,青葉区吉成一丁目20番内（31番地の96）,仙台市伊勢吉成３号公園,38.2908401,140.8231334,
宮城県,仙台市,348,青葉区国見ケ丘二丁目2番1号,仙台市吉成市民センター,38.29444530000001,140.8250636,
宮城県,仙台市,349,青葉区国見ケ丘一丁目55番内（55番地）,仙台市国見ケ丘一丁目北公園（集いの丘公園）,38.2946004,140.8295922,
宮城県,仙台市,350,青葉区国見ケ丘四丁目21番内（21番地）,仙台市国見ケ丘四号緑地,38.2875047,140.8261566,
宮城県,仙台市,351,青葉区国見ケ丘三丁目74番内（74番地の3）,仙台市国見ケ丘２号緑地（桜の水辺公園）,38.287858,140.8299423,
宮城県,仙台市,352,青葉区臨済院地内（1番地）,仙台市臨済院公園（いにしえの丘）,38.2851638,140.8280264,
宮城県,仙台市,353,青葉区国見ケ丘五丁目11番内（150番地の121）,仙台市国見ケ丘五丁目１号緑地,38.2857965,140.8310702,
宮城県,仙台市,354,青葉区堤町三丁目17番先（9番地の12）,堤町三丁目１７番南側（堤町三丁目９号線）,38.2902103,140.8715381,
宮城県,仙台市,355,青葉区台原三丁目17番10号,仙台北郵便局北側,38.2906012,140.8731129,
宮城県,仙台市,356,青葉区台原二丁目12番内（133番地の41）,仙台市台原二丁目公園南側,38.2874339,140.8719453,
宮城県,仙台市,357,青葉区堤町三丁目１番内（103番）,堤町三丁目１番１１号南側,38.28606,140.8708267,
宮城県,仙台市,358,青葉区堤町三丁目9番内（SEIYU台原店側歩道）,堤町三丁目９番内　県道仙台泉線西側,38.2880961,140.8709733,
宮城県,仙台市,359,青葉区堤町三丁目23番1号,仙台市三本松市民センター南側,38.2900078,140.8684583,
宮城県,仙台市,360,青葉区北根一丁目11番内（4番地の2）,鷺ケ森歩道橋北側,38.2932172,140.8733429,
宮城県,仙台市,361,青葉区葉山町8番1号,養護老人ホーム仙台長生園東側,38.2856463,140.8630742,
宮城県,仙台市,362,青葉区荒巻神明町４番内(243番地の13),仙台市荒巻神明公園西側,38.2862417,140.8625953,
宮城県,仙台市,363,青葉区あけぼの町８番先（7番地の5）,仙台市古海道東下公園東側,38.28823149999999,140.8636402,
宮城県,仙台市,364,青葉区あけぼの町１２番２０号,仙台市荒巻コミュニティ･センター東側,38.2889801,140.8621825,
宮城県,仙台市,365,青葉区堤町二丁目２１番内(114番地の198),仙台市水道局堤町二丁目減圧弁室,38.2885181,140.8672614,
宮城県,仙台市,366,青葉区葉山町３番内（20番地の53）,仙台市葉山町公園,38.2848351,140.8664066,
宮城県,仙台市,367,青葉区あけぼの町２番内（203番地の3）,仙台市あけぼの町公園東側,38.2872409,140.8658443,
宮城県,仙台市,368,青葉区東勝山三丁目６番１号,仙台市立北仙台小学校東側,38.29771909999999,140.8612064,
宮城県,仙台市,369,青葉区水の森四丁目１番１号,仙台市水の森市民センター,38.2973041,140.8587866,
宮城県,仙台市,370,青葉区水の森三丁目１８番内(62番地の958),仙台市水の森三丁目公園東側,38.295106,140.8580158,
宮城県,仙台市,371,青葉区水の森三丁目４１番内（水の森三丁目交差点北東側）,水の森三丁目４１番内　鶴ヶ谷中山（その４）線北側,38.296387,140.8549149,
宮城県,仙台市,372,青葉区東勝山三丁目１番内(1番地の300),仙台市東勝山公園西側,38.2984251,140.8682234,
宮城県,仙台市,373,青葉区双葉ケ丘二丁目11番内(22番地の27),双葉ケ丘二丁目１１番内西側,38.3004418,140.8693243,
宮城県,仙台市,374,青葉区双葉ケ丘二丁目１番内(22番地の107),仙台市双葉ケ丘二丁目公園北側,38.3011082,140.8731142,
宮城県,仙台市,375,青葉区栗生七丁目17番,栗生七丁目１７番地内,38.26752080000001,140.7786574,
宮城県,仙台市,376,青葉区落合六丁目31番地内（31番地）,仙台市栗生西部1号公園,38.2701291,140.78523,緯度経度は怪しい
宮城県,仙台市,377,青葉区愛子東四丁目21番内（71番地の1）,仙台市広瀬川前公園西側,38.2771987,140.7708994,
宮城県,仙台市,378,青葉区愛子東四丁目2番内（99番地の18）,ＪＲ仙山線第一勘太踏切北側,38.2738293,140.7710789,
宮城県,仙台市,379,青葉区愛子東六丁目8番内（30番地の9）,仙台市下愛子町３号公園東側,38.2725713,140.7653343,
宮城県,仙台市,380,青葉区下愛子字稲荷前１３９番地内,下愛子字稲荷前１３９番地内,38.2680198,140.7712487,緯度経度は怪しい
宮城県,仙台市,381,青葉区栗生七丁目６番内（６番地の１）,仙台市栗生西部3号公園,38.2690907,140.7812669,緯度経度は怪しい
宮城県,仙台市,382,青葉区愛子東六丁目７番２７号先,愛子幼稚園入口西側,38.2717904,140.7663947,
宮城県,仙台市,383,青葉区錦ケ丘二丁目１８番内（７８番地の５２）,仙台市錦ケ丘中央公園北側,38.2548804,140.767029,
宮城県,仙台市,384,青葉区錦ケ丘三丁目１１番内（１番地の１９０）,仙台市錦ケ丘三丁目公園西側,38.2535113,140.7674177,
宮城県,仙台市,385,青葉区錦ケ丘五丁目29番地の47,錦ケ丘五丁目２９番地の４７地内,38.250541,140.7589868,緯度経度は怪しい
宮城県,仙台市,386,青葉区錦ケ丘六丁目３０番内（３０番地の１）,仙台市錦ケ丘六丁目公園,38.2527936,140.7617733,
宮城県,仙台市,387,青葉区錦ケ丘七丁目２番内（２番地の１５）,錦ケ丘集会所,38.256361,140.7629288,
宮城県,仙台市,388,青葉区錦ケ丘七丁目２８番内（２８番地の１）,仙台市立錦ケ丘小学校西側,38.2558245,140.7600004,
宮城県,仙台市,389,青葉区錦ケ丘八丁目２３番内（２３番地の１０）,仙台市錦ケ丘八丁目公園西側,38.2606366,140.7574973,
宮城県,仙台市,390,青葉区錦ケ丘七丁目29番地の26,錦ケ丘七丁目２９番地の２６地内,38.2558999,140.760936,
