prefecture,city,number,address,name,lat,long
宮城県,利府町,第１投票区（１－１）,利府町中央三丁目６－１,八幡神社境内　東側　（フェンス）,38.329795,140.9792231
宮城県,利府町,第１投票区（１－２）,利府町加瀬字台城７６－１０,masked,38.3164141,140.9839522
宮城県,利府町,第１投票区（１－３）,利府町中央２丁目４,利府駅前２号公園（公民館側フェンス）,38.3296746,140.9814431
宮城県,利府町,第１投票区（１－４）,利府町森郷字町頭１７,森郷児童遊園　　（フェンス）,38.33316,140.9884671
宮城県,利府町,第１投票区（１－５）,利府町加瀬字新町頭１３他,新中道２号公園　北側（フェンス）,38.322966,140.9767871
宮城県,利府町,第１投票区（１－６）,利府町中央三丁目１８－１,利府駅前一号公園　南側　（フェンス）,38.327758,140.9774814
宮城県,利府町,第１投票区（１－７）,利府町中央一丁目５－２,利府駅前りふレ横丁　西側（フェンス）,38.3296676,140.9847506
宮城県,利府町,第１投票区（１－８）,利府町森郷字新椎の木前３１－１,リフノス　北側　（野立て）,38.3340625,140.9851379
宮城県,利府町,第１投票区（１－９）,利府町森郷字藤田９－５,masked,38.336602,140.9961099
宮城県,利府町,第２投票区（２－１）,利府町赤沼字大日向１１３－１,コンビニエンスストア駐車場内　北側土手（野立て）,38.3574286,141.017678
宮城県,利府町,第２投票区（２－２）,利府町赤沼字明ケ沢３５－１,行屋下バス停　付近　（野立て）,38.3648754,141.0336784
宮城県,利府町,第２投票区（２－３）,利府町赤沼字砂押１８－１,赤沼児童遊園　前　（フェンス）,38.3638508,141.0298152
宮城県,利府町,第２投票区（２－４）,利府町赤沼字中倉３２－４４,須賀避難施設　南側　（野立て）,38.3414827,141.0360352
宮城県,利府町,第２投票区（２－５）,利府町赤沼字須賀１２７,須賀漁港内公園（ちびっこ広場12）　北側（野立て）,38.3420966,141.0268031
宮城県,利府町,第３投票所（３－１）,利府町菅谷字産野原３６－２,事業所事務所（塗装店）前　（フェンス）,38.3198594,140.9618577
宮城県,利府町,第３投票所（３－２）,利府町菅谷字西天神１－１,ちびっこ広場１５　正門　（フェンス）,38.3198349,140.9560285
宮城県,利府町,第３投票所（３－３）,利府町菅谷字東浦３０－１,利府街道アパート　北東側畑（野立て）,38.3193482,140.962889
宮城県,利府町,第３投票所（３－４）,利府町菅谷字赤坂地内,菅谷元ゲートボール場　（フェンス）,38.3195416,140.9601096
宮城県,利府町,第３投票所（３－５）,利府町菅谷字新洞風１７,利府西中学校　（フェンス）,38.3228174,140.9597169
宮城県,利府町,第３投票所（３－６）,利府町菅谷字西天神１０２,西天神公園（ちびっこ広場11）　西側（フェンス）,38.3183523,140.9575336
宮城県,利府町,第４投票区（４－１）,利府町赤沼字浜田４３－１,masked,38.3498502,141.0391469
宮城県,利府町,第４投票区（４－２）,利府町赤沼字浜田地内,浜田駅　前ロータリー　（野立て）,38.3485871,141.0389247
宮城県,利府町,第５投票区（５－１）,利府町加瀬字郷楽３６－１,masked,38.3270803,140.9966791
宮城県,利府町,第５投票区（５－２）,利府町加瀬字十三塚６０－４,十三塚バス停付近　（フェンス）,38.3233687,140.993699
宮城県,利府町,第５投票区（５－３）,利府町加瀬字十三本塚１６３,四季の丘１号公園　南側　（フェンス）,38.31931549999999,140.9967898
宮城県,利府町,第５投票区（５－４）,利府町加瀬字野中沢７４－４,ちびっこ広場１０　（フェンス）,38.3241436,140.9990487
宮城県,利府町,第５投票区（５－５）,利府町加瀬字十三本塚153-2,十三塚遺跡付近　（野立て）,38.3208988,140.9955288
宮城県,利府町,第５投票区（５－６）,利府町加瀬字郷楽２３－２,事業所事務所　東側（野立て）,38.3258663,140.9957691
宮城県,利府町,第５投票区（５－７）,利府町加瀬字南野中沢１－４,牛乳販売店　北側畑　（野立て）,38.3231933,140.9965599
宮城県,利府町,第６投票区（６－１）,利府町神谷沢字塚元５８－１他,ちびっこ広場２８　西側　（フェンス）,38.3145664,140.9543805
宮城県,利府町,第６投票区（６－２）,利府町神谷沢字後沢３１－１,利府第二小学校　校門付近（フェンス）,38.3178893,140.9528015
宮城県,利府町,第６投票区（６－３）,利府町神谷沢字南沢３６－２,南沢児童遊園　（フェンス）,38.311105,140.945854
宮城県,利府町,第６投票区（６－４）,利府町神谷沢字後沢４７－１６,事業所事務所　北側　（フェンス）,38.3172142,140.9559338
宮城県,利府町,第６投票区（６－５）,利府町神谷沢字館ノ内６９－１,理容店向い空地　西側　（野立て）,38.3116604,140.9547529
宮城県,利府町,第６投票区（６－６）,利府町神谷沢字化粧坂１０－７,化粧坂児童遊園　（フェンス）,38.3112909,140.9559266
宮城県,利府町,第６投票区（６－７）,利府町神谷沢字長田２９－１,神谷沢団地入口付近　（フェンス）,38.3143027,140.9519166
宮城県,利府町,第７投票区（７－１）,利府町春日字金生１０,masked,38.346477,141.000191
宮城県,利府町,第７投票区（７－２）,利府町春日字新堀１４－１,資材置き場　西側　（野立て）,38.3446898,140.9974217
宮城県,利府町,第７投票区（７－３）,利府町春日字小橋元３４,masked,38.3520757,141.0136258
宮城県,利府町,第８投票区（８－１）,利府町沢乙字深山５,沢乙公民館　前　（野立て）,38.3296913,140.963871
宮城県,利府町,第８投票区（８－２）,利府町沢乙字欠下北２－１,榎川砂防公園　北側　（フェンス）,38.3422172,140.955082
宮城県,利府町,第８投票区（８－３）,利府町青葉台一丁目２－１８,青葉台１号公園　（フェンス）,38.3330622,140.9633878
宮城県,利府町,第８投票区（８－４）,利府町青葉台二丁目１－４０,青葉台２号公園　（フェンス）,38.3367818,140.962667
宮城県,利府町,第８投票区（８－５）,利府町青葉台三丁目１－５１,青葉台３号公園　（フェンス）,38.3395048,140.9630879
宮城県,利府町,第８投票区（８－６）,利府町青葉台二丁目１－１１,青葉台二丁目バス停　　（フェンス）,38.3371392,140.9625316
宮城県,利府町,第８投票区（８－７）,利府町青葉台三丁目１－５０,青葉台三丁目集会所　（フェンス）,38.3420185,140.9609311
宮城県,利府町,第８投票区（８－８）,利府町沢乙字北橋３３,キャロット館　北側　（フェンス）,38.3321124,140.9715603
宮城県,利府町,第９投票区（９－１）,利府町しらかし台六丁目６－８,事業所駐車場　（フェンス）,38.342463,140.9645187
宮城県,利府町,第９投票区（９－２）,利府町しらかし台六丁目４－１,しらかし台二丁目バス停　南　（野立て）,38.3440831,140.9634454
宮城県,利府町,第９投票区（９－３）,利府町しらかし台六丁目３－１,しらかし台中学校　入口付近　（フェンス）,38.3440831,140.9634454
宮城県,利府町,第９投票区（９－４）,利府町しらかし台二丁目３７,しらかし台団地　北側進入口（野立て）,38.3456395,140.9586661
宮城県,利府町,第９投票区（９－５）,利府町しらかし台一丁目１－９,しらかし台小学校　南東角　（フェンス）,38.3471469,140.961741
宮城県,利府町,第９投票区（９－６）,利府町しらかし台五丁目１８－２,さわおと北公園　入口　（野立て）,38.3499734,140.966742
宮城県,利府町,第９投票区（９－７）,利府町しらかし台一丁目８－３,定住促進住宅敷地内　北東角　（野立て）,38.3501143,140.9612873
宮城県,利府町,第１０投票区（１０－１）,利府町花園一丁目２６－１７,内ノ目南１号公園　（フェンス）,38.3363269,140.9727826
宮城県,利府町,第１０投票区（１０－２）,利府町花園一丁目６,内ノ目南２号公園　（フェンス）,38.3361209,140.9723427
宮城県,利府町,第１０投票区（１０－３）,利府町花園一丁目８－１５,内ノ目南３号公園　（フェンス）,38.3386867,140.9730133
宮城県,利府町,第１０投票区（１０－４）,利府町花園二丁目２２－１０,駐車場　南側（野立て）,38.3404496,140.9716846
宮城県,利府町,第１０投票区（１０－５）,利府町花園二丁目２４－５,花園５号公園　（フェンス）,38.3421181,140.9725745
宮城県,利府町,第１０投票区（１０－６）,利府町皆の丘１４－１,皆の丘公園　（フェンス）,38.3375437,140.9755187
宮城県,利府町,第１０投票区（１０－７）,利府町花園一丁目３３－４,事業所　向い　（フェンス）,38.3361209,140.9723427
宮城県,利府町,第１１投票区（１１－１）,利府町青山二丁目１０５,青山二丁目西バス停　　（野立て）,38.3425264,140.9682244
宮城県,利府町,第１１投票区（１１－２）,利府町青山二丁目１５-３９,青山二丁目東バス停　前（下り）　（野立て）,38.3415745,140.9698807
宮城県,利府町,第１１投票区（１１－３）,利府町青山一丁目５７－２,屋内温水プール北側　塀　（フェンス）,38.3358271,140.9677807
宮城県,利府町,第１１投票区（１１－４）,利府町青山二丁目３４－３,森の里公園南側　（野立て）,38.3431739,140.9687438
宮城県,利府町,第１１投票区（１１－５）,利府町青山三丁目４０－１,県サッカー場北入口バス停（下り）（野立て）,38.3446158,140.9717428
宮城県,利府町,第１１投票区（１１－６）,利府町青山四丁目７－１,青山北公園　東側　（野立て）,38.3494105,140.9725697
宮城県,利府町,第１１投票区（１１－７）,利府町青山四丁目７４,青山四丁目北側　松の木前　（野立て）,38.3508414,140.9718517
宮城県,利府町,第１２投票区（１２－１）,利府町菅谷台二丁目１６－１,菅谷台二丁目　丸太の公園南側　（野立て）,38.3276318,140.9511278
宮城県,利府町,第１２投票区（１２－２）,利府町菅谷台三丁目２,菅谷台三丁目　動物病院脇　（野立て）,38.331957,140.9530655
宮城県,利府町,第１２投票区（１２－３）,利府町菅谷台三丁目８,菅谷台三丁目　花の公園北側　（野立て）,38.331957,140.9530655
宮城県,利府町,第１２投票区（１２－４）,利府町菅谷台四丁目３１,菅谷台四丁目　船の公園西側　（野立て）,38.3325059,140.9564796
宮城県,利府町,第１２投票区（１２－５）,利府町菅谷台一丁目３１,菅谷駐在所前　信号機付近　（野立て）,38.3274125,140.9524487
宮城県,利府町,第１２投票区（１２－６）,利府町菅谷台一丁目３２,菅谷台一丁目　山苗代公園東屋南　（野立て）,38.3274125,140.9524487
宮城県,利府町,第１２投票区（１２－７）,利府町菅谷台三丁目２５－４地先,菅谷台三丁目　交差点付近　（野立て）,38.3324855,140.9521235
宮城県,利府町,第１３投票区（１３－１）,利府町春日字勝負沢４３　地内,春日二部町内会軽運動場　（フェンス）,38.341124,141.00785
宮城県,利府町,第１３投票区（１３－２）,利府町春日字勝負沢４３－４７,梨ヶ丘団地公園　東側　（フェンス）,38.340304,141.0090961
宮城県,利府町,第１３投票区（１３－３）,利府町春日字硯沢１８６－１,masked,38.3397024,141.0097107
宮城県,利府町,第１４投票区（１４－１）,利府町葉山一丁目地内,介護老人福祉施設東側角交差点付近（野立て）,38.3633194,141.0209826
宮城県,利府町,第１４投票区（１４－２）,利府町葉山二丁目１,大貝公園　(交差点付近）　（フェンス）,38.3692111,141.0242881
宮城県,利府町,第１４投票区（１４－３）,利府町葉山一丁目２５－１,つつじの公園　北側緑地　（野立て）,38.3656755,141.0222788
宮城県,利府町,第１４投票区（１４－４）,利府町葉山二丁目１３－７,ひだまりの公園　北側　（フェンス）,38.3681393,141.0241148
