prefecture,city,number,address,name,lat,long
宮城県,南三陸町,第１投票区,南三陸町戸倉字町２７－２,荒町ふれあいセンター敷地,38.6449424,141.4126933
宮城県,南三陸町,第１投票区,南三陸町戸倉字日向３９－１付近,西戸地区集会所付近,38.6399891,141.4235197
宮城県,南三陸町,第１投票区,南三陸町戸倉字沖田５３－７９,沖田地区集会所,38.6376943,141.4421939
宮城県,南三陸町,第１投票区,南三陸町戸倉字沖田６９,戸倉公民館,38.6424431,141.4427154
宮城県,南三陸町,第１投票区,南三陸町戸倉字水戸辺９５－１,水戸辺町道下り口ゴミ集積所付近,38.6403518,141.4544474
宮城県,南三陸町,第１投票区,南三陸町戸倉字戸倉３２－２９,松崎団地上り口付近,38.6455556,141.4641028
宮城県,南三陸町,第１投票区,南三陸町戸倉字波伝谷１８６－１３,波伝谷団地緑地広場前,38.6423846,141.472666
宮城県,南三陸町,第１投票区,南三陸町戸倉字合羽沢１１－３,合羽沢団地上り口付近,38.6411358,141.4817715
宮城県,南三陸町,第１投票区,南三陸町戸倉字津の宮２２－１４,津の宮原団地緑地,38.6412283,141.4843247
宮城県,南三陸町,第２投票区,南三陸町戸倉字滝浜８９－１付近,滝浜墓地入口付近法面,38.6320207,141.4936546
宮城県,南三陸町,第２投票区,南三陸町戸倉字藤浜６１－１４,藤浜団地上り口付近,38.6388379,141.4997054
宮城県,南三陸町,第２投票区,南三陸町戸倉字小細谷３－１付近,国道３９８号待避所,38.6357569,141.5121486
宮城県,南三陸町,第２投票区,南三陸町戸倉字小細谷６２－９,長清水団地上り口付近,38.6329433,141.5158946
宮城県,南三陸町,第２投票区,南三陸町戸倉字太田４－３,神割崎入口,38.6308355,141.5173294
宮城県,南三陸町,第３投票区,南三陸町志津川字林８０－６,三陸建業脇法面,38.6666895,141.4429653
宮城県,南三陸町,第３投票区,南三陸町志津川字大久保１６８,遠藤組手前路肩,38.6700862,141.4397567
宮城県,南三陸町,第３投票区,南三陸町志津川字下保呂毛１７０－４,町道保呂毛線・農道保呂毛線交差点付近,38.6740867,141.4237616
宮城県,南三陸町,第３投票区,南三陸町志津川字新井田３４－１４２,中央行政区集会所前公園（東側）,38.6856811,141.4533472
宮城県,南三陸町,第３投票区,南三陸町志津川字新井田３４－１７８,中央団地西側公園向い緑地ゴミ集積所脇,38.6856811,141.4533472
宮城県,南三陸町,第３投票区,南三陸町志津川字城場７５ー２,志津川小学校入口法面,38.683421,141.449646
宮城県,南三陸町,第３投票区,南三陸町志津川字上の山１３－５,上の山都市緑地南側入口ブロック塀,38.6798212,141.4504607
宮城県,南三陸町,第３投票区,南三陸町志津川字新井田１６３,masked,38.6853965,141.4478251
宮城県,南三陸町,第３投票区,南三陸町入谷字大船沢３３８,漆房バス停脇,38.68531710000001,141.4185882
宮城県,南三陸町,第４投票区,南三陸町志津川字田尻畑２８－３,町道田尻畑線田尻畑路肩,38.6819332,141.4306619
宮城県,南三陸町,第４投票区,南三陸町志津川字竹川原４７－１２,志津川西班消防車庫前,38.6765685,141.4361595
宮城県,南三陸町,第４投票区,南三陸町志津川字廻館８４－４０,志津川西団地（東工区）上り口法面,38.6805525,141.4387241
宮城県,南三陸町,第４投票区,南三陸町志津川字廻館１５－７３,旭ヶ丘コミュニティセンター前,38.6835313,141.4382016
宮城県,南三陸町,第４投票区,南三陸町志津川字廻館１５－１７３,宮城県志津川教職員宿舎前,38.68447219999999,141.4359829
宮城県,南三陸町,第４投票区,南三陸町志津川字廻館７４－３６,志津川西団地（西工区）入口法面,38.6846042,141.4337619
宮城県,南三陸町,第４投票区,南三陸町志津川字熊田１－２,小森ふ化場入口付近,38.692766,141.4347632
宮城県,南三陸町,第４投票区,南三陸町志津川字秋目川２２－１１付近,秋目川バス停脇,38.70013410000001,141.4302281
宮城県,南三陸町,第５投票区,南三陸町志津川字沼田１５０－６１,商工団地公園前,38.6852364,141.4637666
宮城県,南三陸町,第５投票区,南三陸町志津川字天王山３８－１４５,沼田ふれあいセンター後側公園,38.6835639,141.4614583
宮城県,南三陸町,第５投票区,南三陸町志津川字沼田５６,南三陸町総合体育館町道側法面,38.6896552,141.4653135
宮城県,南三陸町,第５投票区,南三陸町志津川字天王山３８－７,masked,38.6816057,141.4603271
宮城県,南三陸町,第５投票区,南三陸町志津川字天王山３８－７,masked,38.6816057,141.4603271
宮城県,南三陸町,第５投票区,南三陸町志津川字袖浜１２２－１３,袖浜班消防車庫南側,38.6754451,141.4674104
宮城県,南三陸町,第６投票区,南三陸町志津川字袖浜２２９,平磯生活センター向い,38.678044,141.4702926
宮城県,南三陸町,第６投票区,南三陸町志津川字深田７０－５,平磯防集団地入口法面,38.6838255,141.4711588
宮城県,南三陸町,第６投票区,南三陸町志津川字深田２６３－１,大平磯下船揚場下り口付近,38.6802227,141.476904
宮城県,南三陸町,第６投票区,南三陸町志津川字蒲の沢２２８－７,荒砥コミュニティセンター入口法面,38.6767623,141.482684
宮城県,南三陸町,第６投票区,南三陸町志津川字平貝２０－３,荒砥防集団地上り口法面,38.6820818,141.4859831
宮城県,南三陸町,第６投票区,南三陸町志津川字北の又１１,全慶寺下,38.6784096,141.4887771
宮城県,南三陸町,第７投票区,南三陸町志津川字大上坊４３－１,町道大上坊米広線大上坊法面,38.704939,141.4763673
宮城県,南三陸町,第７投票区,南三陸町志津川字内井田２２－７,清水団地入口,38.6950324,141.4866397
宮城県,南三陸町,第７投票区,南三陸町志津川字松井田５２－４２,清水地区集会所裏法面,38.6927351,141.4844127
宮城県,南三陸町,第７投票区,南三陸町志津川字阿曽３２－１０,細浦班消防車庫前法面,38.7012507,141.4863012
宮城県,南三陸町,第７投票区,南三陸町志津川字蛇王１６３－１,細浦入口バス停前,38.6957461,141.4952528
宮城県,南三陸町,第７投票区,南三陸町志津川字西田１４９－１３,西田・細浦団地,38.6971062,141.5008776
宮城県,南三陸町,第８投票区,南三陸町入谷字桜沢４３－６,masked,38.69382299999999,141.4179739
宮城県,南三陸町,第８投票区,南三陸町入谷字桜沢４３０－１,ひころの里駐車場,38.6999251,141.4218851
宮城県,南三陸町,第８投票区,南三陸町入谷字桜沢２４５－２,旧静久堂付近空地,38.6973891,141.4139407
宮城県,南三陸町,第８投票区,南三陸町入谷字鏡石２１８－２,町道鏡石岩沢線鏡石ゴミ集積所付近土手,38.7018022,141.407559
宮城県,南三陸町,第８投票区,南三陸町入谷字新中の町１８７,稲香園向い路肩,38.7022246,141.416031
宮城県,南三陸町,第８投票区,南三陸町入谷字岩沢１６０－９,岩沢生活センター前,38.7042897,141.4008891
宮城県,南三陸町,第８投票区,南三陸町入谷字水口沢１９９－１,龍門院付近土手,38.7082982,141.409373
宮城県,南三陸町,第８投票区,南三陸町入谷字新童子下４１,四季の里（童子下生活センター）脇,38.7089162,141.4176378
宮城県,南三陸町,第９投票区,南三陸町入谷字林際２０１－１,佐藤豆腐店斜め向い,38.7252697,141.4143674
宮城県,南三陸町,第９投票区,南三陸町入谷字山の神平３７－６,残谷中継ポンプ場前,38.7315025,141.4303773
宮城県,南三陸町,第９投票区,南三陸町入谷字山の神平１６１－４,石ノ平中継ポンプ場前,38.7315025,141.4303773
宮城県,南三陸町,第９投票区,南三陸町入谷字山の神平１５２－９,たら葉沢班消防車庫前,38.7315025,141.4303773
宮城県,南三陸町,第９投票区,南三陸町入谷字桵葉沢３９２－２,旧たら葉沢集会所前,38.7096036,141.3919562
宮城県,南三陸町,第９投票区,南三陸町入谷字天神７－１,清流会館前,38.7108694,141.4264127
宮城県,南三陸町,第９投票区,南三陸町入谷字天神１８８,横断１号線天神路肩,38.7068021,141.4292756
宮城県,南三陸町,第１０投票区,南三陸町歌津字払川９５－２,払川バス停脇,38.735281,141.4460311
宮城県,南三陸町,第１０投票区,南三陸町歌津字上沢１６７－２,しも畑バス停脇,38.729813,141.4854899
宮城県,南三陸町,第１０投票区,南三陸町歌津字上沢３２－４,上沢部落集会所付近,38.7267409,141.4951939
宮城県,南三陸町,第１０投票区,南三陸町歌津字樋の口１３,町道樋の口線・町道石泉樋の口線交差点付近,38.7452838,141.4777068
宮城県,南三陸町,第１０投票区,南三陸町歌津字田表１３－１,山庄建設資材置場付近,38.7171502,141.5098755
宮城県,南三陸町,第１０投票区,南三陸町歌津字石泉２－１６付近,道めき橋バス停脇,38.7339606,141.5080243
宮城県,南三陸町,第１０投票区,南三陸町歌津字吉野沢６１－１８５,平方バス停手前交差点,38.7278901,141.5126734
宮城県,南三陸町,第１０投票区,南三陸町歌津字吉野沢６１－６３,吉野沢団地前バス停脇,38.7274696,141.5137253
宮城県,南三陸町,第１１投票区,南三陸町歌津字平松４０－２付近,韮の浜農村公園入口,38.6988404,141.5098756
宮城県,南三陸町,第１１投票区,南三陸町歌津字砂浜２９－１,韮の浜班消防車庫脇,38.6998282,141.5119441
宮城県,南三陸町,第１１投票区,南三陸町歌津字寄木５３－４２,寄木・韮の浜団地入口,38.7077427,141.5149252
宮城県,南三陸町,第１１投票区,南三陸町歌津字寄木５３－４３,寄木・韮の浜地区集会所前,38.7028455,141.5129587
宮城県,南三陸町,第１１投票区,南三陸町歌津字伊里前１００－５,ハマーレ歌津かもめ館脇,38.7174521,141.5214812
宮城県,南三陸町,第１１投票区,南三陸町歌津字伊里前１５６,masked,38.7196403,141.5196198
宮城県,南三陸町,第１１投票区,南三陸町歌津字伊里前３２５－４,masked,38.7238858,141.5164245
宮城県,南三陸町,第１１投票区,南三陸町歌津字伊里前３２５－３,masked,38.7235296,141.5163276
宮城県,南三陸町,第１１投票区,南三陸町歌津字枡沢８５－１,masked,38.7223412,141.5347023
宮城県,南三陸町,第１１投票区,南三陸町歌津字管の浜６０,歌津総合支所,38.719837,141.5333952
宮城県,南三陸町,第１１投票区,南三陸町歌津字館浜１０６－２,館浜団地入口丁字路法面,38.7107416,141.5405212
宮城県,南三陸町,第１１投票区,南三陸町歌津字館浜１６９－２,稲渕班ポンプ置場向い法面,38.7107416,141.5405212
宮城県,南三陸町,第１２投票区,南三陸町歌津字番所７９,泊浜生活センター付近,38.70035439999999,141.562861
宮城県,南三陸町,第１２投票区,南三陸町歌津字田の頭７９－４,泊浜団地上手入口付近,38.707799,141.5627166
宮城県,南三陸町,第１２投票区,南三陸町歌津字大沼１７－６,馬場・中山団地入口付近,38.714716,141.556205
宮城県,南三陸町,第１２投票区,南三陸町歌津字小長柴６７－３,名足こども園入口,38.7240301,141.545017
宮城県,南三陸町,第１２投票区,南三陸町歌津字北の沢８３－５,masked,38.7269855,141.5556265
宮城県,南三陸町,第１２投票区,南三陸町歌津字北の沢１１２－９,名足バス停,38.727427,141.5587072
宮城県,南三陸町,第１２投票区,南三陸町歌津字石浜９９－２,石浜集会所入口付近,38.7321906,141.5607692
宮城県,南三陸町,第１３投票区,南三陸町歌津字田茂川２６３－７,masked,38.7344896,141.5541256
宮城県,南三陸町,第１３投票区,南三陸町歌津字田の浦１５５－９,田の浦地区集会所,38.7337762,141.5380724
宮城県,南三陸町,第１３投票区,南三陸町歌津字港２６８－４,港地区長羽団地上り口付近,38.73743229999999,141.5319156
宮城県,南三陸町,第１３投票区,南三陸町歌津字長羽７４－１,町道旧国道港線長羽ゴミ集積所付近法面,38.7341472,141.533529
宮城県,南三陸町,第１３投票区,南三陸町歌津字中野９１－１０,港親義会館後,38.7416622,141.5296173
