prefecture,city,number,address,name,lat,long,note
宮城県,大崎市,1,古川千手寺町１丁目３番２４,旧大崎市民病院南病棟向い立体駐車場,38.5782455,140.9553015,
宮城県,大崎市,2,古川諏訪二丁目１１６番地１,大崎市諏訪公園,None,None,緯度経度は怪しい
宮城県,大崎市,3,古川千手寺町二丁目５番５０号,道の駅おおさき入口付近,38.5798017,140.9565678,
宮城県,大崎市,4,古川西館二丁目３番３７号,古川クリニック入口向い,38.5733352,140.9515723,
宮城県,大崎市,5,古川城西一丁目７番１５号,薬王堂古川城西店 緑地帯,38.5751024,140.9491126,
宮城県,大崎市,6,古川若葉町２丁目４番地３先,古川若葉町住宅付近交差点,38.5896222,140.9527969,
宮城県,大崎市,7,古川大宮二丁目６番２３号,宮袋公会堂,38.5859919,140.9524879,
宮城県,大崎市,8,古川字上古川１１７番地,大崎市上下水道部,38.586815,140.944931,緯度経度は怪しい
宮城県,大崎市,9,古川字大奥防３１番地,古川大奥防住宅跡地,38.585922,140.949127,緯度経度は怪しい
宮城県,大崎市,10,古川大宮八丁目２番１号,大崎市古川第四小学校北門付近,38.5883382,140.9554893,
宮城県,大崎市,11,古川三日町一丁目６３番地１,大崎市三日町公園,38.574623,140.95578,緯度経度は怪しい
宮城県,大崎市,12,古川三日町二丁目５番１号,大崎市古川保健福祉プラザ,38.5729306,140.9571939,
宮城県,大崎市,13,古川中里一丁目１０番４０号,個人宅ブロック塀前,38.5715309,140.9608911,
宮城県,大崎市,14,古川南町三丁目７番２６号,大崎市古川南児童センター,38.56684620000001,140.9552475,
宮城県,大崎市,15,古川栄町８番１１号,栄町集会所,38.5674566,140.9486979,
宮城県,大崎市,16,古川穂波三丁目４番２０号,大崎生涯学習センター,38.5657111,140.945958,
宮城県,大崎市,17,古川小稲葉町８番１５号,旧大崎市古川たんぽぽ保育所,38.5678486,140.952571,
宮城県,大崎市,18,古川北稲葉一丁目１番１６号,大崎市古川南部コミュニティセンター,38.5637343,140.9555255,
宮城県,大崎市,19,古川稲葉三丁目２番１０号,綱田喜昭様　宅地,38.5603541,140.9539054,
宮城県,大崎市,20,古川稲葉三丁目５番３号,佐々木康廣様　宅地,38.5587916,140.9544897,
宮城県,大崎市,21,古川金五輪一丁目１３番１号,大崎市古川第三小学校東南角付近道路側,38.5594348,140.9590116,
宮城県,大崎市,22,古川南町2丁目3番17号,古川高等学校敷地,38.5703587,140.9554154,
宮城県,大崎市,23,古川稲葉四丁目２３０番地２０,沖稲葉団地公園,38.554626,140.955948,緯度経度は怪しい
宮城県,大崎市,24,古川米袋字水車６番地,米袋集会所,38.548454,140.952011,緯度経度は怪しい
宮城県,大崎市,25,古川穂波四丁目１０番１３号,古川西荒井住宅,38.5585574,140.9445139,
宮城県,大崎市,26,古川稲葉字新堀５６番地先,(株)オーケーエス　北東側道路敷地,38.554214,140.948883,緯度経度は怪しい
宮城県,大崎市,27,古川西荒井字東田344番地,おひさま治療院西向道路側敷地,38.554577,140.945129,緯度経度は怪しい
宮城県,大崎市,28,古川中里三丁目３番４４号先,個人宅南隣空き地,38.5668106,140.960503,
宮城県,大崎市,29,古川中里五丁目１７番２号先,個人宅地西側道路敷地,38.5628547,140.9644592,
宮城県,大崎市,30,古川駅東一丁目１８９番付近,古川駅東　新幹線東線植栽部分,38.571526,140.972015,緯度経度は怪しい
宮城県,大崎市,31,古川駅前大通四丁目２番,大崎市図書館,38.5749646,140.9660611,
宮城県,大崎市,32,古川李埣二丁目３４０番１,個人宅　南側,38.575184,140.976288,緯度経度は怪しい
宮城県,大崎市,33,古川大宮四丁目９番８号,大崎市古川大宮児童センター,38.5856575,140.9576943,
宮城県,大崎市,34,古川駅前大通五丁目３番３号,古川郵便局,38.5772628,140.9664311,
宮城県,大崎市,35,古川北町一丁目１番３５号,大崎市古川中央コミュニティセンター,38.577668,140.9602603,
宮城県,大崎市,36,古川北町四丁目４番２５号,大崎市古川北町保育所,38.5826132,140.9620899,
宮城県,大崎市,37,古川北町五丁目５番１号,大崎市中央公民館,38.5809564,140.9679959,
宮城県,大崎市,38,古川駅南二丁目７番地,大崎市古川駅南二号公園,38.568069,140.969177,緯度経度は怪しい
宮城県,大崎市,39,古川旭三丁目１番地,県営古川李埣住宅,38.5698233,140.975709,
宮城県,大崎市,40,古川李埣三丁目１番３号,旧大崎市古川東部コミュニティセンター,38.5714164,140.9787203,
宮城県,大崎市,41,古川旭四丁目１番１号,大崎市あさひ中央公園,38.5664687,140.9746624,
宮城県,大崎市,42,古川旭四丁目５番２号,大崎市古川総合体育館,38.564239,140.9750933,
宮城県,大崎市,43,古川福浦一丁目３番６号,個人宅ブロックフェンス外側,38.5880799,140.9609766,
宮城県,大崎市,44,古川福浦一丁目１４番６号,福浦児童公園,38.5904124,140.9607773,
宮城県,大崎市,45,古川江合本町一丁目１番６号,八幡神社,38.5879002,140.9681335,
宮城県,大崎市,46,古川江合錦町二丁目２番３９号先,Ｎハイツ東側水路柵,38.5845065,140.9695539,
宮城県,大崎市,47,古川江合寿町一丁目５番２５号,個人宅地敷地内,38.5855631,140.9649262,
宮城県,大崎市,48,古川福沼一丁目１番地１,大崎市荒雄公園,38.5806388,140.9708703,
宮城県,大崎市,49,古川福沼一丁目１５番１号,大崎市市民プール駐車場,38.5837849,140.9751725,
宮城県,大崎市,50,古川福沼二丁目１２番１９号,古川農協福沼倉庫,38.5793722,140.9769638,
宮城県,大崎市,51,古川福沼三丁目１８番１２号先,古川第二小学校北東側入り口付近,38.5764009,140.9777654,
宮城県,大崎市,52,古川李埣字横山３３番地,個人宅ブロック塀外側,38.577568,140.971405,緯度経度は怪しい
宮城県,大崎市,53,古川李埣字東田９９番地,大崎市建設課車庫,38.569447,140.983841,緯度経度は怪しい
宮城県,大崎市,54,古川馬寄字南屋敷１番地先,個人宅地東側向い敷地内,38.561481,140.983948,緯度経度は怪しい
宮城県,大崎市,55,古川鶴ケ埣字南原１２番地先,鶴ケ埣集会所前水路敷,38.572983,140.988815,緯度経度は怪しい
宮城県,大崎市,56,古川鶴ケ埣字新江北６９番地２,パナソニックコンシューマーマーケティング（株）南側,38.569683,140.990158,緯度経度は怪しい
宮城県,大崎市,57,古川字竹ノ内２４４番地２,小規模多機能型居宅介護事業所ひばり　敷地,38.575092,140.94516,緯度経度は怪しい
宮城県,大崎市,58,古川穂波五丁目１番,ほなみ親水公園,38.561675,140.9423108,
宮城県,大崎市,59,古川穂波八丁目１７番１０号,米倉　鹿島神社境内,38.5704821,140.9383102,
宮城県,大崎市,60,古川穂波五丁目１１番地１,雇用促進住宅米倉宿舎1号棟北側,38.56243449999999,140.9380247,
宮城県,大崎市,61,古川塚目字原屋敷１１０番地,塚目生活センター,38.57692,140.938828,緯度経度は怪しい
宮城県,大崎市,62,古川塚目字石名坂２２番地,個人宅ブロック塀外側,38.591839,140.93663,緯度経度は怪しい
宮城県,大崎市,63,古川飯川字要害６３０番地１,個人宅ブロック塀外側,38.561378,140.921463,緯度経度は怪しい
宮城県,大崎市,64,古川飯川字坂下３７番地,個人宅ブロック塀外側,38.566803,140.915192,緯度経度は怪しい
宮城県,大崎市,65,古川飯川字松木９番地,個人宅ブロック塀外側,38.558113,140.924393,緯度経度は怪しい
宮城県,大崎市,66,古川上中目字西１５０番地１,個人宅ブロック塀外側,38.574638,140.900803,緯度経度は怪しい
宮城県,大崎市,67,古川渋井字谷地１0番地,個人所有敷地内,38.579121,140.914124,緯度経度は怪しい
宮城県,大崎市,68,古川保柳字中江５番地２先,古川農村環境改善センター,38.586143,140.898987,緯度経度は怪しい
宮城県,大崎市,69,古川保柳字氏子２０２番地,大崎市西古川地区公民館,38.583527,140.895828,緯度経度は怪しい
宮城県,大崎市,70,古川新堀字東田１番地８,大崎市西古川児童遊園,38.57653,140.894501,緯度経度は怪しい
宮城県,大崎市,71,古川柏崎字神明前１３番地２先,日吉神社東側道路敷,38.58712,140.8853,緯度経度は怪しい
宮城県,大崎市,72,古川耳取字金穂７６番地,個人宅ブロック塀外側,38.586292,140.878204,緯度経度は怪しい
宮城県,大崎市,73,古川柏崎字志引地内,個人宅付近交差点,38.58712,140.8853,緯度経度は怪しい
宮城県,大崎市,74,古川斎下字中町６１番地,個人宅地敷地内,38.598728,140.892227,緯度経度は怪しい
宮城県,大崎市,75,古川大崎字朝日３２番地,大崎市古川東大崎地区公民館,38.603771,140.909698,緯度経度は怪しい
宮城県,大崎市,76,古川大崎字伏見本屋敷６９番地２,（株）三協建設　倉庫跡地,38.606434,140.902481,緯度経度は怪しい
宮城県,大崎市,77,古川大崎字天望５３番地,大崎コミュニティセンター,38.603062,140.904007,緯度経度は怪しい
宮城県,大崎市,78,古川清水字三丁目柳ノ内１６番地,オークの森,38.609657,140.927765,緯度経度は怪しい
宮城県,大崎市,79,古川清水字三丁目石原３７番地,個人宅生垣前,38.608788,140.925674,緯度経度は怪しい
宮城県,大崎市,80,古川清水字成田５１番地１先,成田公会堂,38.61871,140.909576,緯度経度は怪しい
宮城県,大崎市,81,古川新田字旭１番地１先,新田要害公会堂脇空き地,38.594975,140.933975,緯度経度は怪しい
宮城県,大崎市,82,古川新田字上宿３２番地１先,個人酒店南側,38.59819,140.927704,緯度経度は怪しい
宮城県,大崎市,83,古川新田字大西３７番地４,（有）阿部重機土木様　敷地,38.602238,140.926651,緯度経度は怪しい
宮城県,大崎市,84,古川小林字新一本杉１７０番地,大崎市古川宮沢地区公民館,38.606583,140.942398,緯度経度は怪しい
宮城県,大崎市,85,古川小林字新要害４８番地,小林上区親和会館,38.606583,140.942398,緯度経度は怪しい
宮城県,大崎市,86,古川宮沢字新庚壇７１番地,個人宅農地畦畔,38.628963,140.937805,緯度経度は怪しい
宮城県,大崎市,87,古川宮沢字裏馬田町３５番地１,個人宅ブロック塀外側,38.628963,140.937805,緯度経度は怪しい
宮城県,大崎市,88,古川川熊字長清１３７番地先,川熊生活センター下公園法面,38.622593,140.957138,緯度経度は怪しい
宮城県,大崎市,89,古川桜ノ目字新下釜２２９番地先,大昇物流西側空き地,38.600246,140.953491,緯度経度は怪しい
宮城県,大崎市,90,古川小林字新霞地内,南小林橋西側道路敷,38.606583,140.942398,緯度経度は怪しい
宮城県,大崎市,91,古川桜ノ目字下り松6番地7,ＪＡ古川宮沢給油所前,38.605438,140.946533,緯度経度は怪しい
宮城県,大崎市,92,古川桜ノ目字又戸４５番地２,個人宅ブロック塀外側,38.607105,140.951721,緯度経度は怪しい
宮城県,大崎市,93,古川沢田字中河原地内,個人宅空き地内,38.596546,140.966568,緯度経度は怪しい
宮城県,大崎市,94,古川沢田字小村渕３７番地８,個人宅ブロック塀外側,38.600887,140.970139,緯度経度は怪しい
宮城県,大崎市,95,古川沢田字諏訪西４番地,個人宅ブロック塀外側,38.601303,140.968704,緯度経度は怪しい
宮城県,大崎市,96,古川荒谷字新竹ノ花８７番地２,佐信木材（株）資材置場,38.607586,140.979675,緯度経度は怪しい
宮城県,大崎市,97,古川荒谷字小道７番地,個人宅ブロック塀外側,38.612293,140.977463,緯度経度は怪しい
宮城県,大崎市,98,古川荒谷字新樋ノ口８１番地,大崎市古川長岡地区公民館,38.604137,140.977676,緯度経度は怪しい
宮城県,大崎市,99,古川長岡字仲屋敷５７番地,個人宅ブロック塀外側,38.618565,140.962189,緯度経度は怪しい
宮城県,大崎市,100,古川荒谷字権現山地内,県道古川岩出山線チェーン着脱場,38.612293,140.977463,緯度経度は怪しい
宮城県,大崎市,101,古川小野字朽木橋８８番地１,朽木橋生活センター,38.629372,140.985077,緯度経度は怪しい
宮城県,大崎市,102,古川小野字中蝦沢７５番地１,小野二区集会所,38.629372,140.985077,緯度経度は怪しい
宮城県,大崎市,103,古川小野字壇ノ崎６６番地,個人宅生垣前,38.629372,140.985077,緯度経度は怪しい
宮城県,大崎市,104,古川小野字馬籠６９番地２,個人宅ブロック塀外側,38.629372,140.985077,緯度経度は怪しい
宮城県,大崎市,105,古川小野字宿５９番地１,ｵｰﾄﾃｸﾆｶﾙｻｰﾋﾞｽ駐車場敷地内,38.629372,140.985077,緯度経度は怪しい
宮城県,大崎市,106,古川休塚字南田１先,個人宅北側道路敷,38.594936,140.975693,緯度経度は怪しい
宮城県,大崎市,107,古川休塚字童子川１２０番地,個人宅ブロック塀外側,38.599415,140.97995,緯度経度は怪しい
宮城県,大崎市,108,古川馬放字街道南北１４番地,個人宅ブロック塀外側,38.601994,140.997864,緯度経度は怪しい
宮城県,大崎市,109,古川長岡針字新輪野内６５番地,長岡針公会堂,38.593891,141.005081,緯度経度は怪しい
宮城県,大崎市,110,古川富長字山王２４番地,個人宅ブロック塀外側,38.592525,140.986908,緯度経度は怪しい
宮城県,大崎市,111,古川渕尻字大見３番地,個人宅ブロック塀外側,38.581699,140.984558,緯度経度は怪しい
宮城県,大崎市,112,古川上埣字東畑１５番地,個人宅ブロック塀外側,38.579884,140.99707,緯度経度は怪しい
宮城県,大崎市,113,古川下谷地字新不動１０１番地,下谷地公会堂,38.571915,141.009842,緯度経度は怪しい
宮城県,大崎市,114,古川馬櫛字亀治浦１４番地,個人宅ブロック塀外側,38.580078,141.010117,緯度経度は怪しい
宮城県,大崎市,115,古川中里五丁目１５番５０号,宮城ノーミ株式会社古川営業所,38.559837,140.9647805,
宮城県,大崎市,116,古川境野宮字北屋敷４２番地,個人宅ブロック塀外側,38.555645,140.962555,緯度経度は怪しい
宮城県,大崎市,117,古川宮内字筏畑１３番地,宮内公民館,38.555218,140.970505,緯度経度は怪しい
宮城県,大崎市,118,古川楡木字明神６２番地,雲正寺駐車場,38.555199,140.974121,緯度経度は怪しい
宮城県,大崎市,119,古川師山字薬師２５番地１,師山公会堂,38.541756,140.973007,緯度経度は怪しい
宮城県,大崎市,120,古川石森字北西原７番地２０,多々美堂フェンス前,38.548214,140.990585,緯度経度は怪しい
宮城県,大崎市,121,古川石森字宮在家１２番地,石森集会所駐車場,38.545803,140.995972,緯度経度は怪しい
宮城県,大崎市,122,古川下中目字六軒丁４０番地,個人宅ブロック塀外側,38.540718,140.995621,緯度経度は怪しい
宮城県,大崎市,123,古川下中目字経壇２１７番地４,下中目地内県道交差点東道路敷,38.541721,141.008408,緯度経度は怪しい
宮城県,大崎市,124,古川深沼字谷地際２番地先,深沼生活センター道路向い水路敷,38.557121,140.993713,緯度経度は怪しい
宮城県,大崎市,125,古川桑針字元村前７番地先,個人宅　西側道路向い水路敷,38.552547,141.01384,緯度経度は怪しい
宮城県,大崎市,126,古川桑針字谷地中７番地２,個人所有　畑地内,38.552547,141.01384,緯度経度は怪しい
宮城県,大崎市,127,古川矢目字上野５番地１,大崎市古川高倉ポンプ場跡地,38.556667,140.909424,緯度経度は怪しい
宮城県,大崎市,128,古川引田字相良２８番地先,個人宅　南側水路敷,38.541943,140.899445,緯度経度は怪しい
宮城県,大崎市,129,古川新沼字行人堰南２７２番地先,個人宅　北側道路敷,38.551342,140.926224,緯度経度は怪しい
宮城県,大崎市,130,古川中沢字中沢屋敷２４２番地　地先,旧高倉小学校体育館西側,38.534748,140.912109,緯度経度は怪しい
宮城県,大崎市,131,古川堤根字上屋敷１５番地１,鹿嶋神社敷地内,38.538822,140.903214,緯度経度は怪しい
宮城県,大崎市,132,古川中沢字鹿島２５番地１先,新田部落会館,38.534748,140.912109,緯度経度は怪しい
宮城県,大崎市,133,古川雨生沢字欠下３２番地３,個人所有宅地内,38.644947,140.9328,緯度経度は怪しい
宮城県,大崎市,134,古川雨生沢字鹿ノ沢６６番地３,個人所有　畑地内,38.644947,140.9328,緯度経度は怪しい
宮城県,大崎市,135,古川北宮沢字上前田５番地,個人宅敷地内　畑地内,38.658253,140.933777,緯度経度は怪しい
宮城県,大崎市,136,古川清水沢字梅女４４番地先,個人宅向い畑地内,38.651745,140.977081,緯度経度は怪しい
宮城県,大崎市,137,古川清水沢字長泥３０番地２,大崎市古川清滝地区公民館,38.651745,140.977081,緯度経度は怪しい
宮城県,大崎市,138,古川清滝字笹森４３番地,個人宅地敷地内,38.670624,140.947586,緯度経度は怪しい
宮城県,大崎市,139,古川北宮沢字下前田２４番地,個人宅生垣前,38.658253,140.933777,緯度経度は怪しい
宮城県,大崎市,140,古川北宮沢字乙西久保３番地,個人宅敷地内畑地内,38.658253,140.933777,緯度経度は怪しい
宮城県,大崎市,141,松山千石字松山１４１番地２,消防団ポンプ置場向い交差点歩道植樹帯,38.515076,141.049515,緯度経度は怪しい
宮城県,大崎市,142,松山千石字松山３５０番地１,台町北線歩道ガードパイプ,38.515076,141.049515,緯度経度は怪しい
宮城県,大崎市,143,松山千石字南亀田３４番地１,個人宅北側フェンス外側,38.515076,141.049515,緯度経度は怪しい
宮城県,大崎市,144,松山千石字広田３０番地,松山総合支所前,38.515076,141.049515,緯度経度は怪しい
宮城県,大崎市,145,松山金谷字金田３６４番地３,小松建設資材置場向い歩道ガードパイプ,38.505577,141.062485,緯度経度は怪しい
宮城県,大崎市,146,松山次橋字山王田32番地,日吉神社鳥居前,38.512283,141.027115,緯度経度は怪しい
宮城県,大崎市,147,松山千石字広岡76番地3,次橋地区広岡農業集落多目的集会施設前,38.515076,141.049515,緯度経度は怪しい
宮城県,大崎市,148,松山金谷字舘ヶ崎畑３１番地１,セブンイレブン南側 県道植樹帯,38.505577,141.062485,緯度経度は怪しい
宮城県,大崎市,149,松山金谷字赤沼上６６番地１,個人所有駐車場フェンス外前,38.505577,141.062485,緯度経度は怪しい
宮城県,大崎市,150,松山金谷字向田１５５番地４０,駅前中区公園前,38.505577,141.062485,緯度経度は怪しい
宮城県,大崎市,151,松山金谷字白田１２５-１・１２６,黒江入口市道三角地後ろ畑,38.505577,141.062485,緯度経度は怪しい
宮城県,大崎市,152,松山須摩屋字新江下25番地1,須摩屋公会堂前,38.519463,141.082809,緯度経度は怪しい
宮城県,大崎市,153,松山長尾字兵庫屋敷４５番地２,長尾公会堂前,38.505157,141.082642,緯度経度は怪しい
宮城県,大崎市,154,松山長尾字氷室８６番地５,個人商店向かい市道,38.505157,141.082642,緯度経度は怪しい
宮城県,大崎市,155,松山下伊場野字松木６番地,松山下伊場野地区公民館,38.511147,141.01033,緯度経度は怪しい
宮城県,大崎市,156,松山下伊場野字中谷地３８番地１,個人宅前　ガードレール後ろ,38.511147,141.01033,緯度経度は怪しい
宮城県,大崎市,157,松山下伊場野字花ヶ崎４番地１,個人所有　畑地内,38.511147,141.01033,緯度経度は怪しい
宮城県,大崎市,158,松山下伊場野字薬師447番地,上志引公会堂前,38.511147,141.01033,緯度経度は怪しい
宮城県,大崎市,159,三本木斉田字山崎２８番地１０,斉田生活センター前,38.523163,140.897461,緯度経度は怪しい
宮城県,大崎市,160,三本木音無字前岩井２２番地,音無集会所前市道,38.504929,140.906113,緯度経度は怪しい
宮城県,大崎市,161,三本木坂本字寺嶋１１番地２,三本木上三区コミュ二ティセンター前,38.516659,140.912643,緯度経度は怪しい
宮城県,大崎市,162,三本木坂本字青山３１番地９５,坂本青山団地内公園,38.516659,140.912643,緯度経度は怪しい
宮城県,大崎市,163,三本木蟻ｹ袋字山畑１番地１４,三本木ふるさと研修センター前,38.510895,140.92572,緯度経度は怪しい
宮城県,大崎市,164,三本木字善並田１２１番地１,三本木北町地区コミュニティセンター前,38.531967,140.944275,緯度経度は怪しい
宮城県,大崎市,165,三本木字新鹿嶋１３番地１,三本木南谷地集会所前,38.527966,140.942444,緯度経度は怪しい
宮城県,大崎市,166,三本木蒜袋字東谷地４９番地１,三本木多田川集会所前,38.541714,140.950363,緯度経度は怪しい
宮城県,大崎市,167,三本木字大谷１１番地,三本木仲町地区コミュニティセンターフェンス西側,38.527405,140.948196,緯度経度は怪しい
宮城県,大崎市,168,三本木蒜袋字南屋敷１９番地７,蒜袋地区集会所前フェンス,38.535923,140.966125,緯度経度は怪しい
宮城県,大崎市,169,三本木桑折字沼下地内,三本木野球場入口前,38.523125,140.953064,緯度経度は怪しい
宮城県,大崎市,170,三本木秋田字西沢５番地,個人宅前市道敷地,38.511971,140.975555,緯度経度は怪しい
宮城県,大崎市,171,三本木上伊場野字舘下８番地,上伊場野地区集会所前,38.532761,140.978668,緯度経度は怪しい
宮城県,大崎市,172,三本木桑折字八幡東３番地２,三本木下三区地区コミュニティセンター前,38.523468,140.959824,緯度経度は怪しい
宮城県,大崎市,173,三本木伊場野字門梨２９番地１,門梨地区集会所前,38.516228,140.991516,緯度経度は怪しい
宮城県,大崎市,174,三本木伊場野字鉄炮町８番地,三本木伊場野地区コミュニティセンター前,38.516228,140.991516,緯度経度は怪しい
宮城県,大崎市,175,三本木伊場野字八ケ入１８番地２,川井地区集会所前,38.516228,140.991516,緯度経度は怪しい
宮城県,大崎市,176,三本木伊場野字舘崎４５番地３,上沢地区集会所前,38.516228,140.991516,緯度経度は怪しい
宮城県,大崎市,177,三本木新沼字荒屋敷１２２番地１,三本木新沼地区コミュニティセンター駐車場東側,38.533409,140.927658,緯度経度は怪しい
宮城県,大崎市,178,三本木新沼字中谷地８８番地１,個人宅　畑地内,38.534512,140.932816,緯度経度は怪しい
宮城県,大崎市,179,三本木新沼字二又１４９番地１,下宿地区集会所駐車場前,38.52512,140.92894,緯度経度は怪しい
宮城県,大崎市,180,三本木新沼字高原１６番地１,上宿地区集会所前,38.533409,140.927658,緯度経度は怪しい
宮城県,大崎市,181,三本木高柳字東壇２９番地１,個人宅ブロック塀外側,38.54425,140.93544,緯度経度は怪しい
宮城県,大崎市,182,三本木伊賀字中伊賀１１番地２,三本木伊賀集会所前,38.496914,140.92984,緯度経度は怪しい
宮城県,大崎市,183,三本木桑折字萱刈庭１０番地５,亜炭鉱害復旧記念碑敷地内,38.513176,140.952103,緯度経度は怪しい
宮城県,大崎市,184,三本木新町一丁目９番７号,三本木新町コミュニティセンター前フェンス,38.519124,140.9347093,
宮城県,大崎市,185,三本木蟻ヶ袋字混内山１地内,混内山地区遊園地前,38.520599,140.934494,緯度経度は怪しい
宮城県,大崎市,186,三本木字大豆坂２４番地３,大崎市役所三本木庁舎入口,38.519733,140.938004,緯度経度は怪しい
宮城県,大崎市,187,三本木字西沢３５番地１,旧三本木町役場跡地,38.525158,140.948364,緯度経度は怪しい
宮城県,大崎市,188,三本木新町二丁目２０番125地先,南新町運動場南側フェンス,38.514202,140.9333805,
宮城県,大崎市,189,鹿島台木間塚字姥ケ沢９３番地３,個人宅敷地内,38.477844,141.102188,緯度経度は怪しい
宮城県,大崎市,190,鹿島台木間塚字姥ケ沢６９番地,姥ケ沢住宅15号棟西側フェンス,38.476719,141.100647,緯度経度は怪しい
宮城県,大崎市,191,鹿島台木間塚字小谷地２３４番地１,個人宅ブロック塀外側,38.478584,141.104568,緯度経度は怪しい
宮城県,大崎市,192,鹿島台木間塚字鴻ノ巣１８６番地１,総合設備センター様敷地,38.484772,141.106369,緯度経度は怪しい
宮城県,大崎市,193,鹿島台木間塚字前迫９６番地４,本地老人憩いの家フェンス,38.470875,141.111618,緯度経度は怪しい
宮城県,大崎市,194,鹿島台木間塚字竹谷８番地２,個人宅ブロック塀外側,38.470875,141.111618,緯度経度は怪しい
宮城県,大崎市,195,鹿島台木間塚字草久８９４番地１,個人宅敷地内ハウス前,38.470875,141.111618,緯度経度は怪しい
宮城県,大崎市,196,鹿島台木間塚字住在家１１７番地,成和(株)様事務所,38.470875,141.111618,緯度経度は怪しい
宮城県,大崎市,197,鹿島台木間塚字鎌巻５１４番地２,個人宅ブロック塀外側,38.470875,141.111618,緯度経度は怪しい
宮城県,大崎市,198,鹿島台木間塚字鎌巻１０９番地１,個人宅ブロック塀外側,38.470875,141.111618,緯度経度は怪しい
宮城県,大崎市,199,鹿島台平渡字己待田４６２番地３,個人宅ブロック塀外側,38.481117,141.095703,緯度経度は怪しい
宮城県,大崎市,200,鹿島台木間塚字福芦３５９番地１,福芦住宅１号棟脇フェンス,38.473812,141.100113,緯度経度は怪しい
宮城県,大崎市,201,鹿島台木間塚字小谷地５０４番地１,鹿島台公民館敷地,38.474739,141.103317,緯度経度は怪しい
宮城県,大崎市,202,鹿島台平渡字上敷２１番地２,個人宅ブロック塀外側,38.487331,141.094147,緯度経度は怪しい
宮城県,大崎市,203,鹿島台平渡字鷹待嶽３番地４４,個人宅ブロック塀外側,38.490547,141.094467,緯度経度は怪しい
宮城県,大崎市,204,鹿島台平渡字東銭神１番地１１,鹿島台駅西口駅前広場前フェンス,38.474197,141.097321,緯度経度は怪しい
宮城県,大崎市,205,鹿島台平渡字上戸下２６番地２,大崎市鹿島台総合支所フェンス,38.477566,141.097382,緯度経度は怪しい
宮城県,大崎市,206,鹿島台平渡字銭神９７番地１,千葉歯科様　駐車場フェンス,38.470612,141.093048,緯度経度は怪しい
宮城県,大崎市,207,鹿島台平渡字長根７２番地２,個人宅ブロック塀外側,38.481167,141.093933,緯度経度は怪しい
宮城県,大崎市,208,鹿島台船越字山野町１７６番地１,個人宅ブロック塀外側,38.50655,141.103134,緯度経度は怪しい
宮城県,大崎市,209,鹿島台船越字鍋田５２番地１,個人宅ブロック塀外側,38.50655,141.103134,緯度経度は怪しい
宮城県,大崎市,210,鹿島台広長字内ノ浦２４７番地４,個人宅敷地内,38.462704,141.087418,緯度経度は怪しい
宮城県,大崎市,211,鹿島台広長字内ノ浦３９番地１,内ノ浦住宅９号棟脇敷地,38.462471,141.088165,緯度経度は怪しい
宮城県,大崎市,212,鹿島台平渡字吹上６７番地,個人宅ブロック塀外側,38.470089,141.091507,緯度経度は怪しい
宮城県,大崎市,213,鹿島台広長字鹿島７番地３,個人宅駐車場敷地内,38.480545,141.088089,緯度経度は怪しい
宮城県,大崎市,214,鹿島台平渡字吹上８番地１,個人所有敷地内,38.477352,141.090424,緯度経度は怪しい
宮城県,大崎市,215,鹿島台広長字坪下沢２０番地１,個人所有畑地内,38.485088,141.084259,緯度経度は怪しい
宮城県,大崎市,216,鹿島台広長字上庚下２２番地１,個人宅前畑地内,38.47316,141.080948,緯度経度は怪しい
宮城県,大崎市,217,鹿島台広長字大山３７番地１７,個人宅南側道路敷,38.47316,141.080948,緯度経度は怪しい
宮城県,大崎市,218,鹿島台広長字渕花４１番地２,個人宅ブロック塀外側,38.47316,141.080948,緯度経度は怪しい
宮城県,大崎市,219,鹿島台広長字渕花２２番地５,渕花集会所向かい道路敷,38.47316,141.080948,緯度経度は怪しい
宮城県,大崎市,220,鹿島台深谷字南堀籠７４番地１,個人所有地内,38.469234,141.06546,緯度経度は怪しい
宮城県,大崎市,221,鹿島台大迫字東高岩１１９番地７,TOMARA－SHOP敷地隣,38.448013,141.050064,緯度経度は怪しい
宮城県,大崎市,222,鹿島台大迫字寺沢４０番地１,旧鹿島台第二小学校北側フェンス,38.448013,141.050064,緯度経度は怪しい
宮城県,大崎市,223,鹿島台大迫字阿弥陀前７番地７,個人所有畑地内,38.448013,141.050064,緯度経度は怪しい
宮城県,大崎市,224,鹿島台大迫字下志田９８１番地１,個人宅向い道路敷,38.448013,141.050064,緯度経度は怪しい
宮城県,大崎市,225,鹿島台大迫字下志田１２番地１,個人宅ブロック塀外側,38.448013,141.050064,緯度経度は怪しい
宮城県,大崎市,226,鹿島台大迫字上志田２２１番地２,個人宅向い道路敷,38.448013,141.050064,緯度経度は怪しい
宮城県,大崎市,227,岩出山字上真山菅沢馬館２８番地２,上馬館バス停付近,38.67173,140.884262,緯度経度は怪しい
宮城県,大崎市,228,岩出山字上真山外道３１番地１,JA新みやぎ いわでやま地区本部真山農業倉庫フェンス,38.67173,140.884262,緯度経度は怪しい
宮城県,大崎市,229,岩出山字上真山仲居１３番地,小倉集会所前集積所脇,38.67173,140.884262,緯度経度は怪しい
宮城県,大崎市,230,岩出山字下真山小坪２４番地１,小坪集会所内フェンス,38.687698,140.859589,緯度経度は怪しい
宮城県,大崎市,231,岩出山字下真山盛舘前１４番地２,市道大坪１号線Y字路付近（大坪集会所向かい）,38.687698,140.859589,緯度経度は怪しい
宮城県,大崎市,232,岩出山字下真山要害２９番地,黄金田ライスセンター付近,38.687698,140.859589,緯度経度は怪しい
宮城県,大崎市,233,岩出山字葛岡引沼７４番地,市道葛岡線と県道栗駒岩出山線の合流地点（葛岡バス停付近）,38.701878,140.924149,緯度経度は怪しい
宮城県,大崎市,234,岩出山字葛岡宮ノ下５６番地,葛岡３部集会所前,38.701878,140.924149,緯度経度は怪しい
宮城県,大崎市,235,岩出山字磯田田中６番地,市道磯田１号線２号線と市道砂田線の十字路付近,38.701878,140.924149,緯度経度は怪しい
宮城県,大崎市,236,岩出山池月字鵙目舘下５２番地,市道鵙目線と市道小森線のＴ字路付近,38.712536,140.838089,緯度経度は怪しい
宮城県,大崎市,237,岩出山池月字下宮道合1番地1,ファミリーマート池月店西隣り,38.712536,140.838089,緯度経度は怪しい
宮城県,大崎市,238,岩出山池月字下宮山下３０番地,市道山際下宮１号線（旧池月小学校入口掲示板付近）,38.712536,140.838089,緯度経度は怪しい
宮城県,大崎市,239,岩出山池月字下宮道下１２番地１,池月中央消防ポンプ置場付近,38.712536,140.838089,緯度経度は怪しい
宮城県,大崎市,240,岩出山池月字上一栗竹の内地内,市道横縄線起点付近,38.712536,140.838089,緯度経度は怪しい
宮城県,大崎市,241,岩出山池月字上一栗岩下３１番地先,市道山際下宮１号線如来寺入口西側付近,38.712536,140.838089,緯度経度は怪しい
宮城県,大崎市,242,岩出山下一栗字四ツ家前4番地1,個人宅ブロック塀（四ツ家商店国道向い）,38.682419,140.858017,緯度経度は怪しい
宮城県,大崎市,243,岩出山下一栗字畑田４番地１,市道上野目小学校線法面,38.687698,140.859589,緯度経度は怪しい
宮城県,大崎市,244,岩出山下一栗字宿浦３４番地１地先,市道山際下宮１号線法面,38.687698,140.859589,緯度経度は怪しい
宮城県,大崎市,245,岩出山下一栗字片岸浦９番地,旧上野目小学校正門西側フェンス,38.687698,140.859589,緯度経度は怪しい
宮城県,大崎市,246,岩出山池月字上一栗日渡１８番地,菅生集会所西側,38.712536,140.838089,緯度経度は怪しい
宮城県,大崎市,247,岩出山上野目字下鎌１０７番地地先,市道山際下宮２号線法面,38.672859,140.861542,緯度経度は怪しい
宮城県,大崎市,248,岩出山上野目字大保２５番地３地先,市道山際下宮２号線法面,38.67173,140.884262,緯度経度は怪しい
宮城県,大崎市,249,岩出山上野目字針生１番地２,県道法面,38.67173,140.884262,緯度経度は怪しい
宮城県,大崎市,250,岩出山上野目字下辻堂９番地,ドミールⅢ（アパート）前フェンス,38.672859,140.861542,緯度経度は怪しい
宮城県,大崎市,251,岩出山上野目字中川原８番地１,遠藤自動車整備工場付近,38.666885,140.867157,緯度経度は怪しい
宮城県,大崎市,252,岩出山上野目字中川原２１番地１,岩出山体育センター入口付近,38.664219,140.869308,緯度経度は怪しい
宮城県,大崎市,253,岩出山字蛭沢１１７番地４,市道東昌寺沢１号線と保土沢林道の起点付近,38.661991,140.854675,緯度経度は怪しい
宮城県,大崎市,254,岩出山字大学町１２６番地１,大学町集会所北側,38.655338,140.851288,緯度経度は怪しい
宮城県,大崎市,255,岩出山字城山４番地２,岩出山小学校前,38.654869,140.861237,緯度経度は怪しい
宮城県,大崎市,256,岩出山字上川原北１２６番地,上川原住宅,38.663033,140.861572,緯度経度は怪しい
宮城県,大崎市,257,岩出山字上川原町３番地,有備館の森公園,38.660732,140.860748,緯度経度は怪しい
宮城県,大崎市,258,岩出山字下川原町４８番地１,市道あったか村線と県道岩出山宮崎線のＴ字路付近,38.655861,140.865936,緯度経度は怪しい
宮城県,大崎市,259,岩出山字下川原町７９番地２,割烹「栄や」東側駐車場,38.655766,140.86731,緯度経度は怪しい
宮城県,大崎市,260,岩出山字東川原町１４番地１,東川原町公園,38.648849,140.875916,緯度経度は怪しい
宮城県,大崎市,261,岩出山字下川原９番地,川原小路集会所フェンス,38.64996,140.872482,緯度経度は怪しい
宮城県,大崎市,262,岩出山字浦小路８４番地７,来迎寺駐車場,38.652653,140.86879,緯度経度は怪しい
宮城県,大崎市,263,岩出山字下川原１４０番地１,新橋住宅掲示板付近,38.640392,140.881073,緯度経度は怪しい
宮城県,大崎市,264,岩出山字下金沢２０１番地２,ビレッジハウス岩出山入口付近,38.647232,140.86438,緯度経度は怪しい
宮城県,大崎市,265,岩出山字下金沢８５番地１,グループホームなんてん岩出山入口左側,38.644791,140.860001,緯度経度は怪しい
宮城県,大崎市,266,岩出山南沢字曲田裏４３番地９,中里集会所前,38.655426,140.821655,緯度経度は怪しい
宮城県,大崎市,267,岩出山下野目字向山１番地３,旧川北分校入口付近,38.639317,140.899963,緯度経度は怪しい
宮城県,大崎市,268,岩出山下野目字中の沢６８番地,川北第二生活センター付近,38.639317,140.899963,緯度経度は怪しい
宮城県,大崎市,269,岩出山下野目字二ツ屋３９番地,JA新みやぎ いわでやま地区本部前国道フェンス,38.639519,140.88678,緯度経度は怪しい
宮城県,大崎市,270,岩出山下野目字沖ノ井６番地,市道座散乱木線と国道４７号のＴ字路付近,38.6362,140.890701,緯度経度は怪しい
宮城県,大崎市,271,岩出山下野目字新小泉１１７番地,小泉集会所フェンス,38.629841,140.893005,緯度経度は怪しい
宮城県,大崎市,272,岩出山下野目字新川原４３番地１,JA新みやぎ いわでやま地区本部川原倉庫跡地,38.631554,140.889359,緯度経度は怪しい
宮城県,大崎市,273,岩出山下野目字泉山２０５番地,市道西大崎小学校線法面（旧西大崎小学校裏）,38.622974,140.885162,緯度経度は怪しい
宮城県,大崎市,274,岩出山南沢字木戸脇裏１４３番地,馬主集会所前（国道側法面）,38.655426,140.821655,緯度経度は怪しい
宮城県,大崎市,275,岩出山南沢字樋渡１番地,県畜産試験場事務所入口付近,38.655426,140.821655,緯度経度は怪しい
宮城県,大崎市,276,岩出山南沢字樋渡３２番地２,樋渡集会所東隣り,38.655426,140.821655,緯度経度は怪しい
宮城県,大崎市,277,岩出山南沢字木戸脇裏８７番地３,唐竹集会所付近,38.655426,140.821655,緯度経度は怪しい
宮城県,大崎市,278,鳴子温泉字星沼１９番地２５,中山コミュニティセンター入り口付近,38.736729,140.748459,緯度経度は怪しい
宮城県,大崎市,279,鳴子温泉字星沼７９番地２３８,中山平温泉駅前,38.736729,140.748459,緯度経度は怪しい
宮城県,大崎市,280,鳴子温泉字川端１０番地２,元中山保育所跡地前,38.732319,140.774399,緯度経度は怪しい
宮城県,大崎市,281,鳴子温泉字星沼７７番地２９,三幸橋付近,38.736729,140.748459,緯度経度は怪しい
宮城県,大崎市,282,鳴子温泉字上鳴子１番地１  (元上鳴子住宅跡),上鳴子消防ポンプ小屋脇,38.740044,140.711533,緯度経度は怪しい
宮城県,大崎市,283,鳴子温泉字上鳴子地内,中沢太鼓店様　脇市道,38.739147,140.70755,緯度経度は怪しい
宮城県,大崎市,284,鳴子温泉字古戸前１６０番地３０,上野々テニスコート上,38.735912,140.704132,緯度経度は怪しい
宮城県,大崎市,285,鳴子温泉字古戸前１３２番地１０８,上野々レストハウス前,38.735912,140.704132,緯度経度は怪しい
宮城県,大崎市,286,鳴子温泉字湯元２９番地,鳴子小学校体育館脇,38.739563,140.71431,緯度経度は怪しい
宮城県,大崎市,287,鳴子温泉字新屋敷１４０番地１,早稲田桟敷湯向公園,38.743282,140.717728,緯度経度は怪しい
宮城県,大崎市,288,鳴子温泉字新屋敷３４番地２,喜楽向,38.74585,140.718231,緯度経度は怪しい
宮城県,大崎市,289,鳴子温泉字末沢地内,鳴子温泉住宅前市道,38.753632,140.720291,緯度経度は怪しい
宮城県,大崎市,290,鳴子温泉字末沢西２１番地２付近,大畑共同浴場付近,38.751446,140.717636,緯度経度は怪しい
宮城県,大崎市,291,鳴子温泉字中野１５番地２,元鳴子町営中野住宅跡地フェンス,38.739204,140.740204,緯度経度は怪しい
宮城県,大崎市,292,鳴子温泉字鷲ノ巣８４番地９,鳴子公民館駐車場脇,38.745274,140.737488,緯度経度は怪しい
宮城県,大崎市,293,鳴子温泉字赤湯地内,ホテルニューあらお前　分離帯,38.743843,140.731064,緯度経度は怪しい
宮城県,大崎市,294,鳴子温泉字要害３９番地１,（株）遠藤店資材置場前フェンス,38.730511,140.749878,緯度経度は怪しい
宮城県,大崎市,295,鳴子温泉字沢地内,市道敷地内,38.736729,140.748459,緯度経度は怪しい
宮城県,大崎市,296,鳴子温泉字築沢６２番地８,個人宅ブロック塀外側,38.730869,140.759705,緯度経度は怪しい
宮城県,大崎市,297,鳴子温泉字川渡２５番地５,川渡地区公民館　塀,38.7318,140.766678,緯度経度は怪しい
宮城県,大崎市,298,鳴子温泉字町西地内,鳴子中学校体育館裏,38.738503,140.763016,緯度経度は怪しい
宮城県,大崎市,299,鳴子温泉字久田地内,紅せん旅館前　市道敷,38.744999,140.745407,緯度経度は怪しい
宮城県,大崎市,300,鳴子温泉字町３８番地　(踏切付近）,個人宅ブロック塀外側（踏切付近）,38.738327,140.769882,緯度経度は怪しい
宮城県,大崎市,301,鳴子温泉字町２番地６,個人宅生垣前,38.737026,140.770645,緯度経度は怪しい
宮城県,大崎市,302,鳴子温泉字通原１４０番地,個人倉庫脇　杉林前,38.736729,140.748459,緯度経度は怪しい
宮城県,大崎市,303,鳴子温泉字通原２６９番地４,向山集会所前　旧町掲示板,38.736729,140.748459,緯度経度は怪しい
宮城県,大崎市,304,鳴子温泉字関口８４番地７,個人宅ブロック塀外側,38.735374,140.78302,緯度経度は怪しい
宮城県,大崎市,305,鳴子温泉字関口６５番地３５,南野際会館脇,38.735374,140.78302,緯度経度は怪しい
宮城県,大崎市,306,鳴子温泉字坂ノ上９番地,個人宅ブロック塀外側,38.734344,140.775864,緯度経度は怪しい
宮城県,大崎市,307,鳴子温泉字野際１５２番地,個人宅庭先敷地内,38.746593,140.772873,緯度経度は怪しい
宮城県,大崎市,308,鳴子温泉字関口１９番地２,北野際集会所前,38.736435,140.780685,緯度経度は怪しい
宮城県,大崎市,309,鳴子温泉字黒崎地内,黒崎生活センター脇,38.736729,140.748459,緯度経度は怪しい
宮城県,大崎市,310,鳴子温泉字小身川原地内,小身川原生活センター前,38.739201,140.779205,緯度経度は怪しい
宮城県,大崎市,311,鳴子温泉字水沼地内,市道脇,38.736729,140.748459,緯度経度は怪しい
宮城県,大崎市,312,鳴子温泉字畑山地内,県道Ｔ字路南側道路敷,38.736729,140.748459,緯度経度は怪しい
宮城県,大崎市,313,鳴子温泉鬼首字下蟹沢２０番地４,蟹沢センター前,38.827175,140.635757,緯度経度は怪しい
宮城県,大崎市,314,鳴子温泉鬼首字轟  （吹上温泉入口）,元リカーショップ前,38.827175,140.635757,緯度経度は怪しい
宮城県,大崎市,315,鳴子温泉鬼首字田野原地内,田野原バス停付近　農道脇,38.827175,140.635757,緯度経度は怪しい
宮城県,大崎市,316,鳴子温泉鬼首字原４１番地１,鬼首基幹集落センター入口,38.827175,140.635757,緯度経度は怪しい
宮城県,大崎市,317,鳴子温泉鬼首字下軍沢地内,個人宅前道路敷地内,38.827175,140.635757,緯度経度は怪しい
宮城県,大崎市,318,鳴子温泉鬼首字高剥２６番地１,個人商店向　旧町掲示板,38.827175,140.635757,緯度経度は怪しい
宮城県,大崎市,319,鳴子温泉鬼首字峠５３番地１,岩入西集会所前,38.827175,140.635757,緯度経度は怪しい
宮城県,大崎市,320,鳴子温泉鬼首字岩入地内,岩入ポンプ小屋脇　旧町掲示板,38.827175,140.635757,緯度経度は怪しい
宮城県,大崎市,321,田尻字町１４番地,県道沿い個人宅ブロック塀外側,38.595211,141.024261,緯度経度は怪しい
宮城県,大崎市,322,田尻字御蔵１２番地１,横町河岸前公会堂向,38.595211,141.024261,緯度経度は怪しい
宮城県,大崎市,323,田尻字太子堂１１２番地,旧田尻保育所前敷地西側,38.595211,141.024261,緯度経度は怪しい
宮城県,大崎市,324,田尻北牧目字新田３０番地,千葉克哉様宅ブロック塀,38.595634,141.04216,緯度経度は怪しい
宮城県,大崎市,325,田尻通木字山崎９４番地１,田尻小学校北側向　フェンス,38.605843,141.02774,緯度経度は怪しい
宮城県,大崎市,326,田尻通木字中崎２１番地,個人宅ブロック塀外側,38.605843,141.02774,緯度経度は怪しい
宮城県,大崎市,327,田尻中目字東原４１番地３,市道敷地内（止まれ付近）,38.604118,141.010574,緯度経度は怪しい
宮城県,大崎市,328,田尻八幡字鍛冶町地内,八幡新江川フェンス,38.619865,141.014709,緯度経度は怪しい
宮城県,大崎市,329,田尻大嶺字土腐７４番地,個人所有敷地内,38.618141,141.024231,緯度経度は怪しい
宮城県,大崎市,330,田尻小松字滝道３０番地１,市道敷地内,38.617725,141.005905,緯度経度は怪しい
宮城県,大崎市,331,田尻沼木字筒水地内,沼木生活センター向　田尻川ﾌｪﾝｽ,38.613617,140.992828,緯度経度は怪しい
宮城県,大崎市,332,田尻沼部字十文字２５番地,個人宅ブロック塀外側,38.6077,141.054764,緯度経度は怪しい
宮城県,大崎市,333,田尻沼部字富岡１８３番地３,大崎市田尻総合支所正門県道沿,38.6077,141.054764,緯度経度は怪しい
宮城県,大崎市,334,田尻沼部字塩加良地内,田尻駅前駐輪場西側,38.6077,141.054764,緯度経度は怪しい
宮城県,大崎市,335,田尻北牧目字新堀１１番地８,個人所有畑地内,38.595634,141.04216,緯度経度は怪しい
宮城県,大崎市,336,田尻沼部字貝ノ堀地内,大柳商店東側市道,38.6077,141.054764,緯度経度は怪しい
宮城県,大崎市,337,田尻大沢字南谷地中地内,谷地中公会堂前,38.58152,141.06926,緯度経度は怪しい
宮城県,大崎市,338,田尻小塩字日影浦２番地,個人宅ブロック塀外側,38.595928,141.073669,緯度経度は怪しい
宮城県,大崎市,339,田尻沼部字峯崎２番地２,個人宅ブロック塀外側,38.6077,141.054764,緯度経度は怪しい
宮城県,大崎市,340,田尻小塩字五代東地内,㈱明王化成東側市道沿い,38.595928,141.073669,緯度経度は怪しい
宮城県,大崎市,341,田尻北小牛田字切替下４２番地,個人宅ブロック塀外側,38.563911,141.068283,緯度経度は怪しい
宮城県,大崎市,342,田尻北小牛田字山王６７番地,北小牛田日枝神社前市道沿い,38.563911,141.068283,緯度経度は怪しい
宮城県,大崎市,343,田尻北小牛田字荒台５２番地１,個人宅ブロック塀外側,38.563911,141.068283,緯度経度は怪しい
宮城県,大崎市,344,田尻大沢字百々一２９番地１,個人宅生垣前,38.58152,141.06926,緯度経度は怪しい
宮城県,大崎市,345,田尻大沢字八幡下地内,百々公会堂前市道沿,38.58152,141.06926,緯度経度は怪しい
宮城県,大崎市,346,田尻大沢字夫ケ入５番地２,個人宅ブロック塀外側,38.58152,141.06926,緯度経度は怪しい
宮城県,大崎市,347,田尻沼部字寺川戸地内,上高野生活センター向　掲示板隣,38.6077,141.054764,緯度経度は怪しい
宮城県,大崎市,348,田尻沼部字木戸３１番地４,田尻総合支所木戸倉庫前,38.6077,141.054764,緯度経度は怪しい
宮城県,大崎市,349,田尻沼部字五輪１５２番地１,個人所有畑地内,38.6077,141.054764,緯度経度は怪しい
宮城県,大崎市,350,田尻沼部字北山地内,市道敷地内,38.6077,141.054764,緯度経度は怪しい
宮城県,大崎市,351,田尻大貫字北新屋敷地内,曲田公会堂フェンス,38.60133,141.113281,緯度経度は怪しい
宮城県,大崎市,352,田尻大貫字上長根４番地３,大貫土地改良区事務所南側,38.60133,141.113281,緯度経度は怪しい
宮城県,大崎市,353,田尻大貫字上長根21番地11,個人宅敷地内,38.60133,141.113281,緯度経度は怪しい
宮城県,大崎市,354,田尻大貫字四島２５番地２,個人所有敷地内,38.60133,141.113281,緯度経度は怪しい
宮城県,大崎市,355,田尻大貫字宿上屋敷４８番地２,宿構造改善センター前,38.60133,141.113281,緯度経度は怪しい
宮城県,大崎市,356,田尻蕪栗字舞岳２３番地２,舞岳生活センター前,38.620804,141.09729,緯度経度は怪しい
宮城県,大崎市,357,田尻蕪栗字清水５８番地３,元赤坂バス停留所前市道沿い,38.620804,141.09729,緯度経度は怪しい
宮城県,大崎市,358,田尻蕪栗字小沢３６番地１１,個人宅敷地内,38.620804,141.09729,緯度経度は怪しい
宮城県,大崎市,359,田尻蕪栗字伸萠中地内,伸萠第２集会所西側,38.620804,141.09729,緯度経度は怪しい
宮城県,大崎市,360,田尻蕪栗字新山地内,個人宅前市道敷地内,38.620804,141.09729,緯度経度は怪しい
宮城県,大崎市,361,田尻蕪栗字長沢３４番地,長沢生活センター前,38.620804,141.09729,緯度経度は怪しい
