prefecture,city,number,address,name,lat,long,note
宮城県,柴田町,第１投票区,槻木白幡３丁目１－５３,masked,38.0723032,140.8088581,
宮城県,柴田町,第１投票区,槻木上町３丁目３２９,南浦公園西側,38.0753661,140.8129158,
宮城県,柴田町,第１投票区,槻木上町２丁目１－１２,槻木事務所東側,38.0775252,140.8103275,
宮城県,柴田町,第１投票区,槻木下町２丁目６－１５,下町集会所裏町道沿い 町掲示板隣,38.08066669999999,140.8157076,
宮城県,柴田町,第１投票区,槻木下町３丁目１－６０,槻木生涯学習センター北側,38.0780286,140.8143945,
宮城県,柴田町,第１投票区,槻木駅西１丁目３,槻木駅西自転車駐車場西側,38.0784048,140.8083577,
宮城県,柴田町,第１投票区,槻木新町１丁目１－２,槻木駅東自転車駐車場西側フェンス,38.0778706,140.8095272,
宮城県,柴田町,第２投票区,大字四日市場字川名沢１８２-１付近,引地商店前畑地内,38.0930399,140.8129894,
宮城県,柴田町,第２投票区,大字上川名字神廻戸地内,masked,38.098564,140.811768,緯度経度は怪しい
宮城県,柴田町,第２投票区,大字上川名字大坂地内,能化寺前町道三叉路,38.0565346,140.7658363,
宮城県,柴田町,第２投票区,大字富沢字青木町６-２,むつみ学園（旧富上集会所）東側町道沿いフェンス,38.1044991,140.8103346,
宮城県,柴田町,第２投票区,大字富沢字田中前４５,富沢集会所地内,38.1116229,140.8110678,
宮城県,柴田町,第３投票区,大字入間田字舘山崎５-２付近,masked,38.0926513,140.7974995,
宮城県,柴田町,第３投票区,大字入間田字外馬場２２０,農村環境改善センター地内,38.100342,140.7839853,
宮城県,柴田町,第３投票区,大字入間田字弁天前１９,入間田中央集会所地内,38.1037351,140.7909887,
宮城県,柴田町,第３投票区,大字入間田字寺５３,上の組集会所入口町道沿い,38.1090258,140.7850513,
宮城県,柴田町,第３投票区,大字入間田字畑中２-２付近,masked,38.11319940000001,140.7906953,
宮城県,柴田町,第３投票区,大字入間田字鳥屋森３５付近,入間田富沢三本木線・岩崎入口三叉路,38.1004643,140.8013156,
宮城県,柴田町,第４投票区,大字葉坂字竹ノ内９９付近,masked,38.1087846,140.7769239,
宮城県,柴田町,第４投票区,大字葉坂字宮橋５７-１付近,町道葉坂１７号線白坂入口,38.1015709,140.7767544,
宮城県,柴田町,第４投票区,大字葉坂字上崎１０５付近,葉坂構造改善センター付近町道沿い,38.10145900000001,140.7679796,
宮城県,柴田町,第４投票区,大字葉坂字戸ノ内８付近,masked,38.1034389,140.7712652,
宮城県,柴田町,第５投票区,大字成田字坂崎地内,masked,38.09021550000001,140.7727035,
宮城県,柴田町,第５投票区,大字成田字和田前地内,成田消防センター脇,38.0901512,140.7646307,
宮城県,柴田町,第５投票区,大字成田字寺田１２３－１,成田集会所地内,38.0894257,140.7663962,
宮城県,柴田町,第５投票区,大字成田字三河内２４,masked,38.0908989,140.7626955,
宮城県,柴田町,第６投票区,西船迫１丁目８－９,masked,38.06552170000001,140.7664984,
宮城県,柴田町,第６投票区,西船迫１丁目１３－２５,masked,38.0691328,140.7681996,
宮城県,柴田町,第６投票区,西船迫３丁目３－１０４,船迫生涯学習センター入口フェンス,38.0663563,140.7641456,
宮城県,柴田町,第６投票区,西船迫２丁目５－１,鹿野公園入口,38.0639258,140.7582213,
宮城県,柴田町,第６投票区,西船迫３丁目２－１０８,masked,38.0681499,140.7615654,
宮城県,柴田町,第６投票区,大字本船迫字下町２－１,masked,38.0709767,140.7712165,
宮城県,柴田町,第６投票区,西船迫４丁目５－１４９,西船迫５号公園,38.0745727,140.7673492,
宮城県,柴田町,第７投票区,大字船岡字根形１４－７,しばたの郷土館駐車場前,38.0545959,140.7611956,
宮城県,柴田町,第７投票区,船岡中央２丁目３－４５,役場庁舎正面入口前,38.0565945,140.7655311,
宮城県,柴田町,第７投票区,船岡中央１丁目１－１,船岡駅前パーク＆ライド専用駐車場前,38.0592935,140.7682929,
宮城県,柴田町,第７投票区,船岡西２丁目２－３,第３区集会所脇空地,38.0538127,140.7641143,
宮城県,柴田町,第７投票区,船岡中央３丁目１-５,松浦組入口北側,38.055049,140.7675241,
宮城県,柴田町,第８投票区,船岡中央１丁目３-３４,第８区集会所入口フェンス,38.0597112,140.7712095,
宮城県,柴田町,第８投票区,船岡東１丁目２－６０,第一幼稚園町道沿いフェンス,38.059689,140.7731591,
宮城県,柴田町,第８投票区,船岡土手内２丁目９３－１,土手内公園内,38.061023,140.7738192,
宮城県,柴田町,第８投票区,船岡東４丁目６－５,柴田交番詰所町道脇,38.0590964,140.7769521,
宮城県,柴田町,第８投票区,船岡東１丁目２－６５,船岡公民館前,38.0584988,140.7735125,
宮城県,柴田町,第８投票区,船岡土手内１丁目１－１４,船岡駅北自転車駐車場北側,38.05971479999999,140.7687808,
宮城県,柴田町,第９投票区,大字中名生字宮前１８６－２,中名生集会所隣ゲートボール場,38.0540826,140.7969615,
宮城県,柴田町,第９投票区,大字下名生字大畑前５６,masked,38.0537808,140.8030142,
宮城県,柴田町,第９投票区,大字下名生字新前田５７－１,下名生公園前,38.0552201,140.8071191,
宮城県,柴田町,第９投票区,大字下名生字上納２８-２付近,下名生上納水門前三叉路水路,38.0572481,140.8045085,
宮城県,柴田町,第９投票区,大字下名生字剣水２３８,剣水集会所町掲示板隣,38.0622408,140.8055616,
宮城県,柴田町,第９投票区,大字中名生字西宮前４９,船岡生涯学習センター西側,38.0538085,140.7907628,
宮城県,柴田町,第９投票区,剣崎２丁目５－１,剣崎公園内,38.0616458,140.8005579,
宮城県,柴田町,第１０投票区,槻木東２丁目３－１,槻木中学校テニスコート東側県道沿い,38.0818407,140.8178977,
宮城県,柴田町,第１０投票区,大字四日市場字原前６４－１,四日市場沖コミュニティ消防センター南側稲荷山用水路沿い,38.083469,140.8276353,
宮城県,柴田町,第１０投票区,大字四日市場字原前２６,四日市場沖集会所北側,38.0843643,140.8241291,
宮城県,柴田町,第１０投票区,大字四日市場字坂本前８－１,masked,38.0904294,140.8146443,
宮城県,柴田町,第１０投票区,大字四日市場字炭釜２,masked,38.0910183,140.8200136,
宮城県,柴田町,第１１投票区,大字船岡字西住町３－３,masked,38.0489116,140.7451094,
宮城県,柴田町,第１１投票区,大字船岡字清住町１０－２,清住１号公園内（西住児童館西隣）,38.047358,140.7484977,
宮城県,柴田町,第１１投票区,大字船岡字清住町２８,masked,38.04959940000001,140.7492675,
宮城県,柴田町,第１１投票区,大字船岡字清住町２２－４,西住集会所付近,38.0486299,140.7515799,
宮城県,柴田町,第１１投票区,大字船岡字八入２６－１９,西住緑地内（昭和電線向かい）,38.04271809999999,140.7583102,
宮城県,柴田町,第１１投票区,大字船岡字大住町１３－１,西住公民館前,38.0449479,140.7531107,
宮城県,柴田町,第１２投票区,船岡中央２丁目９－４１,masked,38.0565873,140.7707682,
宮城県,柴田町,第１２投票区,大字船岡字東町の口８３－１,船岡新栄通線（神山前地内）側帯地,38.0530869,140.7746331,
宮城県,柴田町,第１２投票区,大字船岡字東町の口５０,土地改良記念碑前,38.0530869,140.7746331,
宮城県,柴田町,第１２投票区,船岡東３丁目２－２４,masked,38.0539333,140.7718623,
宮城県,柴田町,第１２投票区,船岡南２丁目２－３４,船岡体育館入口,38.0509672,140.7731816,
宮城県,柴田町,第１２投票区,大字船岡字並松６－１４,並松児童公園入口フェンス,38.0451551,140.7832541,
宮城県,柴田町,第１２投票区,大字船岡東２丁目５６,船岡中央公園入口,38.0567336,140.7744938,
宮城県,柴田町,第１３投票区,大字船岡字若葉町１０－１,若葉１号公園内（船迫児童館南隣）,38.06779640000001,140.7725439,
宮城県,柴田町,第１３投票区,北船岡２丁目１３地内,masked,38.0634662,140.7645317,
宮城県,柴田町,第１３投票区,大字船岡字中島６８,地域福祉センター町道沿いフェンス,38.06466959999999,140.7770293,
宮城県,柴田町,第１３投票区,北船岡２丁目１０－４,北船岡集会所敷地内,38.0619142,140.7639401,
宮城県,柴田町,第１３投票区,北船岡１丁目４－１５２,北船岡１号公園地内,38.0614575,140.7656623,
宮城県,柴田町,第１４投票区,大字槻木字祗園田１００－１,コインランドリーつきのき隣畑地内,38.0863542,140.8031457,
宮城県,柴田町,第１４投票区,新余目４３－１,サニータウン入口ライスセンター脇町道沿い,38.0866545,140.8007673,
宮城県,柴田町,第１４投票区,大字槻木字新遠島１０５－２,平間電子製作所脇,38.0880058,140.8023296,
宮城県,柴田町,第１４投票区,松ヶ越１丁目６－６,舘前緑地公園内,38.0858512,140.7969394,
宮城県,柴田町,第１４投票区,大字槻木字遠島入５４,masked,38.0888586,140.7973372,
宮城県,柴田町,第１４投票区,大字海老穴字割田地内,海老穴コミュニティ消防センター町道側法面,38.0890868,140.7849612,
宮城県,柴田町,第１５投票区,船岡新栄３丁目１２－１,船岡新栄３号公園内,38.0538338,140.7815495,
宮城県,柴田町,第１５投票区,大字船岡字上大原２１９－１,古河公園内,38.059848,140.7870238,
宮城県,柴田町,第１５投票区,大字上名生字新大原１２３-１,新大原集会所地内（貯水槽脇）,38.0622966,140.7920729,
宮城県,柴田町,第１５投票区,大字船岡字上中川41-1付近,masked,38.0567372,140.7884537,
宮城県,柴田町,第１５投票区,大字船岡字新田５６,新田集会所フェンス,38.0574511,140.7859986,
宮城県,柴田町,第１５投票区,船岡新栄２丁目９－１１,水質障害記念碑前町有地,38.0562373,140.7818666,
宮城県,柴田町,第１５投票区,船岡新栄４丁目７,船岡新栄４号公園内東側,38.0514304,140.7812325,
宮城県,柴田町,第１６投票区,槻木西２丁目３－３－２,masked,38.0749298,140.8047967,
宮城県,柴田町,第１６投票区,槻木西２丁目１３－５,masked,38.07268940000001,140.8048487,
宮城県,柴田町,第１６投票区,槻木西３丁目１６－２７,もみのき園敷地内（バイパス高架橋北）,38.0715913,140.802625,
宮城県,柴田町,第１６投票区,槻木西３丁目１１－３４,葛岡集会所入口フェンス,38.0732735,140.802097,
宮城県,柴田町,第１６投票区,槻木西１丁目３０２－１,葛岡公園入口付近,38.0762491,140.8043513,
宮城県,柴田町,第１６投票区,槻木西１丁目３－１,masked,38.0770886,140.8053927,
宮城県,柴田町,第１６投票区,大字船迫字土平地内,くりえいと柴田南側町道沿い畑地内,38.0707664,140.7912243,
宮城県,柴田町,第１７投票区,大字船迫字内余川７６付近,masked,38.0692789,140.7851762,
宮城県,柴田町,第１７投票区,大字船迫字千代川地内,千代の川ポンプ場前T字路,38.0777118,140.7871809,
宮城県,柴田町,第１７投票区,大字船迫字千代の川１９９－３,船迫集会所前,38.0758959,140.7853758,
宮城県,柴田町,第１７投票区,大字船迫字朴木地内,船迫上在集会所向かい,38.0797949,140.7787734,
宮城県,柴田町,第１７投票区,大字船迫字荒屋敷４６付近,masked,38.0828713,140.7951746,
宮城県,柴田町,第１７投票区,東船迫１丁目８－１,船迫公民館前,38.0660309,140.7833138,
