prefecture,city,number,address,name,lat,long,note
宮城県,栗原市,1,築館薬師台1-9,市営薬師住宅入口前道路南側（道路敷）,38.73065039999999,141.0168399,
宮城県,栗原市,2,築館薬師一丁目地内,築館小学校グランド北側階段脇法面,38.730556,141.020706,緯度経度は怪しい
宮城県,栗原市,3,築館薬師台37-1,市営薬師台住宅公園,38.729614,141.016357,緯度経度は怪しい
宮城県,栗原市,4,築館高田二丁目150-18,栗原文化会館付近アポロロード南側（道路敷）,38.726215,141.023865,緯度経度は怪しい
宮城県,栗原市,5,築館字赤沢88-1,赤坂洗車場付近（道路敷）,38.722912,141.020859,緯度経度は怪しい
宮城県,栗原市,6,築館新田57-11,築館西保育所北側フェンス,38.729988,141.002579,緯度経度は怪しい
宮城県,栗原市,7,築館青野1番7,国道398号沿い大和工務店向い空地,38.7338712,141.0150784,
宮城県,栗原市,8,築館薬師三丁目58-1,市立図書館駐車場南側フェンス,38.734749,141.017761,緯度経度は怪しい
宮城県,栗原市,9,築館薬師三丁目140-2,masked,38.734749,141.017761,緯度経度は怪しい
宮城県,栗原市,10,築館藤木２−２０,ＪＡ新みやぎ農協築館支部合同庁舎側法面（道路敷）,38.7375171,141.0198167,
宮城県,栗原市,11,築館伊豆一丁目47-4,masked,38.733932,141.024307,緯度経度は怪しい
宮城県,栗原市,12,築館伊豆一丁目5番1,築館幼稚園南側フェンス,38.7330839,141.0239803,
宮城県,栗原市,13,築館源光33番地,野口建設（株）北側フェンス,38.73415,141.031403,緯度経度は怪しい
宮城県,栗原市,14,築館字源光54番地付近,市道伊豆町源光線・県道河南築館線交差点付近,38.729897,141.032059,緯度経度は怪しい
宮城県,栗原市,15,築館伊豆二丁目89,築館総合支所西側フェンス,38.733418,141.027573,緯度経度は怪しい
宮城県,栗原市,16,築館字成田2-3地先,masked,38.718842,141.036804,緯度経度は怪しい
宮城県,栗原市,17,築館字左足下3-2,こえだて橋付近十字路（道路敷）,38.732372,140.996765,緯度経度は怪しい
宮城県,栗原市,18,築館新田60-3地先,佐野老人憩いの家前道路南側（道路敷）,38.729988,141.002579,緯度経度は怪しい
宮城県,栗原市,19,築館字萩沢77-7,萩沢コミュニティセンター東側フェンス,38.727524,141.037766,緯度経度は怪しい
宮城県,栗原市,20,築館字下高森127-2,高森ロマンホ－ム前道路南側（道路敷）,38.716351,140.983856,緯度経度は怪しい
宮城県,栗原市,21,築館字照越浅松沢28番地2地先,masked,38.71138,141.034164,緯度経度は怪しい
宮城県,栗原市,22,築館字萩沢土橋32-55地先,雇用促進住宅入口付近バス停南側（道路敷）,38.720913,141.034882,緯度経度は怪しい
宮城県,栗原市,23,築館字照越2-64地先,masked,38.724304,141.056168,緯度経度は怪しい
宮城県,栗原市,24,築館字八沢南沢86地先,masked,38.696877,141.021515,緯度経度は怪しい
宮城県,栗原市,25,築館字八沢要害87-2,masked,38.696877,141.021515,緯度経度は怪しい
宮城県,栗原市,26,築館字太田中島51-1,太田集落農事集会所,38.718842,141.036804,緯度経度は怪しい
宮城県,栗原市,27,築館字太田小清水94,masked,38.718842,141.036804,緯度経度は怪しい
宮城県,栗原市,28,築館木戸88-3,只野農機（株）ブロック塀,38.732693,141.038727,緯度経度は怪しい
宮城県,栗原市,29,築館字萩沢木戸30,下萩沢生活センター南側法面,38.733276,141.046371,緯度経度は怪しい
宮城県,栗原市,30,築館字光屋敷24－2,栗原南部商工会（旧築館東保育所）北側フェンス,38.718842,141.036804,緯度経度は怪しい
宮城県,栗原市,31,築館字萩沢加倉3-87,加倉団地調整池西側フェンス,38.733318,141.067444,緯度経度は怪しい
宮城県,栗原市,32,築館字横須賀山口70-4,横須賀生活センターフェンス,38.718842,141.036804,緯度経度は怪しい
宮城県,栗原市,33,築館字横須賀養田20-1,サンクチュアリセンターつきだて館,38.718842,141.036804,緯度経度は怪しい
宮城県,栗原市,34,築館字照越大樟1-1,東北リアライズ北側フェンス,38.712704,141.008194,緯度経度は怪しい
宮城県,栗原市,35,築館字照越神田16-34,（株）オカザキ南側法面,38.713909,141.021454,緯度経度は怪しい
宮城県,栗原市,36,築館字蟹沢中之郷44,masked,38.699905,140.999954,緯度経度は怪しい
宮城県,栗原市,37,築館字築館蟹沢46-8,masked,38.691692,140.992813,緯度経度は怪しい
宮城県,栗原市,38,築館字上宮野庭前81地先,相馬商店前道路北側（道路敷）,38.710178,140.970795,緯度経度は怪しい
宮城県,栗原市,39,築館字上宮野本城33,本木老人憩いの家フェンス,38.710178,140.970795,緯度経度は怪しい
宮城県,栗原市,40,築館字下宮野岡田9番地8地先,masked,38.754311,141.013321,緯度経度は怪しい
宮城県,栗原市,41,築館字下宮野砂田16番地1地先,デイサービス四季彩館前道路北側（道路敷）,38.750099,141.009735,緯度経度は怪しい
宮城県,栗原市,42,築館字下宮野町浦1,（株）ヰセキ東北フェンス,38.749794,141.01445,緯度経度は怪しい
宮城県,栗原市,43,築館宮野中央二丁目2-7,栗原中央病院医師宿舎敷地,38.7465231,141.0181393,
宮城県,栗原市,44,築館字上宮野山下6-3,masked,38.710178,140.970795,緯度経度は怪しい
宮城県,栗原市,45,築館字下宮野町28,masked,38.752522,141.018646,緯度経度は怪しい
宮城県,栗原市,46,築館字留場中川原166-1,野口石油株式会社Carサポート栗原車検センター敷地,38.742584,141.01767,緯度経度は怪しい
宮城県,栗原市,47,築館字芋埣仙能5-13,芋埣コミュニティセンター南側（道路敷）,38.718842,141.036804,緯度経度は怪しい
宮城県,栗原市,48,築館字城生野唐崎9,masked,38.766647,141.036194,緯度経度は怪しい
宮城県,栗原市,49,築館字城生野大堀3,築館出土文化財管理センターフェンス,38.769855,141.03656,緯度経度は怪しい
宮城県,栗原市,50,築館字黒瀬下屋敷52-3,masked,38.718842,141.036804,緯度経度は怪しい
宮城県,栗原市,51,築館字富境41-7,沖富会館フェンス,38.780716,141.045258,緯度経度は怪しい
宮城県,栗原市,52,築館字富下熊川12-1,masked,38.7824326,141.0384329,緯度経度は怪しい
宮城県,栗原市,53,若柳字川南新堤下1-3,迫川上流農業用水中央管理事務所フェンス,38.773098,141.123505,緯度経度は怪しい
宮城県,栗原市,54,若柳字川南堤通5-1,堤通1号公園フェンス,38.772305,141.119431,緯度経度は怪しい
宮城県,栗原市,55,若柳字川南戸ノ西4,若柳総合支所入り口付近草地,38.76841,141.122452,緯度経度は怪しい
宮城県,栗原市,56,若柳字川南町浦99-3,旧若柳ひだまりの家前フェンス,38.767132,141.125763,緯度経度は怪しい
宮城県,栗原市,57,若柳字川南八木前84-2,masked,38.769672,141.118774,緯度経度は怪しい
宮城県,栗原市,58,若柳字川南道伝前120-1,masked,38.765961,141.131561,緯度経度は怪しい
宮城県,栗原市,59,若柳字川南川原前16-2,川原ごみ集積所向かい県道（道路敷）,38.758396,141.131729,緯度経度は怪しい
宮城県,栗原市,60,若柳字川北新町106-1,旧平野神社駐車場フェンス,38.773361,141.128769,緯度経度は怪しい
宮城県,栗原市,61,若柳字川北塚ノ根17-1,くりでんミュージアム駐車場フェンス,38.774204,141.132126,緯度経度は怪しい
宮城県,栗原市,62,若柳字川北古川130-19,ウジエスーパー柵,38.7703711,141.1391859,
宮城県,栗原市,63,若柳字川北荒町5,masked,38.77562,141.148636,緯度経度は怪しい
宮城県,栗原市,64,若柳武鎗字上土手ノ内98-1,masked,38.779247,141.144806,緯度経度は怪しい
宮城県,栗原市,65,若柳字川北並柳90-3,masked,38.772285,141.142868,緯度経度は怪しい
宮城県,栗原市,66,若柳字川北我門38-1,masked,38.766155,141.138718,緯度経度は怪しい
宮城県,栗原市,67,若柳字川北新中谷地65-1.67-1,若柳十文字老人憩いの家フェンス,38.773361,141.128769,緯度経度は怪しい
宮城県,栗原市,68,若柳字川北二股112,北二股老人憩いの家,38.753841,141.146057,緯度経度は怪しい
宮城県,栗原市,69,若柳字川南二又250先,masked,38.75367809999999,141.1402362,緯度経度は怪しい
宮城県,栗原市,70,若柳字川南上大目83-1,masked,38.773212,141.112076,緯度経度は怪しい
宮城県,栗原市,71,若柳字川南下大目前117,masked,38.737194,141.151111,緯度経度は怪しい
宮城県,栗原市,72,若柳字川南新田東119,新田集落センターフェンス,38.773098,141.123505,緯度経度は怪しい
宮城県,栗原市,73,若柳有賀字峯11-2先,千葉聰作業場前大釜水路フェンス,38.815811,141.099731,緯度経度は怪しい
宮城県,栗原市,74,若柳有賀字田畑前28-1.29-1,若柳有賀集会所フェンス,38.815811,141.099731,緯度経度は怪しい
宮城県,栗原市,75,若柳有賀字境20,若柳有賀老人憩いの家フェンス,38.815811,141.099731,緯度経度は怪しい
宮城県,栗原市,76,若柳武鎗字薬師堂前4-3先,上在県道残地（道路敷）,38.801666,141.125931,緯度経度は怪しい
宮城県,栗原市,77,若柳武鎗字竹之内前6,旧有賀小学校校庭フェンス,38.801666,141.125931,緯度経度は怪しい
宮城県,栗原市,78,若柳武鎗字町舘281-3,旧有賀駐在所跡地ゴミステーション,38.801666,141.125931,緯度経度は怪しい
宮城県,栗原市,79,若柳武鎗字坊ヶ沢12先,masked,38.801666,141.125931,緯度経度は怪しい
宮城県,栗原市,80,若柳字大林町裏36-1,masked,38.790985,141.082504,緯度経度は怪しい
宮城県,栗原市,81,若柳字大林町裏190,masked,38.788151,141.088593,緯度経度は怪しい
宮城県,栗原市,82,若柳字大林中斉101-5先,大林老人憩いの家前板倉フェンス,38.784748,141.099716,緯度経度は怪しい
宮城県,栗原市,83,若柳字大林要害86-7,大岡小学校跡地加圧ポンプ場前,38.782616,141.103958,緯度経度は怪しい
宮城県,栗原市,84,若柳字福岡小谷町31-1,masked,38.780735,141.115204,緯度経度は怪しい
宮城県,栗原市,85,若柳字福岡原畑16-4,masked,38.780144,141.119186,緯度経度は怪しい
宮城県,栗原市,86,若柳字下畑岡樽沼5-4先,熊野神社隣空き地,38.760502,141.131088,緯度経度は怪しい
宮城県,栗原市,87,若柳字下畑岡峯172先,和賀商店付近交差点市道残地（道路敷）,38.760502,141.131088,緯度経度は怪しい
宮城県,栗原市,88,若柳字下畑岡峯前611,栗原市若柳峯集落センター向かい,38.760502,141.131088,緯度経度は怪しい
宮城県,栗原市,89,若柳字下畑岡内谷川東107-2,栗原市若柳内谷川地区コミュニティセンターフェンス,38.760502,141.131088,緯度経度は怪しい
宮城県,栗原市,90,若柳字上畑岡夷穴34先,masked,38.727787,141.07222,緯度経度は怪しい
宮城県,栗原市,91,若柳字上畑岡新大立前49-3,畑岡揚水機場フェンス,38.727787,141.07222,緯度経度は怪しい
宮城県,栗原市,92,若柳字上畑岡新米ヶ浦前148.149-2,若柳米ヶ浦中央老人憩いの家前（道路敷）,38.7351053,141.1223563,緯度経度は怪しい
宮城県,栗原市,93,若柳字上畑岡敷味81-2先,masked,38.727787,141.07222,緯度経度は怪しい
宮城県,栗原市,94,若柳字上畑岡原81-3,ウェットランド停留所脇,38.727787,141.07222,緯度経度は怪しい
宮城県,栗原市,95,若柳字上畑岡獅子ヶ鼻111-5.122-2,若柳多賀老人憩の家前（道路敷）,38.727787,141.07222,緯度経度は怪しい
宮城県,栗原市,96,栗駒沼倉耕英東71番地5,ハイルザーム栗駒向かい,38.914642,140.851517,緯度経度は怪しい
宮城県,栗原市,97,栗駒沼倉畳石19番地先,滝ノ原コミュニティセンター向かい（道路敷）,38.914642,140.851517,緯度経度は怪しい
宮城県,栗原市,98,栗駒沼倉日照田17番地1,日照田自治会館前,38.914642,140.851517,緯度経度は怪しい
宮城県,栗原市,99,栗駒沼倉法華堂74番地1,馬場農業担い手センター前,38.8736856,140.9518668,
宮城県,栗原市,100,栗駒松倉東貴船10番地6,三丁構造改善センター東側ゲートボール場,38.8636067,140.9550358,
宮城県,栗原市,101,栗駒松倉若木197番地,若木集落センター向かい（道路敷）,38.854012,140.957367,緯度経度は怪しい
宮城県,栗原市,102,栗駒岩ケ崎茂庭町67番地,岩ケ崎円鏡寺前（道路敷）,38.828911,140.987503,緯度経度は怪しい
宮城県,栗原市,103,栗駒岩ケ崎六日町69番地,栗駒特産物直売センター「山の駅くりこま」駐車場,38.830853,140.990402,緯度経度は怪しい
宮城県,栗原市,104,栗駒岩ケ崎上町裏69番地１,栗駒保健センター前（道路敷）,38.829723,140.987793,緯度経度は怪しい
宮城県,栗原市,105,栗駒岩ケ崎名城前3番地2,ライフサポートいちます北側（道路敷）,38.8337456,141.0029116,緯度経度は怪しい
宮城県,栗原市,106,栗駒岩ケ崎三島287番地先,（株）エスティシー南側（道路敷）,38.834927,141.00502,緯度経度は怪しい
宮城県,栗原市,107,栗駒岩ケ崎下小路60番地3先,旧仙北信用組合栗駒支店向かいポケットパーク（道路敷）,38.833519,140.993896,緯度経度は怪しい
宮城県,栗原市,108,栗駒岩ケ崎上小路44番地6先,masked,38.833385,140.986053,緯度経度は怪しい
宮城県,栗原市,109,栗駒岩ケ崎上小路149番地1,ローソン山の駅くりこま店北側（道路敷）,38.833694,140.984085,緯度経度は怪しい
宮城県,栗原市,110,栗駒中野新籠田22番地2,中野上区民会館西側十字路前（道路敷）,38.836342,140.954788,緯度経度は怪しい
宮城県,栗原市,111,栗駒中野要害前28番地,中野集落センター東側,38.82917,140.979126,緯度経度は怪しい
宮城県,栗原市,112,栗駒中野田町西135番地2,旧グリーンヒル浦島向かい（道路敷）,38.8258184,140.9775441,緯度経度は怪しい
宮城県,栗原市,113,栗駒中野上野原南28番地先,栗駒中学校西側入口前（道路敷）,38.81641,140.987381,緯度経度は怪しい
宮城県,栗原市,114,栗駒猿飛来新鐙ケ淵32番地6,masked,38.816406,141.010391,緯度経度は怪しい
宮城県,栗原市,115,栗駒猿飛来長楽沢21番地3,二本木長楽沢集落センター（集会所敷）,38.816406,141.010391,緯度経度は怪しい
宮城県,栗原市,116,栗駒里谷砂地屋82番地,里谷自治会館前（道路敷）,38.827969,141.011124,緯度経度は怪しい
宮城県,栗原市,117,栗駒里谷神田沖14番地3,町田橋南側（道路敷）,38.833733,141.016846,緯度経度は怪しい
宮城県,栗原市,118,栗駒深谷日照田35番地先,県道182号線深谷自治会館入口（道路敷）,38.845413,141.033585,緯度経度は怪しい
宮城県,栗原市,119,栗駒鳥沢湯ノ沢94番地1地先,masked,38.8523262,141.0163829,
宮城県,栗原市,120,栗駒鳥沢新山前17番地2,新山コミュニティセンター前（道路敷）,38.856027,141.0052668,
宮城県,栗原市,121,栗駒鳥沢山子下38番地13,田代消防ポンプ小屋西側（道路敷）,38.836025,141.006775,緯度経度は怪しい
宮城県,栗原市,122,栗駒鳥沢徳沢前46番地2,masked,38.85751,141.004822,緯度経度は怪しい
宮城県,栗原市,123,栗駒文字新荒砥158番地,荒砥沢ふれあいセンター向かい（道路敷）,38.856781,140.86731,緯度経度は怪しい
宮城県,栗原市,124,栗駒文字上山神69番地,新田集会所東側,38.856781,140.86731,緯度経度は怪しい
宮城県,栗原市,125,栗駒文字角ケ崎67番地１先,文字甚句と藍の館前（道路敷）,38.8715837,140.9014197,
宮城県,栗原市,126,栗駒文字川東295番地先,川東十字路（道路敷）,38.856781,140.86731,緯度経度は怪しい
宮城県,栗原市,127,栗駒文字大道2番地4,文字郵便局東側（道路敷）,38.856781,140.86731,緯度経度は怪しい
宮城県,栗原市,128,栗駒文字愛宕下7番地2,愛宕神社前（道路敷）,38.856781,140.86731,緯度経度は怪しい
宮城県,栗原市,129,栗駒文字大明神158番地1先,中文字大明神ゴミステーション東側（道路敷）,38.8370232,140.914714,緯度経度は怪しい
宮城県,栗原市,130,栗駒文字中山日向36番地,旧中山バス停向かい水車前,38.856781,140.86731,緯度経度は怪しい
宮城県,栗原市,131,栗駒稲屋敷百目木前18番地1,高松生活センター前（道路敷）,38.8275185,140.9572883,
宮城県,栗原市,132,栗駒稲屋敷清水田前321番地,栗原市消防団格納庫南側（道路敷）,38.826069,140.960129,緯度経度は怪しい
宮城県,栗原市,133,栗駒稲屋敷宝領東98番地5,宝領集落センター前（道路敷）,38.826069,140.960129,緯度経度は怪しい
宮城県,栗原市,134,栗駒稲屋敷小関前47番地2先,大鳥西自治会館向かい（道路敷）,38.810619,140.9776,緯度経度は怪しい
宮城県,栗原市,135,栗駒稲屋敷大鳥西側15番地先,旧JA新みやぎ尾松支店前（道路敷）,38.8139118,140.9845971,
宮城県,栗原市,136,栗駒稲屋敷笊屋敷下143番地2,ファミリーマート栗駒南店前（道路敷）,38.809666,140.978638,緯度経度は怪しい
宮城県,栗原市,137,栗駒八幡清水沢3番地2,(株)みどりや製菓駐車場前（道路敷）,38.804741,140.998901,緯度経度は怪しい
宮城県,栗原市,138,栗駒桜田殿田替95番地,伊治城生活センター前（道路敷）,38.793007,140.997849,緯度経度は怪しい
宮城県,栗原市,139,栗駒桜田中有賀25番地1,masked,38.793007,140.997849,緯度経度は怪しい
宮城県,栗原市,140,栗駒桜田百輪目木3番地2,桜田下集落センター西側（道路敷）,38.7921463,141.0038531,
宮城県,栗原市,141,栗駒菱沼竹林2番地1先,菱沼集会所前（道路敷）,38.796192,141.016663,緯度経度は怪しい
宮城県,栗原市,142,栗駒栗原西沢133番地,栗原根岸農業担い手センター前（道路敷）,38.789394,141.029678,緯度経度は怪しい
宮城県,栗原市,143,栗駒栗原館下113番地先,masked,38.789394,141.029678,緯度経度は怪しい
宮城県,栗原市,144,栗駒栗原川端66番地先,栗原沖自治会館向かい（道路敷）,38.789394,141.029678,緯度経度は怪しい
宮城県,栗原市,145,栗駒嶺崎風越41番地3先,masked,38.774521,140.993683,緯度経度は怪しい
宮城県,栗原市,146,栗駒渡丸中島118番地先,渡丸公民館前（道路敷）,38.774628,141.007172,緯度経度は怪しい
宮城県,栗原市,147,栗駒泉沢新山下70番地3,泉沢活性化センター（泉の里）前（道路敷）,38.780712,141.012085,緯度経度は怪しい
宮城県,栗原市,148,栗駒片子沢古戸26番地2,田高田簡易郵便局前,38.785892,140.97049,緯度経度は怪しい
宮城県,栗原市,149,栗駒片子沢半道六72番地2,町田活性化センター前（道路敷）,38.785892,140.97049,緯度経度は怪しい
宮城県,栗原市,150,栗駒片子沢田高田北76番地,田高田集会所東側（道路敷）,38.785892,140.97049,緯度経度は怪しい
宮城県,栗原市,151,栗駒片子沢西田35番地3,田子屋バス停前（道路敷）,38.785892,140.97049,緯度経度は怪しい
宮城県,栗原市,152,高清水新沢田148-2,外沢田集会所前（道路敷）,38.660339,141.003647,緯度経度は怪しい
宮城県,栗原市,153,高清水覚満寺地内,覚満寺交差点（道路敷）,38.660339,141.003647,緯度経度は怪しい
宮城県,栗原市,154,高清水中の茎4-1,南部地区生活センター,38.660339,141.003647,緯度経度は怪しい
宮城県,栗原市,155,高清水台町19-3,JRバス台町停留所前,38.660339,141.003647,緯度経度は怪しい
宮城県,栗原市,156,高清水中町20,はさまや(三塚屋)駐車場フェンス,38.6553435,141.0112194,
宮城県,栗原市,157,高清水新神明36-2,神明共同墓地三叉路付近（道路敷）,38.660339,141.003647,緯度経度は怪しい
宮城県,栗原市,158,高清水佐野丁32,かつらっこハウス前フェンス,38.6596411,141.0134761,
宮城県,栗原市,159,高清水東館34,栗原市高清水地域福祉センター（ほっと館）,38.6550357,141.0139544,
宮城県,栗原市,160,高清水五輪29-1,高清水地区コミュニティセンター,38.662604,141.0052876,
宮城県,栗原市,161,高清水善光寺17-1,masked,38.660339,141.003647,緯度経度は怪しい
宮城県,栗原市,162,高清水来光沢11-1付近,市道善光寺来光沢線及び市道石沢中里線Ｔ字路,38.660339,141.003647,緯度経度は怪しい
宮城県,栗原市,163,高清水茂路具多31-1,第12区集会所前（道路敷）,38.660339,141.003647,緯度経度は怪しい
宮城県,栗原市,164,高清水小山田499,第11区集落センター,38.6707206,140.9891476,
宮城県,栗原市,165,高清水日向67-1付近,日向バス停留所脇（道路敷）,38.6763343,140.9843071,
宮城県,栗原市,166,高清水宮脇6-2,masked,38.660339,141.003647,緯度経度は怪しい
宮城県,栗原市,167,一迫柳目字平沢59番1地先,masked,38.716698,140.968826,緯度経度は怪しい
宮城県,栗原市,168,一迫柳目字井戸沢100番2,栗原市南沢生活センター南側（道路敷）,38.716698,140.968826,緯度経度は怪しい
宮城県,栗原市,169,一迫柳目字谷地田88番4,masked,38.716698,140.968826,緯度経度は怪しい
宮城県,栗原市,170,一迫柳目字新竹の内117番,栗原市竹の内集落センター,38.716698,140.968826,緯度経度は怪しい
宮城県,栗原市,171,一迫柳目字曽根307番1,栗原市営北河原住宅,38.716698,140.968826,緯度経度は怪しい
宮城県,栗原市,172,一迫柳目字曽根新土手根1番15地先,真坂大橋停留所北側（道路敷）,38.716698,140.968826,緯度経度は怪しい
宮城県,栗原市,173,一迫真坂字町東153番1,一迫商業高等学校体育館東側（道路敷）,38.744144,140.9422,緯度経度は怪しい
宮城県,栗原市,174,一迫真坂字町東10番2地先,(有)菅原オート商会北西,38.744144,140.9422,緯度経度は怪しい
宮城県,栗原市,175,一迫真坂字清水反町2番2,栗原市清水高齢者能力活動促進センター,38.744144,140.9422,緯度経度は怪しい
宮城県,栗原市,176,一迫真坂清水小栗目47番13,旧栗原市清水二農業後継者育成センター西側（道路敷）,38.7279449,140.9535887,
宮城県,栗原市,177,一迫真坂字鎌折1番3,鎌折丁字路（道路敷）,38.744144,140.9422,緯度経度は怪しい
宮城県,栗原市,178,一迫真坂字一本杉1番,栗原市輝井生活センター,38.744144,140.9422,緯度経度は怪しい
宮城県,栗原市,179,一迫真坂字八幡84番地先,masked,38.744144,140.9422,緯度経度は怪しい
宮城県,栗原市,180,一迫字大川口清水沢31番1,栗原市一迫大川口下コミュニティセンター前,38.752392,140.872467,緯度経度は怪しい
宮城県,栗原市,181,一迫字嶋躰宿63番2,六角停留所西側（道路敷）,38.752392,140.872467,緯度経度は怪しい
宮城県,栗原市,182,一迫字清水目下谷地114番3,旧栗原市一迫清水目老人憩いの家,38.7548011,140.9112495,
宮城県,栗原市,183,一迫字川口中町10番4,masked,38.752392,140.872467,緯度経度は怪しい
宮城県,栗原市,184,一迫字川口繁昌家50番9,masked,38.752392,140.872467,緯度経度は怪しい
宮城県,栗原市,185,一迫字川口鍛冶屋34番1,栗原市滝野集落センター,38.752392,140.872467,緯度経度は怪しい
宮城県,栗原市,186,一迫字嶋躰門出3番,栗原市川北農業後継者育成センター,38.752392,140.872467,緯度経度は怪しい
宮城県,栗原市,187,一迫字嶋躰境田前25番62地先,境田西溜池向い側,38.752392,140.872467,緯度経度は怪しい
宮城県,栗原市,188,一迫字御崎188番4,masked,38.752392,140.872467,緯度経度は怪しい
宮城県,栗原市,189,一迫字萩生28番8,加藤商店自動販売機置き場東側,38.752392,140.872467,緯度経度は怪しい
宮城県,栗原市,190,一迫字一本杉870番2,栗原市荒町下集落センター,38.752392,140.872467,緯度経度は怪しい
宮城県,栗原市,191,一迫字中小僧21番6,狩野タバコ店北側（道路敷）,38.752392,140.872467,緯度経度は怪しい
宮城県,栗原市,192,一迫字下大土47番9,大土ポンプ場前,38.752392,140.872467,緯度経度は怪しい
宮城県,栗原市,193,一迫字大川口大手104番地先,栗原市一迫大川口上老人憩いの家南側（道路敷）,38.752392,140.872467,緯度経度は怪しい
宮城県,栗原市,194,一迫北沢二本松1番1地先,旧姫松小学校西側（道路敷）,38.7665342,140.9643063,
宮城県,栗原市,195,一迫北沢大沢25番4,一本松センター前,38.7716663,140.9395059,
宮城県,栗原市,196,一迫狐崎高屋敷42番3地先,masked,38.76390749999999,140.9802748,
宮城県,栗原市,197,一迫北沢類子7番1地先,姫松南沢消防ポンプ置場脇,38.752392,140.872467,緯度経度は怪しい
宮城県,栗原市,198,一迫北沢畑25番3,masked,38.752392,140.872467,緯度経度は怪しい
宮城県,栗原市,199,一迫片子沢外の沢2番1地先,masked,38.752392,140.872467,緯度経度は怪しい
宮城県,栗原市,200,瀬峰野沢176番2,野沢地区ふれあいセンター前,38.6342426,141.0386496,緯度経度は怪しい
宮城県,栗原市,201,瀬峰四ツ壇18-51,渡辺採種場前,38.661358,141.052322,緯度経度は怪しい
宮城県,栗原市,202,瀬峰泉谷10番,泉谷コミュニティセンター前,38.661358,141.052322,緯度経度は怪しい
宮城県,栗原市,203,瀬峰荒町32番5,荒町集会所前,38.6406957,141.0515296,
宮城県,栗原市,204,瀬峰新井屋敷52番1,masked,38.661358,141.052322,緯度経度は怪しい
宮城県,栗原市,205,瀬峰小深沢152番2,小深沢生活改善センター前,38.6845509,141.0206094,
宮城県,栗原市,206,瀬峰大鰐谷1番先,上藤沢集会所前,38.661358,141.052322,緯度経度は怪しい
宮城県,栗原市,207,瀬峰藤沢要害125番1,masked,38.6664967,141.0552207,
宮城県,栗原市,208,瀬峰藤沢瀬嶺157番,masked,38.661358,141.052322,緯度経度は怪しい
宮城県,栗原市,209,瀬峰横森前127番2,masked,38.6661772,141.0679977,
宮城県,栗原市,210,瀬峰横森前156番1,masked,38.6666716,141.0696571,
宮城県,栗原市,211,瀬峰長者原42番１,瀬峰総合支所前,38.661358,141.052322,緯度経度は怪しい
宮城県,栗原市,212,瀬峰下藤沢117番1,観昌寺駐車場前,38.6569017,141.0714568,
宮城県,栗原市,213,瀬峰下田32番1,瀬峰公民館前,38.653293,141.0705818,
宮城県,栗原市,214,瀬峰下田216番1,下山児童遊園前,38.651791,141.080869,
宮城県,栗原市,215,瀬峰新後谷地117付近,コメリ瀬峰店前（道路敷）,38.661358,141.052322,緯度経度は怪しい
宮城県,栗原市,216,瀬峰桃生田47番6,瀬峰農林漁家高齢者センター,38.661358,141.052322,緯度経度は怪しい
宮城県,栗原市,217,瀬峰大境山5番,masked,38.661358,141.052322,緯度経度は怪しい
宮城県,栗原市,218,瀬峰坂ノ下前北5番,masked,38.661358,141.052322,緯度経度は怪しい
宮城県,栗原市,219,瀬峰谷地田63番2,masked,38.661358,141.052322,緯度経度は怪しい
宮城県,栗原市,220,瀬峰牛渕前63番1,masked,38.661358,141.052322,緯度経度は怪しい
宮城県,栗原市,221,鶯沢袋前田75番地5,菅原産業（株）栗駒工場前（道路敷）,38.813087,140.932312,緯度経度は怪しい
宮城県,栗原市,222,鶯沢袋本宿裏43番地3,masked,38.813087,140.932312,緯度経度は怪しい
宮城県,栗原市,223,鶯沢袋持添97番地2,masked,38.813087,140.932312,緯度経度は怪しい
宮城県,栗原市,224,鶯沢南郷八升12番地,鶯沢総合支所前,38.813087,140.932312,緯度経度は怪しい
宮城県,栗原市,225,鶯沢南郷梨木平8番地1,駒場上梨木平広報板隣（道路敷）,38.803617,140.9380758,
宮城県,栗原市,226,鶯沢南郷上新反田25番地1,元くりはら田園鉄道駒場（高校前）駅向,38.8071338,140.9247656,
宮城県,栗原市,227,鶯沢南郷舘前40番地2,鶯沢堰根担い手センター向（道路敷）,38.813087,140.932312,緯度経度は怪しい
宮城県,栗原市,228,鶯沢南郷久保前101番地6,八沢二岐広報板隣（道路敷）,38.813087,140.932312,緯度経度は怪しい
宮城県,栗原市,229,鶯沢北郷峯25番地,masked,38.813087,140.932312,緯度経度は怪しい
宮城県,栗原市,230,鶯沢北郷保網16番地1南側緑地帯,masked,38.813087,140.932312,緯度経度は怪しい
宮城県,栗原市,231,鶯沢南郷五輪原25番地1,旧森下詰所前,38.8039037,140.9159031,
宮城県,栗原市,232,鶯沢南郷北沢46-1,細倉中央橋交差点西側（道路敷）,38.8042785,140.9033695,緯度経度は怪しい
宮城県,栗原市,233,鶯沢南郷四ツ岩43番地付近,南郷四ツ岩（国道457号線と県道花山一迫線三叉路（道路敷）,38.813087,140.932312,緯度経度は怪しい
宮城県,栗原市,234,金成有壁館下29番地,萩野公民館駐車場フェンス,38.865902,141.129425,緯度経度は怪しい
宮城県,栗原市,235,金成有壁太田杜30番地7,金成有壁太田杜公園,38.865902,141.129425,緯度経度は怪しい
宮城県,栗原市,236,金成有壁狼ノ掛39番地4,有壁農集排処理施設フェンス,38.865902,141.129425,緯度経度は怪しい
宮城県,栗原市,237,金成片馬合下吉目木69番地,上片馬合なかよし花壇脇市道残地（道路敷）,38.872234,141.089172,緯度経度は怪しい
宮城県,栗原市,238,金成片馬合沖157番地1,金成下片馬合集会所,38.872234,141.089172,緯度経度は怪しい
宮城県,栗原市,239,金成片馬合佐野原38番地1,masked,38.872234,141.089172,緯度経度は怪しい
宮城県,栗原市,240,金成末野拾万１1番地5先,masked,38.8533782,141.1062583,緯度経度は怪しい
宮城県,栗原市,241,金成藤渡戸原田16番地2,国道４号沿い藤渡戸新みやぎ農業協同組合用地,38.854679,141.093903,緯度経度は怪しい
宮城県,栗原市,242,金成藤渡戸上中江92番地先,藤渡戸鹿野前停留所西側県道残地（道路敷）,38.854679,141.093903,緯度経度は怪しい
宮城県,栗原市,243,金成赤児熊田沖23番地5,masked,38.861397,141.063538,緯度経度は怪しい
宮城県,栗原市,244,金成普賢堂福田26番地,旧金成野外活動センターフェンス,38.868553,141.040482,緯度経度は怪しい
宮城県,栗原市,245,金成上町西裏2番地先,masked,38.809093,141.072128,緯度経度は怪しい
宮城県,栗原市,246,金成中町13番地4,市道けやき通線フェンス（道路敷）,38.81089,141.075073,緯度経度は怪しい
宮城県,栗原市,247,金成台畑14番地1先,masked,38.814972,141.071915,緯度経度は怪しい
宮城県,栗原市,248,金成山中堤下12番地3先,山中堤下ごみ集積所脇（道路敷）,38.824203,141.070068,緯度経度は怪しい
宮城県,栗原市,249,金成長根沢164番地,長根沢ごみ集積所脇水路フェンス,38.824203,141.070068,緯度経度は怪しい
宮城県,栗原市,250,金成三沢22番地2,三沢国道4号線脇,38.824203,141.070068,緯度経度は怪しい
宮城県,栗原市,251,金成入ノ沢8番地8先,畑ポンプ格納庫脇市道残地（道路敷）,38.81049,141.077194,緯度経度は怪しい
宮城県,栗原市,252,金成小迫花館102番地1,花館集落ゴミ集積所脇水路フェンス,38.811516,141.065125,緯度経度は怪しい
宮城県,栗原市,253,金成沢辺宇南194番地1,宇南防火水槽脇,38.796204,141.058868,緯度経度は怪しい
宮城県,栗原市,254,金成沢辺神林34番地,masked,38.802746,141.052399,緯度経度は怪しい
宮城県,栗原市,255,金成沢辺町173番地1,masked,38.7981675,141.0587937,
宮城県,栗原市,256,金成沢辺町沖243番地2,金成総合支所駐車場前,38.799702,141.0658443,
宮城県,栗原市,257,金成姉歯根岸30番地2,masked,38.777306,141.052963,緯度経度は怪しい
宮城県,栗原市,258,金成姉歯中沢前70番地2,masked,38.7844182,141.0687324,
宮城県,栗原市,259,金成梨崎道ノ上44番地6,金成梨崎道ノ上地内（道路敷）,38.788445,141.06546,緯度経度は怪しい
宮城県,栗原市,260,金成沢辺内畑115番地1,masked,38.794596,141.0735678,
宮城県,栗原市,261,金成小堤新涌戸77番地1先,小堤ポンプ格納庫脇（道路敷）,38.804848,141.03801,緯度経度は怪しい
宮城県,栗原市,262,金成津久毛岩崎沢1番地6,金成岩崎集会所西側（道路敷）,38.822887,141.039383,緯度経度は怪しい
宮城県,栗原市,263,金成大原木百目鬼10番地1,masked,38.8124665,141.037628,
宮城県,栗原市,264,志波姫沼崎南沖２０３番地１２,ことぶき駐車場,38.753284,141.058289,緯度経度は怪しい
宮城県,栗原市,265,志波姫八樟新田209-1,masked,38.7466672,141.0499024,
宮城県,栗原市,266,志波姫沼崎淀47番地２,市道御蔵線宮野線交差点歩道,38.75938,141.058807,緯度経度は怪しい
宮城県,栗原市,267,志波姫北郷竹の内27,masked,38.76300639999999,141.0805888,
宮城県,栗原市,268,志波姫南郷蓬田93-25,熊谷区自治会館,38.7454216,141.0849287,
宮城県,栗原市,269,志波姫新沼崎347,志波姫小学校前駐車場,38.750927,141.061447,緯度経度は怪しい
宮城県,栗原市,270,志波姫新熊谷24-16,市営駅南駐車場向かい,38.746513,141.069839,緯度経度は怪しい
宮城県,栗原市,271,志波姫下里59-2,阿久戸集会所入口,38.759621,141.04097,緯度経度は怪しい
宮城県,栗原市,272,志波姫堀口高田5-3,masked,38.755203,141.036652,緯度経度は怪しい
宮城県,栗原市,273,志波姫堀口見渡117-1,masked,38.737759,141.025284,緯度経度は怪しい
宮城県,栗原市,274,志波姫南堀口４３５番地,コメリハード＆グリーン志波姫店東（水路敷）,38.741032,141.042786,緯度経度は怪しい
宮城県,栗原市,275,志波姫堀口御駒堂139,山の上児童公園,38.7426633,141.0370667,
宮城県,栗原市,276,志波姫堀口御駒堂25,masked,38.7475988,141.0432373,
宮城県,栗原市,277,志波姫新刈敷213,上区公民館前スクールバス停留所西側（道路敷）,38.768436,141.053665,緯度経度は怪しい
宮城県,栗原市,278,志波姫蔵場南128,中区ライスセンター向かい（道路敷）,38.769363,141.06456,緯度経度は怪しい
宮城県,栗原市,279,志波姫刈敷治郎163-5,かりしき・はなわスクールバス停留所西側（道路敷）,38.777287,141.077393,緯度経度は怪しい
宮城県,栗原市,280,志波姫北郷荒町70,久光組重機置き場前,38.7657469,141.0867622,
宮城県,栗原市,281,志波姫伊豆野町北側20,町区公民館,38.7716732,141.1017791,
宮城県,栗原市,282,志波姫芝の脇南239,芝の脇公民館北側伊豆野堰フェンス,38.770126,141.111343,緯度経度は怪しい
宮城県,栗原市,283,志波姫伊豆野城内前51-3,城内区公民館,38.7753695,141.1038993,
宮城県,栗原市,284,志波姫南郷新間海34,志波姫間海区公民館南側（道路敷）,38.74551,141.08078,緯度経度は怪しい
宮城県,栗原市,285,志波姫新橋本276,橋本自治会館北側（道路敷）,38.755974,141.083191,緯度経度は怪しい
宮城県,栗原市,286,志波姫南郷大平179,masked,38.753081,141.0913295,
宮城県,栗原市,287,志波姫南郷日向213,市道蟹沢線、大峰線T字路,38.7505822,141.1012886,
宮城県,栗原市,288,花山字草木沢宿29-1付近,masked,38.855095,140.779739,緯度経度は怪しい
宮城県,栗原市,289,花山字草木沢中田48-1,花山掛越停留所横,38.855095,140.779739,緯度経度は怪しい
宮城県,栗原市,290,花山字草木沢荒谷16-2,花山荒谷集会所前,38.855095,140.779739,緯度経度は怪しい
宮城県,栗原市,291,花山字草木沢大笹11-10,花山大笹集会所前,38.855095,140.779739,緯度経度は怪しい
宮城県,栗原市,292,花山字草木沢上原35-8付近,上原消防ポンプ置場前（道路敷）,38.7558116,140.8143504,緯度経度は怪しい
宮城県,栗原市,293,花山字本沢北ノ前94-5、94-6,花山総合支所前,38.855095,140.779739,緯度経度は怪しい
宮城県,栗原市,294,花山字本沢花山沢25-3付近,花山沢集会所前（道路敷）,38.855095,140.779739,緯度経度は怪しい
宮城県,栗原市,295,花山字本沢御堂23-1,masked,38.79737480000001,140.8394593,緯度経度は怪しい
宮城県,栗原市,296,花山字本沢松田67付近,masked,38.855095,140.779739,緯度経度は怪しい
宮城県,栗原市,297,花山字本沢山下49-12付近,山下公衆トイレ跡地（道路敷）,38.855095,140.779739,緯度経度は怪しい
宮城県,栗原市,298,花山字本沢早坂7-18付近,花山養魚場付近,38.855095,140.779739,緯度経度は怪しい
宮城県,栗原市,299,花山字本沢中村65-7付近,masked,38.855095,140.779739,緯度経度は怪しい
宮城県,栗原市,300,花山字本沢猪ノ沢3-32付近,野口商店店舗前（道路敷）,38.855095,140.779739,緯度経度は怪しい
宮城県,栗原市,301,花山字草木沢角間25-3付近,小豆畑集会所前（道路敷）,38.855095,140.779739,緯度経度は怪しい
