prefecture,city,number,address,name,lat,long,note
宮城県,気仙沼市,1,九条４０７－１２,九条集会所　前,38.897274,141.554184,緯度経度は怪しい
宮城県,気仙沼市,2,常楽１３０,気仙沼高等学校　香久留ヶ原会館前　フェンス,38.8948943,141.5584205,
宮城県,気仙沼市,3,九条４０３,masked,38.8961901,141.5538767,
宮城県,気仙沼市,4,九条３２７,九条小学校 校庭　南側　フェンス,38.8938941,141.5531812,
宮城県,気仙沼市,5,後九条２４８　地先,羽黒神社　入口　市道,38.896957,141.550903,緯度経度は怪しい
宮城県,気仙沼市,6,田中前三丁目３,田中記念公園　鉄柵,38.890587,141.557999,緯度経度は怪しい
宮城県,気仙沼市,7,田中前四丁目８,元条南中学校　北側　土手,38.889881,141.562134,緯度経度は怪しい
宮城県,気仙沼市,8,上田中二丁目９,反松公園　東側　道路沿い　土手,38.887486,141.5552905,
宮城県,気仙沼市,9,神山８－１,神山公園　西側,38.8918436,141.5670984,
宮城県,気仙沼市,10,田谷１４－１,田谷公園　東側,38.8957133,141.5656447,
宮城県,気仙沼市,11,本郷２０－１,中谷地公園　鉄柵,38.8951232,141.5690095,
宮城県,気仙沼市,12,四反田１１８－１,サンスールアパート裏手　緑地,38.900787,141.558044,緯度経度は怪しい
宮城県,気仙沼市,13,舘山一丁目１ー４３　地先,舘山コミュニティーセンター　入口　植込み,38.9029713,141.5605378,
宮城県,気仙沼市,14,四反田１５６,新鮮館　駐車場　北側　フェンス,38.9019202,141.5543911,
宮城県,気仙沼市,15,舘山二丁目１０５,舘山二丁目駐車場隣　市道,38.906609,141.555725,緯度経度は怪しい
宮城県,気仙沼市,16,古町一丁目２－１５　地先,駅前コミュニティセンター西側　空地,38.9079702,141.5618824,
宮城県,気仙沼市,17,古町二丁目１－１１,古町四区自治会館　軒下,38.9094472,141.5607898,
宮城県,気仙沼市,18,masked,masked,38.9126874,141.5521028,
宮城県,気仙沼市,19,福美町１　地内,福美町PTA倉庫　向い,38.907791,141.565399,緯度経度は怪しい
宮城県,気仙沼市,20,笹が陣３－１,気仙沼小学校　校舎東側　植込み,38.902935,141.5712506,
宮城県,気仙沼市,21,八日町一丁目１－１０,市役所前 市道 ワンテン庁舎 市道側 フェンス,38.9076276,141.5704157,
宮城県,気仙沼市,22,太田一丁目４－１０,角星酒造工場　石塀,38.90908530000001,141.5754927,
宮城県,気仙沼市,23,笹が陣４－２,市民会館　西側　角　植込み,38.9007761,141.5728832,
宮城県,気仙沼市,24,幸町三丁目２－１,幸町住宅　道路沿い　植込み,38.8984371,141.5762741,
宮城県,気仙沼市,25,弁天町二丁目８１－５,masked,38.894787,141.580582,緯度経度は怪しい
宮城県,気仙沼市,26,masked,masked,38.953163,141.572815,緯度経度は怪しい
宮城県,気仙沼市,27,masked,masked,38.9657279,141.5633967,
宮城県,気仙沼市,28,上東側根１９,鹿折金山入口バス停　前,38.9747919,141.5583817,
宮城県,気仙沼市,29,東中才１９６,masked,38.9347996,141.5814015,
宮城県,気仙沼市,30,西中才４５２,中央橋　西側　ごみ集積所　脇,38.935867,141.577072,緯度経度は怪しい
宮城県,気仙沼市,31,西八幡町５４－１,鹿折小学校　南側フェンス　県道側,38.922328,141.5817472,
宮城県,気仙沼市,32,東八幡前１４５－１,東陵高等学校入口　空地,38.921875,141.586258,緯度経度は怪しい
宮城県,気仙沼市,33,錦町１丁目　地内,錦町西公園　南側,38.914227,141.582275,緯度経度は怪しい
宮城県,気仙沼市,34,中みなと町５,鹿折公民館　西側　土手,38.9170616,141.583327,
宮城県,気仙沼市,35,浪板３７２-６,大浦防集団地入口　北側　県道敷,38.908539,141.589386,緯度経度は怪しい
宮城県,気仙沼市,36,二の浜１９１－２４　地先,梶ケ浦ふれあいセンター付近　市道法面,38.887783,141.60437,緯度経度は怪しい
宮城県,気仙沼市,37,小々汐９１－４７,小々汐コミュニティーセンター　脇　土手,38.8899924,141.6009204,
宮城県,気仙沼市,38,赤岩舘森３４－１,masked,38.8864599,141.5748157,
宮城県,気仙沼市,39,松崎五駄鱈５,松岩小学校　東側　フェンス,38.8785685,141.5724969,
宮城県,気仙沼市,40,赤岩港３３７－１　地先,赤岩港水産加工団地入口付近　市道法面,38.88726,141.581528,緯度経度は怪しい
宮城県,気仙沼市,41,松崎浦田１４３－１,松岩公民館　西側　フェンス,38.87904109999999,141.5763679,
宮城県,気仙沼市,42,赤岩泥ノ木３０,市営赤岩住宅跡地,38.8804543,141.569016,
宮城県,気仙沼市,43,松崎前浜１３９－８,前浜精義会館　軒下,38.8804135,141.5865854,
宮城県,気仙沼市,44,松崎柳沢１８０,松岩中学校前バス停　市道,38.877056,141.562653,緯度経度は怪しい
宮城県,気仙沼市,45,赤岩牧沢　地内,牧沢団地　入口　市道,38.878902,141.549271,緯度経度は怪しい
宮城県,気仙沼市,46,杉の沢８－１４,杉ノ沢鉄塔付近緑地帯（コミュニティーセンター市道向い）,38.90807,141.570068,緯度経度は怪しい
宮城県,気仙沼市,47,赤岩牧沢４４－１８０,気仙沼市総合体育館　入口付近　法面,38.8817152,141.5535716,
宮城県,気仙沼市,48,松崎高谷１４３－１,畠昭ハイツ　前　土手（市道）,38.87114,141.574112,緯度経度は怪しい
宮城県,気仙沼市,49,松崎高谷２９９,面瀬地域ふれあいセンター　フェンス,38.8690399,141.5753943,
宮城県,気仙沼市,50,松崎下赤田５８,面瀬小学校　プール　北側フェンス,38.8670279,141.5726763,
宮城県,気仙沼市,51,松崎猫渕１０６－２,masked,38.866001,141.546692,緯度経度は怪しい
宮城県,気仙沼市,52,松崎下金取７３,金取バス停付近　土手,38.857395,141.536865,緯度経度は怪しい
宮城県,気仙沼市,53,赤岩大滝７０　地先,大石倉自治会館　前　県道,38.8779565,141.5374783,
宮城県,気仙沼市,54,赤岩四十二４３,masked,38.8586024,141.5227971,
宮城県,気仙沼市,55,茗荷沢３－２,竹の里（カフェ桃李の花）　南側　土手,38.9035233,141.5485194,
宮城県,気仙沼市,56,東新城二丁目１－２,気仙沼市社会福祉協議会　フェンス,38.9092039,141.5496983,
宮城県,気仙沼市,57,大林１１７－１,国道284号　大林バス停　背後地,38.911819,141.537582,緯度経度は怪しい
宮城県,気仙沼市,58,内松川４　地先,masked,38.9220313,141.5437583,
宮城県,気仙沼市,59,茗荷沢２１６－４,佐々木産業　北側　フェンス,38.9042403,141.5402762,
宮城県,気仙沼市,60,川崎尻４８－１,前木郵便局付近　土手,38.9168416,141.503162,
宮城県,気仙沼市,61,象ケ鼻３５,旧落合小学校　入口　土手,38.909477,141.493423,緯度経度は怪しい
宮城県,気仙沼市,62,落合２４３,下廿一会館　前　市道,38.9042886,141.4963686,
宮城県,気仙沼市,63,小芦２５５－１　地先,上廿一会館　脇　ごみ集積所付近　市道,38.899761,141.486832,緯度経度は怪しい
宮城県,気仙沼市,64,masked,masked,38.9178186,141.4972455,
宮城県,気仙沼市,65,早稲谷１４１,八瀬地域郷土文化保存伝承館　軒下,38.94754229999999,141.5322895,
宮城県,気仙沼市,66,芳ノ口９－１,masked,38.9608981,141.5218347,
宮城県,気仙沼市,67,下八瀬９９－５　地先,masked,38.927402,141.520828,緯度経度は怪しい
宮城県,気仙沼市,68,台　地内,台バス停　前　市道,38.937878,141.513794,緯度経度は怪しい
宮城県,気仙沼市,69,長磯後沢４０,masked,38.8467562,141.5773821,
宮城県,気仙沼市,70,長磯原ノ沢１１－１,階上大谷土地改良区事務所 前  土手,38.8374884,141.5740793,
宮城県,気仙沼市,71,長磯七半沢３　地内,長磯浜北住宅　南側　ごみ集積所　脇,38.8420145,141.5853302,
宮城県,気仙沼市,72,最知北最知８－１　　地先,最知駅入口交差点付近ごみ集積所　脇,38.852406,141.577652,緯度経度は怪しい
宮城県,気仙沼市,73,長磯船原２０,階上公民館　駐車場　フェンス,38.8401051,141.5805177,
宮城県,気仙沼市,74,波路上後原３９　地内,波路上自治会館　駐車場　東側,38.8346709,141.5797365,
宮城県,気仙沼市,75,岩月千岩田１１０ 地先,岩月バス停　後ろ　畑,38.865383,141.582306,緯度経度は怪しい
宮城県,気仙沼市,76,岩月星谷１６４－１,面瀬中学校南側交差点　市道,38.858547,141.574463,緯度経度は怪しい
宮城県,気仙沼市,77,岩月箒沢５６－６,青葉が丘団地　入口　土手,38.862499,141.555099,緯度経度は怪しい
宮城県,気仙沼市,78,中山１１５－４,大島開発総合センター前,38.8471668,141.6199212,
宮城県,気仙沼市,79,masked,masked,38.841341,141.6201492,
宮城県,気仙沼市,80,要害７６,要害バス停付近,38.8476018,141.6163821,
宮城県,気仙沼市,81,masked,masked,38.8416126,141.625484,
宮城県,気仙沼市,82,高井４０,大島公民館　駐車場フェンス,38.8554655,141.6160496,
宮城県,気仙沼市,83,外畑７９,コイン洗車場　向い　県道,38.8641109,141.6214532,
宮城県,気仙沼市,84,長崎１４８,masked,38.856391,141.620504,
宮城県,気仙沼市,85,田尻７８,masked,38.8626851,141.6101003,
宮城県,気仙沼市,86,浦の浜８９－１　地先,浦の浜自治会館向い　県道緑地,38.866554,141.617462,緯度経度は怪しい
宮城県,気仙沼市,87,唐桑町崎浜１３－５,大立浜バス停  前,38.862385,141.670212,緯度経度は怪しい
宮城県,気仙沼市,88,唐桑町崎浜２６１－１,長浜バス停　前,38.8642189,141.6633167,
宮城県,気仙沼市,89,唐桑町津本３９－１,津本バス停　前,38.8664121,141.6612979,
宮城県,気仙沼市,90,masked,masked,38.8680808,141.6650104,
宮城県,気仙沼市,91,唐桑町津本２－２,大日神社　前,38.866074,141.660034,緯度経度は怪しい
宮城県,気仙沼市,92,masked,masked,38.8734755,141.6613213,
宮城県,気仙沼市,93,唐桑町松圃１３１－１,松圃バス停  前,38.871693,141.655777,緯度経度は怪しい
宮城県,気仙沼市,94,唐桑町中井１３４－１,中井小学校前バス停,38.880013,141.653671,緯度経度は怪しい
宮城県,気仙沼市,95,唐桑町中井１７０－１,masked,38.8798131,141.656601,
宮城県,気仙沼市,96,唐桑町中井９２－１,中井公民館　前,38.8819239,141.656547,
宮城県,気仙沼市,97,masked,masked,38.8851921,141.6601384,
宮城県,気仙沼市,98,唐桑町上小鯖１３４-６,小鯖集会所　土手,38.883526,141.6517845,
宮城県,気仙沼市,99,唐桑町宿浦３３６－６,masked,38.8977068,141.6414585,
宮城県,気仙沼市,100,唐桑町鮪立２６９－１　地先,masked,38.8930298,141.6397831,
宮城県,気仙沼市,101,唐桑町馬場１０７－２,元ローソン向い　県道沿い（宿自治会花壇脇）,38.90506389999999,141.6486082,
宮城県,気仙沼市,102,唐桑町宿浦１１４－１０,明戸大橋東側旧道（デマンドバス停宿８－７）,38.900257,141.6409,緯度経度は怪しい
宮城県,気仙沼市,103,唐桑町東舞根１０７-３０,舞根第２防集団地内　ごみ集積所　脇,38.908016,141.61499,緯度経度は怪しい
宮城県,気仙沼市,104,唐桑町浦１３１－５,舞根集会所　土手,38.9056156,141.6334764,
宮城県,気仙沼市,105,唐桑町中１２１,半造入口バス停　前,38.894581,141.658432,緯度経度は怪しい
宮城県,気仙沼市,106,唐桑町小長根２０４－１,丸藤旅館脇　畑,38.889694,141.660492,緯度経度は怪しい
宮城県,気仙沼市,107,唐桑町北中６４－１９,賽の神バス停　前,38.897587,141.651962,緯度経度は怪しい
宮城県,気仙沼市,108,唐桑町石浜５０－１,石浜バス停　前,38.915997,141.636215,緯度経度は怪しい
宮城県,気仙沼市,109,唐桑町高石浜１９２－１,高石浜バス停　前,38.917171,141.647049,緯度経度は怪しい
宮城県,気仙沼市,110,唐桑町高石浜２８２－８,福祉の里バス停　前,38.917171,141.647049,緯度経度は怪しい
宮城県,気仙沼市,111,唐桑町只越９１－３　地先,只越公衆トイレ　手前　空地,38.930618,141.614304,緯度経度は怪しい
宮城県,気仙沼市,112,唐桑町堂角４５－４１　地先,只越防集団地（咲山団地）法面,38.93344159999999,141.6374486,
宮城県,気仙沼市,113,唐桑町舘１７５－１,新田前バス停　脇　空地,38.94875,141.625702,緯度経度は怪しい
宮城県,気仙沼市,114,唐桑町港１５１番１　地内,大沢水道ポンプ場　北側　土手,38.9599872,141.6298769,
宮城県,気仙沼市,115,唐桑町小田８７－９,小田国道入口,38.940491,141.639297,緯度経度は怪しい
宮城県,気仙沼市,116,本吉町蔵内１５－１　地先,蔵内仮設住宅跡地付近　ごみ集積所脇,38.749092,141.5237681,
宮城県,気仙沼市,117,本吉町今朝磯５８,浜区多目的集会場　法面,38.7588549,141.5275499,
宮城県,気仙沼市,118,本吉町菅の沢９３－４　地先,市道｢旧国道菅の沢線」起点付近,38.7601733,141.5120677,
宮城県,気仙沼市,119,本吉町外尾１７９－２　地先,小泉地区防集団地入口　土手　（グリーンロード沿い）,38.756424,141.497009,緯度経度は怪しい
宮城県,気仙沼市,120,本吉町平貝２９－１,小泉公民館　北側　法面,38.76025,141.504517,緯度経度は怪しい
宮城県,気仙沼市,121,本吉町卯名沢１０５－４　地先,在区コミュニティセンター　入口　土手,38.7764624,141.5039146,
宮城県,気仙沼市,122,本吉町幣掛１９２－３,幣掛ふれあい会館　入口　西側,38.7775069,141.4863966,
宮城県,気仙沼市,123,本吉町寺要害５７－３,金山入口バス停付近,38.775757,141.46077,緯度経度は怪しい
宮城県,気仙沼市,124,本吉町馬籠町３５－２,須賀神社　入口付近,38.776161,141.445374,緯度経度は怪しい
宮城県,気仙沼市,125,masked,masked,38.777622,141.429428,緯度経度は怪しい
宮城県,気仙沼市,126,本吉町大柴３６－３,大柴バス停　脇,38.766666,141.419388,緯度経度は怪しい
宮城県,気仙沼市,127,本吉町漆原１１－１　地先,漆原コミュニティセンター　向い,38.786022,141.448868,緯度経度は怪しい
宮城県,気仙沼市,128,本吉町猪の鼻２３７－２,旧松ヶ沢振興会館　脇,38.770054,141.477631,緯度経度は怪しい
宮城県,気仙沼市,129,本吉町猪の鼻１３６－６,猪の鼻橋付近,38.770054,141.477631,緯度経度は怪しい
宮城県,気仙沼市,130,本吉町岳の下１６９－１,masked,38.790665,141.488785,緯度経度は怪しい
宮城県,気仙沼市,131,本吉町津谷松岡１２６,津谷小学校　南門　フェンス,38.79041489999999,141.5071516,
宮城県,気仙沼市,132,本吉町津谷新明戸１３６,はまなす文化タウン前駐車場,38.7938993,141.5022923,
宮城県,気仙沼市,133,本吉町津谷舘岡２－１,本吉総合支所　下側　草地,38.796322,141.508362,緯度経度は怪しい
宮城県,気仙沼市,134,本吉町東川内１６４－１,下川内多目的集会場付近,38.811756,141.487961,緯度経度は怪しい
宮城県,気仙沼市,135,本吉町津谷長根７３－１,吸上バス停付近,38.7928319,141.5155832,
宮城県,気仙沼市,136,本吉町風越２３－１,風越コミュニティセンター沿い市道,38.7902803,141.5165358,
宮城県,気仙沼市,137,本吉町大沢98-2,大沢生活改善センター脇,38.79460694086222, 141.52040916088134,
宮城県,気仙沼市,138,本吉町登米沢　９－７　地先,(株)ガイアートＴＫ作業所入口付近　ゴミ集積所脇,38.7869506,141.5088951,
宮城県,気仙沼市,139,本吉町上川内９９－１,平山バス停付近,38.838444,141.467957,緯度経度は怪しい
宮城県,気仙沼市,140,本吉町中川内１１０－１　地先,masked,38.8143209,141.4749816,
宮城県,気仙沼市,141,本吉町坊の倉１５２－４,坊の倉地区農林漁家婦人活動施設　前,38.806633,141.505783,緯度経度は怪しい
宮城県,気仙沼市,142,本吉町坊の倉２５８,狼の巣多目的集会所付近　土手,38.8157598,141.5033472,
宮城県,気仙沼市,143,masked,masked,38.8006312,141.5119865,
宮城県,気仙沼市,144,本吉町林の沢４５－１３,林の沢振興会館　前　駐車場,38.7989622,141.517279,
宮城県,気仙沼市,145,masked,masked,38.8033467,141.5325922,
宮城県,気仙沼市,146,本吉町府中５９－５,清凉院　東側入口　手前　空地,38.810345,141.538239,緯度経度は怪しい
宮城県,気仙沼市,147,本吉町山谷４７－４,日門バス停　背後地,38.813015,141.544785,緯度経度は怪しい
宮城県,気仙沼市,148,本吉町九多丸２５－１　地先,masked,38.81426829999999,141.5608312,
宮城県,気仙沼市,149,本吉町天ヶ沢１２２－１　地先,masked,38.8039473,141.5547714,
宮城県,気仙沼市,150,本吉町寺谷２１－４,寺谷コミュニティセンター　前,38.8198468,141.562377,
宮城県,気仙沼市,151,本吉町大谷３１３－８,masked,38.8164792,141.5729933,
宮城県,気仙沼市,152,本吉町野々下８１－８,ＮＴＴ東日本宮城支店　大谷電話交換所向い,38.822731,141.574341,緯度経度は怪しい
宮城県,気仙沼市,153,本吉町直伝２－１,masked,38.8314239,141.5628409,
宮城県,気仙沼市,154,本吉町石川原１０７－９６,上郷地区コミュニティセンター　前,38.8379297,141.5550803,
宮城県,気仙沼市,155,本吉町長根２３１－５,はまなす台住宅団地付近　市道,38.821243,141.568085,緯度経度は怪しい
宮城県,気仙沼市,156,本吉町長根１８６－３７,大谷西防集団地　ゴミ集積所脇,38.8229556,141.5685426,
