prefecture,city,number,address,name,lat,long
宮城県,涌谷町,第１投票区,涌谷町字三十軒屋敷９番地,三十軒・九軒多目的集会所,38.548742,141.0692954
宮城県,涌谷町,第１投票区,涌谷町字五反田１８８番地１,九軒集会所,38.54488389999999,141.0848042
宮城県,涌谷町,第１投票区,涌谷町字一本柳２番地５先,丸石ストア向,38.5483481,141.1053388
宮城県,涌谷町,第１投票区,涌谷町字中島乙２１番地,二の袋生活センター,38.5528835,141.1022093
宮城県,涌谷町,第１投票区,涌谷町字新中島乙９４番地１,新丁頭公会堂,38.5535719,141.1098262
宮城県,涌谷町,第１投票区,涌谷町字関谷沖名１９３番地１,大崎広域東部事業所交差点,38.542569,141.0954181
宮城県,涌谷町,第１投票区,涌谷町字一本柳５３番地,masked,38.5494026,141.1025953
宮城県,涌谷町,第１投票区,涌谷町字一本柳１０４番地,masked,38.54858309999999,141.1048853
宮城県,涌谷町,第２投票区,涌谷町字立町４番地,涌谷町勤労福祉センター東側,38.5425171,141.1263613
宮城県,涌谷町,第２投票区,涌谷町字蔵人沖名２４２番地,涌谷幼稚園前,38.5471692,141.118824
宮城県,涌谷町,第２投票区,涌谷町字田沼町３９番地先,田沼町停留所隣,38.5492629,141.1248627
宮城県,涌谷町,第２投票区,涌谷町字立町４番地,涌谷町勤労福祉センター西側,38.5425171,141.1263613
宮城県,涌谷町,第２投票区,涌谷町字六軒町裏６８番地２先,薬王堂脇,38.5431682,141.1203203
宮城県,涌谷町,第２投票区,涌谷町字六軒町裏８４番地２,六軒町裏集会所,38.5443994,141.1219569
宮城県,涌谷町,第２投票区,涌谷町字刈萱町１１番地,涌谷第一小学校駐車場,38.5436741,141.1284973
宮城県,涌谷町,第３投票区,涌谷町字新町裏１５３番地２,涌谷町役場庁舎前,38.5397004,141.1282093
宮城県,涌谷町,第３投票区,涌谷町字新町裏１５３番地２,涌谷町役場庁舎西側,38.5397004,141.1282093
宮城県,涌谷町,第３投票区,涌谷町字新町４０番地,ひだまり広場,38.54121809999999,141.1275305
宮城県,涌谷町,第３投票区,涌谷町字渋江１７５番地,東北アルプス工場前,38.5380482,141.1201961
宮城県,涌谷町,第３投票区,涌谷町字渋江４０番地先,渋江西入口,38.5380482,141.1201961
宮城県,涌谷町,第３投票区,涌谷町字桑木荒３番地２先,ファミリーマート涌谷渋江店先交差点,38.5342298,141.1223282
宮城県,涌谷町,第３投票区,涌谷町字新町７９番地,八雲児童館,38.5404948,141.1250555
宮城県,涌谷町,第４投票区,涌谷町字田町裏２０１番地,鈴木建設作業場前,38.5343781,141.128455
宮城県,涌谷町,第４投票区,涌谷町字下道６９番地１,涌谷公民館,38.5310718,141.1324535
宮城県,涌谷町,第４投票区,涌谷町字烏鴉１番地１,市道集会所,38.5270939,141.1507308
宮城県,涌谷町,第４投票区,涌谷町字石坂道東一１８番地,花勝山石坂集落センタ－,38.5328391,141.1755364
宮城県,涌谷町,第４投票区,涌谷町字浦町１番地１先,浦町集積所脇,38.5368193,141.1326135
宮城県,涌谷町,第４投票区,涌谷町字長柄町４３番地１,安住商店前,38.5368764,141.1318424
宮城県,涌谷町,第４投票区,涌谷町字桑木荒１５８番地４,北上川下流河川事務所向,38.5330275,141.1274398
宮城県,涌谷町,第４投票区,涌谷町字桑木荒１２７番地７,のびのび広場,38.5328158,141.124478
宮城県,涌谷町,第５投票区,涌谷町涌谷字千間江441番地4先,瀧不動入口交差点隣,38.53311739999999,141.1545899
宮城県,涌谷町,第５投票区,涌谷町涌谷字追戸一１５番地1,高橋商店脇,38.5420827,141.1557512
宮城県,涌谷町,第５投票区,涌谷町涌谷字新滝ノ沢22番地1,瀧の沢生活センター,38.54121809999999,141.1275305
宮城県,涌谷町,第５投票区,涌谷町小塚字高田３２番地２,月山ふれあいセンター入口,38.5270891,141.1720209
宮城県,涌谷町,第５投票区,涌谷町猪岡短台字酌子27番地2,佐藤商店西側,38.5320962,141.1755715
宮城県,涌谷町,第５投票区,涌谷町小塚字権現田一１８番地３,貝坂集積所付近,38.5329286,141.1742961
宮城県,涌谷町,第５投票区,涌谷町小塚字笠石山３９番地先,笠石山集積所付近,38.5390077,141.1796546
宮城県,涌谷町,第６投票区,涌谷町涌谷字内作田二１９番地１３,箟岳山登り口,38.5465459,141.1477005
宮城県,涌谷町,第６投票区,涌谷町涌谷字日向町５５番地,日向公会堂,38.5439177,141.1375188
宮城県,涌谷町,第６投票区,涌谷町涌谷字新下町浦１８５番地,中地区コミュニティセンター,38.5397632,141.1392319
宮城県,涌谷町,第６投票区,涌谷町涌谷字黄金迫北２番地１,黄金地区会館,38.5520044,141.1403179
宮城県,涌谷町,第６投票区,涌谷町涌谷字新下町浦１９２番地,ゆうらいふ,38.5394152,141.1411623
宮城県,涌谷町,第６投票区,涌谷町涌谷字鮫川４７番１地先,イオンＳＣ前交差点,38.5350354,141.1536059
宮城県,涌谷町,第６投票区,涌谷町涌谷字千間江５２番地先,涌谷町土地改良区入口,38.5356338,141.1450965
宮城県,涌谷町,第６投票区,涌谷町涌谷字中江南２７８番地,医療福祉センター,38.53923959999999,141.1494637
宮城県,涌谷町,第７投票区,涌谷町涌谷字上谷地九１２２番地,上谷地部落共同文化センター,38.5552258,141.1029405
宮城県,涌谷町,第７投票区,涌谷町涌谷字上谷地六２３番地３,上谷地入口（上郡）,38.5557662,141.0963421
宮城県,涌谷町,第７投票区,涌谷町上郡字沼頭６２番地５,上地区生活センター,38.5671823,141.1004361
宮城県,涌谷町,第７投票区,涌谷町上郡字永根１番地２,涌谷町立さくらんぼこども園入口,38.5622542,141.1147678
宮城県,涌谷町,第７投票区,涌谷町涌谷字境沢一１番地１先,上町下郡交差点付近,38.5573869,141.1254009
宮城県,涌谷町,第７投票区,涌谷町上郡字玉崎山５３番地１,上地区コミュニティセンター,38.5715835,141.1020708
宮城県,涌谷町,第７投票区,涌谷町下郡字台２３番地先,小牛田農林高校演習林入口,38.5685553,141.1194334
宮城県,涌谷町,第７投票区,涌谷町上郡字上郡沢２９番地２,わくや万葉苑前,38.5746104,141.1028556
宮城県,涌谷町,第８投票区,涌谷町成澤字古賀沢１６番地１,成澤公会堂,38.56975060000001,141.1531144
宮城県,涌谷町,第８投票区,涌谷町小里字菅ノ沢８番地,菅ノ沢バス停留所前,38.5729701,141.1405277
宮城県,涌谷町,第８投票区,涌谷町小里字新一の坪８６番地,旧小里幼稚園前,38.5832504,141.1529656
宮城県,涌谷町,第８投票区,涌谷町小里字右堂崎１５番地８,右堂崎集積所脇,38.5855231,141.1486471
宮城県,涌谷町,第８投票区,涌谷町小里字大平２３番地２０,松崎公民館前,38.5914121,141.13819
宮城県,涌谷町,第８投票区,涌谷町小里字五郎沢６９番地,脇会館前,38.5811765,141.1642731
宮城県,涌谷町,第８投票区,涌谷町小里字長根南７０番地,長根会館前,38.59729129999999,141.1535583
宮城県,涌谷町,第８投票区,涌谷町小里字長根北８９番地先,長根ポンプ置き場脇,38.5965351,141.1661954
宮城県,涌谷町,第９投票区,涌谷町箟岳字神楽岡２番地,箟岳観音堂前,38.5644635,141.178617
宮城県,涌谷町,第９投票区,涌谷町太田字舟ヶ沢８番地１,ゆうらいふ箟岳地域ケアセンター前,38.5727792,141.1849126
宮城県,涌谷町,第９投票区,涌谷町太田字欠下３４番地３,旧箟岳土地改良区前,38.5771997,141.1772749
宮城県,涌谷町,第９投票区,涌谷町太田字堂ヶ崎４０番地,堂ヶ崎公会堂前,38.583247,141.177107
宮城県,涌谷町,第９投票区,涌谷町小里字岸ヶ森４５番地,生栄巻生活共同利用センター前,38.5958989,141.1872785
宮城県,涌谷町,第９投票区,涌谷町太田字南太田１番地２,谷地太田公会堂,38.5777355,141.1896594
宮城県,涌谷町,第９投票区,涌谷町太田字欠下４２番地,沢田会館,38.5762096,141.1759599
宮城県,涌谷町,第９投票区,涌谷町小里字岸ヶ森西519番地,八幡・岸ヶ森西　三差路,38.5887994,141.1686761
宮城県,涌谷町,第１０投票区,涌谷町猪岡短台字笠石58番地1,笠石公会堂,38.541221,141.1869709
宮城県,涌谷町,第１０投票区,涌谷町猪岡短台字元桑畑121番地1,短台公会堂,38.542229,141.2037507
宮城県,涌谷町,第１０投票区,涌谷町猪岡短台字窪田１８番１地先,masked,38.5531515,141.1947893
宮城県,涌谷町,第１０投票区,涌谷町吉住字不動沢４番地,ののだけ幼稚園前駐車場,38.5623661,141.1931701
宮城県,涌谷町,第１０投票区,涌谷町吉住字梅田２５番地１,吉住運動広場,38.564315,141.1949777
宮城県,涌谷町,第１０投票区,涌谷町吉住字山崎２５番地１,新田公会堂,38.5735295,141.1922376
宮城県,涌谷町,第１０投票区,涌谷町吉住字馬追畑２５番地１１,馬追会館,38.5675968,141.2112374
宮城県,涌谷町,第１０投票区,涌谷町猪岡短台字大谷地１６番地２４２,大谷地集落センター付近交差点,38.5554247,141.2251243
宮城県,涌谷町,第１０投票区,涌谷町猪岡短台字大谷地３３番地１４６先,大谷地下バス停付近,38.5429393,141.2249679
