prefecture,city,number,address,name,lat,long,note
宮城県,白石市,1,大手町３０－３,城下広場入口南側,38.002274,140.619873,緯度経度は怪しい
宮城県,白石市,2,沢端町５２－４,神石しろいし北側,38.00462,140.617981,緯度経度は怪しい
宮城県,白石市,3,西益岡町２５０－１,広瀬医院向,38.00428,140.613174,緯度経度は怪しい
宮城県,白石市,4,字本町１０７－１,専念寺東側,38.002773,140.623306,緯度経度は怪しい
宮城県,白石市,5,西益岡町２０－１,武家屋敷駐車場南側,38.00428,140.613174,緯度経度は怪しい
宮城県,白石市,6,益岡町８８－１地内,市営球場南側,38.002186,140.616119,緯度経度は怪しい
宮城県,白石市,7,沢端町１０５－９地内,白石分団第１３班消防詰所西側,38.00462,140.617981,緯度経度は怪しい
宮城県,白石市,8,字延命寺６７－２,延命寺児童公園東側,38.009274,140.624207,緯度経度は怪しい
宮城県,白石市,9,字柳川原地内,masked,38.013943,140.627228,緯度経度は怪しい
宮城県,白石市,10,字半沢屋敷前６０,宍戸鍼灸療院南西側,38.011097,140.62384,緯度経度は怪しい
宮城県,白石市,11,字半沢屋敷前３３－４、３４－１,白石第一小学校北側,38.010265,140.622284,緯度経度は怪しい
宮城県,白石市,12,字亘理町３７－１、３７－３,情報センター（アテネ）西側,38.007771,140.621552,緯度経度は怪しい
宮城県,白石市,13,大川町１１１－２,渡辺製材所北側,38.008736,140.618576,緯度経度は怪しい
宮城県,白石市,14,南町一丁目３６３－３，３６４－２,福祉プラザやまぶき北側,37.999523,140.619278,緯度経度は怪しい
宮城県,白石市,15,南町一丁目１２８－１地内,白石中学校南側,37.999523,140.619278,緯度経度は怪しい
宮城県,白石市,16,南町二丁目地内,masked,37.996025,140.61821,緯度経度は怪しい
宮城県,白石市,17,田町二丁目１８０－１,高橋牧場西側,37.992863,140.622101,緯度経度は怪しい
宮城県,白石市,18,字白石沖６７－１,白石第二小学校西側,37.998707,140.623932,緯度経度は怪しい
宮城県,白石市,19,字本町６１－１,中央公園南側,38.000565,140.623474,緯度経度は怪しい
宮城県,白石市,20,字銚子ヶ森１０－１４,清原歯科北側,38.00061,140.62735,緯度経度は怪しい
宮城県,白石市,21,東町一丁目１－１１,masked,37.9967083,140.6273034,
宮城県,白石市,22,緑が丘１－１１２,鷹巣地区コミュニティセンター北側,38.0006041,140.6370908,
宮城県,白石市,23,緑が丘８－１,緑が丘県営住宅向,38.0011518,140.6394057,
宮城県,白石市,24,寿山８－７４,白石ソーイング入口,38.0032468,140.6313938,
宮城県,白石市,25,寿山６０－１２０,寿山会館東側,38.002335,140.633255,緯度経度は怪しい
宮城県,白石市,26,字寺屋敷前６１－２,中央公民館入口脇,38.005898,140.628433,緯度経度は怪しい
宮城県,白石市,27,字寺屋敷前７０－１、７３－１,㈲髙橋材木店東側,38.005898,140.628433,緯度経度は怪しい
宮城県,白石市,28,郡山字花見平１８－３６,花見平入口,38.004311,140.637512,緯度経度は怪しい
宮城県,白石市,29,郡山字鹿野２９－１,奈良工業所北側,38.006401,140.638611,緯度経度は怪しい
宮城県,白石市,30,松ヶ丘一丁目４－１,松ヶ丘第１公園北側,38.004784,140.646042,緯度経度は怪しい
宮城県,白石市,31,郡山字鍋石山２－６５,鍋石山入口,38.005455,140.643127,緯度経度は怪しい
宮城県,白石市,32,郡山字観音崎１７４,観音崎児童公園西側,38.008568,140.633652,緯度経度は怪しい
宮城県,白石市,33,郡山字平成１２２－１,masked,38.012871,140.632355,緯度経度は怪しい
宮城県,白石市,34,郡山字江坪地内,ＪＲ江坪踏切東側,38.021011,140.636627,緯度経度は怪しい
宮城県,白石市,35,小下倉字岩崎山３９－１,masked,38.023121,140.637726,緯度経度は怪しい
宮城県,白石市,36,小下倉字六角元５５－２,小下倉集会所東側,38.025822,140.637192,緯度経度は怪しい
宮城県,白石市,37,鷹巣西二丁目４－１１，４－１２,互助センターフローラ倉庫北側,37.9993056,140.6338282,
宮城県,白石市,38,鷹巣東二丁目１－１,キューブ西側,37.9965429,140.6379026,
宮城県,白石市,39,鷹巣東三丁目６－６,石松園北側,37.9973005,140.6428185,
宮城県,白石市,40,鷹巣東一丁目１０－３,スーパーコインランドリー白石蔵王店東側,37.9958732,140.6342768,
宮城県,白石市,41,旭町五丁目２－１,市営桜田住宅集積所北側,37.9911685,140.6333832,
宮城県,白石市,42,越河字町屋敷地内,深山神社東側,37.923248,140.583908,緯度経度は怪しい
宮城県,白石市,43,越河字町屋敷２０,masked,37.923248,140.583908,緯度経度は怪しい
宮城県,白石市,44,越河字石坊町２１－１,masked,37.923248,140.583908,緯度経度は怪しい
宮城県,白石市,45,越河五賀字南原２－１,越河公民館前,37.939785,140.591934,緯度経度は怪しい
宮城県,白石市,46,越河五賀字南台５１－２,パール美容室西側,37.939785,140.591934,緯度経度は怪しい
宮城県,白石市,47,越河五賀字宮下４９－１,masked,37.939785,140.591934,緯度経度は怪しい
宮城県,白石市,48,越河平字中妻前６－３,masked,37.929077,140.615814,緯度経度は怪しい
宮城県,白石市,49,越河平字麦田１－６,越河第６班ポンプ場置場東側,37.929077,140.615814,緯度経度は怪しい
宮城県,白石市,50,越河五賀字馬場台３５－１,第４班ポンプ場置場北側,37.939785,140.591934,緯度経度は怪しい
宮城県,白石市,51,越河五賀字古屋敷２５－４,越河第７区集会所南側,37.939785,140.591934,緯度経度は怪しい
宮城県,白石市,52,越河五賀字八幡地内,masked,37.939785,140.591934,緯度経度は怪しい
宮城県,白石市,53,越河平字石神１７－１,masked,37.929077,140.615814,緯度経度は怪しい
宮城県,白石市,54,斎川字中屋敷前１－１,masked,37.948582,140.599533,緯度経度は怪しい
宮城県,白石市,55,斎川字馬牛地内,千葉生花店向い,37.957184,140.610947,緯度経度は怪しい
宮城県,白石市,56,斎川字当町頭１５,斎川第２班ポンプ場置場北側,37.957184,140.610947,緯度経度は怪しい
宮城県,白石市,57,斎川字地官地内,旧斎川小学校正門南側,37.967445,140.611206,緯度経度は怪しい
宮城県,白石市,58,斎川字新町尻３１,斎川公民館前,37.963139,140.61264,緯度経度は怪しい
宮城県,白石市,59,斎川字下山ノ入１５－２,携帯無線中継所北側,37.9543,140.613907,緯度経度は怪しい
宮城県,白石市,60,斎川字沼前６－３,上鹿の子集会所西側,37.960171,140.622986,緯度経度は怪しい
宮城県,白石市,61,斎川字下鹿ノ子沖４１,下鹿の子農村センター南側,37.97525,140.609833,緯度経度は怪しい
宮城県,白石市,62,斎川字谷地５－１,masked,37.971382,140.625763,緯度経度は怪しい
宮城県,白石市,63,斎川字地蔵院舘４－１,masked,37.967445,140.611206,緯度経度は怪しい
宮城県,白石市,64,斎川字中斎川西５２、５３,中斎川転作研修センター東側,37.970661,140.608047,緯度経度は怪しい
宮城県,白石市,65,斎川字中斎川西２０６,斎川道祖神社南側,37.970661,140.608047,緯度経度は怪しい
宮城県,白石市,66,大平森合字北六角地内,下森合集会所前,37.993782,140.606979,緯度経度は怪しい
宮城県,白石市,67,大平森合字白川前畑地内,masked,37.987064,140.606186,緯度経度は怪しい
宮城県,白石市,68,大平中目字舘前１５－１,旧第五班ポンプ場北側,37.979317,140.609482,緯度経度は怪しい
宮城県,白石市,69,大平中目字太平前７７－１,太平前信号機南側,37.981201,140.611938,緯度経度は怪しい
宮城県,白石市,70,大平中目字西田７,大平公民館前,37.984665,140.616913,緯度経度は怪しい
宮城県,白石市,71,大平坂谷字大柳前１０,masked,37.983589,140.625702,緯度経度は怪しい
宮城県,白石市,72,上久保地内,上久保バス停留所脇,37.991932,140.616226,緯度経度は怪しい
宮城県,白石市,73,上久保１０２－１０,masked,37.991932,140.616226,緯度経度は怪しい
宮城県,白石市,74,城南一丁目地内,動物病院南側,37.99448,140.613205,緯度経度は怪しい
宮城県,白石市,75,大鷹沢三沢字宮下１２６－１,宮下バス停留所脇,37.993664,140.63678,緯度経度は怪しい
宮城県,白石市,76,大鷹沢三沢字五丁目４８,大鷹沢公民館前,37.968002,140.658234,緯度経度は怪しい
宮城県,白石市,77,大鷹沢三沢字五丁目１１２－１,光陽舎クリーニングセンター北側,37.968002,140.658234,緯度経度は怪しい
宮城県,白石市,78,大鷹沢三沢字五丁目１９５－２,旧大鷹沢体育館西側,37.968002,140.658234,緯度経度は怪しい
宮城県,白石市,79,大鷹沢三沢字黒内地内,黒内バス停留所脇,37.968002,140.658234,緯度経度は怪しい
宮城県,白石市,80,大鷹沢三沢字黒内地内,第４区集会所脇,37.968002,140.658234,緯度経度は怪しい
宮城県,白石市,81,三沢字十鉢７４－１,第５区公民館前,37.9566942,140.6584549,緯度経度は怪しい
宮城県,白石市,82,三沢字高岡田地内,市道斎川線入口,38.002445,140.619904,緯度経度は怪しい
宮城県,白石市,83,大鷹沢三沢字東沢２４,東沢十字路東側,37.968002,140.658234,緯度経度は怪しい
宮城県,白石市,84,大鷹沢三沢字市道４４－１８４,masked,37.968002,140.658234,緯度経度は怪しい
宮城県,白石市,85,大鷹沢大町字十文字地内,矢ノ口入口三差路,37.981552,140.671249,緯度経度は怪しい
宮城県,白石市,86,大鷹沢大町字矢ノ口西地内,masked,37.981552,140.671249,緯度経度は怪しい
宮城県,白石市,87,大鷹沢大町字若林１３１－１２,不忘園前バス停留所前,37.981552,140.671249,緯度経度は怪しい
宮城県,白石市,88,大鷹沢大町字塔ノ入地内,青木製作所脇西側市有地,37.981552,140.671249,緯度経度は怪しい
宮城県,白石市,89,大鷹沢大町字宮在家１０３－６,宮在家バス停留所脇,37.981552,140.671249,緯度経度は怪しい
宮城県,白石市,90,大鷹沢大町字弓附２－３,masked,37.981552,140.671249,緯度経度は怪しい
宮城県,白石市,91,大鷹沢大町字愛宕２３６,愛宕地内集積所脇,37.981552,140.671249,緯度経度は怪しい
宮城県,白石市,92,大鷹沢鷹巣字白坂下１０－１,旧第１２区集会所東側,38.003773,140.656998,緯度経度は怪しい
宮城県,白石市,93,白川内親字安久戸地内,東白石駅前,38.032192,140.662582,緯度経度は怪しい
宮城県,白石市,94,白川内親字荒地内,masked,38.032192,140.662582,緯度経度は怪しい
宮城県,白石市,95,白川内親字佐野２,内親集会所前,38.032192,140.662582,緯度経度は怪しい
宮城県,白石市,96,白川内親字内親１２１,masked,38.032192,140.662582,緯度経度は怪しい
宮城県,白石市,97,白川津田字小路南１－１,第２区集会所前,38.021587,140.681046,緯度経度は怪しい
宮城県,白石市,98,白川津田字小路屋敷５０－１,masked,38.021587,140.681046,緯度経度は怪しい
宮城県,白石市,99,白川津田字内堀１－２,白川公民館前,38.021587,140.681046,緯度経度は怪しい
宮城県,白石市,100,白川津田字越田５－１,個人所有駐車場,38.021587,140.681046,緯度経度は怪しい
宮城県,白石市,101,白川小奥字表前７１,白川水稲生産組合前,38.030842,140.701859,緯度経度は怪しい
宮城県,白石市,102,白川津田字中丸地内,椚林バス停留所前,38.021587,140.681046,緯度経度は怪しい
宮城県,白石市,103,白川津田字稗田地内,masked,38.021587,140.681046,緯度経度は怪しい
宮城県,白石市,104,白川津田字大淵３０,第４区集会所前,38.021587,140.681046,緯度経度は怪しい
宮城県,白石市,105,白川津田字後安入２－１,masked,38.021587,140.681046,緯度経度は怪しい
宮城県,白石市,106,白川津田字赤丸地内,masked,38.021587,140.681046,緯度経度は怪しい
宮城県,白石市,107,白川津田字山神８１－２,masked,38.021587,140.681046,緯度経度は怪しい
宮城県,白石市,108,白川犬卒都婆字吉ノ入８－２,masked,37.999535,140.676285,緯度経度は怪しい
宮城県,白石市,109,白川犬卒都婆字広町２１,masked,37.999535,140.676285,緯度経度は怪しい
宮城県,白石市,110,白川犬卒都婆字荻窪尻１５－１,masked,37.999535,140.676285,緯度経度は怪しい
宮城県,白石市,111,白川犬卒都婆字岩ノ上４０－２,犬卒都婆公会堂駐車場,37.999535,140.676285,緯度経度は怪しい
宮城県,白石市,112,白川犬卒都婆字羽山１０,ミニストップ北側,37.999535,140.676285,緯度経度は怪しい
宮城県,白石市,113,福岡長袋字中ノ狐沢北２９－１,ＪＡみやぎ仙南福岡支店向かい,38.014057,140.6194,緯度経度は怪しい
宮城県,白石市,114,福岡長袋字陣場が丘１２－１,福岡公民館前,38.014656,140.618881,緯度経度は怪しい
宮城県,白石市,115,福岡長袋字岩崎２,岩崎集会所前,38.017471,140.625443,緯度経度は怪しい
宮城県,白石市,116,福岡長袋字中河原５－２,天津沢バス停留所脇,38.013035,140.618454,緯度経度は怪しい
宮城県,白石市,117,福岡長袋字河原沢５７,masked,38.017624,140.609985,緯度経度は怪しい
宮城県,白石市,118,福岡蔵本字天津沢南地内,公立刈田綜合病院北側,38.008595,140.563004,緯度経度は怪しい
宮城県,白石市,119,福岡長袋字三部山２２－３,masked,38.019432,140.607666,緯度経度は怪しい
宮城県,白石市,120,福岡長袋字上ノ神明前地内,高野商店脇,38.024067,140.615784,緯度経度は怪しい
宮城県,白石市,121,福岡長袋字鹿ノ下２－１,蔵王高原フーズ向い,38.023731,140.621506,緯度経度は怪しい
宮城県,白石市,122,長袋字小倉山１３６－１,南部山集会所前,38.006203,140.622482,緯度経度は怪しい
宮城県,白石市,123,蔵本字中原地内,中原ポンプ小屋脇,38.002445,140.619904,緯度経度は怪しい
宮城県,白石市,124,八宮字川原子地内,川原子バス停留所前,37.99958,140.614426,緯度経度は怪しい
宮城県,白石市,125,八宮字川原子上９４－８,川原子上・沼分岐点,37.99958,140.614426,緯度経度は怪しい
宮城県,白石市,126,福岡長袋字石淵１６－５,割山バス停留所向,38.020245,140.581268,緯度経度は怪しい
宮城県,白石市,127,福岡八宮字弥治郎北１１１,弥治郎集会所脇,38.02763,140.575333,緯度経度は怪しい
宮城県,白石市,128,福岡八宮字中ノ川２９－１,馬場先バス停留所前,38.026936,140.611053,緯度経度は怪しい
宮城県,白石市,129,福岡八宮字原８－２,八宮生活センター北側,38.027744,140.60997,緯度経度は怪しい
宮城県,白石市,130,福岡八宮字芹沢３６－２,masked,38.027775,140.597824,緯度経度は怪しい
宮城県,白石市,131,八宮字西３３,masked,37.99958,140.614426,緯度経度は怪しい
宮城県,白石市,132,福岡深谷字岩見柴２９,masked,38.037209,140.611511,緯度経度は怪しい
宮城県,白石市,133,福岡深谷字上高野地内,西区上集会所前,38.037334,140.614838,緯度経度は怪しい
宮城県,白石市,134,福岡深谷字青木後１４,masked,38.030964,140.627548,緯度経度は怪しい
宮城県,白石市,135,福岡深谷字地蔵堂地内,地蔵堂前,38.029453,140.629044,緯度経度は怪しい
宮城県,白石市,136,福岡深谷字南沖２１,深谷公民館前,38.034641,140.629807,緯度経度は怪しい
宮城県,白石市,137,福岡深谷字松田３３－４,福岡分団南班ポンプ場脇,38.035919,140.628113,緯度経度は怪しい
宮城県,白石市,138,福岡深谷字沢地内,masked,38.04015,140.635773,緯度経度は怪しい
宮城県,白石市,139,福岡深谷字梅ノ木３０－３,エネオス４号白石インター店西側,38.061996,140.58725,緯度経度は怪しい
宮城県,白石市,140,福岡深谷字鴫内地内,木須商店北側,38.044949,140.633667,緯度経度は怪しい
宮城県,白石市,141,福岡深谷字即安１５－２,masked,38.061996,140.58725,緯度経度は怪しい
宮城県,白石市,142,福岡深谷字三住７０－３,深谷小学校三住分校前,38.032356,140.633774,緯度経度は怪しい
宮城県,白石市,143,福岡深谷字三住５６－１,masked,38.032356,140.633774,緯度経度は怪しい
宮城県,白石市,144,福岡八宮字不忘山１３２－７,masked,38.052368,140.527512,緯度経度は怪しい
宮城県,白石市,145,福岡八宮字不忘山１０９－６,不忘研修センター前,38.052368,140.527512,緯度経度は怪しい
宮城県,白石市,146,福岡八宮字不忘山２４９,masked,38.052368,140.527512,緯度経度は怪しい
宮城県,白石市,147,福岡八宮字不忘山地内,萩平バス停留所,38.052368,140.527512,緯度経度は怪しい
宮城県,白石市,148,福岡蔵本字石神一番７４－４,石神バス停留所前,38.002602,140.587936,緯度経度は怪しい
宮城県,白石市,149,福岡蔵本字尾箆地内,尾箆集会所前,38.007008,140.595139,緯度経度は怪しい
宮城県,白石市,150,福岡蔵本字原屋敷地内,滝上会館前,38.003075,140.595413,緯度経度は怪しい
宮城県,白石市,151,福岡蔵本字薬師堂９４－２,薬師の湯向,38.006493,140.603592,緯度経度は怪しい
宮城県,白石市,152,福岡蔵本字滝下地内,滝下会館向,38.008595,140.563004,緯度経度は怪しい
宮城県,白石市,153,福岡蔵本字樋ノ口１－１,佐藤商店向,38.008595,140.563004,緯度経度は怪しい
宮城県,白石市,154,福岡蔵本字下り川二番３２－１,東北自動車縦貫道ガード下,38.013165,140.600845,緯度経度は怪しい
宮城県,白石市,155,福岡蔵本字西町３３,白石市土地改良区事務所脇,38.000546,140.609787,緯度経度は怪しい
宮城県,白石市,156,福岡八宮字坂ノ上１２－３,大網担い手センター前,38.029903,140.610153,緯度経度は怪しい
宮城県,白石市,157,福岡八宮字大網前地内,masked,38.052368,140.527512,緯度経度は怪しい
宮城県,白石市,158,福岡八宮字坂ノ上１４－５２,masked,38.029903,140.610153,緯度経度は怪しい
宮城県,白石市,159,小原字町１４,清光寺南側,37.952137,140.545883,緯度経度は怪しい
宮城県,白石市,160,小原字町３６,旧下戸沢公会堂向,37.952137,140.545883,緯度経度は怪しい
宮城県,白石市,161,小原字江志堤下９６－１,冷清水集会所向,37.952137,140.545883,緯度経度は怪しい
宮城県,白石市,162,小原字鹿込２０－３,masked,37.952137,140.545883,緯度経度は怪しい
宮城県,白石市,163,小原字下川久保地内,大熊掲示板南側,37.952137,140.545883,緯度経度は怪しい
宮城県,白石市,164,小原字古原１２９,大熊公会堂脇,37.952137,140.545883,緯度経度は怪しい
宮城県,白石市,165,小原字古原１０２－３,masked,37.952137,140.545883,緯度経度は怪しい
宮城県,白石市,166,小原字東地内,masked,37.952137,140.545883,緯度経度は怪しい
宮城県,白石市,167,小原字塩倉３３,旧小原保育園駐車場,37.952137,140.545883,緯度経度は怪しい
宮城県,白石市,168,小原字伊勢原道下１－２,学校下バス停留所脇,37.952137,140.545883,緯度経度は怪しい
宮城県,白石市,169,小原字中北前田３－２,小原公民館前,37.952137,140.545883,緯度経度は怪しい
宮城県,白石市,170,小原字福蔵１７－１,追の倉バス停留所脇,37.952137,140.545883,緯度経度は怪しい
宮城県,白石市,171,小原字植竹３－２、３－３,新町集会所前,37.952137,140.545883,緯度経度は怪しい
宮城県,白石市,172,小原字三本木２９－６,白沢橋南側,37.952137,140.545883,緯度経度は怪しい
宮城県,白石市,173,小原字西川久保５－８,石屋前バス停留所前,37.975807,140.560837,緯度経度は怪しい
宮城県,白石市,174,小原字小日向４２－１,小日向橋西側,37.97559,140.558502,緯度経度は怪しい
宮城県,白石市,175,小原字湯元地内,小原温泉入口,37.982853,140.561783,緯度経度は怪しい
宮城県,白石市,176,小原字新湯地内,新湯バス停留所脇,37.99165,140.565506,緯度経度は怪しい
