prefecture,city,number,address,name,lat,long,note
宮城県,石巻市,1,泉町１丁目１番２号,旧中央児童館前フェンス,38.4281061,141.3053221,
宮城県,石巻市,2,泉町１丁目１番２号,石巻小学校坂下通フェンス,38.4281204,141.3052945,
宮城県,石巻市,3,羽黒町１丁目１番地２,市役所職員駐車場,38.4300808,141.305135,
宮城県,石巻市,4,日和が丘２丁目１１番８号,市立桜坂高等学校西側フェンス,38.4226855,141.3048872,
宮城県,石巻市,5,日和が丘２丁目２番内,日和山公園西側生垣,38.422691,141.307495,緯度経度は怪しい
宮城県,石巻市,6,田代浜字仁斗田１３７番地先,masked,38.298565,141.417587,緯度経度は怪しい
宮城県,石巻市,7,田代浜字大泊地内,大泊公衆トイレ西側道路敷,38.298565,141.417587,緯度経度は怪しい
宮城県,石巻市,8,泉町４丁目７番１５号,石巻中学校正門側フェンス,38.4282419,141.298044,
宮城県,石巻市,9,泉町４丁目７番１５号,石巻中学校グラウンド側フェンス,38.4282419,141.298044,
宮城県,石巻市,10,泉町３丁目１番,泉町緑地東側柵,38.4300807,141.2988862,
宮城県,石巻市,11,泉町４丁目１３番１５号,市営泉町復興住宅ゴミ集積所脇,38.4267771,141.2937256,
宮城県,石巻市,12,大手町３番内,大手町ちびっこ広場東側フェンス,38.4254336,141.2994687,
宮城県,石巻市,13,大手町８番２１号,石巻保育所フェンス,38.4238486,141.2979013,
宮城県,石巻市,14,大手町３番１５号,石巻高等学校北側フェンス,38.4245937,141.2999977,
宮城県,石巻市,15,門脇町３丁目６番１９号,市営門脇東復興住宅フェンス,38.421121,141.3075321,
宮城県,石巻市,16,日和が丘４丁目９番内,開発５４７号公園北側柵,38.4208479,141.3013092,
宮城県,石巻市,17,門脇町５丁目７番４０号,市営門脇西復興住宅東側緑地,38.4202762,141.3023342,
宮城県,石巻市,18,大橋１丁目２番１号,開北小学校西側フェンス,38.4429896,141.3142598,
宮城県,石巻市,19,住吉町２丁目４番２７号,住吉小学校東側フェンス,38.4376523,141.3119844,
宮城県,石巻市,20,住吉町１丁目４番,住吉会館駐車場,38.4344967,141.3118628,
宮城県,石巻市,21,大橋２丁目２８番地,大橋南公園フェンス,38.439548,141.31546,緯度経度は怪しい
宮城県,石巻市,22,水明北３丁目１１番地内,袋谷地東公園西側柵,38.445339,141.322723,緯度経度は怪しい
宮城県,石巻市,23,水明南１丁目１３番地内,袋谷地南公園西側柵,38.441891,141.320984,緯度経度は怪しい
宮城県,石巻市,24,水明北２丁目８番地内,袋谷地北児童公園南側フェンス,38.444073,141.317825,緯度経度は怪しい
宮城県,石巻市,25,石巻駅前北通り４丁目３番地内,駅前ちびっこ広場東側フェンス,38.446316,141.317368,緯度経度は怪しい
宮城県,石巻市,26,東中里２丁目１番１号,旧宮城県東部土木事務所フェンス,38.4403131,141.3088014,
宮城県,石巻市,27,駅前北通り２丁目９番２１号地先,旧石巻中里メリー保育園前グリーンロード柵,38.4382488,141.3043382,
宮城県,石巻市,28,南中里２丁目７番地内,新中里南公園南側,38.4400456,141.3021921,
宮城県,石巻市,29,東中里３丁目３番１号,住吉中学校正門側フェンス,38.4426218,141.306625,
宮城県,石巻市,30,大橋１丁目地内,大橋一丁目ミニストップ向かい歩道,38.44378341,141.3108348,
宮城県,石巻市,31,大橋１丁目８番２号,みやぎ生協石巻大橋店県道側,38.4446869,141.3085297,
宮城県,石巻市,32,開北３丁目１番地内,水押公園西側柵,38.446682,141.30687,緯度経度は怪しい
宮城県,石巻市,33,水押２丁目１１番２０号,水押保育所フェンス,38.4473759,141.3011744,
宮城県,石巻市,34,開北２丁目２番２７号,masked,38.4442295,141.303258,
宮城県,石巻市,35,水押１丁目４号,市営水押住宅集会所脇地,38.444775,141.30159,緯度経度は怪しい
宮城県,石巻市,36,南中里３丁目９番３４号,宮城県石巻職員寮北側フェンス,38.4393397,141.2995659,
宮城県,石巻市,37,中里３丁目１２番地内,北上公園西側柵,38.4433076,141.2986195,
宮城県,石巻市,38,南中里４丁目２番内,新中里西公園西側柵,38.4392324,141.2955126,
宮城県,石巻市,39,中里７丁目６番内,中里七丁目公園南側柵,38.4450475,141.2936904,
宮城県,石巻市,40,中里６丁目１番地内,新境谷地南公園線路側,38.4418072,141.2918192,
宮城県,石巻市,41,大街道東３丁目１２番地内,三軒屋公園西側フェンス,38.425598,141.284531,緯度経度は怪しい
宮城県,石巻市,42,大街道南１丁目３番１号,大街道小学校フェンス,38.42844,141.2819537,
宮城県,石巻市,43,大街道南２丁目１番地内,開発２７号公園南側,38.4266839,141.2824651,
宮城県,石巻市,44,築山２丁目６番地内,開発１０４８号公園南側フェンス,38.4266481,141.2766802,
宮城県,石巻市,45,大街道西２丁目５番１号,釜小学校西側フェンス,38.4324683,141.27406,
宮城県,石巻市,46,築山１丁目５番地内,開発７８号公園南側,38.4280638,141.2751644,
宮城県,石巻市,47,三ツ股１丁目２番６０号,市営三ツ股第一復興住宅,38.428801,141.270913,
宮城県,石巻市,48,新館３丁目６番１１０号,市営新館復興住宅西側,38.4266033,141.2647321,
宮城県,石巻市,49,門脇字浦屋敷７５番地４,開発５６４公園,38.423836,141.261826,緯度経度は怪しい
宮城県,石巻市,50,新館２丁目１番,開発９１５公園,38.4248709,141.2653353,
宮城県,石巻市,51,三ツ股２丁目８番１号,市営三ツ股第二復興住宅敷地,38.427095,141.2727357,
宮城県,石巻市,52,門脇字元明神４０番地１,上釜ふれあい広場向い駐車場柵,38.426533,141.250076,緯度経度は怪しい
宮城県,石巻市,53,三ツ股２丁目２番地内,三ツ股三角ちびっこ広場,38.4274439,141.2721076,
宮城県,石巻市,54,門脇字青葉東１０４番地内,開発５００号公園,38.434898,141.269241,緯度経度は怪しい
宮城県,石巻市,55,門脇字二番谷地１３番地６６,青葉会館植込み,38.432362,141.264511,緯度経度は怪しい
宮城県,石巻市,56,門脇字二番谷地１３番地１５９,masked,38.432362,141.264511,緯度経度は怪しい
宮城県,石巻市,57,門脇字二番谷地１３番地,masked,38.432362,141.264511,緯度経度は怪しい
宮城県,石巻市,58,門脇字二番谷地１３番地３１２,市営二番谷地復興住宅東側ゴミ集積所脇,38.432362,141.264511,緯度経度は怪しい
宮城県,石巻市,59,鋳銭場８番内,ＪＲ石巻駅入り口脇,38.4347569,141.3043671,
宮城県,石巻市,60,鋳銭場９番内,ＪＲ石巻駅裏ロータリー,38.4351408,141.3045424,
宮城県,石巻市,61,立町２丁目５番１２号,七十七銀行石巻支店北側フェンス,38.433016,141.3054006,
宮城県,石巻市,62,穀町１２番１号,石巻市防災センターフェンス,38.4337859,141.3032842,
宮城県,石巻市,63,羽黒町２丁目９番地内,山下小学校東向緑地フェンス,38.432974,141.2971144,
宮城県,石巻市,64,田道町２丁目５番１号,masked,38.43639,141.292007,緯度経度は怪しい
宮城県,石巻市,65,錦町６番地内,開発３７９号公園西側フェンス,38.4374853,141.2886263,
宮城県,石巻市,66,西山町３番地内,開発１８１号公園,38.4330989,141.2917833,
宮城県,石巻市,67,双葉町８番１７号,石巻日日新聞社フェンス,38.4248236,141.2921177,
宮城県,石巻市,68,双葉町４番２６号,大街道浄水場入口側フェンス,38.428493,141.2926271,
宮城県,石巻市,69,貞山１丁目１番６号,masked,38.4318053,141.2887447,
宮城県,石巻市,70,大街道東１丁目１０番内,日本製紙所有空き地,38.4270954,141.2893974,
宮城県,石巻市,71,大街道北２丁目３番地内,開発２２７公園,38.4316732,141.2834921,
宮城県,石巻市,72,貞山１丁目１２番内,開発２６８公園,38.4344116,141.2859154,
宮城県,石巻市,73,貞山５丁目７番地内,新横堤公園柵,38.4377111,141.2827944,
宮城県,石巻市,74,貞山５丁目３番２号,山下中学校フェンス,38.4379865,141.2853143,
宮城県,石巻市,75,貞山３丁目６番地先,masked,38.4360243,141.2806779,
宮城県,石巻市,76,貞山４丁目６番地内,開発１１０号公園,38.4358767,141.282688,
宮城県,石巻市,77,貞山３丁目７番地内,開発３２０号公園,38.4352875,141.28026,
宮城県,石巻市,78,不動町２丁目８番地内,コミュニティハウスふどう,38.4351491,141.3175812,
宮城県,石巻市,79,八幡町１丁目６番地内,箱崎八幡宮社務所フェンス,38.4292677,141.3140787,
宮城県,石巻市,80,吉野町１丁目３番２１号,湊小学校校庭国道沿い,38.4272456,141.3165213,
宮城県,石巻市,81,湊字御所入１３８番地,御所入公園南側柵,38.424278,141.322952,緯度経度は怪しい
宮城県,石巻市,82,松並２丁目７番地,松並公園北側柵,38.417381,141.331177,緯度経度は怪しい
宮城県,石巻市,83,明神町２丁目１番,湊東４号公園東側,38.41685318,141.3222938,緯度経度は怪しい
宮城県,石巻市,84,大門町３丁目４番地内,湊東２号公園南側,38.419357,141.322968,緯度経度は怪しい
宮城県,石巻市,85,緑町１丁目８番地,筒場公園西側柵,38.417797,141.337997,緯度経度は怪しい
宮城県,石巻市,86,伊原津２丁目１１５番地１,北伊原津バス停横ゴミ集積所脇,38.419704,141.33728,緯度経度は怪しい
宮城県,石巻市,87,鹿妻南１丁目１０番地内,鹿妻西公園東側柵,38.420795,141.3394106,
宮城県,石巻市,88,鹿妻北２丁目２番１号,鹿妻小学校東側フェンス,38.4230604,141.3467184,
宮城県,石巻市,89,鹿妻南２丁目７番地内,鹿妻東公園南側柵,38.4209985,141.3428759,
宮城県,石巻市,90,鹿妻北１丁目４番内,鹿妻第五公園北側柵,38.423329,141.3435253,
宮城県,石巻市,91,鹿妻南１丁目１４番地内,鹿妻第二公園西側柵,38.4216903,141.3407894,
宮城県,石巻市,92,鹿妻北２丁目８番地,鹿妻第四公園南側柵,38.4262813,141.346139,
宮城県,石巻市,93,あけぼの３丁目７番地,あけぼの北公園東側フェンス,38.453938,141.274689,緯度経度は怪しい
宮城県,石巻市,94,あけぼの２丁目９番地内,あけぼの南公園西側柵,38.45092,141.272842,緯度経度は怪しい
宮城県,石巻市,95,蛇田字南久林３２番地,masked,38.456127,141.261292,緯度経度は怪しい
宮城県,石巻市,96,蛇田字土和田４５番地６,浜江場会館脇畑地,38.457039,141.257675,緯度経度は怪しい
宮城県,石巻市,97,蛇田字下谷地４番地,masked,38.439499,141.277603,緯度経度は怪しい
宮城県,石巻市,98,蛇田字新埣寺２５４番地２,masked,38.441914,141.273239,緯度経度は怪しい
宮城県,石巻市,99,蛇田字新埣寺１９１番地内,蛇田歩道橋下緑地,38.442589,141.277557,緯度経度は怪しい
宮城県,石巻市,100,蛇田字新下前沼６９番地４,新下前沼公園北側ブロック柵,38.437561,141.274078,緯度経度は怪しい
宮城県,石巻市,101,蛇田字新下前沼１１０番地,新下前沼西公園西側ブロック塀,38.437214,141.269272,緯度経度は怪しい
宮城県,石巻市,102,蛇田字新東前沼５９番地１,開発１２５号公園東側フェンス,38.438072,141.266846,緯度経度は怪しい
宮城県,石巻市,103,蛇田字新下前沼１３６番地内,開発１５５公園,38.436905,141.265625,緯度経度は怪しい
宮城県,石巻市,104,蛇田字新埣寺５４番地内,開発５１９号公園,38.439056,141.27301,緯度経度は怪しい
宮城県,石巻市,105,恵み野５丁目地内,恵み野自然公園南側柵,38.442707,141.264954,緯度経度は怪しい
宮城県,石巻市,106,蛇田字上中埣９７番地１,蛇田小学校東側フェンス,38.44482,141.279022,緯度経度は怪しい
宮城県,石巻市,107,蛇田字新金沼４０６番地１,蛇田保育所北側フェンス,38.444714,141.273178,緯度経度は怪しい
宮城県,石巻市,108,恵み野４丁目２番地８,恵み野中央公園西側,38.4420398,141.2686298,
宮城県,石巻市,109,向陽町４丁目７番地内,蛇田中央公園南側フェンス,38.451096,141.277405,緯度経度は怪しい
宮城県,石巻市,110,向陽町４丁目９番１１号,向陽コミュニティセンター正門脇フェンス,38.4517861,141.2791834,
宮城県,石巻市,111,向陽町２丁目１５番,蛇田団地北児童公園西側柵,38.449627,141.281418,緯度経度は怪しい
宮城県,石巻市,112,向陽町２丁目１番地内,向陽町東緑地,38.4486206,141.2837317,
宮城県,石巻市,113,向陽町５丁目８番,蛇田新下堀公園南側,38.4502555,141.275057,
宮城県,石巻市,114,蛇田字新上沼８１番地,蛇田浄水場入口側フェンス,38.451504,141.286179,緯度経度は怪しい
宮城県,石巻市,115,わかば２丁目１４番地内,わかば北公園北側柵,38.456184,141.280945,緯度経度は怪しい
宮城県,石巻市,116,新境町１丁目７番地,新境町公園北側柵,38.446091,141.287247,緯度経度は怪しい
宮城県,石巻市,117,蛇田字西境谷地１０４番地,西境谷地公園柵,38.447758,141.287323,緯度経度は怪しい
宮城県,石巻市,118,あけぼの北１丁目１４番地内,あけぼの北中央公園,38.457188,141.277084,緯度経度は怪しい
宮城県,石巻市,119,のぞみ野２丁目４７番地,のぞみ野中央公園,38.447231,141.261002,緯度経度は怪しい
宮城県,石巻市,120,のぞみ野５丁目２９番地,のぞみ野西公園,38.443565,141.25769,緯度経度は怪しい
宮城県,石巻市,121,のぞみ野２丁目３３番地,のぞみ野東公園,38.447231,141.261002,緯度経度は怪しい
宮城県,石巻市,122,のぞみ野１丁目１２番地,のぞみ野南公園,38.444077,141.261673,緯度経度は怪しい
宮城県,石巻市,123,のぞみ野４丁目３７番地,のぞみ野北公園,38.446533,141.258347,緯度経度は怪しい
宮城県,石巻市,124,茜平５丁目３番１号,蛇田中学校体育館フェンス,38.4465564,141.2644288,
宮城県,石巻市,125,あゆみ野４丁目３５番地,あゆみ野通り公園,38.451275,141.274506,緯度経度は怪しい
宮城県,石巻市,126,あゆみ野５丁目４番地,あゆみ野公園西側,38.451275,141.274506,緯度経度は怪しい
宮城県,石巻市,127,あゆみ野４丁目２１番地,あゆみ野駅前公園,38.451275,141.274506,緯度経度は怪しい
宮城県,石巻市,128,あゆみ野１丁目１３番地,あゆみ野東公園,38.451275,141.274506,緯度経度は怪しい
宮城県,石巻市,129,あゆみ野１丁目１番地,市営新西前沼第二復興住宅３号棟東側,38.451275,141.274506,緯度経度は怪しい
宮城県,石巻市,130,福貴浦字福貴屋敷３１-１番地先,masked,38.352242,141.450226,緯度経度は怪しい
宮城県,石巻市,131,狐崎浜字狐崎屋敷２８番地先,masked,38.350311,141.430954,緯度経度は怪しい
宮城県,石巻市,132,牧浜字竹浜道２２番地２,旧東浜小学校フェンス前,38.364128,141.44104,緯度経度は怪しい
宮城県,石巻市,133,竹浜字狐崎道８番地９,市営竹浜復興住宅地先空き地,38.359478,141.431442,緯度経度は怪しい
宮城県,石巻市,134,侍浜字侍浜１４番地先,侍浜漁港入口前空き地,38.385628,141.436981,緯度経度は怪しい
宮城県,石巻市,135,荻浜字白浜山７番地２,荻浜支所入口,38.382294,141.449921,緯度経度は怪しい
宮城県,石巻市,136,折浜字風越２６番地内,風越公園,38.40369,141.403275,緯度経度は怪しい
宮城県,石巻市,137,渡波字西ヶ崎３番地,masked,38.42791,141.350204,緯度経度は怪しい
宮城県,石巻市,138,新成１丁目５番,鹿松公園北側柵,38.427059,141.361771,緯度経度は怪しい
宮城県,石巻市,139,さくら町２丁目地内,さくら町西公園,38.43425,141.302734,緯度経度は怪しい
宮城県,石巻市,140,さくら町３丁目２６番地,さくら町北公園,38.43425,141.302734,緯度経度は怪しい
宮城県,石巻市,141,渡波字根岸前２３９番地,旧新千刈ちびっこ広場北側フェンス,38.421776,141.351059,緯度経度は怪しい
宮城県,石巻市,142,渡波字黄金浜１０８番地１,黄金浜会館空地,38.418388,141.35527,緯度経度は怪しい
宮城県,石巻市,143,浜松町５番地５,市営浜松町復興住宅敷地内緑地,38.4165707,141.3587168,
宮城県,石巻市,144,渡波字黄金浜１６０番地,市営黄金浜第一復興住宅敷地内,38.419472,141.357239,緯度経度は怪しい
宮城県,石巻市,145,小竹浜字小竹６６番地２,小竹浜バス停横空き地,38.386242,141.384842,緯度経度は怪しい
宮城県,石巻市,146,宇田川町１番地２４,宮城水産高等学校北側フェンス,38.4205701,141.3687786,
宮城県,石巻市,147,渡波町１丁目５番２２号,渡波小学校校庭国道沿い,38.4184165,141.3636725,
宮城県,石巻市,148,渡波町２丁目６番３１号,渡波支所南側フェンス,38.4170181,141.3668909,
宮城県,石巻市,149,渡波字神明３０番地１１,サンファントンネル入口交差点道路敷,38.414055,141.375305,緯度経度は怪しい
宮城県,石巻市,150,渡波町１丁目７番地内,渡波駅前トイレ脇緑地,38.4198766,141.3655947,
宮城県,石巻市,151,さくら町５丁目２５番地,さくら町南公園柵,38.43425,141.302734,緯度経度は怪しい
宮城県,石巻市,152,さくら町５丁目３３番地,さくら町東公園東側植栽,38.43425,141.302734,緯度経度は怪しい
宮城県,石巻市,153,垂水町３丁目９番地２,垂水三丁目公園西側柵,38.428764,141.370804,緯度経度は怪しい
宮城県,石巻市,154,流留字七勺２１番地,万石浦中学校北側フェンス,38.425133,141.372345,緯度経度は怪しい
宮城県,石巻市,155,流留字沖２１番地１７３,県営石巻渡波住宅公園,38.424896,141.376038,緯度経度は怪しい
宮城県,石巻市,156,流留字七勺４７番地１,流留ちびっこ広場北側フェンス,38.425133,141.372345,緯度経度は怪しい
宮城県,石巻市,157,流留字七勺９番地１,市営万石浦住宅集会所敷地内,38.425133,141.372345,緯度経度は怪しい
宮城県,石巻市,158,沢田字折立入２番地,masked,38.43531,141.384995,緯度経度は怪しい
宮城県,石巻市,159,沢田字志の畑１０７番地５,masked,38.438232,141.397675,緯度経度は怪しい
宮城県,石巻市,160,流留字町４１番地,masked,38.43079,141.377396,緯度経度は怪しい
宮城県,石巻市,161,南境字金沢前３７番地５２,㈱伊藤製鐵所グラウンド前フェンス,38.466576,141.309433,緯度経度は怪しい
宮城県,石巻市,162,開成１番地３５地先,ルネッサンス館西側道路沿い,38.4625308,141.3076113,
宮城県,石巻市,163,南境字新小堤１８番地,セイホクパーク石巻北側フェンス,38.455643,141.308533,緯度経度は怪しい
宮城県,石巻市,164,南境字新小堤１８番地,セイホクパーク石巻フットボールフィールド第１北側フェンス,38.455643,141.308533,緯度経度は怪しい
宮城県,石巻市,165,南境字新小堤１８番地,セイホクパーク石巻こども広場のびのびエリア側駐車場フェンス,38.455643,141.308533,緯度経度は怪しい
宮城県,石巻市,166,南境新小堤２５番地地先,総合運動公園バス停留所付近フェンス,38.457386,141.303818,緯度経度は怪しい
宮城県,石巻市,167,大瓜字棚橋２４番地,masked,38.456345,141.31778,緯度経度は怪しい
宮城県,石巻市,168,大瓜字内亀山１３１番地１,masked,38.454468,141.321152,緯度経度は怪しい
宮城県,石巻市,169,大瓜字井内９２番地,井内会館正面空き地,38.444542,141.328308,緯度経度は怪しい
宮城県,石巻市,170,新栄１丁目２５番地７,稲井支所東側フェンス,38.4464695,141.3355501,
宮城県,石巻市,171,新栄１丁目３番地,新栄西公園東側フェンス,38.446175,141.331772,緯度経度は怪しい
宮城県,石巻市,172,井内字二番８０番地１,陸前稲井駅前自転車置き場,38.445217,141.334824,緯度経度は怪しい
宮城県,石巻市,173,新栄２丁目１６番地内,新栄東公園,38.447296,141.337326,緯度経度は怪しい
宮城県,石巻市,174,大瓜字内八津６１番地,masked,38.457172,141.329254,緯度経度は怪しい
宮城県,石巻市,175,大瓜字鷲巣１３０番地,大瓜入生活センター前,38.455105,141.343735,緯度経度は怪しい
宮城県,石巻市,176,高木字二番,高木西部ゴミ集積所脇緑地,38.476482,141.349747,緯度経度は怪しい
宮城県,石巻市,177,高木字岡田２６番地１,鶴岡商店脇空き地,38.47279,141.359894,緯度経度は怪しい
宮城県,石巻市,178,水沼字横路４番地３,水沼西生活センター脇畑地,38.482056,141.374496,緯度経度は怪しい
宮城県,石巻市,179,水沼字亀山畑７番地先,亀山畑地区ゴミ集積所脇緑地,38.478649,141.378845,緯度経度は怪しい
宮城県,石巻市,180,真野字馬場前７７番地,旧真野小学校南側道路敷,38.468594,141.389999,緯度経度は怪しい
宮城県,石巻市,181,真野字内原１５０番地２,masked,38.472649,141.385406,緯度経度は怪しい
宮城県,石巻市,182,真野字小島１３０番地４,小島生活センター西側敷地奥,38.460182,141.3647,緯度経度は怪しい
宮城県,石巻市,183,真野字八の坪１１６番地２,旧稲井幼稚園南側水路沿い,38.447929,141.356155,緯度経度は怪しい
宮城県,石巻市,184,沢田字台４番地,裏沢田ちびっこ広場フェンス,38.443214,141.377106,緯度経度は怪しい
宮城県,石巻市,185,沼津字越田８番地１先,越田地区ごみ集積所脇道路敷,38.450989,141.377289,緯度経度は怪しい
宮城県,石巻市,186,成田字小塚裏畑５４番地,総合センター入口脇フェンス,38.517033,141.309631,緯度経度は怪しい
宮城県,石巻市,187,相野谷字旧会所前３２番地６,総合支所前ロータリー敷地,38.515705,141.313217,緯度経度は怪しい
宮城県,石巻市,188,相野谷字飯野川町２０８番地１,飯野川バス待合所敷地,38.514111,141.317734,緯度経度は怪しい
宮城県,石巻市,189,相野谷字今泉前３８番地３０,飯一小旧かしわ農園地内,38.516834,141.31955,緯度経度は怪しい
宮城県,石巻市,190,相野谷字五味前上８番地,masked,38.518055,141.322037,緯度経度は怪しい
宮城県,石巻市,191,相野谷字日影前１０６番地１,masked,38.525948,141.320099,緯度経度は怪しい
宮城県,石巻市,192,相野谷字山崎前５７番地１地先,山崎集会所向い道路敷,38.525948,141.320099,緯度経度は怪しい
宮城県,石巻市,193,中島字和泉沢畑二番１１６番地,masked,38.532871,141.329727,緯度経度は怪しい
宮城県,石巻市,194,中島字清水田畑１２２番地,masked,38.532871,141.329727,緯度経度は怪しい
宮城県,石巻市,195,中野字相野田７５番地１,中野林業センター道路向い雑種地,38.529545,141.345566,緯度経度は怪しい
宮城県,石巻市,196,中野字龍源寺山１６０番地１,masked,38.533821,141.358795,緯度経度は怪しい
宮城県,石巻市,197,皿貝字馬場３４番地６,皿貝班消防ポンプ置場脇,38.560692,141.344757,緯度経度は怪しい
宮城県,石巻市,198,皿貝字郷田５０番地５,masked,38.560692,141.344757,緯度経度は怪しい
宮城県,石巻市,199,馬鞍字土手下６０番地２地先,masked,38.556118,141.368454,緯度経度は怪しい
宮城県,石巻市,200,馬鞍字百目木１３番地,馬鞍老人憩の家敷地,38.556118,141.368454,緯度経度は怪しい
宮城県,石巻市,201,小船越字大縄場６７番地２,五十五人生活センター敷地,38.50985,141.280869,緯度経度は怪しい
宮城県,石巻市,202,小船越字一番一江１８番地１,masked,38.50985,141.280869,緯度経度は怪しい
宮城県,石巻市,203,小船越字四番一江１２６番地１,masked,38.50985,141.280869,緯度経度は怪しい
宮城県,石巻市,204,小船越字堤下８９番地,masked,38.492649,141.278061,緯度経度は怪しい
宮城県,石巻市,205,小船越字後３５番地地先,masked,38.50985,141.280869,緯度経度は怪しい
宮城県,石巻市,206,小船越字江向１１７,小船越字江向道路用地,38.50985,141.280869,緯度経度は怪しい
宮城県,石巻市,207,小船越字山畑４３３番地４,JA大谷地支店R45入口付近道路敷,38.502415,141.29921,緯度経度は怪しい
宮城県,石巻市,208,小船越字山畑２２５番地２地先,河川運動公園テニスコート東側緑地帯,38.507729,141.306046,緯度経度は怪しい
宮城県,石巻市,209,小船越字二子北下１番地３,道の駅 上品の郷トイレ西側,38.500893,141.295181,緯度経度は怪しい
宮城県,石巻市,210,小船越字矢倉３４番地１,河北川の上上納住宅道路向い畑地,38.513027,141.304428,緯度経度は怪しい
宮城県,石巻市,211,小船越字谷地６番地１,元後谷地排水機場前,38.516479,141.301834,緯度経度は怪しい
宮城県,石巻市,212,小船越字中門４６番地２,masked,38.51339,141.291031,緯度経度は怪しい
宮城県,石巻市,213,成田字境前１９９番地２,境会館敷地,38.519241,141.302094,緯度経度は怪しい
宮城県,石巻市,214,飯野字袖吉野３番地１,吉野老人憩の家道路向い畑地,38.525623,141.297958,緯度経度は怪しい
宮城県,石巻市,215,飯野字内吉野１３２番地１,masked,38.534061,141.287262,緯度経度は怪しい
宮城県,石巻市,216,飯野字宮前４１番地,本地老人憩の家敷地,38.534061,141.287262,緯度経度は怪しい
宮城県,石巻市,217,飯野字浦谷地沖６９番地１,新田交流会館脇児童公園地内,38.534061,141.287262,緯度経度は怪しい
宮城県,石巻市,218,飯野字宮下南１０８番地２地先,masked,38.534061,141.287262,緯度経度は怪しい
宮城県,石巻市,219,二子三丁目３番地２４,二子東町内会集会所敷地,38.498593,141.2979928,
宮城県,石巻市,220,二子二丁目１５番地１１,二子西町内会集会所敷地,38.4981407,141.2947526,
宮城県,石巻市,221,二子一丁目１０番地１８,二子南町内会集会所敷地,38.49688334,141.2949924,
宮城県,石巻市,222,北境字上待井１番地先,北境老人憩の家東側道路敷,38.474167,141.308823,緯度経度は怪しい
宮城県,石巻市,223,東福田字小谷地１７０番地１地先,東福田農事集会所脇道路敷,38.483006,141.321686,緯度経度は怪しい
宮城県,石巻市,224,東福田字岡谷地2番地先,masked,38.483006,141.321686,緯度経度は怪しい
宮城県,石巻市,225,大森字新大土１０番１地先,masked,38.506252,141.31163,緯度経度は怪しい
宮城県,石巻市,226,大森字大平３番地１,尾崎バス停留所脇道路敷,38.498882,141.31488,緯度経度は怪しい
宮城県,石巻市,227,大森字新町頭１１番地３前,辻堂地区県道石巻河北線道路敷,38.506252,141.31163,緯度経度は怪しい
宮城県,石巻市,228,三輪田字堀ノ内115番地先,㈲上品オート入口先道路敷,38.511875,141.341217,緯度経度は怪しい
宮城県,石巻市,229,大森字内田４３２番地３,大森公民館脇雑種地,38.498882,141.31488,緯度経度は怪しい
宮城県,石巻市,230,三輪田字中区前東22番地,masked,38.511875,141.341217,緯度経度は怪しい
宮城県,石巻市,231,三輪田字仲里前１２２番地地先,masked,38.511875,141.341217,緯度経度は怪しい
宮城県,石巻市,232,三輪田字梅木１０３番地,三輪田赤柴バス停前空地,38.511875,141.341217,緯度経度は怪しい
宮城県,石巻市,233,三輪田字竹ノ迫五百刈１０番地１地先,三輪田竹ノ迫バス停付近市道路肩,38.511875,141.341217,緯度経度は怪しい
宮城県,石巻市,234,福地字堤上１１２番地２地先,masked,38.520798,141.379211,緯度経度は怪しい
宮城県,石巻市,235,福地字町８６番地１,八幡神社前敷地,38.520798,141.379211,緯度経度は怪しい
宮城県,石巻市,236,福地字町１４９番地1,旧大川保育所跡地,38.520798,141.379211,緯度経度は怪しい
宮城県,石巻市,237,福地字前田１０８番地,福地防災倉庫脇道路敷,38.520798,141.379211,緯度経度は怪しい
宮城県,石巻市,238,福地字國土１３２番地８１,谷地ゲートボール場・公園敷地,38.520798,141.379211,緯度経度は怪しい
宮城県,石巻市,239,針岡字向田上道１１８番地,masked,38.514816,141.41481,緯度経度は怪しい
宮城県,石巻市,240,針岡字芦早５４番地１,masked,38.514816,141.41481,緯度経度は怪しい
宮城県,石巻市,241,釜谷字西宮山１０６番地２地先,入釜谷バス停留所脇道路敷,38.543697,141.436813,緯度経度は怪しい
宮城県,石巻市,242,雄勝町立浜字立浜２７番地３,立浜地区番屋脇法面,38.504856,141.520081,緯度経度は怪しい
宮城県,石巻市,243,雄勝町小島字和田１２３番地,雄心苑入口市有地,38.515469,141.488876,緯度経度は怪しい
宮城県,石巻市,244,雄勝町雄勝字下雄勝１２番地２９,雄勝中央団地会館,38.50544,141.439224,緯度経度は怪しい
宮城県,石巻市,245,雄勝町雄勝字寺４番地３,旧雄勝中学校敷地（百万本植樹付近）,38.50544,141.439224,緯度経度は怪しい
宮城県,石巻市,246,雄勝町雄勝字原５番地９,原地区消防ポンプ置場,38.50544,141.439224,緯度経度は怪しい
宮城県,石巻市,247,雄勝町名振字東４５番地１,名振コミュニティセンター入口,38.531273,141.491684,緯度経度は怪しい
宮城県,石巻市,248,雄勝町船越字天王山３３５番地１地先(国有林),市道船越大浜線道路敷船越入口三叉路付近,38.537125,141.519867,緯度経度は怪しい
宮城県,石巻市,249,雄勝町船越字荒２０４番地,荒地区集会所敷地内,38.537125,141.519867,緯度経度は怪しい
宮城県,石巻市,250,雄勝町水浜字小浜３０番地６,水浜地区入口Ｙ路地正面,38.500996,141.477707,緯度経度は怪しい
宮城県,石巻市,251,雄勝町水浜字水浜４６番地６,旧水浜漁村センター向い市有地,38.500996,141.477707,緯度経度は怪しい
宮城県,石巻市,252,雄勝町水浜字水浜１０５番地８,水浜漁村センター向い市有地,38.500996,141.477707,緯度経度は怪しい
宮城県,石巻市,253,雄勝町分浜字波板３３番地２,波板地区入口陸橋下付近,38.494537,141.488037,緯度経度は怪しい
宮城県,石巻市,254,雄勝町分浜字分浜１１７番地２,国道３９８号分浜地区入口,38.494537,141.488037,緯度経度は怪しい
宮城県,石巻市,255,雄勝町大須字船隠１番地２,大須集会所敷地内,38.522381,141.538834,緯度経度は怪しい
宮城県,石巻市,256,雄勝町大須字舘森５番地地先(公道),旧大須中学校入口前市有地,38.522381,141.538834,緯度経度は怪しい
宮城県,石巻市,257,雄勝町大須字大須２５１番地２,旧大須小学校入口前市有地,38.522381,141.538834,緯度経度は怪しい
宮城県,石巻市,258,雄勝町熊沢字大畑２番地４,熊沢地区入口道路敷,38.505852,141.536362,緯度経度は怪しい
宮城県,石巻市,259,雄勝町桑浜字羽坂３４番地２,羽坂漁港入口,38.493996,141.532211,緯度経度は怪しい
宮城県,石巻市,260,雄勝町桑浜字羽坂４１９番地,羽坂老人憩の家前市有地,38.493996,141.532211,緯度経度は怪しい
宮城県,石巻市,261,雄勝町桑浜字桑浜６５番地８,桑浜地区入口道路敷,38.493996,141.532211,緯度経度は怪しい
宮城県,石巻市,262,広渕字新田１８番地２,新田公会堂,38.459606,141.19455,緯度経度は怪しい
宮城県,石巻市,263,広渕字牛頭５番地１先,雁北集会所表,38.469536,141.190933,緯度経度は怪しい
宮城県,石巻市,264,広渕字町北７５番地１,河南学校給食センターフェンス,38.469158,141.203644,緯度経度は怪しい
宮城県,石巻市,265,広渕字町４７番地,masked,38.471016,141.208878,緯度経度は怪しい
宮城県,石巻市,266,広渕字馬場屋敷５１番地３,masked,38.474133,141.215866,緯度経度は怪しい
宮城県,石巻市,267,広渕字柏木前１３５番地,砂押会館フェンス,38.472946,141.224625,緯度経度は怪しい
宮城県,石巻市,268,広渕字舘前１２番地１先,masked,38.476292,141.214935,緯度経度は怪しい
宮城県,石巻市,269,広渕字砂四１番地１,柏木ふれあいセンターフェンス,38.476624,141.224518,緯度経度は怪しい
宮城県,石巻市,270,須江字山崎９２番地先,masked,38.465698,141.240768,緯度経度は怪しい
宮城県,石巻市,271,須江字新寺前２番地,西雲寺駐車場西側,38.470966,141.243439,緯度経度は怪しい
宮城県,石巻市,272,須江字沢尻２０番地２,河南山根中埣転作推進集落センター前フェンス,38.457054,141.246841,緯度経度は怪しい
宮城県,石巻市,273,須江字しらさぎ台３丁目３４番地,しらさぎ台コミュニティーセンターフェンス,38.468246,141.240311,緯度経度は怪しい
宮城県,石巻市,274,須江字しらさぎ台３丁目４１番地,しらさぎ台２号公園,38.468246,141.240311,緯度経度は怪しい
宮城県,石巻市,275,須江字しらさぎ台３丁目４６番地,しらさぎ台３号公園,38.468246,141.240311,緯度経度は怪しい
宮城県,石巻市,276,須江字沢田前３番地,河南須江農村定住センターフェンス,38.475735,141.240967,緯度経度は怪しい
宮城県,石巻市,277,須江字正太郎１４５番地３,防火水槽Ｄ－２１敷地内,38.469345,141.249832,緯度経度は怪しい
宮城県,石巻市,278,須江字糠塚４７番地１,糠塚生活センター表,38.470966,141.243439,緯度経度は怪しい
宮城県,石巻市,279,須江字古土手１番地２,masked,38.470966,141.243439,緯度経度は怪しい
宮城県,石巻市,280,鹿又字新内田９２番地１先,masked,38.481514,141.275467,緯度経度は怪しい
宮城県,石巻市,281,鹿又字矢袋屋敷合３１番地,鹿又小学校前フェンス,38.481514,141.275467,緯度経度は怪しい
宮城県,石巻市,282,鹿又字観音裏１３７番地１,谷地中老人憩の家表,38.481514,141.275467,緯度経度は怪しい
宮城県,石巻市,283,鹿又字曽波神前１５１番地,曽波神多目的研修センターフェンス,38.481514,141.275467,緯度経度は怪しい
宮城県,石巻市,284,鹿又字伊勢前８４番地２,本町コミュニティーセンター表,38.481514,141.275467,緯度経度は怪しい
宮城県,石巻市,285,鹿又字大巻前３７番地,masked,38.481514,141.275467,緯度経度は怪しい
宮城県,石巻市,286,鹿又字梅木屋敷９６番地,梅木ふれあいセンターフェンス,38.481514,141.275467,緯度経度は怪しい
宮城県,石巻市,287,鹿又字扇平１４０番地３,masked,38.481514,141.275467,緯度経度は怪しい
宮城県,石巻市,288,和渕字中通１５５番地１,笈入あすなろ館表,38.518166,141.220886,緯度経度は怪しい
宮城県,石巻市,289,和渕字笈入前１番地１,河南農村環境改善センター前,38.518166,141.220886,緯度経度は怪しい
宮城県,石巻市,290,和渕字北和渕二番５１番地,masked,38.518166,141.220886,緯度経度は怪しい
宮城県,石巻市,291,和渕字清水７５番地,和渕地区コミュニティーセンター表,38.518166,141.220886,緯度経度は怪しい
宮城県,石巻市,292,和渕字日照５番地,和渕保育所フェンス,38.518166,141.220886,緯度経度は怪しい
宮城県,石巻市,293,和渕字牡丹窪山６５番地１,和渕農村公園フェンス,38.518166,141.220886,緯度経度は怪しい
宮城県,石巻市,294,前谷地字新山崎前１４５番地２先,masked,38.52169,141.19104,緯度経度は怪しい
宮城県,石巻市,295,前谷地字沖西２２６番地２,定川会館フエンス,38.52169,141.19104,緯度経度は怪しい
宮城県,石巻市,296,前谷地字沖埣１２５番地,前谷地小学校フェンス横,38.52169,141.19104,緯度経度は怪しい
宮城県,石巻市,297,前谷地字新横沼１９２番地１,ＪＡいしのまき河南資材倉庫北側空き地,38.52169,141.19104,緯度経度は怪しい
宮城県,石巻市,298,前谷地字沼下１５番地１,仮設赤羽根団地跡地,38.52169,141.19104,緯度経度は怪しい
宮城県,石巻市,299,前谷地字黒沢前７番地,河南総合支所庁舎前,38.52169,141.19104,緯度経度は怪しい
宮城県,石巻市,300,前谷地字大和田前４番地２,masked,38.52169,141.19104,緯度経度は怪しい
宮城県,石巻市,301,前谷地字根方山５番地５,根方山老人憩の家表,38.52169,141.19104,緯度経度は怪しい
宮城県,石巻市,302,北村字前山６１番地,masked,38.48341,141.186188,緯度経度は怪しい
宮城県,石巻市,303,北村字大溜池９７番地２地先（道）,国道108号線から遊楽館入口左側花壇,38.48341,141.186188,緯度経度は怪しい
宮城県,石巻市,304,北村字新俵庭１３番地１,俵庭ふれあいセンター表,38.48341,141.186188,緯度経度は怪しい
宮城県,石巻市,305,北村字幕ケ崎５２番地,表沢農村公園,38.48341,141.186188,緯度経度は怪しい
宮城県,石巻市,306,北村字関田３番地,箱清水老人憩の家表,38.48341,141.186188,緯度経度は怪しい
宮城県,石巻市,307,北村字新大日６番地１,青木多目的研修センター表,38.48341,141.186188,緯度経度は怪しい
宮城県,石巻市,308,北村字大沢堤下４１番地２先,大沢堤西側Ｔ字路,38.48341,141.186188,緯度経度は怪しい
宮城県,石巻市,309,北村字軽井沢前６３番地１,旭光館跡地フェンス,38.48341,141.186188,緯度経度は怪しい
宮城県,石巻市,310,北村字久米田７９番地１,大番所生活改善センターフェンス,38.48341,141.186188,緯度経度は怪しい
宮城県,石巻市,311,北村字鳥ノ巣三１番地７,masked,38.48341,141.186188,緯度経度は怪しい
宮城県,石巻市,312,桃生町高須賀字内田４４番地５,高須賀上ごみ集積所脇,38.514149,141.244003,緯度経度は怪しい
宮城県,石巻市,313,桃生町高須賀字下畑６８番地,masked,38.514149,141.244003,緯度経度は怪しい
宮城県,石巻市,314,桃生町神取字山畑１５５番地３,masked,38.53022,141.240433,緯度経度は怪しい
宮城県,石巻市,315,桃生町高須賀字萩臥６番地１２付近,高須賀字萩臥地区県道路肩,38.514149,141.244003,緯度経度は怪しい
宮城県,石巻市,316,桃生町高須賀字新元田７４番地,高須賀定住センター入口交差点市道路肩,38.514149,141.244003,緯度経度は怪しい
宮城県,石巻市,317,桃生町高須賀字内田５１番地１,㈱タカジョー前交差点市道路肩,38.514149,141.244003,緯度経度は怪しい
宮城県,石巻市,318,桃生町神取字川前１６番地２付近,神取字川前地区県道路肩,38.53022,141.240433,緯度経度は怪しい
宮城県,石巻市,319,桃生町神取字山下４１番地１,桃神運送駐車場,38.53022,141.240433,緯度経度は怪しい
宮城県,石巻市,320,桃生町神取字町浦２７番地３,masked,38.53022,141.240433,緯度経度は怪しい
宮城県,石巻市,321,桃生町給人町字西町１６４番地１,せんだんの杜ものう県道向かい畑,38.535526,141.25386,緯度経度は怪しい
宮城県,石巻市,322,桃生町神取字山畑１０５番地,うしちゃんファーム向かい空地,38.53022,141.240433,緯度経度は怪しい
宮城県,石巻市,323,桃生町神取字鹿島１２２番地１,アグリサービス高勝向かい市道路肩,38.53022,141.240433,緯度経度は怪しい
宮城県,石巻市,324,桃生町給人町上侭田１７番地２,（株）倉元製作所桃生工場跡フェンス前市道,38.5434204,141.241442,
宮城県,石巻市,325,桃生町給人町字東町６０番地,一里塚跡標柱隣り,38.535526,141.25386,緯度経度は怪しい
宮城県,石巻市,326,桃生町新田字東町５５番地２,masked,38.54829,141.242432,緯度経度は怪しい
宮城県,石巻市,327,桃生町中津山字江下１８０番地１,ウジエスーパー桃生店向かい空き地,38.561138,141.241547,緯度経度は怪しい
宮城県,石巻市,328,桃生町中津山字内八木１１１番地６,中津山班消防詰所フェンス,38.561138,141.241547,緯度経度は怪しい
宮城県,石巻市,329,桃生町中津山字中津山８番地１,中津山教員住宅,38.561138,141.241547,緯度経度は怪しい
宮城県,石巻市,330,桃生町寺崎字松木畑３番地,masked,38.572037,141.252563,緯度経度は怪しい
宮城県,石巻市,331,桃生町寺崎字八木１番地５地先,寺崎字八木ごみ集積所脇,38.572037,141.252563,緯度経度は怪しい
宮城県,石巻市,332,桃生町中津山字下四軒６２番地１,ジャスミン通り　市有地,38.561138,141.241547,緯度経度は怪しい
宮城県,石巻市,333,桃生町城内字宮前６０番地１,若宮八幡神社前ごみ集積所脇,38.560883,141.259064,緯度経度は怪しい
宮城県,石巻市,334,桃生町寺崎字新柴先５１番地,桃生豊里インター出入口 県道交差点西側,38.572037,141.252563,緯度経度は怪しい
宮城県,石巻市,335,桃生町牛田字雷１０９番地１,牛田生活センター,38.581177,141.264893,緯度経度は怪しい
宮城県,石巻市,336,桃生町倉埣字人家３７番地,八雲神社南側フェンス,38.59586,141.274323,緯度経度は怪しい
宮城県,石巻市,337,桃生町倉埣字四分一２８番地地先,masked,38.59586,141.274323,緯度経度は怪しい
宮城県,石巻市,338,桃生町永井字大堤５番地１,masked,38.579849,141.278183,緯度経度は怪しい
宮城県,石巻市,339,桃生町牛田字館前１３番地２,masked,38.581177,141.264893,緯度経度は怪しい
宮城県,石巻市,340,桃生町倉埣字森笠１８番地１,昆布沼南側交差点,38.59586,141.274323,緯度経度は怪しい
宮城県,石巻市,341,桃生町脇谷字上の山６０番地５,脇谷閘門 船着場前県道,38.598434,141.28566,緯度経度は怪しい
宮城県,石巻市,342,桃生町樫崎字山田２３４番地１地先,masked,38.569096,141.29007,緯度経度は怪しい
宮城県,石巻市,343,桃生町永井字観音下２６番地１地先,永井児童遊園前市道路肩,38.579849,141.278183,緯度経度は怪しい
宮城県,石巻市,344,桃生町樫崎字高附２７番地１,masked,38.569096,141.29007,緯度経度は怪しい
宮城県,石巻市,345,桃生町樫崎字取久美１０番地,masked,38.569096,141.29007,緯度経度は怪しい
宮城県,石巻市,346,桃生町太田字新谷田２２９番地,masked,38.547043,141.274551,緯度経度は怪しい
宮城県,石巻市,347,桃生町永井字八幡１１番地１付近,永井八幡ごみ集積所脇,38.579849,141.278183,緯度経度は怪しい
宮城県,石巻市,348,桃生町樫崎字新南崎１５９番地,ＪＡいしのまき北部農機センター前県道,38.569096,141.29007,緯度経度は怪しい
宮城県,石巻市,349,桃生町太田字千刈１０８番地,九郎沢入口県道路肩,38.547043,141.274551,緯度経度は怪しい
宮城県,石巻市,350,桃生町太田字細谷１９５番地１,masked,38.547043,141.274551,緯度経度は怪しい
宮城県,石巻市,351,桃生町太田字袖沢９３番地１,masked,38.547043,141.274551,緯度経度は怪しい
宮城県,石巻市,352,桃生町太田字薬田４２番地５地先,masked,38.547043,141.274551,緯度経度は怪しい
宮城県,石巻市,353,桃生町太田字峯畑３６番地２,masked,38.547043,141.274551,緯度経度は怪しい
宮城県,石巻市,354,桃生町太田字中下７０番地２,masked,38.547043,141.274551,緯度経度は怪しい
宮城県,石巻市,355,桃生町太田字袖沢９１番地２,薬田班消防詰所前(袖沢会館),38.547043,141.274551,緯度経度は怪しい
宮城県,石巻市,356,桃生町太田字五百刈１５番地先,釣具のおおとり向かい防火水槽脇,38.547043,141.274551,緯度経度は怪しい
宮城県,石巻市,357,桃生町太田字万才山３番地,宗全山集会所前,38.547043,141.274551,緯度経度は怪しい
宮城県,石巻市,358,北上町橋浦字曽呂美２４４番地３,masked,38.550804,141.386307,緯度経度は怪しい
宮城県,石巻市,359,北上町橋浦字上大須６５５番地２地先,愛宕神社付近県道標識柱付近,38.550804,141.386307,緯度経度は怪しい
宮城県,石巻市,360,北上町橋浦字大須７４番地１,川原田商店跡地（栄屋食堂向かい）,38.550804,141.386307,緯度経度は怪しい
宮城県,石巻市,361,北上町長尾字東前７４番地地先,佐藤リース資材置き場付近,38.55806,141.394562,緯度経度は怪しい
宮城県,石巻市,362,北上町女川字上待井４３番地２１地先,釜谷崎地区防集団地内,38.579636,141.382339,緯度経度は怪しい
宮城県,石巻市,363,北上町女川字南３２番地１地先,masked,38.579636,141.382339,緯度経度は怪しい
宮城県,石巻市,364,北上町女川字中田３３番地２地先,masked,38.579636,141.382339,緯度経度は怪しい
宮城県,石巻市,365,北上町女川字要害12番地６,masked,38.579636,141.382339,緯度経度は怪しい
宮城県,石巻市,366,北上町十三浜字小田９３番地４,にっこりサンパーク内,38.597572,141.4702,緯度経度は怪しい
宮城県,石巻市,367,北上町十三浜字小田１１８番地２０２,にっこり地区防集団地内,38.597572,141.4702,緯度経度は怪しい
宮城県,石巻市,368,北上町十三浜字吉浜１４番地,吉浜公民館跡地向かい,38.597572,141.4702,緯度経度は怪しい
宮城県,石巻市,369,北上町十三浜字月浜１０８番地２地先,月浜・吉浜防集団地入り口付近,38.597572,141.4702,緯度経度は怪しい
宮城県,石巻市,370,北上町十三浜字長塩谷８番地６,白浜・長塩谷防集団地内,38.597572,141.4702,緯度経度は怪しい
宮城県,石巻市,371,北上町十三浜字上ノ山７番地７,小室地区防集団地内,38.597572,141.4702,緯度経度は怪しい
宮城県,石巻市,372,北上町十三浜字大室１０番地３９,大室地区防集団地内,38.597572,141.4702,緯度経度は怪しい
宮城県,石巻市,373,北上町十三浜字猪の沢５７番地４,相川コミュニティセンター向かい(国道路側帯部),38.597572,141.4702,緯度経度は怪しい
宮城県,石巻市,374,北上町十三浜字小泊５３番地１,小泊地区防集団地内,38.597572,141.4702,緯度経度は怪しい
宮城県,石巻市,375,北上町十三浜字崎山１７８番地２,相川保育所入口付近,38.597572,141.4702,緯度経度は怪しい
宮城県,石巻市,376,北上町十三浜字浪田６８番地４,浪田公園付近,38.597572,141.4702,緯度経度は怪しい
宮城県,石巻市,377,北上町十三浜字松ノ坂４３番地１地先,大指林業者生活センター向かい,38.597572,141.4702,緯度経度は怪しい
宮城県,石巻市,378,北上町十三浜字山居３５番地３地先,大指山居地内,38.597572,141.4702,緯度経度は怪しい
宮城県,石巻市,379,北上町十三浜字小滝１０１番地１地先,小滝西條石油店付近（畑）,38.597572,141.4702,緯度経度は怪しい
宮城県,石巻市,380,鮎川浜湊川６３番地,旧牡鹿公民館前バス停脇,38.297394,141.508667,緯度経度は怪しい
宮城県,石巻市,381,鮎川浜寺前１４番地４,鮎川集会所脇,38.2980341,141.5119633,
宮城県,石巻市,382,鮎川浜清崎山４番地先,清崎入口Ｔ字路鮎小下,38.297394,141.508667,緯度経度は怪しい
宮城県,石巻市,383,鮎川浜四ツ小谷１７番地,鮎川浜金山バス停前,38.297394,141.508667,緯度経度は怪しい
宮城県,石巻市,384,鮎川浜熊野７番地３,鮎川浜熊野児玉邸向い,38.297394,141.508667,緯度経度は怪しい
宮城県,石巻市,385,十八成浜寺山１番地２地先,寺山地区入口,38.310532,141.49379,緯度経度は怪しい
宮城県,石巻市,386,十八成浜十八成１１３番地,十八成浜防災集団移転団地入口,38.310532,141.49379,緯度経度は怪しい
宮城県,石巻市,387,十八成浜大嵐山４番２５２脇,十八成浜小沢バス停向い,38.310532,141.49379,緯度経度は怪しい
宮城県,石巻市,388,長渡浜長渡６３番地,宮城県漁業協同組合網地島支所跡地,38.259216,141.481506,緯度経度は怪しい
宮城県,石巻市,389,長渡浜大金１番地２,牡鹿消防団長渡分団詰所前,38.2534723,141.4945604,
宮城県,石巻市,390,長渡浜杉１３番地３,網小医院バス停前,38.2661671,141.4778838,
宮城県,石巻市,391,網地浜粟ヶ崎１９番１１地先,masked,38.273056,141.471298,緯度経度は怪しい
宮城県,石巻市,392,網地浜髪剃坂１０６番地７地先,masked,38.273056,141.471298,緯度経度は怪しい
宮城県,石巻市,393,網地浜網地４９番地先,旧網地島漁業協同組合網地支所前,38.273056,141.471298,緯度経度は怪しい
宮城県,石巻市,394,新山浜台１番地地先,新山浜バス停,38.331413,141.525528,緯度経度は怪しい
宮城県,石巻市,395,小渕浜南１番地１,小渕南防災集団移転団地県道脇,38.31562,141.458893,緯度経度は怪しい
宮城県,石巻市,396,給分浜給分２１番地先,給分防災集団移転団地入口向い,38.322769,141.478485,緯度経度は怪しい
宮城県,石巻市,397,給分浜羽黒下２１番地１地先,ファミリーマート牡鹿店向い,38.322769,141.478485,緯度経度は怪しい
宮城県,石巻市,398,大原浜字町１６番地１,大原出張所入口,38.340069,141.48175,緯度経度は怪しい
宮城県,石巻市,399,小網倉安藤沢９番地３０,小網倉防災集団移転団地公園,38.35239567,141.456131,緯度経度は怪しい
宮城県,石巻市,400,大原浜大草山２１番地地先,大原防災集団移転団地入口,38.340069,141.48175,緯度経度は怪しい
宮城県,石巻市,401,小渕浜カント30番地4地先,小渕浜漁港,38.31562,141.458893,緯度経度は怪しい
宮城県,石巻市,402,清水田浜３３番地１地先,清水田県道脇,38.345882,141.466766,緯度経度は怪しい
宮城県,石巻市,403,泊浜台１１番地３地先,泊浜防災集団移転団地入口,38.353573,141.517563,緯度経度は怪しい
宮城県,石巻市,404,泊浜泊９５番地地先,泊漁港入口,38.353573,141.517563,緯度経度は怪しい
宮城県,石巻市,405,谷川浜川原２番地１,masked,38.3567561,141.4852471,
宮城県,石巻市,406,大谷川浜小浜山５１番地内,大谷川防災集団移転団地内,38.370491,141.478134,緯度経度は怪しい
宮城県,石巻市,407,鮫浦細田８４番地,鮫浦防災集団移転第一団地入口,38.38554,141.488159,緯度経度は怪しい
宮城県,石巻市,408,前網浜田鳥３番地７,前網－寄磯浜林道入口,38.391582,141.508591,緯度経度は怪しい
宮城県,石巻市,409,前網浜オソヒ沢山１番地３７道路向かい,前網浜第一防災集団移転団地向かい,38.391582,141.508591,緯度経度は怪しい
宮城県,石巻市,410,寄磯浜前浜１２３番地,寄磯地区入口,38.391827,141.527924,緯度経度は怪しい
宮城県,石巻市,,,,38.43425,141.302734,緯度経度は怪しい
