prefecture,city,number,address,name,lat,long,note
宮城県,美里町,第１投票区,牛飼字牛飼２２０番地２,個人宅南側ブロック塀,38.5536348,141.0542473,
宮城県,美里町,第１投票区,牛飼字清水江２５０番地２２,山の神児童公園西側,38.5509255,141.0600236,
宮城県,美里町,第１投票区,牛飼字新町４４番地,健康福祉センター北側,38.5586322,141.0559946,
宮城県,美里町,第１投票区,南小牛田字町浦１０番地８,本小牛田コミュニティセンター東側フェンス,38.5591328,141.0576449,
宮城県,美里町,第１投票区,牛飼字御蔵場１４番地,個人宅フェンス,38.559809,141.052288,
宮城県,美里町,第１投票区,牛飼字阿弥陀３５番地,八幡集会所東側フェンス,38.5543,141.0480593,
宮城県,美里町,第１投票区,南小牛田字町屋敷１００番地,個人宅ブロック塀,38.5594889,141.0604814,
宮城県,美里町,第２投票区,南小牛田字谷地中前３番地,個人宅西側,38.5506895,141.0817344,
宮城県,美里町,第２投票区,南小牛田字江の内４１番地１先,個人宅北側,38.5631523,141.0747993,
宮城県,美里町,第２投票区,南小牛田字下小牛田屋敷３７番地１,下小牛田コミュニティセンター南側,38.5590201,141.0839179,
宮城県,美里町,第２投票区,南小牛田字下小牛田屋敷５２番地３,個人宅ブロック塀,38.5552286,141.0898672,
宮城県,美里町,第２投票区,南小牛田字江の内１５４番地先,個人宅東側　美里東部土地改良区用水フェンス,38.5534157,141.0914739,
宮城県,美里町,第３投票区,字化粧坂１５番地,理容ひまわり駐車場前　（理容ひまわり向）,38.5339963,141.0675745,
宮城県,美里町,第３投票区,字峯山８番地１２４,峯山団地公園西側,38.5351006,141.073541,
宮城県,美里町,第３投票区,字西舘７４番地１先,個人宅北側,38.5307788,141.0773441,
宮城県,美里町,第３投票区,字塔ノ越９２番地１,不動堂六区文化会館南側駐車場,38.5284456,141.0829714,
宮城県,美里町,第３投票区,字勘堂１４１番地４,小沼農村公園フェンス（宅東側）,38.5300256,141.0902615,
宮城県,美里町,第３投票区,字塩釜２６番地１１,個人宅向,38.5257908,141.0951562,
宮城県,美里町,第３投票区,字志賀町二丁目２番地１,志賀公園西側フェンス,38.5321664,141.067986,
宮城県,美里町,第３投票区,駅東二丁目１番地２,仙台プロパン株式会社小牛田営業所フェンス,38.5414018,141.0656266,
宮城県,美里町,第３投票区,駅東二丁目２２番地,駅東２号公園西側,38.5405414,141.0679106,
宮城県,美里町,第４投票区,字藤ケ崎一丁目86番地,カリヨンの鐘西側,38.542157,141.0624943,
宮城県,美里町,第４投票区,字藤ケ崎町１７０番地先,自遊橋欄干（遠田商工会北側）,38.5406526,141.0599605,
宮城県,美里町,第４投票区,字桜木町１１番地,新みやぎ農協協同組合職員駐車場フェンス,38.5384534,141.0618065,
宮城県,美里町,第４投票区,字素山町２６番地先,個人宅南側,38.5375916,141.0635083,
宮城県,美里町,第４投票区,字素山町７８番地,個人宅ブロック塀（只野新聞店東側）,38.5347535,141.0643301,
宮城県,美里町,第４投票区,字桜木町６９番地,警察署長官舎跡地フェンス,38.53688870000001,141.0586338,
宮城県,美里町,第４投票区,字桜木町１６４番地,素山球場フェンス,38.5380422,141.0575595,
宮城県,美里町,第５投票区,北浦字駒米１３番地,役場東側フェンス,38.5446542,141.0562367,
宮城県,美里町,第５投票区,北浦字大口６８番地１７,彫堂団地公園南側フェンス,38.5452397,141.0565937,
宮城県,美里町,第５投票区,北浦字船入２番地１１２,板橋理容所西側,38.5404266,141.0574457,
宮城県,美里町,第５投票区,北浦字姥ヶ沢３０番地１０,個人宅,38.5385187,141.0546932,
宮城県,美里町,第５投票区,北浦字山前１番地９５,山前団地衛生処理場東側,38.53758819999999,141.0507687,
宮城県,美里町,第５投票区,北浦字船入２番地５,個人宅フェンス,38.5423084,141.0554656,
宮城県,美里町,第５投票区,北浦字彫堂３９番地１,個人宅フェンス,38.5436615,141.0509174,
宮城県,美里町,第６投票区,北浦字道祖神前14番地2,メゾン・ポワール北側,38.5585145,141.022754,
宮城県,美里町,第６投票区,北浦字谷地８９番地１,個人宅東側,38.5637467,141.0009013,
宮城県,美里町,第６投票区,関根字新苗代江３６番地先,個人宅北側　美里東部土地改良区用水フェンス,38.5702619,141.0010984,
宮城県,美里町,第６投票区,関根字道明４３番地先,美里クリニック南側　美里東部土地改良区用水フェンス,38.5684592,141.0050924,
宮城県,美里町,第６投票区,北浦字高橋１５番地,個人宅ブロック塀（高塩ガソリンスタンド西側）,38.5647874,141.0113105,
宮城県,美里町,第６投票区,北浦字二又下２０番地１,北浦公園敷地,38.5627687,141.0181526,
宮城県,美里町,第６投票区,北浦字道祖神７番地５,北浦コミュニティセンター北側,38.5607911,141.0238271,
宮城県,美里町,第６投票区,北浦字中組６番地４先,個人宅西側,38.5617521,141.0244443,
宮城県,美里町,第７投票区,北浦字半兵衛１８番地,町営北浦第一住宅公園フェンス,38.5582236,141.0283868,
宮城県,美里町,第７投票区,北浦字浅野栄治前３９番地２,新田公会堂南側,38.5547843,141.0289384,
宮城県,美里町,第７投票区,北浦字浅野栄治前３１番地１,町営北浦第三住宅北側フェンス,38.555251,141.0335915,
宮城県,美里町,第７投票区,北浦字新田１９番地,個人宅北側,38.5496967,141.0376771,
宮城県,美里町,第７投票区,北浦字大曲８９番地１,個人宅ブロック塀,38.55404490000001,141.0362767,
宮城県,美里町,第７投票区,北浦字苗代下７番地,横埣公会堂南側,38.5588954,141.0392867,
宮城県,美里町,第７投票区,北浦字新苗代下１９番地２先,ホーマック東側,38.5602081,141.0424204,
宮城県,美里町,第８投票区,平針字中川前三番４番地２先,個人宅向,38.5644006,141.0480595,
宮城県,美里町,第８投票区,平針字軍城１５５番地１,上野軍城文化会館,38.57101979999999,141.0420281,
宮城県,美里町,第８投票区,中埣字上戸59番地2,町営上戸住宅フェンス,38.5805993,141.0333829,
宮城県,美里町,第８投票区,中高城字中道１２３番地１,高城地区転作推進研修センター南側,38.587149,141.0444722,
宮城県,美里町,第８投票区,中埣字町１番地３,町区公会堂フェンス,38.5863826,141.0318934,
宮城県,美里町,第８投票区,中埣字中田９７番地３,中田集落センター北側フェンス,38.58543969999999,141.0211184,
宮城県,美里町,第８投票区,成田字元成田２８番地,個人宅前,38.5849592,141.0087539,
宮城県,美里町,第８投票区,荻埣字山王３７番地,谷陽院ブロック塀（重泉商店前）,38.5752552,141.0204369,
宮城県,美里町,第８投票区,平針字堤根８３番地,上平針部落館,38.5655452,141.0312403,
宮城県,美里町,第９投票区,青生字堀切１４７番地２,堀切集落農事集会所前,38.53889909999999,141.0591576,
宮城県,美里町,第９投票区,青生字松ケ崎１１９番地,個人宅ブロック塀,38.537045,141.038727,緯度経度は怪しい
宮城県,美里町,第９投票区,青生字上浦３２０番地,青生白寿館フェンス,38.5307257,141.0323968,
宮城県,美里町,第９投票区,青生字町東１７２番地,個人宅ブロック塀,38.5304338,141.0391836,
宮城県,美里町,第９投票区,青生字新鳴瀬１３２番地,個人宅ブロック塀,38.5316695,141.0453836,
宮城県,美里町,第９投票区,青生字水越浦５４番地１２,個人宅ブロック塀,38.5356654,141.0509073,
宮城県,美里町,第９投票区,青生字水越８１番地２,梅ノ木文化会館前フェンス,38.531078,141.056335,緯度経度は怪しい
宮城県,美里町,第９投票区,青生字的場７番地,町営梅ノ木住宅西側,38.533712,141.054179,
宮城県,美里町,第１０投票区,和多田沼字西田２８番地１,個人宅ブロック塀,38.5266987,141.1131718,
宮城県,美里町,第１０投票区,和多田沼字上屋敷６２番地,個人宅ブロック塀,38.524991,141.1028662,
宮城県,美里町,第１０投票区,和多田沼字半田屋敷１４番地,個人宅ブロック塀,38.522004,141.106444,
宮城県,美里町,第１０投票区,和多田沼字蛭田原一７５番地１,農村婦人の家前,38.5208807,141.1049729,
宮城県,美里町,第１０投票区,和多田沼字蛭田原９９番地２,個人宅裏,38.5214788,141.102228,
宮城県,美里町,第１０投票区,和多田沼字蛭田原三５３番地,個人宅ブロック塀,38.5188176,141.1038301,
宮城県,美里町,第１０投票区,和多田沼字砂地一６０番地,個人宅ブロック塀,38.5166296,141.1024406,
宮城県,美里町,第１１投票区,福ヶ袋字辻屋敷２１番地,個人宅ブロック塀,38.5137813,141.1029777,
宮城県,美里町,第１１投票区,福ヶ袋字袖川４０番地１,個人宅ブロック塀,38.5109751,141.1054107,
宮城県,美里町,第１１投票区,福ヶ袋字辻屋敷６５番地,個人宅ブロック塀,38.5101923,141.1084072,
宮城県,美里町,第１１投票区,福ヶ袋字中畑３番地６,個人宅前フェンス,38.5135652,141.1044416,
宮城県,美里町,第１１投票区,福ヶ袋字白山堂２番地,個人宅前フェンス,38.5122011,141.1070569,
宮城県,美里町,第１２投票区,練牛字八号４５番地１,個人宅ブロック塀,38.5084098,141.1119749,
宮城県,美里町,第１２投票区,練牛字十一号１２番地,個人宅ブロック塀,38.5071542,141.1156173,
宮城県,美里町,第１２投票区,練牛字十二号４８番地１,障害者日中活動支援施設のぎくフェンス,38.507151,141.1179843,
宮城県,美里町,第１２投票区,練牛字二号２番地,個人宅向フェンス,38.5099884,141.1129481,
宮城県,美里町,第１２投票区,練牛字十二号１３番地１,個人宅ブロック塀,38.5081133,141.1168079,
宮城県,美里町,第１３投票区,練牛字十五号１６番地,個人宅ブロック塀,38.507174,141.1277201,
宮城県,美里町,第１３投票区,練牛字二十二号２番地２,個人宅ブロック塀,38.5066306,141.1332988,
宮城県,美里町,第１３投票区,練牛字赤谷二１３番地,赤谷運動場東側,38.5081485,141.1423236,
宮城県,美里町,第１３投票区,練牛字二十八号２２番地２,個人宅前,38.5050104,141.1414252,
宮城県,美里町,第１３投票区,練牛字三十五号１番地,個人宅ブロック塀,38.5036191,141.1494127,
宮城県,美里町,第１３投票区,練牛字出来川１５７番地,出来川公会堂前,38.51255829999999,141.1419626,
宮城県,美里町,第１３投票区,字鳥谷坂一１４番地,鳥谷坂公会堂前,38.5182467,141.1756749,
宮城県,美里町,第１４投票区,大柳字高出１３番地,個人宅ブロック塀,38.5050039,141.12037,
宮城県,美里町,第１４投票区,大柳字高出２１番地,個人宅ブロック塀,38.5039588,141.1228521,
宮城県,美里町,第１４投票区,大柳字後藤渕３番地,個人宅ブロック塀,38.5032857,141.1201846,
宮城県,美里町,第１４投票区,大柳字明神８番地１,個人宅ブロック塀,38.5003597,141.1213416,
宮城県,美里町,第１４投票区,大柳字明神１番地２,個人宅ブロック塀,38.4991809,141.1209983,
宮城県,美里町,第１４投票区,大柳字砂押１０番地,個人宅ブロック塀,38.4987827,141.1238769,
宮城県,美里町,第１４投票区,大柳字東境１１番地１,町営大柳第二住宅駐車場フェンス,38.4963279,141.1267641,
宮城県,美里町,第１５投票区,木間塚字古館２０番地,個人宅ブロック塀,38.4919525,141.1283768,
宮城県,美里町,第１５投票区,木間塚字古館３７番地１,個人宅ブロック塀,38.4894933,141.1281323,
宮城県,美里町,第１５投票区,木間塚字砂押７８番地,個人宅ブロック塀,38.488692,141.1317018,
宮城県,美里町,第１５投票区,木間塚字押切東１番地,個人宅ブロック塀,38.4868204,141.1299128,
宮城県,美里町,第１５投票区,木間塚字夫婦沼東６７番地,個人宅ブロック塀,38.4849083,141.1335116,
宮城県,美里町,第１５投票区,二郷字治郎右衛門沖名一号５番地,個人宅ブロック塀,38.4833455,141.1355522,
宮城県,美里町,第１５投票区,二郷字高玉二号１４番地,個人宅ブロック塀,38.4804764,141.1330648,
宮城県,美里町,第１５投票区,二郷字後袋二号１２番地,個人宅ブロック塀,38.4807287,141.131378,
宮城県,美里町,第１６投票区,二郷字前袋一号５番地１,個人宅ブロック塀,38.4788622,141.1308436,
宮城県,美里町,第１６投票区,二郷字高玉五号１１番地１,個人宅ブロック塀,38.4773652,141.1345335,
宮城県,美里町,第１６投票区,二郷字高玉六号４番地,個人宅ブロック塀,38.474621,141.1334224,
宮城県,美里町,第１６投票区,二郷字慶半４９番地,個人宅ブロック塀,38.4786308,141.1329907,
宮城県,美里町,第１６投票区,二郷字慶半２６番地,個人宅ブロック塀,38.475228,141.1316807,
宮城県,美里町,第１６投票区,二郷字佐野四号８９０番地２,新みやぎ農業協同組合南郷支店二郷倉庫脇,38.4723965,141.1297793,
宮城県,美里町,第１６投票区,二郷字佐野八号２１番地,旧みなみ幼稚園跡地,38.4694587,141.1302017,
宮城県,美里町,第１６投票区,二郷字佐野八号４番地１,個人宅ブロック塀,38.4691218,141.1285181,
宮城県,美里町,第１７投票区,二郷字権十郎二号５番地,個人宅ブロック塀,38.4641153,141.1248621,
宮城県,美里町,第１７投票区,二郷字甚助二号２２番地,個人宅ブロック塀,38.4618875,141.1229905,
宮城県,美里町,第１７投票区,二郷字蔵人主二号１番地,個人宅ブロック塀,38.45884059999999,141.1181741,
宮城県,美里町,第１７投票区,二郷字砂山東９番地１,下二郷運動公園西側,38.4580845,141.1132265,
宮城県,美里町,第１７投票区,二郷字砂山川原１９番地１,砂山公会堂,38.4581905,141.1121361,
宮城県,美里町,第１７投票区,二郷字砂山４０番地１,個人宅跡地,38.4564665,141.1128926,
宮城県,美里町,第１７投票区,二郷字千代窪一号３２番地１,個人宅ブロック塀,38.4468352,141.1129117,
宮城県,美里町,第１８投票区,二郷字小島１番地１,個人宅ブロック塀,38.4555351,141.1622346,
宮城県,美里町,第１８投票区,二郷字小島４４番地,個人宅ブロック塀,38.4537966,141.1600711,
宮城県,美里町,第１８投票区,二郷字前谷地１１５番地１,個人宅ブロック塀,38.4538484,141.1645074,
