prefecture,city,number,address,name,lat,long,note
神奈川県,厚木市,1,寿町3-4-10,消防本部北側壁,35.4454651,139.3612938,
神奈川県,厚木市,2,寿町2-1-18,NTT東日本厚木ビル北側フェンス,35.4441022,139.3653377,
神奈川県,厚木市,3,寿町3-15-34,厚木小学校正門横フェンス,35.4474398,139.3628289,
神奈川県,厚木市,4,寿町1-11-12,長福寺ブロック塀,35.4453964,139.36721,
神奈川県,厚木市,5,寿町3-15-34,厚木小学校南側フェンス,35.4474398,139.3628289,
神奈川県,厚木市,6,松枝1-196-2,松際公園西側フェンス,35.4485553,139.3611814,
神奈川県,厚木市,7,元町9-4,厚木北公民館南側ガードパイプ,35.4473927,139.3660679,
神奈川県,厚木市,8,寿町3-2,厚木中央公園南側植栽,35.4438895,139.3623006,
神奈川県,厚木市,9,泉町1-1,本厚木駅南口ペデストリアンデッキ通路,35.4396137,139.3639713,
神奈川県,厚木市,10,中町3-17,大手公園南側植栽,35.4428716,139.3626179,
神奈川県,厚木市,11,中町3-7,厚木公園西側植栽,35.4407759,139.3622213,
神奈川県,厚木市,12,中町2-8,中町公園北側植栽,35.4414494,139.3654735,
神奈川県,厚木市,13,泉町17-1,旧厚木市営泉町自転車駐車場南側フェンス,35.4409031,139.3678408,
神奈川県,厚木市,14,泉町3-13,厚木市農協泉町支店南側植栽,35.439241,139.365591,
神奈川県,厚木市,15,中町3-17-17,厚木市役所北側フェンス,35.4430513,139.362533,
神奈川県,厚木市,16,旭町5-38,サン・グリーンエリア南側フェンス,35.4332334,139.3618247,
神奈川県,厚木市,17,旭町5-38-1,厚木第二小学校北側フェンス,35.4336879,139.3618491,
神奈川県,厚木市,18,旭町5-16-1,厚木南児童館西側フェンス,35.4340224,139.3642702,
神奈川県,厚木市,19,旭町1-18,あさひ公園西側植栽,35.4358042,139.3635697,
神奈川県,厚木市,20,旭町1-30,旭町どんぐり公園北側植栽,35.4374903,139.3650769,
神奈川県,厚木市,21,中町4-11,厚木さつき公園西側植栽,35.438126,139.3606349,
神奈川県,厚木市,22,田村町2-28,厚木土木事務所北側フェンス,35.4392156,139.3585639,
神奈川県,厚木市,23,田村町2-28,厚木土木事務所南側フェンス,35.4392156,139.3585639,
神奈川県,厚木市,24,下依知3-1-7,依知南公民館北側フェンス,35.4699176,139.3725183,
神奈川県,厚木市,25,下依知2-1244,仲通公園西側フェンス,35.4722197,139.3710265,
神奈川県,厚木市,26,下依知2-7-1,依知南小学校南側フェンス,35.472784,139.3707469,
神奈川県,厚木市,27,中依知662,中依知自治会館南側フェンス,35.4795886,139.3686175,
神奈川県,厚木市,28,下依知3-19,おおくわ公園南西側植栽,35.4733733,139.3747553,
神奈川県,厚木市,29,中依知364,依知中学校西通路ガードレール,35.474585,139.3693282,
神奈川県,厚木市,30,中依知364,依知中学校北側フェンス,35.474585,139.3693282,
神奈川県,厚木市,31,関口105,ヤマト運輸㈱厚木関口センター東側フェンス,35.4826237,139.3660348,
神奈川県,厚木市,32,関口31,厚木市消防団第2分団第4部東側フェンス,35.486614,139.364807,緯度経度は怪しい
神奈川県,厚木市,33,関口115,しもこが公園西側フェンス,35.4828681,139.364827,
神奈川県,厚木市,34,関口302,大六天児童遊園西側フェンス,35.486614,139.364807,緯度経度は怪しい
神奈川県,厚木市,35,関口872-1,依知小学校南側フェンス,35.4915726,139.3634162,
神奈川県,厚木市,36,関口831-1,旧依知公民館（依知地域包括支援センター・依知障がい者相談支援センター）南側フェンス,35.4909156,139.3655566,
神奈川県,厚木市,37,山際180,山際児童館西側フェンス,35.4938516,139.3660693,
神奈川県,厚木市,38,下川入433,masked,35.4988474,139.3554553,
神奈川県,厚木市,39,上依知1516,宝泉寺左側フェンス,35.5081856,139.3638057,
神奈川県,厚木市,40,上依知1670-21,上依知小北門前駐車場ガードレール,35.5120622,139.3637879,
神奈川県,厚木市,41,上依知3001-4,藤塚みどり公園東側フェンス,35.513008,139.355545,緯度経度は怪しい
神奈川県,厚木市,42,上依知1289,藤塚中学校東側フェンス,35.5070801,139.3567385,
神奈川県,厚木市,43,上依知2722-3,上依知児童館南側フェンス,35.5166305,139.3680682,
神奈川県,厚木市,44,猿ヶ島63,㈱アサヒ開発発寒島車庫南道路ガードパイプ,35.50589,139.370132,緯度経度は怪しい
神奈川県,厚木市,45,上依知2842,上依知公民館ブロック塀,35.515389,139.3655231,
神奈川県,厚木市,46,上依知3001-4,藤塚みどり公園西側植栽,35.513008,139.355545,緯度経度は怪しい
神奈川県,厚木市,47,下川入606,㈱タムラ車輌置場東道路フェンス,35.500797,139.351685,緯度経度は怪しい
神奈川県,厚木市,48,下川入537,masked,35.4957241,139.3559234,
神奈川県,厚木市,49,棚沢309,ファミリーマート厚木三田店北道路敷地,35.4988557,139.3335936,
神奈川県,厚木市,50,下川入1366,あつぎ郷土博物館東側フェンス,35.4957849,139.3500369,
神奈川県,厚木市,51,棚沢221,旭化成住工㈱厚木工場南側フェンス,35.4965073,139.3387491,
神奈川県,厚木市,52,棚沢80-1,棚沢公民館東道路フェンス,35.4966715,139.3377351,
神奈川県,厚木市,53,下川入1424,下川入児童館北側フェンス,35.4992344,139.3506215,
神奈川県,厚木市,1,三田2611,㈱スカイライナー東道路ガードパイプ,35.479527,139.351547,緯度経度は怪しい
神奈川県,厚木市,2,三田2735-1,睦合北公民館東側フェンス,35.48376580000001,139.3508399,
神奈川県,厚木市,3,三田2956,上三田バス停横道路フェンス,35.48954,139.347107,緯度経度は怪しい
神奈川県,厚木市,4,三田3202,松羅公園南側ガードパイプ,35.4970945,139.3435385,
神奈川県,厚木市,5,三田1569-1,㈱富士ロジテック厚木三田ロジスティクスセンター東側ガードパイプ,35.4701078,139.3579307,
神奈川県,厚木市,6,三田2833,十軒村バス停横道路ガードパイプ,35.486076,139.347641,緯度経度は怪しい
神奈川県,厚木市,7,三田1474,北消防署睦合分署南道路フェンス,35.47382,139.355164,緯度経度は怪しい
神奈川県,厚木市,8,妻田西2-11,中村公園南側フェンス,35.4606569,139.3563081,
神奈川県,厚木市,9,妻田西3-18-1,清水小学校西側フェンス,35.4663409,139.35311,
神奈川県,厚木市,10,妻田西3-15-8,妻田西老人憩の家南側フェンス,35.4645562,139.3548251,
神奈川県,厚木市,11,妻田西3-10,白根公園南側フェンス,35.4636611,139.3554001,
神奈川県,厚木市,12,妻田西2-18,妻田保育園駐車場西側フェンス,35.4621098,139.355638,
神奈川県,厚木市,13,妻田1-33,妻田青少年広場東側ガードレール,35.460373,139.3647,緯度経度は怪しい
神奈川県,厚木市,14,三田南1-2,でんえん公園西側フェンス,35.4694608,139.3546863,
神奈川県,厚木市,15,妻田北4-8-1,ＪＡあつぎ睦合支所南側フェンス,35.4682538,139.3512389,
神奈川県,厚木市,16,下荻野829,子台頭公園東側フェンス,35.485055,139.340148,
神奈川県,厚木市,17,下荻野1347,masked,35.4757876,139.3412892,
神奈川県,厚木市,18,三田3-1-1,睦合中学校南側フェンス,35.4783256,139.343915,
神奈川県,厚木市,19,下荻野1005,リコー前バス停横フェンス,35.482616,139.336472,緯度経度は怪しい
神奈川県,厚木市,20,下荻野1114,日吉神社西側フェンス,35.4787316,139.3416008,
神奈川県,厚木市,21,下荻野777,日吉神社児遊遊園北西道路ガードレール,35.484261,139.337494,緯度経度は怪しい
神奈川県,厚木市,22,下荻野386,鎌筍神社南西道路ガードレール,35.480341,139.335712,
神奈川県,厚木市,23,下荻野577,子中コミュニティーパークフェンス,35.4819033,139.3384254,
神奈川県,厚木市,24,下荻野124-1,ＮＴＴ東日本荻野電話交換センター西道路フェンス,35.482616,139.336472,緯度経度は怪しい
神奈川県,厚木市,25,中荻野11-2,masked,35.482445,139.319778,緯度経度は怪しい
神奈川県,厚木市,26,中荻野1500,荻野運動公園北側フェンス,35.479561,139.31955,緯度経度は怪しい
神奈川県,厚木市,27,上荻野17,荻野小学校北道路植栽,35.503555,139.304321,緯度経度は怪しい
神奈川県,厚木市,28,上荻野957,いずみ公園南側,35.5003879,139.3151151,
神奈川県,厚木市,29,上荻野134,荻野中学校交差点南西側フェンス,35.4924316,139.3201656,
神奈川県,厚木市,30,上荻野1183,泉バス停横畦,35.503555,139.304321,緯度経度は怪しい
神奈川県,厚木市,31,上荻野6283,宮郷水辺の広場南側ガードパイプ,35.491467,139.319626,緯度経度は怪しい
神奈川県,厚木市,32,上荻野1434,上荻野小学校南西道路ガードレール,35.5045463,139.3099522,
神奈川県,厚木市,33,上荻野3595,神奈川中央交通博厚木営業所北側フェンス,35.5131014,139.2997996,
神奈川県,厚木市,34,上荻野1239,masked,35.502007,139.311081,緯度経度は怪しい
神奈川県,厚木市,35,上荻野1925-1,荻野公民館上荻野分館西側フェンス,35.5102864,139.3043857,
神奈川県,厚木市,36,上荻野1601-48,上荻野荒井中公園西側フェンス,35.5080755,139.3093497,
神奈川県,厚木市,37,上荻野1968,masked,35.513542,139.304062,緯度経度は怪しい
神奈川県,厚木市,38,上荻野3643,上荻野児童館南側フェンス,35.5110565,139.3022612,
神奈川県,厚木市,39,上荻野2626,masked,35.503555,139.304321,緯度経度は怪しい
神奈川県,厚木市,40,飯山4291-2,日枝老人憩の家南側フェンス,35.4695011,139.3191879,
神奈川県,厚木市,41,飯山314,上千頭バス停横植栽,35.4678246,139.3331686,
神奈川県,厚木市,42,飯山5547,MED AGRI CLINIC あつぎ北側道路ガードレール,35.4715761,139.3095462,
神奈川県,厚木市,43,飯山4400,飯山小学校南側道路ガードレール,35.47316,139.316727,緯度経度は怪しい
神奈川県,厚木市,44,宮の里3-1,さぎさか公園南西側植栽,35.4785044,139.3134595,
神奈川県,厚木市,45,飯山4467,masked,35.47071469999999,139.3194026,
神奈川県,厚木市,46,宮の里1-14,宮の里調整池北側フェンス,35.4782029,139.3169468,
神奈川県,厚木市,47,飯山5100,上飯山消防器具置場西側駐車,35.474049,139.313263,緯度経度は怪しい
神奈川県,厚木市,48,飯山南1-18-19,セブンイレブン北道路ガードレール,35.4501315,139.3298767,
神奈川県,厚木市,49,飯山南1-46-5,小鮎公民館東側フェンス,35.4609489,139.3227597,
神奈川県,厚木市,50,飯山3632,masked,35.474049,139.313263,緯度経度は怪しい
神奈川県,厚木市,51,飯山南4-1,里見台きろ山公園南側フェンス,35.4623382,139.3240806,
神奈川県,厚木市,52,下古沢701,三島神社北側道路フェンス,35.4570398,139.3209099,
神奈川県,厚木市,53,飯山4265,久保輪南西道路フェンス,35.468105,139.320282,緯度経度は怪しい
神奈川県,厚木市,54,飯山南4-9-2,小鮎中学校東側擁壁,35.4619423,139.3233646,
神奈川県,厚木市,55,上古沢754,masked,35.4591156,139.3107584,
神奈川県,厚木市,56,飯山南1-31-17,みらくる保育園東側フェンス,35.4529797,139.3291885,
神奈川県,厚木市,1,七沢186,玉川公民館前バス停横道路フェンス,35.448963,139.266006,緯度経度は怪しい
神奈川県,厚木市,2,七沢175-6,玉川公民館東側植栽,35.4383499,139.3025746,
神奈川県,厚木市,3,七沢995,大川橋西側道路ガードレール,35.4451709,139.2981766,
神奈川県,厚木市,4,七沢1352,七沢病院入口バス停横道路フェンス,35.44802140000001,139.295168,
神奈川県,厚木市,5,七沢269-3,馬場リハビリ入口バス停横歩道フェンス,35.4418273,139.2985815,
神奈川県,厚木市,6,七沢1330,七沢病院前バス停横道路敷,35.4481419,139.2937889,
神奈川県,厚木市,7,七沢1164,フレンドマートこえち東道路フェンス,35.45125549999999,139.2950027,
神奈川県,厚木市,8,七沢1983,鐘ヶ嶽バス停横道路ガードレール,35.448963,139.266006,緯度経度は怪しい
神奈川県,厚木市,9,七沢2157,上谷戸バス停畑,35.4545307,139.2928092,
神奈川県,厚木市,10,愛名1468,砂口第二公園西側フェンス,35.442467,139.32489,緯度経度は怪しい
神奈川県,厚木市,11,愛名457,愛名第2公園東側植裁,35.4408231,139.326423,
神奈川県,厚木市,12,愛名39-1,愛名青少年広場フェンス,35.4420247,139.3234464,
神奈川県,厚木市,13,愛名422,masked,35.4432743,139.326267,
神奈川県,厚木市,14,下古沢281,下古沢児童館東道路ガードレール,35.45343,139.319489,緯度経度は怪しい
神奈川県,厚木市,15,愛名1000,愛名やまゆり園職員宿舎東側フェンス,35.4386433,139.3263317,
神奈川県,厚木市,16,愛名52-1,愛名老人憩の家東側フェンス,35.4458705,139.3269042,
神奈川県,厚木市,17,緑ヶ丘2-12,緑ヶ丘2丁目芝公園南側,35.4506865,139.3423152,
神奈川県,厚木市,18,緑ヶ丘1-16,緑ヶ丘南公園北側植裁,35.4510829,139.3438218,
神奈川県,厚木市,19,緑ヶ丘3-4,緑ヶ丘西公園東側フェンス,35.4525474,139.3400157,
神奈川県,厚木市,20,緑ヶ丘4-7,緑ヶ丘さくら公園東側ガードパイプ,35.4560025,139.341998,
神奈川県,厚木市,21,緑ヶ丘4-1-1,緑ヶ丘小学校東側フェンス,35.4550132,139.3432086,
神奈川県,厚木市,22,緑ヶ丘4-4,緑ヶ丘まろ公園東側フェンス,35.4549042,139.3401743,
神奈川県,厚木市,23,王子2-12,王子公園南側ガードパイプ,35.4595594,139.3417601,
神奈川県,厚木市,24,恩名1-8,厚木市文化会館北側駐車場フェンス,35.43701679999999,139.3559553,
神奈川県,厚木市,25,恩名2-5,東京電力(株)厚木営業センター西道路フェンス,35.4422101,139.3544484,
神奈川県,厚木市,26,恩名2-16-1,南毛利中学校西側フェンス,35.4424986,139.3523201,
神奈川県,厚木市,27,恩名4-7-1,日立Astemo(株)厚木第一工場正門寄フェンス,35.445526,139.347,緯度経度は怪しい
神奈川県,厚木市,28,恩名3-9-78,恩名スポーツ広場北道路ガードレール,35.4408811,139.3525337,
神奈川県,厚木市,29,温水217,masked,35.434147,139.351227,緯度経度は怪しい
神奈川県,厚木市,30,温水465-6,masked,35.436279,139.3488409,
神奈川県,厚木市,31,恩名1-9-20,厚木市文化会館南側塀,35.4359447,139.3560541,
神奈川県,厚木市,32,長谷981-13,ぼうさいの丘公園西側第4駐車場北側フェンス,35.4326664,139.3410785,
神奈川県,厚木市,33,長谷626-1,厚木市衛生プラント北側フェンス,35.4309455,139.3280019,
神奈川県,厚木市,34,長谷1382,長谷はら公園東側フェンス,35.4364513,139.3339949,
神奈川県,厚木市,35,長谷698,毛利台南入口交差点道路南側ガードパイプ,35.433178,139.330399,緯度経度は怪しい
神奈川県,厚木市,36,長谷1092-8,笹子ビル南道路ガードレール,35.4355997,139.3387273,
神奈川県,厚木市,37,温水926,㈱準備体エネルギー研究所グラウンド東道路ガードパイプ,35.4373528,139.3397249,
神奈川県,厚木市,38,温水617-1,温水・恩名児童館南側フェンス,35.439218,139.3459275,
神奈川県,厚木市,39,温水1159,masked,35.4385455,139.341661,
神奈川県,厚木市,40,愛甲2-11,室前公園南側フェンス,35.4197721,139.3445355,
神奈川県,厚木市,41,愛甲2-11,室前公園東側フェンス,35.4197721,139.3445355,
神奈川県,厚木市,42,愛甲東1-5-1,masked,35.4178945,139.3455233,
神奈川県,厚木市,43,愛甲東3-19,masked,35.4170962,139.3527829,
神奈川県,厚木市,44,愛甲1809,東名中学校北側フェンス,35.4211226,139.3527651,
神奈川県,厚木市,45,愛甲3-17,愛甲ハイツ北西道路ガードレール,35.4245619,139.3455663,
神奈川県,厚木市,46,愛甲1-3,愛甲石田駅北口自転車等駐車場西側フェンス,35.4190994,139.3435839,
神奈川県,厚木市,47,酒井632,masked,35.4170429,139.3571349,
神奈川県,厚木市,48,下津古久602-1,厚木消防署相川分署北側入口前,35.4107324,139.3559156,
神奈川県,厚木市,49,上落合590番1,上落合ふれあい公園西側高架下フェンス,35.408871,139.350388,緯度経度は怪しい
神奈川県,厚木市,50,下津古久710-1,相川保育所フェンス,35.40829009999999,139.3581055,
神奈川県,厚木市,51,下津古久282,防災センター南側道路植裁,35.4085146,139.3538932,
神奈川県,厚木市,52,長沼244,長沼公園西側フェンス,35.399521,139.353668,緯度経度は怪しい
神奈川県,厚木市,53,戸田669,下沖老人憩の家西側フェンス,35.4017922,139.3586929,
神奈川県,厚木市,1,妻田南1-14-1,妻田小学校北側フェンス,35.4526068,139.3617751,
神奈川県,厚木市,2,妻田南1-2-18,masked,35.4521616,139.3596698,
神奈川県,厚木市,3,妻田東1-11-5,三家南自治会館西道路植裁,35.4552558,139.3642243,
神奈川県,厚木市,4,妻田南1-14-1,妻田小学校東側フェンス,35.4526068,139.3617751,
神奈川県,厚木市,5,妻田東1-7-17,masked,35.4536935,139.3642341,
神奈川県,厚木市,6,妻田東1-21-1,妻田東ハイツ東側フェンス,35.4575128,139.3631754,
神奈川県,厚木市,7,妻田東2-4,のぞみ幼稚園第２グランド南側フェンス,35.455596,139.3609522,
神奈川県,厚木市,8,妻田東1-1-20,masked,35.4524241,139.3644495,
神奈川県,厚木市,9,吾妻町12-37,吾妻団地７号棟北公園西側フェンス,35.4533339,139.3548449,
神奈川県,厚木市,10,林1-8,向田公園北側フェンス,35.4559322,139.3536553,
神奈川県,厚木市,11,王子1-1,王子入口バス停横道路ガードパイプ,35.4556783,139.3443769,
神奈川県,厚木市,12,林5-5-1,林中学校西側フェンス,35.458494,139.3522327,
神奈川県,厚木市,13,林4-19,林中央公園東側フェンス,35.4588444,139.3495313,
神奈川県,厚木市,14,林5-14,井田公園南側フェンス,35.4617409,139.3511967,
神奈川県,厚木市,15,王子1-1-1,厚木王子高校北側フェンス,35.4562253,139.3448972,
神奈川県,厚木市,16,林2-852-3,林大坂上コミュニティパーク,35.4532691,139.3469144,
神奈川県,厚木市,17,愛甲西2-25,愛甲原しま公園西側擁壁,35.42478010000001,139.32959,
神奈川県,厚木市,18,愛甲西1-5,東名側道路フェンス,35.4242073,139.3385092,
神奈川県,厚木市,19,愛甲西3-5,(㈱)内山造園樹木植南西道路ガードパイプ,35.4258966,139.3368442,
神奈川県,厚木市,20,愛甲西1-17-1,愛甲小学校東側フェンス,35.4256959,139.3396714,
神奈川県,厚木市,21,愛甲西1-17-1,愛甲小学校西側フェンス,35.4256959,139.3396714,
神奈川県,厚木市,22,船子1219,masked,35.426084,139.351834,
神奈川県,厚木市,23,船子1091-1,農大入口バス停横,35.43104080000001,139.3521315,
神奈川県,厚木市,24,岡田5-11,岡田南公園西側ガードパイプ,35.4180295,139.3681706,
神奈川県,厚木市,25,岡田3091,坊西公園東側フェンス,35.430351,139.362671,緯度経度は怪しい
神奈川県,厚木市,26,岡田5-1,㈲藤忠佐藤屋店西水路フェンス,35.4227849,139.3661081,
神奈川県,厚木市,27,岡田4-5,西の前第２公園南側フェンス,35.4276001,139.3673774,
神奈川県,厚木市,28,岡田5-12,掘田公園南側フェンス,35.4172086,139.3669411,
神奈川県,厚木市,29,岡田3083,長徳寺駐車場西道路ガードレール,35.4220504,139.3648076,
神奈川県,厚木市,30,岡田3198,NTT東日本岡田電話局フェンス,35.4184884,139.3640853,
神奈川県,厚木市,31,岡津古久792,masked,35.4299406,139.3171745,
神奈川県,厚木市,32,小野2055,masked,35.4343501,139.3158372,
神奈川県,厚木市,33,岡津古久945,佐藤病院南道路ガードレール,35.4287353,139.313301,
神奈川県,厚木市,34,小野2245,宝蔵山公園北西道路フェンス,35.435318,139.314972,緯度経度は怪しい
神奈川県,厚木市,35,小野106,玉川野球場北道路フェンス,35.4343501,139.3158372,
神奈川県,厚木市,36,小野2444,厚木市農協玉川支所東側植栽,35.4350837,139.3080309,
神奈川県,厚木市,37,小野2231,masked,35.4343501,139.3158372,
神奈川県,厚木市,38,及川636,及川青少年広場西水路フェンス,35.467224,139.348038,緯度経度は怪しい
神奈川県,厚木市,39,及川1-2,山ノ上剣公園南側ガードパイプ,35.4664671,139.3488969,
神奈川県,厚木市,40,及川990,masked,35.4686118,139.339964,
神奈川県,厚木市,41,及川473,消防団第３分団南道路フェンス,35.4672581,139.3452194,
神奈川県,厚木市,42,及川2-15,masked,35.4718924,139.3446147,
神奈川県,厚木市,43,及川1-17-1,及川球技場北側フェンス,35.467542,139.3472584,
神奈川県,厚木市,44,及川2-2-1,神奈川中央交通（株）厚木営業所南側建畔,35.4700712,139.3485422,
神奈川県,厚木市,45,鳶尾1-6,鳶尾東公園南側,35.491161,139.335922,緯度経度は怪しい
神奈川県,厚木市,46,鳶尾1-32,鳶尾弥生公園南側,35.4896407,139.3331179,
神奈川県,厚木市,47,鳶尾2-12-1,鳶尾小学校西側,35.4896093,139.3297238,
神奈川県,厚木市,48,鳶尾2-11,鳶尾中央公園テニスコート北側植栽,35.4902789,139.3301053,
神奈川県,厚木市,49,鳶尾1-20,鳶尾北公園西側擁壁,35.4929027,139.331453,
神奈川県,厚木市,50,鳶尾2-12-1,鳶尾小学校東側,35.4896093,139.3297238,
神奈川県,厚木市,51,鳶尾3-2-11,鳶尾児童館南側フェンス,35.4919409,139.3270048,
神奈川県,厚木市,1,毛利台3-26,かつらぎ公園北側ガードパイプ,35.4347648,139.3270928,
神奈川県,厚木市,2,毛利台3-1,曽野公園西側ガードパイプ,35.4367641,139.3311359,
神奈川県,厚木市,3,毛利台2-5-7,masked,35.4392872,139.3321184,
神奈川県,厚木市,4,毛利台1-28,鳥山公園南側ガードパイプ,35.4404775,139.3282819,
神奈川県,厚木市,5,毛利台2-2-13,毛利台児童館北側フェンス,35.4401816,139.3302469,
神奈川県,厚木市,6,毛利台3-2-13,masked,35.4369859,139.3304026,
神奈川県,厚木市,7,毛利台1-19,若草公園西側ガードパイプ,35.4420907,139.3313737,
神奈川県,厚木市,8,温水西1-13,ねのかみ公園北側ガードパイプ,35.4407652,139.3360513,
神奈川県,厚木市,9,温水1681,高坪児童遊園北東遊路フェンス,35.44091,139.338943,緯度経度は怪しい
神奈川県,厚木市,10,温水1537,スポーツセンター入口バス停横遊路フェンス,35.44125,139.337936,緯度経度は怪しい
神奈川県,厚木市,11,温水西1-17-1,南毛利公民館南側フェンス,35.4389074,139.3353928,
神奈川県,厚木市,12,温水1706,上高坪バス停横遊路フェンス,35.44091,139.338943,緯度経度は怪しい
神奈川県,厚木市,13,温水1110,masked,35.44091,139.338943,緯度経度は怪しい
神奈川県,厚木市,14,温水1906,温水老人館の家フェンス,35.4452412,139.3377605,
神奈川県,厚木市,15,温水西1-2,ワンダーパーク温水イースト,35.4385985,139.33954,
神奈川県,厚木市,16,旭町4-13,旭南（ふじみ）公園西側ガードパイプ,35.4304104,139.3685525,
神奈川県,厚木市,17,旭町4-12-11,masked,35.4302712,139.3666244,
神奈川県,厚木市,18,旭町2-11-10,市営旭町ハイツ東側フェンス,35.4362312,139.3680321,
神奈川県,厚木市,19,旭町2-19,旭町帯状公園北側植栽,35.4351132,139.3661081,
神奈川県,厚木市,20,旭町2-4-18,厚木南公民館南側植栽,35.4381182,139.3676442,
神奈川県,厚木市,21,旭町3-14,熊野神社児童遊園フェンス,35.4366613,139.3690433,
神奈川県,厚木市,22,旭町4-7,ふじみ公園東側（ソニー㈱厚木テクノロジーセンター前）,35.4328003,139.367298,
神奈川県,厚木市,23,山際948,masked,35.504033,139.3627234,
神奈川県,厚木市,24,山際658,北小学校南側フェンス,35.5031268,139.3596137,
神奈川県,厚木市,25,下川入300,諏訪神社西側擁壁,35.5030952,139.3513865,
神奈川県,厚木市,26,上依知1313-1,依知北公民館東側フェンス,35.5076076,139.3588986,
神奈川県,厚木市,27,山際658,北小学校東側フェンス,35.5031268,139.3596137,
神奈川県,厚木市,28,山際649,山際公園南側フェンス,35.502491,139.3582966,
神奈川県,厚木市,29,山際1256,masked,35.5047428,139.3643449,
神奈川県,厚木市,30,上依知1313-1,依知北公民館北側植栽,35.5076076,139.3588986,
神奈川県,厚木市,31,森の里1-27-1,森の里小学校正門横フェンス,35.4441501,139.3062017,
神奈川県,厚木市,32,森の里1-38,若宮公園東側駐車場横植栽,35.443909,139.310448,
神奈川県,厚木市,33,森の里1-36,若宮公園野外ステージ北東側植栽,35.4453041,139.3100914,
神奈川県,厚木市,34,森の里3-35-1,森の里中学校正門横フェンス,35.4487156,139.3048046,
神奈川県,厚木市,35,森の里南山21,あつぎつつじの丘公園第2出入口植栽,35.44199,139.30896,緯度経度は怪しい
神奈川県,厚木市,36,森の里1-17,日だまり公園東側植栽,35.4419694,139.3074366,
神奈川県,厚木市,37,森の里1-39,若宮公園テニスコート南側植栽,35.4434438,139.3096555,
神奈川県,厚木市,38,森の里3-23,くりの実公園西側植栽,35.4466821,139.3077535,
神奈川県,厚木市,39,水引1-1-3,厚木中学校正門横フェンス,35.4445559,139.3594154,
神奈川県,厚木市,40,栄町1-7-11,マンマパスタ本厚木店北側フェンス,35.4412358,139.3579946,
神奈川県,厚木市,41,水引1-16-36,厚木市立病院東側フェンス,35.4490108,139.3602185,
神奈川県,厚木市,42,水引2-3,合同庁舎3号館南側ブロック塀,35.44527070000001,139.3572243,
神奈川県,厚木市,43,水引2-3,合同庁舎駐車場北側フェンス,35.44527070000001,139.3572243,
神奈川県,厚木市,44,栄町1-9,masked,35.4417386,139.3600003,
神奈川県,厚木市,45,栄町1-4,アーバンプラザ西道路植栽,35.440241,139.3598417,
神奈川県,厚木市,46,水引1-16-36,厚木市立病院南側擁壁,35.4490108,139.3602185,
神奈川県,厚木市,47,芹澤2-2-47,masked,35.443054,139.362503,緯度経度は怪しい
神奈川県,厚木市,48,戸室1-41-1,吾妻・戸室歩道橋下遊路フェンス,35.4532184,139.3525728,
神奈川県,厚木市,49,戸室4-4-1,戸室小学校正門横フェンス,35.451729,139.3505599,
神奈川県,厚木市,50,戸室4-1-41,masked,35.4521188,139.3517521,
神奈川県,厚木市,51,戸室2-24-1,厚木高校北側フェンス,35.4464838,139.348887,
神奈川県,厚木市,52,戸室5-21-1,戸室ハイツ南側フェンス,35.4500121,139.3464711,
神奈川県,厚木市,53,戸室1-21,戸室しみず公園北側ガードパイプ,35.4485779,139.3550432,
神奈川県,厚木市,54,戸室2-24-1,厚木高校南側フェンス,35.4464838,139.348887,
神奈川県,厚木市,1,妻田北1-18-33,睦合南公民館北側植栽,35.4647663,139.3571939,
神奈川県,厚木市,2,妻田北2-6-18,反田児童遊園西側フェンス,35.4677466,139.3631475,
神奈川県,厚木市,3,妻田北1-14,そりだ公園北側植栽,35.4643062,139.3592865,
神奈川県,厚木市,4,妻田北2-2,そりだハイツ敷地東道路ガードレール,35.4651324,139.3607935,
神奈川県,厚木市,5,妻田東3-19-1,鮎津橋西通路フェンス,35.45950320000001,139.3637185,
神奈川県,厚木市,6,妻田北2-13-18,カミヤマクリーニング北道路フェンス,35.4667655,139.3599579,
神奈川県,厚木市,7,妻田北1-10,ツマダボウル南東道路ガードパイプ,35.4633383,139.3600797,
神奈川県,厚木市,8,妻田北3-4-18,田園団地入口坂下植栽,35.4678557,139.3547376,
神奈川県,厚木市,9,酒井3202,白鷺公園南側フェンス,35.4139194,139.3624295,
神奈川県,厚木市,10,酒井2088,酒井三田公園南側フェンス,35.4115006,139.3644625,
神奈川県,厚木市,11,酒井1981-1,相川中学校正門横フェンス,35.4084474,139.3649579,
神奈川県,厚木市,12,戸田2446,(有)佐久間工務店北東道路フェンス,35.399567,139.3697689,
神奈川県,厚木市,13,戸田365,戸田児童遊園南側フェンス,35.40530520000001,139.3645018,
神奈川県,厚木市,14,酒井1981-1,相川中学校西側フェンス,35.4084474,139.3649579,
神奈川県,厚木市,15,戸田1431,masked,35.401792,139.3627765,
神奈川県,厚木市,16,岡田1-8,岡田きたや公園西側フェンス,35.4297343,139.3630938,
神奈川県,厚木市,17,南町11,ひまわり公園西側フェンス,35.4320848,139.3572243,
神奈川県,厚木市,18,岡田1-3-21,東京電力岡田変電所南側フェンス,35.4287544,139.3654334,
神奈川県,厚木市,19,岡田1-14,道路補修事務所資材置場南側フェンス,35.4300149,139.3599409,
神奈川県,厚木市,20,岡田1-12-1,厚木清南高校北側フェンス,35.4313499,139.3619352,
神奈川県,厚木市,21,船子607,ひばり公園西側植栽,35.4310977,139.3548356,
神奈川県,厚木市,22,南町24,すみれ公園東側フェンス,35.4296288,139.358414,
神奈川県,厚木市,23,飯山南5-45,東京工芸大学駐車場西道路ガードレール,35.463452,139.3310566,
神奈川県,厚木市,24,飯山南3-17-20,日立Astemo(株)厚木第二工場南側フェンス,35.4596625,139.3283267,
神奈川県,厚木市,25,飯山南2-40-8,駒ヶ原北公園西側フェンス,35.4594985,139.3322976,
神奈川県,厚木市,26,飯山233,南千頭自治会館西道路ガードレール,35.46452,139.335266,緯度経度は怪しい
神奈川県,厚木市,27,飯山南5-37-6,こまつ中公園南側ガードパイプ,35.4617145,139.3309176,
神奈川県,厚木市,28,飯山南5-18-30,厚木資源再生センター駐車場フェンス,35.4615425,139.3339622,
神奈川県,厚木市,29,飯山南5-55-10,こまつ上公園北側ガードパイプ,35.462701,139.3282003,
神奈川県,厚木市,30,金田752,大六天神社北側フェンス,35.462572,139.3712775,
神奈川県,厚木市,31,金田528,Y's coat西道路ガードレール,35.46698,139.3689892,
神奈川県,厚木市,32,金田172-1,金田老人憩の家北側フェンス,35.4668039,139.3676655,
神奈川県,厚木市,33,金田383,金田第一青少年広場,35.4606905,139.3663376,
神奈川県,厚木市,34,金田408,masked,35.4608123,139.3694429,
神奈川県,厚木市,35,金田204,金田第二公園西側フェンス,35.4674109,139.3676708,
神奈川県,厚木市,36,金田1156,ふれあいプラザ東側植栽,35.4595324,139.3715327,
神奈川県,厚木市,37,三田3-1-1,睦合中学校運動場東側フェンス,35.4783256,139.343915,
神奈川県,厚木市,38,三田南3-26-31,三田老人憩の家北側フェンス,35.4719891,139.3531497,
神奈川県,厚木市,39,三田515,三田小学校北西側フェンス,35.4823799,139.3473733,
神奈川県,厚木市,40,三田3-26,くすのき公園西側フェンス,35.4787334,139.3492934,
神奈川県,厚木市,41,三田781,どうけい塚公園南側フェンス,35.482838,139.350388,緯度経度は怪しい
神奈川県,厚木市,42,三田南3-23,根岸スポーツ広場北側フェンス,35.4726295,139.3511967,
神奈川県,厚木市,43,三田464-6,中三田第2自治会西側フェンス,35.4808868,139.3484998,
神奈川県,厚木市,44,まつかげ台23,まつかげ台中央公園北側フェンス,35.5039656,139.316392,
神奈川県,厚木市,45,まつかげ台1,まつかげ台丘公園北側フェンス,35.5021403,139.3171846,
神奈川県,厚木市,46,みはる野1-42,大谷公園南側,35.4993981,139.3224159,
神奈川県,厚木市,47,鷹尾4-14,天覧台公園南側,35.44309399999999,139.3625403,
神奈川県,厚木市,48,鷹尾4-23,もみじ公園南側,35.44309399999999,139.3625403,
神奈川県,厚木市,49,鷹尾5-1-1,荻野中学校正門横,35.443054,139.362503,緯度経度は怪しい
神奈川県,厚木市,50,鷹尾5-10,鷹尾西公園北側,35.44309399999999,139.3625403,
神奈川県,厚木市,51,みはる野2-1-8,masked,35.4999366,139.3205037,
神奈川県,厚木市,52,妻田東2-5,東河原第二公園西水路フェンス,35.4561151,139.3613488,
神奈川県,厚木市,53,妻田東2-25,大明錦厚木センター東水路フェンス,35.4579224,139.3594451,
神奈川県,厚木市,54,妻田西1-25,パークハイツコジマ北道路ガードパイプ,35.4591316,139.3573036,
神奈川県,厚木市,55,妻田西1-24,市場公園北側ガードパイプ,35.4587953,139.3568277,
神奈川県,厚木市,56,妻田西1-3-6,masked,35.4555194,139.3567655,
神奈川県,厚木市,57,妻田西1-17-33,妻田児童館北側フェンス,35.4580832,139.3569695,
神奈川県,厚木市,58,妻田東2-23,東河原第一公園西側ガードパイプ,35.4580818,139.3614281,
