prefecture,city,number,address,name,lat,long,note
神奈川県,大和市,1,下鶴間5134,高木公園,35.518841,139.458997,
神奈川県,大和市,2,下鶴間504-1,コミュニティーセンター公所会館南側,35.513717,139.458844,
神奈川県,大和市,3,つきみ野4-5,つきみ駅東側の線路沿フェンス(ビレジB-1前),35.510016,139.458751,
神奈川県,大和市,4,下鶴間685,北大和小学校西門横,35.508690,139.461604,
神奈川県,大和市,5,下鶴間685,北大和小学校南側正門横,35.508325,139.462123,
神奈川県,大和市,6,下鶴間2150-1,名和公園,35.503668,139.465541,
神奈川県,大和市,7,つきみ野4-1-4,つきみ野ぶどう園西側,35.506523,139.459804,
神奈川県,大和市,8,つきみ野4-4,つきみ野8号公園南側,35.508615,139.459415,
神奈川県,大和市,9,つきみ野7-3-2,つる舞の里歴史資料館,35.513552,139.454142,
神奈川県,大和市,10,つきみ野6-2-10,つきみ野6号公園北側,35.512817,139.453141,
神奈川県,大和市,11,つきみ野7-5,masked,35.515006,139.453348,
神奈川県,大和市,12,つきみ野8-11,つきみ野2号公園西側,35.516394,139.453358,
神奈川県,大和市,13,つきみ野8-3,つきみ野9号公園西側,35.516290,139.450624,
神奈川県,大和市,14,つきみ野5-4,市営つきみ野住宅5号棟北側,35.510908,139.453815,
神奈川県,大和市,15,つきみ野5-5,つきみ野野球場北側,35.511564,139.456207,
神奈川県,大和市,16,つきみ野5-4,つきみ野駅前道路西側,35.510344,139.457508,
神奈川県,大和市,17,中央林間6-26-7,コミュニティセンター中央林間会館入口南側,35.512035,139.446883,
神奈川県,大和市,18,中央林間6-7-13,中央林間幼稚園北側,35.511120,139.446263,
神奈川県,大和市,19,中央林間6-6,コナミスポーツクラブ駐車場西側,35.509426,139.446163,
神奈川県,大和市,20,中央林間6-6,コナミスポーツクラブ駐車場南側,35.509111,139.447008,
神奈川県,大和市,21,中央林間4-26,柿の木通り公園北側,35.507952,139.447569,
神奈川県,大和市,22,中央林間4-1,中央林間東急駐車場北側,35.506752,139.445880,
神奈川県,大和市,23,中央林間5-5,中央林間2号公園北側,35.510927,139.442320,
神奈川県,大和市,24,中央林間5-17,多胡記念公園東側,35.508688,139.439961,
神奈川県,大和市,25,中央林間3-10-10,静岡中央銀行中央林間支店東側,35.507516,139.443198,
神奈川県,大和市,26,中央林間1-4,市営緑野住宅3号棟南側,35.504609,139.443915,
神奈川県,大和市,27,中央林間1-8,市営緑野住宅集会所北側,35.503408,139.443201,
神奈川県,大和市,28,中央林間1-2,市営緑野住宅児童遊園南側,35.502501,139.444133,
神奈川県,大和市,29,中央林間1-22-20,松原学園幼稚園東側,35.505075,139.441486,
神奈川県,大和市,30,中央林間西4-4188-1,宇都宮記念公園(みどりの森)フェンス,35.503286,139.440598,
神奈川県,大和市,31,中央林間西4-27,緑野保育園南側,35.504870,139.439107,
神奈川県,大和市,32,中央林間西5-3,緑野小学校西側,35.502428,139.436940,
神奈川県,大和市,33,南林間9-9-3722,南林間スポーツ広場,35.494533,139.436066,
神奈川県,大和市,34,中央林間西2-3786-18,シェア畑中央林間フェンス,35.501165,139.437431,
神奈川県,大和市,35,南林間9-3-1,南林間中学校北門横,35.497408,139.435489,
神奈川県,大和市,36,南林間9-3-1,南林間中学校東側正門横,35.497031,139.437015,
神奈川県,大和市,37,南林間9-3-2,南林間小学校東南角,35.496045,139.437402,
神奈川県,大和市,38,南林間9-3-2,南林間小学校南側,35.495781,139.436580,
神奈川県,大和市,39,中央林間西3-2,もちのき公園,35.499087,139.434485,
神奈川県,大和市,40,中央林間西1-15,オーキュー印刷(有)東側植栽内,35.500841,139.440836,
神奈川県,大和市,41,南林間3-10-17,南林間児童遊園南側,35.498576,139.442961,
神奈川県,大和市,42,南林間3-10-1,学校法人大和学園聖セシリア小学校東側,35.500340,139.443911,
神奈川県,大和市,43,南林間3-11-7,学校法人大和学園聖セシリア中学校南側,35.499596,139.445035,
神奈川県,大和市,44,林間2-6-18,特別支援教育センター「アンダンテ」南側,35.500654,139.445656,
神奈川県,大和市,45,中央林間2-6-17,みどり野リハビリテーション病院 正門横,35.502192,139.445889,
神奈川県,大和市,46,中央林間2-16,中央林間1号公園南側,35.502587,139.447075,
神奈川県,大和市,47,中央林間7-8-1,三菱重工冷熱株式会社の正門横,35.504971,139.449103,
神奈川県,大和市,48,中央林間7-12-2,ニッセイロジスティクスセンター西南,35.501523,139.452689,
神奈川県,大和市,49,つきみ野3-4,神奈川県立大和高等学校南側,35.506346,139.454055,
神奈川県,大和市,50,中央林間7-10-1,三機テクノセンター正門横,35.506947,139.453095,
神奈川県,大和市,51,つきみ野3-5-1,つきみ野中学校南側,35.507915,139.453944,
神奈川県,大和市,52,つきみ野3-5-1,つきみ野中学校北側正門横,35.509058,139.453632,
神奈川県,大和市,53,つきみ野3-16,つきみ野4号公園北側,35.506779,139.457064,
神奈川県,大和市,54,つきみ野1-5,つきみ野11号公園東側,35.504672,139.457918,
神奈川県,大和市,55,つきみ野1-12,つきみ野5号公園西側,35.504699,139.459380,
神奈川県,大和市,56,下鶴間1826-3,坂上公園西側,35.500374,139.457564,
神奈川県,大和市,57,下鶴間1845,パセオクレスト(アパート)西側畑,35.500767,139.460715,
神奈川県,大和市,58,下鶴間1938,鶴林寺南側,35.500958,139.463204,
神奈川県,大和市,59,下鶴間1945,masked,35.502304,139.462407,
神奈川県,大和市,60,下鶴間2114,目黒川沿いの柵(南側),35.501306,139.463926,
神奈川県,大和市,61,下鶴間2329-1近辺,さがみ水産の南側の川沿いフェンス,35.499381,139.463816,
神奈川県,大和市,62,下鶴間2516-2,コミュニティーセンター下鶴間会館横,35.497743,139.462991,
神奈川県,大和市,63,下鶴間1783,下鶴間子どもの広場南側植込み,35.499506,139.451951,
神奈川県,大和市,64,下鶴間3000-3,緑の広場17号北側,35.499330,139.453572,
神奈川県,大和市,65,下鶴間3008,大和歩行者専用道,35.497825,139.452324,
神奈川県,大和市,66,下鶴間3016,鶴間中学校北側,35.496587,139.453535,
神奈川県,大和市,67,下鶴間3016,鶴間中学校南側,35.495672,139.454278,
神奈川県,大和市,68,下鶴間2786,山王原西公園北側,35.495570,139.457023,
神奈川県,大和市,69,下鶴間2776-18,長堀公園東側,35.492761,139.460406,
神奈川県,大和市,70,下鶴間2777-5,リラの丘公園北側植込み,35.493383,139.456805,
神奈川県,大和市,71,鶴間2-7-17,鶴間二丁目ちびっこ広場,35.492719,139.451900,
神奈川県,大和市,72,鶴間2-15,ふるみち公園北側,35.494102,139.452314,
神奈川県,大和市,73,西鶴間1-1,鶴間駅東口フェンス,35.490426,139.450918,
神奈川県,大和市,74,林間1-5-18,林間小学校北側正門横,35.497034,139.449222,
神奈川県,大和市,75,林間1-5-18,林間小学校東側,35.496744,139.450322,
神奈川県,大和市,76,林間1-5-18,林間小学校南側,35.495999,139.449752,
神奈川県,大和市,77,林間1-3,南林間駅東口ロータリー,35.496265,139.448003,
神奈川県,大和市,78,林間1-2,南林間駅の東南の線路沿い(自治会掲示板横),35.493313,139.449347,
神奈川県,大和市,79,南林間2-11,南林間駅派出所裏ロータリー南側,35.495287,139.446590,
神奈川県,大和市,80,南林間2-11,南林間駅派出所裏ロータリー北側,35.495457,139.446444,
神奈川県,大和市,81,南林間2-14-1,高座教会東側,35.496559,139.445430,
神奈川県,大和市,82,南林間2-14-1,高座教会北側,35.496940,139.444734,
神奈川県,大和市,83,南林間2-19,南林間中央公園北側,35.495517,139.444393,
神奈川県,大和市,84,南林間2-19,南林間中央公園西側,35.495131,139.444062,
神奈川県,大和市,85,南林間4-9,南林間四丁目公園南側,35.491762,139.444112,
神奈川県,大和市,86,南林間2-19,南林間タイムズ8駐車場フェンス,35.494820,139.445279,
神奈川県,大和市,87,南林間7-8,南林間西北公園,35.493135,139.439320,
神奈川県,大和市,88,南林間7-14,緑の広場11号東側,35.492542,139.438691,
神奈川県,大和市,89,南林間7-14-24,コミュニティーセンター南林間会館,35.492548,139.438124,
神奈川県,大和市,90,南林間6-6,南林間1号公園南側,35.490369,139.441257,
神奈川県,大和市,91,南林間7-14,緑の広場11号北側,35.492651,139.438410,
神奈川県,大和市,92,南林間6-16-34,やまと防災パーク 東側,35.489302,139.439767,
神奈川県,大和市,93,南林間6-16-34,やまと防災パーク 西側,35.488930,139.438141,
神奈川県,大和市,94,南林間6-27,南林間むつみ公園,35.489041,139.436381,
神奈川県,大和市,95,西鶴間2-26,西鶴間2号公園東側,35.487614,139.446811,
神奈川県,大和市,96,西鶴間2-25-43,西鶴間小学校東側正門横,35.487833,139.445674,
神奈川県,大和市,97,西鶴間2-25-43,西鶴間小学校南側,35.487308,139.445519,
神奈川県,大和市,98,西鶴間6-31,西鶴間3号公園東側,35.488769,139.441429,
神奈川県,大和市,99,西鶴間8-4-20,若草保育園北側,35.485270,139.440163,
神奈川県,大和市,100,西鶴間8-1,サンホーム鶴間東側,35.484094,139.441733,
神奈川県,大和市,101,西鶴間6-24,西鶴間六丁目2号児童遊園,35.485542,139.441247,
神奈川県,大和市,102,西鶴間1-24,西鶴間一丁目公園東側歩道,35.491209,139.4476381,
神奈川県,大和市,103,西鶴間1-25-2,masked,35.490939,139.447150,
神奈川県,大和市,104,西鶴間1-24,西鶴間一丁目公園南側歩道,35.491121,139.447791,
神奈川県,大和市,105,西鶴間2-4,西鶴間二丁目公園南側,35.489497,139.447538,
神奈川県,大和市,106,西鶴間2-4-20,コミュニティセンター西鶴間会館,35.489732,139.447878,
神奈川県,大和市,107,南林間4-1,朝日新聞販売店前歩道ポール,35.491828,139.446301,
神奈川県,大和市,108,西鶴間1-5,鶴間駅西口と南林間駅の中間地点の線路フェンス,35.491741,139.449929,
神奈川県,大和市,109,西鶴間4-9,西鶴間四丁目児童遊園東側,35.485281,139.447581,
神奈川県,大和市,110,西鶴間五丁目3486地先,泉の森フェンス,35.483551,139.442541,
神奈川県,大和市,111,上草柳9-19,子安3号公園,35.482081,139.443556,
神奈川県,大和市,112,上草柳9-3,子安ちびっこ広場北側,35.480676,139.445675,
神奈川県,大和市,113,上草柳9-11-20,子安児童館東側,35.481850,139.446315,
神奈川県,大和市,114,上草柳9-10,子安2号公園北西側,35.482222,139.445694,
神奈川県,大和市,115,上草柳8-24,つる・る公園,35.483477,139.446899,
神奈川県,大和市,116,西鶴間3-5,緑の広場27号東側,35.487780,139.451973,
神奈川県,大和市,117,西鶴間4-2,慰霊塔公園東側,35.486290,139.449244,
神奈川県,大和市,118,上草柳7-10,上草柳七丁目児童遊園,35.484967,139.451255,
神奈川県,大和市,119,上草柳7-4-26,大野原小学校西側正門横,35.483693,139.452375,
神奈川県,大和市,120,上草柳7-4-26,大野原小学校東側,35.484167,139.453856,
神奈川県,大和市,121,上草柳6－12,大野1号公園北側,35.479739,139.450802,
神奈川県,大和市,122,上草柳5－3－11,コミュニティーセンター上草柳会館西側の歩道フェンス,35.479498,139.452959,
神奈川県,大和市,123,上草柳5－3－11,コミュニティーセンター上草柳会館南側,35.479404,139.453305,
神奈川県,大和市,124,鶴間1－31－7,大和市保健福祉センター駐車場東側,35.490818,139.455371,
神奈川県,大和市,125,鶴間1－25,鶴間1号公園南側,35.488176,139.455320,
神奈川県,大和市,126,鶴間1－13－2,南関東防衛局座間防衛事務所北側,35.487703,139.453923,
神奈川県,大和市,127,鶴間1－19,大和市文化財保管施設北側,35.487062,139.454796,
神奈川県,大和市,128,深見西7－5－1,大和中学校西側,35.484983,139.453710,
神奈川県,大和市,129,深見西7－5－1,大和中学校北側正門横,35.486062,139.454830,
神奈川県,大和市,130,深見西7－5－1,大和中学校東側,35.486132,139.457458,
神奈川県,大和市,131,下鶴間1－1－1,大和市役所東側,35.488214,139.459109,
神奈川県,大和市,132,下鶴間1－1－1,大和市役所西側植栽,35.487061,139.457263,
神奈川県,大和市,133,下鶴間1－3－1,イトーヨーカドー大和鶴間店 西側通路,35.490848,139.456438,
神奈川県,大和市,134,深見484－1,一ノ関公園東側,35.488932,139.465737,
神奈川県,大和市,135,深見西8－7－1,大和小学校東側正門横,35.487200,139.462567,
神奈川県,大和市,136,深見西8－7－1,大和小学校西側,35.487058,139.4606895,
神奈川県,大和市,137,深見西6－1－7,masked,35.483625,139.458740,
神奈川県,大和市,138,深見東3－1－13,日本ペイント販売㈱西側正門横,35.483719,139.464380,
神奈川県,大和市,139,桜森3－16－31,文ケ岡小学校東側正門横,35.474626,139.439433,
神奈川県,大和市,140,桜森3－16－31,文ケ岡小学校南側,35.474058,139.438693,
神奈川県,大和市,141,桜森3－5－21,コミュニティセンター桜森会館北側,35.472877,139.441032,
神奈川県,大和市,142,桜森3－9,桜森わいわい公園,35.472022,139.439042,
神奈川県,大和市,143,桜森3－1,相模大塚駅北口ロータリー,35.471288,139.440678,
神奈川県,大和市,144,上草柳71－6,表（ｵﾓﾃ）駐車場フェンス,35.472251,139.445324,
神奈川県,大和市,145,桜森1－2,桜森スポーツ広場北側,35.468746,139.444391,
神奈川県,大和市,146,桜森3－1－1,相模大塚駅南側,35.470446,139.440823,
神奈川県,大和市,147,上草柳3－16,上草柳三丁目公園東側,35.477288,139.453927,
神奈川県,大和市,148,上草柳4－1,上草柳四丁目公園北側,35.477587,139.456339,
神奈川県,大和市,149,上草柳3－4,上草柳ちびっこ広場西側,35.475173,139.452147,
神奈川県,大和市,150,上草柳2－14,大東公園北側,35.474158,139.453611,
神奈川県,大和市,151,上草柳1-1-1,大和スポーツセンター南側,35.474200,139.458509,
神奈川県,大和市,152,中央3-6-1,草柳小学校南側フェンス,35.471245,139.455182,
神奈川県,大和市,153,中央3-6-1,草柳小学校東側正門横,35.471776,139.455949,
神奈川県,大和市,154,中央3-8,中央4号公園南側,35.472200,139.456665,
神奈川県,大和市,155,深見西1-5-2,株式会社APJ正門横,35.476780,139.458003,
神奈川県,大和市,156,深見西1-3-17,ベテルギウス 公園(ミニバス広場)前,35.476392,139.461397,
神奈川県,大和市,157,深見西1-3-17,ベテルギウス 駐車場フェンス,35.475846,139.461639,
神奈川県,大和市,158,深見西1-2-24,NTT大和営業所ビル南側,35.474641,139.461336,
神奈川県,大和市,159,深見西1-1-37,キョーラク株式会社技術研究本部,35.474431,139.459242,
神奈川県,大和市,160,大和東2-4,大和東公園南側,35.472036,139.461178,
神奈川県,大和市,161,大和東2-4-3,ビッグ・バン前の線路沿いフェンス,35.472145,139.460333,
神奈川県,大和市,162,大和東1-11,やまとプロムナード交差点先,35.469853,139.466043,
神奈川県,大和市,163,深見台4-7,深見台保育園南側対面植栽,35.473270,139.466933,
神奈川県,大和市,164,深見台4-6,深見台第5児童遊園西側,35.472460,139.467436,
神奈川県,大和市,165,深見台4-1,深見台1号公園西側,35.472044,139.465900,
神奈川県,大和市,166,深見台4-4,深見台緑地南側,35.471533,139.467366,
神奈川県,大和市,167,深見台3-4-35,㈱ガスター南側正門横植込み,35.469806,139.469313,
神奈川県,大和市,168,深見台2-4,菊園児童遊園,35.468399,139.468562,
神奈川県,大和市,169,深見台2-9-1,深見小学校南側正門横,35.467420,139.469806,
神奈川県,大和市,170,深見3207,かしま2号公園南側,35.467435,139.472979,
神奈川県,大和市,171,大和南1-8,やまとプロムナード シリウス北側のフェンス,35.469747,139.465366,
神奈川県,大和市,172,大和南2-11-1,光丘中学校北側正門横,35.465720,139.464977,
神奈川県,大和市,173,大和南2-11-1,光丘中学校東側,35.465014,139.465766,
神奈川県,大和市,174,大和南2-11-1,光丘中学校南側,35.464119,139.465690,
神奈川県,大和市,175,深見3615-3,大和大塚戸共同住宅東側,35.463266,139.471449,
神奈川県,大和市,176,深見3923,㈱サステム国道467号沿フェンス,35.461955,139.467381,
神奈川県,大和市,177,深見3707,かしま1号公園東側,35.461451,139.472282,
神奈川県,大和市,178,中央1-5-26,神奈川県厚木保健福祉事務所大和センター南側,35.466250,139.462172,
神奈川県,大和市,179,中央1-5-26,神奈川県厚木保健福祉事務所大和センター正門横,35.466459,139.461714,
神奈川県,大和市,180,中央5-3-6,中央1号公園南側,35.467174,139.459806,
神奈川県,大和市,181,中央1-5,やまと公園 東北側フェンス(小田急線の向い側),35.468082,139.462128,
神奈川県,大和市,182,中央4-5,中央6号公園南側,35.469285,139.458140,
神奈川県,大和市,183,下草柳1186,下草柳公園東側,35.468882,139.454689,
神奈川県,大和市,184,草柳1-20-2,草柳1号公園東側,35.466299,139.4546598,
神奈川県,大和市,185,草柳1-11,草柳2号公園北東側,35.463993,139.455944,
神奈川県,大和市,186,中央6-8-27,草柳保育園北側,35.462638,139.459027,
神奈川県,大和市,187,中央7-10-6,中部学校給食共同調理場,35.462496,139.464308,
神奈川県,大和市,188,草柳3-1-2,引地台小学校東側正門横,35.459775,139.460009,
神奈川県,大和市,189,中央6-12,引地台小学校北側歩道橋下,35.460212,139.459310,
神奈川県,大和市,190,草柳3-13,大和市環境管理センター西側,35.456574,139.457042,
神奈川県,大和市,191,柳橋1-17-7,柳橋小学校東側正門横,35.460514,139.462721,
神奈川県,大和市,192,柳橋1-11,柳橋2号公園,35.459389,139.465992,
神奈川県,大和市,269,柳橋1-18,柳橋3号公園,35.460051,139.463473,
神奈川県,大和市,193,柳橋4-5050,引地台中学校西側正門横,35.457558,139.461229,
神奈川県,大和市,194,柳橋2-17,柳橋1号公園東側,35.458022,139.463923,
神奈川県,大和市,195,柳橋5-9,環境管理センター前交差点横の引地川沿い植栽,35.455554,139.456644,
神奈川県,大和市,196,柳橋2-11,大和市まごころ地域福祉センター,35.456294,139.463660,
神奈川県,大和市,197,柳橋3-4,さくら公園東側,35.455323,139.464974,
神奈川県,大和市,198,柳橋3-18-2,県営ハイム桜ケ丘第1集会所南側,35.454066,139.4635648,
神奈川県,大和市,199,柳橋3-36-2,県営ハイム桜ケ丘12号棟南側,35.453047,139.462437,
神奈川県,大和市,200,上和田35-2,エネオスセルフ(植栽),35.458455,139.467744,
神奈川県,大和市,201,上和田958,金毘羅神社,35.450637,139.467068,
神奈川県,大和市,202,上和田451,新道1号公園東側,35.456133,139.474174,
神奈川県,大和市,203,上和田860-1,コミュニティセンター桜丘会館,35.452730,139.4705865,
神奈川県,大和市,204,上和田832,桜丘小学校南側正門横,35.452464,139.468680,
神奈川県,大和市,205,福田5522-1,桜ケ丘駅東口ロータリー,35.450109,139.466171,
神奈川県,大和市,206,上和田1251,宮久保1号公園東側,35.451955,139.477729,
神奈川県,大和市,207,上和田1314,上和田中学校正門(東門),35.448755,139.478842,
神奈川県,大和市,208,福田8-22-5,福田保育園南側,35.452977,139.459735,
神奈川県,大和市,209,柳橋5-3,引地川沿いフェンス(ふきのとう舎の向い側),35.453010,139.457843,
神奈川県,大和市,210,福田7-33-5,南部学校給食共同調理場,35.450438,139.456905,
神奈川県,大和市,211,福田7-12-12,山下梨園西側フェンス,35.449282,139.459305,
神奈川県,大和市,212,福田7-7,関水動物病院東側,35.450622,139.460484,
神奈川県,大和市,213,福田2-33-1,富士見橋公園西側,35.450398,139.462113,
神奈川県,大和市,214,福田2-33-1,富士見橋公園東側,35.450472,139.462913,
神奈川県,大和市,215,福田1-5,桜ヶ丘駅西口フェンス,35.450525,139.465396,
神奈川県,大和市,216,福田3-15-1,松ヶ丘公園西側,35.446718,139.464421,
神奈川県,大和市,217,福田5-22-1,福田小学校東側正門横,35.444108,139.462307,
神奈川県,大和市,218,福田5-22-1,福田小学校西側,35.443434,139.461738,
神奈川県,大和市,219,代官1-20,田中1号公園西側,35.441160,139.460561,
神奈川県,大和市,220,代官2-3,代官二丁目公園南側,35.442172,139.457450,
神奈川県,大和市,221,代官2-14,代官中央公園南側,35.440400,139.456927,
神奈川県,大和市,222,福田4-20,イサミ運輸(有)隣の住宅の北側歩道フェンス,35.439721,139.462299,
神奈川県,大和市,223,渋谷2-19,札の辻2号公園南側,35.437228,139.463645,
神奈川県,大和市,224,渋谷1-14,旭ヶ丘1号公園西側,35.438998,139.465185,
神奈川県,大和市,225,渋谷1-14,旭ヶ丘1号公園東側,35.439110,139.465812,
神奈川県,大和市,226,上和田1822,平田自動車工業株式会社本部フェンス,35.443948,139.466592,
神奈川県,大和市,227,上和田3290,上和田団地給水塔横の空き地フェンス,35.437737,139.471541,
神奈川県,大和市,228,上和田2412,上和田団地1-1号棟北側フェンス(コンビニ向い),35.436700,139.471191,
神奈川県,大和市,229,上和田2695,上和田小学校南側正門横,35.440524,139.469988,
神奈川県,大和市,230,上和田2695,上和田小学校北側,35.441418,139.469922,
神奈川県,大和市,231,上和田2412,上和田団地入口バス停前,35.436347,139.471620,
神奈川県,大和市,232,上和田2412,上和田団地2-4号棟西側,35.438016,139.471709,
神奈川県,大和市,233,上和田2412,上和田東児童館前,35.438832,139.472750,
神奈川県,大和市,234,上和田3221,上和田保育園,35.436911,139.471932,
神奈川県,大和市,235,上和田2412,上和田団地4-8号棟北側,35.440773,139.474579,
神奈川県,大和市,236,上和田2412,上和田団地バス停前公園,35.438742,139.474698,
神奈川県,大和市,237,上和田3340,上和田団地汚水処理場横ガードレール,35.435690,139.472006,
神奈川県,大和市,238,下和田225,下和田マリンボックス南側柵,35.430348,139.471556,
神奈川県,大和市,239,下和田49,渋谷中学校西側,35.431039,139.472306,
神奈川県,大和市,240,下和田49,渋谷中学校南側,35.430318,139.472737,
神奈川県,大和市,241,下和田262,いちょう団地2号公園西側,35.429088,139.472555,
神奈川県,大和市,242,下和田262,いちょう団地80号棟西側,35.429033,139.471806,
神奈川県,大和市,243,下和田262,いちょう団地バス停前(76号棟南),35.427533,139.472306,
神奈川県,大和市,244,下和田262,いちょう団地1号公園東側,35.425987,139.472233,
神奈川県,大和市,245,上和田3428,上和田団地入口西側畑,35.436918,139.470535,
神奈川県,大和市,246,渋谷6-5-3,masked,35.435099,139.465644,
神奈川県,大和市,247,渋谷6-100-33,高座渋谷駅東口(ファミリーマート前のタクシー乗場),35.432287,139.465021,
神奈川県,大和市,248,渋谷7-10,渋谷小学校東側,35.431129,139.467822,
神奈川県,大和市,249,下和田816-1,森田整形外科前歩道ガードパイプ,35.426049,139.469196,
神奈川県,大和市,250,福田1698-1,大和みどりが丘幼稚園駐車場フェンス,35.429416,139.463909,
神奈川県,大和市,251,福田1587-2,たんぽぽ公園北側,35.425850,139.463591,
神奈川県,大和市,252,福田1569-1,下福田中学校正門横,35.426317,139.461364,
神奈川県,大和市,253,代官3-11-1,代官三丁目公園東側,35.440512,139.455736,
神奈川県,大和市,254,福田3755-12,田中3号公園東側,35.438228,139.458449,
神奈川県,大和市,255,福田3619,田中4号公園東側,35.437038,139.457823,
神奈川県,大和市,256,渋谷5-11,渋谷1号公園,35.435123,139.463311,
神奈川県,大和市,257,渋谷5-100-32,高座渋谷駅西口ロータリー(バス停横),35.432270,139.464391,
神奈川県,大和市,258,渋谷5-35,渋谷3号公園,35.433239,139.462774,
神奈川県,大和市,259,渋谷8-8,渋谷4号公園,35.430409,139.463660,
神奈川県,大和市,260,福田3716,masked,35.435285,139.458682,
神奈川県,大和市,261,福田3971,南庭1号公園,35.436876,139.455079,
神奈川県,大和市,262,福田6002,渋谷保育園西側,35.434058,139.456075,
神奈川県,大和市,263,福田4069,ゆとりの森駐車場東側,35.437910,139.452558,
神奈川県,大和市,264,福田570,下福田小学校北側裏門横,35.432024,139.457566,
神奈川県,大和市,265,福田570,下福田小学校南側正門横,35.431217,139.456807,
神奈川県,大和市,266,福田611-1,コミュニティーセンター下福田会館正面,35.430511,139.457032,
神奈川県,大和市,267,福田1361,小嶋園北側フェンス,35.426114,139.457903,
神奈川県,大和市,268,福田4084,中福田ちびっこ広場,35.435083,139.453370,
