prefecture,city,number,address,name,lat,long,note
神奈川県,川崎市,1,中原区小杉町2丁目295番地3,こすぎ公園広場ゾーンフェンス,35.5799588,139.6562476,
神奈川県,川崎市,2,中原区小杉町3丁目245番地,中原区役所守衛室側入口フェンス,35.5759903,139.6559525,
神奈川県,川崎市,3,中原区新丸子東3丁目1303番地,東急線武蔵小杉駅バスロータリー鉄柵,35.5744179,139.6611525,
神奈川県,川崎市,4,中原区小杉町1丁目529番地,ツリーベル武蔵小杉前鉄柵,35.5800237,139.6590098,
神奈川県,川崎市,5,中原区小杉町2丁目235番地8,小杉町2丁目公園フェンス,35.5769585,139.6557698,
神奈川県,川崎市,6,中原区小杉町3丁目245番地,中原区役所植込み,35.5759903,139.6559525,
神奈川県,川崎市,7,中原区新丸子東3丁目1135番地1,グランツリー前道路鉄柵,35.5738018,139.6606458,
神奈川県,川崎市,8,中原区新丸子東3丁目1302番地,ららテラス　武蔵小杉前道路鉄柵,35.5751645,139.6599276,
神奈川県,川崎市,9,中原区小杉町2丁目284番地,大西学園前鉄柵,35.5784559,139.6570262,
神奈川県,川崎市,10,中原区市ノ坪223番地10,市ノ坪中村通公園鉄柵,35.5700594,139.6594583,
神奈川県,川崎市,11,中原区市ノ坪54番地,市ノ坪神社鉄柵,35.57286089999999,139.6577291,
神奈川県,川崎市,12,中原区今井南町10番58号,東住吉幼稚園ブロック塀,35.5734316,139.654095,
神奈川県,川崎市,13,中原区市ノ坪124番地,市ノ坪西公園鉄柵,35.5705731,139.6585714,
神奈川県,川崎市,14,中原区今井南町2番1号,大乗院ブロック塀,35.5757546,139.6544906,
神奈川県,川崎市,15,中原区市ノ坪131番地,田辺自転車商会横道路鉄柵,35.5662575,139.6637038,緯度経度は怪しい
神奈川県,川崎市,16,中原区今井南町34番26号,今井南町四季の広場内植込み,35.5699775,139.6552993,
神奈川県,川崎市,17,中原区今井南町4番26号,渋川沿いフェンス,35.5743867,139.653005,
神奈川県,川崎市,18,中原区今井西町14番,今井西町けやき公園フェンス,35.5747626,139.6495135,
神奈川県,川崎市,19,中原区今井仲町14番14号,今井公園植込み,35.57327009999999,139.6511775,
神奈川県,川崎市,20,中原区今井仲町7番1号,今井中学校北側植込み,35.5753119,139.6503355,
神奈川県,川崎市,21,中原区今井西町3番18号,今井小学校裏門フェンス,35.5769758,139.6494636,
神奈川県,川崎市,22,中原区今井西町3番18号,今井小学校正門横フェンス,35.5769758,139.6494636,
神奈川県,川崎市,23,中原区今井仲町7番1号,今井中学校正門側植込み,35.5753119,139.6503355,
神奈川県,川崎市,24,中原区今井西町3番18号,今井小学校西側フェンス,35.5769758,139.6494636,
神奈川県,川崎市,25,中原区今井上町7番,今井上町緑道植込み,35.5776084,139.6524429,
神奈川県,川崎市,26,中原区小杉御殿町2丁目47番地,UR都市機構小杉御殿団地2号棟北側植込み,35.5787446,139.6545554,
神奈川県,川崎市,27,中原区小杉御殿町2丁目44番地,（株）GIANT前道路鉄柵,35.5776543,139.6540588,
神奈川県,川崎市,28,中原区小杉御殿町1丁目950番地,中原小学校正門横鉄柵,35.5835722,139.6509202,
神奈川県,川崎市,29,中原区小杉御殿町1丁目1010番地,小杉神社石柵,35.5839215,139.6515221,
神奈川県,川崎市,30,中原区小杉御殿町2丁目82番地9,上小田中三号橋南側鉄柵,35.5810693,139.6509682,
神奈川県,川崎市,31,中原区小杉御殿町1丁目693番地,道路鉄柵,35.5851265,139.6541392,
神奈川県,川崎市,32,中原区小杉御殿町2丁目47番地,UR都市機構小杉御殿団地1号棟横フェンス,35.5787446,139.6545554,
神奈川県,川崎市,33,中原区小杉御殿町1丁目950番地,中原小学校北側フェンス,35.5835722,139.6509202,
神奈川県,川崎市,34,中原区等々力1番,等々力緑地フィッシングコーナー北側植込み,35.5856891,139.6502088,
神奈川県,川崎市,35,中原区等々力1番,等々力緑地ふるさとの森脇植込み,35.5856891,139.6502088,
神奈川県,川崎市,36,中原区小杉陣屋町2丁目19番1号,西丸子小学校正門横鉄柵 (位置情報が見つかりませんでした),35.5873251,139.6562256,
神奈川県,川崎市,37,中原区小杉陣屋町2丁目19番1号,西丸子小学校東側鉄柵 (位置情報が見つかりませんでした),35.5873251,139.6562256,
神奈川県,川崎市,38,中原区小杉陣屋町2丁目14番1号,住宅大谷石塀,35.5865054,139.6568648,
神奈川県,川崎市,39,中原区小杉陣屋町2丁目9番,小杉陣屋町中公園,35.5847482,139.6559704,
神奈川県,川崎市,40,中原区小杉陣屋町2丁目2番22号,中原街道南側鉄柵,35.5831234,139.6564695,
神奈川県,川崎市,41,中原区小杉陣屋町1丁目33番4号,小杉陣屋町公園南側鉄柵,35.5870768,139.6576695,
神奈川県,川崎市,42,中原区小杉陣屋町1丁目33番4号,小杉陣屋町公園北西側鉄柵,35.5870768,139.6576695,
神奈川県,川崎市,43,中原区上丸子天神町77番地,住宅ブロック塀,35.5864532,139.6610827,緯度経度は怪しい
神奈川県,川崎市,44,中原区小杉陣屋町1丁目24番1号,中原中学校グラウンド側鉄柵,35.5860063,139.6595431,
神奈川県,川崎市,45,中原区小杉陣屋町1丁目32番1号,成就院ブロック塀,35.587172,139.6581628,
神奈川県,川崎市,46,中原区丸子通2丁目708番地3,丸子通公園植込み,35.5826864,139.6602986,
神奈川県,川崎市,47,中原区小杉陣屋町1丁目24番1号,中原中学校正門脇鉄柵,35.5860063,139.6595431,
神奈川県,川崎市,48,中原区小杉陣屋町1丁目11番8号,中原街道北側鉄柵,35.5833696,139.657226,
神奈川県,川崎市,49,中原区新丸子町964番地3,新丸子公園フェンス,35.5791151,139.6612837,
神奈川県,川崎市,50,中原区新丸子東2丁目980番地,京浜伏見稲荷神社石柵 (位置情報が見つかりませんでした),35.57897,139.6621385,
神奈川県,川崎市,51,中原区丸子通1丁目612番地9,綱島街道東側歩道植込み,35.5827783,139.6642841,
神奈川県,川崎市,52,中原区丸子通1丁目651番地1,綱島街道東横線側歩道植込み,35.5824232,139.6636639,
神奈川県,川崎市,53,中原区上丸子山王町1丁目1555番地,日枝神社石柵,35.5788519,139.6678307,
神奈川県,川崎市,54,中原区新丸子東2丁目890番地7,エクレール武蔵小杉前道路鉄柵,35.577837,139.6637237,
神奈川県,川崎市,55,中原区上丸子八幡町815番地,上丸子小学校西門側フェンス,35.5827213,139.667531,緯度経度は怪しい
神奈川県,川崎市,56,中原区新丸子東2丁目926番地先,綱島街道高架下道路鉄柵,35.5769533,139.6627968,
神奈川県,川崎市,57,中原区上丸子山王町2丁目1356番地,上丸子住宅D棟北側フェンス,35.5771133,139.668129,
神奈川県,川崎市,58,中原区上丸子八幡町815番地,上丸子小学校JR線路側フェンス,35.5827213,139.667531,緯度経度は怪しい
神奈川県,川崎市,59,中原区下沼部1709番地1,下沼部公園金網,35.575119,139.6670446,
神奈川県,川崎市,60,中原区下沼部1745番地,三社宮石柵,35.5739774,139.6684562,
神奈川県,川崎市,61,中原区中丸子439番地,中丸子緑道,35.5701859,139.6715184,
神奈川県,川崎市,62,中原区下沼部1955番地,下沼部小学校正門鉄柵,35.5725827,139.6694446,
神奈川県,川崎市,63,中原区下沼部1894番地2,エスペランサ武蔵小杉前道路鉄柵,35.5715406,139.6695501,
神奈川県,川崎市,64,中原区中丸子358番地,南武沿線道路沿い鉄柵 (位置情報が見つかりませんでした),35.5680866,139.6700101,
神奈川県,川崎市,65,中原区下沼部1753番地18,向河原駅前広場公園前歩道植え込み,35.5726973,139.6648915,
神奈川県,川崎市,66,中原区下沼部1955番地,下沼部小学校交番側鉄柵,35.5725827,139.6694446,
神奈川県,川崎市,67,中原区市ノ坪440番地12,市ノ坪公園フェンス,35.5655744,139.6668426,
神奈川県,川崎市,68,中原区中丸子258番地,中丸子第1公園鉄柵,35.5683785,139.6671522,
神奈川県,川崎市,69,中原区中丸子562番地,玉川中学校グラウンド脇鉄柵,35.56638420000001,139.6673017,
神奈川県,川崎市,70,中原区中丸子562番地,玉川中学校正門鉄柵,35.56638420000001,139.6673017,
神奈川県,川崎市,71,中原区中丸子301番地13,中丸子第2公園鉄柵,35.5658458,139.668418,
神奈川県,川崎市,72,中原区中丸子562番地,玉川中学校南側鉄柵,35.56638420000001,139.6673017,
神奈川県,川崎市,73,中原区市ノ坪710番地,住宅展示場前植込み,35.5627089,139.6694373,
神奈川県,川崎市,74,中原区中丸子13番地4,中丸子まるっこ公園フェンス,35.5717872,139.6628984,
神奈川県,川崎市,75,中原区北谷町95番地45,北谷町公園フェンス,35.5638145,139.6714553,
神奈川県,川崎市,76,中原区中丸子592番地12,南部沿線道路沿い鉄柵,35.5644703,139.6715378,
神奈川県,川崎市,77,中原区北谷町32番地,玉川小学校プール横鉄柵,35.5621622,139.6726518,
神奈川県,川崎市,78,中原区北谷町32番地,玉川小学校南武沿線道路側鉄柵,35.5621622,139.6726518,
神奈川県,川崎市,79,中原区中丸子719番地1,中丸子公園フェンス,35.5679896,139.6694446,緯度経度は怪しい
神奈川県,川崎市,80,中原区上平間2110番地,丸子ポンプ場鉄柵,35.5640318,139.6757829,
神奈川県,川崎市,81,中原区上平間235番地,住宅ブロック塀,35.56248,139.6745274,
神奈川県,川崎市,82,中原区上平間293番地,八幡神社石柵,35.562494,139.6751473,
神奈川県,川崎市,83,中原区上平間370番地,住宅ブロック塀,35.5618968,139.6769605,
神奈川県,川崎市,84,中原区上平間1368番地,平間中学校裏門脇フェンス,35.5595802,139.6771,緯度経度は怪しい
神奈川県,川崎市,85,中原区上平間1298番地,平間公園植込み,35.5578381,139.6774112,
神奈川県,川崎市,86,中原区上平間1402番地124,上平間公園鉄柵,35.5592895,139.6767112,
神奈川県,川崎市,87,中原区上平間1368番地,平間中学校正門脇フェンス,35.5595802,139.6771,緯度経度は怪しい
神奈川県,川崎市,88,中原区上平間433番地,住宅ブロック塀 (位置情報が見つかりませんでした),35.5600267,139.6794246,
神奈川県,川崎市,89,中原区上平間585番地,下河原小学校体育館横フェンス,35.5579936,139.6808583,
神奈川県,川崎市,90,中原区上平間1221番地,住宅ブロック塀,35.5558165,139.6775892,
神奈川県,川崎市,91,中原区上平間1152番地,県営上平間ハイム　プレイロッド花壇,35.556078,139.6785762,
神奈川県,川崎市,92,中原区上平間1480番地,平間小学校東門脇金網,35.5575977,139.6762976,
神奈川県,川崎市,93,中原区上平間1700番地305,上平間第3町会会館前ブロック塀,35.5594626,139.6738103,
神奈川県,川崎市,94,中原区上平間1700番地7,県立川崎工科高校正門横フェンス,35.5565971,139.6737902,
神奈川県,川崎市,95,中原区上平間177番地,住宅生け垣,35.5608364,139.6738182,
神奈川県,川崎市,96,中原区上平間1700番地7,県立川崎工科高校西側フェンス,35.5565971,139.6737902,
神奈川県,川崎市,97,中原区苅宿25番1号,苅宿小学校給食搬入門フェンス,35.5627622,139.6628293,
神奈川県,川崎市,98,中原区西加瀬20番,武蔵小杉特定目的会社管理フェンス,35.559491,139.6611525,
神奈川県,川崎市,99,中原区苅宿19番17号,苅宿町会館横鉄柵,35.563364,139.661883,
神奈川県,川崎市,100,中原区苅宿25番1号,苅宿小学校東門フェンス,35.5627622,139.6628293,
神奈川県,川崎市,101,中原区苅宿36番20号,苅宿市営住宅フェンス,35.5617477,139.6629782,
神奈川県,川崎市,102,中原区苅宿42番3号,中原消防署苅宿出張所フェンス,35.5597425,139.6624729,
神奈川県,川崎市,103,中原区西加瀬5番3号,西加瀬北公園フェンス,35.5624909,139.6593982,
神奈川県,川崎市,104,中原区西加瀬13番5号,八幡橋付近渋川沿いフェンス,35.5604671,139.6579176,
神奈川県,川崎市,105,中原区木月住吉町1番11号,東住吉小学校裏門フェンス,35.5694248,139.6579236,
神奈川県,川崎市,106,中原区木月住吉町27番1号,住吉中学校正門フェンス,35.5656935,139.6620992,
神奈川県,川崎市,107,中原区木月2丁目6番,元住吉駅交差点鉄柵,35.5646969,139.6558907,
神奈川県,川崎市,108,中原区木月住吉町33番1号,中原平和公園彫刻広場前植込み,35.5687865,139.6589521,
神奈川県,川崎市,109,中原区木月住吉町33番1号,中原平和公園冒険広場入り口フェンス,35.5687865,139.6589521,
神奈川県,川崎市,110,中原区木月住吉町33番1号,中原平和公園歩道橋横鉄柵,35.5687865,139.6589521,
神奈川県,川崎市,111,中原区木月住吉町24番1号,木月住吉南公園フェンス,35.5641642,139.6612865,
神奈川県,川崎市,112,中原区木月住吉町16番36号先,渋川沿いフェンス,35.5623522,139.6579606,
神奈川県,川崎市,113,中原区木月2丁目22番先,渋川沿いフェンス,35.563072,139.6568474,
神奈川県,川崎市,114,中原区木月4丁目14番4号,木月八幡公園鉄柵,35.5601831,139.655909,
神奈川県,川崎市,115,中原区木月4丁目14番6号,木月耐火市営住宅フェンス,35.5597734,139.6560479,
神奈川県,川崎市,116,中原区木月4丁目25番6号,木月下町公園鉄柵,35.5587999,139.655697,
神奈川県,川崎市,117,中原区木月4丁目49番2号,木月諏訪公園鉄柵 (位置情報が見つかりませんでした),35.5569509,139.657391,
神奈川県,川崎市,118,中原区木月4丁目53番1号,木月小学校通用門脇フェンス,35.557067,139.6547846,
神奈川県,川崎市,119,中原区木月4丁目53番1号,木月小学校体育館横鉄柵,35.557067,139.6547846,
神奈川県,川崎市,120,中原区木月4丁目35番1号,財務省木月住宅内ガードレール,35.55789360000001,139.6522548,
神奈川県,川崎市,121,中原区木月3丁目37番,高架下道路鉄柵,35.561547,139.6512671,
神奈川県,川崎市,122,中原区木月3丁目34番5号,パーク・ホームズ前道路鉄柵,35.5615347,139.6504866,
神奈川県,川崎市,123,中原区木月1丁目13番,渋川沿い鉄柵,35.5670303,139.654376,
神奈川県,川崎市,124,中原区木月祇園町17番1号,住吉小学校正門鉄柵,35.568838,139.6533659,緯度経度は怪しい
神奈川県,川崎市,125,中原区木月祇園町17番6号,住吉こども文化センター金網,35.5690668,139.6529285,緯度経度は怪しい
神奈川県,川崎市,126,中原区木月3丁目45番1号,天王森ポンプ場フェンス,35.55993309999999,139.6486372,
神奈川県,川崎市,127,中原区木月3丁目36番,元住吉駅自転車等駐輪場フェンス,35.5626337,139.6525426,
神奈川県,川崎市,128,中原区木月3丁目13番10号,木月公園植込み,35.5643508,139.6492838,
神奈川県,川崎市,129,中原区井田中ノ町29番1号,井田小学校正門脇フェンス,35.5637117,139.6453387,
神奈川県,川崎市,130,中原区井田2丁目27番,井田病院前道路鉄柵,35.5600597,139.6404271,
神奈川県,川崎市,131,中原区井田中ノ町29番1号,井田小学校南門脇フェンス,35.5637117,139.6453387,
神奈川県,川崎市,132,中原区井田1丁目33番,尻手黒川道路ライフ前道路鉄柵,35.5645022,139.6413038,
神奈川県,川崎市,133,中原区井田1丁目28番1号,井田公園北西側フェンス,35.5624395,139.6420518,
神奈川県,川崎市,134,中原区井田1丁目35番1号,江川ポンプ場フェンス,35.5645155,139.6401665,
神奈川県,川崎市,135,中原区井田3丁目40番26号,井田こもれび公園植込み,35.561618,139.6341312,
神奈川県,川崎市,136,中原区井田中ノ町35番17号,住吉西公園西側植込み,35.5648104,139.6478025,
神奈川県,川崎市,137,中原区井田中ノ町13番23号,井田神社裏石柱,35.5667316,139.6428779,
神奈川県,川崎市,138,中原区木月大町1番24号,木月大町公園フェンス,35.5722614,139.647447,
神奈川県,川崎市,139,中原区木月祇園町16番10号,海上幕僚監部元住吉宿舎公園フェンス,35.5679273,139.6524134,緯度経度は怪しい
神奈川県,川崎市,140,中原区木月大町6番,渋川沿いフェンス,35.5714648,139.6509483,
神奈川県,川崎市,141,中原区木月大町10番,渋川沿いフェンス,35.5697301,139.652702,
神奈川県,川崎市,142,中原区木月祇園町2番2号,川崎市国際交流センター駐車場植込み,35.5683102,139.6485999,緯度経度は怪しい
神奈川県,川崎市,143,中原区木月祇園町2番2号,川崎市国際交流センター植込み,35.5683102,139.6485999,緯度経度は怪しい
神奈川県,川崎市,144,中原区木月祇園町2番2号,川崎市国際交流センター植込み,35.5683102,139.6485999,緯度経度は怪しい
神奈川県,川崎市,145,中原区木月大町4番,道路鉄柵,35.571685,139.649354,
神奈川県,川崎市,146,中原区下新城1丁目14番1号,県立新城高等学校テニスコート側フェンス,35.5802828,139.6316153,
神奈川県,川崎市,147,中原区下新城3丁目1番31号,下新城まちかど公園フェンス,35.5817328,139.6311229,
神奈川県,川崎市,148,中原区下新城1丁目15番1号,新城小学校正門脇フェンス,35.581641,139.632307,
神奈川県,川崎市,149,中原区下新城1丁目15番1号,新城小学校東門脇フェンス,35.581641,139.632307,
神奈川県,川崎市,150,中原区下新城1丁目2番4号,新城こども文化センターフェンス,35.5803121,139.634174,
神奈川県,川崎市,151,中原区新城中町4番14号,新城神社石柵,35.5843153,139.633411,
神奈川県,川崎市,152,中原区新城3丁目14番1号,新城公園フェンス,35.5843042,139.629699,
神奈川県,川崎市,153,中原区新城3丁目2番,新城駅南口駅前植込み,35.5864546,139.6300671,
神奈川県,川崎市,154,中原区下新城1丁目14番1号,県立新城高等学校東側フェンス,35.5802828,139.6316153,
神奈川県,川崎市,155,中原区宮内3丁目24番15号,（株）コマツ宮内寮フェンス,35.59259660000001,139.6459157,
神奈川県,川崎市,156,中原区宮内4丁目19番,住宅ブロック塀,35.5881773,139.6450498,
神奈川県,川崎市,157,中原区宮内4丁目22番1号,宮内公園鉄柵,35.5891625,139.643107,
神奈川県,川崎市,158,中原区宮内4丁目9番4号,宮内春日公園フェンス,35.5851491,139.6453686,
神奈川県,川崎市,159,中原区宮内1丁目21番31号,中部下水道事務所鉄柵,35.5921421,139.6389648,
神奈川県,川崎市,160,中原区宮内2丁目9番28号,住宅ブロック塀,35.5894226,139.6412618,
神奈川県,川崎市,161,中原区宮内2丁目4番1号,宮内小学校正門万年塀,35.5889525,139.6418905,
神奈川県,川崎市,162,中原区宮内4丁目2番,等々力緑地正面広場石垣,35.584453,139.6479193,
神奈川県,川崎市,163,中原区宮内4丁目13番1号,宮内中学校正門脇鉄柵,35.5851928,139.6460013,
神奈川県,川崎市,164,中原区上小田中1丁目2番40号,上小田中北公園フェンス,35.5908361,139.6348229,
神奈川県,川崎市,165,中原区上小田中1丁目11番40号,グランドール前ガードレール,35.5938435,139.6316651,
神奈川県,川崎市,166,中原区上新城1丁目13番,上新城ふれあい公園フェンス,35.591942,139.6285531,
神奈川県,川崎市,167,中原区上新城1丁目3番17号,住宅ブロック塀,35.5897258,139.6296188,
神奈川県,川崎市,168,中原区上小田中3丁目29番19号,上小田中西公園鉄柵,35.5895374,139.630711,
神奈川県,川崎市,169,中原区上小田中1丁目27番1号,大谷戸小学校東側フェンス,35.5912825,139.6322892,
神奈川県,川崎市,170,中原区上小田中3丁目29番19号,上小田中西公園鉄柵,35.5895374,139.630711,
神奈川県,川崎市,171,中原区上小田中1丁目27番1号,大谷戸小学校正門脇フェンス,35.5912825,139.6322892,
神奈川県,川崎市,172,中原区上小田中2丁目10番,上小田中第五公園,35.5903561,139.6354859,
神奈川県,川崎市,173,中原区上小田中3丁目10番5号,市立ろう学校グラウンド脇フェンス,35.5853505,139.637864,
神奈川県,川崎市,174,中原区上小田中3丁目21番7号,住宅フェンス,35.5863666,139.6338201,
神奈川県,川崎市,175,中原区上小田中3丁目7番1号,中原消防署小田中出張所,35.5840427,139.6368287,
神奈川県,川崎市,176,中原区上小田中3丁目10番5号,市立ろう学校正門脇万年塀,35.5853505,139.637864,
神奈川県,川崎市,177,中原区上小田中2丁目24番1号,大戸こども文化センター金網,35.5867701,139.6372424,
神奈川県,川崎市,178,中原区上小田中2丁目14番40号,住宅ブロック塀,35.5897754,139.6357155,
神奈川県,川崎市,179,中原区上小田中3丁目3番,上小田中高架下公園南武線沿側フェンス,35.5843507,139.6354461,
神奈川県,川崎市,180,中原区上小田中2丁目13番12号,市営上小田中住宅植込み,35.58897779999999,139.6371253,
神奈川県,川崎市,181,中原区上小田中4丁目1番1号,（株）ケアネット植込み,35.5825539,139.6422613,緯度経度は怪しい
神奈川県,川崎市,182,中原区上小田中6丁目43番1号,神明神社ブロック塀,35.5836182,139.6432565,
神奈川県,川崎市,183,中原区上小田中6丁目33番,上小田中耐火市営住宅４号棟南側鉄柵,35.5837449,139.644731,
神奈川県,川崎市,184,中原区上小田中6丁目33番,上小田中耐火市営住宅２号棟西側鉄柵,35.5837449,139.644731,
神奈川県,川崎市,185,中原区上小田中4丁目2番,武蔵中原駅前道路鉄柵,35.5814494,139.640985,
神奈川県,川崎市,186,中原区上小田中6丁目27番,駐車場フェンス,35.581199,139.645949,
神奈川県,川崎市,187,中原区上小田中4丁目1番,富士通（株）前道路鉄柵,35.5838274,139.6422602,
神奈川県,川崎市,188,中原区下小田中1丁目4番1号,大戸小学校西門脇フェンス,35.5805695,139.6387326,
神奈川県,川崎市,189,中原区上小田中5丁目13番,ＪＲ・鎌倉車両センター中原支所事務所前フェンス,35.5839157,139.6351672,
神奈川県,川崎市,190,中原区下小田中1丁目4番1号,大戸小学校正門脇フェンス,35.5805695,139.6387326,
神奈川県,川崎市,191,中原区下小田中1丁目20番7号,ヴィラ鹿島前道路鉄柵,35.579147,139.6379304,
神奈川県,川崎市,192,中原区下小田中1丁目2番6号,駐車場フェンス,35.5803298,139.6402079,
神奈川県,川崎市,193,中原区上小田中5丁目4番4号,上小田中南公園北側フェンス,35.5820416,139.6383549,
神奈川県,川崎市,194,中原区上小田中5丁目2番2号,歩道植込み,35.5805211,139.6411801,
神奈川県,川崎市,195,中原区下小田中1丁目17番3号,住宅ブロック塀,35.5790549,139.6357772,
神奈川県,川崎市,196,中原区下小田中4丁目4番17号,下小田中保育園フェンス,35.5774777,139.6389955,
神奈川県,川崎市,197,中原区下小田中2丁目9番1号,中原区役所道路公園センター東門脇鉄柵,35.5778087,139.6407822,
神奈川県,川崎市,198,中原区下小田中2丁目9番1号,中原区役所道路公園センター西門脇鉄柵,35.5778087,139.6407822,
神奈川県,川崎市,199,中原区下小田中4丁目20番28号,武蔵中原ガーデンハウス前道路鉄柵,35.57524370000001,139.6368826,
神奈川県,川崎市,200,中原区下小田中2丁目17番1号,西中原中学校裏門脇鉄柵,35.5790747,139.6439887,
神奈川県,川崎市,201,中原区上小田中7丁目20番5号,泉澤寺石柵,35.5824196,139.6495533,
神奈川県,川崎市,202,中原区下小田中2丁目33番12号,住宅ブロック塀,35.5757562,139.6407282,
神奈川県,川崎市,203,中原区下小田中4丁目15番17号,菜園前フェンス,35.575942,139.6381237,
神奈川県,川崎市,204,中原区下小田中2丁目17番,下小田中北島公園フェンス,35.5779874,139.6436151,
神奈川県,川崎市,205,中原区下小田中3丁目9番10号,駐車場ブロック塀,35.5742656,139.6451096,
神奈川県,川崎市,206,中原区下小田中3丁目31番1号,フェニックスコート前道路鉄柵,35.5729299,139.6399653,
神奈川県,川崎市,207,中原区下小田中3丁目35番1号,下小田中小学校正門脇フェンス,35.5714654,139.6405765,
神奈川県,川崎市,208,中原区下小田中3丁目35番1号,下小田中小学校体育館側フェンス,35.5714654,139.6405765,
神奈川県,川崎市,209,中原区下小田中6丁目20番27号,菜園前フェンス,35.5718218,139.6365778,
神奈川県,川崎市,210,中原区下小田中5丁目13番8号,住宅ブロック塀,35.5732815,139.6343694,
神奈川県,川崎市,211,中原区下小田中5丁目3番,コート朝比奈壱番館前鉄柵,35.5762293,139.6338921,
神奈川県,川崎市,212,中原区下小田中3丁目29番,アスク下小田中保育園前道路鉄柵,35.5720464,139.642579,
神奈川県,川崎市,213,中原区下小田中5丁目1番,道路鉄柵,35.5764552,139.6351672,
神奈川県,川崎市,214,中原区井田杉山町14番8号,菜園前フェンス,35.569476,139.6416483,
神奈川県,川崎市,215,中原区井田三舞町8番,歩道植込み,35.5702382,139.6473613,
神奈川県,川崎市,216,中原区井田杉山町11番1号,井田中学校裏門脇植込み,35.5692729,139.6435201,
神奈川県,川崎市,217,中原区井田杉山町11番1号,井田中学校正門脇鉄柵前植込み,35.5692729,139.6435201,
神奈川県,川崎市,218,中原区下小田中3丁目35番1号,下小田中小学校わくわくプラザフェンス,35.5714654,139.6405765,
神奈川県,川崎市,219,中原区井田杉山町2番72号,井田杉山町北公園植込み,35.5714356,139.6440933,
神奈川県,川崎市,220,中原区井田三舞町13番6号,住宅生け垣,35.5688788,139.6460542,
神奈川県,川崎市,221,中原区井田杉山町23番1号,井田杉山町公園フェンス,35.5683237,139.644486,
神奈川県,川崎市,1,多摩区堀1丁目28番1号,県立向の岡工業高等学校正門右側フェンス,35.613995,139.596625,緯度経度は怪しい
神奈川県,川崎市,2,多摩区堀1丁目16番5号,東名堀第2公園フェンス（北側）,35.614212,139.591667,緯度経度は怪しい
神奈川県,川崎市,3,多摩区堀1丁目1番,堀堤公園フェンス,35.616426,139.591683,緯度経度は怪しい
神奈川県,川崎市,4,多摩区堀2丁目2番,堀交差点エネオス前フェンス,35.612454,139.591458,緯度経度は怪しい
神奈川県,川崎市,5,多摩区堀1丁目16番5号,東名堀第2公園フェンス（南側）,35.613639,139.590698,緯度経度は怪しい
神奈川県,川崎市,6,多摩区堀1丁目6番,堀北公園フェンス（ハイム桃園前）,35.615366,139.591782,緯度経度は怪しい
神奈川県,川崎市,7,多摩区堀1丁目2番,宿河原児童公園フェンス,35.616164,139.590589,緯度経度は怪しい
神奈川県,川崎市,8,多摩区堀1丁目21番6号,東名堀公園フェンス,35.616135,139.594132,緯度経度は怪しい
神奈川県,川崎市,9,多摩区宿河原7丁目13番,宿河原わんぱく公園フェンス,35.6158808,139.5870529,
神奈川県,川崎市,10,多摩区宿河原1丁目6番,宿河原1丁目公園フェンス,35.6198585,139.5755878,
神奈川県,川崎市,11,多摩区宿河原3丁目7番,ニケ領用水柵（仲乃橋横）（宿河原線）,35.6144052,139.5810812,
神奈川県,川崎市,12,多摩区宿河原4丁目17番,宿河原第2公園フェンス,35.6163821,139.5817182,
神奈川県,川崎市,13,多摩区宿河原4丁目8番,宿河原第3児童公園フェンス,35.61787,139.5813201,
神奈川県,川崎市,14,多摩区宿河原4丁目1番1号,稲田中学校格技室前門入口右側フェンス,35.6189785,139.5795665,
神奈川県,川崎市,15,多摩区宿河原7丁目1番,宿河原けやき公園植込み,35.617156,139.5873714,
神奈川県,川崎市,16,多摩区宿河原4丁目21番,宿河原ほしぞら公園入口フェンス,35.6166352,139.5786131,
神奈川県,川崎市,17,多摩区宿河原6丁目7番,東名下公園フェンス,35.6122917,139.5879288,
神奈川県,川崎市,18,多摩区宿河原6丁目14番1号,川崎市緑化センター東側フェンス,35.6129852,139.584356,
神奈川県,川崎市,19,多摩区宿河原3丁目14番,宿河原南公園フェンス,35.6136982,139.5816386,
神奈川県,川崎市,20,多摩区宿河原6丁目14番,ニケ領用水柵（八幡下橋横）（宿河原線）,35.6135552,139.5837286,
神奈川県,川崎市,21,多摩区宿河原3丁目18番1号,稲田小学校南側植え込み,35.6131436,139.579041,
神奈川県,川崎市,22,多摩区宿河原3丁目18番1号,稲田小学校右側フェンス,35.6131436,139.579041,
神奈川県,川崎市,23,多摩区宿河原6丁目29番,東名宿河原第2公園北側フェンス,35.6102751,139.5873714,
神奈川県,川崎市,24,多摩区長尾1丁目8番,新川沿い向ヶ丘遊園バス停前フェンス,35.6105763,139.5732164,
神奈川県,川崎市,25,多摩区宿河原6丁目20番,宿河原東公園入口右側フェンス,35.6113834,139.5851419,
神奈川県,川崎市,26,多摩区長尾7丁目14番,東名長尾7丁目公園,35.606826,139.5845049,
神奈川県,川崎市,27,多摩区長尾6丁目11番,ふじやま遺跡公園空き地,35.608192,139.5806035,
神奈川県,川崎市,28,多摩区長尾7丁目14番,東名高速喜津根橋横ガードレール,35.606826,139.5845049,
神奈川県,川崎市,29,多摩区長尾7丁目28番1号,長尾小学校北門バスケット場フェンス,35.6052786,139.5815114,
神奈川県,川崎市,30,多摩区長尾7丁目28番1号,長尾小学校体育館側入口フェンス,35.6052786,139.5815114,
神奈川県,川崎市,31,多摩区長尾6丁目31番,長尾宮前公園フェンス,35.6072836,139.5778169,
神奈川県,川崎市,32,多摩区長尾7丁目2番,喜津根坂交差点フェンス,35.6091496,139.5838679,
神奈川県,川崎市,33,多摩区登戸3435番地,登戸駅前ガードレール,35.61999890000001,139.5649208,緯度経度は怪しい
神奈川県,川崎市,34,多摩区宿河原2丁目1番1号,宿河原小学校正門右側フェンス,35.6163329,139.5750753,
神奈川県,川崎市,35,多摩区宿河原2丁目36番2号,ミツモリコーポ1前ガードレール,35.613773,139.5734015,
神奈川県,川崎市,36,多摩区宿河原2丁目1番1号,宿河原小学校体育館側フェンス,35.6163329,139.5750753,
神奈川県,川崎市,37,多摩区宿河原2丁目44番,宿河原本村公園入口横フェンス,35.6129799,139.5709705,
神奈川県,川崎市,38,多摩区登戸3435番地,登戸駅ペデストリアンデッキ,35.61999890000001,139.5649208,緯度経度は怪しい
神奈川県,川崎市,39,多摩区登戸3269番地,登戸3号街区公園 東側フェンス,35.6188205,139.5696498,
神奈川県,川崎市,40,多摩区登戸3234番地,登戸駅周辺自転車等駐車場第2施設フェンス,35.6189668,139.5715826,
神奈川県,川崎市,41,多摩区宿河原1丁目30番37号,市立多摩病院前植え込み,35.61976,139.5725521,
神奈川県,川崎市,42,多摩区登戸1775番地1,多摩区総合庁舎植込み（正面）,35.6195989,139.5619758,
神奈川県,川崎市,43,多摩区登戸1775番地1,多摩区総合庁舎植込み（ＮＴＴ側）,35.6195989,139.5619758,
神奈川県,川崎市,44,多摩区登戸1998番地4,向ヶ丘遊園駅周辺自転車等駐車場第１０施設フェンス (位置情報が見つかりませんでした),35.6163064,139.56302,
神奈川県,川崎市,45,多摩区登戸1984番地3,登戸一号街区公園入口右側フェンス,35.6169775,139.5613046,
神奈川県,川崎市,46,多摩区登戸2099番地,向ヶ丘遊園駅周辺自転車等駐車場第１施設EV脇フェンス,35.617515,139.564692,緯度経度は怪しい
神奈川県,川崎市,47,多摩区登戸新町228番地,登戸第1公園フェンス,35.6242684,139.5655576,緯度経度は怪しい
神奈川県,川崎市,48,多摩区登戸2838番地6,登戸東公園フェンス,35.6142317,139.5683148,
神奈川県,川崎市,49,多摩区登戸3853番地6,稲生橋転落防止柵,35.6148356,139.5658661,
神奈川県,川崎市,50,多摩区登戸617番地,登戸台和公園南東側ごみ集積所横フェンス,35.61999890000001,139.5649208,
神奈川県,川崎市,51,多摩区登戸新町227番地,登戸第2公園北東側フェンス,35.6245406,139.5643786,
神奈川県,川崎市,52,多摩区登戸新町237番地,登戸老人いこいの家フェンス,35.6237827,139.5635166,
神奈川県,川崎市,53,多摩区登戸1092番地,踏切り手前空地フェンス,35.622408,139.5631756,
神奈川県,川崎市,54,多摩区登戸1329番地,登戸小学校正門左側フェンス,35.61999890000001,139.5649208,
神奈川県,川崎市,55,多摩区登戸1329番地,登戸小学校西側フェンス,35.61999890000001,139.5649208,
神奈川県,川崎市,56,多摩区登戸430番地,masked,35.621083,139.5570497,
神奈川県,川崎市,57,多摩区登戸278番地,個人所有駐車場フェンス,35.6240367,139.5552034,
神奈川県,川崎市,58,多摩区登戸新町229番地,登戸第一緑地,35.6242684,139.5655576,
神奈川県,川崎市,59,多摩区中野島5丁目2番,中野島石河原公園前ガードレール,35.6312258,139.560782,緯度経度は怪しい
神奈川県,川崎市,60,多摩区中野島4丁目22番7号,中野島こども文化センターフェンス,35.628381,139.5593692,
神奈川県,川崎市,61,多摩区中野島5丁目2番,市営中野島多摩川住宅6号棟前植え込み,35.6312258,139.560782,緯度経度は怪しい
神奈川県,川崎市,62,多摩区中野島3丁目12番1号,中野島小学校フェンス（わくわくプラザ側）,35.6292256,139.551769,
神奈川県,川崎市,63,多摩区中野島4丁目15番21号,中野島2号さく井フェンス,35.6302576,139.5552204,
神奈川県,川崎市,64,多摩区中野島5丁目2番,中野島中河原公園植え込み,35.6312258,139.560782,緯度経度は怪しい
神奈川県,川崎市,65,多摩区中野島3丁目31番16号,中野島5号さく井前ガードレール,35.6260691,139.553617,
神奈川県,川崎市,66,多摩区中野島3丁目12番1号,中野島小学校正門右側フェンス,35.6292256,139.551769,
神奈川県,川崎市,67,多摩区中野島5丁目2番,市営中野島多摩川住宅（市営バス停近く）,35.6312258,139.560782,緯度経度は怪しい
神奈川県,川崎市,68,多摩区生田1丁目1番,生田浄水場中門右側植え込み,35.6226725,139.5428419,
神奈川県,川崎市,69,多摩区中野島1丁目25番,中野島ニヶ領公園フェンス,35.6275584,139.5456616,
神奈川県,川崎市,70,多摩区中野島1丁目16番,中野島中学校正門左側フェンス,35.6284971,139.5455024,
神奈川県,川崎市,71,多摩区生田1丁目21番,masked,35.626595,139.545582,
神奈川県,川崎市,72,多摩区生田1丁目1番,生田浄水場正門右側植え込み,35.6226725,139.5428419,
神奈川県,川崎市,73,多摩区生田1丁目20番1号,masked,35.6257868,139.5461535,
神奈川県,川崎市,74,多摩区菅馬場1丁目5番,旧三沢川フェンス（沖河原橋横） (位置情報が見つかりませんでした),35.6295438,139.5422402,
神奈川県,川崎市,75,多摩区菅馬場1丁目19番,ニヶ領用水柵（中の島橋横）,35.6303249,139.5447067,
神奈川県,川崎市,76,多摩区菅北浦1丁目12番12号,臨時給水４号さく井フェンス,35.6310891,139.5406787,
神奈川県,川崎市,77,多摩区菅北浦1丁目3番3号,歩道植え込み,35.6301018,139.537347,
神奈川県,川崎市,78,多摩区菅馬場2丁目5番1号,masked,35.6274015,139.5390108,
神奈川県,川崎市,79,多摩区寺尾台2丁目8番3号,寺尾台第2公園南側フェンス,35.6221799,139.5378994,
神奈川県,川崎市,80,多摩区寺尾台2丁目8番1号,ＵＲ都市機構寺尾台団地18号棟横道路ガードレール,35.621518,139.5370716,
神奈川県,川崎市,81,多摩区菅馬場2丁目19番1号,東菅小学校正門左側フェンス,35.62690800000001,139.5367999,
神奈川県,川崎市,82,多摩区菅北浦1丁目11番,菅なかよし公園フェンス,35.6307931,139.5400123,
神奈川県,川崎市,83,多摩区菅北浦2丁目12番,旧三沢川フェンス（子之神橋横）,35.6286082,139.5346023,
神奈川県,川崎市,84,多摩区菅稲田堤1丁目17番,稲田堤駅周辺自転車等駐車場第２施設フェンス,35.63466,139.534112,
神奈川県,川崎市,85,多摩区菅稲田堤1丁目4番,上水5号さく井フェンス,35.6341168,139.5370686,
神奈川県,川崎市,86,多摩区菅北浦3丁目8番,菅公園入口左側フェンス,35.6307563,139.5322952,
神奈川県,川崎市,87,多摩区菅2丁目6番1号,菅小学校正門左側植え込み,35.6327601,139.531992,
神奈川県,川崎市,88,多摩区菅2丁目6番1号,菅小学校西門左側フェンス,35.6327601,139.531992,
神奈川県,川崎市,89,多摩区菅4丁目4番,グレースコート稲田堤横転落防止フェンス,35.6345459,139.5303836,
神奈川県,川崎市,90,多摩区菅稲田堤2丁目9番,稲田公園入口,35.6373308,139.5364453,
神奈川県,川崎市,91,多摩区菅野戸呂17番13号,タマグリーンハイツフェンス前ガードレール,35.637553,139.5332103,
神奈川県,川崎市,92,多摩区菅2丁目15番,京王稲田堤駅南口バスロータリー植え込み,35.6332154,139.5302269,
神奈川県,川崎市,93,多摩区菅野戸呂14番,上水3号さく井フェンス,35.6384216,139.5307042,
神奈川県,川崎市,94,多摩区菅3丁目3番,京王稲田堤駅周辺自転車等駐車場第２施設フェンス,35.6338866,139.5288746,
神奈川県,川崎市,95,多摩区菅4丁目7番,菅天宿公園フェンス,35.6350426,139.5294314,
神奈川県,川崎市,96,多摩区菅城下17番地,高架下京王菅西公園ガードレール,35.6337166,139.5240224,
神奈川県,川崎市,97,多摩区菅4丁目13番1号,歩道植え込み,35.6359752,139.5272638,
神奈川県,川崎市,98,多摩区菅城下28番1号,菅中学校通用門左側フェンス,35.6365256,139.5226553,
神奈川県,川崎市,99,多摩区菅城下28番1号,菅中学校正門左側フェンス,35.6365256,139.5226553,
神奈川県,川崎市,100,多摩区菅6丁目14番,菅芝間こども公園フェンス,35.6393144,139.5263011,
神奈川県,川崎市,101,多摩区東生田4丁目8番,生田おし沼公園入口右側フェンス,35.6040646,139.5669904,
神奈川県,川崎市,102,多摩区東生田3丁目3番,生田アゼリア公園植え込み,35.605686,139.5660352,
神奈川県,川崎市,103,多摩区東生田2丁目14番,歩道植え込み,35.6113504,139.5644433,
神奈川県,川崎市,104,多摩区枡形7丁目1番,生田緑地駐車場フェンス,35.604503,139.551217,緯度経度は怪しい
神奈川県,川崎市,105,多摩区東生田1丁目12番,専修大学生田研修館前ガードレール,35.6137474,139.5645229,
神奈川県,川崎市,106,多摩区東生田2丁目2番13号,飯室会館向かい用水路フェンス,35.6125934,139.565563,
神奈川県,川崎市,107,多摩区東生田1丁目1番,追分橋ガードレール,35.6160013,139.5622942,
神奈川県,川崎市,108,多摩区枡形5丁目16番,生田根岸第1公園,35.6151372,139.5539375,
神奈川県,川崎市,109,多摩区枡形6丁目3番1号,枡形こども文化センターフェンス,35.6140763,139.5609329,
神奈川県,川崎市,110,多摩区枡形6丁目23番,専修大学第三学生自治会館横道路ガードレール,35.6119991,139.5559271,
神奈川県,川崎市,111,多摩区枡形5丁目19番,生田大谷第1公園フェンス,35.6142083,139.5523459,
神奈川県,川崎市,112,多摩区枡形3丁目3番17号,東生田会館南側河川転落防止柵 (位置情報が見つかりませんでした),35.6164106,139.5590907,
神奈川県,川崎市,113,多摩区枡形4丁目6番,生田根岸跨線橋下公園フェンス,35.6159279,139.5546538,
神奈川県,川崎市,114,多摩区枡形4丁目6番,大道橋西側歩道植え込み,35.6159279,139.5546538,
神奈川県,川崎市,115,多摩区枡形4丁目9番1号,東生田小学校正門東側フェンス,35.61683710000001,139.5528234,
神奈川県,川崎市,116,多摩区生田5丁目30番,配水池フェンス,35.6209671,139.5410467,
神奈川県,川崎市,117,多摩区生田4丁目5番3号,太田荘前駐車場法敷,35.6189984,139.5420379,
神奈川県,川崎市,118,多摩区生田5丁目21番,生田寒谷公園東側フェンス,35.6218906,139.5388985,
神奈川県,川崎市,119,多摩区生田6丁目19番,生田6丁目公園フェンス (位置情報が見つかりませんでした),35.6169944,139.5386598,
神奈川県,川崎市,120,多摩区生田7丁目1番,生田駅周辺自転車等駐車場第1施設フェンス,35.6146527,139.5404897,
神奈川県,川崎市,121,多摩区西生田2丁目2番,生田駅周辺自転車等駐車場第4施設フェンス,35.614933,139.539503,
神奈川県,川崎市,122,多摩区生田7丁目22番1号,生田小学校正門右側フェンス,35.6173705,139.5420247,
神奈川県,川崎市,123,多摩区生田7丁目16番1号,生田出張所西側フェンス,35.6159804,139.5419709,
神奈川県,川崎市,124,多摩区三田2丁目3256番地,三田福祉ホーム駐車場フェンス,35.6142826,139.5475456,
神奈川県,川崎市,125,多摩区三田1丁目27番,三田第2公園植え込み,35.6127258,139.542638,緯度経度は怪しい
神奈川県,川崎市,126,多摩区三田2丁目5420番地2,生田中学校フェンス（西三田団地1-2号棟前）,35.6129469,139.54615,
神奈川県,川崎市,127,多摩区東三田3丁目7番,三田第6公園北側,35.6103392,139.5500381,
神奈川県,川崎市,128,多摩区三田4丁目5番,三田第1公園バス停横法敷,35.6081403,139.542638,
神奈川県,川崎市,129,多摩区三田1丁目4番,三田第3公園南側植え込み,35.6127258,139.542638,
神奈川県,川崎市,130,多摩区三田1丁目2番,生田駅周辺自転車等駐車場第2施設フェンス,35.6127258,139.542638,緯度経度は怪しい
神奈川県,川崎市,131,多摩区三田3丁目5番,三田第4公園入口右フェンス,35.6103146,139.5451842,
神奈川県,川崎市,132,多摩区南生田2丁目31番,南生田ひだまり公園フェンス・ガードレール,35.6043738,139.5265677,
神奈川県,川崎市,133,多摩区南生田6丁目2番,生田中谷第1児童公園フェンス,35.6052224,139.5402908,
神奈川県,川崎市,134,多摩区南生田2丁目27番,塔ノ越里公園フェンス,35.603811,139.5294314,
神奈川県,川崎市,135,多摩区南生田6丁目26番,長沢公園フェンス,35.604029,139.5370686,
神奈川県,川崎市,136,多摩区南生田5丁目25番,生田中谷第3公園入口左側フェンス,35.6043748,139.5357957,
神奈川県,川崎市,137,多摩区南生田3丁目4番1号,南生田中学校体育館側入口右側フェンス,35.6051308,139.5348509,
神奈川県,川崎市,138,多摩区南生田3丁目9番9号,南生田3丁目公園フェンス,35.6042066,139.5332499,
神奈川県,川崎市,139,多摩区南生田2丁目24番,南生田2丁目公園フェンス (位置情報が見つかりませんでした),35.602734,139.5310224,
神奈川県,川崎市,140,多摩区南生田3丁目1番1号,南生田小学校正門左側植え込み,35.6065211,139.5339607,
神奈川県,川崎市,141,多摩区西生田5丁目12番,masked,35.6075532,139.5263689,
神奈川県,川崎市,142,多摩区栗谷2丁目1番22号,栗谷町会会館フェンス,35.609925,139.53681,
神奈川県,川崎市,143,多摩区西生田5丁目28番,高石配水塔フェンス,35.60520400000001,139.5272041,
神奈川県,川崎市,144,多摩区栗谷3丁目30番,錦ヶ丘北公園フェンス,35.6139505,139.535557,
神奈川県,川崎市,145,多摩区栗谷3丁目18番,錦ヶ丘南公園フェンス,35.6124534,139.5353979,
神奈川県,川崎市,146,多摩区南生田1丁目1番,南生田1丁目公園フェンス,35.6111436,139.531977,
神奈川県,川崎市,147,多摩区南生田1丁目8番,南生田公園南側フェンス (位置情報が見つかりませんでした),35.6047405,139.5356365,緯度経度は怪しい
神奈川県,川崎市,148,多摩区西生田4丁目19番,西生田ふれあい緑地フェンス,35.6097785,139.5243405,
神奈川県,川崎市,149,多摩区西生田4丁目18番,生田雁俣谷公園付近ガードレール (位置情報が見つかりませんでした),35.6103811,139.5237042,
神奈川県,川崎市,150,多摩区西生田3丁目13番,ランドパーキング2駐車場フェンス,35.6119776,139.5271246,
神奈川県,川崎市,151,多摩区西生田4丁目3番,生田南大作公園入口右側フェンス,35.6139882,139.5262496,
神奈川県,川崎市,152,多摩区西生田3丁目1番,五反田川フェンス（新川戸橋横）,35.614429,139.5314202,
神奈川県,川崎市,153,多摩区西生田2丁目14番,五反田川フェンス（南大作橋横）,35.6147698,139.5310224,
神奈川県,川崎市,154,多摩区西生田2丁目13番2号,masked,35.615586,139.5313571,
神奈川県,川崎市,155,多摩区西生田4丁目11番,ランドヒロ前ガードレール,35.6129753,139.5256928,
神奈川県,川崎市,156,多摩区枡形1丁目22番1号,枡形中学校南側フェンス (位置情報が見つかりませんでした),35.6188032,139.5479703,
神奈川県,川崎市,157,多摩区生田2丁目20番,masked,35.621976,139.5517093,
神奈川県,川崎市,158,多摩区生田3丁目19番,masked,35.6212002,139.5506748,
神奈川県,川崎市,159,多摩区生田3丁目16番,市営生田住宅前ガードレール,35.6209382,139.5486058,
神奈川県,川崎市,160,多摩区枡形1丁目22番1号,枡形中学校正門右側フェンス (位置情報が見つかりませんでした),35.6188032,139.5479703,
神奈川県,川崎市,161,多摩区生田2丁目16番,生田2丁目公園植え込み (位置情報が見つかりませんでした),35.6225837,139.5501973,
神奈川県,川崎市,162,多摩区枡形1丁目14番1号,多摩生活環境事業所入口フェンス,35.6199118,139.5528019,
神奈川県,川崎市,163,多摩区生田2丁目14番5号,多摩区保育・子育て総合支援センター入口左側フェンス,35.6230034,139.5489956,
神奈川県,川崎市,164,多摩区寺尾台2丁目2番,寺尾台第1児童公園南東側生け垣,35.6209862,139.5375459,
神奈川県,川崎市,165,多摩区寺尾台1丁目18番41号,寺尾台こぶし公園フェンス,35.6199114,139.5338888,
神奈川県,川崎市,166,多摩区菅馬場3丁目25番1号,南菅小学校正門左側フェンス,35.623091,139.5318826,
神奈川県,川崎市,167,多摩区菅馬場3丁目11番,菅馬場公園東側フェンス,35.6238505,139.5329317,
神奈川県,川崎市,168,多摩区菅北浦4丁目13番,西菅公園南側フェンス,35.6246793,139.5289541,
神奈川県,川崎市,169,多摩区菅北浦4丁目13番,西菅公園北側フェンス,35.6246793,139.5289541,
神奈川県,川崎市,170,多摩区菅仙谷3丁目1号,星ヶ丘歩道橋バス停右側法敷,35.6262589,139.5257723,
神奈川県,川崎市,171,多摩区菅仙谷3丁目20番20号,市営バス西菅団地折り返し所フェンス,35.6216748,139.5257723,
神奈川県,川崎市,172,多摩区菅仙谷1丁目12番,菅仙谷1丁目公園南側フェンス,35.6298785,139.5228302,
神奈川県,川崎市,173,多摩区菅仙谷1丁目12番,菅仙谷なかよし公園フェンス,35.6298785,139.5228302,
神奈川県,川崎市,174,多摩区菅仙谷2丁目17番,菅小谷公園入口階段左側ブロック塀,35.6294305,139.5268859,
神奈川県,川崎市,175,多摩区菅仙谷2丁目4番,菅小谷緑地東側フェンス,35.6296884,139.5298292,
神奈川県,川崎市,176,多摩区菅北浦4丁目15番,サンビームヒルズ西菅駐車場フェンス (位置情報が見つかりませんでした),35.6272255,139.5282979,
神奈川県,川崎市,177,多摩区菅北浦4丁目2番1号,西菅小学校正門右側フェンス,35.62679079999999,139.5310672,
神奈川県,川崎市,178,多摩区菅北浦5丁目7番,菅北浦調整池入口左側フェンス,35.62622169999999,139.5327726,
神奈川県,川崎市,179,多摩区菅稲田堤3丁目9番,菅第4公園入口左側フェンス,35.6330758,139.5417628,
神奈川県,川崎市,180,多摩区菅稲田堤3丁目21番1号,稲田取水所フェンス,35.6345784,139.5434775,
神奈川県,川崎市,181,多摩区布田29番地,上布田公園植え込み,35.63319020000001,139.5447067,
神奈川県,川崎市,182,多摩区菅馬場1丁目29番,二ヶ領用水新川柵（ラ・カーサ・デル・ポンブランコ前）,35.6325429,139.5439906,
神奈川県,川崎市,183,多摩区布田23番1号,下布田小学校正門左側フェンス,35.6316853,139.5465388,
神奈川県,川崎市,184,多摩区布田2番地10,下布田公園入口植え込み,35.6329245,139.550436,
神奈川県,川崎市,185,多摩区中野島6丁目29番,新多摩川ハイム入口フェンス,35.6310319,139.548664,
神奈川県,川崎市,186,多摩区中野島6丁目4番,中野島第3公園フェンス,35.6324902,139.5536192,
神奈川県,川崎市,187,多摩区長沢4丁目32番,長沢こども公園フェンス,35.59718,139.534125,
神奈川県,川崎市,188,多摩区長沢1丁目20番5号,個人所有畑前フェンス,35.6024228,139.5444294,
神奈川県,川崎市,189,多摩区長沢4丁目3番,西長沢第3公園フェンス,35.5974415,139.5379037,緯度経度は怪しい
神奈川県,川崎市,190,多摩区長沢3丁目18番,県立生田高等学校前空き地 (位置情報が見つかりませんでした),35.5993246,139.5396145,
神奈川県,川崎市,191,多摩区長沢4丁目12番,長沢諏訪公園フェンス (位置情報が見つかりませんでした),35.5979508,139.5383415,
神奈川県,川崎市,192,多摩区長沢4丁目36番,長沢なかよし公園フェンス,35.5981584,139.5338863,
神奈川県,川崎市,193,多摩区南生田4丁目2番1号,県立百合丘高等学校体育館側フェンス,35.6009043,139.5345355,
神奈川県,川崎市,194,多摩区南生田4丁目5番,南生田4丁目公園フェンス,35.6024279,139.5368299,
神奈川県,川崎市,1,宮前区宮前平2丁目20番地5,宮前区役所掲示板横,35.5892143,139.5786927,
神奈川県,川崎市,2,宮前区宮前平2丁目18番地3,富士見台小学校西側フェンス,35.5882659,139.5795157,
神奈川県,川崎市,3,宮前区宮前平2丁目18番地2,宮前平公園南側フェンス,35.5885151,139.5821163,緯度経度は怪しい
神奈川県,川崎市,4,宮前区宮崎6丁目2番地3,宮崎第4公園西側フェンス,35.5910872,139.5833952,緯度経度は怪しい
神奈川県,川崎市,5,宮前区宮前平3丁目14番地1,宮前平小学校南側フェンス,35.5896613,139.5856668,
神奈川県,川崎市,6,宮前区宮前平1丁目9番地1,宮前平第2公園南側,35.5852374,139.5867042,
神奈川県,川崎市,7,宮前区宮前平2丁目19番地3,宮前区役所第2駐車場南側フェンス,35.5884468,139.5789354,
神奈川県,川崎市,8,宮前区宮前平1丁目5番地,宮前平第1公園東側,35.584833,139.5872122,
神奈川県,川崎市,9,宮前区宮前平3丁目5番地9,宮前平第3公園西側フェンス,35.5882049,139.5864936,
神奈川県,川崎市,10,宮前区宮崎5丁目1番地28,エル・ビィーナ宮崎台前水路沿いフェンス (位置情報が見つかりませんでした),35.5898965,139.5875592,
神奈川県,川崎市,11,宮前区宮崎4丁目1番地337,宮崎こもれびの丘公園西側,35.59416849999999,139.5868937,
神奈川県,川崎市,12,宮前区宮崎697番地1,宮崎台小学校北方向側同校教材園西側フェンス,35.5889843,139.5903973,緯度経度は怪しい
神奈川県,川崎市,13,宮前区宮崎3丁目18番地2,宮崎台小学校西側ガードレール,35.5924365,139.5895105,
神奈川県,川崎市,14,宮前区宮崎5丁目14番地24,水路沿いフェンス,35.590617,139.585391,
神奈川県,川崎市,15,宮前区宮崎3丁目18番地1,宮崎第3公園東側フェンス,35.5920851,139.5900109,
神奈川県,川崎市,16,宮前区宮崎4丁目1番地275,宮崎つつじ緑地北側,35.59416849999999,139.5868937,
神奈川県,川崎市,17,宮前区宮崎3丁目17番地24,宮崎台公園南側フェンス,35.5914348,139.5890247,
神奈川県,川崎市,18,宮前区宮崎2丁目3番地,宮崎台駅周辺自転車等駐車場　第5施設　南西側フェンス,35.5884451,139.592892,
神奈川県,川崎市,19,宮前区宮崎2丁目5番地,宮崎第2公園南側,35.5880336,139.5923085,
神奈川県,川崎市,20,宮前区宮崎2丁目2番地17,長坂下交差点北西側フェンス (位置情報が見つかりませんでした),35.5880336,139.5923085,
神奈川県,川崎市,21,宮前区宮崎2丁目10番地12,宮崎台駅前広場 植え込み,35.5878628,139.5925076,
神奈川県,川崎市,22,宮前区宮崎1丁目7番地,宮崎第1公園北西側,35.5851052,139.5935827,
神奈川県,川崎市,23,宮前区宮崎1丁目7番地,宮崎第1公園東側,35.5851052,139.5935827,
神奈川県,川崎市,24,宮前区宮崎1丁目7番地,宮崎第1公園西側,35.5851052,139.5935827,
神奈川県,川崎市,25,宮前区宮崎2丁目2番地21,東海宮崎台マンション前水路沿いフェンス,35.58750819999999,139.593941,
神奈川県,川崎市,26,宮前区宮崎172番地,市営宮崎団地北側道路,35.5900786,139.5952278,
神奈川県,川崎市,27,宮前区宮崎283番地,ＪＡセレサ川崎本店向かい側水路沿いフェンス,35.5867785,139.5959121,
神奈川県,川崎市,28,宮前区宮崎107番地,宮崎中学校西側フェンス,35.5888858,139.598123,
神奈川県,川崎市,29,宮前区宮崎105番地1,川崎市青少年の家北側フェンス,35.5875551,139.5985764,
神奈川県,川崎市,30,宮前区宮崎172番地6,宮崎こうしん坂公園東側フェンス (位置情報が見つかりませんでした),35.5905741,139.5961952,
神奈川県,川崎市,31,宮前区馬絹5丁目21番14号,馬絹古墳公園北側柵,35.5836833,139.6015807,
神奈川県,川崎市,32,宮前区梶ヶ谷3番地4,masked,35.5834694,139.6027494,
神奈川県,川崎市,33,宮前区宮崎107番地,宮崎中学校東側,35.5888858,139.598123,
神奈川県,川崎市,34,宮前区馬絹5丁目15番30号,馬絹第2公園南側フェンス,35.58283249999999,139.5993718,
神奈川県,川崎市,35,宮前区馬絹6丁目15番,masked,35.5837712,139.5982814,緯度経度は怪しい
神奈川県,川崎市,36,宮前区馬絹5丁目3番9号先,馬絹交番東側交差点北東矢上川沿いフェンス,35.5825657,139.597915,
神奈川県,川崎市,37,宮前区馬絹4丁目1066番1,「クレストシティ宮崎台」向かい側駐車場フェンス,35.5802744,139.5986796,
神奈川県,川崎市,38,宮前区馬絹2丁目6番22号,馬絹陸橋下公園北側ガードレール,35.581649,139.5958125,
神奈川県,川崎市,39,宮前区馬絹6丁目10番33号,宮前地区会館（まじわーる宮前）前矢上川沿いガードレール,35.5821866,139.5954352,
神奈川県,川崎市,40,宮前区馬絹6丁目6番27号,駐車場前矢上川沿いガードレール,35.5825544,139.5931013,
神奈川県,川崎市,41,宮前区馬絹4丁目28番32号,馬絹公園北側フェンス,35.5785584,139.5979636,
神奈川県,川崎市,42,宮前区小台2丁目24番地,小台公園西側フェンス,35.5827795,139.5821163,緯度経度は怪しい
神奈川県,川崎市,43,宮前区有馬2丁目6番4号,宮前道路公園センター北側フェンス,35.5796833,139.5835969,
神奈川県,川崎市,44,宮前区小台2丁目3番地,小台東公園東側フェンス,35.5827795,139.5821163,
神奈川県,川崎市,45,宮前区馬絹1丁目29番15号,masked,35.5809427,139.587033,
神奈川県,川崎市,46,宮前区馬絹1丁目30番9号,宮崎小学校南側フェンス (位置情報が見つかりませんでした),35.5794685,139.587511,
神奈川県,川崎市,47,宮前区馬絹3丁目11番13号付近,スーパーライフ東有馬店向かい側歩道植え込み,35.5787656,139.592262,
神奈川県,川崎市,48,宮前区東有馬2丁目13番3号,宮前休日急患診療所前,35.5770401,139.5947807,
神奈川県,川崎市,49,宮前区馬絹1丁目35番16号,シュトラール南西側ガードレール,35.5800692,139.5880682,
神奈川県,川崎市,50,宮前区東有馬2丁目2396番地2,東有馬2丁目公園南東側フェンス,35.5772404,139.5916292,緯度経度は怪しい
神奈川県,川崎市,51,宮前区野川台3丁目1番30号,野川第4公園東側,35.5747125,139.6038783,
神奈川県,川崎市,52,宮前区野川台2丁目8番1号,野川第3公園西側,35.5754782,139.6030996,
神奈川県,川崎市,53,宮前区野川台1丁目28番1号,野川第2公園東側フェンス,35.5733761,139.6037141,
神奈川県,川崎市,54,宮前区野川台3丁目10番1号,西野川小学校東側正門フェンス,35.5746078,139.6067738,
神奈川県,川崎市,55,宮前区野川台1丁目22番30号,野川第1公園東側,35.5744061,139.6010211,
神奈川県,川崎市,56,宮前区西野川1丁目23番5号,市営野川西団地5号棟南側ガードレール,35.5768759,139.6043127,
神奈川県,川崎市,57,宮前区西野川1丁目23番11号,市営野川西団地11号棟西側ガードレール,35.5774865,139.6044482,
神奈川県,川崎市,58,宮前区西野川1丁目32番19号,セブンイレブン川崎野川店東側登坂道フェンス,35.5772295,139.6078498,
神奈川県,川崎市,59,宮前区野川本町3丁目7番,影向寺南方向側畑地,35.578215,139.6201073,
神奈川県,川崎市,60,宮前区野川本町2丁目25番35号,野川公園北側,35.5741124,139.6150597,
神奈川県,川崎市,61,宮前区野川本町1丁目1番44号,野川北公園東側フェンス,35.5783434,139.6104952,
神奈川県,川崎市,62,宮前区西野川3丁目16番,ガードレール,35.5710542,139.6048124,
神奈川県,川崎市,63,宮前区西野川2丁目19番1号,野川小学校東側フェンス,35.5737841,139.6099899,
神奈川県,川崎市,64,宮前区南野川3丁目26番16号,野川花ぞの公園西側フェンス,35.5707771,139.6124251,
神奈川県,川崎市,65,宮前区南野川3丁目7番40号,野川南台第1公園北東側フェンス,35.5704311,139.6095752,
神奈川県,川崎市,66,宮前区南野川3丁目32番1号,野川中耕地公園東側フェンス,35.5722498,139.6140643,
神奈川県,川崎市,67,宮前区野川本町3丁目11番21号,野川宮の前公園南側植栽,35.5758819,139.6180287,
神奈川県,川崎市,68,宮前区西野川3丁目25番11号,野川南耕地公園東側フェンス,35.5686707,139.607321,
神奈川県,川崎市,69,宮前区南野川3丁目8番24号,県営野川南台団地24号棟南側,35.5689882,139.610429,
神奈川県,川崎市,70,宮前区南野川3丁目8番1号,野川南台公園西側,35.5682055,139.6098343,
神奈川県,川崎市,71,宮前区南野川2丁目25番45号,南野川公園南側フェンス (位置情報が見つかりませんでした),35.5678397,139.6054978,
神奈川県,川崎市,72,宮前区南野川2丁目18番32号,野川くすのき公園東側フェンス,35.5687213,139.604252,
神奈川県,川崎市,73,宮前区南野川2丁目56番26号,野川住宅2号棟西側フェンス,35.5653412,139.6040673,
神奈川県,川崎市,74,宮前区南野川1丁目28番18号,masked,35.5702375,139.5996535,
神奈川県,川崎市,75,宮前区南野川2丁目12番1号,南野川小学校北側フェンス,35.5666283,139.6036176,
神奈川県,川崎市,76,宮前区東有馬5丁目12番1号,有馬小学校南側フェンス,35.56809399999999,139.5916063,
神奈川県,川崎市,77,宮前区東有馬5丁目20番2号,市営有馬第1団地2号棟東側フェンス,35.570621,139.5934804,
神奈川県,川崎市,78,宮前区東有馬5丁目20番19号,市営有馬第1団地19号棟西側ガードレール (位置情報が見つかりませんでした),35.5692474,139.5955523,
神奈川県,川崎市,79,宮前区東有馬5丁目15番20号,県営有馬団地20号棟東側フェンス (位置情報が見つかりませんでした),35.5681168,139.594491,
神奈川県,川崎市,80,宮前区東有馬4丁目25番,有馬小学校北側農地,35.5682838,139.5899196,
神奈川県,川崎市,81,宮前区東有馬4丁目5番5号,市営有馬第2団地５号棟東側,35.5710776,139.5884423,
神奈川県,川崎市,82,宮前区東有馬4丁目22番21号,市営有馬第2団地２１号棟西側ガードレール,35.568817,139.5877675,
神奈川県,川崎市,83,宮前区有馬3丁目22番1号,県立川崎北高等学校北側,35.5738188,139.5863885,
神奈川県,川崎市,84,宮前区有馬6丁目9番1号,有馬こども公園北側,35.57128489999999,139.5829175,
神奈川県,川崎市,85,宮前区有馬3丁目11番1号,有馬つつじ公園西側フェンス,35.5763304,139.5835494,
神奈川県,川崎市,86,宮前区有馬4丁目15番1号,有馬中央公園東側フェンス,35.5747086,139.5798919,
神奈川県,川崎市,87,宮前区有馬6丁目3番1号,有馬５・６丁目交差点南東側有馬川沿いフェンス,35.5714584,139.5813686,
神奈川県,川崎市,88,宮前区有馬7丁目7番1号,有馬中学校南側ガードレール,35.5711052,139.5775726,
神奈川県,川崎市,89,宮前区有馬8丁目7番1号,国道２４６号線橋梁下自転車等保管所東側フェンス,35.5757514,139.5761393,
神奈川県,川崎市,90,宮前区有馬9丁目6番1号,有馬さくら公園北西側,35.572819,139.5698561,
神奈川県,川崎市,91,宮前区有馬8丁目26番1号,有馬ふるさと公園南西側,35.5721632,139.5746325,
神奈川県,川崎市,92,宮前区鷺沼2丁目1番地1,鷺沼小学校南側フェンス,35.5774402,139.5687621,
神奈川県,川崎市,93,宮前区鷺沼2丁目1番地1,鷺沼小学校北側フェンス,35.5774402,139.5687621,
神奈川県,川崎市,94,宮前区鷺沼1丁目23番地24,鷺沼第2公園北側,35.5759008,139.5713506,
神奈川県,川崎市,95,宮前区鷺沼1丁目3番地23,鷺沼駅周辺自転車等駐車場　第1施設フェンス,35.5770019,139.5754245,
神奈川県,川崎市,96,宮前区鷺沼2丁目10番地,鷺沼公園北側,35.5748374,139.5681048,緯度経度は怪しい
神奈川県,川崎市,97,宮前区鷺沼3丁目11番地60,鷺沼第3公園東側,35.5791178,139.5679866,
神奈川県,川崎市,98,宮前区土橋4丁目6番地先,宮前区道路公園センター資材置場前フェンス (位置情報が見つかりませんでした),35.5861879,139.5706521,緯度経度は怪しい
神奈川県,川崎市,99,宮前区鷺沼3丁目12番地34,鷺沼つつじ公園北西側フェンス,35.5803491,139.5667086,
神奈川県,川崎市,100,宮前区鷺沼4丁目14番地34,鷺沼くすのき公園南側フェンス,35.5825476,139.56745,
神奈川県,川崎市,101,宮前区土橋5丁目4番地21,土橋てんでん山公園北側フェンス,35.59082160000001,139.5686982,
神奈川県,川崎市,102,宮前区土橋6丁目11番地1,東名土橋公園南側フェンス,35.5884489,139.5693756,
神奈川県,川崎市,103,宮前区土橋6丁目14番地25,土橋宮上公園南側フェンス,35.5898173,139.5704775,
神奈川県,川崎市,104,宮前区土橋1丁目5番地17,ファミリーマート駐車場裏水路沿いフェンス,35.5859945,139.5784715,
神奈川県,川崎市,105,宮前区土橋1丁目17番地,土橋太田公園東側フェンス (位置情報が見つかりませんでした),35.5876084,139.5770208,
神奈川県,川崎市,106,宮前区土橋1丁目15番地2,神奈川トヨタ㈱宮前平店北側水路沿いフェンス,35.5873087,139.573699,
神奈川県,川崎市,107,宮前区土橋7丁目27番地2,土橋７丁目公園東側,35.590536,139.575747,
神奈川県,川崎市,108,宮前区土橋7丁目27番地2,土橋７丁目公園西側,35.590536,139.575747,
神奈川県,川崎市,109,宮前区けやき平1番46号,グリーンハイツ４６号棟西側,35.5916543,139.5730041,緯度経度は怪しい
神奈川県,川崎市,110,宮前区けやき平1番41号,向ヶ丘公園北側,35.5925636,139.5743777,
神奈川県,川崎市,111,宮前区けやき平1番19号,グリーンハイツ１９号棟北側空地　西側フェンス,35.5942653,139.575847,
神奈川県,川崎市,112,宮前区けやき平1番15号,グリーンハイツ１５号棟南側,35.5937515,139.5774592,緯度経度は怪しい
神奈川県,川崎市,113,宮前区神木2丁目17番,masked,35.5947638,139.5833902,緯度経度は怪しい
神奈川県,川崎市,114,宮前区平6丁目5番1号,平小学校南側フェンス,35.5953655,139.5804144,
神奈川県,川崎市,115,宮前区神木1丁目4番地,神木公園北側フェンス (位置情報が見つかりませんでした),35.592744,139.5793794,
神奈川県,川崎市,116,宮前区神木2丁目11番地5,ひばり幼稚園第２園舎北側フェンス,35.5962398,139.5835837,
神奈川県,川崎市,117,宮前区土橋3丁目1番地11,土橋小学校北側正門フェンス,35.581457,139.57469,
神奈川県,川崎市,118,宮前区土橋3丁目1番地1,上下水道局水運用センター鷺沼配水所北西側フェンス,35.5829643,139.5756337,
神奈川県,川崎市,119,宮前区土橋2丁目3番地,土橋原台公園東南側フェンス,35.5848008,139.575747,
神奈川県,川崎市,120,宮前区土橋3丁目11番地1,土橋南公園東側フェンス,35.5826268,139.5731995,
神奈川県,川崎市,121,宮前区土橋4丁目3番地30,土橋こども公園北側フェンス,35.5861481,139.5710883,
神奈川県,川崎市,122,宮前区土橋2丁目12番地6,マクドナルド東名川崎インター店南側水路沿いガードレール,35.586541,139.5745113,
神奈川県,川崎市,123,宮前区土橋2丁目14番地1,土橋保育園東側フェンス,35.5858601,139.5734826,
神奈川県,川崎市,124,宮前区土橋2丁目1番地21,レジデンスヘリオス南側水路沿いガードレール,35.5847588,139.5799605,
神奈川県,川崎市,125,宮前区五所塚2丁目23番地1,五所塚第2公園東側フェンス,35.605768,139.5738924,
神奈川県,川崎市,126,宮前区平2丁目23番8号,市営高山団地児童公園西側,35.60325340000001,139.5731453,
神奈川県,川崎市,127,宮前区平2丁目23番16号,市営高山団地16号棟南側,35.6038883,139.5711476,緯度経度は怪しい
神奈川県,川崎市,128,宮前区平2丁目6番1号,川崎西部地域療育センターフェンス,35.6014469,139.5696406,
神奈川県,川崎市,129,宮前区平2丁目14番1,平公園南側ガードレール,35.6021558,139.5753611,
神奈川県,川崎市,130,宮前区平1丁目6番1号,向丘小学校西側フェンス,35.6002094,139.5762546,
神奈川県,川崎市,131,宮前区平1丁目1番10号,向丘出張所南側　植え込み,35.5995548,139.5770785,
神奈川県,川崎市,132,宮前区平4丁目13番,平二丁目交差点西南側フェンス (位置情報が見つかりませんでした),35.5991302,139.5705725,
神奈川県,川崎市,133,宮前区平1丁目6番1号,向丘小学校南側フェンス,35.6002094,139.5762546,
神奈川県,川崎市,134,宮前区白幡台1丁目11番地2,白幡台住宅12号棟南側フェンス,35.5973548,139.5681241,
神奈川県,川崎市,135,宮前区南平台13番1号,白幡台小学校西側フェンス (位置情報が見つかりませんでした),35.5958001,139.5679357,
神奈川県,川崎市,136,宮前区初山2丁目13番21号,初山公園西側,35.5949836,139.5655038,
神奈川県,川崎市,137,宮前区初山2丁目16番6号,市営初山団地6号棟東側,35.593997,139.564827,
神奈川県,川崎市,138,宮前区南平台15番12号,市営南平台住宅12号棟,35.5937717,139.5680337,
神奈川県,川崎市,139,宮前区南平台19番26号,宮ノ谷公園北側フェンス,35.595565,139.571591,
神奈川県,川崎市,140,宮前区南平台17番1号,市営南平台住宅1号棟,35.5941531,139.5702254,
神奈川県,川崎市,141,宮前区南平台5番7号,みなみだいら公園西側フェンス,35.59270370000001,139.5708113,
神奈川県,川崎市,142,宮前区犬蔵3丁目6番3号,南菅生けやき公園東側,35.588389,139.5558475,
神奈川県,川崎市,143,宮前区犬蔵1丁目7番,駐車場西側フェンス,35.5888991,139.5663536,
神奈川県,川崎市,144,宮前区犬蔵1丁目10番1号,犬蔵中学校北側,35.5891162,139.5635329,
神奈川県,川崎市,145,宮前区菅生6丁目7番21,南菅生公園北東側,35.5906996,139.5638861,
神奈川県,川崎市,146,宮前区犬蔵2丁目35番3・4号,宮前美しの森公園北側フェンス,35.5839738,139.5623079,
神奈川県,川崎市,147,宮前区犬蔵2丁目40番,犬蔵くすのき公園東側,35.5857137,139.558633,
神奈川県,川崎市,148,宮前区犬蔵1丁目10番1号,犬蔵中学校南側,35.5891162,139.5635329,
神奈川県,川崎市,149,宮前区犬蔵2丁目23番,犬蔵２丁目公園北側 (位置情報が見つかりませんでした),35.586083,139.5622146,
神奈川県,川崎市,150,宮前区菅生6丁目12番9号,南菅生第２公園南側,35.5918935,139.562856,
神奈川県,川崎市,151,宮前区菅生4丁目4番,みなみすがお保育園前通りのガードレール,35.5926338,139.5541543,
神奈川県,川崎市,152,宮前区菅生5丁目4番11号,宮前市民館菅生分館駐車場ブロック塀,35.5949177,139.5555076,
神奈川県,川崎市,153,宮前区菅生5丁目2番20号,ＮＴＴ東日本菅生電話交換センター前フェンス,35.5957302,139.5578471,
神奈川県,川崎市,154,宮前区菅生1丁目16番,菅生１丁目公園西側フェンス,35.6019718,139.5550517,
神奈川県,川崎市,155,宮前区初山1丁目23番15号,菅生保育園南側フェンス,35.5968236,139.5611894,
神奈川県,川崎市,156,宮前区初山2丁目1番40号,（株）ベストランス正面道路沿いフェンス,35.5985512,139.5639559,
神奈川県,川崎市,157,宮前区菅生1丁目5番1号,菅生小学校西側フェンス,35.5981688,139.5572622,
神奈川県,川崎市,158,宮前区菅生2丁目17番1号,菅生バス停そば歩道フェンス,35.6004888,139.55277,
神奈川県,川崎市,159,宮前区水沢1丁目3番,菅生緑地入り口付近,35.5900715,139.5490037,
神奈川県,川崎市,160,宮前区菅生3丁目33番9号,菅生第４公園北側フェンス,35.5948657,139.5491628,
神奈川県,川崎市,161,宮前区菅生3丁目43番22号,鷲ヶ峰公園北側フェンス,35.5963193,139.5456616,
神奈川県,川崎市,162,宮前区水沢3丁目7番1号,稗原小学校北側稗原小学校前バス停そばフェンス,35.5959281,139.5420512,
神奈川県,川崎市,163,宮前区菅生ケ丘19番1号,鷲ヶ峰子供の里公園北側柵,35.5971599,139.5422402,
神奈川県,川崎市,164,宮前区菅生ケ丘32番8号,市営鷲ヶ峰西住宅集会所南東側フェンス,35.5976534,139.5393965,
神奈川県,川崎市,165,宮前区潮見台2463番5号,潮見台わくわく公園南側フェンス (位置情報が見つかりませんでした),35.5951737,139.5318179,
神奈川県,川崎市,166,宮前区菅生ケ丘29番,稗原バス停そば柵,35.5944125,139.5373868,
神奈川県,川崎市,167,宮前区小台1丁目13番地,小台西公園北側フェンス,35.5815561,139.5776577,
神奈川県,川崎市,168,宮前区小台1丁目13番地,小台西公園南側フェンス,35.5815561,139.5776577,
神奈川県,川崎市,169,宮前区小台1丁目14番地3,小台1丁目こども公園西側フェンス,35.5801861,139.576178,
神奈川県,川崎市,170,宮前区有馬1丁目12番,有馬1丁目こども公園南側フェンス,35.5791906,139.5806831,
神奈川県,川崎市,171,宮前区有馬1丁目8番6号,西有馬おひさま保育園東側フェンス,35.5792113,139.5786855,
神奈川県,川崎市,172,宮前区有馬1丁目13番1号,日商岩井鷲沼マンションフェンス,35.5794538,139.5812238,
神奈川県,川崎市,173,宮前区小台1丁目5番地7,小台北公園南東側フェンス,35.5818657,139.5783183,
神奈川県,川崎市,174,宮前区有馬1丁目21番3号,有馬北耕地公園南側フェンス,35.5765579,139.5769257,
神奈川県,川崎市,175,宮前区東有馬2丁目38番,有馬なかよし公園北側フェンス,35.5733639,139.5946976,
神奈川県,川崎市,176,宮前区東有馬3丁目13番32号,有馬東公園東側フェンス,35.5718242,139.5908751,
神奈川県,川崎市,177,宮前区東有馬2丁目35番30号,有馬白百合幼稚園南側フェンス,35.5737293,139.5923626,
神奈川県,川崎市,178,宮前区東有馬2丁目37番,有馬白百合幼稚園駐車場南側フェンス,35.573681,139.5940605,
神奈川県,川崎市,179,宮前区東有馬2丁目40番31号,水路西側フェンス,35.5738464,139.5958445,
神奈川県,川崎市,180,宮前区東有馬3丁目1番1号,有馬不動公園東側フェンス,35.5731899,139.5868705,
神奈川県,川崎市,181,宮前区東有馬3丁目5番,東有馬3丁目公園東側,35.57245080000001,139.5867344,
神奈川県,川崎市,182,宮前区神木本町5丁目11番1号,向丘中学校西側フェンス,35.5989379,139.5806184,
神奈川県,川崎市,183,宮前区神木本町5丁目11番1号,向丘中学校東側フェンス,35.5989379,139.5806184,
神奈川県,川崎市,184,宮前区神木本町4丁目15番1号,天満跨道橋上歩道フェンス,35.5994072,139.5841486,
神奈川県,川崎市,185,宮前区神木本町4丁目205番17号,神木本町つつじ公園南側,35.5982048,139.5833902,
神奈川県,川崎市,186,宮前区神木本町2丁目7番1号,長尾団地1号棟西側フェンス,35.6009847,139.5883566,
神奈川県,川崎市,187,宮前区神木本町2丁目3番5号,ファミリーマート横横断防止柵,35.6015689,139.5836888,
神奈川県,川崎市,188,宮前区神木本町2丁目16番1号,ガスト駐車場横柵,35.6017975,139.5821706,
神奈川県,川崎市,189,宮前区神木本町1丁目15番21号,長尾第3公園北側フェンス,35.60388270000001,139.5777373,
神奈川県,川崎市,1,川崎区砂子1丁目9番3号,市役所本庁舎広場市役所通り側フェンス,35.5307406,139.7021056,
神奈川県,川崎市,2,川崎区東田町8番地,ハローブリッジ下フェンス,35.5296785,139.7040441,
神奈川県,川崎市,3,川崎区宮本町3番地3,市役所北庁舎玄関右側植込み,35.5319696,139.7036623,
神奈川県,川崎市,4,川崎区本町2丁目2番地,グランイーグルウイング川崎前ガードレール,35.5346531,139.7034728,
神奈川県,川崎市,5,川崎区駅前本町8番地,川崎ダイス北側ガードレール,35.5311654,139.7001349,
神奈川県,川崎市,6,川崎区砂子2丁目11番地,川崎信用金庫本店西側歩道植込み右端,35.5298612,139.7015259,
神奈川県,川崎市,7,川崎区本町1丁目11番1,駅前駐輪場沿いガードレール（東町公園向かい）,35.5331586,139.7035825,
神奈川県,川崎市,8,川崎区駅前本町2番地14,新川通り連絡通路横ガードレール (位置情報が見つかりませんでした),35.5292858,139.6988953,
神奈川県,川崎市,9,川崎区宮前町8番13号,宮前小学校南側フェンス,35.5286109,139.7060833,
神奈川県,川崎市,10,川崎区新川通12番1号,市立川崎病院北側フェンス左端,35.5258989,139.7064922,
神奈川県,川崎市,11,川崎区境町9番12号,藤和ビル前ガードレール,35.5247181,139.708095,
神奈川県,川崎市,12,川崎区富士見2丁目5番11号,ヌーベルメゾン前歩道植込み (位置情報が見つかりませんでした),35.5291578,139.713767,
神奈川県,川崎市,13,川崎区宮前町8番13号,宮前小学校東側フェンス,35.5286109,139.7060833,
神奈川県,川崎市,14,川崎区富士見1丁目1番4号,カルッツかわさき南側ガードレール,35.5294148,139.7084416,
神奈川県,川崎市,15,川崎区新川通12番1号,市立川崎病院南側フェンス中央,35.5258989,139.7064922,
神奈川県,川崎市,16,川崎区富士見1丁目2番4,富士見1丁目公園西側歩道ガードレール,35.5302419,139.7080605,
神奈川県,川崎市,17,川崎区港町1番1号,港町駅南口前ガードレール,35.534819,139.712918,
神奈川県,川崎市,18,川崎区港町12番6号,港町公園東側植込み (位置情報が見つかりませんでした),35.534402,139.7171448,
神奈川県,川崎市,19,川崎区旭町2丁目4番,天台宗医王寺前歩道植込み,35.532639,139.715319,
神奈川県,川崎市,20,川崎区旭町2丁目2番1号,旭町小学校西側フェンス,35.5313617,139.714484,
神奈川県,川崎市,21,川崎区旭町2丁目14番8,旭町公園南側鉄柵,35.5313267,139.7167483,
神奈川県,川崎市,22,川崎区中島1丁目5番,エレンシア川崎前歩道植込み,35.5297694,139.7155513,
神奈川県,川崎市,23,川崎区中島2丁目15番2,中島公園西側石柵,35.528789,139.7172272,
神奈川県,川崎市,24,川崎区中島3丁目3番1号,市立川崎高等学校北側フェンス (位置情報が見つかりませんでした),35.5279347,139.7143344,
神奈川県,川崎市,25,川崎区小川町5番地13,まいばすけっと川崎チネチッタ通り店前歩道植込み,35.527932,139.6968727,
神奈川県,川崎市,26,川崎区南町6番地1,南町公園北側フェンス,35.5262329,139.6991657,
神奈川県,川崎市,27,川崎区日進町34番地4,八丁畷駅駅前駐輪場第1施設,35.5227066,139.6928684,
神奈川県,川崎市,28,川崎区元木2丁目6番18号,日輸工業(株)京浜支店ブロック塀,35.5223581,139.6971151,
神奈川県,川崎市,29,川崎区日進町20番地1,川崎小学校正門右側フェンス,35.5247152,139.6951426,
神奈川県,川崎市,30,川崎区日進町20番地1,川崎小学校西側フェンス,35.5247152,139.6951426,
神奈川県,川崎市,31,川崎区日進町8番地14,上並木公園南東側植込み,35.5258902,139.6938549,
神奈川県,川崎市,32,川崎区南町9番地13,ローソン川崎南町店前歩道植込み,35.5250937,139.6966726,
神奈川県,川崎市,33,川崎区日進町23番地,日進町中央公園北西側フェンス,35.5230514,139.6947535,
神奈川県,川崎市,34,川崎区下並木30番地2,川崎サイトシティ公開空地前ガードレール,35.5232414,139.6910286,
神奈川県,川崎市,35,川崎区池田1丁目13番,池田町公園西側フェンス,35.52231039999999,139.6919351,
神奈川県,川崎市,36,川崎区下並木50番地,川崎中学校正門右側フェンス,35.522689,139.6894728,
神奈川県,川崎市,37,川崎区下並木50番地,川崎中学校北側フェンス,35.522689,139.6894728,
神奈川県,川崎市,38,川崎区池田1丁目5番1,池田西公園東側フェンス,35.521018,139.6897347,
神奈川県,川崎市,39,川崎区池田1丁目9番12号,エース池田前ガードレール,35.52147679999999,139.6913485,
神奈川県,川崎市,40,川崎区堤根37番地,昭和薬品工業(株)入口左側コンクリート塀,35.5257859,139.6912671,
神奈川県,川崎市,41,川崎区池田2丁目6番18号,masked,35.5213121,139.6923866,
神奈川県,川崎市,42,川崎区京町1丁目1番4号,京町小学校北側フェンス,35.5190552,139.6923115,
神奈川県,川崎市,43,川崎区京町1丁目1番4号,京町小学校東側フェンス,35.5190552,139.6923115,
神奈川県,川崎市,44,川崎区京町1丁目12番,京町第3公園南側フェンス,35.5178104,139.6928923,
神奈川県,川崎市,45,川崎区渡田山王町22番6号,県立川崎高等学校南側左端植込み,35.5172795,139.6971203,
神奈川県,川崎市,46,川崎区渡田山王町22番6号,県立川崎高等学校正門左側フェンス,35.5172795,139.6971203,
神奈川県,川崎市,47,川崎区渡田山王町25番,渡田山王町第2公園西側フェンス,35.5176876,139.6983169,
神奈川県,川崎市,48,川崎区渡田山王町13番,渡田山王町公園北側植込み,35.5191869,139.6970405,
神奈川県,川崎市,49,川崎区渡田新町1丁目5番,渡田新町公園北側植込み左端,35.5225405,139.6989552,
神奈川県,川崎市,50,川崎区渡田新町1丁目5番,渡田新町公園西側植込み中央,35.5225405,139.6989552,
神奈川県,川崎市,51,川崎区渡田新町3丁目4番,新町児童公園北側鉄柵,35.5200707,139.6981474,
神奈川県,川崎市,52,川崎区渡田新町3丁目15番1号,新町小学校東側フェンス,35.5181802,139.700732,
神奈川県,川崎市,53,川崎区渡田新町3丁目15番1号,新町小学校北側フェンス,35.5181802,139.700732,
神奈川県,川崎市,54,川崎区渡田3丁目6番,向町公園南側植込み中央,35.52028680000001,139.7046197,
神奈川県,川崎市,55,川崎区渡田4丁目5番,新町小学校入口交差点付近緑地帯植込み,35.518202,139.7024655,
神奈川県,川崎市,56,川崎区渡田4丁目12番,天飛公園西側フェンス,35.5173423,139.7053377,
神奈川県,川崎市,57,川崎区渡田向町11番1号,渡田中学校正門右側フェンス,35.5206393,139.7018747,
神奈川県,川崎市,58,川崎区渡田向町11番1号,渡田中学校南門左側フェンス,35.5206393,139.7018747,
神奈川県,川崎市,59,川崎区渡田向町8番16号,㈱昭和電機製作所ブロック塀,35.5231213,139.7029076,
神奈川県,川崎市,60,川崎区貝塚1丁目8番,貝塚公園南側石柵 (位置情報が見つかりませんでした),35.5241389,139.7015081,
神奈川県,川崎市,61,川崎区貝塚2丁目17番,渡田第２公園北側鉄柵,35.5237914,139.7056569,
神奈川県,川崎市,62,川崎区渡田向町11番1号,渡田中学校北門右側フェンス,35.5206393,139.7018747,
神奈川県,川崎市,63,川崎区貝塚2丁目2番4号,晴レル家前歩道植込み,35.5250642,139.7057665,
神奈川県,川崎市,64,川崎区渡田向町24番6号,ファミールカテナ前ガードレール,35.5223131,139.7048749,
神奈川県,川崎市,65,川崎区渡田1丁目15番5号,渡田こども文化センター入口左側フェンス,35.522839,139.7086823,
神奈川県,川崎市,66,川崎区渡田東町3番10号,masked,35.51900699999999,139.7070009,
神奈川県,川崎市,67,川崎区渡田東町5番,渡田第１公園南側石柵,35.5178783,139.7068537,
神奈川県,川崎市,68,川崎区大島上町10番11号,masked,35.5198129,139.7084803,
神奈川県,川崎市,69,川崎区渡田1丁目20番1号,田島小学校西側フェンス,35.5220516,139.7083083,
神奈川県,川崎市,70,川崎区渡田1丁目20番1号,田島小学校東側フェンス,35.5220516,139.7083083,
神奈川県,川崎市,71,川崎区大島上町6番,田島公園南側石柵,35.521145,139.709806,
神奈川県,川崎市,72,川崎区大島上町22番12号,川崎ベアーズ前歩道植込み,35.5192463,139.7101736,
神奈川県,川崎市,73,川崎区大島2丁目9番,大島第４公園東側フェンス,35.5214681,139.7149129,
神奈川県,川崎市,74,川崎区大島2丁目1番,セレモニア川崎会堂立体駐車場前歩道植込み,35.5220334,139.712918,
神奈川県,川崎市,75,川崎区大島1丁目25番10号,道路公園センター入口左側フェンス (位置情報が見つかりませんでした),35.5261165,139.7131025,
神奈川県,川崎市,76,川崎区大島4丁目5番2号,リブレ川崎前歩道植込み,35.5256995,139.7137758,
神奈川県,川崎市,77,川崎区大島4丁目17番1号,向小学校南側右フェンス,35.5242732,139.7153651,
神奈川県,川崎市,78,川崎区大島4丁目17番1号,向小学校西側フェンス,35.5242732,139.7153651,
神奈川県,川崎市,79,川崎区大島1丁目28番15号,ガスト川崎大島店前歩道植込み,35.5237886,139.7128817,
神奈川県,川崎市,80,川崎区大島5丁目9番,大島第１公園東側植込み,35.5246939,139.7165089,
神奈川県,川崎市,81,川崎区大島5丁目25番1号,東大島小学校南側フェンス,35.5236597,139.7199106,
神奈川県,川崎市,82,川崎区大島5丁目25番1号,東大島小学校西側フェンス,35.5236597,139.7199106,
神奈川県,川崎市,83,川崎区大島3丁目33番3号,和泉荘前歩道植込み,35.5205356,139.7198008,
神奈川県,川崎市,84,川崎区大島3丁目31番,大島第３公園東側フェンス,35.5211597,139.7189828,
神奈川県,川崎市,85,川崎区大島3丁目16番13号,川崎信用金庫大島支店南側ガードレール (位置情報が見つかりませんでした),35.5192665,139.7171895,
神奈川県,川崎市,86,川崎区大島5丁目23番,大島第２公園南側石柵,35.5228041,139.7191424,
神奈川県,川崎市,87,川崎区京町2丁目9番2号,コスモ川崎京町前ガードレール,35.5158936,139.6957242,
神奈川県,川崎市,88,川崎区小田1丁目22番,小田一丁目中央公園北側フェンス,35.5159094,139.7001518,
神奈川県,川崎市,89,川崎区小田2丁目14番7号,日枝大神社北側石柵,35.5145943,139.7005534,
神奈川県,川崎市,90,川崎区小田2丁目8番9号,masked,35.5139492,139.6981855,
神奈川県,川崎市,91,川崎区小田2丁目4番19号,安楽亭前ガードレール,35.5138196,139.6970006,
神奈川県,川崎市,92,川崎区京町2丁目24番8号,京町雨水滞水池管理棟北側フェンス,35.5127968,139.6958378,
神奈川県,川崎市,93,川崎区小田2丁目21番7号,田島中学校東側フェンス,35.51268410000001,139.698248,
神奈川県,川崎市,94,川崎区小田2丁目21番7号,田島中学校北側フェンス,35.51268410000001,139.698248,
神奈川県,川崎市,95,川崎区小田5丁目11番20号,東小田小学校西側フェンス,35.513108,139.7066243,
神奈川県,川崎市,96,川崎区小田5丁目14番1号,東小田保育園北側フェンス,35.5115742,139.7069193,
神奈川県,川崎市,97,川崎区小田7丁目3番1号,川崎市南部防災センター西側植込み,35.509372,139.7103198,
神奈川県,川崎市,98,川崎区小田6丁目11番4号,masked,35.509877,139.7056131,
神奈川県,川崎市,99,川崎区小田5丁目25番8号,小田双葉幼稚園東側ブロック塀,35.5099717,139.7040169,
神奈川県,川崎市,100,川崎区小田5丁目13番,東小田公園東側石柵,35.5118125,139.707492,
神奈川県,川崎市,101,川崎区小田7丁目2番,小田7丁目公園西側フェンス,35.5085162,139.7080506,
神奈川県,川崎市,102,川崎区京町3丁目10番1号,京町ももたろう公園南側フェンス,35.5098798,139.6968539,
神奈川県,川崎市,103,川崎区小田4丁目20番,小田公園北側フェンス,35.5104248,139.6984765,
神奈川県,川崎市,104,川崎区小田3丁目17番15号,又村商店（燃料）ブロック塀,35.5123521,139.7027021,
神奈川県,川崎市,105,川崎区小田4丁目12番24号,小田小学校東側植込み (位置情報が見つかりませんでした),35.5113768,139.7022919,
神奈川県,川崎市,106,川崎区小田4丁目12番24号,小田小学校西側植込み (位置情報が見つかりませんでした),35.5113768,139.7022919,
神奈川県,川崎市,107,川崎区小田4丁目20番,小田公園南側フェンス,35.5104248,139.6984765,
神奈川県,川崎市,108,川崎区小田4丁目20番,小田公園西側入口右側植込み,35.5104248,139.6984765,
神奈川県,川崎市,109,川崎区京町3丁目12番1号,京町耐火B市営住宅東側フェンス,35.5102189,139.6976012,
神奈川県,川崎市,110,川崎区浅田4丁目13番,浅田町公園西側植込み,35.5040958,139.6993541,
神奈川県,川崎市,111,川崎区浅田3丁目1番,ライフ京町店前交差点ガードレール,35.5088358,139.6989252,
神奈川県,川崎市,112,川崎区浅田3丁目15番17号,浅田市営住宅東側フェンス左端,35.5061771,139.6986098,
神奈川県,川崎市,113,川崎区浅田4丁目6番,浅田なかよし公園南側フェンス,35.5051036,139.7022262,
神奈川県,川崎市,114,川崎区浅田3丁目19番1号,ローソン川崎浅田三丁目店裏側フェンス,35.5061104,139.7010131,
神奈川県,川崎市,115,川崎区浅田2丁目11番21号,浅田小学校南側フェンス,35.5070958,139.7029841,
神奈川県,川崎市,116,川崎区浅田3丁目10番11号,アンシャンテ西側ガードレール,35.5074148,139.7002047,
神奈川県,川崎市,117,川崎区浅田3丁目7番10号,浅田こども文化センター正面フェンス,35.5085231,139.7009895,
神奈川県,川崎市,118,川崎区浅田1丁目8番11号,エンゼルハイム川崎第3前植込み,35.5064354,139.7054554,
神奈川県,川崎市,119,川崎区小田栄1丁目1番,masked,35.5169247,139.7021464,
神奈川県,川崎市,120,川崎区田島町20番23号,田島こども文化センター正面フェンス,35.5156808,139.7115415,
神奈川県,川崎市,121,川崎区小田栄1丁目14番10号,masked,35.5164015,139.7066998,
神奈川県,川崎市,122,川崎区小田栄2丁目2番,田島町歩道橋下ガードレール,35.51479339999999,139.7096374,
神奈川県,川崎市,123,川崎区田島町14番1号,渡田小学校西側フェンス,35.51576110000001,139.709589,
神奈川県,川崎市,124,川崎区田島町3番3号,田島市営住宅北側フェンス,35.5177392,139.7115914,
神奈川県,川崎市,125,川崎区田島町15番,田島ふれあい公園西側植込み,35.5165161,139.7104443,
神奈川県,川崎市,126,川崎区小田栄2丁目1番,小田栄２丁目公園入口右側植込み,35.514419,139.710644,
神奈川県,川崎市,127,川崎区鋼管通2丁目17番1号,鋼管通第１公園北側植込み,35.5152826,139.7157907,
神奈川県,川崎市,128,川崎区浜町2丁目19番18号,masked,35.51385,139.7185886,
神奈川県,川崎市,129,川崎区浜町2丁目16番1号,浜町第３公園東側植込み,35.5138707,139.7174666,
神奈川県,川崎市,130,川崎区鋼管通1丁目8番,東渡田第二公園北側植込み,35.5186167,139.7122796,
神奈川県,川崎市,131,川崎区鋼管通4丁目5番1号,鋼管通三丁目バス停脇ガードレール,35.5135693,139.7127484,
神奈川県,川崎市,132,川崎区鋼管通3丁目12番,姥ヶ森公園西側植込み (位置情報が見つかりませんでした),35.5142192,139.713317,
神奈川県,川崎市,133,川崎区浜町2丁目11番22号,臨港中学校西側バス停前フェンス,35.5144021,139.7158682,
神奈川県,川崎市,134,川崎区浜町2丁目11番22号,臨港中学校北側フェンス,35.5144021,139.7158682,
神奈川県,川崎市,135,川崎区浜町1丁目5番1号,大島小学校西側フェンス,35.5172595,139.7168483,
神奈川県,川崎市,136,川崎区浜町1丁目5番1号,大島小学校北側ブロック塀,35.5172595,139.7168483,
神奈川県,川崎市,137,川崎区浜町1丁目18番3号,曹洞宗観音寺東側フェンス,35.5153275,139.7179315,
神奈川県,川崎市,138,川崎区浜町4丁目13番,東天閣駐車場入口右側ブロック塀,35.5166276,139.7220155,
神奈川県,川崎市,139,川崎区追分町7番,大島第５公園東側鉄柵,35.5192973,139.7152321,
神奈川県,川崎市,140,川崎区扇町10番5号,川崎荷役Ｎ－１倉庫前歩道ガードレール,35.4999566,139.7218464,
神奈川県,川崎市,141,川崎区浜町4丁目3番,浜川崎公園南側鉄柵,35.5151184,139.7212972,
神奈川県,川崎市,142,川崎区浜町4丁目17番11号,大島ポンプ場北側万年塀,35.5167948,139.723098,
神奈川県,川崎市,143,川崎区桜本1丁目2番,桜川緑地前歩道ガードレール,35.5187579,139.7203395,
神奈川県,川崎市,144,川崎区桜本1丁目16番,桜川公園北側フェンス,35.5192473,139.7242502,
神奈川県,川崎市,145,川崎区桜本1丁目14番,桜川公園南側入口左側鉄柵,35.5181052,139.7233723,
神奈川県,川崎市,146,川崎区池上町9番,産業道路桜橋架道橋植込み,35.5178029,139.7251281,
神奈川県,川崎市,147,川崎区桜本2丁目39番1号,桜本市営住宅北側フェンス,35.5219368,139.7265579,
神奈川県,川崎市,148,川崎区桜本1丁目9番15号,さくら小学校北門植込み,35.520454,139.7232725,
神奈川県,川崎市,149,川崎区桜本1丁目9番15号,さくら小学校西側フェンス,35.520454,139.7232725,
神奈川県,川崎市,150,川崎区桜本1丁目9番15号,さくら小学校東側フェンス,35.520454,139.7232725,
神奈川県,川崎市,151,川崎区藤崎3丁目2番1号,藤崎小学校正門左側フェンス,35.5255273,139.7255571,
神奈川県,川崎市,152,川崎区観音1丁目10番,観音町第2公園北側フェンス,35.5259457,139.7260859,
神奈川県,川崎市,153,川崎区観音1丁目2番7号,masked,35.5288622,139.7248695,
神奈川県,川崎市,154,川崎区観音1丁目16番15号,masked,35.5283674,139.727782,
神奈川県,川崎市,155,川崎区観音2丁目22番10号,masked,35.5291534,139.7307962,
神奈川県,川崎市,156,川崎区観音2丁目5番22号,masked,35.5276983,139.7283432,
神奈川県,川崎市,157,川崎区観音2丁目16番,観音町公園南側石柵,35.5260458,139.7293694,
神奈川県,川崎市,158,川崎区池上新町1丁目2番11-1号,masked,35.5241715,139.7273729,
神奈川県,川崎市,159,川崎区池上新町2丁目23番,冥加公園東側フェンス,35.5252864,139.7314337,
神奈川県,川崎市,160,川崎区池上新町2丁目17番21号,masked,35.5227325,139.7306854,
神奈川県,川崎市,161,川崎区池上新町2丁目13番5号,masked,35.5245379,139.7294083,
神奈川県,川崎市,162,川崎区池上新町2丁目23番,冥加公園北側ガードレール,35.5252864,139.7314337,
神奈川県,川崎市,163,川崎区池上新町1丁目4番,中留公園西側植込み,35.5229774,139.7280015,
神奈川県,川崎市,164,川崎区池上新町1丁目2番4号,桜本中学校西門コンクリート塀右端,35.5231958,139.7276723,
神奈川県,川崎市,165,川崎区藤崎2丁目11番,藤崎けやき公園南側フェンス,35.5261013,139.7200203,
神奈川県,川崎市,166,川崎区藤崎3丁目2番1号,藤崎小学校西側フェンス,35.5255273,139.7255571,
神奈川県,川崎市,167,川崎区藤崎2丁目19番1号,川中島中学校東側フェンス,35.5269968,139.7222549,
神奈川県,川崎市,168,川崎区藤崎2丁目6番,藤崎第三公園北側植込み,35.5277288,139.7190626,
神奈川県,川崎市,169,川崎区藤崎4丁目2番,藤崎第４公園南側植込み,35.5243772,139.7200203,
神奈川県,川崎市,170,川崎区藤崎2丁目19番1号,川中島中学校西側フェンス,35.5269968,139.7222549,
神奈川県,川崎市,171,川崎区藤崎3丁目7番1号,臨港消防署藤崎出張所西側フェンス,35.5292284,139.7232526,
神奈川県,川崎市,172,川崎区藤崎1丁目7番1号,藤崎保育園南側フェンス,35.5306601,139.7191624,
神奈川県,川崎市,173,川崎区伊勢町12番,伊勢町第一公園西側植込み,35.5313698,139.720978,
神奈川県,川崎市,174,川崎区伊勢町21番,伊勢町第二公園西側植込み (位置情報が見つかりませんでした),35.5323053,139.7231328,
神奈川県,川崎市,175,川崎区川中島1丁目9番9号,masked,35.5322609,139.7253077,
神奈川県,川崎市,176,川崎区川中島2丁目4番19号,川中島小学校東側フェンス,35.5310968,139.7258333,
神奈川県,川崎市,177,川崎区川中島1丁目27番13号,masked,35.5313418,139.7292514,
神奈川県,川崎市,178,川崎区川中島2丁目4番19号,川中島小学校北側フェンス,35.5310968,139.7258333,
神奈川県,川崎市,179,川崎区大師駅前2丁目13番16号,若宮八幡宮東側石塀,35.5349544,139.7249486,
神奈川県,川崎市,180,川崎区大師駅前2丁目6番1,大師西町公園北側鉄柵,35.5346207,139.7242502,
神奈川県,川崎市,181,川崎区台町26番7号,大師支所仮庁舎正面右側フェンス,35.5319622,139.7339802,
神奈川県,川崎市,182,川崎区昭和2丁目15番11号,グランネクスト川崎前歩道植込み,35.5296274,139.7382904,
神奈川県,川崎市,183,川崎区大師公園1番,大師公園南側倉庫脇植込み,35.532883,139.732439,
神奈川県,川崎市,184,川崎区東門前2丁目6番1号,大師小学校西側フェンス,35.5333532,139.7355203,
神奈川県,川崎市,185,川崎区東門前2丁目6番1号,大師小学校北側フェンス,35.5333532,139.7355203,
神奈川県,川崎市,186,川崎区東門前1丁目7番,東門前公園南側鉄柵,35.5363665,139.7325513,
神奈川県,川崎市,187,川崎区大師本町12番12号,masked,35.5360839,139.7307886,
神奈川県,川崎市,188,川崎区大師公園1番,大師公園くじら広場（砂場）前植込み,35.532883,139.732439,
神奈川県,川崎市,189,川崎区中瀬2丁目14番14,中瀬2丁目公園南側フェンス,35.5377289,139.7289593,
神奈川県,川崎市,190,川崎区中瀬3丁目5番,中瀬公園南側植込み,35.5382721,139.7295979,
神奈川県,川崎市,191,川崎区中瀬2丁目9番先,中瀬緑地西側鉄柵,35.5372172,139.7276822,
神奈川県,川崎市,192,川崎区東門前3丁目4番6号,東門前小学校正門右側植込み (位置情報が見つかりませんでした),35.5358279,139.7350508,
神奈川県,川崎市,193,川崎区東門前3丁目4番6号,東門前小学校東側フェンス (位置情報が見つかりませんでした),35.5358279,139.7350508,
神奈川県,川崎市,194,川崎区中瀬3丁目20番20号,ホームズ川崎大師店西側フェンス,35.5377426,139.7331487,
神奈川県,川崎市,195,川崎区東門前3丁目5番1号,masked,35.5366992,139.7350486,
神奈川県,川崎市,196,川崎区中瀬3丁目20番20号,ホームズ川崎大師店東側フェンス,35.5377426,139.7331487,
神奈川県,川崎市,197,川崎区大師河原2丁目1番7号,大師中学校西側フェンス,35.5350312,139.7383188,
神奈川県,川崎市,198,川崎区日ノ出2丁目17番3号,出来野公園北側フェンス,35.5328301,139.7459631,
神奈川県,川崎市,199,川崎区田町2丁目4番14号,田町ふれあい公園南側ガードレール,35.5339669,139.7436989,
神奈川県,川崎市,200,川崎区日ノ出2丁目11番,日ノ出公園北側フェンス,35.5308492,139.7438872,
神奈川県,川崎市,201,川崎区日ノ出1丁目10番1号,三進工業㈱北側ブロック塀,35.5319586,139.7415142,
神奈川県,川崎市,202,川崎区出来野8番,出来野第一公園北側植込み,35.5345513,139.7402148,
神奈川県,川崎市,203,川崎区大師河原2丁目1番7号,大師中学校南側フェンス,35.5350312,139.7383188,
神奈川県,川崎市,204,川崎区出来野1番15号,（有）たいき所有駐車場東側フェンス,35.5328996,139.7396647,
神奈川県,川崎市,205,川崎区四谷上町24番1号,南大師中学校正門右側フェンス,35.5286295,139.737291,
神奈川県,川崎市,206,川崎区四谷上町7番11号,セブンイレブン前歩道植込み,35.5295881,139.7352866,
神奈川県,川崎市,207,川崎区四谷上町29番9,駐車場前歩道植込み,35.5251182,139.7344242,
神奈川県,川崎市,208,川崎区四谷上町22番,四谷上町けやき公園北側フェンス,35.5267814,139.7353451,
神奈川県,川崎市,209,川崎区四谷上町24番1号,南大師中学校南門左側フェンス,35.5286295,139.737291,
神奈川県,川崎市,210,川崎区四谷上町20番8号,masked,35.5260712,139.7336489,
神奈川県,川崎市,211,川崎区四谷上町23番8,四谷上町公園北西側鉄柵,35.5278355,139.7359879,
神奈川県,川崎市,212,川崎区塩浜2丁目15番,北ノ崎公園東側入口鉄柵,35.522791,139.7375803,
神奈川県,川崎市,213,川崎区塩浜2丁目7番10号,塩浜町内会事務所前ブロック塀,35.5235087,139.7399553,
神奈川県,川崎市,214,川崎区四谷下町15番,四谷ゆめ公園東側植込み,35.5253119,139.7383121,
神奈川県,川崎市,215,川崎区四谷下町15番,四谷ゆめ公園北側植込み,35.5253119,139.7383121,
神奈川県,川崎市,216,川崎区四谷下町4番1号,四谷小学校南側フェンス,35.526849,139.7373336,
神奈川県,川崎市,217,川崎区四谷下町4番1号,四谷小学校北側フェンス,35.526849,139.7373336,
神奈川県,川崎市,218,川崎区塩浜1丁目4番,塩浜町公園西側植込み,35.5280288,139.739177,
神奈川県,川崎市,219,川崎区塩浜1丁目11番16号,masked,35.5276223,139.7412134,
神奈川県,川崎市,220,川崎区塩浜1丁目14番14号,Ｋブランシェ塩浜前歩道ガードレール (位置情報が見つかりませんでした),35.5293455,139.7421508,
神奈川県,川崎市,221,川崎区江川1丁目7番,江川ふれあい公園北側石柵,35.5361102,139.7442864,
神奈川県,川崎市,222,川崎区殿町1丁目12番11号,masked,35.5395909,139.7434282,
神奈川県,川崎市,223,川崎区殿町1丁目7番9号,masked,35.5384472,139.7430263,
神奈川県,川崎市,224,川崎区殿町1丁目17番19号,殿町小学校南側フェンス,35.5380142,139.7463723,
神奈川県,川崎市,225,川崎区殿町1丁目18番12号,殿町小学校プール南側フェンス,35.5382054,139.7453943,
神奈川県,川崎市,226,川崎区江川2丁目8番14号,かわさき双輪荘南側フェンス,35.5363509,139.7466817,
神奈川県,川崎市,227,川崎区殿町1丁目20番,殿町１丁目公園西側鉄柵,35.5390487,139.7458832,
神奈川県,川崎市,228,川崎区殿町3丁目2番,殿町第３公園西側フェンス,35.5392661,139.7494762,
神奈川県,川崎市,229,川崎区江川2丁目10番,江川はなみずき公園西側フェンス,35.53599210000001,139.7474002,
神奈川県,川崎市,1,幸区中幸町2丁目17番地,幸町小学校北側 フェンス,35.538322,139.6940026,
神奈川県,川崎市,2,幸区中幸町2丁目17番地,幸町小学校表西門東側 フェンス,35.538322,139.6940026,
神奈川県,川崎市,3,幸区中幸町2丁目17番地,幸町小学校表東門西側 フェンス,35.538322,139.6940026,
神奈川県,川崎市,4,幸区幸町2丁目567番地,多摩川見晴らし公園 植込み,35.537991,139.6992652,
神奈川県,川崎市,5,幸区幸町3丁目9番地,幸町公園東側 フェンス,35.5366122,139.6971303,
神奈川県,川崎市,6,幸区幸町4丁目6番地,masked,35.5357243,139.6969308,
神奈川県,川崎市,7,幸区幸町1丁目773番地,ディアフォルム幸町 フェンス,35.5355695,139.6895421,緯度経度は怪しい
神奈川県,川崎市,8,幸区幸町1丁目750番地1,ソリッドスクエア 植込み,35.5355695,139.6895421,緯度経度は怪しい
神奈川県,川崎市,9,幸区幸町1丁目776,堀川町公園 植込み (位置情報が見つかりませんでした),35.5344579,139.698344,
神奈川県,川崎市,10,幸区中幸町3丁目26番地1,フロール川崎中幸町 フェンス,35.532922,139.6937056,
神奈川県,川崎市,11,幸区中幸町4丁目31番地,南河原中学校東側 フェンス,35.5333046,139.6929875,
神奈川県,川崎市,12,幸区中幸町4丁目31番地,南河原中学校南側 フェンス,35.5333046,139.6929875,
神奈川県,川崎市,13,幸区柳町42番地,柳町公園西側,35.5294094,139.689223,緯度経度は怪しい
神奈川県,川崎市,14,幸区柳町10番地,南幸町歩道橋脇駐車場 フェンス,35.531376,139.6878743,
神奈川県,川崎市,15,幸区南幸町2丁目38番地1,諏訪公園東側,35.5346757,139.6911175,
神奈川県,川崎市,16,幸区堀川町72番地1,ラゾーナ川崎プラザ 平面駐車場 西の入口脇 植込み,35.5329594,139.6959237,
神奈川県,川崎市,17,幸区堀川町72番地1,川崎駅西口郵便局前 植え込み,35.5329594,139.6959237,
神奈川県,川崎市,18,幸区南幸町1丁目11番地,南河原老人いこいの家 フェンス,35.5351953,139.6906946,
神奈川県,川崎市,19,幸区南幸町3丁目149番地2,南部学校給食センター 植込み,35.5355231,139.6861778,
神奈川県,川崎市,20,幸区南幸町3丁目62番地,masked,35.5328183,139.6871247,
神奈川県,川崎市,21,幸区南幸町3丁目126番地1,地方卸売市場南部市場　西門ブロック堀,35.5341376,139.6851555,
神奈川県,川崎市,22,幸区都町74番地2,南河原公園南側,35.5375512,139.6892929,
神奈川県,川崎市,23,幸区都町74番地2,南河原公園北側　植込み,35.5375512,139.6892929,
神奈川県,川崎市,24,幸区都町18番地,南河原小学校正門東側　フェンス,35.5367185,139.6895421,
神奈川県,川崎市,25,幸区都町74番地2,南河原公園西側　フェンス,35.5375512,139.6892929,
神奈川県,川崎市,26,幸区河原町1番地,河原町団地１２号棟北側　フェンス,35.5402347,139.6943247,
神奈川県,川崎市,27,幸区河原町1番地,河原町体育館東側　フェンス,35.5402347,139.6943247,
神奈川県,川崎市,28,幸区河原町1番地,河原町体育館北側　フェンス,35.5402347,139.6943247,
神奈川県,川崎市,29,幸区河原町1番地,河原町団地１３号棟東側　フェンス,35.5402347,139.6943247,
神奈川県,川崎市,30,幸区河原町1番地,河原町保育園　正門フェンス,35.5402347,139.6943247,
神奈川県,川崎市,31,幸区河原町1番地,河原町団地３号棟東側　フェンス,35.5402347,139.6943247,
神奈川県,川崎市,32,幸区河原町1番地,河原町団地１号棟西側　植込み,35.5402347,139.6943247,
神奈川県,川崎市,33,幸区戸手4丁目9番3号,川崎戸手４丁目駐車場　フェンス,35.5403403,139.6974493,
神奈川県,川崎市,34,幸区戸手4丁目4番2号,戸手ポンプ場　フェンス,35.5433255,139.6956848,
神奈川県,川崎市,35,幸区戸手4丁目7番,戸手多摩川公園南側　フェンス,35.5414971,139.6960832,
神奈川県,川崎市,36,幸区戸手3丁目2番1号,戸手町公園　西側フェンス (位置情報が見つかりませんでした),35.54561169999999,139.6941687,
神奈川県,川崎市,37,幸区戸手4丁目2番1号,御幸中学校　西側フェンス,35.5440372,139.6932815,
神奈川県,川崎市,38,幸区戸手4丁目2番1号,御幸中学校　北側正門　フェンス,35.5440372,139.6932815,
神奈川県,川崎市,39,幸区戸手4丁目4番3号,戸手東公園　フェンス,35.5428292,139.6954803,
神奈川県,川崎市,40,幸区遠藤町1番地,御幸小学校　東側フェンス,35.5433612,139.6919585,
神奈川県,川崎市,41,幸区小向町21番20号,masked,35.5462841,139.6964469,
神奈川県,川崎市,42,幸区小向町17番1号,小向第6公園南側,35.5470737,139.6958439,
神奈川県,川崎市,43,幸区小向仲野町15番2号先,小向仲野町緑道,35.5491299,139.6968153,
神奈川県,川崎市,44,幸区小向仲野町14番19号先,小向仲野町緑道,35.5498576,139.695445,
神奈川県,川崎市,45,幸区小向仲野町13番7号,小向第1公園東側,35.5506638,139.6958439,
神奈川県,川崎市,46,幸区小向仲野町5番2号,小向第2公園　東側フェンス (位置情報が見つかりませんでした),35.5525392,139.6964023,
神奈川県,川崎市,47,幸区小向仲野町5番1号,川崎総合科学高等学校南門東側フェンス,35.5523241,139.6958291,
神奈川県,川崎市,48,幸区神明町2丁目56番地2先,さいわい緑道,35.5367765,139.6864017,
神奈川県,川崎市,49,幸区戸手本町2丁目395番地,神明神社　ブロック塀,35.5391031,139.6875991,
神奈川県,川崎市,50,幸区戸手本町2丁目420番地,つくし保育園　西側フェンス,35.5413514,139.6864133,
神奈川県,川崎市,51,幸区戸手本町1丁目165番地,戸手小学校南側植込み,35.5423642,139.6853626,
神奈川県,川崎市,52,幸区戸手本町1丁目165番地,戸手小学校北側フェンス,35.5423642,139.6853626,
神奈川県,川崎市,53,幸区戸手本町1丁目150番地,市立幸高校　東側グランド門フェンス,35.54210370000001,139.6865469,
神奈川県,川崎市,54,幸区戸手本町2丁目434番地,市立幸高校テニスコート　南側フェンス,35.5408025,139.687873,
神奈川県,川崎市,55,幸区戸手本町1丁目11番地1,幸区役所ゆめ広場南側　植込み,35.5443698,139.6869122,
神奈川県,川崎市,56,幸区小向西町4丁目15番地,小向第3公園　南側,35.5463933,139.6898313,
神奈川県,川崎市,57,幸区小向西町4丁目30番地,西御幸小学校　北側フェンス,35.5462026,139.6886579,
神奈川県,川崎市,58,幸区小向西町4丁目81番地,小向第5公園　南側,35.5464274,139.6872798,
神奈川県,川崎市,59,幸区小向西町3丁目50番地1,小向第4公園　北側,35.5479194,139.6874279,
神奈川県,川崎市,60,幸区小向東芝町1番地,株式会社東芝　小向事業所　南側フェンス,35.5510439,139.6884031,緯度経度は怪しい
神奈川県,川崎市,61,幸区小向西町3丁目28番地,八幡神社　北側石棚,35.5475303,139.6895241,
神奈川県,川崎市,62,幸区小向西町1丁目65番地,小向第7公園　東側,35.5478263,139.6914565,
神奈川県,川崎市,63,幸区東古市場1番地,御幸公園　南東側入口フェンス,35.552601,139.6931117,
神奈川県,川崎市,64,幸区東古市場71番地,古市場ポンプ場　フェンス,35.553641,139.6901399,
神奈川県,川崎市,65,幸区東古市場83番地,東古市場第1公園　南側,35.5527844,139.6889721,
神奈川県,川崎市,66,幸区東古市場116番地,市営古市場住宅北側　植込み,35.5511842,139.6877564,
神奈川県,川崎市,67,幸区古市場1丁目45番地,古市場第2公園　南側植込み,35.5534655,139.6847564,
神奈川県,川崎市,68,幸区古市場1丁目1番地,古市場小学校正門植込み,35.5554074,139.686037,
神奈川県,川崎市,69,幸区古市場2丁目116番地,古市場第3公園　北側植込み,35.5550564,139.6815661,
神奈川県,川崎市,70,幸区古市場2丁目84番地,古市場第5公園　南側,35.5550564,139.6815661,
神奈川県,川崎市,71,幸区古市場1丁目64番地,古市場第6公園　西側植込み,35.5534655,139.6847564,緯度経度は怪しい
神奈川県,川崎市,72,幸区下平間50番地,下平間公園　北側,35.5522211,139.6788126,
神奈川県,川崎市,73,幸区下平間1番地2,鹿島田グリーンハイツ　フェンス,35.5540811,139.6754625,
神奈川県,川崎市,74,幸区下平間68番地1,下平間稲荷公園　西側フェンス,35.5528926,139.6760952,
神奈川県,川崎市,75,幸区下平間68番地1,市営下平間耐火住宅1号棟,35.5528926,139.6760952,
神奈川県,川崎市,76,幸区下平間175番地,下平間小学校　正門フェンス (位置情報が見つかりませんでした),35.5510983,139.68029,
神奈川県,川崎市,77,幸区下平間214番地1,フロール川崎下平間3番館前植込み,35.5503139,139.681287,
神奈川県,川崎市,78,幸区下平間347番地,ＮＴＴ東日本　神奈川支店横駐車場フェンス,35.5493426,139.6851614,
神奈川県,川崎市,79,幸区下平間175番地,下平間小学校校庭側フェンス (位置情報が見つかりませんでした),35.5510983,139.68029,
神奈川県,川崎市,80,幸区古川町83番地,川崎市消防局幸公会　フェンス,35.5450983,139.6828031,
神奈川県,川崎市,81,幸区塚越4丁目314番地3,塚越４丁目公園　西側フェンス,35.54065569999999,139.6829287,
神奈川県,川崎市,82,幸区塚越4丁目363番地20,塚越第３公園　北側,35.5414007,139.6799411,
神奈川県,川崎市,83,幸区塚越4丁目345番地15,塚越こかげ公園北側　フェンス,35.5420311,139.6815561,
神奈川県,川崎市,84,幸区古川町159番地4,古川町さくら公園西側　フェンス,35.5470159,139.6815661,緯度経度は怪しい
神奈川県,川崎市,85,幸区塚越2丁目207番地,塚越沼ノ上公園南側　フェンス,35.5450762,139.680523,
神奈川県,川崎市,86,幸区古川町70番地,古川小学校　グラウンド東側フェンス,35.5470159,139.6815661,
神奈川県,川崎市,87,幸区古川町70番地,古川小学校　校舎東側フェンス,35.5470159,139.6815661,
神奈川県,川崎市,88,幸区塚越1丁目60番地,塚越中学校　正門フェンス,35.5482339,139.6779723,
神奈川県,川崎市,89,幸区新塚越201,鹿島田駅周辺自転車等駐車場第２施設前　植樹帯,35.5506084,139.6764658,
神奈川県,川崎市,90,幸区塚越1丁目60番地,塚越中学校　西門体育館側フェンス,35.5482339,139.6779723,
神奈川県,川崎市,91,幸区新塚越1番地7,町田堀ふれあい公園　植込み,35.5491965,139.6769605,
神奈川県,川崎市,92,幸区塚越1丁目64番地,御嶽神社　石棚,35.54608959999999,139.6793928,
神奈川県,川崎市,93,幸区塚越3丁目406番地1,塚越３丁目さくらの公園植込み,35.5423017,139.6783572,
神奈川県,川崎市,94,幸区塚越3丁目406番地1,塚越３丁目さくらの公園フェンス,35.5423017,139.6783572,
神奈川県,川崎市,95,幸区塚越1丁目60番地,塚越第２公園　東側,35.5482339,139.6779723,
神奈川県,川崎市,96,幸区東小倉21番,（株）石橋不動産管理駐車場　フェンス,35.5436106,139.6763025,
神奈川県,川崎市,97,幸区東小倉6番30号,東小倉こども公園　フェンス,35.5452348,139.6760232,
神奈川県,川崎市,98,幸区東小倉1番1号,東小倉小学校　西側グランド入口フェンス,35.5465713,139.6751163,
神奈川県,川崎市,99,幸区小倉1番地1,パークシティサウスパーク出口　植込み,35.546896,139.6700028,緯度経度は怪しい
神奈川県,川崎市,100,幸区小倉1番地1,パークシティ東小倉小学校裏門外　植込み,35.546896,139.6700028,緯度経度は怪しい
神奈川県,川崎市,101,幸区鹿島田1丁目1-1,鹿島田駅周辺自転車等駐車場第1施設前　植樹帯,35.5504346,139.6754694,
神奈川県,川崎市,102,幸区小倉1番地1,パークシティ東三番街　北道路側植込み,35.546896,139.6700028,緯度経度は怪しい
神奈川県,川崎市,103,幸区小倉1番地1,パークシティ西三番街C棟西側ごみ置場脇　植込み,35.546896,139.6700028,緯度経度は怪しい
神奈川県,川崎市,104,幸区鹿島田3丁目20番2号,梶アパート　ブロック塀,35.557608,139.6697536,
神奈川県,川崎市,105,幸区鹿島田1丁目11番8号先,福禄不動産（有）駐車場　フェンス,35.5518113,139.6741276,
神奈川県,川崎市,106,幸区鹿島田3丁目19番51号,masked,35.557372,139.6703567,
神奈川県,川崎市,107,幸区鹿島田1丁目10番37号,鹿島田駅周辺自転車等駐車場第3施設　フェンス,35.5512977,139.6747076,
神奈川県,川崎市,108,幸区鹿島田2丁目22番44号,鹿島田幼稚園　フェンス,35.5529519,139.6718798,
神奈川県,川崎市,109,幸区鹿島田2丁目12番,二ケ領用水東側フェンス,35.556877,139.6721558,
神奈川県,川崎市,110,幸区鹿島田3丁目10番,二ケ領用水東側フェンス,35.5600704,139.6692054,
神奈川県,川崎市,111,幸区鹿島田2丁目21番,鹿島田２丁目公園　東側入口フェンス,35.5536944,139.6719166,
神奈川県,川崎市,112,幸区北加瀬3丁目1番,三菱ふそうトラック・バス（株）　駐車場フェンス,35.5568634,139.6635443,
神奈川県,川崎市,113,幸区矢上4番1号,渋川ポンプ場　フェンス,35.5553843,139.6586941,
神奈川県,川崎市,114,幸区北加瀬2丁目3番1号,日吉中学校北側　フェンス,35.5535424,139.6620719,
神奈川県,川崎市,115,幸区北加瀬2丁目3番1号,日吉中学校　グラウンド東側　フェンス,35.5535424,139.6620719,
神奈川県,川崎市,116,幸区北加瀬3丁目3番,北加瀬原町公園　西側フェンス,35.5559446,139.6625078,
神奈川県,川崎市,117,幸区北加瀬1丁目11番5号,北加瀬つつじ公園　フェンス,35.5517369,139.6654056,
神奈川県,川崎市,118,幸区新川崎4,新川崎駅周辺自転車等駐車場第5施設　フェンス,35.5442288,139.6706009,緯度経度は怪しい
神奈川県,川崎市,119,幸区北加瀬1丁目37番1号,日吉小学校　東側フェンス (位置情報が見つかりませんでした),35.54827909999999,139.668836,
神奈川県,川崎市,120,幸区北加瀬2丁目3番1号,日吉中学校　校舎東側　フェンス,35.5535424,139.6620719,
神奈川県,川崎市,121,幸区小倉1丁目4番,三井のリパーク川崎小倉1丁目第3駐車場,35.5453874,139.6692852,
神奈川県,川崎市,122,幸区小倉2丁目6番4号,小倉北住宅4号棟入口脇フェンス,35.5439531,139.667738,
神奈川県,川崎市,123,幸区小倉2丁目21番33号,masked,35.541583,139.6666513,
神奈川県,川崎市,124,幸区小倉2丁目24番2号,正蔵寺駐車場横ブロック塀,35.5409943,139.6681727,
神奈川県,川崎市,125,幸区小倉2丁目11番21号,小倉北公園　南側フェンス,35.5422347,139.668434,
神奈川県,川崎市,126,幸区小倉5丁目32番6号,小倉八雲公園北側フェンス,35.5379802,139.6640077,
神奈川県,川崎市,127,幸区小倉5丁目17番9号,小倉西公園　西側植え込み,35.5378188,139.6652087,
神奈川県,川崎市,128,幸区小倉2丁目20番1号,小倉小学校正門フェンス (位置情報が見つかりませんでした),35.5413897,139.6654977,
神奈川県,川崎市,129,幸区南加瀬3丁目12番8号,みなみかせ保育園　フェンス,35.5441153,139.664687,
神奈川県,川崎市,130,幸区南加瀬1丁目7番17号,日吉出張所正面入口植込み,35.54670249999999,139.6683323,
神奈川県,川崎市,131,幸区南加瀬3丁目4番8号,夢見ヶ崎保育園　フェンス,35.5451389,139.6648882,
神奈川県,川崎市,132,幸区南加瀬2丁目19番4号,南加瀬五反公園北側フェンス,35.5460702,139.6637013,
神奈川県,川崎市,133,幸区南加瀬2丁目13番1号,夢見ヶ崎小学校　北側フェンス,35.5475124,139.6629364,
神奈川県,川崎市,134,幸区南加瀬2丁目13番1号,夢見ヶ崎小学校　正門フェンス,35.5475124,139.6629364,
神奈川県,川崎市,135,幸区南加瀬3丁目10番1号,南加瀬中学校　正門フェンス,35.5444206,139.6634148,
神奈川県,川崎市,136,幸区南加瀬3丁目10番1号,南加瀬中学校南側　フェンス,35.5444206,139.6634148,
神奈川県,川崎市,137,幸区南加瀬4丁目24番1号,南加瀬小学校東側フェンス,35.5437058,139.6602057,
神奈川県,川崎市,138,幸区南加瀬4丁目37番,南加瀬下町公園　南側フェンス,35.5416374,139.657804,
神奈川県,川崎市,139,幸区南加瀬4丁目35番2号,南加瀬第2住宅　南側フェンス,35.5421967,139.6593219,
神奈川県,川崎市,140,幸区南加瀬4丁目24番1号,南加瀬小学校西側フェンス,35.5437058,139.6602057,
神奈川県,川崎市,141,幸区南加瀬4丁目40番22号,加瀬水処理センター 東側フェンス,35.5429721,139.6559634,
神奈川県,川崎市,142,幸区南加瀬5丁目38番3号,南加瀬辻公園 南側フェンス,35.5398735,139.6556586,
神奈川県,川崎市,143,幸区南加瀬5丁目24番17号,masked,35.5403437,139.6588155,
神奈川県,川崎市,144,幸区南加瀬5丁目5番43号,masked,35.5395984,139.6610448,
神奈川県,川崎市,145,幸区小倉4丁目8番1号,市営小倉第3住宅 南側フェンス (位置情報が見つかりませんでした),35.5381389,139.6684425,
神奈川県,川崎市,146,幸区小倉4丁目8番4号,小倉中公園 東側フェンス,35.5388895,139.6681731,
神奈川県,川崎市,147,幸区小倉4丁目12番22号,小倉下町公園 南側フェンス,35.5382982,139.6726777,
神奈川県,川崎市,148,幸区小倉4丁目17番1号,東小倉公園 西側正面ポール,35.5376817,139.6713755,
神奈川県,川崎市,149,幸区小倉4丁目21番6号,小倉かつら公園 北側フェンス,35.5373159,139.6699231,
神奈川県,川崎市,150,幸区小倉4丁目26番2号,小倉南住宅北側 プレイロットA,35.536501,139.6689715,
神奈川県,川崎市,151,幸区小倉4丁目28番3号,小倉アベリア公園北側 入口植込み,35.5355417,139.6689463,
神奈川県,川崎市,152,幸区小倉4丁目28番3号,小倉アベリア公園西側 入口フェンス,35.5355417,139.6689463,
神奈川県,川崎市,1,高津区久地4丁目25番,久地駅周辺自転車等駐車場前柵,35.6100736,139.5946976,
神奈川県,川崎市,2,高津区宇奈根637番地,宇奈根まちかど公園フェンス (位置情報が見つかりませんでした),35.613163,139.601019,
神奈川県,川崎市,3,高津区久地3丁目4番,久地梅林公園植え込み,35.6097892,139.6068037,
神奈川県,川崎市,4,高津区久地4丁目21番,駐車場フェンス,35.6100353,139.5924678,
神奈川県,川崎市,5,高津区久地4丁目2番1号,久地小学校フェンス,35.6108789,139.6006724,
神奈川県,川崎市,6,高津区久地4丁目2番1号,久地小学校フェンス,35.6108789,139.6006724,
神奈川県,川崎市,7,高津区久地3丁目16番,日本経済新聞工場前ガードレール,35.6091286,139.6040955,
神奈川県,川崎市,8,高津区久地3丁目16番,駐輪場雨水流出抑制施設フェンス,35.6091286,139.6040955,
神奈川県,川崎市,9,高津区久地1丁目5番18号,masked,35.6063796,139.6082667,
神奈川県,川崎市,10,高津区久地1丁目24番,ニヶ領用水フェンス,35.6062291,139.6070426,
神奈川県,川崎市,11,高津区久地2丁目22番,masked,35.6088687,139.6080782,
神奈川県,川崎市,12,高津区久地1丁目10番1号,西高津中学校校門フェンス,35.6074309,139.6098387,
神奈川県,川崎市,13,高津区久地2丁目2番,多摩沿線道路下植え込み,35.6103258,139.6166815,
神奈川県,川崎市,14,高津区溝口6丁目20番13号,masked,35.6086589,139.6110612,
神奈川県,川崎市,15,高津区久地1丁目21番1号,masked,35.6074176,139.6075782,
神奈川県,川崎市,16,高津区溝口6丁目2番,ライオンズマンション高津対面ガードレール,35.6096239,139.6163629,
神奈川県,川崎市,17,高津区溝口3丁目12番,ニヶ領用水大石橋際フェンス,35.6032633,139.6121407,
神奈川県,川崎市,18,高津区溝口1丁目2番,キラリデッキ２階自由通路,35.5995405,139.6112644,
神奈川県,川崎市,19,高津区溝口1丁目4番,みずほ信託銀行溝ノ口支店前鉄パイプ,35.5990347,139.6128577,
神奈川県,川崎市,20,高津区溝口4丁目19番1号,高津小学校植え込み,35.6051215,139.6139252,
神奈川県,川崎市,21,高津区溝口4丁目19番1号,高津小学校フェンス,35.6051215,139.6139252,
神奈川県,川崎市,22,高津区溝口3丁目10番8号,溝口南公園フェンス,35.6032935,139.6143346,
神奈川県,川崎市,23,高津区溝口1丁目18番,ニヶ領用水フェンス,35.6010065,139.6143713,
神奈川県,川崎市,24,高津区溝口5丁目15番2号,溝口北公園前ガードレール,35.6074993,139.6142916,
神奈川県,川崎市,25,高津区溝口5丁目13番,トナミ運輸(株)川崎支店ガードレール,35.6082692,139.6162035,
神奈川県,川崎市,26,高津区二子3丁目15番1号,高津スポーツセンター駐輪場フェンス,35.6033713,139.6222076,
神奈川県,川崎市,27,高津区二子3丁目15番1号,高津スポーツセンター西側入口フェンス,35.6033713,139.6222076,
神奈川県,川崎市,28,高津区二子6丁目12番,ナイスパークハイツ溝の口前ニヶ領用水フェンス,35.5991546,139.6224178,
神奈川県,川崎市,29,高津区二子1丁目16番1号,溝口公園フェンス,35.6073974,139.6179562,
神奈川県,川崎市,30,高津区二子5丁目15番,ニヶ領用水二子新生橋際フェンス,35.6007401,139.6192309,
神奈川県,川崎市,31,高津区二子4丁目11番1号,市営二子住宅フェンス (位置情報が見つかりませんでした),35.602486,139.6204061,
神奈川県,川崎市,32,高津区二子3丁目6番35号,二子居村公園フェンス (位置情報が見つかりませんでした),35.6048899,139.6210006,
神奈川県,川崎市,33,高津区二子1丁目4番2号,二子神社,35.6085634,139.6218022,
神奈川県,川崎市,34,高津区二子3丁目15番1号,高津スポーツセンター駐車場入口横フェンス,35.6033713,139.6222076,
神奈川県,川崎市,35,高津区諏訪3丁目1番,果樹園フェンス,35.6035552,139.6233739,
神奈川県,川崎市,36,高津区諏訪1丁目7番,個人所有駐車場フェンス,35.606086,139.6236379,
神奈川県,川崎市,37,高津区北見方2丁目6番,東高津公園フェンス,35.6007802,139.6289515,
神奈川県,川崎市,38,高津区瀬田12番,諏訪歩道橋脇フェンス,35.6061194,139.6260033,
神奈川県,川崎市,39,高津区北見方1丁目21番,ニヶ領用水フェンス,35.5989051,139.6246488,
神奈川県,川崎市,40,高津区北見方2丁目5番1号,東高津小学校フェンス (位置情報が見つかりませんでした),35.6016779,139.6275522,
神奈川県,川崎市,41,高津区北見方1丁目16番,ニヶ領用水フェンス,35.5990159,139.6275969,
神奈川県,川崎市,42,高津区北見方2丁目14番7号,白髭神社裏の柵,35.6005067,139.6303659,
神奈川県,川崎市,43,高津区北見方3丁目5番,ニヶ領用水フェンス,35.5967768,139.6309437,
神奈川県,川崎市,44,高津区下野毛3丁目9番20号,下野毛3丁目つつじ公園,35.5933599,139.6386737,
神奈川県,川崎市,45,高津区下野毛1丁目5番2号,県営リバーサイド下野毛2号棟前フェンス,35.5982791,139.6361567,
神奈川県,川崎市,46,高津区下野毛3丁目6番,日本通運㈱神奈川東支店駐車場フェンス,35.5944097,139.6377174,
神奈川県,川崎市,47,高津区下野毛3丁目7番,日本レーベル印刷㈱所有駐車場フェンス (位置情報が見つかりませんでした),35.5931339,139.6373986,
神奈川県,川崎市,48,高津区下野毛2丁目8番3号,下野毛2丁目公園フェンス (位置情報が見つかりませんでした),35.596414,139.6374733,
神奈川県,川崎市,49,高津区下野毛1丁目3番,下野毛1丁目公園フェンス,35.5974555,139.6366415,
神奈川県,川崎市,50,高津区下野毛1丁目3番2号,東高津老人いこいの家フェンス,35.5974357,139.6366891,
神奈川県,川崎市,51,高津区下作延5丁目19番1号,下作延小学校フェンス（西側）,35.602943,139.60082,
神奈川県,川崎市,52,高津区下作延5丁目19番1号,下作延小学校フェンス（南側）,35.602943,139.60082,
神奈川県,川崎市,53,高津区下作延6丁目16番,市営日向住宅植え込み,35.6055922,139.5985203,
神奈川県,川崎市,54,高津区下作延6丁目29番,下作延北ノ谷公園前ガードレール,35.608995,139.5962904,
神奈川県,川崎市,55,高津区下作延5丁目8番,市営下作延中住宅フェンス,35.59966259999999,139.6003521,
神奈川県,川崎市,56,高津区下作延6丁目6番,路川石材工業所対面個人所有駐車場フェンス,35.6038796,139.6013875,
神奈川県,川崎市,57,高津区下作延7丁目15番,津田山公園,35.6055154,139.6024229,
神奈川県,川崎市,58,高津区下作延5丁目4番,個人所有畑フェンス,35.6007646,139.6013078,
神奈川県,川崎市,59,高津区下作延4丁目1番,国道246号線高架下自転車置き場前ガードレール (位置情報が見つかりませんでした),35.6010932,139.6049717,
神奈川県,川崎市,60,高津区下作延4丁目23番1号,つり具上州屋溝口店フェンス,35.5980278,139.6037997,
神奈川県,川崎市,61,高津区下作延2丁目26番1号,恵楽園フェンス,35.5971836,139.6056144,
神奈川県,川崎市,62,高津区下作延7丁目27番,円福寺裏ガードレール,35.6045045,139.6056089,
神奈川県,川崎市,63,高津区下作延7丁目1番,国道２４６号線高架下下作延中央公園,35.6016668,139.6049717,
神奈川県,川崎市,64,高津区下作延2丁目8番1号,高津区役所前植え込み,35.5995612,139.6080924,
神奈川県,川崎市,65,高津区下作延4丁目8番,上之橋横駐車場フェンス,35.6002843,139.6025762,
神奈川県,川崎市,66,高津区下作延2丁目8番,高津区役所横ホーム駐車場脇道路フェンス,35.5992934,139.6077744,
神奈川県,川崎市,67,高津区久本1丁目3番,旧川崎看護専門学校車両置場対面道路斜面,35.5979102,139.6093526,
神奈川県,川崎市,68,高津区久本1丁目1番,田園都市線高架下ガードレール,35.5993181,139.6092076,
神奈川県,川崎市,69,高津区久本1丁目8番,市営バス市民プラザ線折り返し所自転車置場ガードレール,35.59705720000001,139.6122204,
神奈川県,川崎市,70,高津区久本3丁目6番,パークシティ溝の口プレイロット植え込み (位置情報が見つかりませんでした),35.6028333,139.6161934,緯度経度は怪しい
神奈川県,川崎市,71,高津区久本3丁目11番3号,久本小学校裏門フェンス,35.5952026,139.6176774,
神奈川県,川崎市,72,高津区久本3丁目11番3号,久本小学校正門フェンス,35.5952026,139.6176774,
神奈川県,川崎市,73,高津区久本1丁目6番,アネモネ薬局対面南武線沿線ガードレール,35.5979422,139.6124594,
神奈川県,川崎市,74,高津区久本1丁目16番23号,久本公園前ガードレール,35.5955278,139.6123577,
神奈川県,川崎市,75,高津区久本2丁目4番,久本鴨居町公園フェンス,35.5929027,139.6151741,
神奈川県,川崎市,76,高津区坂戸1丁目5番,masked,35.5993362,139.6185936,
神奈川県,川崎市,77,高津区坂戸3丁目10番8号,坂戸公園フェンス,35.5947244,139.6229532,
神奈川県,川崎市,78,高津区坂戸1丁目18番1号,坂戸小学校フェンス,35.5959238,139.6230392,
神奈川県,川崎市,79,高津区坂戸1丁目18番1号,坂戸小学校フェンス,35.5959238,139.6230392,
神奈川県,川崎市,80,高津区坂戸1丁目11番,masked,35.598898,139.6217805,
神奈川県,川崎市,81,高津区坂戸3丁目10番,市営坂戸住宅坂戸遊園フェンス,35.5941322,139.6238511,
神奈川県,川崎市,82,高津区坂戸2丁目16番,個人所有地,35.5954756,139.6266408,
神奈川県,川崎市,83,高津区坂戸3丁目10番4号,市営坂戸住宅フェンス,35.593769,139.6233564,
神奈川県,川崎市,84,高津区上作延3丁目9番1号,南原小学校フェンス,35.5967964,139.5893119,
神奈川県,川崎市,85,高津区上作延3丁目9番1号,南原小学校フェンス,35.5967964,139.5893119,
神奈川県,川崎市,86,高津区上作延3丁目18番2号,市営上作延団地2号棟横植え込み,35.5992344,139.5904025,
神奈川県,川崎市,87,高津区上作延4丁目24番16号,個人所有畑,35.5964686,139.5917574,緯度経度は怪しい
神奈川県,川崎市,88,高津区向ヶ丘138番地1,しばられ松バス停際神社,35.5941795,139.5918805,緯度経度は怪しい
神奈川県,川崎市,89,高津区上作延1丁目29番,上作延団地バス停際耕作地フェンス,35.6000564,139.5958125,緯度経度は怪しい
神奈川県,川崎市,90,高津区上作延1丁目7番2号,上作延第2市営住宅フェンス,35.5995761,139.5933385,
神奈川県,川崎市,91,高津区下作延3丁目1番,下作延第2公園フェンス,35.596225,139.6017857,
神奈川県,川崎市,92,高津区向ヶ丘85番地8,向ヶ丘東公園フェンス,35.5939535,139.5953156,
神奈川県,川崎市,93,高津区上作延4丁目12番26号,上作延農住公園,35.5970233,139.594965,
神奈川県,川崎市,94,高津区上作延1丁目11-505,個人所有駐車場フェンス,35.6000564,139.5958125,
神奈川県,川崎市,95,高津区下作延3丁目10番1号,市営下作延南住宅フェンス,35.5944636,139.6004589,
神奈川県,川崎市,96,高津区上作延5丁目8番1号,上作延小学校プールフェンス,35.5981331,139.597629,緯度経度は怪しい
神奈川県,川崎市,97,高津区上作延5丁目1番1号,ライオンズ溝の口レジデンス前ガードレール (位置情報が見つかりませんでした),35.5976805,139.5994362,緯度経度は怪しい
神奈川県,川崎市,98,高津区上作延5丁目26番55号,上作延こども文化センターフェンス,35.596177,139.6000275,緯度経度は怪しい
神奈川県,川崎市,99,高津区下作延2丁目34番,下作延第3公園フェンス,35.5961742,139.6036176,
神奈川県,川崎市,100,高津区梶ヶ谷2丁目14番地,西梶ヶ谷小学校フェンス,35.5898454,139.6025025,
神奈川県,川崎市,101,高津区梶ヶ谷2丁目14番地,西梶ヶ谷小学校フェンス,35.5898454,139.6025025,
神奈川県,川崎市,102,高津区末長1丁目47番8号,末長けやき公園柵,35.5920185,139.6046374,
神奈川県,川崎市,103,高津区梶ヶ谷2丁目1番地7,ＪＡ梶ヶ谷ビル植え込み,35.5908389,139.6030999,
神奈川県,川崎市,104,高津区末長1丁目48番6号,東急梶ヶ谷駅駅舎前ガードレール,35.5937618,139.6057284,
神奈川県,川崎市,105,高津区末長1丁目49番36号,梶ヶ谷さくら公園フェンス,35.5926128,139.6026261,
神奈川県,川崎市,106,高津区末長1丁目40番9号,末長姿見台公園柵,35.5921891,139.6061061,
神奈川県,川崎市,107,高津区梶ヶ谷2丁目10番地,梶ヶ谷第1公園フェンス,35.5898454,139.6025025,
神奈川県,川崎市,108,高津区梶ヶ谷4丁目12番地,梶ヶ谷小学校フェンス,35.5861745,139.6041152,
神奈川県,川崎市,109,高津区梶ヶ谷4丁目12番地,梶ヶ谷小学校フェンス,35.5861745,139.6041152,
神奈川県,川崎市,110,高津区梶ヶ谷3丁目12番地,個人所有地,35.5870927,139.6065438,
神奈川県,川崎市,111,高津区梶ヶ谷3丁目17番地,梶ヶ谷第3公園,35.5861527,139.6074114,
神奈川県,川崎市,112,高津区梶ヶ谷5丁目11番地1,梶ヶ谷第2公園,35.5837295,139.6078939,
神奈川県,川崎市,113,高津区梶ヶ谷5丁目11番地1,梶ヶ谷第2公園,35.5837295,139.6078939,
神奈川県,川崎市,114,高津区梶ヶ谷6丁目14番地,masked,35.5825981,139.6101492,
神奈川県,川崎市,115,高津区梶ヶ谷3丁目1番地18,梶ヶ谷こぶし公園フェンス,35.5903159,139.6044556,
神奈川県,川崎市,116,高津区新作3丁目13番1号,市営新作住宅1号棟前,35.5863028,139.6167911,
神奈川県,川崎市,117,高津区末長1丁目3番8号,社会復帰訓練所フェンス,35.5959953,139.6084858,
神奈川県,川崎市,118,高津区末長1丁目34番1号,末長西公園フェンス,35.5893997,139.6087619,
神奈川県,川崎市,119,高津区新作2丁目10番,masked,35.584443,139.6150882,
神奈川県,川崎市,120,高津区末長1丁目25番24号,コンフォートS前植え込み,35.5920855,139.6098903,
神奈川県,川崎市,121,高津区新作1丁目9番1号,新作小学校正門横フェンス,35.5876448,139.6114287,
神奈川県,川崎市,122,高津区新作3丁目14番,新作バス停横くら寿司前ガードレール,35.5860126,139.6182749,
神奈川県,川崎市,123,高津区末長2丁目13番,個人所有畑フェンス,35.5893139,139.6159646,
神奈川県,川崎市,124,高津区末長2丁目27番2号,末長老人いこいの家,35.5887829,139.611589,
神奈川県,川崎市,125,高津区末長3丁目8番1号,末長小学校入口横植え込み,35.5903976,139.6193336,
神奈川県,川崎市,126,高津区末長3丁目8番1号,末長小学校入口横フェンス,35.5903976,139.6193336,
神奈川県,川崎市,127,高津区末長4丁目1番2号,末長中町公園フェンス,35.591321,139.6218048,
神奈川県,川崎市,128,高津区末長4丁目8番27号,末長高之面公園フェンス,35.5909674,139.623417,
神奈川県,川崎市,129,高津区末長4丁目13番,個人所有畑,35.590397,139.6256049,
神奈川県,川崎市,130,高津区末長4丁目24番1号,末長東公園前柵,35.5892203,139.6274837,
神奈川県,川崎市,131,高津区末長4丁目1番1号,東高津中学校柵,35.5915833,139.6220145,
神奈川県,川崎市,132,高津区末長4丁目8番27号,末長高之面公園フェンス,35.5909674,139.623417,
神奈川県,川崎市,133,高津区新作6丁目7番29号,新作公園フェンス,35.5859654,139.6252862,
神奈川県,川崎市,134,高津区新作4丁目2番25号,新作第2公園フェンス,35.5883169,139.6188326,
神奈川県,川崎市,135,高津区新作5丁目13番10号,新作第3公園フェンス,35.5874244,139.6255252,
神奈川県,川崎市,136,高津区新作4丁目1番,そば処朝日屋対面空き地,35.5880603,139.6181952,
神奈川県,川崎市,137,高津区新作6丁目4番,（株）フジプロテック前ガードレール,35.5849394,139.6227365,
神奈川県,川崎市,138,高津区新作5丁目4番,アイベック高津新作第2駐車場前ガードレール,35.5868194,139.6224178,
神奈川県,川崎市,139,高津区新作5丁目8番,ライオンズマンション武蔵新城前ガードレール,35.5874303,139.6246488,
神奈川県,川崎市,140,高津区新作5丁目11番8号,新作高ノ免公園フェンス,35.5881019,139.6256049,
神奈川県,川崎市,141,高津区千年1227番地4,千年くすのき公園フェンス,35.5815317,139.6168564,
神奈川県,川崎市,142,高津区千年1024番地,橘小学校フェンス (位置情報が見つかりませんでした),35.5838834,139.6263062,緯度経度は怪しい
神奈川県,川崎市,143,高津区千年797番地,千年中央公園植え込み,35.5793785,139.6235333,
神奈川県,川崎市,144,高津区千年新町45番地1,市営千年新町住宅1号館前植え込み,35.5801586,139.6276275,
神奈川県,川崎市,145,高津区千年1362番地1,橘出張所入口横植え込み,35.5821173,139.6206252,
神奈川県,川崎市,146,高津区千年新町21番地,千年新町三角公園,35.583352,139.6282681,
神奈川県,川崎市,147,高津区千年1300番地,橘中学校フェンス,35.5793785,139.6235333,緯度経度は怪しい
神奈川県,川崎市,148,高津区千年1300番地,橘中学校フェンス,35.5793785,139.6235333,緯度経度は怪しい
神奈川県,川崎市,149,高津区千年新町59番地3,千年なかよし公園フェンス,35.5817478,139.6279953,緯度経度は怪しい
神奈川県,川崎市,150,高津区子母口208番地1,個人所有駐車場フェンス (位置情報が見つかりませんでした),35.5738356,139.6284496,
神奈川県,川崎市,151,高津区子母口129番地,蓮乗院フェンス,35.5722485,139.6286328,
神奈川県,川崎市,152,高津区子母口259番地1,個人所有空き地フェンス,35.5709345,139.6278125,
神奈川県,川崎市,153,高津区子母口783番地,県営子母口プラザハイム1号棟前フェンス,35.5688013,139.6298231,
神奈川県,川崎市,154,高津区子母口298番地2,高津消防署子母口出張所フェンス (位置情報が見つかりませんでした),35.5717665,139.6309892,
神奈川県,川崎市,155,高津区子母口730番地,東橘中学校・子母口小学校フェンス,35.5696736,139.6330181,
神奈川県,川崎市,156,高津区子母口697番地1,橘公園植え込み（尻手黒川線側）,35.5685915,139.6346791,
神奈川県,川崎市,157,高津区子母口697番地1,橘公園植え込み（南側）,35.5685915,139.6346791,
神奈川県,川崎市,158,高津区蟹ヶ谷330番地1,住宅地入口ガードレール,35.5683181,139.6301866,
神奈川県,川崎市,159,高津区蟹ヶ谷3番地7,市営蟹ヶ谷槍ヶ崎住宅1号棟植え込み,35.5640606,139.628662,
神奈川県,川崎市,160,高津区蟹ヶ谷30番地1,ニューウェルテラス第1日吉A棟前ガードレール,35.5638247,139.6306473,
神奈川県,川崎市,161,高津区蟹ヶ谷3番地7,蟹ヶ谷槍ヶ崎公園北側フェンス,35.5640606,139.628662,
神奈川県,川崎市,162,高津区蟹ヶ谷3番地7,蟹ヶ谷槍ヶ崎公園南側フェンス,35.5640606,139.628662,
神奈川県,川崎市,163,高津区明津16番地3,ラフォーレⅢ前道路際柵,35.5691932,139.6363117,
神奈川県,川崎市,164,高津区明津141番地,杉本電機産業フェンス,35.5676809,139.6365762,
神奈川県,川崎市,165,高津区蟹ヶ谷340番地5,リバーシティ元住吉前斜面上ガードレール,35.5678694,139.6323275,
神奈川県,川崎市,166,高津区久末488番地,県営久末団地2号棟下斜面,35.5640339,139.6177303,緯度経度は怪しい
神奈川県,川崎市,167,高津区久末496番地,県営久末団地9号棟横フェンス,35.5662405,139.6222585,
神奈川県,川崎市,168,高津区久末647番地,久末小学校正門左側,35.5662405,139.6222585,緯度経度は怪しい
神奈川県,川崎市,169,高津区久末1277番地,masked,35.5699186,139.6217923,
神奈川県,川崎市,170,高津区久末1482番地1,理容室対面畑,35.5662405,139.6222585,緯度経度は怪しい
神奈川県,川崎市,171,高津区久末1600番地,市営明石穂団地内明石穂公園,35.563519,139.625432,緯度経度は怪しい
神奈川県,川崎市,172,高津区久末647番地,久末小学校ごみ置き場横フェンス,35.5662405,139.6222585,緯度経度は怪しい
神奈川県,川崎市,173,高津区久末1566番地,久末つつじ公園フェンス,35.5619001,139.6233088,
神奈川県,川崎市,174,高津区東野川2丁目33番2号,市営久末西住宅前植え込み,35.5656787,139.6144125,
神奈川県,川崎市,175,高津区久末311番地,久末公園,35.5615985,139.6152127,
神奈川県,川崎市,176,高津区東野川2丁目17番,洗車CLUB対面有馬川フェンス,35.5677142,139.6146899,
神奈川県,川崎市,177,高津区久末50番地,川崎めぐみ幼稚園フェンス,35.5658275,139.6153331,
神奈川県,川崎市,178,高津区久末453番地,市営久末寺谷住宅3号棟前フェンス,35.56205080000001,139.6167712,
神奈川県,川崎市,179,高津区東野川1丁目16番20号,市営野川東住宅植え込み,35.571686,139.6193903,
神奈川県,川崎市,180,高津区東野川1丁目14番3号,野川第5公園,35.5718507,139.6181952,
神奈川県,川崎市,181,高津区久末386番地,ユーカリハイツ久末前ガードレール,35.5631393,139.6156658,
神奈川県,川崎市,182,高津区千年92番地,市営千年前田団地1号棟前フェンス,35.5727265,139.6217462,
神奈川県,川崎市,183,高津区千年92番地,市営千年前田団地5号棟前フェンス,35.5727265,139.6217462,
神奈川県,川崎市,184,高津区久末2150番地,市営久末谷中住宅1、2号棟フェンス,35.5662405,139.6222585,緯度経度は怪しい
神奈川県,川崎市,185,高津区久末2150,久末谷中公園フェンス,35.5662405,139.6222585,緯度経度は怪しい
神奈川県,川崎市,186,高津区久末1938番地1,市営久末表B住宅集会所前植え込み (位置情報が見つかりませんでした),35.571234,139.622638,
神奈川県,川崎市,187,高津区久末1938番地1,市営久末表B住宅2号棟前植え込み (位置情報が見つかりませんでした),35.571234,139.622638,
神奈川県,川崎市,188,高津区久末2012番地1,プラザ橋フェンス,35.5701595,139.6238945,
神奈川県,川崎市,1,麻生区東百合丘2丁目3番,中の台バス停 脇フェンス,35.6007669,139.5263291,
神奈川県,川崎市,2,麻生区東百合丘2丁目14番,塔ノ越南公園 北側フェンス (位置情報が見つかりませんでした),35.59926,139.52792,
神奈川県,川崎市,3,麻生区東百合丘2丁目34番2号,masked,35.59762180000001,139.5305656,
神奈川県,川崎市,4,麻生区東百合丘3丁目1番10号,東百合丘こども文化センター 前フェンス,35.5947531,139.5228723,
神奈川県,川崎市,5,麻生区東百合丘4丁目9番,生田南郵便局前 交差点脇,35.5997189,139.5226702,
神奈川県,川崎市,6,麻生区東百合丘4丁目12番1号,長沢中学校 正門脇フェンス,35.5981082,139.5245207,
神奈川県,川崎市,7,麻生区東百合丘4丁目12番1号,長沢中学校 西門脇植込み,35.5981082,139.5245207,
神奈川県,川崎市,8,麻生区東百合丘4丁目33番,餅坂第3公園 東側植込み,35.5994224,139.5221134,
神奈川県,川崎市,9,麻生区百合丘1丁目11番地,百合丘第3公園 東側植込み,35.6070298,139.5171822,
神奈川県,川崎市,10,麻生区百合丘1丁目16番地12,サンラフレ百合ケ丘8号棟 前歩道脇ガードレール,35.6049547,139.5162701,
神奈川県,川崎市,11,麻生区百合丘1丁目18番地3,至誠館ゆりがおか保育園 西側フェンス,35.6077679,139.5155518,
神奈川県,川崎市,12,麻生区百合丘1丁目24番地,高石橋 東側歩道脇フェンス,35.6070298,139.5171822,緯度経度は怪しい
神奈川県,川崎市,13,麻生区百合丘1丁目24番地,朝日生命百合ケ丘営業所 前,35.6070298,139.5171822,緯度経度は怪しい
神奈川県,川崎市,14,麻生区百合丘3丁目11番地,百合ケ丘第5公園 南側植込み,35.601813,139.5184547,
神奈川県,川崎市,15,麻生区百合丘3丁目1番地,百合丘第2公園 西側植込み,35.601813,139.5184547,緯度経度は怪しい
神奈川県,川崎市,16,麻生区百合丘3丁目22番地,百合丘3丁目けやき公園 東側フェンス (位置情報が見つかりませんでした),35.6023301,139.5184272,
神奈川県,川崎市,17,麻生区高石1丁目24,東和ハイツ北側道路 ガードレール,35.6104883,139.5182957,
神奈川県,川崎市,18,麻生区高石2丁目24番,高石寺前公園 南側フェンス,35.6113529,139.5130566,緯度経度は怪しい
神奈川県,川崎市,19,麻生区高石2丁目34番,高石西第3公園 北側フェンス,35.6135401,139.5150349,
神奈川県,川崎市,20,麻生区高石2丁目38番,高石西第1公園 西側フェンス,35.6159515,139.5171027,
神奈川県,川崎市,21,麻生区高石3丁目25番1号,西生田中学校　西側門脇,35.6159341,139.5185442,
神奈川県,川崎市,22,麻生区高石3丁目26番,準用河川五反田川細山調整池　北側フェンス,35.616101,139.5208408,
神奈川県,川崎市,23,麻生区高石3丁目29番,高石弥生公園　南側フェンス,35.6149255,139.5214771,
神奈川県,川崎市,24,麻生区高石3丁目32番2号,読売ランド前ハイデンス東側,35.6145926,139.5224371,
神奈川県,川崎市,25,麻生区細山1丁目10番1号,大久保バス停横,35.61978,139.5186549,
神奈川県,川崎市,26,麻生区細山2丁目2番1号,西生田小学校　正門脇フェンス,35.6169135,139.5192334,
神奈川県,川崎市,27,麻生区細山3丁目1番,和田駐車場横,35.6164942,139.5154325,
神奈川県,川崎市,28,麻生区細山3丁目16番9号,細山北谷公園前歩道,35.6180442,139.5114014,
神奈川県,川崎市,29,麻生区細山4丁目1番,細山東公園　出入口脇フェンス,35.6179809,139.5150349,
神奈川県,川崎市,30,麻生区細山7丁目14番,細山金井久保中央公園　北側フェンス,35.623458,139.5135239,
神奈川県,川崎市,31,麻生区多摩美1丁目27番,ガードレール,35.61783090000001,139.5237042,
神奈川県,川崎市,32,麻生区多摩美2丁目10番,多摩美こぶし公園　北側フェンス,35.6204234,139.5210794,
神奈川県,川崎市,33,麻生区細山8丁目9番,細山８丁目公園　北側フェンス,35.6211448,139.5101043,
神奈川県,川崎市,34,麻生区千代ケ丘8丁目9番1号,千代ケ丘小学校　西側門脇フェンス,35.6174725,139.5037495,
神奈川県,川崎市,35,麻生区千代ケ丘3丁目4番地,千代ケ丘交差点南側土地,35.6125988,139.5082753,
神奈川県,川崎市,36,麻生区千代ケ丘5丁目4番地,千代ケ丘第２公園　南側入口脇フェンス,35.6145344,139.5066849,
神奈川県,川崎市,37,麻生区千代ケ丘8丁目21番1号,千代ケ丘中ノ間公園　南側フェンス,35.6191371,139.5054922,
神奈川県,川崎市,38,麻生区千代ケ丘7丁目17番地,千代ケ丘第３公園　南側門脇フェンス,35.616154,139.5057307,
神奈川県,川崎市,39,麻生区千代ケ丘8丁目9番1号,千代ケ丘小学校　南側門脇フェンス,35.6174725,139.5037495,
神奈川県,川崎市,40,麻生区千代ケ丘9丁目11番,千代ケ丘中ノ間東公園　西側フェンス,35.6195241,139.5087524,
神奈川県,川崎市,41,麻生区金程1丁目38番6号,金程富士見会館　前,35.6098602,139.5027469,
神奈川県,川崎市,42,麻生区金程2丁目10番1号,金程小学校　北側門脇フェンス,35.6118866,139.4999755,
神奈川県,川崎市,43,麻生区金程2丁目2番,金程調整池　北側フェンス,35.6105035,139.4977753,
神奈川県,川崎市,44,麻生区金程3丁目16番1号,金程中学校　正門脇フェンス,35.61393109999999,139.4992803,
神奈川県,川崎市,45,麻生区金程4丁目18番,masked,35.6137031,139.5037429,
神奈川県,川崎市,46,麻生区向原3丁目5番,細山伏越し中間出入口　脇フェンス (位置情報が見つかりませんでした),35.6183191,139.4999263,
神奈川県,川崎市,47,麻生区向原3丁目10番,小田急バス向原折返場　南側,35.6194503,139.5002444,
神奈川県,川崎市,48,麻生区向原2丁目1番,向原南緑地　北側東面フェンス,35.6136892,139.496269,
神奈川県,川崎市,49,麻生区万福寺1丁目5番,麻生区役所　南側植込み,35.6040589,139.5065879,
神奈川県,川崎市,50,麻生区万福寺1丁目13番,masked,35.604297,139.506604,
神奈川県,川崎市,51,麻生区上麻生3丁目2番,山口睦歩道橋　東側交差点植込み,35.600446,139.5062078,
神奈川県,川崎市,52,麻生区上麻生1丁目21番,新百合ヶ丘駅　南口前植込み,35.603122,139.507846,
神奈川県,川崎市,53,麻生区上麻生3丁目24番,麻生小学校　正門脇フェンス,35.6026188,139.5041404,
神奈川県,川崎市,54,麻生区上麻生4丁目2番,川崎青葉幼稚園　西側植込み,35.5966327,139.5081163,
神奈川県,川崎市,55,麻生区上麻生4丁目2番,鶴亀松公園　南側出入口脇植込み,35.5966327,139.5081163,
神奈川県,川崎市,56,麻生区古沢120番地,道路公園センター　北側フェンス,35.604759,139.5012241,
神奈川県,川崎市,57,麻生区万福寺3丁目3番,万福寺おやしろ公園　散歩道入口脇植込み,35.6056437,139.5084344,
神奈川県,川崎市,58,麻生区高石1丁目14番15号,高石保育園　北側フェンス,35.610243,139.5141968,
神奈川県,川崎市,59,麻生区百合丘2丁目1番地,百合丘小学校　正門脇フェンス,35.6048553,139.5146373,緯度経度は怪しい
神奈川県,川崎市,60,麻生区百合丘2丁目4番地,百合丘第4公園　西側斜面,35.6058505,139.514539,
神奈川県,川崎市,61,麻生区百合丘2丁目8番地,市営サンラフレ百合ヶ丘22号棟 北側植込み,35.6048553,139.5146373,緯度経度は怪しい
神奈川県,川崎市,62,麻生区高石4丁目15番7号,北部下水道事務所 前鉄柵 (位置情報が見つかりませんでした),35.6109365,139.5204554,
神奈川県,川崎市,63,麻生区高石4丁目22番2号,市営住宅2号棟 西側フェンス,35.6109654,139.5218655,
神奈川県,川崎市,64,麻生区高石5丁目13番,百合ヶ丘サニーフラット前,35.6041655,139.5217953,
神奈川県,川崎市,65,麻生区高石5丁目2番,第一導水隧道猫山谷伏越出入口 脇フェンス,35.6056572,139.5205227,
神奈川県,川崎市,66,麻生区王禅寺東1丁目12番,王禅寺北第1公園 北側植込み,35.5945996,139.520284,
神奈川県,川崎市,67,麻生区王禅寺東2丁目9番,王禅寺北第4公園 西側フェンス,35.5932846,139.5154325,
神奈川県,川崎市,68,麻生区王禅寺西4丁目5番,王禅寺北第6公園 北側フェンス,35.5944599,139.51249,
神奈川県,川崎市,69,麻生区王禅寺西1丁目26番2号,南百合丘小学校西側地域子育て支援センター 脇,35.5990735,139.5123714,
神奈川県,川崎市,70,麻生区王禅寺西1丁目26番1号,南百合丘小学校 東門脇,35.5995705,139.5130537,
神奈川県,川崎市,71,麻生区王禅寺西3丁目28番,王禅寺公園 バス停脇植込み,35.5956666,139.5181366,
神奈川県,川崎市,72,麻生区上麻生2丁目11番,上麻生公園 北側出入口脇,35.6010607,139.5130467,
神奈川県,川崎市,73,麻生区上麻生2丁目27番,上麻生調整池 スポーツセンター入口交差点脇,35.5985762,139.507739,
神奈川県,川崎市,74,麻生区王禅寺東5丁目44番,駐車場前,35.5825918,139.5173413,
神奈川県,川崎市,75,麻生区王禅寺東5丁目17番,王禅寺さくら公園 東側フェンス,35.5835897,139.5136034,
神奈川県,川崎市,76,麻生区王禅寺東3丁目12番,王禅寺中第2公園 西側植込み,35.5883537,139.5190115,
神奈川県,川崎市,77,麻生区王禅寺東3丁目26番,王禅寺中公園 北側植込み,35.5883336,139.5155916,
神奈川県,川崎市,78,麻生区王禅寺東2丁目31番,王禅寺中第1公園 南側植込み,35.5913431,139.517898,
神奈川県,川崎市,79,麻生区王禅寺東1丁目25番,王禅寺日吉谷調整池 西側フェンス,35.5920007,139.5214771,
神奈川県,川崎市,80,麻生区王禅寺東4丁目14番1号,王禅寺中央小学校 車両専用門脇,35.5867595,139.5139152,
神奈川県,川崎市,81,麻生区王禅寺東3丁目51番,王禅寺大谷緑地公園 北側植込み,35.585166,139.5136034,
神奈川県,川崎市,82,麻生区虹ヶ丘1丁目21番,虹ヶ丘公園 自転車置場脇植込み,35.5791819,139.521318,
神奈川県,川崎市,83,麻生区虹ヶ丘1丁目21番,虹ヶ丘公園 西側植込み,35.5791819,139.521318,
神奈川県,川崎市,84,麻生区虹ヶ丘1丁目21番2号,虹ヶ丘小学校 南門脇,35.5786877,139.5208056,
神奈川県,川崎市,85,麻生区虹ヶ丘2丁目2番16号,虹ヶ丘団地バス停脇,35.5792422,139.5242568,
神奈川県,川崎市,86,麻生区虹ヶ丘2丁目2番19号,２－１８号棟 管理事務所前公園の道沿い,35.5801694,139.5244592,
神奈川県,川崎市,87,麻生区虹ヶ丘2丁目3番26号,３－１７号棟 北東側,35.5793926,139.5265896,
神奈川県,川崎市,88,麻生区虹ヶ丘3丁目1番5号,虹ヶ丘住宅管理事務所 向側,35.5782025,139.523467,
神奈川県,川崎市,89,麻生区王禅寺東6丁目3番1号,東柿生小学校 正門脇,35.5787732,139.5098662,
神奈川県,川崎市,90,麻生区王禅寺東5丁目48番15号,石橋交差点北側,35.5787673,139.5141816,
神奈川県,川崎市,91,麻生区王禅寺西8丁目24番34号,麻生台団地グラウンド 出入口脇 (位置情報が見つかりませんでした),35.58343370000001,139.504041,
神奈川県,川崎市,92,麻生区下麻生3丁目28番1号,下麻生住宅１号棟 東側,35.5748222,139.5105932,
神奈川県,川崎市,93,麻生区下麻生1丁目6番20号,麻生台団地２０号棟 西側,35.5823502,139.5023438,
神奈川県,川崎市,94,麻生区下麻生1丁目2番5号,麻生台団地５号棟 東側公園脇,35.5812056,139.5032523,
神奈川県,川崎市,95,麻生区下麻生2丁目7番,下麻生花島公園 南側植込み,35.5807131,139.5084344,
神奈川県,川崎市,96,麻生区早野573番地,早野交差点 脇フェンス,35.5691955,139.5136668,
神奈川県,川崎市,97,麻生区王禅寺西7丁目28番,真福寺交差点脇,35.5850711,139.507162,
神奈川県,川崎市,98,麻生区王禅寺西8丁目15番,王禅寺源内谷東公園 南側フェンス,35.5849473,139.5059693,
神奈川県,川崎市,99,麻生区王禅寺西5丁目25番,王禅寺北第7公園 西側フェンス,35.5926457,139.5083548,
神奈川県,川崎市,100,麻生区白山2丁目1番,日本映画大学白山キャンパス 南側斜面,35.5912681,139.5125695,
神奈川県,川崎市,101,麻生区白山2丁目3番,白山北緑地前バス停脇,35.592859,139.5122514,
神奈川県,川崎市,102,麻生区白山4丁目2番2号,白山こども文化センター　北側フェンス,35.5905462,139.5100555,
神奈川県,川崎市,103,麻生区白山4丁目5番,新ゆりグリーンタウンバス停脇,35.5901405,139.5087451,
神奈川県,川崎市,104,麻生区白山5丁目3番1号,真福寺小学校　正門脇フェンス,35.59044,139.5065157,
神奈川県,川崎市,105,麻生区上麻生7丁目23番,上麻生亀井公園　東側フェンス,35.579131,139.5023911,
神奈川県,川崎市,106,麻生区上麻生7丁目2番35号,上麻生保育園　前フェンス,35.5826938,139.4981278,
神奈川県,川崎市,107,麻生区上麻生6丁目29番18号,麻生区役所柿生分庁舎　西側フェンス,35.587541,139.49691,
神奈川県,川崎市,108,麻生区上麻生6丁目40番,柿生中学校　登り口フェンス,35.5868578,139.4995288,
神奈川県,川崎市,109,麻生区上麻生6丁目10番,タイムズマルエツ柿生店第一駐車場　北側,35.5884378,139.4963486,
神奈川県,川崎市,110,麻生区上麻生5丁目42番,柿生駅　北側自転車置場脇,35.5895251,139.4976206,
神奈川県,川崎市,111,麻生区上麻生5丁目33番,美山台中公園　東側フェンス,35.588148,139.5018346,
神奈川県,川崎市,112,麻生区上麻生5丁目17番,美山台公園　西側フェンス,35.5910088,139.5027092,
神奈川県,川崎市,113,麻生区片平1丁目7番,小田急多摩線ガード　下,35.5994359,139.5001649,
神奈川県,川崎市,114,麻生区片平1丁目14番,葉積緑地　西側フェンス,35.5980125,139.4984157,
神奈川県,川崎市,115,麻生区片平2丁目23番,鶴川街道　脇フェンス,35.592924,139.4977001,
神奈川県,川崎市,116,麻生区片平3丁目3番1号,柿生小学校　正門脇フェンス,35.5911508,139.4953124,
神奈川県,川崎市,117,麻生区片平3丁目2番,準用河川麻生川　グランディールソロコスタ南側フェンス,35.5904977,139.495951,
神奈川県,川崎市,118,麻生区片平4丁目1番,masked,35.593856,139.4915732,
神奈川県,川崎市,119,麻生区片平4丁目3番,準用河川片平川　シェスタ仲町前フェンス,35.5933859,139.4915785,
神奈川県,川崎市,120,麻生区片平4丁目9番,片平4丁目お山公園　出入口脇フェンス,35.5926144,139.4896706,
神奈川県,川崎市,121,麻生区白鳥4丁目27番,白鳥調整池 南側フェンス (位置情報が見つかりませんでした),35.605521,139.4867819,
神奈川県,川崎市,122,麻生区片平5丁目27番,片平公園 北側フェンス,35.5979113,139.4928505,
神奈川県,川崎市,123,麻生区白鳥1丁目5番1号,白鳥中学校 正門脇植込み,35.6012429,139.4861452,
神奈川県,川崎市,124,麻生区白鳥3丁目21番,小田急多摩線ガード脇,35.605467,139.4819602,
神奈川県,川崎市,125,麻生区五力田1丁目1番,五力田調整池 南側フェンス,35.5966377,139.494838,
神奈川県,川崎市,126,麻生区五力田2丁目15番,五力田中村通公園 北側フェンス,35.5998163,139.4895911,
神奈川県,川崎市,127,麻生区五力田3丁目18番1号,五月台駅 北口駅前広場,35.6001581,139.4936586,
神奈川県,川崎市,128,麻生区古沢403番地,masked,35.6022221,139.4966995,
神奈川県,川崎市,129,麻生区片平8丁目4番,準用河川片平川 富士見橋フェンス,35.60039340000001,139.4836691,
神奈川県,川崎市,130,麻生区栗平2丁目1番,栗平駅 北側駅前広場,35.6062021,139.4807679,
神奈川県,川崎市,131,麻生区栗平2丁目1番,栗平駅 南側駅前広場,35.6062021,139.4807679,
神奈川県,川崎市,132,麻生区栗平2丁目5番,栗平東公園 南側フェンス,35.6081736,139.4822781,
神奈川県,川崎市,133,麻生区栗木1丁目11番,栗木調整池 北側フェンス,35.6048747,139.4753634,
神奈川県,川崎市,134,麻生区栗木台1丁目8番,栗木台すげ沢公園 北側フェンス,35.6076121,139.4773503,
神奈川県,川崎市,135,麻生区栗木台2丁目11番1号,市上下水道局麻生分室 西側フェンス,35.6101241,139.471884,
神奈川県,川崎市,136,麻生区栗木台5丁目15番1号,栗木台小学校 正門北側フェンス,35.6116527,139.4763866,
神奈川県,川崎市,137,麻生区栗木台5丁目15番1号,栗木台小学校 校庭出入口脇フェンス,35.6116527,139.4763866,
神奈川県,川崎市,138,麻生区岡上1丁目15番,岡上第2公園 北側フェンス (位置情報が見つかりませんでした),35.5834346,139.4868089,
神奈川県,川崎市,139,麻生区岡上3丁目5番,masked,35.5803709,139.4849011,
神奈川県,川崎市,140,麻生区岡上1620番地2,masked,35.5729169,139.4742422,緯度経度は怪しい
神奈川県,川崎市,141,麻生区岡上3丁目15番1号,麻生市民館岡上分館　フェンス,35.580617,139.4826755,
神奈川県,川崎市,142,麻生区岡上5丁目6番,（株）カジノヤ　向側,35.5780499,139.4754428,
神奈川県,川崎市,143,麻生区岡上600番地,masked,35.5801503,139.478408,
神奈川県,川崎市,144,麻生区岡上675番地1,岡上小学校　正門脇フェンス,35.5791302,139.4830729,
神奈川県,川崎市,145,麻生区岡上4丁目4番,鶴川駅周辺自転車等駐車場第2施設　入口フェンス,35.5813617,139.4797346,
神奈川県,川崎市,146,麻生区南黒川4番1号,黒川駅　北口駅前広場,35.6132288,139.4707937,
神奈川県,川崎市,147,麻生区南黒川4番1号,黒川駅　南口,35.6132288,139.4707937,
神奈川県,川崎市,148,麻生区南黒川9番4号,黒川第1調整池　東側フェンス,35.6146193,139.4713103,
神奈川県,川崎市,149,麻生区黒川1番地,汁守神社下 (位置情報が見つかりませんでした),35.6130167,139.4672978,
神奈川県,川崎市,150,麻生区はるひ野1丁目16番,黒川調整池　西側フェンス,35.6186845,139.4677342,
神奈川県,川崎市,151,麻生区はるひ野2丁目12番,柳町いろどり公園　南側植込み,35.617236,139.4657477,
神奈川県,川崎市,152,麻生区はるひ野4丁目8番1号,はるひ野小中学校　正門下植込み,35.6183623,139.4613109,
神奈川県,川崎市,153,麻生区はるひ野5丁目8番1号,はるひ野駅　北口東側,35.6188099,139.4645955,
