prefecture,city,number,address,name,lat,long,note
神奈川県,愛川町,1,半原5805-3,川北住宅入口T字路金網フェンス(国道側),35.5357481,139.2719297,緯度経度は怪しい
神奈川県,愛川町,2,半原5705-イ,山一撚糸㈱金網フェンス,35.5357481,139.2719297,緯度経度は怪しい
神奈川県,愛川町,3,半原6338-7,金亀工業㈱駐車場,35.5467554,139.2646013,
神奈川県,愛川町,4,"半原6376-4,-5",金網フェンス,35.5357481,139.2719297,緯度経度は怪しい
神奈川県,愛川町,5,半原6377-2,nan,35.5357481,139.2719297,緯度経度は怪しい
神奈川県,愛川町,6,半原4343-3,半原公民館前（ラビンプラザ）鉄柵,35.5453191,139.2675791,
神奈川県,愛川町,7,半原4585-3,半原水源地東側法面,35.54210279999999,139.2651543,
神奈川県,愛川町,8,半原4617,和平児童遊園地フェンス,35.54238180000001,139.2674274,
神奈川県,愛川町,9,半原4122,半原4109番地付近横フェンス,35.5357481,139.2719297,緯度経度は怪しい
神奈川県,愛川町,10,半原2201,半原小学校外周道路金網フェンス,35.5398577,139.2729097,
神奈川県,愛川町,11,半原1947-3,愛川町森林組合フェンス,35.5357481,139.2719297,緯度経度は怪しい
神奈川県,愛川町,12,半原2100-1,三平電気前空地,35.5357481,139.2719297,緯度経度は怪しい
神奈川県,愛川町,13,半原2592-1,市之田児童遊園地金網フェンス,35.5357481,139.2719297,緯度経度は怪しい
神奈川県,愛川町,14,半原2400,木藤敏夫宅フェンス,35.535817,139.2724661,
神奈川県,愛川町,15,半原2462-1,たからやのはす向かい空地,35.5357481,139.2719297,緯度経度は怪しい
神奈川県,愛川町,16,"半原2893-3,-5",愛川リラーパーク北側法面,35.5357481,139.2719297,緯度経度は怪しい
神奈川県,愛川町,17,半原1838-1,半原下新久公園広場前空地,35.5357481,139.2719297,緯度経度は怪しい
神奈川県,愛川町,18,半原416-1,大貫繊維資材置場前空地,35.5357481,139.2719297,緯度経度は怪しい
神奈川県,愛川町,19,半原1613,消防署半原分署横公園フェンス,35.5357481,139.2719297,緯度経度は怪しい
神奈川県,愛川町,20,半原1460-1,成瀬芳子宅横畑地,35.5357481,139.2719297,緯度経度は怪しい
神奈川県,愛川町,21,半原481-1,細野児童遊園地前空地,35.5357481,139.2719297,緯度経度は怪しい
神奈川県,愛川町,22,半原77-6,馬渡坂緑地帯空地,35.5357481,139.2719297,緯度経度は怪しい
神奈川県,愛川町,23,半原1784,和田 明宅前空地,35.5353788,139.2798765,
神奈川県,愛川町,24,半原105-8,旧半原出張所前鉄柵,35.5328974,139.2848245,
神奈川県,愛川町,25,田代653-2,小島政義宅前フェンス,35.5276583,139.2887277,緯度経度は怪しい
神奈川県,愛川町,26,田代1395,愛川中学校前土手,35.5327049,139.287527,緯度経度は怪しい
神奈川県,愛川町,27,田代1700,田代運動公園駐車場前空地,35.5253539,139.2872094,
神奈川県,愛川町,28,田代284-1,中陽堂前空地,35.5276583,139.2887277,緯度経度は怪しい
神奈川県,愛川町,29,田代116-1,池松衣子宅アルミフェンス,35.5266443,139.2948577,
神奈川県,愛川町,30,田代1824-12,平山大橋先の歩道柵,35.5236337,139.2924797,
神奈川県,愛川町,31,田代2071-4,木村商店脇フェンス,35.5211896,139.2920594,緯度経度は怪しい
神奈川県,愛川町,32,角田4231-2,海底公民館前フェンス,35.5238156,139.2996502,緯度経度は怪しい
神奈川県,愛川町,33,角田2547-1,角田バス停横鉄柵,35.5302064,139.3191351,緯度経度は怪しい
神奈川県,愛川町,34,角田1531-1,成井清子宅石塀,35.5307887,139.3100906,
神奈川県,愛川町,35,三増1431-1,中央養鶏前バス停横空地,35.5445945,139.2968186,緯度経度は怪しい
神奈川県,愛川町,36,三増1880,三増公園入口空地,35.5445945,139.2968186,
神奈川県,愛川町,37,三増1657,美化プラント入口金網フェンス,35.5445945,139.2968186,
神奈川県,愛川町,38,三増709,平本　茂宅ブロック塀,35.5381256,139.3054843,
神奈川県,愛川町,39,三増767,高峰小学校フェンス,35.5348377,139.3118695,
神奈川県,愛川町,40,角田1320-1,箕輪辻信号際空地,35.5302064,139.3191351,
神奈川県,愛川町,41,角田3175,下箕輪農村公園フェンス,35.5272003,139.3190225,
神奈川県,愛川町,42,角田251-1,役場庁舎前空地,35.5288212,139.3217516,
神奈川県,愛川町,43,角田26,京田英男所有建物石塀,35.5262729,139.323221,
神奈川県,愛川町,44,角田426-1,ＡＧＣ相模工場西門西側フェンス,35.5303796,139.3274861,
神奈川県,愛川町,45,角田909,小沢バス停横鉄柵,35.5302064,139.3191351,緯度経度は怪しい
神奈川県,愛川町,46,角田642-1,小沢公民館入口アルミフェンス,35.5368152,139.3328468,緯度経度は怪しい
神奈川県,愛川町,47,春日台5-6-1,春日台第6公園金網フェンス,35.5271315,139.3284939,
神奈川県,愛川町,48,春日台3-21,春日台第5公園金網フェンス,35.5257018,139.3311496,
神奈川県,愛川町,49,春日台2-14,春日台第3公園金網フェンス,35.5254031,139.3286196,
神奈川県,愛川町,50,春日台2-9-1,中津第二小学校金網フェンス,35.5237836,139.3296346,
神奈川県,愛川町,51,春日台2-1-1,春日台第2公園金網フェンス,35.5226884,139.3314081,
神奈川県,愛川町,52,春日台1-7,春日台第1公園金網フェンス,35.5235821,139.3345449,
神奈川県,愛川町,53,春日台3-3-5,春日台第4公園金網フェンス,35.5251677,139.3339918,
神奈川県,愛川町,54,中津 1817-22,公園（大塚前ミニ児童遊園地）フェンス,35.5272914,139.3335324,
神奈川県,愛川町,55,中津 1855-3,大塚児童館前フェンス,35.5288888,139.333584,
神奈川県,愛川町,56,中津 1968,大塚中児童遊園地横空地,35.5300246,139.3352505,緯度経度は怪しい
神奈川県,愛川町,57,中津 2021-1,今井 徹宅横畑地,35.5070499,139.3439928,緯度経度は怪しい
神奈川県,愛川町,58,中津 2760-1,中津 2760 番地駐車場(信号角),35.5070499,139.3439928,緯度経度は怪しい
神奈川県,愛川町,59,中津 2718-12,上六倉児童遊園地金網塀,35.5251457,139.3465675,
神奈川県,愛川町,60,中津 2393-1,鈴木宏昌宅前畑地,35.5293485,139.3453789,緯度経度は怪しい
神奈川県,愛川町,61,中津 2108-2,諏訪住宅児童遊園地フェンス,35.5248292,139.3398175,
神奈川県,愛川町,62,中津 88-5,北原公園前フェンス,35.5190428,139.3390857,緯度経度は怪しい
神奈川県,愛川町,63,中津 1400,愛川東中学校金網塀,35.5233775,139.3276851,
神奈川県,愛川町,64,中津 159,関戸晴美宅ブロック塀,35.5208432,139.3289404,
神奈川県,愛川町,65,中津 323-2,戸田課世美宅ブロック塀,35.5192722,139.3311161,
神奈川県,愛川町,66,中津 461-1,上熊坂青少年広場金網塀,35.5169016,139.3292233,
神奈川県,愛川町,67,中津 250-1,天幸総建倉庫のフェンス,35.5188858,139.3330764,
神奈川県,愛川町,68,中津 1109-2,菅原小学校校門東側フェンス,35.5067648,139.3440845,緯度経度は怪しい
神奈川県,愛川町,69,中津 795-5,愛中木材向い側駐車場,35.5165535,139.3351839,
神奈川県,愛川町,70,中津 778-6,中津郵便局金網塀,35.5159647,139.33467,
神奈川県,愛川町,71,中津 745-1,旧中津出張所駐車場フェンス,35.514026,139.3368145,
神奈川県,愛川町,72,中津 544,中津小学校金網塀,35.5119941,139.3333846,
神奈川県,愛川町,73,中津 6168,宮下酒店前空地,35.5190428,139.3390857,緯度経度は怪しい
神奈川県,愛川町,74,中津 6242-1,馬場 朗宅横畑地,35.5070499,139.3439928,緯度経度は怪しい
神奈川県,愛川町,75,棚沢 1048-3,八菅橋観光トイレフェンス,35.5065114,139.3442399,緯度経度は怪しい
神奈川県,愛川町,76,中津 3709-1,内野敏彦宅ブロック塀,35.50898000000001,139.3332634,
神奈川県,愛川町,77,中津 3731-1,トヨタレンタリース駐車場柵,35.5093443,139.335517,緯度経度は怪しい
神奈川県,愛川町,78,中津 3866-1,中村宅ブロック塀,35.5076058,139.335495,
神奈川県,愛川町,79,中津 5679-2,大野文男宅鉄柵,35.505682,139.3383259,
神奈川県,愛川町,80,中津 3887,前川秀則宅横畑地,35.5190428,139.3390857,緯度経度は怪しい
神奈川県,愛川町,81,中津 5480-1,大野 茂宅ブロック塀,35.5025238,139.3402239,
神奈川県,愛川町,82,中津 5650-4,坂本配水池,35.5038792,139.3406302,緯度経度は怪しい
神奈川県,愛川町,83,中津7453-1,澤村宅ブロック塀,35.506138,139.3404319,緯度経度は怪しい
神奈川県,愛川町,84,中津7294,林孝太郎宅ブロック塀,35.5075773,139.3418692,
神奈川県,愛川町,85,中津4061-20,旧りそな銀行駐車場前の緑地帯,35.5078045,139.3454827,緯度経度は怪しい
神奈川県,愛川町,86,中津7491-1,桜台ちびっこ広場金網フェンス,35.5079198,139.3398107,
神奈川県,愛川町,87,中津7477,熊坂外科内科医院鉄柵,35.5190428,139.3390857,緯度経度は怪しい
神奈川県,愛川町,88,中津4043-1,第１号公園体育館前空地,35.5210913,139.3420046,
神奈川県,愛川町,89,棚沢894-3,（株）Cominixブロック塀,35.51144920000001,139.3385367,緯度経度は怪しい
