prefecture,city,number,address,name,lat,long
神奈川県,横須賀市,1-1,横須賀市追浜町3丁目3番,追浜駅エスカレーター脇フェンス,35.31589935,139.6250035
神奈川県,横須賀市,1-2,横須賀市鷹取1丁目1番,追浜駅湘南病院側入口脇フェンス,35.31580178,139.6246698
神奈川県,横須賀市,1-3,横須賀市鷹取2丁目5番26号,スーパー前河川フェンス,35.31697491,139.6212572
神奈川県,横須賀市,1-4,横須賀市鷹取1丁目24番6号,masked,35.31616258,139.619285
神奈川県,横須賀市,1-5,横須賀市鷹取2丁目16番1号,追浜小学校前フェンス,35.31554166,139.6186618
神奈川県,横須賀市,1-6,横須賀市鷹取2丁目18番,鷹取団地　県営アパートＣ棟入口フェンス,35.31342133,139.6181586
神奈川県,横須賀市,2-1,横須賀市湘南鷹取1丁目1番3号,ヒルサイドたかとり向かい側法地,35.31258783,139.6179783
神奈川県,横須賀市,2-2,横須賀市湘南鷹取1丁目7番,湘南鷹取1丁目公園入口フェンス,35.31114245,139.6181618
神奈川県,横須賀市,2-3,横須賀市湘南鷹取1丁目2番1号,三角公園道路フェンス,35.30984986,139.6172839
神奈川県,横須賀市,2-4,横須賀市湘南鷹取2丁目11番,湘南鷹取二・三丁目自治会館横,35.30541908,139.6203286
神奈川県,横須賀市,2-5,横須賀市湘南鷹取3丁目1番,湘南鷹取3丁目公園公衆電話横フェンス,35.30632512,139.6177974
神奈川県,横須賀市,2-6,横須賀市湘南鷹取4丁目6番,鷹取小学校前歩行者広場ガードフェンス,35.30818676,139.6154421
神奈川県,横須賀市,2-7,横須賀市湘南鷹取5丁目45番,湘南鷹取台マンションL-N棟間前石垣,35.31305016,139.6121811
神奈川県,横須賀市,2-8,横須賀市湘南鷹取6丁目10番,湘南鷹取6丁目公園（西側）,35.31622812,139.6148029
神奈川県,横須賀市,2-9,横須賀市湘南鷹取5丁目20番,湘南鷹取5丁目第2公園たかとりプールバス停側木柵,35.3129493,139.6171199
神奈川県,横須賀市,2-10,横須賀市湘南鷹取6丁目10番,湘南鷹取6丁目公園,35.31642957,139.6153929
神奈川県,横須賀市,3-1,横須賀市追浜本町1丁目28番地,サンビーチ追浜駅前歩道橋フェンス,35.31627636,139.6258606
神奈川県,横須賀市,3-2,横須賀市追浜本町2丁目1番地1,天神橋欄干,35.31732371,139.6300496
神奈川県,横須賀市,3-3,横須賀市追浜本町1丁目119番地,masked,35.31742455,139.6295205
神奈川県,横須賀市,3-4,横須賀市追浜本町2丁目1番地,市立追浜保育園生け垣,35.31930443,139.6294182
神奈川県,横須賀市,3-5,横須賀市追浜本町2丁目29番地,追浜本町公園フェンス,35.32100865,139.6304836
神奈川県,横須賀市,3-6,横須賀市夏島町1番地,日産自動車㈱総合研究所前水路フェンス,35.31683868,139.6395052
神奈川県,横須賀市,3-7,横須賀市夏島町2番地,追浜公園第1野球場　外野フェンス,35.31702805,139.6361496
神奈川県,横須賀市,3-8,横須賀市浦郷町4丁目35番地,夏島小学校校門脇植込,35.31696792,139.634386
神奈川県,横須賀市,3-9,横須賀市夏島町2番地,横須賀スタジアム駐車場フェンス,35.31783786,139.6340386
神奈川県,横須賀市,3-10,横須賀市夏島町9番地,追浜行政センター前フェンス,35.31842568,139.6315966
神奈川県,横須賀市,3-11,横須賀市追浜本町2丁目14番地,神応橋欄干,35.3176109,139.6306876
神奈川県,横須賀市,3-12,横須賀市夏島町9番地,追浜行政センター駐車場　北図書館側フェンス,35.31845879,139.6322084
神奈川県,横須賀市,4-1,横須賀市浦郷町1丁目74番地,日向隧道浦郷町側出入口手前ガードフェンス,35.30560075,139.6356417
神奈川県,横須賀市,4-2,横須賀市浦郷町1丁目22番地,市営日向アパート向かい側防護柵,35.30720652,139.6369455
神奈川県,横須賀市,4-3,横須賀市浦郷町2丁目71番地,榎戸町内会館入口浦郷公園フェンス,35.30867432,139.6362353
神奈川県,横須賀市,4-4,横須賀市浦郷町3丁目19番地,masked,35.31201939,139.6354964
神奈川県,横須賀市,4-5,横須賀市浦郷町3丁目41番地,深浦トンネル入口がけ防護柵,35.31396672,139.6339461
神奈川県,横須賀市,4-6,横須賀市浦郷町5丁目2931番地,追浜浄化センター入口横道路沿い(貝山緑地),35.31279257,139.6416151
神奈川県,横須賀市,4-7,横須賀市浦郷町5丁目2931番地,㈱金沢紙業向かい側フェンス,35.31166965,139.6372753
神奈川県,横須賀市,5-1,横須賀市浜見台1丁目4番,旧トヨタ自動車東日本㈱横須賀研修所脇道路フェンス,35.30988865,139.6266317
神奈川県,横須賀市,5-2,横須賀市追浜東町2丁目13番地,浦郷小学校正門脇フェンス,35.31220913,139.6296815
神奈川県,横須賀市,5-3,横須賀市追浜東町1丁目28番地,追浜東町1丁目公園東側,35.30918736,139.6301037
神奈川県,横須賀市,5-4,横須賀市追浜東町1丁目31番地,湘南福祉協会追浜ケアセンター前道路フェンス,35.30848473,139.6311437
神奈川県,横須賀市,5-5,横須賀市追浜東町1丁目28番地,追浜東町1丁目第3公園フェンス,35.30802339,139.6288443
神奈川県,横須賀市,5-6,横須賀市浜見台1丁目14番1号,湘南浜見台スカイハイツ前道路フェンス,35.30899714,139.627265
神奈川県,横須賀市,6-1,横須賀市追浜町1丁目31番地,首斬観音前フェンス,35.31026217,139.6234229
神奈川県,横須賀市,6-2,横須賀市追浜南町2丁目21番地,追浜南町協力会会館前路上,35.31144886,139.62413
神奈川県,横須賀市,6-3,横須賀市追浜町1丁目40番地,追浜1丁目公園フェンス,35.30956253,139.6243888
神奈川県,横須賀市,6-4,横須賀市追浜町1丁目53番地,masked,35.30822213,139.6267611
神奈川県,横須賀市,6-5,横須賀市追浜町1丁目60番地,北郷公園フェンス,35.30761892,139.6254612
神奈川県,横須賀市,6-6,横須賀市追浜町1丁目65番地,追浜町1丁目親和会館前ガードレール,35.30774321,139.6244569
神奈川県,横須賀市,6-7,横須賀市追浜南町3丁目39番地,ルミエール追浜Ⅰ前ガードレール,35.30866607,139.6199026
神奈川県,横須賀市,7-1,横須賀市船越町1丁目14番地,船越町1丁目公園下コンクリート壁,35.29842179,139.6281721
神奈川県,横須賀市,7-2,横須賀市船越町2丁目71番地,京浜急行ガード下脇擁壁,35.29979328,139.6258268
神奈川県,横須賀市,7-3,横須賀市船越町5丁目8番地,京浜急行ガード手前駐車場コンクリート壁,35.30210783,139.6246496
神奈川県,横須賀市,7-4,横須賀市船越町5丁目34番地,船越小学校正門脇コンクリート壁,35.30058166,139.6264537
神奈川県,横須賀市,7-5,横須賀市船越町5丁目34番地,船越小学校裏門脇,35.30054729,139.6271767
神奈川県,横須賀市,7-6,横須賀市船越町6丁目77番地,田浦行政センターフェンス,35.3010661,139.6291152
神奈川県,横須賀市,7-7,横須賀市船越町7丁目66番地,田浦中学校コインパーキング前石垣,35.30253744,139.6304161
神奈川県,横須賀市,7-8,横須賀市船越町7丁目12番地,船越7丁目公園前ガードレール,35.30326004,139.6304838
神奈川県,横須賀市,7-9,横須賀市船越町8丁目11番地,船越8丁目公園下コンクリート壁,35.30571883,139.6324591
神奈川県,横須賀市,7-10,横須賀市船越町8丁目11番地,船越8丁目公園下コンクリート壁（反対側）,35.306163,139.6323769
神奈川県,横須賀市,8-1,横須賀市港が丘1丁目4番,港が丘公園石垣,35.29518046,139.6303211
神奈川県,横須賀市,8-2,横須賀市田浦町4丁目7番地,田浦公園国道沿緑地,35.2945308,139.6318295
神奈川県,横須賀市,8-3,横須賀市田浦町4丁目13番地,横須賀線脇フェンス,35.29360139,139.6315922
神奈川県,横須賀市,8-4,横須賀市田浦町2丁目72番地,長善寺先河川フェンス,35.28774554,139.6334993
神奈川県,横須賀市,9-1,横須賀市長浦町1丁目1597番地,市立田浦保育園石垣,35.29270084,139.645574
神奈川県,横須賀市,9-2,横須賀市長浦町1丁目20番地,田の浦公園角地（土手）,35.2913656,139.6455454
神奈川県,横須賀市,9-3,横須賀市安針台3番1号,長浦小学校正門脇フェンス,35.28801006,139.6450424
神奈川県,横須賀市,9-4,横須賀市長浦町2丁目45番地,安針塚駅前長浦2丁目公園フェンス,35.28689497,139.6431828
神奈川県,横須賀市,9-5,横須賀市長浦町3丁目119番地,安針塚駅前ガード先のり地,35.28636139,139.6427663
神奈川県,横須賀市,10-1,横須賀市吉倉町1丁目82番地先,吉倉町内会防災倉庫先道路脇,35.28752603,139.646637
神奈川県,横須賀市,10-2,横須賀市吉倉町1丁目104番地,吉倉公園フェンス,35.28782474,139.6488537
神奈川県,横須賀市,10-3,横須賀市吉倉町1丁目2番地,まめやビル前フェンス,35.28718342,139.6489443
神奈川県,横須賀市,10-4,横須賀市吉倉町2丁目48番地,コーポネモト先防災フェンス,35.2843312,139.6450197
神奈川県,横須賀市,10-5,横須賀市吉倉町2丁目16番地,駐輪場手前崖下擁壁,35.28369293,139.6448073
神奈川県,横須賀市,11-1,横須賀市西逸見町1丁目14番地,逸見小学校裏フェンス,35.28322208,139.6491129
神奈川県,横須賀市,11-2,横須賀市西逸見町1丁目38番地,ウエルシティ公園国道16号沿い,35.2838143,139.6521492
神奈川県,横須賀市,11-3,横須賀市西逸見町1丁目35番地,逸見小学校前公園フェンス,35.28323529,139.6509306
神奈川県,横須賀市,11-4,横須賀市西逸見町2丁目70番地,鹿島神社玉垣,35.28222509,139.6510755
神奈川県,横須賀市,11-5,横須賀市西逸見町2丁目5番地先,日神パレステージ逸見前水路フェンス,35.28142823,139.6498869
神奈川県,横須賀市,11-6,横須賀市西逸見町3丁目5番地,防災トンネル入口横擁壁,35.28128661,139.6462876
神奈川県,横須賀市,12-1,横須賀市東逸見町2丁目77番地,逸見駅前ガード壁,35.28088371,139.6521226
神奈川県,横須賀市,12-2,横須賀市東逸見町2丁目29番地,逸見行政センターフェンス,35.28015903,139.6527698
神奈川県,横須賀市,12-3,横須賀市東逸見町2丁目49番地,チビッコ広場フェンス,35.27837094,139.6519785
神奈川県,横須賀市,12-4,横須賀市逸見が丘24番1号,masked,35.27495617,139.6513959
神奈川県,横須賀市,12-5,横須賀市逸見が丘4番,逸見が丘公園脇ガードレール,35.27275889,139.6499932
神奈川県,横須賀市,12-6,横須賀市東逸見町4丁目36番地先,東逸見人道橋欄干,35.27202642,139.646893
神奈川県,横須賀市,12-7,横須賀市東逸見町3丁目35番地,沢山小学校フェンス,35.27487651,139.649865
神奈川県,横須賀市,13-1,横須賀市坂本町1丁目9番地,プランヴェール横須賀汐入駐車場下道路フェンス,35.27443759,139.6579994
神奈川県,横須賀市,13-2,横須賀市坂本町1丁目19番地,桜小学校校門脇フェンス,35.27308876,139.6582996
神奈川県,横須賀市,13-3,横須賀市坂本町1丁目19番地,不入斗中学校正門横植込,35.27267033,139.661454
神奈川県,横須賀市,13-4,横須賀市不入斗町4丁目25番地,はまゆう公園入口石垣,35.27354649,139.664571
神奈川県,横須賀市,13-5,横須賀市不入斗町3丁目77番地,慈眼寺前緑地,35.26972176,139.6629253
神奈川県,横須賀市,13-6,横須賀市坂本町1丁目19番地,不入斗中学校裏門脇石垣,35.27147353,139.6608379
神奈川県,横須賀市,13-7,横須賀市坂本町1丁目19番地,坂本中学校横道路フェンス,35.27107404,139.6574132
神奈川県,横須賀市,13-8,横須賀市坂本町1丁目19番地,坂本中学校前歩道フェンス,35.27204325,139.6575351
神奈川県,横須賀市,13-9,横須賀市坂本町1丁目19番地,坂本交番横道路フェンス,35.27277066,139.6569433
神奈川県,横須賀市,14-1,横須賀市坂本町2丁目8番地,JR駐車場上路上フェンス,35.2748825,139.6577883
神奈川県,横須賀市,14-2,横須賀市坂本町2丁目48番地,旧坂本小学校前路上フェンス,35.27341211,139.6551516
神奈川県,横須賀市,14-3,横須賀市坂本町3丁目9番地,masked,35.27122737,139.6545235
神奈川県,横須賀市,14-4,横須賀市坂本町3丁目20番地39,masked,35.26676954,139.6562497
神奈川県,横須賀市,14-5,横須賀市坂本町3丁目43番地,中村米酒店横フェンス,35.2711373,139.6528698
神奈川県,横須賀市,14-6,横須賀市坂本町6丁目35番地,新池上隧道入口脇石積,35.2689747,139.6487087
神奈川県,横須賀市,14-7,横須賀市坂本町4丁目21番地先,市道フェンス,35.27320426,139.6529763
神奈川県,横須賀市,15-1,横須賀市汐入町1丁目19番地,㈲横須賀モータース裏側駐車場石垣,35.2828248,139.6573965
神奈川県,横須賀市,15-2,横須賀市汐入町1丁目7番地,上下水道局汐入ポンプ場フェンス,35.28289699,139.6605187
神奈川県,横須賀市,15-3,横須賀市汐入町2丁目3番地,汐入駅第1自転車等駐車場フェンス,35.28121685,139.6614928
神奈川県,横須賀市,15-4,横須賀市汐入町2丁目53番地,汐入小学校裏門脇フェンス,35.27966133,139.664102
神奈川県,横須賀市,15-5,横須賀市汐入町4丁目54番地,子之神社入口横,35.27784419,139.6610121
神奈川県,横須賀市,15-6,横須賀市汐入町4丁目45番地,宮元駐車場フェンス,35.27570988,139.6577607
神奈川県,横須賀市,15-7,横須賀市汐入町5丁目37番地,汐入一号隧道入口手前コンクリート擁壁,35.28092138,139.6568064
神奈川県,横須賀市,16-1,横須賀市新港町6番地,よこすかポートマーケット駐車場(交差点付近),35.28284906,139.6741309
神奈川県,横須賀市,16-2,横須賀市小川町18番地,常葉中学校校門脇植込,35.28139325,139.6741979
神奈川県,横須賀市,16-3,横須賀市日の出町1丁目4番地7,県鎌倉三浦地域児童相談所石垣,35.28028737,139.6759157
神奈川県,横須賀市,16-4,横須賀市日の出町2丁目7番地,ライオンズマンション横須賀マリンステージ向かい側植込,35.27865732,139.6783675
神奈川県,横須賀市,16-5,横須賀市日の出町2丁目16番地,日の出ポンプ場入口脇フェンス,35.27674629,139.6782992
神奈川県,横須賀市,16-6,横須賀市日の出町2丁目9番地19,県合同庁舎前歩道,35.27740396,139.6773104
神奈川県,横須賀市,16-7,横須賀市若松町3丁目20番地,市立児童図書館入口脇植込,35.2777714,139.6708861
神奈川県,横須賀市,16-8,横須賀市若松町3丁目2番地,NTT東日本別館裏フェンス,35.2790558,139.6736204
神奈川県,横須賀市,16-9,横須賀市若松町1丁目21番地,東京ガス㈱駐車場コンクリート塀,35.27959104,139.6731929
神奈川県,横須賀市,16-10,横須賀市小川町18番地,常葉中学校校門脇フェンス,35.28159678,139.6725565
神奈川県,横須賀市,16-11,横須賀市小川町21番地,横須賀市上下水道局駐車場フェンス,35.28325605,139.6714809
神奈川県,横須賀市,16-12,横須賀市小川町16番地,はぐくみかんフェンス,35.28286523,139.6728649
神奈川県,横須賀市,17-1,横須賀市平成町1丁目5番地,平成緑道緑地入口,35.2709756,139.6836714
神奈川県,横須賀市,17-2,横須賀市平成町1丁目5番地,平成緑道緑地横植込,35.27034026,139.6828631
神奈川県,横須賀市,17-3,横須賀市平成町1丁目10番地1,神奈川県立保健福祉大学グラウンド側植込,35.27259943,139.680924
神奈川県,横須賀市,17-4,横須賀市平成町1丁目10番地1,神奈川県立保健福祉大学安浦2丁目公園側植込,35.2725696,139.6800691
神奈川県,横須賀市,17-5,横須賀市平成町2丁目14番地4,横須賀商工会議所前フェンス,35.27499367,139.680809
神奈川県,横須賀市,17-6,横須賀市平成町2丁目14番地5,よこすか海岸通りホームズ前,35.27563875,139.6822608
神奈川県,横須賀市,17-7,横須賀市平成町3丁目11番地,エイビイ平成町店前港湾施設フェンス,35.27260395,139.6848487
神奈川県,横須賀市,18-1,横須賀市米が浜通2丁目15番地,中央消防署前フェンス,35.27648692,139.6763233
神奈川県,横須賀市,18-2,横須賀市米が浜通2丁目12番地,田戸小学校裏門脇フェンス,35.2749477,139.675264
神奈川県,横須賀市,18-3,横須賀市米が浜通2丁目12番地,田戸小学校校門脇フェンス,35.27400986,139.6752042
神奈川県,横須賀市,18-4,横須賀市安浦町1丁目20番地,聖徳寺坂下菊池材木店前擁壁,35.27235441,139.6752955
神奈川県,横須賀市,18-5,横須賀市安浦町2丁目14番地,ホテルサガミイン前擁壁,35.2723095,139.6754199
神奈川県,横須賀市,18-6,横須賀市安浦町2丁目1番地,安浦公園国道側フェンス,35.2724864,139.6772509
神奈川県,横須賀市,18-7,横須賀市安浦町2丁目33番地,安浦2丁目公園フェンス,35.2719867,139.6798325
神奈川県,横須賀市,18-8,横須賀市安浦町2丁目10番地,安浦神社玉垣,35.27165726,139.6784419
神奈川県,横須賀市,18-9,横須賀市安浦町2丁目28番地2,ファミリーマート前県立大学駅擁壁,35.2699965,139.6771409
神奈川県,横須賀市,18-10,横須賀市米が浜通2丁目15番地,中央消防署裏側鉄柵フェンス,35.27616279,139.6760617
神奈川県,横須賀市,19-1,横須賀市三春町2丁目1番地,三春公園フェンス,35.26862775,139.6849318
神奈川県,横須賀市,19-2,横須賀市三春町2丁目1番地,下町浄化センターフェンス（とんぼの王国側）,35.26918663,139.6861804
神奈川県,横須賀市,19-3,横須賀市三春町2丁目1番地,下町浄化センター海側路上,35.26786665,139.6884882
神奈川県,横須賀市,19-4,横須賀市三春町2丁目1番地,下町浄化センターブックオフ側フェンス,35.26716232,139.6886801
神奈川県,横須賀市,19-5,横須賀市三春町3丁目23番地,市立堀ノ内駅自転車等駐車場フェンス,35.26312789,139.6878744
神奈川県,横須賀市,19-6,横須賀市三春町2丁目30番地,㈱東産業フェンス,35.26614282,139.6857851
神奈川県,横須賀市,19-7,横須賀市三春町2丁目12番地,三春コミュニティセンター旧道側外柵,35.26684951,139.6854631
神奈川県,横須賀市,19-8,横須賀市三春町2丁目12番地,三春コミュニティセンター国道側外柵,35.26705039,139.6857933
神奈川県,横須賀市,19-9,横須賀市三春町2丁目1番地,下町浄化センター前路上,35.26722632,139.6871813
神奈川県,横須賀市,20-1,横須賀市三春町5丁目9番地,三春町5丁目第2公園石垣,35.26159154,139.6853872
神奈川県,横須賀市,20-2,横須賀市三春町5丁目45番地,三輪歯科医院向かい側歩道フェンス,35.26116993,139.6863434
神奈川県,横須賀市,20-3,横須賀市三春町5丁目94番地,坂道脇道路フェンス,35.26012704,139.6841161
神奈川県,横須賀市,20-4,横須賀市三春町5丁目58番地,市営金堀アパートB棟前フェンス,35.25883436,139.6841723
神奈川県,横須賀市,20-5,横須賀市三春町5丁目81番地,サンノーマンション横道路フェンス,35.2597567,139.6821316
神奈川県,横須賀市,20-6,横須賀市三春町6丁目4番地,山崎小学校裏門横道路フェンス,35.26520762,139.6825288
神奈川県,横須賀市,20-7,横須賀市三春町6丁目4番地,山崎小学校正門脇石垣,35.26593366,139.6822598
神奈川県,横須賀市,21-1,横須賀市上町1丁目9番地,中里神社石垣,35.27718212,139.6695372
神奈川県,横須賀市,21-2,横須賀市上町1丁目61番地,読書公園東側下歩道フェンス,35.27518485,139.6684962
神奈川県,横須賀市,21-3,横須賀市上町2丁目24番地,市立中央図書館向かい側読書公園フェンス,35.27466246,139.6679593
神奈川県,横須賀市,21-4,横須賀市上町2丁目36番地,うわまち病院フェンス,35.27249686,139.6682241
神奈川県,横須賀市,21-5,横須賀市上町3丁目57番地,ヘアーサロン裏宇東川緑道フェンス,35.26736279,139.6684492
神奈川県,横須賀市,22-1,横須賀市富士見町1丁目49番地,富士見会館回収資源庫脇,35.26769613,139.6781211
神奈川県,横須賀市,22-2,横須賀市富士見町2丁目12番地,駐車場裏市道フェンス,35.26455616,139.6764373
神奈川県,横須賀市,22-3,横須賀市富士見町2丁目25番地,市道フェンス,35.26705388,139.6753485
神奈川県,横須賀市,22-4,横須賀市田戸台88番地,道見木坂歩道フェンス,35.26886888,139.6765717
神奈川県,横須賀市,23-1,横須賀市田戸台22番地21,聖徳寺前道路フェンス,35.2718474,139.6738836
神奈川県,横須賀市,23-2,横須賀市田戸台36番地,旧医師会医療教育センター前道路フェンス,35.27072752,139.6722983
神奈川県,横須賀市,23-3,横須賀市上町3丁目21番地,豊島小学校正門右擁壁,35.27097915,139.6698371
神奈川県,横須賀市,23-4,横須賀市深田台73番地,佐野ビル前坂下ガードフェンス,35.27235026,139.6720158
神奈川県,横須賀市,23-5,横須賀市深田台75番地,道路フェンス,35.27326555,139.6711885
神奈川県,横須賀市,23-6,横須賀市深田台26番地,㈲堀越地所前道路フェンス,35.27519548,139.6721052
神奈川県,横須賀市,24-1,横須賀市上町3丁目33番地,上町3丁目公園フェンス,35.26939308,139.6707787
神奈川県,横須賀市,24-2,横須賀市不入斗町1丁目1番地,鶴久保小学校裏門脇植込,35.26747258,139.6679209
神奈川県,横須賀市,24-3,横須賀市佐野町2丁目35番地,旧陽光小学校下道路フェンス,35.26658703,139.6660308
神奈川県,横須賀市,24-4,横須賀市不入斗町1丁目2番地,横須賀アリーナレストラン横フェンス,35.26655886,139.6641834
神奈川県,横須賀市,24-5,横須賀市不入斗町1丁目1番地,鶴久保小学校体育館側植込,35.26877818,139.6668428
神奈川県,横須賀市,24-6,横須賀市鶴が丘2丁目15番4号,鶴が丘2丁目バス停横公園フェンス,35.26782826,139.6584122
神奈川県,横須賀市,24-7,横須賀市鶴が丘1丁目4番,masked,35.26732941,139.6605487
神奈川県,横須賀市,24-8,横須賀市富士見町3丁目69番地,坂口理容店向かい側防護フェンス,35.2670566,139.6730959
神奈川県,横須賀市,24-9,横須賀市佐野町1丁目34番地,宇東川公園西側フェンス,35.26565256,139.6696187
神奈川県,横須賀市,27-1,横須賀市汐見台3丁目15番,汐見台公園入口左側石垣,35.26371427,139.6637727
神奈川県,横須賀市,27-2,横須賀市汐見台3丁目12番,汐見台駐在所前駐車場,35.26172745,139.663856
神奈川県,横須賀市,27-3,横須賀市汐見台1丁目3番,大明寺団地　県営大明寺アパート3号棟前ブロック塀,35.2626536,139.6603077
神奈川県,横須賀市,27-4,横須賀市平和台3番,ビレッジハウス不入斗入口脇石垣,35.26472532,139.6610294
神奈川県,横須賀市,28-1,横須賀市佐野町3丁目4番地先,山下タクシー車庫前宇東川緑道植込,35.26482328,139.6697182
神奈川県,横須賀市,28-2,横須賀市佐野町3丁目6番地,アビタシオンＳＴ前宇東川緑道植込,35.2637501,139.670032
神奈川県,横須賀市,28-3,横須賀市佐野町5丁目7番地,佐野保育園裏口脇フェンス,35.26054046,139.670032
神奈川県,横須賀市,28-4,横須賀市佐野町5丁目14番地,宇東川緑道植込み,35.25901437,139.6684643
神奈川県,横須賀市,28-5,横須賀市佐野町5丁目21番地,メゾンプリムラ裏宇東川緑道植込,35.25958813,139.6691276
神奈川県,横須賀市,29-1,横須賀市公郷町5丁目32番地,公郷トンネルバス停横土手,35.2610947,139.6790639
神奈川県,横須賀市,29-2,横須賀市公郷町5丁目111番地,公郷第5公園入口脇フェンス,35.25815804,139.6792282
神奈川県,横須賀市,29-3,横須賀市根岸町4丁目15番地,根岸第2公園入口脇フェンス,35.25481609,139.6792465
神奈川県,横須賀市,29-4,横須賀市根岸町3丁目17番地,市営プール金網,35.25370601,139.6823538
神奈川県,横須賀市,29-5,横須賀市根岸町3丁目17番地,生花店斜め前交通公園フェンス,35.25174461,139.6824488
神奈川県,横須賀市,29-6,横須賀市根岸町3丁目7番11号,森崎人道橋付近平作川フェンス,35.24909691,139.6834684
神奈川県,横須賀市,29-7,横須賀市森崎1丁目7番,森崎公園フェンス,35.24946078,139.6827068
神奈川県,横須賀市,29-8,横須賀市森崎1丁目1番25号,五郎橋脇平作川フェンス,35.251728,139.6783693
神奈川県,横須賀市,30-1,横須賀市公郷町1丁目26番地4,旧資源循環第2事務所脇フェンス,35.25144142,139.6746674
神奈川県,横須賀市,30-2,横須賀市公郷町1丁目56番地5,神奈川県横須賀土木事務所入口脇フェンス,35.2534385,139.6744238
神奈川県,横須賀市,30-3,横須賀市公郷町2丁目11番地,衣笠行政センター前植込,35.25591768,139.6661318
神奈川県,横須賀市,30-4,横須賀市公郷町1丁目15番地13,公郷第４公園フェンス,35.25540153,139.6718907
神奈川県,横須賀市,30-5,横須賀市公郷町6丁目20番地,公郷6丁目公園広報掲示板横フェンス,35.26060126,139.6775164
神奈川県,横須賀市,30-6,横須賀市公郷町4丁目65番地,公郷4丁目公園擁壁（自転車保管場側）,35.25716416,139.6754121
神奈川県,横須賀市,30-7,横須賀市公郷町4丁目5番地,公郷小学校入口脇植込,35.25607625,139.6758502
神奈川県,横須賀市,30-8,横須賀市公郷町4丁目10番地,県立横須賀工業高校正門脇フェンス,35.25547982,139.6776341
神奈川県,横須賀市,30-9,横須賀市公郷町4丁目10番地,県立横須賀工業高校五郎橋バス停側フェンス,35.25312937,139.6771053
神奈川県,横須賀市,31-1,横須賀市衣笠栄町2丁目56番地先,衣笠栄町二丁目公園フェンス,35.26032045,139.662417
神奈川県,横須賀市,31-2,横須賀市衣笠栄町1丁目47番地,はまゆう会館ブロック塀,35.25903225,139.6632103
神奈川県,横須賀市,31-3,横須賀市小矢部1丁目5番11号,指圧治療院前平作川フェンス,35.25468353,139.6683376
神奈川県,横須賀市,31-4,横須賀市小矢部1丁目39番,小矢部1丁目第2公園前道路フェンス,35.25179857,139.6702643
神奈川県,横須賀市,31-5,横須賀市小矢部3丁目3番5号,水道局衣笠ポンプ場向かい側フェンス,35.25091775,139.6652982
神奈川県,横須賀市,31-6,横須賀市小矢部2丁目9番2号,小矢部1丁目信号前土手,35.25269514,139.6655145
神奈川県,横須賀市,31-7,横須賀市小矢部2丁目16番1号,衣笠小学校プール横フェンス,35.254809,139.6643482
神奈川県,横須賀市,31-8,横須賀市小矢部2丁目16番1号,衣笠小学校正門入口脇フェンス,35.25547088,139.6636724
神奈川県,横須賀市,33-1,横須賀市池上1丁目7番,池上一丁目公園コンクリート壁,35.26823464,139.6477139
神奈川県,横須賀市,33-2,横須賀市金谷2丁目14番,コモンシティ湘南衣笠前 調整池フェンス,35.26263071,139.653566
神奈川県,横須賀市,33-3,横須賀市平作8丁目1番,板金店前平作川沿フェンス,35.2629584,139.6515281
神奈川県,横須賀市,33-4,横須賀市平作8丁目17番,masked,35.26136258,139.6496722
神奈川県,横須賀市,33-5,横須賀市池上3丁目5番1号,池上小学校正門横植込(池上緑地),35.26042294,139.6468516
神奈川県,横須賀市,33-6,横須賀市池上3丁目5番1号,池上中学校体育館横石垣,35.26195823,139.6480047
神奈川県,横須賀市,33-7,横須賀市池上5丁目6番地,池上公園植込,35.26546262,139.6445525
神奈川県,横須賀市,33-8,横須賀市池上6丁目2番2号,masked,35.26666816,139.6414934
神奈川県,横須賀市,34-1,横須賀市阿部倉31番10号,阿部倉町内会館前フェンス,35.26008371,139.6370384
神奈川県,横須賀市,34-2,横須賀市阿部倉18番1号,しょうぶ園入口脇フェンス,35.25716676,139.640849
神奈川県,横須賀市,34-3,横須賀市平作5丁目28番6号,masked,35.25854179,139.6438688
神奈川県,横須賀市,34-4,横須賀市平作5丁目32番,栄地谷公園フェンス,35.25941271,139.6467976
神奈川県,横須賀市,34-5,横須賀市平作5丁目24番1号,商店前道路フェンス（池上小学校裏）,35.25935681,139.6484921
神奈川県,横須賀市,34-6,横須賀市平作5丁目18番,栄地谷遊水池（多目的広場）入口向かい擁壁,35.25653006,139.645546
神奈川県,横須賀市,35-1,横須賀市衣笠栄町3丁目1番地,城北小学校入口交差点平作川フェンス,35.25879477,139.6596912
神奈川県,横須賀市,35-2,横須賀市平作1丁目6番,衣笠運動公園フェンス（東側）,35.2573891,139.6580215
神奈川県,横須賀市,35-3,横須賀市平作1丁目6番1号,城北小学校裏門脇フェンス,35.25587541,139.6565358
神奈川県,横須賀市,35-4,横須賀市平作2丁目31番1号,衣笠中学校正門脇擁壁,35.25349404,139.6527786
神奈川県,横須賀市,35-5,横須賀市平作6丁目11番17号,工務店前道路フェンス,35.25331926,139.6503791
神奈川県,横須賀市,35-6,横須賀市平作6丁目6番4号,籠遊水池フェンス,35.25615127,139.6492902
神奈川県,横須賀市,35-7,横須賀市平作1丁目6番1号,城北小学校正門脇フェンス,35.25672521,139.6560559
神奈川県,横須賀市,35-8,横須賀市衣笠栄町4丁目5番地,三浦学苑裏道路フェンス（児童公園向かい）,35.26163991,139.6564794
神奈川県,横須賀市,36-1,横須賀市小矢部3丁目6番6号,自動車店向かい衣笠公園入口横石垣,35.24789122,139.6650003
神奈川県,横須賀市,36-2,横須賀市小矢部3丁目7番,小矢部3丁目公園フェンス,35.24718762,139.6662814
神奈川県,横須賀市,36-3,横須賀市森崎6丁目4番1号,森崎6丁目公園フェンス,35.24916826,139.6729551
神奈川県,横須賀市,36-4,横須賀市森崎5丁目1番,市営森崎アパートT棟前擁壁,35.24576202,139.669796
神奈川県,横須賀市,36-5,横須賀市森崎5丁目15番,森崎5丁目公園擁壁（トンネル側）,35.24525949,139.6672954
神奈川県,横須賀市,36-6,横須賀市衣笠町46番,衣笠インター入口交差点フェンス（県道横須賀三崎線）,35.24180998,139.6625112
神奈川県,横須賀市,36-7,横須賀市小矢部3丁目16番,調整池フェンス,35.24901476,139.6695973
神奈川県,横須賀市,37-1,横須賀市森崎3丁目5番,市営森崎アパート入口脇フェンス（Ｍ棟前）,35.24657489,139.6762281
神奈川県,横須賀市,37-2,横須賀市森崎3丁目5番,市営森崎アパートN棟脇,35.24621709,139.6752438
神奈川県,横須賀市,37-3,横須賀市森崎4丁目19番,森崎4丁目公園柵,35.24801585,139.6733455
神奈川県,横須賀市,37-4,横須賀市森崎4丁目1番36号,資源回収集積所脇フェンス,35.24786824,139.675445
神奈川県,横須賀市,37-5,横須賀市森崎4丁目19番,駐車場入口脇道路フェンス,35.2482738,139.6763458
神奈川県,横須賀市,37-6,横須賀市森崎3丁目8番1号,市立森崎保育園フェンス,35.2463755,139.6778361
神奈川県,横須賀市,37-7,横須賀市森崎3丁目13番1号,森崎小学校グランド入口脇フェンス,35.24512833,139.6782364
神奈川県,横須賀市,38-1,横須賀市大矢部1丁目5番10号,満昌寺石垣,35.24094203,139.6662217
神奈川県,横須賀市,38-2,横須賀市大矢部5丁目18番,腹切松公園フェンス,35.23953195,139.6708887
神奈川県,横須賀市,38-3,横須賀市大矢部2丁目14番,大矢部公園フェンス（西側）,35.24209796,139.6755076
神奈川県,横須賀市,38-4,横須賀市大矢部3丁目26番地,商店前大矢部小学校擁壁,35.23915539,139.6759109
神奈川県,横須賀市,38-5,横須賀市大矢部3丁目31番4号,大矢部小学校左側リーベ高部前道路フェンス,35.23841242,139.6748066
神奈川県,横須賀市,38-6,横須賀市大矢部3丁目33番地,大矢部3丁目公園東側石垣,35.23644422,139.6756309
神奈川県,横須賀市,39-1,横須賀市根岸町2丁目29番,北久里浜駅前駐輪場フェンス,35.24975469,139.6860375
神奈川県,横須賀市,39-2,横須賀市根岸町1丁目8番,根岸第4公園フェンス,35.25123353,139.68636
神奈川県,横須賀市,39-3,横須賀市大津町5丁目5番1号,根岸小学校裏門脇フェンス,35.25609078,139.6861093
神奈川県,横須賀市,39-4,横須賀市大津町5丁目5番1号,根岸小学校正門脇歩道橋下フェンス,35.25620125,139.6871797
神奈川県,横須賀市,39-5,横須賀市大津町4丁目7番,京急新大津駅フェンス,35.25674045,139.6897843
神奈川県,横須賀市,39-6,横須賀市大津町5丁目4番1号,大津公園入口横フェンス,35.25829358,139.6899787
神奈川県,横須賀市,39-7,横須賀市大津町5丁目2番1号,大津中学校北側外柵,35.2604959,139.6916095
神奈川県,横須賀市,40-1,横須賀市大津町1丁目21番1号,大津シーハイツK棟脇駐車場フェンス,35.26337179,139.6943683
神奈川県,横須賀市,40-2,横須賀市大津町3丁目34番40号,大津行政センターブロック塀,35.26020392,139.6970614
神奈川県,横須賀市,40-3,横須賀市大津町3丁目24番1号,大津小学校正門脇フェンス,35.25929697,139.6943085
神奈川県,横須賀市,40-4,横須賀市大津町4丁目22番22号,大津諏訪神社玉垣,35.25754837,139.6921309
神奈川県,横須賀市,40-5,横須賀市大津町4丁目17番1号,県立横須賀大津高校正門脇フェンス,35.25909799,139.691177
神奈川県,横須賀市,40-6,横須賀市大津町3丁目24番1号,大津小学校裏門脇フェンス,35.25967535,139.6931004
神奈川県,横須賀市,40-7,横須賀市大津町1丁目21番1号,大津シーハイツJ棟脇フェンス,35.26273486,139.6959674
神奈川県,横須賀市,41-1,横須賀市池田町1丁目1番,池田町1丁目公園植込み,35.25319985,139.6933738
神奈川県,横須賀市,41-2,横須賀市池田町1丁目11番先,よこすか四季の街パークヒルズ裏路上,35.25346006,139.6945969
神奈川県,横須賀市,41-3,横須賀市池田町3丁目9番,池田町3丁目公園フェンス,35.2501883,139.6953067
神奈川県,横須賀市,41-4,横須賀市池田町2丁目16番,市道コンクリート塀（池田3丁目公園裏側）,35.2502179,139.694621
神奈川県,横須賀市,41-5,横須賀市池田町2丁目13番,池田公園フェンス,35.24932887,139.6938932
神奈川県,横須賀市,41-6,横須賀市池田町2丁目4番,池田諏の宮公園植込み,35.24601712,139.6921351
神奈川県,横須賀市,41-7,横須賀市池田町6丁目35番,池田第4公園フェンス,35.24774894,139.6895158
神奈川県,横須賀市,41-8,横須賀市池田町6丁目38番,池田第3公園フェンス,35.24861016,139.6902603
神奈川県,横須賀市,42-1,横須賀市馬堀海岸1丁目30番1号,馬堀ポンプ場フェンス,35.26235998,139.7009296
神奈川県,横須賀市,42-2,横須賀市馬堀海岸1丁目30番,馬堀海岸1丁目公園フェンス,35.26203944,139.7025923
神奈川県,横須賀市,42-3,横須賀市馬堀海岸2丁目39番,馬堀海岸公園フェンス,35.2627248,139.7058853
神奈川県,横須賀市,42-4,横須賀市馬堀海岸2丁目27番,馬堀海岸2丁目第2公園フェンス,35.26066542,139.7058348
神奈川県,横須賀市,42-5,横須賀市馬堀町2丁目13番,矢の津公園フェンス,35.25859535,139.7058234
神奈川県,横須賀市,42-6,横須賀市馬堀町2丁目7番17号,㈲サンショウ建装向かい側路上（ガード下）,35.25950724,139.7043752
神奈川県,横須賀市,42-7,横須賀市馬堀海岸2丁目24番,馬堀海岸2丁目公園フェンス,35.26099887,139.7038086
神奈川県,横須賀市,43-1,横須賀市馬堀町3丁目2番21号,馬堀海岸駅駐輪場内フェンス,35.25962522,139.7091827
神奈川県,横須賀市,43-2,横須賀市馬堀海岸3丁目11番1号,まぼり幼稚園ブロック塀,35.25998972,139.7087023
神奈川県,横須賀市,43-3,横須賀市馬堀海岸3丁目28番,馬堀海岸3丁目公園フェンス,35.26203284,139.7117394
神奈川県,横須賀市,43-4,横須賀市馬堀海岸4丁目1番12号,馬堀海岸シーハイツ4号棟脇駐車場植込み,35.26175497,139.7127722
神奈川県,横須賀市,43-5,横須賀市走水1丁目10番20号,防衛大学校正門前空地,35.25566829,139.7218767
神奈川県,横須賀市,43-6,横須賀市馬堀海岸4丁目2番,馬堀海岸4丁目公園植込み,35.25976472,139.7122562
神奈川県,横須賀市,43-7,横須賀市馬堀海岸4丁目1番1号,馬堀海岸シーハイツ1号棟広報掲示板隣,35.26024216,139.7118475
神奈川県,横須賀市,44-1,横須賀市走水1丁目2番1号,伊勢町バス停脇走水水源地フェンス,35.26244128,139.7240143
神奈川県,横須賀市,44-2,横須賀市走水2丁目1番,走水小学校バス停横フェンス,35.26429565,139.728221
神奈川県,横須賀市,44-3,横須賀市走水2丁目4番,旗山崎公園植込み,35.26495611,139.7308269
神奈川県,横須賀市,44-4,横須賀市走水2丁目無番地,防衛大学校走水海上訓練所フェンス,35.26117164,139.7342096
神奈川県,横須賀市,44-5,横須賀市走水2丁目21番,防衛大学校宿舎E棟西側フェンス,35.26088558,139.7353811
神奈川県,横須賀市,44-6,横須賀市走水2丁目21番,防衛大学校宿舎E棟東側フェンス,35.26082438,139.7361781
神奈川県,横須賀市,44-7,横須賀市走水2丁目1142番地先,横須賀美術館先道路石垣,35.259777,139.7394784
神奈川県,横須賀市,45-1,横須賀市桜が丘1丁目34番,桜が丘1丁目公園フェンス,35.25457561,139.6998268
神奈川県,横須賀市,45-2,横須賀市桜が丘1丁目50番1号,望洋小学校石壁,35.25518328,139.7038232
神奈川県,横須賀市,45-3,横須賀市桜が丘2丁目20番,横須賀馬堀台団地集会所前石垣,35.25617532,139.7072436
神奈川県,横須賀市,45-4,横須賀市桜が丘2丁目20番,桜が丘２丁目公園石垣,35.25529786,139.705952
神奈川県,横須賀市,45-5,横須賀市吉井4丁目27番,調整池フェンス,35.24962417,139.7064113
神奈川県,横須賀市,45-6,横須賀市池田町３丁目２番,池田３丁目第２公園石垣,35.24732451,139.6969629
神奈川県,横須賀市,45-7,横須賀市吉井4丁目8番,吉井4丁目公園フェンス,35.25287629,139.7018673
神奈川県,横須賀市,45-8,横須賀市桜が丘1丁目51番1号,聖心桜が丘幼稚園フェンス,35.25392812,139.702394
神奈川県,横須賀市,46-1,横須賀市吉井2丁目5番,相鉄ローゼン入口横道路フェンス,35.24699844,139.697102
神奈川県,横須賀市,46-2,横須賀市吉井2丁目5番,山手中央公園フェンス（アイビーヒルズ久里浜五番館向かい）,35.24756703,139.6985971
神奈川県,横須賀市,46-3,横須賀市吉井1丁目11番5号,浦賀隧道上道路フェンス,35.24795674,139.7041588
神奈川県,横須賀市,46-4,横須賀市吉井2丁目7番,吉井高区ポンプ所入口横道路フェンス,35.246414,139.701792
神奈川県,横須賀市,46-5,横須賀市舟倉2丁目5番,佐川急便向かい側歩道フェンス,35.24043573,139.6992134
神奈川県,横須賀市,47-1,横須賀市浦賀1丁目13番,浦賀1丁目公園横側フェンス,35.25602185,139.7092933
神奈川県,横須賀市,47-2,横須賀市浦賀1丁目12番12号,飯田パーキング前擁壁,35.25564396,139.7099078
神奈川県,横須賀市,47-3,横須賀市浦上台3丁目2番1号,masked,35.25566673,139.7145547
神奈川県,横須賀市,47-4,横須賀市浦上台4丁目2番地,ビレッジハウス浦賀給水タンク前フェンス,35.25585097,139.7159237
神奈川県,横須賀市,47-5,横須賀市浦上台3丁目3番,masked,35.25536719,139.7151092
神奈川県,横須賀市,47-6,横須賀市浦上台3丁目10番,浦賀駅裏駐車場横道路フェンス,35.25279956,139.7153162
神奈川県,横須賀市,48-1,横須賀市浦賀3丁目19番,浦賀3丁目公園手前道路フェンス,35.25289565,139.7097977
神奈川県,横須賀市,48-2,横須賀市浦上台2丁目26番,浦賀公園フェンス,35.25392251,139.7122418
神奈川県,横須賀市,48-3,横須賀市浦上台2丁目26番,浦賀公園石垣,35.25340414,139.7122021
神奈川県,横須賀市,48-4,横須賀市浦上台2丁目27番,masked,35.25328668,139.713823
神奈川県,横須賀市,48-5,横須賀市浦賀3丁目8番1号,浦賀小学校校門脇道路フェンス,35.25091896,139.7143625
神奈川県,横須賀市,48-6,横須賀市浦賀3丁目1番1号,浦賀駅第1自転車等駐車場フェンス,35.2498701,139.7155249
神奈川県,横須賀市,48-7,横須賀市浦賀4丁目7番,岡タクシー前住友重工コンクリート塀,35.24951703,139.7150892
神奈川県,横須賀市,48-8,横須賀市浦賀4丁目7番,旧浦賀警察署前住友重工コンクリート塀,35.24759737,139.7150348
神奈川県,横須賀市,48-9,横須賀市東浦賀2丁目28番,東浦賀2丁目公園石垣,35.24318441,139.724366
神奈川県,横須賀市,48-10,横須賀市東浦賀2丁目23番,東浦賀公園フェンス,35.24150632,139.7252001
神奈川県,横須賀市,48-11,横須賀市浦賀5丁目38番,浦賀5丁目第5公園上フェンス,35.2466299,139.7092236
神奈川県,横須賀市,48-12,横須賀市浦賀5丁目47番,浦賀5丁目第3公園木柵,35.24780265,139.7068567
神奈川県,横須賀市,48-13,横須賀市浦賀5丁目28番,浦賀5丁目第4公園前道路フェンス,35.2495042,139.7097316
神奈川県,横須賀市,49-1,横須賀市鴨居1丁目21番,鴨居1丁目公園石垣,35.25287577,139.7265188
神奈川県,横須賀市,49-2,横須賀市二葉1丁目31番,立野アパート汚水処理場金網,35.25148393,139.723768
神奈川県,横須賀市,49-3,横須賀市二葉1丁目26番,立野公園通路石垣,35.25078948,139.7226879
神奈川県,横須賀市,49-4,横須賀市二葉1丁目17番11号,masked,35.25232548,139.7194402
神奈川県,横須賀市,49-5,横須賀市二葉1丁目22番2号,ポートヴィラージュ浦賀前道路フェンス,35.25232097,139.7210742
神奈川県,横須賀市,49-6,横須賀市二葉1丁目23番,masked,35.25172214,139.722044
神奈川県,横須賀市,49-7,横須賀市二葉1丁目32番,鴨居入口バス停先道路フェンス,35.25223269,139.7239916
神奈川県,横須賀市,49-8,横須賀市二葉1丁目25番,masked,35.25168853,139.7229382
神奈川県,横須賀市,50-1,横須賀市小原台3番1号,小原台小学校入口鉄柵,35.25295661,139.7285515
神奈川県,横須賀市,50-2,横須賀市小原台32番38号,masked,35.25290603,139.7256694
神奈川県,横須賀市,50-3,横須賀市小原台50番17号,masked,35.25373038,139.7240467
神奈川県,横須賀市,50-4,横須賀市小原台55番6号,防衛大学二葉官舎前道路フェンス,35.25531677,139.723202
神奈川県,横須賀市,50-5,横須賀市小原台25番,小原台公園フェンス,35.2543485,139.7272939
神奈川県,横須賀市,51-1,横須賀市二葉2丁目11番1号,masked,35.24776472,139.7228019
神奈川県,横須賀市,51-2,横須賀市二葉2丁目13番,早稲田ハイムA棟フェンス,35.2488547,139.7217782
神奈川県,横須賀市,51-3,横須賀市二葉2丁目17番51号,masked,35.24943614,139.7198553
神奈川県,横須賀市,51-4,横須賀市二葉2丁目17番15号,二葉2丁目町内会館前フェンス,35.25013209,139.7203835
神奈川県,横須賀市,51-5,横須賀市二葉2丁目18番,早稲田公園フェンス（早稲田ハイムK棟前）,35.24960174,139.721114
神奈川県,横須賀市,51-6,横須賀市二葉2丁目13番,早稲田ハイムB棟脇フェンス,35.24931114,139.7219218
神奈川県,横須賀市,51-7,横須賀市二葉2丁目19番,早稲田ハイムK棟歩道フェンス,35.24984279,139.7212227
神奈川県,横須賀市,52-1,横須賀市鴨居1丁目56番15号,みかん台公園ガードレール,35.25117867,139.7283018
神奈川県,横須賀市,52-2,横須賀市鴨居3丁目1番6号,鴨居小学校鴨居プール側フェンス,35.25154401,139.7320981
神奈川県,横須賀市,52-3,横須賀市鴨居3丁目70番,鴨居3丁目公園擁壁,35.25519151,139.7344066
神奈川県,横須賀市,52-4,横須賀市鴨居3丁目36番,鴨居3丁目第2公園フェンス,35.25206992,139.7348476
神奈川県,横須賀市,52-5,横須賀市鴨居3丁目11番12号,鴨居コミュニティセンター鉄柵,35.2504857,139.7349106
神奈川県,横須賀市,52-6,横須賀市鴨居2丁目21番先,鴨居ポンプ場フェンス,35.24826728,139.7341479
神奈川県,横須賀市,52-7,横須賀市鴨居3丁目1番,鴨居小学校正門脇和田川フェンス,35.25023536,139.7325922
神奈川県,横須賀市,52-8,横須賀市鴨居2丁目19番2号,金谷医院向かい側鉄柵,35.25014647,139.7309748
神奈川県,横須賀市,52-9,横須賀市鴨居2丁目62番1号,masked,35.24691199,139.7277746
神奈川県,横須賀市,52-10,横須賀市鴨居2丁目52番23号,岩波幼稚園横道路フェンス,35.24624526,139.7300494
神奈川県,横須賀市,54-1,横須賀市鴨居2丁目80番,かもめ団地駐在所向かい側植込み,35.24290824,139.732731
神奈川県,横須賀市,54-2,横須賀市鴨居2丁目78番,診療所向かい道路フェンス,35.24258891,139.7304351
神奈川県,横須賀市,54-3,横須賀市鴨居2丁目80番,かもめ団地バス停脇空地,35.24206626,139.7277155
神奈川県,横須賀市,54-4,横須賀市鴨居2丁目40番先,鴨居第3公園鉄柵,35.24290052,139.7302031
神奈川県,横須賀市,54-5,横須賀市鴨居2丁目70番,鴨居第2公園鉄柵,35.24458366,139.7280765
神奈川県,横須賀市,55-1,横須賀市浦賀7丁目1番,浦賀ポンプ場フェンス,35.24506215,139.7153805
神奈川県,横須賀市,55-2,横須賀市浦賀7丁目13番10号,NTT横須賀南出張所フェンス,35.24436981,139.7168294
神奈川県,横須賀市,55-3,横須賀市西浦賀1丁目1番13号,西叶神社玉垣,35.24190098,139.7181801
神奈川県,横須賀市,55-4,横須賀市西浦賀1丁目11番1号,浦賀病院駐車場裏防護柵,35.23879089,139.7205237
神奈川県,横須賀市,55-5,横須賀市西浦賀4丁目8番,西浦賀海岸公園海側フェンス,35.23762474,139.7218271
神奈川県,横須賀市,55-6,横須賀市西浦賀2丁目6番14号,光風台入口信号先道路フェンス,35.24016899,139.7155854
神奈川県,横須賀市,55-7,横須賀市西浦賀3丁目1番1号,高坂小学校入口道路フェンス,35.24042419,139.7153072
神奈川県,横須賀市,55-8,横須賀市浦賀丘3丁目3番,浦賀丘3丁目公園横側擬木柵,35.24240644,139.715205
神奈川県,横須賀市,55-9,横須賀市浦賀丘1丁目5番,浦賀丘1丁目公園石垣,35.24273159,139.7098818
神奈川県,横須賀市,55-10,横須賀市浦賀丘2丁目5番,浦賀丘2丁目公園鉄柵,35.24503284,139.7129813
神奈川県,横須賀市,56-1,横須賀市光風台4番,光風台第3公園北側石垣,35.23789729,139.7112261
神奈川県,横須賀市,56-2,横須賀市光風台9番,若風公園土手,35.23814117,139.7079244
神奈川県,横須賀市,56-3,横須賀市光風台13番,光風台（西浦賀）公園フェンス,35.23955958,139.7093183
神奈川県,横須賀市,56-4,横須賀市光風台28番,光風台第2公園フェンス,35.24038841,139.7120354
神奈川県,横須賀市,57-1,横須賀市舟倉1丁目8番先,masked,35.23908912,139.6998263
神奈川県,横須賀市,57-2,横須賀市若宮台30番,若宮台第２公園フェンス,35.23742759,139.7025552
神奈川県,横須賀市,57-3,横須賀市舟倉1丁目30番7号,キッチン彩国道向かい側河川フェンス,35.23511662,139.7011048
神奈川県,横須賀市,57-4,横須賀市舟倉1丁目1番,コスモ石油向かい側平作川フェンス,35.23837111,139.6974682
神奈川県,横須賀市,57-5,横須賀市舟倉1丁目1番,舟倉第2ポンプ場フェンス,35.23952581,139.6964716
神奈川県,横須賀市,58-1,横須賀市若宮台22番,若宮台公園入口鉄柵,35.23690062,139.704751
神奈川県,横須賀市,58-2,横須賀市若宮台23番,(有)クラップス横道路フェンス,35.23762215,139.7044282
神奈川県,横須賀市,58-3,横須賀市若宮台3番10号,木下塗装店前道路フェンス,35.2371481,139.7075261
神奈川県,横須賀市,59-1,横須賀市大矢部4丁目3番17号,masked,35.23694552,139.6686643
神奈川県,横須賀市,59-2,横須賀市大矢部4丁目16番,Kハイツ向かい側道路ガードフェンス,35.2375972,139.6699498
神奈川県,横須賀市,59-3,横須賀市大矢部4丁目26番12号,駐車場前道路フェンス,35.2346629,139.672009
神奈川県,横須賀市,59-4,横須賀市岩戸4丁目26番,岩戸4丁目第2公園入口脇石積み,35.23257151,139.6706213
神奈川県,横須賀市,59-5,横須賀市岩戸4丁目6番,岩戸4丁目公園入口脇土手,35.22967152,139.6701096
神奈川県,横須賀市,59-6,横須賀市岩戸5丁目6番,水道局長沢配水池入口脇フェンス,35.22968674,139.6678396
神奈川県,横須賀市,59-7,横須賀市岩戸5丁目15番,岩戸5丁目公園外柵,35.23163921,139.6652526
神奈川県,横須賀市,59-8,横須賀市岩戸5丁目20番1号,岩戸小学校入口フェンス,35.23358275,139.6682313
神奈川県,横須賀市,60-1,横須賀市岩戸1丁目6番先,がけ地防護鉄柵,35.23420603,139.6739658
神奈川県,横須賀市,60-2,横須賀市岩戸1丁目3番2号先,岩戸1丁目入口ガードレール（満願寺入口信号脇）,35.23343943,139.6779111
神奈川県,横須賀市,60-3,横須賀市岩戸1丁目10番,ホンダプリモ岩戸店脇道路フェンス,35.23230344,139.678616
神奈川県,横須賀市,60-4,横須賀市岩戸1丁目10番18号,岩戸コミュニティセンターフェンス,35.23185981,139.6780224
神奈川県,横須賀市,60-5,横須賀市岩戸3丁目17番,岩戸3丁目公園入口脇土手,35.22875297,139.6745265
神奈川県,横須賀市,60-6,横須賀市岩戸4丁目6番,岩戸4丁目公園東側入口,35.22901229,139.6707701
神奈川県,横須賀市,60-7,横須賀市岩戸3丁目28番5号,㈲グレイズ横路上,35.23165026,139.6739557
神奈川県,横須賀市,60-8,横須賀市岩戸3丁目33番1号,青葉荘向かい側路上,35.23237574,139.6730766
神奈川県,横須賀市,61-1,横須賀市佐原1丁目4番10号,トヨタモビリティ神奈川横須賀佐原インター店向かい側道路フェンス,35.24321088,139.6800667
神奈川県,横須賀市,61-2,横須賀市佐原4丁目1番,久里浜電話局前バス停脇NTT久里浜ビルフェンス,35.24084537,139.6862073
神奈川県,横須賀市,61-3,横須賀市佐原4丁目7番,佐原4丁目第2公園フェンス,35.23993452,139.6872895
神奈川県,横須賀市,61-4,横須賀市佐原4丁目18番,佐原4丁目第3公園入口脇木柵,35.23801852,139.6910007
神奈川県,横須賀市,61-5,横須賀市内川2丁目3番,（株）グローバルニュークリアフュエル駐車場フェンス,35.23584165,139.6940178
神奈川県,横須賀市,61-6,横須賀市佐原5丁目19番,佐原太郎崎公園フェンス,35.2345717,139.6937106
神奈川県,横須賀市,61-7,横須賀市佐原1丁目18番,佐原IC出口歩道橋石垣（岩戸方面側）,35.23816434,139.6799767
神奈川県,横須賀市,61-8,横須賀市佐原1丁目12番,佐原公園鉄柵,35.24083394,139.6798302
神奈川県,横須賀市,62-1,横須賀市久里浜1丁目2番15号,みかさ交通横フェンス,35.23560468,139.6999725
神奈川県,横須賀市,62-2,横須賀市久里浜1丁目3番,自転車等駐車場前花壇フェンス,35.23318531,139.702033
神奈川県,横須賀市,62-3,横須賀市久里浜2丁目11番1号,久里浜中学校校門脇フェンス,35.22857625,139.6992311
神奈川県,横須賀市,62-4,横須賀市神明町1番地8,神明公園西側入口横の石垣,35.22730011,139.7029717
神奈川県,横須賀市,62-5,横須賀市神明町21番地,久里浜第2ポンプ場フェンス,35.22778732,139.7041287
神奈川県,横須賀市,62-6,横須賀市神明町1821番地,神明第2公園フェンス,35.21877154,139.7111259
神奈川県,横須賀市,62-7,横須賀市神明町1821番地2,久里浜花の国プール入口横フェンス,35.21855021,139.7099043
神奈川県,横須賀市,62-8,横須賀市神明町1番地8,神明公園北東側入口横の石垣,35.2269307,139.703764
神奈川県,横須賀市,62-9,横須賀市神明町903番地,神明中学校脇歩道橋下フェンス,35.22557964,139.6999191
神奈川県,横須賀市,62-10,横須賀市久里浜3丁目12番4号,ハイツオータキ前フェンス,35.2257342,139.6991532
神奈川県,横須賀市,62-11,横須賀市久里浜3丁目1番,八幡ハイムE棟前河川フェンス,35.22759298,139.6990833
神奈川県,横須賀市,62-12,横須賀市久里浜3丁目1番,八幡ハイムA棟前駐車場脇歩道フェンス,35.22812105,139.6978004
神奈川県,横須賀市,62-13,横須賀市久里浜2丁目23番,藤和ハイタウン久里浜前下水フェンス,35.22951985,139.6977537
神奈川県,横須賀市,62-14,横須賀市久里浜2丁目19番,正業寺裏空地コンクリート壁,35.23127561,139.6963316
神奈川県,横須賀市,62-15,横須賀市久里浜3丁目7番,八幡ハイムＤ棟前植込,35.22719263,139.6995541
神奈川県,横須賀市,63-1,横須賀市久里浜4丁目12番2号,リヴィエール久里浜マンション前平作川フェンス,35.23239962,139.7039567
神奈川県,横須賀市,63-2,横須賀市久里浜6丁目7番1号,明浜小学校西側外柵（トーク湘南久里浜前）,35.22869362,139.7061664
神奈川県,横須賀市,63-3,横須賀市久里浜6丁目7番1号,明浜小学校体育館側フェンス,35.22738486,139.707674
神奈川県,横須賀市,63-4,横須賀市久里浜6丁目11番,総合高校グラウンド脇（海自第3宿舎向かい）,35.22606502,139.7099911
神奈川県,横須賀市,63-5,横須賀市久里浜6丁目11番,市営久里浜改良アパートＨ棟横駐輪場裏フェンス,35.22609565,139.7068358
神奈川県,横須賀市,63-6,横須賀市久里浜6丁目11番,久里浜公園プール市営久里浜アパートG棟前フェンス,35.22660572,139.7066897
神奈川県,横須賀市,63-7,横須賀市久里浜6丁目14番2号,久里浜行政センター入口脇土手,35.22634646,139.705916
神奈川県,横須賀市,63-8,横須賀市久里浜4丁目17番,八幡公園フェンス,35.22966257,139.7021064
神奈川県,横須賀市,63-9,横須賀市久里浜5丁目3番,久里浜5丁目第2公園フェンス,35.23012962,139.7062574
神奈川県,横須賀市,63-10,横須賀市久里浜6丁目14番1号,南体育会館フェンス,35.22736015,139.7049956
神奈川県,横須賀市,64-1,横須賀市久里浜台1丁目1番,久里浜台団地入口フェンス,35.23680709,139.712938
神奈川県,横須賀市,64-2,横須賀市久里浜台1丁目1番4号,masked,35.23611594,139.7145656
神奈川県,横須賀市,64-3,横須賀市久里浜台2丁目4番,久里浜台2丁目公園石垣,35.23501063,139.7159837
神奈川県,横須賀市,64-4,横須賀市久里浜台2丁目17番,久里浜台2丁目第2公園石垣,35.2335432,139.7145287
神奈川県,横須賀市,64-5,横須賀市久里浜台1丁目5番,久里浜台1丁目公園フェンス,35.23560021,139.7139944
神奈川県,横須賀市,65-1,横須賀市長瀬1丁目4番3号,日神パレステージ久里浜海岸前路上,35.22722113,139.7140607
神奈川県,横須賀市,65-2,横須賀市長瀬1丁目9番,長瀬第3公園フェンス,35.2283842,139.7152852
神奈川県,横須賀市,65-3,横須賀市長瀬1丁目10番14号,オリエンタルボート㈱造船所脇歩道フェンス,35.22733093,139.7156227
神奈川県,横須賀市,65-4,横須賀市長瀬3丁目5番,消防総合訓練センター通用門脇,35.22916788,139.722799
神奈川県,横須賀市,65-5,横須賀市長瀬2丁目3番,長瀬公園入口植込み,35.23012379,139.7178036
神奈川県,横須賀市,66-1,横須賀市久里浜7丁目1番,南消防署久里浜出張所フェンス,35.22727519,139.7107824
神奈川県,横須賀市,66-2,横須賀市久里浜7丁目15番,ペリー公園（ペリー記念館）裏路上,35.22459316,139.7116942
神奈川県,横須賀市,66-3,横須賀市久里浜7丁目15番,ペリー公園入口植込,35.22419606,139.7125822
神奈川県,横須賀市,66-4,横須賀市久里浜8丁目9番5号,横須賀市東部漁協久里浜支所前フェンス,35.22079791,139.7126754
神奈川県,横須賀市,66-5,横須賀市久里浜8丁目29番,住吉神社脇石垣,35.21899683,139.7134972
神奈川県,横須賀市,67-1,横須賀市ハイランド1丁目3番,ハイランド1丁目児童公園フェンス,35.22062615,139.6928418
神奈川県,横須賀市,67-2,横須賀市ハイランド2丁目12番17号,市立ハイランド保育園入口脇石積み,35.22004986,139.6844703
神奈川県,横須賀市,67-3,横須賀市ハイランド2丁目31番,ハイランド2丁目第2公園石垣（2丁目32番側）,35.22152084,139.6869861
神奈川県,横須賀市,67-4,横須賀市ハイランド2丁目31番,ハイランド2丁目第2公園石垣（2丁目24番側）,35.22192209,139.6865556
神奈川県,横須賀市,67-5,横須賀市ハイランド1丁目56番,ハイランドバス停前高圧線鉄塔柵,35.22354567,139.6891825
神奈川県,横須賀市,67-6,横須賀市ハイランド1丁目39番,ハイランド1丁目第2児童公園のり地,35.22288923,139.6903123
神奈川県,横須賀市,67-7,横須賀市ハイランド1丁目47番,高圧線鉄塔下路上ガードレール,35.22173073,139.6902582
神奈川県,横須賀市,68-1,横須賀市ハイランド2丁目41番1号,粟田小学校校門脇フェンス,35.22457115,139.6852999
神奈川県,横須賀市,68-2,横須賀市ハイランド3丁目29番,ハイランド3丁目第2公園入口脇鉄柵,35.22767131,139.6851673
神奈川県,横須賀市,68-3,横須賀市ハイランド3丁目8番,ハイランド3丁目公園鉄柵,35.22613729,139.6879632
神奈川県,横須賀市,68-4,横須賀市ハイランド4丁目49番8号,masked,35.22611846,139.6933247
神奈川県,横須賀市,68-5,横須賀市ハイランド5丁目22番,ハイランド5丁目児童公園入口脇鉄柵,35.22459516,139.6936721
神奈川県,横須賀市,68-6,横須賀市ハイランド4丁目1番,ハイランド4丁目児童公園トイレ側歩道フェンス,35.22270042,139.6928888
神奈川県,横須賀市,68-7,横須賀市ハイランド4丁目1番,ハイランド4丁目児童公園入口脇鉄柵,35.2231351,139.6916522
神奈川県,横須賀市,68-8,横須賀市ハイランド4丁目1番,ハイランド4丁目児童公園石垣,35.22334464,139.6925457
神奈川県,横須賀市,69-1,横須賀市野比2丁目45番11号,大作バス停付近路上,35.21429173,139.6874324
神奈川県,横須賀市,69-2,横須賀市野比3丁目41番,野比ガソリンスタンド（エネオス）裏側道路ガードレール,35.21750509,139.6926837
神奈川県,横須賀市,69-3,横須賀市野比3丁目30番30号,野比東小学校入口左側道路フェンス,35.21599493,139.6931639
神奈川県,横須賀市,69-4,横須賀市野比4丁目6番1号,野比東小学校校門左側道路フェンス,35.21421762,139.6950196
神奈川県,横須賀市,69-5,横須賀市野比5丁目8番,千駄ヶ崎バス停前路上,35.21268228,139.7107436
神奈川県,横須賀市,69-6,横須賀市野比3丁目24番,東町内会館脇道路フェンス,35.21146419,139.695593
神奈川県,横須賀市,69-7,横須賀市野比3丁目12番,ﾁｭﾘｽｶﾞｰﾃﾞﾝ湘南野比ｲｰｽﾄ2番館下道路ｶﾞｰﾄﾞﾚｰﾙ,35.21363991,139.693473
神奈川県,横須賀市,70-1,横須賀市野比1丁目4番,野比しま田公園フェンス,35.21810154,139.6831193
神奈川県,横須賀市,70-2,横須賀市野比1丁目39番5号,田原接骨院脇フェンス,35.21705082,139.688675
神奈川県,横須賀市,70-3,横須賀市野比1丁目25番1号,野比小学校校庭金網,35.21619452,139.6843445
神奈川県,横須賀市,70-4,横須賀市野比1丁目17番17号,masked,35.21342839,139.6856921
神奈川県,横須賀市,70-5,横須賀市長沢3丁目21番,長沢台公園塀,35.21288929,139.6815065
神奈川県,横須賀市,70-6,横須賀市長沢3丁目1番,富嶽7番館横京浜急行線路脇鉄柵,35.21001439,139.683369
神奈川県,横須賀市,70-7,横須賀市長沢5丁目1番,長沢中学校駐車場入口金網,35.21346748,139.676008
神奈川県,横須賀市,70-8,横須賀市野比1丁目4番1号,島田橋欄干,35.21588782,139.6821368
神奈川県,横須賀市,71-1,横須賀市粟田1丁目5番,粟田1丁目第3公園鉄柵,35.22973594,139.6797289
神奈川県,横須賀市,71-2,横須賀市粟田1丁目6番18号,masked,35.22993516,139.6810147
神奈川県,横須賀市,71-3,横須賀市粟田2丁目5番,粟田バス停前路上,35.22474556,139.6842596
神奈川県,横須賀市,71-4,横須賀市粟田2丁目18番,粟田2丁目第2公園鉄柵,35.22555336,139.6828866
神奈川県,横須賀市,71-5,横須賀市粟田2丁目24番11号,粟田2丁目第3公園鉄柵,35.22633108,139.6819116
神奈川県,横須賀市,71-6,横須賀市粟田1丁目36番,粟田1丁目公園フェンス,35.22809832,139.6800297
神奈川県,横須賀市,71-7,横須賀市粟田1丁目25番,粟田1丁目第2公園鉄柵,35.22804849,139.677295
神奈川県,横須賀市,72-1,横須賀市長沢1丁目25番8号,長岡保育園向かい側歩道フェンス,35.20434399,139.6773995
神奈川県,横須賀市,72-2,横須賀市長沢1丁目29番1号,北下浦小学校体育館入口金網,35.20347777,139.6746029
神奈川県,横須賀市,72-3,横須賀市長沢1丁目35番,グリーンハイツ5-8棟向かい側フェンス,35.20471368,139.6718366
神奈川県,横須賀市,72-4,横須賀市ｸﾞﾘｰﾝﾊｲﾂ11番,長沢殿前児童公園柵,35.206327,139.6719114
神奈川県,横須賀市,72-5,横須賀市長沢1丁目35番1号,京急長沢駅前駐車場フェンス,35.20590222,139.6744835
神奈川県,横須賀市,72-6,横須賀市長沢4丁目16番20号,長沢平田自治会館前フェンス,35.20973924,139.6786196
神奈川県,横須賀市,72-7,横須賀市長沢2丁目7番7号,北下浦行政センター前鉄柵,35.20525204,139.6795305
神奈川県,横須賀市,73-1,横須賀市津久井2丁目2番,県営駐車場向かい側津久井川フェンス,35.19899981,139.6708289
神奈川県,横須賀市,73-2,横須賀市津久井2丁目9番,県営津久井浜団地公園鉄柵,35.19907155,139.6704148
神奈川県,横須賀市,73-3,横須賀市津久井4丁目1番21号,第24コーポ三京前道路向かい側ガードレール,35.19977092,139.6658132
神奈川県,横須賀市,73-4,横須賀市津久井4丁目4番1号,県立津久井浜高校正門前道路向かい側ガードレール,35.2005788,139.663874
神奈川県,横須賀市,73-5,横須賀市津久井3丁目27番8号,masked,35.20389343,139.6610183
神奈川県,横須賀市,73-6,横須賀市津久井5丁目15番10号,masked,35.20801292,139.6597541
神奈川県,横須賀市,73-7,横須賀市津久井5丁目6番,いちごはうす西脇横道路フェンス,35.20563817,139.6643469
神奈川県,横須賀市,73-8,横須賀市津久井5丁目5番,市道フェンス,35.2061673,139.6668769
神奈川県,横須賀市,73-9,横須賀市津久井3丁目12番,第4市民農園横道路フェンス,35.20177086,139.6676534
神奈川県,横須賀市,73-10,横須賀市ｸﾞﾘｰﾝﾊｲﾂ434番1,堀越パーキング向かい側京浜急行線フェンス,35.20310837,139.6702023
神奈川県,横須賀市,74-1,横須賀市長井1丁目16番,大木根駐在所左側信号寄フェンス,35.20361944,139.6255036
神奈川県,横須賀市,74-2,横須賀市長井2丁目5番20号,masked,35.19975102,139.6190015
神奈川県,横須賀市,74-3,横須賀市長井3丁目21番46号,コーポ竜崎前ガードレール,35.20596891,139.6175393
神奈川県,横須賀市,74-4,横須賀市長井1丁目29番10号,富浦公園前道路フェンス,35.20713082,139.6232581
神奈川県,横須賀市,74-5,横須賀市長井1丁目24番1号,masked,35.20810801,139.626047
神奈川県,横須賀市,74-6,横須賀市長井1丁目22番28号,masked,35.20671773,139.625107
神奈川県,横須賀市,75-1,横須賀市長井3丁目29番,市営長井アパート入口右側フェンス,35.20697488,139.6150059
神奈川県,横須賀市,75-2,横須賀市長井5丁目16番5号,長井コミュニティセンター石垣,35.20431623,139.6117625
神奈川県,横須賀市,75-3,横須賀市長井4丁目3491番地3,ソレイユの丘駐車場フェンス,35.19679927,139.612296
神奈川県,横須賀市,75-4,横須賀市長井6丁目28番,荒崎バス停先道路脇擁壁フェンス,35.19743169,139.6036084
神奈川県,横須賀市,75-5,横須賀市長井6丁目8番,漆山チビッコ公園鉄柵,35.20012738,139.6071157
神奈川県,横須賀市,75-6,横須賀市長井5丁目36番,北条鉄工所脇道路フェンス,35.20333316,139.6056157
神奈川県,横須賀市,75-7,横須賀市長井5丁目1番1号,不断寺前ガードレール,35.20694701,139.6120658
神奈川県,横須賀市,75-8,横須賀市長井3丁目46番,masked,35.20877691,139.6118063
神奈川県,横須賀市,76-1,横須賀市林2丁目1番,林2丁目公園フェンス,35.21977692,139.6398505
神奈川県,横須賀市,76-2,横須賀市武3丁目17番,武3丁目公園フェンス（ネアポリス湘南前）,35.22157445,139.6432998
神奈川県,横須賀市,76-3,横須賀市武3丁目19番1号,富士見小学校（山側高位置校舎）前道路フェンス,35.22012387,139.6434831
神奈川県,横須賀市,76-4,横須賀市須軽谷1160番地,中華やました前道路フェンス,35.211345,139.6497861
神奈川県,横須賀市,76-5,横須賀市林3丁目3番,林3丁目第3公園塀,35.21702517,139.6419346
神奈川県,横須賀市,76-6,横須賀市武3丁目25番,masked,35.21800391,139.6425387
神奈川県,横須賀市,76-7,横須賀市武3丁目22番1号,ふれあいマーケット脇道路フェンス,35.21940265,139.6408179
神奈川県,横須賀市,77-1,横須賀市武1丁目12番10号,NTT横須賀研究開発センター北門入口向かい側道路フェンス,35.22585672,139.660369
神奈川県,横須賀市,77-2,横須賀市武1丁目14番1号,masked,35.22792071,139.656045
神奈川県,横須賀市,77-3,横須賀市武1丁目25番,武1丁目公園石塀,35.22741861,139.6516077
神奈川県,横須賀市,77-4,横須賀市武3丁目5番1号,武山市民プラザ前歩道フェンス,35.22591981,139.647759
神奈川県,横須賀市,77-5,横須賀市武3丁目6番,竹川バス停脇道路フェンス,35.22453595,139.6449751
神奈川県,横須賀市,77-6,横須賀市武4丁目2番8号,武町内会館下ガードレール,35.22587148,139.646813
神奈川県,横須賀市,77-7,横須賀市武5丁目11番,武5丁目第2公園石垣,35.22786513,139.6476519
神奈川県,横須賀市,77-8,横須賀市武2丁目6番1号,みやこアパート向かい側道路フェンス,35.23137088,139.6538474
神奈川県,横須賀市,78-1,横須賀市太田和1丁目36番,太田和1丁目第4公園横道路フェンス,35.22068272,139.6365124
神奈川県,横須賀市,78-2,横須賀市太田和2丁目7番2号,市民病院太田和医師公舎塀,35.22447258,139.6338367
神奈川県,横須賀市,78-3,横須賀市太田和4丁目2194番地,沢口建設先小田和川沿い道路フェンス,35.22731548,139.6362799
神奈川県,横須賀市,78-4,横須賀市太田和5丁目2665番地,相武幼稚園前道路フェンス,35.23148706,139.6452874
神奈川県,横須賀市,78-5,横須賀市太田和5丁目157番地,八百屋カフェ前歩道フェンス,35.23133882,139.6493656
神奈川県,横須賀市,78-6,横須賀市武4丁目26番,武4丁目第3公園フェンス,35.2250585,139.6443301
神奈川県,横須賀市,78-7,横須賀市太田和3丁目1番1号,武山小学校校門脇植込み,35.22420828,139.6402895
神奈川県,横須賀市,78-8,横須賀市武4丁目38番先,竹川河川橋フェンス,35.22210325,139.642681
神奈川県,横須賀市,78-9,横須賀市林1丁目5番,武山公園入口植込み,35.22214229,139.6406943
神奈川県,横須賀市,79-1,横須賀市山科台6番,山科台公園フェンス,35.23309264,139.6561853
神奈川県,横須賀市,79-2,横須賀市山科台9番,ガソリンスタンド向かい側路上,35.23461301,139.6527694
神奈川県,横須賀市,79-3,横須賀市山科台35番,信号脇歩道石垣,35.23827308,139.6556116
神奈川県,横須賀市,79-4,横須賀市山科台25番,masked,35.23794162,139.6572092
神奈川県,横須賀市,79-5,横須賀市山科台41番,山科台自治会館向かい側山科台公園フェンス,35.23647571,139.6561692
神奈川県,横須賀市,79-6,横須賀市山科台6番,山科台公園入口脇フェンス,35.23313976,139.6551828
神奈川県,横須賀市,79-7,横須賀市山科台12番9号,masked,35.23406276,139.655133
神奈川県,横須賀市,80-1,横須賀市長坂1丁目2番2号,西行政センター前植込み,35.22168849,139.6261627
神奈川県,横須賀市,80-2,横須賀市長坂1丁目3番2号,市民病院バス停付近植込,35.2234294,139.6277776
神奈川県,横須賀市,80-3,横須賀市長坂2丁目1番,市民病院駐車場前道路フェンス（長坂グランド脇）,35.2238818,139.6259639
神奈川県,横須賀市,80-4,横須賀市長坂3丁目10番16号,七福食堂向かい側歩道フェンス,35.22683315,139.6233729
神奈川県,横須賀市,80-5,横須賀市長坂4丁目1番15号,市営長坂アパート集会所裏フェンス,35.22866021,139.6226623
神奈川県,横須賀市,80-6,横須賀市長坂3丁目12番39号,長坂祖母神社脇フェンス,35.22883747,139.6243483
神奈川県,横須賀市,80-7,横須賀市長坂3丁目22番,長坂第2公園フェンス,35.22755341,139.6271563
神奈川県,横須賀市,80-8,横須賀市荻野8番1号,荻野小学校正門脇フェンス,35.2273581,139.6286606
神奈川県,横須賀市,80-9,横須賀市長坂3丁目31番,長坂公園入口脇フェンス,35.23035355,139.6301981
神奈川県,横須賀市,80-10,横須賀市荻野18番10号,masked,35.22811925,139.6319267
神奈川県,横須賀市,80-11,横須賀市長坂3丁目31番,長坂公園入口脇フェンス（荻野側）,35.22982441,139.6300953
神奈川県,横須賀市,81-1,横須賀市佐島2丁目1番,ハシモト総合設備資材置場向かい側歩道フェンス,35.22764705,139.6199161
神奈川県,横須賀市,81-2,横須賀市佐島の丘2丁目16番,佐島の丘公園鉄柵（佐島の丘入口側）,35.22478105,139.6137806
神奈川県,横須賀市,81-3,横須賀市佐島3丁目5番1号,大楠漁協入口左側ガードレール,35.22358871,139.6092533
神奈川県,横須賀市,81-4,横須賀市佐島3丁目11番,新幸建設資材置場横防護壁,35.22487239,139.6034986
神奈川県,横須賀市,81-5,横須賀市佐島の丘2丁目16番,佐島の丘公園鉄柵（なぎさの丘案内センター側）,35.22678078,139.6127786
神奈川県,横須賀市,82-1,横須賀市芦名1丁目17番,湘南サニーサイドマリーナフェンス,35.22976672,139.6035836
神奈川県,横須賀市,82-2,横須賀市芦名1丁目13番16号,芦名橋横道路フェンス,35.23198634,139.60478
神奈川県,横須賀市,82-3,横須賀市芦名1丁目29番18号,大楠小学校正門脇フェンス,35.23319946,139.607791
神奈川県,横須賀市,82-4,横須賀市芦名1丁目29番18号,大楠小学校校舎裏フェンス,35.23370262,139.6081657
神奈川県,横須賀市,82-5,横須賀市芦名2丁目28番,芦名バス停横石垣,35.23436337,139.6093756
神奈川県,横須賀市,82-6,横須賀市芦名2丁目8番先,市道フェンス,35.23494738,139.6181546
神奈川県,横須賀市,83-1,横須賀市秋谷4540番地,秋谷公園石塀,35.25062409,139.591985
神奈川県,横須賀市,83-2,横須賀市秋谷4379番地,久留和海岸バス停（山側）脇フェンス,35.24736782,139.593516
神奈川県,横須賀市,83-3,横須賀市子安1番地先,子安橋子安側欄干,35.24831119,139.6019987
神奈川県,横須賀市,83-4,横須賀市秋谷3丁目6番25号,秋谷老人福祉センター入口左側路上,35.24128922,139.5976188
神奈川県,横須賀市,83-5,横須賀市秋谷2丁目1番9号,秋谷海岸入口信号先道路フェンス,35.23713238,139.6036887
神奈川県,横須賀市,83-6,横須賀市秋谷2丁目17番,ライオンズマンション湘南秋谷先歩道脇フェンス,35.23712536,139.6046481
神奈川県,横須賀市,83-7,横須賀市秋谷2丁目18番先,正行院向かい道路フェンス,35.2394622,139.6087643
神奈川県,横須賀市,83-8,横須賀市秋谷5312番地,久留和町内会館石垣,35.24962072,139.5893372
神奈川県,横須賀市,84-1,横須賀市湘南国際村1丁目8番,湘南国際村つつじヶ丘バス停裏道路フェンス,35.25734906,139.6057594
神奈川県,横須賀市,84-2,横須賀市湘南国際村1丁目19番3号,masked,35.25723941,139.609996
神奈川県,横須賀市,84-3,横須賀市湘南国際村1丁目9番1号,masked,35.25563579,139.6076344
神奈川県,横須賀市,84-4,横須賀市湘南国際村1丁目23番19号,masked,35.25519814,139.6099625
神奈川県,横須賀市,85-1,横須賀市久比里1丁目1番4号先,夫婦橋人道橋脇路上,35.23203167,139.7049954
神奈川県,横須賀市,85-2,横須賀市久比里1丁目8番12号,コーポ杉田付近河川フェンス,35.2341451,139.7030572
神奈川県,横須賀市,85-3,横須賀市久比里1丁目4番11号,若宮神社玉垣,35.23319281,139.7053255
神奈川県,横須賀市,85-4,横須賀市久比里2丁目17番,ローソン横須賀久比里店横歩道フェンス,35.23597649,139.7082078
神奈川県,横須賀市,85-5,横須賀市久比里2丁目19番,トータスハイムⅡ向かい側道路フェンス,35.23653693,139.7097147
神奈川県,横須賀市,85-6,横須賀市久比里2丁目1番,陸上自衛隊久里浜駐屯地入口平作川フェンス,35.22907059,139.7106064
神奈川県,横須賀市,85-7,横須賀市久比里2丁目7番4号,㈲亀崎輪業向かい歩道フェンス,35.23208541,139.7057733
神奈川県,横須賀市,86-1,横須賀市池上7丁目17番,masked,35.26895037,139.6418078
神奈川県,横須賀市,86-2,横須賀市池上7丁目24番,横横道路入口側調整池壁,35.26943004,139.6409674
神奈川県,横須賀市,86-3,横須賀市山中町92番地先,横須賀IC第二橋下道路フェンス,35.27403773,139.6379484
神奈川県,横須賀市,86-4,横須賀市池上7丁目35番23号,masked,35.27184582,139.6425844
神奈川県,横須賀市,86-5,横須賀市池上7丁目31番,池上7丁目公園西側植込,35.27046519,139.6432153
神奈川県,横須賀市,86-6,横須賀市池上7丁目37番8号,masked,35.2703869,139.6453206
神奈川県,横須賀市,86-7,横須賀市池上7丁目44番,新沢山道路団地入口調整池壁,35.26927394,139.645695
