prefecture,city,number,address,name,lat,long,note
神奈川県,湯河原町,1,福浦430番地の4,福浦児童遊園地フェンス,35.1508852,139.1300509,
神奈川県,湯河原町,2,福浦115番地の1先,福浦会館前コンクリ塀,35.1514301,139.1317009,
神奈川県,湯河原町,3,福浦122番地,高橋宅塀,35.1521329,139.1313326,
神奈川県,湯河原町,4,福浦307番地の1,町道福浦中通り線沿フェンス,35.1550663,139.1293076,
神奈川県,湯河原町,5,福浦393番地,第9分団詰所（旧福浦幼稚園）前フェンス,35.1528847,139.1290234,
神奈川県,湯河原町,6,福浦325番地の1,町道福浦中通り線沿ガードレール,35.1533822,139.1301884,
神奈川県,湯河原町,7,吉浜375番地 力石宅,川堀会館前石垣,35.1561605,139.1276809,
神奈川県,湯河原町,8,吉浜390番地の1,川堀バス停花壇,35.1507522,139.1225255,緯度経度は怪しい
神奈川県,湯河原町,9,吉浜482番地の16,湯河原小型産業㈱駐車場フェンス,35.1558491,139.1233751,
神奈川県,湯河原町,10,吉浜1930番地の7,たちばな農機サービス店前フェンス,35.1569511,139.1221611,
神奈川県,湯河原町,11,吉浜126番地の1,トーカン真鶴前フェンス,35.15267,139.126486,
神奈川県,湯河原町,12,吉浜1962番地の15,菅井石材資材置場横ガードレール,35.1611535,139.1263772,
神奈川県,湯河原町,13,吉浜1番地,小道地蔵堂西側塀,35.1511382,139.1227042,
神奈川県,湯河原町,14,吉浜863番地,ヘルシープラザ前植え込み,35.1502599,139.1204372,
神奈川県,湯河原町,15,吉浜1044番地の1,旧八雲保育園フェンス,35.1506054,139.1186461,
神奈川県,湯河原町,16,吉浜1300番地,吉浜小学校東側フェンス,35.1507522,139.1225255,
神奈川県,湯河原町,17,吉浜1012番地,力石宅塀,35.1488393,139.1184487,
神奈川県,湯河原町,18,吉浜1475番地の2地先,真砂橋欄干（上流側）,35.1477511,139.1155361,
神奈川県,湯河原町,19,吉浜1511番地の1地先,新崎橋欄干（下流側）,35.1507522,139.1225255,緯度経度は怪しい
神奈川県,湯河原町,20,吉浜1897番地の23地先,白沼田バス停横フェンス,35.1583563,139.1165234,
神奈川県,湯河原町,21,鍛冶屋501番地,柏木宅塀,35.1558729,139.1111203,
神奈川県,湯河原町,22,鍛冶屋376番地の1,鍛冶屋会館フェンス,35.1573382,139.1096421,
神奈川県,湯河原町,23,鍛冶屋360番地,幕山公園通り線フェンス,35.157809,139.1079873,緯度経度は怪しい
神奈川県,湯河原町,24,鍛冶屋732番地の3地先,宮ノ入橋欄干（上流側）,35.1593416,139.1074608,緯度経度は怪しい
神奈川県,湯河原町,25,鍛冶屋726番地の1,五郎神社フェンス,35.1607053,139.10807,
神奈川県,湯河原町,26,鍛冶屋464番地,榎本宅塀,35.1552709,139.1096304,
神奈川県,湯河原町,27,中央四丁目16番地3,クライネスハイム第2塀,35.1534396,139.1128409,
神奈川県,湯河原町,28,中央三丁目13番地4,柏木荘塀,35.1506599,139.1094746,
神奈川県,湯河原町,29,門川9番地の1,八幡神社西側石柵,35.1437457,139.1118241,
神奈川県,湯河原町,30,土肥二丁目10番地,旧門川簡易水道組合ポンプ場フェンス,35.1449056,139.1076089,
神奈川県,湯河原町,31,土肥二丁目19番地の32,土肥二丁目水路沿いフェンス,35.1432988,139.1081321,
神奈川県,湯河原町,32,土肥三丁目6番地の1,万葉荘フェンス,35.1418649,139.1055162,
神奈川県,湯河原町,33,土肥二丁目18番地の9,高橋工務店資材置場フェンス,35.1436192,139.1063451,
神奈川県,湯河原町,34,土肥二丁目11番地の16,蔵町公園南側入口横植込み,35.1446432,139.1077613,
神奈川県,湯河原町,35,土肥二丁目19番地の24,門川会館入口植込み,35.1437077,139.1084973,
神奈川県,湯河原町,36,土肥二丁目6番地の21,福井宅塀（蔵町公園北側）,35.1450531,139.1076205,
神奈川県,湯河原町,37,土肥二丁目3番地の16,富岡宅塀,35.1456951,139.1087691,
神奈川県,湯河原町,38,土肥一丁目11番地の11,御庭公園東側植込み,35.1443684,139.1033989,
神奈川県,湯河原町,39,城堀87番地の1,城堀会館北側柱,35.1462413,139.105299,
神奈川県,湯河原町,40,中央一丁目2番地2,グリューネブルフェンス,35.1466526,139.1074234,
神奈川県,湯河原町,41,中央二丁目2番地1,湯河原町役場入口フェンス,35.1478754,139.1083785,
神奈川県,湯河原町,42,城堀269番地の3地先,バーディゴルフ練習場横フェンス,35.14928090000001,139.1012324,
神奈川県,湯河原町,43,土肥二丁目8番地の1,大石屋材木店入口塀,35.145577,139.1053537,
神奈川県,湯河原町,44,城堀199番地の1,城堀ガード横フェンス,35.1495316,139.1006599,緯度経度は怪しい
神奈川県,湯河原町,45,土肥一丁目7番地の24,湯河原駅臨時第3駐車場西側フェンス,35.1447591,139.1027553,
神奈川県,湯河原町,46,土肥一丁目4番地の3,駅前ポケットパーク柵,35.1455308,139.1026987,
神奈川県,湯河原町,47,土肥一丁目13番地の11,湯河原ガス㈱フェンス,35.1437068,139.1043852,
神奈川県,湯河原町,48,土肥五丁目6番地,桜木公園西側柵,35.1424476,139.0987649,
神奈川県,湯河原町,49,土肥四丁目16番地の3,㈱ナジーデポ中条油槽所塀,35.1413692,139.1029748,
神奈川県,湯河原町,50,土肥五丁目17番地の2,常盤宅塀,35.1415557,139.1002711,
神奈川県,湯河原町,51,土肥一丁目16番地の2,土肥1丁目月極駐車場,35.1438981,139.1011939,
神奈川県,湯河原町,52,宮下638番地の1,二見宅塀,35.1445377,139.0998358,
神奈川県,湯河原町,53,宮下547番地の3,付近待避所フェンス,35.1443185,139.0975917,
神奈川県,湯河原町,54,土肥五丁目11番地の15,丸山宅県道沿フェンス,35.1429213,139.0978134,
神奈川県,湯河原町,55,土肥五丁目8番地の5,渡邊宅塀,35.1421756,139.0984191,
神奈川県,湯河原町,56,土肥五丁目75番地の1,中河原橋バス停下柵,35.1424476,139.0987649,
神奈川県,湯河原町,57,宮下358番地の3,五所神社玉垣,35.1487354,139.0930801,
神奈川県,湯河原町,58,宮上11番地,湯河原小学校正門横石垣,35.1425094,139.0922361,
神奈川県,湯河原町,59,宮上11番地,湯河原小学校西側フェンス,35.1425094,139.0922361,
神奈川県,湯河原町,60,宮上116番地の3,湘南信用金庫湯河原寮堀,35.1421062,139.0883044,
神奈川県,湯河原町,61,宮上142番地の1,鈴木駐車場フェンス,35.1417,139.0876254,
神奈川県,湯河原町,62,宮上252番地の1,室伏宅塀,35.1426275,139.0841495,
神奈川県,湯河原町,63,宮上288番地の2,櫻井宅塀,35.1420409,139.0835761,
神奈川県,湯河原町,64,宮上360番地の2,理想郷バス停上柵,35.1426639,139.0807713,
神奈川県,湯河原町,65,宮上407番地,第2配水池フェンス,35.1454377,139.079695,
神奈川県,湯河原町,66,宮上468番地先,落合橋バス停上フェンス,35.1452132,139.0754952,
神奈川県,湯河原町,67,宮上725番地の1,町営孫込住宅入口石垣,35.1472991,139.0777908,緯度経度は怪しい
神奈川県,湯河原町,68,宮上569番地,こごめの湯前石垣,35.14524979999999,139.0734551,
神奈川県,湯河原町,69,宮上506番地の4地先,藤木橋下フェンス,35.1647597,139.0564588,緯度経度は怪しい
神奈川県,湯河原町,70,宮上623番地の1地先,美術館フェンス,35.1481195,139.0710966,
神奈川県,湯河原町,71,宮上775番地の18,山翠楼従業員寮塀,35.1583934,139.0615771,緯度経度は怪しい
神奈川県,湯河原町,72,宮上688番地の3地先,梅園橋柵下（上流側）,35.16021,139.0599957,緯度経度は怪しい
神奈川県,湯河原町,73,中央五丁目12番地,亀ヶ原公園南側入口植込み,35.1486284,139.1139269,
神奈川県,湯河原町,74,中央一丁目22番地1,西本宅塀,35.1465678,139.1133148,
神奈川県,湯河原町,75,中央五丁目15番地3,駐車場フェンス,35.1487576,139.1129476,
神奈川県,湯河原町,76,中央二丁目21番地1,湯河原町民体育館駐車場フェンス,35.1489002,139.110577,
神奈川県,湯河原町,77,中央四丁目11番地2,湯河原中央温泉病院柵,35.1511511,139.1120607,
神奈川県,湯河原町,78,中央一丁目21番地6,マックスバリュ湯河原店駐車場フェンス,35.1469821,139.1128222,
神奈川県,湯河原町,79,中央一丁目16番地1,まさご保育園フェンス,35.1463314,139.1110259,
神奈川県,湯河原町,80,吉浜1576番地の31,湯河原中学校柵,35.14467339999999,139.1136603,
神奈川県,湯河原町,81,中央一丁目13番地9,平澤宅塀,35.1470983,139.1103927,
神奈川県,湯河原町,82,中央一丁目14番地1,石井宅塀,35.1467723,139.1106851,
