prefecture,city,number,address,name,lat,long,note
神奈川県,相模原市,1,中央区,11てるて公園東側,35.5686022,139.3606001,
神奈川県,相模原市,2,中央区,12横山小学校西側,35.5655384,139.3543314,
神奈川県,相模原市,3,中央区,13松並子ども広場東側,35.5700632,139.3522205,
神奈川県,相模原市,4,中央区,14横山公民館,35.5682908,139.3564878,
神奈川県,相模原市,5,中央区,15横山小学校プール横,35.5657806,139.35615,
神奈川県,相模原市,6,中央区,16横山台公園西側,35.5644297,139.3570782,
神奈川県,相模原市,7,中央区,17てるて公園西側,35.5688346,139.3599081,
神奈川県,相模原市,8,中央区,18横山小学校南側,35.565233,139.355568,
神奈川県,相模原市,9,中央区,21横山２丁目交差点北側緑地帯,35.5652901,139.3695691,
神奈川県,相模原市,10,中央区,22県立相模原高等学校北側,35.5688937,139.3667911,
神奈川県,相模原市,11,中央区,23横山あじさいハイツ集会所前,35.5666944,139.363724,
神奈川県,相模原市,12,中央区,24県立相模原高等学校南側,35.5673424,139.365088,
神奈川県,相模原市,13,中央区,25長久保第１公園南側,35.5658124,139.3628777,
神奈川県,相模原市,14,中央区,26横山５丁目公園南側,35.5637717,139.3617025,
神奈川県,相模原市,15,中央区,27長久保第２公園南側,35.5645576,139.3646706,
神奈川県,相模原市,16,中央区,31千代田２丁目１番１８号前緑地帯,35.5663862,139.3708303,
神奈川県,相模原市,17,中央区,32市営横山住宅東側,35.5609802,139.366617,
神奈川県,相模原市,18,中央区,33市営星が丘住宅前,35.5607341,139.3686277,
神奈川県,相模原市,19,中央区,34星が丘小学校東側,35.5597585,139.3719142,
神奈川県,相模原市,20,中央区,35星が丘小学校南側,35.5593296,139.3701784,
神奈川県,相模原市,21,中央区,36星が丘小学校北側,35.5607492,139.3705785,
神奈川県,相模原市,22,中央区,37星が丘ふれあい広場北側,35.5586561,139.3713872,
神奈川県,相模原市,23,中央区,38横山２丁目交差点東側緑地帯,35.5651066,139.3698443,
神奈川県,相模原市,24,中央区,41千代田７丁目水道道緑道,35.5602671,139.3807613,
神奈川県,相模原市,25,中央区,42千代田ふれあい広場北側,35.5596419,139.3756021,
神奈川県,相模原市,26,中央区,43月見公園北側,35.5648234,139.3765223,
神奈川県,相模原市,27,中央区,44千代田ふれあい広場西側,35.5593953,139.3752024,
神奈川県,相模原市,29,中央区,46月見公園南側,35.5645005,139.3764793,
神奈川県,相模原市,30,中央区,47昭和シェルガソリンスタンド横空地,35.5644325,139.3790996,
神奈川県,相模原市,48,中央区千代田７丁目１１番千代田緑道北側,千代田緑道北側,,,削除
神奈川県,相模原市,31,中央区,51並木小学校屋内運動場入口横,35.5578685,139.3798499,
神奈川県,相模原市,32,中央区,52並木小学校南側,35.5572242,139.3811615,
神奈川県,相模原市,33,中央区,53光が丘小学校西側,35.5545914,139.3760889,
神奈川県,相模原市,34,中央区,54光が丘小学校南側,35.5538058,139.3768641,
神奈川県,相模原市,35,中央区,55光が丘第１公園,35.5569576,139.378801,
神奈川県,相模原市,36,中央区,56光が丘第２公園,35.554588,139.3784584,
神奈川県,相模原市,37,中央区,57山見公園南側,35.5568866,139.3762055,
神奈川県,相模原市,38,中央区,61ひまわり公園,35.5557849,139.3711091,
神奈川県,相模原市,39,中央区,62道保川公園北側,35.5496615,139.3740889,
神奈川県,相模原市,40,中央区,63陽光台小学校西側,35.5549079,139.3681874,
神奈川県,相模原市,41,中央区,64陽光台小学校屋内運動場横,35.5548162,139.3696466,
神奈川県,相模原市,42,中央区,65道保川公園東側,35.5489239,139.3747567,
神奈川県,相模原市,43,中央区,66上溝坂上公園,35.5578415,139.3640166,
神奈川県,相模原市,44,中央区,67陽光台公民館,35.5501964,139.3763781,
神奈川県,相模原市,45,中央区,68光が丘小学校前交差点南西側緑地帯,35.553613,139.3764753,
神奈川県,相模原市,46,中央区,71並木ふれあい広場西側,35.5530012,139.382773,
神奈川県,相模原市,47,中央区,72里見公園南側,35.5518739,139.3812593,
神奈川県,相模原市,48,中央区,73青葉小学校東側,35.5549323,139.3832329,
神奈川県,相模原市,49,中央区,74県営光が丘ハイム１号棟前,35.5497375,139.3788394,
神奈川県,相模原市,50,中央区,75県営上溝団地１０－１４号棟南側,35.5511395,139.3819975,
神奈川県,相模原市,51,中央区,76上溝団地１０－２号棟北側,35.5520929,139.3823803,
神奈川県,相模原市,52,中央区,77青葉小学校北側,35.5546879,139.3825194,
神奈川県,相模原市,53,中央区,81マクドナルド陽光台店駐車場横畑,35.5490199,139.3781517,
神奈川県,相模原市,54,中央区,82虹が丘公園,35.5477706,139.3774478,
神奈川県,相模原市,55,中央区,83緑が丘中学校正門横,35.5478797,139.3827838,
神奈川県,相模原市,56,中央区,84みどりの道,35.5466202,139.382895,
神奈川県,相模原市,57,中央区,85そらの広場前,35.5484952,139.387496,
神奈川県,相模原市,58,中央区,86緑が丘２丁目公園,35.5502502,139.3853963,
神奈川県,相模原市,59,中央区,87みどりの道いしの小径,35.5474477,139.3848675,
神奈川県,相模原市,60,中央区,91松ヶ丘２丁目交差点西側緑地帯,35.5545749,139.3959618,
神奈川県,相模原市,61,中央区,92弥栄小入口交差点南側緑地帯,35.5569324,139.3849134,
神奈川県,相模原市,62,中央区,93松が丘園前,35.5533261,139.3920068,
神奈川県,相模原市,63,中央区,94青山学院大学緑ヶ丘グランド向畑,35.5498141,139.38762,
神奈川県,相模原市,64,中央区,95青葉第２雨水調整池,35.5487145,139.3913145,
神奈川県,相模原市,65,中央区,96和泉短大グランド西側,35.5504992,139.3888317,
神奈川県,相模原市,66,中央区,97和泉短大グランド北側,35.5506891,139.3889819,
神奈川県,相模原市,67,中央区,101淵野辺公園バス停奥,35.5538598,139.3927499,
神奈川県,相模原市,68,中央区,102淵野辺公園東側,35.5555117,139.3948743,
神奈川県,相模原市,69,中央区,103弥栄小学校正門横,35.5581218,139.3868939,
神奈川県,相模原市,70,中央区,104栄公園,35.5608224,139.3840701,
神奈川県,相模原市,71,中央区,105弥栄児童館,35.5605706,139.3867211,
神奈川県,相模原市,72,中央区,106緑の森チビッ子広場前,35.5618271,139.3888877,
神奈川県,相模原市,73,中央区,107市営東団地５号棟西側,35.5626098,139.3873857,
神奈川県,相模原市,74,中央区,108由野台中学校南側,35.5560486,139.3961411,
神奈川県,相模原市,75,中央区,111県営相生ハイツ西側,35.5648737,139.3868198,
神奈川県,相模原市,76,中央区,112相生公園,35.5662172,139.3840712,
神奈川県,相模原市,77,中央区,113富士見公園,35.5661142,139.3801964,
神奈川県,相模原市,78,中央区,114富士見小学校南側中央公民館横,35.5674822,139.379917,
神奈川県,相模原市,79,中央区,115県営富士見団地３号棟前,35.5673892,139.3773305,
神奈川県,相模原市,80,中央区,116中央中学校東側,35.5696733,139.3777397,
神奈川県,相模原市,81,中央区,117中央小学校南西側,35.5696242,139.3755631,
神奈川県,相模原市,82,中央区,118相模原市農協向緑地帯,35.567463,139.3715749,
神奈川県,相模原市,83,中央区,121ＮＴＴ東日本新相模原ビル南側,35.5682257,139.3682676,
神奈川県,相模原市,84,中央区,122中央５丁目公園,35.5698471,139.3677966,
神奈川県,相模原市,85,中央区,123市役所第２駐車場北側緑地帯,35.5711528,139.3722167,
神奈川県,相模原市,86,中央区,124市役所本庁舎前,35.5713112,139.3742323,
神奈川県,相模原市,87,中央区,125消防指令センター北西側緑地帯,35.5730639,139.3703915,
神奈川県,相模原市,88,中央区,126グリーンプラザバス停南西側緑地帯,35.5738563,139.3760822,
神奈川県,相模原市,89,中央区,127市役所公用車駐車場北側,35.5729038,139.3724695,
神奈川県,相模原市,90,中央区,128増田立体駐車場,35.5772176,139.3763058,
神奈川県,相模原市,91,中央区,129さがみ仁和会病院前線路沿い,35.5775778,139.3779711,
神奈川県,相模原市,92,中央区,131相模原警察署前交差点東側緑地帯,35.5725673,139.3753446,
神奈川県,相模原市,93,中央区,132矢部あじさい公園,35.5748826,139.3775528,
神奈川県,相模原市,94,中央区,133西門大通り東側緑地帯,35.5755949,139.3773936,
神奈川県,相模原市,95,中央区,134横河レンタ・リース（株）東側,35.5711275,139.3787014,
神奈川県,相模原市,96,中央区,135村富公園,35.5730612,139.3807023,
神奈川県,相模原市,97,中央区,136村富神社西側,35.5737418,139.380536,
神奈川県,相模原市,98,中央区,137村富神社北側,35.573683,139.3816277,
神奈川県,相模原市,99,中央区,138ＪＲ横浜線矢部駅西側線路沿い,35.5734299,139.3858667,
神奈川県,相模原市,100,中央区,141学研相模栄光幼稚園駐車場,35.5696003,139.3848896,
神奈川県,相模原市,101,中央区,142ＪＲ横浜線矢部駅ふれあい地下道横,35.5724176,139.3876742,
神奈川県,相模原市,102,中央区,143相模白ゆり幼稚園正門横,35.5715777,139.3883415,
神奈川県,相模原市,103,中央区,144矢部公園,35.5713571,139.3894434,
神奈川県,相模原市,104,中央区,145榎町交差点西側緑地帯,35.5689068,139.3888548,
神奈川県,相模原市,105,中央区,146矢部ふれあい広場,35.5686825,139.3870804,
神奈川県,相模原市,106,中央区,147矢部３丁目７番信号南側緑地帯,35.5706849,139.3832815,
神奈川県,相模原市,107,中央区,151比丘口公園,35.5738835,139.368978,
神奈川県,相模原市,108,中央区,152清新ふれあい広場,35.5730199,139.363869,
神奈川県,相模原市,109,中央区,153清新中学校西側,35.5730374,139.3612599,
神奈川県,相模原市,110,中央区,154矢懸公園,35.5762534,139.3637836,
神奈川県,相模原市,111,中央区,155清新小学校東側,35.5774738,139.3629352,
神奈川県,相模原市,112,中央区,156清新小学校西側,35.5777138,139.3609744,
神奈川県,相模原市,113,中央区,157清新５丁目ふれあい公園,35.5795425,139.3588951,
神奈川県,相模原市,114,中央区,158氷川公園,35.580122,139.355699,
神奈川県,相模原市,115,中央区,161県営南橋本プラザハイム南側,35.5775997,139.3544511,
神奈川県,相模原市,116,中央区,162南橋本自治会館,35.5800269,139.3538874,
神奈川県,相模原市,117,中央区,163南橋本駅西口第２無料自転車駐車場前,35.5818919,139.3524803,
神奈川県,相模原市,118,中央区,164南橋本雨水調整池,35.5826107,139.3511808,
神奈川県,相模原市,119,中央区,165南橋本公園,35.5800238,139.3506209,
神奈川県,相模原市,120,中央区,166柴胡ヶ原霊園,35.5808045,139.3488562,
神奈川県,相模原市,121,中央区,167ＩＩＦ相模原Ｒ＆Ｄセンター南側,35.5763075,139.3518013,
神奈川県,相模原市,122,中央区,168南橋本駅ロータリー植栽帯,35.5801411,139.3528189,
神奈川県,相模原市,123,中央区,171相模原２丁目交差点北側植栽帯,35.5786325,139.3695868,
神奈川県,相模原市,124,中央区,172相模原４丁目ふれあい公園,35.5792613,139.3735488,
神奈川県,相模原市,125,中央区,173相模原７丁目公園南側,35.5762936,139.3693878,
神奈川県,相模原市,126,中央区,174相模原駅３丁目交差点北側緑地帯,35.5776954,139.3686278,
神奈川県,相模原市,127,中央区,175相模原保育園,35.5780677,139.3657015,
神奈川県,相模原市,128,中央区,176相模原２丁目すみれ公園西側,35.5787947,139.3661047,
神奈川県,相模原市,129,中央区,177相模原７丁目公園北側,35.5766492,139.3696399,
神奈川県,相模原市,130,中央区,178相模原２丁目すみれ公園東側,35.5788034,139.3665499,
神奈川県,相模原市,131,中央区,181氷川神社前交差点西側緑地帯,35.5824206,139.3616729,
神奈川県,相模原市,132,中央区,182清新４丁目公園北側,35.5825191,139.3590528,
神奈川県,相模原市,133,中央区,183(株)オハラ正門横,35.5858189,139.3587229,
神奈川県,相模原市,134,中央区,184小山１丁目交差点北側,35.5873317,139.3555994,
神奈川県,相模原市,135,中央区,185小山公園,35.5882222,139.3535533,
神奈川県,相模原市,136,中央区,186小原公園,35.5854389,139.3552296,
神奈川県,相模原市,137,中央区,187小山中学校西側,35.5875532,139.3536785,
神奈川県,相模原市,138,中央区,191相模原駅南口ペデストリアンデッキ上,35.5809125,139.3707305,
神奈川県,相模原市,139,中央区,192氷川町公園,35.5822456,139.3647096,
神奈川県,相模原市,140,中央区,193相模原１丁目ほほえみ公園,35.5830776,139.3667836,
神奈川県,相模原市,141,中央区,194相模原駅北口自転車駐車場北側緑地帯,35.5829131,139.3685198,
神奈川県,相模原市,142,中央区,195向陽小学校東側小山公民館横,35.5855333,139.3679099,
神奈川県,相模原市,143,中央区,196向陽小学校正門横,35.5867995,139.3669778,
神奈川県,相模原市,144,中央区,197すすきの住宅,35.5895535,139.3668937,
神奈川県,相模原市,285,中央区,198すすきの公園,35.5891705,139.3681776,順番を入れ替え
神奈川県,相模原市,145,中央区,201グランメールⅡ番館前,35.5891763,139.3782653,
神奈川県,相模原市,146,中央区,202宮下さくら公園南側,35.5893855,139.3768134,
神奈川県,相模原市,147,中央区,203宮下さくら公園北側,35.5897116,139.3772775,
神奈川県,相模原市,148,中央区,204すすきの第２雨水調整池,35.5909269,139.3697794,
神奈川県,相模原市,149,中央区,205すすきの第１雨水調整池,35.5904048,139.3709843,
神奈川県,相模原市,150,中央区,206小山ふれあい広場,35.5921692,139.3674527,
神奈川県,相模原市,151,中央区,207宮下雨水調整池北側,35.5968072,139.3620148,
神奈川県,相模原市,152,中央区,208宮下雨水調整池南側,35.5965362,139.362222,
神奈川県,相模原市,153,中央区,211日本電気（株）正門横,35.578882,139.3473144,
神奈川県,相模原市,154,中央区,212南橋本３丁目交差点北側,35.5764758,139.347765,
神奈川県,相模原市,155,中央区,213あじさい通りヤオコー横,35.5764455,139.3461365,
神奈川県,相模原市,156,中央区,214ビレッジハウス下九沢,35.5749983,139.3450312,
神奈川県,相模原市,157,中央区,215下九沢つくし公園,35.5748756,139.3465937,
神奈川県,相模原市,158,中央区,216下九沢児童館,35.5740933,139.3462971,
神奈川県,相模原市,159,中央区,217宮山坂公園,35.5732222,139.3458877,
神奈川県,相模原市,160,中央区,221矢部駅北口ロータリー植込み,35.5731407,139.3874635,
神奈川県,相模原市,161,中央区,222上矢部公園,35.5737887,139.3877223,
神奈川県,相模原市,162,中央区,223県営上矢部団地８号棟前植樹帯,35.5756012,139.3875614,
神奈川県,相模原市,163,中央区,224青少年学習センター前,35.5744498,139.3876407,
神奈川県,相模原市,164,中央区,225淵野辺１丁目第１公園北側,35.5736196,139.3910125,
神奈川県,相模原市,165,中央区,226淵野辺１丁目第１公園南側,35.5731047,139.3912057,
神奈川県,相模原市,166,中央区,227麻布大学附属家畜病院体育館前,35.5751152,139.3922526,
神奈川県,相模原市,167,中央区,231緑地帯,35.586396,139.3862781,
神奈川県,相模原市,168,中央区,masked,35.5834173,139.3919521,
神奈川県,相模原市,169,中央区,233上矢部あさひ公園,35.5826895,139.39369,
神奈川県,相模原市,170,中央区,234上矢部みたけ子ども広場,35.5847373,139.3929725,
神奈川県,相模原市,171,中央区,235上矢部はなみずき公園,35.5842945,139.3946752,
神奈川県,相模原市,172,中央区,236上矢部けやき公園,35.5839485,139.3984059,
神奈川県,相模原市,173,中央区,237上矢部こども会館,35.5813861,139.3928006,
神奈川県,相模原市,174,中央区,238緑地帯,35.5878078,139.3871877,
神奈川県,相模原市,175,中央区,241宝来公園,35.5711397,139.391945,
神奈川県,相模原市,176,中央区,242幸町児童館,35.5716218,139.39732,
神奈川県,相模原市,177,中央区,243淵野辺駅北口ロータリー植え込み,35.5694528,139.3942969,
神奈川県,相模原市,178,中央区,244中淵西山公園,35.5695028,139.405553,
神奈川県,相模原市,179,中央区,245淵野辺ひばり幼稚園正門横,35.5705997,139.4000108,
神奈川県,相模原市,180,中央区,246青山学院大学H棟前,35.5689719,139.4024487,
神奈川県,相模原市,181,中央区,247淵野辺小学校東側,35.5725099,139.397729,
神奈川県,相模原市,182,中央区,248桜美林大学プラネット淵野辺キャンパス,35.5685281,139.3961203,
神奈川県,相模原市,183,中央区,251上原公園,35.5805933,139.3950942,
神奈川県,相模原市,184,中央区,252ボヌールⅡ横,35.5759034,139.3988641,
神奈川県,相模原市,185,中央区,253大野北中学校北側,35.5755599,139.3952608,
神奈川県,相模原市,186,中央区,254大野北中学校南側,35.5737797,139.3972349,
神奈川県,相模原市,187,中央区,255大野北小学校東側,35.5742452,139.3992392,
神奈川県,相模原市,188,中央区,256日立建機日本㈱北側,35.5771626,139.3926406,
神奈川県,相模原市,189,中央区,257淵野辺本町第２公園,35.5720175,139.4029952,
神奈川県,相模原市,190,中央区,258山王公園,35.5743033,139.4026297,
神奈川県,相模原市,191,中央区,261青山学院大学　I棟東側,35.5677818,139.4053363,
神奈川県,相模原市,192,中央区,262淵野辺本町公園南側,35.5686874,139.4072657,
神奈川県,相模原市,193,中央区,263東嶽之内公園,35.5652585,139.4141726,
神奈川県,相模原市,194,中央区,264嶽之内公園,35.56805,139.4104334,
神奈川県,相模原市,195,中央区,265淵野辺本町公園北側,35.5689918,139.4069116,
神奈川県,相模原市,196,中央区,266淵野辺東小学校南側,35.5600661,139.4150437,
神奈川県,相模原市,197,中央区,267淵野辺東小学校東側,35.5593765,139.4165095,
神奈川県,相模原市,198,中央区,268東淵野辺１丁目公園,35.5635085,139.4108917,
神奈川県,相模原市,199,中央区,271共和嶽之内立体緑地帯,35.5624944,139.4065651,
神奈川県,相模原市,200,中央区,272西野工務店前線路沿い,35.56145,139.4087084,
神奈川県,相模原市,201,中央区,273たけのうち幼稚園駐車場東側畑内,35.558705,139.4123383,
神奈川県,相模原市,202,中央区,274東京電力古淵変電所,35.5569355,139.4145362,
神奈川県,相模原市,203,中央区,275東淵野辺正栄公園,35.5597104,139.4087095,
神奈川県,相模原市,204,中央区,276嶽之内児童館,35.5598518,139.4113207,
神奈川県,相模原市,205,中央区,277東淵野辺４丁目南公園,35.5576652,139.4100753,
神奈川県,相模原市,206,中央区,281鹿沼公園西側,35.5666959,139.3904135,
神奈川県,相模原市,207,中央区,282鹿沼公園駐車場前,35.5674235,139.392342,
神奈川県,相模原市,208,中央区,283淵野辺駅南口緑地帯,35.5680666,139.3941808,
神奈川県,相模原市,209,中央区,284共和中学校正門横,35.5663871,139.3974201,
神奈川県,相模原市,210,中央区,285共和中学校南側,35.5648342,139.3976065,
神奈川県,相模原市,211,中央区,286鹿沼児童交通公園東側,35.5666195,139.3939795,
神奈川県,相模原市,212,中央区,287共和１丁目公園（南側）,35.5635113,139.3987644,
神奈川県,相模原市,213,中央区,288共和１丁目公園（北側）,35.5638691,139.3984439,
神奈川県,相模原市,214,中央区,291銀河北公園東側,35.5618131,139.3960111,
神奈川県,相模原市,215,中央区,292共和桜の木公園,35.5629308,139.4009316,
神奈川県,相模原市,216,中央区,293銀河北公園北側,35.5621175,139.3959468,
神奈川県,相模原市,217,中央区,294共和小学校東側,35.5603892,139.3959968,
神奈川県,相模原市,218,中央区,295共和小学校南側,35.5600815,139.3953249,
神奈川県,相模原市,219,中央区,296由野台第３公園,35.559934,139.3963024,
神奈川県,相模原市,220,中央区,297由野台第１公園,35.5591144,139.4007103,
神奈川県,相模原市,221,中央区,298由野台第２公園,35.5575084,139.3979967,
神奈川県,相模原市,222,中央区,301田名バスターミナル西側信号横,35.550852,139.3349101,
神奈川県,相模原市,223,中央区,302田名北小学校体育館横緑道沿い,35.5547107,139.3347014,
神奈川県,相模原市,224,中央区,303田名北小学校東側,35.5553817,139.3354001,
神奈川県,相模原市,225,中央区,304田名四ツ谷自治会館前,35.5545728,139.337683,
神奈川県,相模原市,226,中央区,305田名みどり野公園,35.5593691,139.3351006,
神奈川県,相模原市,227,中央区,306田名やすらぎ公園,35.5629037,139.3311118,
神奈川県,相模原市,228,中央区,307田名比羅野公園,35.5678332,139.3357575,
神奈川県,相模原市,229,中央区,308東陽倉庫㈱相模原営業所前,35.5573961,139.3425709,
神奈川県,相模原市,230,中央区,311田名中学校正門横,35.5509132,139.3374261,
神奈川県,相模原市,231,中央区,312田名まちづくりセンター駐車場前,35.5495867,139.3361764,
神奈川県,相模原市,232,中央区,313田名小学校体育館横,35.548139,139.3364749,
神奈川県,相模原市,233,中央区,314田名小学校正門横,35.5492274,139.3370455,
神奈川県,相模原市,234,中央区,315三角山公園,35.5507987,139.3369185,
神奈川県,相模原市,235,中央区,316県立相模田名高校西側,35.5488668,139.3442228,
神奈川県,相模原市,236,中央区,317新宿小学校東側,35.5508026,139.3519223,
神奈川県,相模原市,237,中央区,318新宿さわやか公園,35.5469457,139.3548792,
神奈川県,相模原市,238,中央区,321田名団地公園南側,35.5450305,139.341006,
神奈川県,相模原市,239,中央区,322南光寺前バス停前,35.5424782,139.338138,
神奈川県,相模原市,240,中央区,323田名団地３号棟南側,35.5448297,139.3430227,
神奈川県,相模原市,241,中央区,324市営田名塩田団地１号棟前,35.5332804,139.3519529,
神奈川県,相模原市,242,中央区,325しおだせせらぎ公園,35.5343001,139.3531303,
神奈川県,相模原市,243,中央区,326八瀬川緑道塩田さくら橋交差点際,35.5358083,139.3543104,
神奈川県,相模原市,244,中央区,327田名塩田１丁目８番８号先植栽帯,35.5383846,139.3581875,
神奈川県,相模原市,245,中央区,328市営田名塩田団地カインズホーム向い,35.5341448,139.35145,
神奈川県,相模原市,246,中央区,331滝自治会館前,35.5470292,139.3256555,
神奈川県,相模原市,247,中央区,332相模川ふれあい科学館滝ふれあい橋横,35.5478202,139.3290916,
神奈川県,相模原市,248,中央区,333相模川ふれあい科学館北東側三差路,35.547872,139.3297152,
神奈川県,相模原市,249,中央区,334相模川ふれあい科学館東側,35.5473494,139.329852,
神奈川県,相模原市,250,中央区,335田名八幡宮前,35.5462814,139.3281023,
神奈川県,相模原市,251,中央区,336水郷田名ひがし公園前,35.5452029,139.3337995,
神奈川県,相模原市,252,中央区,337水郷田名子どもの広場前,35.5433449,139.3301229,
神奈川県,相模原市,253,中央区,341日金沢公園,35.5626844,139.3554495,
神奈川県,相模原市,254,中央区,342横山公園第４駐車場前,35.5610595,139.3646709,
神奈川県,相模原市,255,中央区,343上溝小学校北側,35.5554254,139.3600398,
神奈川県,相模原市,256,中央区,344上溝小学校西側,35.5544129,139.3602356,
神奈川県,相模原市,257,中央区,345県営上溝神明団地公園,35.5514743,139.3570472,
神奈川県,相模原市,258,中央区,346上溝南中学校,35.5490767,139.3561876,
神奈川県,相模原市,259,中央区,347区画整理事業記念碑横,35.5492245,139.3628087,
神奈川県,相模原市,260,中央区,348上溝こまどり公園,35.5598919,139.359579,
神奈川県,相模原市,261,中央区,351田尻第２公園,35.5496719,139.3615735,
神奈川県,相模原市,262,中央区,352田尻第１公園,35.5466123,139.3639701,
神奈川県,相模原市,263,中央区,353上溝南小学校北側,35.5427287,139.3665201,
神奈川県,相模原市,264,中央区,354虹吹公園,35.5459984,139.3695071,
神奈川県,相模原市,265,中央区,355県立上溝南高等学校北側,35.5422434,139.3625766,
神奈川県,相模原市,266,中央区,356相模原市農協スポーツ広場,35.547973,139.3671592,
神奈川県,相模原市,267,中央区,357虹吹自治会館前,35.5474237,139.3702659,
神奈川県,相模原市,268,中央区,358田島公園,35.5488983,139.3705704,
神奈川県,相模原市,269,中央区,361鳩川つつじ公園,35.55383,139.3566569,
神奈川県,相模原市,270,中央区,362上溝北ふれあい広場西側,35.560107,139.3513377,
神奈川県,相模原市,271,中央区,363市営石橋団地２号棟東側,35.5576255,139.3513693,
神奈川県,相模原市,272,中央区,364石住若草公園北側,35.558257,139.3507068,
神奈川県,相模原市,273,中央区,365豊原公園,35.5545618,139.3493447,
神奈川県,相模原市,274,中央区,366石橋自治会館前,35.5534609,139.353859,
神奈川県,相模原市,275,中央区,367県立上溝高等学校北側,35.556602,139.3558442,
神奈川県,相模原市,276,中央区,368上溝中央公園,35.5550119,139.3568364,
神奈川県,相模原市,277,中央区,371上溝川辺公園県道沿い,35.5637375,139.3504113,
神奈川県,相模原市,278,中央区,372四ツ谷児童館,35.5647372,139.3485737,
神奈川県,相模原市,279,中央区,373作の口交差点西側,35.5654844,139.3489916,
神奈川県,相模原市,280,中央区,374四ツ谷さくら橋横緑地帯,35.5690765,139.3463238,
神奈川県,相模原市,281,中央区,375上溝雨水調整池,35.5667819,139.345731,
神奈川県,相模原市,282,中央区,376上溝四ッ谷第１雨水調整池,35.5649575,139.3469151,
神奈川県,相模原市,283,中央区,377相模原市消防団第３分団横,35.5658669,139.3499557,
神奈川県,相模原市,284,中央区,378上溝みどり公園,35.5630515,139.3540162,
神奈川県,相模原市,599,緑区,11東橋本ポケットパーク北側,35.5970532,139.3574054,
神奈川県,相模原市,600,緑区,12京王帝都相模原線多摩境第１８架道橋前,35.5953764,139.3561909,
神奈川県,相模原市,601,緑区,13東橋本ブレーメン公園,35.5949185,139.3551895,
神奈川県,相模原市,602,緑区,14東橋本公園,35.5915485,139.3544001,
神奈川県,相模原市,603,緑区,15京王帝都相模原線多摩境第２２架道橋前,35.5938409,139.35065,
神奈川県,相模原市,604,緑区,16やすらぎの道立体北東側路側帯,35.5933061,139.348865,
神奈川県,相模原市,605,緑区,17宮上公園,35.5953168,139.3509003,
神奈川県,相模原市,606,緑区,18宮上児童館,35.5966211,139.3531975,
神奈川県,相模原市,607,緑区,21新町やすらぎ公園,35.593524,139.3486976,
神奈川県,相模原市,608,緑区,22橋本駅北口第２自動車駐車場入口スロープ横,35.5947175,139.3467228,
神奈川県,相模原市,609,緑区,23北消防署,35.5969788,139.3486677,
神奈川県,相模原市,610,緑区,24宮上小学校正門横,35.5998024,139.3505979,
神奈川県,相模原市,611,緑区,25宮上小学校北側,35.6006922,139.3508487,
神奈川県,相模原市,612,緑区,26橋本４丁目団地プレイグランド西側,35.6008493,139.3481692,
神奈川県,相模原市,613,緑区,27橋本４丁目団地２号棟南側,35.5999344,139.3482282,
神奈川県,相模原市,614,緑区,31橋本駅北口ペデストリアンデッキ上,35.5954366,139.3448841,
神奈川県,相模原市,615,緑区,32ＮＴＴ橋本ビル北側,35.598066,139.3457842,
神奈川県,相模原市,616,緑区,33橋本寿町公園,35.600257,139.3457075,
神奈川県,相模原市,617,緑区,34旭小学校正門横,35.5990624,139.3438742,
神奈川県,相模原市,618,緑区,35旭小学校西側,35.5992341,139.3426451,
神奈川県,相模原市,619,緑区,36神明大神宮西側,35.5985135,139.3388808,
神奈川県,相模原市,620,緑区,37旭児童クラブ,35.6006776,139.3407577,
神奈川県,相模原市,621,緑区,38元橋本けやき公園,35.6032501,139.3361808,
神奈川県,相模原市,969,緑区,39　元橋本ふよう公園,35.603436,139.3376252,
神奈川県,相模原市,622,緑区,41橋本駅南口第一自転車駐車場前,35.593635,139.3463055,
神奈川県,相模原市,623,緑区,42橋本２丁目交差点忠魂碑前,35.5954072,139.3417806,
神奈川県,相模原市,624,緑区,43橋本郵便局北西側,35.5978243,139.3355086,
神奈川県,相模原市,625,緑区,44平和公園,35.5933332,139.337199,
神奈川県,相模原市,626,緑区,45西橋本３丁目トライ公園前,35.594496,139.33379,
神奈川県,相模原市,627,緑区,46橋本公園西側,35.5958149,139.335801,
神奈川県,相模原市,628,緑区,47橋本公園南側,35.595298,139.3363421,
神奈川県,相模原市,629,緑区,48西橋本２丁目公園,35.5945559,139.3371705,
神奈川県,相模原市,630,緑区,51橋本小学校正門横,35.5873425,139.3451861,
神奈川県,相模原市,631,緑区,52橋本小学校裏門横,35.5883343,139.3437512,
神奈川県,相模原市,632,緑区,53橋本みどり子どもの広場前,35.5903205,139.3440057,
神奈川県,相模原市,633,緑区,54橋本台ふれあい公園前,35.5816162,139.3462286,
神奈川県,相模原市,634,緑区,55西橋本くすのき公園前,35.5893146,139.3407853,
神奈川県,相模原市,635,緑区,56西橋本はなみずき公園前,35.588495,139.3378079,
神奈川県,相模原市,636,緑区,57もみの木公園前,35.58548,139.3418089,
神奈川県,相模原市,637,緑区,58峡の原ひばり公園前,35.5911915,139.3339154,
神奈川県,相模原市,638,緑区,61橋本高校南側,35.5986114,139.3344014,
神奈川県,相模原市,639,緑区,62相原中学校正門横,35.5987387,139.3327129,
神奈川県,相模原市,640,緑区,63相原中学校北側,35.6001934,139.331927,
神奈川県,相模原市,641,緑区,64相原台バス停横,35.5984332,139.3294097,
神奈川県,相模原市,642,緑区,masked,35.6023594,139.327431,
神奈川県,相模原市,643,緑区,66当麻田小学校正門横,35.6030056,139.3285943,
神奈川県,相模原市,644,緑区,67当麻田小学校西側,35.6032275,139.3271171,
神奈川県,相模原市,645,緑区,68相原第２雨水調整池前,35.6022969,139.3252271,
神奈川県,相模原市,646,緑区,71田通公園北側,35.6038651,139.3220915,
神奈川県,相模原市,647,緑区,72相原第３雨水調整池,35.6038815,139.3205501,
神奈川県,相模原市,648,緑区,73相原保育園フェンス,35.601685,139.3218752,
神奈川県,相模原市,649,緑区,74相原小学校南側,35.5987578,139.3212201,
神奈川県,相模原市,650,緑区,75相原公民館前,35.5994752,139.3202465,
神奈川県,相模原市,651,緑区,76ルインズマルヤマ駐車場南側,35.6016454,139.3179438,
神奈川県,相模原市,652,緑区,77当麻田どうどう公園前,35.6015133,139.3193662,
神奈川県,相模原市,653,緑区,78二本松交差点前,35.5985439,139.3203434,
神奈川県,相模原市,654,緑区,81松の内公園前,35.5972271,139.3250334,
神奈川県,相模原市,655,緑区,82市営二本松団地前（国道沿い）,35.5985437,139.3233315,
神奈川県,相模原市,656,緑区,83二本松集会所前,35.5975978,139.3230921,
神奈川県,相模原市,657,緑区,84神奈川中央交通東㈱橋本営業所前,35.5918048,139.3261861,
神奈川県,相模原市,658,緑区,85西橋本ふれあい広場南側,35.5917161,139.3292185,
神奈川県,相模原市,659,緑区,86西橋本下原公園前,35.5937644,139.3303065,
神奈川県,相模原市,660,緑区,87西橋本ひかり公園前,35.5939623,139.3272241,
神奈川県,相模原市,661,緑区,91日枝前公園南側,35.5959779,139.3197573,
神奈川県,相模原市,662,緑区,92二本松こどもセンター東側,35.593764,139.3212188,
神奈川県,相模原市,663,緑区,93二本松小学校北側,35.5925551,139.3172393,
神奈川県,相模原市,664,緑区,94二本松小学校正門横,35.5917797,139.317708,
神奈川県,相模原市,665,緑区,95上松並公園前,35.5901623,139.3188243,
神奈川県,相模原市,666,緑区,96窪ノ淵公園前,35.5915801,139.324846,
神奈川県,相模原市,667,緑区,97相原下九沢雨水調整池東側,35.5886008,139.3212367,
神奈川県,相模原市,668,緑区,98二本松一丁目公園西側,35.5921053,139.3241751,
神奈川県,相模原市,669,緑区,101上九沢団地北側交差点角,35.5871314,139.3148862,
神奈川県,相模原市,670,緑区,102大島団地公園北側,35.5858224,139.3138092,
神奈川県,相模原市,671,緑区,103市営上九沢団地西側（県営団地側）,35.5860095,139.3144511,
神奈川県,相模原市,672,緑区,104市営上九沢団地北側,35.5862528,139.3156889,
神奈川県,相模原市,673,緑区,masked,35.5794954,139.3140257,
神奈川県,相模原市,674,緑区,106上大島自治会館前,35.5798665,139.3119115,
神奈川県,相模原市,675,緑区,107相模川自然の村前,35.5789662,139.3078081,
神奈川県,相模原市,676,緑区,108県営大島団地北側,35.5873804,139.3122817,
神奈川県,相模原市,677,緑区,111北清掃工場前交差点角,35.585629,139.3326731,
神奈川県,相模原市,678,緑区,112北総合体育館北側,35.5852656,139.3293885,
神奈川県,相模原市,679,緑区,113相模原北公園第２駐車場前,35.5819804,139.3333689,
神奈川県,相模原市,680,緑区,114上九沢自治会館前,35.5827057,139.3252683,
神奈川県,相模原市,681,緑区,115大沢小学校北側,35.5764787,139.3256469,
神奈川県,相模原市,682,緑区,116大沢まちづくりセンター駐車場前,35.5755039,139.3263948,
神奈川県,相模原市,683,緑区,117大沢中学校北側,35.5754594,139.3285607,
神奈川県,相模原市,684,緑区,118大沢中学校体育館前,35.5742246,139.3274697,
神奈川県,相模原市,685,緑区,121老人福祉センター渓松園前,35.5755979,139.3134509,
神奈川県,相模原市,686,緑区,122大島ふれあい広場前自転車置場,35.5756764,139.3149615,
神奈川県,相模原市,687,緑区,masked,35.5723005,139.3162751,
神奈川県,相模原市,688,緑区,124日々神社北西側,35.5700842,139.3240044,
神奈川県,相模原市,689,緑区,125水場バス停前,35.5661046,139.3230578,
神奈川県,相模原市,690,緑区,126中の郷公園前,35.5746592,139.314605,
神奈川県,相模原市,691,緑区,127古清水自治会館前,35.5625881,139.3253683,
神奈川県,相模原市,692,緑区,128常盤子どもの広場前,35.5678725,139.3211187,
神奈川県,相模原市,693,緑区,131県道相模原大磯線の新道植栽帯,35.5763864,139.3411477,
神奈川県,相模原市,694,緑区,132下九沢宮下バス停横鳩川河川敷,35.5703646,139.3451207,
神奈川県,相模原市,695,緑区,133てるて幼稚園,35.5666124,139.3480949,
神奈川県,相模原市,696,緑区,134作の口小学校屋内運動場前,35.570373,139.3500327,
神奈川県,相模原市,697,緑区,masked,35.5709595,139.3489056,
神奈川県,相模原市,698,緑区,masked,35.5696326,139.3463799,
神奈川県,相模原市,699,緑区,137御嶽神社,35.5736156,139.3431225,
神奈川県,相模原市,700,緑区,141下九沢桑の実公園前,35.5809011,139.3402435,
神奈川県,相模原市,701,緑区,142九沢小学校南側（九沢児童クラブ前）,35.5737344,139.3329758,
神奈川県,相模原市,702,緑区,143九沢小学校正門横,35.57533,139.3333258,
神奈川県,相模原市,703,緑区,144西内出公園前,35.5748701,139.3373893,
神奈川県,相模原市,704,緑区,145大沢団地管理組合第２集会場前,35.575731,139.3352506,
神奈川県,相模原市,705,緑区,146大沢団地前バス停前,35.5763182,139.3368206,
神奈川県,相模原市,706,緑区,147上中ノ原団地給水場前,35.5791339,139.3392543,
神奈川県,相模原市,707,緑区,148上中の原団地バス停前,35.580575,139.3360464,
神奈川県,相模原市,708,緑区,151水源公園,35.5890065,139.2888383,
神奈川県,相模原市,709,緑区,masked,35.594023,139.2866934,
神奈川県,相模原市,710,緑区,153島崎農園西側畑,35.5913353,139.2888355,
神奈川県,相模原市,711,緑区,154都井沢バス停前,35.5913362,139.2916335,
神奈川県,相模原市,712,緑区,155谷ケ原自治会館南側,35.59182,139.2970778,
神奈川県,相模原市,713,緑区,156谷ケ原バス停南側,35.5915183,139.2940417,
神奈川県,相模原市,714,緑区,157城山水源のこみち公園国道側,35.5897999,139.2877598,
神奈川県,相模原市,715,緑区,161もみじホール城山南側植栽帯,35.5993661,139.3016127,
神奈川県,相模原市,716,緑区,162中原公園,35.5920832,139.3051422,
神奈川県,相模原市,717,緑区,163城山学校給食センター前,35.5900275,139.3080774,
神奈川県,相模原市,718,緑区,164ＪＡ会館前（国道側）,35.5940526,139.3027439,
神奈川県,相模原市,719,緑区,165向原北公園新小倉橋東側交差点側,35.5888423,139.3043211,
神奈川県,相模原市,720,緑区,166久保沢南公園道路フェンス,35.5916985,139.301307,
神奈川県,相模原市,721,緑区,167城山総合事務所第１別館西側,35.5957224,139.3025204,
神奈川県,相模原市,722,緑区,171原宿南第３公園北側,35.5934789,139.3099622,
神奈川県,相模原市,723,緑区,172甘草塚自転車駐輪場フェンス,35.5963393,139.3055785,
神奈川県,相模原市,724,緑区,173原宿堀公園北側,35.597776,139.3077879,
神奈川県,相模原市,725,緑区,174原宿南第２公園北側,35.5961715,139.3108639,
神奈川県,相模原市,726,緑区,175原宿公園南側,35.592121,139.3139946,
神奈川県,相模原市,727,緑区,176間の原公園南側,35.5946442,139.3078178,
神奈川県,相模原市,728,緑区,177相原界公園南側,35.5993333,139.3139669,
神奈川県,相模原市,729,緑区,178原宿公園北側,35.5931636,139.3136727,
神奈川県,相模原市,730,緑区,181神奈中「本郷」バス停向かい側畑,35.6021998,139.312357,
神奈川県,相模原市,731,緑区,182本郷第２公園,35.5998176,139.3107145,
神奈川県,相模原市,732,緑区,183砂公園東側フェンス,35.6042946,139.3068852,
神奈川県,相模原市,733,緑区,184町屋児童公園南側,35.6002043,139.3067429,
神奈川県,相模原市,734,緑区,185町屋第２公園南側,35.602562,139.304703,
神奈川県,相模原市,735,緑区,186町屋小橋西側,35.6034762,139.3034805,
神奈川県,相模原市,736,緑区,187川尻八幡宮前交差点北側,35.6007258,139.3025833,
神奈川県,相模原市,737,緑区,191城北センター前,35.6055054,139.2988044,
神奈川県,相模原市,738,緑区,192小松橋バス停前,35.604191,139.2992129,
神奈川県,相模原市,739,緑区,193株式会社サンテック駐車場県道沿い,35.6018438,139.3015722,
神奈川県,相模原市,740,緑区,194かたくりの里バス停東,35.603102,139.2984617,
神奈川県,相模原市,741,緑区,195川尻北部農産物加工直販所横,35.6078021,139.2966459,
神奈川県,相模原市,742,緑区,196青少年センター入口バス停前,35.6125465,139.2855834,
神奈川県,相模原市,743,緑区,201水の苑地駐車場向かい,35.5899944,139.2838687,
神奈川県,相模原市,744,緑区,202中沢中学校国道側フェンス,35.5894543,139.2872756,
神奈川県,相模原市,745,緑区,203中沢自治会館前フェンス,35.5939438,139.2806455,
神奈川県,相模原市,746,緑区,204上中沢バス停付近ガードレール,35.5944449,139.278951,
神奈川県,相模原市,747,緑区,masked,35.5926145,139.2787747,
神奈川県,相模原市,748,緑区,211相模原ICBランプ橋BA2橋台東側,35.5844457,139.2919236,
神奈川県,相模原市,749,緑区,212 神奈中「小倉」バス停脇フェンス,35.5857512,139.2979022,
神奈川県,相模原市,750,緑区,213セブンイレブン駐車場前,35.5831001,139.2983417,
神奈川県,相模原市,751,緑区,214小倉自治会館前フェンス,35.5815297,139.2988662,
神奈川県,相模原市,752,緑区,masked,35.5808574,139.2963774,
神奈川県,相模原市,753,緑区,216小川工業㈱入口向い側道路敷,35.5779582,139.3001968,
神奈川県,相模原市,754,緑区,217湘南小学校フェンス,35.5719643,139.3079471,
神奈川県,相模原市,755,緑区,221食彩倶楽部悠遊前,35.5493349,139.3201986,
神奈川県,相模原市,756,緑区,222葉山バス停前,35.5514049,139.3206444,
神奈川県,相模原市,757,緑区,223中平バス停横,35.5556076,139.3191988,
神奈川県,相模原市,758,緑区,masked,35.5575258,139.3181948,
神奈川県,相模原市,759,緑区,225藤木沢沿いガードレール,35.5583965,139.3186829,
神奈川県,相模原市,760,緑区,226ハイツ小川前フェンスの県道側,35.5666156,139.3126167,
神奈川県,相模原市,761,緑区,231若葉台砥石山公園東側,35.5962655,139.2959092,
神奈川県,相模原市,762,緑区,232若葉台砥石山公園西側,35.5957405,139.29569,
神奈川県,相模原市,763,緑区,233若葉台カタクリ公園東側,35.5939441,139.2922189,
神奈川県,相模原市,764,緑区,234広陵小学校体育館前,35.5966355,139.2911323,
神奈川県,相模原市,765,緑区,235若葉台中央バス停後,35.595456,139.2935777,
神奈川県,相模原市,766,緑区,236若葉台谷津公園西側,35.5962612,139.2900229,
神奈川県,相模原市,767,緑区,237若葉台小栗公園西側,35.5974133,139.292217,
神奈川県,相模原市,768,緑区,241三井南バス停脇,35.5906739,139.2639678,
神奈川県,相模原市,769,緑区,242防災消防訓練場前,35.5910884,139.263189,
神奈川県,相模原市,770,緑区,243三井八幡神社脇,35.5923407,139.2629968,
神奈川県,相模原市,771,緑区,244三井地域センター北側生垣前,35.592269,139.2624928,
神奈川県,相模原市,772,緑区,245三井バス停脇道路フェンス,35.5942247,139.2624403,
神奈川県,相模原市,773,緑区,246ゴミステーション脇,35.5948202,139.2580294,
神奈川県,相模原市,774,緑区,251名手自治会館前,35.6015778,139.2434147,
神奈川県,相模原市,775,緑区,252名手橋付近ガードレール,35.5983784,139.2415956,
神奈川県,相模原市,776,緑区,masked,35.587366,139.2710964,
神奈川県,相模原市,777,緑区,masked,35.584762,139.2684228,
神奈川県,相模原市,778,緑区,263小網地域センターフェンス,35.5852448,139.2707651,
神奈川県,相模原市,779,緑区,264北根小屋バス停付近信号脇道路フェンス,35.5849655,139.2737482,
神奈川県,相模原市,780,緑区,265金丸入り口付近道路フェンス（太井側）,35.5815604,139.2701884,
神奈川県,相模原市,781,緑区,266厚木愛川津久井線金丸入り口付近緑地帯,35.5818102,139.2690793,
神奈川県,相模原市,782,緑区,267津久井消防署救急隊派出所フェンス,35.5838143,139.2648485,
神奈川県,相模原市,783,緑区,271相模原赤十字病院フェンス,35.5833306,139.2606383,
神奈川県,相模原市,784,緑区,272津久井中央公民館前,35.5863381,139.2567348,
神奈川県,相模原市,785,緑区,273津久井総合事務所倉庫前,35.5872766,139.2543523,
神奈川県,相模原市,786,緑区,274奈良井自治会館フェンス,35.5867408,139.2521001,
神奈川県,相模原市,787,緑区,masked,35.5874111,139.2503614,
神奈川県,相模原市,788,緑区,276西メディカルセンター急病診療所南側フェンス,35.5898022,139.2503715,
神奈川県,相模原市,789,緑区,277大沢バス停脇,35.5889478,139.2450949,
神奈川県,相模原市,790,緑区,281新境橋又野側歩道,35.5915525,139.2485264,
神奈川県,相模原市,791,緑区,282津久井不動産脇,35.5923858,139.2477322,
神奈川県,相模原市,792,緑区,283尾崎咢堂記念館西側,35.5940796,139.2462235,
神奈川県,相模原市,793,緑区,masked,35.5936339,139.2397091,
神奈川県,相模原市,794,緑区,285津久井又野公園入口前,35.5955348,139.2469474,
神奈川県,相模原市,795,緑区,286津久井湖駐車場フェンス,35.59051,139.2401168,
神奈川県,相模原市,796,緑区,287又野八幡神社バス停付近,35.5932582,139.2420902,
神奈川県,相模原市,797,緑区,masked,35.5964694,139.2353093,
神奈川県,相模原市,798,緑区,masked,35.5943125,139.2327182,
神奈川県,相模原市,799,緑区,293津久井中央保育園フェンス,35.5926872,139.2337508,
神奈川県,相模原市,800,緑区,294ファミリーマート向い側市道,35.5903685,139.2290245,
神奈川県,相模原市,801,緑区,295神奈川中央交通西株式会社津久井営業所駐車場,35.5878738,139.2323461,
神奈川県,相模原市,802,緑区,masked,35.5911063,139.2276824,
神奈川県,相模原市,803,緑区,masked,35.5830817,139.2299021,
神奈川県,相模原市,804,緑区,301稲葉商店向い側道路フェンス,35.5820475,139.230591,
神奈川県,相模原市,805,緑区,302津久井クリーンセンター入口向側,35.5794444,139.2287242,
神奈川県,相模原市,806,緑区,303地蔵前バス停付近道路敷,35.5695903,139.2205633,
神奈川県,相模原市,807,緑区,304鮑子取入口バス停付近国道沿,35.5716847,139.2217629,
神奈川県,相模原市,808,緑区,masked,35.5788097,139.2327566,
神奈川県,相模原市,809,緑区,masked,35.5779469,139.2336612,
神奈川県,相模原市,810,緑区,masked,35.5711515,139.2368708,
神奈川県,相模原市,811,緑区,312掛川商店向い側ガードフェンス,35.568095,139.2424876,
神奈川県,相模原市,812,緑区,masked,35.5653161,139.2395942,
神奈川県,相模原市,813,緑区,masked,35.5660412,139.2436057,
神奈川県,相模原市,814,緑区,masked,35.5644325,139.2439106,
神奈川県,相模原市,815,緑区,316グリーンハイツ脇フェンス,35.5679256,139.2469536,
神奈川県,相模原市,816,緑区,317串川地域センター南側,35.566241,139.2469293,
神奈川県,相模原市,817,緑区,masked,35.5663849,139.2493438,
神奈川県,相模原市,818,緑区,321長竹自治会館南側フェンス,35.5663077,139.2538886,
神奈川県,相模原市,819,緑区,322串川グラウンド北側,35.5679905,139.2579044,
神奈川県,相模原市,820,緑区,323串川小学校屋内運動場駐車場,35.5654907,139.2592752,
神奈川県,相模原市,821,緑区,324コバホーム下道路フェンス,35.5651388,139.2633646,
神奈川県,相模原市,822,緑区,masked,35.5586311,139.2624765,
神奈川県,相模原市,823,緑区,326市消防団津久井方面隊第５分団第１部詰所向いフェンス,35.5561453,139.2613862,
神奈川県,相模原市,824,緑区,327松喜屋商店横空地,35.5672258,139.2724777,
神奈川県,相模原市,825,緑区,328市営串川第２住宅空地,35.5682214,139.2613118,
神奈川県,相模原市,826,緑区,masked,35.5749211,139.2626646,
神奈川県,相模原市,827,緑区,332金丸団地西入口,35.5794554,139.2624621,
神奈川県,相模原市,828,緑区,333荒句バス停向い側フェンス,35.576169,139.2844827,
神奈川県,相模原市,829,緑区,334功雲寺駐車場向い側,35.5772199,139.2712624,
神奈川県,相模原市,830,緑区,335津久井湖城山公園根小屋駐車場入口角道路フェンス,35.5790398,139.2725707,
神奈川県,相模原市,831,緑区,336根小屋小学校駐車場フェンス,35.5752465,139.2743039,
神奈川県,相模原市,832,緑区,337宝ヶ峯子どもの広場南側,35.5769141,139.2751833,
神奈川県,相模原市,833,緑区,338西中野バス停向い側空地,35.5722842,139.2765693,
神奈川県,相模原市,834,緑区,341馬石橋バス停付近フェンス,35.5558503,139.2302939,
神奈川県,相模原市,835,緑区,342渡戸自治会館駐車場,35.5526495,139.2259723,
神奈川県,相模原市,836,緑区,343林道入口西側財産区用地,35.5456166,139.2249771,
神奈川県,相模原市,837,緑区,344宮上橋付近フェンス,35.5464182,139.2191469,
神奈川県,相模原市,838,緑区,345鳥屋地域センター向かい,35.5464073,139.2203096,
神奈川県,相模原市,839,緑区,346鳥屋中学校付近県道フェンス,35.5445822,139.2177648,
神奈川県,相模原市,840,緑区,347鳥屋バス停脇,35.5406952,139.2165084,
神奈川県,相模原市,841,緑区,masked,35.5392049,139.2148148,
神奈川県,相模原市,842,緑区,masked,35.5401336,139.2092291,
神奈川県,相模原市,843,緑区,351川村工業所前,35.5650754,139.2139865,
神奈川県,相模原市,844,緑区,352前戸バス停西,35.5643618,139.2100249,
神奈川県,相模原市,845,緑区,353梶野児童遊園地フェンス,35.5636499,139.2057212,
神奈川県,相模原市,846,緑区,masked,35.5633882,139.2009436,
神奈川県,相模原市,847,緑区,355『「清流の里」道志川へようこそ』看板の向い側,35.5645037,139.2013051,
神奈川県,相模原市,848,緑区,356青野原第一児童遊園地,35.5633923,139.1977176,
神奈川県,相模原市,849,緑区,357青野原小学校フェンス,35.5622672,139.1934214,
神奈川県,相模原市,850,緑区,361青野原郵便局向い側,35.561641,139.1886558,
神奈川県,相模原市,851,緑区,362若宮橋フェンス,35.5637034,139.1893049,
神奈川県,相模原市,852,緑区,masked,35.5614786,139.1852986,
神奈川県,相模原市,853,緑区,364尾崎食品店向い側道路フェンス,35.5593303,139.1834536,
神奈川県,相模原市,854,緑区,365長野会館前空地の入口付近フェンス,35.5598206,139.1810511,
神奈川県,相模原市,855,緑区,366西沢大橋西側フェンス,35.5603995,139.1773261,
神奈川県,相模原市,856,緑区,367涸沢橋フェンス,35.558427,139.1745842,
神奈川県,相模原市,857,緑区,masked,35.5491107,139.1475794,
神奈川県,相模原市,858,緑区,372荒丸会館南国道側,35.5481288,139.1437591,
神奈川県,相模原市,859,緑区,masked,35.5430632,139.1328232,
神奈川県,相模原市,860,緑区,382口ノ沢駐車場東側フェンス,35.5471072,139.1322175,
神奈川県,相模原市,861,緑区,383旧津久井消防署青根出張所脇,35.5416672,139.1292664,
神奈川県,相模原市,862,緑区,masked,35.5414635,139.1287739,
神奈川県,相模原市,863,緑区,385山口商店前西側ガードレール,35.5449922,139.1265208,
神奈川県,相模原市,864,緑区,386宮沢新橋東側欄干,35.5446241,139.1282671,
神奈川県,相模原市,865,緑区,387大川原橋北側道路沿,35.5449818,139.1214388,
神奈川県,相模原市,866,緑区,masked,35.5409458,139.1151609,
神奈川県,相模原市,867,緑区,masked,35.5397465,139.1185493,
神奈川県,相模原市,868,緑区,401横橋集会所前道路擁壁,35.6217803,139.1779,
神奈川県,相模原市,869,緑区,402与瀬上町集会所前,35.6179403,139.1835325,
神奈川県,相模原市,870,緑区,403ＪＲ相模湖駅前,35.6168198,139.1892105,
神奈川県,相模原市,871,緑区,404相模湖総合事務所前,35.6149068,139.188571,
神奈川県,相模原市,872,緑区,405与瀬グラウンド南側フェンス,35.6139897,139.189944,
神奈川県,相模原市,873,緑区,406桂北小学校前,35.6154244,139.1906614,
神奈川県,相模原市,874,緑区,407与瀬中丸公園前,35.6179006,139.1921557,
神奈川県,相模原市,875,緑区,masked,35.6143672,139.2045701,
神奈川県,相模原市,876,緑区,411平野前田モータース前,35.6190817,139.1965288,
神奈川県,相模原市,877,緑区,412小原の郷東側隣道路用地,35.6229153,139.201619,
神奈川県,相模原市,878,緑区,413小原の郷駐車場向かい道路沿,35.6230412,139.2003027,
神奈川県,相模原市,879,緑区,414底沢バス停横,35.6247806,139.2024517,
神奈川県,相模原市,880,緑区,415底沢集会所前フェンス,35.6346197,139.2023117,
神奈川県,相模原市,881,緑区,421千木良バス停横畑,35.6213283,139.2050784,
神奈川県,相模原市,882,緑区,422千木良公民館前,35.6200334,139.2081811,
神奈川県,相模原市,883,緑区,masked,35.6207543,139.2083202,
神奈川県,相模原市,884,緑区,424溝口電気西側畑,35.6183772,139.2082455,
神奈川県,相模原市,885,緑区,masked,35.6154952,139.2119055,
神奈川県,相模原市,886,緑区,426県道三井相模湖線赤馬バス停横,35.6129314,139.2154131,
神奈川県,相模原市,887,緑区,masked,35.6125415,139.218033,
神奈川県,相模原市,888,緑区,431プレジャーフォレスト前バス停横,35.6012516,139.1994223,
神奈川県,相模原市,889,緑区,432石老山入口信号機横,35.599891,139.2049169,
神奈川県,相模原市,890,緑区,433阿津交差点横フェンス,35.6003063,139.2169516,
神奈川県,相模原市,891,緑区,434東洋紙業㈱対面の道路敷,35.6053493,139.2193145,
神奈川県,相模原市,892,緑区,435Ｊーマート調整池国道側フェンス,35.6010624,139.2209461,
神奈川県,相模原市,893,緑区,436国道412号線沼本バス停横,35.5958194,139.2256292,
神奈川県,相模原市,894,緑区,437道志営農センター前,35.5872097,139.218318,
神奈川県,相模原市,895,緑区,masked,35.5942029,139.2104942,
神奈川県,相模原市,896,緑区,masked,35.5954884,139.2046071,
神奈川県,相模原市,897,緑区,441勝瀬橋国道入口南側欄干,35.6143332,139.1714107,
神奈川県,相模原市,898,緑区,masked,35.6230548,139.1690192,
神奈川県,相模原市,899,緑区,443藤野方面消防団吉野分団本部東側間地ブロック,35.614444,139.1668854,
神奈川県,相模原市,900,緑区,444シュタイナー学園高等部入口,35.6157275,139.1667885,
神奈川県,相模原市,901,緑区,masked,35.6176607,139.1686944,
神奈川県,相模原市,902,緑区,446ファミリーオート対面の間地ブロック,35.6244878,139.1682173,
神奈川県,相模原市,903,緑区,447県立陣場相模湖自然公園奈良本園地休憩所向かい,35.6213739,139.1651394,
神奈川県,相模原市,904,緑区,451藤野駅周辺第１駐車場フェンス,35.6157197,139.1529406,
神奈川県,相模原市,905,緑区,masked,35.6147414,139.1560159,
神奈川県,相模原市,906,緑区,453藤野中学校南側間地ブロック,35.6141407,139.1597013,
神奈川県,相模原市,907,緑区,masked,35.6153152,139.1506698,
神奈川県,相模原市,908,緑区,masked,35.6197863,139.1356913,
神奈川県,相模原市,909,緑区,456柏屋商店隣の空き家前,35.6186188,139.1411236,
神奈川県,相模原市,910,緑区,457消防器具置場（上小渕）,35.6206306,139.1299354,
神奈川県,相模原市,911,緑区,masked,35.6250508,139.1240976,
神奈川県,相模原市,912,緑区,461中央電子㈱前,35.621254,139.1543386,
神奈川県,相模原市,913,緑区,462御嶽神社前,35.6236437,139.15126,
神奈川県,相模原市,914,緑区,463澤井隧道北側,35.6196655,139.1538399,
神奈川県,相模原市,915,緑区,464中里橋バス停前,35.6259485,139.1496614,
神奈川県,相模原市,916,緑区,465栃谷入口南側落合橋欄干,35.6294554,139.1478692,
神奈川県,相模原市,917,緑区,466御前屋商店前,35.6337238,139.1412121,
神奈川県,相模原市,918,緑区,467市道栃谷上栃谷入口右側擁壁,35.6352051,139.1576427,
神奈川県,相模原市,919,緑区,masked,35.592513,139.1728894,
神奈川県,相模原市,920,緑区,472エイト資源開発入口,35.5901606,139.168752,
神奈川県,相模原市,921,緑区,473篠原の里南側玉石積,35.5889567,139.1734093,
神奈川県,相模原市,922,緑区,474篠原バス停前清水橋欄干,35.5873005,139.1731448,
神奈川県,相模原市,923,緑区,masked,35.5755893,139.1886803,
神奈川県,相模原市,924,緑区,476市道入口西側県道間地ブロック,35.5744462,139.1919956,
神奈川県,相模原市,925,緑区,481藤野農村改善センター前間地ブロック,35.5815608,139.1498771,
神奈川県,相模原市,926,緑区,482黄色点滅灯西側ガードレール,35.5838564,139.149455,
神奈川県,相模原市,927,緑区,483創和建設㈱向い畑,35.5930226,139.1497668,
神奈川県,相模原市,928,緑区,484赤沢バス停先県道石積,35.59807,139.1525238,
神奈川県,相模原市,929,緑区,masked,35.5919733,139.1469813,
神奈川県,相模原市,930,緑区,486小舟集会所東側間地ブロック,35.5717913,139.1499398,
神奈川県,相模原市,931,緑区,masked,35.5807089,139.1553626,
神奈川県,相模原市,932,緑区,491宮ノ前バス停,35.5874339,139.1475815,
神奈川県,相模原市,933,緑区,masked,35.5837569,139.1445013,
神奈川県,相模原市,934,緑区,493白井バス停前,35.5843665,139.1399345,
神奈川県,相模原市,935,緑区,494志村土建対面道路敷,35.5877396,139.1357112,
神奈川県,相模原市,936,緑区,masked,35.5822942,139.1296884,
神奈川県,相模原市,937,緑区,496奥牧野バス停横,35.5854445,139.1279343,
神奈川県,相模原市,938,緑区,501Team UKYOフェンス,35.5618026,139.1491238,
神奈川県,相模原市,939,緑区,502菅井上バス停前,35.5596653,139.146231,
神奈川県,相模原市,940,緑区,503長又生活改善センター前,35.5509555,139.1369143,
神奈川県,相模原市,941,緑区,masked,35.5597318,139.1650192,
神奈川県,相模原市,942,緑区,505綱子橋東側,35.5641685,139.1353821,
神奈川県,相模原市,943,緑区,511名倉入口バス停前,35.61053,139.1558637,
神奈川県,相模原市,944,緑区,masked,35.6066607,139.1559172,
神奈川県,相模原市,945,緑区,513日連診療所前,35.6081879,139.1575669,
神奈川県,相模原市,946,緑区,514森久保スタンド前,35.6025053,139.1524196,
神奈川県,相模原市,947,緑区,515杉集会所前ガードレール,35.6091195,139.1603337,
神奈川県,相模原市,948,緑区,masked,35.6104409,139.1694412,
神奈川県,相模原市,949,緑区,masked,35.6085262,139.1780515,
神奈川県,相模原市,950,緑区,521名倉グラウンド入口,35.6105231,139.150085,
神奈川県,相模原市,951,緑区,522野崎鉄工所北側道路敷,35.6141493,139.1410567,
神奈川県,相模原市,952,緑区,523研修センターふじの入口,35.6137913,139.1444885,
神奈川県,相模原市,953,緑区,524名倉分団詰所東側ガードレール,35.6012724,139.1357935,
神奈川県,相模原市,954,緑区,525向原集会所前,35.6050226,139.134824,
神奈川県,相模原市,955,緑区,masked,35.5952649,139.1350925,
神奈川県,相模原市,956,緑区,masked,35.6055946,139.1484301,
神奈川県,相模原市,957,緑区,531上河原バス停前,35.6377003,139.1397812,
神奈川県,相模原市,958,緑区,532藤野北小学校西側道路間地ブロック,35.6401735,139.1395463,
神奈川県,相模原市,959,緑区,533鎌沢入口,35.6496995,139.1448131,
神奈川県,相模原市,960,緑区,masked,35.6527686,139.1423112,
神奈川県,相模原市,961,緑区,535和田バス停前,35.6515162,139.1489061,
神奈川県,相模原市,962,緑区,536八坂橋先,35.6532091,139.1503109,
神奈川県,相模原市,963,緑区,masked,35.656159,139.1544306,
神奈川県,相模原市,964,緑区,541佐野川バス停前,35.6432447,139.126612,
神奈川県,相模原市,965,緑区,542芳ヶ沢バス停前,35.6452972,139.1253604,
神奈川県,相模原市,966,緑区,543山下商店先,35.6493042,139.1219988,
神奈川県,相模原市,967,緑区,544船橋電気工場前,35.6502045,139.1216498,
神奈川県,相模原市,968,緑区,545上岩集会施設,35.6536264,139.120014,
神奈川県,相模原市,286,南区,11大野台２丁目公園,35.5558641,139.4042725,
神奈川県,相模原市,287,南区,12大沼松音公園,35.5513839,139.4017342,
神奈川県,相模原市,288,南区,13松が丘バス停後植樹帯,35.5515315,139.3987236,
神奈川県,相模原市,289,南区,14大野台中央小学校南側,35.5504489,139.4050417,
神奈川県,相模原市,290,南区,15大野台中央小学校東側,35.5517697,139.4048044,
神奈川県,相模原市,291,南区,16大野台公民館,35.5524972,139.4072374,
神奈川県,相模原市,292,南区,17大野台５丁目公園,35.5493731,139.4061917,
神奈川県,相模原市,293,南区,18大野台１丁目きらきら公園,35.5580231,139.4047018,
神奈川県,相模原市,294,南区,21大野台中央公園,35.5517125,139.4032997,
神奈川県,相模原市,295,南区,22大野台６丁目第２公園,35.5527649,139.4143831,
神奈川県,相模原市,296,南区,23大野台６丁目公園,35.552534,139.4126761,
神奈川県,相模原市,297,南区,24大野台小学校東側,35.5479186,139.4143027,
神奈川県,相模原市,298,南区,25大野台中学校東側,35.5459233,139.4130457,
神奈川県,相模原市,299,南区,26大野台４丁目ふれあい公園,35.5476794,139.4053188,
神奈川県,相模原市,300,南区,27大野台第２児童館横,35.545987,139.4057687,
神奈川県,相模原市,301,南区,28大野台４丁目バス停後植樹帯,35.5461598,139.4031899,
神奈川県,相模原市,302,南区,31古淵西公園西側,35.5545486,139.4169629,
神奈川県,相模原市,303,南区,32古淵駅北口自転車駐車場前,35.5557885,139.4206452,
神奈川県,相模原市,304,南区,33古淵駅南口自転車駐車場前,35.5563428,139.4176868,
神奈川県,相模原市,305,南区,34古淵保育園,35.5547359,139.4202153,
神奈川県,相模原市,306,南区,35古淵南公園南側,35.554097,139.421686,
神奈川県,相模原市,307,南区,36上長久保南公園西側,35.5520334,139.4194752,
神奈川県,相模原市,308,南区,37上長久保南公園１６号側,35.551466,139.4190601,
神奈川県,相模原市,309,南区,38西大沼なかよし公園,35.5466571,139.4188986,
神奈川県,相模原市,310,南区,41大野小学校西側,35.5520954,139.4208806,
神奈川県,相模原市,311,南区,42市営古淵住宅前,35.554436,139.4233628,
神奈川県,相模原市,312,南区,43大野小学校体育館前,35.5520429,139.4227964,
神奈川県,相模原市,313,南区,44古淵鵜野森公園駐車場,35.5484715,139.4270528,
神奈川県,相模原市,314,南区,45市営斎場西側,35.5505028,139.4255418,
神奈川県,相模原市,315,南区,46市営斎場第２駐車場南側,35.549958,139.4248944,
神奈川県,相模原市,316,南区,47大野小学校入口前バス停,35.5498107,139.4211031,
神奈川県,相模原市,317,南区,48南警察署バス停前　こもれびの森内,35.5460648,139.425831,
神奈川県,相模原市,318,南区,51柏木第一公園,35.5461144,139.4311427,
神奈川県,相模原市,319,南区,52鵜野森中学校横緑地帯,35.5460808,139.4284346,
神奈川県,相模原市,320,南区,53グリーンハイツＤ２号棟南側,35.5466851,139.4301185,
神奈川県,相模原市,321,南区,54グリーンハイツＦ５号棟北側向,35.5487795,139.4290922,
神奈川県,相模原市,322,南区,55柏木第２公園,35.5450434,139.4318274,
神奈川県,相模原市,323,南区,56鵜野森中学校東側フェンス,35.5442927,139.4292265,
神奈川県,相模原市,324,南区,57グリーンハイツＦ１号棟東側,35.5467744,139.4316695,
神奈川県,相模原市,325,南区,61鹿島森公園,35.545923,139.4361631,
神奈川県,相模原市,326,南区,62鵜野森団地Ｋ棟前,35.5457566,139.4354944,
神奈川県,相模原市,327,南区,63相模緑道緑地（鵜野森2丁目10番地先）,35.5437855,139.4339749,
神奈川県,相模原市,328,南区,64相模緑道緑地（鵜野森3丁目19番地先）,35.5424158,139.4357477,
神奈川県,相模原市,329,南区,65鵜野森鹿島公園,35.5439974,139.437613,
神奈川県,相模原市,330,南区,66鵜野森やすらぎ公園,35.544438,139.4362304,
神奈川県,相模原市,331,南区,67相模緑道緑地（鵜野森2丁目16番地先）,35.5447174,139.4324881,
神奈川県,相模原市,332,南区,71木もれびの森（東大沼2丁目2番地先）,35.5446747,139.4202592,
神奈川県,相模原市,333,南区,72市道側山林,35.5421795,139.4129439,
神奈川県,相模原市,334,南区,73西大沼バス停横,35.5323304,139.4138378,
神奈川県,相模原市,335,南区,74若沼ふれあい広場,35.5408563,139.4214058,
神奈川県,相模原市,336,南区,75西大沼中央公園,35.5431942,139.4145098,
神奈川県,相模原市,337,南区,76オルガノ㈱開発センター西側,35.5385049,139.4086933,
神奈川県,相模原市,338,南区,77オルガノ㈱開発センター南側,35.5385043,139.4114211,
神奈川県,相模原市,339,南区,78森林公園子供広場,35.546096,139.414243,
神奈川県,相模原市,340,南区,81大沼小学校南側,35.5379679,139.4190337,
神奈川県,相模原市,341,南区,82大沼小学校西側,35.5395655,139.4196721,
神奈川県,相模原市,342,南区,83若松６丁目公園,35.5345761,139.4190951,
神奈川県,相模原市,343,南区,84大沼小学校東側,35.5388946,139.4207986,
神奈川県,相模原市,344,南区,85大沼ふれあい広場東側,35.5337446,139.4151209,
神奈川県,相模原市,345,南区,86やまびこ公園,35.5374818,139.4183353,
神奈川県,相模原市,346,南区,87若松郵便局横駐車場（裏通り側）,35.5373449,139.4208263,
神奈川県,相模原市,347,南区,88若松郵便局横駐車場（大通り側）,35.5375883,139.4205366,
神奈川県,相模原市,348,南区,91若松小学校正門横,35.5403881,139.4290632,
神奈川県,相模原市,349,南区,92相模原療育園駐車場向,35.5444619,139.4222209,
神奈川県,相模原市,350,南区,93若松小学校北側,35.5416605,139.4292334,
神奈川県,相模原市,351,南区,94小沼西公園西側,35.5399286,139.4263578,
神奈川県,相模原市,352,南区,95小沼東公園,35.5404157,139.4284326,
神奈川県,相模原市,353,南区,96老人福祉センター若竹園,35.5412229,139.425521,
神奈川県,相模原市,354,南区,97若松小学校東側,35.540297,139.4297102,
神奈川県,相模原市,355,南区,101ロビーシティー集会所前,35.5329349,139.4333219,
神奈川県,相模原市,356,南区,102相模大野中央公園東側,35.5346383,139.4348011,
神奈川県,相模原市,357,南区,103相模原中等教育学校南側,35.5356114,139.4308734,
神奈川県,相模原市,358,南区,104相模大野中央公園南側（立体駐車場向）,35.5343087,139.4345382,
神奈川県,相模原市,359,南区,105相模原中等教育学校東側,35.5362934,139.4333367,
神奈川県,相模原市,360,南区,106相模原中等教育学校北側,35.5366274,139.43098,
神奈川県,相模原市,361,南区,107丸屋公園東側,35.53848,139.43045,
神奈川県,相模原市,362,南区,108文京青空公園西側,35.5392202,139.428511,
神奈川県,相模原市,363,南区,111御園公園南側,35.5300798,139.4155466,
神奈川県,相模原市,364,南区,112みゆき台公園西側,35.5294263,139.4175051,
神奈川県,相模原市,365,南区,113御園すみれ公園,35.5300106,139.4199645,
神奈川県,相模原市,366,南区,114谷口台小学校正門横,35.531693,139.4259164,
神奈川県,相模原市,367,南区,115大野南中学校南側,35.5355455,139.4294254,
神奈川県,相模原市,368,南区,116文京みどりの公園北側,35.5365083,139.424471,
神奈川県,相模原市,369,南区,117谷口台小学校西側,35.5317725,139.4245244,
神奈川県,相模原市,370,南区,118御園雨水調整池北側,35.5305689,139.4179368,
神奈川県,相模原市,375,南区,131南区役所東側,35.530203,139.4307122,
神奈川県,相模原市,376,南区,132ＮＴＴ相模大野ビル前,35.5291805,139.42936,
神奈川県,相模原市,371,南区,133相模緑道緑地（相模大野5丁目8番地先）,35.5282658,139.428046,
神奈川県,相模原市,377,南区,134相模大野駅北口デッキ東側防護柵,35.5321113,139.4371515,
神奈川県,相模原市,372,南区,135相模緑道緑地（相模大野5丁目3番地先）,35.5302662,139.424891,
神奈川県,相模原市,373,南区,136市道上鶴間植樹帯（栄町13番地先）,35.529051,139.4248432,
神奈川県,相模原市,378,南区,137相模大野北口公園東側,35.5334175,139.437815,
神奈川県,相模原市,374,南区,138市道上鶴間空地（栄町3番地先）,35.530219,139.4230288,
神奈川県,相模原市,379,南区,141プラザシティ相模大野１４号棟南側,35.5276413,139.4335563,
神奈川県,相模原市,380,南区,142プラザシティ相模大野20号棟向,35.5269531,139.4310471,
神奈川県,相模原市,381,南区,143鶴の台小学校北側,35.5235934,139.428378,
神奈川県,相模原市,382,南区,144旭森公園,35.5255338,139.4272197,
神奈川県,相模原市,383,南区,145鶴の台小学校東側,35.5240706,139.429802,
神奈川県,相模原市,384,南区,146プラザシティ相模大野公園南側,35.5284751,139.4317008,
神奈川県,相模原市,385,南区,147プラザシティ相模大野１７号棟東側,35.529159,139.4343127,
神奈川県,相模原市,386,南区,148南保健福祉センター前,35.5279159,139.4300312,
神奈川県,相模原市,387,南区,151鹿島台小学校グランド西側,35.538554,139.4388118,
神奈川県,相模原市,388,南区,152鹿島台小学校体育館前,35.5397921,139.4380919,
神奈川県,相模原市,389,南区,153鹿島台小学校正門横,35.5391968,139.4394696,
神奈川県,相模原市,390,南区,154鹿島台公園,35.5404888,139.4412485,
神奈川県,相模原市,391,南区,155丸山公園,35.5388208,139.4421848,
神奈川県,相模原市,392,南区,156下森鹿島第１雨水調整池前,35.5432212,139.4396068,
神奈川県,相模原市,393,南区,157谷口志女竹公園南側,35.534241,139.4387654,
神奈川県,相模原市,394,南区,masked,35.5381067,139.437065,
神奈川県,相模原市,395,南区,161上村公園北側,35.5352447,139.4413456,
神奈川県,相模原市,396,南区,162市道南大野植栽帯,35.5313581,139.4451619,
神奈川県,相模原市,397,南区,163谷口小学校南側,35.5351734,139.4480563,
神奈川県,相模原市,398,南区,164谷口南台公園,35.5334335,139.4492466,
神奈川県,相模原市,399,南区,165谷口第２子供広場前,35.5325918,139.4477412,
神奈川県,相模原市,400,南区,166谷口児童館前,35.5325893,139.4439592,
神奈川県,相模原市,401,南区,167谷口中学校西側,35.5327206,139.442096,
神奈川県,相模原市,402,南区,168谷口中村公園前,35.5330609,139.4405195,
神奈川県,相模原市,403,南区,171相模大野南口公園南側,35.5306057,139.4389365,
神奈川県,相模原市,404,南区,172相模大野南口公園東側,35.5310573,139.4392148,
神奈川県,相模原市,405,南区,173南新町公園東側,35.5293185,139.4381371,
神奈川県,相模原市,406,南区,174新町中学校グラウンド北側,35.5254066,139.4365928,
神奈川県,相模原市,407,南区,175新町中学校南側,35.5252337,139.4384964,
神奈川県,相模原市,408,南区,176相模大野７丁目公園,35.5293024,139.4413244,
神奈川県,相模原市,409,南区,177上鶴間分署前,35.528144,139.4428448,
神奈川県,相模原市,410,南区,178南大野小学校正門横,35.5276701,139.4448921,
神奈川県,相模原市,411,南区,181深堀都市下水路前,35.5199607,139.4480199,
神奈川県,相模原市,412,南区,182きづき公園,35.5248775,139.4436551,
神奈川県,相模原市,413,南区,183若葉きずき自治会館前,35.5241235,139.4447798,
神奈川県,相模原市,414,南区,184深堀都市下水路前,35.5210449,139.4469781,
神奈川県,相模原市,415,南区,185深堀公園北側,35.5202027,139.4487311,
神奈川県,相模原市,416,南区,186深堀ポンプ場横,35.5196892,139.4496857,
神奈川県,相模原市,417,南区,187深堀中央公園南側,35.5183424,139.4512783,
神奈川県,相模原市,418,南区,191鶴園小学校西側,35.5288848,139.4500782,
神奈川県,相模原市,419,南区,192上鶴間高校西側,35.5253671,139.4548276,
神奈川県,相模原市,420,南区,193上河内遊園地,35.5303884,139.4532913,
神奈川県,相模原市,421,南区,masked,35.5265051,139.4529314,
神奈川県,相模原市,422,南区,195上鶴間笹山公園,35.5242348,139.4537625,
神奈川県,相模原市,423,南区,196中和田ポンプ場,35.5214543,139.4541369,
神奈川県,相模原市,424,南区,197上鶴間下河内公園,35.5265753,139.4565647,
神奈川県,相模原市,425,南区,198上鶴間高校東側,35.5252323,139.4563611,
神奈川県,相模原市,426,南区,201上鶴間小学校東側,35.5202924,139.4455936,
神奈川県,相模原市,427,南区,202上鶴間中学校東側,35.5193872,139.4459333,
神奈川県,相模原市,428,南区,203上鶴間中学校西側,35.5180554,139.4445888,
神奈川県,相模原市,429,南区,204横浜水道道緑道（上鶴間8丁目4番地先）,35.5172623,139.4438923,
神奈川県,相模原市,430,南区,205横浜水道道緑道（上鶴間7丁目14番地先）,35.5177989,139.4415842,
神奈川県,相模原市,431,南区,206林間白笹公園,35.5187656,139.4400431,
神奈川県,相模原市,432,南区,207東林間駅前公園,35.5206636,139.4395669,
神奈川県,相模原市,433,南区,208相模緑道緑地（上鶴間8丁目10番地先）,35.5170283,139.4439649,
神奈川県,相模原市,434,南区,211くぬぎ台小学校北側,35.5228061,139.4421071,
神奈川県,相模原市,435,南区,212くぬぎ台小学校西側,35.5218391,139.4415211,
神奈川県,相模原市,436,南区,213くぬぎ台小学校東側,35.5220148,139.4430566,
神奈川県,相模原市,437,南区,214東林間公園東側,35.5229127,139.4440941,
神奈川県,相模原市,438,南区,215東林間シニアクラブ前,35.5236676,139.4432686,
神奈川県,相模原市,439,南区,216東林間公園南側,35.522355,139.4443891,
神奈川県,相模原市,440,南区,217東林間さくら公園,35.5210146,139.4419426,
神奈川県,相模原市,441,南区,221松蔭公園南側,35.524255,139.4365788,
神奈川県,相模原市,442,南区,222松蔭公園北側,35.5247627,139.4361189,
神奈川県,相模原市,443,南区,223林間公園東側,35.5237863,139.4316192,
神奈川県,相模原市,444,南区,224林間公園南側,35.5233246,139.4307797,
神奈川県,相模原市,445,南区,225林間公園北側,35.5240482,139.4307219,
神奈川県,相模原市,446,南区,226ふれあいの森東側,35.5211483,139.4343805,
神奈川県,相模原市,447,南区,227東林間児童館東側,35.5199255,139.435575,
神奈川県,相模原市,448,南区,228横浜水道道緑道（三角公園内）,35.5182906,139.4396637,
神奈川県,相模原市,449,南区,231東林まちづくりセンター横,35.5170328,139.4341951,
神奈川県,相模原市,450,南区,232相模緑道緑地（東林間6丁目7番地先）,35.5181865,139.4371062,
神奈川県,相模原市,451,南区,233林間さくら遊園地前,35.5149574,139.4372857,
神奈川県,相模原市,452,南区,234東林間七丁目公園前,35.5156332,139.4388395,
神奈川県,相模原市,453,南区,235東林みなみ公園前,35.5136596,139.4398544,
神奈川県,相模原市,454,南区,236相模緑道緑地（東林間6丁目2番地先）,35.5184213,139.4360201,
神奈川県,相模原市,455,南区,237相模緑道緑地（東林間6丁目8番地先）,35.5179191,139.4382933,
神奈川県,相模原市,456,南区,238横浜水道道緑道（東林間6丁目1番地先）,35.519129,139.4358139,
神奈川県,相模原市,457,南区,241東林小学校北側,35.5163584,139.4330995,
神奈川県,相模原市,458,南区,242東林小学校西側,35.515352,139.432138,
神奈川県,相模原市,459,南区,243翠ヶ丘公園,35.514953,139.4318649,
神奈川県,相模原市,460,南区,244東林小学校南側,35.5159322,139.4341509,
神奈川県,相模原市,461,南区,245相模カンツリ－倶楽部北側,35.5126027,139.4369052,
神奈川県,相模原市,462,南区,246相模カンツリ－倶楽部北側,35.5108445,139.4325365,
神奈川県,相模原市,463,南区,247相模カンツリ－倶楽部北側,35.5120186,139.4354856,
神奈川県,相模原市,464,南区,251林間第２公園,35.5207673,139.4281175,
神奈川県,相模原市,465,南区,252横浜水道道緑道（東林間2丁目14番地先）,35.520445,139.4303116,
神奈川県,相模原市,466,南区,253横浜水道道緑道（東林間3丁目15番地先）,35.5204539,139.430754,
神奈川県,相模原市,467,南区,254林間第３公園,35.5188886,139.429656,
神奈川県,相模原市,468,南区,255横浜水道道緑道（東林間4丁目40番地先）,35.5198788,139.4325749,
神奈川県,相模原市,469,南区,256林間第４公園,35.519688,139.4337323,
神奈川県,相模原市,470,南区,257東林保育園前,35.5165743,139.4323481,
神奈川県,相模原市,471,南区,261緑地,35.5174551,139.4277367,
神奈川県,相模原市,472,南区,262松が枝公園北側,35.5176868,139.4252513,
神奈川県,相模原市,473,南区,263コンフォールさがみ南集会所前,35.5149388,139.4276178,
神奈川県,相模原市,474,南区,264コンフォールさがみ南７号棟前,35.5151116,139.4298068,
神奈川県,相模原市,475,南区,265さがみ南公園前,35.5144711,139.4294162,
神奈川県,相模原市,476,南区,266相南いこいの公園前,35.512325,139.4303999,
神奈川県,相模原市,477,南区,267東海大学附属相模高校北側,35.5118954,139.4290555,
神奈川県,相模原市,478,南区,268東海大学附属相模高校東側,35.5107083,139.4314266,
神奈川県,相模原市,479,南区,271麻溝まちづくりセンター前,35.5317643,139.3764643,
神奈川県,相模原市,480,南区,272横浜水道道緑道（当麻1102番地先）,35.5342984,139.3749766,
神奈川県,相模原市,481,南区,273原当麻駅西口無料自転車駐車場,35.5287742,139.3753325,
神奈川県,相模原市,482,南区,274薊ケ谷公園,35.5329328,139.3757944,
神奈川県,相模原市,483,南区,275下溝袋澤雨水調整池,35.5411455,139.3775414,
神奈川県,相模原市,484,南区,276中丸第２雨水調整池前,35.5304775,139.3782329,
神奈川県,相模原市,485,南区,277上中丸第３雨水調整池前,35.5330071,139.3797577,
神奈川県,相模原市,486,南区,278原当麻駅東側緑地帯,35.5295976,139.3750977,
神奈川県,相模原市,487,南区,281夢の丘小学校東側,35.5324544,139.3678997,
神奈川県,相模原市,488,南区,282相模原支援学校正門横,35.530878,139.3720872,
神奈川県,相模原市,489,南区,283麻溝保育園西側,35.5268501,139.373223,
神奈川県,相模原市,490,南区,284八景棚公園,35.5220144,139.3775973,
神奈川県,相模原市,491,南区,285下溝八幡宮横児童公園前,35.5201228,139.3837214,
神奈川県,相模原市,492,南区,286麻溝小学校西側,35.5266414,139.3749022,
神奈川県,相模原市,493,南区,287九坊院第１雨水調整池北側,35.5324854,139.3686258,
神奈川県,相模原市,494,南区,288当麻東原公園,35.5274403,139.3705512,
神奈川県,相模原市,495,南区,289麻溝小学校正門横,35.5261661,139.3756332,
神奈川県,相模原市,496,南区,291新磯まちづくりセンター前,35.5021955,139.3849074,
神奈川県,相模原市,497,南区,292新磯ふれあいセンター前花壇,35.4991847,139.385397,
神奈川県,相模原市,498,南区,masked,35.4965669,139.3906911,
神奈川県,相模原市,499,南区,294新戸河原バス停横（新戸2190番地先）,35.4967296,139.3856419,
神奈川県,相模原市,500,南区,295釣瓶下公園,35.494027,139.3880624,
神奈川県,相模原市,501,南区,296旧新磯高校南側(さがみロボット産業特区プレ実証フィールド),35.4991929,139.390857,
神奈川県,相模原市,502,南区,297新戸第２雨水調整池前,35.4952055,139.3916033,
神奈川県,相模原市,503,南区,301相陽中学校西側,35.514371,139.3854565,
神奈川県,相模原市,504,南区,masked,35.5089678,139.3821417,
神奈川県,相模原市,505,南区,303新磯小学校体育館横,35.5036079,139.3851572,
神奈川県,相模原市,506,南区,304根岸台公園西側,35.5031154,139.3871136,
神奈川県,相模原市,507,南区,305勝坂歴史公園,35.5152469,139.3917689,
神奈川県,相模原市,508,南区,masked,35.5058909,139.3895423,
神奈川県,相模原市,509,南区,307畑前歩道フェンス,35.508647,139.3842657,
神奈川県,相模原市,510,南区,308新磯小学校正門横,35.5029065,139.384544,
神奈川県,相模原市,511,南区,311三ノ原公園,35.5422298,139.3915824,
神奈川県,相模原市,512,南区,312麻溝台高校正門横,35.5379703,139.3990307,
神奈川県,相模原市,513,南区,313さがみ緑風園東側,35.5347469,139.4052956,
神奈川県,相模原市,514,南区,314総合体育館駐車場西側,35.5292111,139.3928183,
神奈川県,相模原市,515,南区,315(旧)南部粗大ごみ受入施設,35.5360915,139.4069945,
神奈川県,相模原市,516,南区,316下溝防災消防訓練場,35.5398174,139.3879198,
神奈川県,相模原市,517,南区,317バンテック前,35.5298737,139.3956077,
神奈川県,相模原市,518,南区,321横浜水道道緑道（麻溝台8丁目6番地先）,35.5264606,139.400617,
神奈川県,相模原市,519,南区,322麻溝台中学校南側,35.5309459,139.407315,
神奈川県,相模原市,520,南区,323麻溝台自治会館前,35.526507,139.4035977,
神奈川県,相模原市,521,南区,324ホソヤファーム前,35.525946,139.4093317,
神奈川県,相模原市,522,南区,325麻溝台中学校北側,35.5320346,139.4085508,
神奈川県,相模原市,523,南区,326麻溝台公園,35.5241341,139.3998055,
神奈川県,相模原市,524,南区,327麻溝台保育園南側,35.5258596,139.4041209,
神奈川県,相模原市,525,南区,328横浜水道道緑道（麻溝台6丁目26番地先）,35.5254881,139.4057025,
神奈川県,相模原市,526,南区,331横浜水道道緑道（双葉2丁目16番地先）,35.5246857,139.4092298,
神奈川県,相模原市,527,南区,332若草小学校北側,35.5217403,139.4006953,
神奈川県,相模原市,528,南区,333横浜水道道緑道（双葉2丁目10番地先）,35.5250672,139.4077996,
神奈川県,相模原市,529,南区,334桜台小学校正門横,35.5233345,139.4080442,
神奈川県,相模原市,530,南区,335桜台小学校西側,35.5222797,139.4073817,
神奈川県,相模原市,531,南区,336横浜水道道緑道（双葉2丁目4番地先）,35.5241105,139.4120673,
神奈川県,相模原市,532,南区,337双葉小学校東側,35.5300164,139.4130114,
神奈川県,相模原市,533,南区,341相模台公園南側,35.5189227,139.4075245,
神奈川県,相模原市,534,南区,342相模台団地６－８号棟横,35.5178677,139.4088576,
神奈川県,相模原市,535,南区,343相模台団地４－４号棟横,35.5181033,139.412069,
神奈川県,相模原市,536,南区,344相模台団地５－３号棟前,35.5169618,139.4102014,
神奈川県,相模原市,537,南区,345相模台中学校西側,35.521416,139.4073168,
神奈川県,相模原市,538,南区,346若草公園,35.5170879,139.4060599,
神奈川県,相模原市,539,南区,347若草中学校南側,35.5173039,139.4039981,
神奈川県,相模原市,540,南区,351さがみの仲よし小道（相模台3丁目5番地先）,35.5137789,139.4149813,
神奈川県,相模原市,541,南区,352さがみの仲よし小道（相模台3丁目2番地先）,35.513231,139.4156279,
神奈川県,相模原市,542,南区,353さがみの仲よし小道（相模台3丁目3番地先）,35.5123338,139.4165626,
神奈川県,相模原市,543,南区,354さがみの仲よし小道（相模台4丁目1番地先）,35.515755,139.4111441,
神奈川県,相模原市,544,南区,355さがみの仲よし小道（相模台4丁目6番地先）,35.515252,139.4125923,
神奈川県,相模原市,545,南区,356相模台４丁目公園前,35.5155542,139.4109371,
神奈川県,相模原市,546,南区,357さがみの仲よし小道（相模台4丁目6番地先）,35.5147941,139.4137655,
神奈川県,相模原市,547,南区,361（独）国立病院機構相模原病院南側,35.5195254,139.4115307,
神奈川県,相模原市,548,南区,362相模台小学校南側,35.5217401,139.4132055,
神奈川県,相模原市,549,南区,363相模台小学校西側,35.522401,139.4123076,
神奈川県,相模原市,550,南区,364神奈川障害者職業能力開発校南側,35.5222509,139.4113401,
神奈川県,相模原市,551,南区,365御園第２雨水調整池,35.5241508,139.4142159,
神奈川県,相模原市,552,南区,366（独）国立病院機構相模原病院東側,35.5208652,139.4126238,
神奈川県,相模原市,553,南区,367御園ふれあい広場,35.5268148,139.416046,
神奈川県,相模原市,554,南区,371相模台ふれあい広場北側,35.517734,139.4143365,
神奈川県,相模原市,555,南区,372相模台まちづくりセンター第２駐車場　北側,35.5185784,139.4137827,
神奈川県,相模原市,556,南区,373相模台まちづくりセンター裏,35.5182237,139.4153109,
神奈川県,相模原市,557,南区,374相模台まちづくりセンター第２駐車場　南側,35.5181958,139.4138836,
神奈川県,相模原市,558,南区,375相模台ふれあい広場南側,35.5172191,139.4139007,
神奈川県,相模原市,559,南区,376月極駐車場,35.5132051,139.4164402,
神奈川県,相模原市,560,南区,377豊泉幼稚園,35.5173433,139.4160891,
神奈川県,相模原市,561,南区,378相模台まちづくりセンター第２駐車場　西側,35.5183863,139.4135678,
神奈川県,相模原市,562,南区,381南台とんがり公園,35.5234767,139.426631,
神奈川県,相模原市,563,南区,382鶴の台公園南側,35.5220893,139.4283219,
神奈川県,相模原市,564,南区,383横浜水道道緑道（南台3丁目1番地先）,35.5215269,139.425389,
神奈川県,相模原市,565,南区,384横浜水道道緑道（南台1丁目9番地先）,35.5217876,139.4240326,
神奈川県,相模原市,566,南区,385南台公園前,35.5201541,139.4237849,
神奈川県,相模原市,567,南区,386鶴ヶ丘団地４号棟前,35.5191152,139.4201412,
神奈川県,相模原市,568,南区,387鶴ヶ丘団地第１公園前,35.517641,139.418902,
神奈川県,相模原市,569,南区,388鶴ヶ丘団地８号棟前,35.5184346,139.4205449,
神奈川県,相模原市,570,南区,391相武台団地1604号棟前,35.5137644,139.4090018,
神奈川県,相模原市,571,南区,392もえぎ台小学校南側,35.512785,139.4049345,
神奈川県,相模原市,572,南区,393相武台中学校北側,35.5127945,139.4000568,
神奈川県,相模原市,573,南区,394相武台中学校東側,35.5116578,139.401084,
神奈川県,相模原市,574,南区,395相武台団地中央公園,35.5114698,139.409558,
神奈川県,相模原市,575,南区,396もえぎ台小学校西側,35.5127948,139.4031786,
神奈川県,相模原市,576,南区,397相武台団地2704号棟横自転車置場前,35.511851,139.4077952,
神奈川県,相模原市,577,南区,401相武台第３雨水調整池前,35.5083136,139.4105813,
神奈川県,相模原市,578,南区,402相武台団地1502号棟横駐車場前,35.5122438,139.411579,
神奈川県,相模原市,579,南区,403相武台団地2602号棟横,35.5105181,139.4087404,
神奈川県,相模原市,580,南区,404相武台団地連合自治会館横,35.5096052,139.4099251,
神奈川県,相模原市,581,南区,405相武台団地南公園,35.5093264,139.412454,
神奈川県,相模原市,582,南区,406相武台小学校北側,35.5092651,139.4095538,
神奈川県,相模原市,583,南区,407相武台小学校西側,35.5079169,139.408662,
神奈川県,相模原市,584,南区,411相武台グリーンパーク４－６号棟前,35.5088132,139.4043318,
神奈川県,相模原市,585,南区,412相模原看護専門学校東側,35.5106564,139.404614,
神奈川県,相模原市,586,南区,413新磯野西公園南側,35.5092687,139.401911,
神奈川県,相模原市,587,南区,414雨水調整池西側,35.5068923,139.4035156,
神奈川県,相模原市,588,南区,415旧磯野台小学校留保地北側,35.5106215,139.4032354,
神奈川県,相模原市,589,南区,416新磯野南公園,35.5107566,139.4016388,
神奈川県,相模原市,590,南区,417旧磯野台小学校留保地西側,35.5097356,139.4033812,
神奈川県,相模原市,591,南区,421緑台小学校北側,35.5067059,139.4042965,
神奈川県,相模原市,592,南区,422相武台駅前公園,35.5004409,139.4072079,
神奈川県,相模原市,593,南区,423相武台１丁目公園,35.503149,139.4083937,
神奈川県,相模原市,594,南区,424緑台小学校南側,35.5056878,139.4050454,
神奈川県,相模原市,595,南区,425緑台小学校東側,35.5065437,139.4055175,
神奈川県,相模原市,596,南区,426相武台第５雨水調整池前,35.5031845,139.4062475,
神奈川県,相模原市,597,南区,427相武台前駅北口自転車駐車場,35.5000324,139.4048935,
神奈川県,相模原市,598,南区,428相武台サンハイム23－2号棟前,35.5040342,139.4078703,
