prefecture,city,number,address,name,lat,long,note
神奈川県,秦野市,1,曽屋228番地,不二家正門入口西側,35.3886249,139.2053071,
神奈川県,秦野市,2,曽屋1204番2,日本インター㈱右側(はだの台自治会倉庫前),35.3808821,139.2147063,
神奈川県,秦野市,3,曽屋2丁目9番9号,平塚保健福祉事務所秦野センター南側入口フェンス (位置情報が見つかりませんでした),35.3796703,139.2237406,
神奈川県,秦野市,4,入船町1948番1,イオン正面入り口(右側)歩道ガードフェンス,35.3783721,139.2303028,
神奈川県,秦野市,5,入船町12番2号,本町公民館東側植込み,35.37714400000001,139.2274263,
神奈川県,秦野市,6,曽屋2丁目4番8号付近,市立きたばら児童遊園地フェンス,35.3790743,139.2267713,
神奈川県,秦野市,7,入船町9番36号,masked,35.3787376,139.2302909,
神奈川県,秦野市,8,曽屋830番地の1,給食センター入口右側フェンス (位置情報が見つかりませんでした),35.3845368,139.2098217,緯度経度は怪しい
神奈川県,秦野市,9,ひばりヶ丘5番16号,ひばりヶ丘児童館跡地フェンス,35.3781044,139.2126057,緯度経度は怪しい
神奈川県,秦野市,10,水神町9番23号,水道局曽屋配水場前,35.3789776,139.2208167,
神奈川県,秦野市,11,ひばりヶ丘6番50号,masked,35.3781044,139.2126057,緯度経度は怪しい
神奈川県,秦野市,12,曽屋687番65,カルチャーパーク第6駐車場フェンス,35.3790104,139.2082369,緯度経度は怪しい
神奈川県,秦野市,13,富士見町1番1号,本町中学校正門東側植込み (位置情報が見つかりませんでした),35.3762255,139.2130034,
神奈川県,秦野市,14,桜町1丁目3番2号,市役所前,35.3747504,139.2200129,
神奈川県,秦野市,15,栄町9番14号,本町公民館入口交差点南(さかえちょう公園),35.3761429,139.2255744,
神奈川県,秦野市,16,文京町2番,市役所公用車駐車場フェンス(水無川側),35.3740872,139.2213607,
神奈川県,秦野市,17,文京町1番5号,本町小学校南門フェンス,35.373802,139.2239958,
神奈川県,秦野市,18,文京町1番5号,本町小学校東門横フェンス,35.373802,139.2239958,
神奈川県,秦野市,19,本町1丁目4番6号地先,秦野橋北側ガードフェンス,35.3725611,139.2251805,
神奈川県,秦野市,20,本町1丁目2672番14地先,まほろば大橋バス停向い水無川フェンス,35.3726572,139.2268207,
神奈川県,秦野市,21,本町1丁目6番6号,上宿商栄会駐車場南側フェンス,35.373315,139.2260502,
神奈川県,秦野市,22,本町2丁目2672番34地先,山口時計店向い水無川フェンス,35.3705075,139.2299862,
神奈川県,秦野市,23,河原町1番5号,玉宝山会館フェンス,35.3687935,139.2331885,
神奈川県,秦野市,24,本町3丁目11番8号,masked,35.3729932,139.2317608,
神奈川県,秦野市,25,本町3丁目4838番1(13番付近),県営秦野団地児童公園,35.3720113,139.231569,
神奈川県,秦野市,26,本町3丁目13番,秦野団地集会所西側ガードレール,35.3703344,139.233785,
神奈川県,秦野市,27,河原町1番29地先,新常盤橋信号西側水無川ガードレール,35.3681641,139.2341511,
神奈川県,秦野市,28,河原町3番49号先,河原町交差点公園フェンス,35.3689097,139.2366202,
神奈川県,秦野市,29,曽屋5784番地先,室川橋バス停フェンス(中野橋隣),35.3771645,139.2355761,緯度経度は怪しい
神奈川県,秦野市,30,曽屋5798番地の3,ほうらい会館前フェンス,35.366084,139.2433227,
神奈川県,秦野市,31,曽屋5626番,masked,35.366189,139.2458632,
神奈川県,秦野市,32,上大槻28番地の2,畑西側ガードフェンス,35.3609171,139.2423333,緯度経度は怪しい
神奈川県,秦野市,33,曽屋5912番地,中野健康センター植込み,35.3771645,139.2355761,緯度経度は怪しい
神奈川県,秦野市,34,上大槻190番地,なでしこ運動公園駐車場フェンス,35.3641975,139.2439529,
神奈川県,秦野市,35,上大槻405番,畑西側ガードレール,35.3609171,139.2423333,
神奈川県,秦野市,36,下落合8番,しもおちあい公園フェンス,35.3802487,139.2299862,
神奈川県,秦野市,37,落合364番地先,名古木交差点昭和シェル南側ガードパイプ,35.3801525,139.2350407,
神奈川県,秦野市,38,末広町6番3号地先,末広小学校前バス停近くフェンス,35.3778396,139.232954,
神奈川県,秦野市,39,末広町6番6号,末広小学校裏門脇フェンス,35.3761409,139.233596,緯度経度は怪しい
神奈川県,秦野市,40,末広町6番35号,すえひろこども園前ガードレール,35.3752958,139.2322501,
神奈川県,秦野市,41,曽屋3648番6,masked,35.3802859,139.2396198,緯度経度は怪しい
神奈川県,秦野市,42,曽屋6016番,こうぼうふじみ公園北側フェンス,35.3771645,139.2355761,緯度経度は怪しい
神奈川県,秦野市,43,平沢307番,ロピア渋沢店入口ガードレール,35.3746792,139.1976876,
神奈川県,秦野市,44,平沢148番,カルチャーパーク多目的広場北側フェンス,35.3803848,139.2019876,
神奈川県,秦野市,45,新町594番140(10番18号付近),しんちょう児童遊園地フェンス,35.3777442,139.2062493,
神奈川県,秦野市,46,鈴張町3番8号地先,村山青果店東側ガードレール,35.3754595,139.2071509,
神奈川県,秦野市,47,緑町16番3号,保健福祉センター正面フェンス,35.3736445,139.2090181,
神奈川県,秦野市,48,緑町16番1号,南中学校入口,35.3742469,139.210541,
神奈川県,秦野市,49,清水町5番1号,masked,35.3746528,139.2161978,
神奈川県,秦野市,50,平沢1555番,㈱STサービス北側植込み,35.3692671,139.2016817,
神奈川県,秦野市,51,平沢1467番地の7,三協町交差点南側植込み (位置情報が見つかりませんでした),35.368726,139.2058439,
神奈川県,秦野市,52,平沢1645番地,masked,35.36670240000001,139.2063482,
神奈川県,秦野市,53,平沢1211番地先,秦野10号踏切南側ガードパイプ,35.3735824,139.2012592,緯度経度は怪しい
神奈川県,秦野市,54,平沢1046番10,どうめい西公園入口東側ガードレール,35.3735824,139.2012592,緯度経度は怪しい
神奈川県,秦野市,55,平沢979番地,平沢児童館フェンス,35.3705647,139.2133471,
神奈川県,秦野市,56,今泉2068番3地先,震生湖入口交差点北東側ガードレール,35.3661898,139.2113321,
神奈川県,秦野市,57,今泉267番,すわはら西公園南側フェンス,35.3604115,139.2157429,
神奈川県,秦野市,58,今泉301番地の1付近,アイ保育園南側フェンス,35.3701323,139.2162868,
神奈川県,秦野市,59,今泉598番地,南公民館前フェンス,35.3680646,139.2175083,
神奈川県,秦野市,60,今泉2232番,水路北側ガードパイプ,35.3604115,139.2157429,緯度経度は怪しい
神奈川県,秦野市,61,今泉376番地,masked,35.3687429,139.2225278,
神奈川県,秦野市,62,今泉1022番地先,masked,35.3631626,139.217266,
神奈川県,秦野市,63,今泉699番地,南小学校南側フェンス,35.3667536,139.2170624,
神奈川県,秦野市,64,平沢2215番地先,masked,35.3603841,139.2000637,
神奈川県,秦野市,65,今泉台1丁目6番1号,今泉蛍橋（右岸側）先,35.36585850000001,139.2212097,
神奈川県,秦野市,66,今泉1127番24,みぞだした公園西側フェンス,35.3646967,139.2133217,
神奈川県,秦野市,67,今泉台1丁目17番1号,今泉台調整池東側ガードレール,35.365792,139.224494,
神奈川県,秦野市,68,今泉台3丁目9番,いまいずみ台南公園北側フェンス,35.36330390000001,139.2214398,
神奈川県,秦野市,69,尾尻957番1,秦野駅南口西側階段前フェンス,35.3639039,139.2271373,緯度経度は怪しい
神奈川県,秦野市,70,大秦町33番2,まほろば大橋東側歩道(南側階段フェンス),35.3686883,139.2290365,
神奈川県,秦野市,71,大秦町1番15号,旧高橋酒店南側フェンス,35.3696775,139.2276569,
神奈川県,秦野市,72,室町2番44号,秦野郵便局南側植込み,35.367897,139.2316239,
神奈川県,秦野市,73,尾尻185番1地先,尾崎橋北側左岸ガードレール,35.3639039,139.2271373,
神奈川県,秦野市,74,室町8番1号,光栄写真スタジオ北側室川右岸フェンス,35.36638629999999,139.2314467,
神奈川県,秦野市,75,尾尻420番,八幡神社西側フェンス,35.3631173,139.2301931,緯度経度は怪しい
神奈川県,秦野市,76,上大槻986番地,masked,35.3655954,139.2360976,
神奈川県,秦野市,77,西大竹281番,嶽神社東側,35.36063900000001,139.2343649,
神奈川県,秦野市,78,南が丘1丁目1番地内,秦野総合高校北側交差点北側,35.3579731,139.225238,緯度経度は怪しい
神奈川県,秦野市,79,立野台3丁目13番1,たての台南公園東側フェンス,35.358041,139.228000,緯度経度は怪しい
神奈川県,秦野市,80,立野台3丁目23番地1,立野台南調整池北東側フェンス,35.357675,139.231110,緯度経度は怪しい
神奈川県,秦野市,81,南が丘1丁目6番1,南が丘中学校入口フェンス,35.3570066,139.2245967,
神奈川県,秦野市,82,南が丘3丁目2番1先,1番館北側駐車場西側植込み,35.3537838,139.2271815,
神奈川県,秦野市,83,南が丘4丁目2番,南が丘公民館植込み,35.3551398,139.2272348,
神奈川県,秦野市,84,南が丘3丁目7番地内,東側歩道敷,35.3539035,139.2265042,緯度経度は怪しい
神奈川県,秦野市,85,立野台2丁目1番1号,たての台東公園 (位置情報が見つかりませんでした),35.3582773,139.2325135,
神奈川県,秦野市,86,落合582番地先,消防第3分団前ガードレール,35.3820356,139.232844,
神奈川県,秦野市,87,名古木409番地,秦野市環境資源センターフェンス,35.3820604,139.242457,
神奈川県,秦野市,88,名古木129番,masked,35.3861812,139.2388208,
神奈川県,秦野市,89,落合827番1,上落合バス停向いガードレール,35.3889933,139.2320676,
神奈川県,秦野市,90,名古木787番,資材置場北側ガードレール,35.3865332,139.2461329,緯度経度は怪しい
神奈川県,秦野市,91,寺山512番地先,東小学校前交差点南側ガードレール,35.3949682,139.2343312,
神奈川県,秦野市,92,寺山786番地先,ごみ捨て場付近フェンス,35.3971966,139.2361829,緯度経度は怪しい
神奈川県,秦野市,93,菟毛143番1地先,菟毛自治会館駐車場 (位置情報が見つかりませんでした),35.3747429,139.2199154,
神奈川県,秦野市,94,菟毛425番地の2,masked,35.3747429,139.2199154,
神奈川県,秦野市,95,東田原1538番地の3,東公民館フェンス,35.3964044,139.2309467,
神奈川県,秦野市,96,東田原1370番5,駐車場向い水路フェンス,35.3965431,139.2283397,
神奈川県,秦野市,97,東田原999番付近,ふるさと公園駐車場出口向いガードレール,35.3938359,139.224155,
神奈川県,秦野市,98,西田原923番地,谷戸児童館フェンス,35.3957038,139.2173327,
神奈川県,秦野市,99,東田原506番5地先,masked,35.3910108,139.219877,
神奈川県,秦野市,100,東田原475番地,masked,35.3905038,139.2180604,
神奈川県,秦野市,101,東田原432番,井之城バス停手前ガードレール (位置情報が見つかりませんでした),35.38808350000001,139.2208254,
神奈川県,秦野市,102,東田原200番384,くずは台緑地フェンス,35.3747429,139.2199154,緯度経度は怪しい
神奈川県,秦野市,103,東田原200番363,くずは台北公園フェンス,35.3747429,139.2199154,緯度経度は怪しい
神奈川県,秦野市,104,東田原200番386,くずは台東公園フェンス (位置情報が見つかりませんでした),35.3747429,139.2199154,緯度経度は怪しい
神奈川県,秦野市,105,東田原51番地先,公団くず葉台団地1号棟東側フェンス,35.3849474,139.2188867,緯度経度は怪しい
神奈川県,秦野市,106,東田原31番地先,公団くず葉台団地7号棟北側ガードフェンス (位置情報が見つかりませんでした),35.3747429,139.2199154,緯度経度は怪しい
神奈川県,秦野市,107,西田原136番,なかはら公園北側入口（ゴミ収集場所付近）,35.3871278,139.2126729,
神奈川県,秦野市,108,西田原88番地,masked,35.3906321,139.2139719,
神奈川県,秦野市,109,西田原1433番10,みやのまえ公園東側フェンス,35.3909374,139.2117119,
神奈川県,秦野市,110,羽根587番,masked,35.3929918,139.2091179,
神奈川県,秦野市,111,羽根501番,関野酒店東側ガードレール,35.3937991,139.2049408,
神奈川県,秦野市,112,菩提90番地,日興電機北側フェンス（三屋入口バス停前）,35.3898275,139.2020742,
神奈川県,秦野市,113,菩提186番地付近,工業団地入口信号手前（植込み）,35.3937855,139.1971508,
神奈川県,秦野市,114,菩提354番地の3,北公民館前右側植込み,35.3985196,139.1928858,
神奈川県,秦野市,115,菩提1597番地先,1号橋北側ガードレール,35.4029084,139.1937003,
神奈川県,秦野市,116,菩提1159番地先,ユーコープヤマの学校農業体験ほ場北側ガードレール,35.4001611,139.1936665,緯度経度は怪しい
神奈川県,秦野市,117,横野609番3,横野会館フェンス (位置情報が見つかりませんでした),35.4034777,139.184242,
神奈川県,秦野市,118,菩提380番地,北小学校裏門横フェンス,35.3998079,139.1889444,
神奈川県,秦野市,119,戸川1012番地,masked,35.395755,139.1812768,
神奈川県,秦野市,120,戸川865番地,masked,35.3952725,139.1833343,
神奈川県,秦野市,121,戸川928番地先,平和橋バス停ガードレール（水無川側） (位置情報が見つかりませんでした),35.3932048,139.1825665,
神奈川県,秦野市,122,戸川684番地,戸川児童館フェンス,35.3943777,139.1859388,
神奈川県,秦野市,123,戸川698番地,masked,35.393919,139.1871673,
神奈川県,秦野市,124,戸川907番地,masked,35.3922081,139.1862486,
神奈川県,秦野市,125,戸川372番1地先,上河原バス停前ガードレール（水無川側）,35.3904366,139.1927708,緯度経度は怪しい
神奈川県,秦野市,126,戸川410番地,八坂神社境内地,35.3904622,139.1884729,緯度経度は怪しい
神奈川県,秦野市,127,戸川535番地,masked,35.3937025,139.190512,緯度経度は怪しい
神奈川県,秦野市,128,戸川81番地,駐車場南側,35.3933074,139.1939527,
神奈川県,秦野市,129,戸川156番1号,三屋台児童館東側フェンス (位置情報が見つかりませんでした),35.3891575,139.194177,
神奈川県,秦野市,130,戸川267番1,市道23号線東側フェンス,35.3904366,139.1927708,緯度経度は怪しい
神奈川県,秦野市,131,戸川451番地の6,戸川取水場フェンス,35.3904381,139.1925067,
神奈川県,秦野市,132,三屋台138番3,塚原橋バス停前ガードレール(水無川),35.36807,139.1776823,緯度経度は怪しい
神奈川県,秦野市,133,三屋116番3地先,三屋出口バス停前ガードレール(水無川側),35.384335,139.1964607,
神奈川県,秦野市,134,下大槻1285番地,masked,35.3560719,139.2530938,緯度経度は怪しい
神奈川県,秦野市,135,下大槻949番地先,南平橋交差点東側ガードパイプ,35.3585583,139.2562665,緯度経度は怪しい
神奈川県,秦野市,136,下大槻688番地先,masked,35.3625905,139.2536775,
神奈川県,秦野市,137,下大槻410番2-22南,公団下大槻団地2-22棟南側ガードレール,35.3602946,139.2633799,
神奈川県,秦野市,138,下大槻138番地,ひろはたこども園前石垣,35.3608741,139.2596711,
神奈川県,秦野市,139,下大槻174番地の4,広畑小学校フェンス,35.3608842,139.2612849,
神奈川県,秦野市,140,下大槻410番地の3,広畑児童館フェンス,35.3605361,139.2642969,
神奈川県,秦野市,141,南矢名318番地,masked,35.3615453,139.2696499,
神奈川県,秦野市,142,南矢名700番3,広畑小学校入口交差点北東側ガードフェンス,35.3623244,139.2616507,
神奈川県,秦野市,143,南矢名4丁目29番,大根小学校入口フェンス,35.36681170000001,139.2684608,
神奈川県,秦野市,144,南矢名4丁目28番,大根中学校フェンス (位置情報が見つかりませんでした),35.368087,139.2687776,
神奈川県,秦野市,145,南矢名3丁目11番1号,旧大根幼稚園西側フェンス,35.3669027,139.2714723,
神奈川県,秦野市,146,南矢名2丁目18番4号,ドルフ東海大学前南側ガードレール,35.3680504,139.2725846,
神奈川県,秦野市,147,南矢名5丁目618番5付近,しみず公園南側道路フェンス,35.3674225,139.2660851,
神奈川県,秦野市,148,南矢名1丁目17番16付近,大根川沿いガードレール,35.3719377,139.2699655,
神奈川県,秦野市,149,南矢名4丁目4番地先,中央橋西側ガードレール,35.3707684,139.2692923,
神奈川県,秦野市,150,南矢名5丁目2066番41(5番3号付近),つくだ公園北側フェンス,35.3674225,139.2660851,
神奈川県,秦野市,151,南矢名2054番9,こみなみ公園東側フェンス,35.3677301,139.2562665,緯度経度は怪しい
神奈川県,秦野市,152,南矢名1丁目13番,東海大学前駅南口ロータリーフェンス,35.3725025,139.2717078,
神奈川県,秦野市,153,北矢名49番付近,東海大学前駅北口西側スロープフェンス,35.37334,139.270906,
神奈川県,秦野市,154,鶴巻1670番4,masked,35.3750331,139.27225,
神奈川県,秦野市,155,南矢名1229番地先,箕輪バス停フェンス (位置情報が見つかりませんでした),35.3676804,139.2524229,
神奈川県,秦野市,156,南矢名1130番107,masked,35.3650601,139.2518415,
神奈川県,秦野市,157,南矢名1015番8,ひがしきたくぼ公園フェンス,35.3662271,139.2553597,緯度経度は怪しい
神奈川県,秦野市,158,南矢名1882番23,交差点北側ガードレール,35.36754579999999,139.2562786,
神奈川県,秦野市,159,南矢名1857番61,みやた公園西側フェンス,35.3684052,139.2560405,
神奈川県,秦野市,160,下大槻85番地先,鳥井松橋西側ガードパイプ(北側),35.3585583,139.2562665,緯度経度は怪しい
神奈川県,秦野市,161,南矢名945番地の5,県立秦野高校正門向いフェンス,35.3632674,139.2584637,
神奈川県,秦野市,162,北矢名1257番,masked,35.3737412,139.263363,
神奈川県,秦野市,163,北矢名214番地,北矢名児童館フェンス,35.3741771,139.265753,
神奈川県,秦野市,164,北矢名1310番地の2,masked,35.3716866,139.2683424,
神奈川県,秦野市,165,北矢名149番地先,町田皮膚科医院北側ガードパイプ,35.3748155,139.2705891,
神奈川県,秦野市,166,北矢名371番地の1,片野駐車場フェンス(おおね台団地内),35.3775275,139.2651548,
神奈川県,秦野市,167,北矢名666番56,すがわら公園上ガードレール(ゴミ集積所西側),35.3790611,139.2644002,緯度経度は怪しい
神奈川県,秦野市,168,北矢名504番地先,masked,35.3790406,139.2677211,
神奈川県,秦野市,169,鶴巻2240番地の1,鶴巻小学校正門横フェンス,35.3776067,139.2709554,
神奈川県,秦野市,170,鶴巻2182番,鶴巻公民館西側向いガードレール,35.3812465,139.2715201,
神奈川県,秦野市,171,鶴巻2160番,鶴巻上部会館裏,35.3819336,139.2704737,
神奈川県,秦野市,172,鶴巻1823番地1先,鶴巻南一丁目20号線（旧市道500号）ガードレール,35.3800453,139.2738263,
神奈川県,秦野市,173,鶴巻北3丁目1921番2(1番1号付近),つるまき北公園フェンス,35.3830656,139.2749549,
神奈川県,秦野市,174,鶴巻北2丁目3番,鶴巻温泉駅前市道ガードパイプ,35.3815908,139.2782023,
神奈川県,秦野市,175,鶴巻北2丁目1194番6(5番20号付近),あしやまえ児童遊園地フェンス,35.3836803,139.2771726,
神奈川県,秦野市,176,鶴巻南1丁目19番31号,ミクチーナ鶴巻店東側植込み (位置情報が見つかりませんでした),35.3767475,139.2761368,
神奈川県,秦野市,177,鶴巻南2丁目7番,県営鶴巻団地6号棟西側ガードレール,35.3762694,139.2793904,
神奈川県,秦野市,178,鶴巻南2丁目7番,県営鶴巻団地集会所前ガードレール,35.3762694,139.2793904,
神奈川県,秦野市,179,鶴巻南2丁目7番,県営鶴巻団地11号棟東側フェンス,35.3762694,139.2793904,
神奈川県,秦野市,180,鶴巻南2丁目33番14号,鶴巻東ケ丘自治会館南側フェンス,35.3746798,139.2784102,
神奈川県,秦野市,181,鶴巻南3丁目6番11号,masked,35.3764442,139.2829657,
神奈川県,秦野市,182,鶴巻南3丁目604番34(24番13号付近),ひろまち児童遊園地フェンス,35.377083,139.2835093,
神奈川県,秦野市,183,鶴巻南4丁目8番,鶴巻ガーデンシティプラザ向いガードレール,35.3798498,139.2825588,
神奈川県,秦野市,184,鶴巻北1丁目16番3号,フードワン鶴巻店正面入口横フェンス（駐車場フェンス）,35.3833807,139.2797297,
神奈川県,秦野市,185,鶴巻南4丁目3番19号,塩貝橋ガードレール,35.3812991,139.2802837,
神奈川県,秦野市,186,鶴巻南5丁目545番8(8番5号付近),ひかりのおか公園フェンス,35.3815113,139.2838262,
神奈川県,秦野市,187,鶴巻南4丁目8番,ひかりのまちテニスコート向いガードレール,35.3798498,139.2825588,
神奈川県,秦野市,188,鶴巻南4丁目856番8(8番付近),ひかりのまち公園南側フェンス,35.3794928,139.2809745,
神奈川県,秦野市,189,鶴巻南1丁目1164番1,鶴巻温泉駅南口広場東側フェンス,35.3762864,139.2759054,
神奈川県,秦野市,190,堀山下1475番3,滝沢園看板横ガードレール,35.4057394,139.1678897,
神奈川県,秦野市,191,堀山下1288番,堀山下浄水場東側,35.4036479,139.1691166,
神奈川県,秦野市,192,堀西1503番,masked,35.3975503,139.1695357,
神奈川県,秦野市,193,堀山下997番2,八幡神社バス停前フェンス,35.4176665,139.1651285,緯度経度は怪しい
神奈川県,秦野市,194,堀西1227番,須賀神社向いガードパイプ,35.3857833,139.1739828,緯度経度は怪しい
神奈川県,秦野市,195,堀山下920番2,交差点歩道フェンス,35.4176665,139.1651285,緯度経度は怪しい
神奈川県,秦野市,196,堀西1147番,masked,35.3897521,139.174771,
神奈川県,秦野市,197,堀山下843番,堀山下児童館フェンス,35.39077150000001,139.1773561,
神奈川県,秦野市,198,堀山下639番6,関バス停植込み,35.3890439,139.1787416,
神奈川県,秦野市,199,堀川614番,masked,35.3872807,139.1776305,
神奈川県,秦野市,200,堀山下549番4,秦野市建設部資材置場フェンス,35.3910223,139.1829634,
神奈川県,秦野市,201,堀山下408番,さくらどて公園北側植込み,35.384876,139.1845303,
神奈川県,秦野市,202,堀山下1748番20,しもがわら公園フェンス,35.3901951,139.1839999,
神奈川県,秦野市,203,堀川579番地の1,老人いこいの家ほりかわ荘地内,35.3849448,139.180857,
神奈川県,秦野市,204,堀山下520番,もものきぼらふれあい公園東側フェンス,35.4176665,139.1651285,緯度経度は怪しい
神奈川県,秦野市,205,堀川572番地先,堀川緑地,35.3827237,139.1847363,緯度経度は怪しい
神奈川県,秦野市,206,堀西800番,masked,35.3855179,139.173979,緯度経度は怪しい
神奈川県,秦野市,207,堀西702番,masked,35.3819542,139.1741057,
神奈川県,秦野市,208,堀西639番地,masked,35.379763,139.1746449,
神奈川県,秦野市,209,並木町8番1号,西小学校裏門横フェンス,35.3805835,139.1778422,
神奈川県,秦野市,210,並木町8番1号,西小学校通用門フェンス,35.3805835,139.1778422,
神奈川県,秦野市,211,並木町3番21号,消防団第7分団第6部事務所横,35.3791803,139.180018,
神奈川県,秦野市,212,春日町6番1号,学校前会館西側フェンス,35.3799506,139.1810297,
神奈川県,秦野市,213,堀川150番地先,㈱日立物流向いガードパイプ,35.3827237,139.1847363,
神奈川県,秦野市,214,堀山下66番7,テクノパーク入口交差点北側(送電線鉄塔敷フェンス),35.382095,139.1863447,
神奈川県,秦野市,215,堀川203番地の1,堀川公民館植込み,35.38211709999999,139.1850921,
神奈川県,秦野市,216,堀川109番地の2,ほりかわ幼稚園側土手(堀川小前交差点横),35.3804136,139.1863574,
神奈川県,秦野市,217,堀西132番地の1,ニチイのきらめき秦野北側フェンス,35.3776592,139.1893571,
神奈川県,秦野市,218,堀山下1番地先,㈱日立製作所正門西側転落防止柵,35.3788163,139.1934406,
神奈川県,秦野市,219,堀山下1番地先,㈱日立製作所南側転落防止柵,35.3788163,139.1934406,
神奈川県,秦野市,220,平沢82番,文化会館入口横植込み,35.3804108,139.1971515,
神奈川県,秦野市,221,堀西482番,よねやま公園植込み,35.3770427,139.1737179,
神奈川県,秦野市,222,沼代新町6番21号,masked,35.3782667,139.175599,
神奈川県,秦野市,223,柳町2丁目5番2号,消防署西分署西側フェンス,35.3767067,139.180559,
神奈川県,秦野市,224,柳町2丁目5番36号,旧西公民館南西側フェンス,35.3754046,139.1797349,
神奈川県,秦野市,225,柳町2丁目5番1号,西中学校フェンス,35.3762782,139.1802093,
神奈川県,秦野市,226,柳町1丁目122番6,やなぎちょう公園入口右側植込み,35.375335,139.1834711,
神奈川県,秦野市,227,柳町1丁目19番,市営渋沢駅北口駐車場南側フェンス,35.37462319999999,139.1857643,
神奈川県,秦野市,228,曲松1丁目3番16号,曲松いちょう公園,35.3729602,139.1843154,
神奈川県,秦野市,229,曲松2丁目8番25号,masked,35.3704368,139.1853943,
神奈川県,秦野市,230,曲松1丁目16番,渋沢駅南口ロータリー正面東側ポール,35.3718983,139.1834711,
神奈川県,秦野市,231,萩が丘8番8号,マンション萩が丘東側(諸星駐車場)ガードレール,35.3730146,139.1796129,
神奈川県,秦野市,232,曲松2丁目4番25号,masked,35.3721448,139.1887581,
神奈川県,秦野市,233,若松町956番1(4番40号付近),まがりまつ児童遊園地西側フェンス,35.3734891,139.1894811,
神奈川県,秦野市,234,曲松1丁目1番8号地先,渋沢駅南口西側ガードレール(商店会駐車場向い),35.3739327,139.1835992,
神奈川県,秦野市,235,渋沢2640番地先,峠バス折返し場東側フェンス,35.3704211,139.192054,
神奈川県,秦野市,236,渋沢370番,masked,35.3661473,139.1802093,緯度経度は怪しい
神奈川県,秦野市,237,渋沢2121番地先,堂坂信号付近ガードフェンス,35.3704211,139.192054,緯度経度は怪しい
神奈川県,秦野市,238,渋沢2056番地,masked,35.3657179,139.1855872,
神奈川県,秦野市,239,渋沢2040番,渋沢中学校正門前歩道ガードフェンス,35.3704211,139.192054,緯度経度は怪しい
神奈川県,秦野市,240,栃窪73番地先,栃窪会館北側ガードレール,35.363528,139.1891122,
神奈川県,秦野市,241,渋沢1802番4,ガードレール,35.3704211,139.192054,緯度経度は怪しい
神奈川県,秦野市,242,渋沢2丁目22番43号,masked,35.3692634,139.1881589,
神奈川県,秦野市,243,渋沢2丁目52番5先,masked,35.3672822,139.1906248,
神奈川県,秦野市,244,渋沢2丁目1226番9(7番45号付近),渋沢東ふる里公園植込み,35.3692648,139.1910628,
神奈川県,秦野市,245,渋沢3丁目1382番156(1番付近),なかじま北公園南側フェンス,35.3685204,139.194859,
神奈川県,秦野市,246,渋沢3丁目1382番165(11番付近),なかじま東公園北側フェンス,35.3685204,139.194859,
神奈川県,秦野市,247,渋沢3丁目1352番97(34番付近),なかじま南公園フェンス,35.3685204,139.194859,
神奈川県,秦野市,248,渋沢1464番地,masked,35.3678514,139.2013345,
神奈川県,秦野市,249,千村3丁目20番11号地先,なかかいどり児童遊園地,35.3678934,139.1766433,
神奈川県,秦野市,250,千村3丁目30番17号,千村児童館向い東側ガードレール,35.369297,139.1736452,
神奈川県,秦野市,251,千村3丁目652番74(6番1号付近),ちむら台公園南側フェンス,35.3688034,139.1758803,
神奈川県,秦野市,252,千村3丁目14番3号,やまの台緑地入口ガードレール,35.3690531,139.1774563,
神奈川県,秦野市,253,千村3丁目652番175(1番12号付近),ちむら台北公園南側ガードフェンス,35.3688034,139.1758803,
神奈川県,秦野市,254,渋沢上1丁目12番1号,渋沢小学校北側裏門横フェンス,35.3689808,139.1784639,
神奈川県,秦野市,255,渋沢上1丁目12番1号,渋沢小学校南側駐車場フェンス,35.3689808,139.1784639,
神奈川県,秦野市,256,三廻部313番,井上酒店前ガードレール,35.3960048,139.1639724,
神奈川県,秦野市,257,萱蒲1732番,小原地蔵堂前ガードレール (位置情報が見つかりませんでした),35.3747429,139.2199154,
神奈川県,秦野市,258,柳川381番,長福寺入口前ガードレール,35.3858248,139.1580942,緯度経度は怪しい
神奈川県,秦野市,259,萱蒲1587番地の16,上公民館入口 (位置情報が見つかりませんでした),35.3747429,139.2199154,
神奈川県,秦野市,260,柳川1340番,masked,35.3820383,139.1594964,
神奈川県,秦野市,261,八沢626番1,老人いこいの家かわじ荘入口ガードレール,35.3785831,139.1542109,
神奈川県,秦野市,262,萱蒲1179番,萱蒲会館向いガードレール (位置情報が見つかりませんでした),35.3747429,139.2199154,
神奈川県,秦野市,263,萱蒲2080番,国道246号線甘柿橋下ガードレール (位置情報が見つかりませんでした),35.3747429,139.2199154,
神奈川県,秦野市,264,萱蒲1083番1付近,田頭橋南側ガードレール (位置情報が見つかりませんでした),35.3747429,139.2199154,
神奈川県,秦野市,265,萱蒲58番63,レストラン三味向い南側ガードフェンス (位置情報が見つかりませんでした),35.3747429,139.2199154,
神奈川県,秦野市,266,萱蒲58番20,masked,35.3747429,139.2199154,
神奈川県,秦野市,267,萱蒲58番地の36,湯の沢団地自治会館敷地内 (位置情報が見つかりませんでした),35.3747429,139.2199154,
神奈川県,秦野市,268,萱蒲58番106,masked,35.3747429,139.2199154,
神奈川県,秦野市,269,八沢1146番22,masked,35.3672939,139.1549394,
