prefecture,city,number,address,name,lat,long,note
神奈川県,綾瀬市,1,落合南９丁目２８４−１,新落合橋沿フェンス,35.416580,139.445168,
神奈川県,綾瀬市,2,落合南２丁目１１７−１,長坂上バス停東フェンス,35.417018,139.435443,
神奈川県,綾瀬市,3,落合南６丁目１−４６,落合自治会館駐車場フェンス,35.418982,139.441647,
神奈川県,綾瀬市,4,落合南７丁目４６３,山田駐車場前ガードレール,35.419697,139.439374,
神奈川県,綾瀬市,5,落合南９丁目６０７−２,落合東公園フェンス,35.419790,139.443662,
神奈川県,綾瀬市,6,落合南９丁目３３９,綾南公園南側駐車場フェンス,35.418025,139.444912,
神奈川県,綾瀬市,7,落合南４丁目１５−２,ごみ集積場横ガードフェンス,35.414259,139.443097,
神奈川県,綾瀬市,8,落合北４丁目１０４８−３,びわみ堂バス停北東ガードフェンス,35.421161,139.438452,
神奈川県,綾瀬市,9,落合北６丁目１３９６−２１,取内東公園植込み,35.425081,139.436728,
神奈川県,綾瀬市,10,落合北５丁目１３３７,パールハイツ前ガードフェンス,35.423183,139.436646,
神奈川県,綾瀬市,11,落合北７丁目１−１９,あやせ福祉サービスセンター植込み,35.425140,139.438281,
神奈川県,綾瀬市,12,落合北７丁目１３,株式会社小倉自動車横ガードフェンス,35.422327,139.442739,
神奈川県,綾瀬市,13,落合北５丁目２２,綾瀬すぎの子幼稚園フェンス,35.422001,139.437684,
神奈川県,綾瀬市,14,落合北３丁目１０−１,落合小学校東門横フェンス,35.420970,139.435410,
神奈川県,綾瀬市,15,深谷中５丁目１７,中村地区センター駐車場フェンス,35.436045,139.436352,
神奈川県,綾瀬市,16,深谷中４丁目１５−１,明電ケミカル株式会社フェンス,35.437384,139.431555,
神奈川県,綾瀬市,17,本蓼川４２９−４,綾瀬スポーツ公園北側フェンス,35.439878,139.447877,
神奈川県,綾瀬市,18,深谷中５丁目１−１,綾瀬小学校横フェンス,35.439892,139.434706,
神奈川県,綾瀬市,19,深谷中７丁目２２７２−２２,鶴ヶ台公園フェンス,35.435678,139.441291,
神奈川県,綾瀬市,20,深谷南２丁目３−１,綾瀬中学校裏門フェンス,35.430931,139.439813,
神奈川県,綾瀬市,21,深谷南１丁目１４８８−４,新道橋東側県道フェンス,35.429170,139.433931,
神奈川県,綾瀬市,22,深谷中２丁目８−１７,深谷森林公園前,35.431672,139.433846,
神奈川県,綾瀬市,23,深谷上３丁目６−１,IIMURO GLASS綾瀬市民スポーツセンターフェンス,35.442896,139.427681,
神奈川県,綾瀬市,24,深谷上５丁目２５,綾瀬商会前植え込み,35.446252,139.432621,
神奈川県,綾瀬市,25,深谷上６丁目４５６２−１,上深谷地域公園フェンス,35.441201,139.431193,
神奈川県,綾瀬市,26,深谷上７丁目４６３０−１６,本郷公園フェンス,35.441443,139.434647,
神奈川県,綾瀬市,27,深谷上１丁目７−７−１８,深谷中央２号緑地,35.441034,139.427028,
神奈川県,綾瀬市,28,深谷上６丁目７−２０,中郷バス停付近ガードフェンス,35.439131,139.431978,
神奈川県,綾瀬市,29,深谷上３丁目１−２９,深谷保育園フェンス,35.441859,139.428466,
神奈川県,綾瀬市,30,大上２丁目１−１,MEGAドン・キホーテ綾瀬店前フェンス,35.457634,139.426552,
神奈川県,綾瀬市,31,大上４丁目１７２−１,株式会社ユーエムパッケージフェンス,35.461300,139.427563,
神奈川県,綾瀬市,32,大上１丁目３０−５,相模運輸倉庫株式会社フェンス,35.460223,139.432853,
神奈川県,綾瀬市,33,大上２丁目５５５−９,風車公園フェンス,35.460731,139.424784,
神奈川県,綾瀬市,34,大上２丁目６３０,トピー工業株式会社駐車場前フェンス,35.462304,139.426917,緯度経度は怪しい
神奈川県,綾瀬市,35,大上５丁目２５８−１,大上ゆめ公園植込み,35.463546,139.428866,
神奈川県,綾瀬市,36,大上４丁目６−６,フードワン綾瀬店フェンス,35.462301,139.430273,
神奈川県,綾瀬市,37,大上５丁目２１－３４,大上会館植込み,35.464301,139.427710,
神奈川県,綾瀬市,38,大上３丁目５００－１,大上公園フェンス,35.464679,139.423816,
神奈川県,綾瀬市,39,大上５丁目１３－１１,株式会社メイコー資材部横フェンス,35.465633,139.430100,
神奈川県,綾瀬市,40,大上３丁目４３５－１２,masked,35.464170,139.424045,緯度経度は怪しい
神奈川県,綾瀬市,41,大上６丁目３８５－５,株式会社メイコー駐車場フェンス,35.465661,139.428671,
神奈川県,綾瀬市,42,大上６丁目１４－５,大上保育園植込み,35.466561,139.428200,
神奈川県,綾瀬市,43,大上３丁目４６２,企業庁水道局大塚配水池フェンス,35.465501,139.422462,
神奈川県,綾瀬市,44,蓼川２丁目１５９５－１,蓼川神社横,35.464144,139.436051,
神奈川県,綾瀬市,45,蓼川１丁目２３－１,水之頭公園フェンス,35.461339,139.436336,
神奈川県,綾瀬市,46,蓼川２丁目１５０７－１４８,蓼川公園フェンス,35.464148,139.437766,
神奈川県,綾瀬市,47,蓼川１丁目２６－１,さくら公園フェンス,35.461384,139.438337,
神奈川県,綾瀬市,48,大上８丁目６２３８－１,綾北分団向かい農園フェンス,35.465465,139.433191,
神奈川県,綾瀬市,49,蓼川２丁目１５２６－１,斉藤駐車場フェンス,35.464521,139.437767,緯度経度は怪しい
神奈川県,綾瀬市,50,大上８丁目２３－３５,深谷大上ふれあいの家フェンス,35.464582,139.433354,
神奈川県,綾瀬市,51,蓼川１丁目９０６－７,桜ヶ岡公園フェンス,35.460590,139.436183,
神奈川県,綾瀬市,52,寺尾西３丁目９－２０,トオル駐車場フェンス,35.454197,139.419498,
神奈川県,綾瀬市,53,寺尾本町１丁目１１－３,神奈川県厚木土木事務所東部センターフェンス,35.452553,139.422203,
神奈川県,綾瀬市,54,寺尾西２丁目８７１－２,寺小橋北側信号付近フェンス,35.450337,139.419378,
神奈川県,綾瀬市,55,寺尾西２丁目６－３６,青空児童遊園地フェンス,35.452217,139.419943,緯度経度は怪しい
神奈川県,綾瀬市,56,寺尾本町２丁目７－３,寺尾綾北自治会館フェンス,35.455754,139.422631,
神奈川県,綾瀬市,57,寺尾本町３丁目７５５－３,本町ふれあい公園フェンス,35.454975,139.425117,
神奈川県,綾瀬市,58,寺尾本町３丁目１０－１,綾北小学校前フェンス,35.456349,139.427294,
神奈川県,綾瀬市,59,大上１丁目５４２７－８,桃並公園フェンス,35.456227,139.429148,
神奈川県,綾瀬市,60,寺尾南３丁目７１７－２,比留川第２公園フェンス,35.453425,139.427789,
神奈川県,綾瀬市,61,寺尾南３丁目１０－４７,旧小山田ゴルフパーク前ガードレール,35.452557,139.427216,
神奈川県,綾瀬市,62,寺尾釜田３丁目９５－４,釜田第１公園フェンス,35.448199,139.424159,
神奈川県,綾瀬市,63,寺尾釜田２丁目２８０－１５,釜田第２公園フェンス,35.447668,139.421741,
神奈川県,綾瀬市,64,寺尾釜田１丁目１７－２８,綾瀬市リサイクル協同組合フェンス,35.447039,139.425542,
神奈川県,綾瀬市,65,寺尾南１丁目４－１,観音入口バス停前フェンス,35.450089,139.429733,
神奈川県,綾瀬市,66,寺尾台１丁目３－１,天台小学校プールフェンス,35.457047,139.416552,
神奈川県,綾瀬市,67,寺尾台３丁目６－２５,寺尾いずみ会館フェンス,35.460128,139.419736,
神奈川県,綾瀬市,68,寺尾台２丁目２１４０－５,天台公園フェンス,35.459032,139.415260,
神奈川県,綾瀬市,69,寺尾台２丁目２１３３－２４,寺尾台公園フェンス,35.459357,139.416837,
神奈川県,綾瀬市,70,寺尾台３丁目１９３０－１,masked,35.459661,139.419280,緯度経度は怪しい
神奈川県,綾瀬市,71,寺尾台４丁目１９６３－４,寺尾の森南東側,35.461463,139.419345,
神奈川県,綾瀬市,72,寺尾台３丁目２０１１－２,寺尾台地域公園フェンス,35.460098,139.418040,
神奈川県,綾瀬市,73,寺尾中１丁目１４５１－２,子ノ神第２公園フェンス,35.456624,139.424594,
神奈川県,綾瀬市,74,寺尾中２丁目２－６－２,旧寺尾団地集会場東側フェンス,35.457732,139.421964,
神奈川県,綾瀬市,75,寺尾中１丁目３－２２,綾北福社会館前フェンス,35.458365,139.423277,
神奈川県,綾瀬市,76,寺尾中３丁目１５１７－２,旧緒方医院東側県道フェンス,35.459487,139.425454,
神奈川県,綾瀬市,77,寺尾中２丁目１２５７－８,子ノ神公園南側県道フェンス,35.456314,139.422241,
神奈川県,綾瀬市,78,寺尾中４丁目１５７９－３２,林第１公園フェンス,35.460887,139.422425,
神奈川県,綾瀬市,79,寺尾中２丁目１７４９－１３,県営団地前フェンス,35.456293,139.422234,緯度経度は怪しい
神奈川県,綾瀬市,80,寺尾北２丁目２３４８－１,寺尾児童館横駐車場フェンス,35.464335,139.420282,
神奈川県,綾瀬市,81,寺尾北３丁目１－１４,masked,35.461571,139.420844,
神奈川県,綾瀬市,82,寺尾北４丁目１７２４－７,寺尾北公園フェンス,35.461803,139.419801,
神奈川県,綾瀬市,83,寺尾北２丁目２３７７－４,ドレーパー記念幼稚園職員専用駐車場付近,35.467406,139.420988,緯度経度は怪しい
神奈川県,綾瀬市,84,寺尾北１丁目２２５５,寺尾公園植込み,35.463031,139.417466,
神奈川県,綾瀬市,85,寺尾北３丁目１６－１,美容室SKELETON横ガードレール,35.462143,139.420442,
神奈川県,綾瀬市,86,寺尾北２丁目１３－５,グレースかしわ台前ガードレール,35.466400,139.419987,
神奈川県,綾瀬市,87,小園１２３６－３,小園台第１公園フェンス,35.453323,139.412130,
神奈川県,綾瀬市,88,小園７７１,日本ロジテム株式会社綾瀬営業所東側フェンス,35.448164,139.416355,
神奈川県,綾瀬市,89,小園１２３３－１,小園台第２公園フェンス,35.453554,139.410017,
神奈川県,綾瀬市,90,小園１７０,矢部建材店前フェンス,35.449866,139.408039,緯度経度は怪しい
神奈川県,綾瀬市,91,小園南１丁目２０,小園広場フェンス,35.446598,139.409929,
神奈川県,綾瀬市,92,小園１４２６－１,小園公園植込み,35.455053,139.408424,
神奈川県,綾瀬市,93,小園２丁目１９１－９４,小園西公園フェンス,35.449649,139.411468,
神奈川県,綾瀬市,94,小園１１１６,株式会社日立産機正門フェンス,35.454402,139.412464,
神奈川県,綾瀬市,95,早川３０３２,早園地区センター入口付近フェンス,35.442368,139.411510,
神奈川県,綾瀬市,96,早川２９８０－８７,東名公園フェンス,35.444765,139.412070,
神奈川県,綾瀬市,97,早川城山３丁目４－１,城山公園正門横フェンス,35.437530,139.419488,
神奈川県,綾瀬市,98,早川５５０,綾瀬市役所バスターミナル付近,35.437694,139.426604,
神奈川県,綾瀬市,99,早川１２２９－２,瀬端橋付近フェンス,35.437852,139.413409,
神奈川県,綾瀬市,100,早川１３４５－４,峰山公園フェンス,35.433864,139.414545,
神奈川県,綾瀬市,101,早川１３１９－６,早川交番跡地横フェンス,35.434222,139.417538,
神奈川県,綾瀬市,102,綾西３丁目５－２,さがみ農協綾西支店フェンス,35.431095,139.410270,
神奈川県,綾瀬市,103,綾西４丁目１９－１９,旧相鉄ローゼン国分寺台店駐輪場フェンス,35.432584,139.409996,
神奈川県,綾瀬市,104,綾西５丁目１５０２－８９,ぞうさん公園フェンス,35.434756,139.411619,
神奈川県,綾瀬市,105,綾西２丁目１１－１３,綾西高齢者憩の家フェンス,35.430697,139.415622,
神奈川県,綾瀬市,106,綾西２丁目１８００－１２４,綾西公園フェンス,35.431299,139.414626,緯度経度は怪しい
神奈川県,綾瀬市,107,綾西１丁目２－１,綾西小学校フェンス（南）,35.432507,139.417107,
神奈川県,綾瀬市,108,綾西１丁目２－１,綾西小学校フェンス（西）,35.433443,139.416292,
神奈川県,綾瀬市,109,吉岡１０１７,日吉山王社前ガードフェンス,35.423202,139.416023,
神奈川県,綾瀬市,110,吉岡１４１５,西根バス停前ガードフェンス,35.428050,139.413628,
神奈川県,綾瀬市,111,吉岡２３１６－１０,吉岡自治会館前ガードフェンス,35.425580,139.412529,
神奈川県,綾瀬市,112,吉岡２７２２－１,根恩馬公園フェンス,35.414764,139.410749,
神奈川県,綾瀬市,113,吉岡東１丁目１３－６,アヤセ精密株式会社フェンス,35.428325,139.421483,
神奈川県,綾瀬市,114,吉岡２５２９,masked,35.422863,139.412784,
神奈川県,綾瀬市,115,吉岡１２２０－１,堀之内公園フェンス,35.428505,139.417221,
神奈川県,綾瀬市,116,吉岡東５丁目５－１４,芝原公民館フェンス,35.424725,139.429394,
神奈川県,綾瀬市,117,吉岡５２３－１,ヤマザキショップ前フェンス,35.421545,139.425041,
神奈川県,綾瀬市,118,吉岡３９３－１,春日台中学校北側フェンス,35.424291,139.431698,
神奈川県,綾瀬市,119,吉岡東３丁目５－４３,鴻池運輸株式会社前フェンス,35.422864,139.422899,
神奈川県,綾瀬市,120,吉岡東２丁目４－２１,東海鋼鉄株式会社加工センター前フェンス,35.427008,139.425157,
神奈川県,綾瀬市,121,吉岡東２丁目１０４,吉岡バスターミナル吉岡芝原バス停,35.425400,139.428391,
神奈川県,綾瀬市,122,吉岡東３丁目９－３６,小田運輸株式会社前フェンス,35.423446,139.425918,
神奈川県,綾瀬市,123,上土棚南６丁目１－１,土棚小学校プールフェンス,35.412321,139.443531,
神奈川県,綾瀬市,124,上土棚南５丁目１８３７－１,いなげや上土棚南店駐車場フェンス,35.408025,139.448774,
神奈川県,綾瀬市,125,上土棚南３丁目１９５９－１０,やぶね台公園植込み,35.411922,139.450980,
神奈川県,綾瀬市,126,上土棚南２丁目１４９２－８,綾南分団前,35.414458,139.446650,
神奈川県,綾瀬市,127,上土棚南１丁目１３５１－４,松山公園フェンス,35.415397,139.446884,
神奈川県,綾瀬市,128,上土棚南４丁目１８８９－２,やぶね地域公園フェンス,35.410826,139.447752,
神奈川県,綾瀬市,129,上土棚南３丁目１９５９－５,あやせグリーンハイツ駐車場フェンス,35.411565,139.449951,緯度経度は怪しい
神奈川県,綾瀬市,130,上土棚中６丁目２００９－１０３,やぶね公園フェンス,35.412289,139.451700,
神奈川県,綾瀬市,131,上土棚中１丁目１１０７－１,綾南公園北側入口付近,35.419257,139.445054,
神奈川県,綾瀬市,132,上土棚中２丁目５－７,もみじ公園フェンス,35.416924,139.449929,
神奈川県,綾瀬市,133,上土棚中７丁目９２７－１２,なかよし広場フェンス,35.413742,139.449856,
神奈川県,綾瀬市,134,上土棚中１丁目１０－１１,綾南地区センターフェンス,35.415721,139.448414,
神奈川県,綾瀬市,135,上土棚中１丁目１２－１９,綾南小学校正門横フェンス,35.417946,139.447876,
神奈川県,綾瀬市,136,上土棚中５丁目４－１７,ウインディ湘南前フェンス,35.411933,139.453207,
神奈川県,綾瀬市,137,上土棚北２丁目３２４－５４,中原公園フェンス,35.424816,139.446828,
神奈川県,綾瀬市,138,上土棚北３丁目２－１２,上土棚交番横フェンス,35.421507,139.443883,
神奈川県,綾瀬市,139,上土棚北４丁目４０８－３,中原第２公園フェンス,35.422415,139.448596,
神奈川県,綾瀬市,140,上土棚北３丁目２１－２８,あやせベリーガーデン北側フェンス,35.421613,139.447015,
神奈川県,綾瀬市,141,上土棚北４丁目６－２６,サントミ工業株式会社フェンス,35.421629,139.450533,
神奈川県,綾瀬市,142,上土棚北４丁目４５５－１,上土棚バス停付近,35.419994,139.448640,
神奈川県,綾瀬市,143,上土棚北５丁目５２４－１１,並塚バス停横防衛省用地フェンス,35.419743,139.452787,
