prefecture,city,number,address,name,lat,long,note
神奈川県,藤沢市,1,大鋸1丁目4,御所ヶ谷公園西側,35.3426462,139.493248,
神奈川県,藤沢市,2,大鋸2丁目1,境川緑地御所ヶ谷橋西側,35.34222520000001,139.4919363,
神奈川県,藤沢市,3,藤沢552-9,藤沢駅北口ロータリー,35.3389636,139.4853589,緯度経度は怪しい
神奈川県,藤沢市,4,朝日町7,若尾山公園南側,35.3396669,139.4917375,
神奈川県,藤沢市,5,藤沢617,東横須賀まちかど公園東側,35.3420889,139.4870772,
神奈川県,藤沢市,6,朝日町17,大道東公園東側,35.3396669,139.4917375,
神奈川県,藤沢市,7,藤沢115-2,藤沢郵便局南側植栽,35.3397106,139.4900208,
神奈川県,藤沢市,8,藤沢383-3,市役所分庁舎南側歩道植栽,35.3388585,139.4896209,緯度経度は怪しい
神奈川県,藤沢市,9,藤沢498-1,藤沢駅北口自転車等駐車場,35.3389151,139.4844687,
神奈川県,藤沢市,10,善行団地1-8,善行団地1-8号棟北側,35.3666522,139.4652907,
神奈川県,藤沢市,11,善行団地1-7,善行団地1-7号棟東側,35.3663182,139.4659508,
神奈川県,藤沢市,12,善行団地1-10,善行団地1-10号棟西側,35.3661166,139.4652125,
神奈川県,藤沢市,13,善行団地4,善行北唐池公園南側,35.3669298,139.4636796,
神奈川県,藤沢市,14,本藤沢4丁目2,荏原製作所南側(関東航空前バス停前),35.358549,139.4639049,
神奈川県,藤沢市,15,善行坂1丁目7,善行唐池公園西側,35.362315,139.465986,
神奈川県,藤沢市,16,善行団地1-12,善行団地1-12号棟西側,35.3655649,139.465256,
神奈川県,藤沢市,17,善行坂1丁目18,大越小学校正門右側,35.365239,139.4641584,
神奈川県,藤沢市,18,立石1丁目20,立石公園西側,35.3599038,139.4817217,
神奈川県,藤沢市,19,みその台1,国道467号線聖園女学院入口右側(聖園女学院バス停横植栽),35.3553463,139.476476,
神奈川県,藤沢市,20,花の木18,小田急線脇土手(寿荘向かい),35.3544973,139.4747276,
神奈川県,藤沢市,21,花ノ木5651-2,白旗川緑地帯沿　街灯左,35.3497203,139.4772312,緯度経度は怪しい
神奈川県,藤沢市,22,みその台1,国道467号線教育センター前交差点南側(みその台国道沿フェンス),35.3553463,139.476476,
神奈川県,藤沢市,23,藤沢3丁目5,花ノ木公園南側,35.3496436,139.4778271,
神奈川県,藤沢市,24,花の木11,白旗川花の木第2橋北側,35.3519365,139.474966,
神奈川県,藤沢市,25,藤沢2丁目4-7,白旗神社西側,35.3505018,139.4791982,
神奈川県,藤沢市,26,藤沢2丁目5,市民病院白旗保育園前,35.3504861,139.48045,
神奈川県,藤沢市,27,藤沢2丁目1952,市民病院ロータリー植込,35.3486553,139.4795952,
神奈川県,藤沢市,28,本町1丁目9-1,藤沢小学校県道側,35.3448493,139.4840367,
神奈川県,藤沢市,29,西富1丁目8-1,遊行寺裏門右側,35.3484099,139.4879019,
神奈川県,藤沢市,30,西富2丁目13,鯉ヶ淵公園南側,35.3520491,139.4845037,
神奈川県,藤沢市,31,藤沢2丁目6-4,御殿辺ポンプ場フェンス,35.3515471,139.4826358,
神奈川県,藤沢市,32,藤沢933-1,入町まちかど公園東側,35.3434049,139.4845851,
神奈川県,藤沢市,33,本町2丁目6-17,本町小学校北側,35.3433617,139.4791185,
神奈川県,藤沢市,34,本町2丁目6-17,本町小学校正門左側,35.3433617,139.4791185,
神奈川県,藤沢市,35,本町3丁目6-14,二町公園(西横須賀公園)北側,35.3435936,139.475888,
神奈川県,藤沢市,36,藤沢965,ふじ公園東側,35.3413675,139.4846174,
神奈川県,藤沢市,37,鵠沼1559,masked,35.3406852,139.4795215,
神奈川県,藤沢市,38,鵠沼神明1丁目1,JR線一本松バス停横,35.3389282,139.4788604,
神奈川県,藤沢市,39,鵠沼神明1丁目5,日本精工(株)藤沢工場西側角,35.3403938,139.4749526,
神奈川県,藤沢市,40,善行7丁目1,藤沢翔陵高校前バス停横,35.3614088,139.4758402,緯度経度は怪しい
神奈川県,藤沢市,41,善行7丁目1,県立スポーツセンタースポーツアリーナ2南側フェンス,35.3614088,139.4758402,緯度経度は怪しい
神奈川県,藤沢市,42,善行7丁目1,みどりの広場第200号,35.3614088,139.4758402,緯度経度は怪しい
神奈川県,藤沢市,43,善行1丁目9,善行公園北側,35.3624853,139.4713897,緯度経度は怪しい
神奈川県,藤沢市,44,善行1丁目8,善行市民センター駐車場,35.3624853,139.4713897,
神奈川県,藤沢市,45,善行7丁目5,善行駅東口ロータリー植栽,35.3637498,139.473456,
神奈川県,藤沢市,46,南藤沢1,藤沢駅南口ロータリー植栽,35.3382831,139.4876801,
神奈川県,藤沢市,47,鵠沼石上1丁目11,砥上公園南側,35.3348884,139.4880808,
神奈川県,藤沢市,48,鵠沼東2,奥田三角公園南側,35.335547,139.4907836,
神奈川県,藤沢市,49,鵠沼東8,市民会館旧近藤邸西側,35.3327355,139.4895116,
神奈川県,藤沢市,50,鵠沼東5-先,境川緑地奥田公園前,35.3338715,139.4912605,
神奈川県,藤沢市,51,鵠沼石上2丁目10,高砂公園北側,35.3321742,139.4877628,
神奈川県,藤沢市,52,南藤沢21,藤沢オーパ前中央分離帯植栽,35.3375054,139.4874448,
神奈川県,藤沢市,53,南藤沢13,東奥田公園東側,35.33696150000001,139.491976,
神奈川県,藤沢市,54,鵠沼海岸2丁目10−34,鵠沼市民センター入口右側,35.3199855,139.4697607,
神奈川県,藤沢市,55,鵠沼海岸1丁目14,小田急線鵠沼海岸3号踏切横,35.3179445,139.4731381,
神奈川県,藤沢市,56,鵠沼海岸2丁目4−10,小田急鵠沼海岸駅北側,35.3207548,139.4710424,
神奈川県,藤沢市,57,鵠沼松が岡4丁目11,一木公園,35.3231785,139.4718666,
神奈川県,藤沢市,58,鵠沼海岸1丁目11,みどりの広場第270号(みどりの広場第270号入口右側),35.3162044,139.4728182,
神奈川県,藤沢市,59,鵠沼海岸1丁目9,小田急線鵠沼海岸6号踏切横,35.3167331,139.4744097,
神奈川県,藤沢市,60,鵠沼海岸4丁目7-34,鵠南小学校県道側,35.3182921,139.4638704,
神奈川県,藤沢市,61,鵠沼海岸6丁目17,よつば公園西側,35.3233105,139.4647147,
神奈川県,藤沢市,62,鵠沼海岸4丁目11,湘洋公園西側,35.318385,139.4614966,
神奈川県,藤沢市,63,鵠沼海岸4丁目17-6,旧浜見保育園入口右側,35.3205359,139.4608856,
神奈川県,藤沢市,64,辻堂東海岸4丁目17-1,湘洋中学校正門左側,35.3191046,139.4594756,
神奈川県,藤沢市,65,辻堂東海岸4丁目17-28,浜見山ポンプ場入口右側,35.318704,139.4589938,
神奈川県,藤沢市,66,鵠沼海岸4丁目12,masked,35.3179345,139.4623607,
神奈川県,藤沢市,67,鵠沼海岸3丁目17,引地川緑地(引地川まちかど公園)南側,35.3188379,139.4656361,
神奈川県,藤沢市,68,鵠沼海岸5丁目7,高根公園東側,35.321538,139.4642379,
神奈川県,藤沢市,69,本鵠沼4丁目11,下沢まちかど公園,35.3311212,139.4680521,
神奈川県,藤沢市,70,辻堂太平台2丁目13,引地川緑地長久保公園駐車場入口前,35.33352989999999,139.4672575,
神奈川県,藤沢市,71,鵠沼海岸6丁目6-12,太陽の家正門右側,35.3274905,139.464187,
神奈川県,藤沢市,72,辻堂太平台2丁目5,引地川緑地大平橋交差点北側,35.3294542,139.4639201,
神奈川県,藤沢市,73,鵠沼海岸6丁目12,八部(鵠沼運動)公園プール南側,35.3257194,139.4639201,
神奈川県,藤沢市,74,本鵠沼4丁目9,みどりの広場第214号北側,35.3323986,139.46837,
神奈川県,藤沢市,75,鵠沼海岸6丁目12,八部(鵠沼運動)公園駐車場入口左側,35.3257194,139.4639201,
神奈川県,藤沢市,76,辻堂太平台2丁目13,長久保公園南側,35.33352989999999,139.4672575,
神奈川県,藤沢市,77,鶴沼藤が谷2丁目11−32,鶴沼藤が谷市民の家駐輪場,35.3254021,139.48741,緯度経度は怪しい
神奈川県,藤沢市,78,鶴沼藤が谷2丁目11,藤が谷公園東側,35.3254021,139.48741,緯度経度は怪しい
神奈川県,藤沢市,79,鶴沼藤が谷3丁目11−23,masked,35.3254021,139.48741,緯度経度は怪しい
神奈川県,藤沢市,80,鶴沼松が岡3丁目9,下岡(松が岡)公園南側,35.327291,139.483187,緯度経度は怪しい
神奈川県,藤沢市,81,鶴沼藤が谷3丁目10−19,賀来神社石段右側,35.3254021,139.48741,緯度経度は怪しい
神奈川県,藤沢市,82,鶴沼松が岡3丁目9,下岡(松が岡)公園北側,35.327291,139.483187,緯度経度は怪しい
神奈川県,藤沢市,83,鶴沼桜が岡3丁目16−38,鶴洋小学校グラウンド南側,35.3302622,139.4841737,緯度経度は怪しい
神奈川県,藤沢市,84,鶴沼桜が岡3丁目16−38,鶴洋小学校裏門左側,35.3302622,139.4841737,緯度経度は怪しい
神奈川県,藤沢市,85,鶴沼桜が岡3丁目16−38,鶴洋小学校正門左側,35.3302622,139.4841737,緯度経度は怪しい
神奈川県,藤沢市,86,鶴沼桜が岡3丁目1,上岡公園東側,35.328751,139.477966,緯度経度は怪しい
神奈川県,藤沢市,87,本鶴沼3丁目9−9,本鶴沼市民の家東側,35.3307868,139.4748692,緯度経度は怪しい
神奈川県,藤沢市,88,鶴沼松が岡5丁目8,鶴沼松が岡公園北側,35.32515,139.471161,緯度経度は怪しい
神奈川県,藤沢市,89,鶴沼松が岡5丁目8,鶴沼松が岡公園東側,35.32515,139.471161,緯度経度は怪しい
神奈川県,藤沢市,90,鶴沼藤が谷4丁目19−57,セントケア鶴沼南側フェンス,35.3254021,139.48741,緯度経度は怪しい
神奈川県,藤沢市,91,鶴沼藤が谷4丁目9−10,鶴沼高等学校フェンス,35.3254021,139.48741,緯度経度は怪しい
神奈川県,藤沢市,92,鶴沼藤が谷1丁目7225,鶴沼藤が谷1丁目境川沿い市道西側,35.3254021,139.48741,緯度経度は怪しい
神奈川県,藤沢市,93,鶴沼藤が谷4丁目19,桜小路公園北側,35.3254021,139.48741,緯度経度は怪しい
神奈川県,藤沢市,94,鶴沼藤が谷2丁目1,藤が谷ポンプ場東側,35.3254021,139.48741,緯度経度は怪しい
神奈川県,藤沢市,95,鶴沼藤が谷4丁目3,桜小路公園第二蓮池北側,35.3254021,139.48741,緯度経度は怪しい
神奈川県,藤沢市,96,鶴沼藤が谷4丁目8,江ノ電柳小路駅東側,35.3254021,139.48741,緯度経度は怪しい
神奈川県,藤沢市,97,鶴沼神明5丁目10−9,第一中学校正門左側,35.3192268,139.4650524,緯度経度は怪しい
神奈川県,藤沢市,98,鶴沼神明2丁目11,烏森公園東側,35.327291,139.483187,緯度経度は怪しい
神奈川県,藤沢市,99,鶴沼神明5丁目3,烏森公園南側,35.3192268,139.4650524,緯度経度は怪しい
神奈川県,藤沢市,100,鶴沼神明4丁目6,内田公園東側,35.327291,139.483187,緯度経度は怪しい
神奈川県,藤沢市,101,鶴沼神明2丁目2,JR線鶴沼第二踏切北側,35.327291,139.483187,緯度経度は怪しい
神奈川県,藤沢市,102,鶴沼神明3丁目6−10,日本精工(株)烏森独身寮入口左側,35.342163,139.468369,緯度経度は怪しい
神奈川県,藤沢市,103,鶴沼神明5丁目10−9,第一中学校グラウンド南側,35.3192268,139.4650524,緯度経度は怪しい
神奈川県,藤沢市,104,本鶴沼5丁目4−23,鶴沼小学校北側,35.3307868,139.4748692,緯度経度は怪しい
神奈川県,藤沢市,105,鶴沼花沢町14,小田急線一本松踏切南側上手,35.3383274,139.4823576,緯度経度は怪しい
神奈川県,藤沢市,106,本鶴沼1丁目5,第二花立公園西側,35.3307868,139.4748692,緯度経度は怪しい
神奈川県,藤沢市,107,本鶴沼4丁目3−1,引地川緑地富士見橋東側,35.3307868,139.4748692,緯度経度は怪しい
神奈川県,藤沢市,108,本鶴沼5丁目4−23,鶴沼小学校西側入口左側,35.3307868,139.4748692,緯度経度は怪しい
神奈川県,藤沢市,109,辻堂元町6丁目5,引地川緑地親水広場西側,35.3365488,139.4686878,
神奈川県,藤沢市,110,本鶴沼1丁目16,みどりの広場第144号東側,35.3307868,139.4748692,緯度経度は怪しい
神奈川県,藤沢市,111,鵠沼桜が岡4丁目3-37,鵠沼中学校東側,35.3336928,139.4790205,
神奈川県,藤沢市,112,鵠沼橋1丁目8,橋公園南側,35.3172392,139.4676862,緯度経度は怪しい
神奈川県,藤沢市,113,鵠沼橋1丁目8,橋公園北側,35.3172392,139.4676862,緯度経度は怪しい
神奈川県,藤沢市,114,鵠沼橋1丁目9,江ノ電石上駅西側,35.3172392,139.4676862,緯度経度は怪しい
神奈川県,藤沢市,115,鵠沼桜が岡4丁目8,鵠沼桜が岡公園,35.33193550000001,139.4779066,
神奈川県,藤沢市,116,鵠沼桜が岡4丁目1,秩父公園,35.3323865,139.48045,
神奈川県,藤沢市,117,鵠沼桜が岡4丁目3-37,鵠沼中学校西側,35.3336928,139.4790205,
神奈川県,藤沢市,118,本鵠沼1丁目1,小田急線藤沢1号踏切南側,35.337513,139.480295,
神奈川県,藤沢市,119,大鋸3丁目8,坂上公園東側,35.3498334,139.4909426,
神奈川県,藤沢市,120,西富593-2,翠ヶ丘公園東側,35.3530346,139.4880609,
神奈川県,藤沢市,121,大鋸970,県道30号線遊行寺坂上バス停前植栽（遊行寺坂上植栽）,35.3532406,139.4913559,
神奈川県,藤沢市,122,大鋸1003,大鋸丸山公園北側,35.3535194,139.4948565,緯度経度は怪しい
神奈川県,藤沢市,123,大鋸1028,大鋸外原公園西側,35.35520959999999,139.4964105,
神奈川県,藤沢市,124,大鋸1028,大鋸外原公園北側,35.35520959999999,139.4964105,
神奈川県,藤沢市,125,大鋸1020,大鋸小学校南門左側,35.3542472,139.4934581,
神奈川県,藤沢市,126,大鋸990-3,大鋸市民の家入口左側,35.3521117,139.4919906,
神奈川県,藤沢市,127,弥勒寺2丁目1,弥勒寺公園西側,35.3400289,139.4990517,
神奈川県,藤沢市,128,宮前372-1,後河内（宮前）公園西側,35.3356678,139.5089115,
神奈川県,藤沢市,129,弥勒寺2丁目1-27,村岡中学校裏門右側,35.3391389,139.5001301,
神奈川県,藤沢市,130,川名1丁目12-2,アズビル株式会社藤沢テクノセンター（アズビル前バス停横）,35.335105,139.4992367,
神奈川県,藤沢市,131,弥勒寺1丁目16,村岡小学校正門前,35.3380484,139.4984157,
神奈川県,藤沢市,132,弥勒寺1丁目5,村岡ポンプ場北側植栽,35.3375182,139.4960305,
神奈川県,藤沢市,133,小塚41-21,小塚東公園南側,35.3408411,139.5137221,
神奈川県,藤沢市,134,村岡東3丁目28-2,村岡城址公園北側,35.3447424,139.5075005,
神奈川県,藤沢市,135,村岡東1丁目6,十二天公園東側,35.3378972,139.5044585,
神奈川県,藤沢市,136,村岡東2丁目6,高谷第二公園南側,35.341097,139.5095476,
神奈川県,藤沢市,137,村岡東3丁目8,渡内公園西側,35.3446697,139.507003,
神奈川県,藤沢市,138,村岡東1丁目6,十二天公園西側,35.3378972,139.5044585,
神奈川県,藤沢市,139,村岡東4丁目12,高谷下公園南側,35.3461725,139.5085934,緯度経度は怪しい
神奈川県,藤沢市,140,渡内1丁目22,高谷公園西側,35.3440113,139.5042995,
神奈川県,藤沢市,141,村岡東2丁目108-2,村岡東二丁目公園,35.3411992,139.5056963,緯度経度は怪しい
神奈川県,藤沢市,142,大鋸2丁目2,御所ヶ谷児童遊園,35.3424296,139.4925325,
神奈川県,藤沢市,143,藤が岡1丁目12,コンフォール藤沢C－2号棟西側植栽,35.3443102,139.4922103,
神奈川県,藤沢市,144,藤が岡1丁目9,御幣公園南側,35.3456211,139.4918965,
神奈川県,藤沢市,145,大鋸2丁目5,大鋸公園,35.34469540000001,139.4884609,
神奈川県,藤沢市,146,藤が岡1丁目12,コンフォール藤沢C－3号棟東側,35.3443102,139.4922103,
神奈川県,藤沢市,147,藤が岡1丁目9,御幣公園東側,35.3456211,139.4918965,
神奈川県,藤沢市,148,藤が岡2丁目9,みどりの広場第C号,35.3475395,139.4938045,
神奈川県,藤沢市,149,藤が岡3丁目20,柄沢公園西側,35.3480876,139.4973026,
神奈川県,藤沢市,150,藤が岡3丁目18-1,藤ケ岡中学校正門,35.3472433,139.4984157,
神奈川県,藤沢市,151,渡内2丁目4,天岳院下公園東側,35.3483416,139.5016755,
神奈川県,藤沢市,152,渡内1丁目6,天岳公園北側,35.3468274,139.5032658,
神奈川県,藤沢市,153,弥勒寺4丁目21,御幣下公園東側,35.3456563,139.4992903,
神奈川県,藤沢市,154,弥勒寺4丁目7,赤坂公園東側,35.3452144,139.4973026,
神奈川県,藤沢市,155,渡内4丁目14,本在寺北公園西側,35.3502972,139.5072416,
神奈川県,藤沢市,156,片瀬2丁目1,境川新屋敷橋際(新屋敷橋際),35.3231379,139.4874448,
神奈川県,藤沢市,157,片瀬山1丁目13,片瀬山通り線片瀬山坂下(空地),35.3243089,139.4914195,
神奈川県,藤沢市,158,片瀬2丁目10,みどりの広場第359号,35.3223068,139.4868089,
神奈川県,藤沢市,159,片瀬5丁目1-12,カクヤス湘南片瀬店前,35.321813,139.4860138,
神奈川県,藤沢市,160,片瀬2丁目14-29,片瀬小学校西門右側,35.319989,139.4875391,
神奈川県,藤沢市,161,片瀬海岸1丁目7,鶴生園西側植栽,35.310386,139.488814,
神奈川県,藤沢市,162,片瀬3丁目3-44,密蔵寺入口右側,35.3160961,139.4886235,
神奈川県,藤沢市,163,片瀬3丁目14,常立寺務所前,35.3124734,139.4880808,
神奈川県,藤沢市,164,片瀬目白山2,片瀬目白山交差点西側空地,35.3158811,139.4933275,
神奈川県,藤沢市,165,片瀬海岸1丁目9,洲鼻公園西側,35.3101878,139.4863319,
神奈川県,藤沢市,166,片瀬3丁目4-10,湘南白百合学園高等学校駐車場東側,35.3148306,139.4904755,
神奈川県,藤沢市,167,片瀬3丁目5-10,片瀬市民センター駐車場西側,35.3146476,139.4886173,
神奈川県,藤沢市,168,片瀬海岸3丁目7-24,下藤が谷ポンプ場北側,35.3152331,139.4798399,
神奈川県,藤沢市,169,片瀬海岸2丁目2-30,湘南白百合学園小学校正門右側,35.3109931,139.4839484,
神奈川県,藤沢市,170,片瀬海岸2丁目2-35,カトリック片瀬教会,35.3121763,139.4845959,
神奈川県,藤沢市,171,片瀬海岸3丁目1,西浜公園西側,35.3129784,139.4836294,
神奈川県,藤沢市,172,片瀬海岸3丁目1,西浜公園南側,35.3129784,139.4836294,
神奈川県,藤沢市,173,片瀬海岸3丁目7-24,下藤が谷ポンプ場西側,35.3152331,139.4798399,
神奈川県,藤沢市,174,片瀬海岸2丁目10-1,湘南白百合学園幼稚園東側,35.3104477,139.4829834,
神奈川県,藤沢市,175,片瀬山1丁目18,片瀬山北公園西側,35.3258069,139.495315,
神奈川県,藤沢市,176,片瀬山1丁目18,片瀬山北公園南側,35.3258069,139.495315,
神奈川県,藤沢市,177,片瀬山1丁目6,海南公園東側,35.3264001,139.4912605,
神奈川県,藤沢市,178,片瀬山4丁目1-1,片瀬中学校東側,35.322247,139.4932174,
神奈川県,藤沢市,179,片瀬山5丁目20,片瀬山南公園南側,35.3192534,139.4897501,
神奈川県,藤沢市,180,片瀬山4丁目2,片瀬山西公園西側,35.3217156,139.492294,
神奈川県,藤沢市,181,片瀬山3丁目6,片瀬山東公園西側,35.3212659,139.4963486,
神奈川県,藤沢市,182,片瀬山3丁目6,片瀬山東公園東側,35.3212659,139.4963486,
神奈川県,藤沢市,183,片瀬山4丁目1-1,片瀬山中学校南側,35.322247,139.4932174,
神奈川県,藤沢市,184,江の島1丁目6,聖天島公園南側,35.30131799999999,139.4821124,
神奈川県,藤沢市,185,江の島1丁目6,青少年協会海洋倉庫前歩道植栽,35.30131799999999,139.4821124,
神奈川県,藤沢市,186,江の島1丁目1,北緑地休憩所横,35.3025657,139.4820396,
神奈川県,藤沢市,187,江の島1丁目12,西緑地内フェンス前,35.2990209,139.4862823,
神奈川県,藤沢市,188,江の島2丁目4番,亀ケ岡広場,35.298171,139.4793372,
神奈川県,藤沢市,189,辻堂2丁目9,辻堂駅前町公園東側,35.335742,139.4467593,
神奈川県,藤沢市,190,辻堂4丁目5,久根下公園南入口右側,35.3313415,139.4486658,
神奈川県,藤沢市,191,辻堂2丁目11,辻堂市民図書館駐車場フェンス,35.335218,139.4470517,
神奈川県,藤沢市,192,辻堂2丁目4,初多良公園東側,35.33570570000001,139.4445352,
神奈川県,藤沢市,193,辻堂3丁目9-20,辻堂南部市民の家東側,35.3317003,139.4448093,
神奈川県,藤沢市,194,辻堂2丁目15-8,辻堂市民図書館入口左側,35.3348195,139.4460497,
神奈川県,藤沢市,195,辻堂3丁目20,辻堂砂場公園東側,35.3290632,139.4423111,
神奈川県,藤沢市,196,辻堂3丁目1,ニチイケアセンター辻堂隣空地,35.332544,139.447241,
神奈川県,藤沢市,197,辻堂元町2丁目21,大荒久公園南側左端,35.3373889,139.4609801,
神奈川県,藤沢市,198,辻堂元町2丁目21,大荒久公園南側 東側入口左,35.3373889,139.4609801,
神奈川県,藤沢市,199,辻堂元町2丁目1-33,NTT新辻堂植栽,35.3350156,139.4537679,
神奈川県,藤沢市,200,辻堂元町2丁目7,宝珠公園,35.3344506,139.4556569,
神奈川県,藤沢市,201,辻堂元町3丁目1-6,八松小学校グラウンド北側,35.33399,139.4525585,
神奈川県,藤沢市,202,辻堂元町3丁目1-6,八松小学校正門左側,35.33399,139.4525585,
神奈川県,藤沢市,203,辻堂元町6丁目,辻堂元町六丁目公園(SSTウェルカムガーデン歩道左側),35.3357923,139.4650325,
神奈川県,藤沢市,204,辻堂元町6丁目,SSTセントラルパーク北側歩道右側,35.3357923,139.4650325,
神奈川県,藤沢市,205,辻堂元町6丁目400,富士見橋交差点北西側,35.3357923,139.4650325,
神奈川県,藤沢市,206,辻堂元町4丁目15,辻堂市民の家入口右側,35.3319321,139.4572458,
神奈川県,藤沢市,207,辻堂元町6丁目2,関根商事入口右側,35.3366489,139.462172,
神奈川県,藤沢市,208,辻堂元町5丁目12,一の坪公園東側,35.3327683,139.4607418,
神奈川県,藤沢市,209,辻堂元町4丁目1,みどりの広場第121号西側フェンス,35.3287399,139.4527173,
神奈川県,藤沢市,210,辻堂元町5丁目12,一の坪公園北側,35.3327683,139.4607418,
神奈川県,藤沢市,211,辻堂東海岸1丁目7,辻堂東海岸一丁目公園,35.327128,139.4570869,
神奈川県,藤沢市,212,辻堂太平台1丁目14,引地川緑地作橋北側(八部公園対岸),35.3269302,139.4626487,
神奈川県,藤沢市,213,辻堂東海岸1丁目17-1,辻堂小学校南門左側,35.3261335,139.4572552,
神奈川県,藤沢市,214,辻堂東海岸1丁目17-1,辻堂小学校正門右側,35.3261335,139.4572552,
神奈川県,藤沢市,215,辻堂東海岸2丁目7285,みどりの広場第323号南側フェンス,35.3245474,139.4599472,
神奈川県,藤沢市,216,辻堂東海岸2丁目6-20,辻堂東海岸市民の家,35.3253284,139.4601975,
神奈川県,藤沢市,217,辻堂東海岸2丁目16,引地川緑地作橋南側,35.3240881,139.4620131,
神奈川県,藤沢市,218,辻堂5丁目3,辻堂高砂東公園西側,35.3293001,139.4493013,
神奈川県,藤沢市,219,辻堂西海岸1丁目2-2,白浜養護学校正門右側,35.3252173,139.449639,
神奈川県,藤沢市,220,辻堂西海岸1丁目3,高砂小学校正門右側,35.324404,139.451049,緯度経度は怪しい
神奈川県,藤沢市,221,辻堂西海岸1丁目1-25,湘南工科大学正門左側,35.326162,139.4529327,
神奈川県,藤沢市,222,辻堂6丁目12,辻堂高砂西公園,35.3273146,139.4458061,
神奈川県,藤沢市,223,辻堂5丁目3,辻堂高砂東公園南側,35.3293001,139.4493013,
神奈川県,藤沢市,224,辻堂5丁目12,みどりの広場第132号フェンス,35.3282794,139.4496191,
神奈川県,藤沢市,225,辻堂6丁目19,勘久公園北側,35.3264474,139.4429465,
神奈川県,藤沢市,226,辻堂西海岸2丁目8,辻堂団地8－1号棟南側,35.3230736,139.4436614,
神奈川県,藤沢市,227,辻堂西海岸2丁目13,辻堂西海岸二丁目公園,35.3235876,139.4411991,
神奈川県,藤沢市,228,辻堂西海岸2丁目6,辻堂団地6－4号棟東側,35.3247601,139.4451706,
神奈川県,藤沢市,229,辻堂西海岸2丁目8,辻堂団地8－4号棟南側,35.3230736,139.4436614,
神奈川県,藤沢市,230,辻堂西海岸2丁目10-5,辻堂団地管理サービス事務所前,35.32495970000001,139.4434068,
神奈川県,藤沢市,231,辻堂西海岸2丁目6,辻堂団地6－2号棟西側,35.3247601,139.4451706,
神奈川県,藤沢市,232,羽鳥1丁目1001-6,丸山公園南側,35.3433573,139.4525577,
神奈川県,藤沢市,233,辻堂神台1丁目4,シークロス公園北側,35.3405758,139.4462827,
神奈川県,藤沢市,234,城南1丁目4,太洋公園西側,35.3453543,139.4462033,
神奈川県,藤沢市,235,辻堂新町1丁目11,土打公園南側,35.3401354,139.4494602,
神奈川県,藤沢市,236,辻堂神台1丁目3,テラスモール湘南東側,35.3384371,139.445965,
神奈川県,藤沢市,237,辻堂新町1丁目1993,明治市民センター駐車場北側フェンス,35.3396586,139.4504135,
神奈川県,藤沢市,238,辻堂神台1丁目4,シークロス公園南側,35.3405758,139.4462827,
神奈川県,藤沢市,239,辻堂神台2丁目3,神台北公園西側,35.342852,139.4474743,
神奈川県,藤沢市,240,辻堂新町2丁目13-1,明治中学校正門右側,35.3409179,139.4564501,
神奈川県,藤沢市,241,辻堂新町2丁目8,新町公園北側,35.339713,139.4537501,
神奈川県,藤沢市,242,辻堂新町4丁目2,引地川緑地高山橋トンネル北側,35.3393423,139.4669699,
神奈川県,藤沢市,243,辻堂新町3丁目2,南蛙池公園東側,35.3388324,139.4595301,
神奈川県,藤沢市,244,辻堂新町2丁目13-1,明治中学校南側,35.3409179,139.4564501,
神奈川県,藤沢市,245,辻堂新町4丁目3,NOK湘南開発センター正門左側,35.3403885,139.4650325,
神奈川県,藤沢市,246,辻堂新町3丁目4-23,神奈中サービスセンター入口右側,35.3391548,139.4623309,
神奈川県,藤沢市,247,羽鳥3丁目11-1,羽鳥小学校正門右側,35.3438729,139.4591974,
神奈川県,藤沢市,248,羽鳥3丁目11-1,羽鳥小学校西側,35.3438729,139.4591974,
神奈川県,藤沢市,249,羽鳥4丁目4,羽鳥4丁目道路用地,35.3440379,139.4623309,
神奈川県,藤沢市,250,羽鳥4丁目13-14,羽鳥中学校正門右側,35.3462507,139.4619088,
神奈川県,藤沢市,251,羽鳥3丁目20,みどりの広場第233号西側フェンス,35.3467709,139.4562924,
神奈川県,藤沢市,252,羽鳥2丁目12-21,藤沢市消防団第11分団植栽,35.3459203,139.4553044,
神奈川県,藤沢市,253,羽鳥5丁目10,引地川緑地引地橋西交差点南側,35.3456565,139.465986,
神奈川県,藤沢市,254,羽鳥4丁目9,駒形公園,35.3470637,139.4591527,
神奈川県,藤沢市,255,城南3丁目6,柏山公園,35.3499414,139.4620131,
神奈川県,藤沢市,256,城南3丁目3-1,明治小学校裏門左側,35.34988999999999,139.4597107,
神奈川県,藤沢市,257,稲荷520番地先,老人福祉センター前交差点卸売市場入口側,35.3556682,139.4608951,
神奈川県,藤沢市,258,城南3丁目3-1,明治小学校正門右側フェンス,35.34988999999999,139.4597107,
神奈川県,藤沢市,259,城南5丁目3,南山公園南側,35.3468446,139.4532735,
神奈川県,藤沢市,260,城南4丁目9,メルシャン藤沢工場入口右側,35.3475028,139.4634433,
神奈川県,藤沢市,261,大庭1311,引地川緑地高名橋西側,35.3510311,139.4603663,
神奈川県,藤沢市,262,大庭5307-7,大庭小学校南門右側,35.3637482,139.4436612,
神奈川県,藤沢市,263,大庭5307-7,大庭小学校東門左側,35.3637482,139.4436612,
神奈川県,藤沢市,264,大庭5055-7,藤沢西部団地集会所東側フェンス,35.3603999,139.4435699,緯度経度は怪しい
神奈川県,藤沢市,265,大庭5055-22,藤沢若葉幼稚園東側,35.3604908,139.4421572,緯度経度は怪しい
神奈川県,藤沢市,266,大庭5404-21,さがみ農協大庭支店南側,35.3652612,139.4458305,
神奈川県,藤沢市,267,大庭5056-6,湘南スカイハイツ１－１号棟けやき通り側(藤沢西高等学校前駐車場東側),35.3584235,139.4426051,
神奈川県,藤沢市,268,大庭5055-18,小糸台公園西側,35.3614587,139.4416589,緯度経度は怪しい
神奈川県,藤沢市,269,大庭5307-1,大庭地域子どもの家北側,35.3641883,139.4403707,緯度経度は怪しい
神奈川県,藤沢市,270,大庭5334-3,にしこがやと公園東側,35.3631916,139.4389786,
神奈川県,藤沢市,271,大庭5062-1,小糸小学校南門右側,35.3593186,139.4465607,
神奈川県,藤沢市,272,大庭5062-1,小糸小学校北門左側,35.3593186,139.4465607,
神奈川県,藤沢市,273,大庭5043-3,県営大庭団地１８－４号棟西側,35.3558574,139.4431451,
神奈川県,藤沢市,274,大庭5043-1,masked,35.357417,139.4435781,
神奈川県,藤沢市,275,大庭5043-3,県営大庭団地１８－７号棟北側集会所東側,35.3558574,139.4431451,
神奈川県,藤沢市,276,大庭5083,台谷公園北側,35.3577717,139.4528747,緯度経度は怪しい
神奈川県,藤沢市,277,大庭5242,しろした公園南側,35.3577717,139.4528747,緯度経度は怪しい
神奈川県,藤沢市,278,大庭5061-2,イオン藤沢店前広場,35.3595345,139.4453843,
神奈川県,藤沢市,279,大庭5122-6,とのやま公園西側,35.3572927,139.4491002,
神奈川県,藤沢市,280,大庭5527-2,駒寄小学校北門右側,35.3685563,139.4487727,
神奈川県,藤沢市,281,石川637,五反田公園西側,35.3715649,139.4514285,
神奈川県,藤沢市,282,大庭5527-2,駒寄小学校南門右側,35.3685563,139.4487727,
神奈川県,藤沢市,283,大庭5528,二番構公園西側,35.3680563,139.4472897,
神奈川県,藤沢市,284,大庭5416-6,大庭中学校北門左側,35.3635325,139.4508405,
神奈川県,藤沢市,285,大庭5416-6,大庭中学校南門右側,35.3635325,139.4508405,
神奈川県,藤沢市,286,大庭5406-2,湘南大庭市民センター隣広場,35.3655734,139.4468605,
神奈川県,藤沢市,287,大庭5448-1,市立北の谷公園北側,35.3665192,139.4520452,
神奈川県,藤沢市,288,善行団地2-5,善行団地２－５号棟北側,35.3667991,139.4674374,
神奈川県,藤沢市,289,善行団地3-16,善行団地マーケット前バス停横,35.3672623,139.4649301,
神奈川県,藤沢市,290,善行団地3-3,善行団地３－３号棟東側広場前,35.36759070000001,139.4656428,
神奈川県,藤沢市,291,善行団地5-10,善行団地５－１０号棟西側,35.3678617,139.4624302,
神奈川県,藤沢市,292,善行団地2-9,善行団地２－９号棟西側,35.3681605,139.4671139,
神奈川県,藤沢市,293,善行団地6-1,善行小学校南側,35.366844,139.4614919,
神奈川県,藤沢市,294,石川3988-1,善行中学校正門グラウンド側フェンス,35.3712316,139.4652409,
神奈川県,藤沢市,295,亀井野653,不動前公園西側,35.3875024,139.4664728,
神奈川県,藤沢市,296,湘南台2丁目19,原谷公園東側,35.3943765,139.4650325,
神奈川県,藤沢市,297,湘南台2丁目31,道路維持課六会資材置場,35.3943765,139.4650325,緯度経度は怪しい
神奈川県,藤沢市,298,亀井野字不動前560,不動ヶ丘公園南側,35.3871611,139.4675324,緯度経度は怪しい
神奈川県,藤沢市,299,湘南台3丁目28,中央公園南側,35.39220150000001,139.4624898,
神奈川県,藤沢市,300,円行1丁目4,桐ヶ谷公園西側,35.38721650000001,139.458676,緯度経度は怪しい
神奈川県,藤沢市,301,亀井野550,六会小学校北門右側,35.3889166,139.4646791,
神奈川県,藤沢市,302,天神町1丁目13,田島山公園西側,35.3761234,139.4624898,
神奈川県,藤沢市,303,亀井野1000,六会中学校入口左側,35.3842927,139.4667722,
神奈川県,藤沢市,304,亀井野1866,日本大学北門左側,35.37874,139.4692095,
神奈川県,藤沢市,305,亀井野914,狼谷公園北側,35.3807954,139.4664954,
神奈川県,藤沢市,306,亀井野1073,六会日大前駅西口ロータリー,35.3792524,139.476332,緯度経度は怪しい
神奈川県,藤沢市,307,天神町3丁目31,東山田公園東側入口左側,35.3807174,139.4624898,
神奈川県,藤沢市,308,天神町3丁目3,三角公園南側,35.3807174,139.4624898,
神奈川県,藤沢市,309,天神町2丁目14,天神公園南側,35.3779072,139.4612185,
神奈川県,藤沢市,310,円行802,多摩大学前,35.3870496,139.4615696,
神奈川県,藤沢市,311,天神町2丁目6-1,天神スポーツ広場東側,35.3785524,139.4593082,
神奈川県,藤沢市,312,亀井野3丁目36,唐池公園西側,35.3822816,139.4777477,
神奈川県,藤沢市,313,西俣野341,長尾工務店資材置場横山林,35.3819778,139.485628,
神奈川県,藤沢市,314,亀井野3丁目11,三屋道公園南側,35.3822816,139.4777477,
神奈川県,藤沢市,315,亀井野3丁目11,三屋道公園北側,35.3822816,139.4777477,
神奈川県,藤沢市,316,亀井野3丁目31,亀井野小学校東門右側,35.3822816,139.4777477,
神奈川県,藤沢市,317,亀井野3丁目31,亀井野小学校北門右側,35.3822816,139.4777477,
神奈川県,藤沢市,318,亀井野2丁目36,地神の森公園地神社北側,35.3807422,139.4739328,
神奈川県,藤沢市,319,亀井野4丁目11,大久保公園西側,35.3852143,139.476476,
神奈川県,藤沢市,320,亀井野4丁目8-1,六会市民センター南側,35.3852067,139.4747673,
神奈川県,藤沢市,321,亀井野1丁目5,六会駅前公園西側,35.3848233,139.4726613,
神奈川県,藤沢市,322,亀井野1丁目5,六会駅前公園東側,35.3848233,139.4726613,
神奈川県,藤沢市,323,亀井野4丁目2,リーフガーデン1前フェンス,35.3852143,139.476476,
神奈川県,藤沢市,324,亀井野4丁目11,大久保公園東側,35.3852143,139.476476,
神奈川県,藤沢市,325,亀井野279-3,国道467号六会交差点北側,35.3792524,139.476332,緯度経度は怪しい
神奈川県,藤沢市,326,亀井野1524,ファーストシティ松嶋南側鉄柵,35.3851402,139.4806502,
神奈川県,藤沢市,327,亀井野4丁目8-1,藤沢北消防署六会出張所北側,35.3852067,139.4747673,
神奈川県,藤沢市,328,下土棚586,長後中学校入口右側,35.4095465,139.4604833,
神奈川県,藤沢市,329,下土棚5911,富士見台小学校東側,35.4070537,139.4580404,
神奈川県,藤沢市,330,下土棚1792-21,第二諏訪棚公園東側,35.4096695,139.4546055,
神奈川県,藤沢市,331,下土棚6164,下土棚公園西側,35.4070537,139.4580404,
神奈川県,藤沢市,332,下土棚800-1,こぶし荘東側,35.4077922,139.4568486,
神奈川県,藤沢市,333,下土棚1065,白山神社北側,35.4064444,139.4593433,
神奈川県,藤沢市,334,下土棚1109,渋谷の里公園北西側,35.4070537,139.4580404,緯度経度は怪しい
神奈川県,藤沢市,335,下土棚1846-2,諏訪棚公園南側,35.4101321,139.4539221,緯度経度は怪しい
神奈川県,藤沢市,336,下土棚255-1,長後第二公園東側,35.4070537,139.4580404,
神奈川県,藤沢市,337,遠藤2023-1,（株）エイアンドティー入口左側,35.3794142,139.446537,
神奈川県,藤沢市,338,石川4丁目734,masked,35.3739226,139.4436724,
神奈川県,藤沢市,339,石川4丁目19-1,石川小学校南側,35.3764529,139.4477523,
神奈川県,藤沢市,340,石川4丁目19-3,矢端公園東側,35.3768544,139.447236,
神奈川県,藤沢市,341,石川676,県営石川ハイツ隣遊水池北側,35.3791036,139.4542268,
神奈川県,藤沢市,342,石川4丁目19-1,石川小学校西側,35.3764529,139.4477523,
神奈川県,藤沢市,343,石川3丁目33,下ノ根第一公園西側,35.37443590000001,139.449778,緯度経度は怪しい
神奈川県,藤沢市,344,遠藤2023-17,環境事業センター南側,35.3775433,139.4464002,
神奈川県,藤沢市,345,亀井野3093,大盛工業（株）自転車置場,35.3757311,139.4840388,
神奈川県,藤沢市,346,西俣野2660,俣野小学校正門右側,35.3670994,139.4832717,
神奈川県,藤沢市,347,西俣野1224,市道大会236号線渋谷商店北用水路沿い,35.3750939,139.4898296,緯度経度は怪しい
神奈川県,藤沢市,348,亀井野3310,亀井野公園北側,35.3671902,139.4806487,
神奈川県,藤沢市,349,善行7丁目11-7,NTT善行電話交換センター入口左側,35.3617677,139.4780901,
神奈川県,藤沢市,350,亀井野3350,藤沢市消防団第15分団器具置場東側,35.3792524,139.476332,緯度経度は怪しい
神奈川県,藤沢市,351,亀井野3225-1,渋沢公園東側,35.3677119,139.4821696,緯度経度は怪しい
神奈川県,藤沢市,352,西俣野2033-1,境川緑地立石西俣野線沿い横須賀水道橋北,35.3750939,139.4898296,
神奈川県,藤沢市,353,長後681-4,長後公園西側,35.4139653,139.4653958,
神奈川県,藤沢市,354,長後2388,井上果樹園北空地,35.3391654,139.49014,緯度経度は怪しい
神奈川県,藤沢市,355,長後514-3,長後市民センター東側,35.4124255,139.461693,緯度経度は怪しい
神奈川県,藤沢市,356,下土棚509-1,長後駅西口ロータリー,35.4129262,139.464963,
神奈川県,藤沢市,357,下土棚548,masked,35.4070537,139.4580404,
神奈川県,藤沢市,358,長後163-1,藤沢北消防署長後出張所,35.3492108,139.4679897,緯度経度は怪しい
神奈川県,藤沢市,359,下土棚472,長後駅東口ロータリー前広場,35.4127083,139.465112,
神奈川県,藤沢市,360,長後1412,天満宮東側,35.4202335,139.4635094,
神奈川県,藤沢市,361,長後1187,グランドホール長後店西側,35.4227399,139.4682222,緯度経度は怪しい
神奈川県,藤沢市,362,長後1411-1,長後天神添西公園南側,35.3492108,139.4679897,緯度経度は怪しい
神奈川県,藤沢市,363,高倉2433,滝の上公園西側,35.4082301,139.4694825,緯度経度は怪しい
神奈川県,藤沢市,364,高倉2425,県営滝ノ上ハイツ2号棟北側,35.420009,139.4737953,
神奈川県,藤沢市,365,高倉2425,滝の上第二公園東側,35.420009,139.4737953,
神奈川県,藤沢市,366,長後1245,県営サンハイツ渋谷1号棟東側,35.4282152,139.4655005,
神奈川県,藤沢市,367,長後1369,天神添公園北側,35.4213457,139.4658925,
神奈川県,藤沢市,368,高倉2258-1,みどりの広場第367号東側畑,35.4082301,139.4694825,緯度経度は怪しい
神奈川県,藤沢市,369,高倉2305,masked,35.4164787,139.4720056,
神奈川県,藤沢市,370,長後770,長後小学校北門左側,35.416289,139.4685788,
神奈川県,藤沢市,371,高倉2195,みどりの広場第325号西側,35.4180484,139.4749691,
神奈川県,藤沢市,372,高倉2357,上高倉公園東側,35.4082301,139.4694825,緯度経度は怪しい
神奈川県,藤沢市,373,高倉610-2,上谷戸第三公園内植栽,35.4111262,139.4686171,
神奈川県,藤沢市,374,高倉2345,藤沢湘南台病院藤沢ケアセンター前,35.4168307,139.4704003,
神奈川県,藤沢市,375,高倉2259-5,みどりの広場第367号北側,35.4189776,139.4734384,緯度経度は怪しい
神奈川県,藤沢市,376,高倉2131,masked,35.4155967,139.4753486,
神奈川県,藤沢市,377,高倉1050-2,県道22号線沿い植栽,35.4082301,139.4694825,緯度経度は怪しい
神奈川県,藤沢市,378,高倉972,七ツ木市民の家入口,35.4139265,139.4722243,
神奈川県,藤沢市,379,高倉字槇戸582-4,長後南歩行者専用道,35.4082301,139.4694825,緯度経度は怪しい
神奈川県,藤沢市,380,高倉1220,藤沢北郵便局,35.40597530000001,139.4702723,
神奈川県,藤沢市,381,高倉1122,高倉中学校正門左側,35.4080377,139.4735152,
神奈川県,藤沢市,382,高倉1122,高倉中学校通用門左側,35.4080377,139.4735152,
神奈川県,藤沢市,383,湘南台4丁目13,masked,35.3999221,139.4631255,
神奈川県,藤沢市,384,湘南台4丁目22,渋谷ヶ原公園北側,35.3999221,139.4631255,
神奈川県,藤沢市,385,湘南台4丁目22,渋谷ヶ原公園南側,35.3999221,139.4631255,
神奈川県,藤沢市,386,湘南台4丁目33,masked,35.4025704,139.4611123,緯度経度は怪しい
神奈川県,藤沢市,387,湘南台4丁目12,masked,35.3999221,139.4631255,緯度経度は怪しい
神奈川県,藤沢市,388,湘南台4丁目17,masked,35.3999221,139.4631255,
神奈川県,藤沢市,389,湘南台4丁目30-14,しぶやがはら保育園南側,35.4027218,139.4632139,
神奈川県,藤沢市,390,湘南台6丁目31-6,湘南台保育園北側,35.4009735,139.4708467,
神奈川県,藤沢市,391,湘南台6丁目49,高倉公園西側,35.4009014,139.4726613,
神奈川県,藤沢市,392,湘南台6丁目30,下原公園南側,35.4009014,139.4726613,
神奈川県,藤沢市,393,高倉498-2,長後第一（さいかち）公園東側,35.4082301,139.4694825,緯度経度は怪しい
神奈川県,藤沢市,394,湘南台5丁目23,湘南台小学校裏門左側,35.4011447,139.4675753,
神奈川県,藤沢市,395,湘南台5丁目23,湘南台小学校正門南側,35.4011447,139.4675753,
神奈川県,藤沢市,396,湘南台5丁目17,大塚戸公園東側,35.4011447,139.4675753,
神奈川県,藤沢市,397,湘南台6丁目20,上原公園西側,35.4009014,139.4726613,
神奈川県,藤沢市,398,湘南台7丁目18-1,湘南台中学校西側,35.3959974,139.4715586,
神奈川県,藤沢市,399,湘南台1丁目8,湘南台文化センター東側,35.3947681,139.4688468,緯度経度は怪しい
神奈川県,藤沢市,400,湘南台1丁目20-4,masked,35.3956481,139.4696326,
神奈川県,藤沢市,401,湘南台7丁目16,湘南台公園東側,35.3978275,139.4706248,
神奈川県,藤沢市,402,湘南台1丁目36,青葉公園西側,35.3947681,139.4688468,
神奈川県,藤沢市,403,湘南台1丁目17,四ツ辻公園西側,35.3947681,139.4688468,
神奈川県,藤沢市,404,湘南台7丁目41,今田公園西側,35.394842,139.473297,
神奈川県,藤沢市,405,湘南台7丁目18-2,総合市民図書館裏側入口右側,35.3956036,139.4730747,
神奈川県,藤沢市,406,湘南台1丁目43,湘南台駅東口ロータリー,35.396544,139.467075,
神奈川県,藤沢市,407,葛原300-2,masked,35.4122846,139.4270009,
神奈川県,藤沢市,408,葛原1380,英樹園植木畑,35.4069131,139.4404313,緯度経度は怪しい
神奈川県,藤沢市,409,葛原字若狭2435-2,一色排水路内公民館前バス停そば,35.4069131,139.4404313,緯度経度は怪しい
神奈川県,藤沢市,410,葛原1385,葛原公民館南側,35.4072466,139.4307674,
神奈川県,藤沢市,411,葛原1800,くずはら里山広場東側,35.4051683,139.4295731,緯度経度は怪しい
神奈川県,藤沢市,412,葛原1980,（株）原田鍛工所,35.4031577,139.4290123,
神奈川県,藤沢市,413,菖蒲沢字大谷1312-1,一色排水路内菖蒲沢団地バス停そば,35.401133,139.4377043,緯度経度は怪しい
神奈川県,藤沢市,414,葛原1800,くずはら里山広場南側,35.4051683,139.4295731,緯度経度は怪しい
神奈川県,藤沢市,415,菖蒲沢1360,菖蒲沢公園東側,35.401133,139.4377043,緯度経度は怪しい
神奈川県,藤沢市,416,菖蒲沢1260,県営菖蒲沢団地集会所東側,35.3992692,139.4460159,緯度経度は怪しい
神奈川県,藤沢市,417,菖蒲沢字大平912番口,浄土院南側区画整理用地,35.401133,139.4377043,緯度経度は怪しい
神奈川県,藤沢市,418,菖蒲沢字大下1042-7,焼肉ファミリー向かい,35.39587,139.4438,緯度経度は怪しい
神奈川県,藤沢市,419,菖蒲沢625,豊受大神東側,35.4031075,139.4363065,
神奈川県,藤沢市,420,菖蒲沢63-1,NTT御所見電話交換センター,35.4007158,139.4257529,緯度経度は怪しい
神奈川県,藤沢市,421,打戻3191,荒井集会所西側,35.3888265,139.4144973,
神奈川県,藤沢市,422,打戻2537-1,打戻自治会館入口右側,35.3953552,139.4166866,緯度経度は怪しい
神奈川県,藤沢市,423,打戻1118,盛岩寺入口右側,35.3872965,139.4130586,緯度経度は怪しい
神奈川県,藤沢市,424,打戻2402,用田打戻線沿空地(少年の森グラウンド入口),35.3977474,139.4162684,
神奈川県,藤沢市,425,打戻1085,打戻二ノ町バス停そば畑,35.3922798,139.4186457,
神奈川県,藤沢市,426,用田417,市道葛原下滝号御所見の森隣空地,35.4085881,139.4135645,緯度経度は怪しい
神奈川県,藤沢市,427,打戻1789,masked,35.4005727,139.4171985,
神奈川県,藤沢市,428,打戻1760-1,御所見市民センター広場北側,35.4015208,139.4155096,
神奈川県,藤沢市,429,用田500,御所見中学校正門右側,35.4023566,139.4216331,
神奈川県,藤沢市,430,打戻1902,御所見小学校正門右側,35.4033456,139.4165907,
神奈川県,藤沢市,431,打戻1789,masked,35.4005727,139.4171985,
神奈川県,藤沢市,432,打戻1789,masked,35.4005727,139.4171985,
神奈川県,藤沢市,433,宮原3474,みどりの広場第321号,35.3952959,139.4034033,緯度経度は怪しい
神奈川県,藤沢市,434,宮原3540,御所見児童クラブ南用田獺郷線沿い空地,35.3952959,139.4034033,
神奈川県,藤沢市,435,宮原1289,宮原自治会館入口左側,35.39479850000001,139.4027274,
神奈川県,藤沢市,436,獺郷68,中里小学校正門左側,35.3991831,139.4139918,
神奈川県,藤沢市,437,獺郷799,獺郷公民館前,35.3884664,139.4067257,
神奈川県,藤沢市,438,獺郷218,ガーデニアこしょみ入口左側植栽,35.3964442,139.4103087,
神奈川県,藤沢市,439,獺郷675,熊山園摘壁,35.3918005,139.4078991,
神奈川県,藤沢市,440,遠藤867-1,矢向公園西側入口右側,35.3743991,139.4366636,
神奈川県,藤沢市,441,遠藤817,masked,35.3761431,139.4372453,
神奈川県,藤沢市,442,遠藤641-3,滝の沢小学校正門左側,35.3699297,139.4366447,
神奈川県,藤沢市,443,遠藤872-1,masked,35.3733846,139.4348948,
神奈川県,藤沢市,444,遠藤872-1,masked,35.3733846,139.4348948,
神奈川県,藤沢市,445,遠藤639-2,遠藤公園西側,35.3717783,139.4375355,
神奈川県,藤沢市,446,遠藤847-4,滝の沢不動尊石垣,35.3730845,139.4376754,
神奈川県,藤沢市,447,遠藤885-,遠藤丸山公園北側,35.3897234,139.4334665,緯度経度は怪しい
神奈川県,藤沢市,448,遠藤2959,秋葉台小学校正門右側,35.3892684,139.4413802,
神奈川県,藤沢市,449,遠藤2984-3,遠藤市民センター入口左側,35.387195,139.4400483,
神奈川県,藤沢市,450,遠藤6600-5,小出川暗渠上,35.3897234,139.4334665,緯度経度は怪しい
神奈川県,藤沢市,451,遠藤5863,刈込バス停横畑,35.385304,139.4298518,
神奈川県,藤沢市,452,遠藤310,遠藤南部公民館,35.3793826,139.4358534,
神奈川県,藤沢市,453,遠藤2620,masked,35.3845351,139.438169,
神奈川県,藤沢市,454,遠藤3627,湘南グリーンサービス前,35.3980414,139.4392839,
神奈川県,藤沢市,455,遠藤4239-1,SFCバス停前,35.389274,139.431996,緯度経度は怪しい
神奈川県,藤沢市,456,桐原町23-3,リサイクルプラザ藤沢南側,35.3944568,139.4504816,
神奈川県,藤沢市,457,桐原町23-1,リサイクルプラザ藤沢北側駐車場,35.3944547,139.4499363,
神奈川県,藤沢市,458,石川5丁目13,丸石公園西側,35.385602,139.4504135,
神奈川県,藤沢市,459,桐原町5,桐原公園北側,35.3863361,139.4535416,
神奈川県,藤沢市,460,遠藤2000-1,秋葉台公園第1駐車場入口右側,35.3883892,139.4432992,
神奈川県,藤沢市,461,遠藤2000-2,秋葉台中学校正門右側,35.3869263,139.4441925,
神奈川県,藤沢市,462,石川字近藤山1756-8,遠藤東交差点南西,35.3791036,139.4542268,
神奈川県,藤沢市,463,遠藤字北原2006-15,北原公園南側,35.3897234,139.4334665,緯度経度は怪しい
神奈川県,藤沢市,464,石川6丁目12,一色公園西側,35.38916810000001,139.4478714,
神奈川県,藤沢市,465,大庭5683-1,駒寄公園北側,35.3733277,139.4441765,緯度経度は怪しい
神奈川県,藤沢市,466,遠藤699-3,滝の沢中学校通用門右側,35.3719314,139.4430633,
神奈川県,藤沢市,467,遠藤778,湘南大庭69号自転車歩行者専用道路植栽,35.3897234,139.4334665,緯度経度は怪しい
神奈川県,藤沢市,468,遠藤742-1,北永山公園西側,35.3752072,139.4409697,
神奈川県,藤沢市,469,遠藤729-3,南永山公園西側,35.3733793,139.4409997,
神奈川県,藤沢市,470,遠藤699-3,滝の沢中学校南側,35.3719314,139.4430633,
神奈川県,藤沢市,471,遠藤701-10,滝の沢市民の家,35.3728425,139.4408202,
神奈川県,藤沢市,472,本藤沢7丁目7,善行南公園東側,35.3571746,139.4728202,
神奈川県,藤沢市,473,本藤沢7丁目2,小田急線脇土手(みどりの広場第142号向かい),35.3544793,139.4736149,
神奈川県,藤沢市,474,本藤沢3丁目8,大原公園西側,35.3564267,139.4697209,
神奈川県,藤沢市,475,本藤沢2丁目16,石原谷公園北側,35.3528915,139.4693236,
神奈川県,藤沢市,476,本藤沢2丁目1-1,石名坂環境事業所工場門右側,35.3499481,139.4686111,
神奈川県,藤沢市,477,本藤沢1丁目11,小田急線脇土手(コスモ本藤沢向かい),35.3519249,139.4729792,
神奈川県,藤沢市,478,本藤沢1丁目8,石名坂公園南側,35.3503732,139.4709129,
神奈川県,藤沢市,479,本藤沢2丁目1-1,石名坂環境事業所西側,35.3499481,139.4686111,
神奈川県,藤沢市,480,辻堂西海岸1丁目4-3,高浜中学校西側,35.3238798,139.4488495,
神奈川県,藤沢市,481,辻堂西海岸1丁目6,浜見山公園東側,35.3230959,139.4513668,
神奈川県,藤沢市,482,辻堂西海岸3丁目3,辻堂浄化センター北側,35.3219616,139.4421522,
神奈川県,藤沢市,483,辻堂西海岸1丁目4,浜見小学校南側,35.323913,139.4495546,
神奈川県,藤沢市,484,辻堂西海岸3丁目1,市道辻堂399号線グランシティ湘南海岸北側植栽,35.3215671,139.4532735,
神奈川県,藤沢市,485,辻堂西海岸3丁目2,辻堂海浜公園北側入口左側,35.3214326,139.4489141,緯度経度は怪しい
神奈川県,藤沢市,486,辻堂西海岸3丁目2,辻堂海浜公園金網(プール北側),35.3214326,139.4489141,緯度経度は怪しい
神奈川県,藤沢市,487,川名411,新林公園駐車場前植栽,35.330494,139.4937433,緯度経度は怪しい
神奈川県,藤沢市,488,川名400,新林小学校西側,35.3320054,139.4927902,緯度経度は怪しい
神奈川県,藤沢市,489,片瀬1丁目683-3,境川市道片瀬101号線横,35.3311085,139.4904656,緯度経度は怪しい
神奈川県,藤沢市,490,川名290,川名森久第二公園北側,35.3324787,139.4928284,緯度経度は怪しい
神奈川県,藤沢市,491,川名709-3,県道32号線沿い空き地,35.3305419,139.4961895,緯度経度は怪しい
神奈川県,藤沢市,492,川名字仲丸759-1,県道32号線川名東橋東側,35.3391654,139.49014,緯度経度は怪しい
神奈川県,藤沢市,493,川名903-4,県道田谷藤沢,35.3305419,139.4961895,緯度経度は怪しい
神奈川県,藤沢市,494,片瀬5丁目20,片瀬五丁目まちかど公園北側,35.3185628,139.4810858,
神奈川県,藤沢市,495,片瀬5丁目9,上西原公園東側,35.3182485,139.4845832,
神奈川県,藤沢市,496,片瀬4丁目4,西方公園南東側,35.3164231,139.4807679,
神奈川県,藤沢市,497,片瀬4丁目4,西方公園北東側,35.3164231,139.4807679,
神奈川県,藤沢市,498,片瀬4丁目10,境川西浜橋際,35.3146056,139.4826755,
神奈川県,藤沢市,499,片瀬4丁目9-22,片瀬おさいセンター入口左側,35.3154353,139.4837023,
神奈川県,藤沢市,500,善行2丁目19-9,善行町内会館西側,35.3645906,139.4699792,
神奈川県,藤沢市,501,善行2丁目18-5,善行乳児保育園南側,35.364487,139.4714853,
神奈川県,藤沢市,502,善行3丁目3,椎の実公園西側,35.3683517,139.4688468,
神奈川県,藤沢市,503,善行3丁目12,中原公園南側,35.3683517,139.4688468,
神奈川県,藤沢市,504,善行2丁目18-1,善行保育園東側,35.3647414,139.47115,
神奈川県,藤沢市,505,善行5丁目3640-88,善行五丁目交差点側空き地,35.3695368,139.4710719,
神奈川県,藤沢市,506,善行2丁目1,小田急線脇土手（黒川産婦人科向かい）,35.3654186,139.4701182,緯度経度は怪しい
神奈川県,藤沢市,507,弥勒寺3丁目5-13,村岡市民の家西側,35.341816,139.4982253,
神奈川県,藤沢市,508,弥勒寺3丁目10,小塚（鶴巻）公園南側,35.3423452,139.5001649,
神奈川県,藤沢市,509,弥勒寺3丁目10,小塚（鶴巻）公園北側,35.3423452,139.5001649,
神奈川県,藤沢市,510,弥勒寺3丁目7,坂下公園東側,35.3428449,139.4980182,
神奈川県,藤沢市,511,弥勒寺3丁目7,坂下公園北側,35.3428449,139.4980182,
神奈川県,藤沢市,512,弥勒寺3丁目22-4,日鉄ステンレス鋼管(株)和光寮北側,35.3431221,139.4989091,
神奈川県,藤沢市,513,弥勒寺3丁目13,相鉄ローゼン弥勒寺店駐車場,35.3415803,139.501119,
神奈川県,藤沢市,514,白旗4丁目5,第二伊勢山辺公園南側,35.3583881,139.4818807,
神奈川県,藤沢市,515,大鋸1450,県立藤沢清流高校正門右側,35.3561985,139.4832781,
神奈川県,藤沢市,516,白旗1丁目6,白旗廻り第三公園北側,35.3521172,139.4823576,
神奈川県,藤沢市,517,白旗1丁目2,白旗廻り公園西側,35.3515377,139.4794962,
神奈川県,藤沢市,518,大鋸1407-1,境川藤沢市教育文化センター前,35.3542928,139.4830332,
神奈川県,藤沢市,519,白旗2丁目12,白旗廻り第二公園北側,35.35472439999999,139.4811653,
神奈川県,藤沢市,520,白旗4丁目4-13,大清水市民の家,35.356632,139.4823842,
神奈川県,藤沢市,521,円行1892-1,湘南台高校南西側土手,35.3970938,139.4587654,
神奈川県,藤沢市,522,円行2丁目1,引地川緑地柳橋北側親水階段横,35.3932755,139.4580404,緯度経度は怪しい
神奈川県,藤沢市,523,円行2丁目15-4,円行下原公園南側,35.3932113,139.4592505,
神奈川県,藤沢市,524,円行2丁目15-4,円行下原公園北側,35.3932113,139.4592505,
神奈川県,藤沢市,525,円行2丁目28,引地川緑地円行新橋横,35.3932755,139.4580404,緯度経度は怪しい
神奈川県,藤沢市,526,円行2丁目13,引地川緑地円行大橋上流沿い,35.3932755,139.4580404,緯度経度は怪しい
神奈川県,藤沢市,527,円行2丁目10,引地川緑地ときわぎ保育園分園南,35.3950212,139.4607472,
神奈川県,藤沢市,528,湘南台3丁目6,円行公園北側,35.39220150000001,139.4624898,
神奈川県,藤沢市,529,湘南台2丁目15,湘南台駅ホーム西側,35.39620620000001,139.4665423,
神奈川県,藤沢市,530,石川2丁目19-1,石川市民の家入口右側,35.3813427,139.4559945,
神奈川県,藤沢市,531,石川2丁目24,山田公園北側,35.3786273,139.4551802,
神奈川県,藤沢市,532,石川2813,(有)下沢工務店横栗畑,35.3791036,139.4542268,
神奈川県,藤沢市,533,石川1丁目29,なかむら公園南側,35.3797387,139.4529557,
神奈川県,藤沢市,534,石川2丁目24,山田公園東側,35.3786273,139.4551802,
神奈川県,藤沢市,535,石川2丁目23-17,みどりの広場第145号東側,35.3786273,139.4551802,緯度経度は怪しい
神奈川県,藤沢市,536,石川1丁目1-21,石川児童館北側,35.377303,139.4525665,
神奈川県,藤沢市,537,石川2丁目13,鍛冶山公園西側,35.3786273,139.4551802,
神奈川県,藤沢市,538,石川2丁目13,鍛冶山公園北東側,35.3786273,139.4551802,
神奈川県,藤沢市,539,並木台2丁目15-2,鞍骨公園南側,35.3534758,139.5031863,
神奈川県,藤沢市,540,柄沢2丁目20-1,大台公園南側,35.3551521,139.4989027,
神奈川県,藤沢市,541,柄沢1丁目17-1,柄沢神社東側入口,35.351677,139.4979538,
神奈川県,藤沢市,542,並木台1丁目4-1,観音上公園北側,35.3504461,139.502452,
神奈川県,藤沢市,543,柄沢1丁目20-1,宮ノ下公園北東側,35.3517494,139.4998405,
神奈川県,藤沢市,544,渡内5丁目1-1,藤沢南消防署村岡出張所西側,35.3494194,139.501073,
神奈川県,藤沢市,545,柄沢2丁目7-23,湘南ひばり保育園東側,35.3540449,139.5012982,
