prefecture,city,district,number,address,name,lat,long,note
京都府,京都市,京都2区,左京区-1-1,左京区聖護院蓮華蔵町35番地,上下水道局疏水事務所,35.0159308,135.7756504,
京都府,京都市,京都2区,左京区-1-2,左京区新東洞院町252番地,元新洞小学校(南側),35.0120187,135.7749702,
京都府,京都市,京都2区,左京区-1-3,左京区新東洞院町252番地,元新洞小学校(東側),35.0120187,135.7749702,
京都府,京都市,京都2区,左京区-1-4,左京区新東洞院町252番地,元新洞小学校(西側),35.0120187,135.7749702,
京都府,京都市,京都2区,左京区-1-5,左京区法林寺門前町36番地,だん王保育園(北側),35.0100919,135.7730404,
京都府,京都市,京都2区,左京区-1-6,左京区法皇寺町448番地,要法寺東側ガレージ,35.0104501,135.7774354,
京都府,京都市,京都2区,左京区-1-7,左京区大菊町96番地,頂妙寺駐車場,35.012782,135.7741944,
京都府,京都市,京都2区,左京区-1-8,左京区東門前町527番地1,満足稲荷神社,35.010714,135.7785154,
京都府,京都市,京都2区,左京区-2-1,左京区岡崎東福ノ川町2番地3,京都大学医学部納骨墓地,35.0204296,135.7861588,
京都府,京都市,京都2区,左京区-2-2,左京区岡崎東福ノ川町9番地,白河総合支援学校(北西角),35.0206763,135.7854642,
京都府,京都市,京都2区,左京区-2-3,左京区岡崎入江町1番地の1,錦林小学校(北側),35.0180458,135.782253,
京都府,京都市,京都2区,左京区-2-4,左京区岡崎円勝寺町124番地,京都市美術館(東側南),35.0132305,135.7841327,
京都府,京都市,京都2区,左京区-2-5,左京区岡崎入江町1番地の1,錦林小学校グラウンド(南側),35.0180458,135.782253,
京都府,京都市,京都2区,左京区-2-6,左京区岡崎最勝寺町,岡崎公園(テニスコート東側),35.0144129,135.7820191,
京都府,京都市,京都2区,左京区-2-7,左京区聖護院円頓美町46番地2,京都市武道センター(西側),35.0169923,135.780837,
京都府,京都市,京都2区,左京区-2-8,左京区岡崎最勝寺町,上下水道局管理地(二条橋北側西),35.0144129,135.7820191,
京都府,京都市,京都2区,左京区-2-9,左京区岡崎成勝寺町9番地,岡崎公園(京都府立図書館北側),35.0129717,135.781993,
京都府,京都市,京都2区,左京区-2-10,左京区岡崎徳成町5番地,京都外国語専門学校(西側),35.0141747,135.7777147,
京都府,京都市,京都2区,左京区-2-11,左京区下堤町,京阪電鉄(株)地下鉄換気場(川端通東側),35.016188,135.7725373,
京都府,京都市,京都2区,左京区-2-12,左京区聖護院蓮華蔵町,上下水道局管理地(熊野橋西側南),35.0154497,135.7763891,
京都府,京都市,京都2区,左京区-2-13,左京区聖護院山王町43番地,熊野神社(南側),35.0177347,135.7782008,
京都府,京都市,京都2区,左京区-3-1,左京区岡崎東天王町1番地,岡崎中学校(西側),35.0162618,135.7895886,
京都府,京都市,京都2区,左京区-3-2,左京区岡崎東天王町1番地,岡崎中学校(南側),35.0162618,135.7895886,
京都府,京都市,京都2区,左京区-3-3,左京区岡崎東天王町1番地,岡崎中学校(北側),35.0162618,135.7895886,
京都府,京都市,京都2区,左京区-3-4,左京区鹿ケ谷高岸町3番地の2,京都市左京東部いきいき市民活動センター(東側),35.0157719,135.7930535,
京都府,京都市,京都2区,左京区-3-5,左京区鹿ケ谷高岸町3番地の2,錦林保育園(南側),35.0157719,135.7930535,
京都府,京都市,京都2区,左京区-3-6,左京区岡崎法勝寺町22番地,京都市動物園(北側),35.0136602,135.7870571,
京都府,京都市,京都2区,左京区-3-7,左京区岡崎法勝寺町22番地,京都市動物園(北側西),35.0136602,135.7870571,
京都府,京都市,京都2区,左京区-3-8,左京区岡崎法勝寺町22番地,京都市動物園(東側),35.0136602,135.7870571,
京都府,京都市,京都2区,左京区-4-1,左京区浄土寺下南田町,左京土木みどり事務所管理地(白川東岸),35.0235803,135.7941705,
京都府,京都市,京都2区,左京区-4-2,左京区鹿ケ谷上宮ノ前町10番地,ひまわり保育園,35.0183123,135.7922769,
京都府,京都市,京都2区,左京区-4-3,左京区鹿ケ谷法然院町,ちびっこひろば(西側),35.0223129,135.7956526,
京都府,京都市,京都2区,左京区-4-4,左京区鹿ケ谷上宮ノ前町37番地,左京消防署鹿ケ谷消防出張所(南側),35.0199683,135.7930497,
京都府,京都市,京都2区,左京区-4-5,左京区鹿ケ谷宮ノ前町6番地,第三錦林小学校(東側南),35.0185984,135.7932627,
京都府,京都市,京都2区,左京区-4-6,左京区鹿ケ谷宮ノ前町6番地,第三錦林小学校(北側),35.0185984,135.7932627,
京都府,京都市,京都2区,左京区-4-7,左京区浄土寺上南田町32番地,南田公園(南側),35.0253759,135.7950597,
京都府,京都市,京都2区,左京区-4-8,左京区浄土寺上南田町32番地,南田公園(北側),35.0253759,135.7950597,
京都府,京都市,京都2区,左京区-5-1,左京区吉田近衛町26番地1,府営住宅吉田近衛団地(西側),35.0212629,135.78062,
京都府,京都市,京都2区,左京区-5-2,左京区吉田本町,左京土木みどり事務所管理地(百万遍交差点南東角),35.0270496,135.7823155,
京都府,京都市,京都2区,左京区-5-3,左京区吉田本町(同町26番地付近),左京土木みどり事務所管理地,35.0270496,135.7823155,
京都府,京都市,京都2区,左京区-5-4,左京区吉田下大路町15番地(近衛通吉田東通北西),左京土木みどり事務所管理地,35.0213784,135.7821611,
京都府,京都市,京都2区,左京区-5-5,左京区吉田近衛町26番地の53,近衛中学校(北側西),35.0217712,135.7799846,
京都府,京都市,京都2区,左京区-5-6,左京区吉田近衛町26番地の53,近衛中学校(北側東),35.0217712,135.7799846,
京都府,京都市,京都2区,左京区-5-7,左京区吉田近衛町26番地の53,近衛中学校(東側南),35.0217712,135.7799846,
京都府,京都市,京都2区,左京区-5-8,左京区吉田上大路町,吉田神社参道(西側),35.0244005,135.7832045,
京都府,京都市,京都2区,左京区-6-1,左京区吉田泉殿町,京都大学西部講堂(西側),35.0272455,135.777278,
京都府,京都市,京都2区,左京区-6-2,左京区吉田河原町15番地18,吉田河原公園(東側),35.0234629,135.7737753,
京都府,京都市,京都2区,左京区-6-3,左京区吉田泉殿町49番地の1,泉殿公園,35.02695,135.7761576,
京都府,京都市,京都2区,左京区-6-4,左京区吉田橘町29番地の1,関西電力送配電(株)一条変電所,35.023564,135.7758335,
京都府,京都市,京都2区,左京区-6-5,左京区吉田河原町14番地,(公財)京都技術科学センター,35.0236874,135.7733254,
京都府,京都市,京都2区,左京区-6-6,左京区吉田中阿達町1番地,京都大学大学院総合生存学館(東側),35.0256725,135.7753233,
京都府,京都市,京都2区,左京区-6-7,左京区吉田上阿達町15番地の2,第四錦林小学校(正門西側),35.0254732,135.7751113,
京都府,京都市,京都2区,左京区-6-8,左京区吉田下阿達町46番地,京都大学東南アジア研究所(北側),35.0209334,135.7740951,
京都府,京都市,京都2区,左京区-7-1,左京区浄土寺東田町,(株)ミツワ左京ガスセンター駐車場(西側),35.0267991,135.7920956,
京都府,京都市,京都2区,左京区-7-2,左京区浄土寺石橋町62番地,京都市銀閣寺観光駐車場,35.026672,135.795048,
京都府,京都市,京都2区,左京区-7-3,左京区浄土寺真如町155番地,交通局烏丸営業所錦林出張所(西側北),35.0210037,135.7919267,
京都府,京都市,京都2区,左京区-7-4,左京区銀閣寺町,上下水道局管理地(銀閣寺西橋東側),35.0273003,135.7968383,
京都府,京都市,京都2区,左京区-7-5,左京区浄土寺馬場町48番地,(一財)川越病院,35.0243332,135.7929121,
京都府,京都市,京都2区,左京区-7-6,左京区吉田神楽岡町107番地,コドモのイエ幼稚園,35.0245682,135.7895295,
京都府,京都市,京都2区,左京区-7-7,左京区浄土寺真如町155番地,交通局烏丸営業所錦林出張所(東側南),35.0210037,135.7919267,
京都府,京都市,京都2区,左京区-7-8,左京区浄土寺下馬場町52番地,馬場公園(東側),35.0237635,135.7903173,
京都府,京都市,京都2区,左京区-7-9,左京区浄土寺下馬場町52番地,馬場公園(南側),35.0237635,135.7903173,
京都府,京都市,京都2区,左京区-8-1,左京区北白川伊織町,左京土木みどり事務所管理地(白川疏水右岸),35.0360002,135.7891317,
京都府,京都市,京都2区,左京区-8-2,左京区北白川久保田町,左京土木みどり事務所管理地(浄土寺橋西側南),35.0290487,135.7897245,
京都府,京都市,京都2区,左京区-8-3,左京区北白川上別当町10番地,中山ガレージ,35.0325619,135.7922438,
京都府,京都市,京都2区,左京区-8-4,左京区北白川別当町70番地,北白川小学校(北側),35.0317578,135.792511,
京都府,京都市,京都2区,左京区-8-5,左京区北白川別当町70番地,北白川小学校(南側),35.0317578,135.792511,
京都府,京都市,京都2区,左京区-8-6,左京区北白川小倉町50番地227,京都大学北白川学舎(西側),35.0318697,135.7902732,
京都府,京都市,京都2区,左京区-8-7,左京区北白川久保田町79番地1,疏水緑地帯(南側),35.0290487,135.7897245,
京都府,京都市,京都2区,左京区-8-8,左京区北白川瀬ノ内町46番地,上終公園(北東角),35.0359868,135.7903173,
京都府,京都市,京都2区,左京区-8-9,左京区北白川西町,左京土木みどり事務所管理地(白川疏水左岸),35.0303292,135.7870571,
京都府,京都市,京都2区,左京区-8-10,左京区北白川西蔦町27番地,京都府警西蔦町待機宿舎,35.0330675,135.7867473,
京都府,京都市,京都2区,左京区-8-11,左京区北白川東平井町,左京土木みどり事務所管理地(白川疏水左岸),35.035387,135.7880944,
京都府,京都市,京都2区,左京区-8-12,左京区北白川東蔦町,左京土木みどり事務所管理地(白川疏水左岸),35.033578,135.7883908,
京都府,京都市,京都2区,左京区-8-13,左京区北白川瀬ノ内町46番地,上終公園(西側),35.0359868,135.7903173,
京都府,京都市,京都2区,左京区-9-1,左京区久多川合町192番地3,消防団器具庫,35.2714713,135.8422134,
京都府,京都市,京都2区,左京区-9-2,左京区久多下の町203番地,久多いきいきセンター,35.2639423,135.8235012,
京都府,京都市,京都2区,左京区-9-3,左京区久多宮の町3番地,左京区役所久多出張所,35.2652011,135.8191451,
京都府,京都市,京都2区,左京区-9-4,左京区久多上の町,小畑貞子氏所有地(同町110番地西),35.2984197,135.8042495,
京都府,京都市,京都2区,左京区-9-5,左京区久多中の町,檀林キミ子氏所有地(大川神社付近),35.2727781,135.820855,
京都府,京都市,京都2区,左京区-9-6,左京区久多宮の町,河原康博氏所有地(龍宝寺付近),35.2618214,135.8066214,
京都府,京都市,京都2区,左京区-10-1,左京区田中大堰町49番地,(公財)応用科学研究所(南側),35.030947,135.7773723,
京都府,京都市,京都2区,左京区-10-2,左京区田中馬場町25番地,養正市営住宅13棟(東側),35.0330034,135.7758357,
京都府,京都市,京都2区,左京区-10-3,左京区田中玄京町149番地,左京西部いきいき市民活動センター(南西角),35.0324119,135.776352,
京都府,京都市,京都2区,左京区-10-4,左京区田中飛鳥井町1番地,養正小学校(西側),35.0319341,135.7802411,
京都府,京都市,京都2区,左京区-10-5,左京区田中飛鳥井町1番地,養正小学校(北側),35.0319341,135.7802411,
京都府,京都市,京都2区,左京区-10-6,左京区田中馬場町,養正公園(西側),35.0328274,135.7749076,
京都府,京都市,京都2区,左京区-10-7,左京区田中飛鳥井町7番地,飛鳥井公園(西側),35.0319341,135.7802411,
京都府,京都市,京都2区,左京区-10-8,左京区田中門前町103番地,百萬遍知恩寺(北側),35.0307884,135.78015,
京都府,京都市,京都2区,左京区-10-9,左京区田中上玄京町,叡山電鉄(株)叡山本線出町柳4号踏切(南側東),35.03362740000001,135.7778706,
京都府,京都市,京都2区,左京区-10-10,左京区田中下柳町,左京土木みどり事務所管理地(出町柳駅前バス停付近),35.0293788,135.7728336,
京都府,京都市,京都2区,左京区-10-11,左京区田中関田町22番地,メグミ幼児園,35.0294507,135.7746259,
京都府,京都市,京都2区,左京区-10-12,左京区田中関田町2番地26,府営住宅田中関田団地(西側),35.0285076,135.7764481,
京都府,京都市,京都2区,左京区-11-1,左京区高野泉町,京都土木事務所管理地(大城田町バス停付近),35.0470216,135.7846862,
京都府,京都市,京都2区,左京区-11-2,左京区高野泉町,左京土木みどり事務所管理地(川端通西側),35.0470216,135.7846862,
京都府,京都市,京都2区,左京区-11-3,左京区高野玉岡町1番地の146,玉岡公園(南側),35.0443534,135.782885,
京都府,京都市,京都2区,左京区-11-4,左京区高野玉岡町5番地,障害者スポーツセンター(東側),35.0449552,135.7832045,
京都府,京都市,京都2区,左京区-11-5,左京区高野竹屋町4番地,左京土木みどり事務所,35.0424383,135.7801545,
京都府,京都市,京都2区,左京区-11-6,左京区高野蓼原町,左京土木みどり事務所管理地(御蔭橋バス停付近),35.03503610000001,135.7760928,
京都府,京都市,京都2区,左京区-11-7,左京区高野西開町,左京土木みどり事務所管理地(高野橋東詰バス停付近),35.0398667,135.7787595,
京都府,京都市,京都2区,左京区-11-8,左京区高野西開町34番地の3,東部まち美化事務所,35.0395249,135.7782075,
京都府,京都市,京都2区,左京区-11-9,左京区高野東開町1番地の6,東開公園(西側),35.03865529999999,135.7805234,
京都府,京都市,京都2区,左京区-11-10,左京区高野東開町1番地の6,東開公園(東側),35.03865529999999,135.7805234,
京都府,京都市,京都2区,左京区-11-11,左京区高野西開町34番地の7,西開公園(北側),35.0395659,135.7788243,
京都府,京都市,京都2区,左京区-12-1,左京区田中上古川町25番地,高野中学校(北側),35.0396714,135.7837972,
京都府,京都市,京都2区,左京区-12-2,左京区田中上古川町25番地,高野中学校(西側),35.0396714,135.7837972,
京都府,京都市,京都2区,左京区-12-3,左京区田中大久保町68番地,叡山電鉄(株)叡山本線元田中1号踏切(南側東),35.0363516,135.7826118,
京都府,京都市,京都2区,左京区-12-4,左京区田中上大久保町24番地,養徳小学校(北側),35.0372058,135.7831627,
京都府,京都市,京都2区,左京区-12-5,左京区田中上大久保町24番地,養徳小学校(南側),35.0372058,135.7831627,
京都府,京都市,京都2区,左京区-12-6,左京区田中北春菜町8番地,高原公園(西側),35.0371649,135.7843899,
京都府,京都市,京都2区,左京区-12-7,左京区田中西大久保町36番地,左京消防署公舎(西側),35.0364845,135.7809097,
京都府,京都市,京都2区,左京区-12-8,左京区田中高原町25番地,京都芸術大学高原校舎(南側),35.0366771,135.7867281,
京都府,京都市,京都2区,左京区-12-9,左京区田中西浦町46番地,関西電力送配電(株)田中変電所,35.0358208,135.779666,
京都府,京都市,京都2区,左京区-13-1,左京区下鴨貴船町61番地,中川原公園(南側),35.0430243,135.7677462,
京都府,京都市,京都2区,左京区-13-2,左京区下鴨貴船町61番地,中川原公園(東側),35.0430243,135.7677462,
京都府,京都市,京都2区,左京区-13-3,左京区下鴨上川原町,左京土木みどり事務所管理地(北第一緯79号線),35.0433568,135.7645385,
京都府,京都市,京都2区,左京区-13-4,左京区下鴨宮崎町4番地の2,下鴨小学校(北側西),35.0374176,135.7684509,
京都府,京都市,京都2区,左京区-13-5,左京区下鴨宮崎町4番地の2,下鴨小学校(南側),35.0374176,135.7684509,
京都府,京都市,京都2区,左京区-13-6,左京区下鴨宮崎町4番地の2,下鴨小学校(西側南),35.0374176,135.7684509,
京都府,京都市,京都2区,左京区-13-7,左京区下鴨松原町,左京土木みどり事務所管理地(下鴨神社前バス停付近),35.0362776,135.7706115,
京都府,京都市,京都2区,左京区-13-8,左京区下鴨森本町21番地,京都府立視力障害者福祉センター,35.0377009,135.7715145,
京都府,京都市,京都2区,左京区-13-9,左京区下鴨宮河町1番地,京都家庭裁判所(西側),35.0324117,135.7717225,
京都府,京都市,京都2区,左京区-14-1,左京区下鴨泉川町,下鴨神社(南側 御蔭小橋付近),35.03658679999999,135.7740187,
京都府,京都市,京都2区,左京区-14-2,左京区下鴨松ノ木町,左京土木みどり事務所管理地(一本松バス停付近),35.0405145,135.7704634,
京都府,京都市,京都2区,左京区-14-3,左京区下鴨泉川町,下鴨神社(東側),35.03658679999999,135.7740187,
京都府,京都市,京都2区,左京区-14-4,左京区下鴨泉川町40番地の1,下鴨中学校(東側北),35.0383627,135.7750928,
京都府,京都市,京都2区,左京区-14-5,左京区下鴨泉川町40番地の1,下鴨中学校(北側),35.0383627,135.7750928,
京都府,京都市,京都2区,左京区-14-6,左京区下鴨泉川町40番地の1,下鴨中学校(東側南),35.0383627,135.7750928,
京都府,京都市,京都2区,左京区-14-7,左京区下鴨泉川町2番地,むつみ会駐車場(東側),35.0358963,135.7732873,
京都府,京都市,京都2区,左京区-15-1,左京区下鴨梅ノ木町59番地,洛北高等学校(東側),35.0455001,135.7716485,
京都府,京都市,京都2区,左京区-15-2,左京区下鴨梅ノ木町59番地,洛北高等学校(西側),35.0455001,135.7716485,
京都府,京都市,京都2区,左京区-15-3,左京区下鴨東梅ノ木町8番地,葵小学校(南側),35.0448108,135.7731576,
京都府,京都市,京都2区,左京区-15-4,左京区下鴨西本町,左京土木みどり事務所管理地(下鴨中通北大路北西),35.043731,135.7683896,
京都府,京都市,京都2区,左京区-15-5,左京区下鴨東梅ノ木町9番地,下鴨膳部公園,35.0449706,135.7736206,
京都府,京都市,京都2区,左京区-15-6,左京区下鴨東森ケ前町7番地,カトリック高野教会(南側),35.0431872,135.7779169,
京都府,京都市,京都2区,左京区-15-7,左京区下鴨本町,左京土木みどり事務所管理地(下鴨本通北大路北西角),35.0436917,135.7719447,
京都府,京都市,京都2区,左京区-15-8,左京区下鴨西高木町6番地,下鴨森が前公園(北側),35.0428258,135.7749076,
京都府,京都市,京都2区,左京区-15-9,左京区下鴨本町,左京土木みどり事務所管理地(下鴨本通北大路南東角),35.0436917,135.7719447,
京都府,京都市,京都2区,左京区-16-1,左京区下鴨北芝町40番地,北芝町公舎ひろば(南側),35.0531722,135.7683896,
京都府,京都市,京都2区,左京区-16-2,左京区下鴨北茶ノ木町13番地,茶ノ木原公園,35.054244,135.7719447,
京都府,京都市,京都2区,左京区-16-3,左京区下鴨南野々神町1番地,京都ノートルダム女子大学(東側南),35.0506274,135.7715229,
京都府,京都市,京都2区,左京区-16-4,左京区下鴨北野々神町26番地,北山ふれあいセンター(南側),35.0520226,135.7719447,
京都府,京都市,京都2区,左京区-16-5,左京区下鴨半木町1番地10,京都府職員研修・研究支援センター(南側),35.0459685,135.7669852,
京都府,京都市,京都2区,左京区-16-6,左京区下鴨萩ケ垣内町20番地,萩公園(東南角),35.0490117,135.7691649,
京都府,京都市,京都2区,左京区-16-7,左京区下鴨半木町,左京土木みどり事務所管理地(京都府立大学東側),35.0489103,135.7645385,
京都府,京都市,京都2区,左京区-16-8,左京区下鴨東岸本町,左京土木みどり事務所管理地(泉川東岸),35.0467137,135.7749076,
京都府,京都市,京都2区,左京区-16-9,左京区下鴨北野々神町26番地,北山ふれあいセンター(西側),35.0520226,135.7719447,
京都府,京都市,京都2区,左京区-17-1,左京区松ヶ崎久土町1番地,上下水道局松ヶ崎浄水場(南門西側),35.0477539,135.7815963,
京都府,京都市,京都2区,左京区-17-2,左京区松ヶ崎堂ノ上町7番地の2,左京区役所,35.0487576,135.7784326,
京都府,京都市,京都2区,左京区-17-3,左京区松ヶ崎小竹藪町24番地19,小竹藪公園(南側),35.049536,135.7855952,
京都府,京都市,京都2区,左京区-17-4,左京区松ヶ崎久土町1番地,上下水道局松ヶ崎浄水場(西側),35.0477539,135.7815963,
京都府,京都市,京都2区,左京区-17-5,左京区松ヶ崎久土町1番地,上下水道局松ヶ崎浄水場(南西角),35.0477539,135.7815963,
京都府,京都市,京都2区,左京区-17-6,左京区松ヶ崎久土町1番地,上下水道局松ヶ崎浄水場(東側),35.0477539,135.7815963,
京都府,京都市,京都2区,左京区-17-7,左京区松ヶ崎正田町,京都工芸繊維大学(松ケ崎キャンパス西部敷地南側),35.0486368,135.7830563,
京都府,京都市,京都2区,左京区-18-1,左京区松ヶ崎河原田町4番地の24,河原田公園(東南角),35.0528152,135.7889978,
京都府,京都市,京都2区,左京区-18-2,左京区松ヶ崎河原田町,左京土木みどり事務所管理地(松ヶ崎河原田町15番地先),35.0519101,135.7883908,
京都府,京都市,京都2区,左京区-18-3,左京区松ヶ崎芝本町,宝が池公園(西側),35.0517253,135.7737224,
京都府,京都市,京都2区,左京区-18-4,左京区松ヶ崎堀町40番地,松ケ崎小学校(東側),35.05316680000001,135.7821149,
京都府,京都市,京都2区,左京区-18-5,左京区松ヶ崎壱町田町,左京土木みどり事務所管理地(松ヶ崎海尻町バス停付近),35.0511177,135.7784632,
京都府,京都市,京都2区,左京区-18-6,左京区松ヶ崎橋上町,京都工芸繊維大学(松ケ崎キャンパス西部敷地東側),35.04967,135.7837972,
京都府,京都市,京都2区,左京区-18-7,左京区松ヶ崎呼返町47番地,松賀茂公園(南側),35.0499341,135.7748866,
京都府,京都市,京都2区,左京区-19-1,左京区一乗寺塚本町42番地,塚本公園(西側),35.0385581,135.7897708,
京都府,京都市,京都2区,左京区-19-2,左京区一乗寺御祭田町2番地,修学院中学校(北側),35.0423754,135.7882194,
京都府,京都市,京都2区,左京区-19-3,左京区一乗寺御祭田町2番地,修学院中学校(東側),35.0423754,135.7882194,
京都府,京都市,京都2区,左京区-19-4,左京区一乗寺御祭田町2番地,修学院中学校(西側),35.0423754,135.7882194,
京都府,京都市,京都2区,左京区-19-5,左京区一乗寺地蔵本町27番地,地蔵本公園(西側),35.0417912,135.7840102,
京都府,京都市,京都2区,左京区-19-6,左京区一乗寺築田町72番地,瓜生山学園駐車場(東側),35.0394256,135.7909656,
京都府,京都市,京都2区,左京区-19-7,左京区一乗寺野田町19番地,野田公園(南西角),35.0412763,135.7927392,
京都府,京都市,京都2区,左京区-19-8,左京区一乗寺塚本町42番地,塚本公園(南側),35.0385581,135.7897708,
京都府,京都市,京都2区,左京区-19-9,左京区一乗寺野田町19番地,野田公園(北東),35.0412763,135.7927392,
京都府,京都市,京都2区,左京区-20-1,左京区一乗寺釈迦堂町1番地,八大神社(南側),35.0444421,135.7941372,
京都府,京都市,京都2区,左京区-20-2,左京区一乗寺西浦畑町19番地,西浦畑公園(東側),35.046502,135.7938741,
京都府,京都市,京都2区,左京区-20-3,左京区一乗寺松田町170番地,一乗寺ひいらぎ公園(東側),35.0473819,135.7897245,
京都府,京都市,京都2区,左京区-20-4,左京区一乗寺宮ノ東町54番地,辻公園(東側),35.0428637,135.7909064,
京都府,京都市,京都2区,左京区-20-5,左京区一乗寺里ノ西町35番地,修学院第二小学校(西側),35.0450417,135.788705,
京都府,京都市,京都2区,左京区-20-6,左京区一乗寺里ノ西町35番地,修学院第二小学校(北側),35.0450417,135.788705,
京都府,京都市,京都2区,左京区-20-7,左京区一乗寺東閉川原町1番地,閉川原公園(西側),35.0473307,135.7880944,
京都府,京都市,京都2区,左京区-20-8,左京区一乗寺高槻町2番地,高槻公園(東側),35.0450821,135.7854364,
京都府,京都市,京都2区,左京区-21-1,左京区山端川岸町3番地,高岡弘美氏方駐車場,35.05455480000001,135.7910551,
京都府,京都市,京都2区,左京区-21-2,左京区山端橋ノ本町1番地,山端公園(南側),35.0514959,135.7912805,
京都府,京都市,京都2区,左京区-21-3,左京区修学院犬塚町30番地1,修学院保育園,35.0506596,135.7933112,
京都府,京都市,京都2区,左京区-21-4,左京区修学院沖殿町1番地,修学院小学校(南側),35.0524587,135.7936081,
京都府,京都市,京都2区,左京区-21-5,左京区修学院犬塚町,左京土木みどり事務所管理地(白川通東側),35.0515016,135.7938741,
京都府,京都市,京都2区,左京区-21-6,左京区山端柳ヶ坪町18番地,京都市修学院老人デイサービスセンター(北西側),35.0495267,135.7915419,
京都府,京都市,京都2区,左京区-21-7,左京区修学院檜峠町,桧峠公園(西側),35.0578166,135.8003955,
京都府,京都市,京都2区,左京区-21-8,左京区修学院沖殿町,左京土木みどり事務所管理地(修学院離宮道バス停付近),35.0526125,135.7938741,
京都府,京都市,京都2区,左京区-21-9,左京区山端柳ヶ坪町15番地5,叡山電鉄(株)叡山本線一乗寺5号踏切(東側北),35.048764,135.7903173,
京都府,京都市,京都2区,左京区-21-10,左京区修学院泉殿町3番地の1,修学院離宮道公園,35.0540426,135.7974642,
京都府,京都市,京都2区,左京区-22-1,左京区上高野池ノ内町12番地の39,池ノ内公園(東側),35.0650236,135.7935661,
京都府,京都市,京都2区,左京区-22-2,左京区上高野石田町101番地,鷺公園(北側),35.0615525,135.7891317,
京都府,京都市,京都2区,左京区-22-3,左京区上高野隣好町30番地,中川誠一氏方,35.06189730000001,135.7943064,
京都府,京都市,京都2区,左京区-22-4,左京区上高野鳥脇町3番地の11,鳥脇公園(東側),35.062212,135.7932099,
京都府,京都市,京都2区,左京区-22-5,左京区上高野畑町,宝幢寺参詣者専用駐車場(北側),35.0597807,135.7986169,
京都府,京都市,京都2区,左京区-22-6,左京区上高野東田町15番地3,東田公園(東側南),35.0613941,135.8033601,
京都府,京都市,京都2区,左京区-22-7,左京区上高野松田町8番地,上高野小学校(東側),35.0612924,135.7952742,
京都府,京都市,京都2区,左京区-22-8,左京区上高野石田町101番地,鷺公園(南側),35.0615525,135.7891317,
京都府,京都市,京都2区,左京区-23-1,左京区八瀬近衛町,左京土木みどり事務所管理地(八瀬甲賀小路バス停付近),35.0864388,135.8113655,
京都府,京都市,京都2区,左京区-23-2,左京区八瀬近衛町684番地,石川和弘氏所有地(九頭竜弁天前バス停付近),35.073599,135.8119846,
京都府,京都市,京都2区,左京区-23-3,左京区八瀬野瀬町,左京土木みどり事務所管理地(八瀬駅前バス停付近),35.06918,135.8149238,
京都府,京都市,京都2区,左京区-23-4,左京区八瀬野瀬町,左京土木みどり事務所管理地(八瀬甲賀渕バス停付近),35.06918,135.8149238,
京都府,京都市,京都2区,左京区-24-1,左京区八瀬花尻町49番地,ロイヤルガーデンテニスクラブ,35.1001675,135.8237408,
京都府,京都市,京都2区,左京区-24-2,左京区八瀬秋元町139番地2,秋元公園,35.0888691,135.8214636,
京都府,京都市,京都2区,左京区-24-3,左京区八瀬秋元町577番地,左京区役所八瀬出張所,35.0817393,135.818438,
京都府,京都市,京都2区,左京区-24-4,左京区八瀬秋元町323番地,八瀬小学校,35.0848527,135.8172107,
京都府,京都市,京都2区,左京区-24-5,左京区八瀬近衛町,京都中央農協岩倉支店契約駐車場,35.0864388,135.8113655,
京都府,京都市,京都2区,左京区-24-6,左京区八瀬近衛町354番地,近衛公園(西側),35.0796741,135.8181662,
京都府,京都市,京都2区,左京区-24-7,左京区八瀬近衛町,左京土木みどり事務所管理地(八瀬甲賀小路バス停付近),35.0864388,135.8113655,
京都府,京都市,京都2区,左京区-25-1,左京区岩倉中河原町67番地,岩倉中河原公園(南側),35.0709088,135.7804402,
京都府,京都市,京都2区,左京区-25-2,左京区岩倉忠在地町823番地,洛北中学校(西側北),35.0701861,135.7876313,
京都府,京都市,京都2区,左京区-25-3,左京区岩倉南木野町,京都土木事務所管理地(長代北橋北詰),35.070839,135.7778706,
京都府,京都市,京都2区,左京区-25-4,左京区岩倉幡枝町,幡枝庄田公園(南側),35.06965050000001,135.772241,
京都府,京都市,京都2区,左京区-25-5,左京区岩倉北桑原町85番地,西日本電信電話(株)京都支店岩倉別館(西側),35.0680143,135.7820593,
京都府,京都市,京都2区,左京区-25-6,左京区岩倉北池田町66番地,岩倉池田公園(南側),35.0652989,135.7766854,
京都府,京都市,京都2区,左京区-25-7,左京区岩倉西五田町28番地の1,市バス岩倉操車場(北側),35.0650144,135.7801764,
京都府,京都市,京都2区,左京区-25-8,左京区岩倉北四ノ坪町33番地,岩倉南小学校(東側),35.0670287,135.7846079,
京都府,京都市,京都2区,左京区-25-9,左京区岩倉大鷺町529番地,同志社中学校・高等学校友愛寮跡地,35.0662463,135.7884348,
京都府,京都市,京都2区,左京区-25-10,左京区岩倉三笠町,中下在地公園(西側),35.0703485,135.7846862,
京都府,京都市,京都2区,左京区-25-11,左京区岩倉幡枝町2450番地,幡枝石清水公園(東側),35.06965050000001,135.772241,
京都府,京都市,京都2区,左京区-25-12,左京区岩倉大鷺町520番地,同志社中学校・高等学校グラウンド(南側),35.0660361,135.7874577,
京都府,京都市,京都2区,左京区-25-13,左京区岩倉南河原町,岩倉南公園(東南角),35.0685921,135.7802411,
京都府,京都市,京都2区,左京区-26-1,左京区岩倉中町,左京土木みどり事務所管理地(長谷別れバス停付近),35.0747393,135.7894281,
京都府,京都市,京都2区,左京区-26-2,左京区岩倉中町,中町公園(東側),35.0747393,135.7894281,
京都府,京都市,京都2区,左京区-26-3,左京区岩倉中町403番地,京都市岩倉地域包括支援センター,35.0754282,135.7881836,
京都府,京都市,京都2区,左京区-26-4,左京区岩倉忠在地町221番地,明徳小学校(東側),35.0751734,135.7868639,
京都府,京都市,京都2区,左京区-26-5,左京区岩倉長谷町1930番地,長谷土田公園(東側),35.0770713,135.7940941,
京都府,京都市,京都2区,左京区-26-6,左京区岩倉忠在地町169番地,いわくら病院稲門寮(西側),35.0758758,135.7870571,
京都府,京都市,京都2区,左京区-26-7,左京区岩倉上蔵町120番地,岩倉公園(東側),35.0791778,135.7821951,
京都府,京都市,京都2区,左京区-26-8,左京区岩倉上蔵町12番地,府営住宅岩倉団地(東側),35.0767402,135.7831125,
京都府,京都市,京都2区,左京区-26-9,左京区岩倉忠在地町548番地,京都中央信用金庫岩倉支店駐車場,35.07380990000001,135.7870763,
京都府,京都市,京都2区,左京区-26-10,左京区岩倉花園町541番地9,花園東公園(西側),35.0725887,135.7965071,
京都府,京都市,京都2区,左京区-26-11,左京区,叡山電鉄(株)鞍馬線八幡前2号踏切(東側),35.06804899999999,135.7917992,
京都府,京都市,京都2区,左京区-27-1,左京区岩倉忠在地町23番地,忠在地中公園(北側),35.0857944,135.7841568,
京都府,京都市,京都2区,左京区-27-2,左京区岩倉長谷町517番地の21,石倉公園(東側),35.0826718,135.7884464,
京都府,京都市,京都2区,左京区-27-3,左京区岩倉中在地町43番地,中在地北公園(東側),35.0829782,135.7849826,
京都府,京都市,京都2区,左京区-27-4,左京区岩倉長谷町416番地1,ベストライフ京都洛北(東側),35.0809302,135.7898356,
京都府,京都市,京都2区,左京区-27-5,左京区岩倉長谷町647番地,府営住宅岩倉長谷団地(東側),35.0848795,135.7890941,
京都府,京都市,京都2区,左京区-27-6,左京区岩倉忠在地町3番地,忠在地北公園(東側),35.0758758,135.7870571,
京都府,京都市,京都2区,左京区-27-7,左京区岩倉忠在地町5番地,岩倉北小学校(西門),35.0854086,135.7884927,
京都府,京都市,京都2区,左京区-27-8,左京区岩倉長谷町,長谷西公園(南側),35.088816,135.7971347,
京都府,京都市,京都2区,左京区-28-1,左京区大原古知平町30番地,河上敏一氏所有地(古知谷バス停付近),35.1364126,135.8339814,
京都府,京都市,京都2区,左京区-28-2,左京区大原勝林院町575番地,山本豊氏方,35.12619979999999,135.8320413,
京都府,京都市,京都2区,左京区-28-3,左京区大原来迎院町10番地2,左京区役所大原出張所,35.1210998,135.8292155,
京都府,京都市,京都2区,左京区-28-4,左京区大原来迎院町,青木弘好氏所有地(同町236番地付近),35.1193955,135.8445871,
京都府,京都市,京都2区,左京区-28-5,左京区大原上野町564番地,平塚薬局大原店,35.1130262,135.825651,
京都府,京都市,京都2区,左京区-28-6,左京区大原野村町349番地,西村勲氏所有地(野村バス停付近),35.1152638,135.81611,
京都府,京都市,京都2区,左京区-28-7,左京区大原草生町292番地,茶谷富造氏方,35.1190698,135.8258968,
京都府,京都市,京都2区,左京区-28-8,左京区大原井出町,左京土木みどり事務所管理地(宮川一ノ橋付近),35.1019368,135.81611,
京都府,京都市,京都2区,左京区-28-9,左京区大原上野町,野田典彦氏所有地(同町75番地付近),35.1112348,135.8291599,
京都府,京都市,京都2区,左京区-29-1,左京区大原小出石町21番地,中嶋久夫氏方,35.1480851,135.8418395,
京都府,京都市,京都2区,左京区-29-2,左京区大原小出石町125番地,大井麻奈未氏方,35.1455566,135.8398649,
京都府,京都市,京都2区,左京区-30-1,左京区大原百井町66番地,林弘子氏所有地(百井自治会館付近),35.1623537,135.8109392,
京都府,京都市,京都2区,左京区-30-2,左京区大原百井町,久保正己氏所有地(同町22番地付近),35.1696866,135.8137377,
京都府,京都市,京都2区,左京区-31-1,左京区静市野中町250番地の5,野中公園(西側),35.0963489,135.7675008,
京都府,京都市,京都2区,左京区-31-2,左京区静市市原町1212番地,奥野哲士氏方,35.0843344,135.7614343,
京都府,京都市,京都2区,左京区-31-3,左京区静市市原町662番地3,上下水道局静市ポンプ所(東側),35.0783649,135.7639703,
京都府,京都市,京都2区,左京区-31-4,左京区静市市原町1081番地8,静市公園(東側),35.0823761,135.7623214,
京都府,京都市,京都2区,左京区-31-5,左京区静市市原町721番地の3,西市原公園(北側),35.0742312,135.7600168,
京都府,京都市,京都2区,左京区-31-6,左京区静市市原町320番地の1,増田治良氏方,35.087441,135.7584292,
京都府,京都市,京都2区,左京区-31-7,左京区静市市原町910番地の15,二軒茶屋公園(西側),35.0759113,135.765961,
京都府,京都市,京都2区,左京区-31-8,左京区静市野中町105番地,市原野小学校,35.089866,135.7646362,
京都府,京都市,京都2区,左京区-31-9,左京区静市野中町,左京土木みどり事務所管理地(静原口バス停付近),35.0963489,135.7675008,
京都府,京都市,京都2区,左京区-32-1,左京区静市静原町71番地,田中博一氏方,35.1098473,135.792272,
京都府,京都市,京都2区,左京区-32-2,左京区静市静原町109番地,伊藤丈夫氏方,35.1103567,135.7901704,
京都府,京都市,京都2区,左京区-32-3,左京区静市静原町224番地,静原集会所,35.1109861,135.7894231,
京都府,京都市,京都2区,左京区-32-4,左京区静市静原町,左京土木みどり事務所管理地(水谷橋北東),35.1166016,135.7947633,
京都府,京都市,京都2区,左京区-33-1,左京区鞍馬二ノ瀬町47番地,二ノ瀬総堂,35.0267269,135.7766946,
京都府,京都市,京都2区,左京区-33-2,左京区鞍馬二ノ瀬町167番地,杉原守氏方,35.0982193,135.7629726,
京都府,京都市,京都2区,左京区-33-3,左京区鞍馬二ノ瀬町,左京土木みどり事務所管理地(二ノ瀬バス停付近),35.1085353,135.7698709,
京都府,京都市,京都2区,左京区-34-1,左京区鞍馬貴船町43番地,貴船神社(地蔵堂向かい),35.1213494,135.763362,
京都府,京都市,京都2区,左京区-34-2,左京区鞍馬貴船町76番地,鳥居宏行氏方,35.1243432,135.7638965,
京都府,京都市,京都2区,左京区-34-3,左京区鞍馬貴船町25番地,鳥居良則氏方,35.1196325,135.7628655,
京都府,京都市,京都2区,左京区-35-1,左京区鞍馬本町,左京土木みどり事務所管理地(同町406番地付近),35.1389007,135.7852789,
京都府,京都市,京都2区,左京区-35-2,左京区鞍馬本町254番地,鞍馬寺山門下(鞍馬公民館),35.1137763,135.7730069,
京都府,京都市,京都2区,左京区-35-3,左京区鞍馬本町35番地,岸根良成氏所有地(十王橋バス停付近),35.110562,135.7688617,
京都府,京都市,京都2区,左京区-36-1,左京区花脊別所町249番地,別所自治会館,35.1703835,135.7827429,
京都府,京都市,京都2区,左京区-36-2,左京区花脊別所町86番地,藤井ひゆ氏方,35.1661776,135.7809365,
京都府,京都市,京都2区,左京区-37-1,左京区花脊八桝町141番地,春日神社,35.2200819,135.7778072,
京都府,京都市,京都2区,左京区-37-2,左京区花脊大布施町196番地,左京区役所花脊出張所,35.2093004,135.7758927,
京都府,京都市,京都2区,左京区-37-3,左京区花脊大布施町360番地,堀治樹氏所有地(南橋西),35.2058494,135.7719367,
京都府,京都市,京都2区,左京区-37-4,左京区花脊原地町146番地,和田万美子氏所有地(原地中の町バス停付近),35.2346012,135.7726524,
京都府,京都市,京都2区,左京区-37-5,左京区花脊八桝町417番地,鋸屋秀明氏所有地(教会前バス停付近),35.2176449,135.7876499,
京都府,京都市,京都2区,左京区-37-6,左京区花脊八桝町833番地,白谷俊之氏所有地(八桝橋バス停付近),35.2176449,135.7876499,
京都府,京都市,京都2区,左京区-38-1,左京区広河原下之町276番地の1,新谷久芳氏所有地(菅原バス停付近),35.2711044,135.7592067,
京都府,京都市,京都2区,左京区-38-2,左京区広河原下之町316番地,高橋直人氏所有地(下の町バス停南),35.2547155,135.7557287,
京都府,京都市,京都2区,左京区-38-3,左京区広河原能見町87番地,元堰源小学校(正面入口横),35.2496187,135.765881,
京都府,京都市,京都2区,左京区-38-4,左京区広河原能見町,沖島弘子氏所有地(同町245番地付近),35.2676377,135.7757965,
京都府,京都市,京都2区,東山区-1-1,東山区大黒町,エコステーション21三条東駐輪場,34.9965478,135.7712041,
京都府,京都市,京都2区,東山区-1-2,東山区花見小路通新橋上る中之町237番地,阿知波方,35.0060348,135.7753457,
京都府,京都市,京都2区,東山区-1-3,東山区花見小路通古門前上る巽町424番地,三条市営住宅6棟,35.007742,135.7762409,
京都府,京都市,京都2区,東山区-1-4,東山区大和大路通三条下る東入若松町393番地,有済小学校,35.0081693,135.7743156,
京都府,京都市,京都2区,東山区-1-5,東山区大和大路通三条下る東入若松町393番地,元有済小学校,35.0081693,135.7743156,
京都府,京都市,京都2区,東山区-1-6,東山区三条大橋東入二町目59番地,大蔵寺,35.0088824,135.7748428,
京都府,京都市,京都2区,東山区-2-1,東山区教業町,三条東児童公園,35.0085823,135.7756483,
京都府,京都市,京都2区,東山区-2-2,東山区三条大橋東五丁目西海子町36番地,滋賀銀行東山支店,35.0096527,135.7779319,
京都府,京都市,京都2区,東山区-2-3,東山区三条通白川橋東入三丁目夷町175番地の2,地域交流施設あわた,35.0089727,135.7835179,
京都府,京都市,京都2区,東山区-2-4,東山区長光町,三条駐車場,35.0086398,135.7766854,
京都府,京都市,京都2区,東山区-2-5,東山区粟田口三条坊町,粟田坊町児童公園,35.00773119999999,135.7832045,
京都府,京都市,京都2区,東山区-3-1,東山区川端通四条上る川端町181番地,京都市鴨東駐車場,35.0042412,135.7724952,
京都府,京都市,京都2区,東山区-3-2,東山区祇園町南側551番地,漢検・漢字ミュージアム,35.0036244,135.7768996,
京都府,京都市,京都2区,東山区-3-3,東山区祇園町南側551番地,漢検・漢字ミュージアム,35.0036244,135.7768996,
京都府,京都市,京都2区,東山区-4-1,東山区宮川筋二丁目,団栗橋公園,35.0015488,135.7712041,
京都府,京都市,京都2区,東山区-4-2,東山区花見小路通団栗下る小松町589番地,大中院,34.9999188,135.7740187,
京都府,京都市,京都2区,東山区-4-3,東山区宮川筋六丁目,有限会社たばたガレージ,34.9981641,135.7695746,
京都府,京都市,京都2区,東山区-4-4,東山区宮川筋四丁目306番地,新道自治会館,34.9996128,135.7710724,
京都府,京都市,京都2区,東山区-4-5,東山区大和大路通四条下る四丁目東入小松町,NTT西日本京都支店祇園別館機械棟,34.9999188,135.7740187,
京都府,京都市,京都2区,東山区-4-6,東山区宮川筋五丁目,松原橋児童公園,34.9989552,135.7702412,
京都府,京都市,京都2区,東山区-5-1,東山区池殿町,雨庭,34.9962884,135.7726114,
京都府,京都市,京都2区,東山区-5-2,東山区白糸町570,タイムズ五条坂清水寺前第2駐車場,34.9950463,135.7780387,
京都府,京都市,京都2区,東山区-5-3,東山区松原通大和大路東入二丁目轆轤町,開睛小中学校第二教育施設六原学舎,34.9975537,135.774315,
京都府,京都市,京都2区,東山区-5-4,東山区六波羅裏門通東入多門町,開睛小中学校,34.9962356,135.7741669,
京都府,京都市,京都2区,東山区-5-5,東山区門脇町,開睛小中学校,34.9958291,135.773278,
京都府,京都市,京都2区,東山区-5-6,東山区五条通大和大路東入梅林町576番地6,六原公園,34.9951633,135.7760958,
京都府,京都市,京都2区,東山区-6-1,東山区清水四丁目,きよみず公園,34.996672,135.7784632,
京都府,京都市,京都2区,東山区-6-2,東山区下河原通八坂鳥居前下る三丁目南町411,青龍寺,34.999095,135.7792867,
京都府,京都市,京都2区,東山区-6-3,東山区清水二丁目,清水坂公園,34.9963734,135.7802411,
京都府,京都市,京都2区,東山区-6-4,東山区東大路松原上る三丁目毘沙門町43番地の1,関西電力送配電株式会社祇園変電所,34.9996301,135.7768498,
京都府,京都市,京都2区,東山区-6-5,東山区清水二丁目,京都市清水坂観光駐車場,34.9963734,135.7802411,
京都府,京都市,京都2区,東山区-6-6,東山区清水二丁目,京都市清水坂観光駐車場,34.9963734,135.7802411,
京都府,京都市,京都2区,東山区-6-7,東山区清水五丁目130番地の6,東山区役所,34.9971485,135.776315,
京都府,京都市,京都2区,東山区-7-1,東山区鍵屋町,貞教会館,34.9950238,135.7587624,
京都府,京都市,京都2区,東山区-7-2,東山区本町三丁目,本町児童公園,34.9933697,135.7697227,
京都府,京都市,京都2区,東山区-7-3,東山区正面町326番地,鞘町ガレージ,34.9921296,135.768834,
京都府,京都市,京都2区,東山区-7-4,東山区正面通大和大路西入茶屋町,耳塚児童公園,34.9909127,135.7719447,
京都府,京都市,京都2区,東山区-7-5,東山区鞘町通正面下る上堀詰町272番地,京都美術工芸大学,34.991138,135.7681696,
京都府,京都市,京都2区,東山区-7-6,東山区茶屋町531番地,大仏殿跡緑地公園,34.9909127,135.7719447,
京都府,京都市,京都2区,東山区-7-7,東山区川端通七条上る下堀詰町257番地,京阪七条ガレージ,34.9901088,135.768176,
京都府,京都市,京都2区,東山区-8-1,東山区妙法院前側町446番地,京都国立博物館,34.99043899999999,135.7747791,
京都府,京都市,京都2区,東山区-8-2,東山区妙法院前側町446番地,京都国立博物館,34.99043899999999,135.7747791,
京都府,京都市,京都2区,東山区-8-3,東山区五条橋東二丁目,公益社中央ブライトホール西駐車場,34.9954042,135.7709819,
京都府,京都市,京都2区,東山区-8-4,東山区下新シ町339番地,大阪国税局京都分室,34.9940753,135.7725188,
京都府,京都市,京都2区,東山区-8-5,東山区今熊野北日吉町,京都女子大学付属小学校グラウンド,34.9897182,135.7790559,
京都府,京都市,京都2区,東山区-8-6,東山区渋谷通東大路東入三丁目上馬町,上下水道局馬町ポンプ場,34.9913855,135.7790559,
京都府,京都市,京都2区,東山区-8-7,東山区今熊野妙法院前側町,豊国神社駐車場,34.9904579,135.7752039,
京都府,京都市,京都2区,東山区-8-8,東山区東大路渋谷下る妙法院前側町441番地,東山総合支援学校,34.9920586,135.7753912,
京都府,京都市,京都2区,東山区-9-1,東山区鞘町通七条下る一橋宮ノ内町15番地の4,昭和保育園,34.988125,135.7690346,
京都府,京都市,京都2区,東山区-9-2,東山区本町八丁目102番地,山本方,34.9859549,135.7698278,
京都府,京都市,京都2区,東山区-9-3,東山区本町八丁目62番地,志田ガレージ,34.9872969,135.7694067,
京都府,京都市,京都2区,東山区-9-4,東山区一橋宮ノ内町,宮ノ内児童公園,34.9876196,135.7683896,
京都府,京都市,京都2区,東山区-9-5,東山区塩小路通大和大路東入三丁目本瓦町654番地,関西電力送配電株式会社大仏変電所,34.9867418,135.7729066,
京都府,京都市,京都2区,東山区-9-6,東山区一橋宮ノ内町,宮ノ内児童公園,34.9876196,135.7683896,
京都府,京都市,京都2区,東山区-10-1,東山区池田町,東山泉小中学校西学舎グラウンド,35.011564,135.7681489,
京都府,京都市,京都2区,東山区-10-2,東山区大和大路通七条下る五丁目下池田町527番地,東山泉小中学校西学舎,34.983657,135.7707612,
京都府,京都市,京都2区,東山区-10-3,東山区今熊野池田町12番地,大谷中学校・高等学校,34.9842898,135.7716187,
京都府,京都市,京都2区,東山区-10-4,東山区泉涌寺門前町29番地,長宗方,34.9830808,135.7726299,
京都府,京都市,京都2区,東山区-10-5,東山区今熊野池田町12番地,大谷中学校・高等学校,34.9842898,135.7716187,
京都府,京都市,京都2区,東山区-10-6,東山区今熊野池田町12番地,大谷中学校・高等学校,34.9842898,135.7716187,
京都府,京都市,京都2区,東山区-10-7,東山区本町十一丁目718番地,瀧尾神社,34.9825708,135.7706574,
京都府,京都市,京都2区,東山区-10-8,東山区泉涌寺雀ヶ森町15番地の1,愛友保育園,34.9803761,135.7737039,
京都府,京都市,京都2区,東山区-10-9,東山区泉涌寺雀ヶ森町,京都第一赤十字病院,34.982071,135.7735743,
京都府,京都市,京都2区,東山区-11-1,東山区泉涌寺東林町35番地の7,横山武司方ガレージ,34.9801694,135.7753983,
京都府,京都市,京都2区,東山区-11-2,東山区本町十七丁目325番地,天理教加名明分教会,34.9778573,135.7708843,
京都府,京都市,京都2区,東山区-11-3,東山区本町十五丁目749番地,京都第一赤十字病院,34.9765772,135.7740187,
京都府,京都市,京都2区,東山区-11-4,東山区本町十四丁目,エコステーション21東福寺駐輪場,34.9804063,135.7703893,
京都府,京都市,京都2区,東山区-11-5,東山区本町十五丁目789番地,東福寺月極駐車場,34.9801126,135.7709035,
京都府,京都市,京都2区,東山区-11-6,東山区福稲御所ノ内町,疏水用地,34.978158,135.7695746,
京都府,京都市,京都2区,東山区-11-7,東山区福稲下高松町,疏水用地,34.9736543,135.7685377,
京都府,京都市,京都2区,東山区-11-8,東山区福稲御所ノ内町,疏水用地,34.978158,135.7695746,
京都府,京都市,京都2区,東山区-11-9,東山区本町十九丁目400番地の5,丸正クリーニング,34.9746075,135.7709497,
京都府,京都市,京都2区,東山区-11-10,東山区福稲上高松町60番地,任天堂株式会社,34.9751723,135.7695593,
京都府,京都市,京都2区,東山区-12-1,東山区今熊野日吉町13番地の9,中西方,34.9861836,135.7788164,
京都府,京都市,京都2区,東山区-12-2,東山区今熊野日吉町48番地の34,今熊野児童館,34.9861222,135.7803557,
京都府,京都市,京都2区,東山区-12-3,東山区今熊野宝蔵町,宝蔵公園,34.9849003,135.7752039,
京都府,京都市,京都2区,東山区-12-4,東山区今熊野宝蔵町19番地,伊藤方,34.9850116,135.7753335,
京都府,京都市,京都2区,東山区-12-5,東山区今熊野南日吉町27番地の3,元今熊野小学校,34.9847932,135.77824,
京都府,京都市,京都2区,東山区-12-6,東山区今熊野剣宮町13番地,剣神社,34.9836174,135.7772224,
京都府,京都市,京都2区,東山区-12-7,東山区南日吉町,南日吉公園,34.9848445,135.7799448,
京都府,京都市,京都2区,東山区-12-8,東山区日吉町,元東山まち美化事務所,34.9889446,135.7679452,
京都府,京都市,京都2区,東山区-12-9,東山区今熊野南日吉町27番地の3,元今熊野小学校,34.9847932,135.77824,
京都府,京都市,京都2区,山科区-1-1,山科区日ノ岡朝田町49番地4,朝田公園,34.9988182,135.7967981,
京都府,京都市,京都2区,山科区-1-2,山科区御陵封ジ山町1番地75,封ジ山公園,34.9973472,135.8017231,
京都府,京都市,京都2区,山科区-1-3,山科区日ノ岡石塚町27番地,山田ガレージ,34.992245,135.8003955,
京都府,京都市,京都2区,山科区-1-4,山科区御陵岡ノ西町38番地23,岡ノ西公園,34.9915899,135.7991817,
京都府,京都市,京都2区,山科区-1-5,山科区御陵岡ノ西町,岡ノ西第二公園,34.9932926,135.7999509,
京都府,京都市,京都2区,山科区-1-6,山科区御陵原西町,地下鉄御陵駅(4番出入口),34.9963787,135.8033601,
京都府,京都市,京都2区,山科区-1-7,山科区御陵鴨戸町51番地7,御陵駅南自転車駐車場,34.9957108,135.8021178,
京都府,京都市,京都2区,山科区-1-8,山科区御陵岡町45番地,陵ヶ岡小学校,34.9927441,135.802971,
京都府,京都市,京都2区,山科区-2-1,山科区北花山横田町27番地1,花山中学校,34.9884803,135.8028784,
京都府,京都市,京都2区,山科区-2-2,山科区北花山中道町4番地,鎌田彰康方,34.9875055,135.7994135,
京都府,京都市,京都2区,山科区-2-3,山科区北花山市田町77番地4,市田公園,34.985623,135.7971822,
京都府,京都市,京都2区,山科区-2-4,山科区北花山大林町12番地,柳田ガレージ,34.9830796,135.7998026,
京都府,京都市,京都2区,山科区-2-5,山科区北花山大林町54番地4,北花山大林公園,34.9810894,135.7997956,
京都府,京都市,京都2区,山科区-2-6,山科区北花山大林町20番地1,(株)日本セルネット(西側大石道沿いフェンス),34.9839053,135.79968,
京都府,京都市,京都2区,山科区-3-1,山科区御陵血洗町18番地,鏡山小学校(南門横),34.9901802,135.80563,
京都府,京都市,京都2区,山科区-3-2,山科区西野八幡田町4番地,六兵ヱ池公園(西側),34.9879089,135.8059081,
京都府,京都市,京都2区,山科区-3-3,山科区厨子奥矢倉町11番地33,厨子奥公園,34.9890539,135.8067566,
京都府,京都市,京都2区,山科区-3-4,山科区西野八幡田町4番地,六兵ヱ池公園(南側),34.9879089,135.8059081,
京都府,京都市,京都2区,山科区-3-5,山科区御陵血洗町18番地,鏡山小学校(正門横),34.9901802,135.80563,
京都府,京都市,京都2区,山科区-4-1,山科区御陵別所町52番地7,別所公園,34.9944651,135.8077568,
京都府,京都市,京都2区,山科区-4-2,山科区御陵中筋町3番地,アヴェ・マリア幼稚園,34.9906862,135.8083185,
京都府,京都市,京都2区,山科区-4-3,山科区御陵中内町5番地,京都薬科大学(北側),34.9911651,135.8094083,
京都府,京都市,京都2区,山科区-4-4,山科区御陵中内町5番地,京都薬科大学(南側),34.9911651,135.8094083,
京都府,京都市,京都2区,山科区-4-5,山科区御陵中内町44番地,御陵市営住宅児童遊園,34.9892157,135.8085394,
京都府,京都市,京都2区,山科区-5-1,山科区勧修寺西北出町118番地,泉玉公園,34.9639774,135.8061558,
京都府,京都市,京都2区,山科区-5-2,山科区小野蚊ヶ瀬町2番地,小野小学校,34.9636727,135.8117547,
京都府,京都市,京都2区,山科区-5-3,山科区小野弓田町3番地,山科まち美化事務所,34.9649188,135.814854,
京都府,京都市,京都2区,山科区-5-4,山科区,早稲ノ内公園,34.9667667,135.8152204,
京都府,京都市,京都2区,山科区-5-5,山科区勧修寺風呂尻町137番地,風呂尻公園,34.9601519,135.8104759,
京都府,京都市,京都2区,山科区-5-6,山科区勧修寺東金ヶ崎,勧修寺公園(西側),34.9668398,135.8092899,
京都府,京都市,京都2区,山科区-5-7,山科区小野荘司町6番地4,小野荘司公園,34.9614739,135.8176486,
京都府,京都市,京都2区,山科区-5-8,山科区勧修寺平田町92番地,勧修中学校,34.9666928,135.8122715,
京都府,京都市,京都2区,山科区-5-9,山科区勧修寺東金ヶ崎,勧修寺公園(北東側),34.9668398,135.8092899,
京都府,京都市,京都2区,山科区-6-1,山科区安朱北屋敷町9番地,安朱保育園,34.9915055,135.8185824,
京都府,京都市,京都2区,山科区-6-2,山科区安朱馬場ノ東町46番地2,安朱広場,34.9969726,135.8198765,
京都府,京都市,京都2区,山科区-6-3,山科区竹鼻竹ノ街道町,ラクトB(駐輪場出入口),34.9899784,135.8155169,
京都府,京都市,京都2区,山科区-6-4,山科区安朱中小路町15番地4,交通局山科設備事務所,34.9929955,135.8176382,
京都府,京都市,京都2区,山科区-6-5,山科区安朱山川町17番地,安朱小学校,34.9962343,135.8183052,
京都府,京都市,京都2区,山科区-6-6,山科区安朱南屋敷町34番地,ラクト山科公園,34.990845,135.8178215,
京都府,京都市,京都2区,山科区-6-7,山科区安朱北屋敷町2番地,林恭裕方,34.9917118,135.8194278,
京都府,京都市,京都2区,山科区-7-1,山科区四ノ宮岩久保町11番地,(株)砂崎製作所(駐車場フェンス),34.992318,135.8252073,
京都府,京都市,京都2区,山科区-7-2,山科区四ノ宮岩久保町21番地4,河村ハイツ,34.9916572,135.8257604,
京都府,京都市,京都2区,山科区-7-3,山科区四ノ宮神田町7番地1,科研製薬(株)京都事業所,34.9898615,135.8213019,
京都府,京都市,京都2区,山科区-7-4,山科区音羽八ノ坪5番地,宇野美津子方,34.9876919,135.824755,
京都府,京都市,京都2区,山科区-7-5,山科区音羽森廻り町32番地,音羽小学校(西側),34.9855714,135.8260176,
京都府,京都市,京都2区,山科区-7-6,山科区音羽森廻り町32番地,音羽小学校(南側),34.9855714,135.8260176,
京都府,京都市,京都2区,山科区-8-1,山科区四ノ宮神田町26番地,四ノ宮さくら広場,34.9894948,135.8228575,
京都府,京都市,京都2区,山科区-8-2,山科区竹鼻木ノ本町2番地7,木ノ本公園,34.9878444,135.8211148,
京都府,京都市,京都2区,山科区-8-3,山科区音羽役出町5番地11,音羽ガレージ,34.9852733,135.8179831,
京都府,京都市,京都2区,山科区-8-4,山科区音羽千本町18番地1,音羽千本市営住宅,34.9831403,135.8234144,
京都府,京都市,京都2区,山科区-8-5,山科区音羽森廻り町,音羽市営住宅(南側),34.9858423,135.8241175,
京都府,京都市,京都2区,山科区-8-6,山科区音羽西林36番地,音羽川小学校,34.9830653,135.8213648,
京都府,京都市,京都2区,山科区-8-7,山科区音羽前出町10番地,関厚志方,34.9874699,135.8224677,
京都府,京都市,京都2区,山科区-8-8,山科区竹鼻立原町5番地61,立原公園,34.9883255,135.8207111,
京都府,京都市,京都2区,山科区-9-1,山科区竹鼻堂ノ前町41番地1,関西電力送配電(株)山科変電所(東側),34.9865847,135.8171213,
京都府,京都市,京都2区,山科区-9-2,山科区竹鼻堂ノ前町40番地,ハウスセゾン京都山科,34.9866466,135.8176887,
京都府,京都市,京都2区,山科区-9-3,山科区西野今屋敷町9番地,安祥寺中学校(西校舎北側),34.9860876,135.812848,
京都府,京都市,京都2区,山科区-9-4,山科区竹鼻四丁野町42番地1,京都市山階児童館,34.9859604,135.8153163,
京都府,京都市,京都2区,山科区-9-5,山科区西野今屋敷町9番地,安祥寺中学校(北東側),34.9860876,135.812848,
京都府,京都市,京都2区,山科区-9-6,山科区西野大手先町21番地,山階小学校,34.9837701,135.8131138,
京都府,京都市,京都2区,山科区-9-7,山科区御陵四丁野町,京都薬科大学(南校舎北側),34.9882109,135.812255,
京都府,京都市,京都2区,山科区-9-8,山科区西野安芸沢町1番地10,山科中央公園,33.5025379,133.9071048,
京都府,京都市,京都2区,山科区-9-9,山科区御陵四丁野町,京都薬科大学(南校舎西側),34.9882109,135.812255,
京都府,京都市,京都2区,山科区-10-1,山科区西野左義長町16番地8,左義長公園,34.98051969999999,135.8085579,
京都府,京都市,京都2区,山科区-10-2,山科区東野八代7番地2,西野公園,34.978036,135.807761,
京都府,京都市,京都2区,山科区-10-3,山科区西野左義長町39番地,洛東タクシー駐車場,34.9797671,135.8093508,
京都府,京都市,京都2区,山科区-10-4,山科区東野八代73番地3,東野八代公園,34.9756946,135.8059821,
京都府,京都市,京都2区,山科区-10-5,山科区東野竹田6番地2,東野竹田公園,34.9760798,135.8039531,
京都府,京都市,京都2区,山科区-10-6,山科区東野八代10番地,山階南小学校(南側),34.97722419999999,135.8080761,
京都府,京都市,京都2区,山科区-10-7,山科区東野八代10番地,山階南小学校(東側),34.97722419999999,135.8080761,
京都府,京都市,京都2区,山科区-10-8,山科区西野櫃川町58番地6,櫃川公園,34.9799272,135.8031694,
京都府,京都市,京都2区,山科区-10-9,山科区東野舞台町67番地2,東野舞台町公園,34.9745321,135.809049,
京都府,京都市,京都2区,山科区-11-1,山科区東野孤藪町20番地,東野公園北(北側),34.9812532,135.8164762,
京都府,京都市,京都2区,山科区-11-2,山科区東野八反畑町,東野公園(南西側),34.9766918,135.8107724,
京都府,京都市,京都2区,山科区-11-3,山科区東野八反畑町50番地1,山科中学校,34.9767614,135.8104111,
京都府,京都市,京都2区,山科区-11-4,山科区西野山階町1番地,進藤房枝方,34.9798206,135.8101018,
京都府,京都市,京都2区,山科区-11-5,山科区東野百拍子町35番地,佛光寺旧址,34.9780335,135.8143771,
京都府,京都市,京都2区,山科区-11-6,山科区東野片下リ町41番地15,東野片下リ公園,34.9803303,135.8152996,
京都府,京都市,京都2区,山科区-12-1,山科区西野櫃川町34番地,西野小学校(北東側),34.9823153,135.8033899,
京都府,京都市,京都2区,山科区-12-2,山科区西野野色町15番地8,西野野色第二公園,34.9854193,135.8047184,
京都府,京都市,京都2区,山科区-12-3,山科区,山科市営住宅(3棟東),34.98549879999999,135.8110456,
京都府,京都市,京都2区,山科区-12-4,山科区西野今屋敷町2番地15,今屋敷公園,34.9860366,135.812149,
京都府,京都市,京都2区,山科区-12-5,山科区西野櫃川町34番地,西野小学校(正門横),34.9823153,135.8033899,
京都府,京都市,京都2区,山科区-12-6,山科区西野広見町35番地,吉井匡方,34.9820599,135.8075136,
京都府,京都市,京都2区,山科区-12-7,山科区西野野色町115番地4,西野野色公園,34.9851037,135.8048425,
京都府,京都市,京都2区,山科区-12-8,山科区西野野色町60番地,野色ガレージ,34.9851037,135.8048425,
京都府,京都市,京都2区,山科区-13-1,山科区音羽珍事町99番地,芝本清方,34.9892883,135.8330077,
京都府,京都市,京都2区,山科区-13-2,山科区大塚檀ノ浦19番地15,檀ノ浦南公園,34.9745533,135.8253548,
京都府,京都市,京都2区,山科区-13-3,山科区小山谷田町44番地6,谷田公園,34.9856361,135.8376589,
京都府,京都市,京都2区,山科区-13-4,山科区音羽珍事町607番地,音羽病院(南側),34.987235,135.8302931,
京都府,京都市,京都2区,山科区-13-5,山科区小山南溝町39番地15,南溝公園,34.9835922,135.8319174,
京都府,京都市,京都2区,山科区-13-6,山科区大塚野溝町59番地,大塚小学校(正門横),34.9830481,135.8299116,
京都府,京都市,京都2区,山科区-13-7,山科区大塚高岩7番地27,高岩公園,34.9812172,135.8317332,
京都府,京都市,京都2区,山科区-13-8,山科区大塚南溝町30番地5,大塚南溝公園,34.9784912,135.8242193,
京都府,京都市,京都2区,山科区-13-9,山科区大塚南溝町3番地,妙見寺,34.9783162,135.827408,
京都府,京都市,京都2区,山科区-13-10,山科区大塚檀ノ浦28番地22,檀ノ浦公園,34.9756721,135.8244512,
京都府,京都市,京都2区,山科区-13-11,山科区大塚高岩1番地15,大塚公園,34.9786696,135.8278586,
京都府,京都市,京都2区,山科区-13-12,山科区大塚野溝町86番地,音羽中学校,34.9824989,135.8275278,
京都府,京都市,京都2区,山科区-13-13,山科区大塚野溝町59番地,大塚小学校(南側),34.9830481,135.8299116,
京都府,京都市,京都2区,山科区-14-1,山科区,京都橘大学(駐輪場),34.9678054,135.8211516,
京都府,京都市,京都2区,山科区-14-2,山科区,御所田公園,34.9723408,135.8266757,
京都府,京都市,京都2区,山科区-14-3,山科区,辻脇公園,34.9702961,135.8185771,
京都府,京都市,京都2区,山科区-14-4,山科区東野南井ノ上町15番地2,府営住宅山科東野団地公園,34.9768289,135.8219023,
京都府,京都市,京都2区,山科区-14-5,山科区,大宅市営住宅(東側),34.97386210000001,135.821856,
京都府,京都市,京都2区,山科区-14-6,山科区,masked,34.9742106,135.824238,
京都府,京都市,京都2区,山科区-14-7,山科区,大宅市営住宅(西側),34.97386210000001,135.821856,
京都府,京都市,京都2区,山科区-14-8,山科区,masked,34.97318,135.8250073,
京都府,京都市,京都2区,山科区-14-9,山科区,masked,34.97386210000001,135.821856,
京都府,京都市,京都2区,山科区-14-10,山科区椥辻中在家町28番地428,椥辻中在家公園,34.974094,135.8190802,
京都府,京都市,京都2区,山科区-14-11,山科区,甲ノ辻公園,34.9686617,135.8193721,
京都府,京都市,京都2区,山科区-15-1,山科区椥辻封シ川町10番地2,椥辻西市営住宅,34.9741565,135.8100851,
京都府,京都市,京都2区,山科区-15-2,山科区椥辻草海道町35番地1,草海道公園,34.9719233,135.8179404,
京都府,京都市,京都2区,山科区-15-3,山科区椥辻西浦町1番地8,東部文化会館,34.9763537,135.814013,
京都府,京都市,京都2区,山科区-15-4,山科区椥辻池尻町14番地2,山科区役所(南側),34.9722545,135.8137202,
京都府,京都市,京都2区,山科区-15-5,山科区椥辻草海道町36番地14,椥辻市営住宅(北側),34.9707121,135.815519,
京都府,京都市,京都2区,山科区-15-6,山科区椥辻草海道町,地下鉄椥辻駅(2番出入口),34.9727266,135.8167031,
京都府,京都市,京都2区,山科区-15-7,山科区,椥辻市営住宅(南側),34.9709221,135.81618,
京都府,京都市,京都2区,山科区-15-8,山科区椥辻池尻町14番地2,山科区役所(西側),34.9722545,135.8137202,
京都府,京都市,京都2区,山科区-15-9,山科区椥辻西浦町41番地108,椥辻西浦公園,34.9748327,135.8133991,
京都府,京都市,京都2区,山科区-16-1,山科区栗栖野打越町17番地,京都市勧修老人デイサービスセンター,34.9718798,135.8077386,
京都府,京都市,京都2区,山科区-16-2,山科区西野山中臣町,中臣公園,34.9712183,135.8036566,
京都府,京都市,京都2区,山科区-16-3,山科区栗栖野打越町17番地13,打越公園,34.9718798,135.8077386,
京都府,京都市,京都2区,山科区-16-4,山科区西野山中臣町20番地,福田金属箔粉工業(株),34.9716903,135.8024758,
京都府,京都市,京都2区,山科区-16-5,山科区勧修寺西栗栖野町303番地,西金ヶ崎公園(南側),34.9691225,135.8057736,
京都府,京都市,京都2区,山科区-16-6,山科区勧修寺東栗栖野町42番地,勧修小学校(東側),34.9699761,135.8082923,
京都府,京都市,京都2区,山科区-16-7,山科区勧修寺東栗栖野町46番地,坂ノ上田村麻呂公園,34.9699055,135.8086969,
京都府,京都市,京都2区,山科区-16-8,山科区勧修寺東栗栖野町42番地,勧修小学校(西門),34.9699761,135.8082923,
京都府,京都市,京都2区,山科区-17-1,山科区西野山中鳥井町132番地80,中鳥井南公園,34.9684673,135.8014499,
京都府,京都市,京都2区,山科区-17-2,山科区勧修寺柴山8番地160,柴山西公園,34.9678547,135.8029735,
京都府,京都市,京都2区,山科区-17-3,山科区勧修寺堂田13番地1,西野山市営住宅2棟,34.9670828,135.8045375,
京都府,京都市,京都2区,山科区-17-4,山科区勧修寺柴山8番地163,柴山東公園,34.9678547,135.8029735,
京都府,京都市,京都2区,山科区-17-5,山科区勧修寺西金ヶ崎26番地1,西野山市営住宅集会所,34.9677025,135.8047137,
京都府,京都市,京都2区,山科区-17-6,山科区勧修寺堂田13番地1,西野山市営住宅12棟,34.9670828,135.8045375,
京都府,京都市,京都2区,山科区-18-1,山科区川田清水焼団地町9番地1,清水焼団地公園,34.9793307,135.7949492,
京都府,京都市,京都2区,山科区-18-2,山科区川田土仏2番地12,川田土仏第二公園,34.9799966,135.7966917,
京都府,京都市,京都2区,山科区-18-3,山科区川田前畑町20番地1,川田公園,34.9807399,135.8011274,
京都府,京都市,京都2区,山科区-18-4,山科区川田菱尾田17番地132,菱尾田公園,34.9775344,135.7986169,
京都府,京都市,京都2区,山科区-18-5,山科区西野山百々町173番地1,百々小学校(運動場),34.9768885,135.7960958,
京都府,京都市,京都2区,山科区-18-6,山科区西野山射庭ノ上町192番地5,西射庭ノ上公園,34.9737825,135.7975977,
京都府,京都市,京都2区,山科区-18-7,山科区西野山百々町173番地1,百々小学校(北西側),34.9768885,135.7960958,
京都府,京都市,京都2区,山科区-18-8,山科区西野山中鳥井町40番地24,中鳥井公園,34.9695362,135.7984736,
京都府,京都市,京都2区,山科区-18-9,山科区上花山桜谷65番地42,桜谷第二公園,34.9836602,135.7952494,
京都府,京都市,京都2区,山科区-18-10,山科区西野山南畑町14番地5,西野山南畑公園,34.9771421,135.8023225,
京都府,京都市,京都2区,山科区-19-1,山科区四ノ宮小金塚1番地7,小金塚集会所,35.0016289,135.8326269,
京都府,京都市,京都2区,山科区-19-2,山科区四ノ宮小金塚1番地29,第一ハイツハタ,35.0019887,135.8336423,
京都府,京都市,京都2区,山科区-19-3,山科区四ノ宮小金塚8番地511,中井医院,34.9992471,135.8340208,
京都府,京都市,京都2区,山科区-19-4,山科区四ノ宮小金塚8番地393,八木藤彦方,34.9996142,135.8350465,
京都府,京都市,京都2区,山科区-20-1,山科区厨子奥花鳥町,九条山横断歩道(西側),35.0039146,135.7888354,
京都府,京都市,京都2区,山科区-20-2,山科区御陵岡ノ西町,京阪バス九条山バス停(東側),34.9932926,135.7999509,
京都府,京都市,京都2区,山科区-21-1,山科区東野門口町13番地1,山科ハイツ,34.9797168,135.8163324,
京都府,京都市,京都2区,山科区-21-2,山科区東野中井ノ上町15番地,東野市営住宅(北西側),34.97995,135.8206544,
京都府,京都市,京都2区,山科区-21-3,山科区東野八反畑町19番地,京都刑務所職員宿舎(北西側),34.9778116,135.8169308,
京都府,京都市,京都2区,山科区-21-4,山科区東野井ノ上町22番地,京都刑務所職員宿舎(北東側),34.9777435,135.8186453,
京都府,京都市,京都2区,山科区-21-5,山科区東野中井ノ上町15番地,東野市営住宅(東側),34.97995,135.8206544,
京都府,京都市,京都2区,山科区-21-6,山科区東野中井ノ上町17番地2,東野市営住宅(南側),34.9789275,135.8206291,
京都府,京都市,京都2区,山科区-21-7,山科区椥辻中在家町23番地,京都刑務所,34.9745241,135.8166292,
