prefecture,city,number,address,name,lat,long,note
兵庫県,たつの市,1,新宮町奥小屋,旧県道入口付近ガードレール,34.9907353,134.4983747,緯度経度は怪しい
兵庫県,たつの市,2,新宮町牧,河内神社北側土地改良事業記念石碑横ガードパイプ,34.9773524,134.4889469,緯度経度は怪しい
兵庫県,たつの市,3,新宮町牧,沢ノ口猪ノ谷橋北ゴミステーション南横,34.9773524,134.4889469,緯度経度は怪しい
兵庫県,たつの市,4,新宮町時重,時重公民館前ガードレール,34.9621813,134.4665485,
兵庫県,たつの市,5,新宮町鍛冶屋,相坂橋北側市道ガードパイプ,34.9561368,134.4724438,緯度経度は怪しい
兵庫県,たつの市,6,新宮町鍛冶屋,藤綱幸巳氏宅横ガードレール,34.9561368,134.4724438,緯度経度は怪しい
兵庫県,たつの市,7,新宮町栗町,栗町公民館前ガードパイプ,34.9339551,134.4724438,緯度経度は怪しい
兵庫県,たつの市,8,新宮町栗町,第一田幸橋西側ガードレール,34.9339551,134.4724438,緯度経度は怪しい
兵庫県,たつの市,9,新宮町下筋原,下筋原公民館前ガードレール,34.9210263,134.5465684,緯度経度は怪しい
兵庫県,たつの市,10,新宮町上筋原,南尾花橋北側市道端(野立),34.9191648,134.5525475,緯度経度は怪しい
兵庫県,たつの市,11,新宮町光都,西播磨学生寮進入路植込,34.94473,134.4394203,緯度経度は怪しい
兵庫県,たつの市,12,新宮町光都,光都南公園前植込(野立),34.94473,134.4394203,緯度経度は怪しい
兵庫県,たつの市,13,新宮町角亀,角亀公民館南側掲示板横(野立),34.9272542,134.4677276,緯度経度は怪しい
兵庫県,たつの市,14,新宮町二柏野,水道ポンプ場フェンス,34.9211182,134.4641901,緯度経度は怪しい
兵庫県,たつの市,15,新宮町千本,グラウンドフェンス(農村広場),34.9507444,134.4889469,緯度経度は怪しい
兵庫県,たつの市,16,新宮町千本,旧堀田医院北側県道法面(野立),34.9507444,134.4889469,緯度経度は怪しい
兵庫県,たつの市,17,新宮町福栖,警鐘台前空地(野立),34.9431758,134.5101567,
兵庫県,たつの市,18,新宮町能地,旧東栗栖幼稚園西側ガードレール,34.9360013,134.5136907,
兵庫県,たつの市,19,新宮町大屋,大屋公民館入口フェンス,34.923347,134.5242912,緯度経度は怪しい
兵庫県,たつの市,20,新宮町善定,善定公民館前道路脇(野立),34.9109084,134.4983747,緯度経度は怪しい
兵庫県,たつの市,21,新宮町平野,平野公民館前フェンス,34.9300413,134.5290018,緯度経度は怪しい
兵庫県,たつの市,22,新宮町香山,旧兵庫西農協香島支店前ガードパイプ,34.9589807,134.5431306,
兵庫県,たつの市,23,新宮町香山,河津文雄氏宅北側ガードパイプ,34.9589807,134.5431306,
兵庫県,たつの市,24,新宮町篠首,谷口英起氏宅北側農地(野立),34.959948,134.5266466,緯度経度は怪しい
兵庫県,たつの市,25,新宮町篠首,才樫橋東三差路県道法面(野立),34.959948,134.5266466,緯度経度は怪しい
兵庫県,たつの市,26,新宮町吉島,ローソン新宮吉島店南側法面(野立),34.939074,134.5478393,
兵庫県,たつの市,27,新宮町上笹1区,香島橋東側県道ガードパイプ,34.94801940000001,134.5572552,緯度経度は怪しい
兵庫県,たつの市,28,新宮町上笹3区,上笹会館フェンス,34.94801940000001,134.5572552,緯度経度は怪しい
兵庫県,たつの市,29,新宮町上笹2区,上笹2区公民館フェンス,34.94801940000001,134.5572552,緯度経度は怪しい
兵庫県,たつの市,30,新宮町下笹,ささ営農南市道ガードレール,34.9392344,134.5666693,
兵庫県,たつの市,31,新宮町西町,駅前農協駐車場入口フェンス,34.9191648,134.5525475,緯度経度は怪しい
兵庫県,たつの市,32,新宮町北新町,八木たばこ店前市道ガードパイプ,34.9191648,134.5525475,緯度経度は怪しい
兵庫県,たつの市,33,新宮町北新町,喫茶アモール東側進藤組空地南,34.9191648,134.5525475,緯度経度は怪しい
兵庫県,たつの市,34,新宮町元町,新宮中央公民館駐車場植込(野立),34.9191648,134.5525475,緯度経度は怪しい
兵庫県,たつの市,35,新宮町元町,市立新宮公民館西側石彫前植込,34.9191648,134.5525475,緯度経度は怪しい
兵庫県,たつの市,36,新宮町東町,東町県営住宅南側フェンス,34.9191648,134.5525475,緯度経度は怪しい
兵庫県,たつの市,37,新宮町浦町,松本歯科東側ガードレール,34.9210263,134.5465684,緯度経度は怪しい
兵庫県,たつの市,38,新宮町新宮立町,西兵庫信用金庫新宮支店南側フェンス,34.9191648,134.5525475,緯度経度は怪しい
兵庫県,たつの市,39,新宮町芝田,塩谷晃正氏宅ブロック塀,34.9173872,134.5395988,
兵庫県,たつの市,40,新宮町下野,下野公民館前市道ガードパイプ,34.9264204,134.5584321,
兵庫県,たつの市,41,新宮町下野,瀧岡理容所南側市道ガードパイプ,34.9264204,134.5584321,
兵庫県,たつの市,42,新宮町宮内,新宮総合支所東側駐車場入口付近歩道法面(野立),34.9323832,134.5431306,
兵庫県,たつの市,43,新宮町宮内,米谷紙管製造(株)前市道ガードレール,34.9323832,134.5431306,
兵庫県,たつの市,44,新宮町砂子,西兵庫信用金庫研修所植込(野立),34.912875,134.54962,緯度経度は怪しい
兵庫県,たつの市,45,新宮町井野原,龍野方面行バス停脇(井野原バス停),34.9086027,134.5490164,
兵庫県,たつの市,46,新宮町井野原,白井食品前堤防(野立),34.9086027,134.5490164,
兵庫県,たつの市,47,新宮町曽我井,曽我井橋東詰南市道ガードレール,34.9081217,134.5572552,緯度経度は怪しい
兵庫県,たつの市,48,新宮町船渡,越部小学校校門脇フェンス,34.8949946,134.5460736,
兵庫県,たつの市,49,新宮町北村,北村親水公園北側道路脇(野立),34.89977590000001,134.5537245,
兵庫県,たつの市,50,新宮町苅崎,16分団消防車庫北側道路水路沿(野立),34.9191648,134.5525475,緯度経度は怪しい
兵庫県,たつの市,51,新宮町苅崎,市営苅崎住宅2号棟北側市道脇(野立),34.9191648,134.5525475,緯度経度は怪しい
兵庫県,たつの市,52,新宮町佐野,藤本たみ子氏南側空地(野立),34.8875154,134.5466622,緯度経度は怪しい
兵庫県,たつの市,53,新宮町下野田,亀山会館広場東側植込(野立),34.8918641,134.5372441,緯度経度は怪しい
兵庫県,たつの市,54,新宮町馬立,土井康裕氏宅東側ガードパイプ,34.9012572,134.5337119,
兵庫県,たつの市,55,新宮町仙正,仙正児童遊園前市道ガードパイプ,34.9016471,134.5460736,
兵庫県,たつの市,56,新宮町段之上,段之上公園東側フェンス,34.9085604,134.5443078,
兵庫県,たつの市,57,新宮町段之上,段之上会館フェンス,34.9085604,134.5443078,
兵庫県,たつの市,58,新宮町段之上,表口勝彦氏方北側ブロック塀,34.9085604,134.5443078,
兵庫県,たつの市,59,新宮町市野保,市野保広場南入口西フェンス,34.9100415,134.5242912,緯度経度は怪しい
兵庫県,たつの市,60,龍野町北龍野,北龍野国道交差点南側,34.8747295,134.5431306,
兵庫県,たつの市,61,龍野町新町,新町公園板塀南側,34.782717,134.563615,緯度経度は怪しい
兵庫県,たつの市,62,龍野町門の外,善龍寺駐車場フェンス,34.8694405,134.5482807,
兵庫県,たつの市,63,龍野町下霞城,芝生広場北側フェンス,34.8662475,134.5404818,
兵庫県,たつの市,64,龍野町上霞城,龍野小学校北東石垣(道路側溝上)(野立),34.8676729,134.5446021,
兵庫県,たつの市,65,龍野町下霞城,常照寺前ガードレール,34.8662475,134.5404818,
兵庫県,たつの市,66,龍野町水神町,水神社東側玉垣,34.8663254,134.5487221,
兵庫県,たつの市,67,龍野町大手,ヒガシマル別館カルチャールーム柵,34.8665749,134.5457793,
兵庫県,たつの市,68,龍野町本町,たつの市立龍野図書館前植込(野立),34.8640626,134.5440135,
兵庫県,たつの市,69,龍野町本町,日山児童公園西面フェンス,34.8640626,134.5440135,
兵庫県,たつの市,70,龍野町川原町,観光駐車場バス停横(野立),34.8634251,134.5444306,
兵庫県,たつの市,71,龍野町日山河原,圓尾光氏宅柵,34.8619409,134.5395988,
兵庫県,たつの市,72,龍野町日山,粒坐天照神社参道前西側ガードレール,34.8619409,134.5395988,
兵庫県,たつの市,73,龍野町日山山下,兵庫県立龍野高等学校西門ガードレール,34.8619409,134.5395988,
兵庫県,たつの市,74,龍野町日山,青木章代氏宅前ガードパイプ,34.8619409,134.5395988,
兵庫県,たつの市,75,龍野町日飼,たつの市立小宅小学校北側フェンス,34.8687289,134.5537245,
兵庫県,たつの市,76,龍野町日飼,たつの市立龍野東中学校南面グラウンドフェンス,34.8687289,134.5537245,
兵庫県,たつの市,77,龍野町島田,島田公園フェンス,34.8770786,134.5572552,緯度経度は怪しい
兵庫県,たつの市,78,龍野町島田,コープエコー東側ガードパイプ,34.8770786,134.5572552,緯度経度は怪しい
兵庫県,たつの市,79,龍野町上富永,三木製材所西側(揖保川左岸)堤防,34.8642254,134.5519435,緯度経度は怪しい
兵庫県,たつの市,80,龍野町片山,たつの市立小宅北こども園東側フェンス,34.866033,134.5619625,
兵庫県,たつの市,81,龍野町片山,宇野正員氏宅前ガードレール,34.866033,134.5619625,
兵庫県,たつの市,82,龍野町中村,JR本竜野駅東ロータリーガードパイプ,34.8599007,134.5584321,
兵庫県,たつの市,83,龍野町中井,ナガセケムテックス(株)播磨事務所前交差点北側ガードレール,34.8639451,134.5760814,
兵庫県,たつの市,84,龍野町中井,桂信二氏宅南側農地(野立),34.8639451,134.5760814,
兵庫県,たつの市,85,龍野町中井奥垣内,岸本光生氏宅前ガードパイプ,34.8639451,134.5760814,
兵庫県,たつの市,86,龍野町本竜野,JR本竜野駅バス停フェンス,34.8627865,134.5552759,緯度経度は怪しい
兵庫県,たつの市,87,龍野町堂本,NTT西日本(株)兵庫支店龍野別館フェンス,34.85542,134.5537245,
兵庫県,たつの市,88,龍野町堂本,株式会社　高田商店北側フェンス,34.85542,134.5537245,
兵庫県,たつの市,89,龍野町中村,旧市立小宅保育所西側道路ガードパイプ,34.8599007,134.5584321,
兵庫県,たつの市,90,龍野町宮脇,宮脇交差点東南側植込(野立),34.8557693,134.5613741,
兵庫県,たつの市,91,龍野町堂本,消防団車庫南側道路ガードパイプ,34.85542,134.5537245,
兵庫県,たつの市,92,龍野町堂本,アネックス堂本正面農地(野立),34.85542,134.5537245,
兵庫県,たつの市,93,龍野町宮脇,小宅神社南側農地(野立),34.8557693,134.5613741,
兵庫県,たつの市,94,龍野町富永3丁目,サニーハウスⅠ前市道ガードレール,34.8586805,134.5466622,
兵庫県,たつの市,95,龍野町富永3丁目,大東インターナショナル(株)向側防護柵,34.8586805,134.5466622,
兵庫県,たつの市,96,龍野町富永3丁目,コーポさくらんぼ南側ガードパイプ,34.8586805,134.5466622,
兵庫県,たつの市,97,龍野町富永3丁目,中川原グラウンド南側入口(野立),34.8586805,134.5466622,
兵庫県,たつの市,98,龍野町富永3丁目,たつの市はつらつセンター東側ガードパイプ,34.8586805,134.5466622,
兵庫県,たつの市,99,龍野町富永4丁目,たつの警察署北側市道ガードパイプ,34.8529496,134.5458594,緯度経度は怪しい
兵庫県,たつの市,100,龍野町富永4丁目,赤とんぼ文化ホール東側出入口(北電柱横)(野立),34.8529496,134.5458594,緯度経度は怪しい
兵庫県,たつの市,101,龍野町大道,尾西自動車西側ガードパイプ,34.8475424,134.5419534,
兵庫県,たつの市,102,揖西町中垣内,浅野和枝氏宅ブロック塀,34.8933403,134.5172245,緯度経度は怪しい
兵庫県,たつの市,103,揖西町新宮,新成橋南交差点ガードレール,34.8676643,134.5007313,
兵庫県,たつの市,104,揖西町構,構公園東側フェンス,34.8572279,134.5113347,緯度経度は怪しい
兵庫県,たつの市,105,揖西町町井,裏池西側ガードレール (位置情報が見つかりませんでした),34.8572279,134.5113347,緯度経度は怪しい
兵庫県,たつの市,106,揖西町北山,北山公民館東側フェンス,34.8475475,134.5142797,
兵庫県,たつの市,107,揖西町竹万,JA兵庫西揖西支店倉庫西側前池ガードレール,34.8483504,134.5113347,
兵庫県,たつの市,108,揖西町竹万,竹万橋西側ガードパイプ,34.8483504,134.5113347,
兵庫県,たつの市,109,揖西町前地,前地公民館西側ガードレール,34.8473112,134.5184023,
兵庫県,たつの市,110,揖西町住吉,農業構造改善センター前公園フェンス,34.8516087,134.5042661,
兵庫県,たつの市,111,揖西町中垣内,県道姫路上郡線景雲寺谷池南側ガードパイプ,34.8933403,134.5172245,緯度経度は怪しい
兵庫県,たつの市,112,揖西町中垣内,江藤康弘氏宅北側農地(野立),34.8933403,134.5172245,緯度経度は怪しい
兵庫県,たつの市,113,揖西町みどり野,糸山健治氏宅向側重蓮寺池西側フェンス (位置情報が見つかりませんでした),34.8572279,134.5113347,緯度経度は怪しい
兵庫県,たつの市,114,揖西町清水,竹中サッシ販売店西側路肩(野立),34.852929,134.5254689,
兵庫県,たつの市,115,揖西町佐江,佐江公民館前自治会管理地(野立),34.8495772,134.5231135,
兵庫県,たつの市,116,揖西町小神,内海恭彦氏宅東側山下池ガードレール,34.8640691,134.5301793,緯度経度は怪しい
兵庫県,たつの市,117,揖西町小神,龍野西ビル向側駐車場フェンス,34.8640691,134.5301793,緯度経度は怪しい
兵庫県,たつの市,118,揖西町小犬丸,小犬丸農業構造改善センター南側フェンス,34.86199750000001,134.4889469,緯度経度は怪しい
兵庫県,たつの市,119,揖西町北沢,北沢公民館南自治会所有地フェンス,34.8515612,134.499553,
兵庫県,たつの市,120,揖西町尾崎,尾崎公園東側フェンス,34.8460834,134.5066224,
兵庫県,たつの市,121,揖西町小畑,長谷川豊文氏所有地ブロック塀,34.8437679,134.4971963,
兵庫県,たつの市,122,揖西町長尾,長尾農村広場北側ガードレール,34.8498125,134.491304,緯度経度は怪しい
兵庫県,たつの市,123,揖西町竹原,竹原公民館向側土手(野立),34.8386633,134.4865897,
兵庫県,たつの市,124,揖西町土師,ウエスト・ガーデン北側ガードパイプ,34.8326676,134.4971963,緯度経度は怪しい
兵庫県,たつの市,125,揖西町竹原南山,松本華子氏宅向側ガードパイプ,34.8386633,134.4865897,
兵庫県,たつの市,126,揖西町龍子,吉田光明氏向側歩道防護柵,34.839472,134.5113347,
兵庫県,たつの市,127,揖保町山下,ふれあい広場フェンス,34.8420182,134.5443078,
兵庫県,たつの市,128,揖保町中臣,佐用正清氏納屋南側農地(野立),34.8364939,134.5466622,
兵庫県,たつの市,129,揖保町中臣,生内秀明氏宅前農地(野立),34.8364939,134.5466622,
兵庫県,たつの市,130,揖保町中臣,佐用吉勝氏宅北側ガードパイプ,34.8364939,134.5466622,
兵庫県,たつの市,131,揖保町中臣,中臣交差点西南側納屋横農地(野立),34.8364939,134.5466622,
兵庫県,たつの市,132,揖保町揖保上,揖保車輌中古車センター西側倉庫前(野立),34.83640159999999,134.5372441,
兵庫県,たつの市,133,揖保町揖保中,揖保中公民館東側農地(野立),34.8308302,134.5348893,
兵庫県,たつの市,134,揖保町門前,荒神社フェンス,34.832102,134.5513705,緯度経度は怪しい
兵庫県,たつの市,135,揖保町西構,旧揖保幼稚園南側ガードパイプ,34.8297905,134.5419534,緯度経度は怪しい
兵庫県,たつの市,136,揖保町西構,NTT西日本(株)西構別館東側フェンス,34.8297905,134.5419534,緯度経度は怪しい
兵庫県,たつの市,137,揖保町東用,令和跨線橋南側交差点 北東側ガードパイプ,34.8198739,134.5490164,
兵庫県,たつの市,138,揖保町萩原,萩原公民館東側フェンス,34.8154353,134.5490164,
兵庫県,たつの市,139,揖保町今市,株式会社レゾナック龍野事業所前ガードレール,34.8230858,134.5372441,
兵庫県,たつの市,140,揖保町栄,崇道神社境内地(野立),34.8265314,134.5490164,
兵庫県,たつの市,141,揖保町松原,シンヤ工業所駐車場南側堤防(野立),34.8254911,134.5560784,
兵庫県,たつの市,142,揖保町松原,松原南公園北側フェンス,34.8254911,134.5560784,
兵庫県,たつの市,143,揖保町松原,ミツ星製革所乾燥場南側フェンス,34.8254911,134.5560784,
兵庫県,たつの市,144,揖保町松原,松原公園西側フェンス,34.8254911,134.5560784,
兵庫県,たつの市,145,揖保町真砂,皇神社玉垣,34.8132628,134.5537245,緯度経度は怪しい
兵庫県,たつの市,146,誉田町広山,廣山霊神前畑法面(野立),34.8482885,134.5619625,
兵庫県,たつの市,147,誉田町高駄,高駄公会堂前,34.8457425,134.5566668,
兵庫県,たつの市,148,誉田町上沖,高濱徹氏宅西側畑(野立),34.84432779999999,134.5537245,
兵庫県,たつの市,149,誉田町下沖,県道 東崇崎網干停車場線片吹ランプ北東ガードパイプ,34.8368455,134.554313,
兵庫県,たつの市,150,誉田町片吹,加藤稲荷入口北玉垣,34.8332799,134.5584321,
兵庫県,たつの市,151,誉田町福田,高橋幸子氏宅ブロック塀,34.8467244,134.5725521,
兵庫県,たつの市,152,誉田町上福田,誉汚水中継ポンプ場東側雑地(野立),34.8482885,134.5619625,緯度経度は怪しい
兵庫県,たつの市,153,誉田町誉,誉橋東詰ガードレール,34.8530298,134.5649043,
兵庫県,たつの市,154,神岡町西横内,鳴瀬節子氏宅南側道路防護柵,34.8865991,134.5678459,
兵庫県,たつの市,155,神岡町西横内,西横内公民館南側フェンス,34.8865991,134.5678459,
兵庫県,たつの市,156,神岡町沢田,神岡橋西側防護柵,34.8771646,134.5666693,
兵庫県,たつの市,157,神岡町沢田,沢田集会所警鐘台,34.8771646,134.5666693,
兵庫県,たつの市,158,神岡町沢田,沢田前処理場東側フェンス,34.8771646,134.5666693,
兵庫県,たつの市,159,神岡町上横内,姫路マドコン西側防護柵,34.8919431,134.5766696,
兵庫県,たつの市,160,神岡町上横内,たつの市立神岡小学校正門東側ガードパイプ,34.8919431,134.5766696,
兵庫県,たつの市,161,神岡町横内,たつの市神岡コミュニティセンター西側フェンス,34.8866412,134.5725521,
兵庫県,たつの市,162,神岡町東崇崎,崇崎橋東詰交差点東南側,34.8314078,134.5494238,緯度経度は怪しい
兵庫県,たつの市,163,神岡町大住寺,山口製函(株)大源寺倉庫南側市道ガードレール,34.8970781,134.5619625,緯度経度は怪しい
兵庫県,たつの市,164,神岡町大住寺,（株）横尾商店倉庫南側(踏切東側)(野立),34.8970781,134.5619625,緯度経度は怪しい
兵庫県,たつの市,165,神岡町東崇崎,東崇崎駅南駐輪場緑地(野立),34.8314078,134.5494238,緯度経度は怪しい
兵庫県,たつの市,166,神岡町大住寺,大住寺構造改善センター前ガードパイプ,34.8970781,134.5619625,緯度経度は怪しい
兵庫県,たつの市,167,神岡町大住寺,小那田交差点東側ガードレール,34.8970781,134.5619625,緯度経度は怪しい
兵庫県,たつの市,168,神岡町小那田,小林大祐氏宅東側農地(野立),34.88274639999999,134.5576819,緯度経度は怪しい
兵庫県,たつの市,169,神岡町迫分,迫分センター広場フェンス,34.8314078,134.5494238,緯度経度は怪しい
兵庫県,たつの市,170,神岡町野部,無人精米所西側ガードレール,34.8911994,134.5866678,
兵庫県,たつの市,171,神岡町田中,田中公会堂前(児童公園フェンス),34.8834613,134.58902,
兵庫県,たつの市,172,神岡町田中,森崎たばこ店向側ガードレール,34.8834613,134.58902,
兵庫県,たつの市,173,神岡町寄井,寄井構造改善センター前(野立),34.8773336,134.5854917,緯度経度は怪しい
兵庫県,たつの市,174,神岡町東田中,東田中児童公園フェンス,34.8314078,134.5494238,緯度経度は怪しい
兵庫県,たつの市,175,神岡町入野,入野農業構造改善センター公園入口左側フェンス,34.87225,134.574905,
兵庫県,たつの市,176,揖保川町半田,半田バス停向側ガードレール,34.8508021,134.5348893,
兵庫県,たつの市,177,揖保川町町屋,町屋児童公園植込(野立) (位置情報が見つかりませんでした),34.8314078,134.5494238,緯度経度は怪しい
兵庫県,たつの市,178,揖保川町町屋,町屋橋北側ガードレール (位置情報が見つかりませんでした),34.8314078,134.5494238,緯度経度は怪しい
兵庫県,たつの市,179,揖保川町野田,旧兵庫西農協半田支店前フェンス,34.8430126,134.5325344,
兵庫県,たつの市,180,揖保川町新在家,即応寺前ガードパイプ,34.8374413,134.5301793,
兵庫県,たつの市,181,揖保川町桧皮田,天理教綱干大教会南側フェンス (位置情報が見つかりませんでした),34.8314078,134.5494238,緯度経度は怪しい
兵庫県,たつの市,182,揖保川町ハイタウン,さくら公園南側フェンス (位置情報が見つかりませんでした),34.8314078,134.5494238,緯度経度は怪しい
兵庫県,たつの市,183,揖保川町新在家南,新在家南公園西面フェンス,34.833915,134.529621,緯度経度は怪しい
兵庫県,たつの市,184,揖保川町養久,養久公民館北側(野立),34.8407,134.5231135,
兵庫県,たつの市,185,揖保川町本條,堀井和子氏宅南ガードレール,34.8366744,134.5228191,
兵庫県,たつの市,186,揖保川町春日丘,春日丘団地前ガードレール (位置情報が見つかりませんでした),34.8235579,134.5290018,緯度経度は怪しい
兵庫県,たつの市,187,揖保川町本條,本條児童公園フェンス,34.8366744,134.5228191,
兵庫県,たつの市,188,揖保川町二塚,二塚警鐘台前ガードレール,34.8362139,134.5184023,
兵庫県,たつの市,189,揖保川町青葉台,青葉台公園前ガードレール (位置情報が見つかりませんでした),34.813026,134.4518068,緯度経度は怪しい
兵庫県,たつの市,190,揖保川町片島,片島公民館前フェンス,34.8300739,134.5148687,緯度経度は怪しい
兵庫県,たつの市,191,揖保川町神戸北山,神戸北山公民館南側ゴミステーション横フェンス,34.8282092,134.5225246,
兵庫県,たつの市,192,揖保川町神戸北山,ふれあい橋国道南側フェンス,34.8282092,134.5225246,
兵庫県,たつの市,193,揖保川町神戸山,神戸山公園フェンス (位置情報が見つかりませんでした),34.8314078,134.5494238,緯度経度は怪しい
兵庫県,たつの市,194,揖保川町ひばりヶ丘,ひばりヶ丘公園南側フェンス (位置情報が見つかりませんでした),34.8314078,134.5494238,緯度経度は怪しい
兵庫県,たつの市,195,揖保川町ひばりヶ丘,松下敏子氏宅西側ガードレール (位置情報が見つかりませんでした),34.8314078,134.5494238,緯度経度は怪しい
兵庫県,たつの市,196,揖保川町片島,グリーンハイツ公園東側フェンス,34.8300739,134.5148687,緯度経度は怪しい
兵庫県,たつの市,197,揖保川町正條,大蔵自動車商会前堤防,34.8235579,134.5290018,
兵庫県,たつの市,198,揖保川町正條,正條公民館広場西側ガードレール,34.8235579,134.5290018,
兵庫県,たつの市,199,揖保川町正條,揖保川総合支所東側植込(野立),34.8235579,134.5290018,
兵庫県,たつの市,200,揖保川町正條,瀬尾義信氏宅南側防護柵,34.8235579,134.5290018,
兵庫県,たつの市,201,揖保川町山津屋,NTT西日本(株)揖保川別館南側フェンス,34.8162837,134.5231135,緯度経度は怪しい
兵庫県,たつの市,202,揖保川町山津屋,中央公園県道沿(野立),34.8162837,134.5231135,緯度経度は怪しい
兵庫県,たつの市,203,揖保川町山津屋,新井鶏肉店前,34.8162837,134.5231135,緯度経度は怪しい
兵庫県,たつの市,204,揖保川町山津屋,揖保川石材店南西側カーブミラー横フェンス,34.8162837,134.5231135,緯度経度は怪しい
兵庫県,たつの市,205,揖保川町竜野駅前,JR竜野駅正面ガードパイプ (位置情報が見つかりませんでした),34.8254418,134.522174,緯度経度は怪しい
兵庫県,たつの市,206,揖保川町秦田,秦田グラウンド前ガードパイプ (位置情報が見つかりませんでした),34.8314078,134.5494238,緯度経度は怪しい
兵庫県,たつの市,207,揖保川町秦田,イカワ美容室西側ガードパイプ (位置情報が見つかりませんでした),34.8314078,134.5494238,緯度経度は怪しい
兵庫県,たつの市,208,揖保川町原,飯田久夫氏宅前ガードパイプ,34.814485,134.5101567,
兵庫県,たつの市,209,揖保川町原,市道八ヶ坪堂田線西池ガードレール,34.814485,134.5101567,
兵庫県,たつの市,210,揖保川町大門,大門児童公園フェンス,34.8238355,134.5019096,
兵庫県,たつの市,211,揖保川町上袋尻,上袋尻児童公園フェンス(西側北) (位置情報が見つかりませんでした),34.8314078,134.5494238,緯度経度は怪しい
兵庫県,たつの市,212,揖保川町大久保,大久保公民館東側フェンス (位置情報が見つかりませんでした),34.8314078,134.5494238,緯度経度は怪しい
兵庫県,たつの市,213,揖保川町袋尻,袋尻自治会公園(野立),34.8086822,134.5395988,
兵庫県,たつの市,214,揖保川町市場,市場交差点西側ガードパイプ,34.8104299,134.5478393,緯度経度は怪しい
兵庫県,たつの市,215,揖保川町浦部,浦部公民館前フェンス,34.8041945,134.5348893,
兵庫県,たつの市,216,揖保川町浦部,たつの市河内コミュニティセンター北側貯水槽柵,34.8041945,134.5348893,
兵庫県,たつの市,217,揖保川町金剛山,岸野内科医院東側市道ガードレール,34.8057991,134.5290018,緯度経度は怪しい
兵庫県,たつの市,218,揖保川町馬場,県道岩見揖保川線馬場歩道ガードパイプ,34.7956852,134.5172245,緯度経度は怪しい
兵庫県,たつの市,219,揖保川町馬場,馬場集会所前公園フェンス,34.7956852,134.5172245,緯度経度は怪しい
兵庫県,たつの市,220,御津町西釜屋,たつの市立御津小学校北西側フェンス (位置情報が見つかりませんでした),34.7677959,134.5054442,緯度経度は怪しい
兵庫県,たつの市,221,御津町苅屋,たつの市立御津公民館西側植込(野立),34.7706657,134.5666693,緯度経度は怪しい
兵庫県,たつの市,222,御津町苅屋,御津総合支所東側植込(野立),34.7706657,134.5666693,緯度経度は怪しい
兵庫県,たつの市,223,御津町朝臣,朝臣バス停前(野立),34.7888476,134.5537245,
兵庫県,たつの市,224,御津町御津新町,扇子田橋南東ガードパイプ (位置情報が見つかりませんでした),34.765744,134.505586,緯度経度は怪しい
兵庫県,たつの市,225,御津町西釜屋,釜屋南バス停南(野立) (位置情報が見つかりませんでした),34.7677959,134.5054442,緯度経度は怪しい
兵庫県,たつの市,226,御津町御津新町,マックスバリュ東側ガードレール (位置情報が見つかりませんでした),34.765744,134.505586,緯度経度は怪しい
兵庫県,たつの市,227,御津町室津,大浦公園北ガードレール,34.7677959,134.5054442,緯度経度は怪しい
兵庫県,たつの市,228,御津町室津,大浦公民館北20m道路脇(野立),34.7677959,134.5054442,緯度経度は怪しい
兵庫県,たつの市,229,御津町室津,室津漁業協同組合フェンス,34.7677959,134.5054442,緯度経度は怪しい
兵庫県,たつの市,230,御津町室津,友君橋分岐点,34.7677959,134.5054442,緯度経度は怪しい
兵庫県,たつの市,231,御津町室津,旧室津小学校校門横フェンス,34.7677959,134.5054442,緯度経度は怪しい
兵庫県,たつの市,232,御津町室津,NTT室津別館東北側フェンス,34.7677959,134.5054442,緯度経度は怪しい
兵庫県,たつの市,233,御津町黒崎,塩谷敏彦氏農地南側ガードパイプ,34.775009,134.5572552,緯度経度は怪しい
兵庫県,たつの市,234,御津町黒崎,黒崎公民館前植込(野立),34.775009,134.5572552,緯度経度は怪しい
兵庫県,たつの市,235,御津町黒崎,黒崎新富島橋南ガードパイプ(橋から北100m先三差路),34.775009,134.5572552,緯度経度は怪しい
兵庫県,たつの市,236,御津町黒崎,黒崎池の上地区入口道路東脇(野立),34.775009,134.5572552,緯度経度は怪しい
兵庫県,たつの市,237,御津町黒崎,黒崎北村入口東側ガードパイプ,34.775009,134.5572552,緯度経度は怪しい
兵庫県,たつの市,238,御津町苅屋,オリゾン西側ガードレール,34.7706657,134.5666693,緯度経度は怪しい
兵庫県,たつの市,239,御津町苅屋,東部公園公衆トイレ前フェンス,34.7706657,134.5666693,緯度経度は怪しい
兵庫県,たつの市,240,御津町苅屋,中川橋西側ガードパイプ,34.7706657,134.5666693,緯度経度は怪しい
兵庫県,たつの市,241,御津町苅屋,柴田会計事務所北側農地(野立),34.7706657,134.5666693,緯度経度は怪しい
兵庫県,たつの市,242,御津町苅屋,沼田水道南側市道ガードパイプ,34.7706657,134.5666693,緯度経度は怪しい
兵庫県,たつの市,243,御津町苅屋,新中川橋西側空地(野立),34.7706657,134.5666693,緯度経度は怪しい
兵庫県,たつの市,244,御津町中島,たつの市民病院前植込(野立),34.795035,134.5619625,
兵庫県,たつの市,245,御津町朝臣,市民病院北交差点西側ガードパイプ,34.7888476,134.5537245,
兵庫県,たつの市,246,御津町中島,萬代唐木工芸前防護柵,34.795035,134.5619625,
兵庫県,たつの市,247,御津町中島,中島公民館北側フェンス,34.795035,134.5619625,
兵庫県,たつの市,248,御津町栄町,御津北こども園前自治会駐車場前(野立) (位置情報が見つかりませんでした),34.7677959,134.5054442,緯度経度は怪しい
兵庫県,たつの市,249,御津町栄町,ガーデンコート桜新町(北側)ゴミステーション裏公園(野立) (位置情報が見つかりませんでした),34.7677959,134.5054442,緯度経度は怪しい
兵庫県,たつの市,250,御津町栄町,馬場恒夫氏宅前東側市道ガードレール (位置情報が見つかりませんでした),34.7677959,134.5054442,緯度経度は怪しい
兵庫県,たつの市,251,御津町硯岩,硯岩公民館東側植込(野立) (位置情報が見つかりませんでした),34.7677959,134.5054442,緯度経度は怪しい
兵庫県,たつの市,252,御津町加家,屋台蔵横フェンス前(野立) (位置情報が見つかりませんでした),34.7677959,134.5054442,緯度経度は怪しい
兵庫県,たつの市,253,御津町加家,御津図書館駐車場防護柵 (位置情報が見つかりませんでした),34.7677959,134.5054442,緯度経度は怪しい
兵庫県,たつの市,254,御津町片,堀義範氏所有地(非農地)(野立) (位置情報が見つかりませんでした),34.7677959,134.5054442,緯度経度は怪しい
兵庫県,たつの市,255,御津町稲富,中西正明氏宅前水路ガードパイプ (位置情報が見つかりませんでした),34.7677959,134.5054442,緯度経度は怪しい
兵庫県,たつの市,256,御津町伊津,西部運動公園北側市道ガードパイプ (位置情報が見つかりませんでした),34.7677959,134.5054442,緯度経度は怪しい
兵庫県,たつの市,257,御津町岩見港,丸尾商店西側雑地(野立),34.7836947,134.5384215,緯度経度は怪しい
兵庫県,たつの市,258,御津町岩見港,堀田健治氏宅西側植込(野立),34.7836947,134.5384215,緯度経度は怪しい
