prefecture,city,number,address,name,lat,long,note
兵庫県,三木市,1,口吉川町久次,久保仁氏宅向側空地,34.8786183,135.0699945,
兵庫県,三木市,2,口吉川町里脇,里脇バス停附近（武内勇人氏所有地）,34.8680594,135.0828384,緯度経度は怪しい
兵庫県,三木市,3,口吉川町槙,岸本氏宅地法面,34.8565768,135.0606557,緯度経度は怪しい
兵庫県,三木市,4,口吉川町槙,槙バス停前(JA兵庫みらい口吉川倉庫金柵),34.8565768,135.0606557,緯度経度は怪しい
兵庫県,三木市,5,口吉川町大島,武内誠吾氏宅前金柵,34.8548528,135.073497,
兵庫県,三木市,6,口吉川町大島,いずみ認定こども園金柵,34.8548528,135.073497,
兵庫県,三木市,7,口吉川町大島,木村実氏宅裏三叉路空地（旧公会堂）,34.8548528,135.073497,
兵庫県,三木市,8,口吉川町笹原,杉本良員氏宅東側空地,34.8639932,135.0682433,緯度経度は怪しい
兵庫県,三木市,9,口吉川町殿畑,口吉川小学校正門南金網,34.862111,135.0583213,緯度経度は怪しい
兵庫県,三木市,10,口吉川町殿畑,口吉川町公民館正門南金柵,34.862111,135.0583213,緯度経度は怪しい
兵庫県,三木市,11,口吉川町殿畑,藤枝成延氏宅東側法面,34.862111,135.0583213,緯度経度は怪しい
兵庫県,三木市,12,口吉川町桾原,桾原交差点北西(信号横),34.8560662,135.0524859,
兵庫県,三木市,13,口吉川町桾原,長谷川強氏宅東側ブロック塀,34.8560662,135.0524859,
兵庫県,三木市,14,口吉川町東中,東中バス停附近(藤田氏所有地),34.855555,135.0443175,
兵庫県,三木市,15,口吉川町東中,阪神電設（株）前,34.855555,135.0443175,
兵庫県,三木市,16,口吉川町西中,鳴滝文夫氏宅ブロック塀,34.8473015,135.0384838,
兵庫県,三木市,17,口吉川町桃坂,岸本茂嘉氏宅向側金柵,34.850649,135.0314843,
兵庫県,三木市,18,口吉川町桃坂,東条口バス停金柵,34.850649,135.0314843,
兵庫県,三木市,19,細川町高畑,高畑公民館東側お堂前,34.8518312,135.0151564,
兵庫県,三木市,20,細川町高篠,高篠入口横 三木側 県道金柵,34.8446268,135.0209871,緯度経度は怪しい
兵庫県,三木市,21,細川町金屋,JAガソリンスタンド北側道路金柵,34.8385365,135.0244859,
兵庫県,三木市,22,細川町桃津,桃津バス停西側金柵,34.8340723,135.0338173,緯度経度は怪しい
兵庫県,三木市,23,細川町金屋,金屋バス停東側（吉川側）金柵,34.8385365,135.0244859,
兵庫県,三木市,24,細川町金屋,阪神バレル東側空地,34.8385365,135.0244859,
兵庫県,三木市,25,細川町桃津,桃津公会堂横空地,34.8340723,135.0338173,緯度経度は怪しい
兵庫県,三木市,26,細川町瑞穂（大二谷）,大二谷農産物出荷施設前,34.8451787,135.1010699,緯度経度は怪しい
兵庫県,三木市,27,細川町瑞穂（入野）,入野バス停附近(消防器具庫横),34.836935,135.0903045,緯度経度は怪しい
兵庫県,三木市,28,細川町瑞穂（小二谷）,小二谷バス停附近,34.8355128,135.0867604,緯度経度は怪しい
兵庫県,三木市,29,細川町瑞穂（上南）,まなびの郷みずほ（正門右植込部）,34.8314817,135.0814536,緯度経度は怪しい
兵庫県,三木市,30,細川町中里（荻谷）,まなびの郷みずほ前三叉路金柵,34.8353403,135.0744642,緯度経度は怪しい
兵庫県,三木市,31,細川町中里（荻谷）,荻谷公民館駐車場金柵,34.8353403,135.0744642,緯度経度は怪しい
兵庫県,三木市,32,細川町中里（下南）,西岡龍次氏宅東側県道,34.8339959,135.0672427,緯度経度は怪しい
兵庫県,三木市,33,細川町中里（原坂）,杉橋東側金柵,34.8322911,135.0622592,緯度経度は怪しい
兵庫県,三木市,34,細川町垂穂（鍛冶）,鍛冶バス停附近（稲見嘉一氏所有地）,34.83036999999999,135.0504,緯度経度は怪しい
兵庫県,三木市,35,細川町垂穂（下芝原）,實井妙子氏宅南側,34.8279099,135.0441199,緯度経度は怪しい
兵庫県,三木市,36,細川町増田,増田バス停（金柵）,34.8246779,135.0349839,緯度経度は怪しい
兵庫県,三木市,37,細川町豊地（大柿）,消防器具庫東側金柵,34.82680089999999,135.0275971,
兵庫県,三木市,38,細川町豊地（佐野）,佐野バス停前(消防器具庫横),34.827493,135.0244859,
兵庫県,三木市,39,細川町豊地（大柿）,細川町公民館地内,34.82680089999999,135.0275971,
兵庫県,三木市,40,細川町細川中,小山善久氏宅裏空地,34.8158899,135.0256523,緯度経度は怪しい
兵庫県,三木市,41,細川町細川中,細川なか交差点細川中入口附近金柵,34.8158899,135.0256523,緯度経度は怪しい
兵庫県,三木市,42,細川町西,西村バス停附近金柵,34.8253542,135.0104924,緯度経度は怪しい
兵庫県,三木市,43,久留美,岩崎仁昭氏宅西側歩道金柵,34.8182166,134.9976686,緯度経度は怪しい
兵庫県,三木市,44,久留美,久留美公民館前,34.8182166,134.9976686,緯度経度は怪しい
兵庫県,三木市,45,久留美,小林博章氏宅向側(慈眼寺入口),34.8182166,134.9976686,緯度経度は怪しい
兵庫県,三木市,46,久留美,長久橋バス停付近金柵,34.8182166,134.9976686,緯度経度は怪しい
兵庫県,三木市,47,岩宮,岩宮交差点南西側歩道金柵,34.8066154,134.9965028,
兵庫県,三木市,48,大塚２丁目,三木小学校金柵（運動場東側）,34.8002679,134.9970857,
兵庫県,三木市,49,大塚１丁目,大塚公園金柵,34.7980469,134.9947541,緯度経度は怪しい
兵庫県,三木市,50,大塚２丁目,ＪＡみのりえびす駅前店北駐車場金柵,34.8002679,134.9970857,
兵庫県,三木市,51,与呂木,安隨正泰氏宅東側県道,34.8054992,135.0058288,
兵庫県,三木市,52,平井,平井公民館県道側金柵,34.8109858,135.0128243,
兵庫県,三木市,53,宿原,宿原公民館前,34.798314,135.0069946,緯度経度は怪しい
兵庫県,三木市,54,宿原,県三木庁舎東側交差点金柵,34.798314,135.0069946,緯度経度は怪しい
兵庫県,三木市,55,大塚２丁目,神鉄えびす駅スロープ金柵,34.8002679,134.9970857,
兵庫県,三木市,56,本町１丁目,大塚１交差点北詰(府内派出所跡地横),34.7996856,134.9912565,
兵庫県,三木市,57,本町１丁目,神鉄上の丸駅金柵,34.7996856,134.9912565,
兵庫県,三木市,58,府内町,松山製パン駐車場ブロック塀,34.8101841,134.9924224,緯度経度は怪しい
兵庫県,三木市,59,府内町,大手橋交差点西側金柵(ながさわ向側),34.8101841,134.9924224,緯度経度は怪しい
兵庫県,三木市,60,府内町,常楽寺ブロック塀,34.8101841,134.9924224,緯度経度は怪しい
兵庫県,三木市,61,府内町,東条町公園金柵（シルバー人材センター側）,34.8101841,134.9924224,緯度経度は怪しい
兵庫県,三木市,62,君が峰町,中沢池東側金柵,34.7964082,134.9982514,
兵庫県,三木市,63,君が峰町,君が峰町公民館前,34.7964082,134.9982514,
兵庫県,三木市,64,えびす町,岡田秀男氏宅ブロック塀,34.7968964,134.9901941,
兵庫県,三木市,65,えびす町(松が丘),総合保健福祉センター前金柵,34.7968964,134.9901941,
兵庫県,三木市,66,えびす町,えびす町公民館金柵,34.7968964,134.9901941,
兵庫県,三木市,67,東紫美ケ丘,東紫美ケ丘すり鉢池金網,34.8461138,135.05482,緯度経度は怪しい
兵庫県,三木市,68,志染町吉田,吉田バス停（淡河方面行き）金柵,34.7944051,135.0151564,
兵庫県,三木市,69,志染町吉田,志染バイパス吉田南交差点金柵,34.7944051,135.0151564,
兵庫県,三木市,70,志染町吉田,東吉田バス停（淡河方面行き）金柵,34.7944051,135.0151564,
兵庫県,三木市,71,志染町吉田,志染バイパス東吉田南交差点金柵,34.7944051,135.0151564,
兵庫県,三木市,72,志染町安福田,安福田バス停,34.8021006,135.0221534,
兵庫県,三木市,73,志染町安福田,森本建設前金柵,34.8021006,135.0221534,
兵庫県,三木市,74,志染町細目,志染バイパス細目西交差点金柵（山側）,34.7899357,135.0244859,
兵庫県,三木市,75,志染町志染中,ＪＡ兵庫みらい(志染支店)前県道東側カーブ金柵,34.7921232,135.0431341,緯度経度は怪しい
兵庫県,三木市,76,志染町井上,旧志染中学校前バス停金柵,34.8003487,135.0396504,
兵庫県,三木市,77,志染町井上,志染町公民館入口向側金柵,34.8003487,135.0396504,
兵庫県,三木市,78,志染町井上,井上入口附近金柵,34.8003487,135.0396504,
兵庫県,三木市,79,志染町窟屋,志染バイパス窟屋公民館（向側）金柵,34.7804314,135.0443175,緯度経度は怪しい
兵庫県,三木市,80,志染町窟屋,志染バイパス窟屋交差点金柵,34.7804314,135.0443175,緯度経度は怪しい
兵庫県,三木市,81,志染町高男寺,高男寺バス停西側歩道金柵,34.7884997,135.0344006,
兵庫県,三木市,82,志染町御坂,御坂交差点東側金柵,34.7936395,135.0536529,緯度経度は怪しい
兵庫県,三木市,83,志染町御坂,ローソン三木御坂店北側金柵,34.7936395,135.0536529,緯度経度は怪しい
兵庫県,三木市,84,志染町御坂,御坂バス停（三木方面行き）金柵,34.7936395,135.0536529,緯度経度は怪しい
兵庫県,三木市,85,志染町戸田,戸田西口バス停（三木方面行き）金柵,34.7912912,135.0769998,緯度経度は怪しい
兵庫県,三木市,86,志染町戸田,情報公園都市入口信号南側フェンス,34.7912912,135.0769998,緯度経度は怪しい
兵庫県,三木市,87,志染町戸田,戸田公民館金柵,34.7912912,135.0769998,緯度経度は怪しい
兵庫県,三木市,88,志染町三津田,源内氏宅北歩道金柵,34.777019,135.0606557,緯度経度は怪しい
兵庫県,三木市,89,志染町三津田,万願寺南交差点三津田下バス停附近金柵,34.777019,135.0606557,緯度経度は怪しい
兵庫県,三木市,90,志染町広野１丁目,(株)ケイ設計駐車場金柵(志染駅側),34.7804876,135.0096179,緯度経度は怪しい
兵庫県,三木市,91,志染町広野１丁目,二谷正彦氏宅ブロック塀,34.7804876,135.0096179,緯度経度は怪しい
兵庫県,三木市,92,志染町広野１丁目,広野小学校前（信号横）金網,34.7804876,135.0096179,緯度経度は怪しい
兵庫県,三木市,93,志染町広野１丁目,広野公民館ブロック塀,34.7804876,135.0096179,緯度経度は怪しい
兵庫県,三木市,94,志染町広野２丁目,おおぞら児童公園金柵,34.7786971,135.0087435,
兵庫県,三木市,95,志染町広野５丁目,神鉄広野ゴルフ場前駅駐輪場金柵,34.7749121,135.0189463,
兵庫県,三木市,96,志染町広野５丁目,消防署広野分署西側金柵,34.7749121,135.0189463,
兵庫県,三木市,97,別所町小林,新広陽公民館前空地,34.7756366,134.9871757,緯度経度は怪しい
兵庫県,三木市,98,別所町小林,小林桜ヶ丘自治会集会所駐車場北側植え込み,34.7756366,134.9871757,緯度経度は怪しい
兵庫県,三木市,99,志染町広野５丁目,二号池南側三木市第20水源フェンス,34.7749121,135.0189463,
兵庫県,三木市,100,別所町小林,ローレルハイツ北神戸西側入口付近,34.7756366,134.9871757,緯度経度は怪しい
兵庫県,三木市,101,さつき台２丁目,三木市城山配水場フェンス,34.7852292,135.0008743,
兵庫県,三木市,102,別所町小林,三木郵便局（県道側）植込,34.7756366,134.9871757,緯度経度は怪しい
兵庫県,三木市,103,別所町小林,とだ園芸(株)金柵,34.7756366,134.9871757,緯度経度は怪しい
兵庫県,三木市,104,別所町小林５７８－３,大鵬建機株式会社フェンス,34.7785222,134.9970808,
兵庫県,三木市,105,別所町小林（大山）,大山東交差点歩道金柵,34.7756366,134.9871757,緯度経度は怪しい
兵庫県,三木市,106,別所町小林,小林中央会館東側植込み,34.7756366,134.9871757,緯度経度は怪しい
兵庫県,三木市,107,別所町興治,大山入口附近金柵,34.7694606,134.9696822,
兵庫県,三木市,108,別所町興治,しゅうらく苑金柵,34.7694606,134.9696822,
兵庫県,三木市,109,別所町興治,末福博氏宅北側県道金柵,34.7694606,134.9696822,
兵庫県,三木市,110,別所町朝日ケ丘,朝日ヶ丘団地北バス停附近金柵,34.7854904,134.9708486,緯度経度は怪しい
兵庫県,三木市,111,別所町朝日ケ丘,朝日ヶ丘団地中バス停附近金柵,34.7854904,134.9708486,緯度経度は怪しい
兵庫県,三木市,112,別所町朝日ケ丘,朝日ヶ丘中央公園西側入口金柵,34.7854904,134.9708486,緯度経度は怪しい
兵庫県,三木市,113,別所町朝日ケ丘,朝日ヶ丘バス停ロータリー西側,34.7854904,134.9708486,緯度経度は怪しい
兵庫県,三木市,114,別所町朝日ケ丘,中央公園北側入口金柵,34.7854904,134.9708486,緯度経度は怪しい
兵庫県,三木市,115,別所町高木,高木公民館前入口西側植込み,34.7959805,134.9696822,
兵庫県,三木市,116,別所町高木,高木公園南側金柵,34.7959805,134.9696822,
兵庫県,三木市,117,別所町高木,田中洋基氏宅前市道植込,34.7959805,134.9696822,
兵庫県,三木市,118,別所町高木,高木老人憩いの家前,34.7959805,134.9696822,
兵庫県,三木市,119,別所町高木,三木金属工業センター金柵,34.7959805,134.9696822,
兵庫県,三木市,120,別所町高木,三木ネツレン(株)職員駐車場植込,34.7959805,134.9696822,
兵庫県,三木市,121,別所町東這田,旧三木鉄道別所駅向側植込,34.7909499,134.9591828,緯度経度は怪しい
兵庫県,三木市,122,別所町東這田,法界寺向側,34.7909499,134.9591828,緯度経度は怪しい
兵庫県,三木市,123,別所町東這田,小林能之氏宅ブロック塀,34.7909499,134.9591828,緯度経度は怪しい
兵庫県,三木市,124,別所町西這田,別所町公民館前金柵,34.7942254,134.952182,緯度経度は怪しい
兵庫県,三木市,125,別所町西這田,別所中学校県道進入路南側金柵,34.7942254,134.952182,緯度経度は怪しい
兵庫県,三木市,126,別所町西這田,西這田公民館ブロック塀,34.7942254,134.952182,緯度経度は怪しい
兵庫県,三木市,127,別所町巴,ともえ会館金柵,34.7688974,134.9699261,緯度経度は怪しい
兵庫県,三木市,128,別所町花尻,高芝ギムネ製作所横金柵,34.78535730000001,134.9475141,緯度経度は怪しい
兵庫県,三木市,129,別所町花尻,生田忠美氏所有空地,34.78535730000001,134.9475141,緯度経度は怪しい
兵庫県,三木市,130,別所町石野,上石野公園金柵,34.7914021,134.9416787,緯度経度は怪しい
兵庫県,三木市,131,別所町石野,石野公民館前,34.7914021,134.9416787,緯度経度は怪しい
兵庫県,三木市,132,別所町石野,白鹿金物（株)前の石碑横,34.7914021,134.9416787,緯度経度は怪しい
兵庫県,三木市,133,別所町石野,石野上入口附近,34.7914021,134.9416787,緯度経度は怪しい
兵庫県,三木市,134,別所町石野,石野バス停(加古川方面)横ガードレール,34.7914021,134.9416787,緯度経度は怪しい
兵庫県,三木市,135,別所町相野,隆工業所前水路北側,34.7754362,134.9577043,緯度経度は怪しい
兵庫県,三木市,136,別所町下石野,下石野児童公園金柵,34.7952089,134.931173,緯度経度は怪しい
兵庫県,三木市,137,別所町下石野,下石野公民館金柵,34.7952089,134.931173,緯度経度は怪しい
兵庫県,三木市,138,別所町下石野,下石野北入口附近,34.7952089,134.931173,緯度経度は怪しい
兵庫県,三木市,139,別所町正法寺,正法寺交差点(南側歩道金柵),34.8068475,134.9370098,緯度経度は怪しい
兵庫県,三木市,140,別所町正法寺,岡田嘉隆氏宅ブロック塀,34.8068475,134.9370098,緯度経度は怪しい
兵庫県,三木市,141,別所町和田,和田公民館前グラウンド入口金柵,34.8041313,134.94518,緯度経度は怪しい
兵庫県,三木市,142,鳥町,鳥町集会所金柵,34.8069523,134.9556825,
兵庫県,三木市,143,鳥町,鳥町公民館向側(三陽金属(株))金柵,34.8069523,134.9556825,
兵庫県,三木市,144,鳥町,㈱清水製作所前金柵,34.8069523,134.9556825,
兵庫県,三木市,145,別所町近藤,鳥町中橋南空地,34.8008817,134.9568493,
兵庫県,三木市,146,大村,三木金物卸団地入口東側金柵,34.8092377,134.9696822,緯度経度は怪しい
兵庫県,三木市,147,大村,西松屋前歩道金柵,34.8092377,134.9696822,緯度経度は怪しい
兵庫県,三木市,148,大村,ナンバ南西歩道金柵,34.8092377,134.9696822,緯度経度は怪しい
兵庫県,三木市,149,大村,大村公民館前公園金柵,34.8092377,134.9696822,緯度経度は怪しい
兵庫県,三木市,150,大村,イオン三木店南側金柵,34.8092377,134.9696822,緯度経度は怪しい
兵庫県,三木市,151,大村,イオン三木店北側バス停,34.8092377,134.9696822,緯度経度は怪しい
兵庫県,三木市,152,大村,神鉄大村駅附近駐輪場ガードレール内側,34.8092377,134.9696822,緯度経度は怪しい
兵庫県,三木市,153,平田,平田小学校学校前河川沿い道路ガードレール,34.8098208,134.9755141,緯度経度は怪しい
兵庫県,三木市,154,平田,平田公民館道路側植込,34.8098208,134.9755141,緯度経度は怪しい
兵庫県,三木市,155,加佐,加佐公民館金柵,34.807102,134.9836775,緯度経度は怪しい
兵庫県,三木市,156,加佐,加佐育英ハイツ進入路北向いフェンス,34.807102,134.9836775,緯度経度は怪しい
兵庫県,三木市,157,加佐,デイサービスセンター三木北門扉東塀,34.807102,134.9836775,緯度経度は怪しい
兵庫県,三木市,158,平田２丁目,永尾博温氏所有田 東側法面,34.8060942,134.9758056,
兵庫県,三木市,159,末広２丁目,(株)トップマン駐車場金柵,34.8007291,134.979596,
兵庫県,三木市,160,末広２丁目,宮田博文氏宅コンクリート塀,34.8007291,134.979596,
兵庫県,三木市,161,末広２丁目,末広交差点東側歩道,34.8007291,134.979596,
兵庫県,三木市,162,末広３丁目,藤原産業（株）駐車場金柵（ユニクロ向側）,34.8012503,134.9737646,
兵庫県,三木市,163,末広２丁目,末広橋バス停(フジタデンキ横)金柵,34.8007291,134.979596,
兵庫県,三木市,164,末広2丁目,末広2丁目駐車場金柵（章陽セキュリティ）,34.8007291,134.979596,
兵庫県,三木市,165,末広２丁目,神明町公園,34.8007291,134.979596,
兵庫県,三木市,166,末広２丁目,神鉄三木駅南側ロータリー,34.8007291,134.979596,
兵庫県,三木市,167,末広１丁目,神鉄三木駅北側月極駐車場金柵（シラユリ住宅）,34.8012999,134.9830944,
兵庫県,三木市,168,末広１丁目,三樹小学校西側金柵,34.8012999,134.9830944,
兵庫県,三木市,169,末広１丁目,三樹幼稚園金柵,34.8012999,134.9830944,
兵庫県,三木市,170,末広１丁目,市民活動センター前駐車場東側フェンス,34.8012999,134.9830944,
兵庫県,三木市,171,加佐,加佐東公民館向側金柵,34.807102,134.9836775,緯度経度は怪しい
兵庫県,三木市,172,加佐,ＪＡ兵庫みらい(久留美支店)前駐車場金柵,34.807102,134.9836775,緯度経度は怪しい
兵庫県,三木市,173,跡部,藤原建設(株)向側金柵,34.8154035,134.9871757,
兵庫県,三木市,174,本町２丁目,本町駐車場金柵,34.7974398,134.9842605,
兵庫県,三木市,175,本町2丁目,湯の山街道駐車場金柵,34.7974398,134.9842605,
兵庫県,三木市,176,本町２丁目,美嚢川駐車場入口金柵,34.7974398,134.9842605,
兵庫県,三木市,177,上の丸町,旧上の丸庁舎金柵,34.7980227,134.9900906,
兵庫県,三木市,178,上の丸町,市役所庁舎前(旧勤労者体育センター横),34.7980227,134.9900906,
兵庫県,三木市,179,上の丸町,市役所東側バス停附近,34.7980227,134.9900906,
兵庫県,三木市,180,福井,三木市浄水場交差点,34.7948447,134.977855,緯度経度は怪しい
兵庫県,三木市,181,本町３丁目,福井交差点（南東）植込,34.7957766,134.9830944,
兵庫県,三木市,182,本町３丁目,川久駐車場金柵,34.7957766,134.9830944,
兵庫県,三木市,183,福井１丁目,吉武迪子氏宅西空地,34.7970023,134.9798875,
兵庫県,三木市,184,福井１丁目,三角公園,34.7970023,134.9798875,
兵庫県,三木市,185,本町３丁目,晴龍寺専用駐車場,34.7957766,134.9830944,
兵庫県,三木市,186,福井２丁目,三木鉄道記念公園フェンス,34.7957391,134.9760972,
兵庫県,三木市,187,福井２丁目,岩谷嘉博氏宅ブロック塀,34.7957391,134.9760972,
兵庫県,三木市,188,福井3丁目,福井コミュニティセンター駐車場,34.79298350000001,134.9772635,
兵庫県,三木市,189,福井３丁目,栄町公園西側金柵,34.79298350000001,134.9772635,
兵庫県,三木市,190,福井３丁目,吉永鋼鉄㈱横駐車場東側空地,34.79298350000001,134.9772635,
兵庫県,三木市,191,福井３丁目,リサイクルショップ東側金柵,34.79298350000001,134.9772635,
兵庫県,三木市,192,緑が丘町中２丁目,中２丁目公園（ルーテル教会前）,34.7713912,135.0309011,
兵庫県,三木市,193,緑が丘町西１丁目,緑が丘認定こども園前金柵,34.772523,135.0262354,
兵庫県,三木市,194,緑が丘町西２丁目,さくら公園,34.7741607,135.0297346,
兵庫県,三木市,195,緑が丘町西２丁目,緑が丘スポーツ公園(ﾊﾞｯｸﾈｯﾄ裏),34.7741607,135.0297346,
兵庫県,三木市,196,緑が丘町西３丁目,ヘアピンカーブ下,34.7736412,135.0239028,
兵庫県,三木市,197,緑が丘町西５丁目,ローソン東側金柵,34.7757049,135.0253607,
兵庫県,三木市,198,志染町四合谷,薮下橋南側市道沿ガードレール,34.7808171,135.0250691,
兵庫県,三木市,199,緑が丘町本町１丁目,神鉄緑が丘駅ロータリー北側植込,34.7658789,135.0285682,
兵庫県,三木市,200,緑が丘町本町１丁目,みどりが丘音楽院前駐車場金柵,34.7658789,135.0285682,
兵庫県,三木市,201,緑が丘町本町１丁目,神鉄緑が丘駅（改札口入口）植込,34.7658789,135.0285682,
兵庫県,三木市,202,緑が丘町本町１丁目,緑が丘駅前駐輪場金柵,34.7658789,135.0285682,
兵庫県,三木市,203,緑が丘町本町２丁目,のじぎく特別支援校金柵（喫茶ﾏﾙﾍﾞﾘｰ駐車場前),34.7658245,135.0379004,緯度経度は怪しい
兵庫県,三木市,204,緑が丘町本町２丁目,三木精愛園入り口横金柵,34.7658245,135.0379004,緯度経度は怪しい
兵庫県,三木市,205,緑が丘町中１丁目,広野１号池東側フェンス,34.7691944,135.0285682,
兵庫県,三木市,206,緑が丘町東１丁目,コープ三木緑が丘店南側（バス停後）駐車場金柵,34.7682021,135.0329424,緯度経度は怪しい
兵庫県,三木市,207,緑が丘町東１丁目,緑が丘東１丁目公園東側,34.7682021,135.0329424,緯度経度は怪しい
兵庫県,三木市,208,緑が丘町東２丁目,グリ－ンモ－タ－プ－ル金柵,34.7702726,135.0332341,
兵庫県,三木市,209,緑が丘町中３丁目,緑が丘北公園南西信号交差点金柵（北東側）,34.774134,135.0344006,
兵庫県,三木市,210,緑が丘町中３丁目,緑が丘町公民館駐車場金柵,34.774134,135.0344006,
兵庫県,三木市,211,緑が丘町東４丁目,もみじ公園入口下,34.7730153,135.0367338,
兵庫県,三木市,212,緑が丘町東４丁目,緑が丘中学校運動場入口東側金柵,34.7730153,135.0367338,
兵庫県,三木市,213,緑が丘町東４丁目,緑が丘中学校南校門東側金柵,34.7730153,135.0367338,
兵庫県,三木市,214,志染町青山１丁目,青山緑地 川野ピアノ教室向側,34.7732405,135.0454843,緯度経度は怪しい
兵庫県,三木市,215,志染町青山２丁目,青山第６公園入口南金柵,34.7763174,135.0390671,
兵庫県,三木市,216,志染町青山３丁目,青山公民館入口掲揚柱前,34.7801921,135.0379004,
兵庫県,三木市,217,志染町青山３丁目,イオン三木青山店食品館南側植込,34.7801921,135.0379004,
兵庫県,三木市,218,志染町青山３丁目,青山第３公園金柵,34.7801921,135.0379004,
兵庫県,三木市,219,志染町青山５丁目,青山第１公園金柵,34.7832542,135.0338173,
兵庫県,三木市,220,志染町青山５丁目,青山中央公園（バス停奥）,34.7832542,135.0338173,
兵庫県,三木市,221,志染町青山６丁目,青山第５公園金柵,34.778834,135.0338173,
兵庫県,三木市,222,自由が丘本町１丁目,本町１丁目菱重公園金柵,34.7925242,135.0052459,
兵庫県,三木市,223,自由が丘本町２丁目,吉田電設（有）東側空地,34.7900358,135.0058288,
兵庫県,三木市,224,自由が丘本町１丁目,旧あさひが丘会館跡付近ガードレール,34.7925242,135.0052459,
兵庫県,三木市,225,自由が丘本町１丁目,自由が丘本町１丁目公園(あさひが丘公園),34.7925242,135.0052459,
兵庫県,三木市,226,自由が丘本町２丁目,自由が丘本町1丁目入口大池手前,34.7900358,135.0058288,
兵庫県,三木市,227,自由が丘本町３丁目,自由が丘本町会館前ガードレール,34.7869888,135.0075776,
兵庫県,三木市,228,志染町西自由が丘１丁目,神鉄志染駅北側金柵,34.7833829,135.0104924,
兵庫県,三木市,229,志染町西自由が丘１丁目,神鉄志染駅ロータリー西側,34.7833829,135.0104924,
兵庫県,三木市,230,志染町西自由が丘１丁目,自由が丘公民館入口北側金柵,34.7833829,135.0104924,
兵庫県,三木市,231,志染町西自由が丘１丁目,播磨開発モータープール金柵,34.7833829,135.0104924,
兵庫県,三木市,232,志染町中自由が丘２丁目,自由が丘中公園入口左側植込み,34.7800304,135.0174886,
兵庫県,三木市,233,志染町中自由が丘１丁目,古本義信氏宅東側ブロック塀,34.7819862,135.0134073,
兵庫県,三木市,234,志染町中自由が丘２丁目,かわい子どもクリニック駐車場南側金柵,34.7800304,135.0174886,
兵庫県,三木市,235,志染町中自由が丘２丁目,自由が丘配水場東側法面,34.7800304,135.0174886,
兵庫県,三木市,236,志染町西自由が丘２丁目,ピアン自由が丘６号棟前駐車場金柵,34.7886147,135.0134073,
兵庫県,三木市,237,志染町西自由が丘２丁目(吉田),番手池北側金柵,34.7886147,135.0134073,
兵庫県,三木市,238,志染町西自由が丘２丁目,自由が丘第１公園法面,34.7886147,135.0134073,
兵庫県,三木市,239,志染町西自由が丘２丁目,自由が丘第１０公園金柵,34.7886147,135.0134073,
兵庫県,三木市,240,志染町中自由が丘３丁目,自由が丘小学校北側,34.7852879,135.0157395,
兵庫県,三木市,241,志染町中自由が丘３丁目,自由が丘幼稚園西側金柵,34.7852879,135.0157395,
兵庫県,三木市,242,志染町中自由が丘３丁目(吉田),デイサービスセンター自由が丘入口道路柵,34.7852879,135.0157395,
兵庫県,三木市,243,志染町東自由が丘２丁目,自由が丘第４公園金柵（きのこ公園）,34.7802841,135.0215703,
兵庫県,三木市,244,志染町東自由が丘２丁目,松江光生氏宅コンクリート壁,34.7802841,135.0215703,
兵庫県,三木市,245,緑が丘町西３丁目,あかしあ公園金柵,34.7736412,135.0239028,
兵庫県,三木市,246,志染町東自由が丘３丁目,米田龍生氏宅ブロック塀,34.7830528,135.020404,
兵庫県,三木市,247,志染町東自由が丘２丁目,志染変電所西側 (ゴミ集積場北),34.7802841,135.0215703,
兵庫県,三木市,248,志染町東自由が丘３丁目,自由が丘第6公園北側法面,34.7830528,135.020404,
兵庫県,三木市,249,志染町東自由が丘１丁目,東自由が丘１丁目ロ－タリ－内南側,34.7769693,135.0215703,
兵庫県,三木市,250,志染町東自由が丘１丁目,カットハウスＣＯＺＹ向側植樹帯,34.7769693,135.0215703,
兵庫県,三木市,251,志染町東自由が丘１丁目,東自由が丘バス停東側金柵,34.7769693,135.0215703,
兵庫県,三木市,252,志染町東自由が丘１丁目,やすらぎセンタ－東（長寿地蔵横）金柵,34.7769693,135.0215703,
兵庫県,三木市,253,志染町東自由が丘１丁目,自由が丘第２公園金柵,34.7769693,135.0215703,
兵庫県,三木市,254,志染町東自由が丘１丁目,自由が丘第３公園金柵,34.7769693,135.0215703,
兵庫県,三木市,255,福井（城山）,八幡谷交差点南西（市道金柵）,34.7948447,134.977855,緯度経度は怪しい
兵庫県,三木市,256,福井（城山）,三木南交流センター左側ガードレール端,34.7948447,134.977855,緯度経度は怪しい
兵庫県,三木市,257,福井（城山）,うぐいす谷交差点植込,34.7948447,134.977855,緯度経度は怪しい
兵庫県,三木市,258,さつき台１丁目,いずみ公園南側,34.7875719,134.9982514,
兵庫県,三木市,259,福井（城山）,市道三木山総合公園小林線金柵(さつき台近接),34.7948447,134.977855,緯度経度は怪しい
兵庫県,三木市,260,さつき台2丁目,みどり公園西側,34.7852292,135.0008743,
兵庫県,三木市,261,吉川町水上,南水上公民館前歩道柵,34.847317,135.1354189,
兵庫県,三木市,262,吉川町豊岡,吉川クリーンセンター入口交差点歩道柵,34.8527444,135.1517895,緯度経度は怪しい
兵庫県,三木市,263,吉川町豊岡,南豊岡公民館横畑法面,34.8527444,135.1517895,緯度経度は怪しい
兵庫県,三木市,264,吉川町水上,豊岡バス停北側三叉路歩道柵,34.847317,135.1354189,
兵庫県,三木市,265,吉川町豊岡,豊岡公民館東側空地,34.8527444,135.1517895,緯度経度は怪しい
兵庫県,三木市,266,吉川町楠原,永天寺口バス停前天理教柵,34.8660675,135.1424342,緯度経度は怪しい
兵庫県,三木市,267,吉川町楠原,旧山本建材店跡コンクリート壁,34.8660675,135.1424342,緯度経度は怪しい
兵庫県,三木市,268,吉川町東田,東田公会堂南側法面,34.8660113,135.1517895,緯度経度は怪しい
兵庫県,三木市,269,吉川町東田,東田口バス停東側,34.8660113,135.1517895,緯度経度は怪しい
兵庫県,三木市,270,吉川町市野瀬,東吉川小学校前バス停西側,34.8765338,135.1482811,
兵庫県,三木市,271,吉川町市野瀬,保尾勝美氏宅前,34.8765338,135.1482811,
兵庫県,三木市,272,吉川町市野瀬,JAみのり旧東吉川支所東歩道柵,34.8765338,135.1482811,
兵庫県,三木市,273,吉川町毘沙門,毘沙門バス停横歩道柵,34.8859355,135.1471116,緯度経度は怪しい
兵庫県,三木市,274,吉川町福吉,福吉入口県道西側柵,34.8941636,135.1576376,
兵庫県,三木市,275,吉川町金会,金会公民館交差点入口東側（電柱より東へ３mあける）,34.8925932,135.1424342,緯度経度は怪しい
兵庫県,三木市,276,吉川町金会,二瀬川バス停西側三叉路（県道植栽部）,34.8925932,135.1424342,緯度経度は怪しい
兵庫県,三木市,277,吉川町稲田,若宮神社向側法面,34.8832728,135.1295737,
兵庫県,三木市,278,吉川町稲田,旧中部浄水場下法面,34.8832728,135.1295737,
兵庫県,三木市,279,吉川町吉安,吉川図書館北側フェンス（バス停前）,34.8970655,135.1330807,緯度経度は怪しい
兵庫県,三木市,280,吉川町吉安,吉安上公民館北側法面,34.8970655,135.1330807,緯度経度は怪しい
兵庫県,三木市,281,吉川町吉安,吉安交差点西側歩道柵,34.8970655,135.1330807,緯度経度は怪しい
兵庫県,三木市,282,吉川町米田,米田消防団器具庫南側歩道柵,34.8683604,135.1284047,
兵庫県,三木市,283,吉川町大沢,吉川中学校前交差点北側（三角公園部）,34.8850764,135.1129642,緯度経度は怪しい
兵庫県,三木市,284,吉川町大沢,吉川健康福祉センター前植栽,34.8850764,135.1129642,緯度経度は怪しい
兵庫県,三木市,285,吉川町大畑,旧中吉川小学校東信号（東南側）歩道柵,34.8811663,135.1108739,
兵庫県,三木市,286,吉川町鍛冶屋,旧中吉川小学校前南側バス停歩道柵,34.8803662,135.1056159,
兵庫県,三木市,287,吉川町貸潮,吉川町公民館貸潮分館安全柵,34.874296,135.1044476,緯度経度は怪しい
兵庫県,三木市,288,吉川町渡瀬,渡瀬バス停西教寺前田畦,34.8798575,135.0974381,
兵庫県,三木市,289,吉川町有安,NTT吉川西別館南側金網,34.8845431,135.0991903,
兵庫県,三木市,290,吉川町渡瀬,渡瀬橋南詰東側歩道柵,34.8798575,135.0974381,
兵庫県,三木市,291,吉川町山上,浄化センター西側ガードレール奥,34.8798821,135.0927657,
兵庫県,三木市,292,吉川町奥谷,奥谷バス停東側田法面,34.8529141,135.1237292,
兵庫県,三木市,293,吉川町田谷,田谷口バス停東側植込,34.8702192,135.0921817,
兵庫県,三木市,294,吉川町奥谷,四辻バス停横金柵,34.8529141,135.1237292,
兵庫県,三木市,295,吉川町湯谷,県道淡河吉川線みなぎ台入口,34.8574425,135.1050317,
兵庫県,三木市,296,吉川町西奥,吉田環氏宅前交差点,34.8651119,135.1167167,
兵庫県,三木市,297,吉川町西奥,吉川総合公園体育館前,34.8651119,135.1167167,
兵庫県,三木市,298,吉川町西奥,二ツ子バス停吉川方面前植樹帯,34.8651119,135.1167167,
兵庫県,三木市,299,吉川町実楽,実楽公民館北側田法面,34.890054,135.1015268,
兵庫県,三木市,300,吉川町古川,長谷川義雄氏宅西側田法面,34.8994005,135.1097054,緯度経度は怪しい
兵庫県,三木市,301,吉川町古川,古川公民館北側金柵,34.8994005,135.1097054,緯度経度は怪しい
兵庫県,三木市,302,吉川町上中,谷郷稔孝氏宅向側空地,34.90109959999999,135.1015268,
兵庫県,三木市,303,吉川町古川,小屋村バス停付近三木方面県道,34.8994005,135.1097054,緯度経度は怪しい
兵庫県,三木市,304,吉川町前田,前田橋交差点南側,34.9126549,135.1097054,緯度経度は怪しい
兵庫県,三木市,305,吉川町前田,旧上吉川小学校東側金柵,34.9126549,135.1097054,緯度経度は怪しい
兵庫県,三木市,306,吉川町前田,ヤマビコ自動車商会東側畑法面,34.9126549,135.1097054,緯度経度は怪しい
兵庫県,三木市,307,吉川町冨岡,松原自転車商会前（福井橋西側）歩道柵,34.9192101,135.1237292,緯度経度は怪しい
兵庫県,三木市,308,吉川町冨岡,東播用水揚水機場金柵,34.9192101,135.1237292,緯度経度は怪しい
兵庫県,三木市,309,吉川町新田,野呂谷公会堂敷地,34.9301831,135.1377572,
兵庫県,三木市,310,吉川町畑枝,元畑枝バス停北側田法面,34.9185779,135.1389264,緯度経度は怪しい
兵庫県,三木市,311,吉川町上荒川,井之口橋北三叉路法面,34.912457,135.1471116,緯度経度は怪しい
兵庫県,三木市,312,吉川町上荒川,こまくるびバス停三叉路西側,34.912457,135.1471116,緯度経度は怪しい
兵庫県,三木市,313,吉川町みなぎ台,１丁目１－１北側(調整池上)歩道柵,34.8731656,135.1091212,
兵庫県,三木市,314,吉川町みなぎ台,吉川小学校体育館側入口横,34.8731656,135.1091212,
兵庫県,三木市,315,吉川町みなぎ台,うぐいす公園（二丁目11-10）東側金柵,34.8731656,135.1091212,
兵庫県,三木市,316,吉川町みなぎ台,ひばり公園（二丁目14-12）西側金柵,34.8731656,135.1091212,
兵庫県,三木市,317,吉川町みなぎ台,みなぎ台１丁目パンダ公園西側,34.8731656,135.1091212,
兵庫県,三木市,318,吉川町みなぎ台,ライオン公園南東側,34.8731656,135.1091212,
