prefecture,city,number,address,name,lat,long,note
兵庫県,上郡町,1,上郡214-5付近,町道（隈見橋東交差点 東側）,34.8728681,134.363851,緯度経度は怪しい
兵庫県,上郡町,2,上郡833-6,仲町公園,34.8744542,134.3605827,
兵庫県,上郡町,3,上郡305,上郡小学校（正門 横）,34.8770944,134.3608493,緯度経度は怪しい
兵庫県,上郡町,4,上郡459-1付近,県道（生涯学習支援センター前）,34.8778946,134.3646265,緯度経度は怪しい
兵庫県,上郡町,5,上郡1645-5前,県道（上郡分団屯所 前）,34.8714169,134.3605294,緯度経度は怪しい
兵庫県,上郡町,6,上郡1190,東町総合センター駐車場,34.8700078,134.3642572,
兵庫県,上郡町,7,上郡144-4,masked,34.8706874,134.3566346,
兵庫県,上郡町,8,尾長谷283-1,緑ヶ丘住宅内空き地（町営住宅 南西側）,34.8827317,134.3678945,
兵庫県,上郡町,9,井上127-5,町道（井上区公民館 前）,34.8793735,134.3496683,
兵庫県,上郡町,10,大持276-3付近,大持公民館横の公園 北側,34.8739782,134.3547184,
兵庫県,上郡町,11,大持278,上郡町役場前,34.8738765,134.3554825,
兵庫県,上郡町,12,大持207-1,町道（上郡高校体育館 前）,34.8719157,134.3544806,
兵庫県,上郡町,13,大持360-2付近,県道（JA兵庫西上郡支店 向側）,34.8674022,134.355525,
兵庫県,上郡町,14,駅前222付近,町有地（観光案内所跡地 横）,34.8660095,134.3546927,
兵庫県,上郡町,15,山野里2309-1,旧ジュンテンドー跡地,34.8692579,134.3514948,
兵庫県,上郡町,16,山野里2423-1,県道（山野里地区公民館 前）,34.867696,134.3474888,緯度経度は怪しい
兵庫県,上郡町,17,山野里2718-1,宿東公民館 前,34.865654,134.3498284,
兵庫県,上郡町,18,山野里1160付近,高嶺神社,34.8638244,134.3442474,緯度経度は怪しい
兵庫県,上郡町,19,山野里1087付近,masked,34.86013519999999,134.3438975,
兵庫県,上郡町,20,山野里924-4付近,masked,34.8615145,134.3382153,
兵庫県,上郡町,21,竹万29,県道5号線沿い（スポーツセンター前）,34.863704,134.3538755,
兵庫県,上郡町,22,竹万322-1,町有地（竹万踏切 横）,34.8650253,134.3571759,緯度経度は怪しい
兵庫県,上郡町,23,竹万254-3,竹万児童公園,34.8622965,134.3569843,緯度経度は怪しい
兵庫県,上郡町,24,竹万1143付近,masked,34.8554267,134.3604907,
兵庫県,上郡町,25,竹万2330,町営住宅ハイツあゆみ,34.8612614,134.3638937,緯度経度は怪しい
兵庫県,上郡町,26,中野899,高田小学校 東側,34.8554109,134.3922037,緯度経度は怪しい
兵庫県,上郡町,27,休治275,町道（休治公民館 前）,34.8587824,134.399877,緯度経度は怪しい
兵庫県,上郡町,28,神明寺730-1,神明寺公民館 町道沿いフェンス,34.8657737,134.3866858,緯度経度は怪しい
兵庫県,上郡町,29,奥甲669-1,奥公民館,34.8734946,134.3973149,緯度経度は怪しい
兵庫県,上郡町,30,宿168-4,masked,34.8650784,134.3974994,
兵庫県,上郡町,31,佐用谷164-1,樫並勉 氏 所有地,34.86786800000001,134.40251,緯度経度は怪しい
兵庫県,上郡町,32,宇野山163-3付近,町道（宇野山公民館 東側）,34.8639398,134.4099154,
兵庫県,上郡町,33,小野豆76-1,小野豆健康広場,34.8801082,134.4158179,緯度経度は怪しい
兵庫県,上郡町,34,奥井168-3,masked,34.8736349,134.3562274,緯度経度は怪しい
兵庫県,上郡町,35,奥井新135-1,奥井新児童公園,34.8736349,134.3562274,緯度経度は怪しい
兵庫県,上郡町,36,西野山661,西野山健康広場,34.8558729,134.3839359,
兵庫県,上郡町,37,釜島405,県道（西光寺の南側、中塚富男 氏 納屋 横）,34.8477176,134.3846367,緯度経度は怪しい
兵庫県,上郡町,38,高田台1丁目11-1,1丁目公園,34.8654064,134.3795061,
兵庫県,上郡町,39,高田台3丁目3-9,高田台自治会館,34.8631152,134.382124,
兵庫県,上郡町,40,高田台4丁目10-9,旧 摂磨ガス開発（株）,34.8619544,134.383417,
兵庫県,上郡町,41,高田台4丁目18-8向側,4丁目公園（古墳公園 横）,34.8600311,134.38268,
兵庫県,上郡町,42,高田台6丁目11-1,6丁目公園,34.8637914,134.3867745,
兵庫県,上郡町,43,高田台7丁目1-2,神姫バス転回所,34.8610552,134.3877747,
兵庫県,上郡町,44,高田台5丁目17-3,町道（汚水中継場 横）,34.85905170000001,134.3859937,
兵庫県,上郡町,45,尾長谷980,土井公民館 前,34.8853534,134.3802518,緯度経度は怪しい
兵庫県,上郡町,46,尾長谷1091-3付近,小山健康広場,34.889202,134.3809396,
兵庫県,上郡町,47,野桑592-1付近,町道（バス停横、本村橋 東）,34.8966339,134.3937207,緯度経度は怪しい
兵庫県,上郡町,48,野桑1401-1,県道沿い空地,34.9029324,134.4003825,緯度経度は怪しい
兵庫県,上郡町,49,野桑2852-1付近,県道（神田バス停横、神田公民館 向側）,34.9010808,134.4040122,緯度経度は怪しい
兵庫県,上郡町,50,野桑2266-1,梅谷公民館 前,34.913061,134.4066601,緯度経度は怪しい
兵庫県,上郡町,51,大曹699,大杉野公民館広場内,34.8736349,134.3562274,緯度経度は怪しい
兵庫県,上郡町,52,大曹1608付近,町道（鍋倉公民館 前）,34.8736349,134.3562274,緯度経度は怪しい
兵庫県,上郡町,53,大曹2299,富満公民館,34.8736349,134.3562274,緯度経度は怪しい
兵庫県,上郡町,54,金出地1890-1向側,県道（金出地下公民館 向側）,34.9125853,134.4140441,緯度経度は怪しい
兵庫県,上郡町,55,金出地909付近,県道（老人憩いの家入口）,34.9166321,134.4210578,緯度経度は怪しい
兵庫県,上郡町,56,金出地1022-1付近,町道,34.9184222,134.4241661,緯度経度は怪しい
兵庫県,上郡町,57,金出地1717-3付近,町道（国光橋 南）,34.9241373,134.4259673,緯度経度は怪しい
兵庫県,上郡町,58,光都乙目1496-3,「光都プラザ南」交差点の南東側空き地,34.9314153,134.4394203,緯度経度は怪しい
兵庫県,上郡町,59,大枝633-1前,国道（大枝バス停 前）,34.8883707,134.3591239,緯度経度は怪しい
兵庫県,上郡町,60,大枝新508-1,masked,34.8846468,134.3499729,
兵庫県,上郡町,61,苔縄67付近,町道（赤松地区公民館 前）,34.8962178,134.3508356,緯度経度は怪しい
兵庫県,上郡町,62,柏野230-2付近,国道（柏野バス停横、JA兵庫西旧赤松支店 向側）,34.9022715,134.3603057,緯度経度は怪しい
兵庫県,上郡町,63,細野400-1,細野健康広場,34.9150051,134.3690541,緯度経度は怪しい
兵庫県,上郡町,64,赤松286付近,空地（赤松公民館 向側）,34.9132337,134.3573722,緯度経度は怪しい
兵庫県,上郡町,65,河野原163-1,河野原健康広場,34.916654,134.3528683,緯度経度は怪しい
兵庫県,上郡町,66,樋135-1付近,町道（藤本組事務所 向側）,34.8736349,134.3562274,
兵庫県,上郡町,67,岩木甲54-1,県道（千種川漁業協同組合 前）,34.8863521,134.3449768,
兵庫県,上郡町,68,岩木甲505付近,町道（岩木橋 北）,34.8889393,134.3390176,緯度経度は怪しい
兵庫県,上郡町,69,岩木甲418-29,町有地,34.8918186,134.3365106,緯度経度は怪しい
兵庫県,上郡町,70,岩木乙215-1付近,県道,34.8946599,134.3260211,緯度経度は怪しい
兵庫県,上郡町,71,岩木丙607付近,町道（こも池橋 北）,34.907996,134.3260211,緯度経度は怪しい
兵庫県,上郡町,72,旭日丙236付近,個人所有地,34.9168856,134.3260211,緯度経度は怪しい
兵庫県,上郡町,73,旭日乙206付近,masked,34.9242176,134.3140097,緯度経度は怪しい
兵庫県,上郡町,74,落地144-2,町道（JR変電所 前）,34.8448653,134.3210092,緯度経度は怪しい
兵庫県,上郡町,75,落地267-1,落地健康広場,34.8430982,134.3185331,緯度経度は怪しい
兵庫県,上郡町,76,落地579-2付近,町道（落地神社付近）,34.839948,134.315833,緯度経度は怪しい
兵庫県,上郡町,77,梨ヶ原552-1,旧梨ヶ原保育所,34.836107,134.3137456,緯度経度は怪しい
兵庫県,上郡町,78,梨ヶ原1377,梨ヶ原健康広場,34.8321937,134.3103205,緯度経度は怪しい
兵庫県,上郡町,79,栗原1304,町道（下栗原公民館 横）,34.8568076,134.3212902,
兵庫県,上郡町,80,行頭517,県道（延野公民館 前）,34.8722768,134.2767259,緯度経度は怪しい
兵庫県,上郡町,81,高山721付近,masked,34.8631869,134.2964639,緯度経度は怪しい
兵庫県,上郡町,82,八保丙772付近,県道（皆坂第１橋 横）,34.8865724,134.2999955,緯度経度は怪しい
兵庫県,上郡町,83,八保乙1105,岡自治会館,34.8715486,134.3068175,緯度経度は怪しい
兵庫県,上郡町,84,八保乙49-2付近,masked,34.8665928,134.3112004,緯度経度は怪しい
兵庫県,上郡町,85,八保甲177-1,旧船坂小学校,34.8736349,134.3562274,緯度経度は怪しい
兵庫県,上郡町,86,船坂295-2付近,町道（麦尻踏切 前）,34.8716443,134.3308682,
兵庫県,上郡町,87,船坂23-1向側,県道（ツカモト工業 向側）,34.8697358,134.3377353,
