prefecture,city,number,address,name,lat,long,note
兵庫県,伊丹市,1,西台４丁目１番街区,主基公園　東側柵,34.7788486,135.4128911,
兵庫県,伊丹市,2,中央２丁目５番街区,三軒寺前広場西側スロープ　東側柵,34.7805901,135.415611,
兵庫県,伊丹市,3,西台３丁目３番街区,阪急伊丹線高架下　南側金網,34.7779575,135.4153169,
兵庫県,伊丹市,4,西台１丁目２番街区,阪急伊丹駅前地下駐輪場入口西側鉄柵,34.7811091,135.4122296,
兵庫県,伊丹市,5,西台１丁目４番街区,阪急伊丹駅西側地下駐輪場入口北側鉄柵,34.7799257,135.4126706,
兵庫県,伊丹市,6,西台１丁目６番街区,梅園公園　西側柵,34.7795509,135.412009,
兵庫県,伊丹市,7,西台４丁目１番街区,主基公園　西側柵,34.7788486,135.4128911,
兵庫県,伊丹市,8,伊丹１丁目１４番街区,JR伊丹駅前市バス回転場　西側鉄柵,34.7822834,135.4210364,
兵庫県,伊丹市,9,伊丹１丁目１０番街区,アリオ１　北側植込み,34.7812751,135.4199484,
兵庫県,伊丹市,10,藤ノ木２丁目１番街区,天津児童遊園地　東側金網,34.7844449,135.422007,
兵庫県,伊丹市,11,藤ノ木１丁目１番街区,駄六川橋　北側鉄柵,34.7820013,135.4236245,
兵庫県,伊丹市,12,伊丹7丁目1番1号,有岡小学校 西側金網,34.7759904,135.4214081,
兵庫県,伊丹市,13,伊丹5丁目3番街区,有岡公園 北西隅鉄柵,34.7768362,135.4199484,
兵庫県,伊丹市,14,伊丹5丁目3番街区,有岡公園 南側金網,34.7768362,135.4199484,
兵庫県,伊丹市,15,伊丹7丁目1番1号,有岡小学校 北側金網,34.7759904,135.4214081,
兵庫県,伊丹市,16,東有岡2丁目11番地,小西酒造㈱富士山蔵 西側金網,34.7773929,135.4224525,
兵庫県,伊丹市,17,東有岡4丁目8番地,兵庫障害者職業能力開発校 南西隅鉄柵,34.7761796,135.42645,
兵庫県,伊丹市,18,伊丹5丁目1番5号,伊丹保育所 北側鉄柵,34.7780464,135.4198863,
兵庫県,伊丹市,19,東有岡5丁目125番地,東リ㈱伊丹工場 西側金網,34.7716567,135.4224273,
兵庫県,伊丹市,20,南本町4丁目4番街区,南本町公園 北側鉄柵,34.7729579,135.4193602,
兵庫県,伊丹市,21,南本町3丁目4番14号,㈱染の川組 南側ブロック塀,34.7738886,135.4191258,
兵庫県,伊丹市,22,南本町7丁目1-1地先,南本町ハナミズキ児童遊園地西側金網,34.770104,135.4185724,
兵庫県,伊丹市,23,伊丹8丁目4番街区,駐車場前 鉄柵,34.7704431,135.4211247,
兵庫県,伊丹市,24,南本町4丁目4番街区,南本町公園 南側柵,34.7729579,135.4193602,
兵庫県,伊丹市,25,南町2丁目3番街区,南町児童遊園地 東側金網,34.767917,135.418876,
兵庫県,伊丹市,26,南町2丁目4番1号,南中学校 東側金網,34.7681617,135.4181605,
兵庫県,伊丹市,27,南町2丁目5番街区,南町公園 西側鉄柵,34.7675506,135.4190662,
兵庫県,伊丹市,28,南町2丁目4番1号,南中学校 南側鉄板フェンス,34.7681617,135.4181605,
兵庫県,伊丹市,29,南町2丁目2番街区,南町Ⅱ児童遊園地 南側金網,34.7692478,135.4192867,
兵庫県,伊丹市,30,南町2丁目4番1号,南中学校 西側金網,34.7681617,135.4181605,
兵庫県,伊丹市,31,南町2丁目5番8号,㈱鶴屋八幡伊丹工場 北側金網,34.7676043,135.4194283,
兵庫県,伊丹市,32,平松7丁目6番街区,平松南児童遊園地 西側金網,34.7696404,135.418184,
兵庫県,伊丹市,33,平松5丁目1番街区,平松自転車駐車場入口 北側金網,34.7722968,135.4161256,
兵庫県,伊丹市,34,梅ノ木2丁目4番街区,阪急新伊丹駅 南西側金網,34.7721286,135.415611,
兵庫県,伊丹市,35,平松5丁目1番街区,平松公園 東側植込み,34.7722968,135.4161256,
兵庫県,伊丹市,36,梅ノ木2丁目4番街区,阪急新伊丹駅 東側金網(コープ玄関前),34.7721286,135.415611,
兵庫県,伊丹市,37,梅ノ木2丁目2番街区,ローズレー梅ノ木 北側植込み,34.7727602,135.4148759,
兵庫県,伊丹市,38,梅ノ木2丁目3番21号,コミュニティセンター梅ノ木 北側植込み,34.7716612,135.4147801,
兵庫県,伊丹市,39,梅ノ木3丁目2番街区,梅ノ木パーク 西側金網,34.7756495,135.4137732,
兵庫県,伊丹市,40,平松3丁目3番街区,市営平松住宅北側植込み,34.7742271,135.4173018,
兵庫県,伊丹市,41,行基町4丁目1番地,市立伊丹高等学校 北側金網,34.7773187,135.4089403,
兵庫県,伊丹市,42,鈴原町2丁目4番地先,ゆうかり児童遊園地 入口横ガードレール,34.7762646,135.4083016,
兵庫県,伊丹市,43,鈴原町1丁目25番1地先,新伊丹交番西側水路前,34.7754032,135.4102174,
兵庫県,伊丹市,44,鈴原町4丁目18番地5,鈴原児童遊園地 北側金網,34.7753825,135.406625,
兵庫県,伊丹市,45,南鈴原3丁目42番地,南菱公園 北側柵,34.7705138,135.4071579,
兵庫県,伊丹市,46,南鈴原2丁目74番地,南野小豆領児童遊園地 東側金網,34.7716352,135.4059819,
兵庫県,伊丹市,47,南鈴原2丁目203番地先,矢野モータープール 北側ガードレール,34.7718368,135.4051435,
兵庫県,伊丹市,48,南鈴原3丁目42番地,南菱公園 南側柵,34.7705138,135.4071579,
兵庫県,伊丹市,49,御願塚6丁目3番1号,鈴原小学校 正門横金網,34.7733254,135.4091973,
兵庫県,伊丹市,50,御願塚7丁目1番街区,グリーンハウス前金岡排水路 東側鉄柵,34.7708269,135.4105389,
兵庫県,伊丹市,51,御願塚6丁目3番1号,鈴原小学校 北側金網,34.7733254,135.4091973,
兵庫県,伊丹市,52,昆陽東4丁目2番5号,西中学校 北東側金網,34.7789126,135.4014461,
兵庫県,伊丹市,53,昆陽東6丁目8番街区,南武夕塚公園 南東側金網,34.7749223,135.4031891,
兵庫県,伊丹市,54,鈴原町5丁目34番地5地先,個人宅前 金岡排水路鉄柵,34.7753111,135.4058228,
兵庫県,伊丹市,55,昆陽東3丁目3番街区,東中田児童遊園地 北側金網,34.7785991,135.4030421,
兵庫県,伊丹市,56,昆陽東6丁目3番街区,よつばセンター 入口横鉄柵,34.7762796,135.4026747,
兵庫県,伊丹市,57,鈴原町5丁目46番地1地先,鈴原橋南側 金岡川鉄柵,34.7745401,135.4062356,
兵庫県,伊丹市,58,昆陽東3丁目4番街区,防護柵,34.7775488,135.404071,
兵庫県,伊丹市,59,昆陽東2丁目1番街区,榮橋北側 金岡川鉄柵,34.777673,135.4055409,
兵庫県,伊丹市,60,昆陽泉町2丁目6番地1,さんかく児童遊園地　西側金網,34.7745264,135.4001843,
兵庫県,伊丹市,61,昆陽南3丁目3番街区,せつようセンター横ゲートボール場　西側金網,34.7745055,135.3997351,
兵庫県,伊丹市,62,昆陽泉町5丁目7番地先,梶原アパート　南側ガードレール,34.7768276,135.3990105,
兵庫県,伊丹市,63,昆陽泉町4丁目4番地,泉公園　西側柵,34.7764797,135.3999556,
兵庫県,伊丹市,64,昆陽泉町1丁目1番地6地先,個人宅前　緑地帯,34.7747899,135.4016642,
兵庫県,伊丹市,65,昆陽泉町4丁目4番地,泉公園　南側柵,34.7764797,135.3999556,
兵庫県,伊丹市,66,昆陽泉町3丁目6番地4,泉町会館　西側金網,34.7759168,135.3999004,
兵庫県,伊丹市,67,堀池3丁目7番街区,堀池公園　南側鉄柵,34.7715099,135.397604,
兵庫県,伊丹市,68,美鈴町4丁目21番地2,美鈴公園　東側柵,34.7727937,135.4006727,
兵庫県,伊丹市,69,昆陽南3丁目8番街区,児童館広場前　道路鉄柵,34.7733043,135.3984858,
兵庫県,伊丹市,70,昆陽南2丁目1番7号,旧せつよう幼稚園　北側金網（教育施設課長）,34.7758739,135.39571,
兵庫県,伊丹市,71,堀池2丁目5番街区,市営堀池団地　西側金網,34.7730442,135.3967222,
兵庫県,伊丹市,72,南野北6丁目2番1号,市営中曽根団地北側金網,34.7715777,135.400838,
兵庫県,伊丹市,73,昆陽南2丁目1番55号,摂陽小学校　南側金網,34.7745129,135.3963364,
兵庫県,伊丹市,74,野間北1丁目2番街区,水口児童遊園地　西側金網,34.7719405,135.3961344,
兵庫県,伊丹市,75,南野北1丁目1番街区,市営山道団地 北側金網,34.7713219,135.4026012,
兵庫県,伊丹市,76,南野3丁目3番街区,東浦公園 西側水路柵,34.7684862,135.4053204,
兵庫県,伊丹市,77,南野3丁目3番街区,東浦公園 北側金網,34.7684862,135.4053204,
兵庫県,伊丹市,78,南野北2丁目7番4号,笹原中学校 南西側金網,34.7694102,135.4028107,
兵庫県,伊丹市,79,南野北3丁目3番街区,中曽根公園 東南側柵,34.7706076,135.4012049,
兵庫県,伊丹市,80,美鈴町1丁目45番地,美鈴児童遊園地 東側金網,34.7727795,135.4028287,
兵庫県,伊丹市,81,南野北1丁目3番41号,南野センター 西側ブロック塀,34.7713495,135.4037174,
兵庫県,伊丹市,82,南野4丁目8番街区,南野宮ノ前公園 北側金網,34.7674207,135.404365,
兵庫県,伊丹市,83,安堂寺町6丁目104番地,南野平塚公園 北西側金網,34.7645521,135.4068639,
兵庫県,伊丹市,84,御願塚2丁目6番1号,南小学校 西側ブロック塀,34.7700611,135.4129059,
兵庫県,伊丹市,85,御願塚3丁目9番街区,ふじ児童遊園地 南側金網,34.7683448,135.4125236,
兵庫県,伊丹市,86,御願塚2丁目6番1号,南小学校 南側金網,34.7700611,135.4129059,
兵庫県,伊丹市,87,御願塚2丁目2番23号,旧南幼稚園 西側鉄柵,34.770902,135.4130698,
兵庫県,伊丹市,88,御願塚2丁目6番1号,南小学校 北門横金網,34.7700611,135.4129059,
兵庫県,伊丹市,89,御願塚1丁目6番街区,新伊丹公園 西側鉄柵,34.7724738,135.4123031,
兵庫県,伊丹市,90,御願塚8丁目10番街区,個人宅前金岡排水路 東側鉄柵,34.7658774,135.4095834,
兵庫県,伊丹市,91,稲野町4丁目46番地,稲野センター 西側ブロック塀（東向）,34.7629983,135.4139763,
兵庫県,伊丹市,92,稲野町1丁目76番地5,阪急稲野駅 東側金網,34.7654255,135.4165667,
兵庫県,伊丹市,93,稲野町7丁目41番地,なかよし児童遊園地 南側金網,34.7653962,135.4125971,
兵庫県,伊丹市,94,稲野町1丁目76番地5,阪急稲野駅南 西側金網,34.7654255,135.4165667,
兵庫県,伊丹市,95,稲野町2丁目3番地5,こばと保育所 東側金網（建屋横）,34.7628167,135.4179119,
兵庫県,伊丹市,96,稲野町7丁目54番地先,個人宅前 水路ガードレール（西向）,34.7657017,135.412395,
兵庫県,伊丹市,97,若菱町5丁目1番地,三菱電機総合グランド 北側金網,34.7600189,135.413145,
兵庫県,伊丹市,98,若菱町4丁目1番地,三菱電機総合グランド東面 南側鉄柵,34.7607385,135.4136262,
兵庫県,伊丹市,99,若菱町2丁目2番地,若菱公園 北側金網,34.7609331,135.4149494,
兵庫県,伊丹市,100,若菱町4丁目1番地先,三菱電機総合グランド東面 北側鉄柵,34.7607385,135.4136262,
兵庫県,伊丹市,101,柏木町1丁目79番地,柏木町児童遊園地 西側鉄柵,34.759416,135.4140673,
兵庫県,伊丹市,102,若菱町2丁目2番地,若菱公園 南側鉄柵,34.7609331,135.4149494,
兵庫県,伊丹市,103,若菱町4丁目1番地先,三菱電機総合グランド東面 中央鉄柵,34.7607385,135.4136262,
兵庫県,伊丹市,104,安堂寺町1丁目30番地,矢倉塚児童遊園地 東側金網,34.7641153,135.4089219,
兵庫県,伊丹市,105,安堂寺町2丁目98番地,南野公園 北側柵,34.7629937,135.4100979,
兵庫県,伊丹市,106,安堂寺町2丁目46番地,若葉児童遊園地 南側柵,34.7629937,135.4100979,
兵庫県,伊丹市,107,安堂寺町4丁目49番地2,安堂寺センター 南側柵,34.7621367,135.4084043,
兵庫県,伊丹市,108,安堂寺町5丁目1番地先,酒井モータープール前 金岡排水路鉄柵,34.7624743,135.4065699,
兵庫県,伊丹市,109,安堂寺町2丁目1番地,三菱電機㈱太平寮 北側金網,34.763764,135.4103311,
兵庫県,伊丹市,110,安堂寺町2丁目10番地,三菱電機㈱誠心寮 西側金網,34.7626086,135.411337,
兵庫県,伊丹市,111,野間北2丁目10番街区,日生住宅児童遊園地 南側金網,34.7698803,135.3940769,
兵庫県,伊丹市,112,野間北4丁目1番街区,平田公園 北側金網,34.7689889,135.3930483,
兵庫県,伊丹市,113,野間北4丁目1番街区,県営伊丹野間住宅1号棟 東側柵,34.7689889,135.3930483,
兵庫県,伊丹市,114,野間4丁目8,野間西公園 西側鉄柵,34.7660258,135.3911379,
兵庫県,伊丹市,115,野間8丁目14番街区,野間公園 西側植込,34.7641735,135.3961344,
兵庫県,伊丹市,116,野間1丁目4番街区,野間東公園 東側柵,34.7671806,135.3962262,
兵庫県,伊丹市,117,野間北4丁目28番,野間笠松センター前 南側金網,34.7689889,135.3930483,
兵庫県,伊丹市,118,野間北3丁目5番街区,一本松公園 東側柵,34.7693378,135.3963548,
兵庫県,伊丹市,119,野間北4丁目5番街区,県営野間団地6号棟向 西側水路防護柵,34.7692424,135.3919461,
兵庫県,伊丹市,120,野間北5丁目7番街区,野間北公園 北側鉄柵,34.7681033,135.3914318,
兵庫県,伊丹市,121,山田2丁目1番2号,昆陽里小学校 西側金網,34.7730845,135.3908085,
兵庫県,伊丹市,122,山田2丁目4番街区,伊丹市バス回転場 南側鉄板フェンス,34.7718564,135.3905501,
兵庫県,伊丹市,123,山田2丁目1番2号,昆陽里小学校 正門西横金網,34.7730845,135.3908085,
兵庫県,伊丹市,124,山田3丁目10番街区,北出建具店 南側ガードレール（北向）,34.7723747,135.3871705,
兵庫県,伊丹市,125,山田5丁目3番街区,辻公園 東側金網,34.7717777,135.3843788,
兵庫県,伊丹市,126,野間北1丁目8番街区,塚口グリーンポリス児童遊園地 南側柵,34.7711199,135.3949587,
兵庫県,伊丹市,127,山田6丁目7番街区,山田公園 西側柵,34.7731742,135.3869501,
兵庫県,伊丹市,128,山田5丁目12番街区,山田下西在児童遊園地 東側金網,34.7702226,135.3838646,
兵庫県,伊丹市,129,山田1丁目6番街区,昆陽南公園 東側柵,34.7744828,135.3914318,
兵庫県,伊丹市,130,寺本1丁目100番地,寺本Ⅱ児童遊園地 西側金網,34.7751734,135.3886049,
兵庫県,伊丹市,131,千僧5丁目91番地,アルビス伊丹千僧集会所 西側植込み,34.7811214,135.4058922,
兵庫県,伊丹市,132,千僧5丁目91番地,アルビス伊丹千僧9号棟 西側植込み,34.7811214,135.4058922,
兵庫県,伊丹市,133,千僧5丁目167番地4地先,千僧越塚公園 東側鉄柵,34.7827116,135.4054027,
兵庫県,伊丹市,134,昆陽東1丁目1番街区,よびこ堂東側 金岡排水路柵（西向）,34.7804086,135.4059084,
兵庫県,伊丹市,135,千僧6丁目95番地,堂の前公園 西側鉄柵,34.7817861,135.4033361,
兵庫県,伊丹市,136,千僧5丁目91番地,千僧中橋欄干横 南側金網,34.7811214,135.4058922,
兵庫県,伊丹市,137,船原1丁目1番1号,伊丹小学校 北東側植込み,34.7821591,135.4134332,
兵庫県,伊丹市,138,船原2丁目4番20号,伊丹市営斎場 西側植込み,34.7825368,135.4096183,
兵庫県,伊丹市,139,船原1丁目1番1号,伊丹小学校 南側植込み,34.7821591,135.4134332,
兵庫県,伊丹市,140,船原2丁目1番街区,一ツ橋公園 東側柵,34.7819117,135.411715,
兵庫県,伊丹市,141,桜ヶ丘1丁目2番街区,桜ヶ丘公園 東側金網,34.7831802,135.4096569,
兵庫県,伊丹市,142,船原1丁目1番1号,伊丹小学校 北側植込み,34.7821591,135.4134332,
兵庫県,伊丹市,143,宮ノ前1丁目3番30,アイフォイックホール東側植え込み,34.7825655,135.4155736,
兵庫県,伊丹市,144,昆陽東1丁目2番街区,公務員宿舎 東側水路,34.7791307,135.4053939,
兵庫県,伊丹市,145,清水4丁目3番1号,北中学校 東側金網,34.786557,135.4144532,
兵庫県,伊丹市,146,清水4丁目3番1号,北中学校 正門西側ガードレール,34.786557,135.4144532,
兵庫県,伊丹市,147,清水4丁目3番1号,北中学校 西側金網,34.786557,135.4144532,
兵庫県,伊丹市,148,桜ヶ丘1丁目5番20号,伊丹幼稚園 東側金網,34.7841066,135.4110987,
兵庫県,伊丹市,149,桜ヶ丘1丁目5番20号,伊丹幼稚園 西側金網,34.7841066,135.4110987,
兵庫県,伊丹市,150,桜ヶ丘5丁目2番街区,桜ヶ丘Ⅱ児童遊園地 北側金網,34.7855409,135.4093629,
兵庫県,伊丹市,151,大鹿7丁目27番地,大鹿ふれあい公園 東側金網,34.7882669,135.4071579,
兵庫県,伊丹市,152,大鹿4丁目36番地先,妙宣寺 北側ガードレール,34.7896819,135.4100286,
兵庫県,伊丹市,153,高台2丁目14番地,緑丘小学校 南東金網,34.7916589,135.4090356,
兵庫県,伊丹市,154,高台2丁目14番地,緑丘小学校 西側金網,34.7916589,135.4090356,
兵庫県,伊丹市,155,高台2丁目14番地,緑丘小学校 北側植込み,34.7916589,135.4090356,
兵庫県,伊丹市,156,春日丘2丁目136番地2,春日丘公園 西側金網,34.7896979,135.412087,
兵庫県,伊丹市,157,瑞穂町4丁目25番地,瑞穂センター 東側金網,34.7925305,135.4031356,
兵庫県,伊丹市,158,瑞穂町3丁目50番地1,瑞穂小学校 西側金網,34.7932998,135.4047692,
兵庫県,伊丹市,159,瑞穂町3丁目50番地1,瑞穂小学校 南側金網,34.7932998,135.4047692,
兵庫県,伊丹市,160,瑞ヶ丘5丁目1番地,瑞ヶ池公園 西側鉄柵,34.795525,135.400299,緯度経度は怪しい
兵庫県,伊丹市,161,瑞ヶ丘1丁目1番地,瑞ヶ丘公園 北側鉄柵,34.7925012,135.3995146,
兵庫県,伊丹市,162,緑ケ丘1丁目64番地,（緑ケ丘公園内）緑ケ丘センター南側（北向）,34.794956,135.40773,緯度経度は怪しい
兵庫県,伊丹市,163,鋳物師１丁目27番地先,坂ノ下バス停　鉄柵,34.7962702,135.411274,
兵庫県,伊丹市,164,鋳物師4丁目95番地,庄境公園　南側鉄柵,34.8002239,135.411127,
兵庫県,伊丹市,165,緑ケ丘5丁目90番地1地先,ガーデンコート緑ケ丘B棟　南側水路鉄柵,34.7967202,135.4050816,
兵庫県,伊丹市,166,緑ケ丘1丁目87番地,緑ケ丘公園　西側鉄柵,34.7930927,135.4083669,
兵庫県,伊丹市,167,緑ケ丘1丁目87番地,緑ケ丘公園　南側植込み,34.7930927,135.4083669,
兵庫県,伊丹市,168,緑ケ丘1丁目10番地1,緑ケ丘体育館　南側スロープ鉄柵,34.7938208,135.4100244,
兵庫県,伊丹市,169,東野5丁目73番地,東野福祉会館　南側,34.8022129,135.3989267,
兵庫県,伊丹市,170,東野1丁目76番地1,東野公園西側金網,34.7998108,135.4024533,
兵庫県,伊丹市,171,東野3丁目59番地先,東野第1駐車場　東側鉄柵,34.8011909,135.4010289,
兵庫県,伊丹市,172,瑞原3丁目63番地,城ヶ市公園　東側鉄柵,34.7988025,135.3957853,
兵庫県,伊丹市,173,瑞原3丁目49番地,伊丹スポーツセンター東テニスコート　北側金網,34.7992088,135.3946644,
兵庫県,伊丹市,174,荻野1丁目13番地,若梅公園　東側柵,34.8012786,135.3951056,
兵庫県,伊丹市,175,荻野1丁目140番地,天神川水路転落防止柵,34.8000774,135.3933588,
兵庫県,伊丹市,176,荒牧5丁目2番18号,荒牧中学校 北側金網,34.8093977,135.3823357,
兵庫県,伊丹市,177,荒牧5丁目2番18号,荒牧中学校 西側金網,34.8093977,135.3823357,
兵庫県,伊丹市,178,荒牧3丁目16番街区,荒牧第三公園 南側植込み,34.8104567,135.37718,
兵庫県,伊丹市,179,荒牧4丁目1番街区,荒牧第二公園 西側金網,34.8111798,135.3814404,
兵庫県,伊丹市,180,荒牧5丁目2番18号,荒牧中学校 東側金網,34.8093977,135.3823357,
兵庫県,伊丹市,181,荒牧1丁目16番街区,ふるさと荘西 水路防護柵,34.807179,135.3793836,
兵庫県,伊丹市,182,荒牧5丁目16番27号,荒牧デイサービスセンター前植込み,34.8100616,135.3854457,
兵庫県,伊丹市,183,鴻池6丁目14番街区,鴻池児童遊園地 南側柵,34.8007476,135.3852604,
兵庫県,伊丹市,184,鴻池3丁目9番3号,市営鴻池南住宅 南側金網,34.7971677,135.3860241,
兵庫県,伊丹市,185,鴻池3丁目6番街区,ゲートボール場 西側水路防護柵,34.7980942,135.3873174,
兵庫県,伊丹市,186,鴻池3丁目4番28号,天王寺川中学校 南側金網,34.796028,135.3853895,
兵庫県,伊丹市,187,鴻池4丁目4番4号,こうのいけ幼稚園 東側金網,34.7995151,135.3927533,
兵庫県,伊丹市,188,鴻池3丁目6番街区,鴻池墓地公園 東側鉄柵,34.7980942,135.3873174,
兵庫県,伊丹市,189,鴻池3丁目20番街区,水路防護柵,34.7989316,135.3867297,
兵庫県,伊丹市,190,中野東3丁目22番地,中野公民館 北側金網,34.7912958,135.3881809,
兵庫県,伊丹市,191,中野東1丁目301番地先,水路防護柵,34.791884,135.3915787,
兵庫県,伊丹市,192,中野西1丁目147,御坊坂ノ下公園 南東角,34.7886967,135.3856332,
兵庫県,伊丹市,193,中野西1丁目148番地1,サンシティホール 北側植込み,34.7885852,135.3849007,
兵庫県,伊丹市,194,中野西1丁目147番地,市営天神川団地3号棟 南側金網,34.7886967,135.3856332,
兵庫県,伊丹市,195,中野東2丁目400番地,中野行浪公園 南側鉄柵,34.7930665,135.3909404,
兵庫県,伊丹市,196,中野東1丁目47番地先,中野明神公園南側金網,34.7914767,135.3920288,
兵庫県,伊丹市,197,奥畑5丁目地先,道路西側転落防止柵,34.7864052,135.3845258,
兵庫県,伊丹市,198,松ケ丘3丁目11番地,松ケ丘公園 北側柵,34.786232,135.389494,
兵庫県,伊丹市,199,昆陽池1丁目105番地,伊丹病院東面北 立体駐車場フェンス,34.7846446,135.3963916,
兵庫県,伊丹市,200,奥畑3丁目1番地,金井重要工業㈱駐車場 東側金網,34.7833417,135.3878968,
兵庫県,伊丹市,201,昆陽池2丁目143番地,住友電気工業㈱応心新寮 南側金網,34.7867606,135.3933597,
兵庫県,伊丹市,202,昆陽池3丁目1番地,昆陽池公園 玉田団地バス停南金網,34.787682,135.397049,緯度経度は怪しい
兵庫県,伊丹市,203,昆陽池3丁目1番地,昆陽池公園立体駐車場 西側柵,34.787682,135.397049,緯度経度は怪しい
兵庫県,伊丹市,204,昆陽池1丁目100番地,伊丹病院西面 入口駐輪場鉄パイプ,34.7825256,135.3969912,
兵庫県,伊丹市,205,奥畑2丁目147番地,若竹児童遊園地 北東側柵,34.7821786,135.3859617,
兵庫県,伊丹市,206,中野西3丁目120番地1,中野西公園　西側鉄柵,34.7882216,135.3830565,
兵庫県,伊丹市,207,西野1丁目240番地4,西野二ツ塚公園　北側植込み,34.7878421,135.3785159,
兵庫県,伊丹市,208,西野4丁目106番地先,西野変電所交差点　南ガードレール,34.7853852,135.3751234,
兵庫県,伊丹市,209,西野7丁目3番地先,マイシティ武庫川レックスマンションA棟向東側金網,34.7845454,135.3732123,
兵庫県,伊丹市,210,西野2丁目404番地,西野大谷公園　南側鉄柵,34.7892338,135.3786491,
兵庫県,伊丹市,211,中野西4丁目100番地,桜台小学校　南側金網,34.7905588,135.3822355,
兵庫県,伊丹市,212,西野1丁目312番地1地先,十六名公園　南側入口東側フェンス,34.7861167,135.3778771,
兵庫県,伊丹市,213,池尻6丁目172番地1地先,池尻文化センター北側水路防護柵（南向）,34.7820738,135.379696,
兵庫県,伊丹市,214,池尻6丁目221番地,池尻小学校　東側金網,34.7824498,135.3776744,
兵庫県,伊丹市,215,池尻6丁目231番地,いけじり幼稚園　西側金網,34.783174,135.3772343,
兵庫県,伊丹市,216,池尻3丁目352番地,西野公園　西側金網,34.782845,135.380371,緯度経度は怪しい
兵庫県,伊丹市,217,池尻6丁目82番地5,池尻西公園　西側植込み,34.7796553,135.3785812,
兵庫県,伊丹市,218,池尻3丁目57番地7,池尻東公園　北西側植込み,34.7822977,135.3840899,
兵庫県,伊丹市,219,池尻3丁目46番地,池尻Ⅱ児童遊園地　西側金網,34.7816259,135.383948,
兵庫県,伊丹市,220,池尻4丁目,池尻北公園,34.7853183,135.382175,
兵庫県,伊丹市,221,奥畑5丁目地先,道路東側転落防止柵,34.7864052,135.3845258,
兵庫県,伊丹市,222,寺本6丁目152番地,寺本公園 西側柵,34.7808364,135.3868766,
兵庫県,伊丹市,223,寺本3丁目135番地,花里小学校 西門北側金網,34.7775291,135.3860474,
兵庫県,伊丹市,224,寺本2丁目161番地先,寺本会館前植込み(北向),34.7761933,135.3879408,
兵庫県,伊丹市,225,寺本3丁目55番地,花里小学校 東側金網(正門南側),34.7758638,135.3855196,
兵庫県,伊丹市,226,寺本5丁目114番地,平町児童遊園地 西側植込み,34.7788618,135.3896248,
兵庫県,伊丹市,227,寺本4丁目71番地,アルビス寺本集会所 南側ブロック塀,34.7795649,135.3911012,
兵庫県,伊丹市,228,寺本4丁目63番地3,寺本東公園 南側金網,34.7777687,135.3908235,
兵庫県,伊丹市,229,寺本4丁目72番地,アルビス寺本1号棟 西側植込み,34.7795152,135.3905829,
兵庫県,伊丹市,230,寺本4丁目71番地,アルビス寺本4号棟 北側植込み(南向),34.7795649,135.3911012,
兵庫県,伊丹市,231,昆陽南4丁目4番地先,道路東側転落防止柵,34.7751446,135.3946648,
兵庫県,伊丹市,232,昆陽4丁目125番地,昆陽文化会館　入口横植込み,34.7818725,135.3973748,
兵庫県,伊丹市,233,昆陽1丁目175番地,稲野小学校　北側金網,34.7826441,135.3987401,
兵庫県,伊丹市,234,昆陽1丁目175番地,稲野小学校　東側金網,34.7826441,135.3987401,
兵庫県,伊丹市,235,昆陽6丁目10番地1,長勢児童遊園地　西側金網,34.7800201,135.3975459,
兵庫県,伊丹市,236,昆陽南1丁目11番街区,ろうきん昆陽コーポ　北西側植込み,34.7780311,135.3973101,
兵庫県,伊丹市,237,昆陽5丁目200番地6,佐藤裏公園　東側金網,34.7799786,135.3951378,
兵庫県,伊丹市,238,広畑3丁目1番地3,昆陽池公園昆虫館バス駐車場　南側金網,34.7873802,135.4022256,
兵庫県,伊丹市,239,広畑3丁目1番地,交通局　北東側金網,34.7888993,135.4009476,
兵庫県,伊丹市,240,広畑3丁目1番地,交通局北側ブロック塀,34.7888993,135.4009476,
兵庫県,伊丹市,241,広畑6丁目1番地1地先,千僧浄水場　東側水路鉄柵,34.7855886,135.3987719,
兵庫県,伊丹市,242,瑞ケ丘2丁目2番地,住友電気工業㈱第一応心寮　西側金網,34.7875829,135.3985354,
兵庫県,伊丹市,243,瑞ケ丘2丁目2番地,住友電気工業㈱昆陽池社宅　西側金網,34.7875829,135.3985354,
兵庫県,伊丹市,244,瑞ケ丘2丁目3番地3,瑞穂緑地(公園)　東側金網,34.7902636,135.4001301,
兵庫県,伊丹市,245,昆陽池1丁目10番地先,スワンホール前バス停横水路柵,34.7852261,135.3981412,
兵庫県,伊丹市,246,下河原1丁目11番街区,下河原Ⅱ児童遊園地 西側金網,34.800742,135.4290656,
兵庫県,伊丹市,247,下河原2丁目14番街区,下河原Ⅲ児童遊園地 西側金網,34.7992076,135.429948,
兵庫県,伊丹市,248,下河原3丁目2番31,下河原緑地金網,34.797827,135.4291301,
兵庫県,伊丹市,249,下河原1丁目9番22号,下河原センター西側,34.8013344,135.4285041,
兵庫県,伊丹市,250,下河原3丁目2番31,下河原緑地駐車場ガードレール,34.797827,135.4291301,
兵庫県,伊丹市,251,北園1丁目21番地1,北村交流センター 北側植込み,34.7934184,135.4158128,
兵庫県,伊丹市,252,北伊丹2丁目64番地,北伊丹第1公園 東側鉄柵,34.7925896,135.4189191,
兵庫県,伊丹市,253,北伊丹5丁目13番地1,北村水源地 北側金網,34.7949612,135.4219151,
兵庫県,伊丹市,254,北伊丹9丁目6番地,JR北伊丹駅南 北伊丹駐輪場 西側金網,34.79992,135.4209777,
兵庫県,伊丹市,255,北園1丁目41番地1地先,個人宅前 駄六川ガードレール,34.7939586,135.4145635,
兵庫県,伊丹市,256,北伊丹4丁目74番地先,北伊丹第2公園 西側鉄柵,34.7953634,135.4189191,
兵庫県,伊丹市,257,北河原2丁目8番6号,北河原センター 西側金網,34.7879463,135.4194889,
兵庫県,伊丹市,258,北河原1丁目8番街区,北河原Ⅱ児童遊園地 西側金網,34.7864281,135.4213453,
兵庫県,伊丹市,259,北本町1丁目186他,北本町公園 北側植込み,34.7842676,135.4189191,
兵庫県,伊丹市,260,北本町3丁目207番地先,㈱精和工業所第2工場 南側ガードレール,34.7906949,135.4180301,
兵庫県,伊丹市,261,北本町3丁目50番地,伊丹市公設市場 西側植込み,34.7878433,135.4173706,
兵庫県,伊丹市,262,北本町1丁目321番地先,伏見橋西詰 南植込み,34.7842676,135.4189191,
兵庫県,伊丹市,263,北本町1丁目302番地,くすのきⅡ児童遊園地内（西向）,34.7840426,135.4192587,
兵庫県,伊丹市,264,北本町2丁目133番地,東消防署 南側植込み,34.7861035,135.4168807,
兵庫県,伊丹市,265,北本町2丁目地先,宮ノ下広場南西ガードレール,34.7866518,135.4162726,
兵庫県,伊丹市,266,北本町2丁目220番地1,宮ノ上公園 東側金網,34.7866518,135.4162726,
兵庫県,伊丹市,267,北本町2丁目131番地1地先,伊丹クレセール保育園 西側水路鉄柵,34.7863213,135.4163829,
兵庫県,伊丹市,268,中央6丁目3番街区,西ノ町児童遊園地 西側金網,34.7783827,135.4178899,
兵庫県,伊丹市,269,中央6丁目2番街区,旧伊丹シティホテル東側植込 中央3丁目交差点付近,34.7793566,135.4175959,
兵庫県,伊丹市,270,森本1丁目8番地22,神津交流センター 東側鉄柵,34.7793975,135.4302281,
兵庫県,伊丹市,271,森本1丁目8番地1,神津小学校 正門西側金網,34.7801137,135.4288257,
兵庫県,伊丹市,272,森本7丁目1番地1,伊丹スカイパーク北側入口 南側鉄柵,34.778679,135.441757,緯度経度は怪しい
兵庫県,伊丹市,273,森本2丁目197番地,加茂神社 西側玉垣,34.7802497,135.4319027,
兵庫県,伊丹市,274,森本4丁目112番地,神津公園(神津大橋バス停) 西側鉄柵,34.7781757,135.4315658,
兵庫県,伊丹市,275,森本8丁目43番地先,スカイパーク臨時駐車場 北側金網,34.7793349,135.438565,
兵庫県,伊丹市,276,北野4丁目40番地,北野第1住宅 北側金網,34.8034781,135.3880456,
兵庫県,伊丹市,277,北野5丁目44番地,市営北野団地 北側金網,34.8057049,135.3866709,
兵庫県,伊丹市,278,北野3丁目46番地,市営荒牧第7団地2号棟 東側金網,34.8045191,135.3864899,
兵庫県,伊丹市,279,北野4丁目35番地,長沢公園 西側金網,34.8027968,135.3884929,
兵庫県,伊丹市,280,北野1丁目67番地4,長尾公園 北側柵,34.8020211,135.3872495,
兵庫県,伊丹市,281,荻野西1丁目2番18号,個人宅 北側金網,34.8022201,135.3902357,
兵庫県,伊丹市,282,北野1丁目81番地,市営長尾住宅2号棟 南西側金網,34.8013948,135.3872348,
兵庫県,伊丹市,283,北野1丁目13番地,北センター 西側柵,34.8020052,135.3861966,
兵庫県,伊丹市,284,千僧2丁目151番地,天神社西側 溝鉄柵,34.7843362,135.4036931,
兵庫県,伊丹市,285,千僧4丁目347番地,シオノギファーマ(株) 北側鉄板フェンス,34.7836238,135.4063327,
兵庫県,伊丹市,286,千僧4丁目347番地,シオノギファーマ㈱ 西側フェンス,34.7836238,135.4063327,
兵庫県,伊丹市,287,千僧1丁目1番地,市役所 西側植込み,34.7845732,135.4003576,
兵庫県,伊丹市,288,千僧1丁目1番地1,保健センターと伊丹市本庁の間,34.7848249,135.4017893,
兵庫県,伊丹市,289,千僧1丁目1番地,伊丹千僧公民館Ⅱ入口植込み,34.7845732,135.4003576,
兵庫県,伊丹市,290,千僧1丁目1番地,総合教育センター 南側植込み,34.7845732,135.4003576,
兵庫県,伊丹市,291,岩屋1丁目5番42号,岩屋センター 北側金網,34.7756768,135.4402072,
兵庫県,伊丹市,292,岩屋1丁目1番街区,産業廃棄物中間処理施設 南西側鉄柵,34.7780148,135.4405382,
兵庫県,伊丹市,293,岩屋1丁目5番街区,岩屋児童遊園地 南側金網,34.7760015,135.4406853,
兵庫県,伊丹市,294,口酒井3丁目1番街区,東口酒井バス停西側鉄柵,34.7749623,135.4405382,
兵庫県,伊丹市,295,口酒井1丁目3番39号,口酒井センター 東側金網,34.7749668,135.4349086,
兵庫県,伊丹市,296,桑津3丁目1番街区,西桑津公園　南側鉄柵,34.7830872,135.4328895,
兵庫県,伊丹市,297,桑津2丁目8番街区,北浦公園　南側鉄柵,34.786157,135.4311246,
兵庫県,伊丹市,298,桑津2丁目1番街区,沢公園　西側鉄柵,34.7836659,135.4305363,
兵庫県,伊丹市,299,桑津3丁目1番10号地先,林米穀店前　ガードレール,34.7836239,135.4315813,
兵庫県,伊丹市,300,桑津2丁目3番街区,西桑津センター前　東側鉄柵,34.7844569,135.4311981,
兵庫県,伊丹市,301,桑津1丁目2番街区,県営伊丹西桑津住宅　南側バス停前金網,34.7836069,135.4295068,
兵庫県,伊丹市,302,桑津1丁目2番街区,県営伊丹西桑津住宅　西側金網,34.7836069,135.4295068,
兵庫県,伊丹市,303,大野3丁目5番地,大野センター　東側金網,34.8048732,135.3986065,
兵庫県,伊丹市,304,大野1丁目125番地,医療施設　東側ガードレール,34.8063271,135.4004975,
兵庫県,伊丹市,305,大野1丁目,大野なでしこ児童遊園地南側フェンス,34.8056707,135.3998086,
兵庫県,伊丹市,306,大野2丁目159番地,おぎの幼稚園　北東側金網,34.8039548,135.39656,
兵庫県,伊丹市,307,大野1丁目1番地3,大野クチナシ児童遊園地　南側金網,34.8040425,135.4015539,
兵庫県,伊丹市,308,鴻池１丁目１番地先,スポーツセンター体育館西側植込み,34.798164,135.392502,緯度経度は怪しい
兵庫県,伊丹市,309,鴻池１丁目２番街区,県公社伊丹鴻池団地3B棟前 西側柵,34.7961031,135.3926074,
兵庫県,伊丹市,310,鴻池１丁目８番６号,伊丹特別支援学校 西側金網,34.7983532,135.3903986,
兵庫県,伊丹市,311,鴻池１丁目１１番２０号,ニッタン㈱伊丹工場 北側金網,34.7969994,135.388588,
兵庫県,伊丹市,312,鴻池２丁目１１番街区,伊丹スポーツセンター第2駐車場南側金網,34.7937879,135.3881991,
兵庫県,伊丹市,313,中野東２丁目３２番地,中野東センター 北側金網,34.7936731,135.3928279,
兵庫県,伊丹市,314,瑞原２丁目１３番地,玉田公園 南東側柵,34.7955912,135.3953996,
兵庫県,伊丹市,315,鴻池１丁目１番街区,伊丹スポーツセンター第2駐車場入口東側金網,34.798164,135.392502,緯度経度は怪しい
兵庫県,伊丹市,316,中野東２丁目９２番地１,市営新田中野住宅1号棟 東側金網,34.7942188,135.3911878,
兵庫県,伊丹市,317,西野3丁目76番地,西野センター 北側金網,34.7904529,135.3745249,
兵庫県,伊丹市,318,西野3丁目102番地,西野北公園 西側金網,34.7902346,135.3754172,
兵庫県,伊丹市,319,西野6丁目121番地,西野西児童遊園地 北側金網,34.7922029,135.3724794,
兵庫県,伊丹市,320,西野6丁目268番地,芝ノ小松原緑地 東側金網,34.7922029,135.3724794,
兵庫県,伊丹市,321,西野6丁目234番地,小松原児童遊園地 東側金網,34.7918877,135.3719102,
兵庫県,伊丹市,322,西野5丁目258番地,西野東川原公園 西側金網,34.7881689,135.3739483,
兵庫県,伊丹市,323,西野8丁目5番地,県営伊丹西野第6住宅4号棟 東側金網,34.790863,135.371277,緯度経度は怪しい
兵庫県,伊丹市,324,西野5丁目300番地,武庫川センター 南側金網,34.7889533,135.3725344,
兵庫県,伊丹市,325,南野5丁目11番街区,佐々原児童遊園地 南側金網,34.7669926,135.4020867,
兵庫県,伊丹市,326,南野6丁目5番33号,笹原小学校 東側金網,34.766899,135.3997259,
兵庫県,伊丹市,327,南野6丁目5番33号,笹原小学校 西側 正門南横金網,34.766899,135.3997259,
兵庫県,伊丹市,328,車塚2丁目70番地2,塚口ハウス児童遊園地 南側金網,34.7634849,135.3990931,
兵庫県,伊丹市,329,車塚2丁目86番地,車塚公園 北側柵,34.7622184,135.3996524,
兵庫県,伊丹市,330,車塚1丁目32番地1地先,野間口バス停南 水路鉄柵,34.7640318,135.3996523,
兵庫県,伊丹市,331,車塚1丁目32番地,あすなろセンター 東側金網,34.7649213,135.4006776,
兵庫県,伊丹市,332,車塚3丁目1番地,近畿中央病院 入口南横ブロック塀,34.7626748,135.4008282,
兵庫県,伊丹市,333,車塚1丁目32番地1地先,笹原公園南側 水路鉄柵,34.7640318,135.3996523,
兵庫県,伊丹市,334,荻野3丁目73番地,荻野センター 南側金網,34.8039493,135.3922025,
兵庫県,伊丹市,335,荻野3丁目72番地,荻野公園 東側鉄柵,34.8030949,135.3936361,
兵庫県,伊丹市,336,荻野2丁目11番地,荻野小学校 東側水路防止柵,34.8039101,135.3953996,
兵庫県,伊丹市,337,荻野2丁目45番地,若竹公園 東側鉄柵,34.8039101,135.3953996,
兵庫県,伊丹市,338,荻野8丁目33番地4,荻野保育所 東側金網,34.8091578,135.3883578,
兵庫県,伊丹市,339,荻野8丁目65番地,若松公園 東側鉄柵,34.8085431,135.3892276,
兵庫県,伊丹市,340,荻野6丁目24番地,市立古池運動広場 西側塀,34.8086624,135.3912849,
兵庫県,伊丹市,341,中野北2丁目4番街区,中野池ノ東児童遊園地 東側金網,34.7935877,135.3837177,
兵庫県,伊丹市,342,中野北1丁目5番街区,中野湯出児童遊園地 北側金網,34.7952542,135.3834238,
兵庫県,伊丹市,343,中野北2丁目10番19号,中野北センター 西側植込み,34.7937069,135.3821149,
兵庫県,伊丹市,344,中野北1丁目1番54号,中野北児童遊園地 北側金網,34.7938102,135.3858481,
兵庫県,伊丹市,345,中野北4丁目4番街区,土地改良之碑 北側植込み(中野墓園南側),34.7919248,135.3799713,
兵庫県,伊丹市,346,中野北3丁目36番地先,パークホームズ東側 水路防護柵,34.7914298,135.3809997,
兵庫県,伊丹市,347,中野北3丁目1番街区,個人宅向 水路防護柵(東向),34.7920384,135.3826158,
兵庫県,伊丹市,348,荒牧南3丁目6番街区,桑田公園 南側鉄柵,34.807554,135.3837911,
兵庫県,伊丹市,349,荒牧南3丁目17番12号,天神川小学校 西側金網,34.8057362,135.3850125,
兵庫県,伊丹市,350,荒牧南3丁目17番12号,天神川小学校 東側金網,34.8057362,135.3850125,
兵庫県,伊丹市,351,荒牧南4丁目15番街区,市営萩野団地5号棟 西側鉄柵,34.8073146,135.3871705,
兵庫県,伊丹市,352,荒牧南2丁目7番地先,ケーズデンキ南側溝転落防止柵,34.8060429,135.3823219,
兵庫県,伊丹市,353,荒牧南2丁目13番街区,城の前モータープール向水路防護柵(西向),34.805464,135.38122,
兵庫県,伊丹市,354,荒牧南2丁目20番街区,土橋公園 南側柵,34.8052683,135.3798978,
兵庫県,伊丹市,355,池尻1丁目199番地,池尻南センター出入口（直東） バストラル昆陽フェンス,34.7763504,135.3829435,
兵庫県,伊丹市,356,池尻1丁目32番地,昆陽里Ⅱ児童遊園地 東側金網,34.7744686,135.3831208,
兵庫県,伊丹市,357,池尻5丁目24番地先,伊丹池尻団地東側 水路防護柵,34.7751808,135.3815496,
兵庫県,伊丹市,358,池尻1丁目196番地,バストラル昆陽 北西側柵,34.7768993,135.383534,
兵庫県,伊丹市,359,荒牧6丁目20番29号,鶴田センター 入口東側植込み,34.8111634,135.3888235,
兵庫県,伊丹市,360,荒牧6丁目4番街区,みどりのプラザ本館 東側柵,34.8109895,135.3870236,
兵庫県,伊丹市,361,荒牧6丁目17番街区,荒牧バラ公園 市バス回転場 北側金網,34.8128894,135.3876848,
兵庫県,伊丹市,362,荒牧6丁目21番2号,市営鶴田団地2号館 東側鉄柵,34.8110296,135.3892506,
兵庫県,伊丹市,363,荒牧6丁目地先,鶴田センター 南側水路鉄柵,34.8113265,135.3880521,
兵庫県,伊丹市,364,東有岡１丁目１８番地１,東有岡児童遊園地　北側金網,34.7796733,135.4221054,
兵庫県,伊丹市,365,東有岡１丁目１８番地２１,東有岡Ⅱ児童遊園地　南側金網,34.779885,135.4230214,
兵庫県,伊丹市,366,東有岡１丁目１８４番地先,スポーツクラブ　ルネサンス伊丹　西向（東向）,34.7788137,135.4233304,
兵庫県,伊丹市,367,東有岡１丁目６番地,JR伊丹駅東広場　東側金網,34.7808435,135.4221133,
兵庫県,伊丹市,368,東有岡１丁目９番地,東有岡自転車駐車場　北側金網,34.780556,135.42218,緯度経度は怪しい
兵庫県,伊丹市,369,東有岡１丁目１８番地の２地先,コープ野村第２伊丹D棟西側駐車場,34.7791699,135.4236075,
