prefecture,city,number,address,name,lat,long,note
兵庫県,加古川市,1,加古川町寺家町12-4,加古川公民館受水槽前植込,34.766954,134.8330798,
兵庫県,加古川市,2,加古川町木村232-1,金剛寺浦公園北側生垣,34.763439,134.828156,緯度経度は怪しい
兵庫県,加古川市,3,加古川町寺家町39,ながはえ公園東側フェンス,34.7691387,134.8353438,
兵庫県,加古川市,4,加古川町本町366-1,本町公園東側生垣,34.770302,134.828552,緯度経度は怪しい
兵庫県,加古川市,5,加古川町寺家町,ニッケパークタウン正面玄関東側植込,34.7691387,134.8353438,
兵庫県,加古川市,6,加古川町本町439番地,加古川中央市民病院進入路歩道フェンス,34.770302,134.828552,緯度経度は怪しい
兵庫県,加古川市,7,加古川町寺家町(01-1205 寺家町5号線),ニッケパークタウン北側市道ガードレール,34.767433,134.835327,緯度経度は怪しい
兵庫県,加古川市,8,加古川町木村222-3,加古川小学校南側フェンス,34.7653378,134.8309544,
兵庫県,加古川市,9,加古川町木村222-3,加古川小学校東側フェンス,34.7653378,134.8309544,
兵庫県,加古川市,10,加古川町粟津9,大向公園南側生垣,34.7613738,134.833004,
兵庫県,加古川市,11,加古川町木村347-2,木村公園北側植込み,34.7623929,134.8270276,
兵庫県,加古川市,12,加古川町粟津(01-2446 粟津46号線),（有）クレスト東側水路ガードパイプ,34.7604432,134.8355848,
兵庫県,加古川市,13,加古川町粟津(0042 粟津養田線),粟津歩道橋南側市道ガードパイプ,34.7604432,134.8355848,
兵庫県,加古川市,14,加古川町粟津397,粟津神社東側玉垣,34.760826,134.834579,緯度経度は怪しい
兵庫県,加古川市,15,加古川町木村226-1,（旧）加古川図書館南側フェンス,34.7660105,134.8326381,
兵庫県,加古川市,16,加古川町平野(0066 平野尾上線),グリーンシティ西側市道沿空地,34.761398,134.844116,緯度経度は怪しい
兵庫県,加古川市,17,加古川町溝之口(0067 市役所線),市道市役所線の緑地帯,34.7669928,134.8447017,
兵庫県,加古川市,18,加古川町溝之口,高架下南側加古川駅東有料駐車場フェンス,34.7669928,134.8447017,
兵庫県,加古川市,19,加古川町寺家町97-1,県加古川総合庁舎南側バス停前植込み,34.763692,134.8393608,
兵庫県,加古川市,20,加古川町溝之口30-1地先(01-1215 寺家町15号線),JR加古川駅南(西側)ロータリー,34.7652074,134.8478876,
兵庫県,加古川市,21,加古川町寺家町97-1,県加古川総合庁舎北西植込み,34.763692,134.8393608,
兵庫県,加古川市,22,加古川町溝之口510-4地先(0067 市役所線),駅前駐車場北側植樹帯,34.76569,134.83963,緯度経度は怪しい
兵庫県,加古川市,23,加古川町本町294-8,播磨電材㈱東側ブロック塀,34.7708824,134.8301888,
兵庫県,加古川市,24,加古川町本町189-1,ライオンズマンション加古川リバーサイド東側フェンス,34.769755,134.8252206,
兵庫県,加古川市,25,加古川町西河原161-1,西河原公民館西側フェンス,34.768938,134.8233233,
兵庫県,加古川市,26,加古川町本町118,加古川西高等学校東側生垣前水路,34.7683772,134.8281123,
兵庫県,加古川市,27,"加古川町西河原字流田73,74",西河原児童公園南側フェンス,34.7690356,134.8213033,
兵庫県,加古川市,28,加古川町木村511,県営加古川団地3号棟横,34.7658182,134.8250164,
兵庫県,加古川市,29,加古川町本町239-1,日毛印南テニスコート西側フェンス,34.7698142,134.8289754,
兵庫県,加古川市,30,加古川町北在家(0067 市役所線),加古川郵便局北側道路沿,34.754574,134.832169,緯度経度は怪しい
兵庫県,加古川市,31,加古川町北在家(0040 加古川尾上線),市道加古川・尾上線水路沿フェンス,34.7547322,134.833004,
兵庫県,加古川市,32,加古川町備後203,加古川中学校正門東側フェンス,34.7605256,134.8238651,
兵庫県,加古川市,33,加古川町南備後176-2,市営住宅南備後市営住宅東側フェンス,34.7539074,134.8199023,
兵庫県,加古川市,34,加古川町南備後3-1先(0546 稲屋南備後線),楠木平市道植込,34.755466,134.820786,緯度経度は怪しい
兵庫県,加古川市,35,加古川町北在家2000,市役所議員駐車場北側植込,34.7569116,134.841211,
兵庫県,加古川市,36,加古川町備後170,鳩里幼稚園職員駐車場北側フェンス,34.7607915,134.8217236,
兵庫県,加古川市,37,加古川町北在家2000,市役所新庁舎玄関横植込,34.7569116,134.841211,
兵庫県,加古川市,38,加古川町北在家(0067 市役所線),小柳公園西側歩道防護柵,34.754574,134.832169,緯度経度は怪しい
兵庫県,加古川市,39,加古川町備後332-1,人権文化センター入口ゲートの塀,34.7571972,134.8231367,
兵庫県,加古川市,40,加古川町北在家419,鶴林寺公園駐車場南側植込,34.754574,134.832169,緯度経度は怪しい
兵庫県,加古川市,41,加古川町稲屋81,鳩里小学校正門北側フェンス,34.7608224,134.8204338,
兵庫県,加古川市,42,加古川町稲屋583-1,天満宮北側玉垣,34.7585591,134.8174486,
兵庫県,加古川市,43,加古川町稲屋583-1,稲屋公民館前空地,34.7585591,134.8174486,
兵庫県,加古川市,44,加古川町稲屋(01-1828 稲屋28号線),九州管工㈱北側市道ガードレール,34.756199,134.813049,緯度経度は怪しい
兵庫県,加古川市,45,加古川町稲屋841-21,小町条公園西側防護柵,34.7626714,134.8185885,
兵庫県,加古川市,46,加古川町稲屋1049-11,向河原ノ上公園西側防護柵,34.7587641,134.8116475,
兵庫県,加古川市,47,加古川町友沢65-1,加古川南高等学校正門西側防護柵,34.7686382,134.8190359,
兵庫県,加古川市,48,加古川町友沢499-3,友沢公園東側フェンス,34.7654738,134.8129412,
兵庫県,加古川市,49,加古川町大野(0035 大野西条線),日岡神社西側市道沿ガードレール,34.776012,134.858795,緯度経度は怪しい
兵庫県,加古川市,50,加古川町大野1682,日岡山公園駐車場北側植込,34.778522,134.864883,緯度経度は怪しい
兵庫県,加古川市,51,加古川町大野931,氷丘公民館東側フェンス,34.776012,134.858795,緯度経度は怪しい
兵庫県,加古川市,52,加古川町大野989-3,高橋電気道路沿ブロックフェンス,34.7736289,134.8562705,
兵庫県,加古川市,53,加古川町大野1126地先,西大野町内会バレーコート東側フェンス,34.7786561,134.8546607,
兵庫県,加古川市,54,加古川町大野374-12,穴パリ公園西側フェンス,34.7740996,134.8524319,
兵庫県,加古川市,55,加古川町中津443-1,庄司裕子氏所有の駐車場フェンス,34.7761231,134.8497445,
兵庫県,加古川市,56,加古川町中津(01-3420 中津20号線),中津ストアー南側市道水路沿フェンス,34.7758789,134.84938,
兵庫県,加古川市,57,加古川町中津259-83,的場公園南側フェンス,34.7757277,134.8472845,
兵庫県,加古川市,58,加古川町中津909-21,下締公園西側フェンス,34.7719619,134.8519777,
兵庫県,加古川市,59,加古川町中津886-1,氷丘小学校北側フェンス,34.7707105,134.8483384,
兵庫県,加古川市,60,加古川町中津886-1,氷丘小学校東側フェンス,34.7707105,134.8483384,
兵庫県,加古川市,61,加古川町美乃利397-4,知原第二公園,34.7698106,134.8501837,
兵庫県,加古川市,62,加古川町美乃利480-6,鴨才公園東側植込,34.7668869,134.8520741,
兵庫県,加古川市,63,加古川町美乃利480-2地先(01-4231 美乃利26号線),市道ガードレール(畑 忠廣氏宅向側),34.7668869,134.8520741,
兵庫県,加古川市,64,加古川町美乃利299,(有)協栄工業西側ブロック塀,34.7646272,134.8539327,
兵庫県,加古川市,65,加古川町河原376-2・378-4,北奥第2公園北側ブロック塀,34.7746486,134.8441483,
兵庫県,加古川市,66,加古川町寺家町(99-0102 里道),坂本宅・久我宅北側ガードレール,34.7691387,134.8353438,
兵庫県,加古川市,67,加古川町篠原町186-1,篠原児童公園南側フェンス,34.7700749,134.839675,
兵庫県,加古川市,68,加古川町河原390-1,北奥第一公園,34.773665,134.8428161,
兵庫県,加古川市,69,加古川町河原108-1,河原公園南側フェンス,34.7733295,134.8388923,
兵庫県,加古川市,70,加古川町篠原町109-1地先(01-1026 加古川駅北区画道路8号線),市道溝之口3号線北側ガードパイプ,34.769378,134.839889,
兵庫県,加古川市,71,加古川町溝之口474-13(01-1027 加古川駅北区画道路9号線),みんなの美容室ミサ南側市道ガードパイプ,34.7672682,134.8415608,
兵庫県,加古川市,72,加古川町河原246,氷丘南小学校西側フェンス,34.7725094,134.8423624,
兵庫県,加古川市,73,加古川町溝之口246,氷丘南小学校南側ガードパイプ,34.7694495,134.8444392,
兵庫県,加古川市,74,加古川町篠原町,加古川駅北自動車整理場ガードパイプ,34.7688917,134.8394381,
兵庫県,加古川市,75,加古川町溝之口44,東溝之口公民館横フェンス,34.7649628,134.8492278,
兵庫県,加古川市,76,加古川町溝之口44,東溝之口公民館前公園東側フェンス,34.7649628,134.8492278,
兵庫県,加古川市,77,加古川町美乃利(0554 美乃利平野線),ライオンズマンション北側市道ガードレール,34.7659364,134.8517189,
兵庫県,加古川市,78,加古川町溝之口99-1及び97-11,溝之口99-1及び97-11フェンス,34.7669928,134.8447017,
兵庫県,加古川市,79,加古川町溝之口343-12,加古川線高架下南駐輪場南側フェンス,34.7659572,134.8448232,
兵庫県,加古川市,80,加古川町美乃利43-1,JR神戸線高架下フェンス(美乃利43-1付近),34.7659364,134.8517189,
兵庫県,加古川市,81,加古川町溝之口437-4地先(0610 溝之口坂元線),市道歩道ガードパイプ,34.7648431,134.8421511,
兵庫県,加古川市,82,神野町石守1043,神野小学校変電設備前フェンス,34.7759681,134.8767913,
兵庫県,加古川市,83,神野町神野690-1,神野小学校北側フェンス(神野くすのき会館東側),34.7774775,134.8769831,
兵庫県,加古川市,84,神野町福留436,福留公民館南側植込,34.7669347,134.884492,
兵庫県,加古川市,85,神野町西之山384-1,西之山公民館東側ブロック塀,34.7829894,134.8677328,
兵庫県,加古川市,86,神野町神野2236,神野西公会堂,34.778236,134.879318,緯度経度は怪しい
兵庫県,加古川市,87,神野町神野1291-5,北神野児童公園北側フェンス,34.7845604,134.871687,
兵庫県,加古川市,88,神野町日岡苑25地先,日岡山体育館駐車場入口(プール側)法面,34.779392,134.865707,緯度経度は怪しい
兵庫県,加古川市,89,神野町西条940,西條会館敷地内,34.788604,134.8806247,
兵庫県,加古川市,90,神野町西条1077地先(0026 西条福留線),西条バス停横市道ガードレール,34.7880352,134.8825455,
兵庫県,加古川市,91,神野町西条1035,堀ノ東公園南側フェンス,34.786003,134.879288,緯度経度は怪しい
兵庫県,加古川市,92,神野町西条792-1,対馬大明神前道路東側,34.786003,134.879288,緯度経度は怪しい
兵庫県,加古川市,93,神野町西条1519-2,加古川北公民館駐車場西側フェンス,34.7863321,134.8836678,
兵庫県,加古川市,94,西条山手2丁目10,脇塚公園北側フェンス,34.7866025,134.8861317,
兵庫県,加古川市,95,西条山手2丁目28,北山公園北側植込,34.785808,134.8862048,
兵庫県,加古川市,96,山手1丁目9-1,山手中学校西側フェンス,34.7803709,134.8864085,
兵庫県,加古川市,97,山手3丁目1021-4,東神野公園北側フェンス,34.7797785,134.8943841,
兵庫県,加古川市,98,山手1丁目,市営住宅南山手公民館前,34.779172,134.8862048,
兵庫県,加古川市,99,山手1丁目9-1,山手公民館横公園北側フェンス,34.7803709,134.8864085,
兵庫県,加古川市,100,新神野1丁目9,茶の木公園東側植込,34.7913454,134.8715222,
兵庫県,加古川市,101,新神野2丁目11,迎野公園グランドバレーコート沿植込,34.7922274,134.8742253,
兵庫県,加古川市,102,新神野3丁目22,西条公園西側植込,34.7930562,134.8794119,
兵庫県,加古川市,103,新神野4丁目10,山崎公園東側植込,34.792491,134.882845,
兵庫県,加古川市,104,新神野5丁目1-28,陵北小学校北側フェンス,34.7889159,134.872918,
兵庫県,加古川市,105,新神野5丁目1,陵北小学校南側フェンス,34.7891819,134.8736409,
兵庫県,加古川市,106,新神野6丁目10,辻ヶ内公園東側植込,34.787811,134.8702071,
兵庫県,加古川市,107,神野町石守1451,石守中央公民館前植込,34.7721092,134.8761339,
兵庫県,加古川市,108,神野町石守1463-1地先(02-1838 石守16号線),新石守橋西側市道ガードレール,34.770813,134.878677,緯度経度は怪しい
兵庫県,加古川市,109,神野町石守1810,福沢農村公園北側フェンス,34.7640333,134.878403,
兵庫県,加古川市,110,神野町石守,石守神鋼社宅C-12号棟前フェンス,34.770813,134.878677,緯度経度は怪しい
兵庫県,加古川市,111,神野町石守471-9,石守公園北側防護柵,34.7678487,134.8741414,
兵庫県,加古川市,112,神野町石守,石守第2公園東側フェンス,34.770813,134.878677,緯度経度は怪しい
兵庫県,加古川市,113,神野町石守615-7(02-1812 石守団地7号線),石守団地北側市道ガードレール,34.7718076,134.8724969,
兵庫県,加古川市,114,野口町野口107-2,野口市民センター南側防護柵,34.7523388,134.8550536,
兵庫県,加古川市,115,野口町野口532-1,野口幼稚園正門東側フェンス,34.7546945,134.853802,
兵庫県,加古川市,116,野口町良野890-1,中部中学校校南側フェンス,34.751199,134.8521177,
兵庫県,加古川市,117,野口町坂元503-1,観音寺御堂南側フェンス,34.7579089,134.8511342,
兵庫県,加古川市,118,野口町野口2-1,坂元公民館南側フェンス,34.7541421,134.8503485,
兵庫県,加古川市,119,野口町坂元4-10,坂ノ下公園南側フェンス,34.7571144,134.8497972,
兵庫県,加古川市,120,野口町野口493,野口小学校正門南側防護壁,34.7548497,134.8546971,
兵庫県,加古川市,121,野口町坂元1027番地先,坂元北交差点東側JR高架下フェンス,34.7589967,134.8514657,
兵庫県,加古川市,122,野口町北野(03-2691 北野34号線),北野川北側市道ガードレール,34.7572161,134.8704263,
兵庫県,加古川市,123,野口町野口(0567 野口新在家線),東加古川ハイタウン北西JR踏切横フェンス,34.75449,134.854568,緯度経度は怪しい
兵庫県,加古川市,124,野口町北野549-1、557,北野農業会館入口柵、会館東側橋本氏宅ブロック塀,34.7544131,134.8603841,
兵庫県,加古川市,125,野口町野口129-126,野口第一公園西側植込,34.749891,134.8604076,
兵庫県,加古川市,126,野口町野口129-126,野口第一公園南側フェンス,34.749891,134.8604076,
兵庫県,加古川市,127,野口町北野148-2,北野南公園入口付近フェンス,34.7572161,134.8704263,
兵庫県,加古川市,128,野口町北野(0558 北野岸ノ下線),ローズヴィラ東加古川北側市道ガードレール,34.7572161,134.8704263,
兵庫県,加古川市,129,野口町良野890-1,中部中学校東側フェンス,34.751199,134.8521177,
兵庫県,加古川市,130,野口町古大内260-3,古大内西ノ谷児童公園北側フェンス,34.7457908,134.8524012,
兵庫県,加古川市,131,野口町古大内191-1,島文社宅西側生垣,34.7419096,134.8512392,
兵庫県,加古川市,132,野口町二屋201,二屋公園西側防護柵,34.7448626,134.8568481,
兵庫県,加古川市,133,野口町野口119-22,駅の池第二公園南側フェンス,34.751026,134.856262,緯度経度は怪しい
兵庫県,加古川市,134,野口町二屋270-6,道の畑公園西側フェンス,34.7466556,134.8583389,
兵庫県,加古川市,135,野口町北野1023-5,北野新田農業センター西側壁面,34.757938,134.871334,
兵庫県,加古川市,136,野口町北野,花園団地進入路沿県立農業高校フェンス,34.7572161,134.8704263,
兵庫県,加古川市,137,平岡町新在家,県立農業高校西側フェンス,34.747826,134.877075,緯度経度は怪しい
兵庫県,加古川市,138,野口町北野1110,野口北小学校正門南側フェンス,34.7606078,134.8699805,
兵庫県,加古川市,139,野口町北野(03-2663 北野団地12号線),狐池北側市道ガードレール,34.7572161,134.8704263,
兵庫県,加古川市,140,野口町北野133−20番地先,芦池ノ下公園南側フェンス,34.7538755,134.8695443,
兵庫県,加古川市,141,野口町北野1310-15,坂ノ上公園北側フェンス,34.7614601,134.8708515,
兵庫県,加古川市,142,野口町長砂1320,鶴児童公園東側ブロック塀,34.7442945,134.8435321,
兵庫県,加古川市,143,野口町長砂(0069 野口線),松風こみち横空き地,34.7442945,134.8435321,
兵庫県,加古川市,144,野口町長砂243-28,前池公園南側フェンス,34.7444787,134.8479223,
兵庫県,加古川市,145,野口町長砂1252-1,鶴公民館西側フェンス,34.745663,134.844727,緯度経度は怪しい
兵庫県,加古川市,146,野口町坂井328-1地先,肥田喜代司氏宅南側明姫幹線沿ガードパイプ,34.7390757,134.8487952,
兵庫県,加古川市,147,野口町坂井126-2,若宮第二公園東側植込,34.7420284,134.8488256,
兵庫県,加古川市,148,野口町長砂(03-1825 長砂25号線),松風こみち市道ガードレール,34.745663,134.844727,緯度経度は怪しい
兵庫県,加古川市,149,野口町長砂605-1,八幡神社長砂構居跡石垣,34.7494206,134.8473442,
兵庫県,加古川市,150,野口町長砂633-41,五反田公園南側フェンス,34.7502032,134.8460702,
兵庫県,加古川市,151,野口町長砂617地先(0081 旧県道二見加古川2号線),長砂農会倉庫西側市道ガードレール,34.7442945,134.8435321,
兵庫県,加古川市,152,野口町長砂355-1地先(0055 長砂口里線),市道ガードレール,34.747044,134.845154,緯度経度は怪しい
兵庫県,加古川市,153,野口町長砂544,長砂公園北東入口,34.7442945,134.8435321,
兵庫県,加古川市,154,野口町長砂(0065 良野平岡線),東細池南側市道フェンス,34.745663,134.844727,緯度経度は怪しい
兵庫県,加古川市,155,野口町長砂97-46,東池ノ向公園,34.7487173,134.850547,
兵庫県,加古川市,156,野口町良野(0066 平野尾上線),鶴林新道歩道沿植込,34.7537118,134.8447017,
兵庫県,加古川市,157,野口町良野1570,市役所北駐車場南側フェンス,34.757741,134.8419518,
兵庫県,加古川市,158,野口町良野10-1,織辺自動車工業北側フェンス,34.7514815,134.8462792,
兵庫県,加古川市,159,野口町良野(0071 旧県道二見加古川1号線),良野新橋東詰ガードレール,34.7537118,134.8447017,
兵庫県,加古川市,160,野口町良野728-1,良野東公会堂隣お堂東側フェンス,34.755154,134.844162,緯度経度は怪しい
兵庫県,加古川市,161,野口町良野542-7,良野児童公園東側フェンス,34.7567669,134.8442085,
兵庫県,加古川市,162,野口町良野576-49,戸平公園南側防護柵,34.7552599,134.8465219,
兵庫県,加古川市,163,野口町水足,陵南中学校東側フェンス,34.766144,134.864777,緯度経度は怪しい
兵庫県,加古川市,164,野口町水足671-14地先(00-0037 石守溝之口線),水足バス停北側ガードレール,34.7632039,134.8594183,
兵庫県,加古川市,165,野口町水足333-333,陵南公民館,34.7609245,134.8611923,
兵庫県,加古川市,166,野口町水足660-2,水足公民館西側フェンス,34.766144,134.864777,緯度経度は怪しい
兵庫県,加古川市,167,野口町水足2020-155,野口保育園東側植込み,34.7648629,134.8718418,
兵庫県,加古川市,168,野口町水足221-1,県住13号棟北側駐車場西側フェンス,34.763435,134.862305,緯度経度は怪しい
兵庫県,加古川市,169,野口町水足1354,橘清八氏宅南側道路沿の畦畔,34.7672823,134.8615187,
兵庫県,加古川市,170,平岡町西谷180-1,西谷公園西側フェンス,34.7410658,134.8707539,
兵庫県,加古川市,171,平岡町西谷139-1,平岡会館北側生垣,34.7397236,134.8723235,
兵庫県,加古川市,172,平岡町山之上611,三陽修整㈱東側フェンス,34.735546,134.870392,緯度経度は怪しい
兵庫県,加古川市,173,平岡町高畑164-1,平岡小学校北側フェンス,34.7373967,134.8722163,
兵庫県,加古川市,174,平岡町高畑(0062 高畑土山線),長松寺南側ガードパイプ,34.7373644,134.8797772,
兵庫県,加古川市,175,平岡町山之上432-1,稲荷神社東側グラウンドフェンス前,34.7312188,134.8715953,
兵庫県,加古川市,176,平岡町二俣180,平岡南小学校変電設備前東側フェンス,34.7340755,134.8625716,
兵庫県,加古川市,177,平岡町二俣(99-0405 里道),二俣プール西側ガードパイプ,34.7372635,134.8657502,
兵庫県,加古川市,178,平岡町二俣768-3,二俣公園北側フェンス,34.7394211,134.8645159,
兵庫県,加古川市,179,平岡町二俣(0057 平岡幹線),神鋼二俣社宅A4北側市道植込,34.7372635,134.8657502,
兵庫県,加古川市,180,平岡町二俣(0571 池ノ内二俣線),アブリーレ東加古川西側市道植込,34.736195,134.864511,
兵庫県,加古川市,181,平岡町二俣1022,神鋼二俣第2公園東フェンス,34.7372635,134.8657502,
兵庫県,加古川市,182,平岡町二俣95地先(04-1837 二俣20号線),二俣95地先市道ガードレール,34.737122,134.86554,緯度経度は怪しい
兵庫県,加古川市,183,平岡町土山996,土山公会堂,34.7278107,134.8864196,
兵庫県,加古川市,184,平岡町土山699-2,平岡公民館南側フェンス,34.7314446,134.8828947,
兵庫県,加古川市,185,平岡町土山109,平岡東小学校南側ガードパイプ,34.7245565,134.8895004,
兵庫県,加古川市,186,平岡町土山109,平岡東幼稚園西側ガードパイプ,34.7245565,134.8895004,
兵庫県,加古川市,187,平岡町土山826-31,大地ヶ池公園東側フェンス,34.7323621,134.8804855,
兵庫県,加古川市,188,平岡町土山909-1,福山通運㈱加古川支店南側フェンス,34.7296995,134.8816109,
兵庫県,加古川市,189,平岡町土山1110-7(国道2号線本土山バス停南側),手先第一公園北側フェンス,34.7251122,134.8870251,
兵庫県,加古川市,190,平岡町土山699-2,平岡公民館西側フェンス,34.7314446,134.8828947,
兵庫県,加古川市,191,平岡町山之上684-11,城の宮県住1号棟北側受水槽ポンプ室フェンス,34.7300781,134.8785077,
兵庫県,加古川市,192,平岡町山之上684-11,城の宮第1団地集会場東側植込,34.7300781,134.8785077,
兵庫県,加古川市,193,平岡町山之上684-33,城の宮第2住宅9号棟北側フェンス,34.728836,134.877243,緯度経度は怪しい
兵庫県,加古川市,194,平岡町山之上684-35,城の宮住宅集会所東側防護柵,34.728836,134.877243,緯度経度は怪しい
兵庫県,加古川市,195,平岡町山之上684-36,城の宮公園南側フェンス,34.7278164,134.8781819,
兵庫県,加古川市,196,平岡町山之上684-36,城の宮公園北側フェンス,34.7278164,134.8781819,
兵庫県,加古川市,197,平岡町山之上684-42,城の宮第二公園東側フェンス,34.7278164,134.8781819,
兵庫県,加古川市,198,平岡町土山390,県営平岡団地西入口フェンス,34.7306651,134.8909588,
兵庫県,加古川市,199,平岡町土山390,県営平岡団地中央集会所南側植込,34.7306651,134.8909588,
兵庫県,加古川市,200,平岡町土山390,県営平岡団地20号棟東側植込,34.7306651,134.8909588,
兵庫県,加古川市,201,平岡町土山,県営平岡団地北入口フェンス,34.7285782,134.8891261,
兵庫県,加古川市,202,平岡町土山421-25,緑ヶ丘集会所前広場のフェンス(道路側),34.72913,134.891602,緯度経度は怪しい
兵庫県,加古川市,203,平岡町土山,緑が丘団地進入路附近加古川バイパス側道,34.7285782,134.8891261,
兵庫県,加古川市,204,平岡町土山24-39,土山東山公園内,34.7266998,134.8978646,
兵庫県,加古川市,205,平岡町土山10-2,双見商会倉庫西側ブロック塀,34.725751,134.8976335,
兵庫県,加古川市,206,平岡町八反田57-2,八反田公民館植込,34.7291956,134.8538292,
兵庫県,加古川市,207,平岡町中野80、中野75,濱名様宅北側水路、木戸様宅堺前,34.7307762,134.8603741,
兵庫県,加古川市,208,平岡町中野66地先(0569 二俣中野線),中野バス停南側ガードレール,34.730228,134.862686,緯度経度は怪しい
兵庫県,加古川市,209,平岡町中野94-1,昌福寺北側ブロック塀,34.7297231,134.8595479,
兵庫県,加古川市,210,平岡町中野211(0061 高畑八反田線),滝川工業㈱工場北側水路防護柵(万葉ハイツ前),34.7317865,134.8647319,
兵庫県,加古川市,211,平岡町中野(0590 旧別府鉄道土山線),岡本建設前道路植込,34.730228,134.862686,緯度経度は怪しい
兵庫県,加古川市,212,平岡町一色西1丁目148,了玄田公園南側フェンス,34.7396725,134.8546425,
兵庫県,加古川市,213,平岡町一色797-3,三ツ池公園東側,34.740002,134.859406,緯度経度は怪しい
兵庫県,加古川市,214,平岡町一色517,一色住吉神社西側フェンス,34.7345853,134.856012,
兵庫県,加古川市,215,平岡町一色650地先,加古川東郵便局西側県道八幡・別府線フェンス,34.7403545,134.857819,
兵庫県,加古川市,216,平岡町一色486-1,一色若宮会館北側フェンス,34.7386,134.8593197,
兵庫県,加古川市,217,別府町別府688,直掛公園西側フェンス,34.7327324,134.8517189,
兵庫県,加古川市,218,平岡町一色東2丁目94,宮の前公園東側植込,34.7363193,134.8562666,
兵庫県,加古川市,219,平岡町一色西2丁目145,大溝川公園東側フェンス,34.7380744,134.8524832,
兵庫県,加古川市,220,平岡町新在家(0567 野口新在家線),イオン加古川店駐車場前JRフェンス,34.747826,134.877075,緯度経度は怪しい
兵庫県,加古川市,221,平岡町新在家,新在家第1公園東側フェンス,34.747826,134.877075,緯度経度は怪しい
兵庫県,加古川市,222,平岡町新在家261,新在家第2公園南側フェンス,34.747826,134.877075,緯度経度は怪しい
兵庫県,加古川市,223,平岡町新在家(0558 北野岸ノ下線),JR東加古川駅北側市道ガードレール,34.747826,134.877075,緯度経度は怪しい
兵庫県,加古川市,224,平岡町新在家(0558 北野岸ノ下線),但陽信用金庫加古川寮北側市道ガードレール,34.747826,134.877075,緯度経度は怪しい
兵庫県,加古川市,225,平岡町新在家1575-2地先(0604 新在家高畑線),東加古川駅東自転車駐車場南側歩道フェンス,34.747826,134.877075,緯度経度は怪しい
兵庫県,加古川市,226,平岡町新在家(0570 新在家野辻線),山ノ神公園南側フェンス,34.747826,134.877075,緯度経度は怪しい
兵庫県,加古川市,227,平岡町つつじ野1-4,つつじの第1公園南側フェンス,34.7427914,134.8737772,
兵庫県,加古川市,228,野口町二屋(03-1408 二屋8号線),数池西側市道ガードレール,34.7449598,134.8587351,
兵庫県,加古川市,229,平岡町二俣785-6、785-7,月極駐車場東側ブロック塀,34.7417776,134.8647845,
兵庫県,加古川市,230,平岡町新在家,向公園北側フェンス,34.747826,134.877075,緯度経度は怪しい
兵庫県,加古川市,231,平岡町新在家184-1,東加古川保育園南側水路,34.743953,134.8643209,
兵庫県,加古川市,232,平岡町一色778(00-0057 平岡幹線),一色霊園前ガードレール,34.7386,134.8593197,
兵庫県,加古川市,233,平岡町新在家91-1,アルカスーパードラッグ東加古川店南側フェンス,34.7421448,134.8658571,
兵庫県,加古川市,234,平岡町新在家(04-2724 新在家40号線),平岡中学校南門附近加古川バイパス沿歩道フェンス,34.747826,134.877075,緯度経度は怪しい
兵庫県,加古川市,235,平岡町新在家1801,平岡中学校正門植込,34.7433702,134.8763713,
兵庫県,加古川市,236,平岡町高畑472-76,古岡山公園西側フェンス,34.7413784,134.8823309,
兵庫県,加古川市,237,平岡町新在家(99-0409 里道),高下団地南側ガードレール,34.747826,134.877075,緯度経度は怪しい
兵庫県,加古川市,238,平岡町新在家1961-3,野辻公園東側入口横フェンス,34.747826,134.877075,緯度経度は怪しい
兵庫県,加古川市,239,平岡町高畑(0060 西谷和田線),県営住宅高畑団地西側市道ガードレール,34.736946,134.878342,緯度経度は怪しい
兵庫県,加古川市,240,平岡町高畑369-6,高畑公園東側植込,34.7413575,134.8792856,
兵庫県,加古川市,241,平岡町新在家2025-1地先(04-2732 新在家48号線),寺田公園北側市道ガードレール,34.747826,134.877075,緯度経度は怪しい
兵庫県,加古川市,242,平岡町新在家,川崎重工業㈱加古川寮西側フェンス,34.747826,134.877075,緯度経度は怪しい
兵庫県,加古川市,243,平岡町新在家1224-7,総合文化センター北側植込,34.7488841,134.8735097,
兵庫県,加古川市,244,平岡町新在家1746,黒深第一公園東側フェンス,34.7446784,134.8756503,
兵庫県,加古川市,245,平岡町新在家(04-2686　新在家34号線),北芳苑西側市道ガードレール,34.747826,134.877075,緯度経度は怪しい
兵庫県,加古川市,246,平岡町新在家1469-2,新在家水利組合ポンプ小屋東側フェンス,34.747826,134.877075,緯度経度は怪しい
兵庫県,加古川市,247,平岡町新在家1192-440,鶴池東公園西側防護柵,34.7510777,134.8755849,
兵庫県,加古川市,248,平岡町新在家1192-172,鶴池中央公園西側防護柵,34.7510777,134.8755849,
兵庫県,加古川市,249,尾上町長田137-1,ビレッジハウス十王堂西側フェンス,34.7478815,134.8288871,
兵庫県,加古川市,250,尾上町長田419-1,尾上市民センター駐車場植込み,34.7445291,134.8239716,
兵庫県,加古川市,251,尾上町長田104-3,長田公園南側フェンス,34.7460396,134.8289228,
兵庫県,加古川市,252,尾上町長田519-1,尾上小学校正門南側フェンス,34.7422973,134.8237157,
兵庫県,加古川市,253,尾上町長田519-1,長田バス停附近尾上小学校フェンス,34.7422973,134.8237157,
兵庫県,加古川市,254,尾上町長田291-6,尾上荒木公園西南側フェンス,34.7485743,134.8257785,
兵庫県,加古川市,255,尾上町長田205-1,加古川市南農協尾上支所前フェンス,34.7442783,134.8246872,
兵庫県,加古川市,256,尾上町安田(0069　野口線),松風こみちエントランス広場植込,34.749092,134.834686,緯度経度は怪しい
兵庫県,加古川市,257,尾上町安田(05-1627　安田27号線),月極駐車場横ガードレール,34.7492148,134.8353438,
兵庫県,加古川市,258,尾上町安田(0066　平野尾上線),鶴林寺公園東側市道防護柵,34.7492148,134.8353438,
兵庫県,加古川市,259,尾上町安田122,加古川市安田中継ポンプ場正門北側フェンス,34.751564,134.8378747,
兵庫県,加古川市,260,尾上町安田(0585　別府川左岸線),ファミールハイツ加古川壱番館別府川沿市道ガードレール,34.7492148,134.8353438,
兵庫県,加古川市,261,尾上町安田127-1地先(0586　別府川右岸線),安田127-1地先別府川沿ガードレール,34.749092,134.834686,緯度経度は怪しい
兵庫県,加古川市,262,尾上町池田635-12地先(0049　池田海岸線),市道ガードレール,34.7387669,134.8225604,
兵庫県,加古川市,263,尾上町池田398,池田公会堂西側鉄柱,34.73608,134.821411,緯度経度は怪しい
兵庫県,加古川市,264,尾上町池田693-7,姫路信用金庫尾上支店駐車場南側フェンス,34.7383183,134.8263955,
兵庫県,加古川市,265,尾上町池田524-10,東池公園西側植込,34.7347343,134.8254036,
兵庫県,加古川市,266,尾上町池田89-1,浜の宮保育園西側フェンス,34.734006,134.8306526,
兵庫県,加古川市,267,尾上町池田850-6,池田公園西側石垣沿い,34.738091,134.81723,緯度経度は怪しい
兵庫県,加古川市,268,尾上町口里817-1,浜の宮公園内南側植込,34.7366799,134.8345677,
兵庫県,加古川市,269,尾上町口里817-1,浜の宮公園内JR住宅西側空地,34.7366799,134.8345677,
兵庫県,加古川市,270,尾上町口里400-1,浜の宮変電所東側交差点月極駐車場フェンス,34.7392335,134.833004,
兵庫県,加古川市,271,尾上町口里130-93,南宮公園西側フェンス,34.7373863,134.829721,
兵庫県,加古川市,272,尾上町口里,山陽電鉄浜の宮駅前駐輪場フェンス,34.7392335,134.833004,
兵庫県,加古川市,273,尾上町口里370-7,くちり公会堂西側フェンス,34.7413988,134.8309529,
兵庫県,加古川市,274,尾上町口里790-60,浜の宮幼稚園正門横フェンス,34.7362963,134.8310651,
兵庫県,加古川市,275,尾上町口里770-37,浜の宮小学校正門左横(桜の木前),34.735027,134.830078,緯度経度は怪しい
兵庫県,加古川市,276,尾上町口里479-6,平塚公園南側防護柵,34.7439593,134.8317057,
兵庫県,加古川市,277,尾上町養田(0066 平野尾上線),山陽電鉄尾上の松駅南側市道植込,34.74453,134.815887,緯度経度は怪しい
兵庫県,加古川市,278,尾上町養田18-2,喜多一信氏宅東側空地,34.7470542,134.8207781,
兵庫県,加古川市,279,尾上町養田1251-1,養田公会堂南浜西側フェンス,34.7446412,134.8208897,
兵庫県,加古川市,280,尾上町養田1丁目28-5地先(0051 浜幹線),尾上町養田1丁目28-5地先ガードフェンス,34.7478611,134.820138,
兵庫県,加古川市,281,尾上町養田(05-1052 養田開拓地1号線),養田川沿市道ガードレール,34.74453,134.815887,緯度経度は怪しい
兵庫県,加古川市,282,尾上町養田1596,養田南公会堂北側植込,34.738895,134.815613,緯度経度は怪しい
兵庫県,加古川市,283,尾上町養田1606,加古川下流浄化センター東門北側フェンス,34.74453,134.815887,緯度経度は怪しい
兵庫県,加古川市,284,尾上町養田218,若宮小学校正門右横フェンス,34.7527676,134.8156712,
兵庫県,加古川市,285,尾上町養田218,若宮小学校北側門東フェンス,34.7527676,134.8156712,
兵庫県,加古川市,286,尾上町養田142-12,よこて公園グランド東側フェンス,34.74453,134.815887,緯度経度は怪しい
兵庫県,加古川市,287,尾上町養田183-23,番目公園北側フェンス,34.7526505,134.8197655,
兵庫県,加古川市,288,尾上町旭2丁目16,養福第一公園南側植込,34.7503475,134.8204256,
兵庫県,加古川市,289,尾上町旭1丁目(05-2207 旭1丁目7号線),山陽電鉄尾上の松駅北側植込南側,34.7492492,134.8215958,
兵庫県,加古川市,290,尾上町今福346-2外,岡田晋吾氏宅西側フェンス,34.750725,134.825012,緯度経度は怪しい
兵庫県,加古川市,291,別府町新野辺,浜の宮中学校東側フェンス,34.7326263,134.8376834,
兵庫県,加古川市,292,別府町新野辺574-175,別府西小学校南側植込み,34.7320974,134.8359027,
兵庫県,加古川市,293,別府町新野辺1507-3,新野辺南第一公園北側フェンス,34.7326263,134.8376834,
兵庫県,加古川市,294,別府町新野辺1133-1,新野辺公会堂駐車場南側植込,34.7326263,134.8376834,
兵庫県,加古川市,295,別府町新野辺889,住吉神社南側植込,34.7326263,134.8376834,
兵庫県,加古川市,296,別府町新野辺1335-2,新野辺南第二公園北側フェンス,34.7326263,134.8376834,
兵庫県,加古川市,297,別府町新野辺3353,大松第2公園北側フェンス,34.729906,134.8383796,
兵庫県,加古川市,298,別府町新野辺北町3丁目1,たけひろ公園南側植込,34.7360972,134.8391457,
兵庫県,加古川市,299,別府町新野辺北町2丁目(0051 浜幹線),市道浜幹線植込,34.7329431,134.8429472,
兵庫県,加古川市,300,別府町新野辺北町2丁目(06-3803 新野辺北町2丁目3号線),わくのくち公園前市道ガードレール,34.732368,134.843369,緯度経度は怪しい
兵庫県,加古川市,301,別府町新野辺368-6,関西熱化学㈱加古川寮南側フェンス,34.7413389,134.8426365,
兵庫県,加古川市,302,別府町新野辺北町5丁目246,嶋ノ内公園東側植込,34.7397244,134.8396104,
兵庫県,加古川市,303,別府町新野辺北町8丁目9,別府中学校正門前北側ガードパイプ,34.7370112,134.845652,
兵庫県,加古川市,304,別府町新野辺北町8丁目9,別府中学校北側フェンス,34.7370112,134.845652,
兵庫県,加古川市,305,別府町別府648-3,北別府公民館西側公園北側フェンス,34.729359,134.857254,緯度経度は怪しい
兵庫県,加古川市,306,別府町別府,県道姫路・明石自転車道新幹線高架下フェンス,34.7327324,134.8517189,
兵庫県,加古川市,307,別府町別府,山電別府駅北側新幹線高架下フェンス,34.7327324,134.8517189,
兵庫県,加古川市,308,別府町別府833-1地先,パレ・ロワイヤル別府西側水路沿いフェンス,34.7354625,134.8494859,
兵庫県,加古川市,309,別府町別府987-7地先 (0056 坂井別府線),市道坂井・別府線水路沿フェンス,34.7332629,134.8474978,
兵庫県,加古川市,310,別府町別府675,北別府墓地南側市道沿,34.7365262,134.8597101,
兵庫県,加古川市,311,別府町別府835-8,せいろ公園東側フェンス,34.7346265,134.8496135,
兵庫県,加古川市,312,別府町本町2丁目63,別府町民会館フェンス,34.7256865,134.8444877,
兵庫県,加古川市,313,別府町東町157-2,加古川スポーツ交流館南側植込み,34.7227903,134.8464027,
兵庫県,加古川市,314,別府町西脇3丁目37,西脇公園西側植込,34.723467,134.8481297,
兵庫県,加古川市,315,別府町緑町,アリオ加古川南側立体駐車場西側植込,34.7274609,134.8499647,
兵庫県,加古川市,316,別府町中島町17,別府町中島会館前植込,34.7299108,134.8464792,
兵庫県,加古川市,317,別府町朝日町,山陽電鉄別府駅前南側フェンス,34.7303603,134.8490876,
兵庫県,加古川市,318,別府町中島町7(0056 坂井別府線),かこのうみ保育園西側防護柵,34.7313748,134.8460511,
兵庫県,加古川市,319,別府町宮田町3-2,別府公民館北側フェンス,34.7297118,134.8446973,
兵庫県,加古川市,320,八幡町下村238,下村公民館北側フェンス,34.7845341,134.9103207,
兵庫県,加古川市,321,八幡町下村(0536 上西条野村線),自動車塗装のいなざわ西側市道沿待避所,34.783943,134.911514,緯度経度は怪しい
兵庫県,加古川市,322,八幡町下村507-12 (07-1023 下村23号線),市道下村23号線東側法面,34.783943,134.911514,緯度経度は怪しい
兵庫県,加古川市,323,八幡町下村895-1,八幡派出所南側の畑地,34.783943,134.911514,緯度経度は怪しい
兵庫県,加古川市,324,八幡町上西条1035地先 (0028 上西条宗佐線),市道上西条宗佐線ガードパイプ(宮脇製材所南側),34.783749,134.901093,緯度経度は怪しい
兵庫県,加古川市,325,八幡町上西条640-1,上西条公民館向側倉庫前法面,34.783749,134.901093,緯度経度は怪しい
兵庫県,加古川市,326,八幡町上西条1158-2,宮山農村公園横グランド,34.7864951,134.8978526,
兵庫県,加古川市,327,八幡町中西条105,中西条公民館北側防護柵,34.7867885,134.8924292,
兵庫県,加古川市,328,八幡町野村480-2,馬田米穀店倉庫北側フェンス,34.7809362,134.9218929,
兵庫県,加古川市,329,八幡町野村296-2,中嶋三郎氏宅南側地蔵敷地,34.7780248,134.9230002,
兵庫県,加古川市,330,上荘町国包565-5,くにかね公園南側植込,34.7967212,134.9114273,
兵庫県,加古川市,331,八幡町宗佐193番地の2,宗佐南多目的広場,34.7957129,134.9230002,
兵庫県,加古川市,332,八幡町船町,農村環境改善センター南側フェンス,34.7931366,134.9084024,
兵庫県,加古川市,333,上荘町国包,厄神駅北側駐輪場フェンス,34.799255,134.91098,緯度経度は怪しい
兵庫県,加古川市,334,八幡町船町,船町東公園,34.7931366,134.9084024,
兵庫県,加古川市,335,八幡町船町20番地先（0028 上西条宗佐線）,ふぁーみんSHOP八幡西側フェンス,34.793377,134.906631,緯度経度は怪しい
兵庫県,加古川市,336,平荘町山角83-1,平荘会館前,34.8030021,134.8692814,
兵庫県,加古川市,337,平荘町山角43-1,(旧) 両荘幼稚園南側フェンス,34.8024203,134.8711204,
兵庫県,加古川市,338,平荘町養老590,東養老公民館南側フェンス,34.7996674,134.8716501,
兵庫県,加古川市,339,平荘町西山705地先,県道高砂・加古川・加西線西山信号南側待避所,34.803585,134.8563965,
兵庫県,加古川市,340,平荘町山角718-1,両荘みらい学園南側フェンス,34.8019229,134.8797407,
兵庫県,加古川市,341,平荘町神木570-1,神木公民館南側防護柵,34.8078056,134.8675038,
兵庫県,加古川市,342,平荘町中山39-1,新中山公民館前空地,34.828899,134.875931,緯度経度は怪しい
兵庫県,加古川市,343,平荘町上原402,上原公民館市道側植込,34.814487,134.874039,緯度経度は怪しい
兵庫県,加古川市,344,平荘町里334-1,里公会堂,34.794804,134.860779,緯度経度は怪しい
兵庫県,加古川市,345,平荘町里625-1,里地区山条遊園地内北側防護柵,34.794804,134.860779,緯度経度は怪しい
兵庫県,加古川市,346,平荘町里128,里上部公民館内児童公園鉄棒横空地,34.794804,134.860779,緯度経度は怪しい
兵庫県,加古川市,347,平荘町里559地先(08-1212 養老12号線),企業庁倉庫南側市道法面,34.794804,134.860779,緯度経度は怪しい
兵庫県,加古川市,348,平荘町池尻268地先,池尻本村バス停付近防護柵,34.7903106,134.8563965,
兵庫県,加古川市,349,平荘町池尻284-1地先(0529 本村平山線),都倉隆氏宅南側市道路肩,34.7903106,134.8563965,
兵庫県,加古川市,350,平荘町池尻233-6地先,稲岡工業㈱池尻工場西側自転車専用道ガードパイプ,34.786619,134.8549264,
兵庫県,加古川市,351,平荘町池尻,池尻又部公民館南側公園西側植込,34.7903106,134.8563965,
兵庫県,加古川市,352,平荘町小畑429-4地先(0587 西川左岸線),西川沿市道ガードレール,34.8113429,134.8587351,
兵庫県,加古川市,353,平荘町小畑45-1,小畑東公民館南側,34.812534,134.859558,緯度経度は怪しい
兵庫県,加古川市,354,平荘町小畑1355-1,旧西部隣保館北側植込前空地,34.807091,134.851913,緯度経度は怪しい
兵庫県,加古川市,355,平荘町小畑1018,大歳神社西側小畑西寺前広場,34.8113429,134.8587351,
兵庫県,加古川市,356,平荘町一本松701,峠グラウンド東側フェンス前法面,34.8132898,134.8486317,
兵庫県,加古川市,357,平荘町小畑1020地先(08-2001 小畑1号線),平荘町小畑赤松下池北側市道ガードレール,34.8108127,134.8547804,
兵庫県,加古川市,358,平荘町一本松259-2,一本松集会所南側法面,34.811924,134.850037,緯度経度は怪しい
兵庫県,加古川市,359,平荘町磐1020,寺谷公会堂前植込,34.8185291,134.8965871,
兵庫県,加古川市,360,平荘町磐(08-3007 磐7号線),㈱高橋組東側市道ガードレール,34.8242575,134.8902946,
兵庫県,加古川市,361,平荘町中山822-1,奥新田公民館東側駐車場鉄柱,34.828899,134.875931,緯度経度は怪しい
兵庫県,加古川市,362,平荘町磐831-7地先(08-3008 磐8号線),上池東側三叉路,34.8242575,134.8902946,
兵庫県,加古川市,363,平荘町磐17-3地先,権現ダム北側自転車道ガードパイプ,34.823944,134.878662,緯度経度は怪しい
兵庫県,加古川市,364,上荘町都染667-34地先(0013 見土呂中央線),市道 見土呂中央線ガードレール,34.79818,134.897766,緯度経度は怪しい
兵庫県,加古川市,365,上荘町見土呂287,上荘会館駐車場フェンス,34.8000776,134.9003919,
兵庫県,加古川市,366,上荘町都台1丁目24番1号地先(09-2412 都台1丁目12号線),上荘町都台1丁目市道ガードレール,34.8087913,134.8916854,
兵庫県,加古川市,367,上荘町見土呂480-1地先(0013 見土呂中央線),見土呂公民館東側市道ガードレール,34.8026104,134.8982872,
兵庫県,加古川市,368,上荘町都台2丁目2-3,都台町内会集会所南側フェンス,34.8108487,134.8926186,
兵庫県,加古川市,369,上荘町白沢147-4,白沢寿会館北側ガードパイプ,34.819447,134.912643,緯度経度は怪しい
兵庫県,加古川市,370,上荘町井ノ口505,井ノ口西集会所南側法面,34.8043263,134.9017603,
兵庫県,加古川市,371,上荘町見土呂34-1,加古川養護学校東側フェンス,34.8010291,134.9052632,
兵庫県,加古川市,372,上荘町都染(0015 旧県道神戸加古川姫路線),田中雪子氏宅北側ガードレール,34.801121,134.894852,緯度経度は怪しい
兵庫県,加古川市,373,上荘町小野830,小野公会堂南側フェンス,34.8020448,134.8825894,
兵庫県,加古川市,374,上荘町小野(0015 旧県道神戸加古川姫路線),市道 旧県道神戸加古川姫路線ガードレール,34.806236,134.88443,緯度経度は怪しい
兵庫県,加古川市,375,上荘町小野260-1,小野町内会グランド南側フェンス,34.8059559,134.8848878,
兵庫県,加古川市,376,上荘町小野(0016 上荘中央線),小野789番地先市道ガードパイプ,34.806236,134.88443,緯度経度は怪しい
兵庫県,加古川市,377,上荘町小野(0016 上荘中央線),両荘苑入口ガードパイプ,34.806236,134.88443,緯度経度は怪しい
兵庫県,加古川市,378,東神吉町神吉1261-1地先(0609 旧県道高砂北条線),旧県道高砂・北条線沿バス停宮前口附近防護柵,34.7936306,134.8268662,
兵庫県,加古川市,379,東神吉町天下原329-1,東神吉団地68-2-8号棟西側プロパンガス庫北側,34.7985032,134.8348437,
兵庫県,加古川市,380,東神吉町天下原410,天下原ため池埋立地南側ガードレール,34.8001555,134.840023,
兵庫県,加古川市,381,東神吉町神吉162-1,加古川西スポーツ広場西,34.7908422,134.8308469,
兵庫県,加古川市,382,東神吉町神吉87-3地先,東神吉町神吉87-3地先フェンス,34.7928896,134.832994,
兵庫県,加古川市,383,東神吉町神吉156(10-1009 神吉9号線),東神吉小学校南側市道ガードレール,34.7907296,134.8296038,
兵庫県,加古川市,384,東神吉町神吉156,東神吉小学校東側フェンス,34.7907296,134.8296038,
兵庫県,加古川市,385,東神吉町神吉230地先,加古川金属工業㈱南側上部用水路沿フェンス,34.7879073,134.831353,
兵庫県,加古川市,386,東神吉町天下原370,加古川ウェルネスパーク正面玄関(正面左側手すり),34.7967628,134.8385267,
兵庫県,加古川市,387,東神吉町神吉232-12,高原公園西側フェンス,34.7872368,134.8315474,
兵庫県,加古川市,388,東神吉町神吉(10-1010 神吉10号線),中央消防署西分署東側市道水路沿防護柵,34.793697,134.827545,緯度経度は怪しい
兵庫県,加古川市,389,東神吉町神吉591-1,神吉中学校正門横鉄柵,34.7901983,134.8266238,
兵庫県,加古川市,390,東神吉町神吉591-1,神吉中学校プール南側フェンス,34.7901983,134.8266238,
兵庫県,加古川市,391,東神吉町神吉823-44,休ヶ坪公園,34.7899996,134.8243853,
兵庫県,加古川市,392,東神吉町神吉823-63,休ヶ坪南緑地北側植込,34.7899996,134.8243853,
兵庫県,加古川市,393,東神吉町砂部354-124,あらき公園西側防護柵,34.7867781,134.8239226,
兵庫県,加古川市,394,東神吉町砂部354-124,あらき公園東側防護柵,34.7867781,134.8239226,
兵庫県,加古川市,395,東神吉町升田,加古川訓練センター北側フェンス,34.7885626,134.8435321,
兵庫県,加古川市,396,東神吉町升田1692,升田公園南側法面,34.7885626,134.8435321,
兵庫県,加古川市,397,東神吉町升田(10-1423 旭団地2号線),(株)兵庫製作所社宅前市道ガードレール,34.7885626,134.8435321,
兵庫県,加古川市,398,東神吉町升田1688-1,加古川訓練センター西側フェンス,34.7846806,134.8446652,
兵庫県,加古川市,399,東神吉町升田1330,升田会館南側植込,34.7887992,134.8416227,
兵庫県,加古川市,400,東神吉町出河原250-1,大川誠氏宅南側植込,34.7791902,134.8389942,
兵庫県,加古川市,401,東神吉町出河原551,幼保連携型認定こども園とうばんの森東側ブロック塀,34.7824924,134.8380474,
兵庫県,加古川市,402,東神吉町出河原525-1地先,益気神社西側玉垣前,34.7808309,134.8359556,
兵庫県,加古川市,403,東神吉町出河原441-1,(社)日本クレーン協会兵庫支部北側フェンス,34.781403,134.8337893,
兵庫県,加古川市,404,東神吉町出河原579-5,旧出河原簡易水道水源地,34.781189,134.837952,緯度経度は怪しい
兵庫県,加古川市,405,東神吉町出河原(0528 出河原船頭線),礒野英貴雄氏宅東側畔地,34.781189,134.837952,緯度経度は怪しい
兵庫県,加古川市,406,東神吉町砂部113,砂部公会堂前薬師堂境内,34.7819386,134.8270458,
兵庫県,加古川市,407,東神吉町砂部393,東神吉南小学校北側フェンス,34.7870906,134.827282,
兵庫県,加古川市,408,東神吉町砂部393,東神吉南小学校正門右横フェンス,34.7870906,134.827282,
兵庫県,加古川市,409,東神吉町西井ノ口46-5,西井ノ口水源地北側フェンス,34.784542,134.821274,緯度経度は怪しい
兵庫県,加古川市,410,東神吉町西井ノ口743,大年神社西側側面,34.7845315,134.8213033,
兵庫県,加古川市,411,東神吉町西井ノ口529-4,長谷川雪子氏宅南側植込,34.7836811,134.8203607,
兵庫県,加古川市,412,東神吉町西井ノ口(10-2031 西井ノ口31号線),安田善明氏宅向市道ガードレール,34.784542,134.821274,緯度経度は怪しい
兵庫県,加古川市,413,西神吉町大国382,神吉八幡宮大社南側石垣,34.7948896,134.816939,
兵庫県,加古川市,414,西神吉町大国760地先,北川公園東側植込み,34.7973589,134.8130545,
兵庫県,加古川市,415,西神吉町大国656-66,向田公園東側フェンス,34.7980511,134.813894,
兵庫県,加古川市,416,西神吉町大国694-7,大歳公園植込み（北側）,34.798378,134.813278,緯度経度は怪しい
兵庫県,加古川市,417,西神吉町岸650-15,岸第二公園北側生垣,34.7938739,134.8091691,
兵庫県,加古川市,418,西神吉町岸789地先,県道飾東宝殿停車場線歩道防護柵,34.7940279,134.8071292,
兵庫県,加古川市,419,西神吉町岸426地先,岸公民館南側県道平荘魚橋線防護柵,34.7912118,134.8089229,
兵庫県,加古川市,420,西神吉町辻304-2,辻公民館西側フェンス,34.7981933,134.807951,
兵庫県,加古川市,421,西神吉町辻484,市営住宅西神吉辻団地東側フェンス,34.7961856,134.801809,
兵庫県,加古川市,422,西神吉町辻(0017 神吉中央線),三ツ池南側ガードレール,34.7977108,134.8072585,
兵庫県,加古川市,423,西神吉町辻141,一岡氏宅フェンス,34.796933,134.804945,
兵庫県,加古川市,424,西神吉町辻352-1地先,県道飾東宝殿停車場線防護柵,34.797832,134.806931,緯度経度は怪しい
兵庫県,加古川市,425,西神吉町宮前(11-2030 宮前30号線),東山町内会入口ガードレール,34.8045165,134.8306641,
兵庫県,加古川市,426,西神吉町宮前256-1地先,宮前公民館横多目的広場東側敷地,34.804161,134.828979,緯度経度は怪しい
兵庫県,加古川市,427,西神吉町鼎(11-2234 鼎33号線),加古川運動公園前道路ガードパイプ,34.8055412,134.8189628,
兵庫県,加古川市,428,西神吉町鼎74番地先(11-2206 鼎6号線),かもめ池北側市道ガードレール,34.8044913,134.8178638,
兵庫県,加古川市,429,西神吉町鼎317-2,長慶公民館前広場ブロック塀,34.8005478,134.8145667,
兵庫県,加古川市,430,西神吉町西村139,旧西神吉幼稚園北側フェンス,34.7975663,134.8214113,
兵庫県,加古川市,431,西神吉町中西259-1,中西稲荷神社北側敷地,34.7958793,134.8218884,
兵庫県,加古川市,432,米田町平津322番1地先,JR北側県道高砂・北条線高架下フェンス,34.7834187,134.8171033,
兵庫県,加古川市,433,米田町平津453-1,米田公園東側植込,34.7841699,134.8121185,
兵庫県,加古川市,434,米田町平津153-1,米田会館西側フェンス,34.7809305,134.8215778,
兵庫県,加古川市,435,米田町平津344-1,平津公会堂敷地内,34.7829743,134.8154421,
兵庫県,加古川市,436,米田町平津384-2,加古川西公民館南側フェンス,34.7860624,134.8157112,
兵庫県,加古川市,437,米田町平津384-1(10-2042西井ノ口42号線),旧加古川西市民病院南東側市道フェンス,34.7868739,134.8165842,
兵庫県,加古川市,438,米田町平津227-20,南条公園北側フェンス,34.7822662,134.8200278,
兵庫県,加古川市,439,米田町平津108,川西小学校正門南側フェンス,34.7791722,134.822317,
兵庫県,加古川市,440,米田町船頭440,日毛印南工場前バス西側ガードパイプ,34.7760688,134.8286037,
兵庫県,加古川市,441,米田町船頭622,船頭公会堂ニッケ工場側ブロック塀前,34.776646,134.832108,緯度経度は怪しい
兵庫県,加古川市,442,米田町船頭677,日毛印南工場裏門北側フェンス,34.7760311,134.82959,
兵庫県,加古川市,443,米田町平津722-117番地先,チビッコ広場南側フェンス,34.7751758,134.8256691,
兵庫県,加古川市,444,米田町船頭537,船頭県営住宅前共同センター西側フェンス,34.7817025,134.8297066,
兵庫県,加古川市,445,米田町船頭5-1,歯科保健センター北側フェンス,34.777527,134.833282,緯度経度は怪しい
兵庫県,加古川市,446,志方町西飯坂330付近,県道小野志方線西飯坂東側フェンス,34.8239227,134.8256387,
兵庫県,加古川市,447,志方町志方町1748-4,泉ヶ岡公園北側フェンス,34.820728,134.817917,緯度経度は怪しい
兵庫県,加古川市,448,志方町西中536,西中ふれあい広場,34.82876,134.8166222,
兵庫県,加古川市,449,志方町志方町1074-1,志方二ノ丸会館西側フェンス,34.817837,134.821274,緯度経度は怪しい
兵庫県,加古川市,450,志方町志方町1721,しかたこども園南側フェンス,34.822144,134.821548,緯度経度は怪しい
兵庫県,加古川市,451,志方町志方町1186,志方会館東側防護柵,34.815296,134.820419,緯度経度は怪しい
兵庫県,加古川市,452,志方町志方町1395-2,志方町第一公園北側フェンス,34.817654,134.825546,緯度経度は怪しい
兵庫県,加古川市,453,志方町志方町1758-3,志方公民館駐輪場前植込,34.820728,134.817917,緯度経度は怪しい
兵庫県,加古川市,454,志方町志方町176,志方体育館東側フェンス,34.817554,134.829346,緯度経度は怪しい
兵庫県,加古川市,455,志方町上冨木526番地の2先(14-1207 上冨木7号線),出口橋西側市道法面,34.8124845,134.8251774,
兵庫県,加古川市,456,志方町上冨木120-53,ビレッジハウス志方西側フェンス,34.810913,134.827835,緯度経度は怪しい
兵庫県,加古川市,457,志方町投松(0507 二子池北線),二子池北側市道フェンス,34.81234,134.841599,緯度経度は怪しい
兵庫県,加古川市,458,志方町投松371-1地先,県道神戸・加古川・姫路線投松交差点西側防護柵,34.814911,134.834686,緯度経度は怪しい
兵庫県,加古川市,459,志方町上冨木132-2,横山公民館南側フェンス,34.813057,134.829407,緯度経度は怪しい
兵庫県,加古川市,460,志方町投松255番地先,市道沿い水路,34.816998,134.835953,緯度経度は怪しい
兵庫県,加古川市,461,志方町廣尾1481-1,後藤康博氏宅西側ブロック塀,34.828609,134.850922,緯度経度は怪しい
兵庫県,加古川市,462,志方町廣尾620-1地先（0009 志方町小畑線）,廣尾東公園北側市道沿,34.8262653,134.8575658,
兵庫県,加古川市,463,志方町岡210-1,岡公民館横ブロック塀,34.8280705,134.8447521,
兵庫県,加古川市,464,志方町廣尾（0511 広尾東新田線）,ゴミステーション北側市道廣尾東・新田線沿,34.826527,134.858307,緯度経度は怪しい
兵庫県,加古川市,465,志方町廣尾1150-1,廣尾西公会堂敷地内,34.826527,134.858307,緯度経度は怪しい
兵庫県,加古川市,466,志方町廣尾1275-3,後藤幸三氏宅北側ブロック塀,34.8255857,134.8465427,
兵庫県,加古川市,467,志方町岡234地先（0004 細工所広尾線）,城山種鶏場向側市道ガードレール,34.829388,134.845642,緯度経度は怪しい
兵庫県,加古川市,468,志方町高畑752,大歳神社公園西側ブロック塀,34.823807,134.838394,緯度経度は怪しい
兵庫県,加古川市,469,志方町細工所146,志方東小学校北側フェンス,34.832439,134.8382664,
兵庫県,加古川市,470,志方町大澤424,大澤公会堂横携帯中継機前,34.846021,134.8341739,
兵庫県,加古川市,471,志方町細工所1107-1,城山団地入口フェンス,34.8389147,134.8419043,
兵庫県,加古川市,472,志方町野尻421-2,野尻公会堂西側水路沿,34.843166,134.862885,緯度経度は怪しい
兵庫県,加古川市,473,志方町大澤1226-1,大沢北部集会所南側道路前,34.846021,134.8341739,
兵庫県,加古川市,474,志方町細工所344-3,農業倉庫北側フェンス,34.838947,134.843658,緯度経度は怪しい
兵庫県,加古川市,475,志方町東中200-5,しろやま農業研修センター北側防護柵,34.830322,134.829636,緯度経度は怪しい
兵庫県,加古川市,476,志方町大宗,大宗児童公園前県道法面,34.8258167,134.8312491,
兵庫県,加古川市,477,志方町畑809-2,ごみステーション西側法面,34.8525041,134.8107701,
兵庫県,加古川市,478,志方町東飯坂220-1,むすぶ池東農業倉庫前法面,34.834908,134.824005,緯度経度は怪しい
兵庫県,加古川市,479,志方町行常429-7（0002 志方東中央線）,行常公民館南側市道法面,34.8398847,134.8259839,
兵庫県,加古川市,480,志方町畑100-1,栗山玉枝氏宅東側畑,34.8437135,134.8182496,
兵庫県,加古川市,481,志方町畑425-2地先（0002志方東中央線）,藤城修様宅付近市道法面,34.8525041,134.8107701,
兵庫県,加古川市,482,志方町畑729地先,藤城造園南側県道残地,34.8525041,134.8107701,
兵庫県,加古川市,483,志方町西牧39-3,西牧公民館北側フェンス,34.830982,134.781677,緯度経度は怪しい
兵庫県,加古川市,484,志方町西牧（14-4606 西牧6号線）,藤の池南側市道ガードレール,34.830982,134.781677,緯度経度は怪しい
兵庫県,加古川市,485,志方町山中97,山中バス停附近三叉路,34.82811,134.793259,緯度経度は怪しい
兵庫県,加古川市,486,志方町山中289-1地先,県道神戸・加古川・姫路線残地,34.826384,134.7932095,
兵庫県,加古川市,487,志方町西牧5-4地先(0007 西牧横大路線),松本佳三氏宅向側市道ガードレール,34.8241812,134.8057038,
兵庫県,加古川市,488,志方町永室321(0008 長楽寺鼎線),長楽園バス停附近市道法面,34.8259539,134.8107701,
兵庫県,加古川市,489,志方町永室(0006 山中志方町線),三村学習塾北側市道法面,34.827187,134.81073,緯度経度は怪しい
兵庫県,加古川市,490,志方町原186-1,原敏弘氏宅東側田畔地,34.821461,134.785446,緯度経度は怪しい
兵庫県,加古川市,491,志方町原901,西原公民館北側フェンス,34.821461,134.785446,緯度経度は怪しい
兵庫県,加古川市,492,志方町成井493-1,成井公会堂東側フェンス,34.812153,134.80069,緯度経度は怪しい
兵庫県,加古川市,493,志方町西山119,西山公会堂東,34.8043174,134.802576,
兵庫県,加古川市,494,志方町横大路1196-5,横大路町内会公園南側フェンス,34.8019907,134.8090989,
兵庫県,加古川市,495,志方町横大路612-3,横大路町内会児童公園東側フェンス,34.8093733,134.8101302,
兵庫県,加古川市,496,志方町原685-1,地域産業振興センター南側フェンス,34.821461,134.785446,緯度経度は怪しい
兵庫県,加古川市,497,志方町原587,志方西小学校正門横フェンス,34.816452,134.808334,緯度経度は怪しい
