prefecture,city,number,address,name,lat,long,note
兵庫県,多可町,1,門前22,門前グラウンドフェンス,35.0502159,134.9234248,
兵庫県,多可町,2,安楽田965-3,横山様宅南ガードレール (位置情報が見つかりませんでした),35.0713562,134.9049027,緯度経度は怪しい
兵庫県,多可町,3,安楽田430-3,藤原様農業倉庫 (位置情報が見つかりませんでした),35.0713562,134.9049027,緯度経度は怪しい
兵庫県,多可町,4,東山502-1,東山公民館西大西様所有地,35.0730101,134.913488,緯度経度は怪しい
兵庫県,多可町,5,田野口264-1,田野口集落センター前フェンス,35.0502159,134.9234248,
兵庫県,多可町,6,牧野738-2,丸岡様宅南防火水槽フェンス,35.0725686,134.9269677,緯度経度は怪しい
兵庫県,多可町,7,鍛冶屋222-15地先,西田様宅東側県道植樹帯,35.0671217,134.9256552,緯度経度は怪しい
兵庫県,多可町,8,岸上178-2地先,播州農機販売(株)北歩道フェンス,35.0591723,134.9251031,緯度経度は怪しい
兵庫県,多可町,9,天田106-1,旧天田公民館敷地,35.0594806,134.9190808,緯度経度は怪しい
兵庫県,多可町,10,岸上151,安平様宅ブロック堺,35.0591723,134.9251031,緯度経度は怪しい
兵庫県,多可町,11,岸上281-112,町民グラウンド日赤病院側向い境内横スペース,35.0591723,134.9251031,緯度経度は怪しい
兵庫県,多可町,12,間子503,間子グラウンドフェンス,35.0546069,134.9307316,緯度経度は怪しい
兵庫県,多可町,13,奥中976-6,奥中公民館駐車場敷地,35.0511394,134.919676,緯度経度は怪しい
兵庫県,多可町,14,奥中845-1,林本様工場西敷地,35.0511394,134.919676,緯度経度は怪しい
兵庫県,多可町,15,高岸128-1,高岸児童公園フェンス,35.0678463,134.9194096,緯度経度は怪しい
兵庫県,多可町,16,高岸306-4,秋田様宅ブロック塀（高岸304）,35.0678463,134.9194096,緯度経度は怪しい
兵庫県,多可町,17,中村町123,多可町役場本庁舎駐輪場,35.0510996,134.9236105,緯度経度は怪しい
兵庫県,多可町,18,茂利343-1,茂利公民館北フェンス (位置情報が見つかりませんでした),35.0456089,134.9213562,緯度経度は怪しい
兵庫県,多可町,19,中村町38-2,旧中村町公園東歩道フェンス,35.0510996,134.9236105,緯度経度は怪しい
兵庫県,多可町,20,森本805-9,ファミリーマート東歩道フェンス,35.042259,134.953353,緯度経度は怪しい
兵庫県,多可町,21,安坂522-22地先,沢池東側ガードレール (位置情報が見つかりませんでした),35.04012700000001,134.9226931,緯度経度は怪しい
兵庫県,多可町,22,安坂206-2,永谷歯科医院東歩道フェンス (位置情報が見つかりませんでした),35.04012700000001,134.9226931,緯度経度は怪しい
兵庫県,多可町,23,糀屋96-5,松本様宅北歩道フェンス (位置情報が見つかりませんでした),35.0361815,134.9285744,緯度経度は怪しい
兵庫県,多可町,24,糀屋24-3,関西電力中町変電所東歩道フェンス (位置情報が見つかりませんでした),35.0361815,134.9285744,緯度経度は怪しい
兵庫県,多可町,25,坂本270-1地先,小西様宅前ガードレール,35.0502159,134.9234248,
兵庫県,多可町,26,森本325-2,神姫バス森本停留所フェンス,35.042259,134.953353,緯度経度は怪しい
兵庫県,多可町,27,曽我井625-6,グリーンプラザ南入口歩道フェンス,35.0276155,134.9370098,緯度経度は怪しい
兵庫県,多可町,28,曽我井305-2,桑村繊維(株)北側防火水槽フェンス,35.0276155,134.9370098,緯度経度は怪しい
兵庫県,多可町,29,西安田197-2地先,大西縫工(株)前フェンス,35.0586471,134.9522287,緯度経度は怪しい
兵庫県,多可町,30,西安田403,西安田大歳神社前柵,35.0439983,134.9460103,緯度経度は怪しい
兵庫県,多可町,31,中安田104-3,安田郵便局東道路法面,35.0394769,134.9518476,緯度経度は怪しい
兵庫県,多可町,32,中安田5-2,安田稲荷口バス停フェンス,35.0394769,134.9518476,緯度経度は怪しい
兵庫県,多可町,33,東安田511-3,東安田児童公園前転落防止柵,35.0502159,134.9234248,
兵庫県,多可町,34,山寄上76-1,北部簡易水道水源地フェンス,35.0502159,134.9234248,
兵庫県,多可町,35,鳥羽474-1,鳥羽公民館駐車場フェンス,35.0502159,134.9234248,
兵庫県,多可町,36,鳥羽42地先,足立様宅前フェンス,35.0502159,134.9234248,
兵庫県,多可町,37,清水390-1地先,山口様宅北交差点法面,35.079615,134.93146,緯度経度は怪しい
兵庫県,多可町,38,清水108-2,山口様宅東防火水槽フェンス,35.079615,134.93146,緯度経度は怪しい
兵庫県,多可町,39,轟532,轟公会堂国道沿いフェンス,35.15419,134.926,緯度経度は怪しい
兵庫県,多可町,40,轟282地先,森本様宅ソーラーパネル前フェンス,35.15419,134.926,緯度経度は怪しい
兵庫県,多可町,41,山口322,山口多目的研修集会施設フェンス,35.0502159,134.9234248,
兵庫県,多可町,42,西山120地先,西山公会堂フェンス,35.14606,134.9247,緯度経度は怪しい
兵庫県,多可町,43,市原178-5,市原交流会館前安田様所有地,35.140106,134.92057,緯度経度は怪しい
兵庫県,多可町,44,丹治193-3地先,丹治公会堂前フェンス,35.13648999999999,134.9248,緯度経度は怪しい
兵庫県,多可町,45,大袋53-1,大袋公会堂前花壇,35.13237,134.9236,緯度経度は怪しい
兵庫県,多可町,46,三谷538,三谷公会堂前花壇,35.0502159,134.9234248,
兵庫県,多可町,47,箕荷549-1,箕荷公会堂前花壇 (位置情報が見つかりませんでした),35.0502159,134.9234248,
兵庫県,多可町,48,三谷155-3,What's Poppin前歩道フェンス,35.0502159,134.9234248,
兵庫県,多可町,49,門村86-3地先,門村公会堂駐車場前ガードレール,35.1261968,134.9171616,緯度経度は怪しい
兵庫県,多可町,50,杉原42-1,杉原部消防庫南町有地,35.12124,134.919,緯度経度は怪しい
兵庫県,多可町,51,奥豊部35-1地先,山尾様宅前ガードレール,35.1171962,134.917338,緯度経度は怪しい
兵庫県,多可町,52,観音寺129,観音寺公会堂ゴミステーション,35.054106,134.907943,緯度経度は怪しい
兵庫県,多可町,53,豊部1732-1地先,御領橋東詰町道法面,35.1035682,134.9019778,緯度経度は怪しい
兵庫県,多可町,54,豊部1077-3,森内谷集会所前防火水槽フェンス,35.1035682,134.9019778,緯度経度は怪しい
兵庫県,多可町,55,豊部587-1,豊部公会堂前フェンス,35.1067671,134.9040834,緯度経度は怪しい
兵庫県,多可町,56,豊部246,加美コミュニティプラザ前花壇,35.1035682,134.9019778,緯度経度は怪しい
兵庫県,多可町,57,豊部81-3,久保ヶ谷集会所北道路法面,35.1035682,134.9019778,緯度経度は怪しい
兵庫県,多可町,58,熊野部577-1,熊野部公会堂南フェンス,35.0929283,134.8941876,緯度経度は怪しい
兵庫県,多可町,59,多田117地先,藤田様宅前ガードレール,35.099764,134.886245,緯度経度は怪しい
兵庫県,多可町,60,棚釜139-2地先,棚釜公会堂南ガードレール (位置情報が見つかりませんでした),35.1155157,134.8863194,緯度経度は怪しい
兵庫県,多可町,61,岩座神379-1,岩座神公会堂前フェンス,35.1257165,134.8871728,緯度経度は怪しい
兵庫県,多可町,62,奥荒田184-5地先,奥荒田消防庫南ガードレール,35.0748592,134.9061284,緯度経度は怪しい
兵庫県,多可町,63,的場402-2,足立様宅南フェンス,35.08603,134.882287,緯度経度は怪しい
兵庫県,多可町,64,寺内125-2,JA加美交差点南側ガードパイプ,35.0502159,134.9234248,
兵庫県,多可町,65,寺内302-1地先,藤村様宅前フェンス,35.0502159,134.9234248,
兵庫県,多可町,66,西脇65-8,三角公園,34.9832663,134.9751858,緯度経度は怪しい
兵庫県,多可町,67,西脇350-2地先,西脇農業倉庫北フェンス,34.9868272,134.9750148,緯度経度は怪しい
兵庫県,多可町,68,山野部,山野部公会堂前防火水槽フェンス,35.0502159,134.9234248,
兵庫県,多可町,69,大屋690-4地先,長野橋,35.0589853,134.8718983,緯度経度は怪しい
兵庫県,多可町,70,大屋625-1,大屋住民センター前フェンス,35.0589853,134.8718983,緯度経度は怪しい
兵庫県,多可町,71,大屋94-1,吉位様宅前防火水槽フェンス,35.0589853,134.8718983,緯度経度は怪しい
兵庫県,多可町,72,坂本566,坂本農村公園（坂本住民センター横）フェンス,35.0502159,134.9234248,
兵庫県,多可町,73,中村215-2,中村農村公園（北部地区住民センター横）フェンス,35.0502159,134.9234248,緯度経度は怪しい
兵庫県,多可町,74,横屋56-1,種橋横（花壇）敷地,35.0359133,134.8774513,緯度経度は怪しい
兵庫県,多可町,75,下村257,下村住民センター前駐車場フェンス,35.0336302,134.8791513,緯度経度は怪しい
兵庫県,多可町,76,下村109-1,八千代国民健康保険直営診療所フェンス,35.0502159,134.9234248,
兵庫県,多可町,77,門田58-3,門田農村公園（門田住民センター横）フェンス,35.0268367,134.8877148,緯度経度は怪しい
兵庫県,多可町,78,赤坂201-2,赤坂児童公園（赤坂住民センター横）フェンス,35.01517,134.8857,緯度経度は怪しい
兵庫県,多可町,79,俵田355-1,俵田児童公園（俵田公民館前）フェンス,35.0136049,134.8929327,緯度経度は怪しい
兵庫県,多可町,80,仕出原318-1,旧仕出原公民館跡地,35.0125676,134.9138469,緯度経度は怪しい
兵庫県,多可町,81,中野間127-3地先,川西バス停留所フェンス,34.9984383,134.9112334,緯度経度は怪しい
兵庫県,多可町,82,中野間656-2,八千代コミュニティプラザ前道路法面,34.9984383,134.9112334,緯度経度は怪しい
兵庫県,多可町,83,中野間1133-1地先,八千代わんぱく会館フェンス,34.9984383,134.9112334,緯度経度は怪しい
兵庫県,多可町,84,下野間371-3,本村バス停留所フェンス,35.0502159,134.9234248,
兵庫県,多可町,85,下野間661-94,レストラン瀬戸前歩道フェンス,35.001303,134.909536,緯度経度は怪しい
兵庫県,多可町,86,下三原217,馬橋横防火水槽フェンス,35.0502159,134.9234248,
兵庫県,多可町,87,大和191,嶋田様宅前交差点緑地帯,35.0502159,134.9234248,
兵庫県,多可町,88,大和727-1,柳山寺農村公園（大歳神社横）フェンス,35.0502159,134.9234248,
兵庫県,多可町,89,大和968-6,中三原団地前歩道フェンス,35.0502159,134.9234248,
兵庫県,多可町,90,大和1197-6地先,川中橋北側道路待避所フェンス,35.0502159,134.9234248,
兵庫県,多可町,91,大和1523-3,なごみの里山都前ガードレール,35.0502159,134.9234248,
兵庫県,多可町,92,大和1847-6,芝野様工場横ガードレール,35.0502159,134.9234248,
兵庫県,多可町,93,大和2013,椋の里前フェンス,35.0502159,134.9234248,
兵庫県,多可町,94,大和2204-28,操様宅南歩道フェンス,35.0502159,134.9234248,
