prefecture,city,number,address,name,lat,long,note
兵庫県,姫路市,1,本町68,姫路城総合管理室駐車場フェンス,34.835873,134.687363,緯度経度は怪しい
兵庫県,姫路市,2,本町68,大手門駐車場料金所付近,34.835873,134.687363,緯度経度は怪しい
兵庫県,姫路市,3,坂元町123,コンドーパーキング北側壁面,34.8335641,134.6881522,
兵庫県,姫路市,4,本町68,白鷺小中学校東側駐車場フェンス,34.835873,134.687363,緯度経度は怪しい
兵庫県,姫路市,5,本町226,ひめしん本町パーキング南側フェンス,34.835003,134.692368,緯度経度は怪しい
兵庫県,姫路市,6,塩町235,城南公園北側,34.8306758,134.6889154,
兵庫県,姫路市,7,南畝町二丁目140,南畝公園南側,34.8262297,134.6854657,
兵庫県,姫路市,8,平野町61,小野高速印刷駐車場角切,34.8310656,134.6991472,
兵庫県,姫路市,9,北条口三丁目29,市立城巽公民館西側,34.82922200000001,134.697187,
兵庫県,姫路市,10,北条口三丁目29,城巽公園東側,34.82922200000001,134.697187,
兵庫県,姫路市,11,亀井町101,神明神社,34.8297453,134.6937662,
兵庫県,姫路市,12,本町210,姫路郵便局北側駐車場フェンス,34.83791,134.693802,緯度経度は怪しい
兵庫県,姫路市,13,神屋町六丁目104,神屋公園西側フェンス,34.8289523,134.699468,
兵庫県,姫路市,14,北条口五丁目72,天理教生野大教会東側ブロック,34.8309073,134.7006983,
兵庫県,姫路市,15,本町68,城内図書館南側花壇,34.835873,134.687363,緯度経度は怪しい
兵庫県,姫路市,16,本町68,姫路医療センター西側フェンス,34.835873,134.687363,緯度経度は怪しい
兵庫県,姫路市,17,本町68,美術館東北側,34.835873,134.687363,緯度経度は怪しい
兵庫県,姫路市,18,河間町42-3,野里の花園フェンス,34.8440144,134.6995872,
兵庫県,姫路市,19,河間町19,雲松寺玉垣,34.8440144,134.6995872,
兵庫県,姫路市,20,坊主町22,野里小学校北側西隅,34.8435029,134.6962138,
兵庫県,姫路市,21,野里(字八段田)526,野里東公園南側,34.8434646,134.7088259,
兵庫県,姫路市,22,威徳寺町43,天理教師東大教会東側塀,34.8482232,134.7043252,
兵庫県,姫路市,23,野里888,日吉神社南側,34.844955,134.708618,緯度経度は怪しい
兵庫県,姫路市,24,野里上野町757-1,野里北公園南側フェンス,34.84759440000001,134.7058932,
兵庫県,姫路市,25,野里(慶雲寺前)559,マイストア野里店横JR播但線高架下西側,34.844955,134.708618,緯度経度は怪しい
兵庫県,姫路市,26,野里(慶雲寺前)11-21,masked,34.844955,134.708618,緯度経度は怪しい
兵庫県,姫路市,27,野里(上野町)1-6-22,masked,34.844955,134.708618,緯度経度は怪しい
兵庫県,姫路市,28,大野町77-2,お茶のなるセビル南壁面,34.8459773,134.7015383,
兵庫県,姫路市,29,神屋町五丁目113,外濠公園南側フェンス,34.8302586,134.7020803,
兵庫県,姫路市,30,神屋町三丁目137,播但線高架下西側フェンス(ラヴィーナ姫路北),34.8281841,134.7023736,
兵庫県,姫路市,31,神屋町三丁目19,南神屋公園東側金網,34.8281841,134.7023736,
兵庫県,姫路市,32,五軒邸二丁目159,北五軒邸公園東側金網,34.8365033,134.701415,
兵庫県,姫路市,33,城東町京口台168,北神屋公園北側,34.8329925,134.7068367,
兵庫県,姫路市,34,神屋町四丁目,京口駅南播但線高架下フェンス,34.8324833,134.7032536,
兵庫県,姫路市,35,城東町毘沙門33,城東スポーツ広場南側フェンス,34.836735,134.708969,緯度経度は怪しい
兵庫県,姫路市,36,国府寺町80,東光中学校北側フェンス,34.8346297,134.7026756,
兵庫県,姫路市,37,宮上町二丁目19,姫路倉庫運輸(株)宮上倉庫東側フェンス,34.8337596,134.7126945,
兵庫県,姫路市,38,楠町166,東郷公園西側フェンス,34.83466170000001,134.7114303,
兵庫県,姫路市,39,市川台三丁目14-50,市川台公園北東面フェンス,34.8345669,134.714809,
兵庫県,姫路市,40,城見町90,スペースデザイン三和駐車場東側フェンス,34.8333525,134.7096782,
兵庫県,姫路市,41,丸尾町1-3,丸尾町公園南側フェンス,34.8362199,134.7129386,
兵庫県,姫路市,42,市川台一丁目134,東郷台第二公園北側,34.8306435,134.7155705,
兵庫県,姫路市,43,市川台一丁目107-1,市川台一丁目集会所南側,34.8297912,134.7153036,
兵庫県,姫路市,44,大善町6-5,天神社公園北側,34.830043,134.7097057,
兵庫県,姫路市,45,日出町二丁目18,日之出公園北側,34.8266904,134.7119143,
兵庫県,姫路市,46,市之郷1006,すこやかセンター北側,34.8249493,134.7063802,
兵庫県,姫路市,47,市之郷町二丁目34,東小学校プール南側フェンス,34.8268077,134.7091517,
兵庫県,姫路市,48,市之郷町二丁目34,東小学校北側公園フェンス,34.8268077,134.7091517,
兵庫県,姫路市,49,城見町13,第10永井パーキング東側,34.8320031,134.7090415,
兵庫県,姫路市,50,若菜町二丁目28,須山内科駐車場ブロック,34.8284473,134.7092658,
兵庫県,姫路市,51,東雲町一丁目63,東雲公園南側,34.8325927,134.682718,
兵庫県,姫路市,52,小姓町35番地3,船場公園西側,34.8350265,134.6835045,
兵庫県,姫路市,53,船橋町四丁目3-14,琴陵公園北側,34.8345724,134.6791296,
兵庫県,姫路市,54,地内町1-1,本徳寺南大門東側,34.8337654,134.6827971,
兵庫県,姫路市,55,上片町20-11,船場東ビル東側道路敷,34.8350038,134.6854322,
兵庫県,姫路市,56,南車崎二丁目7,ホワイトシャトー車崎西側ゴミステーション西側,34.8361907,134.6740611,
兵庫県,姫路市,57,東雲町二丁目10-2,旧船場幼稚園北側,34.8332126,134.6807039,
兵庫県,姫路市,58,土山二丁目12-38,斉藤鋼材㈱東側(正門北側壁),34.8315706,134.6742236,
兵庫県,姫路市,59,花影町二丁目8,耕地整理記念碑南側,34.8320143,134.6802431,
兵庫県,姫路市,60,千代田町710,千代田公園北側,34.8285545,134.6800771,
兵庫県,姫路市,61,土山二丁目13,土山公園南側,34.832303,134.6728871,
兵庫県,姫路市,62,土山二丁目19,出口氏所有畑,34.8312556,134.6718599,
兵庫県,姫路市,63,千代田町740-12,千代田第二公園北側,34.8286435,134.6813772,
兵庫県,姫路市,64,土山東の町15-3,今村駐車場北側,34.8330867,134.6770036,
兵庫県,姫路市,65,山畑新田792-1,薬師山公園フェンス,34.8390698,134.6789033,
兵庫県,姫路市,66,車崎二丁目2-2,三木邸南側ブロック,34.8377002,134.6746564,
兵庫県,姫路市,67,南今宿7-24,南今宿ごみ集積場,34.8372966,134.6722543,
兵庫県,姫路市,68,東今宿一丁目4-17,今宿団地第一公園東側,34.8376463,134.6681249,
兵庫県,姫路市,69,神子岡前一丁目11-29,市立中央保育所東側,34.83682810000001,134.670857,
兵庫県,姫路市,70,神子岡前三丁目8-1,面白山児童センター東側,34.8398544,134.6710298,
兵庫県,姫路市,71,神子岡前三丁目12-17,ゆめタウン姫路北側,34.8413434,134.6696861,
兵庫県,姫路市,72,東今宿五丁目3-20,高岡市民広場西側フェンス,34.8418868,134.6639114,
兵庫県,姫路市,73,東今宿六丁目13-12の南,東今宿屋台蔵南側フェンス,34.8433061,134.6659876,
兵庫県,姫路市,74,北今宿三丁目12-30,北今宿飛出地蔵尊向入口北側,34.845988,134.6683253,
兵庫県,姫路市,75,西今宿三丁目8-1,播磨高岡駅北側フェンス,34.8420513,134.6586535,
兵庫県,姫路市,76,西今宿四丁目4-20,高岡幼稚園東側フェンス,34.84439,134.6640875,
兵庫県,姫路市,77,西今宿四丁目8-1,高岡小学校北西側フェンス,34.8464581,134.6633568,
兵庫県,姫路市,78,山吹一丁目4-13,高丘中学校南西側フェンス,34.8508281,134.6644559,
兵庫県,姫路市,79,西今宿七丁目4,ハマグリ池南東土手,34.847992,134.6601381,
兵庫県,姫路市,80,東夢前台1丁目3,夢前台第七公園東側フェンス,34.8560741,134.6555767,
兵庫県,姫路市,81,上手野1-2,旧高岡西幼稚園西フェンス,34.8487597,134.6558541,
兵庫県,姫路市,82,上手野65番地3,上手野総合センター入口フェンス,34.8523626,134.656488,
兵庫県,姫路市,83,上手野124,masked,34.8546221,134.6582718,
兵庫県,姫路市,84,上手野412-3,上手野児童公園西側フェンス,34.85537,134.656677,緯度経度は怪しい
兵庫県,姫路市,85,下手野六丁目6-12,masked,34.85222720000001,134.65425,
兵庫県,姫路市,86,下手野五丁目9,masked,34.8498233,134.6522648,
兵庫県,姫路市,87,下手野二丁目21,秩父山公園入口フェンス,34.8469672,134.6543935,
兵庫県,姫路市,88,辻井八丁目4,辻井東山公園南側フェンス,34.854076,134.6767023,
兵庫県,姫路市,89,辻井七丁目18-1,辻井南公園南側フェンス,34.8524257,134.6738409,
兵庫県,姫路市,90,辻井二丁目652-1,辻井バイパス バス停西側関西電力フェンス,34.8495072,134.6683378,
兵庫県,姫路市,91,田寺東二丁目6-1,安室中学校西側フェンス,34.8549342,134.6715664,
兵庫県,姫路市,92,御立東二丁目34,御立大池公園東側,34.8625358,134.6741344,
兵庫県,姫路市,93,御立東五丁目8-7,masked,34.8634819,134.6780595,
兵庫県,姫路市,94,御立北一丁目1,津田氏所有車庫裏空地,34.8702444,134.6728871,
兵庫県,姫路市,95,辻井八丁目18-1,安室東幼稚園 東側フェンス,34.8542935,134.6726428,
兵庫県,姫路市,96,御立中二丁目7-6,masked,34.8655315,134.6696365,
兵庫県,姫路市,97,御立西五丁目14-1,西兵庫信用金庫姫路北支店東側花壇,34.8625925,134.665707,
兵庫県,姫路市,98,御立中七丁目10,プチシャトー御立 西側道路フェンス,34.8703523,134.6690716,
兵庫県,姫路市,99,田寺七丁目5,第5チビッコ広場フェンス(田寺第五公園),34.8582574,134.6715664,
兵庫県,姫路市,100,御立北二丁目1,唐立団地第一公園東側,34.8722695,134.6707592,
兵庫県,姫路市,101,御立西四丁目4,御立公園北側フェンス,34.8645361,134.6604121,
兵庫県,姫路市,102,御立中八丁目15-7,masked,34.8718964,134.6683399,
兵庫県,姫路市,103,田寺二丁目5-549-1,田寺南公園東側フェンス,34.8566356,134.6687459,
兵庫県,姫路市,104,材木町20,城南線市之橋西北の角,34.8385648,134.6877208,
兵庫県,姫路市,105,岡町60-4,城西スポーツ広場 南側フェンス,34.8406534,134.6851549,
兵庫県,姫路市,106,竜野町一丁目1-3,車門橋北側歩道,34.8361175,134.6855919,
兵庫県,姫路市,107,吉田町6,県住吉田町団地集会所北側,34.8365776,134.6849724,
兵庫県,姫路市,108,吉田町28,masked,34.8371476,134.6840568,
兵庫県,姫路市,109,龍野町五丁目30,旧姫路赤十字病院東側フェンス,34.8378324,134.6801111,
兵庫県,姫路市,110,琴岡町274,琴岡駐車場南側,34.8358806,134.6787512,
兵庫県,姫路市,111,新在家二丁目4-1,城西小学校西門北側,34.8450929,134.6817777,
兵庫県,姫路市,112,東辻井三丁目5-13,東辻井3丁目スポーツ広場西側,34.8484825,134.6790412,
兵庫県,姫路市,113,新在家二丁目4-1,城西小学校東側北,34.8450929,134.6817777,
兵庫県,姫路市,114,南新在家240,日本幼稚園駐車場南側フェンス,34.8450793,134.6856522,
兵庫県,姫路市,115,新在家一丁目401-2,橋詰竹材店西側駐車場(クリーニング店向),34.8439525,134.6833049,
兵庫県,姫路市,116,西新在家三丁目11,西新在家スポーツ広場東側フェンス,34.8495096,134.6813242,
兵庫県,姫路市,117,名古山町15,名古山広場,34.8426495,134.6805906,
兵庫県,姫路市,118,山野井町1-3,水尾神社南側玉垣,34.8412676,134.6895844,
兵庫県,姫路市,119,南八代町6-1,城乾小学校体育館東,34.8424761,134.6861387,
兵庫県,姫路市,120,南八代町6-1,城乾中学校西側,34.8424761,134.6861387,
兵庫県,姫路市,121,新在家本町一丁目1-12,兵庫県立大学 歩道フェンス,34.8487744,134.687637,
兵庫県,姫路市,122,新在家本町三丁目5-700,三景園公園北側,34.8502374,134.6857256,
兵庫県,姫路市,123,北新在家一丁目1-319,北新在家南公園,34.85296659999999,134.6893931,
兵庫県,姫路市,124,八代本町二丁目11,八代郵便局南側駐車場,34.8454411,134.6918868,
兵庫県,姫路市,125,八代本町二丁目5－6,船場川沿い,34.8444718,134.6931866,
兵庫県,姫路市,126,北八代二丁目1－33,姫路西高西側フェンス,34.849628,134.693771,緯度経度は怪しい
兵庫県,姫路市,127,北八代二丁目1－33,姫路西高東側フェンス,34.849628,134.693771,緯度経度は怪しい
兵庫県,姫路市,128,城北本町3－13,クリーニング店北側ガードレール,34.8504583,134.6944079,
兵庫県,姫路市,129,伊伝居(師範前町)560,師範前町公民館窓枠,34.849491,134.699997,緯度経度は怪しい
兵庫県,姫路市,130,伊伝居(新道)35－2,播州信用金庫野里支店南西向駐車場フェンス,34.8500353,134.6994405,
兵庫県,姫路市,131,伊伝居473－3,中山歯科医院東側駐車場フェンス,34.8504816,134.7000821,
兵庫県,姫路市,132,伊伝居(本町),桑原神社玉垣,34.849491,134.699997,緯度経度は怪しい
兵庫県,姫路市,133,八代緑ケ丘町19－27,八代交番西側,34.8537057,134.6909333,
兵庫県,姫路市,134,広峰一丁目14,城北公園東側,34.8540185,134.7042801,
兵庫県,姫路市,135,城北新町二丁目2－23,masked,34.8550703,134.6974432,
兵庫県,姫路市,136,峰南町2－1,広峰小学校西側,34.8574036,134.6958763,
兵庫県,姫路市,137,峰南町2－43,広嶺中学校北西隅,34.8596518,134.6950313,
兵庫県,姫路市,138,北平野南の町654－1,北平野公園西側フェンス,34.856906,134.6929869,
兵庫県,姫路市,139,広峰二丁目7,姫路競馬場北側フェンス(自衛隊正門の南側),34.8564168,134.7012004,
兵庫県,姫路市,140,梅ケ谷17－50,老人福祉センター楽寿園入口南側,34.8585052,134.6896176,
兵庫県,姫路市,141,広峰二丁目7,姫路競馬場第一駐車場南側,34.8564168,134.7012004,
兵庫県,姫路市,142,北平野町五丁目10－11,北平野公民館東側フェンス北角,34.861317,134.697479,緯度経度は怪しい
兵庫県,姫路市,143,上大野三丁目,バス方転場東粗大ごみ集積場北側,34.8673621,134.684772,
兵庫県,姫路市,144,大寿台二丁目,大寿台第二公園南側,34.8723363,134.6835983,
兵庫県,姫路市,145,上大野五丁目2－1,広嶺木材建設事業部南側フェンス,34.8688177,134.6892951,
兵庫県,姫路市,146,上大野六丁目,ポケットパーク南側,34.8681025,134.6909333,
兵庫県,姫路市,147,北平野奥垣内7－3,広峰保育園入口塀,34.8681534,134.6978597,
兵庫県,姫路市,148,北平野六丁目7,北平野タウン第一号公園東側,34.8672609,134.6984139,
兵庫県,姫路市,149,増位新町二丁目6,花北広場公園東側,34.8575969,134.7105855,
兵庫県,姫路市,150,増位新町二丁目12,花の北市民広場西側植込み,34.8568241,134.7103482,
兵庫県,姫路市,151,峰南町1－45,白国南口バス停西側フェンス,34.8579415,134.7040133,
兵庫県,姫路市,152,増位新町一丁目90,西中島公園東側,34.8545434,134.7083888,
兵庫県,姫路市,153,増位新町一丁目90,西中島公園西側,34.8545434,134.7083888,
兵庫県,姫路市,154,増位新町二丁目37,総合福祉通園センター北側フェンス,34.8588427,134.7095459,
兵庫県,姫路市,155,白国四丁目6－1,白国町公会堂南,34.8623287,134.7071006,
兵庫県,姫路市,156,増位新町二丁目4－1,増位中学校南側フェンス,34.8586582,134.7104284,
兵庫県,姫路市,157,城見台一丁目1111－113,城見台1丁目県民まちなみ緑化事業緑地,34.85655940000001,134.725857,
兵庫県,姫路市,158,城見台二丁目1111-326,城見台第二公園西側,34.8563022,134.7284072,
兵庫県,姫路市,159,城見台二丁目1111-275,城見台第三公園,34.856998,134.727432,緯度経度は怪しい
兵庫県,姫路市,160,城見台四丁目2-16,城見台第四公園,34.85736130000001,134.734333,
兵庫県,姫路市,161,城見台三丁目5-14,城見台第五公園,34.8599881,134.7340399,
兵庫県,姫路市,162,城見台二丁目,城見台二丁目バス停南,34.8577393,134.7293499,
兵庫県,姫路市,163,城見台四丁目2-1,テニスコート南側フェンス,34.8574684,134.7330415,
兵庫県,姫路市,164,保城686,保城西公園南側フェンス,34.8575288,134.7203467,
兵庫県,姫路市,165,保城309－1,障害者支援センター北側フェンス,34.856396,134.719772,緯度経度は怪しい
兵庫県,姫路市,166,西中島286－1,JR野里駅東側フェンス,34.8561314,134.7112819,
兵庫県,姫路市,167,保城150－1,保城公園北側フェンス,34.8562099,134.7159689,
兵庫県,姫路市,168,保城990－1,masked,34.856396,134.719772,緯度経度は怪しい
兵庫県,姫路市,169,西中島42－1,天理教本慕分教会ブロック塀,34.852853,134.7101468,
兵庫県,姫路市,170,西中島324,水上小学校北側フェンス,34.854027,134.710266,緯度経度は怪しい
兵庫県,姫路市,171,野里(大日町)339,大歳神社南側空地,34.844955,134.708618,緯度経度は怪しい
兵庫県,姫路市,172,野里587－1,日本郵便輸送　姫路営業所　北向い,34.8457304,134.7062912,
兵庫県,姫路市,173,野里449－2,masked,34.8407894,134.7062934,
兵庫県,姫路市,174,陸町435－1,masked,34.815277,134.685562,緯度経度は怪しい
兵庫県,姫路市,175,野里951－3,高木川西前処理場,34.847919,134.708313,緯度経度は怪しい
兵庫県,姫路市,176,野里(大日町)487,大日公園東側フェンス,34.844955,134.708618,緯度経度は怪しい
兵庫県,姫路市,177,野里字南河原147,masked,34.8434646,134.7088259,
兵庫県,姫路市,178,砥堀428,masked,34.86623,134.718811,緯度経度は怪しい
兵庫県,姫路市,179,砥堀565,ショーワグローブ(株)駐車場西側,34.866722,134.72316,緯度経度は怪しい
兵庫県,姫路市,180,仁豊野265－2,JR仁豊野駅西側,34.881969,134.722626,緯度経度は怪しい
兵庫県,姫路市,181,砥堀125－4,砥堀自治会ごみ集積場,34.876942,134.716644,緯度経度は怪しい
兵庫県,姫路市,182,砥堀1247,砥堀小学校正門北側,34.876942,134.716644,緯度経度は怪しい
兵庫県,姫路市,183,仁豊野357－1,和辻医院駐車場フェンス,34.8836708,134.7290385,
兵庫県,姫路市,184,仁豊野335,鯉田歯科南側,34.881969,134.722626,緯度経度は怪しい
兵庫県,姫路市,185,砥堀150,masked,34.876942,134.716644,緯度経度は怪しい
兵庫県,姫路市,186,砥堀733,ホームセンターアグロ駐車場入口花壇,34.8690115,134.7300709,
兵庫県,姫路市,187,花田町高木,高木橋西詰北,34.8468416,134.7158637,
兵庫県,姫路市,188,花田町高木,高乃木神社玉垣南側,34.8468416,134.7158637,
兵庫県,姫路市,189,花田町高木159,三輪パーキング西側,34.849976,134.716125,緯度経度は怪しい
兵庫県,姫路市,190,花田町小川577－1,市営上野団地9棟フェンス,34.8445252,134.7194739,
兵庫県,姫路市,191,花田町小川516－1,市営上野団地2棟フェンス,34.8444031,134.7216006,
兵庫県,姫路市,192,花田町加納原田813,球技スポーツセンター西側,34.8326411,134.728262,
兵庫県,姫路市,193,花田町小川1126,高木前処理場前グランド南側,34.8413154,134.7197253,
兵庫県,姫路市,194,花田町上原田708北,ガードパイプ,34.8353305,134.7332326,
兵庫県,姫路市,195,花田町勅旨273,花田小学校校門,34.833187,134.721985,緯度経度は怪しい
兵庫県,姫路市,196,花田町加納原田274,横田冷機設備(有)駐車場西側,34.8294003,134.7215207,
兵庫県,姫路市,197,花田町勅旨,勅旨第二公園東側,34.8335899,134.720555,
兵庫県,姫路市,198,花田町一本松120,レクサス姫路臨時駐車場南側,34.82589,134.7244154,
兵庫県,姫路市,199,花田町小川657,masked,34.8421828,134.7240395,
兵庫県,姫路市,200,四郷町坂元6,masked,34.8156141,134.7210184,
兵庫県,姫路市,201,四郷町山脇585－1,山脇南口バス停付近,34.8194044,134.7225159,
兵庫県,姫路市,202,四郷町上鈴239,共同浴場南向い(田中商店西),34.813766,134.728516,緯度経度は怪しい
兵庫県,姫路市,203,四郷町中鈴76－1,中鈴総合センター北東側フェンス,34.8095375,134.7272613,
兵庫県,姫路市,204,四郷町東阿保1176－2,masked,34.810909,134.702728,緯度経度は怪しい
兵庫県,姫路市,205,四郷町東阿保16－3,masked,34.811306,134.7155,緯度経度は怪しい
兵庫県,姫路市,206,四郷町坂元258－1,市立四郷公民館駐車場北側,34.8109899,134.7227906,
兵庫県,姫路市,207,四郷町明田5－4,masked,34.7961725,134.7271881,
兵庫県,姫路市,208,四郷町本郷405,本郷公民館南側の田,34.8074697,134.7319758,
兵庫県,姫路市,209,四郷町見野,見野コミュニティースポーツ広場,34.8037424,134.7275911,
兵庫県,姫路市,210,四郷町見野747,見野公民館前ポンプ場西,34.8037487,134.7289011,
兵庫県,姫路市,211,四郷町見野967,旧市バス転換場北側植え込み,34.8068368,134.7248533,
兵庫県,姫路市,212,四郷町見野964－5,市立見野総合センターフェンス,34.8070459,134.7245681,
兵庫県,姫路市,213,四郷町本郷287－1,本郷交差点北東,34.8078252,134.7306141,
兵庫県,姫路市,214,御国野町深志野,masked,34.8282528,134.7463487,
兵庫県,姫路市,215,御国野町御着1142－2,御着城跡公園東側,34.8188052,134.7409614,
兵庫県,姫路市,216,御国野町御着246,天川なかよし公園南側,34.8164119,134.7378931,
兵庫県,姫路市,217,御国野町御着678－2,masked,34.817238,134.737473,緯度経度は怪しい
兵庫県,姫路市,218,御国野町国分寺474－1,masked,34.8226261,134.7346261,
兵庫県,姫路市,219,御国野町国分寺679－5,国分寺公民館南東側ブロック,34.8237167,134.7353518,
兵庫県,姫路市,220,御国野町西御着540,西御着スポーツ広場東側フェンス,34.8170832,134.7312609,
兵庫県,姫路市,221,御国野町深志野992,大歳神社東側玉垣,34.8272415,134.7452781,
兵庫県,姫路市,222,別所町別所二丁目58,関西電力御着変電所北側,34.8104664,134.7489483,
兵庫県,姫路市,223,別所町別所1717－4,別所公民館西側フェンス,34.8073069,134.7559114,
兵庫県,姫路市,224,別所町別所673,別所小学校西門,34.8093467,134.7555168,
兵庫県,姫路市,225,別所町北宿（今池埋立地）,北宿公民館南側,34.806732,134.765656,緯度経度は怪しい
兵庫県,姫路市,226,別所町小林261,小林ゲートボール公園フェンス,34.7995727,134.7604119,
兵庫県,姫路市,227,別所町佐土,播但連絡道路下（木下商店東側）,34.810497,134.74173,緯度経度は怪しい
兵庫県,姫路市,228,別所町佐土新385,佐土新バス停北側,34.820011,134.759186,緯度経度は怪しい
兵庫県,姫路市,229,別所町小林867－16,小林東チビッコ広場,34.7990522,134.7647285,
兵庫県,姫路市,230,別所町家具町153,家具町第一公園北側,34.8213486,134.746793,
兵庫県,姫路市,231,飾東町佐良和895－1,塩ヶ池西側,34.849437,134.7288827,
兵庫県,姫路市,232,飾東町庄243,宮ノ東公園東フェンス,34.840168,134.732849,緯度経度は怪しい
兵庫県,姫路市,233,飾東町豊国449－1,老人憩の家西側フェンス,34.84671,134.743301,緯度経度は怪しい
兵庫県,姫路市,234,飾東町豊国1029,春日野バス停南100m,34.8476175,134.7451765,
兵庫県,姫路市,235,飾東町塩崎437,masked,34.843761,134.753967,緯度経度は怪しい
兵庫県,姫路市,236,飾東町志吹,志吹集会所北側,34.836647,134.75882,緯度経度は怪しい
兵庫県,姫路市,237,飾東町北山４７３-１,北山公民館前フェンス (位置情報が見つかりませんでした),34.8392967,134.7508354,
兵庫県,姫路市,238,飾東町夕陽ヶ丘67,ゴミ置場南側,34.8301394,134.7594186,
兵庫県,姫路市,239,飾東町佐良和134,佐良和南公園北側フェンス,34.8491639,134.7299362,
兵庫県,姫路市,240,飾東町八重畑,masked,34.862442,134.774826,緯度経度は怪しい
兵庫県,姫路市,241,飾東町北野,masked,34.853958,134.794708,緯度経度は怪しい
兵庫県,姫路市,242,飾東町清住263,清住スポーツ広場西側フェンス,34.847363,134.776703,緯度経度は怪しい
兵庫県,姫路市,243,飾東町小原新,小原新橋東南側鉄柵,34.873447,134.800247,緯度経度は怪しい
兵庫県,姫路市,244,飾東町小原493,上村氏所有畑,34.8629415,134.7902386,
兵庫県,姫路市,245,飾東町山崎,masked,34.856361,134.759048,緯度経度は怪しい
兵庫県,姫路市,246,飾東町大釜58,大釜公民館西側空地,34.8488587,134.7891784,
兵庫県,姫路市,247,飾東町山崎590－4,masked,34.85476209999999,134.7633229,
兵庫県,姫路市,248,飾東町大釜新1190－1,大釜新ごみ置場 西側フェンス,34.8517521,134.7814987,
兵庫県,姫路市,249,書写45,田井西公園内,34.884491,134.655121,緯度経度は怪しい
兵庫県,姫路市,250,菅生台4－1,菅生台第一公園西側,34.8758825,134.6425009,
兵庫県,姫路市,251,菅生台94,菅生台第二公園西側,34.8757495,134.6423427,
兵庫県,姫路市,252,書写台二丁目39,書写西公園（えび池公園）東側,34.868217,134.648468,緯度経度は怪しい
兵庫県,姫路市,253,書写2100－2,書写山上水道ポンプ場フェンス,34.8756667,134.6512009,
兵庫県,姫路市,254,書写台二丁目16,masked,34.8705951,134.6499525,
兵庫県,姫路市,255,書写台一丁目28,masked,34.8727024,134.6503915,
兵庫県,姫路市,256,田井台2－7,田井公園北側,34.8633414,134.65702,
兵庫県,姫路市,257,書写634－51,姫路書写テニスコート北側,34.867832,134.658997,緯度経度は怪しい
兵庫県,姫路市,258,書写1699,東洋大学附属姫路高等学校正門前,34.8770089,134.6577626,
兵庫県,姫路市,259,書写1070番地1,masked,34.8759446,134.6674154,
兵庫県,姫路市,260,書写（南住宅）879－42,書写団地第一公園東側,34.884491,134.655121,緯度経度は怪しい
兵庫県,姫路市,261,書写(書写住宅)1070－1,masked,34.884491,134.655121,緯度経度は怪しい
兵庫県,姫路市,262,書写(中尾)1019－406,中尾公園東側,34.884491,134.655121,緯度経度は怪しい
兵庫県,姫路市,263,書写634－51,曽左小学校東側,34.867832,134.658997,緯度経度は怪しい
兵庫県,姫路市,264,白鳥台三丁目1343－516,白鳥タウン第一公園南西側,34.8856976,134.6237014,
兵庫県,姫路市,265,六角449－8,六角公民館東側花壇,34.88047480000001,134.6383983,
兵庫県,姫路市,266,刀出319,刀出バス停付近火の見櫓横,34.8926586,134.638178,
兵庫県,姫路市,267,打越374－1,明神下西南側,34.892151,134.625824,緯度経度は怪しい
兵庫県,姫路市,268,白鳥台三丁目,白鳥台チビッコ広場北側フェンス,34.8856976,134.6237014,
兵庫県,姫路市,269,打越(毛野)399,毛野公園北側,34.892151,134.625824,緯度経度は怪しい
兵庫県,姫路市,270,緑台二丁目3,打越団地第一公園北東側,34.8981247,134.6276675,
兵庫県,姫路市,271,川西台1－13,川西台第二公園東側,34.852856,134.647598,緯度経度は怪しい
兵庫県,姫路市,272,川西台1－130,川西台第一公園東側,34.8526929,134.6478375,
兵庫県,姫路市,273,飾西728－5,西市民センター前,34.859985,134.646225,緯度経度は怪しい
兵庫県,姫路市,274,実法寺665,実法寺公民館東側,34.865839,134.6416668,
兵庫県,姫路市,275,実法寺146,masked,34.8705057,134.6372005,
兵庫県,姫路市,276,町田141,masked,34.8632207,134.6414283,
兵庫県,姫路市,277,青山北一丁目9,三相電機㈱駐車場,34.8545033,134.6447034,
兵庫県,姫路市,278,青山北三丁目21,セジュール青山南側,34.8528767,134.6407387,
兵庫県,姫路市,279,青山三丁目,青山チビッコ広場南側フェンス,34.8420768,134.6413261,
兵庫県,姫路市,280,青山一丁目6－5,masked,34.845603,134.6416014,
兵庫県,姫路市,281,青山五丁目16－1,姫路西消防団青山分団西駐車場,34.8459783,134.6399311,
兵庫県,姫路市,282,青山三丁目,國富胃腸病院東側駐車場ガードパイプ,34.8420768,134.6413261,
兵庫県,姫路市,283,青山(青山バス停東),旧29号 ガードフェンス,34.84901,134.62793,緯度経度は怪しい
兵庫県,姫路市,284,西夢前台2丁目140,夢前台第五公園西側,34.8511011,134.6446443,
兵庫県,姫路市,285,青山西五丁目1,masked,34.8418834,134.62708,
兵庫県,姫路市,286,青山南四丁目1,青山団地第六公園西側,34.8405331,134.6271534,
兵庫県,姫路市,287,青山西二丁目18－1,今栄花樹園西側,34.8443198,134.6311706,
兵庫県,姫路市,288,青山南三丁目6,県営青山鉄筋団地5号棟東側,34.8412414,134.6289161,
兵庫県,姫路市,289,青山南三丁目1,青山団地公園西側,34.8414659,134.6308255,
兵庫県,姫路市,290,青山南二丁目9－3,県営青山鉄筋団地3号棟南東側,34.8424099,134.6327077,
兵庫県,姫路市,291,青山南一丁目2,県営青山第2鉄筋団地6号棟西側,34.8402984,134.6399311,
兵庫県,姫路市,292,石倉52,石倉交差点北西ガードフェンス,34.880569,134.612946,緯度経度は怪しい
兵庫県,姫路市,293,太市中100,旧太市中公民館西側,34.855675,134.614624,緯度経度は怪しい
兵庫県,姫路市,294,太市中779,向山公園東側フェンス,34.855675,134.614624,緯度経度は怪しい
兵庫県,姫路市,295,相野86先,JR太市駅前ロータリー南側フェンス,34.866024,134.614914,緯度経度は怪しい
兵庫県,姫路市,296,太市中,太市中公民館東側,34.855675,134.614624,緯度経度は怪しい
兵庫県,姫路市,297,相野383,山下氏所有水路畔,34.866024,134.614914,緯度経度は怪しい
兵庫県,姫路市,298,西脇55－3,masked,34.873348,134.604019,緯度経度は怪しい
兵庫県,姫路市,299,西脇1300,丸山公民館東側,34.8591741,134.59257,
兵庫県,姫路市,300,林田町松山498－2,松山公会堂東側,34.9352647,134.5810717,
兵庫県,姫路市,301,林田町松山931,嘉ノ海木工所の南側,34.9292734,134.5790019,
兵庫県,姫路市,302,林田町山田683－11,永谷邸南側ブロック塀壁面,34.938339,134.590851,緯度経度は怪しい
兵庫県,姫路市,303,林田町六九谷295,masked,34.9184414,134.58007,
兵庫県,姫路市,304,林田町六九谷523,林田小学校北側フェンス,34.9139672,134.5833047,
兵庫県,姫路市,305,林田町六九谷917,国道29号茶の木バス停付近,34.912022,134.581497,緯度経度は怪しい
兵庫県,姫路市,306,林田町松山770,(株)テクノリペア資材置場東,34.938259,134.579437,緯度経度は怪しい
兵庫県,姫路市,307,林田町八幡325－1,八幡バス停東側の空き地,34.9150456,134.5900307,
兵庫県,姫路市,308,林田町八幡92,masked,34.918377,134.588913,緯度経度は怪しい
兵庫県,姫路市,309,林田町林谷523－2,ポーラ化粧品林田(営)東,34.90374120000001,134.5881931,
兵庫県,姫路市,310,林田町林谷214－3,大給組西駐車場　R29西側,34.9017584,134.5901961,
兵庫県,姫路市,311,林田町林谷908－2,福島組資材置場東側,34.8980077,134.5842605,
兵庫県,姫路市,312,林田町林田13,林田公民館,34.9043268,134.5809914,
兵庫県,姫路市,313,林田町上構42,松尾組所有資材置場南側,34.906761,134.571167,緯度経度は怪しい
兵庫県,姫路市,314,林田町下構,下構橋西詰空き地,34.8974852,134.5766696,
兵庫県,姫路市,315,林田町林田84－2,NTT西日本兵庫支店林田別館東側フェンス,34.900715,134.580231,緯度経度は怪しい
兵庫県,姫路市,316,林田町大堤175－1,大堤広場西側,34.937042,134.613724,緯度経度は怪しい
兵庫県,姫路市,317,林田町下伊勢,masked,34.890865,134.606918,緯度経度は怪しい
兵庫県,姫路市,318,林田町下伊勢596,伊勢茶屋の公園内,34.890865,134.606918,緯度経度は怪しい
兵庫県,姫路市,319,林田町下伊勢469,masked,34.8889908,134.6051392,
兵庫県,姫路市,320,林田町上伊勢886,伊勢小学校西側フェンス,34.900047,134.613007,緯度経度は怪しい
兵庫県,姫路市,321,林田町上伊勢141－1,岩佐氏所有地北側,34.91190770000001,134.6113601,
兵庫県,姫路市,322,林田町下伊勢76－1,masked,34.8958978,134.6059393,
兵庫県,姫路市,323,林田町上伊勢1077－5,市立伊勢公民館西側フェンス,34.914688,134.615448,緯度経度は怪しい
兵庫県,姫路市,324,豊富町豊富(大尾),大尾バス停横法面,34.891323,134.75209,緯度経度は怪しい
兵庫県,姫路市,325,豊富町豊富(重国)2288,NTT西日本兵庫支店仁豊野別館東,34.891323,134.75209,緯度経度は怪しい
兵庫県,姫路市,326,豊富町豊富(津熊)3410−2,津熊公園東側,34.891323,134.75209,緯度経度は怪しい
兵庫県,姫路市,327,豊富町豊富(重国)1555−5,江鮒郵便局前ガードフェンス,34.891323,134.75209,緯度経度は怪しい
兵庫県,姫路市,328,豊富町御蔭(金竹)1113−3,豊富幼稚園フェンス,34.870312,134.743912,緯度経度は怪しい
兵庫県,姫路市,329,豊富町御蔭(サバービア豊富内),豊富団地第2公園北側,34.870312,134.743912,緯度経度は怪しい
兵庫県,姫路市,330,豊富町御蔭,豊富台第一公園,34.870312,134.743912,緯度経度は怪しい
兵庫県,姫路市,331,豊富町御蔭(薮田)1940,三浦建設㈱西側,34.870312,134.743912,緯度経度は怪しい
兵庫県,姫路市,332,豊富町豊富(橋爪)2402−4,鍛冶内バス停西側,34.891323,134.75209,緯度経度は怪しい
兵庫県,姫路市,333,豊富町神谷131,県道沿黒田バス停前の田,34.876686,134.775406,緯度経度は怪しい
兵庫県,姫路市,334,豊富町神谷(岩屋),セントラルパーク岩屋ゲート東,34.876686,134.775406,緯度経度は怪しい
兵庫県,姫路市,335,豊富町神谷2824,㈱関西ポートリー東グラウンドフェンス,34.876686,134.775406,緯度経度は怪しい
兵庫県,姫路市,336,豊富町神谷(細野)2228−1,細野倉庫南東,34.876686,134.775406,緯度経度は怪しい
兵庫県,姫路市,337,豊富町神谷(細野)2720,細野公会堂南側西向,34.876686,134.775406,緯度経度は怪しい
兵庫県,姫路市,338,豊富町神谷(岩屋)1481,岩屋公民館北側,34.876686,134.775406,緯度経度は怪しい
兵庫県,姫路市,339,豊富町神谷(黒田)252,黒田集会所南側,34.876686,134.775406,緯度経度は怪しい
兵庫県,姫路市,340,豊富町甲丘一丁目6,masked,34.89761230000001,134.7468461,
兵庫県,姫路市,341,豊富町甲丘二丁目20,甲丘第三公園西側フェンス,34.8991551,134.7464952,
兵庫県,姫路市,342,豊富町甲丘二丁目1,masked,34.8990208,134.7473128,
兵庫県,姫路市,343,豊富町甲丘三丁目,甲丘三、四丁目自治会掲示板北(甲池ぞい),34.8972932,134.7472277,
兵庫県,姫路市,344,豊富町甲丘三丁目1693−16,姫路甲丘アーバンコンフォート西,34.8956897,134.746179,
兵庫県,姫路市,345,豊富町甲丘四丁目2,甲丘第一公園東側フェンス,34.8975003,134.746065,
兵庫県,姫路市,346,豊富町甲丘四丁目131,甲丘第二公園東の家,34.8970769,134.744682,
兵庫県,姫路市,347,山田町牧野,営農倉庫前,34.898174,134.767502,緯度経度は怪しい
兵庫県,姫路市,348,山田町北山田109−3,市立山田こども園西側,34.912011,134.7741627,
兵庫県,姫路市,349,山田町南山田765,masked,34.906212,134.782486,緯度経度は怪しい
兵庫県,姫路市,350,山田町西山田578,西山田公民館北側,34.905312,134.773209,緯度経度は怪しい
兵庫県,姫路市,351,山田町北山田460,北山田公民館西側の田,34.914703,134.789368,緯度経度は怪しい
兵庫県,姫路市,352,山田町東多田395−1,多田バス停北付近,34.899902,134.776688,緯度経度は怪しい
兵庫県,姫路市,353,山田町多田(新田)1156,masked,34.9186185,134.7732994,
兵庫県,姫路市,354,山田町西多田,西多田児童公園南側,34.899902,134.776688,緯度経度は怪しい
兵庫県,姫路市,355,山田町多田(野田)1495,野田児童公園西側,34.917793,134.774506,緯度経度は怪しい
兵庫県,姫路市,356,船津町(八幡),東洋精機(有)北側屋台倉庫,34.917927,134.756149,緯度経度は怪しい
兵庫県,姫路市,357,船津町(御立)1351,常徳寺南西側,34.917927,134.756149,緯度経度は怪しい
兵庫県,姫路市,358,船津町字堂前下(中野),消防団船津分団中野班車庫,34.917927,134.756149,緯度経度は怪しい
兵庫県,姫路市,359,船津町4990−1(仁色),仁色老人憩いの家南ガードフェンス,34.917927,134.756149,緯度経度は怪しい
兵庫県,姫路市,360,船津町927−1(上野),船津小学校東側,34.918635,134.757471,
兵庫県,姫路市,361,船津町(大沢),大沢サイクル西側,34.917927,134.756149,緯度経度は怪しい
兵庫県,姫路市,362,船津字中垣内1404−1,船津北公園北東フェンス,34.917927,134.756149,緯度経度は怪しい
兵庫県,姫路市,363,船津町5270−8,瑞岡駐車場フェンス,34.9111363,134.7630754,
兵庫県,姫路市,364,北条宮の町192−4,北条宮西公園西側植込み,34.8190027,134.6936583,
兵庫県,姫路市,365,佃町97,masked,34.8141899,134.684772,
兵庫県,姫路市,366,阿保甲675,阿保第2公園北側,34.820568,134.702332,緯度経度は怪しい
兵庫県,姫路市,367,南駅前町131,南駅前町公園北側,34.8253283,134.6918134,
兵庫県,姫路市,368,北条923-1,城陽小学校西側,34.82214,134.6977172,
兵庫県,姫路市,369,豊沢町218,鍛冶屋公園南側,34.8236568,134.6906399,
兵庫県,姫路市,370,庄田90,masked,34.81679829999999,134.6920907,
兵庫県,姫路市,371,北条永良町184-3,市川西第1公園南側フェンス,34.8171969,134.6973368,
兵庫県,姫路市,372,西延末,手柄山中央公園東側土手,34.8243452,134.6736208,
兵庫県,姫路市,373,東延末二丁目167,東延末公園西側,34.8228819,134.6865321,
兵庫県,姫路市,374,手柄91,市立手柄保育所北西側,34.816986,134.6761725,
兵庫県,姫路市,375,安田四丁目53-24,東安田公園南側,34.8170467,134.6858173,
兵庫県,姫路市,376,栗山町202,栗山公園南側,34.8156911,134.6821312,
兵庫県,姫路市,377,安田二丁目113,安田公園東側,34.8190064,134.6848827,
兵庫県,姫路市,378,東延末一丁目163,大年公園北側フェンス,34.8237587,134.686239,
兵庫県,姫路市,379,飾磨区都倉一丁目111,杉木公園東,34.80735,134.6786098,
兵庫県,姫路市,380,飯田三丁目157,飯田公園北東,34.8124376,134.6742078,
兵庫県,姫路市,381,飾磨区恵美酒360,恵美酒団地第一公園南側フェンス,34.8074486,134.676193,
兵庫県,姫路市,382,亀山一丁目225,船場川東公園西側,34.8082691,134.6722359,
兵庫県,姫路市,383,飾磨区都倉二丁目149,中部飾磨公園東側,34.8052645,134.6777295,
兵庫県,姫路市,384,飯田1丁目175,飯田お松公園西側フェンス,34.8104819,134.6695623,
兵庫県,姫路市,385,手柄一丁目188,浜田公園北側フェンス,34.8153992,134.6803705,
兵庫県,姫路市,386,飾磨区三宅三丁目69,道ノ下公園南側,34.8104126,134.6803705,
兵庫県,姫路市,387,土山七丁目1-1,土山八幡神社南側,34.8349478,134.6682887,
兵庫県,姫路市,388,岡田428-1,岡田公民館南側駐車場,34.82458640000001,134.6672353,
兵庫県,姫路市,389,岡田582,ダイソー南の田ガードフェンス,34.825817,134.667419,緯度経度は怪しい
兵庫県,姫路市,390,井ノ口54,荒川小学校東側,34.82552,134.660919,緯度経度は怪しい
兵庫県,姫路市,391,岡田276,岡田北公園南側,34.8253934,134.6665766,
兵庫県,姫路市,392,土山六丁目4-5,中国電通株式会社南側,34.8336967,134.6655004,
兵庫県,姫路市,393,西庄177,県営西庄県住集会所東側,34.831848,134.659836,緯度経度は怪しい
兵庫県,姫路市,394,中地453,総合スポーツ会館南東,34.8201784,134.667249,
兵庫県,姫路市,395,町坪129,荒川幼稚園西側フェンス,34.821823,134.658371,緯度経度は怪しい
兵庫県,姫路市,396,町坪29-1,町坪中公園北側,34.821823,134.658371,緯度経度は怪しい
兵庫県,姫路市,397,玉手3丁目,玉手北公園南西,34.8145527,134.662467,
兵庫県,姫路市,398,苫編647,西苫編公園南側,34.819469,134.649704,緯度経度は怪しい
兵庫県,姫路市,399,町坪343,町坪公民館北側,34.818474,134.662628,緯度経度は怪しい
兵庫県,姫路市,400,玉手四丁目,玉手グラウンド北側フェンス,34.8140883,134.6568891,
兵庫県,姫路市,401,飾磨区妻鹿807,妻鹿小学校正門南側,34.7901729,134.6947471,
兵庫県,姫路市,402,飾磨区妻鹿1397-3,masked,34.7861428,134.6922718,
兵庫県,姫路市,403,飾磨区妻鹿,浜手緑地(妻鹿漁港地区)北側,34.7901729,134.6947471,
兵庫県,姫路市,404,飾磨区妻鹿1261,妻鹿自治会ゴミ集荷所フェンス,34.7875479,134.6929625,
兵庫県,姫路市,405,飾磨区妻鹿281,甲ヶ丘公民館西側,34.7954751,134.6975022,
兵庫県,姫路市,406,飾磨区妻鹿170-6,妻鹿公民館南向,34.7919429,134.6943762,
兵庫県,姫路市,407,飾磨区妻鹿887-1,妻鹿町自治会館東側,34.790722,134.692841,緯度経度は怪しい
兵庫県,姫路市,408,飾磨区阿成22,阿成北公園西側,34.8110965,134.6952803,
兵庫県,姫路市,409,飾磨区阿成,阿成宮ノ下公園北側,34.8098369,134.6941604,
兵庫県,姫路市,410,飾磨区阿成鹿古671,高浜小学校南側,34.79924,134.6859456,
兵庫県,姫路市,411,飾磨区阿成渡場1095,鉄工会館 西阿成自治会植栽帯,34.7954159,134.6896823,
兵庫県,姫路市,412,飾磨区阿成中垣内,masked,34.793175,134.6894664,
兵庫県,姫路市,413,飾磨区阿成下渡場,阿成グラウンド 北側フェンス,34.790813,134.689621,緯度経度は怪しい
兵庫県,姫路市,414,飾磨区阿成植木237,高浜中央公園南側フェンス,34.8071974,134.6919697,
兵庫県,姫路市,415,飾磨区下野田185,下野田公園北側,34.8019802,134.6824246,
兵庫県,姫路市,416,飾磨区中野田三丁目37,中野田公民館西側,34.8044971,134.6820066,
兵庫県,姫路市,417,飾磨区上野田三丁目146,堀川町西公園東側,34.8076823,134.6850654,
兵庫県,姫路市,418,飾磨区上野田四丁目219,市立高浜保育所西側,34.8052234,134.6860529,
兵庫県,姫路市,419,飾磨区三和町26,飾磨東中学校西側,34.799257,134.683378,
兵庫県,姫路市,420,飾磨区上野田一丁目53,ムナゴ公園東側,34.8084783,134.6809574,
兵庫県,姫路市,421,飾磨区上野田三丁目145,上野田公園西側,34.8076823,134.6850654,
兵庫県,姫路市,422,飾磨区玉地一丁目27,姫路市飾磨市民センター東側,34.7998598,134.6772394,
兵庫県,姫路市,423,飾磨区宮16,飾磨宮公園西側,34.795822,134.669403,緯度経度は怪しい
兵庫県,姫路市,424,飾磨区大浜2,岩佐氏所有ガレージ東側ブロック塀,34.7950484,134.668455,
兵庫県,姫路市,425,飾磨区細江928,浜手緑地(細江地区)西側東向,34.7887543,134.6595313,
兵庫県,姫路市,426,飾磨区細江991,鉄港運輸(株)北側空地フェンス東側,34.7908918,134.6627147,
兵庫県,姫路市,427,飾磨区細江919,ダイネン(株)駐車場東側(浜之宮天満宮南側),34.7936847,134.6656043,
兵庫県,姫路市,428,飾磨区天神662,細江天神公園東側金網,34.7955994,134.665696,
兵庫県,姫路市,429,飾磨区細江726,masked,34.7962613,134.6624119,
兵庫県,姫路市,430,飾磨区細江104-3,市立飾磨体育館駐車場フェンス,34.8047298,134.6714925,
兵庫県,姫路市,431,飾磨区恵美酒366,小瀬公園西側,34.806746,134.6758403,
兵庫県,姫路市,432,飾磨区(北)細江215,飾磨中部中学校東側,34.813084,134.681595,緯度経度は怪しい
兵庫県,姫路市,433,飾磨区細江2336,北細江公園南側フェンス,34.7887543,134.6595313,
兵庫県,姫路市,434,飾磨区細江444,飾磨恵美酒公園南側フェンス,34.797768,134.669891,緯度経度は怪しい
兵庫県,姫路市,435,飾磨区細江319,飾磨工業高校南側,34.8014485,134.6699139,
兵庫県,姫路市,436,飾磨区恵美酒22,飾磨小学校北東側,34.7977414,134.6720801,
兵庫県,姫路市,437,飾磨区清水198,瀧北歯科駐車場西側,34.8014622,134.6761033,
兵庫県,姫路市,438,飾磨区中島474-1,中島新町交差点西側,34.794628,134.684753,緯度経度は怪しい
兵庫県,姫路市,439,飾磨区中島1088-1,中島屋台南側,34.797209,134.6779674,
兵庫県,姫路市,440,飾磨区中島1088-4,中島自治会館南側,34.7972179,134.6779419,
兵庫県,姫路市,441,飾磨区中島3138,中島南公園西側,34.794628,134.684753,緯度経度は怪しい
兵庫県,姫路市,442,飾磨区中島106,中島中公園北東,34.794628,134.684753,緯度経度は怪しい
兵庫県,姫路市,443,飾磨区中島1271-1,浜手緑地(中島地区)田園ビル南,34.794628,134.684753,緯度経度は怪しい
兵庫県,姫路市,444,飾磨区中島414,中島グラウンド東側の端,34.790401,134.678436,緯度経度は怪しい
兵庫県,姫路市,445,飾磨区今在家六丁目281,今在家第五公園 南側フェンス,34.8061881,134.6565955,
兵庫県,姫路市,446,飾磨区今在家1082,神戸日野自動車(株),34.7984424,134.653814,
兵庫県,姫路市,447,飾磨区今在家四丁目7,宝国カワイ音楽教室北側,34.8041488,134.6529414,
兵庫県,姫路市,448,飾磨区今在家三丁目32,今在家第一公園西側,34.8028626,134.6565955,
兵庫県,姫路市,449,飾磨区今在家二丁目121,今在家第二公園北側,34.8015919,134.6539531,
兵庫県,姫路市,450,飾磨区今在家1388,今在家南第二公園北側フェンス,34.7991943,134.6561785,
兵庫県,姫路市,451,飾磨区今在家1057－9,姫路合同貨物自動車(株)北側フェンス,34.7974428,134.6508299,
兵庫県,姫路市,452,飾磨区今在家四丁目89－1,今在家第四公園西側,34.8053937,134.6509067,
兵庫県,姫路市,453,飾磨区思案橋,思案橋公園西側,34.7977748,134.6609992,
兵庫県,姫路市,454,飾磨区加茂84,大森氏所有空地,34.801388,134.660034,緯度経度は怪しい
兵庫県,姫路市,455,飾磨区構二丁目93,飾磨西中学校正門東側,34.8095619,134.6618103,
兵庫県,姫路市,456,飾磨区構三丁目600,構東公園西側(構公民館南東向),34.8090519,134.6671637,
兵庫県,姫路市,457,飾磨区夢野町250,加茂公園東側,34.813084,134.681595,緯度経度は怪しい
兵庫県,姫路市,458,飾磨区構三丁目77,構西公園北側,34.8084381,134.6651637,
兵庫県,姫路市,459,飾磨区加茂東,加茂南公園北側,34.8034895,134.6648154,
兵庫県,姫路市,460,飾磨区構二丁目219,津田公園南側,34.8084464,134.6612928,
兵庫県,姫路市,461,飾磨区山崎501,山崎公民館前広場,34.815563,134.638824,緯度経度は怪しい
兵庫県,姫路市,462,飾磨区山崎(西畑台)1054,山崎第二(西畑公園)北側,34.81406279999999,134.6383891,
兵庫県,姫路市,463,飾磨区富士見ケ丘町13－1,富士見ケ丘第一公園北側,34.8172883,134.6423432,
兵庫県,姫路市,464,飾磨区富士見ケ丘町9,富士見ケ丘第二公園北東,34.8160396,134.6425009,
兵庫県,姫路市,465,飾磨区山崎台34,山崎第一公園東側,34.8125683,134.6357383,
兵庫県,姫路市,466,飾磨区鎌倉町47,山崎(春日若倉)公園,34.8100519,134.6392702,
兵庫県,姫路市,467,飾磨区鎌倉町43,(株)きんでん姫路支店 電力情報通信部南側,34.8100519,134.6392702,
兵庫県,姫路市,468,飾磨区英賀乙,東浜チビッコ広場南側,34.798115,134.649582,緯度経度は怪しい
兵庫県,姫路市,469,飾磨区英賀清水町三丁目1,清水公園東側,34.8066432,134.6466811,
兵庫県,姫路市,470,飾磨区英賀東町一丁目40,英賀東公民館前ブロック塀,34.8035951,134.6450194,
兵庫県,姫路市,471,飾磨区西浜町二丁目56,西浜第二公園東側,34.79805210000001,134.644396,
兵庫県,姫路市,472,飾磨区英賀清水町二丁目76,英賀保小学校南側,34.8072762,134.6445933,
兵庫県,姫路市,473,飾磨区城南町三丁目,城南町チビッコ広場,34.807234,134.6495487,
兵庫県,姫路市,474,飾磨区付城二丁目180,付城公園北側フェンス,34.8119319,134.6504145,
兵庫県,姫路市,475,飾磨区高町183－1,高町橋西約100m,34.815968,134.655457,緯度経度は怪しい
兵庫県,姫路市,476,飾磨区矢倉町二丁目35,英賀城跡公園東北角,34.807824,134.6380954,
兵庫県,姫路市,477,飾磨区英賀宮町一丁目30,masked,34.8060117,134.642354,
兵庫県,姫路市,478,飾磨区矢倉町二丁目23,矢倉公園東側,34.807824,134.6380954,
兵庫県,姫路市,479,飾磨区英賀西町二丁目37,広英保育園南側フェンス,34.8025736,134.6398576,
兵庫県,姫路市,480,飾磨区英賀西町二丁目11,(株)宮本組倉庫 西側,34.8040076,134.6386992,
兵庫県,姫路市,481,飾磨区矢倉町二丁目23,矢倉公園西側,34.807824,134.6380954,
兵庫県,姫路市,482,飾磨区矢倉町一丁目66,深津内科医院東駐車場花壇内,34.8084101,134.6416198,
兵庫県,姫路市,483,広畑区西蒲田89,西蒲田天満神社,34.830231,134.633209,緯度経度は怪しい
兵庫県,姫路市,484,広畑区城山町1,masked,34.829587,134.6378378,
兵庫県,姫路市,485,広畑区西蒲田1400－25,八幡小学校東側フェンス,34.8252119,134.6369105,
兵庫県,姫路市,486,広畑区西蒲田1400－25,八幡小学校西門ガードパイプ,34.8252119,134.6369105,
兵庫県,姫路市,487,広畑区西蒲田1101,masked,34.8203884,134.636604,
兵庫県,姫路市,488,広畑区西蒲田1400－1,八幡幼稚園北側フェンス,34.8259848,134.636156,
兵庫県,姫路市,489,広畑区西蒲田514－2,masked,34.8340808,134.6337905,
兵庫県,姫路市,490,広畑区西夢前台四丁目35,masked,34.8366826,134.6410153,
兵庫県,姫路市,491,広畑区北河原町,北河原第一公園東側フェンス,34.806641,134.63533,緯度経度は怪しい
兵庫県,姫路市,492,広畑区才(中河原)534－4,masked,34.814423,134.628082,緯度経度は怪しい
兵庫県,姫路市,493,広畑区才226,夢前中学校東側フェンス,34.818695,134.627838,緯度経度は怪しい
兵庫県,姫路市,494,広畑区西夢前台八丁目45,才児童公園東側,34.8124987,134.6339833,
兵庫県,姫路市,495,広畑区才664－2 地先,才踏切北側市道ガードパイプ,34.811176,134.62912,緯度経度は怪しい
兵庫県,姫路市,496,広畑区則直181－11,masked,34.812313,134.622528,緯度経度は怪しい
兵庫県,姫路市,497,広畑区才4,八幡団地第一公園北側,34.818695,134.627838,緯度経度は怪しい
兵庫県,姫路市,498,広畑区蒲田四丁目221,東蒲田第二公園西側,34.8268098,134.6416362,
兵庫県,姫路市,499,広畑区蒲田五丁目242,東蒲田第三公園南側のJRのフェンス,34.8299057,134.6436756,
兵庫県,姫路市,500,広畑区蒲田三丁目,東蒲田第一公園西側,34.8265805,134.6436756,
兵庫県,姫路市,501,広畑区蒲田二丁目121,山所公園北側,34.8241852,134.6433222,
兵庫県,姫路市,502,広畑区蒲田一丁目,東蒲田第四公園東側,34.8215614,134.6401513,
兵庫県,姫路市,503,広畑区蒲田11,masked,34.84108459999999,134.6457496,
兵庫県,姫路市,504,広畑区蒲田588－1,上蒲田第二公園東側,34.829643,134.649002,緯度経度は怪しい
兵庫県,姫路市,505,広畑区北河原町,日本製鉄㈱広畑製鉄所 北河原浄水場西側,34.806641,134.63533,緯度経度は怪しい
兵庫県,姫路市,506,広畑区北野町一丁目48－2,旧広畑幼稚園東側フェンス東側,34.8054805,134.6320515,
兵庫県,姫路市,507,広畑区北野町二丁目59,広畑保育園南側ブロック塀,34.8045121,134.6354858,
兵庫県,姫路市,508,広畑区北野町一丁目,北野公園北側,34.8059555,134.6307521,
兵庫県,姫路市,509,広畑区本町一丁目53,市立広畑公民館西側,34.8023519,134.6298023,
兵庫県,姫路市,510,広畑区清水町一丁目47,広畑小学校東側校門北側,34.8041617,134.6316333,
兵庫県,姫路市,511,広畑区正門通一丁目7－3,広畑市民センター駐車場東側,34.8048643,134.6284347,
兵庫県,姫路市,512,広畑区本町四丁目767,田中酒造南側(空きビン置場北),34.802171,134.63393,
兵庫県,姫路市,513,広畑区本町六丁目7－10,広畑公民館南側,34.8017152,134.6369206,
兵庫県,姫路市,514,広畑区夢前町四丁目,浜手緑地(広畑東地区)公園北側,34.7938661,134.6425009,
兵庫県,姫路市,515,広畑区東新町三丁目,山陽電車夢前川駅東,34.79880199999999,134.6366268,
兵庫県,姫路市,516,広畑区本町二丁目28,本町公園東側,34.8009144,134.6323291,
兵庫県,姫路市,517,広畑区末広町三丁目20,(株)吉田マリーン駐車場北側,34.8006065,134.6369206,
兵庫県,姫路市,518,広畑区夢前町二丁目1－4,浜手緑地(広畑東地区)北側,34.7933827,134.638435,
兵庫県,姫路市,519,広畑区早瀬町二丁目,早瀬公園南側,34.8058907,134.6237014,
兵庫県,姫路市,520,広畑区正門通三丁目8,(株)吉田組駐車場西側,34.7987541,134.6293659,
兵庫県,姫路市,521,広畑区高浜町三丁目35,広畑第二小学校北東側,34.80118119999999,134.6206043,
兵庫県,姫路市,522,広畑区高浜町四丁目26,日本製鉄(株)広畑人材育成センター高浜寮北側,34.7977259,134.6188688,
兵庫県,姫路市,523,広畑区小坂128－2,masked,34.8064734,134.6208147,
兵庫県,姫路市,524,広畑区小松町二丁目66－1,日本製鉄(株)広畑労働組合会館 南東向い側,34.8024129,134.6250717,
兵庫県,姫路市,525,広畑区小坂115,小坂公園北側,34.8076339,134.6186903,
兵庫県,姫路市,526,大津区西土井145,西土井公園東側,34.8049772,134.6148865,
兵庫県,姫路市,527,広畑区吾妻町三丁目,吾妻町チビッコ広場 東面,34.7963013,134.6210571,
兵庫県,姫路市,528,大津区天満191ー5,姫路南高校北側,34.8028659,134.6098013,
兵庫県,姫路市,529,勝原区宮田117,宮田団地公民館南側,34.809593,134.596313,緯度経度は怪しい
兵庫県,姫路市,530,大津区大津町三丁目,大津団地第二公園西側,34.803802,134.6078335,
兵庫県,姫路市,531,大津区大津町三丁目,大津団地第二公園東側,34.803802,134.6078335,
兵庫県,姫路市,532,大津区大津町一丁目,大津第一公園,34.8057595,134.6095968,
兵庫県,姫路市,533,網干区田井22,大津茂小学校西側,34.8025084,134.5996572,
兵庫県,姫路市,534,勝原区宮田22ー8,日本製鉄(株)瀬戸内製鉄所 宮田ポンプ場西側,34.809593,134.596313,緯度経度は怪しい
兵庫県,姫路市,535,勝原区宮田,宮田公園南側,34.8092365,134.596076,
兵庫県,姫路市,536,大津区天満1523ー3,天満墓地南側フェンス,34.799683,134.611725,緯度経度は怪しい
兵庫県,姫路市,537,大津区天満191ー1,姫路南高等学校西側,34.8032472,134.6098948,
兵庫県,姫路市,538,大津区恵美酒町一丁目29,masked,34.7948097,134.6098907,
兵庫県,姫路市,539,大津区天満1758,辺作公園南側フェンス,34.799683,134.611725,緯度経度は怪しい
兵庫県,姫路市,540,大津区天神町一丁目45ー2,天満駅前自転車預かり場西側フェンス,34.7967283,134.6172349,
兵庫県,姫路市,541,大津区長松138,長松北集会所西側ブロック塀,34.8014343,134.6043071,
兵庫県,姫路市,542,大津区天満1006,大津小学校東側フェンス,34.799683,134.611725,緯度経度は怪しい
兵庫県,姫路市,543,大津区長松229,大津中学校南側フェンス,34.7984165,134.6023079,
兵庫県,姫路市,544,大津区新町二丁目25,新町公園南東側フェンス,34.7910772,134.6058561,
兵庫県,姫路市,545,大津区恵美酒町二丁目,恵美酒公園南側フェンス,34.7924498,134.6095968,
兵庫県,姫路市,546,大津区勘兵衛町一丁目134,勘兵衛東公園西側,34.7908642,134.617825,
兵庫県,姫路市,547,大津区天神町二丁目,汐入川公園西側フェンス,34.79362589999999,134.6166496,
兵庫県,姫路市,548,大津区勘兵衛町二丁目88,勘兵衛公園北側フェンス,34.7879428,134.6115396,
兵庫県,姫路市,549,大津区勘兵衛町二丁目25,専徳寺西側ブロック塀,34.79055,134.613327,緯度経度は怪しい
兵庫県,姫路市,550,大津区真砂町40 地先,南大津小学校北側転落防止柵,34.7883352,134.6072129,
兵庫県,姫路市,551,大津区吉美195ー3,吉美(君ヶ浜)公園西側フェンス,34.784355,134.603729,緯度経度は怪しい
兵庫県,姫路市,552,大津区吉美670,吉美スポーツ広場北側フェンス,34.784355,134.603729,緯度経度は怪しい
兵庫県,姫路市,553,大津区新町二丁目25,新町公園西側フェンス,34.7910772,134.6058561,
兵庫県,姫路市,554,大津区吉美388,大和工業北向側,34.7872257,134.6038932,
兵庫県,姫路市,555,大津区平松182,平松公園西側フェンス,34.793752,134.6007793,
兵庫県,姫路市,556,大津区平松225,太平橋東側 武大神社跡地広場フェンス,34.7938292,134.6004724,
兵庫県,姫路市,557,大津区平松131ー1,武大神社南公園東側フェンス,34.793752,134.6007793,
兵庫県,姫路市,558,網干区垣内中町120,網干市民センター駐車場南側,34.7891787,134.5889533,
兵庫県,姫路市,559,網干区大江島寺前町60,寺前公園東側,34.7903542,134.5948333,
兵庫県,姫路市,560,網干区新在家1320ー4,網干テニスコート南側,34.785782,134.5913538,
兵庫県,姫路市,561,網干区大江島551ー1,大江島会館東 大江島中央公園北側フェンス,34.7868208,134.5970688,
兵庫県,姫路市,562,網干区垣内西町1806ー4,上下水道局網干配水場北側,34.7897166,134.5798461,
兵庫県,姫路市,563,網干区大江島119ー2,第一クリーニング 北西の公園,34.785706,134.597198,緯度経度は怪しい
兵庫県,姫路市,564,網干区新在家1378ー9,瀧口歯科東向ガレージ北側,34.7834194,134.5889213,
兵庫県,姫路市,565,網干区新在家2023ー5 外,北網干雨水調整池用地,34.78611,134.590454,緯度経度は怪しい
兵庫県,姫路市,566,網干区新在家,問屋川緑道西側,34.7798271,134.5949,
兵庫県,姫路市,567,網干区新在家,網干川公園 北側フェンス,34.7798271,134.5949,
兵庫県,姫路市,568,網干区興浜2093－8,旧姫路西部下水処理場東側,34.772884,134.590164,緯度経度は怪しい
兵庫県,姫路市,569,網干区新在家,網干雨水ポンプ場北側(大和産業南),34.7798271,134.5949,
兵庫県,姫路市,570,網干区新在家425,網干神社南側,34.779392,134.594421,緯度経度は怪しい
兵庫県,姫路市,571,網干区新在家897,網干小学校東側,34.7827965,134.5920877,
兵庫県,姫路市,572,網干区新在家363,網干公園,34.7799975,134.5900641,
兵庫県,姫路市,573,網干区興浜1128,興浜西公園東側,34.780022,134.581818,緯度経度は怪しい
兵庫県,姫路市,574,網干区興浜570,農栄社会館西側,34.77879,134.583755,緯度経度は怪しい
兵庫県,姫路市,575,網干区興浜,網干幼稚園南空地東側フェンス,34.775448,134.585327,緯度経度は怪しい
兵庫県,姫路市,576,網干区興浜197－2,行者さん(通称)西側玉垣,34.779434,134.587524,緯度経度は怪しい
兵庫県,姫路市,577,網干区興浜305,masked,34.778496,134.585129,緯度経度は怪しい
兵庫県,姫路市,578,網干区興浜2126,興浜なかよし公園西側,34.777458,134.583542,緯度経度は怪しい
兵庫県,姫路市,579,網干区興浜907－131,揖保川浄化センター西側植栽,34.771793,134.584641,緯度経度は怪しい
兵庫県,姫路市,580,網干区浜田816,龍門寺公園東側,34.776691,134.575302,緯度経度は怪しい
兵庫県,姫路市,581,網干区浜田731,masked,34.7792644,134.58001,
兵庫県,姫路市,582,網干区浜田211－1,関西電力浜田変電所東側,34.7815611,134.5758838,
兵庫県,姫路市,583,網干区浜田56－1,サニーハイツ駐車場北側フェンス,34.7800764,134.5790815,
兵庫県,姫路市,584,網干区浜田816,北沢網干レジャーランド東側,34.776691,134.575302,緯度経度は怪しい
兵庫県,姫路市,585,網干区浜田1000,西芝電機㈱自啓寮東側空地フェンス,34.772568,134.574936,緯度経度は怪しい
兵庫県,姫路市,586,網干区浜田,西森ノ木公園　北側フェンス,34.772839,134.575302,緯度経度は怪しい
兵庫県,姫路市,587,網干区津市場坂出100,坂出団地第一公園東側フェンス,34.798885,134.581985,緯度経度は怪しい
兵庫県,姫路市,588,網干区津市場594,津市場西公園南側,34.793457,134.580841,緯度経度は怪しい
兵庫県,姫路市,589,網干区宮内1693,宮内南スポーツ広場北側フェンス,34.7992307,134.5937241,
兵庫県,姫路市,590,網干区坂出1,朝日中学校北側フェンス,34.8043252,134.5904717,
兵庫県,姫路市,591,網干区坂上430－3,旭陽小学校北東側,34.8016007,134.5867164,
兵庫県,姫路市,592,網干区津市場734,津市場東公園西側,34.7982779,134.5842631,
兵庫県,姫路市,593,網干区津市場209,福井前処理公園北側,34.8002261,134.5819631,
兵庫県,姫路市,594,網干区津市場328,津市場北公民館北側,34.79846,134.5812581,
兵庫県,姫路市,595,網干区和久504,網干駅南口ロータリーガードパイプ,34.8138481,134.5840923,
兵庫県,姫路市,596,網干区和久448,網干駅前公園西側,34.8151364,134.5854829,
兵庫県,姫路市,597,網干区和久381,網干駅前東公園　北側フェンス,34.8135674,134.5884497,
兵庫県,姫路市,598,網干区高田274,北納衣裳店南側駐車場,34.81186539999999,134.5835841,
兵庫県,姫路市,599,網干区高田362,JR網干駅西踏切南側駐車場,34.81445000000001,134.582296,
兵庫県,姫路市,600,網干区高田18－1,福井集会所東側フェンス,34.8083587,134.5819004,
兵庫県,姫路市,601,網干区福井81,福井公園北側フェンス,34.8071656,134.5825512,
兵庫県,姫路市,602,余部区上川原字久保177－3,上川原第2チビッコ広場東側向,34.8044791,134.5631392,
兵庫県,姫路市,603,余部区上余部643－1,余部小学校東側,34.800562,134.5728038,
兵庫県,姫路市,604,余部区上余部,上余部警鐘台下,34.7995674,134.5713756,
兵庫県,姫路市,605,余部区上余部字前田35－7,東芝姫路体育館前道路内緑地帯,34.7995674,134.5713756,
兵庫県,姫路市,606,余部区上余部50,上余部北公園,34.807072,134.572998,緯度経度は怪しい
兵庫県,姫路市,607,余部区下余部572,二神社南側,34.799473,134.57666,緯度経度は怪しい
兵庫県,姫路市,608,余部区下余部字村中462,下余部池ノ川公園南側,34.797961,134.5772578,
兵庫県,姫路市,609,勝原区丁743-1,勝原小学校正門南側,34.814529,134.596985,緯度経度は怪しい
兵庫県,姫路市,610,勝原区朝日谷213,朝日谷公園,34.8158469,134.5913721,
兵庫県,姫路市,611,勝原区丁153地先,masked,34.816761,134.607452,緯度経度は怪しい
兵庫県,姫路市,612,勝原区下太田579-4,masked,34.824181,134.598312,緯度経度は怪しい
兵庫県,姫路市,613,勝原区山戸18,山戸公民館前フェンス,34.8123774,134.601325,
兵庫県,姫路市,614,勝原区熊見,熊見老人憩いの家北側,34.8104564,134.6078335,
兵庫県,姫路市,615,勝原区朝日谷字坂田459,旭勝苑第二公園西側,34.8158469,134.5913721,
兵庫県,姫路市,616,勝原区大谷123-2,大谷公会堂南側広場,34.821373,134.5858347,
兵庫県,姫路市,617,勝原区宮田150-8,宮田団地第一公園北側,34.809774,134.5994692,
兵庫県,姫路市,618,大塩町宮前,大塩高橋公園 北側フェンス,34.7776865,134.7586542,
兵庫県,姫路市,619,大塩町441-1,旧大塩天満宮跡地花壇,34.777809,134.763367,緯度経度は怪しい
兵庫県,姫路市,620,大塩町232番地先,山本邸西斜め向かいガードポール,34.7822294,134.7548915,
兵庫県,姫路市,621,大塩町2196,JA兵庫西大的支店駐車場フェンス,34.7801068,134.7560624,
兵庫県,姫路市,622,大塩町汐咲一丁目39,大塩公民館南側花壇,34.7792628,134.7570727,
兵庫県,姫路市,623,大塩町184-4,masked,34.7811727,134.7628835,
兵庫県,姫路市,624,大塩町936,大塩稲荷公園北側,34.777809,134.763367,緯度経度は怪しい
兵庫県,姫路市,625,大塩町汐咲二丁目,大塩小学校グラウンド西側,34.7788972,134.7542598,
兵庫県,姫路市,626,的形町的形,大鳥屋台蔵横,34.783794,134.739487,緯度経度は怪しい
兵庫県,姫路市,627,的形町的形1768-24,(株)ヤタグループシール事業部北側,34.7784781,134.7427362,
兵庫県,姫路市,628,的形町的形1188,的形西公園西側,34.7815004,134.7346551,
兵庫県,姫路市,629,的形町的形,的形柳池公園西フェンス,34.783794,134.739487,緯度経度は怪しい
兵庫県,姫路市,630,的形町的形,山陽電車的形駅南沿い,34.783794,134.739487,緯度経度は怪しい
兵庫県,姫路市,631,的形町的形1514-1,的形南公園西側,34.7759525,134.7390699,
兵庫県,姫路市,632,的形町福泊,福泊神社南側,34.772789,134.734055,緯度経度は怪しい
兵庫県,姫路市,633,八家1285,八木市民広場公園 南側,34.7826294,134.7230934,
兵庫県,姫路市,634,八家165-21,南八家スポーツ広場北面西より,34.7825663,134.7247585,
兵庫県,姫路市,635,木場1441-11,三ツ橋南側堤防空地,34.7790109,134.724453,
兵庫県,姫路市,636,木場1441-24,正福寺西部饅堂 垣根,34.7789331,134.7245784,
兵庫県,姫路市,637,木場前中町120,(木場)三ツ橋公園西側,34.7799879,134.7219529,
兵庫県,姫路市,638,木場549-2,木場東公園(木庭山公園口)バス停横,34.775318,134.728378,緯度経度は怪しい
兵庫県,姫路市,639,木場1408,福栄商会グラウンドフェンス,34.7758854,134.7258427,
兵庫県,姫路市,640,東山181-1,マックスバリュー東山店南フェンス,34.7913965,134.7163138,
兵庫県,姫路市,641,東山568-1,大歳神社北側掲示板,34.786257,134.7240549,
兵庫県,姫路市,642,東山414,masked,34.78839230000001,134.7233556,
兵庫県,姫路市,643,東山1323,西濱畑公園 北側フェンス,34.7881949,134.7229005,
兵庫県,姫路市,644,東山114-1,糸引小学校東側フェンス,34.7943633,134.718138,
兵庫県,姫路市,645,継147-1,東山団地第1公園北側フェンス,34.7920295,134.7218298,
兵庫県,姫路市,646,継72,継公園西側,34.79504,134.723434,緯度経度は怪しい
兵庫県,姫路市,647,継179,継五斗長公園北側西面フェンス,34.793405,134.7193023,
兵庫県,姫路市,648,兼田315-1,兼田公民館東側空地,34.8029463,134.6982672,
兵庫県,姫路市,649,兼田187-4,旧兼田郵便局西空地,34.8078352,134.7006229,
兵庫県,姫路市,650,奥山345,奥山一ノ坪公園南側フェンス,34.8031025,134.7170366,
兵庫県,姫路市,651,北原782,北原東公園入口南側フェンス,34.79954660000001,134.7090402,
兵庫県,姫路市,652,白浜町字佐崎中2丁目666,宇佐崎公園南側,34.783379,134.701904,緯度経度は怪しい
兵庫県,姫路市,653,白浜町字佐崎北三丁目62,今道公園東側,34.783379,134.701904,緯度経度は怪しい
兵庫県,姫路市,654,白浜町字佐崎中1丁目311,高須東公園(西側)北面,34.783379,134.701904,緯度経度は怪しい
兵庫県,姫路市,655,白浜町丙46,宇佐崎公民館北側,34.784927,134.710846,緯度経度は怪しい
兵庫県,姫路市,656,白浜町字佐崎北三丁目411,大根田公園南側,34.783379,134.701904,緯度経度は怪しい
兵庫県,姫路市,657,白浜町字佐崎北一丁目142,濱端公園東側,34.783379,134.701904,緯度経度は怪しい
兵庫県,姫路市,658,白浜町字佐崎北二丁目132,東永田公園東側,34.783379,134.701904,緯度経度は怪しい
兵庫県,姫路市,659,白浜町乙870,天理教播磨灘分教会東側,34.7869,134.7106621,
兵庫県,姫路市,660,白浜町寺家二丁目183,美土呂公園南側,34.7929916,134.7107776,
兵庫県,姫路市,661,白浜町乙568,白浜北公園東側フェンス,34.785885,134.71022,緯度経度は怪しい
兵庫県,姫路市,662,白浜町乙544 地先,姫路白浜郵便局前南ガードパイプ,34.785885,134.71022,緯度経度は怪しい
兵庫県,姫路市,663,白浜町乙25-9,白浜北第二公園北側,34.785885,134.71022,緯度経度は怪しい
兵庫県,姫路市,664,白浜町寺家一丁目262,白浜中村公園北側,34.79079979999999,134.7099621,
兵庫県,姫路市,665,白浜町寺家一丁目43,白浜町寺家駐車場北側フェンス,34.7907159,134.7097057,
兵庫県,姫路市,666,白浜町神田一丁目33,灘中学校西側フェンス,34.7923687,134.7063299,
兵庫県,姫路市,667,白浜町甲399,松原八幡神社東側,34.784714,134.707932,緯度経度は怪しい
兵庫県,姫路市,668,白浜町甲883,masked,34.784714,134.707932,緯度経度は怪しい
兵庫県,姫路市,669,白浜町神田二丁目135,松原ノ荘公園北側,34.7942104,134.7075268,
兵庫県,姫路市,670,白浜町甲320番地,白浜小学校東側,34.784714,134.707932,緯度経度は怪しい
兵庫県,姫路市,671,白浜町甲841番地2,masked,34.779305,134.698364,緯度経度は怪しい
兵庫県,姫路市,672,白浜町甲320番地,白浜小学校北側,34.784714,134.707932,緯度経度は怪しい
兵庫県,姫路市,673,家島町宮926番地,旧家島汽船㈱宮桟橋付近,34.671593,134.536652,緯度経度は怪しい
兵庫県,姫路市,674,家島町宮1055番地,宮区民会館西側,34.671593,134.536652,緯度経度は怪しい
兵庫県,姫路市,675,家島町宮,赤坂公園西側,34.671593,134.536652,緯度経度は怪しい
兵庫県,姫路市,676,家島町宮1975,masked,34.671593,134.536652,緯度経度は怪しい
兵庫県,姫路市,677,家島町真浦2141番地,家島小学校グラウンド南側,34.6746153,134.5309058,
兵庫県,姫路市,678,家島町真浦2137番地1,家島事務所前,34.6755825,134.5320168,
兵庫県,姫路市,679,家島町真浦2562番地10,masked,34.675648,134.531555,緯度経度は怪しい
兵庫県,姫路市,680,家島町真浦2379番地1,真浦港船着場(真浦クリニック前),34.675648,134.531555,緯度経度は怪しい
兵庫県,姫路市,681,家島町真浦1269番地,町田靴店前広場,34.675648,134.531555,緯度経度は怪しい
兵庫県,姫路市,682,家島町真浦1196番地,綱手の浜消防倉庫,34.675648,134.531555,緯度経度は怪しい
兵庫県,姫路市,683,家島町宮2165番地,青井荘前,34.671593,134.536652,緯度経度は怪しい
兵庫県,姫路市,684,家島町宮2165番地15,旧家島汽船㈱タテの浜桟橋,34.671593,134.536652,緯度経度は怪しい
兵庫県,姫路市,685,家島町坊勢186番地4,坊勢サービスセンター前,34.647701,134.507431,緯度経度は怪しい
兵庫県,姫路市,686,家島町坊勢761番地6,masked,34.647701,134.507431,緯度経度は怪しい
兵庫県,姫路市,687,家島町坊勢694番地75,坊勢船着場駐車場出口入口付近,34.647701,134.507431,緯度経度は怪しい
兵庫県,姫路市,688,家島町坊勢430番地1,坊勢中学校南側,34.647701,134.507431,緯度経度は怪しい
兵庫県,姫路市,689,家島町坊勢768番地,坊勢地区コミュニティ運動広場東側,34.6480393,134.5091569,
兵庫県,姫路市,690,夢前町置本461番地5 付近,ヌーベルバーグ(喫茶店)北側 県道67号東側ガードフェンス,34.903015,134.671387,緯度経度は怪しい
兵庫県,姫路市,691,夢前町山冨45番地1 地先,山冨団地入口南 ガードフェンス,34.8892273,134.6841851,
兵庫県,姫路市,692,夢前町山冨53番地 地先,書写ゴルフ場バス停横 ガードフェンス,34.8892273,134.6841851,
兵庫県,姫路市,693,夢前町宮置97番地 地先,置塩小学校前バス停横 ガードフェンス,34.914425,134.67627,緯度経度は怪しい
兵庫県,姫路市,694,夢前町置本432番地24 地先,masked,34.903015,134.671387,緯度経度は怪しい
兵庫県,姫路市,695,夢前町置本63番地1 地先,清水橋東詰 南側,34.903015,134.671387,緯度経度は怪しい
兵庫県,姫路市,696,夢前町宮置292番地2,旧置塩幼稚園(北側)ガードフェンス,34.914425,134.67627,緯度経度は怪しい
兵庫県,姫路市,697,夢前町宮置323番地1 地先,中村地蔵北側 ガードフェンス,34.914425,134.67627,緯度経度は怪しい
兵庫県,姫路市,698,夢前町又坂56番地5,又坂バス停 ガードフェンス,34.926765,134.669403,緯度経度は怪しい
兵庫県,姫路市,699,夢前町糸田578番地4 地先,糸田バス停西 ガードレール,34.930901,134.686447,緯度経度は怪しい
兵庫県,姫路市,700,夢前町糸田609番地1 地先,置塩サービスセンター東側 ガードフェンス,34.930901,134.686447,緯度経度は怪しい
兵庫県,姫路市,701,夢前町古知之庄364番地 地先,古知之庄バス停フェンス,34.944523,134.678375,緯度経度は怪しい
兵庫県,姫路市,702,夢前町古知之庄401番地1 地先,古知小学校北側 ガードフェンス,34.944523,134.678375,緯度経度は怪しい
兵庫県,姫路市,703,夢前町塩田55番地1,塩田公民館北側,34.945393,134.689499,緯度経度は怪しい
兵庫県,姫路市,704,夢前町杉之内352番地 地先,杉之内公民館 南東ガードフェンス,34.9529344,134.6809941,
兵庫県,姫路市,705,夢前町前之庄52番地4 地先,荒神山口バス停 ガードフェンス,34.970455,134.687607,緯度経度は怪しい
兵庫県,姫路市,706,夢前町前之庄30番地170,荒神山公園 擁壁,34.970455,134.687607,緯度経度は怪しい
兵庫県,姫路市,707,夢前町高長183番地1 地先,高長公民館南 ガードレール,34.9620341,134.658402,
兵庫県,姫路市,708,夢前町前之庄250番地1 地先,スマートI.C.への三叉路南東の芝生地,34.970455,134.687607,緯度経度は怪しい
兵庫県,姫路市,709,夢前町前之庄840番地1 地先,みどり丘入口 ガードレール,34.9712174,134.6859235,
兵庫県,姫路市,710,夢前町前之庄1128番地 地先,前之庄交差点信号の東ガードフェンス,34.970455,134.687607,緯度経度は怪しい
兵庫県,姫路市,711,夢前町前之庄2160番地,夢前事務所玄関前,34.970455,134.687607,緯度経度は怪しい
兵庫県,姫路市,712,夢前町前之庄2916番地1 地先,ナンバ印刷南東,34.970455,134.687607,緯度経度は怪しい
兵庫県,姫路市,713,夢前町前之庄3151番地1 地先,新鹿谷橋西詰 ガードフェンス,34.9712174,134.6859235,
兵庫県,姫路市,714,夢前町前之庄2701番地,市立豊岡総合センター分室南側フェンス,34.970455,134.687607,緯度経度は怪しい
兵庫県,姫路市,715,夢前町新庄573番地1,新庄公民館南側,34.995903,134.680222,緯度経度は怪しい
兵庫県,姫路市,716,夢前町神種604番地3 地先,masked,34.986771,134.661057,緯度経度は怪しい
兵庫県,姫路市,717,夢前町山之内甲268番地1 地先,立船野公民館西側 空き地,35.051025,134.678894,緯度経度は怪しい
兵庫県,姫路市,718,夢前町山之内乙1番地5 地先,山之内駐在所南側 ガードレール,35.051025,134.678894,緯度経度は怪しい
兵庫県,姫路市,719,夢前町山之内甲619番地1 地先,山之内診療所南側 学校橋西,35.051025,134.678894,緯度経度は怪しい
兵庫県,姫路市,720,夢前町山之内丙6番地1 地先,佐中ふれあいの里入口 ガードレール,35.051025,134.678894,緯度経度は怪しい
兵庫県,姫路市,721,夢前町山之内丁111番地 地先,masked,35.051025,134.678894,緯度経度は怪しい
兵庫県,姫路市,722,夢前町山之内戊125番地13 地,県道411号線鳥居橋南ガードフェンス,35.051025,134.678894,緯度経度は怪しい
兵庫県,姫路市,723,夢前町山之内戊423番地1 地先,masked,35.051025,134.678894,緯度経度は怪しい
兵庫県,姫路市,724,夢前町山之内己32番地,馬頭公会堂前広場,35.051025,134.678894,緯度経度は怪しい
兵庫県,姫路市,725,夢前町山之内庚154番地1 地先,小畑分校跡西側 ガードレール,35.051025,134.678894,緯度経度は怪しい
兵庫県,姫路市,726,夢前町莇野411番地 地先,文殿ゴミステーション前ガードレール,34.996479,134.636124,緯度経度は怪しい
兵庫県,姫路市,727,夢前町莇野1779番地2 地先,西山橋北側の空き地,34.996479,134.636124,緯度経度は怪しい
兵庫県,姫路市,728,夢前町莇野1136番地1 地先,河内橋南 県道東側空き地,34.996479,134.636124,緯度経度は怪しい
兵庫県,姫路市,729,夢前町莇野326番地3,莇野公民館北側フェンス,34.996479,134.636124,緯度経度は怪しい
兵庫県,姫路市,730,夢前町野畑412番地1,(有)きびはらモーターズ北側空地,34.972569,134.62648,緯度経度は怪しい
兵庫県,姫路市,731,夢前町戸倉816番地3,県道退避所花壇,34.966152,134.638641,緯度経度は怪しい
兵庫県,姫路市,732,夢前町戸倉1052－3,戸倉バス停南側ガードフェンス(河島商店向かい),34.966152,134.638641,緯度経度は怪しい
兵庫県,姫路市,733,夢前町古瀬畑319番地1,古瀬畑バス停横 集荷所,34.950863,134.637787,緯度経度は怪しい
兵庫県,姫路市,734,夢前町芦田315番地1,芦田公園東側花壇,34.945023,134.644226,緯度経度は怪しい
兵庫県,姫路市,735,夢前町護持29番地1,菅野中学校西側フェンス,34.950264,134.619812,緯度経度は怪しい
兵庫県,姫路市,736,夢前町護持769番地,運動グラウンド北側,34.9518532,134.6207633,
兵庫県,姫路市,737,夢前町護持181番地 地先,masked,34.9518532,134.6207633,
兵庫県,姫路市,738,夢前町護持206番地54,バーズタウン入口公園北側,34.950264,134.619812,緯度経度は怪しい
兵庫県,姫路市,739,夢前町塚本57番地1 地先,masked,34.9348442,134.6407387,
兵庫県,姫路市,740,夢前町塚本225番地1,菅野サービスセンター南道路沿い,34.935509,134.639862,緯度経度は怪しい
兵庫県,姫路市,741,夢前町菅生澗1495番地1 地先,荒木橋南側 ガードフェンス,34.919353,134.633194,緯度経度は怪しい
兵庫県,姫路市,742,夢前町菅生澗871番地,永安氏所有田(アイ建築工房(株)の北西),34.919353,134.633194,緯度経度は怪しい
兵庫県,姫路市,743,夢前町菅生澗802番地1,菅生小学校東側フェンス,34.919353,134.633194,緯度経度は怪しい
兵庫県,姫路市,744,夢前町菅生澗444番地2 地先,別車口バス停 ガードレール,34.919353,134.633194,緯度経度は怪しい
兵庫県,姫路市,745,夢前町菅生澗137番地1 地先,西詰塗装南 ガードフェンス,34.919353,134.633194,緯度経度は怪しい
兵庫県,姫路市,746,夢前町寺1638番地1 地先,来光寺橋東 ガードフェンス,34.928841,134.657074,緯度経度は怪しい
兵庫県,姫路市,747,夢前町寺1332番地1 地先,チェリーランド入口南 ガードフェンス,34.928841,134.657074,緯度経度は怪しい
兵庫県,姫路市,748,夢前町寺1180番地1 地先,小坪自治会館東側 ガードレール,34.928841,134.657074,緯度経度は怪しい
兵庫県,姫路市,749,夢前町寺803番地1,大坪公民館進入口北側,34.928841,134.657074,緯度経度は怪しい
兵庫県,姫路市,750,香寺町中村550番地1,(株)香寺運輸駐車場北 ガードパイプ,34.948612,134.70433,緯度経度は怪しい
兵庫県,姫路市,751,香寺町久畑842番地 地先,県道三木宍粟線久畑交差点東 才加大池前ガードレール,34.964867,134.709793,緯度経度は怪しい
兵庫県,姫路市,752,香寺町中村365番地 地先,masked,34.9497162,134.7124098,
兵庫県,姫路市,753,香寺町恒屋1300番地 地先,坂本橋南側柵,34.9437862,134.7156904,
兵庫県,姫路市,754,香寺町恒屋756番地1の先,masked,34.9394362,134.7200113,
兵庫県,姫路市,755,香寺町恒屋519番地1,masked,34.9367257,134.7210498,
兵庫県,姫路市,756,香寺町恒屋62番地1 地先,masked,34.9329731,134.7259238,
兵庫県,姫路市,757,香寺町中寺236番地22 地先,溝口ニュータウン自治会案内板北側,34.9330068,134.7282492,
兵庫県,姫路市,758,香寺町中寺231番地,中寺小学校南側フェンス,34.9316365,134.7288369,
兵庫県,姫路市,759,香寺町溝口285番地1 地先,溝口ホームタウン入口,34.9306422,134.7419347,
兵庫県,姫路市,760,香寺町溝口512番地1,溝口駅スロープ ガードパイプ,34.9284086,134.7424258,
兵庫県,姫路市,761,香寺町溝口843番地,溝口公民館東側 ガードレール,34.9272052,134.74516,
兵庫県,姫路市,762,香寺町溝口518番地1,野田集会所フェンス,34.928768,134.744186,緯度経度は怪しい
兵庫県,姫路市,763,香寺町土師476番地3 地先,土師公民館付近,34.927223,134.7357985,
兵庫県,姫路市,764,香寺町土師88－1,masked,34.9247967,134.7391276,
兵庫県,姫路市,765,香寺町岩部293番地,香寺中学校フェンス東側,34.9197911,134.7364854,
兵庫県,姫路市,766,香寺町広瀬437番地1,サクセスひのストアー東付近,34.9123286,134.74166,
兵庫県,姫路市,767,香寺町中屋14番地,香寺事務所北側,34.9101734,134.737969,
兵庫県,姫路市,768,香寺町中屋14番地,香寺事務所南側,34.9101734,134.737969,
兵庫県,姫路市,769,香寺町中仁野155番地 地先,中仁野バス停横ガードレール,34.9067183,134.7376185,
兵庫県,姫路市,770,香寺町中仁野339番地5,香寺民俗資料館南駐車場,34.9078529,134.7416438,
兵庫県,姫路市,771,香寺町大飾445番地,大飾バス停横　ガードパイプ,34.919018,134.740784,緯度経度は怪しい
兵庫県,姫路市,772,香寺町大飾871番地17,藤ヶ台入口　ガードレール,34.919018,134.740784,緯度経度は怪しい
兵庫県,姫路市,773,香寺町矢田部631番地1,大歳神社石垣,34.9251208,134.7201336,
兵庫県,姫路市,774,香寺町行重333番地,香寺町総合公園スポーツセンター駐車場南,34.9239057,134.7267828,
兵庫県,姫路市,775,香寺町香呂312番地,香呂農業構造改善センター東側,34.9151308,134.733646,
兵庫県,姫路市,776,香寺町香呂74番地6,水道補助水源ポンプ庫用地(香寺郵便局東側郵便局東),34.9146908,134.7392428,
兵庫県,姫路市,777,香寺町香呂203番地15,香寺温水プール駐車場東側用地,34.9144776,134.7322812,
兵庫県,姫路市,778,香寺町香呂626番地,香呂小学校体育館　南側塀,34.9114057,134.7306945,
兵庫県,姫路市,779,香寺町相坂382番地1　地先,masked,34.92148230000001,134.7053066,
兵庫県,姫路市,780,香寺町相坂244番地,相坂改善組合農業機械倉庫前,34.920277,134.705933,緯度経度は怪しい
兵庫県,姫路市,781,香寺町田野750番地1,田野デビッコ広場南側フェンス,34.9050324,134.7264185,
兵庫県,姫路市,782,香寺町須加院12番地3　地先,口須加院入口　ガードレール,34.8927294,134.7309259,
兵庫県,姫路市,783,香寺町須加院157番地1　地先,香呂南小学校入口　ガードパイプ,34.901539,134.709808,緯度経度は怪しい
兵庫県,姫路市,784,香寺町須加院131番地6　地先,masked,34.901466,134.720596,緯度経度は怪しい
兵庫県,姫路市,785,香寺町須加院344番地1　地先,青葉台保育園入口　ガードレール,34.9002313,134.7198587,
兵庫県,姫路市,786,香寺町須加院687番地1　地先,須加院公民館北側　ガードレール,34.901539,134.709808,緯度経度は怪しい
兵庫県,姫路市,787,香寺町須加院1269番地1　地先,奥須加院防災無線付近,34.901539,134.709808,緯度経度は怪しい
兵庫県,姫路市,788,香寺町須加院2番地567　地先,姫ヶ丘東入口　ガードフェンス,34.891857,134.718262,緯度経度は怪しい
兵庫県,姫路市,789,香寺町須加院2番地565,姫ヶ丘公園東側　フェンス,34.891857,134.718262,緯度経度は怪しい
兵庫県,姫路市,790,安富町名坂637番地1,masked,35.0020727,134.5967709,
兵庫県,姫路市,791,安富町名坂1229番地　地先,大町橋東側　ガードレール,35.001892,134.596619,緯度経度は怪しい
兵庫県,姫路市,792,安富町安志600番地342,安富北加圧ポンプ場北側,34.985249,134.595444,緯度経度は怪しい
兵庫県,姫路市,793,安富町名坂173番地3　地先,masked,35.001892,134.596619,緯度経度は怪しい
兵庫県,姫路市,794,安富町安志125番地,masked,34.985249,134.595444,緯度経度は怪しい
兵庫県,姫路市,795,安富町三森162番地,masked,34.989376,134.612213,緯度経度は怪しい
兵庫県,姫路市,796,安富町安志1151番地　地先,安富事務所西フェンス,34.9851134,134.5959841,
兵庫県,姫路市,797,安富町長野138番地2,市立長野総合センター南側,34.980793,134.58696,緯度経度は怪しい
兵庫県,姫路市,798,安富町長野388番地9,アピア安富入口車両待避所,34.980793,134.58696,緯度経度は怪しい
兵庫県,姫路市,799,安富町塩野,塩野広場(公園),34.97752,134.575745,緯度経度は怪しい
兵庫県,姫路市,800,安富町植木野748番地9　地先,植塩橋東側フェンス,34.966831,134.593079,緯度経度は怪しい
兵庫県,姫路市,801,安富町植木野360番地1　地先,植木野公民館前　ガードレール,34.966831,134.593079,緯度経度は怪しい
兵庫県,姫路市,802,安富町狭戸230番地,永久橋西駐車場フェンス,34.958015,134.577927,緯度経度は怪しい
兵庫県,姫路市,803,安富町狭戸808番地1　地先,masked,34.958015,134.577927,緯度経度は怪しい
兵庫県,姫路市,804,安富町狭戸682番地　地先,masked,34.958015,134.577927,緯度経度は怪しい
兵庫県,姫路市,805,安富町瀬川539番地　地先,masked,34.953506,134.592087,緯度経度は怪しい
兵庫県,姫路市,806,安富町三坂251番地　地先,masked,34.959278,134.604828,緯度経度は怪しい
兵庫県,姫路市,807,安富町末広,角屋橋西詰　南側,35.016518,134.61467,緯度経度は怪しい
兵庫県,姫路市,808,安富町末広727番地1,センター末広前フェンス,35.016518,134.61467,緯度経度は怪しい
兵庫県,姫路市,809,安富町末広571番地,森林組合フェンス,35.016518,134.61467,緯度経度は怪しい
兵庫県,姫路市,810,安富町朽原648番地,富栖橋東側　ガードフェンス,34.959278,134.604828,緯度経度は怪しい
兵庫県,姫路市,811,安富町皆河1044番地,皆河公民館正面フェンス,35.049618,134.609207,緯度経度は怪しい
兵庫県,姫路市,812,安富町皆河,橋本氏付属家,35.049618,134.609207,緯度経度は怪しい
兵庫県,姫路市,813,安富町皆河306番地3,中皆河公園フェンス,35.049618,134.609207,緯度経度は怪しい
兵庫県,姫路市,814,安富町関,消防器具庫南側,35.063816,134.631927,緯度経度は怪しい
