prefecture,city,number,address,name,lat,long,note
兵庫県,宍粟市,1,山崎町加生158,山崎高校野球場　南側フェンス,35.0092428,134.5285372,
兵庫県,宍粟市,2,山崎町鹿沢126,宍粟総合病院南側 外来専用駐車場フェンス（山崎西中学校正門前）,35.0035374,134.5390102,
兵庫県,宍粟市,3,山崎町鹿沢88-1,山崎文化会館北側花壇,35.0024571,134.5378319,
兵庫県,宍粟市,4,山崎町鹿沢78-7,しそう山崎観光駐車場東　市道ガードパイプ,35.0042717,134.5399297,
兵庫県,宍粟市,5,山崎町鹿沢64-5,防災センター前 さつき花壇（東側）,35.0039364,134.5412912,
兵庫県,宍粟市,6,山崎町鹿沢76-13,山崎小学校　屋内運動場フェンス（南側）,35.0029697,134.5415855,
兵庫県,宍粟市,7,山崎町鹿沢29-2,東鹿沢交差点付近植木,35.0037903,134.544028,
兵庫県,宍粟市,8,山崎町山崎290-4,明源寺西隣 駐車場ガードパイプ,35.0057902,134.5437192,緯度経度は怪しい
兵庫県,宍粟市,9,山崎町山崎474,泉龍寺南側　ブロック塀,35.0070218,134.5434553,
兵庫県,宍粟市,10,山崎町門前87-4付近,門前1号線 溝沿いガードレール,35.0104269,134.5348893,緯度経度は怪しい
兵庫県,宍粟市,11,山崎町門前83-2,山崎高校教職員用宿舎フェンス,35.006989,134.5329484,
兵庫県,宍粟市,12,山崎町門前143,山崎幼稚園（旧園舎）擬木柵（玄関左側）,35.006181,134.5370775,
兵庫県,宍粟市,13,山崎町上寺120,大歳神社（玉垣）,35.0115905,134.5419534,
兵庫県,宍粟市,14,山崎町庄能101-15,㈱ミキモク駐車場フェンス,35.0085875,134.5437738,
兵庫県,宍粟市,15,山崎町上寺159,masked,35.00932280000001,134.5421834,
兵庫県,宍粟市,16,山崎町庄能210-4,庄能ふれあいセンター西側フェンス,35.0107707,134.5473884,
兵庫県,宍粟市,17,山崎町庄能178-1,masked,35.0120514,134.5444366,
兵庫県,宍粟市,18,山崎町上寺373-2付近,市道上寺横須線側溝（市営横須団地1号棟手前付近）,35.0115905,134.5419534,
兵庫県,宍粟市,19,山崎町横須102,masked,35.016858,134.5401569,緯度経度は怪しい
兵庫県,宍粟市,20,山崎町山崎159,総道神社（玉垣）,35.004839,134.5443354,緯度経度は怪しい
兵庫県,宍粟市,21,山崎町今宿46-9,資源物回収ステーション山20-1南側フェンス（旧今宿公民館跡地）,35.006123,134.5496969,
兵庫県,宍粟市,22,山崎町山田210-7,さつきビル南側　市道ガードレール,35.0062969,134.5474292,
兵庫県,宍粟市,23,山崎町今宿1-2,夢公園　西側フェンス（国道側）,35.00481620000001,134.5485566,緯度経度は怪しい
兵庫県,宍粟市,24,山崎町山田110-14,神姫バス山崎営業所北　さつき花壇,35.0024863,134.5460736,
兵庫県,宍粟市,25,山崎町須賀沢607,masked,34.99489560000001,134.5643527,
兵庫県,宍粟市,26,山崎町須賀沢34-1,須賀沢公民館ブロック塀,35.006093,134.5546991,緯度経度は怪しい
兵庫県,宍粟市,27,山崎町須賀沢275-1,中国道南側マンホールポンプユニット制御盤 ガードフェンス,34.9957086,134.5643159,緯度経度は怪しい
兵庫県,宍粟市,28,山崎町須賀沢155-8付近,宍粟橋東詰,34.9957086,134.5643159,緯度経度は怪しい
兵庫県,宍粟市,29,山崎町高所391-5,高所4バス停 県道ガードパイプ,35.0083973,134.5584321,
兵庫県,宍粟市,30,山崎町木谷87-1,木谷消防器具庫前 市道ガードパイプ,35.0058817,134.520758,緯度経度は怪しい
兵庫県,宍粟市,31,山崎町市場675-1,菅野クリーンセンター　北西市道ガードレール,35.0136168,134.5184023,緯度経度は怪しい
兵庫県,宍粟市,32,山崎町市場155-7,消防詰所前　道路向い歩道用防護柵,35.0136168,134.5184023,緯度経度は怪しい
兵庫県,宍粟市,33,山崎町高下273-8,広岡橋南詰　西側ガードパイプ,35.0181776,134.5092652,
兵庫県,宍粟市,34,山崎町高下1640-1,高下加圧ポンプ場　フェンス,35.01628,134.5054442,緯度経度は怪しい
兵庫県,宍粟市,35,山崎町高下632-1,市道高下青木線法面　太陽光パネル前,35.0206257,134.5034712,
兵庫県,宍粟市,36,山崎町青木172-1,菅野幼稚園　フェンス,35.0267853,134.4975874,緯度経度は怪しい
兵庫県,宍粟市,37,山崎町青木3067,県道53号沿い鍛冶屋橋西空き地,35.0305459,134.4889469,
兵庫県,宍粟市,38,山崎町青木717,㈱栗山化成　ブロック塀,35.0362964,134.4877356,緯度経度は怪しい
兵庫県,宍粟市,39,山崎町塩田178-1,塩田加圧ポンプ場　フェンス,35.0497073,134.4851435,緯度経度は怪しい
兵庫県,宍粟市,40,山崎町塩田527-2,masked,35.057116,134.4808191,緯度経度は怪しい
兵庫県,宍粟市,41,山崎町春安224-2,春安公民館前　市道ガードレール,35.0033583,134.5307497,緯度経度は怪しい
兵庫県,宍粟市,42,山崎町段235-3,観音橋西詰空き地,34.9997687,134.5341718,
兵庫県,宍粟市,43,山崎町中井182-2,ナンバ前　市道ガードフェンス,34.9964544,134.5410765,
兵庫県,宍粟市,44,山崎町鴨木185,masked,35.0057902,134.5437192,緯度経度は怪しい
兵庫県,宍粟市,45,山崎町金谷129-13,金谷山部古墳下　市道ガードパイプ,34.9910538,134.535292,
兵庫県,宍粟市,46,山崎町金谷189,masked,34.9898468,134.5242912,緯度経度は怪しい
兵庫県,宍粟市,47,山崎町船元251-3,船元石彫公園（インター南フジ棚）,34.9971749,134.5473427,
兵庫県,宍粟市,48,山崎町船元34-1,央栗消防署前　さつき花壇,34.9960486,134.5525843,
兵庫県,宍粟市,49,山崎町野210-1,野自治会館南側フェンス,34.9942183,134.549844,緯度経度は怪しい
兵庫県,宍粟市,50,山崎町野298-1,まあるこども園園舎北側フェンス,34.9928185,134.5490164,
兵庫県,宍粟市,51,山崎町千本屋4,masked,34.9960292,134.5469013,
兵庫県,宍粟市,52,山崎町千本屋229,城下ふれあいセンターガードフェンス,34.9911557,134.5409999,
兵庫県,宍粟市,53,山崎町千本屋490-1,城の子公園　入口橋側フェンス,34.9904131,134.5394333,
兵庫県,宍粟市,54,山崎町御名7-1,城下小学校校門南　ブロック塀,34.987398,134.5392545,緯度経度は怪しい
兵庫県,宍粟市,55,山崎町中比地136-6付近,東亜林業㈱跡地前　「城下バス停」付近　市道ガードレール,34.979672,134.5331231,
兵庫県,宍粟市,56,山崎町中比地208,㈱平見窯業前　市道ガードレール,34.982149,134.5343586,
兵庫県,宍粟市,57,山崎町上比地673-1,上比地中バス停西　市道ガードレール,34.9831592,134.5195802,緯度経度は怪しい
兵庫県,宍粟市,58,山崎町下比地132付近,下比地バス停北側市道　ガードパイプ,34.9775136,134.536431,
兵庫県,宍粟市,59,山崎町川戸921-1,masked,34.9805769,134.5452091,
兵庫県,宍粟市,60,山崎町川戸395-1,masked,34.9816053,134.5503222,
兵庫県,宍粟市,61,山崎町川戸867付近,masked,34.9789776,134.5485062,
兵庫県,宍粟市,62,山崎町宇原337,旧戸原小学校　フェンス,34.96841089999999,134.5508188,緯度経度は怪しい
兵庫県,宍粟市,63,山崎町宇原282-1,宇原防火水槽用地　フェンス,34.9657463,134.5518378,緯度経度は怪しい
兵庫県,宍粟市,64,山崎町宇原1558-1,旧農協宇原支店前の畑,34.9635694,134.5619625,
兵庫県,宍粟市,65,山崎町下宇原149-1,masked,34.9574213,134.5522349,
兵庫県,宍粟市,66,山崎町下宇原95-3,masked,34.9557092,134.5503958,
兵庫県,宍粟市,67,山崎町中334-5,ごみステーション山233設置場所 北東空き地,35.0069073,134.5425695,緯度経度は怪しい
兵庫県,宍粟市,68,山崎町中493-5,masked,35.01757670000001,134.5580184,
兵庫県,宍粟市,69,山崎町三谷209-1,三谷子ども広場フェンス,35.0224222,134.5831393,緯度経度は怪しい
兵庫県,宍粟市,70,山崎町三谷57-1,masked,35.0194287,134.5587079,
兵庫県,宍粟市,71,山崎町三谷31-1付近,masked,35.020053,134.5564511,
兵庫県,宍粟市,72,山崎町神谷377,河北小学校南側フェンス県道寄,35.0238985,134.5584321,緯度経度は怪しい
兵庫県,宍粟市,73,山崎町矢原134付近,masked,35.0332106,134.5562609,緯度経度は怪しい
兵庫県,宍粟市,74,山崎町岸田621,岸田公民館フェンス,35.0375067,134.5586175,緯度経度は怪しい
兵庫県,宍粟市,75,山崎町岸田450付近,土の宿北西側交差点付近　市道ガードパイプ,35.0391672,134.5640359,
兵庫県,宍粟市,76,山崎町岸田700付近,旧JA兵庫西岸田支店東側交差点付近花壇,35.0362119,134.5634457,緯度経度は怪しい
兵庫県,宍粟市,77,山崎町野々上164-1付近,野々上1バス停北側　市道ガードレール,35.0410485,134.5713132,緯度経度は怪しい
兵庫県,宍粟市,78,山崎町野々上607,野々上部消防詰所南東　市道ガードレール,35.0422667,134.5725123,緯度経度は怪しい
兵庫県,宍粟市,79,山崎町生谷52-5付近,市道生谷1号線沿い土手（生谷公民館北　ゲートボール場付近）,35.0171462,134.5443078,緯度経度は怪しい
兵庫県,宍粟市,80,山崎町下町62-1,スポーツセンター　トイレ前,35.0253687,134.5337119,緯度経度は怪しい
兵庫県,宍粟市,81,山崎町下町554-4,ゴミステーション横　さつき花壇,35.0278025,134.5281884,
兵庫県,宍粟市,82,山崎町宇野419-1,葛沢小学校　プール下,35.0332133,134.5229028,
兵庫県,宍粟市,83,山崎町下牧谷265,masked,35.0309736,134.5190958,緯度経度は怪しい
兵庫県,宍粟市,84,山崎町上牧谷1041-1,稗田化学工業㈱宋栗工場GS側フェンス,35.0436519,134.5115542,緯度経度は怪しい
兵庫県,宍粟市,85,山崎町上牧谷1475,公民館南側　にこにこ広場フェンス前,35.0428648,134.5054442,緯度経度は怪しい
兵庫県,宍粟市,86,山崎町上牧谷687,masked,35.0455098,134.507782,
兵庫県,宍粟市,87,山崎町大谷10-1,大谷第二加圧ポンプ場　東30m空き地,35.0534599,134.5258131,緯度経度は怪しい
兵庫県,宍粟市,88,山崎町東下野18,生涯学習センター　学遊館,35.05185549999999,134.5120137,緯度経度は怪しい
兵庫県,宍粟市,89,山崎町中野122,masked,35.0607335,134.507136,緯度経度は怪しい
兵庫県,宍粟市,90,山崎町中野653,コインランドリー　南60m429号線沿いブロック塀,35.0639558,134.5019859,緯度経度は怪しい
兵庫県,宍粟市,91,山崎町中野790,西尾そうめん工場　ブロック塀,35.0674242,134.4989684,緯度経度は怪しい
兵庫県,宍粟市,92,山崎町中野1003-1,旧都多幼稚園　フェンス,35.074014,134.4979011,緯度経度は怪しい
兵庫県,宍粟市,93,山崎町上ノ528-1,都多簡易郵便局　北側土手,35.0816655,134.4975602,緯度経度は怪しい
兵庫県,宍粟市,94,山崎町上ノ1004-1,鍛治屋橋北80m　フェンス,35.089096,134.4991874,緯度経度は怪しい
兵庫県,宍粟市,95,山崎町上ノ1321-2,上ノ上公民館広場前土手,35.0975481,134.5012858,緯度経度は怪しい
兵庫県,宍粟市,96,山崎町上ノ1480-4,上ノバス停終点横 空き地,35.1083055,134.5219358,緯度経度は怪しい
兵庫県,宍粟市,97,山崎町小茅野170-4,小茅野公民館前広場,35.1108156,134.4821067,緯度経度は怪しい
兵庫県,宍粟市,98,山崎町小茅野214-1,消防器具庫跡地,35.10128,134.4700858,緯度経度は怪しい
兵庫県,宍粟市,99,山崎町三津294-1,ホームセンターアグロ山崎店北 市道ガードレール国道寄,35.0171523,134.5495314,緯度経度は怪しい
兵庫県,宍粟市,100,山崎町三津501-3,masked,35.0250652,134.5522597,緯度経度は怪しい
兵庫県,宍粟市,101,山崎町五十波1-1付近,梯橋北詰交差点付近 市道ガードレール,35.0340011,134.5507999,緯度経度は怪しい
兵庫県,宍粟市,102,山崎町五十波621-1,山田板金西側 市道ガードレール,35.0349733,134.5476419,緯度経度は怪しい
兵庫県,宍粟市,103,山崎町五十波65-33,五十波キンダーランド フェンス,35.0368013,134.5533759,緯度経度は怪しい
兵庫県,宍粟市,104,山崎町梯227付近,masked,35.0580891,134.5417519,緯度経度は怪しい
兵庫県,宍粟市,105,山崎町田井645-9,神野小学校 体育館フェンス,35.0459223,134.5649962,緯度経度は怪しい
兵庫県,宍粟市,106,山崎町田井447-8付近,フクシン金属工業㈱北側 国道ガードパイプ,35.006072,134.543802,緯度経度は怪しい
兵庫県,宍粟市,107,山崎町田井46-1,エス・ジー・アイ山崎工場 フェンス前花壇,35.053165,134.5752102,緯度経度は怪しい
兵庫県,宍粟市,108,山崎町杉ケ瀬51-2,杉ケ瀬1号橋西詰北側 市道ガードレール,35.0567121,134.5807868,緯度経度は怪しい
兵庫県,宍粟市,109,山崎町木ノ谷295,木ノ谷バス停前 遊園地フェンス,35.0638796,134.5772578,
兵庫県,宍粟市,110,山崎町与位106-1,masked,35.0593149,134.5691371,緯度経度は怪しい
兵庫県,宍粟市,111,山崎町与位537-5付近,masked,35.0613461,134.570049,緯度経度は怪しい
兵庫県,宍粟市,112,山崎町与位525-1,「小林豊 氏」西10m（県道塩田一宮線沿い空き地）,35.0665553,134.5643159,緯度経度は怪しい
兵庫県,宍粟市,113,山崎町清野331,畑（清野公民館の道路向かい）,35.0842587,134.5643159,緯度経度は怪しい
兵庫県,宍粟市,114,山崎町清野411,masked,35.0842587,134.5643159,緯度経度は怪しい
兵庫県,宍粟市,115,山崎町葛根166-8,masked,35.0484123,134.457962,緯度経度は怪しい
兵庫県,宍粟市,116,山崎町葛根309付近,masked,35.046423,134.4553449,緯度経度は怪しい
兵庫県,宍粟市,117,山崎町葛根506-9,「葛根西口バス停」北80m 墓前間知ブロック面,35.0524687,134.4606524,緯度経度は怪しい
兵庫県,宍粟市,118,山崎町土万816,土万集落センター向かい ブロック塀,35.051122,134.4477705,緯度経度は怪しい
兵庫県,宍粟市,119,山崎町土万1422-1,山根正宗集会所前 市道法面,35.0578696,134.4441394,
兵庫県,宍粟市,120,山崎町塩山461-2,masked,35.0705132,134.4435563,緯度経度は怪しい
兵庫県,宍粟市,121,山崎町塩山608,masked,35.0745045,134.4425549,緯度経度は怪しい
兵庫県,宍粟市,122,山崎町大沢139-7,masked,35.0834543,134.4487664,緯度経度は怪しい
兵庫県,宍粟市,123,山崎町大沢397-1付近,千種新宮線 県道川沿いガードレール（大沢3バス停付近）,35.0922716,134.4512171,緯度経度は怪しい
兵庫県,宍粟市,124,一宮町安積1347-3,一宮市民協働センター,35.1024013,134.5829426,緯度経度は怪しい
兵庫県,宍粟市,125,一宮町安積1237,国道29号線「曲里バス停付近」歩道に設置の転落防止柵,35.1067944,134.580989,緯度経度は怪しい
兵庫県,宍粟市,126,一宮町安積1025-4,嵯峨山公民館前フェンス,35.1162624,134.5827186,緯度経度は怪しい
兵庫県,宍粟市,127,一宮町安積166,国道29号線「手延素麺協同組合一宮支部」南。歩道に設置の転落防止柵,35.1163417,134.5706199,緯度経度は怪しい
兵庫県,宍粟市,128,一宮町安積691,中安積公民館,35.1117659,134.5784378,緯度経度は怪しい
兵庫県,宍粟市,129,一宮町安積1395-4付近,聞賀口交差点「センターいちのみや上り口国道壁面」,35.1025763,134.5833782,緯度経度は怪しい
兵庫県,宍粟市,130,一宮町聞賀365-1,やすらぎ入口交差点　歩道柵,35.0042414,134.5493785,緯度経度は怪しい
兵庫県,宍粟市,131,一宮町東市場440-7,国道29号線　はりま一宮小学校前　歩道橋下ガードレール,35.0955599,134.5844836,緯度経度は怪しい
兵庫県,宍粟市,132,一宮町東市場614,国道29号線「37.4ポイント付近」歩道に設置の転落防止柵,35.0904681,134.5861138,緯度経度は怪しい
兵庫県,宍粟市,133,一宮町西安積108-1付近,西安積消防詰所横　空き地,35.1063203,134.5549014,緯度経度は怪しい
兵庫県,宍粟市,134,一宮町杉田72-3,杉田公民館前　駐車場ガードパイプ,35.1207154,134.5572552,
兵庫県,宍粟市,135,一宮町須行名510-1,道の駅北側　市道ガードパイプ,35.088439,134.58823,緯度経度は怪しい
兵庫県,宍粟市,136,一宮町須行名354-3,須行名354-3番地先　ブロック塀,35.0869143,134.5835474,緯度経度は怪しい
兵庫県,宍粟市,137,一宮町伊和617-2,神福寺バス停北　空き地,35.0834483,134.609009,緯度経度は怪しい
兵庫県,宍粟市,138,一宮町伊和478-1,伊和公民館,35.0819022,134.5916834,緯度経度は怪しい
兵庫県,宍粟市,139,一宮町安黒349,安黒公民館南　ガードレール,35.0745399,134.5996035,
兵庫県,宍粟市,140,一宮町嶋田298-1,国道29号線「塚元材木店前」歩道ガードパイプ,35.0633832,134.5854917,緯度経度は怪しい
兵庫県,宍粟市,141,一宮町嶋田123,嶋田消防詰所北　ブロック塀,35.0753725,134.5867966,緯度経度は怪しい
兵庫県,宍粟市,142,一宮町下野田57-2,旧加美実栗線「実栗北みどり農林公社前」ガードパイプ,35.1032632,134.5949,緯度経度は怪しい
兵庫県,宍粟市,143,一宮町下野田456-7付近,県道加美実栗線（下野田456-7付近）歩道ガードパイプ,35.1037523,134.5973291,
兵庫県,宍粟市,144,一宮町上野田282,県道加美実栗線（上野田282付近）歩道ガードパイプ,35.1115477,134.6048996,緯度経度は怪しい
兵庫県,宍粟市,145,一宮町能倉255,能倉公民館「南側花壇」,35.116043,134.6106887,
兵庫県,宍粟市,146,一宮町東河内509,山田公民館入口フェンス,35.1247583,134.6245736,緯度経度は怪しい
兵庫県,宍粟市,147,一宮町能倉775,加美実栗線「丸山測量駐車場手前」ガードパイプ,35.1172106,134.6145674,緯度経度は怪しい
兵庫県,宍粟市,148,一宮町東河内1006付近,加美実栗線「株式会社グリーン興産付近」ガードレール,35.1172159,134.6202813,緯度経度は怪しい
兵庫県,宍粟市,149,一宮町東河内1378,中坪公民館　防護柵,35.1203422,134.6287361,緯度経度は怪しい
兵庫県,宍粟市,150,一宮町東河内2092,県道加美実栗線「バス停本谷お堂手前」歩道ガードレール,35.1131232,134.6274005,緯度経度は怪しい
兵庫県,宍粟市,151,一宮町生栖46-4付近,養父実栗線「おとり店前」ガードレール,35.1283982,134.5923983,緯度経度は怪しい
兵庫県,宍粟市,152,一宮町生栖180-2,深河谷自治会入口　歩道ガードパイプ,35.1378215,134.5988714,緯度経度は怪しい
兵庫県,宍粟市,153,一宮町深河谷159-4付近,深生橋付近歩道　ガードパイプ,35.1386404,134.5972996,緯度経度は怪しい
兵庫県,宍粟市,154,一宮町深河谷240付近,あじさい館前　生垣,35.140234,134.5937159,緯度経度は怪しい
兵庫県,宍粟市,155,一宮町生栖380-1,上生栖バス停三叉路　畑東側　ガードレール,35.140063,134.6019829,緯度経度は怪しい
兵庫県,宍粟市,156,一宮町生栖813-4付近,養父実栗線「コインランドリー北」ガードレール,35.1498843,134.6096532,緯度経度は怪しい
兵庫県,宍粟市,157,一宮町西深335,西深公民館前,35.1515619,134.6096199,緯度経度は怪しい
兵庫県,宍粟市,158,一宮町福知1160-3付近,一宮生野線「津羅橋付近」ガードレール,35.1555279,134.6221241,緯度経度は怪しい
兵庫県,宍粟市,159,一宮町福知269-4,福知公民館,35.1562343,134.6157203,緯度経度は怪しい
兵庫県,宍粟市,160,一宮町福中177-1,福中公園フェンス,35.1679794,134.6183943,緯度経度は怪しい
兵庫県,宍粟市,161,一宮町河原田674-8付近,平瀬橋付近　河原田消防詰所横の柵,35.1823177,134.6174941,緯度経度は怪しい
兵庫県,宍粟市,162,一宮町福野156-1,JAハリマみかた営業部前,35.1697883,134.6325146,緯度経度は怪しい
兵庫県,宍粟市,163,一宮町福野300付近,福野公民館前ガードレール,35.1758503,134.6175215,緯度経度は怪しい
兵庫県,宍粟市,164,一宮町三方町146-1,前川三叉路　歩道ガードパイプ,35.1808091,134.6278144,緯度経度は怪しい
兵庫県,宍粟市,165,一宮町三方町633,三方町出張所入口　生垣,35.1846016,134.6276251,
兵庫県,宍粟市,166,一宮町三方町527-6,県道森添三方線　歩道ガードパイプ,35.1808091,134.6278144,緯度経度は怪しい
兵庫県,宍粟市,167,一宮町公文604付近,市道路肩側溝（公文604番地付近）,35.23256,134.5972518,緯度経度は怪しい
兵庫県,宍粟市,168,一宮町公文299-1,東公文公民館前　田,35.1974971,134.6293027,緯度経度は怪しい
兵庫県,宍粟市,169,一宮町公文1158,県道道谷三方線「石田酒店前」ガードレール,35.1991979,134.6206937,緯度経度は怪しい
兵庫県,宍粟市,170,一宮町百千家満302-1,百千家満公民館前フェンス,35.189611,134.6432446,
兵庫県,宍粟市,171,一宮町上岸田86-2,センター繁盛前　県道壁面,35.1971044,134.6527229,緯度経度は怪しい
兵庫県,宍粟市,172,一宮町百千家満639付近,市道（百千家満639付近）ガードレール（三叉路から南に離して設置）,35.1914677,134.6420964,
兵庫県,宍粟市,173,一宮町草木180-3,草木公民館前,35.1891159,134.6576413,緯度経度は怪しい
兵庫県,宍粟市,174,一宮町井内167,井内自治会消防器具庫東側（NTT鉄塔の道向い）,35.21090179999999,134.6648636,緯度経度は怪しい
兵庫県,宍粟市,175,一宮町横山48-1,和田松和園所有地（植林場）,35.2184603,134.6513105,緯度経度は怪しい
兵庫県,宍粟市,176,一宮町黒原3-1付近,国道429号線　太谷入口小屋,35.2219193,134.6865325,緯度経度は怪しい
兵庫県,宍粟市,177,一宮町黒原241-1,にこにこ広場フェンス,35.2219193,134.6865325,緯度経度は怪しい
兵庫県,宍粟市,178,一宮町倉床224-1,倉床公民館前,35.231336,134.6519161,緯度経度は怪しい
兵庫県,宍粟市,179,一宮町千町130,下千町公民館東,35.1910628,134.6959205,緯度経度は怪しい
兵庫県,宍粟市,180,一宮町千町399-2付近,大段山登山口付近　市道ガードレール,35.1910628,134.6959205,緯度経度は怪しい
兵庫県,宍粟市,181,波賀町日見谷136,ごみ収集場所波002　下の広場,35.1273815,134.5619625,緯度経度は怪しい
兵庫県,宍粟市,182,波賀町谷56-4付近,谷橋付近（谷自治会側）,35.1332231,134.5603731,緯度経度は怪しい
兵庫県,宍粟市,183,波賀町谷226地先,ごみ集積場所波008向かい　防火水槽フェンス,35.1332851,134.5650484,緯度経度は怪しい
兵庫県,宍粟市,184,波賀町谷777地先,市道河東線　ごみ集積場所波016向かいガードレール,35.1461941,134.5643159,
兵庫県,宍粟市,185,波賀町小野34,masked,35.1362846,134.5572144,緯度経度は怪しい
兵庫県,宍粟市,186,波賀町小野334,小野公民館フェンス,35.14124,134.5476708,緯度経度は怪しい
兵庫県,宍粟市,187,波賀町今市108地先,今市橋東側ガードレール,35.1382258,134.5290018,緯度経度は怪しい
兵庫県,宍粟市,188,波賀町安賀110-1,満願寺北約50m　防火水槽フェンス,35.1532408,134.5419534,
兵庫県,宍粟市,189,波賀町安賀541-1,波賀診療所駐車場　西側フェンス,35.155336,134.5449081,緯度経度は怪しい
兵庫県,宍粟市,190,波賀町有賀280-3,有賀公民館花壇前,35.162948,134.5392417,緯度経度は怪しい
兵庫県,宍粟市,191,波賀町斉木309-1地先,国道429号寺脇バス停向かい　横断歩道前ブロック塀,35.1503146,134.5172245,緯度経度は怪しい
兵庫県,宍粟市,192,波賀町斉木1054-1,斉木消防倉庫横　防火水槽前ガードレール,35.1563396,134.528603,緯度経度は怪しい
兵庫県,宍粟市,193,波賀町斉木1700,国道429号高橋バス停東約100m　待避所先車庫,35.1538895,134.5226995,緯度経度は怪しい
兵庫県,宍粟市,194,波賀町斉木2697,斉木前地防火水槽フェンス,35.1503146,134.5172245,緯度経度は怪しい
兵庫県,宍粟市,195,波賀町上野170-1,旧上野駐在所　花壇,35.1614971,134.5446163,緯度経度は怪しい
兵庫県,宍粟市,196,波賀町上野243-1,JAハリマ波賀営業部　フェンス,35.1627834,134.5452778,緯度経度は怪しい
兵庫県,宍粟市,197,波賀町上野806,上野公民館　敷地,35.1653165,134.5458228,緯度経度は怪しい
兵庫県,宍粟市,198,波賀町上野1527-2,水谷消防詰所横　ガードレール,35.1826314,134.5572552,緯度経度は怪しい
兵庫県,宍粟市,199,波賀町皆木463-1,皆木コミュニティセンターフェンス,35.1757319,134.5419798,緯度経度は怪しい
兵庫県,宍粟市,200,波賀町飯見102-7,飯見公民館横　防火水槽フェンス,35.1728061,134.5367696,緯度経度は怪しい
兵庫県,宍粟市,201,波賀町野尻40-1地先,市道野尻下垣内線　国道下ガードレール,35.1946643,134.5360667,緯度経度は怪しい
兵庫県,宍粟市,202,波賀町野尻242-3,野尻林殿三叉路　防火水槽フェンス,35.1856823,134.5249181,緯度経度は怪しい
兵庫県,宍粟市,203,波賀町原71地先,市道原有賀線　電柱（奥谷100西１）横ガードレール,35.1997039,134.5232331,緯度経度は怪しい
兵庫県,宍粟市,204,波賀町原278地先,市道原中垣内線　目隠しフェンス,35.2044127,134.5178844,緯度経度は怪しい
兵庫県,宍粟市,205,波賀町原317-6,日ノ原浄化センターフェンス,35.21914599999999,134.5238036,緯度経度は怪しい
兵庫県,宍粟市,206,波賀町日ノ原55地先,市道日ノ原線待避所ガードレール,35.2228137,134.5301793,緯度経度は怪しい
兵庫県,宍粟市,207,波賀町音水28地先,市道音水線　待避所,35.2343968,134.5266466,緯度経度は怪しい
兵庫県,宍粟市,208,波賀町引原339-1,引原防火水槽フェンス,35.2429346,134.5496877,緯度経度は怪しい
兵庫県,宍粟市,209,波賀町鹿伏59-1,資源物回収ステーション波18-1北側空き地,35.2587793,134.5407761,緯度経度は怪しい
兵庫県,宍粟市,210,波賀町鹿伏148,鹿伏公民館,35.2626392,134.5448162,
兵庫県,宍粟市,211,波賀町戸倉7-3,旧道谷口バス停横,35.2941186,134.5407761,緯度経度は怪しい
兵庫県,宍粟市,212,波賀町戸倉30-1,戸倉バス停,35.287908,134.54622,緯度経度は怪しい
兵庫県,宍粟市,213,波賀町道谷113-1,道谷ごみ集積場所波132西側空き地,35.2875986,134.5592215,緯度経度は怪しい
兵庫県,宍粟市,214,千種町千草21,千種小学校　東側フェンス,35.1517732,134.4438604,緯度経度は怪しい
兵庫県,宍粟市,215,千種町千草849-6,千草交差点北側　県道若桜下三河線花壇,35.1560883,134.4463415,
兵庫県,宍粟市,216,千種町河口214-2地先,清水橋　県道若桜下三河線ガードレール,35.1548043,134.4476783,緯度経度は怪しい
兵庫県,宍粟市,217,千種町西山32-3地先,杉谷橋西約70m　市道ガードレール,35.1522313,134.4424251,緯度経度は怪しい
兵庫県,宍粟市,218,千種町黒土688-1地先,黒土上集会所前バス停西約100m　県道千種新宮線ガードレール,35.1441357,134.4477217,緯度経度は怪しい
兵庫県,宍粟市,219,千種町黒土99-1地先,室橋東詰交差点　県道若桜下三河線歩道柵,35.1464462,134.4430721,緯度経度は怪しい
兵庫県,宍粟市,220,千種町黒土3-7地先,市道黒土城宮線入口　県道若桜下三河線花壇,35.1398688,134.4488579,
兵庫県,宍粟市,221,千種町室468-3,室部消防詰所横　市道ガードレール,35.1463312,134.4252603,
兵庫県,宍粟市,222,千種町西山1326-1,奥西山公民館（国道側花壇）,35.155372,134.4326657,緯度経度は怪しい
兵庫県,宍粟市,223,千種町七野286,市道七野倉谷線入口 路肩法面,35.133043,134.4252603,緯度経度は怪しい
兵庫県,宍粟市,224,千種町七野486-3,市道七野下河野線入口 ガードレール,35.133043,134.4252603,緯度経度は怪しい
兵庫県,宍粟市,225,千種町下河野435-2地先,上下河野バス停 県道若桜下三河線ガードレール,35.114347,134.4417799,緯度経度は怪しい
兵庫県,宍粟市,226,千種町下河野301-1,下河野公民館（県道側花壇）,35.1211226,134.4421629,緯度経度は怪しい
兵庫県,宍粟市,227,千種町下河野18-8地先,阿踏橋バス停付近三叉路 県道若桜下三河線歩道柵,35.114347,134.4417799,緯度経度は怪しい
兵庫県,宍粟市,228,千種町岩野辺1651-3,二宮神社前 国道429号線ガードレール,35.1500549,134.4795173,緯度経度は怪しい
兵庫県,宍粟市,229,千種町岩野辺1450-4地先,市道岩野辺円ノ元線入口 国道429号線ガードレール,35.1582229,134.4607196,緯度経度は怪しい
兵庫県,宍粟市,230,千種町岩野辺1276-1地先,岩野辺公民館前石積面,35.1586084,134.4663194,緯度経度は怪しい
兵庫県,宍粟市,231,千種町岩野辺2885-1地先,市道岩野辺徳久線入口 国道429号線路肩,35.1500549,134.4795173,緯度経度は怪しい
兵庫県,宍粟市,232,千種町岩野辺606-2,荒尾左雲橋 市道ガードレール,35.1500549,134.4795173,緯度経度は怪しい
兵庫県,宍粟市,233,千種町岩野辺238-1地先,内海橋 県道大沢岩野辺線ガードレール,35.1431819,134.4997463,緯度経度は怪しい
兵庫県,宍粟市,234,千種町河内209-4,出合橋三叉路 県道若桜下三河線ガードレール,35.2052746,134.4653693,緯度経度は怪しい
兵庫県,宍粟市,235,千種町河内326-4地先,宮前橋南約150m 市道歩道柵,35.2052746,134.4653693,緯度経度は怪しい
兵庫県,宍粟市,236,千種町河内527-1,大上板金店前 市道歩道柵,35.2052746,134.4653693,緯度経度は怪しい
兵庫県,宍粟市,237,千種町河内885-4,市道河内大上1号線入口 市道河内線ガードレール,35.2044744,134.4550241,緯度経度は怪しい
兵庫県,宍粟市,238,千種町西河内127-3,市道西河内大橋線入口 県道若桜下三河線路肩法面,35.2137329,134.4087348,
兵庫県,宍粟市,239,千種町西河内488,西河内公民館横 畑,35.2010031,134.4298441,緯度経度は怪しい
兵庫県,宍粟市,240,千種町西河内630-1,西河内バス停（方転所）横 田,35.2137329,134.4087348,
兵庫県,宍粟市,241,千種町西河内917-1,市道西河内木地山線終点 田,35.2137329,134.4087348,
兵庫県,宍粟市,242,千種町鷹巣1648-4地先,市道別所下鷹巣線入口 市道ガードレール,35.1278508,134.4700858,緯度経度は怪しい
兵庫県,宍粟市,243,千種町鷹巣1465-2地先,天理教鷹乃巣分教会前 県道千種新宮線ガードレール,35.1357438,134.4713124,緯度経度は怪しい
兵庫県,宍粟市,244,千種町鷹巣601地先,下鷹巣集会所北約100m 県道千種新宮線ガードレール,35.1264272,134.4722485,緯度経度は怪しい
兵庫県,宍粟市,245,千種町鷹巣405-2地先,旧鷹巣診療所跡前三叉路 市道ガードレール,35.1278508,134.4700858,緯度経度は怪しい
兵庫県,宍粟市,246,千種町鷹巣189-4,早田バス停 市道ガードレール,35.1332895,134.4783729,緯度経度は怪しい
