prefecture,city,number,address,name,lat,long
兵庫県,宝塚市,01-01,宝塚市小浜4-4-1,健康センター南側フェンス,34.8045528,135.365944
兵庫県,宝塚市,01-02,宝塚市小浜4-5,市立病院駐車場南側植え込み,34.8053066,135.3659577
兵庫県,宝塚市,01-03,宝塚市小浜4-7-10,小浜小学校北側フェンス,34.8058427,135.3654321
兵庫県,宝塚市,01-04,宝塚市安倉北1,安倉北1丁目9　東側フェンス,34.8065206,135.3680729
兵庫県,宝塚市,01-05,宝塚市小浜4-5,市立病院東側ガードレール,34.8053066,135.3659577
兵庫県,宝塚市,02-01,宝塚市安倉中2-2,共同利用施設安倉会館北側フェンス,34.8004222,135.3718184
兵庫県,宝塚市,02-02,宝塚市安倉中4-5,里ノ坊公園北側フェンス,34.8006152,135.3734341
兵庫県,宝塚市,02-03,宝塚市安倉中5-16,安倉中公園北側フェンス,34.8036022,135.3764455
兵庫県,宝塚市,02-04,宝塚市安倉中3-3,市営安倉中住宅2号棟北側植え込み,34.801966,135.3735076
兵庫県,宝塚市,02-05,宝塚市安倉中1-11,カーライフ南国西側ガードパイプ,34.8029499,135.3720387
兵庫県,宝塚市,02-06,宝塚市安倉中4-12,安倉中4丁目13-11　中所ハイツ向かいガードパイプ,34.7994506,135.3738381
兵庫県,宝塚市,02-07,宝塚市安倉中5-1,安倉中5丁目1-22付近　ガードフェンス,34.8041784,135.3740952
兵庫県,宝塚市,02-08,宝塚市安倉中5-16,安倉中公園南側フェンス,34.8036022,135.3764455
兵庫県,宝塚市,03-01,宝塚市寿町8-21,大堀川沿いファミリーマート宝塚ほしのそう店前ガードレール,34.8116019,135.3655761
兵庫県,宝塚市,03-02,宝塚市安倉北4,安倉上池　北側ガードレール,34.8101931,135.3743452
兵庫県,宝塚市,03-03,宝塚市泉町22,泉町公園フェンス,34.8115539,135.3708636
兵庫県,宝塚市,03-04,宝塚市泉町8,市営米谷第2団地内浄水タンクフェンス,34.8100534,135.3682198
兵庫県,宝塚市,03-05,宝塚市寿町7,寿ハイツ駐車場前ガードレール,34.810939,135.3660901
兵庫県,宝塚市,03-06,宝塚市泉町6,泉町6関電鉄塔南側フェンス,34.8096243,135.3696886
兵庫県,宝塚市,04-01,宝塚市米谷1-19,関電鉄塔フェンス,34.8093951,135.3644012
兵庫県,宝塚市,04-02,宝塚市売布3-1,売布3丁目公園西側入り口フェンス,34.8126433,135.357646
兵庫県,宝塚市,04-03,宝塚市米谷2-4,米谷2丁目公園西側フェンス,34.8106927,135.3588207
兵庫県,宝塚市,05-01,宝塚市川面1-8,川面1丁目公園東側フェンス,34.8118197,135.3489831
兵庫県,宝塚市,05-02,宝塚市川面2-1,川面2丁目植え込み向かいガードフェンス,34.8127217,135.3488363
兵庫県,宝塚市,05-03,宝塚市宮の町5,宮の町5-19付近　歩行者用地下通路コンクリートガードフェンス,34.8093857,135.3500108
兵庫県,宝塚市,05-04,宝塚市川面1-7,宝塚小学校西南側植え込み,34.8107112,135.3489831
兵庫県,宝塚市,05-05,宝塚市川面1-7-34,宝塚小学校北校舎前フェンス,34.8110696,135.3492286
兵庫県,宝塚市,05-06,宝塚市川面2-4,川面2丁目公園フェンス,34.814744,135.3491051
兵庫県,宝塚市,06-01,宝塚市栄町3-1,栄町3丁目第4公園西側フェンス,34.8115753,135.3373862
兵庫県,宝塚市,06-02,宝塚市栄町2-1-1,ソリオ1西館　喫茶Ｒｓｉｄｅ前植え込み,34.8095617,135.3418632
兵庫県,宝塚市,06-03,宝塚市栄町2-10,栄町公園フェンス,34.8107286,135.3391476
兵庫県,宝塚市,06-04,宝塚市栄町3-1,グリーンエクセル宝塚西側駐車場フェンス,34.8115753,135.3373862
兵庫県,宝塚市,06-05,宝塚市栄町1-18,阪急駐輪場北側フェンス,34.8095286,135.3436614
兵庫県,宝塚市,06-06,宝塚市栄町2-12,JR宝塚駅国道側フェンス,34.8114566,135.3390742
兵庫県,宝塚市,06-07,宝塚市月見山2-9,月見山第1公園南側ガードレール,34.8084067,135.3353314
兵庫県,宝塚市,06-08,宝塚市月見山2-9,月見山第3公園南側ガードレール,34.8084067,135.3353314
兵庫県,宝塚市,06-09,宝塚市月見山1-9,月見山1丁目17-14付近　ガードレール,34.8069077,135.3364322
兵庫県,宝塚市,06-10,宝塚市月見山1-2,月見山第六公園フェンス,34.8092588,135.3388907
兵庫県,宝塚市,06-11,宝塚市紅葉ガ丘5,紅葉ガ丘5-19付近　塩谷川沿いガードレール,34.8061091,135.3366523
兵庫県,宝塚市,06-12,宝塚市長寿ガ丘22,長寿ガ丘22-30付近　ガードレール,34.8127194,135.3332766
兵庫県,宝塚市,06-13,宝塚市月見山2-7,月見山2丁目7-21付近　川沿いガードレール,34.8103136,135.3351112
兵庫県,宝塚市,07-01,宝塚市武庫山2-4,武庫山2丁目公園フェンス,34.8064502,135.3409661
兵庫県,宝塚市,07-02,宝塚市湯本町5,湯本第2公園東側フェンス,34.8062639,135.3426705
兵庫県,宝塚市,07-03,宝塚市武庫山1-8,武庫山公園植え込み,34.8035082,135.340909
兵庫県,宝塚市,07-04,宝塚市武庫山2-14,日の丘公園南東側柵,34.8051667,135.3374596
兵庫県,宝塚市,07-05,宝塚市武庫山2-17,武庫山ふれあい会館南側ベンチ裏植え込み,34.8060127,135.3397347
兵庫県,宝塚市,08-01,宝塚市中山五月台4-2,五月台第2公園南側フェンス,34.836491,135.3677057
兵庫県,宝塚市,08-02,宝塚市中山五月台4-20-1,中山五月台中学校西側フェンス,34.837655,135.3687855
兵庫県,宝塚市,08-03,宝塚市中山五月台3-9,中山五月台3丁目9-11付近　ガードレール,34.835231,135.3691745
兵庫県,宝塚市,08-04,宝塚市中山五月台3-1,中山五月台3丁目1-1付近　ガードフェンス,34.8344023,135.3688807
兵庫県,宝塚市,08-05,宝塚市中山桜台5-23,五月台5丁目バス停ロータリー植え込み,34.8386354,135.3641075
兵庫県,宝塚市,08-06,宝塚市中山桜台5-23,ジャルダン宝塚中山台壱番館北側ガ－ドレ－ル,34.8386354,135.3641075
兵庫県,宝塚市,09-01,宝塚市小林1-15,小林公園東側ガードレール,34.7919033,135.35236
兵庫県,宝塚市,09-02,宝塚市小林1-3-20,小林会館東側フェンス,34.7946575,135.3522556
兵庫県,宝塚市,09-03,宝塚市千種2-8,阪急小林駅前駐輪場フェンス,34.7893072,135.3511303
兵庫県,宝塚市,09-04,宝塚市小林2-9,小林駐輪場前植え込み,34.7895445,135.3526536
兵庫県,宝塚市,09-05,宝塚市千種1-2,千種1丁目公園フェンス,34.7932453,135.3495704
兵庫県,宝塚市,09-06,宝塚市小林5-5,イズミヤ駐車場北側ガードパイプ,34.788474,135.3560308
兵庫県,宝塚市,09-07,宝塚市小林5-5,イズミヤ駐車場西側ガードパイプ,34.788474,135.3560308
兵庫県,宝塚市,09-08,宝塚市社町10,社町10-13付近　ガードパイプ,34.7959764,135.3502311
兵庫県,宝塚市,10-01,宝塚市大吹町6,阪神競馬場北駐車場南側フェンス,34.7830112,135.3584536
兵庫県,宝塚市,10-02,宝塚市大成町10,市営大成住宅3号棟西側倉庫前ガードフェンス,34.7832123,135.3554434
兵庫県,宝塚市,10-03,宝塚市大吹町12-17,市営大吹住宅2号棟西側フェンス,34.7840058,135.3599356
兵庫県,宝塚市,10-04,宝塚市大成町1,市営大成第2住宅1号棟東側フェンス,34.7843919,135.3552966
兵庫県,宝塚市,10-05,宝塚市大成町10,市営大成住宅1号棟南側ガードフェンス,34.7832123,135.3554434
兵庫県,宝塚市,10-06,宝塚市大成町4-24,大成公園植え込み,34.783658,135.3559573
兵庫県,宝塚市,10-07,宝塚市中野町21,市営中野住宅向かい道路予定地フェンス,34.7852181,135.3558839
兵庫県,宝塚市,10-08,宝塚市中野町22,中野公園南側フェンス,34.7854845,135.3570586
兵庫県,宝塚市,10-09,宝塚市中野町6-3,関西電力仁川変電所植え込み,34.7876319,135.3560596
兵庫県,宝塚市,11-01,宝塚市高司2-3-1,高司歩道橋西側高司中学校前植え込み,34.786454,135.3616866
兵庫県,宝塚市,11-02,宝塚市高司2-14,住友化学㈱西側テニスコートフェンス,34.7868053,135.3641075
兵庫県,宝塚市,11-03,宝塚市高司2-3-1,高司中学校正門北側フェンス,34.786454,135.3616866
兵庫県,宝塚市,11-04,宝塚市高司3-3,阪神競馬場北側仁川スカイハイツ向かいガードレール,34.7833565,135.3631454
兵庫県,宝塚市,11-05,宝塚市高司3-3,仁川スカイハイツ横高司第3公園東側フェンス,34.7833565,135.3631454
兵庫県,宝塚市,11-06,宝塚市高司4-6,高司グランド南西側植え込み,34.78643,135.3671917
兵庫県,宝塚市,11-07,宝塚市高司4-4,高司第4公園南側フェンス,34.7839402,135.3666042
兵庫県,宝塚市,11-08,宝塚市高司4-1,高司4丁目1　道路用地,34.7877973,135.3655027
兵庫県,宝塚市,11-09,宝塚市高司5-6,高司5丁目公園フェンス,34.7827059,135.3688807
兵庫県,宝塚市,12-01,宝塚市仁川宮西町1,仁川小学校西側フェンス,34.7797062,135.35236
兵庫県,宝塚市,12-02,宝塚市仁川宮西町1-25,仁川小学校東側ガードレール,34.7791809,135.3524793
兵庫県,宝塚市,12-03,宝塚市仁川宮西町3,仁川宮西町3-3前　三叉路正面阪急フェンス,34.7788935,135.3540485
兵庫県,宝塚市,12-04,宝塚市仁川台,仁川台南公園東側植え込み,34.7833861,135.3516259
兵庫県,宝塚市,12-05,宝塚市仁川台283,阪急谷口第3踏切横フェンス,34.7837999,135.3533175
兵庫県,宝塚市,12-06,宝塚市仁川宮西町1,仁川幼稚園西側小仁川沿いガードレール,34.7797062,135.35236
兵庫県,宝塚市,13-01,宝塚市仁川北1-2,仁川北公園植え込み,34.7763778,135.3673385
兵庫県,宝塚市,13-02,宝塚市仁川北2-13,阪急新仁川マンション前ガ－ドレール,34.776422,135.3626389
兵庫県,宝塚市,13-03,宝塚市仁川北3-3,阪急仁川駅ホーム先植え込み,34.77486,135.3567
兵庫県,宝塚市,13-04,宝塚市仁川北3-2-3,共同利用施設仁川会館ガードフェンス,34.7758666,135.3561611
兵庫県,宝塚市,13-05,宝塚市仁川北2-5,夢野橋欄干,34.7757757,135.357646
兵庫県,宝塚市,14-01,宝塚市福井町2,福井町2　水路ガードパイプ,34.79644,135.3602158
兵庫県,宝塚市,14-02,宝塚市福井町1,福井町1　水路ガードパイプ,34.7964481,135.3593347
兵庫県,宝塚市,14-03,宝塚市亀井町1,旧小林浄水場西側フェンス,34.7961221,135.3608766
兵庫県,宝塚市,14-04,宝塚市福井町11,福井公園西側フェンス,34.7951327,135.3591878
兵庫県,宝塚市,14-05,宝塚市福井町13,福井町13-10付近　御所下水路ガードパイプ,34.7950377,135.3601056
兵庫県,宝塚市,14-06,宝塚市福井町26,福井町26-22付近　御所下水路ガードパイプ,34.7929423,135.3599955
兵庫県,宝塚市,15-01,宝塚市亀井町12,市営亀井第2住宅南側植え込み,34.7931708,135.3652824
兵庫県,宝塚市,15-02,宝塚市御所の前町13,御所の前町13付近　広報板横ガードフェンス,34.7919368,135.3675589
兵庫県,宝塚市,15-03,宝塚市御所の前町15,宝塚医療生協東側道路ガードフェンス,34.7906131,135.3682932
兵庫県,宝塚市,15-04,宝塚市御所の前町6,御所の前公園西側植え込み,34.7931246,135.3665308
兵庫県,宝塚市,15-05,宝塚市高松町2,高松第2公園入口横植え込み,34.7917031,135.3666042
兵庫県,宝塚市,15-06,宝塚市美幸町9,美幸会館前バス停フェンス,34.7867914,135.3693214
兵庫県,宝塚市,16-01,宝塚市高松町16-23,高司接骨院横ガードフェンス,34.7883048,135.3683685
兵庫県,宝塚市,16-02,宝塚市高松町5,宝塚医療生協高松診療所南側ガードレール,34.7906539,135.3676323
兵庫県,宝塚市,16-03,宝塚市高松町1,旧高松公園跡広場フェンス,34.790489,135.364803
兵庫県,宝塚市,17-01,宝塚市梅野町1-7,亥の谷川ガードパイプ,34.8041341,135.3447839
兵庫県,宝塚市,17-02,宝塚市南口1-7,南口1-8-26　宝塚ﾒﾃﾞｨｶﾙｽｸｴｱ向かいフェンス,34.8024939,135.3459001
兵庫県,宝塚市,17-03,宝塚市南口2-14,サンビオラ五番館北東側ガードレール,34.80542,135.3471811
兵庫県,宝塚市,17-04,宝塚市南口2-14,サンビオラ噴水前植え込み,34.80542,135.3471811
兵庫県,宝塚市,17-05,宝塚市南口2-2-4,清水産婦人科横伊孑志墓地フェンス,34.8020829,135.3479058
兵庫県,宝塚市,17-06,宝塚市南口1-6-38,宝星文化向かい広報板横フェンス,34.8013557,135.3469732
兵庫県,宝塚市,17-07,宝塚市南口2-4,サンビオラ第一駐車場北側フェンス,34.8031841,135.3461937
兵庫県,宝塚市,17-08,宝塚市武庫川町6,関西学院初等部南側フェンス,34.8068104,135.3513322
兵庫県,宝塚市,17-09,宝塚市武庫川町5,武庫川公園向かいジオタワー宝塚フェンス,34.8054194,135.3519195
兵庫県,宝塚市,18-01,宝塚市山本西1-5,天満神社前柵,34.8216045,135.3782084
兵庫県,宝塚市,18-02,宝塚市山本中1-3-14,山本園芸流通センター北側フェンス,34.8219743,135.3818835
兵庫県,宝塚市,18-03,宝塚市山本西2-2,山本西公園西側フェンス,34.8195529,135.3790163
兵庫県,宝塚市,18-04,宝塚市山本東1-2,木接太夫碑南側,34.8214343,135.3865541
兵庫県,宝塚市,18-05,宝塚市山本中1-13,松尾神社西側ガードフェンス,34.8219994,135.3843054
兵庫県,宝塚市,18-06,宝塚市山本東2-2,沢池東側フェンス,34.8197955,135.3865828
兵庫県,宝塚市,18-07,宝塚市山本中3-19-26,金ごま本舗（株）向かい　ＪＲ宝塚線高架下フェンス,34.8181266,135.3879717
兵庫県,宝塚市,18-08,宝塚市長尾町8,山本西3丁目ラ・ラ・トピアＢ棟向かいフェンス,34.8157566,135.3811466
兵庫県,宝塚市,19-01,宝塚市中筋5-8,かいづか公園植え込み,34.815136,135.3732138
兵庫県,宝塚市,19-02,宝塚市中筋3-2,八幡池東側フェンス,34.8164181,135.3789062
兵庫県,宝塚市,19-03,宝塚市中筋3-61,共同利用施設中筋会館西側フェンス,34.8175864,135.3752111
兵庫県,宝塚市,19-04,宝塚市中筋4-11,ＪＲ中山寺駅東側ガードレール,34.8169597,135.3746093
兵庫県,宝塚市,19-05,宝塚市中筋5-10,ＪＲ中山寺駅南側自転車駐車場出入口壁面,34.816361,135.372947
兵庫県,宝塚市,19-06,宝塚市中筋9,シャルム中山寺向かいガードレール,34.811326,135.3730669
兵庫県,宝塚市,19-07,宝塚市中筋山手4-6,山手4丁目バス停横ガードフェンス,34.8218976,135.3764455
兵庫県,宝塚市,19-08,宝塚市中筋山手5-6,中山台加圧所フェンス,34.8255114,135.3752703
兵庫県,宝塚市,19-09,宝塚市中筋8-24,ドルチェモスカート東向かいガードパイプ,34.8130003,135.3756376
兵庫県,宝塚市,19-10,宝塚市中筋2-8,中筋2丁目やまぼうし公園フェンス,34.8200986,135.3761517
兵庫県,宝塚市,19-11,宝塚市中筋4-2-2,中筋4丁目さくら公園フェンス,34.8171651,135.3714614
兵庫県,宝塚市,19-12,宝塚市中筋5-8,かいづか公園西側フェンス,34.815136,135.3732138
兵庫県,宝塚市,20-01,宝塚市山本丸橋2-1,共同利用施設長尾南会館北側フェンス,34.8163057,135.3929748
兵庫県,宝塚市,20-02,宝塚市山本丸橋2-21,老人保健施設エスペランサ向かいガードレール,34.8141039,135.3949587
兵庫県,宝塚市,20-03,宝塚市山本丸橋4-13-1,丸橋小学校南側フェンス,34.8124167,135.3967831
兵庫県,宝塚市,20-04,宝塚市山本丸橋2-21,県営宝塚山本団地東側駐車場前ガードパイプ,34.8141039,135.3949587
兵庫県,宝塚市,20-05,宝塚市山本丸橋3-8,グランドゥール宝塚前ガードパイプ,34.8119078,135.3926074
兵庫県,宝塚市,20-06,宝塚市山本丸橋4-15,県営山本第二団地6号棟横フェンス,34.8131198,135.3964283
兵庫県,宝塚市,20-07,宝塚市山本丸橋1-8,ｾﾝﾁｭﾘｰｺｰﾄ宝塚弐番館前面道路ガードパイプ,34.8145663,135.3899623
兵庫県,宝塚市,20-08,宝塚市山本丸橋1,グラネックス宝樹園向かいガードフェンス,34.8146315,135.3904032
兵庫県,宝塚市,20-09,宝塚市山本丸橋1-1,山本丸橋1丁目1-22付近　ガードフェンス,34.8153573,135.3887501
兵庫県,宝塚市,20-10,宝塚市山本丸橋4-13-1,丸橋小学校東側校門横フェンス,34.8124167,135.3967831
兵庫県,宝塚市,20-11,宝塚市口谷西3-4,口谷西公園フェンス,34.8152412,135.3974938
兵庫県,宝塚市,20-12,宝塚市口谷東3-8,県営口谷東団地防火水槽フェンス,34.8148824,135.4005018
兵庫県,宝塚市,20-13,宝塚市口谷西3-1,口谷西3丁目1　広報板横ガードレール,34.8150959,135.3963548
兵庫県,宝塚市,20-14,宝塚市口谷西3-84-11,農地フェンス,34.8116929,135.398814
兵庫県,宝塚市,20-15,宝塚市口谷東3,大野橋北側ガードレール,34.8145437,135.3998086
兵庫県,宝塚市,21-01,宝塚市上佐曽利字小垣内,市道3701号線ガードレール,34.9370892,135.3175754
兵庫県,宝塚市,21-02,宝塚市上佐曽利字藪ノ下,上佐曽利南口ﾊﾞｽ停西側藪ノ下橋手前ガードレール,34.9321343,135.3140544
兵庫県,宝塚市,21-03,宝塚市上佐曽利字大垣内,上佐曽利会館東側ガードレール,34.9370316,135.3159616
兵庫県,宝塚市,21-04,宝塚市上佐曽利字西ノ山,市道3705号線ガードレール,34.9338194,135.3105336
兵庫県,宝塚市,21-05,宝塚市上佐曽利字南高野,市道1501号ガードレール,34.9394762,135.3125873
兵庫県,宝塚市,22-01,宝塚市大原野字南宮,JA西谷支店横大原野川沿いガードレール,34.9060439,135.306133
兵庫県,宝塚市,22-02,宝塚市大原野字石保65,西谷幼稚園向かいガードレール,34.910629,135.3034928
兵庫県,宝塚市,22-03,宝塚市大原野字炭屋,西谷ふれあい夢プラザ駐車場横大原野川沿いガードレール,34.9060267,135.3084799
兵庫県,宝塚市,22-04,宝塚市大原野字茶谷,大原野字茶谷37付近　ガードレール,34.9116324,135.3175754
兵庫県,宝塚市,22-05,宝塚市大原野字宮脇,市道1814号線ガードレール,34.9076383,135.305693
兵庫県,宝塚市,22-06,宝塚市長谷字蔵本,長谷公民館前「ながたにばし」欄干,34.9173076,135.317282
兵庫県,宝塚市,22-07,宝塚市波豆字八坂掛8,清瀬橋バス停横ガードレール,34.9091291,135.290702
兵庫県,宝塚市,22-08,宝塚市大原野字大中,市道1405号線ガードレール,34.9089028,135.3030528
兵庫県,宝塚市,23-01,宝塚市境野字塚田,市道4135号線ガードパイプ,34.8893688,135.2970397
兵庫県,宝塚市,23-02,宝塚市境野字保与谷,西谷の森公園東の谷バス停向かいガードフェンス,34.8928041,135.3002662
兵庫県,宝塚市,23-03,宝塚市玉瀬字前田,前田橋北側歩道鉄柵,34.8856781,135.3093601
兵庫県,宝塚市,23-04,宝塚市玉瀬字大岩谷1,武田尾辻バス停横のり面,34.868994,135.3110598
兵庫県,宝塚市,23-05,宝塚市玉瀬字イヅリハ,ＪＲ武田尾駅前ガ－ドレ－ル,34.8596654,135.3081866
兵庫県,宝塚市,23-06,宝塚市玉瀬字イヅリハ,武田尾バス停後方公園フェンス,34.8596654,135.3081866
兵庫県,宝塚市,24-01,宝塚市切畑字宮ノ後,切畑北口バス停横ガードパイプ,34.8804517,135.331809
兵庫県,宝塚市,24-02,宝塚市切畑字茶屋池ノ上,茶屋池北側堤のり面横ガードレール,34.8754538,135.3335702
兵庫県,宝塚市,24-03,宝塚市切畑字堂の前,切畑消防分団器具庫前ガードレール,34.8774535,135.3322226
兵庫県,宝塚市,25-01,宝塚市雲雀丘2-6,雲雀丘子供遊園植え込み,34.8287594,135.3990737
兵庫県,宝塚市,25-02,宝塚市雲雀丘1-4,雲雀丘公園北側フェンス,34.829004,135.4026012
兵庫県,宝塚市,25-03,宝塚市雲雀丘2-4,もみじ橋欄干,34.8269493,135.3999556
兵庫県,宝塚市,25-04,宝塚市平井3-5,市道のり面,34.8238073,135.3949587
兵庫県,宝塚市,25-05,宝塚市雲雀丘山手1-13,雲雀丘山手公園南側向かいフェンス,34.8310805,135.4028951
兵庫県,宝塚市,25-06,宝塚市雲雀丘3-9,雲雀丘3丁目第2公園フェンス,34.8270118,135.3969427
兵庫県,宝塚市,26-01,宝塚市すみれガ丘2-4,すみれガ丘中央バス停後方ガードフェンス,34.8229551,135.3431109
兵庫県,宝塚市,26-02,宝塚市すみれガ丘3-2,すみれガ丘3丁目バス停後方ガードフェンス,34.8240182,135.3403219
兵庫県,宝塚市,26-03,宝塚市すみれガ丘3-4,すみれガ丘北公園北側フェンス前植え込み,34.8245368,135.3444321
兵庫県,宝塚市,26-04,宝塚市すみれガ丘1-8,ラ・ビスタ宝塚ｺﾐｭﾆﾃｨｾﾝﾀｰ西側水路フェンス,34.8213632,135.3429641
兵庫県,宝塚市,26-05,宝塚市すみれガ丘3-2,ラ・ビスタ宝塚ウェストウィング前ガードフェンス,34.8240182,135.3403219
兵庫県,宝塚市,26-06,宝塚市すみれガ丘3-6,すみれが丘東公園南側ガードフェンス,34.8239725,135.3456065
兵庫県,宝塚市,26-07,宝塚市すみれガ丘3-3,すみれガ丘中央公園北側ガードフェンス,34.8240634,135.3431109
兵庫県,宝塚市,26-08,宝塚市すみれガ丘3-5,阪急バスすみれガ丘東バス停西側フェンス,34.8251513,135.3454597
兵庫県,宝塚市,27-01,宝塚市清荒神1-2,中央図書館前花壇,34.8107557,135.3517727
兵庫県,宝塚市,27-02,宝塚市清荒神1-9,阪急清荒神駅宝塚方面ホームフェンス,34.8113296,135.3534612
兵庫県,宝塚市,27-03,宝塚市清荒神2-21,八坂プラザ横八阪神社石柵,34.812778,135.3541953
兵庫県,宝塚市,27-04,宝塚市川面1-11,川面1丁目11-19付近　ガードレール,34.8120106,135.3508918
兵庫県,宝塚市,27-05,宝塚市清荒神4-11,清荒神4丁目11　広報板横ガードレール,34.81465,135.3540485
兵庫県,宝塚市,27-06,宝塚市川面1-3,宝塚スイミングスクール入口横ガードレール,34.7807872,135.3508498
兵庫県,宝塚市,28-01,宝塚市安倉南4-39,安倉南第3公園入り口フェンス,34.7960838,135.3799713
兵庫県,宝塚市,28-02,宝塚市安倉中6-1-2,安倉幼稚園北側フェンス,34.8022225,135.3775271
兵庫県,宝塚市,28-03,宝塚市安倉中6-1-1,安倉小学校西側フェンス,34.8013509,135.377235
兵庫県,宝塚市,28-04,宝塚市安倉中6-4,安倉第2会館前フェンス,34.7990625,135.3781629
兵庫県,宝塚市,28-05,宝塚市安倉南1-2,安倉南第2公園南側フェンス,34.798362,135.3735076
兵庫県,宝塚市,28-06,宝塚市安倉南1-1,県営宝塚安倉南住宅2号棟西側ガードパイプ,34.7980902,135.37292
兵庫県,宝塚市,28-07,宝塚市安倉南1-7,酒のやまや東側ガードパイプ,34.7979325,135.3749765
兵庫県,宝塚市,28-08,宝塚市安倉南4-39,安倉南第3公園北西側フェンス,34.7960838,135.3799713
兵庫県,宝塚市,28-09,宝塚市安倉南1-9,安倉南公園東側植え込み,34.7979054,135.3741686
兵庫県,宝塚市,28-10,宝塚市安倉南2-17,安倉南第４公園フェンス,34.7960759,135.3771066
兵庫県,宝塚市,28-11,宝塚市安倉南4-9,安倉南第5公園フェンス,34.7982853,135.3817342
兵庫県,宝塚市,29-01,宝塚市平井1-15,平井第一公園東側フェンス,34.8248451,135.3876113
兵庫県,宝塚市,29-02,宝塚市平井2-16,弓場池南東側土堤,34.8253834,135.3893746
兵庫県,宝塚市,29-03,宝塚市平井1-4,阪急山本駅北フェンス　ﾌﾞﾗｲﾄﾝ山本薬局前,34.8222443,135.3878317
兵庫県,宝塚市,29-04,宝塚市平井5-7,市営平井住宅北側フェンス,34.8217172,135.392387
兵庫県,宝塚市,29-05,宝塚市平井6-10,阪急車庫線高架下フェンス,34.823329,135.3960976
兵庫県,宝塚市,29-06,宝塚市平井3-2,平井桜道公園フェンス,34.8240084,135.3919461
兵庫県,宝塚市,30-01,宝塚市中山荘園1,中山荘園公園内フェンス,34.8202044,135.3644012
兵庫県,宝塚市,30-02,宝塚市中筋1-11,中筋1丁目12付近　三叉路ガードレール,34.8202558,135.3740952
兵庫県,宝塚市,30-03,宝塚市中山寺1-16,中山寺児童公園植え込み,34.8181789,135.3700558
兵庫県,宝塚市,30-04,宝塚市中山寺2-7,阪急中山観音駅北側フェンス,34.8195047,135.3690276
兵庫県,宝塚市,30-05,宝塚市中筋山手2-8,中筋山手二丁目バス停横ガードフェンス,34.8252973,135.3681332
兵庫県,宝塚市,30-06,宝塚市中山寺3-1,中山皿池公園入口北側フェンス,34.8186617,135.3664573
兵庫県,宝塚市,30-07,宝塚市売布東の町15,ドラッグストアライフォート中山店東側足洗川ガードレール,34.8180315,135.3671917
兵庫県,宝塚市,31-01,宝塚市御殿山3-18,旭橋欄干,34.8177816,135.3406154
兵庫県,宝塚市,31-02,宝塚市桜ガ丘5,桜ガ丘第1公園西側フェンス,34.8167264,135.3384871
兵庫県,宝塚市,31-03,宝塚市川面5-18,池田自治会館前ガ－ドパイプ,34.8143635,135.3393678
兵庫県,宝塚市,31-04,宝塚市桜ガ丘6,桜ガ丘6-17付近　ガードレール,34.817113,135.3388357
兵庫県,宝塚市,32-01,宝塚市野上4-4,旧市営野上住宅前支多々川ガ－ドパイプ,34.7961785,135.3431843
兵庫県,宝塚市,32-02,宝塚市野上4-8,野上4丁目21-21付近　ガードパイプ,34.7953196,135.3423769
兵庫県,宝塚市,32-03,宝塚市野上3-10,野上3丁目公園植え込み,34.7926946,135.3414962
兵庫県,宝塚市,32-04,宝塚市野上6-2-1,西山小学校裏門フェンス,34.7906182,135.3409049
兵庫県,宝塚市,32-05,宝塚市野上6-3,野上第二公園南側フェンス,34.7896564,135.3403219
兵庫県,宝塚市,32-06,宝塚市野上6-4,逆瀬川団地前バス停西側・宝塚ゴルフ場フェンス,34.789102,135.3403219
兵庫県,宝塚市,32-07,宝塚市野上6-5,聖隷デイサービス結い前広報板横,34.7906938,135.3393876
兵庫県,宝塚市,33-01,宝塚市売布1-16,東洋工業所宝塚営業所横ガードパイプ,34.8117997,135.3628592
兵庫県,宝塚市,33-02,宝塚市売布2-5,阪急売布神社駅前踏切横植え込みフェンス,34.8151061,135.3611703
兵庫県,宝塚市,33-03,宝塚市売布1-25,売布公園西側ガードパイプ,34.8135633,135.3632263
兵庫県,宝塚市,33-04,宝塚市売布1-4,売布西公園向かい市道666号線ガードレール,34.813204,135.3608032
兵庫県,宝塚市,33-05,宝塚市売布東の町8,ジオ宝塚ブライトサイト向かいガードフェンス,34.8167832,135.3634466
兵庫県,宝塚市,33-06,宝塚市売布東の町5,芦田歯科前ガードパイプ,34.8154981,135.3638137
兵庫県,宝塚市,33-07,宝塚市売布1-7,売布会館前市道666号線フェンス,34.8134432,135.3611703
兵庫県,宝塚市,34-01,宝塚市御殿山2-1,地域利用施設御殿山会館前ガ－ドレ－ル,34.8127217,135.3488363
兵庫県,宝塚市,34-02,宝塚市川面6-27,市営川面第2住宅1号棟前ガードレール,34.8140229,135.3426705
兵庫県,宝塚市,34-03,宝塚市御殿山3-6,フレール宝塚御殿山東側防火水槽奥フェンス,34.8165207,135.3431848
兵庫県,宝塚市,34-04,宝塚市御殿山2-14,御殿山公園東側ガードレール,34.8148009,135.3447991
兵庫県,宝塚市,34-05,宝塚市御殿山2-31,こだま病院向かいガードフェンス,34.8160625,135.3470746
兵庫県,宝塚市,34-06,宝塚市川面6-4,川面公園フェンス,34.7999842,135.3602593
兵庫県,宝塚市,34-07,宝塚市御殿山2-31,御殿山マンション横御殿山第4公園フェンス,34.8160625,135.3470746
兵庫県,宝塚市,34-08,宝塚市川面4-10,川面第5公園フェンス,34.8123775,135.3446523
兵庫県,宝塚市,35-01,宝塚市旭町1-17,ＪＲ高架下フェンス,34.8093347,135.3518461
兵庫県,宝塚市,35-02,宝塚市鶴の荘8,鶴の荘公園北側ガードレール,34.8077799,135.3591144
兵庫県,宝塚市,35-03,宝塚市旭町2-12-24,鈴彩館西側ガードフェンス,34.809084,135.3559932
兵庫県,宝塚市,35-04,宝塚市旭町2-22,旭町会館東側道路ガードレール,34.8097659,135.3578662
兵庫県,宝塚市,35-05,宝塚市向月町18,宝楽橋南西ガードフェンス,34.8078646,135.3612437
兵庫県,宝塚市,35-06,宝塚市鶴の荘7,鶴の荘7-11付近　ガードパイプ,34.8078072,135.3599221
兵庫県,宝塚市,35-07,宝塚市旭町1-10,宝塚清荒神ヒルズ南側道路ガードレール,34.8096157,135.3552966
兵庫県,宝塚市,36-01,宝塚市光ガ丘1-1,光ガ丘1丁目2-21付近　ガードレール,34.798338,135.3340838
兵庫県,宝塚市,36-02,宝塚市光ガ丘1-8,光ガ丘1丁目公園北側ガードレール,34.799968,135.3338637
兵庫県,宝塚市,36-03,宝塚市青葉台1-1,宝梅園団地集会所向かいガードレール,34.7976047,135.3347443
兵庫県,宝塚市,36-04,宝塚市宝梅3-4-20,宝梅中学校北側ガードレール,34.7977188,135.3367171
兵庫県,宝塚市,36-05,宝塚市宝松苑14,宝松公園南側フェンス,34.7986663,135.3400283
兵庫県,宝塚市,36-06,宝塚市宝梅2-6,宝梅2丁目児童公園北側フェンス,34.7973617,135.3387072
兵庫県,宝塚市,37-01,宝塚市逆瀬川2-8,逆瀬川公園フェンス,34.7940328,135.346781
兵庫県,宝塚市,37-02,宝塚市寿楽荘9-1,寿楽荘9-23　空地フェンス,34.7992323,135.3425971
兵庫県,宝塚市,37-03,宝塚市宝梅1-11,宝梅公園北側フェンス,34.7969772,135.3429641
兵庫県,宝塚市,37-04,宝塚市野上1-3,第一小学校東側向かい阪急電鉄フェンス,34.7999185,135.3472214
兵庫県,宝塚市,37-05,宝塚市南口1-2,第一小学校西側支多々川沿い前ガードレール,34.8002767,135.3459001
兵庫県,宝塚市,37-06,宝塚市宝梅2-3,旭ガ丘加圧所西側フェンス,34.7954491,135.3395146
兵庫県,宝塚市,37-07,宝塚市逆瀬川2-1,阪急逆瀬川駅北側川沿いガードフェンス,34.7975009,135.3502311
兵庫県,宝塚市,37-08,宝塚市宝梅1-5,宝梅1丁目5-2付近　ガードレール,34.7979642,135.3449459
兵庫県,宝塚市,37-09,宝塚市中州1-14,タイムズアピアきた駐車場フェンス,34.799577,135.3505247
兵庫県,宝塚市,37-10,宝塚市中州2-11,中州公園西側フェンス,34.8031616,135.3525802
兵庫県,宝塚市,37-11,宝塚市中州2-7,弁天橋欄干,34.8043814,135.3517727
兵庫県,宝塚市,38-01,宝塚市亀井町10-16,ＮＴＴ別館前ガードパイプ,34.793464,135.362483
兵庫県,宝塚市,38-02,宝塚市末成町1-1,末成小学校正門西側フェンス,34.791639,135.3619508
兵庫県,宝塚市,38-03,宝塚市末成町32,末成町32-2付近　ガードパイプ,34.7891537,135.3649886
兵庫県,宝塚市,38-04,宝塚市末成町35,末成町35-12付近　ガードパイプ,34.78995,135.3650621
兵庫県,宝塚市,38-05,宝塚市末成町1-1,末成小学校南側フェンス,34.791639,135.3619508
兵庫県,宝塚市,38-06,宝塚市末成町19,末成町19-4付近　ガードパイプ,34.7889743,135.3619046
兵庫県,宝塚市,39-01,宝塚市花屋敷松ガ丘21,松ガ丘公園内植え込み,34.8409955,135.4099509
兵庫県,宝塚市,39-02,宝塚市花屋敷荘園3-1-17,花屋敷荘園3-1-17付近　路肩,34.834092,135.4087926
兵庫県,宝塚市,39-03,宝塚市花屋敷荘園2-5,花屋敷荘園2-5-10付近　ガードレール,34.8366115,135.4081134
兵庫県,宝塚市,39-04,宝塚市花屋敷荘園4-2-35,花屋敷グラウンドフェンス,34.8388616,135.4053755
兵庫県,宝塚市,40-01,宝塚市中山五月台2,五月台第1公園北側フェンス,34.8336716,135.3692479
兵庫県,宝塚市,40-02,宝塚市中山桜台2-2,センター前バス停横ガードパイプ,34.8318885,135.3671917
兵庫県,宝塚市,40-03,宝塚市中山台1-21,中山山荘公園沿いガードレール,34.826823,135.3641809
兵庫県,宝塚市,40-04,宝塚市中山桜台1-6,桜台第1公園北側フェンス,34.8296232,135.3687339
兵庫県,宝塚市,40-05,宝塚市中山桜台1,中山台みどり公園フェンス,34.8302257,135.3671917
兵庫県,宝塚市,40-06,宝塚市中山台1-5,中山台1丁目5　エコの杜,34.8270845,135.3659433
兵庫県,宝塚市,40-07,宝塚市中山台2-4,中山台2丁目4-8付近　ガードレール,34.8267865,135.3682932
兵庫県,宝塚市,40-08,宝塚市中山五月台1-2,宝塚東高等学校ﾃﾆｽｺｰﾄ入口横ガードフェンス,34.8299931,135.3699823
兵庫県,宝塚市,40-09,宝塚市中山桜台2-11,桜台第2公園西側フェンス,34.831985,135.3641075
兵庫県,宝塚市,40-10,宝塚市中山五月台1-12,宝塚東高等学校プール西側ガードフェンス,34.8310206,135.3713043
兵庫県,宝塚市,40-11,宝塚市中筋山手7-8,中筋山手第7公園フェンス,34.8256738,135.3726262
兵庫県,宝塚市,41-01,宝塚市今里町10,今里第一児童遊園北西側フェンス,34.8155811,135.3699823
兵庫県,宝塚市,41-02,宝塚市今里町22,今里公園前ガードパイプ,34.8133257,135.3703495
兵庫県,宝塚市,41-03,宝塚市三笠町11,三笠公園北側フェンス,34.8139287,135.3688073
兵庫県,宝塚市,41-04,宝塚市星の荘13,星の荘公園北側植え込み,34.8145042,135.3664573
兵庫県,宝塚市,41-05,宝塚市星の荘30,ＪＲ星の荘踏切南側ガードレール,34.8158742,135.3682198
兵庫県,宝塚市,41-06,宝塚市星の荘30,いちょう筋沿い道路管理施設フェンス,34.8158742,135.3682198
兵庫県,宝塚市,42-01,宝塚市逆瀬台1-5,逆瀬台住宅1号棟西側フェンス,34.7892907,135.3347443
兵庫県,宝塚市,42-02,宝塚市逆瀬台1-5,逆瀬台1丁目バス停フェンス,34.7892907,135.3347443
兵庫県,宝塚市,42-03,宝塚市逆瀬台1-8,逆瀬川グリーンハイツＢ棟向かいガードレール,34.7891999,135.3327335
兵庫県,宝塚市,42-04,宝塚市ゆずり葉台1-1,宝塚西高等学校前バスロータリー植え込み,34.7895859,135.3249118
兵庫県,宝塚市,42-05,宝塚市ゆずり葉台2-2,空き地横ガードレール,34.7902064,135.3213168
兵庫県,宝塚市,42-06,宝塚市ゆずり葉台3-2,エデンの園バス停横ガードレール,34.7937289,135.3145678
兵庫県,宝塚市,42-07,宝塚市逆瀬台1-3,逆瀬川ﾏﾝｼｮﾝＢ棟北側白瀬川沿いガードレール,34.7893157,135.3359512
兵庫県,宝塚市,42-08,宝塚市ゆずり葉台2-9,石原橋ガードレール,34.7931896,135.3168418
兵庫県,宝塚市,43-01,宝塚市口谷東1-1,口谷東公園フェンス,34.8197847,135.3952526
兵庫県,宝塚市,43-02,宝塚市口谷東1-2,口谷東第2公園フェンス,34.8199097,135.3967222
兵庫県,宝塚市,43-03,宝塚市南ひばりガ丘2-7,南ひばりガ丘中学校校門横ガードレール,34.821622,135.3989267
兵庫県,宝塚市,43-04,宝塚市南ひばりガ丘2-12,グリーンコーポひばりガ丘前最明寺川沿いガードレール,34.8207631,135.3981184
兵庫県,宝塚市,43-05,宝塚市南ひばりガ丘2-11,阪急電鉄平井車庫東側フェンス,34.8211546,135.3970162
兵庫県,宝塚市,43-06,宝塚市南ひばりガ丘3-27,最明寺川沿い南側ガードレール,34.8206842,135.3991472
兵庫県,宝塚市,44-01,宝塚市仁川旭ガ丘4,仁川旭ガ丘4-15付近　ガ－ドレ－ル,34.7775209,135.3488363
兵庫県,宝塚市,44-02,宝塚市仁川旭ガ丘6,仁川旭ガ丘前バス停向かいガードレール,34.7770072,135.3481757
兵庫県,宝塚市,44-03,宝塚市仁川高丸2-10,仁川高丸2丁目10-9付近　ガードパイプ,34.7751536,135.3462671
兵庫県,宝塚市,44-04,宝塚市仁川高丸1-11,仁川高丸1丁目11-19付近　ガードレール,34.7780509,135.3477352
兵庫県,宝塚市,44-05,宝塚市仁川高丸2-5,仁川高丸公園北側フェンス,34.7767109,135.3464873
兵庫県,宝塚市,44-06,宝塚市仁川高台2-1,イエズス会フェンス,34.7752325,135.3489831
兵庫県,宝塚市,45-01,宝塚市青葉台2-3,青葉台2丁目3-19付近　ガードフェンス,34.7977287,135.3324694
兵庫県,宝塚市,45-02,宝塚市逆瀬台3-5,逆瀬台3丁目公園東側ガードレール,34.7915562,135.3332032
兵庫県,宝塚市,45-03,宝塚市逆瀬台3-11,逆瀬台4丁目公園向かい白瀬川ガードパイプ,34.78973,135.3321025
兵庫県,宝塚市,45-04,宝塚市逆瀬台5-14,逆瀬台5丁目第2公園南側向かいガードレール,34.7935733,135.336212
兵庫県,宝塚市,45-05,宝塚市逆瀬台5-4,逆瀬台5丁目第1公園西側ガードレール,34.7917366,135.3362854
兵庫県,宝塚市,45-06,宝塚市逆瀬台2-9,白瀬下配水池加圧所北側フェンス,34.7915392,135.331222
兵庫県,宝塚市,45-07,宝塚市青葉台1-20,青葉台第1公園ガードレール,34.7954438,135.3323227
兵庫県,宝塚市,46-01,宝塚市末広町3,末広自転車返還所南側植え込み,34.8016274,135.3574991
兵庫県,宝塚市,46-02,宝塚市伊孑志4-1,伊孑志第3公園フェンス,34.7978667,135.359555
兵庫県,宝塚市,46-03,宝塚市亀井町1,旧小林浄水場北側ガードパイプ,34.7961221,135.3608766
兵庫県,宝塚市,46-04,宝塚市伊孑志3-14,伊孑志3丁目公園植え込み,34.7981599,135.3577928
兵庫県,宝塚市,46-05,宝塚市東洋町8,東洋町公園西側フェンス,34.7952853,135.3652089
兵庫県,宝塚市,46-06,宝塚市東洋町1,市役所正面玄関東側ガードパイプ,34.7998017,135.3601424
兵庫県,宝塚市,46-07,宝塚市東洋町1,市役所西側旧上下水道局庁舎前ガードパイプ,34.7998017,135.3601424
兵庫県,宝塚市,46-08,宝塚市末広町3,末広小学校北東側ガードフェンス,34.8016274,135.3574991
兵庫県,宝塚市,46-09,宝塚市末広町3,末広中央公園北東側ガードフェンス,34.8016274,135.3574991
兵庫県,宝塚市,46-10,宝塚市東洋町2,市役所北東側ガードパイプ,34.798954,135.3619046
兵庫県,宝塚市,46-11,宝塚市伊孑志3-14,伊孑志第一公園フェンス,34.7981599,135.3577928
兵庫県,宝塚市,46-12,宝塚市逆瀬川1-16,逆瀬川1丁目第二公園フェンス,34.8013221,135.3529473
兵庫県,宝塚市,46-13,宝塚市逆瀬川1-2,阪急逆瀬川駅北東側入口ガードフェンス,34.7975989,135.3508918
兵庫県,宝塚市,47-01,宝塚市千種3,千種3丁目22付近　宝塚ゴルフ場フェンス,34.7895167,135.3481022
兵庫県,宝塚市,47-02,宝塚市千種2-1,阪急小林駅ホ－ム北橋西側ガードレール,34.7898271,135.3520663
兵庫県,宝塚市,47-03,宝塚市千種2-2,千種1丁目8-30付近　道路沿い植え込み,34.7903975,135.3503045
兵庫県,宝塚市,47-04,宝塚市千種3-4,緑地植え込み,34.7910818,135.3474416
兵庫県,宝塚市,47-05,宝塚市千種3-3,千種3丁目3付近　鉄塔敷フェンス,34.7908103,135.3487262
兵庫県,宝塚市,47-06,宝塚市千種4-7,千種4丁目公園前ガードレール,34.7923751,135.3461937
兵庫県,宝塚市,47-07,宝塚市千種4-13,逆瀬下配水池北西側フェンス,34.7928041,135.3447257
兵庫県,宝塚市,48-01,宝塚市中山五月台6-1,県公社中山五月台住宅26号棟南側フェンス,34.8409073,135.365723
兵庫県,宝塚市,48-02,宝塚市中山五月台6-1,県公社中山五月台住宅内青青公園フェンス,34.8409073,135.365723
兵庫県,宝塚市,48-03,宝塚市中山五月台6-1,県公社中山五月台住宅14号棟南側フェンス,34.8409073,135.365723
兵庫県,宝塚市,48-04,宝塚市中山五月台5-2,UR都市機構中山五月台団地16号棟南側のり面,34.8397784,135.3680729
兵庫県,宝塚市,48-05,宝塚市中山五月台5-2,UR都市機構中山五月台団地北側入口植え込み,34.8397784,135.3680729
兵庫県,宝塚市,48-06,宝塚市中山五月台5-2,UR都市機構中山五月台団地東側ガードフェンス,34.8397784,135.3680729
兵庫県,宝塚市,49-01,宝塚市ふじガ丘3,ふじガ丘2-1付近　ガードレール,34.836441,135.3888603
兵庫県,宝塚市,49-02,宝塚市花屋敷つつじガ丘4,つつじガ丘公園植え込み,34.8348203,135.4031891
兵庫県,宝塚市,49-03,宝塚市長尾台1-1-1,長尾台小学校下手フェンス,34.8349493,135.4000015
兵庫県,宝塚市,49-04,宝塚市長尾台2-10,長尾台2丁目公園階段下空地,34.8371272,135.3972366
兵庫県,宝塚市,49-05,宝塚市ふじガ丘27,ふじガ丘公園東側フェンス下擁壁,34.8359166,135.3893746
兵庫県,宝塚市,50-01,宝塚市売布3-20,売布橋西詰めガードフェンス,34.8139637,135.3572055
兵庫県,宝塚市,50-02,宝塚市売布3-11,売布郵便局向かい阪急電鉄フェンス,34.8146983,135.3602892
兵庫県,宝塚市,50-03,宝塚市売布4-2,菰池東側ガードレール,34.8176672,135.3625485
兵庫県,宝塚市,50-04,宝塚市売布4-2,菰池南西側ガードフェンス,34.8176672,135.3625485
兵庫県,宝塚市,50-05,宝塚市売布山手町7,売布山手町7　階段上広報板付近,34.8195665,135.3582334
兵庫県,宝塚市,50-06,宝塚市売布ガ丘8,売布ガ丘8　関電鉄塔西側フェンス,34.8163435,135.3564346
兵庫県,宝塚市,50-07,宝塚市売布4-2,売布4丁目公園向かい菰池北側ガードレール,34.8176672,135.3625485
兵庫県,宝塚市,50-08,宝塚市売布自由ガ丘,売布自由ガ丘公園北側フェンス,34.8197991,135.3554434
兵庫県,宝塚市,51-01,宝塚市安倉西2-1,安倉西公園南側フェンス,34.7979707,135.3708636
兵庫県,宝塚市,51-02,宝塚市安倉西2-1,総合福祉センタ－バス停後方フェンス,34.7979707,135.3708636
兵庫県,宝塚市,51-03,宝塚市安倉西2-1,総合福祉センタ－北側フェンス,34.7979707,135.3708636
兵庫県,宝塚市,51-04,宝塚市安倉西3-9,市営鳥島団地集会所前,34.7947743,135.3717449
兵庫県,宝塚市,51-05,宝塚市小浜2-5,小浜第2公園入口フェンス,34.800922,135.3664573
兵庫県,宝塚市,52-01,宝塚市中山桜台4-17,中山桜台4丁目17-14付近　ガードパイプ,34.8358343,135.3635935
兵庫県,宝塚市,52-02,宝塚市中山桜台4-21,中山桜台4丁目21-6付近　ガードパイプ,34.8364167,135.3603626
兵庫県,宝塚市,52-03,宝塚市中山桜台6,中山桜台7丁目入口道路フェンス,34.8381671,135.3621983
兵庫県,宝塚市,52-04,宝塚市中山桜台4-12,中山桜台公園フェンス,34.8350589,135.3611703
兵庫県,宝塚市,52-05,宝塚市中山桜台4-18,中山桜台4丁目18-7付近　ガードパイプ,34.8362525,135.3632997
兵庫県,宝塚市,52-06,宝塚市中山桜台4-25-1,旧中山桜台幼稚園　フェンス,34.8346692,135.3597736
兵庫県,宝塚市,52-07,宝塚市中山桜台7-6,桜台第3公園向かいガードレール,34.8385781,135.3587473
兵庫県,宝塚市,53-01,宝塚市中山五月台7-2,サンハイツ宝塚五月台A棟東側フェンス,34.8413009,135.3602892
兵庫県,宝塚市,53-02,宝塚市中山五月台7-2,サンハイツ宝塚五月台入口ガードフェンス,34.8413009,135.3602892
兵庫県,宝塚市,53-03,宝塚市中山桜台6-17,五月台7丁目バス停南側ガ－ドレ－ル,34.8405955,135.3617577
兵庫県,宝塚市,53-04,宝塚市中山桜台6-,中山中央公園北側入口付近フェンス,34.8381671,135.3621983
兵庫県,宝塚市,53-05,宝塚市中山桜台6,中山中央公園西側のり面フェンス,34.8381671,135.3621983
兵庫県,宝塚市,54-01,宝塚市すみれガ丘1-5,すみれガ丘小学校正門横ガードフェンス,34.8201843,135.3431109
兵庫県,宝塚市,54-02,宝塚市すみれガ丘1-4,すみれガ丘1丁目バス停横ガードフェンス,34.8204113,135.340909
兵庫県,宝塚市,54-03,宝塚市御殿山4-9,高台下配水池加圧所フェンス,34.8197155,135.3452395
兵庫県,宝塚市,54-04,宝塚市御殿山4-20,御殿山第3公園北側フェンス,34.8195878,135.347043
兵庫県,宝塚市,54-05,宝塚市すみれガ丘2-2,ラ・ビスタサウステラス2番館北側ガードフェンス,34.8226933,135.3413494
兵庫県,宝塚市,54-06,宝塚市すみれガ丘1-7,ラ・ビスタサウステラス2番館西側フェンス,34.8217966,135.340909
兵庫県,宝塚市,54-07,宝塚市御殿山4-1,御殿山4丁目バス停東中国道側フェンス,34.8180177,135.3453129
兵庫県,宝塚市,55-01,宝塚市小浜1-1,スポーツセンターバス停横フェンス,34.8018035,135.3628959
兵庫県,宝塚市,55-02,宝塚市小浜1-1,小浜一丁目バス停西側フェンス,34.8018035,135.3628959
兵庫県,宝塚市,55-03,宝塚市小浜3-1,宝塚郵便局北側ガードパイプ,34.8037369,135.3617577
兵庫県,宝塚市,55-04,宝塚市美座2-10-1,美座会館南側フェンス,34.804304,135.3574808
兵庫県,宝塚市,55-05,宝塚市美座2-6-1,美座小学校北側フェンス,34.8042962,135.3580964
兵庫県,宝塚市,55-06,宝塚市旭町3-7,宝塚ニューライフ横旭町公園入口フェンス,34.8061275,135.3579397
兵庫県,宝塚市,55-07,宝塚市小浜3-5,水道局小浜浄水場南側ガードパイプ,34.8047257,135.3597018
兵庫県,宝塚市,56-01,宝塚市安倉北4-3,上ノ池公園西側植え込み,34.8094998,135.3722162
兵庫県,宝塚市,56-02,宝塚市安倉北4-3,上ノ池公園北東側植え込み,34.8094998,135.3722162
兵庫県,宝塚市,56-03,宝塚市安倉北4-3,上ノ池公園南側植え込み,34.8094998,135.3722162
兵庫県,宝塚市,56-04,宝塚市安倉北2-11,山ノ上住宅横公園植え込み,34.8046401,135.369101
兵庫県,宝塚市,56-05,宝塚市安倉北5-1-1,安倉北小学校校門横フェンス,34.8060805,135.3740309
兵庫県,宝塚市,56-06,宝塚市安倉北4-3,安倉北4丁目3　安倉上池西側フェンス,34.8094998,135.3722162
兵庫県,宝塚市,56-07,宝塚市安倉北2-1,中ノ池東側ガードレール,34.8042007,135.3686538
兵庫県,宝塚市,57-01,宝塚市鹿塩1-16,メロディハイム仁川ガーデンズ向かいガードパイプ,34.781886,135.3564713
兵庫県,宝塚市,57-02,宝塚市鹿塩1-4,鹿塩1丁目第2公園内西側,34.7812119,135.3544156
兵庫県,宝塚市,57-03,宝塚市鹿塩2-2,鹿塩公園フェンス,34.7782928,135.3552966
兵庫県,宝塚市,57-04,宝塚市鹿塩2-10,ドルフ宝塚東側ガードパイプ,34.7787303,135.3566915
兵庫県,宝塚市,57-05,宝塚市駒の町1,阪神競馬場東入場門横フェンス,34.7772009,135.3600205
兵庫県,宝塚市,57-06,宝塚市駒の町1,阪神競馬場バス停横植え込み,34.7772009,135.3600205
兵庫県,宝塚市,57-07,宝塚市駒の町1,阪神競馬場北西側ガードレール,34.7772009,135.3600205
兵庫県,宝塚市,58-01,宝塚市山手台東2-4,山手台東2丁目公園中央フェンス,34.8313381,135.3784287
兵庫県,宝塚市,58-02,宝塚市山手台東1-24,山手台2丁目バス停上手ガードフェンス,34.8290668,135.378483
兵庫県,宝塚市,58-03,宝塚市山本台3-13,中筋上配水池フェンス,34.8253543,135.3773269
兵庫県,宝塚市,58-04,宝塚市山手台西2-27,山手台西2丁目公園東側フェンス,34.8303211,135.3759314
兵庫県,宝塚市,58-05,宝塚市山手台西4,宝塚山手台北公園バス停向かいガードフェンス,34.8369555,135.3739483
兵庫県,宝塚市,58-06,宝塚市山手台西3-2,山手台西3丁目2　南側ガードフェンス,34.8329736,135.3776207
兵庫県,宝塚市,58-07,宝塚市山手台東1,山手台東1丁目公園フェンス,34.8263499,135.382175
兵庫県,宝塚市,58-08,宝塚市山手台東1,山手台南公園北側ガードパイプ,34.8263499,135.382175
兵庫県,宝塚市,58-09,宝塚市山手台西4,阪急バス宝塚山手台4丁目バス停フェンス,34.8369555,135.3739483
兵庫県,宝塚市,58-10,宝塚市山手台西4-13,県営宝塚切畑住宅北東側ガードフェンス,34.8357816,135.3735076
兵庫県,宝塚市,58-11,宝塚市山手台西1-4-1,山手台中学校北側　市道フェンス,34.8284783,135.3776421
兵庫県,宝塚市,58-12,宝塚市山手台西3-1-1,山手台小学校南側植込み,34.8331959,135.3760048
兵庫県,宝塚市,58-13,宝塚市山手台西4,山手台中央公園北側フェンス,34.8369555,135.3739483
兵庫県,宝塚市,58-14,宝塚市山手台西1-4-1,山手台中学校東門南側フェンス,34.8284783,135.3776421
兵庫県,宝塚市,58-15,宝塚市山手台東5-11-2,山手台東5丁目きんもくせい公園西側フェンス,34.8400474,135.3742898
兵庫県,宝塚市,58-16,宝塚市山手台東5-30,山手台東5丁目長尾山トンネル前フェンス,34.8412388,135.3713777
兵庫県,宝塚市,58-17,宝塚市山手台東3-7,山手台東3丁目7付近ガードパイプ,34.8330531,135.3803385
兵庫県,宝塚市,58-01,宝塚市山手台東3-,山手台東3丁目紅葉公園北側市道4499号ガードパイプ,34.8352403,135.3798244
兵庫県,宝塚市,59-02,宝塚市山本南1-3,ＪＲ宝塚線高架下フェンス,34.8165259,135.3841584
兵庫県,宝塚市,59-03,宝塚市山本南2-10-1,長尾南小学校東側フェンス,34.8172972,135.3911655
兵庫県,宝塚市,59-04,宝塚市山本南1-30,セコイア山本向かいガードパイプ,34.8169364,135.3884929
兵庫県,宝塚市,59-05,宝塚市山本南3-12,山本南第3公園フェンス,34.8189748,135.3929013
兵庫県,宝塚市,59-06,宝塚市長尾町11,長尾町第2公園植え込み,34.8133867,135.3826158
兵庫県,宝塚市,59-07,宝塚市口谷西1-4-1,ベレオ宝塚西側ガードパイプ,34.8172298,135.3942239
兵庫県,宝塚市,59-08,宝塚市山本南1,山本南保育園北側ＪＲ線高架下ガ－ドレ－ル,34.8163276,135.3868766
兵庫県,宝塚市,60-01,宝塚市光明町15-22,光明町15-22付近　御所下水路ガードパイプ,34.7893052,135.3610834
兵庫県,宝塚市,60-02,宝塚市光明町20-5,光明町20-5付近　ガードパイプ,34.7898401,135.358798
兵庫県,宝塚市,60-03,宝塚市光明町3,光明第三公園フェンス,34.7911431,135.3597018
兵庫県,宝塚市,60-04,宝塚市光明町8-40,光明小学校北側フェンス,34.7916639,135.3572919
兵庫県,宝塚市,60-05,宝塚市光明町26,光明第2公園西側植え込み,34.7884307,135.3607298
兵庫県,宝塚市,60-06,宝塚市光明町8-40,光明小学校正門北側フェンス,34.7916639,135.3572919
兵庫県,宝塚市,61-01,宝塚市山本野里1-6,県営宝塚山本野里団地集会所横水路フェンス,34.8086404,135.3936361
兵庫県,宝塚市,61-02,宝塚市山本野里2-5,山本野里会館フェンス,34.8093683,135.3973101
兵庫県,宝塚市,61-03,宝塚市山本野里2-7,山本野里2丁目公園植え込み,34.8081345,135.3958404
兵庫県,宝塚市,61-04,宝塚市山本野里3,伊丹バス野里バス停ガードレール,34.8095416,135.4009844
兵庫県,宝塚市,61-05,宝塚市山本野里3-27,自衛隊団地集会所西側フェンス,34.808237,135.3996616
兵庫県,宝塚市,61-06,宝塚市山本野里1-6,県営宝塚山本野里団地13号棟前植え込み,34.8086404,135.3936361