prefecture,city,number,address,name,lat,long,note
兵庫県,尼崎市,1,南城内10-2明城小学校 西側植込み,明城小学校　西側植込み,34.714347,135.420544,
兵庫県,尼崎市,2,南城内10明城小学校 南門東,明城小学校　南門東,34.714347,135.420544,
兵庫県,尼崎市,3,大物町2-7若宮公園 北西側,若宮公園　北西側,34.716526,135.426562,
兵庫県,尼崎市,4,大物町1-19大物川緑地 大物線東側,大物川緑地　大物線東側,34.7138026,135.4279105,
兵庫県,尼崎市,5,大物町1-19-28着船橋こども広場(旧城内地域学習館北側),着船橋こども広場（旧城内地域学習館北側）,34.7136681,135.4255135,
兵庫県,尼崎市,6,築地5-2-8 地先築地戎橋緑地,築地戎橋緑地,34.7126601,135.4164089,
兵庫県,尼崎市,7,北初島町13 地先尼崎自動車教習所 南側ガ-ドレ-ル,尼崎自動車教習所　南側ガードレール,34.7069395,135.4218358,
兵庫県,尼崎市,8,神田中通1-4中央公園 中央芝生,中央公園　中央芝生,34.7193083,135.4165945,
兵庫県,尼崎市,9,南城内10-2琴ノ浦高等学校 北側,琴ノ浦高等学校　北側,34.715051,135.4212385,
兵庫県,尼崎市,10,開明町2-1開明庁舎 東玄関前,開明庁舎　東玄関前,34.7170563,135.4158683,
兵庫県,尼崎市,11,御園町54 地先阪神尼崎駅前駐車場 出入口北側,阪神尼崎駅前駐車場　出入口北側,34.718039,135.416836,
兵庫県,尼崎市,12,開明町2-1開明中公園 西側,開明中公園　西側,34.71694069999999,135.4155348,
兵庫県,尼崎市,13,開明町1-79開明公園 北東側,開明公園　北東側,34.7152863,135.41714,
兵庫県,尼崎市,14,御園町27番 地先阪神尼崎駅南有料自転車駐車場 西側植樹帯,阪神尼崎駅南有料自転車駐車場　西側植樹帯,34.7182306,135.416091,
兵庫県,尼崎市,15,宮内町3-180宮内公園 東側,宮内公園　東側,34.7205301,135.4027925,
兵庫県,尼崎市,16,竹谷町3-104 地先蓬川緑地公園 コンフォ-ト出屋敷西側,蓬川緑地公園　コンフォート出屋敷西側,34.7193103,135.4020952,
兵庫県,尼崎市,17,竹谷町3-182 地先阪神電鉄高架下フェンス(竹谷連協会館横),阪神電鉄高架下フェンス（竹谷連協会館横）,34.7192896,135.4145642,緯度経度は怪しい
兵庫県,尼崎市,18,竹谷町2-183番 地先出屋敷駅北緑地 東側,出屋敷駅北緑地　東側,34.7185855,135.404972,
兵庫県,尼崎市,19,玄番南之町13 地先阪神電鉄高架下フェンス(郵便局南),阪神電鉄高架下フェンス(郵便局南),34.7192896,135.4145642,緯度経度は怪しい
兵庫県,尼崎市,20,南竹谷町2-85 地先出屋敷公園,出屋敷公園,34.7179398,135.4051685,
兵庫県,尼崎市,21,西向島町24タルタニモ-タ-プ-ル 東側,タルタニモータープール　東側,34.71375,135.4086279,緯度経度は怪しい
兵庫県,尼崎市,22,西本町5-32西本町住宅 北東角,masked,34.7152362,135.4124501,
兵庫県,尼崎市,23,神田中通3-83神田公園 戎神社鳥居北東側 翼モ-タ-プ-ル前,神田公園　戎神社鳥居北東側　翼モータープール前,34.7195389,135.4132191,
兵庫県,尼崎市,24,神田中通1-4中央公園 中央商店街入口前,中央公園　中央商店街入口前,34.7193083,135.4165945,
兵庫県,尼崎市,25,西御園町93中央南生涯学習プラザ 東側正面入口横,中央南生涯学習プラザ　東側正面入口横,34.7188923,135.4131556,
兵庫県,尼崎市,26,西御園町93中央南生涯学習プラザ 南側,中央南生涯学習プラザ　南側,34.7188923,135.4131556,
兵庫県,尼崎市,27,西御園町147-3阪神電鉄高架下フェンス(消防団左側),阪神電鉄高架下フェンス（消防団左側）,34.718777,135.410197,緯度経度は怪しい
兵庫県,尼崎市,28,玄番南之町4番 地先南出屋敷会館 前,南出屋敷会館　前,34.7174206,135.4084992,
兵庫県,尼崎市,29,北大物町18-1県立尼崎高等学校 北西側,県立尼崎高等学校　北西側,34.721977,135.426179,
兵庫県,尼崎市,30,西長洲町2-33-22成良中学校 南門西側,成良中学校　南門西側,34.7218602,135.4215024,
兵庫県,尼崎市,31,北大物町1大物第八子ども広場,大物第八子ども広場,34.7207347,135.4271793,
兵庫県,尼崎市,32,西大物町12-41アマゴッタ 西側 防護柵,アマゴッタ　西側　防護柵,34.7186111,135.4191667,
兵庫県,尼崎市,33,西大物町12西大物公園 北側,西大物公園　北側,34.7192334,135.4196115,
兵庫県,尼崎市,34,昭和通2-7 地先庄下川公園 南側,庄下川公園　南側,34.7215044,135.4199639,
兵庫県,尼崎市,35,東大物町1大物川緑地 北側(大物派出所前),大物川緑地　北側（大物派出所前）,34.7138026,135.4279105,緯度経度は怪しい
兵庫県,尼崎市,36,東大物町2東大物公園 北側,東大物公園　北側,34.7173401,135.4235996,
兵庫県,尼崎市,37,東難波町4-1東難波子ども広場,東難波子ども広場,34.7256735,135.4094218,
兵庫県,尼崎市,38,東難波町4-9-25総合老人福祉センタ- 南側,総合老人福祉センター　南側,34.7252624,135.4129735,
兵庫県,尼崎市,39,東難波町4-3-40難波小学校 北門,難波小学校　北門,34.7241905,135.4100437,
兵庫県,尼崎市,40,東難波町4-3-40難波小学校 西門,難波小学校　西門,34.7241905,135.4100437,
兵庫県,尼崎市,41,東難波町4-3-40難波小学校 南門,難波小学校　南門,34.7241905,135.4100437,
兵庫県,尼崎市,42,東難波町5-8-1喫茶「蜜」東横 駐車場金網,喫茶「蜜」東横　駐車場金網,34.722693,135.41207,
兵庫県,尼崎市,43,西難波町3-9-4西難波福社会館,西難波福社会館,34.7282077,135.4062759,緯度経度は怪しい
兵庫県,尼崎市,44,西難波町3-17-1地先入江橋歩道橋 東側 蓬川緑地 東側,入江橋歩道橋　東側　蓬川緑地　東側,34.7282077,135.4062759,緯度経度は怪しい
兵庫県,尼崎市,45,昭和南通9-258天理教琴城分教会 東側,天理教琴城分教会　東側,34.723607,135.402993,
兵庫県,尼崎市,46,昭和南通8-280昭和通モ-タ-プ-ル 南側,昭和通モータープール　南側,34.7219938,135.4099509,緯度経度は怪しい
兵庫県,尼崎市,47,神田南通6-38-190地先蓬川橋東側 蓬川緑地,蓬川橋東側　蓬川緑地,34.72151840000001,135.4020128,
兵庫県,尼崎市,48,北竹谷町2-36竹谷小学校 北西角,竹谷小学校　北西角,34.7205807,135.4062273,
兵庫県,尼崎市,49,北竹谷町2-36竹谷小学校 東門(バス停後),竹谷小学校　東門（バス停後）,34.7205807,135.4062273,
兵庫県,尼崎市,50,神田北通9-244地先蓬川緑地公園 トミタ宅向側,masked,34.72151840000001,135.4020128,
兵庫県,尼崎市,51,竹谷町1-2地先阪神電鉄高架下フェンス(旭時計店前),阪神電鉄高架下フェンス（旭時計店前）,34.718446,135.407134,
兵庫県,尼崎市,52,西難波町2-6西難波公園 北側,西難波公園　北側,34.7288,135.4050863,
兵庫県,尼崎市,53,西難波町2-11-18蓬川モ-タ-プ-ル 東側,蓬川モータープール　東側,34.7282077,135.4062759,緯度経度は怪しい
兵庫県,尼崎市,54,西難波町5-10梅の木公園 南側,梅の木公園　南側,34.7277151,135.4076555,
兵庫県,尼崎市,55,西難波町5-10梅の木公園 北側,梅の木公園　北側,34.7277151,135.4076555,
兵庫県,尼崎市,56,東難波町3-4関西電力送配電(株)尼崎電力所車庫 東側,関西電力送配電㈱尼崎電力所車庫　東側,34.7277172,135.409283,
兵庫県,尼崎市,57,西難波町5-8難波愛の園幼稚園 西側,難波愛の園幼稚園　西側,34.7263353,135.4079526,
兵庫県,尼崎市,58,東難波町3-6東難波第3子ども広場,東難波第３子ども広場,34.7264688,135.4101946,
兵庫県,尼崎市,59,西難波町6-1市役所第2駐車場 北側西角,市役所第２駐車場　北側西角,34.7282077,135.4062759,緯度経度は怪しい
兵庫県,尼崎市,60,西難波町6-5県営尼崎西難波鉄筋住宅,masked,34.7307264,135.4067675,
兵庫県,尼崎市,61,西難波町6-12-1旧たじかの園(旧北難波保育所) 西側,旧たじかの園（旧北難波保育所）　西側,34.730119,135.4076356,
兵庫県,尼崎市,62,西難波町1-7西難波北公園,西難波北公園,34.7318238,135.4045416,
兵庫県,尼崎市,63,東難波町1-2芦原橋公園 南側,芦原橋公園　南側,34.7324715,135.4124101,
兵庫県,尼崎市,64,西難波町6-14-57難波の梅小学校 東門,難波の梅小学校　東門,34.7322782,135.4077746,
兵庫県,尼崎市,65,西難波町6-14-57難波の梅小学校 北側(橋公園バス停前),難波の梅小学校　北側（橋公園バス停前）,34.7322782,135.4077746,
兵庫県,尼崎市,66,東難波町3-14東難波公園北側 道路沿い,東難波公園北側　道路沿い,34.7290206,135.4112024,
兵庫県,尼崎市,67,東難波町3-25県営東難波高層住宅 北西,masked,34.7289465,135.4144908,
兵庫県,尼崎市,68,東難波町3-26庄下川 西側 緑地帯,庄下川　西側　緑地帯,34.7279089,135.4149494,
兵庫県,尼崎市,69,東難波町3-20中通公園東側 バス停南側,中通公園東側　バス停南側,34.7264032,135.4137611,
兵庫県,尼崎市,70,東難波町5-25難波新町公園,難波新町公園,34.7241459,135.4175507,
兵庫県,尼崎市,71,東難波町4-21東難波4丁目子ども広場 東側,東難波４丁目子ども広場　東側,34.7261772,135.4160666,
兵庫県,尼崎市,72,東難波町5-13-17中難波公園 東側,中難波公園　東側,34.7234583,135.4145319,
兵庫県,尼崎市,73,東難波町5-21-8阪神南県民センタ- 駐車場北側,阪神南県民センター 駐車場北側,34.7237567,135.4150851,
兵庫県,尼崎市,74,下坂部3-20佐野宅 北東側,masked,34.7429521,135.4361253,
兵庫県,尼崎市,75,下坂部3-16溝手公園 西側,溝手公園 西側,34.7406176,135.4374271,
兵庫県,尼崎市,76,下坂部2-3下坂部公園 北側,下坂部公園 北側,34.742309,135.434445,
兵庫県,尼崎市,77,下坂部4-1 地先大日電気工業 西側,大日電気工業 西側,34.7441656,135.4345832,
兵庫県,尼崎市,78,下坂部1-12下坂部小学校 東側,下坂部小学校 東側,34.7423198,135.4368608,緯度経度は怪しい
兵庫県,尼崎市,79,下坂部1-12下坂部小学校 西側,下坂部小学校 西側,34.7423198,135.4368608,緯度経度は怪しい
兵庫県,尼崎市,80,下坂部3-16溝手公園東側,溝手公園東側,34.7406176,135.4374271,
兵庫県,尼崎市,81,善法寺町18善法寺公園 東側,善法寺公園 東側,34.748253,135.4458356,
兵庫県,尼崎市,82,善法寺町24ル・ソレイユ 西側,ル・ソレイユ 西側,34.7471393,135.4470111,
兵庫県,尼崎市,83,額田町11額田公園 東側,額田公園 東側,34.7448995,135.4487766,
兵庫県,尼崎市,84,額田町17イマキタハイツ59 東側,イマキタハイツ５９ 東側,34.7433503,135.4507494,
兵庫県,尼崎市,85,額田町6市営額田団地3号棟 東側,市営額田団地３号棟 東側,34.744073,135.4481881,
兵庫県,尼崎市,86,高田町5市営高田団地1号棟 北側,市営高田団地１号棟 北側,34.7427771,135.450708,
兵庫県,尼崎市,87,高田町4県営高田団地3号棟 西側,県営高田団地３号棟 西側,34.743061,135.449951,
兵庫県,尼崎市,88,神崎町17市営神崎団地3号棟 西側,市営神崎団地３号棟 西側,34.7418836,135.4452457,
兵庫県,尼崎市,89,神崎町23 地先神崎町(新幹線下)子ども広場 西側,神崎町（新幹線下）子ども広場 西側,34.7435366,135.4464226,
兵庫県,尼崎市,90,神崎町24小田北中学校 西側,小田北中学校 西側,34.7413197,135.4467971,
兵庫県,尼崎市,91,神崎町24小田北中学校 南側,小田北中学校 南側,34.7413197,135.4467971,
兵庫県,尼崎市,92,神崎町25 地先神崎第2(新幹線下)子ども広場 西側,神崎第２（新幹線下）子ども広場 西側,34.7410127,135.4481917,
兵庫県,尼崎市,93,次屋4-6神崎浄水場 北側,神崎浄水場 北側,34.7367427,135.4436768,
兵庫県,尼崎市,94,神崎町33関西ペイント 南西側,関西ペイント 南西側,34.739666,135.4514134,緯度経度は怪しい
兵庫県,尼崎市,95,次屋4-6-1神崎浄水場 西側,神崎浄水場 西側,34.7367427,135.4436768,
兵庫県,尼崎市,96,次屋4-6-1神崎浄水場 南側,神崎浄水場 南側,34.7367427,135.4436768,
兵庫県,尼崎市,97,西川2-33-2浜東公園 東側,浜東公園 東側,34.7352423,135.4425224,
兵庫県,尼崎市,98,浜2-21-1浜小学校 東側,浜小学校 東側,34.733197,135.4404748,
兵庫県,尼崎市,99,浜2-21-1浜小学校 南側,浜小学校 南側,34.733197,135.4404748,
兵庫県,尼崎市,100,次屋1-18城の後公園 北側,城の後公園 北側,34.7369394,135.4390713,
兵庫県,尼崎市,101,次屋1-9-19東消防署 西側,東消防署 西側,34.7364033,135.4395184,
兵庫県,尼崎市,102,浜3-11-14滝本商店 地先 水路,滝本商店 地先 水路,34.7334366,135.4368608,
兵庫県,尼崎市,103,潮江1-5JR尼崎駅 北側ロ-タリ-,JR尼崎駅 北側ロータリー,34.731875,135.43175,
兵庫県,尼崎市,104,潮江1-12潮江東大寺公園 中側,潮江東大寺公園 中側,34.7340917,135.4335653,
兵庫県,尼崎市,105,潮江1-4アミング潮江プラストいきいき駐輪場 北側,アミング潮江プラストいきいき駐輪場 北側,34.7334096,135.4328895,
兵庫県,尼崎市,106,潮江1-6ルゼフィ-ル潮江2号棟 北側遊歩道付近,ルゼフィール潮江２号棟 北側遊歩道付近,34.7317581,135.4344063,
兵庫県,尼崎市,107,潮江1-6ルゼフィ-ル潮江 東側階段北側付近,ルゼフィール潮江 東側階段北側付近,34.7317581,135.4344063,
兵庫県,尼崎市,108,潮江4-4-1尼崎市公設地方卸売市場 南側,尼崎市公設地方卸売市場 南側,34.73850280000001,135.4249942,緯度経度は怪しい
兵庫県,尼崎市,109,潮江2-2-20潮小学校 北側,潮小学校 北側,34.737156,135.430623,
兵庫県,尼崎市,110,潮江1-35-1潮江北住宅 西側,masked,34.735198,135.4291775,
兵庫県,尼崎市,111,潮江1-2 地先JR尼崎駅タクシ-乗場 北側,ＪＲ尼崎駅タクシー乗場 北側,34.73275,135.4296539,緯度経度は怪しい
兵庫県,尼崎市,112,潮江5-5 地先JR尼崎駅西交差点 北側,ＪＲ尼崎駅西交差点 北側,34.7331227,135.4283506,
兵庫県,尼崎市,113,潮江5-5潮江緑遊公園 北西側,潮江緑遊公園 北西側,34.7344635,135.426545,
兵庫県,尼崎市,114,潮江5-5潮江緑遊公園 東側,潮江緑遊公園 東側,34.7344635,135.426545,
兵庫県,尼崎市,115,潮江5-5潮江緑遊公園 南側,潮江緑遊公園 南側,34.7344635,135.426545,
兵庫県,尼崎市,116,潮江5-1JR神戸線 音羽電機 南側,ＪＲ神戸線 音羽電機 南側,34.7334836,135.4247403,
兵庫県,尼崎市,117,久々知西町2-8-48大成中学校 西門,大成中学校 西門,34.7415186,135.4239985,
兵庫県,尼崎市,118,久々知西町2-8-48大成中学校 南側,大成中学校 南側,34.7415186,135.4239985,
兵庫県,尼崎市,119,久々知西町2-8-48大成中学校 東門,大成中学校 東門,34.7415186,135.4239985,
兵庫県,尼崎市,120,久々知3-13-26住化コベストロウレタン(株) 東側,住化コベストロウレタン㈱ 東側,34.7410533,135.4301678,
兵庫県,尼崎市,121,久々知西町2-15 地先久々知北公園 東側,久々知北公園 東側,34.7427983,135.42597,
兵庫県,尼崎市,122,久々知西町1-8久々知南公園 西側,久々知南公園 西側,34.7378454,135.4229089,
兵庫県,尼崎市,123,久々知西町1-8久々知南公園 東南端,久々知南公園 東南端,34.7378454,135.4229089,
兵庫県,尼崎市,124,久々知1-4-38近松記念館 南東側,近松記念館 南東側,34.746788,135.431845,
兵庫県,尼崎市,125,久々知1-4近松公園 東側,近松公園 東側,34.7474674,135.4324683,
兵庫県,尼崎市,126,久々知1-4近松公園 北側,近松公園 北側,34.7474674,135.4324683,
兵庫県,尼崎市,127,久々知1-4近松公園 北西側,近松公園 北西側,34.7474674,135.4324683,
兵庫県,尼崎市,128,久々知2-4川崎公園 北側,川崎公園 北側,34.7458341,135.4287567,
兵庫県,尼崎市,129,久々知1-19正眼寺 東側,正眼寺 東側,34.745644,135.431226,
兵庫県,尼崎市,130,久々知2-14 地先芦田西橋 西側,芦田西橋 西側,34.7437883,135.4292127,緯度経度は怪しい
兵庫県,尼崎市,131,長洲中通1-13-1県立尼崎工業高等学校 東門南側,県立尼崎工業高等学校 東門南側,34.7264713,135.4343235,
兵庫県,尼崎市,132,長洲中通1-13-1県立尼崎工業高等学校 西北側 薬局向い,県立尼崎工業高等学校 西北側 薬局向い,34.7264713,135.4343235,
兵庫県,尼崎市,133,長洲中通2-17-46県立尼崎小田高等学校 西門 南側,県立尼崎小田高等学校 西門 南側,34.7238844,135.4342549,
兵庫県,尼崎市,134,長洲中通1-10-1市立小田中学校 西門南側,市立小田中学校 西門南側,34.7290795,135.4338087,
兵庫県,尼崎市,135,長洲本通1-8-1清和小学校 東側,清和小学校 東側,34.728865,135.432368,
兵庫県,尼崎市,136,長洲本通1-8-1清和小学校 南側,清和小学校 南側,34.728865,135.432368,
兵庫県,尼崎市,137,長洲中通2-17県立尼崎工業高等学校グラウンド 東側,県立尼崎工業高等学校グラウンド 東側,34.7264713,135.4343235,緯度経度は怪しい
兵庫県,尼崎市,138,長洲中通1-13-1県立尼崎工業高等学校 南側,県立尼崎工業高等学校 南側,34.7264713,135.4343235,
兵庫県,尼崎市,139,常光寺1-2-1ヤンマ-体育館 西側,ヤンマー体育館 西側,34.7300784,135.4392166,
兵庫県,尼崎市,140,常光寺2-6-49 地先常光寺川西緑地 北側,常光寺川西緑地 北側,34.7251867,135.4368675,
兵庫県,尼崎市,141,常光寺1-2-1ヤンマ-尼崎グラウンド北側 バス停付近,ヤンマー尼崎グラウンド北側 バス停付近,34.7296274,135.4400838,
兵庫県,尼崎市,142,常光寺1-20奥の防公園 北側,奥の防公園 北側,34.7299485,135.4408962,緯度経度は怪しい
兵庫県,尼崎市,143,常光寺1-10常光寺連協コミュニティ広場 南側,常光寺連協コミュニティ広場 南側,34.7299485,135.4408962,緯度経度は怪しい
兵庫県,尼崎市,144,常光寺3-6常光寺団地子ども広場 北側,常光寺団地子ども広場 北側,34.7270524,135.4405975,
兵庫県,尼崎市,145,常光寺3-9王子イメ-ジングメディア(株) ゴルフ練習場西側,王子イメージングメディア㈱ ゴルフ練習場西側,34.7267229,135.4415679,
兵庫県,尼崎市,146,今福2-12-1今福公園 東側(内側),今福公園 東側（内側）,34.7227872,135.4440002,
兵庫県,尼崎市,147,今福2-12-1今福公園 北側(内側),今福公園 北側（内側）,34.7227872,135.4440002,
兵庫県,尼崎市,148,今福1-1杭瀬団地 南門東側,杭瀬団地 南門東側,34.7232887,135.44155,
兵庫県,尼崎市,149,今福2-12-1今福公園 西側,今福公園 西側,34.7227872,135.4440002,
兵庫県,尼崎市,150,杭瀬北新町2-6-1杭瀬小学校 南側,杭瀬小学校 南側,34.7230131,135.4387981,
兵庫県,尼崎市,151,杭瀬北新町2-6-1杭瀬小学校 北側,杭瀬小学校 北側,34.7230131,135.4387981,
兵庫県,尼崎市,152,杭瀬北新町2-6杭瀬公園 北側,杭瀬公園 北側,34.7218679,135.439146,
兵庫県,尼崎市,153,杭瀬北新町3-2-3杭瀬自動車学校 南側,杭瀬自動車学校 南側,34.719841,135.4358171,
兵庫県,尼崎市,154,杭瀬本町3-5中深公園 南側,中深公園 南側,34.7188465,135.435179,
兵庫県,尼崎市,155,杭瀬南新町1-16梶ヶ島南公園 北東側,梶ヶ島南公園 北東側,34.7169149,135.4403359,
兵庫県,尼崎市,156,杭瀬本町1-3-1宮前公園 北側,宮前公園 北側,34.7187794,135.4399181,
兵庫県,尼崎市,157,杭瀬本町1-3-1宮前公園 東側,宮前公園 東側,34.7187794,135.4399181,
兵庫県,尼崎市,158,杭瀬本町1-3-1宮前公園 南側,宮前公園 南側,34.7187794,135.4399181,
兵庫県,尼崎市,159,杭瀬本町1-9-36熊野神社 北側,熊野神社 北側,34.7193616,135.4394901,
兵庫県,尼崎市,160,杭瀬南新町1-16梶ヶ島南公園 西側,梶ヶ島南公園 西側,34.7169149,135.4403359,
兵庫県,尼崎市,161,杭瀬南新町4-1-34浦風小学校 南側,浦風小学校 南側,34.7191632,135.4334479,
兵庫県,尼崎市,162,東大物町1-1大物公園 南西入口,大物公園 南西入口,34.7184978,135.4286227,
兵庫県,尼崎市,163,東大物町1-1大物公園内 だいもつ病院北東側,大物公園内 だいもつ病院北東側,34.7184978,135.4286227,
兵庫県,尼崎市,164,東大物町1-1-4大物公園 南側,大物公園 南側,34.7184978,135.4286227,
兵庫県,尼崎市,165,杭瀬南新町4-4杭瀬南新町4丁目子ども広場 西側フェンス,杭瀬南新町４丁目子ども広場 西側フェンス,34.7174685,135.4308304,
兵庫県,尼崎市,166,杭瀬南新町3-1後野公園,後野公園,34.7178299,135.433421,
兵庫県,尼崎市,167,大物町1-2松々下公園 南西側,松々下公園 南西側,34.7175184,135.4229628,緯度経度は怪しい
兵庫県,尼崎市,168,長洲東通3-7-1長洲小学校 北側,長洲小学校 北側,34.7216676,135.4328591,
兵庫県,尼崎市,169,長洲東通3-7-1長洲小学校 西側,長洲小学校 西側,34.7216676,135.4328591,
兵庫県,尼崎市,170,長洲東通3-7長洲公園 南側,長洲公園 南側,34.721266,135.4338504,
兵庫県,尼崎市,171,長洲東通3-7-48長洲幼稚園 南側,長洲幼稚園 南側,34.72065200000001,135.432329,
兵庫県,尼崎市,172,長洲中通3-24稲川公園 東側,稲川公園 東側,34.720538,135.428502,
兵庫県,尼崎市,173,杭瀬北新町4-10長洲川緑地公園 西側,長洲川緑地公園 西側,34.7203787,135.4306789,
兵庫県,尼崎市,174,長洲中通3-24稲川公園 西側,稲川公園 西側,34.720538,135.428502,
兵庫県,尼崎市,175,西長洲町1-4-1記念公園 西側(ベイコム総合体育館),記念公園 西側（ベイコム総合体育館）,34.731436,135.4237984,
兵庫県,尼崎市,176,西長洲町1-4-1記念公園 南側(ベイコム総合体育館),記念公園 南側（ベイコム総合体育館）,34.731436,135.4237984,
兵庫県,尼崎市,177,金楽寺町2-3-1金楽寺小学校 北側,金楽寺小学校 北側,34.7267504,135.4253742,
兵庫県,尼崎市,178,金楽寺町2-3-1金楽寺小学校 東側,金楽寺小学校 東側,34.7267504,135.4253742,
兵庫県,尼崎市,179,金楽寺町2-5-36金楽寺北公園 南側,金楽寺北公園 南側,34.7256759,135.4257876,
兵庫県,尼崎市,180,西長洲町2-15-1八幡公園 北側,八幡公園 北側,34.7249145,135.4209452,
兵庫県,尼崎市,181,西長洲町1-4-1記念公園 北西側(ベイコム総合体育館),記念公園　北西側（ベイコム総合体育館）,34.731436,135.4237984,
兵庫県,尼崎市,182,西長洲町2-4庄下川公園北詰 鳥洲歩道橋東,庄下川公園北詰　鳥洲歩道橋東,34.7260812,135.420463,
兵庫県,尼崎市,183,大庄西町1-43武庫川堤防 河川敷入口,武庫川堤防　河川敷入口,34.7217418,135.3874644,緯度経度は怪しい
兵庫県,尼崎市,184,大庄西町3-18-18JA大庄支店 西側,ＪＡ大庄支店　西側,34.7235204,135.39053,
兵庫県,尼崎市,185,大庄中通4-43大庄小学校 西側,大庄小学校　西側,34.72204000000001,135.391553,
兵庫県,尼崎市,186,大庄中通4-43大庄小学校 南側,大庄小学校　南側,34.72204000000001,135.391553,
兵庫県,尼崎市,187,水明町199-1水明公園 北側,水明公園　北側,34.7199809,135.3927493,
兵庫県,尼崎市,188,菜切山町37大庄中学校 北側,大庄中学校　北側,34.7242393,135.3941978,
兵庫県,尼崎市,189,菜切山町1菜切山緑地,菜切山緑地,34.7245676,135.3971594,
兵庫県,尼崎市,190,道意町4-24-1尼崎センタ-プ-ル前駅 東南側,尼崎センタープール前駅　東南側,34.7133309,135.3956935,緯度経度は怪しい
兵庫県,尼崎市,191,道意町4-36琴浦公園 西側,琴浦公園　西側,34.716646,135.3946472,
兵庫県,尼崎市,192,武庫川町1-25わかば西小学校 東門,わかば西小学校　東門,34.715997,135.3886729,
兵庫県,尼崎市,193,武庫川町1-25わかば西小学校 西門,わかば西小学校　西門,34.715997,135.3886729,
兵庫県,尼崎市,194,大庄西町1-4-25南川端こども広場北側,南川端こども広場北側,34.7168741,135.3872191,
兵庫県,尼崎市,195,武庫川町3 地先武庫川町第2(阪神高速道路下)子ども広場 南側,武庫川町第２(阪神高速道路下)子ども広場　南側,34.7162485,135.3839354,
兵庫県,尼崎市,196,武庫川町4 地先阪神武庫川駅 南側駐輪場鉄柵,阪神武庫川駅　南側駐輪場鉄柵,34.7186995,135.3814037,緯度経度は怪しい
兵庫県,尼崎市,197,道意町5-17道意神社 西側,道意神社　西側,34.7164151,135.3915529,
兵庫県,尼崎市,198,崇徳院3-1蓬川公園 北西側,蓬川公園　北西側,34.722487,135.4009709,
兵庫県,尼崎市,199,崇徳院3-38崇徳院公園 西側,崇徳院公園　西側,34.72225420000001,135.3980908,
兵庫県,尼崎市,200,蓬川町311成徳小学校 北側,成徳小学校　北側,34.720369,135.398489,
兵庫県,尼崎市,201,蓬川町302-8明倫公園フェンス,明倫公園フェンス,34.720231,135.4007609,
兵庫県,尼崎市,202,蓬川町311成徳小学校 南側,成徳小学校　南側,34.720369,135.398489,
兵庫県,尼崎市,203,蓬川町 地先明倫橋西詰道路 鉄柵,明倫橋西詰道路　鉄柵,34.7202265,135.3998086,
兵庫県,尼崎市,204,道意町2-1下田公園 西側,下田公園　西側,34.7176252,135.4001283,
兵庫県,尼崎市,205,元浜町1元浜緑地陸橋下,元浜緑地陸橋下,34.7125469,135.3906728,
兵庫県,尼崎市,206,道意町6-8道意公園内 福社会館の北,道意公園内　福社会館の北,34.7138072,135.3951278,
兵庫県,尼崎市,207,元浜町1元浜緑地 南西側,元浜緑地　南西側,34.7125469,135.3906728,
兵庫県,尼崎市,208,道意町6-8道意公園 北側,道意公園　北側,34.7138072,135.3951278,
兵庫県,尼崎市,209,道意町6-8道意公園 東側,道意公園　東側,34.7138072,135.3951278,
兵庫県,尼崎市,210,道意町6-1市営道意団地,市営道意団地,34.7151655,135.3958292,
兵庫県,尼崎市,211,元浜町1-1-5元浜公園 南側,元浜公園　南側,34.7144945,135.3894873,
兵庫県,尼崎市,212,元浜町4-78-6大庄中継ポンプ場 南側,大庄中継ポンプ場　南側,34.7092981,135.3815237,
兵庫県,尼崎市,213,元浜町3-23元浜西会館,元浜西会館,34.7131629,135.3844002,
兵庫県,尼崎市,214,元浜町3-32元浜西公園 東側,元浜西公園　東側,34.7131629,135.3844002,
兵庫県,尼崎市,215,元浜町4-16元浜八幡神社 南側,元浜八幡神社　南側,34.711742,135.383681,
兵庫県,尼崎市,216,元浜町4-19 地先月極駐車場 向かい側フェンス,月極駐車場　向かい側フェンス,34.7122347,135.3821191,
兵庫県,尼崎市,217,元浜町5-84エディオン尼崎センタ- 北側,エディオン尼崎センター　北側,34.7102443,135.3853628,
兵庫県,尼崎市,218,大浜町2-13-3大浜町2丁目バス停 南側駐車場,大浜町２丁目バス停　南側駐車場,34.7059275,135.3858741,
兵庫県,尼崎市,219,大島3-12南の口公園 東側,南の口公園　東側,34.7268306,135.3894989,
兵庫県,尼崎市,220,大庄中通1-7国道2号線沿い 送電線鉄塔フェンス,国道２号線沿い　送電線鉄塔フェンス,34.7282691,135.3925785,
兵庫県,尼崎市,221,大庄中通1-47本圓寺 北東側 送電線鉄塔フェンス,本圓寺　北東側　送電線鉄塔フェンス,34.7259925,135.3923324,
兵庫県,尼崎市,222,大島3-12南の口公園 西側,南の口公園　西側,34.7268306,135.3894989,
兵庫県,尼崎市,223,大島3-12南の口公園 北側,南の口公園　北側,34.7268306,135.3894989,
兵庫県,尼崎市,224,大島3-20西大島交差点南東側 送電線鉄塔フェンス,西大島交差点南東側　送電線鉄塔フェンス,34.7282042,135.3875563,
兵庫県,尼崎市,225,大庄中通2-33ス-パ-アカシヤ 北東側 送電線鉄塔フェンス,スーパーアカシヤ　北東側　送電線鉄塔フェンス,34.725307,135.3915787,
兵庫県,尼崎市,226,大島1-31西駄公園 北側,西駄公園　北側,34.7287454,135.3828933,
兵庫県,尼崎市,227,大島2-34-1県立尼崎西高等学校 北側,県立尼崎西高等学校　北側,34.7274558,135.385097,
兵庫県,尼崎市,228,大島2-34-1県立尼崎西高等学校 東側,県立尼崎西高等学校　東側,34.7274558,135.385097,
兵庫県,尼崎市,229,大島2-33-1成文小学校 東側,成文小学校　東側,34.7262475,135.3846042,
兵庫県,尼崎市,230,大島2-13成文公園 南側,成文公園　南側,34.7261558,135.3864093,
兵庫県,尼崎市,231,大庄西町2-125口の開公園 東側,口の開公園　東側,34.7214518,135.388291,緯度経度は怪しい
兵庫県,尼崎市,232,大島1-31樋口氏宅 東側鉄柵,masked,34.7273156,135.3851135,緯度経度は怪しい
兵庫県,尼崎市,233,西立花町5-89 地先東亜バルブ(株) 西側道路鉄柵,東亜バルブ㈱　西側道路鉄柵,34.736099,135.3945178,緯度経度は怪しい
兵庫県,尼崎市,234,稲葉荘4-14稲葉荘住宅 東側,masked,34.7371418,135.3840115,
兵庫県,尼崎市,235,稲葉元町2-7-1今北弓田住宅 東側,masked,34.7366087,135.3898582,
兵庫県,尼崎市,236,稲葉荘2-21西稲葉公園 東側,西稲葉公園　東側,34.7333141,135.3826161,
兵庫県,尼崎市,237,西立花町5-88 地先ファミリ-マ-ト 東側道路鉄柵,ファミリーマート　東側道路鉄柵,34.736099,135.3945178,緯度経度は怪しい
兵庫県,尼崎市,238,稲葉荘2-10-7大島小学校 北側,大島小学校　北側,34.7338829,135.3855169,
兵庫県,尼崎市,239,稲葉荘1-10下稲葉公園 北側,下稲葉公園　北側,34.732763,135.3860292,
兵庫県,尼崎市,240,稲葉荘1-10下稲葉公園 南側,下稲葉公園　南側,34.732763,135.3860292,
兵庫県,尼崎市,241,稲葉元町3-17-1今北三十六住宅1号棟,masked,34.7357815,135.3877938,
兵庫県,尼崎市,242,大庄北1-25東大島公園 西側,東大島公園　西側,34.7314249,135.3921247,
兵庫県,尼崎市,243,大庄北4-17春日公園,春日公園,34.7302148,135.389494,
兵庫県,尼崎市,244,稲葉元町3-8県営尼崎今北団地2号棟 東側,県営尼崎今北団地２号棟　東側,34.7364302,135.3892276,
兵庫県,尼崎市,245,稲葉元町3-13 地先今北バス停 北側防護柵,今北バス停　北側防護柵,34.7350075,135.3893011,
兵庫県,尼崎市,246,稲葉元町3-16-5今北三十六住宅5号棟 南側,masked,34.73504,135.3886582,
兵庫県,尼崎市,247,大庄北3-17今北五反田公園 北側,今北五反田公園　北側,34.7332847,135.3886035,
兵庫県,尼崎市,248,西立花町4-1今北住宅 北側,masked,34.7351692,135.3966533,緯度経度は怪しい
兵庫県,尼崎市,249,西立花町3-14-1今北東公園 南側,今北東公園　南側,34.7343518,135.3958134,
兵庫県,尼崎市,250,西立花町2-21今北北公園 西側,今北北公園　西側,34.7359569,135.3949576,
兵庫県,尼崎市,251,西立花町3-17市住東今北改良住宅4号棟 東側,masked,34.7376527,135.3915859,緯度経度は怪しい
兵庫県,尼崎市,252,西立花町2-34今北公園 西側水路防護柵,今北公園　西側水路防護柵,34.7358847,135.3934632,
兵庫県,尼崎市,253,大庄北1-8-1大庄北中学校 北側西,大庄北中学校　北側西,34.7317073,135.3898154,緯度経度は怪しい
兵庫県,尼崎市,254,大庄北1-8-1大庄北中学校 西南角,大庄北中学校　西南角,34.7317073,135.3898154,緯度経度は怪しい
兵庫県,尼崎市,255,浜田町2-132浜田公園 東側,浜田公園　東側,34.731305,135.3966041,
兵庫県,尼崎市,256,浜田町2-132浜田公園北側(駐車場前),浜田公園北側（駐車場前）,34.7293909,135.3992207,緯度経度は怪しい
兵庫県,尼崎市,257,浜田町3-110浜田小学校 東門,浜田小学校　東門,34.7293909,135.3992207,緯度経度は怪しい
兵庫県,尼崎市,258,浜田町3-110浜田小学校 北門,浜田小学校　北門,34.7289058,135.3965002,
兵庫県,尼崎市,259,浜田町3-110浜田小学校 西門,浜田小学校　西門,34.7289058,135.3965002,
兵庫県,尼崎市,260,大庄北1-8-1大庄北中学校 南東側,大庄北中学校　南東側,34.7317073,135.3898154,緯度経度は怪しい
兵庫県,尼崎市,261,大庄北5-14東大島南緑地 西側,東大島南緑地　西側,34.7287686,135.3930002,
兵庫県,尼崎市,262,南塚口町8-32塚口西第1公園 北側,塚口西第１公園　北側,34.7514974,135.4076539,
兵庫県,尼崎市,263,栗山町2-6-1立花北小学校 北側,立花北小学校　北側,34.747641,135.4046339,
兵庫県,尼崎市,264,南塚口町7-29栗山公園 東側,栗山公園　東側,34.7476984,135.4104104,
兵庫県,尼崎市,265,栗山町2-9-127 地先生島北公園南側金網,生島北公園南側金網,34.7459684,135.4062759,
兵庫県,尼崎市,266,南塚口町7-30-1上ノ島第3住宅 北側,masked,34.748659,135.4145083,緯度経度は怪しい
兵庫県,尼崎市,267,栗山町2-26-1立花小学校北側 駐車場前,立花小学校北側　駐車場前,34.7445827,135.4065217,
兵庫県,尼崎市,268,栗山町2-26-1立花小学校 南西,立花小学校　南西,34.7445827,135.4065217,
兵庫県,尼崎市,269,南塚口町7-21栗山中継ポンプ場東側,栗山中継ポンプ場東側,34.7451348,135.4114577,
兵庫県,尼崎市,270,名神町3-1名和小学校 東側,名和小学校　東側,34.7400274,135.4195642,
兵庫県,尼崎市,271,名神町3-1名和小学校 北西側,名和小学校　北西側,34.7400274,135.4195642,
兵庫県,尼崎市,272,名神町3-1名和小学校 南側,名和小学校　南側,34.7400274,135.4195642,
兵庫県,尼崎市,273,名神町2-2市営名神町南団地1号棟 南東側,市営名神町南団地１号棟　南東側,34.7399176,135.4169231,
兵庫県,尼崎市,274,尾浜町2-20県営尾浜高層住宅 南側バス停西横,masked,34.7373144,135.4183685,
兵庫県,尼崎市,275,尾浜町3-10名月公園 東側,名月公園　東側,34.7355475,135.4193768,
兵庫県,尼崎市,276,尾浜町3-10名月公園 西側,名月公園　西側,34.7355475,135.4193768,
兵庫県,尼崎市,277,尾浜町2-2名月西公園 南側,名月西公園　南側,34.7354599,135.4161243,
兵庫県,尼崎市,278,三反田町2丁目16 地先立花南小学校 東側防護柵,立花南小学校　東側防護柵,34.739467,135.4093394,
兵庫県,尼崎市,279,三反田町2丁目6JR北側用水路 防護柵(入江金属南向),ＪＲ北側用水路　防護柵（入江金属南向）,34.73648790000001,135.4098633,
兵庫県,尼崎市,280,三反田町2-16-1立花南小学校 西門横,立花南小学校　西門横,34.739467,135.4093394,
兵庫県,尼崎市,281,三反田町2丁目16 地先立花南小学校 南門前防護柵,立花南小学校　南門前防護柵,34.739467,135.4093394,
兵庫県,尼崎市,282,三反田町3丁目8神子ケ坪公園 西側,神子ケ坪公園　西側,34.739105,135.4108697,
兵庫県,尼崎市,283,立花町2丁目19若松公園 東側,若松公園　東側,34.7396675,135.4043489,
兵庫県,尼崎市,284,三反田町1丁目14 地先マルハチパ-トIII駐車場 南側,マルハチパートⅢ駐車場　南側,34.7409351,135.4066434,
兵庫県,尼崎市,285,三反田町1丁目1-1あこや学園 西側,あこや学園　西側,34.73713499999999,135.4060749,
兵庫県,尼崎市,286,塚口町4-60-4横僧公園南 西側,横僧公園南　西側,34.7602352,135.4081363,
兵庫県,尼崎市,287,塚口町3-39-7立花北生涯学習プラザ 西側,立花北生涯学習プラザ　西側,34.7559822,135.4113445,
兵庫県,尼崎市,288,塚口町5-40-1県立尼崎北高校 東側,県立尼崎北高校　東側,34.75609240000001,135.4086671,
兵庫県,尼崎市,289,塚口町5-40-1県立尼崎北高校 南側,県立尼崎北高校　南側,34.75609240000001,135.4086671,
兵庫県,尼崎市,290,塚口町1-16-1コ-プこうべ塚口店自転車置場 西側,コープこうべ塚口店自転車置場　西側,34.7547003,135.4137666,
兵庫県,尼崎市,291,塚口町1-13-8 地先阪急伊丹線西 南側,阪急伊丹線西　南側,34.7559335,135.4086279,緯度経度は怪しい
兵庫県,尼崎市,292,塚口町5-39-5 地先塚口町5丁目バス停後,塚口町５丁目バス停後,34.7558576,135.4066985,
兵庫県,尼崎市,293,塚口町5-29 地先椋田公園南 東側,椋田公園南　東側,34.7559335,135.4086279,緯度経度は怪しい
兵庫県,尼崎市,294,塚口本町1丁目27 地先本町1丁目阪急神戸線 北側,本町１丁目阪急神戸線　北側,34.753393,135.4196543,
兵庫県,尼崎市,295,塚口本町7-5-1 地先本町7丁目阪急神戸線 北側,本町７丁目阪急神戸線　北側,34.753599,135.4235467,
兵庫県,尼崎市,296,塚口本町7-15塚口長溝公園 西側,塚口長溝公園　西側,34.7554753,135.4214876,
兵庫県,尼崎市,297,塚口本町2-1 地先阪急塚口住宅踏切北,masked,34.7527642,135.4158933,緯度経度は怪しい
兵庫県,尼崎市,298,塚口本町4-8つかしんにしまちコメダ珈琲 南側,つかしんにしまちコメダ珈琲　南側,34.7612487,135.4181752,
兵庫県,尼崎市,299,塚口本町4-8塚口本町緑地 西側,塚口本町緑地　西側,34.7612087,135.4170073,
兵庫県,尼崎市,300,塚口本町6-17-20塚口第1住宅 西側公園,masked,34.7597633,135.4208306,
兵庫県,尼崎市,301,塚口本町3-13 地先岸本宅 東側,masked,34.7580819,135.4192763,
兵庫県,尼崎市,302,上ノ島町1-36-1県営尼崎東富松団地 東側,県営尼崎東富松団地　東側,34.748236,135.4015723,緯度経度は怪しい
兵庫県,尼崎市,303,上ノ島町2-35上ノ島バス停後ガ-ドレ-ル,上ノ島バス停後ガードレール,34.7491341,135.4010763,緯度経度は怪しい
兵庫県,尼崎市,304,上ノ島町2-18-6村田宅 北側,masked,34.7491341,135.4010763,
兵庫県,尼崎市,305,上ノ島町3-1-1立花中学校 北門横,立花中学校　北門横,34.746002,135.399321,
兵庫県,尼崎市,306,上ノ島町3-1-1立花中学校 西南門横,立花中学校　西南門横,34.746002,135.399321,
兵庫県,尼崎市,307,上ノ島町3-1-1立花中学校 南門横,立花中学校　南門横,34.746002,135.399321,
兵庫県,尼崎市,308,上ノ島町1-14-3 地先南武庫之荘ゴルフセンタ-・ゴルフ場 北側水路鉄柵,南武庫之荘ゴルフセンター・ゴルフ場　北側水路鉄柵,34.7460777,135.4041495,緯度経度は怪しい
兵庫県,尼崎市,309,上ノ島町3-3野上住宅 南側,masked,34.7446939,135.3999894,
兵庫県,尼崎市,310,東七松町2-1日新中学校西門 北西側,日新中学校西門　北西側,34.734653,135.409714,
兵庫県,尼崎市,311,東七松町1-6東七松子ども広場 北側,東七松子ども広場　北側,34.7356192,135.4080861,
兵庫県,尼崎市,312,東七松町2-5 地先中央中学校 南側,中央中学校　南側,34.7340513,135.4092024,
兵庫県,尼崎市,313,南七松町1-4-49七松小学校 北門東側,七松小学校　北門東側,34.736845,135.3995881,緯度経度は怪しい
兵庫県,尼崎市,314,南七松町1-4-49七松小学校 西門南側,七松小学校　西門南側,34.736845,135.3995881,緯度経度は怪しい
兵庫県,尼崎市,315,南七松町1-4-49七松小学校 南側,七松小学校　南側,34.736845,135.3995881,緯度経度は怪しい
兵庫県,尼崎市,316,七松町2-18昭和公園 西側,昭和公園　西側,34.7345906,135.4017393,
兵庫県,尼崎市,317,七松町2-18昭和公園 東側,昭和公園　東側,34.7345906,135.4017393,
兵庫県,尼崎市,318,七松町1-2-16JR立花駅南 東側金網,ＪＲ立花駅南　東側金網,34.7367807,135.3993376,
兵庫県,尼崎市,319,西立花町1-12水堂鳥林公園 西北側,水堂鳥林公園　西北側,34.7383102,135.3942318,
兵庫県,尼崎市,320,西立花町3-2高瀬公園 東側,高瀬公園　東側,34.7351146,135.3974008,
兵庫県,尼崎市,321,西立花町3-5-1市住水堂浜浦住宅 東側,masked,34.736099,135.3945178,緯度経度は怪しい
兵庫県,尼崎市,322,西立花町3-2高瀬公園 西側,高瀬公園　西側,34.7351146,135.3974008,
兵庫県,尼崎市,323,立花町1丁目1JR立花駅 北側立花駅前公園,ＪＲ立花駅　北側立花駅前公園,34.7379828,135.3991199,
兵庫県,尼崎市,324,立花町2丁目7千歳公園 東側,千歳公園　東側,34.7406862,135.4000964,
兵庫県,尼崎市,325,西立花町3-7有料老人ホ-ム みもざ 東側防護柵,有料老人ホーム みもざ 東側防護柵,34.733581,135.397041,
兵庫県,尼崎市,326,水堂町1-32-8水堂小学校 北側,水堂小学校 北側,34.7423457,135.3931374,
兵庫県,尼崎市,327,水堂町1-32-8水堂小学校 東側,水堂小学校 東側,34.7423457,135.3931374,
兵庫県,尼崎市,328,水堂町2-34-21地域総合センタ-水堂分館,地域総合センター水堂分館,34.7426773,135.3897222,
兵庫県,尼崎市,329,立花町4-7-12 地先特別養護老人ホ-ム 立花あまの里 向い側,特別養護老人ホーム 立花あまの里 向い側,34.7425397,135.3968909,
兵庫県,尼崎市,330,水堂町2丁目1水堂公園 南側,水堂公園 南側,34.7394177,135.3921245,
兵庫県,尼崎市,331,水堂町1丁目5福住公園 北側,福住公園 北側,34.7405328,135.3960669,
兵庫県,尼崎市,332,水堂町1丁目5 地先福住公園 東側防護柵,福住公園 東側防護柵,34.7405328,135.3960669,
兵庫県,尼崎市,333,水堂町3丁目2 地先裁判所 西側防護柵,裁判所 西側防護柵,34.7439741,135.397751,
兵庫県,尼崎市,334,塚口町6-59塚ノ内公園 東側,塚ノ内公園 東側,34.7578576,135.4062748,緯度経度は怪しい
兵庫県,尼崎市,335,富松町3-23 地先富松町3丁目バス停 南側,富松町３丁目バス停 南側,34.7600189,135.3990817,
兵庫県,尼崎市,336,富松町3-24市営富松北団地西 北側,市営富松北団地西 北側,34.7601663,135.399973,
兵庫県,尼崎市,337,富松町3-14 地先北塚口モ-タ-プ-ル 西側,北塚口モータープール 西側,34.7596881,135.4042915,
兵庫県,尼崎市,338,塚口町6-21-1尼崎北小学校 東側,尼崎北小学校 東側,34.7585608,135.4049666,
兵庫県,尼崎市,339,富松町4-31塚口中学校 西側,塚口中学校 西側,34.7639536,135.4032299,
兵庫県,尼崎市,340,塚口町6-21-1尼崎北小学校 南側,尼崎北小学校 南側,34.7585608,135.4049666,
兵庫県,尼崎市,341,塚口町6-13 地先塚口町6丁目バス停後,塚口町６丁目バス停後,34.7578576,135.4062748,
兵庫県,尼崎市,342,富松町2-25東富松住宅 西側,masked,34.7535351,135.4041658,緯度経度は怪しい
兵庫県,尼崎市,343,富松町1-23富松公園入口 北側,富松公園入口 北側,34.7544915,135.4014097,
兵庫県,尼崎市,344,富松町1-42東富松公園東側 庄下川防護柵,東富松公園東側 庄下川防護柵,34.7544786,135.4050265,
兵庫県,尼崎市,345,富松町1-41 地先庄下川 西側防護柵,庄下川 西側防護柵,34.72655203668856,135.4115690724926,緯度経度は怪しい
兵庫県,尼崎市,346,富松町1-30-27塚口変電所 東側,塚口変電所 東側,34.7540051,135.4039561,
兵庫県,尼崎市,347,富松町1-18辰巳台公園 南側,辰巳台公園 南側,34.7525623,135.4025362,
兵庫県,尼崎市,348,富松町1-17 地先東富松第一踏切北ガ-ドレ-ル,東富松第一踏切北ガードレール,34.7535351,135.4041658,緯度経度は怪しい
兵庫県,尼崎市,349,上ノ島町1-40-1富松中継ポンプ場 東側,富松中継ポンプ場 東側,34.7514059,135.403874,
兵庫県,尼崎市,350,南武庫之荘2-14-1北雁替公園東 北側ガ-ドレ-ル,北雁替公園東 北側ガードレール,34.7495889,135.3981501,
兵庫県,尼崎市,351,南武庫之荘2-14-1北雁替公園南 東側,北雁替公園南 東側,34.7495889,135.3981501,
兵庫県,尼崎市,352,南武庫之荘3-7大蔵公園 北側,大蔵公園 北側,34.7489566,135.395473,
兵庫県,尼崎市,353,南武庫之荘3-37大井戸公園 南側,大井戸公園 南側,34.74818570000001,135.3917812,
兵庫県,尼崎市,354,南武庫之荘2-14-1北雁替公園 西側,北雁替公園 西側,34.7495889,135.3981501,
兵庫県,尼崎市,355,南武庫之荘3-14-9立花西小学校 東南門南側,立花西小学校 東南門南側,34.746738,135.3957848,
兵庫県,尼崎市,356,南武庫之荘3-14-9立花西小学校 西門ガ-ドレ-ル,立花西小学校 西門ガードレール,34.746738,135.3957848,
兵庫県,尼崎市,357,南武庫之荘3-27 地先申田公園 西側ガ-ドレ-ル,申田公園 西側ガードレール,34.74543999999999,135.3918724,
兵庫県,尼崎市,358,立花町3丁目23県営立花北高層住宅 北東角,masked,34.7441773,135.4016458,
兵庫県,尼崎市,359,立花町3丁目23県営立花北高層住宅 西側,masked,34.7441773,135.4016458,
兵庫県,尼崎市,360,立花町3-10(名神高速道路高架下)福社会館立花センチュリ-ホ-ル 向かい,福社会館立花センチュリーホール 向かい,34.7425803,135.4017928,
兵庫県,尼崎市,361,立花町3丁目37ハ-ゲンベルク立花 東側防護柵,ハーゲンベルク立花　東側防護柵,34.7440824,135.4041445,
兵庫県,尼崎市,362,立花町3丁目34番 地先プリムロ-ズコ-ト 東側防護柵,プリムローズコート　東側防護柵,34.7428338,135.4041445,
兵庫県,尼崎市,363,立花町3丁目31今井公園 西側,今井公園　西側,34.7429967,135.4029386,
兵庫県,尼崎市,364,大西町3丁目5大西新町公園 南側,大西新町公園　南側,34.7414941,135.4096017,
兵庫県,尼崎市,365,名神町1丁目13名神町北住宅4棟 北側,masked,34.7434207,135.4128544,
兵庫県,尼崎市,366,名神町1丁目15名神町北住宅1棟 西側,masked,34.7429082,135.4137732,
兵庫県,尼崎市,367,尾浜町1-32-48パレス南塚口 北西角,パレス南塚口　北西角,34.739038,135.41374,
兵庫県,尼崎市,368,尾浜町1-32尾浜町1丁目第2子ども広場 南側,尾浜町１丁目第２子ども広場　南側,34.7355569,135.4134792,緯度経度は怪しい
兵庫県,尼崎市,369,三反田町3-7-6立花南愛児園 南側,立花南愛児園　南側,34.7388717,135.4108556,
兵庫県,尼崎市,370,尾浜町1丁目4名月姫公園 西側,名月姫公園　西側,34.7366576,135.4151436,
兵庫県,尼崎市,371,尾浜町1-6-20尼崎さくら保育園 南側,尼崎さくら保育園　南側,34.7361126,135.4136356,
兵庫県,尼崎市,372,南武庫之荘1-1阪急武庫之荘駅 南側地下道入口,阪急武庫之荘駅　南側地下道入口,34.7517075,135.3932781,
兵庫県,尼崎市,373,南武庫之荘1-27 地先生津一の橋南 東側,生津一の橋南　東側,34.7498448,135.3898889,
兵庫県,尼崎市,374,南武庫之荘5-2-8 地先大井戸公園 西側,大井戸公園　西側,34.7480942,135.390828,
兵庫県,尼崎市,375,南武庫之荘5-12中河原公園 北側,中河原公園　北側,34.7493017,135.3887133,
兵庫県,尼崎市,376,南武庫之荘3-37大井戸公園 北側,大井戸公園　北側,34.74818570000001,135.3917812,
兵庫県,尼崎市,377,南武庫之荘4-11-1南武庫之荘中学校 北側鉄柵,南武庫之荘中学校　北側鉄柵,34.7459903,135.3886766,
兵庫県,尼崎市,378,南武庫之荘4-17上の森公園 西側,上の森公園　西側,34.746171,135.3870294,
兵庫県,尼崎市,379,南武庫之荘4-11-1南武庫之荘中学校 西側,南武庫之荘中学校　西側,34.7459903,135.3886766,
兵庫県,尼崎市,380,西昆陽1-4西昆陽新幹線下子ども広場 南側,西昆陽新幹線下子ども広場　南側,34.7666255,135.3801097,緯度経度は怪しい
兵庫県,尼崎市,381,常吉1-22-12中村宅 西側,masked,34.7640446,135.3817926,
兵庫県,尼崎市,382,武庫の里1-13送電線鉄塔 東側,送電線鉄塔　東側,34.7612323,135.3849665,
兵庫県,尼崎市,383,武庫の里1-4-1武庫の里小学校 西側,武庫の里小学校　西側,34.7595443,135.3832684,
兵庫県,尼崎市,384,武庫元町2-25-34武庫小学校 東側,武庫小学校　東側,34.7603073,135.3807334,
兵庫県,尼崎市,385,武庫元町1-32東武庫公園 西側,東武庫公園　西側,34.7586495,135.3822764,
兵庫県,尼崎市,386,武庫の里1-12-3 地先送電線鉄塔 東側,送電線鉄塔　東側,34.7631089,135.3845258,緯度経度は怪しい
兵庫県,尼崎市,387,武庫元町1-16東武庫夢公園 東側,東武庫夢公園　東側,34.7564311,135.384868,
兵庫県,尼崎市,388,武庫豊町3丁目10阪神バス(株)武庫営業所 南向東北側,阪神バス㈱武庫営業所　南向東北側,34.762797,135.3774004,
兵庫県,尼崎市,389,武庫元町2-24-30武庫中学校 北東,武庫中学校　北東,34.7601699,135.3797724,
兵庫県,尼崎市,390,武庫元町3丁目5パ-クタウン西武庫団地中央集会所前,パークタウン西武庫団地中央集会所前,34.7576893,135.3784533,
兵庫県,尼崎市,391,武庫元町2丁目24 地先武庫幼稚園 西側鉄柵,武庫幼稚園　西側鉄柵,34.7589063,135.3809028,
兵庫県,尼崎市,392,武庫元町3丁目14県立西武庫公園 東側,県立西武庫公園　東側,34.759482,135.3773618,
兵庫県,尼崎市,393,武庫元町2-9-2須佐男神社 西側,須佐男神社　西側,34.7569729,135.3793399,
兵庫県,尼崎市,394,武庫元町2丁目11武庫元町2丁目11番街区 西側,武庫元町２丁目１１番街区　西側,34.7568289,135.3814404,
兵庫県,尼崎市,395,武庫元町3-13-1 地先武庫元町緑地内,武庫元町緑地内,34.7580638,135.3785432,
兵庫県,尼崎市,396,西昆陽3-41市営宮ノ北住宅A棟 北側,masked,34.778512,135.3768694,
兵庫県,尼崎市,397,西昆陽2-19-1 地先株式会社ケ-エスケ- 北側水路鉄柵,株式会社ケーエスケー 北側水路鉄柵,34.7728787,135.3780614,
兵庫県,尼崎市,398,西昆陽2-22市営昆陽の台団地南 西側,市営昆陽の台団地南 西側,34.7729106,135.3783529,
兵庫県,尼崎市,399,西昆陽2-21市営昆陽の台団地第2子ども広場 北側,市営昆陽の台団地第２子ども広場 北側,34.7729106,135.3783529,
兵庫県,尼崎市,400,西昆陽2-11-1 地先藤木宅 西側,masked,34.7728787,135.3780614,緯度経度は怪しい
兵庫県,尼崎市,401,西昆陽3-1 地先髭茶屋バス停 南側,髭茶屋バス停 南側,34.7161938,135.4264176,緯度経度は怪しい
兵庫県,尼崎市,402,西昆陽2-5-81 地先武庫北小学校 北側,武庫北小学校 北側,34.7692937,135.3774185,
兵庫県,尼崎市,403,武庫之荘9-24-1時友長ノ手住宅1棟 北側,masked,34.768766,135.3877251,
兵庫県,尼崎市,404,武庫之荘9-15時友中央公園 西側,時友中央公園 西側,34.7684731,135.3869361,
兵庫県,尼崎市,405,武庫之荘9-10時友ナガラサ団地1棟 東側,時友ナガラサ団地１棟 東側,34.767606,135.3855543,
兵庫県,尼崎市,406,武庫之荘9-9友行(新幹線下)子ども広場 北側,友行(新幹線下)子ども広場 北側,34.7674559,135.3889385,
兵庫県,尼崎市,407,武庫之荘8-29時友なおさ第2子ども広場 南側,時友なおさ第２子ども広場 南側,34.7442846,135.4376425,緯度経度は怪しい
兵庫県,尼崎市,408,武庫之荘8-15友行西公園 北側,友行西公園 北側,34.7658726,135.3878589,
兵庫県,尼崎市,409,武庫之荘8-31-1県立武庫荘総合高等学校 西北門南側,県立武庫荘総合高等学校 西北門南側,34.765182,135.3863701,緯度経度は怪しい
兵庫県,尼崎市,410,武庫之荘8-1-1武庫東生涯学習プラザ 北側,武庫東生涯学習プラザ 北側,34.764187,135.3899718,
兵庫県,尼崎市,411,武庫之荘7-19友行公園 東側,友行公園 東側,34.7636001,135.3928798,
兵庫県,尼崎市,412,武庫之荘8-31-1県立武庫荘総合高等学校 南東側,県立武庫荘総合高等学校 南東側,34.765182,135.3863701,緯度経度は怪しい
兵庫県,尼崎市,413,武庫之荘6-11吹上公園 西側,吹上公園 西側,34.7626221,135.3883577,
兵庫県,尼崎市,414,武庫之荘6-15 地先友行坪井第2子ども広場 北側鉄柵,友行坪井第２子ども広場 北側鉄柵,34.7621828,135.3869897,
兵庫県,尼崎市,415,武庫之荘7-35-1武庫東中学校 南側,武庫東中学校 南側,34.7625201,135.3951663,
兵庫県,尼崎市,416,武庫之荘6-15-1武庫東小学校 東側,武庫東小学校 東側,34.7613675,135.3875464,
兵庫県,尼崎市,417,武庫之荘7-35-1武庫東中学校 西側,武庫東中学校 西側,34.7625201,135.3951663,
兵庫県,尼崎市,418,武庫之荘4丁目17武庫之荘公園 南側,武庫之荘公園 南側,34.7563194,135.391288,
兵庫県,尼崎市,419,武庫之荘3-15-13生津公園 北側,生津公園 北側,34.7548619,135.3877475,
兵庫県,尼崎市,420,武庫之荘2丁目19 地先武庫之荘幼稚園 北向防護柵,武庫之荘幼稚園 北向防護柵,34.7530006,135.388553,
兵庫県,尼崎市,421,武庫之荘1丁目33セントポリア武庫之荘 東側,セントポリア武庫之荘 東側,34.754234,135.392804,
兵庫県,尼崎市,422,武庫之荘西2丁目50生津前の蔵子ども広場 南側,生津前の蔵子ども広場 南側,34.7513082,135.3873225,
兵庫県,尼崎市,423,武庫之荘1丁目1阪急武庫之荘駅 北側西(バス停後),阪急武庫之荘駅 北側西（バス停後）,34.7517075,135.3932781,
兵庫県,尼崎市,424,武庫之荘1丁目5阪急武庫之荘駅 北側ロ-タリ-北東,阪急武庫之荘駅 北側ロータリー北東,34.7517075,135.3932781,
兵庫県,尼崎市,425,武庫之荘1丁目3 地先阪急中山街道踏切 北側防護柵,阪急中山街道踏切 北側防護柵,34.7518726,135.3951791,
兵庫県,尼崎市,426,水堂町4丁目3県営尼崎水堂高層住宅 西側,masked,34.7407657,135.3871404,
兵庫県,尼崎市,427,南武庫之荘12丁目18小袋公園 西,小袋公園 西,34.7403339,135.3836444,
兵庫県,尼崎市,428,南武庫之荘10丁目8下沢公園 南東,下沢公園 南東,34.7427531,135.3809246,
兵庫県,尼崎市,429,南武庫之荘10-54-12南武庫之荘改良住宅12棟 南側,masked,34.7415322,135.3835486,
兵庫県,尼崎市,430,水堂町4丁目10園河原公園 北側,園河原公園 北側,34.7429242,135.3880124,
兵庫県,尼崎市,431,南武庫之荘11-6-15地域総合センタ-南武庫之荘 西側,地域総合センター南武庫之荘 西側,34.7427525,135.3847461,
兵庫県,尼崎市,432,南武庫之荘7丁目13城の越公園 東側,城の越公園 東側,34.7465645,135.3850412,
兵庫県,尼崎市,433,南武庫之荘10丁目58南武庫之荘第4街園,南武庫之荘第４街園,34.7414001,135.3850707,
兵庫県,尼崎市,434,南武庫之荘6丁目6 地先高倉公園 南側,高倉公園 南側,34.7496236,135.3826828,
兵庫県,尼崎市,435,南武庫之荘6丁目9 地先阪急守部踏切 南東側,阪急守部踏切 南東側,34.7496109,135.3820281,
兵庫県,尼崎市,436,南武庫之荘6丁目11南武庫之荘6丁目交差点 北東側防護柵,南武庫之荘６丁目交差点 北東側防護柵,34.748932,135.3805589,
兵庫県,尼崎市,437,南武庫之荘8-21-1守部公園 東側,守部公園 東側,34.7463395,135.3819352,
兵庫県,尼崎市,438,南武庫之荘9-8-10武庫南保育所南,武庫南保育所南,34.7470413,135.3793553,
兵庫県,尼崎市,439,南武庫之荘9-12-22 地先たこ焼き「たこべえ」(竹内工務店)東向防護柵,たこ焼き「たこべえ」（竹内工務店）東向防護柵,34.746101,135.3805242,
兵庫県,尼崎市,440,南武庫之荘8丁目34駐車場 南側防護柵,駐車場 南側防護柵,34.7444347,135.3829831,
兵庫県,尼崎市,441,武庫町1丁目42栄町公園 南側,栄町公園 南側,34.7547395,135.3826509,
兵庫県,尼崎市,442,武庫町1丁目51県営尼崎武庫高層住宅 東側,masked,34.7539668,135.3853743,
兵庫県,尼崎市,443,武庫町3丁目16 地先武庫町2丁目バス停 西側防護柵,武庫町２丁目バス停 西側防護柵,34.75402,135.3791,
兵庫県,尼崎市,444,武庫町2丁目9西武庫中公園 西側入口,西武庫中公園 西側入口,34.752632,135.3801218,
兵庫県,尼崎市,445,武庫町3丁目1西武庫南公園 東側,西武庫南公園 東側,34.7515177,135.3784161,
兵庫県,尼崎市,446,武庫町4-11-1武庫南小学校 正門横,武庫南小学校 正門横,34.750885,135.3777076,
兵庫県,尼崎市,447,武庫町4丁目2 地先阪急守部踏切 北西防護柵,阪急守部踏切 北西防護柵,34.7499058,135.3802651,
兵庫県,尼崎市,448,武庫町1丁目4二本松公園 南側,二本松公園 南側,34.7505326,135.3839609,
兵庫県,尼崎市,449,西昆陽1-26-26常陽中学校 西側,常陽中学校 西側,34.767583,135.380489,
兵庫県,尼崎市,450,西昆陽1-26-26常陽中学校 東側,常陽中学校 東側,34.767583,135.380489,
兵庫県,尼崎市,451,西昆陽1-4新幹線高架下(武庫の里2丁目バス停前)南側,新幹線高架下（武庫の里２丁目バス停前）南側,34.7670219,135.3842615,
兵庫県,尼崎市,452,武庫の里2-9セブンイレブン 北側,セブンイレブン 北側,34.7641093,135.38504,
兵庫県,尼崎市,453,常松2-14-60(旧)武庫北幼稚園 東側,(旧)武庫北幼稚園 東側,34.768913,135.378211,
兵庫県,尼崎市,454,常松2-9常松新幹線下子ども広場 南側,常松新幹線下子ども広場 南側,34.7664809,135.3782451,
兵庫県,尼崎市,455,常松1-17常松南公園 東側,常松南公園 東側,34.7657151,135.378662,
兵庫県,尼崎市,456,武庫之荘本町1-13庄の内公園 東側,庄の内公園 東側,34.7578551,135.3939009,
兵庫県,尼崎市,457,武庫之荘本町2-12 地先武庫庄公園 西側,武庫庄公園 西側,34.7596058,135.3926151,
兵庫県,尼崎市,458,武庫之荘本町1-4水野歯科医院 北側,水野歯科医院 北側,34.7572234,135.3952917,
兵庫県,尼崎市,459,武庫之荘本町1-10武庫東からたち幼稚園 北側,武庫東からたち幼稚園 北側,34.7591458,135.3928653,
兵庫県,尼崎市,460,武庫之荘本町1-9西村宅 北西側,masked,34.7592981,135.3947382,
兵庫県,尼崎市,461,武庫之荘7-1-15 地先グランヴィア武庫之荘 東側,グランヴィア武庫之荘 東側,34.7612376,135.3921693,
兵庫県,尼崎市,462,武庫之荘7-9 地先樋口モ-タ-プ-ル 南側,樋口モータープール 南側,34.7618708,135.3905501,
兵庫県,尼崎市,463,武庫之荘7-5 地先ラ・ヴィ・リッシュ武庫之荘 北側,ラ・ヴィ・リッシュ武庫之荘 北側,34.761786,135.39562,
兵庫県,尼崎市,464,武庫之荘本町3-17 地先富松北公園 西側,富松北公園 西側,34.7607773,135.3976502,
兵庫県,尼崎市,465,武庫之荘1-15 地先コンフォ-ト武庫之荘 東側,コンフォート武庫之荘 東側,34.7536906,135.3937095,
兵庫県,尼崎市,466,武庫之荘本町3-21-1武庫庄小学校 西側,武庫庄小学校 西側,34.758384,135.396304,
兵庫県,尼崎市,467,武庫之荘本町3-21 地先武庫庄小学校 東側,武庫庄小学校 東側,34.758384,135.396304,
兵庫県,尼崎市,468,武庫之荘本町3-21-1武庫庄小学校 北側,武庫庄小学校 北側,34.758384,135.396304,
兵庫県,尼崎市,469,武庫之荘本町3-13富松北公園 東側,富松北公園 東側,34.7607773,135.3976502,
兵庫県,尼崎市,470,猪名寺2-4園田北小学校 東側 (位置情報が見つかりませんでした),園田北小学校 東側 (位置情報が見つかりませんでした),34.764314,135.423328,
兵庫県,尼崎市,471,食満2-8-1地先市住上食満魚取第2団地 北西角 防護柵,市住上食満魚取第２団地 北西角 防護柵,34.7607891,135.4339821,
兵庫県,尼崎市,472,南清水36-1ビレッジハウス南清水 東側 公園,ビレッジハウス南清水 東側 公園,34.7607973,135.4287488,
兵庫県,尼崎市,473,食満1-1-2園田小学校 北門横,園田小学校 北門横,34.7597346,135.4315443,
兵庫県,尼崎市,474,食満1-1-2園田小学校 西門横,園田小学校 西門横,34.7597346,135.4315443,
兵庫県,尼崎市,475,食満1-1-1園田中学校 南側,園田中学校 南側,34.7592139,135.4329029,
兵庫県,尼崎市,476,食満2-5上食満魚取第2子ども広場 東側金網,上食満魚取第２子ども広場 東側金網,34.7607891,135.4339821,
兵庫県,尼崎市,477,食満3-6地先市住上食満団地北側 防護柵,市住上食満団地北側 防護柵,34.7653171,135.4306098,緯度経度は怪しい
兵庫県,尼崎市,478,食満5-8 地先食満5丁目公園 南西側,食満５丁目公園 南西側,34.7585948,135.4392362,
兵庫県,尼崎市,479,食満5-21中食満公園 西側,中食満公園 西側,34.7587694,135.4374365,
兵庫県,尼崎市,480,食満5-8 地先食満5丁目公園 北東側,食満５丁目公園 北東側,34.7585948,135.4392362,
兵庫県,尼崎市,481,食満7-4 地先セレ-ノ園田 北西側 防護柵,セレーノ園田 北西側 防護柵,34.764314,135.423328,緯度経度は怪しい
兵庫県,尼崎市,482,食満7-14 地先南浦公園 北西角 防護柵,南浦公園 北西角 防護柵,34.7566488,135.4348907,
兵庫県,尼崎市,483,食満7-25南台公園 西側,南台公園 西側,34.7550878,135.4366968,
兵庫県,尼崎市,484,瓦宮1-1皇産霊神社 北側,皇産霊神社 北側,34.7538192,135.4360775,
兵庫県,尼崎市,485,若王寺2-16若王寺公園 北側,若王寺公園 北側,34.7490894,135.4370391,
兵庫県,尼崎市,486,若王寺3-5向田公園 南側,向田公園 南側,34.7455585,135.4356508,
兵庫県,尼崎市,487,若王寺3-23小園小学校 西側,小園小学校 西側,34.7452868,135.4381933,
兵庫県,尼崎市,488,若王寺3-23小園小学校 北側,小園小学校 北側,34.7452868,135.4381933,
兵庫県,尼崎市,489,小中島2-12小園中学校 南側,小園中学校 南側,34.7472388,135.4415533,
兵庫県,尼崎市,490,小中島2-12小園中学校 東側,小園中学校 東側,34.7472388,135.4415533,
兵庫県,尼崎市,491,小中島2-10 地先小中島(新幹線下)子ども広場 西側,小中島（新幹線下）子ども広場 西側,34.7484946,135.4439873,
兵庫県,尼崎市,492,小中島3-17小園幼稚園 東側,小園幼稚園 東側,34.7459176,135.4425652,
兵庫県,尼崎市,493,上坂部3-11-1コ-プ尼崎近松 北側,コープ尼崎近松 北側,34.7498105,135.4322644,
兵庫県,尼崎市,494,口田中2-8-1尼崎双星高等学校 南側,尼崎双星高等学校 南側,34.7522266,135.4356118,
兵庫県,尼崎市,495,瓦宮2-3-15高橋駐車場 北側,高橋駐車場 北側,34.7522877,135.4392143,
兵庫県,尼崎市,496,上坂部1-3サンワ-ド塚口 西側,サンワード塚口 西側,34.7506397,135.4272702,緯度経度は怪しい
兵庫県,尼崎市,497,若王寺1-1園田南小学校 西側,園田南小学校 西側,34.7514686,135.4332449,
兵庫県,尼崎市,498,上坂部3-4上坂部公園 南東側,上坂部公園 南東側,34.7499456,135.4299486,
兵庫県,尼崎市,499,瓦宮2-11瓦宮公園 東側,瓦宮公園 東側,34.751401,135.4388817,
兵庫県,尼崎市,500,瓦宮2-23高橋モ-タ-プ-ル 西側,高橋モータープール 西側,34.7522877,135.4392143,
兵庫県,尼崎市,501,口田中1-22丸橋公園 南西側,丸橋公園 南西側,34.75638989999999,135.433221,
兵庫県,尼崎市,502,御園2-9-1園田保育所 南側,園田保育所 南側,34.7560764,135.4306379,
兵庫県,尼崎市,503,口田中1-22-1丸橋公園 北東側,丸橋公園 北東側,34.75638989999999,135.433221,
兵庫県,尼崎市,504,口田中1-16-3 地先住宅地 北側防護柵,masked,34.7560746,135.4342432,
兵庫県,尼崎市,505,口田中1-20-1口田中住宅 東側,masked,34.7552084,135.4330271,
兵庫県,尼崎市,506,御園2-14素盞嗚神社 南西角,素盞嗚神社 南西角,34.7177189,135.4175182,緯度経度は怪しい
兵庫県,尼崎市,507,御園2-2-31 地先グランメ-ル御園 西側防護柵,グランメール御園 西側防護柵,34.7553395,135.4291255,
兵庫県,尼崎市,508,上坂部1-1 地先JR塚口駅 東側フェンス,ＪＲ塚口駅 東側フェンス,34.7509535,135.4249387,
兵庫県,尼崎市,509,東塚口町1-15上坂部小学校 南側,上坂部小学校 南側,34.7500973,135.4230363,
兵庫県,尼崎市,510,東塚口町1-9JR塚口駅 北西側,ＪＲ塚口駅 北西側,34.7509535,135.4249387,
兵庫県,尼崎市,511,上坂部1-36-19上坂部1丁目子ども公園(ス-パ-万代前),上坂部１丁目子ども公園（スーパー万代前）,34.7505019,135.4270288,
兵庫県,尼崎市,512,上坂部2-21市営上坂部団地 東側,市営上坂部団地 東側,34.7490802,135.4274479,
兵庫県,尼崎市,513,上坂部2-36西正寺 西側,西正寺 西側,34.748199,135.42937,緯度経度は怪しい
兵庫県,尼崎市,514,上坂部2-26上坂部集会所 東側,上坂部集会所 東側,34.7473227,135.4278958,
兵庫県,尼崎市,515,上坂部2-30上坂部保育園 南側,上坂部保育園 南側,34.746722,135.428101,
兵庫県,尼崎市,516,南塚口町2-4まえだ歯科 北東側,まえだ歯科 北東側,34.7528533,135.4171455,
兵庫県,尼崎市,517,南塚口町1-1阪急電鉄フェンス みずほ銀行北側,阪急電鉄フェンス みずほ銀行北側,34.7528654,135.416144,
兵庫県,尼崎市,518,南塚口町3-8レンタカ-店 東側,レンタカー店 東側,34.748659,135.4145083,緯度経度は怪しい
兵庫県,尼崎市,519,南塚口町1-24-16園田学園清明ホ-ル 向かい側,園田学園清明ホール 向かい側,34.7553941,135.4127552,緯度経度は怪しい
兵庫県,尼崎市,520,南塚口町4-4ハ-ティ21 北側,ハーティ２１ 北側,34.7580855,135.4117869,緯度経度は怪しい
兵庫県,尼崎市,521,南塚口町4-5ロイヤルホ-ムセンタ-塚口店 北西側,ロイヤルホームセンター塚口店 北西側,34.7513655,135.4152603,緯度経度は怪しい
兵庫県,尼崎市,522,南塚口町4-1森前公園 北側,森前公園 北側,34.7478838,135.4188162,
兵庫県,尼崎市,523,南塚口町3-21尼崎市民農園第2番 東側,尼崎市民農園第２番 東側,34.748659,135.4145083,緯度経度は怪しい
兵庫県,尼崎市,524,南塚口町4-1尼崎緑化公園協会 西側鉄柵,尼崎緑化公園協会 西側鉄柵,34.7492099,135.4258119,緯度経度は怪しい
兵庫県,尼崎市,525,猪名寺1-28東リ(株)駐車場 東側,東リ（株）駐車場 東側,34.7710542,135.4240729,緯度経度は怪しい
兵庫県,尼崎市,526,猪名寺1-15-35有明子ども広場 南側,有明子ども広場 南側,34.7687839,135.4239608,
兵庫県,尼崎市,527,猪名寺1-27-7猪名寺会館 西側,猪名寺会館 西側,34.7684633,135.4241802,
兵庫県,尼崎市,528,猪名寺1-2 地先小西電気 斜め前防護柵,小西電気 斜め前防護柵,34.767825,135.422976,
兵庫県,尼崎市,529,猪名寺1-21-36栃尾宅 南側,masked,34.76642350000001,135.4243602,
兵庫県,尼崎市,530,猪名寺2-4園田北小学校 西門横 (位置情報が見つかりませんでした),園田北小学校 西門横 (位置情報が見つかりませんでした),34.764314,135.423328,
兵庫県,尼崎市,531,猪名寺2-4-3稲荷公園 南側,稲荷公園 南側,34.7634292,135.4237045,
兵庫県,尼崎市,532,田能5-9田能農業公園 西側鉄柵,田能農業公園 西側鉄柵,34.7696692,135.4325245,
兵庫県,尼崎市,533,田能3-23-1覚円寺 東側,覚円寺 東側,34.7680391,135.4357961,
兵庫県,尼崎市,534,田能4-20 地先尼崎田能団地 北西側,尼崎田能団地 北西側,34.7667443,135.4368608,緯度経度は怪しい
兵庫県,尼崎市,535,田能3-26-15 地先橋本工務店倉庫 南側 防護柵,橋本工務店倉庫 南側 防護柵,34.7667443,135.4368608,緯度経度は怪しい
兵庫県,尼崎市,536,田能4-16 地先市営田能薬川団地1号棟 北側,市営田能薬川団地１号棟 北側,34.7667443,135.4368608,緯度経度は怪しい
兵庫県,尼崎市,537,田能4-11 地先園田ダイヤハイツ 北側,園田ダイヤハイツ 北側,34.7646236,135.4368476,
兵庫県,尼崎市,538,田能3-9-20 地先阪神水道企業団管理用地 北側防護柵,阪神水道企業団管理用地 北側防護柵,34.7695296,135.4318998,緯度経度は怪しい
兵庫県,尼崎市,539,田能1-7-3園田公園 北側,園田公園 北側,34.7639309,135.4425896,緯度経度は怪しい
兵庫県,尼崎市,540,田能1-5園田競馬場第1駐車場 北側フェンス,園田競馬場第１駐車場 北側フェンス,34.7642211,135.4439378,
兵庫県,尼崎市,541,椎堂1-11園田競馬場第6駐車場 東側フェンス,園田競馬場第６駐車場　東側フェンス,34.763568,135.446279,
兵庫県,尼崎市,542,田能1-3地先村田宅前(園和北小学校東側通学路) 防護柵,masked,34.7630596,135.4422883,
兵庫県,尼崎市,543,田能1丁目7-1 地先園和北小学校 南側鉄柵,園和北小学校　南側鉄柵,34.7630596,135.4422883,
兵庫県,尼崎市,544,東園田町3丁目36 地先上園公園 西側(下食満側),上園公園　西側（下食満側）,34.7597645,135.4426356,緯度経度は怪しい
兵庫県,尼崎市,545,東園田町3-40穴太公園 北側,穴太公園　北側,34.7587279,135.4458277,
兵庫県,尼崎市,546,東園田町2-41-1冨田北公園 北側,冨田北公園　北側,34.7592216,135.4488604,
兵庫県,尼崎市,547,東園田町4-141 地先ガ-デン東園田 北側防護柵,ガーデン東園田　北側防護柵,34.7574522,135.4451022,
兵庫県,尼崎市,548,東園田町9-20-1園和公園(東) 北側,園和公園（東）　北側,34.7527477,135.4450853,
兵庫県,尼崎市,549,東園田町4-130 地先北消防署園田分署 北側防護柵,北消防署園田分署　北側防護柵,34.7553336,135.4443988,
兵庫県,尼崎市,550,東園田町4-79園和小学校 旧東門北側,園和小学校　旧東門北側,34.75383800000001,135.4469123,
兵庫県,尼崎市,551,東園田町4-79園和小学校 西門横,園和小学校　西門横,34.75383800000001,135.4469123,
兵庫県,尼崎市,552,東園田町9-20園和公園(園田橋線西) 東側,園和公園（園田橋線西）　東側,34.7527477,135.4450853,
兵庫県,尼崎市,553,東園田町4-154 地先下食満公園 南側,下食満公園　南側,34.7562456,135.4424232,
兵庫県,尼崎市,554,東園田町9-3-1下園公園 北側,下園公園　北側,34.7499933,135.4494177,
兵庫県,尼崎市,555,東園田町1-26 地先東園田(西豊線高架下)子ども広場,東園田（西豊線高架下）子ども広場,34.747547,135.4543823,緯度経度は怪しい
兵庫県,尼崎市,556,東園田町1-129 地先西浦公園 南東側,西浦公園　南東側,34.7570533,135.4519539,
兵庫県,尼崎市,557,東園田町5-1ダイヤハイツ東側,ダイヤハイツ東側,34.755689,135.4512466,
兵庫県,尼崎市,558,東園田町5-80園田東中学校 北側,園田東中学校　北側,34.7544783,135.4509557,
兵庫県,尼崎市,559,東園田町5-80園田東中学校 西側,園田東中学校　西側,34.7544783,135.4509557,
兵庫県,尼崎市,560,東園田町5-80園田東中学校 東側,園田東中学校　東側,34.7544783,135.4509557,
兵庫県,尼崎市,561,東園田町1-236 地先冨田公園 北西側,冨田公園　北西側,34.7543391,135.4527408,
兵庫県,尼崎市,562,東園田町6-47 地先東園田町6丁目子ども広場 南側,東園田町６丁目子ども広場　南側,34.7499626,135.4548355,
兵庫県,尼崎市,563,東園田町7-1市営東園和団地南側,市営東園和団地南側,34.7504607,135.4561019,
兵庫県,尼崎市,564,東園田町7-10 地先東園田団地7号棟 南東側,東園田団地７号棟　南東側,34.7476973,135.4557086,
兵庫県,尼崎市,565,東園田町8-98 地先松栄荘前,松栄荘前,34.7481923,135.4538093,
兵庫県,尼崎市,566,東園田町8-101園田(阪急高架下)東子ども広場 西側,園田（阪急高架下）東子ども広場　西側,34.7491776,135.4525014,
兵庫県,尼崎市,567,東園田町8-63東園田(名神下)子ども広場 北側,東園田（名神下）子ども広場　北側,34.747547,135.4543823,
兵庫県,尼崎市,568,東園田町8-7園田東小学校 北側,園田東小学校　北側,34.7453723,135.456166,
兵庫県,尼崎市,569,東園田町8-7園田東小学校 西側,園田東小学校　西側,34.7453723,135.456166,
兵庫県,尼崎市,570,戸ノ内町1-2戸ノ内殿/内子ども広場 北側,戸ノ内殿/内子ども広場　北側,34.7374395,135.4535932,緯度経度は怪しい
兵庫県,尼崎市,571,戸ノ内町3-27-1園田東会館 西側,園田東会館　西側,34.7369613,135.4570137,
兵庫県,尼崎市,572,戸ノ内町3-37戸ノ内四王田公園 東側,戸ノ内四王田公園　東側,34.7397906,135.4559129,
兵庫県,尼崎市,573,戸ノ内町1-3(旧)猪名川緑地 西側,（旧）猪名川緑地　西側,34.7443092,135.4595461,
兵庫県,尼崎市,574,戸ノ内町5-3市営浜西団地3号棟 西側,市営浜西団地３号棟　西側,34.7357906,135.4548465,
兵庫県,尼崎市,575,戸ノ内町6-28ファミリ-マ-ト尼崎戸ノ内店 南側,ファミリーマート尼崎戸ノ内店　南側,34.7374395,135.4535932,
兵庫県,尼崎市,576,戸ノ内町6-3市営戸ノ内改良住宅2号棟 南側,masked,34.737963,135.4542622,
