prefecture,city,number,address,name,lat,long,note
兵庫県,川西市,1,中央町1番3号川西第2駐車場(南側)金網,川西第2駐車場（南側）金網,34.8297592,135.4159487,
兵庫県,川西市,2,中央町10番20号西日本高速道路(株)関西支社阪神改築事務所金網,西日本高速道路(株)関西支社阪神改築事務所金網,34.8303424,135.4153039,
兵庫県,川西市,3,中央町12番1号川西市役所庁舎(西側)前,川西市役所庁舎（西側）前,34.8303133,135.4174053,
兵庫県,川西市,4,中央町12番1号川西市役所庁舎駐車場東側出口付近,川西市役所庁舎駐車場東側出口付近,34.8303133,135.4174053,
兵庫県,川西市,5,日高町7番市営新生団地駐輪場裏金網,市営新生団地駐輪場裏金網,34.8335921,135.4155086,
兵庫県,川西市,6,栄町8番改良住宅H棟北側改良遊園地金網,改良住宅H棟北側改良遊園地金網,34.8306503,135.4117684,
兵庫県,川西市,7,栄町13番18号日本郵便株式会社川西支店(東側)ブロック塀,日本郵便株式会社川西支店（東側）ブロック塀,34.8297471,135.4123085,
兵庫県,川西市,8,小花1丁目8番1号ジョイン川西東面共用部(植栽部),ジョイン川西東面共用部（植栽部）,34.8263949,135.4152224,
兵庫県,川西市,9,栄町20番川西能勢口駅・ラゾラ川西高架連絡歩行者通路鉄柵,川西能勢口駅・ラゾラ川西高架連絡歩行者通路鉄柵,34.8276771,135.4131002,
兵庫県,川西市,10,栄町24番川西能勢口駅・アステ川西高架連絡歩行者通路,川西能勢口駅・アステ川西高架連絡歩行者通路,34.8272472,135.4125971,
兵庫県,川西市,11,栄町24番川西能勢口駅・アステ川西北側植込,川西能勢口駅・アステ川西北側植込,34.8272472,135.4125971,
兵庫県,川西市,12,栄町27番栄南団地南東鉄柵(5号棟横),栄南団地南東鉄柵（5号棟横）,34.8258354,135.4110734,
兵庫県,川西市,13,栄町27番栄南団地西側鉄柵(10号棟横),栄南団地西側鉄柵（10号棟横）,34.8258354,135.4110734,
兵庫県,川西市,14,栄根2丁目5番JR川西池田北第2自転車駐車場金網,JR川西池田北第2自転車駐車場金網,34.8251675,135.4108251,
兵庫県,川西市,15,栄根2丁目6番JR川西池田駅北歩行者デッキ鉄柵,JR川西池田駅北歩行者デッキ鉄柵,34.8251675,135.4108251,
兵庫県,川西市,16,栄根2丁目7番アルデア橋北寺畑1丁目交差点緑地,アルデア橋北寺畑1丁目交差点緑地,34.8245784,135.4089219,
兵庫県,川西市,17,栄町20番川西能勢口駅高架下県道川西篠山線沿(西側)金網,川西能勢口駅高架下県道川西篠山線沿（西側）金網,34.8276771,135.4131002,
兵庫県,川西市,18,小花1丁目1番川西能勢口駅高架下県道川西篠山線沿(東側)金網,川西能勢口駅高架下県道川西篠山線沿（東側）金網,34.8276771,135.4131002,
兵庫県,川西市,19,小花2丁目9番呉服橋西詰交差点北側ドラゴンランド鉄柵,呉服橋西詰交差点北側ドラゴンランド鉄柵,34.826751,135.4211661,緯度経度は怪しい
兵庫県,川西市,20,小花2丁目5番みつなかホ-ル駐輪場金網,みつなかホール駐輪場金網,34.825862,135.4188113,
兵庫県,川西市,21,小花2丁目5番シャンテ川西専用駐車場金網,シャンテ川西専用駐車場金網,34.8257147,135.4183039,
兵庫県,川西市,22,小花2丁目7番シャンテ川西南側,シャンテ川西南側,34.8254853,135.4192072,
兵庫県,川西市,23,小花2丁目16番小花2の3児童遊園地鉄柵,小花2の3児童遊園地鉄柵,34.8252327,135.4187797,
兵庫県,川西市,24,小戸2丁目9番中橋南約100m猪名川沿ドラゴンランド鉄柵,中橋南約100m猪名川沿ドラゴンランド鉄柵,34.8280553,135.4224481,
兵庫県,川西市,25,小戸2丁目13番12号市立鶴寿会館前鉄柵,市立鶴寿会館前鉄柵,34.8274518,135.4193786,
兵庫県,川西市,26,小戸2丁目4番宮崎医院東側金網,宮崎医院東側金網,34.8267488,135.4176694,
兵庫県,川西市,27,小戸1丁目1番能勢電鉄高架下能勢電北駐輪センタ-金網,能勢電鉄高架下能勢電北駐輪センター金網,34.8286544,135.4177429,
兵庫県,川西市,28,小戸1丁目5番杉町医院南側高架下・川西能勢口駐輪センタ-金網,杉町医院南側高架下・川西能勢口駐輪センター金網,34.8271392,135.4166636,
兵庫県,川西市,29,小戸1丁目15番13号鶴之荘幼稚園西側フェンス,鶴之荘幼稚園西側フェンス,34.829277,135.4192023,
兵庫県,川西市,30,小戸1丁目10番川西市役所公用車置き場東側金網,川西市役所公用車置き場東側金網,34.8291438,135.4173018,
兵庫県,川西市,31,小戸3丁目11番阪神高速道路11号池田線新猪名川大橋下ガ-ドレ-ル,阪神高速道路11号池田線新猪名川大橋下ガードレール,34.8313238,135.4237662,
兵庫県,川西市,32,小戸3丁目12番10号市心身障害者総合福祉センタ-(西側)金網,市心身障害者総合福祉センター(西側)金網,34.8307638,135.4222799,
兵庫県,川西市,33,小戸3丁目24番猪名川工事事務所小戸備蓄倉庫南東向かいガ-ドレ-ル,猪名川工事事務所小戸備蓄倉庫南東向かいガードレール,34.8315606,135.423085,
兵庫県,川西市,34,美園町3番小戸美園公園鉄柵,小戸美園公園鉄柵,34.8319405,135.4192229,
兵庫県,川西市,35,絹延町3番絹延町児童遊園地金網,絹延町児童遊園地金網,34.8356544,135.4228442,
兵庫県,川西市,36,火打1丁目12番16号キセラ川西プラザ福祉棟東側,キセラ川西プラザ福祉棟東側,34.8338487,135.4188733,
兵庫県,川西市,37,火打1丁目1番4号川西市総合体育館西側フェンス,川西市総合体育館西側フェンス,34.8339573,135.4183043,
兵庫県,川西市,38,火打1丁目3番3号市民温水プ-ル駐車場フェンス,市民温水プール駐車場フェンス,34.8331216,135.4160993,
兵庫県,川西市,39,火打1丁目9番キセラ川西プラザ西駐車場,キセラ川西プラザ西駐車場,34.8356569,135.4175959,
兵庫県,川西市,40,出在家町1番11号旧川西市役所分庁舎前,旧川西市役所分庁舎前,34.837074,135.4210451,
兵庫県,川西市,41,出在家町3番出在家公園(東側)金網,出在家公園(東側)金網,34.8367622,135.4225562,
兵庫県,川西市,42,丸の内町7番1号川西北こども園フェンス,川西北こども園フェンス,34.8396598,135.418625,
兵庫県,川西市,43,丸の内町7番1号川西北小学校北側出入口横金網,川西北小学校北側出入口横金網,34.8402519,135.419739,
兵庫県,川西市,44,滝山町20番2号市営滝山団地前,市営滝山団地前,34.8456682,135.4206988,
兵庫県,川西市,45,鷲の森町7番14号能勢電鉄鷲の森駅(西側)鉄柵,能勢電鉄鷲の森駅(西側)鉄柵,34.8301986,135.4173955,
兵庫県,川西市,46,鷲の森町15番鷲の森第一公園ガ-ドレ-ル,鷲の森第一公園ガードレール,34.8301986,135.4173955,
兵庫県,川西市,47,萩原2丁目3番八皇子神社横水路脇ガ-ドレ-ル,八皇子神社横水路脇ガードレール,34.8415144,135.4163226,
兵庫県,川西市,48,鷲が丘1番鷲が丘第1公園西側鉄柵,鷲が丘第1公園西側鉄柵,34.8424245,135.4150461,緯度経度は怪しい
兵庫県,川西市,49,鷲が丘9番鷲が丘緑地(阪急バス鷲が丘第1公園前バス停北西三叉路),鷲が丘緑地(阪急バス鷲が丘第1公園前バス停北西三叉路),34.84468,135.41506,緯度経度は怪しい
兵庫県,川西市,50,鷲が丘16番鷲が丘第3公園鉄柵,鷲が丘第3公園鉄柵,34.8480123,135.4149511,緯度経度は怪しい
兵庫県,川西市,51,鷲が丘26番地の3鷲が丘第2公園鉄柵,鷲が丘第2公園鉄柵,34.882531,135.4002513,緯度経度は怪しい
兵庫県,川西市,52,萩原2丁目13番7号萩原2丁目・萩の里共同自治会館前フェンス石垣,萩原2丁目・萩の里共同自治会館前フェンス石垣,34.8437484,135.4165965,
兵庫県,川西市,53,萩原台西1丁目88番地萩原台自治会館前鉄柵,萩原台自治会館前鉄柵,34.8445961,135.4113904,
兵庫県,川西市,54,萩原台東2丁目122番地萩原台さぼてん公園脇ガ-ドレ-ル,萩原台さぼてん公園脇ガードレール,34.8460796,135.4125692,
兵庫県,川西市,55,萩原台西1丁目229番地の4萩原台第2公園鉄柵,萩原台第2公園鉄柵,34.842394,135.4117597,緯度経度は怪しい
兵庫県,川西市,56,萩原台西1丁目392番地萩原台きのこ公園鉄柵,萩原台きのこ公園鉄柵,34.8445376,135.4090389,
兵庫県,川西市,57,萩原台西3丁目268番地萩原台第5公園鉄柵,萩原台第5公園鉄柵,34.8487921,135.4085135,
兵庫県,川西市,58,萩原台西3丁目70番地萩原台第4公園鉄柵,萩原台第4公園鉄柵,34.8462659,135.4107441,
兵庫県,川西市,59,萩原台西3丁目242番地市立明峰小学校金網,市立明峰小学校金網,34.847758,135.409931,
兵庫県,川西市,60,鳶台1丁目202鳶の森第2公園(西側)金網 (位置情報が見つかりませんでした),鳶の森第2公園(西側)金網 (位置情報が見つかりませんでした),34.8301986,135.4173955,
兵庫県,川西市,61,鳶台1丁目5番地の4鳶台自治会館西側入口 (位置情報が見つかりませんでした),鳶台自治会館西側入口 (位置情報が見つかりませんでした),34.8301986,135.4173955,
兵庫県,川西市,62,鳶台1丁目15番ぼら公園北約30m鉄柵 (位置情報が見つかりませんでした),ぼら公園北約30m鉄柵 (位置情報が見つかりませんでした),34.8301986,135.4173955,
兵庫県,川西市,63,鳶台1丁目1906鳶の森第3公園ガ-ドレ-ル (位置情報が見つかりませんでした),鳶の森第3公園ガードレール (位置情報が見つかりませんでした),34.8480123,135.4149511,緯度経度は怪しい
兵庫県,川西市,64,鳶台2丁目1801鳶の森第4公園(南側)金網 (位置情報が見つかりませんでした),鳶の森第4公園(南側)金網 (位置情報が見つかりませんでした),34.8301986,135.4173955,
兵庫県,川西市,65,火打2丁目7番22号火打公民館(北側)金網,火打公民館(北側)金網,34.8356313,135.4139977,
兵庫県,川西市,66,火打2丁目8番勝福寺前バス停南約30m防火水槽金網,勝福寺前バス停南約30m防火水槽金網,34.8359561,135.4152434,
兵庫県,川西市,67,松が丘町1番1号市立川西中学校校庭金網,市立川西中学校校庭金網,34.8362214,135.4109432,
兵庫県,川西市,68,霞ヶ丘1丁目3番10号先親和幼稚園横ガ-ドレ-ル,親和幼稚園横ガードレール,34.8362853,135.4125713,
兵庫県,川西市,69,日高町1番2号川西市総合センタ-金網,川西市総合センター金網,34.832353,135.4138507,
兵庫県,川西市,70,日高町4番1号市立桜が丘小学校(北側)金網,市立桜が丘小学校(北側)金網,34.833295,135.412623,
兵庫県,川西市,71,日高町8番市営日高団地B棟駐輪場鉄柵,市営日高団地B棟駐輪場鉄柵,34.8338417,135.4147188,
兵庫県,川西市,72,花屋敷2丁目2番13号花屋敷さくら会館金網,花屋敷さくら会館金網,34.8299219,135.4065691,
兵庫県,川西市,73,花屋敷2丁目6番はなみずき公園,はなみずき公園,34.8290976,135.4045921,
兵庫県,川西市,74,寺畑1丁目12番寺畑なか公園,寺畑なか公園,34.8270475,135.4072043,
兵庫県,川西市,75,寺畑1丁目6番寺畑1丁目公園金網,寺畑1丁目公園金網,34.8259612,135.4094603,
兵庫県,川西市,76,寺畑2丁目2番寺畑さか公園前ガ-ドレ-ル,寺畑さか公園前ガードレール,34.8265656,135.4056704,
兵庫県,川西市,77,寺畑2丁目9番阪急電鉄雲雀丘花屋敷駅鉄柵,阪急電鉄雲雀丘花屋敷駅鉄柵,34.8268551,135.4051762,
兵庫県,川西市,78,満願寺町5番19号満願寺ふれあい会館西隣エリュ-ルハイツ川西前,満願寺ふれあい会館西隣エリュールハイツ川西前,34.8364933,135.3945795,
兵庫県,川西市,79,満願寺町10番阪急バス満願寺バス停南ガ-ドレ-ル,阪急バス満願寺バス停南ガードレール,34.8367269,135.3917257,
兵庫県,川西市,80,満願寺町10番鈴木氏宅西側ガ-ドレ-ル,鈴木氏宅西側ガードレール,34.8367269,135.3917257,
兵庫県,川西市,81,小花2丁目22番10号栴会児童遊園地鉄柵,栴会児童遊園地鉄柵,34.8241961,135.4170236,
兵庫県,川西市,82,小花2丁目28番中央南児童遊園地鉄柵,中央南児童遊園地鉄柵,34.8219524,135.4157508,
兵庫県,川西市,83,栄根1丁目1番1号市立川西小学校(北側)金網,市立川西小学校(北側)金網,34.8230183,135.4147557,
兵庫県,川西市,84,栄根1丁目1番1号市立川西小学校校庭(東側)金網,市立川西小学校校庭(東側)金網,34.8230183,135.4147557,
兵庫県,川西市,85,栄根1丁目1番1号市立川西小学校校庭(南側)フェンス,市立川西小学校校庭(南側)フェンス,34.8226301,135.4138375,
兵庫県,川西市,86,栄根2丁目7番ラプルミエ花屋敷前ガ-ドレ-ル,ラプルミエ花屋敷前ガードレール,34.824759,135.4081064,
兵庫県,川西市,87,栄根2丁目8番栄根墓地東ガ-ドレ-ル,栄根墓地東ガードレール,34.8239476,135.4096569,
兵庫県,川西市,88,栄根2丁目9番栄根公園金網,栄根公園金網,34.824023,135.4102885,
兵庫県,川西市,89,栄根2丁目17番6号川西市前川雨水ポンプ場金網,川西市前川雨水ポンプ場金網,34.8224991,135.4096734,
兵庫県,川西市,90,南花屋敷1丁目2番23号南花屋敷安心コミュニティプラザ金網,南花屋敷安心コミュニティプラザ金網,34.8250961,135.4051979,
兵庫県,川西市,91,南花屋敷1丁目4番クリス歯科クリニック前ガ-ドレ-ル,クリス歯科クリニック前ガードレール,34.8252249,135.406656,
兵庫県,川西市,92,南花屋敷1丁目9番ラサ工業(株)川西社宅東約50m最明寺川沿ガ-ドレ-ル,ラサ工業(株)川西社宅東約50m最明寺川沿ガードレール,34.8236924,135.4073049,
兵庫県,川西市,93,南花屋敷4丁目2番寺畑前川橋交差点西川沿ガ-ドレ-ル,寺畑前川橋交差点西川沿ガードレール,34.8244103,135.404659,
兵庫県,川西市,94,南花屋敷4丁目5番南花屋敷自転車駐車場南側寺畑前川沿鉄柵,南花屋敷自転車駐車場南側寺畑前川沿鉄柵,34.8239425,135.4026342,
兵庫県,川西市,95,南花屋敷4丁目10番南花屋敷第2公園鉄柵,南花屋敷第2公園鉄柵,34.8230512,135.4054568,
兵庫県,川西市,96,南花屋敷4丁目23番東洋食品工業短期大学西側水路鉄柵(北側),東洋食品工業短期大学西側水路鉄柵(北側),34.8244583,135.4009273,
兵庫県,川西市,97,南花屋敷4丁目23番東洋食品工業短期大学西側水路鉄柵(南側),東洋食品工業短期大学西側水路鉄柵(南側),34.8244583,135.4009273,
兵庫県,川西市,98,南花屋敷2丁目7番南花屋敷第2公園南約100m空地,南花屋敷第2公園南約100m空地,34.8230512,135.4054568,
兵庫県,川西市,99,南花屋敷2丁目13番川西市文化財資料館駐車場金網,川西市文化財資料館駐車場金網,34.8197273,135.4055107,
兵庫県,川西市,100,南花屋敷3丁目19番最明寺川沿ガ-ドレ-ル,最明寺川沿ガードレール,34.8209803,135.4008374,
兵庫県,川西市,101,南花屋敷3丁目14番東洋食品工業短期大学斉志寮北最明寺川沿ガ-ドレ-ル,東洋食品工業短期大学斉志寮北最明寺川沿ガードレール,34.8211052,135.4023072,
兵庫県,川西市,102,加茂1丁目4番旧加茂遺跡資料室金網(現在は空地),旧加茂遺跡資料室金網(現在は空地),34.8209458,135.4078623,
兵庫県,川西市,103,加茂1丁目4番5号旧川西市立加茂幼稚園,旧川西市立加茂幼稚園,34.8197687,135.4070312,
兵庫県,川西市,104,加茂2丁目10番23号常忍寺前,常忍寺前,34.8170328,135.4060213,
兵庫県,川西市,105,加茂3丁目13番旧川西高等学校北グラウンドフェンス,旧川西高等学校北グラウンドフェンス,34.8129882,135.4030421,
兵庫県,川西市,106,加茂4丁目8番1号市営加茂桃源団地1号棟前,市営加茂桃源団地1号棟前,34.8133419,135.4040962,
兵庫県,川西市,107,加茂4丁目8番3号市営加茂桃源団地3号棟前,市営加茂桃源団地3号棟前,34.8119326,135.4042137,
兵庫県,川西市,108,加茂4丁目8番3号市営加茂桃源団地2号棟東側,市営加茂桃源団地2号棟東側,34.8127473,135.4041333,
兵庫県,川西市,109,加茂3丁目3番加茂3児童遊園地金網,加茂3児童遊園地金網,34.8176795,135.4021352,
兵庫県,川西市,110,加茂1丁目9番14号板床氏宅東側水路沿ガ-ドレ-ル,板床氏宅東側水路沿ガードレール,34.819341,135.4098021,
兵庫県,川西市,111,加茂1丁目13番3号加茂第二会館金網,加茂第二会館金網,34.8176432,135.408426,
兵庫県,川西市,112,加茂1丁目14番加茂1丁目公園金網,加茂1丁目公園金網,34.8184954,135.408662,
兵庫県,川西市,113,加茂1丁目18番30号旧市立ふたば幼稚園鉄柵,旧市立ふたば幼稚園鉄柵,34.8162031,135.4093354,
兵庫県,川西市,114,加茂5丁目3国道176号線側道植樹帯(植え込み),国道176号線側道植樹帯（植え込み）,34.8115291,135.4106859,
兵庫県,川西市,115,下加茂1丁目27番上加茂橋南側最明寺川沿ガ-ドレ-ル,上加茂橋南側最明寺川沿ガードレール,34.8178502,135.4108554,
兵庫県,川西市,116,下加茂1丁目32番市立加茂保育所前最明寺川沿ガ-ドレ-ル,市立加茂保育所前最明寺川沿ガードレール,34.8165857,135.411127,
兵庫県,川西市,117,加茂6丁目3-1放置自転車保管センタ-金網,放置自転車保管センター金網,34.8121915,135.4139202,
兵庫県,川西市,118,下加茂1丁目22番29号下加茂会館金網,下加茂会館金網,34.8165239,135.4129498,
兵庫県,川西市,119,下加茂2丁目4番県営川西下加茂住宅(南側)金網,県営川西下加茂住宅(南側)金網,34.8142798,135.4130381,
兵庫県,川西市,120,下加茂2丁目4番県営川西下加茂住宅(東側)金網,県営川西下加茂住宅(東側)金網,34.8142798,135.4130381,
兵庫県,川西市,121,下加茂2丁目4番県営川西下加茂住宅(西側)金網,県営川西下加茂住宅(西側)金網,34.8142798,135.4130381,
兵庫県,川西市,122,久代3丁目1番市立川西南中学校第二グランド(西側)金網,市立川西南中学校第二グランド(西側)金網,34.809525,135.407574,緯度経度は怪しい
兵庫県,川西市,123,久代3丁目2番1号上水道久代浄水場鉄柵,上水道久代浄水場鉄柵,34.8102991,135.4058985,
兵庫県,川西市,124,久代3丁目14番桝塚公園鉄柵,桝塚公園鉄柵,34.8066117,135.40664,
兵庫県,川西市,125,久代3丁目16番18号上水道坂之上調整池金網,上水道坂之上調整池金網,34.8076292,135.4080947,
兵庫県,川西市,126,久代3丁目16番29号川西南公民館(川西南行政センタ-)金網,川西南公民館(川西南行政センター)金網,34.8086732,135.4075926,
兵庫県,川西市,127,久代3丁目27番9号市立久代小学校(東側)金網,市立久代小学校(東側)金網,34.8047621,135.4075864,
兵庫県,川西市,128,久代4丁目1番自衛隊阪神病院バス停前,自衛隊阪神病院バス停前,34.8072981,135.4034764,
兵庫県,川西市,129,久代4丁目2番7号市立共同利用施設西久代会館,市立共同利用施設西久代会館,34.8050224,135.4043326,
兵庫県,川西市,130,久代1丁目9番久成寺東約70m水路沿ガ-ドレ-ル,久成寺東約70m水路沿ガードレール,34.8071056,135.4127752,
兵庫県,川西市,131,久代1丁目9番北ノ口公園鉄柵,北ノ口公園鉄柵,34.8080956,135.4128492,
兵庫県,川西市,132,久代2丁目5番市立共同利用施設北久代会館北側空地金網,市立共同利用施設北久代会館北側空地金網,34.81038,135.4094585,
兵庫県,川西市,133,久代2丁目9番市立久代幼稚園北約100m水路沿鉄柵,市立久代幼稚園北約100m水路沿鉄柵,34.8060435,135.4098878,
兵庫県,川西市,134,久代2丁目12番6号市立共同利用施設久代会館金網,市立共同利用施設久代会館金網,34.80547,135.409872,
兵庫県,川西市,135,久代2丁目14番川西市消防団第4分団久代部格納庫敷地金網,川西市消防団第4分団久代部格納庫敷地金網,34.8053517,135.411421,
兵庫県,川西市,136,久代5丁目6番槻田公園鉄柵,槻田公園鉄柵,34.8035576,135.4105389,
兵庫県,川西市,137,久代5丁目地内プロペラ公園鉄柵,プロペラ公園鉄柵,34.80202,135.4094667,
兵庫県,川西市,138,久代5丁目12番陸上自衛隊伊丹駐屯地中部分面総監部北西角,陸上自衛隊伊丹駐屯地中部分面総監部北西角,34.8022756,135.4068639,
兵庫県,川西市,139,久代6丁目1番JR北伊丹駅北側駐輪場鉄柵,JR北伊丹駅北側駐輪場鉄柵,34.8020546,135.4153905,
兵庫県,川西市,140,久代6丁目2番エンゼルハイムふれあい会館前金網,エンゼルハイムふれあい会館前金網,34.8029168,135.4152703,
兵庫県,川西市,141,久代6丁目2番6号久代交番金網,久代交番金網,34.8029776,135.4124535,
兵庫県,川西市,142,東久代1丁目7番三葉公園(北側)金網,三葉公園(北側)金網,34.8074414,135.4190372,
兵庫県,川西市,143,東久代1丁目10番東久代2児童遊園地金網,東久代2児童遊園地金網,34.8055453,135.4192836,
兵庫県,川西市,144,東久代2丁目8番東久代2丁目公園(南側),東久代2丁目公園(南側),34.8068598,135.4166135,
兵庫県,川西市,145,東久代2丁目10番11号市立共同利用施設東久代会館金網,市立共同利用施設東久代会館金網,34.8061147,135.4163177,
兵庫県,川西市,146,東久代2丁目13番新村ノ西公園鉄柵,新村ノ西公園鉄柵,34.8065682,135.4177758,
兵庫県,川西市,147,東久代2丁目14番7号上水道高芝水源池(東側)金網,上水道高芝水源池(東側)金網,34.8051984,135.4183808,
兵庫県,川西市,148,東久代2丁目17番高芝児童遊園地西50m緑地金網,高芝児童遊園地西50m緑地金網,34.8043435,135.4179248,
兵庫県,川西市,149,平野1丁目11番平野東公園鉄柵,平野東公園鉄柵,34.8637266,135.4181319,
兵庫県,川西市,150,平野2丁目18番駐車場南側フェンス,駐車場南側フェンス,34.8656281,135.4140673,
兵庫県,川西市,151,平野2丁目20番17号平野公民館前,平野公民館前,34.8671214,135.4147107,
兵庫県,川西市,152,平野2丁目31番中林氏宅北東ガ-ドレ-ル,中林氏宅北東ガードレール,34.8667879,135.4122296,
兵庫県,川西市,153,平野3丁目15番阪急バス平野バスタ-ミナル内鉄柵,阪急バス平野バスターミナル内鉄柵,34.8706939,135.4170813,
兵庫県,川西市,154,多田桜木2丁目6番新在家緑地鉄柵,新在家緑地鉄柵,34.8614578,135.4146786,
兵庫県,川西市,155,多田桜木2丁目11番兵庫六甲農協多田支店東国道沿ガ-ドレ-ル,兵庫六甲農協多田支店東国道沿ガードレール,34.8620335,135.4157548,
兵庫県,川西市,156,多田桜木1丁目4番下滝公園,下滝公園,34.8544935,135.4169501,
兵庫県,川西市,157,多田桜木1丁目4番イオンタウン川西北側道路沿ガ-ドレ-ル,イオンタウン川西北側道路沿ガードレール,34.8556889,135.4174814,
兵庫県,川西市,158,多田桜木1丁目5番鼓滝自転車駐車場金網,鼓滝自転車駐車場金網,34.8557458,135.4183918,
兵庫県,川西市,159,多田桜木1丁目7番24号川西市コミュニティセンタ-多田東会館金網,川西市コミュニティセンター多田東会館金網,34.8577933,135.4172392,
兵庫県,川西市,160,東多田1丁目16番20号市立多田保育所(東側)金網,市立多田保育所(東側)金網,34.8589389,135.4182781,
兵庫県,川西市,161,東多田1丁目24番(株)東洋園芸多田農場南側道路沿ガ-ドレ-ル,(株)東洋園芸多田農場南側道路沿ガードレール,34.8584701,135.4206464,
兵庫県,川西市,162,東多田3丁目1番21号能勢電鉄多田駅金網,能勢電鉄多田駅金網,34.8604767,135.4168247,
兵庫県,川西市,163,東多田3丁目22番7号市立多田東小学校前鉄柵,市立多田東小学校前鉄柵,34.8636605,135.4205855,
兵庫県,川西市,164,鼓が滝1丁目29-3そうけん薬局前道路鉄柵,そうけん薬局前道路鉄柵,34.8551205,135.4202059,
兵庫県,川西市,165,鼓が滝2丁目14番ブラ-シ-ド鼓が滝南側ガ-ドレ-ル,ブラーシード鼓が滝南側ガードレール,34.8549602,135.4250215,
兵庫県,川西市,166,東多田2丁目26番藪内第二駐車場西側ガ-ドレ-ル,藪内第二駐車場西側ガードレール,34.8594607,135.4217129,
兵庫県,川西市,167,東多田2丁目18番古谷氏宅南側道路沿鉄柵,古谷氏宅南側道路沿鉄柵,34.857667,135.4208306,
兵庫県,川西市,168,東多田2丁目27番来田宅前ガ-ドレ-ル,来田宅前ガードレール,34.8601511,135.422007,
兵庫県,川西市,169,鼓が滝2丁目9番百合ヶ丘児童遊園地金網,百合ヶ丘児童遊園地金網,34.8530957,135.4242862,
兵庫県,川西市,170,矢間3丁目8番矢間モ-タ-プ-ル北東道路沿ガ-ドレ-ル,矢間モータープール北東道路沿ガードレール,34.8253265,135.4131541,緯度経度は怪しい
兵庫県,川西市,171,矢間2丁目14番阪急バス矢間バス停南側ガ-ドレ-ル,阪急バス矢間バス停南側ガードレール,34.8279653,135.403408,緯度経度は怪しい
兵庫県,川西市,172,西多田1丁目3番塔田池東側金網,塔田池東側金網,34.8537241,135.404806,
兵庫県,川西市,173,西多田1丁目6番多田西交番北約20m,多田西交番北約20m,34.8555475,135.4055315,
兵庫県,川西市,174,西多田1丁目12番浄徳寺南側西多田児童遊園地金網,浄徳寺南側西多田児童遊園地金網,34.856607,135.4038374,
兵庫県,川西市,175,西多田2丁目14番西多田団地公園金網,西多田団地公園金網,34.8564422,135.4075291,
兵庫県,川西市,176,湯山台1丁目4番地の2湯山台集会所(北側)金網,湯山台集会所(北側)金網,34.8511269,135.4034621,
兵庫県,川西市,177,湯山台1丁目31番地の4藤ヶ丘第8公園(北側)鉄柵,藤ヶ丘第8公園(北側)鉄柵,34.8489772,135.3993158,
兵庫県,川西市,178,湯山台1丁目39番地の1市立明峰中学校(北側)金網,市立明峰中学校(北側)金網,34.8479519,135.4012152,
兵庫県,川西市,179,湯山台2丁目1番地の68藤ヶ丘第1公園鉄柵,藤ヶ丘第1公園鉄柵,34.8518108,135.4050199,緯度経度は怪しい
兵庫県,川西市,180,湯山台2丁目1番地の71金網,金網,34.8524665,135.4046383,緯度経度は怪しい
兵庫県,川西市,181,湯山台2丁目2番地の15川西湯山台簡易郵便局前,川西湯山台簡易郵便局前,34.8517792,135.4037964,
兵庫県,川西市,182,湯山台2丁目40番地の1藤ヶ丘第9公園(西側)金網,藤ヶ丘第9公園(西側)金網,34.8492508,135.4023623,緯度経度は怪しい
兵庫県,川西市,183,南野坂2丁目13番地南野坂2丁目地内調整池東側ガ-ドレ-ル,南野坂2丁目地内調整池東側ガードレール,34.84855,135.4050339,
兵庫県,川西市,184,南野坂2丁目12番地先南野坂自治会館北側北ひばりが丘公園,南野坂自治会館北側北ひばりが丘公園,34.8480261,135.404129,
兵庫県,川西市,185,錦松台2番阪急バス鶯台バス停南金網(鶯の森第3公園),阪急バス鶯台バス停南金網(鶯の森第3公園),34.8494968,135.4124501,
兵庫県,川西市,186,錦松台18番錦ヶ丘公園,錦ヶ丘公園,34.8489214,135.410898,
兵庫県,川西市,187,錦松台25番西多田大橋下ガ-ドレ-ル,西多田大橋下ガードレール,34.8525182,135.4078929,
兵庫県,川西市,188,錦松台30番明峰坂公園東50m金網,明峰坂公園東50m金網,34.8502734,135.4070844,
兵庫県,川西市,189,緑台1丁目1番地の106カイガラ公園,カイガラ公園,34.8706719,135.4122086,
兵庫県,川西市,190,緑台1丁目1番地の107西池公園金網,西池公園金網,34.8693758,135.4108651,
兵庫県,川西市,191,緑台1丁目8番地の79飛行機公園(北側)鉄柵,飛行機公園（北側）鉄柵,34.8674789,135.4095096,
兵庫県,川西市,192,緑台3丁目1番地の59市立多田中学校東約70m脇宅前鉄柵,市立多田中学校東約70m脇宅前鉄柵,34.865061,135.406323,
兵庫県,川西市,193,緑台3丁目1番地の77うさぎ公園金網(南側),うさぎ公園金網（南側）,34.8666905,135.4085326,
兵庫県,川西市,194,緑台4丁目3番地の80汽車公園(北側)鉄柵,汽車公園（北側）鉄柵,34.8680569,135.4055733,
兵庫県,川西市,195,緑台4丁目8番地の39多田グリ-ンハイツ第1自治会館金網,多田グリーンハイツ第1自治会館金網,34.8707599,135.4066868,
兵庫県,川西市,196,緑台4丁目8地先新田大池緑地北側ロ-ソン川西緑台2丁目店西金網,新田大池緑地北側ローソン川西緑台二丁目店西金網,34.8699128,135.4067521,
兵庫県,川西市,197,緑台5丁目2番地の70船公園(南側),船公園（南側）,34.8695322,135.402176,
兵庫県,川西市,198,緑台6丁目1番地の80蛍の公園,蛍の公園,34.8710211,135.3998869,
兵庫県,川西市,199,緑台6丁目1番地の79川西市緑台老人福祉センタ-,川西市緑台老人福祉センター,34.8711343,135.4010247,
兵庫県,川西市,200,緑台7丁目2番地移瀬第4公園(北側)金網,移瀬第4公園（北側）金網,34.8656913,135.402389,
兵庫県,川西市,201,緑台7丁目5番地の33移瀬第1公園金網,移瀬第1公園金網,34.8681982,135.4000263,緯度経度は怪しい
兵庫県,川西市,202,向陽台3丁目1番地の26さつき公園(東側)金網,さつき公園（東側）金網,34.8713265,135.4043539,
兵庫県,川西市,203,向陽台3丁目5番地の126向陽台第1公園(南側)金網,向陽台第1公園（南側）金網,34.8745804,135.4038636,
兵庫県,川西市,204,水明台1丁目1番地の169水明台第1公園(東側)金網,水明台第1公園（東側）金網,34.8725145,135.4008359,緯度経度は怪しい
兵庫県,川西市,205,水明台1丁目5番地の100水明台第2公園(東側)金網,水明台第2公園（東側）金網,34.8749061,135.3999985,緯度経度は怪しい
兵庫県,川西市,206,向陽台1丁目6番地の38緑台公民館,緑台公民館,34.8715439,135.4105689,
兵庫県,川西市,207,向陽台1丁目7番地の1市立緑台小学校西門前道路鉄柵,市立緑台小学校西門前道路鉄柵,34.8738936,135.4098407,
兵庫県,川西市,208,向陽台1丁目8の1県立川西緑台高校前道路北約50mガ-ドレ-ル,県立川西緑台高校前道路北約50mガードレール,34.8750356,135.4085561,緯度経度は怪しい
兵庫県,川西市,209,向陽台1丁目11の1地先川西市市民運動場駐車場金網,川西市市民運動場駐車場金網,34.8750664,135.4122621,緯度経度は怪しい
兵庫県,川西市,210,向陽台2丁目1番地の91亀公園(北側),亀公園（北側）,34.8721205,135.4087284,
兵庫県,川西市,211,向陽台2丁目2番地の64白鳥公園(南側)金網,白鳥公園（南側）金網,34.8712527,135.4071691,
兵庫県,川西市,212,向陽台2丁目5番地の69奥池公園金網,奥池公園金網,34.8725288,135.4058883,
兵庫県,川西市,213,向陽台3丁目6番地の218向陽台第3公園鉄柵,向陽台第3公園鉄柵,34.8785391,135.4042475,
兵庫県,川西市,214,向陽台3丁目6番地の219阪急バス陽明小学校前横道路鉄柵,阪急バス陽明小学校前横道路鉄柵,34.8787959,135.4021272,
兵庫県,川西市,215,向陽台3丁目6番地の222向陽台第2公園(南側)金網,向陽台第2公園（南側）金網,34.8769008,135.4034736,緯度経度は怪しい
兵庫県,川西市,216,向陽台3丁目11番地の63向陽台第4公園(南側)金網,向陽台第4公園（南側）金網,34.8794297,135.4016605,
兵庫県,川西市,217,水明台2丁目5番地の43椿公園(西側)金網,椿公園（西側）金網,34.876816,135.399456,
兵庫県,川西市,218,水明台4丁目5番地の41水明台第7公園鉄柵,水明台第7公園鉄柵,34.8804459,135.3983198,
兵庫県,川西市,219,水明台4丁目8番地の22水明台第5公園(スポ-ツ公園)(南側)金網,水明台第5公園(スポーツ公園)(南側)金網,34.8786585,135.3978698,
兵庫県,川西市,220,水明台4丁目8番地の22水明台第5公園(スポ-ツ公園)(西側),水明台第5公園(スポーツ公園)(西側),34.8786585,135.3978698,
兵庫県,川西市,221,清流台13番清流台入口ガ-ドレ-ル,清流台入口ガードレール,34.8831957,135.4017193,
兵庫県,川西市,222,新田1丁目1番多田猪名川こんにゃく橋進入口,多田猪名川こんにゃく橋進入口,34.8609322,135.4123031,
兵庫県,川西市,223,新田1丁目19番新田児童遊園地北側道路沿ガ-ドレ-ル,新田児童遊園地北側道路沿ガードレール,34.8631244,135.4121466,
兵庫県,川西市,224,新田2丁目29番市立多田中学校(北側)金網,市立多田中学校(北側)金網,34.865061,135.406323,
兵庫県,川西市,225,多田院1丁目5番1号多田公民館(多田行政センタ-)金網,多田公民館(多田行政センター)金網,34.8611269,135.4049868,
兵庫県,川西市,226,多田院1丁目9番多田神社東門北約80m道路沿ガ-ドレ-ル,多田神社東門北約80m道路沿ガードレール,34.8605473,135.4037964,
兵庫県,川西市,227,多田院2丁目12番多田院上垣内公園鉄柵(北側),多田院上垣内公園鉄柵(北側),34.8630124,135.4006214,
兵庫県,川西市,228,多田院2丁目15番多田院狭間第2公園(北側)鉄柵,多田院狭間第2公園(北側)鉄柵,34.8640735,135.4013943,
兵庫県,川西市,229,芋生字勘定ケ谷101番地先芋生橋 橋りょう,芋生橋　橋りょう,34.8554134,135.3862889,
兵庫県,川西市,230,けやき坂1丁目2番地の4ヤマザクラ公園,ヤマザクラ公園,34.862087,135.3926309,緯度経度は怪しい
兵庫県,川西市,231,けやき坂2丁目24番地の1アメリカフウ公園(西側),アメリカフウ公園(西側),34.8572048,135.3799875,
兵庫県,川西市,232,けやき坂2丁目63番地の1けやき坂公民館(敷地内玄関前)鉄柵,けやき坂公民館(敷地内玄関前)鉄柵,34.8611571,135.3800264,
兵庫県,川西市,233,けやき坂2丁目289番地の1けやき坂中央公園(東側),けやき坂中央公園(東側),34.8607016,135.381901,緯度経度は怪しい
兵庫県,川西市,234,けやき坂3丁目12番地の14ヤマボウシ公園(南西側),ヤマボウシ公園(南西側),34.859178,135.3770901,
兵庫県,川西市,235,けやき坂5丁目3番地の20けやき坂5丁目7号緑地(けやき坂高層住宅西側),けやき坂5丁目7号緑地(けやき坂高層住宅西側),34.8635811,135.3849985,
兵庫県,川西市,236,けやき坂4丁目4番地マンサク公園,マンサク公園,34.8644306,135.378283,
兵庫県,川西市,237,けやき坂4丁目30番地ケヤキ公園(南側),ケヤキ公園(南側),34.8647447,135.3772353,緯度経度は怪しい
兵庫県,川西市,238,石道字小谷198番地2岡本成治様所有地前,岡本成治様所有地前,34.8832813,135.3836442,緯度経度は怪しい
兵庫県,川西市,239,石道字下ノ垣内石道公園東側(フェンス),石道公園東側(フェンス),34.8826482,135.38466,緯度経度は怪しい
兵庫県,川西市,240,清和台東1丁目2番地の59清水谷公園(南側)金網,清水谷公園(南側)金網,34.8798243,135.3867551,
兵庫県,川西市,241,清和台東2丁目2番地の2市立清和台小学校(北側),市立清和台小学校(北側),34.8777521,135.3891281,緯度経度は怪しい
兵庫県,川西市,242,清和台東2丁目5番地の3地先トナリエ清和台(阪急オアシス)北側道路(西行)ガ-ドレ-ル,トナリエ清和台(阪急オアシス)北側道路(西行)ガードレール,34.8766016,135.3861969,緯度経度は怪しい
兵庫県,川西市,243,清和台東3丁目1番地の3清和台中央公園(西側)金網,清和台中央公園(西側)金網,34.8728818,135.3882579,
兵庫県,川西市,244,清和台東3丁目1番地の3清和台中央公園(北側)金網,清和台中央公園(北側)金網,34.8728818,135.3882579,
兵庫県,川西市,245,清和台西1丁目3番地の49東池公園(南側),東池公園(南側),34.8782606,135.3851066,
兵庫県,川西市,246,赤松字北谷99番地赤松自治会館横ガ-ドレ-ル,赤松自治会館横ガードレール,34.8733,135.37925,
兵庫県,川西市,247,清和台西2丁目1番地の83清和台第2自治会館金網,清和台第2自治会館金網,34.8756012,135.3837728,緯度経度は怪しい
兵庫県,川西市,248,清和台西2丁目3番地の25中山公園(南側)鉄柵,中山公園(南側)鉄柵,34.8722333,135.3840375,
兵庫県,川西市,249,清和台西2丁目3番地の57市立清和台中学校南側入口横ガ-ドレ-ル,市立清和台中学校南側入口横ガードレール,34.871735,135.382445,
兵庫県,川西市,250,清和台西4丁目1番地の3地先NTT兵庫支店清和台別館北側歩道ガ-ドレ-ル,NTT兵庫支店清和台別館北側歩道ガードレール,34.8718358,135.3877733,
兵庫県,川西市,251,清和台西4丁目3番地の166西駒谷公園,西駒谷公園,34.8688092,135.3859974,
兵庫県,川西市,252,柳谷字御蔵廻り240番地乙宗氏宅北約30m道路沿ガ-ドレ-ル,乙宗氏宅北約30m道路沿ガードレール,34.8627499,135.3710105,緯度経度は怪しい
兵庫県,川西市,253,清和台東4丁目3番地の4ヒゼンコ公園(南側),ヒゼンコ公園(南側),34.872359,135.3921658,緯度経度は怪しい
兵庫県,川西市,254,清和台東4丁目3番地の5地先めぐみ幼稚園西側道路沿ガ-ドレ-ル,めぐみ幼稚園西側道路沿ガードレール,34.8728675,135.392277,
兵庫県,川西市,255,清和台東4丁目4番地の177清和台東4丁目緑地,清和台東四丁目緑地,34.8696732,135.3940299,緯度経度は怪しい
兵庫県,川西市,256,清和台東4丁目4番地の70先四季の小径,四季の小径,34.8687173,135.3932054,緯度経度は怪しい
兵庫県,川西市,257,清和台東5丁目1番地の78雨堤公園(南側),雨堤公園(南側),34.8701163,135.3907871,
兵庫県,川西市,258,清和台東5丁目2番地の58清和台第3自治会館前,清和台第3自治会館前,34.8699501,135.3915963,
兵庫県,川西市,259,清和台西5丁目1番地の2市立清和台南小学校プ-ル前(南側)金網,市立清和台南小学校プール前(南側)金網,34.869238,135.3877243,
兵庫県,川西市,260,見野1丁目9番1号市立東谷中学校金網,市立東谷中学校金網,34.8934896,135.4092173,緯度経度は怪しい
兵庫県,川西市,261,見野2丁目17番見んな野ふれあい広場西側フェンス,見んな野ふれあい広場西側フェンス,34.8918946,135.4079921,
兵庫県,川西市,262,見野2丁目21番東谷公民館(東谷行政センタ-)入口,東谷公民館(東谷行政センター)入口,34.8920919,135.4086941,
兵庫県,川西市,263,見野2丁目30番1号市立東谷小学校(東側)金網,市立東谷小学校(東側)金網,34.8918946,135.4079921,
兵庫県,川西市,264,見野2丁目312-4兵庫六甲農協東谷支店前ゲ-トボ-ル場金網,兵庫六甲農協東谷支店前ゲートボール場金網,34.8928788,135.4095028,緯度経度は怪しい
兵庫県,川西市,265,緑が丘1丁目18番緑が丘緑地,緑が丘緑地,34.8969176,135.4048795,
兵庫県,川西市,266,笹部2丁目20番光福寺前能勢電鉄日生線高架下金網,光福寺前能勢電鉄日生線高架下金網,34.8955294,135.4132587,
兵庫県,川西市,267,笹部1丁目12番6号釜本商店北西ガ-ドレ-ル,釜本商店北西ガードレール,34.8948094,135.4095352,
兵庫県,川西市,268,見野2丁目30番1号市立東谷小学校(西側)ブロック塀,市立東谷小学校(西側)ブロック塀,34.8918946,135.4079921,
兵庫県,川西市,269,東畦野山手1丁目1番南谷商店前ガ-ドパイプ,南谷商店前ガードパイプ,34.8790102,135.4188089,
兵庫県,川西市,270,東畦野山手1丁目10番福永氏宅横ガ-ドレ-ル,福永氏宅横ガードレール,34.8792069,135.4181105,
兵庫県,川西市,271,長尾町4番能勢電鉄-の鳥居駅南側金網,能勢電鉄－の鳥居駅南側金網,34.8784225,135.4206101,
兵庫県,川西市,272,長尾町6番旧川西市-の鳥居老人福祉センタ-前,旧川西市－の鳥居老人福祉センター前,34.8799664,135.4223011,
兵庫県,川西市,273,大和東1丁目13の2上水道大和低区配水場金網,上水道大和低区配水場金網,34.8880406,135.4239553,
兵庫県,川西市,274,大和東1丁目47番地の1市立牧の台小学校(北側)金網,市立牧の台小学校(北側)金網,34.8859048,135.4218845,
兵庫県,川西市,275,大和東1丁目47番地の1市立牧の台小学校(西側)金網,市立牧の台小学校(西側)金網,34.8859048,135.4218845,
兵庫県,川西市,276,大和東1丁目47番地の1市立牧の台小学校(東側)金網,市立牧の台小学校(東側)金網,34.8859048,135.4218845,
兵庫県,川西市,277,大和東1丁目56番地大和第3公園(北側)鉄柵,大和第3公園(北側)鉄柵,34.8870087,135.4248549,
兵庫県,川西市,278,大和東1丁目113番地大和第1公園(北側)鉄柵,大和第1公園(北側)鉄柵,34.886683,135.4227422,緯度経度は怪しい
兵庫県,川西市,279,大和西1丁目63番地の2大和第2公園(北側)金網,大和第2公園(北側)金網,34.8846859,135.41815,
兵庫県,川西市,280,大和西1丁目63番地の2大和第2公園(南側)金網,大和第2公園(南側)金網,34.8846859,135.41815,
兵庫県,川西市,281,大和西1丁目64の1地先能勢電鉄畦野駅東側鉄柵,能勢電鉄畦野駅東側鉄柵,34.8853898,135.4161991,
兵庫県,川西市,282,大和東2丁目28番地の7大和第4公園(西側)金網,大和第4公園(西側)金網,34.8894693,135.4264441,
兵庫県,川西市,283,大和東4丁目3番地の16大和第11公園(北側)金網,大和第11公園(北側)金網,34.8927119,135.4229029,
兵庫県,川西市,284,大和東5丁目12番地大和第8公園(西側)鉄柵,大和第8公園(西側)鉄柵,34.8934731,135.4255906,
兵庫県,川西市,285,大和東5丁目31小川氏宅前ガ-ドレ-ル,小川氏宅前ガードレール,34.8941185,135.4280362,
兵庫県,川西市,286,大和東5丁目45の2上園氏宅前ガ-ドパイプ,上園氏宅前ガードパイプ,34.8937167,135.4288139,
兵庫県,川西市,287,大和東5丁目58番地の8大和第10公園北側ガ-ドパイプ,大和第10公園北側ガードパイプ,34.8953027,135.4289888,
兵庫県,川西市,288,大和東5丁目60第10公園(南側)鉄柵,第10公園(南側)鉄柵,34.8953027,135.4289888,
兵庫県,川西市,289,大和東5丁目73大和第9公園(南側)金網,大和第9公園(南側)金網,34.8949774,135.4307929,
兵庫県,川西市,290,大和東3丁目19番地の5大和第5公園(北側)金網,大和第5公園(北側)金網,34.8906632,135.4233515,
兵庫県,川西市,291,大和西2丁目10 15地先コ-プうねの北側高架下睦野駅前第4自転車駐車場(北側)金網,コープうねの北側高架下睦野駅前第4自転車駐車場(北側)金網,34.8881991,135.4167168,
兵庫県,川西市,292,大和西2丁目5番地の1平木谷池公園(西側)金網,平木谷池公園(西側)金網,34.8877629,135.4188296,
兵庫県,川西市,293,大和西2丁目5番地の1平木谷池公園(南側)金網,平木谷池公園(南側)金網,34.8877629,135.4188296,
兵庫県,川西市,294,大和西2丁目5番地の1平木谷池公園(東側)金網,平木谷池公園(東側)金網,34.8877629,135.4188296,
兵庫県,川西市,295,大和西2丁目23の1睦野駅前第6自転車駐車場金網,睦野駅前第6自転車駐車場金網,34.8881991,135.4167168,緯度経度は怪しい
兵庫県,川西市,296,大和西3丁目26番地の5大和第6公園(東側)金網,大和第6公園(東側)金網,34.8908485,135.4155577,
兵庫県,川西市,297,大和西4丁目1の1大和第1自治会館(大和行政センタ-)金網,大和第1自治会館(大和行政センター)金網,34.8891613,135.4201021,
兵庫県,川西市,298,大和西5丁目6番地の1大和第7公園(東側)金網,大和第7公園(東側)金網,34.8920635,135.4202079,
兵庫県,川西市,299,東睦野1丁目11番元木クリニック南西ガ-ドレ-ル,元木クリニック南西ガードレール,34.885285,135.41363,緯度経度は怪しい
兵庫県,川西市,300,東睦野2丁目8番川西北郵便局前高架下自転車駐車場(北側)金網,川西北郵便局前高架下自転車駐車場(北側)金網,34.8856178,135.4147419,緯度経度は怪しい
兵庫県,川西市,301,東睦野3丁目9番井上氏宅西側ガ-ドレ-ル,井上氏宅西側ガードレール,34.88619,135.40944,緯度経度は怪しい
兵庫県,川西市,302,東睦野3丁目10番6号東睦野自治会館前,東睦野自治会館前,34.88909,135.41229,緯度経度は怪しい
兵庫県,川西市,303,東睦野3丁目17番1号敷野宝来稲荷神社ブロック塀,敷野宝来稲荷神社ブロック塀,34.8301986,135.4173955,緯度経度は怪しい
兵庫県,川西市,304,東睦野山手2丁目4番井関氏宅東側鉄柵,井関氏宅東側鉄柵,34.88443,135.41502,緯度経度は怪しい
兵庫県,川西市,305,西睦野字霜下4の1阪急バス西睦野バス停西向鉄柵,阪急バス西睦野バス停西向鉄柵,34.8279653,135.403408,緯度経度は怪しい
兵庫県,川西市,306,西睦野1丁目13番地先明治牛乳山下販売店前道路ガ-ドレ-ル,明治牛乳山下販売店前道路ガードレール,34.8010594,135.386544,緯度経度は怪しい
兵庫県,川西市,307,西睦野2丁目8番地先西睦野公会堂前,西睦野公会堂前,34.8048082,135.3840848,緯度経度は怪しい
兵庫県,川西市,308,西睦野2丁目9番素盞鳴公園,素盞鳴公園,34.8881985,135.4031578,緯度経度は怪しい
兵庫県,川西市,309,山原1丁目3番奥氏宅西側ガ-ドレ-ル,奥氏宅西側ガードレール,34.8942957,135.4037036,
兵庫県,川西市,310,緑が丘2丁目1番西緑が丘やすらぎ公園西側ガ-ドレ-ル,西緑が丘やすらぎ公園西側ガードレール,34.8957936,135.4038005,
兵庫県,川西市,311,緑が丘2丁目4西緑が丘はなさきもり公園前ガ-ドレ-ル,西緑が丘はなさきもり公園前ガードレール,34.8978175,135.4036547,
兵庫県,川西市,312,一庫1丁目10番地先前川橋南交差点東約60mガ-ドレ-ル,前川橋南交差点東約60mガードレール,34.9002673,135.4059819,
兵庫県,川西市,313,一庫字北中島1-1やわらぎの里東谷前ガ-ドパイプ,やわらぎの里東谷前ガードパイプ,34.9006847,135.4030293,緯度経度は怪しい
兵庫県,川西市,314,一庫2丁目5番高皇産霊神社前ガ-ドレ-ル,高皇産霊神社前ガードレール,34.9031652,135.4049892,
兵庫県,川西市,315,一庫2丁目9番10号一庫公民館,一庫公民館,34.9021355,135.4030401,
兵庫県,川西市,316,美山台3丁目3番地の3北陵集会所金網,北陵集会所金網,34.9123774,135.4035422,
兵庫県,川西市,317,美山台3丁目5阪急バス深山池公園北バス停鉄柵,阪急バス深山池公園北バス停鉄柵,34.9102644,135.402645,
兵庫県,川西市,318,美山台3丁目5阪急バス深山池公園南バス停鉄柵,阪急バス深山池公園南バス停鉄柵,34.9102644,135.402645,
兵庫県,川西市,319,美山台3丁目5深山池公園南西鉄柵(防火水槽東側),深山池公園南西鉄柵(防火水槽東側),34.9102644,135.402645,
兵庫県,川西市,320,丸山台2丁目10の38地先新じょうご池緑地(西側)鉄柵,新じょうご池緑地(西側)鉄柵,34.9086721,135.4043728,緯度経度は怪しい
兵庫県,川西市,321,丸山台2丁目5番地121古宮公園鉄柵,古宮公園鉄柵,34.9103935,135.4068334,緯度経度は怪しい
兵庫県,川西市,322,丸山台3丁目2番地117釜の尾公園(西側)鉄柵,釜の尾公園(西側)鉄柵,34.9131756,135.4068458,
兵庫県,川西市,323,丸山台3丁目4番地82川西市上水道一庫高区配水池南側空地フェンス,川西市上水道一庫高区配水池南側空地フェンス,34.9138161,135.4095362,緯度経度は怪しい
兵庫県,川西市,324,美山台1丁目4番地の73西の尾公園(西側)鉄柵,西の尾公園(西側)鉄柵,34.9080984,135.3963537,
兵庫県,川西市,325,美山台2丁目4番地の73丸山公園(西側)鉄柵,丸山公園(西側)鉄柵,34.9096838,135.3985134,
兵庫県,川西市,326,美山台2丁目4番地の73丸山公園(東側)鉄柵,丸山公園(東側)鉄柵,34.9096838,135.3985134,
兵庫県,川西市,327,丸山台1丁目2番地の41先花咲く丘の街東側空地沿いガ-ドレ-ル,花咲く丘の街東側空地沿いガードレール,34.906405,135.4011358,緯度経度は怪しい
兵庫県,川西市,328,丸山台1丁目4番地3阪急バス北陵公民館前,阪急バス北陵公民館前,34.9058651,135.3977973,
兵庫県,川西市,329,丸山台1丁目4番地9県道川西・三田線丸山台交差点北側金網(丸山台1丁目3号緑地),県道川西・三田線丸山台交差点北側金網(丸山台1丁目3号緑地),34.9048728,135.3982884,
兵庫県,川西市,330,丸山台1丁目5番地の2北陵公民館,北陵公民館,34.9054608,135.396894,
兵庫県,川西市,331,黒川字神木151-2長谷橋北側ガ-ドレ-ル,長谷橋北側ガードレール,34.9232876,135.4457671,緯度経度は怪しい
兵庫県,川西市,332,黒川字大上43番地先黒川・新滝・横路共同会館前ガ-ドレ-ル,黒川・新滝・横路共同会館前ガードレール,34.9243375,135.4439217,緯度経度は怪しい
兵庫県,川西市,333,黒川字谷垣内295地先市立黒川公民館前道路ガ-ドレ-ル,市立黒川公民館前道路ガードレール,34.9267036,135.4408546,緯度経度は怪しい
兵庫県,川西市,334,黒川字川原274-1地先市立黒川公民館グラウンド南側進入路,市立黒川公民館グラウンド南側進入路,34.9273525,135.4378904,緯度経度は怪しい
