prefecture,city,number,address,name,lat,long,note
兵庫県,明石市,1,松が丘1丁目2,masked,34.6562575,135.0300262,
兵庫県,明石市,2,松が丘1丁目14,仲よし公園(南側フェンス),34.6577518,135.0289327,
兵庫県,明石市,3,松が丘3丁目1-1,松が丘小学校(体育館北西側フェンス),34.657095,135.0264607,
兵庫県,明石市,4,松が丘2丁目1,松が丘公園(鉄柵(保育園の門より北側)),34.6543335,135.0282766,
兵庫県,明石市,5,松が丘2丁目5,都市機構明石舞子団地(B8号棟北側法面),34.6546223,135.026527,
兵庫県,明石市,6,松が丘3丁目19,市道(松が丘三丁目バス停北東側鉄柵),34.6550285,135.0228094,
兵庫県,明石市,7,松が丘3丁目35,市道(西部中継ポンプ場北東側鉄柵),34.6535936,135.0203311,
兵庫県,明石市,8,松が丘5丁目1,masked,34.6518807,135.0230281,
兵庫県,明石市,9,松が丘5丁目7-1,市道(朝霧コミセン北側鉄柵),34.6519726,135.0212996,
兵庫県,明石市,10,松が丘5丁目7,市道(あかねが丘学園南側鉄柵),34.65137680000001,135.0209143,
兵庫県,明石市,11,松が丘5丁目4,朝霧公園(北側),34.6496842,135.0206956,
兵庫県,明石市,12,松が丘5丁目4,朝霧公園(南入口南側),34.6496842,135.0206956,
兵庫県,明石市,13,松が丘4丁目2,都市機構明石舞子団地(A16号棟東入口北側),34.6505379,135.0236415,緯度経度は怪しい
兵庫県,明石市,14,松が丘4丁目3,市道(明舞団地南入口付近歩道鉄柵),34.6485778,135.0206956,
兵庫県,明石市,15,大蔵谷奥4-1,朝霧中学校(北入口南側フェンス),34.6597354,135.0264632,
兵庫県,明石市,16,大蔵谷奥4-1,朝霧中学校(テニスコート南側),34.6597354,135.0264632,
兵庫県,明石市,17,大蔵谷奥7,市道(テニスコート北東向側鉄柵),34.6563723,135.0234654,
兵庫県,明石市,18,松が丘3丁目35,松が丘緑地(奥東山会館北東側鉄柵),34.6535936,135.0203311,
兵庫県,明石市,19,大蔵谷奥11,市道(ハイツアイ北向側鉄柵),34.6553131,135.0216431,
兵庫県,明石市,20,大蔵谷奥16,朝霧奥公園(東側鉄柵),34.6544469,135.01889,
兵庫県,明石市,21,大蔵谷奥15,市道(自治会掲示板向側鉄柵),34.6544253,135.0200396,
兵庫県,明石市,22,朝霧台3783,朝霧台公園(東側植込),34.6571439,135.0187368,
兵庫県,明石市,23,朝霧台3776-56,東山公園(北側植込),34.6558763,135.0170633,
兵庫県,明石市,24,朝霧東町2丁目3,大蔵谷クスノキ公園(北東側),34.6514422,135.0164683,
兵庫県,明石市,25,朝霧東町1丁目1,朝霧小学校(グラウンド北側フェンス),34.6535726,135.0183632,
兵庫県,明石市,26,朝霧町3丁目1,市道(かわせ南向側鉄柵),34.6537951,135.0161767,
兵庫県,明石市,27,朝霧東町1丁目13,市道(神戸友の会南(階段の北側)),34.651847,135.0179259,
兵庫県,明石市,28,朝霧東町2丁目15,市道(伊達方南西向側ガードレール),34.6502036,135.0155937,
兵庫県,明石市,29,朝霧山手町11,市道(中村会館北側鉄柵),34.6559865,135.014209,
兵庫県,明石市,30,東朝霧丘27,東朝霧丘クスノキ公園(東側),34.6550073,135.0107839,
兵庫県,明石市,31,東朝霧丘20,市道(入江方南向側ガードレール),34.6539593,135.0123871,
兵庫県,明石市,32,東朝霧丘12,市道(伊藤方西向側ガードレール),34.6541949,135.0133345,
兵庫県,明石市,33,東朝霧丘5,市道(多田方西向側鉄柵),34.6525725,135.0129701,
兵庫県,明石市,34,朝霧町3丁目10,市道(朝霧分署向側鉄柵),34.6516336,135.0137717,
兵庫県,明石市,35,中朝霧丘8,市道(朝霧丘バス停東側),34.6517919,135.0108567,
兵庫県,明石市,36,朝霧南町1丁目219,市道(朝霧浄化センター西側鉄柵),34.6459233,135.0197286,
兵庫県,明石市,37,朝霧南町2丁目479,市道(ネバーランド朝霧前ガードレール),34.64753049999999,135.0185467,
兵庫県,明石市,38,朝霧町2丁目6,市道(朝霧町二丁目バス停南側),34.6497738,135.0127515,
兵庫県,明石市,39,朝霧町2丁目9,朝霧2丁目公園(東側金網),34.6495754,135.0114397,
兵庫県,明石市,40,朝霧町1丁目26,市道(野瀬工務店南向側鉄柵),34.6462565,135.0114397,
兵庫県,明石市,41,朝霧町1丁目20,朝霧1丁目公園(南側),34.6469539,135.0105652,
兵庫県,明石市,42,朝霧南町1丁目7,市道(駅前ロータリー　バス停)(ガードレール(バス停)）,34.6452749,135.0183632,
兵庫県,明石市,43,北朝霧丘2丁目13-3,兵庫県警明石待機宿舎(入口付近金網),34.6599803,135.0132735,
兵庫県,明石市,44,西朝霧丘4,大蔵中学校(グラウンド北西側),34.6566745,135.0096179,
兵庫県,明石市,45,荷山町1661,市道(赤羽グリーンタウン西向側ガードレール),34.6584578,135.0093739,
兵庫県,明石市,46,荷山町1661,明高北公園(明高北公園北側),34.6584578,135.0093739,
兵庫県,明石市,47,西朝霧丘2地先,masked,34.658139,135.0103102,
兵庫県,明石市,48,荷山町2724地先,市道(サークルK北側鉄柵),34.6560639,135.0061366,緯度経度は怪しい
兵庫県,明石市,49,中朝霧丘4,市道(ライオンズマンション北側鉄柵),34.6539792,135.0094722,
兵庫県,明石市,50,太寺大野町2694,市道(ガードレール(アルファステイツ明石太寺の庭園),34.6551917,135.0054135,
兵庫県,明石市,51,太寺2丁目10,市道(太寺保育園の東側)(鉄柵),34.6545016,135.0037886,
兵庫県,明石市,52,東人丸町26,人丸小学校(東側),34.65006899999999,135.0049544,
兵庫県,明石市,53,東野町2043,市道(東野町自治会館北側鉄柵),34.6482046,135.0084831,
兵庫県,明石市,54,東野町2222,明南保育所(西側),34.649088,135.0070801,緯度経度は怪しい
兵庫県,明石市,55,東野町1995-1地先,市道(鉄柵),34.6504581,135.0087435,
兵庫県,明石市,56,東人丸町5,市道(黒橋下西側フェンス),34.6477514,135.005173,
兵庫県,明石市,57,太寺2丁目11-16,市道(東播海岸出張所前),34.6534095,135.0030906,
兵庫県,明石市,58,上ノ丸3丁目1-11,錦城中学校(東側フェンス),34.656876,134.9977829,
兵庫県,明石市,59,太寺4丁目6,関西電力太寺変電所(北側溝),34.6550002,135.0016028,
兵庫県,明石市,60,太寺3丁目15,市道(水田方北側ガードレール),34.6520324,135.0008743,
兵庫県,明石市,61,人丸町1,人丸山公園(北側),34.6497787,135.0015567,
兵庫県,明石市,62,人丸町1,市道(月照寺北西側ガードレール),34.6497787,135.0015567,
兵庫県,明石市,63,太寺1丁目18,市道(明不マンション南向側鉄柵),34.6509846,135.0024771,
兵庫県,明石市,64,山下町3-4,市道(神大附属幼稚園東側溝),34.6496615,134.9978356,
兵庫県,明石市,65,天文町1丁目1,山陽電鉄(人丸前駅西側高架下フェンス(東向き)),34.64767399999999,135.0013114,
兵庫県,明石市,66,人丸町2,人丸山公園(南側),34.649267,135.0008743,
兵庫県,明石市,67,天文町1丁目6,市道(山陽右手塚駐車場南側フェンス),34.6478182,134.9995629,
兵庫県,明石市,68,天文町1丁目1,市道(山電右手塚駐車場南側フェンス),34.64767399999999,135.0013114,
兵庫県,明石市,69,大蔵海岸通1丁目2-3,市道(市営大蔵海岸駐車場西側空地),34.6426606,135.0119974,緯度経度は怪しい
兵庫県,明石市,70,大蔵八幡町2,朝霧ポンプ場入口(市道),34.6452904,135.0111482,
兵庫県,明石市,71,大蔵八幡町6-41,マンションムラタ(北側フェンス),34.6455257,135.0097879,
兵庫県,明石市,72,大蔵海岸通2丁目5,市道(地下通路北側植え込み),34.6435293,135.0088455,
兵庫県,明石市,73,大蔵本町6-10,いなづめ保育園(いなづめ保育園南側フェンス),34.64629,135.0041362,
兵庫県,明石市,74,大蔵町25,大蔵町なかよし広場(北側フェンス),34.6460801,135.0069218,
兵庫県,明石市,75,大蔵本町6-10,稲爪神社(北側入口の東側),34.64629,135.0041362,
兵庫県,明石市,76,大蔵天神町1,市道(山電人丸駅南側ガードレール),34.6473632,135.0025318,
兵庫県,明石市,77,中崎1丁目1,中崎アラカシ公園(北側フェンス),34.64286209999999,134.9989574,緯度経度は怪しい
兵庫県,明石市,78,天文町2丁目2,天文町2丁目公園(南側フェンス),34.6458824,135.0004371,
兵庫県,明石市,79,相生町1丁目9,中崎遊園地(北側緑地),34.6441382,134.9988957,
兵庫県,明石市,80,中崎1丁目4,中崎小学校(正門東側フェンス),34.6423573,134.9997086,
兵庫県,明石市,81,天文町2丁目4,忠度公園(南側フェンス),34.6465717,134.9992714,
兵庫県,明石市,82,天文町2丁目4,忠度公園(東側フェンス),34.6465717,134.9992714,
兵庫県,明石市,83,上の丸2丁目13-1,文化博物館(北側),34.6515444,134.9959563,
兵庫県,明石市,84,上ノ丸2丁目2-30,上ノ丸ヒマラヤ公園(北東側フェンス),34.6537827,134.9966697,
兵庫県,明石市,85,山下町11,市道（南側鉄柵）,34.6510779,134.9959928,
兵庫県,明石市,86,明石公園1-27,市道（薬研堀沿横）,34.6543106,134.9935154,緯度経度は怪しい
兵庫県,明石市,87,明石公園1-27,市道（県立明石公園球技場北側）,34.6543106,134.9935154,緯度経度は怪しい
兵庫県,明石市,88,上ノ丸3丁目1-11,錦城中学校（南側フェンス）,34.656876,134.9977829,
兵庫県,明石市,89,上ノ丸3丁目1-11,錦城中学校（入口横フェンス）,34.656876,134.9977829,
兵庫県,明石市,90,東仲ノ町1,山陽東仲ノ町駐車場（山陽東仲ノ町駐車場前）,34.6479147,134.9983312,
兵庫県,明石市,91,東仲ノ町3-5,市道プレステージ明石駅前東側（ガードレール）,34.647434,134.9975145,
兵庫県,明石市,92,山下町12,明石小学校（正門横）,34.650552,134.9948998,
兵庫県,明石市,93,山下町12,明石小学校（西側フェンス）,34.650552,134.9948998,
兵庫県,明石市,94,上ノ丸2丁目13,文化博物館（南緑地）,34.6516622,134.9954827,
兵庫県,明石市,95,山下町14-7,市道（明石駅前立体駐車場南植込）,34.6493426,134.9949727,
兵庫県,明石市,96,東仲ノ町4,山陽電鉄高架下（ふれあい会館東側フェンス）,34.6479348,134.9976504,
兵庫県,明石市,97,中崎1丁目3,市民会館（南西植込）,34.643666,134.99898,
兵庫県,明石市,98,中崎1丁目6,港湾（西庁舎西側植込）,34.6423334,134.9962114,
兵庫県,明石市,99,相生町2丁目14,中崎遊園地（緑地）,34.6443104,134.9971586,
兵庫県,明石市,100,相生町2丁目10,桜町こども広場（東側フェンス）,34.6452664,134.9954099,
兵庫県,明石市,101,中崎2丁目4,市道（西側ガードレール）,34.64361,134.9908193,
兵庫県,明石市,102,鍛冶屋町6,市道（錦江橋）,34.6481486,134.9772635,緯度経度は怪しい
兵庫県,明石市,103,中崎1丁目5,明石市役所（立体駐車場西側鉄柵）,34.6428945,134.9973771,緯度経度は怪しい
兵庫県,明石市,104,鷹匠町1-33,明石市立市民病院（堺西側）,34.6571926,134.9903092,
兵庫県,明石市,105,茶園場町5,市道（大和製衡労組会館前）,34.6531838,134.9854266,
兵庫県,明石市,106,茶園場町3,藤和明石公園ハイタウン（子供広場フェンス）,34.6549338,134.9873236,
兵庫県,明石市,107,茶園場町5,市道（大和製衡労組会館前）,34.6531838,134.9854266,
兵庫県,明石市,108,明石公園1-27,県立明石公園（陸上競技場前バス停フェンス）,34.6543106,134.9935154,緯度経度は怪しい
兵庫県,明石市,109,茶園場町3,藤和明石公園ハイタウン（東側植込）,34.6549338,134.9873236,
兵庫県,明石市,110,茶園場町9,市道（大和製衡正門南東）,34.651322,134.9861554,
兵庫県,明石市,111,大明石町1丁目4-23地先,市道（植込）,34.6485856,134.9925226,
兵庫県,明石市,112,樽屋町19,栄町公園（北側）,34.6476813,134.9846249,
兵庫県,明石市,113,樽屋町5,県道明石高砂線（花澤仏具店北側歩道植込）,34.6463435,134.9861554,
兵庫県,明石市,114,大明石町2丁目5,大明石町カイツカ公園（南側フェンス）,34.64939,134.9867384,
兵庫県,明石市,115,樽屋町8-27,NTT明石別館（NTT明石別館南側フェンス）,34.6474748,134.9868754,
兵庫県,明石市,116,大明石町2丁目8,大観小学校（南門西側フェンス）,34.6491715,134.9851351,
兵庫県,明石市,117,樽屋町19,栄町公園（西側植込）,34.6476813,134.9846249,
兵庫県,明石市,118,材木町1,材木町公園（北側フェンス）,34.6452864,134.9882688,
兵庫県,明石市,119,材木町1,材木町公園（南側フェンス）,34.6452864,134.9882688,
兵庫県,明石市,120,材木町9,市道（長林寺東側歩道植込）,34.6441389,134.9873214,
兵庫県,明石市,121,材木町2,県道明石港線（歩道植込）,34.6451388,134.9895682,
兵庫県,明石市,122,材木町2,県道明石港線（ガードレール）,34.6451388,134.9895682,
兵庫県,明石市,123,材木町8,市道（岩屋神社西側）,34.6438596,134.9881777,
兵庫県,明石市,124,日富美町6,市道（本立寺東側歩道）,34.6450928,134.9852809,
兵庫県,明石市,125,日富美町13-15,市道（長久寺南側歩道）,34.643754,134.9845501,
兵庫県,明石市,126,大観町8,緑地（明石川左岸緑地北東側）,34.6421097,134.9808148,緯度経度は怪しい
兵庫県,明石市,127,日富美町9,一番町公園（東側植込）,34.6450456,134.9834589,
兵庫県,明石市,128,日富美町9,一番町公園（西側鉄柵）,34.6450456,134.9834589,
兵庫県,明石市,129,大観町8,市道（大観歩道南側道路ガードレール）,34.6421097,134.9808148,緯度経度は怪しい
兵庫県,明石市,130,大観町17-15,伊井諸神社（北側植込）,34.6440582,134.9806738,
兵庫県,明石市,131,大観町21,川端公園（北側鉄柵）,34.64311989999999,134.9800333,
兵庫県,明石市,132,王子2丁目20,王子2丁目公園（北西植栽）,34.653967,134.979792,
兵庫県,明石市,133,王子1丁目1,王子小学校（東北入口北側）,34.6557932,134.9828029,
兵庫県,明石市,134,王子1丁目2,王子公園（北入口東側）,34.6551699,134.9826571,
兵庫県,明石市,135,王子1丁目10,市営王子団地（6号棟東ブロック内側）,34.6560948,134.9814181,
兵庫県,明石市,136,西新町1丁目7,西新町1丁目公園（南入口西側）,34.6528642,134.9841877,
兵庫県,明石市,137,大道町1丁目4,大道東公園（西側フェンス）,34.6560127,134.9795231,
兵庫県,明石市,138,大道町2丁目9,大道公園（東側フェンス）,34.6550305,134.9774822,
兵庫県,明石市,139,西新町2丁目1,西新町サンゴジュ公園（西側フェンス）,34.6504762,134.9838233,
兵庫県,明石市,140,西新町2丁目9,西新町2丁目公園（東側）,34.6510463,134.9812724,
兵庫県,明石市,141,西新町2丁目9,西新町2丁目公園（西側）,34.6510463,134.9812724,
兵庫県,明石市,142,硯町2丁目5,市道（ふくやま病院北側歩道柵）,34.6499567,134.9787213,
兵庫県,明石市,143,西新町2丁目11,市道（巴色土東側道路ガードレール）,34.6523921,134.9809079,
兵庫県,明石市,144,硯町3丁目6,市道（明石ダイヤハイツ西側）,34.6510387,134.9752225,
兵庫県,明石市,145,西新町2丁目14,市道（柵（日本たばこ産業跡地マンション西側））,34.6505882,134.9800333,
兵庫県,明石市,146,田町2丁目7,船上東公園（東側）,34.6466954,134.9771177,
兵庫県,明石市,147,西新町3丁目13,市道（ニシリク兵庫支店北側ガードレール）,34.6493455,134.9803248,
兵庫県,明石市,148,南王子町7,衣川中学校（北側フェンス）,34.6463731,134.9804706,
兵庫県,明石市,149,南王子町7,衣川中学校（西北入口フェンス）,34.6463731,134.9804706,
兵庫県,明石市,150,田町2丁目1,衣川コミュニティ・センター（東植込）,34.6469802,134.978284,
兵庫県,明石市,151,田町2丁目7,船上東公園（西側金網）,34.6466954,134.9771177,
兵庫県,明石市,152,船上町4,望海浜公園（北側入口）,34.6450233,134.9753683,
兵庫県,明石市,153,新明町9,船上西公園（東側）,34.6483428,134.9753683,
兵庫県,明石市,154,船上町10-18,望海浜公園（西側フェンス）,34.6452777,134.974036,
兵庫県,明石市,155,林崎町1丁目8,市道（林小学校東側ガードレール）,34.6488012,134.9717234,
兵庫県,明石市,156,林崎町1丁目11,林コミュニティ・センター（北側金網）,34.6484461,134.9704112,
兵庫県,明石市,157,林崎町2丁目5,市道（タイムズ林崎松江海岸前市道フェンス）,34.6499188,134.9662877,
兵庫県,明石市,158,林2丁目16地先,県道林崎港線（林崎橋南ガードレール）,34.6476162,134.9704112,
兵庫県,明石市,159,林3丁目18,市道（林ポンプ場東ガードレール）,34.6491601,134.9645288,
兵庫県,明石市,160,貴崎2丁目16,市営貴崎団地（6号棟北側）,34.653091,134.9671305,
兵庫県,明石市,161,貴崎3丁目2,山陽電鉄林崎松江海岸駅駐輪場（北側）,34.6528629,134.9653833,
兵庫県,明石市,162,林崎町3丁目502,masked,34.6512799,134.9646971,
兵庫県,明石市,163,貴崎3丁目1,masked,34.6537392,134.965891,
兵庫県,明石市,164,貴崎4丁目3,masked,34.6544989,134.9657452,
兵庫県,明石市,165,貴崎4丁目14,masked,34.6557375,134.9648703,
兵庫県,明石市,166,貴崎5丁目5-52,貴崎小学校（北側フェンス）,34.656426,134.9613795,
兵庫県,明石市,167,川崎町1,市道（サンラフレ明石16棟北西）,34.6554472,134.9693968,緯度経度は怪しい
兵庫県,明石市,168,宮の上2,宮の上公園（公園北側フェンス）,34.6535077,134.9723066,
兵庫県,明石市,169,宮の上2-2-7,市道(東側ガードレール),34.6526385,134.9715466,
兵庫県,明石市,170,川崎町1,市道(東側ガードレール),34.6554472,134.9693968,緯度経度は怪しい
兵庫県,明石市,171,宮の上5,市道(林神社西側植込),34.6521784,134.9701196,
兵庫県,明石市,172,立石2丁目2-1,市道(山陽高架西まちかど広場北),34.6501878,134.9726187,
兵庫県,明石市,173,立石1丁目8,市営立石団地(集会所南側植込),34.65172220000001,134.9716141,
兵庫県,明石市,174,和坂1丁目8,市道(西側の鉄柵(旧交通部の西側)),34.6576689,134.9740562,
兵庫県,明石市,175,和坂2丁目3,市道(和坂2丁目3番28号付近),34.661046,134.9724524,
兵庫県,明石市,176,西明石町2丁目6,市道(サンライフ西明石2号棟北側),34.6635703,134.9725253,
兵庫県,明石市,177,西明石町3丁目6,花園1号公園(西側溝),34.66396510000001,134.9696093,
兵庫県,明石市,178,西明石町4丁目10,花園3号公園(南側),34.6624337,134.9681512,
兵庫県,明石市,179,和坂3丁目14-8,和坂南公園(東側フェンス),34.6615088,134.9693905,
兵庫県,明石市,180,和坂2丁目12-1,和坂小学校(正門西側フェンス),34.6621161,134.9707225,
兵庫県,明石市,181,西明石南町1丁目3,市道(JR西明石駅南口駐輪場北西フェンス),34.6644283,134.9616621,
兵庫県,明石市,182,西明石南町1丁目3,市道(JR西明石駅南口駐輪場北東ガードレール),34.6644283,134.9616621,
兵庫県,明石市,183,西明石南町1丁目1,望海中学校(南側フェンス),34.6625663,134.9623912,
兵庫県,明石市,184,西明石南町1丁目1-33,望海中学校(西正門南ブロック塀外側),34.6623702,134.9623435,
兵庫県,明石市,185,川崎町2,ファミールハイツ明石(北植込),34.6614517,134.9612246,
兵庫県,明石市,186,川崎町2,ファミールハイツ明石(西植込),34.6614517,134.9612246,
兵庫県,明石市,187,西明石南町3丁目2,JR西明石南和坂アパート(北3棟北側フェンス),34.6636482,134.9588912,
兵庫県,明石市,188,西明石西町2丁目2,西明石こだま西公園(北側フェンス),34.667493,134.9573963,
兵庫県,明石市,189,西明石西町1丁目10,西明石西町公園(南側フェンス),34.6653575,134.9561201,
兵庫県,明石市,190,西明石南町3丁目2,JR西明石南和坂アパート(北1棟南側フェンス),34.6636482,134.9588912,
兵庫県,明石市,191,西明石西町1丁目13,市道(新幹線高架下),34.6672567,134.9557555,
兵庫県,明石市,192,西明石南町3丁目2,JR西明石南和坂アパート(西11棟南側フェンス),34.6636482,134.9588912,
兵庫県,明石市,193,西明石南町3丁目2,市道(歩道と車道の間のフェンス),34.6636482,134.9588912,
兵庫県,明石市,194,藤江788-1,市道(フェンス),34.6626924,134.9531576,
兵庫県,明石市,195,西明石南町3丁目3,西明石南町3丁目公園(西側フェンス),34.6625417,134.9588912,
兵庫県,明石市,196,別所町8,別所公民館(東側),34.661716,134.9570317,
兵庫県,明石市,197,別所町16,別所町公園(北西植え込み前),34.6617614,134.9561201,
兵庫県,明石市,198,藤江763-1,市道(植込),34.66113199999999,134.9523628,
兵庫県,明石市,199,藤江765-1,市道(レオパレスウィステリア西側植込),34.6616929,134.9525935,
兵庫県,明石市,200,東藤江1丁目9-27,東藤江サクラ公園(フェンス),34.6622343,134.954438,
兵庫県,明石市,201,西明石東町8,鳥羽大東公園(北側フェンス),34.6651326,134.973473,
兵庫県,明石市,202,野々上1丁目15,鳥羽家浦公園(北東入口フェンス),34.6510664,134.9841877,緯度経度は怪しい
兵庫県,明石市,203,野々上1丁目7-8,鳥羽公民館(西側フェンス),34.66548119999999,134.9690027,
兵庫県,明石市,204,野々上3丁目11,神田公園(北側),34.6674373,134.9667659,
兵庫県,明石市,205,野々上3丁目11,神田公園(南側),34.6674373,134.9667659,
兵庫県,明石市,206,野々上1丁目15,鳥羽家浦公園(西フェンス),34.6510664,134.9841877,緯度経度は怪しい
兵庫県,明石市,207,西明石東町8,鳥羽大東公園(入口横フェンス),34.6651326,134.973473,
兵庫県,明石市,208,和坂11,市道(西明石陸橋北側歩道鉄柵),34.6602864,134.9725982,緯度経度は怪しい
兵庫県,明石市,209,松の内1丁目11,宮西公園(南側フェンス),34.6657697,134.9655994,
兵庫県,明石市,210,小久保2丁目6,市道(JR西明石駅北ガードレール),34.6673886,134.9597662,
兵庫県,明石市,211,西明石町5丁目7,市道(中村モータープール前),34.6638065,134.966693,
兵庫県,明石市,212,小久保2丁目6,市道(JR西明石駅北ガードレール),34.6673886,134.9597662,
兵庫県,明石市,213,松の内1丁目11,宮西公園(東側),34.6657697,134.9655994,
兵庫県,明石市,214,松の内1丁目11,宮西公園(西側),34.6657697,134.9655994,
兵庫県,明石市,215,明南町1丁目5,明南町南公園(南側金網),34.6704646,134.9696093,
兵庫県,明石市,216,小久保1丁目10,上ヶ池公園(北東フェンス),34.6690564,134.9609329,
兵庫県,明石市,217,西明石北町2丁目7,西明石北町公園(東側フェンス),34.6708414,134.9640682,
兵庫県,明石市,218,西明石北町2丁目2,鳥羽小学校(正門東側),34.6697822,134.965891,
兵庫県,明石市,219,西明石北町2丁目2,鳥羽小学校(西北側),34.6697822,134.965891,
兵庫県,明石市,220,明南町3丁目2,市道(明石南高等学校南東歩道),34.6746202,134.9655994,
兵庫県,明石市,221,明南町1丁目12,明南町中公園(北西フェンス),34.6721862,134.9685886,
兵庫県,明石市,222,小久保1丁目10,上ヶ池公園(東南植込),34.6690564,134.9609329,
兵庫県,明石市,223,小久保5丁目4,鳥羽保育所(南側フェンス),34.6718304,134.9620996,
兵庫県,明石市,224,小久保6丁目11地先,弁財天北公園(西側フェンス),34.6734979,134.9632662,
兵庫県,明石市,225,小久保4丁目2地先,弁財天中公園(西側フェンス),34.6733415,134.9606412,
兵庫県,明石市,226,小久保1丁目10-3,上ヶ池公園(学習園西側入口フェンス),34.6701623,134.9614135,
兵庫県,明石市,227,小久保4丁目2地先,弁財天中公園(南東側フェンス),34.6733415,134.9606412,
兵庫県,明石市,228,小久保3丁目6,小久保西公園(北側フェンス),34.6713932,134.9588912,
兵庫県,明石市,229,鳥羽1506,鳥羽浄水場(南側フェンス),34.6756087,134.9616209,
兵庫県,明石市,230,沢野2丁目8,鳥羽新池公園(東側),34.6796215,134.9639224,
兵庫県,明石市,231,鳥羽溝ノ北1593,市道(ローソン明石鳥羽店東側歩道フェンス),34.6823322,134.9609329,緯度経度は怪しい
兵庫県,明石市,232,沢野1丁目10,鳥羽ジンチョウゲ公園(東側),34.677413,134.9645057,
兵庫県,明石市,233,沢野1丁目3,野々池中学校(正門西側),34.678905,134.9653077,
兵庫県,明石市,234,明南町3丁目1,西明石緑道(野々池貯水池側),34.6760789,134.9646789,緯度経度は怪しい
兵庫県,明石市,235,明南町3丁目2,西明石緑道(南側),34.6746202,134.9655994,
兵庫県,明石市,236,小久保2丁目13,市道(新幹線駅下歩道ガードレール),34.6673886,134.9597662,
兵庫県,明石市,237,小久保2丁目9,小久保自治会館(前),34.6673886,134.9597662,
兵庫県,明石市,238,大久保町森田924-8,雲業池(法面緑地),34.6751009,134.9550991,
兵庫県,明石市,239,藤江891-66,masked,34.6725755,134.957041,
兵庫県,明石市,240,藤江891-66,masked,34.6725755,134.957041,
兵庫県,明石市,241,藤江890-107,藤江とべら公園(西側フェンス),34.6720628,134.9575287,緯度経度は怪しい
兵庫県,明石市,242,藤江854-3,中谷公民館(北側フェンス),34.6706829,134.9560257,
兵庫県,明石市,243,藤江1191,藤江出ノ上公園(北側鉄柵),34.6613126,134.9512798,
兵庫県,明石市,244,藤江1155,市道(藤江川北たこバス停付近ガードレール),34.6629543,134.9525285,
兵庫県,明石市,245,藤江1056-8,卸売市場(南側フェンス),34.6669849,134.9532751,
兵庫県,明石市,246,藤江1431-11,市道(藤江中畑公園の北側)(鉄柵),34.6651226,134.9505087,
兵庫県,明石市,247,藤江1427-1,甲池公園(グラウンド南金網),34.6667185,134.9511925,
兵庫県,明石市,248,藤江1427-1,甲池公園(グラウンド北金網),34.6667185,134.9511925,
兵庫県,明石市,249,藤江1139-13,藤江出ノ上北公園(南側植え込み),34.6635564,134.9521687,
兵庫県,明石市,250,松江441-4,松江海岸休憩施設(駐車場植込),34.6528174,134.9573377,
兵庫県,明石市,251,松江791地先,市道(藤谷方東側ガードレール),34.6556144,134.9560857,
兵庫県,明石市,252,藤江207,藤江海岸休憩施設(駐車場柵),34.6561986,134.9534575,
兵庫県,明石市,253,藤江285-9,藤江小学校(西門横ブロック塀),34.658172,134.9528657,
兵庫県,明石市,254,藤江326-1,藤江越前公園(フェンス),34.6595601,134.9525044,
兵庫県,明石市,255,藤江238-1,市道(藤江幼稚園の南側海岸沿い),34.6570411,134.9524919,
兵庫県,明石市,256,松江479,松江公園(北側植え込み),34.6536954,134.9570079,
兵庫県,明石市,257,藤江2028,卸売市場(新池)(西法面),34.671466,134.9517973,
兵庫県,明石市,258,藤が丘1丁目5,藤江4号公園(西側),34.6668624,134.9489,
兵庫県,明石市,259,藤が丘1丁目31,藤江3号公園(東側),34.6671182,134.9459824,
兵庫県,明石市,260,藤が丘2丁目3,藤江2号公園(西側金網),34.6662987,134.9474412,
兵庫県,明石市,261,藤が丘2丁目14,masked,34.6647751,134.9471494,
兵庫県,明石市,262,藤江1703-1,山陽電鉄藤江駅(踏切東),34.6638422,134.9465972,
兵庫県,明石市,263,藤が丘2丁目3,藤江2号公園(東側金網),34.6662987,134.9474412,
兵庫県,明石市,264,大久保町松陰新田443-3,市道(寺岡三十夫方北ガードレール),34.6895614,134.957709,
兵庫県,明石市,265,大久保町松陰新田651,市道(寺池前大久保1号線ガードレール),34.6884187,134.9614624,
兵庫県,明石市,266,大久保町松陰95-2,松陰厚生館(西側フェンス),34.6868956,134.9520908,
兵庫県,明石市,267,大久保町松陰42-4,市道大久保313号線(寺西方南側歩道植込),34.6864417,134.9510566,
兵庫県,明石市,268,大久保町松陰1039,松陰会館(北側フェンス),34.6841038,134.9491404,
兵庫県,明石市,269,大久保町松陰1797-7,松陰公園(東側)(東側),34.6969615,134.9568493,緯度経度は怪しい
兵庫県,明石市,270,大久保町松陰溝尻1007,松陰保育所(北側フェンス),34.6969615,134.9568493,
兵庫県,明石市,271,大久保町松陰蛸池760,市道(児童公園北ガードレール),34.6969615,134.9568493,
兵庫県,明石市,272,大久保町大久保町947-100,大久保宮の先南公園(西側),34.6795117,134.9322269,緯度経度は怪しい
兵庫県,明石市,273,大久保町大久保町947-31,大久保宮ノ先公園(東フェンス),34.6795117,134.9322269,緯度経度は怪しい
兵庫県,明石市,274,大久保町森田124-16,神戸刑務所(駐車場東側道路),34.6756393,134.953595,
兵庫県,明石市,275,大久保町谷八木72-4,谷八木2号公園(西フェンス),34.6739374,134.945728,
兵庫県,明石市,276,大久保町大久保町430,大久保小学校(バス停付近歩道),34.6795117,134.9322269,緯度経度は怪しい
兵庫県,明石市,277,大久保町大久保町430,市道(大久保小学校西門北側ガードレール),34.6795117,134.9322269,緯度経度は怪しい
兵庫県,明石市,278,藤江雲楽924,消防庁舎(駐車場南植込),34.663739,134.952182,
兵庫県,明石市,279,大久保町大久保町寺ノ前200,大久保中学校(正門北ブロック塀),34.6780742,134.94518,
兵庫県,明石市,280,大久保町大久保町寺ノ前200,大久保中学校(グランド南西側フェンス),34.6780742,134.94518,
兵庫県,明石市,281,大久保町わかば20,のじぎく台公園(南側金網),34.6764742,134.9389795,
兵庫県,明石市,282,大久保町ゆりのき通1-1,ゆりのき通東公園(東側柵),34.6805185,134.9387607,
兵庫県,明石市,283,大久保町ゆりのき通3-1,大久保南小学校(東側植込),34.6780894,134.9375546,
兵庫県,明石市,284,大久保町ゆりのき通3-1,大久保南小学校(南側植込),34.6780894,134.9375546,
兵庫県,明石市,285,大久保町谷八木743-175,八木大池公園(フェンス南西側),34.6691885,134.9405115,
兵庫県,明石市,286,大久保町わかば4,市道(わかば公園東側 鉄柵),34.6738339,134.9421164,
兵庫県,明石市,287,大久保町駅前1丁目13-4,大久保北第2自転車駐車場(北側フェンス),34.6830282,134.9383299,
兵庫県,明石市,288,大久保町ゆりのき通1-3,市道(JR大久保駅南緑地),34.6821,134.938056,
兵庫県,明石市,289,大久保町ゆりのき通1-4,あかし保健所(駐車場北鉄柵),34.6816395,134.9362083,
兵庫県,明石市,290,大久保町ゆりのき通1-6,ゆりのき通西公園(北東側),34.6805185,134.9387607,
兵庫県,明石市,291,大久保町ゆりのき通2-3,ゆりのき通南公園(西側),34.6805019,134.9364261,
兵庫県,明石市,292,大久保町福田2丁目8,福田2丁目公園(南側フェンス),34.6825952,134.9341644,
兵庫県,明石市,293,大久保町福田3丁目3,福田3丁目公園(南側フェンス),34.6816538,134.93307,
兵庫県,明石市,294,大久保町ゆりのき通1-6,ゆりのき通西公園(北西側),34.6805185,134.9387607,
兵庫県,明石市,295,大久保町谷八木405,市道(極楽橋横ガードレール),34.6648492,134.942854,緯度経度は怪しい
兵庫県,明石市,296,大久保町谷八木693,谷八木サンッキ公園(東側フェンス),34.6659747,134.9405374,
兵庫県,明石市,297,大久保町谷八木1365-6,谷八木堂田公園(フェンス(谷八木堂田公園たこバス),34.6691885,134.9405115,
兵庫県,明石市,298,大久保町八木110,山陽電鉄中八木駅駐輪場(フェンス),34.6707312,134.9361122,
兵庫県,明石市,299,大久保町谷八木辻ノ外878,谷八木小学校(南門東柵),34.6691885,134.9405115,
兵庫県,明石市,300,大久保町八木81-4,八木遺跡公園(植込),34.6691912,134.9352874,緯度経度は怪しい
兵庫県,明石市,301,大久保町八木206,八木会館(東側フェンス),34.6703569,134.9333053,
兵庫県,明石市,302,大久保町八木盤若田599,市立西八木厚生館(鉄柵),34.6718962,134.9323404,
兵庫県,明石市,303,大久保町八木城ヶ谷455,八木ツバキ公園(東側フェンス),34.6718962,134.9323404,
兵庫県,明石市,304,大久保町八木576-2,西八木サザンカ公園(西側フェンス(公園入口より北側),34.67531510000001,134.927608,
兵庫県,明石市,305,大久保町江井島1-3,西八木公園(西側フェンス),34.6750331,134.9267493,
兵庫県,明石市,306,大久保町八木641-14,八木家の北公園(北側フェンス),34.6768708,134.9281674,
兵庫県,明石市,307,大久保町高丘1丁目9,高丘サザンカ公園(南側),34.7049379,134.9504316,
兵庫県,明石市,308,大久保町高丘1丁目19,高丘サクラ公園(西側),34.7049379,134.9504316,緯度経度は怪しい
兵庫県,明石市,309,大久保町高丘3丁目1,masked,34.6999524,134.9492646,緯度経度は怪しい
兵庫県,明石市,310,大久保町高丘3丁目2,高丘東小学校(北側),34.6999524,134.9492646,
兵庫県,明石市,311,大久保町高丘3丁目3,高丘中央集会所(高丘サービスコーナー)(南側),34.70046320000001,134.949162,
兵庫県,明石市,312,大久保町高丘3丁目2,高丘東小学校(東側),34.6999524,134.9492646,
兵庫県,明石市,313,大久保町高丘2丁目11,高丘ツバキ公園(北東金網),34.7005291,134.9527654,
兵庫県,明石市,314,大久保町高丘5丁目9,高丘クロマツ公園(北側金網),34.701588,134.9457636,
兵庫県,明石市,315,大久保町高丘3丁目4,高丘東公園(東金網),34.6999524,134.9492646,
兵庫県,明石市,316,大久保町高丘3丁目18,高丘ジンチョウゲ公園(北金網),34.6999524,134.9492646,緯度経度は怪しい
兵庫県,明石市,317,大久保町高丘5丁目14,高丘中学校(東側),34.701588,134.9457636,
兵庫県,明石市,318,大久保町高丘5丁目14,高丘中学校(西側),34.701588,134.9457636,
兵庫県,明石市,319,大久保町高丘5丁目14,高丘中学校(南側),34.701588,134.9457636,
兵庫県,明石市,320,大久保町高丘5丁目17,高丘クスノキ公園(南側),34.701588,134.9457636,緯度経度は怪しい
兵庫県,明石市,321,大久保町高丘7丁目23,高丘西小学校(北側フェンス),34.7045945,134.9405115,
兵庫県,明石市,322,大久保町高丘7丁目24,高丘西公園(東側),34.7045945,134.9405115,緯度経度は怪しい
兵庫県,明石市,323,大久保町高丘7丁目23,高丘西小学校(東側),34.7045945,134.9405115,
兵庫県,明石市,324,大久保町高丘7丁目6,高丘ヒマラヤスギ公園(西側),34.7045945,134.9405115,緯度経度は怪しい
兵庫県,明石市,325,大久保町高丘7丁目20,高丘ツツジ公園(北側金網),34.7045945,134.9405115,
兵庫県,明石市,326,大久保町高丘7丁目6,高丘ヒマラヤスギ公園(東側),34.7045945,134.9405115,緯度経度は怪しい
兵庫県,明石市,327,大久保町高丘7丁目24,高丘西公園(南側金網),34.7045945,134.9405115,緯度経度は怪しい
兵庫県,明石市,328,大久保町大窪2620-247,大窪ケヤキ公園(西側),34.6989081,134.9391919,
兵庫県,明石市,329,大久保町山手台1丁目77,山手台1号公園(東側),34.6979009,134.9361525,
兵庫県,明石市,330,大久保町山手台2丁目157,山手台4号公園(北側),34.6985939,134.9326322,
兵庫県,明石市,331,大久保町山手台3丁目50,山手台5号公園(南側),34.7006968,134.9343748,
兵庫県,明石市,332,大久保町山手台4丁目129-1,山手台4丁目公園(西側フェンス),34.7016368,134.9364444,
兵庫県,明石市,333,大久保町緑が丘1,西脇シラカシ公園(東側金網),34.6980798,134.9332889,
兵庫県,明石市,334,大久保町山手台2丁目45,山手台3号公園(東側),34.6997389,134.9351126,
兵庫県,明石市,335,大久保町大窪2545-8,市道(コープこうべ大久保店北側道路),34.6954614,134.9497022,
兵庫県,明石市,336,大久保町大窪2173-6,masked,34.6947037,134.9501882,
兵庫県,明石市,337,大久保町大窪2099-11,masked,34.6920232,134.9474422,
兵庫県,明石市,338,大久保町大窪3348,おおくぼ中之番公園(東側フェンス),34.6862742,134.9483658,緯度経度は怪しい
兵庫県,明石市,339,大久保町大窪825,市道大久保313号線(中の番バス停東側植え),34.6876908,134.9497789,
兵庫県,明石市,340,大久保町大窪上ノ谷田2030,大久保北中学校(北フェンス),34.6919123,134.9463471,緯度経度は怪しい
兵庫県,明石市,341,大久保町大窪上ノ谷田2030,大久保北中学校(西フェンス),34.6919123,134.9463471,緯度経度は怪しい
兵庫県,明石市,342,大久保町大窪上ノ谷田2030,大久保北中学校(東フェンス),34.6919123,134.9463471,緯度経度は怪しい
兵庫県,明石市,343,大久保町大窪381,西大窪公園(東側),34.6886656,134.9396734,
兵庫県,明石市,344,大久保町大窪347-1,大窪カイヅカ公園(西側),34.6878627,134.9395122,
兵庫県,明石市,345,大久保町大窪3423,大窪中公園(南側),34.6869513,134.9404846,
兵庫県,明石市,346,大久保町大窪3423,市道(ふれあいの里の南側)(ガードレール),34.6869513,134.9404846,
兵庫県,明石市,347,大久保町大窪1572-1,市道フェンス(市道フェンス),34.6916986,134.9377203,
兵庫県,明石市,348,大久保町大窪151-1,大窪丁田公園(南土手),34.6870711,134.9387423,
兵庫県,明石市,349,大久保町駅前2丁目4,大久保町三軒茶屋公園(西側フェンス),34.6852299,134.9411628,
兵庫県,明石市,350,大久保町大窪上槌山1600,山手小学校(正門フェンス),34.6919123,134.9463471,緯度経度は怪しい
兵庫県,明石市,351,大久保町茜2丁目7,茜2丁目公園(西側フェンス),34.6935857,134.9379485,
兵庫県,明石市,352,大久保町茜1丁目8,茜1丁目公園(西側),34.6957031,134.9395631,
兵庫県,明石市,353,大久保町大窪1964,大窪宮北公園(公園内東側),34.6941169,134.9444421,
兵庫県,明石市,354,大久保町茜1丁目4,市道 八十島池前(歩道(黒鉄柵)),34.6958684,134.9384688,
兵庫県,明石市,355,大久保町大窪1613,川沿フェンス(川沿フェンス),34.6931884,134.939856,
兵庫県,明石市,356,大久保町茜2丁目4,市道(植え込み),34.69467970000001,134.936572,
兵庫県,明石市,357,大久保町西脇630-3,市道(宗賢神社南西道路フェンス),34.6932166,134.929975,
兵庫県,明石市,358,大久保町西脇790-70,鳥ケ谷公園(北側フェンス),34.6945565,134.9292811,
兵庫県,明石市,359,大久保町西脇鳥ケ谷790,市道(市道植込),34.674331,134.930606,緯度経度は怪しい
兵庫県,明石市,360,大久保町西脇中ノ坪185,市道(フェンス),34.6934664,134.931173,
兵庫県,明石市,361,大久保町茜3丁目2,市道(フェンス),34.6956458,134.9362802,
兵庫県,明石市,362,大久保町西脇64-1,市道(ケーヨーデイツー西側ガードレール),34.6916644,134.9361803,緯度経度は怪しい
兵庫県,明石市,363,大久保町西脇大池ノ東364,県営明石大久保南団地(9号棟北フェンス),34.6934664,134.931173,
兵庫県,明石市,364,大久保町大窪597,市道(ガードレール),34.6820822,134.942739,
兵庫県,明石市,365,大久保町駅前1丁目,市道(JR大久保駅北ロータリー),34.6825994,134.9396361,
兵庫県,明石市,366,大久保町大窪249-1,大久保駅北公園(南側フェンス),34.6838414,134.9413087,
兵庫県,明石市,367,大久保町大窪611-13,市道(大久保市民センター第2駐車場前ガードレール),34.6809635,134.9440878,
兵庫県,明石市,368,大久保町大窪602-1,市道(兵庫県職人の会西側ガードレール),34.6823935,134.9435522,
兵庫県,明石市,369,大久保町大窪1104-2,大窪釜池公園(公園内北側植込),34.6839571,134.9436726,
兵庫県,明石市,370,大久保町大窪597,大久保駅前東公園(西側フェンス),34.6820822,134.942739,
兵庫県,明石市,371,大久保町江井島82-1,ちびっこ広場(南西側フェンス),34.6755121,134.9231421,
兵庫県,明石市,372,大久保町江井島868,市道(転落防止策),34.6806815,134.918094,
兵庫県,明石市,373,大久保町江井島260-2,江井島保育所(北側フェンス),34.6759248,134.9167391,緯度経度は怪しい
兵庫県,明石市,374,大久保町江井島西辻ヶ鼻759,JAあかし江井ヶ島支店(西側フェンス(入口北側)),34.6762552,134.9230002,緯度経度は怪しい
兵庫県,明石市,375,大久保町江井島249-2,門池公園(南側植込(段の高い方)),34.6759647,134.9175813,
兵庫県,明石市,376,大久保町江井島567,少年自然の家(南フェンス),34.6762552,134.9230002,緯度経度は怪しい
兵庫県,明石市,377,大久保町江井島567,少年自然の家(北西法面),34.6762552,134.9230002,緯度経度は怪しい
兵庫県,明石市,378,大久保町西島1001-58,西島こども広場グラウンド(北側フェンス),34.6794837,134.9075331,
兵庫県,明石市,379,大久保町西島533-4,市道(コート・ド・メール南側ガードレール),34.6812846,134.909787,
兵庫県,明石市,380,大久保町西島995-2,西島地区コミュニティ会館(北植栽),34.6810005,134.9077761,
兵庫県,明石市,381,大久保町西島1018-3,市道(東側フェンス),34.6802886,134.9082403,
兵庫県,明石市,382,大久保町江井島1068-4,市道(赤根川緑地南側駐車場前植込),34.6762552,134.9230002,緯度経度は怪しい
兵庫県,明石市,383,大久保町西島居屋敷1194,県道姫路明石自転車道線(西島橋ガードレール),34.6798324,134.9063682,緯度経度は怪しい
兵庫県,明石市,384,大久保町江井島496-7,市道(赤根川中筋橋北側ガードレール),34.6762713,134.9096361,
兵庫県,明石市,385,大久保町西島201-27,西島ヒマラヤ公園(東側植込),34.6823163,134.9162868,
兵庫県,明石市,386,大久保町西島370-2,天ケ谷公園(南側フェンス),34.6833181,134.915151,
兵庫県,明石市,387,大久保町西島原田680-5,江井島中学校(コミセン西側フェンス),34.6850411,134.9136581,緯度経度は怪しい
兵庫県,明石市,388,大久保町西島原田680-5,江井島中学校(南側フェンス),34.6850411,134.9136581,緯度経度は怪しい
兵庫県,明石市,389,魚住町金ヶ崎882-6,新幹線金ヶ崎公園(南側フェンス),34.6837936,134.9205851,
兵庫県,明石市,390,大久保町西島86-1,西島東原公園(西側フェンス),34.6854311,134.9173441,
兵庫県,明石市,391,魚住町金ヶ崎928,住吉神社(東側上手),34.6828522,134.9193651,
兵庫県,明石市,392,大久保町西島680-5,江井島中学校(大池向かいフェンス),34.6856442,134.9129478,
兵庫県,明石市,393,魚住町金ヶ崎1483,masked,34.6942225,134.9278134,
兵庫県,明石市,394,魚住町金ヶ崎288-2,金ヶ崎ヒマラヤスギ公園(西側フェンス),34.6921841,134.9270712,
兵庫県,明石市,395,魚住町金ヶ崎1368,金ヶ崎文化センター(南側たこバス停横),34.6944439,134.9247014,
兵庫県,明石市,396,魚住町金ヶ崎1531-3,金ヶ崎ケヤキ公園(北東側フェンス),34.6958004,134.9263709,
兵庫県,明石市,397,魚住町金ヶ崎639-8,masked,34.6939619,134.9230002,
兵庫県,明石市,398,魚住町金ヶ崎226,市道(日産カーパレス明石北側ガードレール),34.6912507,134.9282078,
兵庫県,明石市,399,魚住町金ヶ崎1539-2,市道(駐車場南側ガードレール),34.6960529,134.9248054,緯度経度は怪しい
兵庫県,明石市,400,魚住町長坂寺730,masked,34.6971201,134.9190247,
兵庫県,明石市,401,魚住町長坂寺692-2,市道(山の谷池東側フェンス),34.6955906,134.9156015,
兵庫県,明石市,402,魚住町長坂寺513-10,市道(長坂寺会館南側植込),34.6934119,134.9134217,
兵庫県,明石市,403,魚住町錦が丘2丁目15,錦が丘中央公園(西側植込),34.69444,134.911172,
兵庫県,明石市,404,魚住町錦が丘1丁目17,錦が丘小学校(正門南側フェンス),34.6972311,134.9115807,
兵庫県,明石市,405,魚住町錦が丘1丁目4,錦が丘北公園(南側植込),34.6969341,134.9130742,
兵庫県,明石市,406,魚住町錦が丘3丁目12,masked,34.6952488,134.9095704,
兵庫県,明石市,407,魚住町金ヶ崎1689-9,青葉台公園(南側フェンス),34.7037724,134.9228184,
兵庫県,明石市,408,魚住町長坂寺1287-3,masked,34.7056951,134.91706,
兵庫県,明石市,409,魚住町長坂寺787-2,市道(十七号池東側フェンス),34.7003424,134.9145523,
兵庫県,明石市,410,魚住町清水579-6,市道(魚住小学校東側フェンス),34.7029313,134.9138953,
兵庫県,明石市,411,魚住町清水570,市道(魚住小学校西側フェンス),34.7035788,134.9123902,
兵庫県,明石市,412,魚住町清水606-9,立合池の下公園(西側フェンス),34.7050515,134.9135942,
兵庫県,明石市,413,魚住町長坂寺1242-7,魚住北公園(南側植込),34.7040629,134.9189951,
兵庫県,明石市,414,魚住町清水423,市道(コーナン東側フェンス),34.704344,134.9066954,
兵庫県,明石市,415,魚住町清水75,市道(葵スポーツ南側植込),34.7028313,134.906988,
兵庫県,明石市,416,魚住町清水142,市道(みなと銀行魚住支店向側植込),34.700101,134.9048851,
兵庫県,明石市,417,魚住町清水223,masked,34.7027343,134.9013004,緯度経度は怪しい
兵庫県,明石市,418,魚住町清水219-20,masked,34.7026895,134.9027346,緯度経度は怪しい
兵庫県,明石市,419,魚住町清水66,市道(マウンテンパーキング西側フェンス),34.7024667,134.9085492,
兵庫県,明石市,420,魚住町西岡367-4,鴨谷池東公園(西側フェンス),34.6980651,134.9102529,
兵庫県,明石市,421,魚住町西岡500-1,魚住市民センター(東入口植込),34.6996312,134.9046088,
兵庫県,明石市,422,魚住町西岡545-2,西岡サザンカ公園(南側フェンス),34.7002435,134.903683,
兵庫県,明石市,423,魚住町西岡2292-1,西岡ケヤキ公園(北側植込),34.6995915,134.9015213,
兵庫県,明石市,424,魚住町錦が丘4丁目8,錦が丘西公園(東側植込),34.6978497,134.9057743,
兵庫県,明石市,425,魚住町鴨池13,市道(鴨谷池北側ガードレール),34.6987009,134.9086944,
兵庫県,明石市,426,魚住町錦が丘4丁目7-8,市道(JR魚住駅西側ガードレール),34.6973146,134.9055611,
兵庫県,明石市,427,魚住町鴨池9,鴨谷池西公園(南東側フェンス),34.6987009,134.9086944,
兵庫県,明石市,428,魚住町中尾555-13,中尾サクラ公園(東側フェンス),34.6919304,134.9086396,
兵庫県,明石市,429,魚住町住吉1丁目8,住吉1丁目中公園(南側フェンス),34.6927905,134.9044601,
兵庫県,明石市,430,魚住町住吉2丁目16,住吉2丁目中公園(東南側フェンス),34.6907001,134.9024159,
兵庫県,明石市,431,魚住町住吉2丁目31,住吉2丁目西公園(東側フェンス),34.6908191,134.8997875,
兵庫県,明石市,432,魚住町住吉3丁目745,八幡公園(緑地帯),34.6944618,134.8995783,
兵庫県,明石市,433,魚住町西岡654-1,大溝の上公園(北側植込),34.6959604,134.9033924,
兵庫県,明石市,434,魚住町西岡632,市道(さつき荘前ガードレール),34.6966339,134.9044831,
兵庫県,明石市,435,魚住町中尾702-3,市道(西部市民会館西側南側ガードレール),34.69319249999999,134.9069011,
兵庫県,明石市,436,魚住町西岡西台1865-6,西岡ウバメガシ公園(西側フェンス),34.694313,134.890362,緯度経度は怪しい
兵庫県,明石市,437,魚住町西岡1487-3,市道(西岡ポンプ場西側ガードレール),34.69268479999999,134.8959151,
兵庫県,明石市,438,魚住町西岡東角1349,錦浦小学校(東門南側フェンス),34.6891499,134.9002776,緯度経度は怪しい
兵庫県,明石市,439,魚住町西岡東角1349,錦浦小学校(コミセン西側フェンス),34.6891499,134.9002776,緯度経度は怪しい
兵庫県,明石市,440,魚住町西岡迎1367,市道(東南角地),34.7004336,134.8996414,
兵庫県,明石市,441,魚住町西岡1638-1,市道(西岡サクラ公園南側),34.6919777,134.8945781,
兵庫県,明石市,442,魚住町西岡1487-3,西岡ポンプ場(南側鉄柵),34.69268479999999,134.8959151,
兵庫県,明石市,443,魚住町西岡穴田960,市営グラウンド(西側フェンス),34.7004336,134.8996414,
兵庫県,明石市,444,魚住町西岡南出口2455-1,masked,34.7004336,134.8996414,
兵庫県,明石市,445,魚住町西岡古井ノ内996,市立美里厚生館(西側歩道),34.7004336,134.8996414,
兵庫県,明石市,446,魚住町西岡963-5,美里南公園(フェンス),34.6973633,134.8978623,
兵庫県,明石市,447,魚住町西岡南出口2416,美里仲よし公園(東側),34.7004336,134.8996414,
兵庫県,明石市,448,魚住町住吉4丁目16-87,国道250号線(大見橋北側明姫幹線側道植込),34.6981253,134.895126,
兵庫県,明石市,449,魚住町西岡1933-2,西岡カイヅカ公園(西側フェンス),34.6971597,134.8930514,
兵庫県,明石市,450,魚住町西岡2209-10,山川公園(北東フェンス),34.7021404,134.8995709,
兵庫県,明石市,451,魚住町西岡2564-5,美里公園(グラウンド西側植込),34.7011933,134.8979703,
兵庫県,明石市,452,魚住町西岡2204-8,市道(木下繋方北側川沿いガードレール),34.7035584,134.8977248,
兵庫県,明石市,453,魚住町西岡2203,市道(東側ガードレール),34.7038703,134.8980586,
兵庫県,明石市,454,魚住町西岡2290-10,山川下池(北側ガードレール),34.7004336,134.8996414,
兵庫県,明石市,455,魚住町西岡2075-7,市道(増田方北側ガードレール),34.7042182,134.8962628,
兵庫県,明石市,456,魚住町西岡2075-29,西岡ヒマラヤスギ公園(北側),34.7039558,134.8959393,
兵庫県,明石市,457,魚住町清水263-3,市道(安政池北東側フェンス),34.7050209,134.9034645,
兵庫県,明石市,458,魚住町西岡2186,市道(安政池北西側フェンス),34.7048082,134.9007549,
兵庫県,明石市,459,魚住町清水359,市道(駐車場前フェンス),34.7060808,134.8984427,
兵庫県,明石市,460,魚住町清水364,魚住中学校(南西側フェンス),34.7074432,134.8980121,
兵庫県,明石市,461,魚住町清水364,魚住中学校(正門横フェンス),34.7074432,134.8980121,
兵庫県,明石市,462,魚住町清水1261-1,masked,34.708921,134.9003898,
兵庫県,明石市,463,魚住町清水1282-8,市道（エクシング明石営業所北側フェンス）,34.7099117,134.9020446,
兵庫県,明石市,464,魚住町清水462-7,市道（牛舎前フェンス）,34.7058432,134.9087608,
兵庫県,明石市,465,魚住町清水1550,清水ヒマラヤスギ公園（南西側フェンス）,34.7119283,134.9031898,
兵庫県,明石市,466,魚住町清水1752-2,清水小学校（正門横フェンス）,34.7157022,134.9063361,
兵庫県,明石市,467,魚住町清水1871-49,清水ポプラ公園（南側フェンス）,34.7171237,134.9062305,緯度経度は怪しい
兵庫県,明石市,468,魚住町清水西宿1902,清水サツキ公園（北側フェンス）,34.7149138,134.8999017,緯度経度は怪しい
兵庫県,明石市,469,魚住町清水1293-13,市道（北側フェンス）,34.7112837,134.9025345,
兵庫県,明石市,470,魚住町清水1600,県営明石清水高層集会室（南西側フェンス）,34.7119983,134.9011439,
兵庫県,明石市,471,魚住町清水2473,市道（小池西側フェンス）,34.7193647,134.8979938,
兵庫県,明石市,472,魚住町清水2473,市道（清水新田公民館東側ガードレール）,34.7193647,134.8979938,
兵庫県,明石市,473,魚住町清水2070,masked,34.7173938,134.897006,
兵庫県,明石市,474,魚住町清水2145-3,県道志染土山線（鳥池南西側フェンス）,34.71991,134.8944023,
兵庫県,明石市,475,魚住町清水2254-6,鳥池（南側フェンス）,34.721566,134.8944662,
兵庫県,明石市,476,魚住町清水2145-3,県道志染土山線（鳥池北西側フェンス）,34.71991,134.8944023,
兵庫県,明石市,477,魚住町清水2275,市道（土山平成会館南側フェンス）,34.72060880000001,134.8946713,
兵庫県,明石市,478,魚住町清水2357-2,新小谷公園（南側植込み）,34.725241,134.8996644,
兵庫県,明石市,479,魚住町清水2395-101,県道志染土山線（竜ケ池西側フェンス）,34.7224823,134.899322,
兵庫県,明石市,480,魚住町清水2425,市道（元）昭和シェル石油魚住SS西側ガードレール）,34.7225613,134.8985563,
兵庫県,明石市,481,魚住町清水2334,高橋方北月極駐車場（駐車場フェンス）,34.72377120000001,134.8970951,
兵庫県,明石市,482,魚住町清水2337-6,高橋方貸倉庫（貸倉庫フェンス）,34.7239574,134.8978678,
兵庫県,明石市,483,魚住町清水2346,グランプレステージ明石西（北入口フェンス）,34.7254025,134.8977998,
兵庫県,明石市,484,魚住町清水2362,市道（駐車場前ガードレール）,34.724805,134.9017881,
兵庫県,明石市,485,二見町福里544-2,福里公園（フェンス）,34.7179304,134.8920338,
兵庫県,明石市,486,二見町福里585-1,市道（ガードレール）,34.7170449,134.8957193,
兵庫県,明石市,487,二見町福里580地先,皿池（南側フェンス）,34.7168907,134.89409,
兵庫県,明石市,488,二見町西二見2014-3,西二見プラタナス公園（フェンス）,34.7195003,134.890725,
兵庫県,明石市,489,二見町西二見2001,土山駅東公園（北側フェンス）,34.7181545,134.8913725,
兵庫県,明石市,490,二見町西二見2001,福里公園西側フェンス（福里公園西側フェンス）,34.7181545,134.8913725,
兵庫県,明石市,491,二見町福里179-10,市道（藤本方東側市道ガードレール）,34.7110733,134.8958643,
兵庫県,明石市,492,二見町西二見1951-3,西二見岡の上公園（東側フェンス）,34.7152008,134.8884967,
兵庫県,明石市,493,二見町福里274,二見北幼稚園（フェンス）,34.7131187,134.8937999,緯度経度は怪しい
兵庫県,明石市,494,二見町福里288,福里ツツジ公園（鉄柵）,34.7122091,134.8907336,
兵庫県,明石市,495,二見町西二見315,西二見サンゴジュ公園（入口脇）,34.7094523,134.888352,
兵庫県,明石市,496,二見町西二見18-17,西二見岡ノ下公園（西側フェンス）,34.71428,134.8888066,
兵庫県,明石市,497,二見町東二見599-1,市道（あづみ接骨院南側）,34.7072256,134.8928369,
兵庫県,明石市,498,二見町東二見2025-8,東二見ケヤキ公園（東側金網）,34.7056925,134.8942897,
兵庫県,明石市,499,二見町東二見716,市道（駐車場東）,34.7087999,134.8901093,
兵庫県,明石市,500,二見町東二見8,市道（ガードレール）,34.6998028,134.8891261,緯度経度は怪しい
兵庫県,明石市,501,二見町西二見594,市道（二見中学校正門南側）,34.7074991,134.8821146,
兵庫県,明石市,502,二見町西二見383-34,二見西小学校（西側フェンス）,34.7060209,134.883455,
兵庫県,明石市,503,二見町東二見488-1,masked,34.7019921,134.8882,
兵庫県,明石市,504,二見町東二見408-1,市道(東二見駅北側),34.7002258,134.8891215,
兵庫県,明石市,505,二見町西二見今池ノ下,二見中央公園(南側金網),34.7055829,134.8847043,緯度経度は怪しい
兵庫県,明石市,506,二見町東二見1240,山陽電鉄東二見車両工場(東側フェンス),34.7030005,134.8854678,
兵庫県,明石市,507,二見町東二見99-1,市道(林鉄工所南),34.6959561,134.8904528,
兵庫県,明石市,508,二見町東二見122,市道(東二見ガーデンハイツ1号棟西側),34.6942169,134.8897875,
兵庫県,明石市,509,二見町東二見1360,masked,34.70011600000001,134.8832313,
兵庫県,明石市,510,二見町東二見457-1,二見市民センター(南側),34.6987162,134.8883776,
兵庫県,明石市,511,二見町東二見417-9,山陽電鉄㈱東二見駅(南側),34.7000565,134.8883593,
兵庫県,明石市,512,二見町東二見117-1,東二見東大歳公園(北側フェンス),34.6945899,134.8899789,
兵庫県,明石市,513,二見町東二見1500-5,市道(安田正明方北),34.6976543,134.8851543,
兵庫県,明石市,514,二見町西二見244-1,市道(ガードレール),34.708722,134.8852515,
兵庫県,明石市,515,二見町西二見1642-1,市道(明石西高等学校東側),34.7066361,134.8800328,
兵庫県,明石市,516,二見町西二見西山ノ上44,西山ノ上公園(フェンス),34.7074991,134.8821146,
兵庫県,明石市,517,二見町西二見267,市営上西二見団地(東側),34.7099039,134.8863565,
兵庫県,明石市,518,二見町西二見385,西二見小池公園(北側フェンス),34.7074567,134.8850852,緯度経度は怪しい
兵庫県,明石市,519,二見町西二見515,浄教寺前公園(北側),34.7092575,134.8836363,
兵庫県,明石市,520,二見町西二見255-2,西二見サクラ公園(東側),34.7094335,134.8860944,
兵庫県,明石市,521,二見町西二見795-3,県営明石西二見鉄筋集会室(北西側),34.7019561,134.8783745,
兵庫県,明石市,522,二見町西二見685,市道(NTT明石寮西側ガードレール),34.7026369,134.8808225,
兵庫県,明石市,523,二見町西二見駅前4丁目3,市道(山陽電鉄西二見駅ロータリー),34.7067227,134.8770759,
兵庫県,明石市,524,二見町西二見661-89,兵庫県東二見教職員公舎(西側),34.7034196,134.8801059,
兵庫県,明石市,525,二見町西二見1377-3,市道(松風武番館前),34.7074991,134.8821146,
兵庫県,明石市,526,二見町東二見1323-1,masked,34.7012484,134.883052,
兵庫県,明石市,527,二見町西二見1191-4,西二見公民館(南側植込),34.7024133,134.8758894,
