prefecture,city,number,address,name,lat,long,note
兵庫県,朝来市,1,生野1区,生野小学校前歩道,35.1632766,134.7891337,緯度経度は怪しい
兵庫県,朝来市,2,生野1区,小原嘉文様宅前,35.1632766,134.7891337,緯度経度は怪しい
兵庫県,朝来市,3,生野2区,生野マインホール前,35.1632766,134.7891337,緯度経度は怪しい
兵庫県,朝来市,4,生野2区,まつぼっくり作業所前,35.1632766,134.7891337,緯度経度は怪しい
兵庫県,朝来市,5,生野2区,フレッシュハザール前市有地駐車場,35.1632766,134.7891337,緯度経度は怪しい
兵庫県,朝来市,6,生野3区,生野老人福祉センター前,35.1632766,134.7891337,緯度経度は怪しい
兵庫県,朝来市,7,生野3区,姫宮神社入り口（3区公民館駐車場フェンス）,35.1632766,134.7891337,緯度経度は怪しい
兵庫県,朝来市,8,生野4区,市職員駐車場フェンス,35.1673006,134.7962191,緯度経度は怪しい
兵庫県,朝来市,9,生野5区,山神宮橋付近歩道脇フェンス,35.3397832,134.8523483,緯度経度は怪しい
兵庫県,朝来市,9,生野2区,フレッシュバザール前市有地駐車場,35.1632766,134.7891337,緯度経度は怪しい
兵庫県,朝来市,10,生野6区,旧宮脇千鶴子様宅ブロック塀,35.1632766,134.7891337,緯度経度は怪しい
兵庫県,朝来市,11,生野6区,旧阿野禮子様宅ブロック塀,35.1632766,134.7891337,緯度経度は怪しい
兵庫県,朝来市,12,生野6区,ＮＴＴ生野機械室前フェンス,35.1632766,134.7891337,緯度経度は怪しい
兵庫県,朝来市,13,上生野,上生野区入り口,35.1717455,134.7896387,緯度経度は怪しい
兵庫県,朝来市,14,生野新町,新町第二公民館跡地前,35.1682728,134.812804,緯度経度は怪しい
兵庫県,朝来市,15,生野新町,アベニール生野横公園フェンス,35.1682728,134.812804,緯度経度は怪しい
兵庫県,朝来市,16,生野新町,新町市営住宅3号棟前,35.1682728,134.812804,緯度経度は怪しい
兵庫県,朝来市,17,生野新町,旧新町駐在所横松本駐車場フェンス,35.1682728,134.812804,緯度経度は怪しい
兵庫県,朝来市,18,奥銀谷,オクトー電器駐車場前（奥銀谷市営住宅跡地前）,35.1719178,134.8136962,緯度経度は怪しい
兵庫県,朝来市,19,奥銀谷,奥銀谷地区コミュニティセンター前,35.1719178,134.8136962,緯度経度は怪しい
兵庫県,朝来市,20,小野,西光寺前,35.3397832,134.8523483,
兵庫県,朝来市,20,小野,沼田妙子様宅ブロック塀,35.3397832,134.8523483,
兵庫県,朝来市,20,生野緑ヶ丘,緑ヶ丘バス停横,35.1632766,134.7891337,緯度経度は怪しい
兵庫県,朝来市,21,生野緑ヶ丘,足立守様宅横空地,35.1632766,134.7891337,緯度経度は怪しい
兵庫県,朝来市,22,竹原野,生野ケアハウス進入路歩道ガードパイプ,35.180705,134.817385,緯度経度は怪しい
兵庫県,朝来市,23,竹原野,山根左春様宅前,35.180705,134.817385,緯度経度は怪しい
兵庫県,朝来市,23,黒川,黒川簾野公民館前,35.2058339,134.8700502,緯度経度は怪しい
兵庫県,朝来市,23,黒川,黒川生活改善センター前（入り口県道脇空地）,35.2058339,134.8700502,緯度経度は怪しい
兵庫県,朝来市,23,黒川,黒川市道梅ヶ畑線入り口,35.2058339,134.8700502,緯度経度は怪しい
兵庫県,朝来市,23,黒川,黒川大明寺橋付近市有地,35.2058339,134.8700502,緯度経度は怪しい
兵庫県,朝来市,23,黒川,黒川笹畑林道入り口ガードレール,35.2058339,134.8700502,緯度経度は怪しい
兵庫県,朝来市,23,黒川,黒川本村公民館前,35.2058339,134.8700502,緯度経度は怪しい
兵庫県,朝来市,24,猪野々,猪野々つづら橋たもとガードレール,35.3397832,134.8523483,
兵庫県,朝来市,25,猪野々,猪野々下橋たもとガードパイプ,35.3397832,134.8523483,
兵庫県,朝来市,23,白口,藤原正一様宅跡地（区掲示板横空き地）,35.3397832,134.8523483,
兵庫県,朝来市,26,小田和,梶本貞由様宅前ガードレール,35.3397832,134.8523483,
兵庫県,朝来市,27,小田和,杉谷和年様宅ブロック塀（小田和多目的集会センター前）,35.3397832,134.8523483,
兵庫県,朝来市,28,小田和,小田和内尾谷入り口,35.3397832,134.8523483,
兵庫県,朝来市,29,小田和,小田和サンファースト前,35.3397832,134.8523483,
兵庫県,朝来市,23,円山,円山橋たもと（橋欄干）,35.1864243,134.7920717,緯度経度は怪しい
兵庫県,朝来市,23,円山,足立康幸様宅横ガードレール,35.1864243,134.7920717,緯度経度は怪しい
兵庫県,朝来市,23,円山,井上有義様宅横三叉路ガードレール,35.1864243,134.7920717,緯度経度は怪しい
兵庫県,朝来市,30,北真弓,北真弓変電所前ガードレール,35.156922,134.791593,緯度経度は怪しい
兵庫県,朝来市,31,北真弓,防火水槽付近,35.156922,134.791593,緯度経度は怪しい
兵庫県,朝来市,32,北真弓,北真弓市営住宅ブロック塀,35.156922,134.791593,緯度経度は怪しい
兵庫県,朝来市,33,南真弓,生野交流館横ガードパイプ,35.1520938,134.7919266,緯度経度は怪しい
兵庫県,朝来市,34,南真弓,コミュニティ住宅生野第1団地緑地前,35.1520938,134.7919266,緯度経度は怪しい
兵庫県,朝来市,35,南真弓,木原幸夫様宅前ガードレール,35.1520938,134.7919266,緯度経度は怪しい
兵庫県,朝来市,49,川尻,川尻公営掲示場前,35.3397832,134.8523483,緯度経度は怪しい
兵庫県,朝来市,50,川尻,岡田典男様宅前,35.3397832,134.8523483,緯度経度は怪しい
兵庫県,朝来市,51,栃原,栃原タキゴ農道入り口ガードレール,35.16482374356638,134.7639255512184,緯度経度は怪しい
兵庫県,朝来市,52,栃原,アスティ栃原入り口付近,35.16482374356638,134.7639255512184,緯度経度は怪しい
兵庫県,朝来市,53,栃原,掃本信行様宅ブロック塀,35.16482374356638,134.7639255512184,緯度経度は怪しい
兵庫県,朝来市,54,栃原,上谷一夫様宅横ガードレール,35.16482374356638,134.7639255512184,緯度経度は怪しい
兵庫県,朝来市,55,栃原,杉本明美様宅前,35.16482374356638,134.7639255512184,緯度経度は怪しい
兵庫県,朝来市,56,栃原,旧栃原小学校前フェンス,35.16482374356638,134.7639255512184,緯度経度は怪しい
兵庫県,朝来市,57,栃原,向井兵磨様宅付近（道路反対側ガードレール）,35.16482374356638,134.7639255512184,緯度経度は怪しい
兵庫県,朝来市,58,林垣,安達ときゑ様宅前ブロック塀,35.3633148,134.8317568,緯度経度は怪しい
兵庫県,朝来市,59,林垣,市道馬場崎線県道交差点付近ガードパイプ,35.3633148,134.8317568,緯度経度は怪しい
兵庫県,朝来市,60,寺内,糸井こども園フェンス,35.362596,134.84338,緯度経度は怪しい
兵庫県,朝来市,61,寺内,山王神社入り口,35.362596,134.84338,緯度経度は怪しい
兵庫県,朝来市,36,万葉台,美容室美翔横空き地（市有地）,35.3589128,134.8443331,緯度経度は怪しい
兵庫県,朝来市,61,室尾,室尾水道ポンプ室前フェンス,35.356051,134.851041,緯度経度は怪しい
兵庫県,朝来市,37,秋葉台１区,旧但馬銀行秋葉台出張所向かい側,35.3397832,134.8523483,
兵庫県,朝来市,38,秋葉台３区,秋葉台テニス場前法面,35.3397832,134.8523483,
兵庫県,朝来市,39,秋葉台２区,秋葉台中央集会所横広場フェンス,35.3572114,134.8419059,緯度経度は怪しい
兵庫県,朝来市,40,秋葉台４区,秋葉台４区集会所横公園前,35.35456,134.8465,緯度経度は怪しい
兵庫県,朝来市,41,緑ヶ丘（和田山）,緑ヶ丘入り口（小林俊二様宅横）,35.3411699,134.8518883,
兵庫県,朝来市,42,緑ヶ丘（和田山）,加藤博史様宅裏（県道歩道横ブロック塀）,35.3411699,134.8518883,
兵庫県,朝来市,43,高生田,高生田集会所横空き地,35.367797,134.853777,緯度経度は怪しい
兵庫県,朝来市,44,高生田,糸井地区市民会館前,35.367797,134.853777,緯度経度は怪しい
兵庫県,朝来市,45,高生田,松上美津代様宅横駐車場前,35.367797,134.853777,緯度経度は怪しい
兵庫県,朝来市,73,市場,西川恒廣様宅前ブロック塀,35.3397832,134.8523483,
兵庫県,朝来市,74,市場,朝倉製材所横空き地（藤谷周一郎様所有地）,35.3397832,134.8523483,
兵庫県,朝来市,75,市場,朝倉広昭様宅付近ロードミラー横,35.3397832,134.8523483,
兵庫県,朝来市,76,和田,和田区公民館前（小林英雄様所有田）,35.381554,134.874982,緯度経度は怪しい
兵庫県,朝来市,77,和田,竹内幼稚園前フェンス,35.381554,134.874982,緯度経度は怪しい
兵庫県,朝来市,78,和田,森本ゆかり様宅（車庫）横畑（三角地）,35.381554,134.874982,緯度経度は怪しい
兵庫県,朝来市,79,内海,内海入り口ポンプ場跡地,35.379975,134.886698,緯度経度は怪しい
兵庫県,朝来市,80,内海,内海区公民館向かい側広場,35.379975,134.886698,緯度経度は怪しい
兵庫県,朝来市,46,竹ノ内,威徳神社前,35.3397832,134.8523483,
兵庫県,朝来市,47,竹ノ内,竹ノ内公民館前,35.3397832,134.8523483,
兵庫県,朝来市,48,竹ノ内,竹ノ内公園前,35.3397832,134.8523483,
兵庫県,朝来市,84,朝日,朝日区掲示板付近,35.239731,134.7950215,緯度経度は怪しい
兵庫県,朝来市,85,朝日,朝日集会所前フェンス,35.239731,134.7950215,緯度経度は怪しい
兵庫県,朝来市,86,駅前,旧南但建設会館前ブロック塀,35.164095,134.7904242,緯度経度は怪しい
兵庫県,朝来市,87,駅前,ＪＲ和田山駅前ガードパイプ,35.164095,134.7904242,緯度経度は怪しい
兵庫県,朝来市,88,駅前,ＪＲ社宅前フェンス,35.164095,134.7904242,緯度経度は怪しい
兵庫県,朝来市,89,駅前,朝来市役所本庁舎前（ＡＴＭ裏）,35.164095,134.7904242,緯度経度は怪しい
兵庫県,朝来市,90,駅前,兵庫県和田山庁舎前（植樹帯）,35.164095,134.7904242,緯度経度は怪しい
兵庫県,朝来市,91,東谷,和田山郵便局向かい側「ふれあいの庭」敷地右隅,35.3397832,134.8523483,
兵庫県,朝来市,92,東谷,中治商店向かい側歩道ガードパイプ,35.3397832,134.8523483,
兵庫県,朝来市,93,東谷,東谷区公民館前,35.3397832,134.8523483,
兵庫県,朝来市,49,平野（和田山）,谷井秀行様宅前,35.3411699,134.8518883,
兵庫県,朝来市,50,平野（和田山）,オーエムスプリング㈱前,35.3411699,134.8518883,
兵庫県,朝来市,96,寺谷,和田山農産駐車場ガードパイプ（寺谷区入り口付近）,35.3448983,134.8466461,緯度経度は怪しい
兵庫県,朝来市,97,土田,土田市営住宅２号棟前,35.3437396,134.8406518,緯度経度は怪しい
兵庫県,朝来市,98,土田,藤井一雄様宅前ブロック塀,35.3437396,134.8406518,緯度経度は怪しい
兵庫県,朝来市,99,土田,岡田茂行様宅前,35.3437396,134.8406518,緯度経度は怪しい
兵庫県,朝来市,51,西土田,中山商事㈱兵庫支店横フェンス,35.3437396,134.8406518,緯度経度は怪しい
兵庫県,朝来市,52,西土田,西土田子供遊場前フェンス,35.3437396,134.8406518,緯度経度は怪しい
兵庫県,朝来市,102,宮田,秋山幸正様宅向かい側畑,35.356716,134.825673,緯度経度は怪しい
兵庫県,朝来市,103,宮田,大蔵小学校前フェンス,35.356716,134.825673,緯度経度は怪しい
兵庫県,朝来市,104,高瀬,高瀬区公民館横フェンス,35.3397832,134.8523483,
兵庫県,朝来市,105,高瀬,ﾌﾚｯｼｭﾊﾞｻﾞｰﾙ和田山宮田店駐車場ガードパイプ,35.3397832,134.8523483,
兵庫県,朝来市,53,法道寺,法道寺区子供広場フェンス,35.3604177,134.8193925,緯度経度は怪しい
兵庫県,朝来市,107,岡,藤岡笑美子様宅前ガードレール,35.3397832,134.8523483,
兵庫県,朝来市,108,岡,岡公民館向かい側の田法面,35.3397832,134.8523483,
兵庫県,朝来市,109,岡,農免道路交差点横,35.3397832,134.8523483,
兵庫県,朝来市,54,芳賀野,旧藤中義子様宅倉庫横,35.338295,134.814487,緯度経度は怪しい
兵庫県,朝来市,55,芳賀野,芳賀野区ゴミステーション付近（旧アコバス「本芳賀野」停留所付近）,35.338295,134.814487,緯度経度は怪しい
兵庫県,朝来市,112,宮内,宮内区公民館前ガードレール,35.3633906,134.8166774,緯度経度は怪しい
兵庫県,朝来市,113,宮内,宮内区こども広場フェンス,35.3633906,134.8166774,緯度経度は怪しい
兵庫県,朝来市,114,高田,高田384番地の土地,35.3397832,134.8523483,
兵庫県,朝来市,115,高田,田村昌平様宅前,35.3397832,134.8523483,
兵庫県,朝来市,116,高田,田中勉様宅横ごみステーション前,35.3397832,134.8523483,
兵庫県,朝来市,56,和田山新町,旧上垣医院前ブロック塀,35.339717,134.856716,緯度経度は怪しい
兵庫県,朝来市,57,和田山本町,（公社）和田山納税協会駐車場ガードパイプ,35.33656,134.8600442,緯度経度は怪しい
兵庫県,朝来市,58,和田山上町,枚田小学校前フェンス,35.381554,134.874982,緯度経度は怪しい
兵庫県,朝来市,59,和田山京口,愛クリニック横花壇,35.3411699,134.8518883,緯度経度は怪しい
兵庫県,朝来市,60,和田山京口,玉置橋西詰め（平野洋治様宅付近）,35.3411699,134.8518883,緯度経度は怪しい
兵庫県,朝来市,61,和田山上町,上町子供遊場南側フェンス,35.381554,134.874982,緯度経度は怪しい
兵庫県,朝来市,62,和田山新町,東屋酒店横ブロック塀,35.339717,134.856716,緯度経度は怪しい
兵庫県,朝来市,124,枚田,七味子供遊場前フェンス,35.3222192,134.841585,緯度経度は怪しい
兵庫県,朝来市,125,枚田,中島一也様宅前ガードレール,35.3222192,134.841585,緯度経度は怪しい
兵庫県,朝来市,126,枚田,県営住宅和田山枚田団地入り口付近フェンス,35.3222192,134.841585,緯度経度は怪しい
兵庫県,朝来市,127,枚田,中地子供遊場前フェンス,35.3222192,134.841585,緯度経度は怪しい
兵庫県,朝来市,128,枚田,井口誠二様宅横空き地,35.3222192,134.841585,緯度経度は怪しい
兵庫県,朝来市,63,市御堂,福富宏三様宅前,35.3176332,134.8470409,緯度経度は怪しい
兵庫県,朝来市,64,市御堂,福富善市様宅前ブロック塀,35.3176332,134.8470409,緯度経度は怪しい
兵庫県,朝来市,131,比治,藤原義基様宅前(笠垣　剛様所有田畦畔),35.317042,134.855021,緯度経度は怪しい
兵庫県,朝来市,65,法興寺,法興寺区子供広場前フェンス,35.32514,134.855579,緯度経度は怪しい
兵庫県,朝来市,66,法興寺,定住促進住宅（旧雇用促進住宅）入り口付近,35.32514,134.855579,緯度経度は怪しい
兵庫県,朝来市,67,立ノ原,ＪＡたじま和田山支店前ガードパイプ,35.3397832,134.8523483,緯度経度は怪しい
兵庫県,朝来市,68,法興寺,朝来医療センター前,35.32514,134.855579,緯度経度は怪しい
兵庫県,朝来市,69,枚田岡,枚田岡会館前,35.32822,134.858783,緯度経度は怪しい
兵庫県,朝来市,70,枚田岡,イオン和田山店前（駐車場入り口交差点付近）,35.32822,134.858783,緯度経度は怪しい
兵庫県,朝来市,71,枚田岡,わだやまテント村駐車場前,35.32822,134.858783,緯度経度は怪しい
兵庫県,朝来市,139,柳原,わだやま作業所前,35.3397832,134.8523483,
兵庫県,朝来市,140,柳原,和田山中学校校門横フェンス,35.3397832,134.8523483,
兵庫県,朝来市,141,駅北,駅北２号公園前ガードパイプ,35.3417911,134.8553284,緯度経度は怪しい
兵庫県,朝来市,142,駅北,駅北１号公園前,35.3417911,134.8553284,緯度経度は怪しい
兵庫県,朝来市,143,玉置,和田山体育センター入り口,35.336252,134.861496,緯度経度は怪しい
兵庫県,朝来市,144,玉置,フレッシュバザール和田山玉置店駐車場フェンス,35.336252,134.861496,緯度経度は怪しい
兵庫県,朝来市,145,玉置,(有)佐藤タイヤ商会南側空き地,35.336252,134.861496,緯度経度は怪しい
兵庫県,朝来市,146,玉置,文化公園内和田山図書館横,35.336252,134.861496,緯度経度は怪しい
兵庫県,朝来市,147,桑原,絹川恵智様所有畑前（桑原区入り口付近）,35.3397832,134.8523483,緯度経度は怪しい
兵庫県,朝来市,148,桑原,桑原消防機庫向かい側,35.3397832,134.8523483,緯度経度は怪しい
兵庫県,朝来市,149,白井,白井区倉庫横防火水槽ガードパイプ,35.3397832,134.8523483,
兵庫県,朝来市,150,白井,全但バス「白井」停留所横花壇,35.3397832,134.8523483,
兵庫県,朝来市,151,宮,宮区ゲートボール場前フェンス,35.3397832,134.8523483,
兵庫県,朝来市,152,宮,衣川和子様所有空地,35.3397832,134.8523483,
兵庫県,朝来市,72,久田和,久田和区公民館前フェンス,35.3443364,134.8931019,緯度経度は怪しい
兵庫県,朝来市,73,久田和,稲津直人様所有畑前（久田和区住宅案内板付近）,35.3443364,134.8931019,緯度経度は怪しい
兵庫県,朝来市,74,東和田,東和田区公民館前,35.3397832,134.8523483,
兵庫県,朝来市,156,中,東河小学校前フェンス,35.3397832,134.8523483,
兵庫県,朝来市,157,中,東河地区市民会館前,35.3397832,134.8523483,
兵庫県,朝来市,158,野村,垣尾重吉様所有田前,35.3514712,134.8775057,緯度経度は怪しい
兵庫県,朝来市,159,野村,野村区防火水槽横空き地,35.3514712,134.8775057,緯度経度は怪しい
兵庫県,朝来市,160,岡田,藤本怜子様宅右横畑（濱至様所有畑）,35.352257,134.8706674,緯度経度は怪しい
兵庫県,朝来市,161,岡田,旧岡田区公民館前,35.352257,134.8706674,緯度経度は怪しい
兵庫県,朝来市,75,弥生が丘1区,弥生が丘１区集会所横,35.3503627,134.8665151,緯度経度は怪しい
兵庫県,朝来市,76,弥生が丘2区,弥生が丘２区市道弥生が丘13号歩道ガードパイプ,35.3503627,134.8665151,緯度経度は怪しい
兵庫県,朝来市,77,弥生が丘2区,弥生が丘２区集会所横,35.3503627,134.8665151,緯度経度は怪しい
兵庫県,朝来市,78,久世田,高本光恵様所有田前（久世田区入り口付近）,35.3397832,134.8523483,
兵庫県,朝来市,79,久世田,松本正人様宅前畑法面,35.3397832,134.8523483,
兵庫県,朝来市,80,城南台,旧朝来市観光案内センター駐車場ガードパイプ,35.2924571,134.8268432,緯度経度は怪しい
兵庫県,朝来市,81,竹田新町,竹田新町広場前フェンス,35.2968239,134.8379315,緯度経度は怪しい
兵庫県,朝来市,82,竹田上町,クラボウインターナショナル竹田事業所前フェンス,35.2990546,134.8356469,緯度経度は怪しい
兵庫県,朝来市,83,竹田上町,立雲の郷駐車場,35.2990546,134.8356469,緯度経度は怪しい
兵庫県,朝来市,171,殿町,虎臥城公園前,35.3397832,134.8523483,
兵庫県,朝来市,84,竹田中町,JR竹田駅前,35.2990546,134.8356469,緯度経度は怪しい
兵庫県,朝来市,173,旭町,ミドリ美容室横水路（竹田地区ｺﾐｭﾆﾃｨｾﾝﾀｰ前）,35.3614209,134.818453,緯度経度は怪しい
兵庫県,朝来市,85,米屋町,諏訪橋西詰県道交差点付近（竹田案内看板隣市道敷地）,35.3010427,134.8373721,緯度経度は怪しい
兵庫県,朝来市,86,観音町,安下加代美様宅前広場フェンス,35.3397832,134.8523483,
兵庫県,朝来市,87,竹田下町,竹田下町公民館前,35.2990546,134.8356469,緯度経度は怪しい
兵庫県,朝来市,177,栄町,栄町公民館前,35.3397832,134.8523483,
兵庫県,朝来市,178,栄町,竹田小学校グラウンド側フェンス,35.3397832,134.8523483,
兵庫県,朝来市,179,安井,安井区公民館前フェンス,35.3079434,134.8303059,緯度経度は怪しい
兵庫県,朝来市,180,殿,藤岡英一様宅右横植込内,35.308204,134.821628,緯度経度は怪しい
兵庫県,朝来市,181三波,三波区公民館駐車場,nan,35.306992,134.809172,緯度経度は怪しい
兵庫県,朝来市,88,久留引,久留引地蔵堂横ガードレール,35.3136912,134.8370884,緯度経度は怪しい
兵庫県,朝来市,183,加都,藤本壽様宅前ブロック塀,35.3077573,134.8400735,緯度経度は怪しい
兵庫県,朝来市,184,加都,加都区公民館横ブロック塀,35.3077573,134.8400735,緯度経度は怪しい
兵庫県,朝来市,185,加都,小山信輔様宅横歩道脇,35.3077573,134.8400735,緯度経度は怪しい
兵庫県,朝来市,186,筒江,衣川俊司様宅横畑地前,35.3049872,134.8528884,緯度経度は怪しい
兵庫県,朝来市,187,筒江,筒江公民館登り口,35.3049872,134.8528884,緯度経度は怪しい
兵庫県,朝来市,188,藤和,藤和神社前（境内）,35.3397832,134.8523483,
兵庫県,朝来市,189,藤和,藤和集会所前,35.3397832,134.8523483,
兵庫県,朝来市,190,滝田,滝田区公民館前空き地（小西敏宏様所有土地）,35.3215212,134.8790525,緯度経度は怪しい
兵庫県,朝来市,191,大垣,安積　隆様宅前（道路用地）,35.3189766,134.8824893,緯度経度は怪しい
兵庫県,朝来市,89,矢名瀬下町,円照寺前,35.3150834,134.8834516,緯度経度は怪しい
兵庫県,朝来市,90,矢名瀬中町,矢名瀬中町泉遊園地フェンス,35.3150834,134.8834516,緯度経度は怪しい
兵庫県,朝来市,91,上ゲ町,上ゲ町公民館前,35.3397832,134.8523483,緯度経度は怪しい
兵庫県,朝来市,92,川原町,戸田昭博様宅横（住宅前）,35.3397832,134.8523483,緯度経度は怪しい
兵庫県,朝来市,196,末歳,大崎高志様宅前敷地内,35.3103934,134.8879759,緯度経度は怪しい
兵庫県,朝来市,93,川原町,矢名瀬町ポケットパーク,35.3397832,134.8523483,緯度経度は怪しい
兵庫県,朝来市,94,川原町,朝来市役所山東支所前（交差点花壇）,35.3397832,134.8523483,緯度経度は怪しい
兵庫県,朝来市,199,小谷,小谷区公民館前フェンス,35.3397832,134.8523483,
兵庫県,朝来市,95,楽音寺,ヒメハナ舞ロード歩道ガードパイプ,35.312803,134.875418,緯度経度は怪しい
兵庫県,朝来市,96,楽音寺,谷本幸枝様宅前ガードパイプ,35.312803,134.875418,緯度経度は怪しい
兵庫県,朝来市,97,楽音寺,梁瀬中学校フェンス（グンゼ梁瀬工場正門前）,35.312803,134.875418,緯度経度は怪しい
兵庫県,朝来市,98,川原町,山東公民館駐車場前,35.3397832,134.8523483,緯度経度は怪しい
兵庫県,朝来市,204,末歳,稲津哲雄様宅横市有地,35.3103934,134.8879759,緯度経度は怪しい
兵庫県,朝来市,205,末歳,宮谷正弘様宅（納屋）前,35.3103934,134.8879759,緯度経度は怪しい
兵庫県,朝来市,206,新堂,波多野至様宅前ブロック塀,35.3202863,134.8947247,緯度経度は怪しい
兵庫県,朝来市,207,大内,大内集落センター前花壇,35.32335,134.901,緯度経度は怪しい
兵庫県,朝来市,208,大内,直田光榮様宅前造成地,35.32335,134.901,緯度経度は怪しい
兵庫県,朝来市,209,野間,若草寮横（藤本健伸様所有畑）,35.3291044,134.9067157,緯度経度は怪しい
兵庫県,朝来市,210,野間,野間集落センター前畑,35.3291044,134.9067157,緯度経度は怪しい
兵庫県,朝来市,99,田ノ口,田ノ口集落センター向かい側,35.3304299,134.9096925,緯度経度は怪しい
兵庫県,朝来市,212,塩田,塩田区集会所広場ゴミステーション横,35.3242,134.91,緯度経度は怪しい
兵庫県,朝来市,100,向大道,向大道区ゴミステーション前空き地（小山修平様私有地）,35.309815,134.879751,緯度経度は怪しい
兵庫県,朝来市,101,向大道,向大道地蔵堂前,35.309815,134.879751,緯度経度は怪しい
兵庫県,朝来市,215,大月,釘貫はつ子様宅横空き地,35.30999420000001,134.8809109,緯度経度は怪しい
兵庫県,朝来市,216,大月,大月公民館前ガードパイプ,35.30999420000001,134.8809109,緯度経度は怪しい
兵庫県,朝来市,217,諏訪,諏訪コミュニティ消防センターフェンス,35.3028251,134.8815786,緯度経度は怪しい
兵庫県,朝来市,218,諏訪,佐野一男様宅前（畑）,35.3028251,134.8815786,緯度経度は怪しい
兵庫県,朝来市,219,柊木,西山公子様宅前（畑）,35.3397832,134.8523483,
兵庫県,朝来市,220,溝黒,旧与布土小学校正門横フェンス,35.3397832,134.8523483,
兵庫県,朝来市,221,溝黒,やくの麺業向側（与布土川沿い防護フェンス）,35.3397832,134.8523483,
兵庫県,朝来市,102,喜多垣,喜多垣区公民館前ガードレール,35.2939279,134.8736264,緯度経度は怪しい
兵庫県,朝来市,223,山歳,中嶋一哉様宅前空き地,35.3397832,134.8523483,緯度経度は怪しい
兵庫県,朝来市,224,山歳,中島あき子様宅横,35.3397832,134.8523483,緯度経度は怪しい
兵庫県,朝来市,225,山歳,山歳ふれあい健康広場フェンス,35.3397832,134.8523483,緯度経度は怪しい
兵庫県,朝来市,226,迫間,浦野孝雄様宅前畑（西澤美知子様所有田）,35.2884212,134.857296,緯度経度は怪しい
兵庫県,朝来市,227,迫間,迫間区公民館前（電柱前）,35.2884212,134.857296,緯度経度は怪しい
兵庫県,朝来市,228,迫間,安井壽胤様宅横（防火水槽横）,35.2884212,134.857296,緯度経度は怪しい
兵庫県,朝来市,229,迫間,迫間防火水槽フェンス,35.2884212,134.857296,緯度経度は怪しい
兵庫県,朝来市,230,迫間,山本しず子様宅裏側市道法面,35.2884212,134.857296,緯度経度は怪しい
兵庫県,朝来市,231,森,㈱公正建設前交差点,35.2440987,134.79721,緯度経度は怪しい
兵庫県,朝来市,232,森,森区公民館前右側,35.2440987,134.79721,緯度経度は怪しい
兵庫県,朝来市,103,与布土,藤本一孝様宅前（石積み）,35.30171483087271,134.8715904865852,緯度経度は怪しい
兵庫県,朝来市,104,与布土,与布土区公民館駐車場フェンス,35.30171483087271,134.8715904865852,緯度経度は怪しい
兵庫県,朝来市,105,与布土,松本久司様宅上ガードレール,35.30171483087271,134.8715904865852,緯度経度は怪しい
兵庫県,朝来市,106,与布土,松本完司様宅付近（畑畦畔）,35.30171483087271,134.8715904865852,緯度経度は怪しい
兵庫県,朝来市,237,三保,水道ポンプ室前畑,35.288288,134.888061,緯度経度は怪しい
兵庫県,朝来市,238,三保,坪井ひとみ様宅横(道路沿い空き地),35.288288,134.888061,緯度経度は怪しい
兵庫県,朝来市,239,越田,越田区公民館向かい側（垣尾大輔様所有地）,35.297176,134.884918,緯度経度は怪しい
兵庫県,朝来市,240,越田,越田区作業所前（木村典明様所有田）,35.297176,134.884918,緯度経度は怪しい
兵庫県,朝来市,241,柿坪,足立晶大様宅前（畑）,35.3397832,134.8523483,
兵庫県,朝来市,242,柿坪,太田忠良様宅前（電柱所在地）,35.3397832,134.8523483,
兵庫県,朝来市,243,和賀,和賀区防火水槽フェンス,35.3113484,134.8935334,緯度経度は怪しい
兵庫県,朝来市,244,和賀,足立善左衛門様宅前ブロック塀,35.3113484,134.8935334,緯度経度は怪しい
兵庫県,朝来市,245,早田,山本　嶂様宅横（山本勝様所有畑）,35.3090376,134.8987192,緯度経度は怪しい
兵庫県,朝来市,107,上早田,市営住宅栗鹿団地駐車場フェンス,35.3090376,134.8987192,緯度経度は怪しい
兵庫県,朝来市,247,田中,田中コミュニティ広場付近（市道法面）,35.3397832,134.8523483,緯度経度は怪しい
兵庫県,朝来市,248,田中,旧粟鹿小学校正門横フェンス,35.3397832,134.8523483,緯度経度は怪しい
兵庫県,朝来市,249,一品,古田　勝様宅横,35.3397832,134.8523483,
兵庫県,朝来市,250,一品,一品公民館擁壁前,35.3397832,134.8523483,
兵庫県,朝来市,251,柴,習田幸一様宅前（子供広場）,35.3024221,134.9162734,緯度経度は怪しい
兵庫県,朝来市,252,柴,柴区公民館南東のR427沿,35.3024221,134.9162734,緯度経度は怪しい
兵庫県,朝来市,253,柴,水谷正明様宅付近交差点（国道427号線と側道交差点）,35.3024221,134.9162734,緯度経度は怪しい
兵庫県,朝来市,254,西谷,藤原隆夫様宅前（市道側溝）,35.296326,134.9064943,緯度経度は怪しい
兵庫県,朝来市,255,西地,住吉由喜様宅横広場フェンス,35.3397832,134.8523483,
兵庫県,朝来市,256,西地,馬場要二様宅横の畑隅（福島賢次様所有畑）,35.3397832,134.8523483,
兵庫県,朝来市,257,西谷,西谷構造改善センター前,35.296326,134.9064943,緯度経度は怪しい
兵庫県,朝来市,258,東,安達靖子様所有水田畦畔（東構造改善センター横）,35.3397832,134.8523483,
兵庫県,朝来市,259,比叡,ゴミステーション裏,35.3397832,134.8523483,
兵庫県,朝来市,260,比叡,比叡コミュニティ消防センター前,35.3397832,134.8523483,
兵庫県,朝来市,261,金浦,旧中村翠様宅前（歩道沿い）（放光院前）,35.3397832,134.8523483,
兵庫県,朝来市,262,金浦,後　道男様宅前（国道入り口東側）,35.3397832,134.8523483,
兵庫県,朝来市,263,金浦,金浦区公民館前,35.3397832,134.8523483,
兵庫県,朝来市,264,物部,枚田公一様宅前ブロック塀,35.2763005,134.8107701,
兵庫県,朝来市,265,物部,物部公民館前バス停付近フェンス,35.2763005,134.8107701,
兵庫県,朝来市,266,物部,ＪＲ青倉駅前駐車場フェンス,35.2763005,134.8107701,
兵庫県,朝来市,267,物部,アパート跡地（旧ＪＡ中川支店前）,35.2763005,134.8107701,
兵庫県,朝来市,268,桑市,携帯電話鉄塔南側　足立匡弘様所有敷地,35.2663642,134.7990638,緯度経度は怪しい
兵庫県,朝来市,269,桑市,越中敬夫様宅横,35.2663642,134.7990638,緯度経度は怪しい
兵庫県,朝来市,270,立脇,虹の街入り口ガードパイプ（三叉路付近市道）,35.2520392,134.7967222,
兵庫県,朝来市,271,立脇,大通院前広場フェンス,35.2520392,134.7967222,
兵庫県,朝来市,272,立脇,松本組資材置場フェンス,35.2520392,134.7967222,
兵庫県,朝来市,108,多々良木,牧野配水池登り口,35.242504,134.8203356,緯度経度は怪しい
兵庫県,朝来市,109,多々良木,大才防火水槽フェンス,35.242504,134.8203356,緯度経度は怪しい
兵庫県,朝来市,110,多々良木,芸術の森公園（いなか暮らし塾前）,35.242504,134.8203356,緯度経度は怪しい
兵庫県,朝来市,111,多々良木,旧多々良木小学校広場フェンス,35.242504,134.8203356,緯度経度は怪しい
兵庫県,朝来市,112,多々良木,冷田橋北側（プール跡）広場フェンス,35.242504,134.8203356,緯度経度は怪しい
兵庫県,朝来市,113,多々良木,牧野公民館前,35.242504,134.8203356,緯度経度は怪しい
兵庫県,朝来市,279,石田,国道石田交差点（欄干）,35.2586806,134.8107701,緯度経度は怪しい
兵庫県,朝来市,280,石田,森田九三男様宅前ガードレール,35.2586806,134.8107701,緯度経度は怪しい
兵庫県,朝来市,281,石田,池野　清様宅前側溝,35.2586806,134.8107701,緯度経度は怪しい
兵庫県,朝来市,282,石田,旧藤尾俊雄様宅横ブロック塀,35.2586806,134.8107701,緯度経度は怪しい
兵庫県,朝来市,114,伊由市場,中島史博様宅横,35.2581574,134.8236436,緯度経度は怪しい
兵庫県,朝来市,115,伊由市場,古田諒輔様宅横,35.2581574,134.8236436,緯度経度は怪しい
兵庫県,朝来市,285,澤,朝来福祉会館前駐車場フェンス,35.2719324,134.8294941,緯度経度は怪しい
兵庫県,朝来市,286,澤,大垣敏博様宅前ブロック塀,35.2719324,134.8294941,緯度経度は怪しい
兵庫県,朝来市,287,澤,大垣弘子様宅横,35.2719324,134.8294941,緯度経度は怪しい
兵庫県,朝来市,288,澤,昭和橋ガードレール,35.2719324,134.8294941,緯度経度は怪しい
兵庫県,朝来市,289,澤,浦田　敦様宅横畑（石田隆徳様所有畑）,35.2719324,134.8294941,緯度経度は怪しい
兵庫県,朝来市,290,澤,丸尾良昭様宅横,35.2719324,134.8294941,緯度経度は怪しい
兵庫県,朝来市,291,山内,木村商店倉庫フェンス,35.263677,134.8306641,緯度経度は怪しい
兵庫県,朝来市,292,山内,木村和幸様宅横倉庫前,35.263677,134.8306641,緯度経度は怪しい
兵庫県,朝来市,293,納座,納座公民館前,35.2609485,134.8435321,緯度経度は怪しい
兵庫県,朝来市,294,納座,谷野真樹様宅前空き地,35.2609485,134.8435321,緯度経度は怪しい
兵庫県,朝来市,295,川上,源八橋付近,35.2576664,134.8552272,緯度経度は怪しい
兵庫県,朝来市,296,山口,荒川博史様宅前,35.22396,134.802576,緯度経度は怪しい
兵庫県,朝来市,297,山口,金田自動車解体前,35.22396,134.802576,緯度経度は怪しい
兵庫県,朝来市,298,立野,立野バス停付近（松尾悦成様所有地）,35.234436,134.8060879,緯度経度は怪しい
兵庫県,朝来市,299,立野,松尾種男様宅前ブロック塀,35.234436,134.8060879,緯度経度は怪しい
兵庫県,朝来市,300,立野,仙賀良子様宅前防火水槽前,35.234436,134.8060879,緯度経度は怪しい
兵庫県,朝来市,301,立野,朝来大橋東側空き地（市有地）,35.234436,134.8060879,緯度経度は怪しい
兵庫県,朝来市,302,羽渕,大谷小兎子様宅前付近（市道ガードパイプ）,35.2233803,134.7920386,緯度経度は怪しい
兵庫県,朝来市,303,羽渕,山口小学校西側（歩道ガードパイプ）,35.2233803,134.7920386,緯度経度は怪しい
兵庫県,朝来市,304,羽渕,㈲栄大前　ガードレール,35.2233803,134.7920386,緯度経度は怪しい
兵庫県,朝来市,116,口田路,口田路区公民館前　ガードレール,35.2184968,134.7878613,緯度経度は怪しい
兵庫県,朝来市,117,新井多々良木,庄境踏切西側（フェンス）,35.2404687,134.7955513,緯度経度は怪しい
兵庫県,朝来市,118,新井３区,朝来市役所朝来庁舎前（あさご・ささゆりホール前）,35.2404687,134.7955513,緯度経度は怪しい
兵庫県,朝来市,119,新井３区,朝来大橋西側市道ガードパイプ,35.2404687,134.7955513,緯度経度は怪しい
兵庫県,朝来市,120,新井２区,旧羽渕製材所フェンス,35.2377523,134.79464,
兵庫県,朝来市,121,新井２区,ＪＲ新井駅前付近,35.2377523,134.79464,
兵庫県,朝来市,122,新井１区,新井南交差点付近,35.2357291,134.7927577,緯度経度は怪しい
兵庫県,朝来市,123,新井２区,ＪＲ新井駅前,35.2377523,134.79464,
兵庫県,朝来市,124,新井１区,旧㈱大師堂前,35.2357291,134.7927577,緯度経度は怪しい
兵庫県,朝来市,125,新井１区,あさご虹大橋橋下,35.2357291,134.7927577,緯度経度は怪しい
兵庫県,朝来市,315,八代,東郷義之様宅横,35.2343869,134.7873545,緯度経度は怪しい
兵庫県,朝来市,316,八代,口八代ゲートボール場前,35.2343869,134.7873545,緯度経度は怪しい
兵庫県,朝来市,317,八代,野村　悟様宅付近（畑地隅）,35.2343869,134.7873545,緯度経度は怪しい
兵庫県,朝来市,126,上八代,上八代寺の下広場フェンス,35.2608292,134.7873545,緯度経度は怪しい
兵庫県,朝来市,319,八代,青田幹男氏所有の農地（旧青田造園前）,35.2343869,134.7873545,緯度経度は怪しい
兵庫県,朝来市,320,山本,山本公民館前,35.232904,134.778884,緯度経度は怪しい
兵庫県,朝来市,321,山本,浅田ひさの様宅前防火水槽フェンス,35.232904,134.778884,緯度経度は怪しい
兵庫県,朝来市,322,土肥,大久保勝様宅倉庫横,35.3397832,134.8523483,
兵庫県,朝来市,323,土肥,土肥公民館駐車場前,35.3397832,134.8523483,
兵庫県,朝来市,324,土肥,さのうコミュニティセンター前,35.3397832,134.8523483,
兵庫県,朝来市,325,老波,和田秋男様宅前ガードレール,35.3397832,134.8523483,
兵庫県,朝来市,326,佐中,佐中下橋ガードレール,35.25963431359285,134.7287485044485,緯度経度は怪しい
兵庫県,朝来市,127,平野（朝来）,清水よね子様宅横,35.3112907,134.8507154,緯度経度は怪しい
兵庫県,朝来市,128,平野（朝来）,清水敏晴様所有畑前,35.3112907,134.8507154,緯度経度は怪しい
兵庫県,朝来市,129,神子畑,仙賀龍也様宅前,35.237460066102,134.7310953921961,緯度経度は怪しい
兵庫県,朝来市,130,神子畑,神子畑公民館前ガードレール,35.237460066102,134.7310953921961,緯度経度は怪しい
兵庫県,朝来市,131,神子畑,西賀登様宅前,35.237460066102,134.7310953921961,緯度経度は怪しい
兵庫県,朝来市,132,中田路,杉谷昌典様所有空き地 旧防火水槽横,35.2161993,134.7683313,緯度経度は怪しい
兵庫県,朝来市,133,中田路,中田路区公民館前,35.2161993,134.7683313,緯度経度は怪しい
兵庫県,朝来市,134,奥田路,奥田路区公民館駐車場フェンス,35.2177746,134.7391855,緯度経度は怪しい
兵庫県,朝来市,135,奥田路,辻ヶ橋付近ガードレール,35.2177746,134.7391855,緯度経度は怪しい
兵庫県,朝来市,336,元津,鴨谷澄子様宅前,35.2092183,134.7972639,緯度経度は怪しい
兵庫県,朝来市,337,元津,鴨谷和吉様宅前ブロック塀,35.2092183,134.7972639,緯度経度は怪しい
兵庫県,朝来市,338,元津,元津公民館前,35.2092183,134.7972639,緯度経度は怪しい
兵庫県,朝来市,136,上岩津,松本厳様宅横,35.2091001,134.8084291,緯度経度は怪しい
兵庫県,朝来市,137,上岩津,第4分団器具庫前ブロック塀,35.2091001,134.8084291,緯度経度は怪しい
兵庫県,朝来市,138,上岩津,清原英明様宅付近,35.2091001,134.8084291,緯度経度は怪しい
