prefecture,city,number,address,name,lat,long,note
兵庫県,洲本市,1,山手三丁目３番２号,洲本中央公民館前石塀,34.3396417,134.8937634,
兵庫県,洲本市,2,本町八丁目２番３号,masked,34.3403325,134.8904533,
兵庫県,洲本市,3,本町八丁目８番１５号付近,外通交番自転車置場西側鉄柵,34.3404753,134.8888431,
兵庫県,洲本市,4,本町八丁目９番１８号,上清水町会館北西市道ガードレール,34.3398246,134.8895453,
兵庫県,洲本市,5,本町二丁目1番,洲本第二小学校前運動場南側フェンス,34.3408215,134.8983272,
兵庫県,洲本市,6,山手二丁目2番26号,洲本市総合福祉会館前フェンス,34.3395373,134.8982963,
兵庫県,洲本市,7,山手一丁目4番14号,洲本市青少年センター前柵,34.3386202,134.8993676,
兵庫県,洲本市,8,山手一丁目1番,神戸地方検察庁洲本支局前花壇,34.340241,134.9022699,
兵庫県,洲本市,9,海岸通二丁目3番,大浜駐車場南側柳学園フェンス,34.3420941,134.9003716,
兵庫県,洲本市,10,海岸通一丁目2番（大浜公園内）,大浜公園内海月側スロープ付近,34.3419,134.902695,緯度経度は怪しい
兵庫県,洲本市,11,海岸通一丁目10番,多幸花みやげ物店横駐車場フェンス,34.3455779,134.8984002,
兵庫県,洲本市,12,港1番,内港埋立地魚岩商店向側,34.3453604,134.8977919,
兵庫県,洲本市,13,海岸通二丁目5番13号,内町交番横鉄柵,34.3432626,134.898908,
兵庫県,洲本市,14,塩屋１丁目３００番３７,市民広場（ｲｵﾝ側横断歩道前付近）,34.3464005,134.8943841,
兵庫県,洲本市,15,塩屋一丁目２番１号,ｲｵﾝ前公園南面ガードフェンス（アーバンハイム向側）,34.344185,134.888794,緯度経度は怪しい
兵庫県,洲本市,16,塩屋一丁目２番３０号,淡路広域消防ビル地下駐車場南側,34.3443752,134.889239,
兵庫県,洲本市,17,栄町四丁目３番２８号,洲本市リサイクルセンター北側,34.3434071,134.88736,
兵庫県,洲本市,18,塩屋一丁目１番８号,レストラン御食国西横側,34.3455967,134.8954429,
兵庫県,洲本市,19,港２番２６号付近,みなと元気館東側三叉路 市営洲本バスセンター前駐車場法面,34.3451463,134.8955159,
兵庫県,洲本市,20,本町三丁目４番１０号付近,市役所南庁舎北側柵,34.3428883,134.895295,
兵庫県,洲本市,21,栄町一丁目４番１７号付近,富士石油ガソリンスタンド付近 市役所駐車場フェンス,34.343559,134.8948222,
兵庫県,洲本市,22,本町四丁目１番２７号,厳島神社前,34.3393611,134.8960562,
兵庫県,洲本市,23,本町三丁目４番１５号,洲本まちなか広場北側,34.3428954,134.8954597,
兵庫県,洲本市,24,物部一丁目1番49号,洲本第三小学校正門横フェンス,34.338215,134.888489,
兵庫県,洲本市,25,上物部二丁目1番17号,県立あわじ特別支援学校裏出入口横,34.3320872,134.8885697,
兵庫県,洲本市,26,物部一丁目8番1号,宗田駐車場南側,34.3418604,134.8867934,
兵庫県,洲本市,27,物部一丁目15番4号付近,サンシティものべ付近 三叉路ガードレール,34.3385238,134.883265,
兵庫県,洲本市,28,物部一丁目18番55号,masked,34.336258,134.8794667,
兵庫県,洲本市,29,津田99番1号,仲津コミュニティプラザ 西60m三叉路鉄柵,34.3358618,134.8918465,
兵庫県,洲本市,30,上物部二丁目7番1号,伊勢の森神社,34.3349851,134.8857666,
兵庫県,洲本市,31,炬口二丁目８番,炬口住民会だんじり小屋,34.3511142,134.8906598,
兵庫県,洲本市,32,炬口一丁目３番２８号,消防団潮分団器具庫北側,34.3502041,134.8930696,
兵庫県,洲本市,33,炬口二丁目９番１１号,洲本市子育て支援センター入口右側フェンス,34.3499905,134.8909802,
兵庫県,洲本市,34,炬口一地先（炬口海水浴場）,炬口海水浴場前市道向側鉄柵,34.351303,134.893555,緯度経度は怪しい
兵庫県,洲本市,35,塩屋二丁目５番２号,洲浜中学校西側,34.347185,134.8886888,
兵庫県,洲本市,36,宇山一丁目１番３７号,洲本第一小学校正門,34.3464,134.8874945,
兵庫県,洲本市,37,宇山一丁目３番３０号付近,宇山交番東側市道歩道ガード鉄柵,34.3456441,134.8850545,
兵庫県,洲本市,38,宇山三丁目３番４０号地先,masked,34.345472,134.8826611,
兵庫県,洲本市,39,千草甲３９番地,洲本市千草コミュニティ消防センター駐車場,34.3273318,134.8890166,
兵庫県,洲本市,40,千草庚４２番地,masked,34.3285102,134.8907671,
兵庫県,洲本市,41,千草己５１５番地３付近,青葉台団地出入口付近ガードレール,34.32317,134.889236,緯度経度は怪しい
兵庫県,洲本市,42,千草甲２０２番地付近,築狭神社東側,34.3257565,134.8890065,
兵庫県,洲本市,43,千草丁４０６番地,放牧場柵前,34.316528,134.878662,緯度経度は怪しい
兵庫県,洲本市,44,千草乙２９２番地３,上田原研修自治会館前,34.317627,134.873383,緯度経度は怪しい
兵庫県,洲本市,45,千草乙５１３番地２,大継橋東詰,34.312923,134.870499,緯度経度は怪しい
兵庫県,洲本市,46,奥畑５７番地２,奥畑集会所前県道際,34.3503269,134.8228094,
兵庫県,洲本市,47,上内膳１４４番地付近,パナソニック㈱裏側県道ガードレール,34.3406192,134.8481095,
兵庫県,洲本市,48,上内膳４２４番地８付近,コーナン洲本インター店前県道歩道鉄柵,34.349487,134.840576,緯度経度は怪しい
兵庫県,洲本市,49,下内膳４７０番地,加茂小学校正門入口フェンス,34.3479519,134.8578122,
兵庫県,洲本市,50,桑間３５１番地１,七曲りバス停南側フェンス,34.342197,134.863434,緯度経度は怪しい
兵庫県,洲本市,51,桑間７０６番地,淡路土建㈱前花壇,34.342197,134.863434,緯度経度は怪しい
兵庫県,洲本市,52,上内膳２３４番地１,masked,34.340248,134.851273,緯度経度は怪しい
兵庫県,洲本市,53,上加茂１８１番地５付近,masked,34.348714,134.865612,
兵庫県,洲本市,54,下加茂２９番地３,元潮レンタカー南県道池ガードレール,34.347481,134.87677,緯度経度は怪しい
兵庫県,洲本市,55,上加茂４３番地付近,新淡路病院前市道鉄柵,34.3484371,134.8703869,
兵庫県,洲本市,56,下加茂一丁目６番６５号,なのはなこども園南側フェンス,34.3471169,134.8773065,
兵庫県,洲本市,57,下加茂一丁目１番１２号,masked,34.3446671,134.878921,
兵庫県,洲本市,58,桑間一丁目６番１１号道向,駐車場西の端フェンス,34.3434363,134.8756681,
兵庫県,洲本市,59,桑間一丁目３番１３号,masked,34.3428009,134.8777866,
兵庫県,洲本市,60,大野１７４２番地付近,masked,34.3364596,134.8514659,
兵庫県,洲本市,61,大野６８９番地,masked,34.323982,134.855377,緯度経度は怪しい
兵庫県,洲本市,62,大野３１８番地,大野小学校裏出入口,34.3225862,134.8543912,
兵庫県,洲本市,63,金屋３４３番地３,新宮池前県道ガードレール,34.3198674,134.8484952,
兵庫県,洲本市,64,前平２１９番地１,㈱国益電業社資材置場,34.3063859,134.8464561,
兵庫県,洲本市,65,新村１０４番地３,大野郵便局前公園内,34.320503,134.857147,緯度経度は怪しい
兵庫県,洲本市,66,池内８４２番地,masked,34.314846,134.862579,緯度経度は怪しい
兵庫県,洲本市,67,木戸４１４番地１,みどり電設工業敷地内,34.3118553,134.8532299,
兵庫県,洲本市,68,中津川組１６６番地付近,中津川集会所前フェンス,34.263744,134.919189,緯度経度は怪しい
兵庫県,洲本市,69,中津川組１０４番地２,masked,34.2635663,134.9136581,
兵庫県,洲本市,70,中津川組３６２番地１付近,masked,34.2635663,134.9136581,
兵庫県,洲本市,71,相川組102番地6,相川バス停付近,34.259418,134.888336,緯度経度は怪しい
兵庫県,洲本市,72,相川組198番地,上灘出張所裏門,34.2526722,134.899236,
兵庫県,洲本市,73,相川組107番地付近,寺の谷橋市道東側鉄柵ガードレール,34.263901,134.884888,緯度経度は怪しい
兵庫県,洲本市,74,畑田組8番地4,北辰神社前,34.251236,134.876511,緯度経度は怪しい
兵庫県,洲本市,75,中川原町厚浜７９８番地,ホテルヒルトン前,34.37455,134.888092,緯度経度は怪しい
兵庫県,洲本市,76,中川原町厚浜２１８番地１,消防団中川原分団元厚浜班 消防器具庫下田法面,34.37455,134.888092,緯度経度は怪しい
兵庫県,洲本市,77,中川原町二ツ石４５番地１,二叉橋北詰,34.382405,134.8610736,
兵庫県,洲本市,78,中川原町中川原１３４６番地２,(株)兵庫コンサルタント向側,34.3762121,134.8721981,
兵庫県,洲本市,79,中川原町中川原９８８番地,中川原小学校正門前県道ガードレール,34.375313,134.8720819,
兵庫県,洲本市,80,中川原町市原９２６番地２,岡本バス停付近ガードレール,34.3740338,134.8575658,
兵庫県,洲本市,81,中川原町市原５６９番地４付近,masked,34.3725236,134.8566897,
兵庫県,洲本市,82,中川原町安坂９８番地,安坂会館前,34.361759,134.849594,緯度経度は怪しい
兵庫県,洲本市,83,中川原町三木田３５２番地１,三木田公会堂,34.361362,134.8655061,
兵庫県,洲本市,84,中川原町三木田７２４番地５,市原ロバス停付近県道防護柵,34.3602931,134.8704263,
兵庫県,洲本市,85,中川原町三木田４４９番地先,みそつば池横市道ガードレール,34.365105,134.862152,緯度経度は怪しい
兵庫県,洲本市,86,中川原町安坂８２２番地１,安坂上公会堂,34.3631192,134.8573182,
兵庫県,洲本市,87,中川原町安坂４１１番地１,masked,34.361759,134.849594,緯度経度は怪しい
兵庫県,洲本市,88,安乎町平安浦１４６５番地,安乎八幡神社,34.388828,134.887756,緯度経度は怪しい
兵庫県,洲本市,89,安乎町平安浦４２３番地,直田公会堂,34.389748,134.886459,緯度経度は怪しい
兵庫県,洲本市,90,安乎町平安浦４８５番地,安乎郵便局東約100m付近雑種地,34.389748,134.886459,緯度経度は怪しい
兵庫県,洲本市,91,安乎町中田１１番地２,安乎公民館,34.3914805,134.8772296,
兵庫県,洲本市,92,安乎町北谷９８８番地１,北谷公会堂前,34.3963537,134.8669193,
兵庫県,洲本市,93,安乎町古宮４１３番地,masked,34.391163,134.857574,緯度経度は怪しい
兵庫県,洲本市,94,安乎町北谷１１４４番地,masked,34.3963537,134.8669193,
兵庫県,洲本市,95,安乎町宮野原１１５番地,masked,34.403252,134.874161,緯度経度は怪しい
兵庫県,洲本市,96,安乎町宮野原４４５番地付近,宮野原公会堂前県道防護柵,34.4031498,134.8744092,
兵庫県,洲本市,97,安乎町山田原６６０番地,masked,34.4044068,134.8662799,
兵庫県,洲本市,98,安乎町山田原１６８番地,masked,34.4040123,134.8617218,
兵庫県,洲本市,99,由良町由良１３２番地１,天川バス停,34.283249,134.930832,緯度経度は怪しい
兵庫県,洲本市,100,由良町由良１８５番地,牛舎前,34.3015714,134.93421,
兵庫県,洲本市,101,由良町由良４６８番地１,天川クラブ,34.283249,134.930832,緯度経度は怪しい
兵庫県,洲本市,102,由良町由良６１８番地付近,masked,34.283249,134.930832,緯度経度は怪しい
兵庫県,洲本市,103,由良町由良６８２番地８付近,関西電力由良配電塔北 40m 三叉路ガードレール,34.294781,134.93956,緯度経度は怪しい
兵庫県,洲本市,104,由良四丁目１５番１９号地先,上所バス停留所前,34.2976466,134.942782,
兵庫県,洲本市,105,由良四丁目３番２１号付近,空地,34.2949474,134.9431104,
兵庫県,洲本市,106,由良四丁目６番３１号付近,由良バス停東２００ｍ防護柵,34.2951725,134.9443047,
兵庫県,洲本市,107,由良四丁目１番１号付近,みなと橋,34.2937166,134.9435423,
兵庫県,洲本市,108,由良四丁目１２番４８号付近,masked,34.2951806,134.9421202,
兵庫県,洲本市,109,由良三丁目２番２２号,淡路信用金庫由良支店東側,34.292139,134.9449231,
兵庫県,洲本市,110,由良三丁目３番４３号,由良小学校体育館前フェンス,34.2912848,134.9443047,
兵庫県,洲本市,111,由良二丁目６番１９号付近,由良支所裏側市有地東側方面,34.2912642,134.9455376,
兵庫県,洲本市,112,由良一丁目１７２５番地付近,由良郵便局南側空地,34.2890036,134.9470787,
兵庫県,洲本市,113,由良一丁目７番８号,由良多目的広場南側フェンス,34.2880584,134.9443624,
兵庫県,洲本市,114,由良一丁目６番１０号,由良公民館南側フェンス,34.2867831,134.9444533,
兵庫県,洲本市,115,由良町由良２３５４番地,masked,34.285676,134.9470362,
兵庫県,洲本市,116,由良町内田127番地付近,関西太平洋鉱産(株)内田鉱業所,34.307514,134.925369,緯度経度は怪しい
兵庫県,洲本市,117,由良町内田127番地付近,ガードレール,34.307514,134.925369,緯度経度は怪しい
兵庫県,洲本市,118,由良町内田302番地,内田明神南側,34.3085492,134.9231399,
兵庫県,洲本市,119,由良町内田510番地1,masked,34.3055411,134.9272509,
兵庫県,洲本市,120,由良町内田555番地2,広田水産南側土生バス停前,34.3047011,134.9289475,
兵庫県,洲本市,121,由良町内田698番地1付近,masked,34.3037193,134.9301053,
兵庫県,洲本市,122,納８７番地２付近,波毛橋,34.3395887,134.8476293,
兵庫県,洲本市,123,納７３７番地付近,山王神社横市道ガードレール,34.3385169,134.8458607,
兵庫県,洲本市,124,納２３０番地,納信号北側,34.33503,134.843826,緯度経度は怪しい
兵庫県,洲本市,125,納５６９番地８付近,納１Ｋバイパス横市道鉄柵,34.3366913,134.8424172,
兵庫県,洲本市,126,納１３９５番地２付近,長瀬橋北三叉路,34.3404224,134.8341739,
兵庫県,洲本市,127,納７９１番地付近,市営洲本ＩＣ駐車場出入口付近ガードレール,34.340294,134.835999,緯度経度は怪しい
兵庫県,洲本市,128,鮎屋３０２番地,masked,34.30424,134.8421291,
兵庫県,洲本市,129,鮎屋８３５番地１,久保商店横,34.30397,134.843674,緯度経度は怪しい
兵庫県,洲本市,130,鮎屋６９３番地付近,鮎屋公会堂横市道ガードレール,34.3093202,134.8396656,
兵庫県,洲本市,131,鮎屋７４３番地２,masked,34.3126477,134.8394386,
兵庫県,洲本市,132,鮎屋５９１番地付近,萩原青果倉庫横市道ガードレール,34.3170962,134.8368367,
兵庫県,洲本市,133,鮎屋７３番地,玉ねぎ小屋,34.314445,134.835724,緯度経度は怪しい
兵庫県,洲本市,134,物部二丁目7番3号,広田モータープール,34.341099,134.884918,緯度経度は怪しい
兵庫県,洲本市,135,物部二丁目12番9号,（株）新東化学工業所裏門,34.3420872,134.8828827,
兵庫県,洲本市,136,物部三丁目3番11号,パールモータープール,34.3407196,134.8826335,
兵庫県,洲本市,137,物部三丁目5番27号,淡路日の出農業協同組合 洲本支店倉庫西側,34.3408429,134.8805857,
兵庫県,洲本市,138,物部三丁目9番43号,青雲中学校テニスコート前フェンス,34.3382698,134.8785354,
兵庫県,洲本市,139,物部三丁目9番63号,淡路自動車検査場,34.3384459,134.879597,
兵庫県,洲本市,140,宇原580番地付近,池田橋向側県道歩道ガード鉄柵,34.3334012,134.869343,
兵庫県,洲本市,141,宇原130番地33付近,masked,34.3314183,134.861388,
兵庫県,洲本市,142,宇原1807番地先,市民球場入口付近歩道鉄柵,34.3352633,134.8747571,
兵庫県,洲本市,143,宇原587番地2,masked,34.3339458,134.8698467,
兵庫県,洲本市,144,宇原956番地1,薬師庵ブロック塀,34.3298316,134.8673394,
兵庫県,洲本市,145,宇原163番地付近,えびす橋西側県道ガードレール,34.330922,134.8643125,
兵庫県,洲本市,146,宇原757番地付近,県住宇原団地北側防護柵,34.327091,134.870819,緯度経度は怪しい
兵庫県,洲本市,147,小路谷1295番地,masked,34.330803,134.898178,緯度経度は怪しい
兵庫県,洲本市,148,小路谷202番地付近,小路谷消防詰所前,34.328636,134.910522,緯度経度は怪しい
兵庫県,洲本市,149,小路谷1273番地1,サントピアマリーナテニスコート付近,34.333752,134.912872,緯度経度は怪しい
兵庫県,洲本市,150,小路谷1273番地5,真浦バス停付近市道鉄柵,34.333752,134.912872,緯度経度は怪しい
兵庫県,洲本市,151,小路谷1280番地4,渕本イトーピア汚水処理施設向側三叉路,34.327904,134.913651,緯度経度は怪しい
兵庫県,洲本市,152,小路谷425番地2,下谷池西市道三叉路付近,34.332825,134.907745,緯度経度は怪しい
兵庫県,洲本市,153,五色町都志米山７０６番地１,市道上利立線入口付近ガードレール,34.420571,134.797893,
兵庫県,洲本市,154,五色町都志２８５番地,住吉神社付近,34.41618,134.789124,緯度経度は怪しい
兵庫県,洲本市,155,五色町都志１７０番地,高田屋嘉兵衛翁記念館東側,34.41618,134.789124,緯度経度は怪しい
兵庫県,洲本市,156,五色町都志大宮１６６番地,masked,34.407104,134.797104,緯度経度は怪しい
兵庫県,洲本市,157,五色町都志万歳１２３番地１,masked,34.409225,134.781265,緯度経度は怪しい
兵庫県,洲本市,158,五色町都志万歳３８９番地１,都志保育園,34.409225,134.781265,緯度経度は怪しい
兵庫県,洲本市,159,五色町都志万歳５８１番地１,都志港湾入口ガードレール,34.409225,134.781265,緯度経度は怪しい
兵庫県,洲本市,160,五色町都志角川１００６番地１,masked,34.396412,134.776169,緯度経度は怪しい
兵庫県,洲本市,161,五色町都志大日７０３番地４,健康村入口,34.3993741,134.7908676,
兵庫県,洲本市,162,五色町鮎原塔下８７９番地,塔下公会堂前,34.3815702,134.8365136,
兵庫県,洲本市,163,五色町鮎原三野畑５９７番地２,三野畑公会堂向側,34.389641,134.823792,緯度経度は怪しい
兵庫県,洲本市,164,五色町鮎原三野畑１５番地,鮎原南橋付近,34.389641,134.823792,緯度経度は怪しい
兵庫県,洲本市,165,五色町鮎原南谷４４４番地３,消防団鮎原分団消防器具庫前,34.399637,134.8179908,
兵庫県,洲本市,166,五色町鮎原南谷５５番地１,鮎原郵便局横ガードレール,34.3997018,134.8189628,
兵庫県,洲本市,167,五色町鮎原上１５番地１,池澄実石材店北東４０ｍ向側柵,34.401131,134.845367,緯度経度は怪しい
兵庫県,洲本市,168,五色町鮎原中邑９００番地,中邑公会堂横駐車場,34.413391,134.835922,緯度経度は怪しい
兵庫県,洲本市,169,五色町鮎原下７８４番地２,鮎原下安心コミュニティプラザ向側柵,34.4005747,134.8264672,
兵庫県,洲本市,170,五色町鮎原吉田21番地,吉田バス停横柵,34.405048,134.810577,緯度経度は怪しい
兵庫県,洲本市,171,五色町鮎原神陽600番地1,神陽台団地集会所花壇前,34.3913066,134.8154815,
兵庫県,洲本市,172,五色町鮎原田処31番地1,県道鮎原江井線、市道アシダ線交差点付近,34.4114344,134.8248138,
兵庫県,洲本市,173,五色町鮎原葛尾7番地2,masked,34.419941,134.815598,緯度経度は怪しい
兵庫県,洲本市,174,五色町鮎原小山田954番地1,小山田公会堂前ガードレール,34.3911626,134.8014053,
兵庫県,洲本市,175,五色町鮎原枼野191番地5,中谷酒店向側ガードレール,34.389641,134.823792,緯度経度は怪しい
兵庫県,洲本市,176,五色町鮎原宇谷358番地9,中山間総合活性化センター前ガードレール,34.386051,134.814194,緯度経度は怪しい
兵庫県,洲本市,177,五色町鮎原鮎の郷476番地106,鮎の郷団地　エコステーション横,34.3929887,134.8094763,
兵庫県,洲本市,178,五色町広石上１６５番地,広石上公会堂前柵,34.375965,134.807175,緯度経度は怪しい
兵庫県,洲本市,179,五色町広石中９０番地２,広石八幡神社前柵,34.368984,134.810165,緯度経度は怪しい
兵庫県,洲本市,180,五色町広石中３００番地１,広石中公会堂前柵,34.368984,134.810165,緯度経度は怪しい
兵庫県,洲本市,181,五色町広石北７４８番地７,広石北公会堂向側,34.386589,134.792389,緯度経度は怪しい
兵庫県,洲本市,182,五色町広石下９４９番地２,広石小学校前,34.372505,134.787689,緯度経度は怪しい
兵庫県,洲本市,183,五色町広石下４３番地２,喜住バス停付近,34.372505,134.787689,緯度経度は怪しい
兵庫県,洲本市,184,五色町広石下９１７番地,広石会館前,34.372505,134.787689,緯度経度は怪しい
兵庫県,洲本市,185,五色町広石北４９番地１,五色中学校交差点付近ガードレール,34.386589,134.792389,緯度経度は怪しい
兵庫県,洲本市,186,五色町鳥飼上２６５番地,市道玉田線入口付近ガードレール,34.377308,134.773865,緯度経度は怪しい
兵庫県,洲本市,187,五色町鳥飼上１１６６番地,下の池堤前,34.3774845,134.7732994,
兵庫県,洲本市,188,五色町鳥飼中７７８番地１,太田尾バス停付近ガードレール,34.379326,134.76442,緯度経度は怪しい
兵庫県,洲本市,189,五色町鳥飼中４３５番地２,鳥飼郵便局向側ガードレール,34.379326,134.76442,緯度経度は怪しい
兵庫県,洲本市,190,五色町鳥飼浦２４０４番地２,鳥飼北組バス停横ガードレール,34.367016,134.755753,緯度経度は怪しい
兵庫県,洲本市,191,五色町鳥飼浦２０００番地９,大浜酒店向側ガードレール,34.367016,134.755753,緯度経度は怪しい
兵庫県,洲本市,192,五色町鳥飼浦１８９番地２,旧鳥飼浜ふるさと会館前柵,34.367016,134.755753,緯度経度は怪しい
兵庫県,洲本市,193,五色町鳥飼浦７１３番地,市道山庄線入口向側ガードレール,34.367016,134.755753,緯度経度は怪しい
兵庫県,洲本市,194,五色町鳥飼浦２８３番地,masked,34.367016,134.755753,緯度経度は怪しい
兵庫県,洲本市,195,五色町鳥飼浦１９１８番地１,洲本市防災センター鳥飼会館前柵,34.367016,134.755753,緯度経度は怪しい
兵庫県,洲本市,196,五色町上堺１１５１番地１,masked,34.3564803,134.800624,
兵庫県,洲本市,197,五色町上堺１１９２番地,上堺ふるさと会館前柵,34.356655,134.799957,緯度経度は怪しい
兵庫県,洲本市,198,五色町上堺１２５番地１,堺小学校前柵,34.356655,134.799957,緯度経度は怪しい
兵庫県,洲本市,199,五色町上堺１９８５番地１,マイショップ 長尾横,34.356655,134.799957,緯度経度は怪しい
兵庫県,洲本市,200,五色町下堺４９６番地,下堺集落センター向側,34.365414,134.780258,緯度経度は怪しい
兵庫県,洲本市,201,五色町下堺９６７番地,JA淡路日の出五色支店前,34.365414,134.780258,緯度経度は怪しい
兵庫県,洲本市,202,五色町下堺１８５７番地１,masked,34.365414,134.780258,緯度経度は怪しい
