prefecture,city,number,address,name,lat,long,note
兵庫県,淡路市,1,里210,里会館フェンス,34.3992166,134.8846803,
兵庫県,淡路市,2,里475,里本線海平の里ガードレール,34.4048732,134.8855745,
兵庫県,淡路市,3,明神安乎線,赤堂橋付近ガードレール,34.401803,134.8818997,
兵庫県,淡路市,4,上内膳塩尾線,消防第2分団警鐘台横ガードレール,34.405054,134.8841488,
兵庫県,淡路市,5,上内膳塩尾線,塩田市営住宅前,34.4091897,134.8874956,
兵庫県,淡路市,6,下司,市道赤井線フェンス,34.4084085,134.8849577,
兵庫県,淡路市,7,国道28号,塩尾南信号機前森下建設資材置場及び及び塩田郵便局付近フェンス,34.41326,134.8953373,
兵庫県,淡路市,8,国道28号,塩田港入口,34.4145014,134.8951684,
兵庫県,淡路市,9,塩尾,塩田漁業協同組合前,34.4170969,134.8950181,
兵庫県,淡路市,10,国道28号,国道塩田大橋交差点フェンス,34.4193674,134.8953702,
兵庫県,淡路市,11,塩尾,在会館横水道施設フェンス,34.4139684,134.8918163,
兵庫県,淡路市,12,塩尾,県住付近ガードレール,34.4148181,134.8926531,
兵庫県,淡路市,13,志筑新島,金太郎津名店横ガードレール,34.4269799,134.8991771,
兵庫県,淡路市,14,塩田新島,明神ｸﾞﾘｰﾝﾊｲﾂ 入口（貯水槽フェンス）,34.4240492,134.8936886,
兵庫県,淡路市,15,国道28号,㈱ツダ事務所前フェンス,34.4291229,134.9016286,
兵庫県,淡路市,16,志筑郡家線,しづのおだまき館前,34.4311368,134.9012572,
兵庫県,淡路市,17,志筑,高松橋横ガードパイプ,34.4330925,134.9006402,
兵庫県,淡路市,18,国道28号,しづかホール前バス停横フェンス,34.4273217,134.904685,
兵庫県,淡路市,19,志筑3438番地,北條会館,34.4337563,134.9036483,
兵庫県,淡路市,20,志筑3496番地　,北稲荷神社（前）,34.4346113,134.904744,
兵庫県,淡路市,21,国道28号,志筑浦漁協駐車場フェンス,34.4330154,134.9052744,
兵庫県,淡路市,22,志筑,中橋公園付近フェンス,34.4334756,134.9020557,
兵庫県,淡路市,23,国道28号,国道旧花博記念協会事務所前ガードパイプ,34.4334933,134.9058081,
兵庫県,淡路市,24,志筑20番地,石神地区公園フェンス,34.436298,134.9081073,
兵庫県,淡路市,25,王子,岡山橋ガードレール,34.4441154,134.8916349,
兵庫県,淡路市,26,大谷鮎原神代線,静の里公園（前）ガードレール,34.4408681,134.8943225,
兵庫県,淡路市,27,志筑,旧やき焼き亭横市道沿いフェンス,34.4399524,134.894639,
兵庫県,淡路市,28,志筑,津名エコプラザ　フェンス,34.4372116,134.8976699,
兵庫県,淡路市,29,大谷鮎原神代線,津名ゴルフセンター入り口ガードパイプ,34.441054,134.8903884,
兵庫県,淡路市,30,志筑,田井団地（前）フェンス,34.4361953,134.9024763,
兵庫県,淡路市,31,志筑,北欧村（前）フェンス,34.4385468,134.9001884,
兵庫県,淡路市,32,志筑,大歳遊園地（前）フェンス,34.4366812,134.8952217,
兵庫県,淡路市,33,志筑郡家線,八幡前バス停留所（横）ガードパイプ,34.4349977,134.8964797,
兵庫県,淡路市,34,志筑郡家線,ツモリ金物店（横）ガードフェンス,34.4342412,134.8978852,
兵庫県,淡路市,35,志筑郡家線,コメリ津名店前県道ガードパイプ,34.4382478,134.8786689,
兵庫県,淡路市,36,中田50番地2　,中田小学校上　県道バイパス交差点付近ガードパイプ,34.4397786,134.8836907,
兵庫県,淡路市,37,志筑郡家線,中田県営住宅（前）フェンス,34.4364346,134.8894126,
兵庫県,淡路市,38,志筑,市道佐古線御大師橋付近,34.4356537,134.8902575,
兵庫県,淡路市,39,中田,セブンイレブン駐車場横橋欄干,34.4365209,134.8810335,
兵庫県,淡路市,40,大谷鮎原神代線,マイマート津名店向い側県道ガードパイプ,34.4394401,134.8762495,
兵庫県,淡路市,41,尾崎志筑線,県道尾崎津名線王子中継ポンプ場フェンス,34.446619,134.8866531,
兵庫県,淡路市,42,尾崎志筑線,王子橋横（上）県道ガードレール（旧中田第2分団前）,34.4493108,134.8848896,
兵庫県,淡路市,43,池ノ内,市道池ノ内中央線ガードパイプ,34.4567374,134.8863381,
兵庫県,淡路市,44,生穂,生穂会館（裏）ガードレール,34.4532092,134.9174266,
兵庫県,淡路市,45,生穂育波線,瑞穂の郷集中浄化槽フェンス,34.4602278,134.9142616,
兵庫県,淡路市,46,生穂育波線,津名東小学校（旧生穂小学校）前フェンス,34.4530941,134.9165029,
兵庫県,淡路市,47,野田尾,摩耶中池（前）ガードレール,34.4706681,134.9043935,
兵庫県,淡路市,48,生穂,西造船所付近ガードレール,34.4492698,134.9211474,
兵庫県,淡路市,49,国道28号,生穂市営住宅（入口）,34.4491283,134.9169605,
兵庫県,淡路市,50,佐野新島,選果場（前）フェンス,34.4542494,134.9244123,
兵庫県,淡路市,51,生穂,開池前フェンス,34.4561125,134.9238089,
兵庫県,淡路市,52,佐野新島,近江が原会館前フェンス,34.4538897,134.9254934,
兵庫県,淡路市,53,生穂,生穂交差点カードレール（旧武田組前）,34.4518816,134.9188228,
兵庫県,淡路市,54,生穂,淡路日の出農協生穂支店（生穂川側）ガードレール,34.4504838,134.9190239,
兵庫県,淡路市,55,生穂新島8番地　,樫岡石油（裏）ガードレール,34.4478934,134.9161032,
兵庫県,淡路市,56,国道28号,淡路市役所前,34.4395857,134.9151559,
兵庫県,淡路市,57,大谷,大谷母子住宅フェンス,34.4485869,134.9105061,
兵庫県,淡路市,58,大谷鮎原神代線,大谷大池（県道バイパス）沿い,34.442493,134.9065433,
兵庫県,淡路市,59,長澤,masked,34.4845435,134.911897,
兵庫県,淡路市,60,長澤,長沢エコ市民センター（旧長沢保育所）（横）ガードレール,34.4851324,134.9040825,
兵庫県,淡路市,61,室津志筑線,長沢西下クラブ（横）ガードレール,34.4855633,134.8956285,
兵庫県,淡路市,62,佐野仁井岩屋線,国道新佐野川橋（下）県道交叉地点,34.4677713,134.9377344,
兵庫県,淡路市,63,佐野,佐野分団第1部器具庫（横）ガードレール,34.4651312,134.9398669,
兵庫県,淡路市,64,佐野仁井岩屋線,柏原バス停留所（横）,34.4702141,134.9439774,
兵庫県,淡路市,65,佐野仁井岩屋線,旧佐野分団第３部器具庫フェンス,34.4881206,134.9312665,
兵庫県,淡路市,66,佐野,旧西河電気商会(横）フェンス,34.4616513,134.9360202,西川フェンス
兵庫県,淡路市,67,佐野,市営梅里団地フェンス,34.4640337,134.9349937,
兵庫県,淡路市,68,佐野新島,佐野港臨港道日進丸前ガードレール,34.4592968,134.9340573,
兵庫県,淡路市,69,生穂,喫茶ブーケ前国道バイパス（上）五田池付近,34.4577116,134.9252031,
兵庫県,淡路市,70,佐野新島,市営イングランド村市営住宅前ガードレール,34.4586084,134.9292371,
兵庫県,淡路市,71,佐野新島,masked,34.4569162,134.9289136,
兵庫県,淡路市,72,大町下,大町下会館フェンス,34.4407657,134.8525586,
兵庫県,淡路市,73,大町下,大町下団地入口横ガードパイプ（アメリカ村付近）,34.4355043,134.8573446,
兵庫県,淡路市,74,大谷鮎原神代線,市道池ノ谷線と県道交差点ガードレール,34.4363184,134.8592114,
兵庫県,淡路市,75,大谷鮎原神代線,西光寺（下）県道沿フェンス,34.4334077,134.857597,
兵庫県,淡路市,76,大谷鮎原神代線,大町小学校フェンス,34.4255496,134.8570493,
兵庫県,淡路市,77,大谷鮎原神代線,木曽下団地入口フェンス,34.4240495,134.8574075,
兵庫県,淡路市,78,大谷鮎原神代線,masked,34.4140365,134.8557683,
兵庫県,淡路市,79,木曽上中田線,masked,34.4280958,134.8707215,
兵庫県,淡路市,80,大町上,大町保育園前ガードパイプ,34.4262094,134.8578021,
兵庫県,淡路市,81,大町畑,大谷倉尾環状線入口（橋）ガードレール,34.432547,134.8643982,
兵庫県,淡路市,82,鵜崎国道28号,淡路アソンブレホール駐車場前,34.5804447,135.0232628,
兵庫県,淡路市,83,岩屋576番地,パールシャインペンション前市道田ノ代線ガードレール,34.585718,135.0192824,
兵庫県,淡路市,84,岩屋583番地3,高嶋駐車場前ガードレール,34.5862745,135.0192984,
兵庫県,淡路市,85,岩屋488番地1,学童保育石屋（旧石屋小学校付属幼稚園）前フェンス,34.587754,135.0169864,
兵庫県,淡路市,86,岩屋498番地,元温泉第１泉源前ガードレール,34.5873874,135.016407,
兵庫県,淡路市,87,岩屋515番地1,石屋小学校体育館（旧岩屋公民館）フェンス,34.5877275,135.0182738,
兵庫県,淡路市,88,岩屋1000地先,松田アイクリニック前市道ガードレール,34.5897899,135.0174531,
兵庫県,淡路市,89,岩屋925番地21,岩屋バスターミナル前フェンス,34.590099,135.0207415,
兵庫県,淡路市,90,岩屋2208番地,市道開京線ガードレール,34.578208,134.9954339,
兵庫県,淡路市,91,岩屋825番地1,東根水道工業所,34.5880891,135.0197694,
兵庫県,淡路市,92,屋台５号線,岩屋台５号線県道バイパス入口付近市道ガードレール,34.5906728,135.0112678,
兵庫県,淡路市,93,国道28号,淡路市ハーバーパーキング駐車場,34.5906659,135.0166447,
兵庫県,淡路市,94,松帆福良江井岩屋線,岩屋事務所（岩屋保健センター）横県道ガードパイプ,34.5936299,135.0138152,
兵庫県,淡路市,95,松帆福良江井岩屋線,旧岩屋保育所前県道フェンス,34.5946544,135.0128496,
兵庫県,淡路市,96,松帆福良江井岩屋線,長浜集会所前県道ガードレール,34.5962044,135.0118518,
兵庫県,淡路市,97,松帆福良江井岩屋線,長浜バス停西側県道ガードレール,34.5977301,135.0111813,
兵庫県,淡路市,98,垂水区松帆神戸淡路鳴門自動車道,道の駅「あわじ」,34.6022755,135.0071254,
兵庫県,淡路市,99,松帆,大谷川バス停前市道ガードレール,34.6051105,135.0034747,
兵庫県,淡路市,100,国道28号,国道田の代交差点横市有地フェンス,34.5792703,135.0236574,
兵庫県,淡路市,101,国道28号,岩屋中学校校門前,34.5763551,135.0243118,
兵庫県,淡路市,102,鵜崎,masked,34.5748755,135.0238505,
兵庫県,淡路市,103,鵜崎,市営鵜崎団地４号館前市道ガードレール,34.5746635,135.0224825,
兵庫県,淡路市,104,南鵜崎,南鵜崎公営住宅Ｃ棟前ガードパイプ,34.5730612,135.0202872,
兵庫県,淡路市,105,楠本,別所公会堂前ガードレール,34.5724183,135.0068723,
兵庫県,淡路市,106,楠本,温泉橋横市道ガードレール,34.5677238,134.9896958,
兵庫県,淡路市,107,佐野仁井岩屋線,旧仁井小学校フェンス,34.5300181,134.9466945,
兵庫県,淡路市,108,富島久留麻線,旧淡路日の出農協仁井支店横ガードレール,34.5315118,134.9486418,
兵庫県,淡路市,109,富島久留麻線,旧淡路日の出農協仁井支店横ガードレール,34.538114,134.9385513,
兵庫県,淡路市,110,久野々,普済寺付近ガードレール,34.5210489,134.9307007,
兵庫県,淡路市,111,富島久留麻線,旧淡路交通小田バス停横ガードパイプ,34.5289699,134.9520594,
兵庫県,淡路市,112,小田,masked,34.5226275,134.9535676,
兵庫県,淡路市,113,奥,masked,34.5205988,134.9476346,
兵庫県,淡路市,114,仁井,masked,34.5332455,134.9522432,
兵庫県,淡路市,115,福良江井岩屋線,北淡県民サンビーチ前フェンス,34.5540496,134.9391146,
兵庫県,淡路市,116,小倉,関西電力変電所前ガードレール,34.554222,134.9414749,
兵庫県,淡路市,117,福良江井岩屋線,市営住宅蟇浦団地前フェンス,34.5576447,134.9434905,
兵庫県,淡路市,118,野島蟇浦,旧野島保育所前市道ガードレール,34.5594163,134.9470565,
兵庫県,淡路市,119,野島蟇浦,野島が崎公園内,34.5585504,134.9449537,
兵庫県,淡路市,120,福良江井岩屋線,旧淡路交通蟇浦バス停,34.5587227,134.9467937,
兵庫県,淡路市,121,大石福良江井岩屋線,旧淡路交通大石バス停前　田法面,34.5645496,134.9503127,
兵庫県,淡路市,122,大石福良江井岩屋線,轟木集落多目的施設前県道ガードレール,34.5701941,134.95568,
兵庫県,淡路市,123,野島常盤,淡路景観園芸学校横市道ガードレール,34.5631233,134.9685481,
兵庫県,淡路市,124,野島浦線,常盤集会所フェンス,34.5529886,134.9609931,
兵庫県,淡路市,125,野島浦線,masked,34.5523392,134.9626507,
兵庫県,淡路市,126,野島浦線,masked,34.5531433,134.959475,
兵庫県,淡路市,127,福良江井岩屋線,北淡リサイクルセンター前大橋川県道欄干,34.5763224,134.960922,
兵庫県,淡路市,128,松帆福良江井岩屋線,旧淡路交通平林バス停横ガードパイプ,34.5865079,134.9669896,
兵庫県,淡路市,129,野島平林,平林器具庫前フェンス,34.5871593,134.9680839,
兵庫県,淡路市,130,松帆福良江井岩屋線,シーサイド江崎入口ガードレール,34.5980004,134.977247,
兵庫県,淡路市,131,福良江井岩屋線,市道平林立道線と県道との三叉路,34.5832418,134.9650451,
兵庫県,淡路市,132,松帆福良江井岩屋線,野島江崎集会所フェンス,34.6002224,134.9818181,
兵庫県,淡路市,133,福良江井岩屋線,市営住宅小倉団地フェンス,34.5498919,134.9364827,
兵庫県,淡路市,134,富島,コミュニティ住宅富島団地フェンス,34.5488888,134.9340503,
兵庫県,淡路市,135,富島,旧淡陽信用組合富島支店前カードレール,34.5464321,134.9298178,
兵庫県,淡路市,136,福良江井岩屋線,北淡事務所,34.547117,134.9251937,
兵庫県,淡路市,137,小倉,富島駐在所横ガードレール(市道側),34.5489066,134.9359784,
兵庫県,淡路市,138,福良江井岩屋線,旧淡陽信用組合富島支店前カードレール,34.5466796,134.9242334,
兵庫県,淡路市,139,富島久留麻線,旧富島小学校前県道フェンス,34.5450668,134.9238955,
兵庫県,淡路市,140,福良江井岩屋線,淡路交通斗ノ内バス停ガードパイプ,34.53217,134.9078416,
兵庫県,淡路市,141,斗ノ内,masked,34.5292416,134.9104433,
兵庫県,淡路市,142,福良江井岩屋線,春田モータース前ガードパイプ,34.5332998,134.9095251,
兵庫県,淡路市,143,浅野神田,浅野浦漁業協同組合事務所横,34.534933,134.9110019,
兵庫県,淡路市,144,斗ノ内,妙応寺前ガードレール,34.5297985,134.9084853,
兵庫県,淡路市,145,斗ノ内,斗ノ内里集会所ため池ガードレール,34.5247337,134.9130343,
兵庫県,淡路市,146,石田,県営浅野南住宅ガードパイプ,34.5443247,134.9212604,
兵庫県,淡路市,147,福良江井岩屋線,水越会館フェンス,34.5407286,134.9184614,
兵庫県,淡路市,148,浅野南,飯田建設横ガードレール,34.5395869,134.9208157,
兵庫県,淡路市,149,浅野神田,浅野第2加圧ポンプ場フェンス,34.5290311,134.9187615,
兵庫県,淡路市,150,浅野神田,北淡小学校ガードパイプ,34.5328074,134.9141132,
兵庫県,淡路市,151,福良江井岩屋線,淡路交通浅野バス停,34.535397,134.9125897,
兵庫県,淡路市,152,育波,髙田駐車場フェンス,34.5281815,134.8925567,
兵庫県,淡路市,153,福良江井岩屋線,育波公民館,34.5273882,134.8929886,
兵庫県,淡路市,154,育波,戎広場,34.5281041,134.8918191,
兵庫県,淡路市,155,育波,いかなご広場,34.5288952,134.8925487,
兵庫県,淡路市,156,育波,淡波家前交差点付近市道ガードレール,34.5251375,134.8881029,
兵庫県,淡路市,157,福良江井岩屋線,ニコマート前ガードパイプ,34.5265042,134.8859075,
兵庫県,淡路市,158,生穂育波線,仕出しさくま前フェンス,34.5230602,134.8874699,
兵庫県,淡路市,159,育波,北淡ＩＣ駐車場フェンス,34.5246303,134.8903278,
兵庫県,淡路市,160,育波,市営住宅育波団地付近ガードパイプ,34.5257662,134.8914383,
兵庫県,淡路市,161,育波,旧育波保育所前市道ガードレール,34.5246071,134.895656,
兵庫県,淡路市,162,育波,旧育波小学校体育館側の門付近,34.5253982,134.8963695,
兵庫県,淡路市,163,黒谷,masked,34.5222944,134.9064257,
兵庫県,淡路市,164,育波,大前㈱付近,34.5163636,134.9002744,
兵庫県,淡路市,165,生田大坪,第３調整池フェンス,34.5057301,134.9048489,
兵庫県,淡路市,166,生穂育波線,霜商店前県道ガードレール,34.4941863,134.9043974,
兵庫県,淡路市,167,生穂育波線,生田畑上集会所付近ガードレール,34.4914382,134.9063701,
兵庫県,淡路市,168,生田畑,旧生田小学校前ガードレール,34.4967196,134.9019887,
兵庫県,淡路市,169,生田大坪,育波分団消防器具庫フェンス,34.4992453,134.8997274,
兵庫県,淡路市,170,室津志筑線,山本橋県道欄干,34.4971254,134.8926805,
兵庫県,淡路市,171,生田田尻,生田田尻クラブ横市道ガードレール,34.4926126,134.8946894,
兵庫県,淡路市,172,生穂育波線,masked,34.5108554,134.897205,
兵庫県,淡路市,173,福良江井岩屋線,市営住宅室津漁民団地前フェンス,34.5191714,134.8767521,
兵庫県,淡路市,174,福良江井岩屋線,北淡室津ビーチフェンス,34.5175315,134.8755988,
兵庫県,淡路市,175,室津,室津八幡宮前,34.5208402,134.8789897,
兵庫県,淡路市,176,福良江井岩屋線,市営住宅室津宮田団地前県道ガードパイプ,34.5226214,134.8797944,
兵庫県,淡路市,177,室津志筑線,市営住宅室津団地前フェンス,34.5220468,134.8815915,
兵庫県,淡路市,178,室津,老人福祉センター跡地横フェンス,34.5198738,134.8811462,
兵庫県,淡路市,179,室津志筑線,山仙青果倉庫フェンス,34.5153945,134.8856875,
兵庫県,淡路市,180,室津,masked,34.514201,134.8890885,
兵庫県,淡路市,181,福良江井岩屋線,masked,34.5053412,134.8645711,
兵庫県,淡路市,182,福良江井岩屋線,尾崎会館斜前県道ガードパイプ,34.4962978,134.8608375,
兵庫県,淡路市,183,尾崎,旧尾崎小学校裏門道路肩フェンス,34.4945584,134.8604341,
兵庫県,淡路市,184,尾崎,尾崎ふれあい交流広場下ガードパイプ,34.4932011,134.8603805,
兵庫県,淡路市,185,尾崎志筑線,県営尾崎団地下県道市道交差点ガードレール,34.4918999,134.8612684,
兵庫県,淡路市,186,尾崎志筑線,市営新村団地前県道路肩,34.4755944,134.8658469,
兵庫県,淡路市,187,尾崎志筑線,尾崎老人福祉センター横県道ガードレール,34.4703454,134.8702706,
兵庫県,淡路市,188,尾崎志筑線,遠田駐車場(本四道路バスストップ)県道ガードレール,34.4634314,134.8751925,
兵庫県,淡路市,189,池ノ内,遠田倶楽部付近市道ガードレール,34.4616512,134.8797273,
兵庫県,淡路市,190,遠田,旧遠田保育園横市道ガードレール,34.4696413,134.8777196,
兵庫県,淡路市,191,新村,新村倶楽部下市道ガードレール,34.4762489,134.8730463,
兵庫県,淡路市,192,福良江井岩屋線,撫　株式会社ＪＰＳマリンフェンス,34.482421,134.8512071,
兵庫県,淡路市,193,郡家,浜北コミュニティ住宅横,34.474524,134.8450622,
兵庫県,淡路市,194,郡家,淡路市一宮事務所前,34.4742719,134.8463496,
兵庫県,淡路市,195,郡家,大川橋付近ガードレール,34.4720121,134.8440101,
兵庫県,淡路市,196,郡家,拠点ゾーンコミュニティ住宅横,34.471875,134.8460486,
兵庫県,淡路市,197,福良江井岩屋線,郡家バス停,34.4726445,134.8481306,
兵庫県,淡路市,198,福良江井岩屋線,郡家里上公園横県道ガードパイプ,34.4704686,134.8470732,
兵庫県,淡路市,199,郡家,一宮小学校前市道ガードパイプ,34.4716273,134.8507156,
兵庫県,淡路市,200,北山,ゆうゆうライフ下市道ガードパイプ,34.4685183,134.8517081,
兵庫県,淡路市,201,北山,山辺クラブ下市道四差路ガードパイプ,34.4642788,134.8533501,
兵庫県,淡路市,202,郡家,ミツ精機前市道ガードレール,34.4695045,134.849337,
兵庫県,淡路市,203,多賀洲本線,市営大木西団地前フェンス,34.4665413,134.8469499,
兵庫県,淡路市,204,柳澤,ふるさとセンター下市道ガードパイプ,34.456955,134.8513773,
兵庫県,淡路市,205,志筑郡家線,一宮中学校前交差点ガードパイプ,34.4571218,134.8540764,
兵庫県,淡路市,206,志筑郡家線,井手バス停横県道ガードパイプ,34.4488734,134.8580828,
兵庫県,淡路市,207,上河合,上河合集会所前市道ガードレール,34.4497042,134.8705149,
兵庫県,淡路市,208,中村,多賀保育所前市道ガードレール,34.4600548,134.857132,
兵庫県,淡路市,209,福良江井岩屋線,本田酒店方フェンス,34.4651854,134.8315574,
兵庫県,淡路市,210,江井,江井共同墓地前フェンス,34.4653711,134.8309512,
兵庫県,淡路市,211,江井,江風園（江井港埋立のり工場付近）,34.4665387,134.8307795,
兵庫県,淡路市,212,江井港線,江井コミュニティセンター,34.4649509,134.827459,
兵庫県,淡路市,213,江井,淡路島線香㈱前フェンス,34.465862,134.8269279,
兵庫県,淡路市,214,江井,masked,34.4587271,134.8311315,
兵庫県,淡路市,215,江井,市営江井西団地フェンス,34.4665823,134.8262928,
兵庫県,淡路市,216,福良江井岩屋線,市営江井浜団地付近県道ガードレール,34.4646495,134.8249303,
兵庫県,淡路市,217,鮎原江井線,masked,34.4636234,134.8226343,
兵庫県,淡路市,218,鮎原江井線,市営江井団地フェンス（東桃川）,34.4567367,134.8251126,
兵庫県,淡路市,219,江井,masked,34.4574452,134.819239,
兵庫県,淡路市,220,多賀洲本線,masked,34.4545341,134.8415986,
兵庫県,淡路市,221,柳澤,柳沢東公会堂付近市道ガードレール,34.449503,134.8391004,
兵庫県,淡路市,222,多賀洲本線,柳沢老人福祉センター前,34.4506797,134.8377647,
兵庫県,淡路市,223,甲,西下町内会クラブ,34.4585846,134.8374353,
兵庫県,淡路市,224,多賀洲本線,旧簡易水道減圧水槽フェンス,34.4447499,134.8324607,
兵庫県,淡路市,225,明神安乎線,水車前県道ガードレール,34.4307134,134.8246899,
兵庫県,淡路市,226,鮎原江井線,masked,34.4282873,134.8214176,
兵庫県,淡路市,227,山田,山田分団消防器具庫付近ガードレール,34.4337038,134.8213734,
兵庫県,淡路市,228,入野,masked,34.4333743,134.8306111,
兵庫県,淡路市,229,明神安乎線,山田駐在所前県道ガードレール,34.436371,134.8155481,
兵庫県,淡路市,230,鮎原江井線,高山農業研修所横県道ガードレール,34.4376592,134.8207726,
兵庫県,淡路市,231,草香北,上甲田池横ガードレール,34.4445996,134.8064549,
兵庫県,淡路市,232,福良江井岩屋線,masked,34.4494702,134.8031289,
兵庫県,淡路市,233,明神安乎線,masked,34.4453585,134.8001086,
兵庫県,淡路市,234,明神安乎線,草香会館フェンス,34.4420892,134.8017019,
兵庫県,淡路市,235,深草,市道草香都志線と浜出1号線の交差点付近ガードレール,34.4304617,134.7972847,
兵庫県,淡路市,236,福良江井岩屋線,masked,34.4364701,134.7930468,
兵庫県,淡路市,237,大磯１６号線,婦人の家横公園フェンス,34.5529151,135.0034775,
兵庫県,淡路市,238,楠本,田中橋欄干(楠本東),34.5547236,134.9978158,
兵庫県,淡路市,239,小磯,楠本中郷公会堂前フェンス,34.5517745,134.9981055,
兵庫県,淡路市,240,国道28号,大磯バスターミナル付近フェンス,34.5507495,134.9971452,
兵庫県,淡路市,241,久留麻楠本線,立石橋付近市道ガードパイプ(楠本西会館付近),34.5497819,134.9958041,
兵庫県,淡路市,242,浜,浦交番所付近市道ガードレール,34.5456683,134.993822,
兵庫県,淡路市,243,久留麻楠本線,旧㈱みなと銀行東浦支店フェンス,34.5429371,134.9924456,
兵庫県,淡路市,244,浦臨港線,市営住宅井上団地公園フェンス,34.5436838,134.9943043,
兵庫県,淡路市,245,宮前平松線,市営住宅中浜団地前空き地法面,34.5404869,134.9937303,
兵庫県,淡路市,246,野島浦線,前川工務店付近ガードレール,34.5386645,134.9838079,
兵庫県,淡路市,247,浦,浦保育所入口横浦小学校グラウンドフェンス,34.5382577,134.9900745,
兵庫県,淡路市,248,川尻線,東浦バスターミナル前公園付近,34.5371717,134.9922488,
兵庫県,淡路市,249,佐野仁井岩屋線,中持公会堂付近,34.5424859,134.965282,
兵庫県,淡路市,250,白山,masked,34.5364816,134.9787117,
兵庫県,淡路市,251,富島久留麻線,河内会館前法面,34.5292064,134.9648192,
兵庫県,淡路市,252,国道28号,淡路市東浦事務所前,34.5322865,134.991112,
兵庫県,淡路市,253,一本松砂田線,県営住宅久留麻団地(3号棟)付近フェンス,34.5302028,134.9915143,
兵庫県,淡路市,254,北門岡田線,コメリ東浦店横　サンパーク看板付近,34.5286825,134.9906667,
兵庫県,淡路市,255,久留麻楠本線,市営住宅尾崎団地駐車場フェンス,34.5275467,134.9885639,
兵庫県,淡路市,256,国道28号,久留麻バス停付近　伊勢久留麻神社玉垣,34.5241259,134.9896958,
兵庫県,淡路市,257,久留麻2231番地2,久留麻コミュニティ消防センター前,34.5238873,134.9908438,
兵庫県,淡路市,258,久留麻,カーネーションホーム駐車場付近,34.5234144,134.9874695,
兵庫県,淡路市,259,高塚畠田線,masked,34.5225083,134.9903073,
兵庫県,淡路市,260,久留麻,市営住宅大池台団地1号棟付近市道ガードパイプ,34.5217923,134.9870404,
兵庫県,淡路市,261,高塚畠田線,市営住宅引野団地1号棟付近フェンス,34.5206785,134.989744,
兵庫県,淡路市,262,高塚畠田線,仮屋保育所駐車場付近フェンス,34.5193305,134.9889823,
兵庫県,淡路市,263,城原横山線,市営住宅城原団地付近,34.5190832,134.9863076,
兵庫県,淡路市,264,国道28号,高塚会館前フェンス,34.51861,134.9872764,
兵庫県,淡路市,265,仮屋,中北公会堂付近（公園）,34.5167612,134.9887377,
兵庫県,淡路市,266,国道仮屋漁港連絡２号線,学習小学校グラウンド前フェンス（国道側）,34.5168695,134.9869808,
兵庫県,淡路市,267,仮屋,市営駐車場(仮屋公衆便所付近)フェンス（長松旅館付近）,34.5144097,134.9870935,
兵庫県,淡路市,268,国道仮屋漁港連絡１号線,南ノ町上りバス停付近市道ガードレール,34.5128871,134.9835959,
兵庫県,淡路市,269,津田大北線,南の町会館横ガードレール,34.5124184,134.9851033,
兵庫県,淡路市,270,下田,谷公園付近ガードレール,34.5111955,134.9822506,
兵庫県,淡路市,271,下田,本昌寺付近（上）公園フェンス,34.5093367,134.9802819,
兵庫県,淡路市,272,津田大北線,国道釜口交差点市道ガードレール(折田建設資材倉庫前),34.5022412,134.9778948,
兵庫県,淡路市,273,下田,masked,34.5048541,134.9771865,
兵庫県,淡路市,274,国道28号,淡路日の出農協釜口事業所倉庫付近フェンス,34.4967824,134.9709432,
兵庫県,淡路市,275,国道28号,折田建設㈱西側付近,34.4941311,134.9661031,
兵庫県,淡路市,276,国道28号,釜口漁港付近ガードレール,34.4920445,134.9623899,
兵庫県,淡路市,277,国道28号,小井下りバス停付近,34.4875999,134.9574899,
