prefecture,city,number,address,name,lat,long,note
兵庫県,神戸市,3,東灘区深江浜町159番地,深江浜町交差点北東ガードレール,34.7175658,135.2955399,緯度経度は怪しい
兵庫県,神戸市,4,東灘区深江浜町1番地の1,東部市場南東金網,34.7141878,135.2949867,緯度経度は怪しい
兵庫県,神戸市,5,東灘区深江浜町1番地の1,東部市場東側金網,34.7141878,135.2949867,緯度経度は怪しい
兵庫県,神戸市,6,東灘区深江浜町2番地,東部市場花キ部北西金網,34.7122896,135.2974996,緯度経度は怪しい
兵庫県,神戸市,7,東灘区深江浜町160番地,深江浜町交差点西側ガードレール,34.7178214,135.2941343,緯度経度は怪しい
兵庫県,神戸市,8,東灘区深江南町1丁目5番,神楽町公園南側金網,34.7216729,135.3024661,緯度経度は怪しい
兵庫県,神戸市,9,東灘区深江南町1丁目17番,市営深江南住宅南側金網,34.7241246,135.2996795,緯度経度は怪しい
兵庫県,神戸市,10,東灘区深江南町2丁目13番,東公園南鉄柵,34.7233092,135.2979197,緯度経度は怪しい
兵庫県,神戸市,11,東灘区深江南町3丁目5番1号,セレノー見附北側金網,34.7214874,135.2975114,緯度経度は怪しい
兵庫県,神戸市,12,東灘区深江南町3丁目5番1号,セレノー見附東側金網,34.7214874,135.2975114,緯度経度は怪しい
兵庫県,神戸市,13,東灘区深江南町3丁目5番1号,セレノー見附南側金網,34.7214874,135.2975114,緯度経度は怪しい
兵庫県,神戸市,14,東灘区深江南町3丁目5番1号,セレノー見附西側金網,34.7214874,135.2975114,緯度経度は怪しい
兵庫県,神戸市,15,東灘区深江南町4丁目7番26号,深江南第二住宅北側金網,34.7203849,135.2944627,緯度経度は怪しい
兵庫県,神戸市,16,東灘区深江本町1丁目2番8号,パトリアパーク西側ガードレール,34.7247266,135.3001562,緯度経度は怪しい
兵庫県,神戸市,17,東灘区深江本町2丁目6番,栄公園北東側鉄柵,34.7235701,135.2959399,緯度経度は怪しい
兵庫県,神戸市,18,東灘区深江本町2丁目6番,栄公園西側鉄柵,34.7235701,135.2959399,緯度経度は怪しい
兵庫県,神戸市,19,東灘区深江本町2丁目6番,栄公園南東側鉄柵,34.7235701,135.2959399,緯度経度は怪しい
兵庫県,神戸市,20,東灘区深江本町3丁目1番,大日児童公園北側鉄柵,34.7228105,135.2947475,緯度経度は怪しい
兵庫県,神戸市,21,東灘区深江本町3丁目5番,大日神社西側ガードレール（バス停横）,34.7223197,135.2924938,緯度経度は怪しい
兵庫県,神戸市,22,東灘区深江本町4丁目1番12号,虹保育園西側ガードレール,34.7212094,135.2907708,緯度経度は怪しい
兵庫県,神戸市,23,東灘区深江北町1丁目7番,宝島池公園南側鉄柵,34.7268968,135.2996795,緯度経度は怪しい
兵庫県,神戸市,24,東灘区深江北町2丁目13番,県営深江鉄筋住宅4号棟西側鉄柵,34.7264455,135.2960132,緯度経度は怪しい
兵庫県,神戸市,25,東灘区深江北町2丁目4番1号,東灘小学校北東角金網,34.7247125,135.2946476,緯度経度は怪しい
兵庫県,神戸市,26,東灘区深江北町2丁目4番1号,東灘小学校北西側金網,34.7247125,135.2946476,緯度経度は怪しい
兵庫県,神戸市,27,東灘区深江北町2丁目4番1号,東灘小学校西側金網,34.7247125,135.2946476,緯度経度は怪しい
兵庫県,神戸市,28,東灘区深江北町4丁目11番,深江小公園北側鉄柵,34.7239285,135.2908808,緯度経度は怪しい
兵庫県,神戸市,29,東灘区深江北町4丁目5番,白鴎橋東側金網,34.7230669,135.2903676,緯度経度は怪しい
兵庫県,神戸市,30,東灘区深江北町1丁目4番,県営深江鉄筋住宅8号棟北側鉄柵,34.7255977,135.297773,緯度経度は怪しい
兵庫県,神戸市,31,東灘区本庄町3丁目3番1号,本庄町小公園西側ガードレール,34.7255251,135.2893646,緯度経度は怪しい
兵庫県,神戸市,32,東灘区本庄町1丁目4番,本庄町中公園南側鉄柵,34.7268855,135.2933736,緯度経度は怪しい
兵庫県,神戸市,33,東灘区本庄町2丁目2番,市営深江北住宅1号棟南側金網,34.7262332,135.2927137,緯度経度は怪しい
兵庫県,神戸市,34,東灘区本庄町1丁目13番,甲南山手ガーデンハウス西側鉄柵,34.7279997,135.2927871,緯度経度は怪しい
兵庫県,神戸市,35,東灘区本庄町2丁目8番27号,東灘本庄郵政宿舎金網,34.7267714,135.2921116,緯度経度は怪しい
兵庫県,神戸市,36,東灘区本庄町3丁目10番8号,市営本庄第二住宅西側金網,34.7268441,135.2891312,緯度経度は怪しい
兵庫県,神戸市,37,東灘区本庄町1丁目13番,本庄町東公園南側鉄柵,34.7279997,135.2927871,緯度経度は怪しい
兵庫県,神戸市,38,東灘区青木4丁目4番,本庄小学校南側金網,34.7205958,135.2892038,緯度経度は怪しい
兵庫県,神戸市,39,東灘区青木2丁目11番2号,南青木公園西側鉄柵,34.7164109,135.2850526,緯度経度は怪しい
兵庫県,神戸市,40,東灘区青木4丁目3番,本庄中央グラウンド西側金柵,34.7197429,135.2863355,緯度経度は怪しい
兵庫県,神戸市,41,東灘区青木5丁目1番16号,青木文化センター金網,34.7175682,135.2841775,緯度経度は怪しい
兵庫県,神戸市,42,東灘区北青木1丁目2番,県営青木団地北側金網,34.7209276,135.2856024,緯度経度は怪しい
兵庫県,神戸市,43,東灘区北青木2丁目10番,深田交差点南西ガードレール,34.7211495,135.2839714,緯度経度は怪しい
兵庫県,神戸市,44,東灘区北青木2丁目10番3号,神鋼新青木アパート3号棟西側金網,34.7204349,135.283453,緯度経度は怪しい
兵庫県,神戸市,45,東灘区青木3丁目4番,内浜児童公園北側鉄柵,34.7148262,135.2821571,緯度経度は怪しい
兵庫県,神戸市,46,東灘区青木3丁目4番,内浜児童公園南側鉄柵,34.7148262,135.2821571,緯度経度は怪しい
兵庫県,神戸市,47,東灘区北青木3丁目20番,北青木公園東側鉄柵,34.719927,135.2813507,緯度経度は怪しい
兵庫県,神戸市,48,東灘区北青木4丁目6番31号,市立北青木児童館北側金網,34.7174102,135.2790235,緯度経度は怪しい
兵庫県,神戸市,49,東灘区北青木4丁目20番,春日神社西側ガードレール,34.7183339,135.277466,緯度経度は怪しい
兵庫県,神戸市,50,東灘区青木6丁目2番,市営青木南住宅集会所西側金網,34.716011,135.281424,緯度経度は怪しい
兵庫県,神戸市,51,東灘区青木6丁目8番38号,市営青木南住宅東側金網,34.7163465,135.2807277,緯度経度は怪しい
兵庫県,神戸市,52,東灘区森南町1丁目14番,甲南山手駅前南側広場東ガードレール,34.7303885,135.293007,緯度経度は怪しい
兵庫県,神戸市,53,東灘区森南町2丁目10番,森公園東側道路の鉄柵（魚崎幹線西側）,34.7298202,135.2907342,緯度経度は怪しい
兵庫県,神戸市,54,東灘区森南町1丁目13番,森公園東側道路ガードレール（魚崎幹線東側）,34.7300867,135.2919073,緯度経度は怪しい
兵庫県,神戸市,55,東灘区森南町2丁目10番,森公園西側鉄柵,34.7298202,135.2907342,緯度経度は怪しい
兵庫県,神戸市,56,東灘区森北町1丁目5番,JR甲南山手駅前広場 北西側通路柵,34.7307823,135.291614,緯度経度は怪しい
兵庫県,神戸市,57,東灘区森北町1丁目5番,JR甲南山手駅北側バスロータリー南側柵,34.7307823,135.291614,緯度経度は怪しい
兵庫県,神戸市,58,東灘区森北町1丁目4番,東森北公園南側鉄柵,34.7310488,135.2927871,緯度経度は怪しい
兵庫県,神戸市,59,東灘区森北町4丁目17番,森稲荷神社南入口ガードレール,34.731983,135.2891213,緯度経度は怪しい
兵庫県,神戸市,60,東灘区森北町4丁目17番,森北公園南側鉄柵,34.731983,135.2891213,緯度経度は怪しい
兵庫県,神戸市,61,東灘区森北町4丁目17番,森北公園北側鉄柵,34.731983,135.2891213,緯度経度は怪しい
兵庫県,神戸市,62,東灘区森北町4丁目12番,フローラ岡本西側ガードレール,34.7313792,135.2869219,緯度経度は怪しい
兵庫県,神戸市,63,東灘区森北町7丁目14番,甲南橋北側ガードレール,34.7354017,135.2903676,緯度経度は怪しい
兵庫県,神戸市,64,東灘区森北町5丁目7番,甲南女子大学テニスコート西側ガードレール,34.7342603,135.2901477,緯度経度は怪しい
兵庫県,神戸市,65,東灘区甲南台6番,甲南台公園北側鉄柵,34.7344386,135.285749,緯度経度は怪しい
兵庫県,神戸市,66,東灘区本山北町4丁目7番59号,メゾン岡本東側 坂の下公園内フェンス,34.7312073,135.2859907,緯度経度は怪しい
兵庫県,神戸市,67,東灘区本山中町1丁目2番35号,本山第三小学校北側西金網,34.7280896,135.286467,緯度経度は怪しい
兵庫県,神戸市,68,東灘区本山中町1丁目2番35号,本山第三小学校西門金網,34.7280896,135.286467,緯度経度は怪しい
兵庫県,神戸市,69,東灘区本山中町1丁目3番1号,エスペランサ甲南 東側ガードレール,34.7284199,135.286592,緯度経度は怪しい
兵庫県,神戸市,70,東灘区本山中町1丁目2番35号,本山第三小学校北側東金網,34.7280896,135.286467,緯度経度は怪しい
兵庫県,神戸市,71,東灘区本山中町1丁目15番,第四森橋南側東ガードレール,34.7286375,135.2874351,緯度経度は怪しい
兵庫県,神戸市,72,東灘区本山北町4丁目18番,神戸薬科大学教職員専用駐車場前ガードレール,34.732645,135.2848693,緯度経度は怪しい
兵庫県,神戸市,73,東灘区本山南町4丁目4番,小寄公園南側入口付近柵,34.7215354,135.2797382,緯度経度は怪しい
兵庫県,神戸市,74,東灘区本山南町4丁目4番,小寄公園北側金網,34.7215354,135.2797382,緯度経度は怪しい
兵庫県,神戸市,75,東灘区本山南町4丁目4番28号,福池小学校北門鉄柵,34.7213761,135.2788146,緯度経度は怪しい
兵庫県,神戸市,76,東灘区本山南町4丁目4番28号,福池小学校正門横鉄柵,34.7213761,135.2788146,緯度経度は怪しい
兵庫県,神戸市,77,東灘区本山南町5丁目4番,グラン・フェルティ本山西側歩道ガードレール,34.72100229999999,135.2773927,緯度経度は怪しい
兵庫県,神戸市,78,東灘区甲南町1丁目1番,甲南町公園西側鉄柵,34.7225453,135.2778251,緯度経度は怪しい
兵庫県,神戸市,79,東灘区本山南町5丁目2番12号,グランダ摂津本山 西側ガードレール,34.7200596,135.2781989,緯度経度は怪しい
兵庫県,神戸市,80,東灘区本山南町3丁目2番,深田交差点北西側ガードレール オアシス前,34.721878,135.284444,緯度経度は怪しい
兵庫県,神戸市,81,東灘区本山南町3丁目10番,本山南町小公園西側鉄柵,34.7226775,135.2836964,緯度経度は怪しい
兵庫県,神戸市,82,東灘区本山南町8丁目2番1号,本山南小学校南東角プール横ガードレール,34.7237689,135.2821338,緯度経度は怪しい
兵庫県,神戸市,83,東灘区本山南町8丁目2番1号,本山南小学校南西金網,34.7237689,135.2821338,緯度経度は怪しい
兵庫県,神戸市,84,東灘区本山南町8丁目1番,神戸マツダ東灘店南側ガードレール,34.7237209,135.2832566,緯度経度は怪しい
兵庫県,神戸市,85,東灘区本山南町8丁目2番1号,本山南小学校北門金網,34.7237689,135.2821338,緯度経度は怪しい
兵庫県,神戸市,86,東灘区本山南町8丁目7番,ダイエー甲南店東側ガードレール,34.7247643,135.2828168,緯度経度は怪しい
兵庫県,神戸市,87,東灘区本山北町3丁目10番1号,本山第一小学校北側金網,34.7288745,135.2788534,緯度経度は怪しい
兵庫県,神戸市,88,東灘区本山北町3丁目2番28号,本山北町あすの保育園南側金網,34.7277652,135.2804456,緯度経度は怪しい
兵庫県,神戸市,89,東灘区本山北町3丁目10番1号,本山第一小学校南側ガードレール,34.7288745,135.2788534,緯度経度は怪しい
兵庫県,神戸市,90,東灘区本山北町3丁目10番1号,本山第一小学校西門金網,34.7288745,135.2788534,緯度経度は怪しい
兵庫県,神戸市,91,東灘区岡本1丁目7番,市立岡本駅前駐輪場ガードレール,34.728128,135.276329,緯度経度は怪しい
兵庫県,神戸市,92,東灘区岡本1丁目10番,中島橋南側駐輪場ガードレール,34.7280916,135.2745427,緯度経度は怪しい
兵庫県,神戸市,93,東灘区岡本1丁目9番,水道小橋東側ガードレール,34.7277458,135.2749007,緯度経度は怪しい
兵庫県,神戸市,94,東灘区甲南町2丁目3番,甲南町小公園南側鉄柵,34.7209667,135.2755144,緯度経度は怪しい
兵庫県,神戸市,95,東灘区田中町3丁目16番,手水公園北側鉄柵,34.7243104,135.2716761,緯度経度は怪しい
兵庫県,神戸市,96,東灘区田中町2丁目7番,中之町公園東鉄柵,34.7243794,135.2755604,緯度経度は怪しい
兵庫県,神戸市,97,東灘区田中町2丁目7番,中之町公園南鉄柵,34.7243794,135.2755604,緯度経度は怪しい
兵庫県,神戸市,98,東灘区田中町2丁目7番,中之町公園西鉄柵,34.7243794,135.2755604,緯度経度は怪しい
兵庫県,神戸市,99,東灘区田中町2丁目7番,中之町公園北鉄柵,34.7243794,135.2755604,緯度経度は怪しい
兵庫県,神戸市,100,東灘区田中町3丁目16番,手水公園南東鉄柵,34.7243104,135.2716761,緯度経度は怪しい
兵庫県,神戸市,101,東灘区田中町3丁目16番,手水公園南西鉄柵,34.7243104,135.2716761,緯度経度は怪しい
兵庫県,神戸市,102,東灘区岡本2丁目5番,バラ園南側ガードレール,34.7258215,135.2731418,緯度経度は怪しい
兵庫県,神戸市,103,東灘区岡本2丁目5番,バラ園北側ガードレール,34.7258215,135.2731418,緯度経度は怪しい
兵庫県,神戸市,104,東灘区岡本3丁目3番1号,本山中学校北側金網,34.7246872,135.2711814,緯度経度は怪しい
兵庫県,神戸市,105,東灘区岡本2丁目13番,天上川沿いガードレール,34.7282073,135.2736548,緯度経度は怪しい
兵庫県,神戸市,106,東灘区岡本2丁目11番,岡本信愛幼稚園前(北側)ガードレール,34.7279079,135.2722623,緯度経度は怪しい
兵庫県,神戸市,107,東灘区岡本4丁目5番,masked,34.7262712,135.269331,緯度経度は怪しい
兵庫県,神戸市,108,東灘区岡本2丁目8番,岡本橋西側ガードレール,34.7268869,135.2740945,緯度経度は怪しい
兵庫県,神戸市,109,東灘区岡本6丁目10番,八幡神社南側覆橋欄干,34.7328754,135.2746076,緯度経度は怪しい
兵庫県,神戸市,110,東灘区岡本7丁目6番,栄田橋西側道路南側鉄柵,34.7298779,135.2727754,緯度経度は怪しい
兵庫県,神戸市,111,東灘区岡本7丁目7番,栄田橋西側道路北側ガードレール,34.7302557,135.2731418,緯度経度は怪しい
兵庫県,神戸市,112,東灘区岡本8丁目9番,甲南大学北西金網,34.7296725,135.2685982,緯度経度は怪しい
兵庫県,神戸市,113,東灘区岡本8丁目8番,長子公園西側鉄柵,34.7298687,135.2699172,緯度経度は怪しい
兵庫県,神戸市,114,東灘区岡本8丁目9番,甲南大学北東金網,34.7296725,135.2685982,緯度経度は怪しい
兵庫県,神戸市,115,東灘区岡本8丁目7番,岡本7丁目交差点南西側ガードレール,34.7298635,135.2705035,緯度経度は怪しい
兵庫県,神戸市,116,東灘区西岡本1丁目15番,西岡本1丁目交差点南西側ガードレール,34.7247705,135.2666929,緯度経度は怪しい
兵庫県,神戸市,117,東灘区西岡本2丁目26番,パークスクエア岡本北側ガードレール,34.7245038,135.2655205,緯度経度は怪しい
兵庫県,神戸市,118,東灘区西岡本3丁目18番,野寄公園南側 山手幹線北側ガードレール,34.7252044,135.2646412,緯度経度は怪しい
兵庫県,神戸市,119,東灘区西岡本3丁目7番7号,ハイツ仏天垣 西側ガードレール,34.7266559,135.2666295,緯度経度は怪しい
兵庫県,神戸市,120,東灘区西岡本1丁目12番1号,県営野寄住宅1号棟南側金網,34.7231206,135.2676252,緯度経度は怪しい
兵庫県,神戸市,121,東灘区西岡本1丁目12番,県営野寄住宅駐輪場西側金網,34.7232385,135.2675723,緯度経度は怪しい
兵庫県,神戸市,122,東灘区西岡本3丁目20番1号,阪神水道企業団南側鉄柵,34.7245414,135.2636716,緯度経度は怪しい
兵庫県,神戸市,123,東灘区西岡本2丁目24番,神戸市水道局東部センター北西（野寄橋）ガードレール,34.7216868,135.2667662,
兵庫県,神戸市,124,東灘区西岡本5丁目5番,高井公園東側鉄柵,34.7292251,135.2643481,緯度経度は怪しい
兵庫県,神戸市,125,東灘区西岡本4丁目17番,本山親子遊園西側金網　バス停前,34.7263336,135.2622965,緯度経度は怪しい
兵庫県,神戸市,126,東灘区西岡本4丁目17番,水道局用地東側金網,34.7263336,135.2622965,緯度経度は怪しい
兵庫県,神戸市,127,東灘区西岡本4丁目8番7号,大日女尊神社北側コンクリート塀(野寄会館),34.7262389,135.2639902,緯度経度は怪しい
兵庫県,神戸市,128,東灘区西岡本6丁目1番,甲南大学西校舎南側フェンス,34.7300564,135.2643481,緯度経度は怪しい
兵庫県,神戸市,129,東灘区西岡本5丁目11番,甲南大学テニスコート北側金網,34.7282785,135.2617103,緯度経度は怪しい
兵庫県,神戸市,130,東灘区西岡本6丁目12番,清流の道公園南側ガードレール,34.729435,135.2601717,緯度経度は怪しい
兵庫県,神戸市,131,東灘区魚崎南町1丁目2番,瀬戸公園西側フェンス(浜魚崎線より南側),34.7132198,135.2797382,緯度経度は怪しい
兵庫県,神戸市,132,東灘区魚崎南町1丁目4番17号,ユハイム魚崎2号棟北側鉄柵,34.7122004,135.2790496,緯度経度は怪しい
兵庫県,神戸市,133,東灘区魚崎南町2丁目11番11号,魚崎保育所西側金網,34.7121779,135.2772108,緯度経度は怪しい
兵庫県,神戸市,134,東灘区魚崎南町2丁目1番,瀬戸公園南側フェンス,34.7099042,135.2785654,緯度経度は怪しい
兵庫県,神戸市,135,東灘区魚崎南町3丁目19番,魚崎八幡宮西側ガードレール(南寄り),34.7111075,135.2739113,緯度経度は怪しい
兵庫県,神戸市,136,東灘区魚崎南町2丁目10番,浜公園西側鉄柵,34.7117954,135.2763666,緯度経度は怪しい
兵庫県,神戸市,137,東灘区魚崎南町2丁目10番,浜公園南側鉄柵,34.7117954,135.2763666,緯度経度は怪しい
兵庫県,神戸市,138,東灘区魚崎南町6丁目5番26号,魚崎南町公園東側鉄柵,34.7150372,135.2783055,緯度経度は怪しい
兵庫県,神戸市,139,東灘区魚崎南町6丁目5番11号,東灘体育館西側鉄柵,34.7148329,135.2780301,緯度経度は怪しい
兵庫県,神戸市,140,東灘区魚崎南町6丁目12番,市営魚崎南住宅西側鉄柵,34.7144207,135.2772461,緯度経度は怪しい
兵庫県,神戸市,141,東灘区魚崎南町7丁目2番,新堀公園北側鉄柵,34.713328,135.2754871,緯度経度は怪しい
兵庫県,神戸市,142,東灘区魚崎中町1丁目2番,西ノ坪公園北側鉄柵,34.7164589,135.2779057,緯度経度は怪しい
兵庫県,神戸市,143,東灘区魚崎中町1丁目1番,西ノ坪小公園北側鉄柵,34.7157306,135.277979,緯度経度は怪しい
兵庫県,神戸市,144,東灘区魚崎中町2丁目2番,バス停魚崎中町1丁目南側ガードレール,34.7141922,135.2757069,緯度経度は怪しい
兵庫県,神戸市,145,東灘区魚崎北町2丁目7番,川井公園東南鉄柵,34.7177081,135.2738747,緯度経度は怪しい
兵庫県,神戸市,146,東灘区魚崎北町2丁目7番,川井公園南側鉄柵,34.7177081,135.2738747,緯度経度は怪しい
兵庫県,神戸市,147,東灘区魚崎北町2丁目7番,川井公園北東鉄柵,34.7177081,135.2738747,緯度経度は怪しい
兵庫県,神戸市,148,東灘区魚崎北町2丁目7番,横屋会館鉄柵,34.7177081,135.2738747,緯度経度は怪しい
兵庫県,神戸市,149,東灘区魚崎北町5丁目2番,ファミール本山 東側ガードレール,34.7196977,135.2760734,緯度経度は怪しい
兵庫県,神戸市,150,東灘区魚崎北町5丁目7番,北町ミオ東側ガードレール,34.7197083,135.2749007,緯度経度は怪しい
兵庫県,神戸市,151,東灘区魚崎北町1丁目5番,ワコーレ魚崎北町東側 天上川沿いガードレール,34.718725,135.2763666,緯度経度は怪しい
兵庫県,神戸市,152,東灘区魚崎北町5丁目9番,剣交差点北西ガードレール,34.7188715,135.2754871,緯度経度は怪しい
兵庫県,神戸市,153,東灘区魚崎中町4丁目4番,魚崎中町公園南西鉄柵,34.7133706,135.2707966,緯度経度は怪しい
兵庫県,神戸市,154,東灘区魚崎中町4丁目10番8号,魚崎小学校東側金網（正門北側）,34.7140663,135.2709707,緯度経度は怪しい
兵庫県,神戸市,155,東灘区魚崎北町4丁目12番,桜北公園南側鉄柵,34.7160116,135.2699172,緯度経度は怪しい
兵庫県,神戸市,156,東灘区魚崎北町8丁目15番,魚崎ハウス前鉄柵(新反高橋東側),34.7185872,135.2685982,緯度経度は怪しい
兵庫県,神戸市,157,東灘区魚崎西町4丁目5番,魚崎西町公園南側鉄柵,34.7128534,135.2666929,緯度経度は怪しい
兵庫県,神戸市,158,東灘区魚崎西町4丁目11番17号,市営魚崎西第一住宅西側鉄柵,34.713136,135.2659478,緯度経度は怪しい
兵庫県,神戸市,159,東灘区甲南町5丁目3番,灘中・高等学校テニスコート北側金網,34.7201847,135.2681585,緯度経度は怪しい
兵庫県,神戸市,160,東灘区魚崎北町4丁目14番,反高橋東側鉄柵,34.7162993,135.2687447,緯度経度は怪しい
兵庫県,神戸市,161,東灘区住吉南町1丁目2番,御旅公園西側鉄柵,34.7085917,135.2628826,緯度経度は怪しい
兵庫県,神戸市,162,東灘区住吉南町1丁目2番,御旅公園北側鉄柵,34.7085917,135.2628826,緯度経度は怪しい
兵庫県,神戸市,163,東灘区住吉南町1丁目2番,御旅公園東側鉄柵,34.7085917,135.2628826,緯度経度は怪しい
兵庫県,神戸市,164,東灘区住吉南町5丁目2番11号,水彩プラザ西側ガードレール,34.7115612,135.2601555,緯度経度は怪しい
兵庫県,神戸市,165,東灘区住吉南町4丁目6番26号,住吉南デイサービスセンター東側ガードレール,34.7105854,135.2622472,緯度経度は怪しい
兵庫県,神戸市,166,東灘区住吉浜町16-1,御影大橋東側欄干,34.70698,135.2610509,緯度経度は怪しい
兵庫県,神戸市,167,東灘区住吉南町5丁目10番,住吉南町街園南側鉄柵,34.7130525,135.2599519,緯度経度は怪しい
兵庫県,神戸市,168,東灘区住吉東町1丁目4番,masked,34.7162145,135.2666196,緯度経度は怪しい
兵庫県,神戸市,169,東灘区住吉宮町1丁目9番,求女塚東公園東側鉄柵,34.7130157,135.264055,緯度経度は怪しい
兵庫県,神戸市,170,東灘区住吉宮町2丁目18番23号,カトリック住吉教会東側ガードレール,34.7156657,135.2637232,緯度経度は怪しい
兵庫県,神戸市,171,東灘区住吉宮町2丁目17番21号,パレ住吉川東側歩道ガードレール,34.7151861,135.2638505,緯度経度は怪しい
兵庫県,神戸市,172,東灘区住吉宮町1丁目9番,求女塚東公園西側鉄柵,34.7130157,135.264055,緯度経度は怪しい
兵庫県,神戸市,173,東灘区住吉宮町2丁目16番,市営丸の後住宅北西側鉄柵,34.7150669,135.263249,緯度経度は怪しい
兵庫県,神戸市,174,東灘区住吉宮町2丁目16番,市営丸の後住宅東側鉄柵,34.7150669,135.263249,緯度経度は怪しい
兵庫県,神戸市,175,東灘区住吉東町2丁目4番,住吉東町小公園西側鉄柵,34.7188147,135.2663998,
兵庫県,神戸市,176,東灘区住吉東町4丁目1番31号,住吉小学校西側ガードレール（住吉小南交差点北側）,34.7162285,135.2645771,緯度経度は怪しい
兵庫県,神戸市,177,東灘区住吉東町4丁目1番31号,住吉小学校北側鉄柵,34.7162285,135.2645771,緯度経度は怪しい
兵庫県,神戸市,178,東灘区住吉宮町3丁目3番,住吉公園グラウンド南側ガードレール,34.71608,135.2622965,緯度経度は怪しい
兵庫県,神戸市,179,東灘区住吉東町4丁目1番31号,住吉小学校南側金網（南門東側）,34.7162285,135.2645771,緯度経度は怪しい
兵庫県,神戸市,180,東灘区住吉宮町3丁目3番,住吉公園グラウンド東側鉄柵,34.71608,135.2622965,緯度経度は怪しい
兵庫県,神戸市,181,東灘区住吉宮町3丁目4番,住吉公園テニスコート南側ガードレール,34.7159493,135.2614172,緯度経度は怪しい
兵庫県,神戸市,182,東灘区住吉宮町3丁目2番,住吉宮町公園東側鉄柵,34.716765,135.2631757,緯度経度は怪しい
兵庫県,神戸市,183,東灘区住吉本町1丁目7番,住吉駅北側ガードレール,34.7204956,135.26135,緯度経度は怪しい
兵庫県,神戸市,184,東灘区住吉本町1丁目15番,古寺公園西側鉄柵,34.72259,135.2625895,緯度経度は怪しい
兵庫県,神戸市,185,東灘区住吉本町1丁目2番,JR住吉駅北西側歩道ガードレール,34.719688,135.2617103,緯度経度は怪しい
兵庫県,神戸市,186,東灘区住吉本町1丁目15番,古寺公園北側鉄柵,34.72259,135.2625895,緯度経度は怪しい
兵庫県,神戸市,187,東灘区住吉本町2丁目6番,JR神戸線北側鉄柵,34.7193169,135.2576623,緯度経度は怪しい
兵庫県,神戸市,188,東灘区住吉本町2丁目25番28号,雨の神公園北側鉄柵,34.7217915,135.2580346,緯度経度は怪しい
兵庫県,神戸市,189,東灘区住吉本町1丁目13番,甲南幼稚園東側歩道ガードレール,34.723275,135.2634688,緯度経度は怪しい
兵庫県,神戸市,190,東灘区住吉本町3丁目1番,住吉本町公園東側転落防止柵,34.7246709,135.2622965,緯度経度は怪しい
兵庫県,神戸市,191,東灘区住吉本町3丁目1番,住吉本町公園南西側転落防止柵,34.7246709,135.2622965,緯度経度は怪しい
兵庫県,神戸市,192,東灘区住吉山手3丁目1番,新落合橋西側川沿いガードレール,34.7280823,135.2603915,緯度経度は怪しい
兵庫県,神戸市,193,東灘区住吉山手1丁目11番1号,住吉中学校北側金網,34.7258623,135.258635,緯度経度は怪しい
兵庫県,神戸市,194,東灘区住吉山手3丁目9番,山田公園東側鉄柵,34.7291406,135.2581935,緯度経度は怪しい
兵庫県,神戸市,195,東灘区住吉山手3丁目9番25号,白鶴美術館新館西側側沿いガードレール,34.7301284,135.2581463,緯度経度は怪しい
兵庫県,神戸市,196,東灘区住吉山手4丁目11番1号,東灘消防署深田池出張所北側鉄柵,34.7265932,135.2539661,緯度経度は怪しい
兵庫県,神戸市,197,東灘区鴨子ケ原1丁目5番,バス停甲南医療センター前鉄柵,34.7289902,135.2516002,緯度経度は怪しい
兵庫県,神戸市,198,東灘区鴨子ケ原3丁目1番50号,パーク・ハイム御影ヒルズ東側ガードレール,34.7306518,135.2503755,緯度経度は怪しい
兵庫県,神戸市,199,東灘区鴨子ケ原2丁目14番18号,鴨子ケ原派出所北側ガードレール,34.7337657,135.2500887,緯度経度は怪しい
兵庫県,神戸市,200,東灘区鴨子ケ原2丁目14番9号,グリーンヒルズ御影8号棟南側フェンス,34.7340929,135.2515358,緯度経度は怪しい
兵庫県,神戸市,201,東灘区住吉山手5丁目11番1号,神大附属中等教育学校北西側金網,34.7317406,135.2539444,緯度経度は怪しい
兵庫県,神戸市,202,東灘区住吉山手5丁目11番1号,神大附属中等教育学校北東側金網,34.7317406,135.2539444,緯度経度は怪しい
兵庫県,神戸市,203,東灘区住吉山手6丁目7番,バス停赤塚山東側鉄柵,34.73372519999999,135.2567282,緯度経度は怪しい
兵庫県,神戸市,204,東灘区鴨子ヶ原3丁目30番,鴨子ヶ原公園東側鉄柵,34.7321489,135.2467657,緯度経度は怪しい
兵庫県,神戸市,205,東灘区住吉台3番,傾斜地東側金網,34.7371352,135.2567221,緯度経度は怪しい
兵庫県,神戸市,206,東灘区住吉台3番,住吉台住宅3号棟西側ガードレール,34.7371352,135.2567221,緯度経度は怪しい
兵庫県,神戸市,207,東灘区住吉台5番,住吉台住宅1号棟東側ガードレール,34.7353069,135.258047,緯度経度は怪しい
兵庫県,神戸市,208,東灘区住吉台8番,バス停住吉台県住前南東側ガードレール,34.7369089,135.2570213,緯度経度は怪しい
兵庫県,神戸市,209,東灘区住吉台3番,水道局住吉特一高層配水池フェンス,34.7371352,135.2567221,緯度経度は怪しい
兵庫県,神戸市,210,東灘区住吉台16番,住吉台中公園南側鉄柵,34.7378913,135.2555561,緯度経度は怪しい
兵庫県,神戸市,211,東灘区住吉台24番,同朋住吉台こども園東側駐車場ガードレール,34.7361255,135.2562864,緯度経度は怪しい
兵庫県,神戸市,212,東灘区渦森台1丁目12番1号,渦が森小学校北側鉄柵,34.739116,135.2510506,緯度経度は怪しい
兵庫県,神戸市,213,東灘区渦森台1丁目11番,渦が森小学校南側グラウンド西側フェンス,34.7383446,135.2511607,緯度経度は怪しい
兵庫県,神戸市,214,東灘区渦森台2丁目7番,渦森台2丁目バス停北側ガードレール,34.7365136,135.2506479,緯度経度は怪しい
兵庫県,神戸市,215,東灘区渦森台2丁目21番,渦森会館南側鉄柵,34.7358575,135.2484137,緯度経度は怪しい
兵庫県,神戸市,216,東灘区渦森台1丁目1番,バス停渦森台3丁目鉄柵,34.73941,135.252113,緯度経度は怪しい
兵庫県,神戸市,217,東灘区渦森台3丁目4番,渦森南公園南側鉄柵,34.7401679,135.2485236,緯度経度は怪しい
兵庫県,神戸市,218,東灘区渦森台4丁目7番,バス停渦森台4南側鉄柵,34.7397648,135.2470587,緯度経度は怪しい
兵庫県,神戸市,219,東灘区御影本町3丁目6番,剣菱酒造西側ガードレール,34.7096524,135.256655,緯度経度は怪しい
兵庫県,神戸市,220,東灘区御影本町4丁目2番,エディオン西側ガードレール,34.7125557,135.2568057,緯度経度は怪しい
兵庫県,神戸市,221,東灘区御影本町2丁目16番,阪神御影駅南口バス停東側ガードレール,34.7146412,135.2564549,緯度経度は怪しい
兵庫県,神戸市,222,東灘区御影本町4丁目12番,阪神御影駅北側バスターミナルガードレール,34.7150249,135.2550844,緯度経度は怪しい
兵庫県,神戸市,223,東灘区御影本町6丁目5番7号,浜御影保育所西側鉄柵,34.7125562,135.255462,緯度経度は怪しい
兵庫県,神戸市,224,東灘区御影本町6丁目9番,上中児童公園西側鉄柵,34.7133439,135.2544572,緯度経度は怪しい
兵庫県,神戸市,225,東灘区御影石町2丁目1番,石屋川公園西側いそのべはし鉄柵,34.7113112,135.2532118,緯度経度は怪しい
兵庫県,神戸市,226,東灘区御影石町2丁目25番,阪神石屋川駅南西駐輪場前ガードレール,34.7132619,135.2500252,緯度経度は怪しい
兵庫県,神戸市,227,東灘区御影中町3丁目2番1号,御影クラッセ西側ガードレール,34.715659,135.2551165,緯度経度は怪しい
兵庫県,神戸市,228,東灘区御影中町5丁目1番,御影公園トイレ東側鉄柵,34.7151151,135.2539444,緯度経度は怪しい
兵庫県,神戸市,229,東灘区御影中町5丁目1番1号,御影中学校東門北側金網,34.7156368,135.2532209,緯度経度は怪しい
兵庫県,神戸市,230,東灘区御影中町5丁目1番,御影公園南側ガードレール,34.7151151,135.2539444,緯度経度は怪しい
兵庫県,神戸市,231,東灘区御影石町4丁目1番1号,御影高校西門鉄柵,34.7170593,135.2504814,緯度経度は怪しい
兵庫県,神戸市,232,東灘区御影中町8丁目2番,御影高校テニスコート西側金網,34.7173527,135.2516002,緯度経度は怪しい
兵庫県,神戸市,233,東灘区御影石町3丁目1番1号,御影小学校西側金網,34.7145816,135.2516002,緯度経度は怪しい
兵庫県,神戸市,234,東灘区御影石町3丁目7番,石屋川公園鉄柵,34.7141135,135.2496956,緯度経度は怪しい
兵庫県,神戸市,235,東灘区御影郡家1丁目12番,兼安児童公園西側鉄柵,34.7198862,135.25497,緯度経度は怪しい
兵庫県,神戸市,236,東灘区御影郡家1丁目23番19号,御影教会北側歩道柵,34.7215462,135.2540889,緯度経度は怪しい
兵庫県,神戸市,237,東灘区御影2丁目32番7号,滝ヶ鼻公園西側フェンス,34.7214496,135.2495733,緯度経度は怪しい
兵庫県,神戸市,238,東灘区御影2丁目1番,阪急御影駅前ロータリー西側ガードレール,34.7244814,135.2523327,緯度経度は怪しい
兵庫県,神戸市,239,東灘区御影郡家2丁目6番,郡家公園鉄柵,34.7228086,135.2535048,緯度経度は怪しい
兵庫県,神戸市,240,東灘区御影2丁目12番,群家伝統美術会館東側柵,34.7219979,135.2511607,緯度経度は怪しい
兵庫県,神戸市,241,東灘区御影3丁目4番,石屋川公園北側（西平野自治会館南向かい側）金網,34.7208272,135.2463994,緯度経度は怪しい
兵庫県,神戸市,242,東灘区御影2丁目1番,阪急御影駅南口ロータリー東側鉄柵,34.7244814,135.2523327,緯度経度は怪しい
兵庫県,神戸市,243,東灘区御影山手1丁目3番,阪急御影駅北側(西寄り)鉄柵,34.7250657,135.2528455,緯度経度は怪しい
兵庫県,神戸市,244,東灘区御影山手1丁目5番,深田池公園東側鉄柵,34.7263207,135.2526403,緯度経度は怪しい
兵庫県,神戸市,245,東灘区御影山手1丁目2番,深田公園向かい側鉄柵,34.7251298,135.2546358,緯度経度は怪しい
兵庫県,神戸市,246,東灘区御影山手1丁目4番9号,深田池公園南側鉄柵,34.7253551,135.2527364,緯度経度は怪しい
兵庫県,神戸市,247,東灘区御影1丁目10番,阪急御影駅西側歩道橋横ガードレール,34.7203581,135.250538,緯度経度は怪しい
兵庫県,神戸市,248,東灘区御影山手2丁目20番,天神山公園東側鉄柵,34.7238222,135.2444951,緯度経度は怪しい
兵庫県,神戸市,249,東灘区御影山手2丁目20番,天神山公園西南鉄柵,34.7238222,135.2444951,緯度経度は怪しい
兵庫県,神戸市,250,東灘区御影山手4丁目5番,大谷橋南側柵下,34.726638,135.2472784,緯度経度は怪しい
兵庫県,神戸市,251,東灘区御影山手4丁目9番10号,山御影マンションK棟南側鉄柵,34.7274383,135.2472272,緯度経度は怪しい
兵庫県,神戸市,252,東灘区御影山手4丁目15番,御影山手中公園北側ガードレール,34.7262263,135.2448247,緯度経度は怪しい
兵庫県,神戸市,253,東灘区御影山手4丁目19番,第一御影山手公園東側鉄柵,34.7285195,135.24596,緯度経度は怪しい
兵庫県,神戸市,254,東灘区御影山手3丁目1番6号,山御影マンションF棟東側ガードレール,34.7268487,135.2479464,緯度経度は怪しい
兵庫県,神戸市,255,東灘区御影山手4丁目18番,第二御影山手小公園東側鉄柵,34.7280435,135.2449346,緯度経度は怪しい
兵庫県,神戸市,256,東灘区御影山手5丁目6番,宮谷川 大谷上橋南側ガードレール,34.7256911,135.2446416,緯度経度は怪しい
兵庫県,神戸市,257,東灘区御影塚町2丁目9番,ふれあい広場南側金網(東明八幡神社西),34.7109096,135.2477179,緯度経度は怪しい
兵庫県,神戸市,258,東灘区御影塚町2丁目10番,処女塚古墳公園西側鉄柵(西側入口北側),34.711086,135.2473517,緯度経度は怪しい
兵庫県,神戸市,259,東灘区御影塚町2丁目10番,処女塚古墳公園北側ガードレール,34.711086,135.2473517,緯度経度は怪しい
兵庫県,神戸市,260,東灘区御影塚町2丁目22番,東明公園西側鉄柵,34.7124362,135.2474249,緯度経度は怪しい
兵庫県,神戸市,261,東灘区御影塚町2丁目5番,東明郵便局東側ガードレール,34.7110983,135.2495253,緯度経度は怪しい
兵庫県,神戸市,262,東灘区御影塚町3丁目4番,キコーナタウン東側歩道ガードレール,34.7091514,135.2467657,緯度経度は怪しい
兵庫県,神戸市,263,東灘区御影塚町2丁目16番,石屋川公園南側鉄柵,34.7128992,135.2499154,緯度経度は怪しい
兵庫県,神戸市,264,東灘区向洋町中5丁目1－1,リバーモールウエスト車両進入防止柵,34.6904779,135.2658608,緯度経度は怪しい
兵庫県,神戸市,265,東灘区向洋町中6丁目,タイムズ六甲アイランド商業施設付帯駐車場,34.6882591,135.2659601,緯度経度は怪しい
兵庫県,神戸市,266,東灘区向洋町中8丁目,芝生広場西側柵下(歩道向き),34.6838014,135.268305,緯度経度は怪しい
兵庫県,神戸市,267,東灘区向洋町中7丁目,向洋町中7丁目公園遊具周囲フェンス,34.6860412,135.2659601,緯度経度は怪しい
兵庫県,神戸市,268,東灘区向洋町中6丁目,向洋西公園東側南鉄柵 P東1出入り口,34.6882591,135.2659601,緯度経度は怪しい
兵庫県,神戸市,269,東灘区向洋町中6丁目,向洋小学校南側金網,34.6882591,135.2659601,緯度経度は怪しい
兵庫県,神戸市,270,東灘区向洋町西6丁目10,神戸新交通 六甲島検車場フェンス,34.6827196,135.2629155,緯度経度は怪しい
兵庫県,神戸市,271,東灘区向洋町中9丁目4,甲南大学六甲アイランド総合体育施設南グラウンド北側フェンス,34.6823772,135.2671704,緯度経度は怪しい
兵庫県,神戸市,272,東灘区向洋町中4丁目,マリンパーク駅南側 みなと観光バス バス停横ガードレール,34.6843009,135.2741678,緯度経度は怪しい
兵庫県,神戸市,273,東灘区向洋町中4丁目,六甲アイランド高校南東フェンス,34.6843009,135.2741678,緯度経度は怪しい
兵庫県,神戸市,274,東灘区向洋町中1丁目,リバーモールイースト ベイシェラトン横車両進入防止柵,34.6920859,135.2718226,緯度経度は怪しい
兵庫県,神戸市,275,東灘区向洋町中3丁目,芝生広場金網,34.6870845,135.2729952,緯度経度は怪しい
兵庫県,神戸市,276,東灘区向洋町中9丁目,神戸航空貨物ターミナル(K－ACT)駐車場フェンス,34.681897,135.2683996,緯度経度は怪しい
兵庫県,神戸市,277,東灘区向洋町中3丁目,六甲アイランド高校グラウンド西側金網,34.6870845,135.2729952,緯度経度は怪しい
兵庫県,神戸市,278,東灘区向洋町中1丁目,アイランド北口バス停東側ガードレール,34.6920859,135.2718226,緯度経度は怪しい
兵庫県,神戸市,279,東灘区向洋町中2丁目,六甲アイランド小東側金網,34.6893025,135.2729952,緯度経度は怪しい
兵庫県,神戸市,280,東灘区本山南町1丁目3番,市営本山第3住宅北側公園金網,34.7240206,135.2883881,緯度経度は怪しい
兵庫県,神戸市,281,東灘区本山南町1丁目1番,白鶴橋市バス停前鉄柵,34.7233249,135.2886814,緯度経度は怪しい
兵庫県,神戸市,282,東灘区本山南町6丁目2番,中野南小公園西側鉄柵,34.7244498,135.2869219,緯度経度は怪しい
兵庫県,神戸市,283,東灘区本山南町7丁目1番,本山南地域福祉センター東側鉄柵,34.7246777,135.2847227,緯度経度は怪しい
兵庫県,神戸市,284,東灘区本山南町7丁目1番,中野南公園北側鉄柵,34.7246777,135.2847227,緯度経度は怪しい
兵庫県,神戸市,285,東灘区本山南町7丁目1番,中野南公園西側鉄柵,34.7246777,135.2847227,緯度経度は怪しい
兵庫県,神戸市,286,東灘区本山南町7丁目3番,市営本山第四住宅南側ガードレール,34.7242646,135.2844295,緯度経度は怪しい
兵庫県,神戸市,287,東灘区本山中町3丁目11番16号,JR南側道路ワコーレ本山フラッツ前ガードレール,34.7275642,135.2816073,緯度経度は怪しい
兵庫県,神戸市,288,東灘区本山中町2丁目12番,中野北公園西側ガードレール,34.7278026,135.2839896,緯度経度は怪しい
兵庫県,神戸市,289,東灘区本山中町2丁目12番,中野北公園北側鉄柵,34.7278026,135.2839896,緯度経度は怪しい
兵庫県,神戸市,290,東灘区本山中町2丁目12番,中野北公園東側鉄柵,34.7278026,135.2839896,緯度経度は怪しい
兵庫県,神戸市,291,東灘区本山中町4丁目19番,五反田公園南側鉄柵,34.7271767,135.2803978,緯度経度は怪しい
兵庫県,神戸市,292,東灘区本山中町4丁目19番,五反田公園北側鉄柵,34.7271767,135.2803978,緯度経度は怪しい
兵庫県,神戸市,293,東灘区本山中町4丁目19番,五反田公園西側鉄柵,34.7271767,135.2803978,緯度経度は怪しい
兵庫県,神戸市,294,東灘区魚崎南町4丁目7番,西浜公園南側鉄柵,34.7102024,135.2724822,緯度経度は怪しい
兵庫県,神戸市,295,東灘区魚崎西町2丁目1番,魚崎西町南公園西側鉄柵,34.7096527,135.2681585,緯度経度は怪しい
兵庫県,神戸市,296,東灘区魚崎南町5丁目14番,魚崎郷清流プラザ西側鉄柵,34.7106913,135.2691635,緯度経度は怪しい
兵庫県,神戸市,297,東灘区魚崎南町5丁目8番,島崎橋東側丸太風柵,34.7088158,135.2687447,緯度経度は怪しい
兵庫県,神戸市,298,東灘区魚崎西町2丁目5番,住吉川橋西側ガードレール,34.7107914,135.2686715,緯度経度は怪しい
兵庫県,神戸市,299,東灘区魚崎西町1丁目10番,島崎橋西側丸太風柵,34.7087152,135.2683783,緯度経度は怪しい
兵庫県,神戸市,300,東灘区魚崎南町4丁目7番,西浜公園西側鉄柵,34.7102024,135.2724822,緯度経度は怪しい
兵庫県,神戸市,301,東灘区住吉東町5丁目2番1号,東灘区役所前木杭,34.7202515,135.2657433,
兵庫県,神戸市,302,東灘区住吉宮町4丁目4番,JR住吉駅南ロータリー北側鉄柵,34.7185847,135.2611241,緯度経度は怪しい
兵庫県,神戸市,303,東灘区住吉宮町7丁目6番18号,グランディア御影北側スロープ内側鉄柵,34.718782,135.2572772,緯度経度は怪しい
兵庫県,神戸市,304,東灘区住吉東町5丁目2番,JR住吉駅南駐輪場鉄柵,34.7202109,135.2652274,
兵庫県,神戸市,305,東灘区住吉東町5丁目2番,東灘消防署北側金網,34.7202109,135.2652274,
兵庫県,神戸市,306,東灘区住吉東町5丁目2番,東灘消防署東側（住吉橋西側）鉄柵,34.7202109,135.2652274,
兵庫県,神戸市,307,東灘区住吉宮町4丁目4番2号,KiLaLa住吉東側鉄柵,34.7187644,135.2617469,緯度経度は怪しい
兵庫県,神戸市,2,灘区六甲山町中一里山,バス停「六甲山牧場」横柵,34.7477633,135.2091324,緯度経度は怪しい
兵庫県,神戸市,3,灘区六甲山町東山内西谷,バス停「丁字ヶ辻」横ガードパイプ,34.756916,135.2308386,緯度経度は怪しい
兵庫県,神戸市,4,灘区六甲山町南六甲,記念碑台東側つけ池向転落防止策,34.7481364,135.2313865,緯度経度は怪しい
兵庫県,神戸市,5,灘区六甲山町北六甲,NTT西日本(株)兵庫支店六甲山別館 正面フェンス,34.7614293,135.2313865,緯度経度は怪しい
兵庫県,神戸市,6,灘区六甲山町北六甲,高山植物園入口前駐車場西北ガードレール,34.7614293,135.2313865,緯度経度は怪しい
兵庫県,神戸市,7,灘区六甲山町北六甲,六甲山フィールドアスレチック入口南西側柵,34.7614293,135.2313865,緯度経度は怪しい
兵庫県,神戸市,8,灘区六甲山町西谷山,六甲山オリエンタルホテル跡地西側側溝,34.7491078,135.2477911,緯度経度は怪しい
兵庫県,神戸市,9,灘区六甲山町一ヶ谷,六甲ケーブル山上駅前ガードパイプ,34.7572228,135.2378305,緯度経度は怪しい
兵庫県,神戸市,10,灘区高羽町2丁目10番,バス停「高羽町」後方転落防止柵,34.7240289,135.2406134,緯度経度は怪しい
兵庫県,神戸市,11,灘区二王山町8番,高羽交差点北側川沿転落防止柵,34.7109861,135.242957,緯度経度は怪しい
兵庫県,神戸市,12,灘区高羽町3丁目11番,高羽小学校東門横金網,34.7232783,135.2392952,緯度経度は怪しい
兵庫県,神戸市,13,灘区高羽町3丁目11番,高羽小学校北西柵,34.7232783,135.2392952,緯度経度は怪しい
兵庫県,神戸市,14,灘区土山町6番,土山町南公園西入口南柵,34.7274088,135.2422246,緯度経度は怪しい
兵庫県,神戸市,15,灘区高羽町5丁目7番,六甲高羽パークハウス北側ガードレール,34.7228149,135.2368053,緯度経度は怪しい
兵庫県,神戸市,16,灘区山田町3丁目1番,六甲登山口交差点東・東側歩道ガードパイプ（南向）,34.7211827,135.2332903,緯度経度は怪しい
兵庫県,神戸市,17,灘区曾和町1丁目4番,サニーハウス六甲西北側溝,34.7226889,135.2353407,緯度経度は怪しい
兵庫県,神戸市,18,灘区弓木町3丁目3番,エボック弓木マンション西側歩道ガードパイプ,34.7188702,135.2444219,緯度経度は怪しい
兵庫県,神戸市,19,灘区楠丘町1丁目8番,石屋川公園平野橋北側ガードパイプ,34.7220867,135.2449346,緯度経度は怪しい
兵庫県,神戸市,20,灘区楠丘町3丁目4番,県営神戸楠丘住宅集会所北側金網,34.72131359999999,135.2422246,緯度経度は怪しい
兵庫県,神戸市,21,灘区楠丘町3丁目3番,県営神戸楠丘住宅駐車場西側金網,34.72131359999999,135.2422246,緯度経度は怪しい
兵庫県,神戸市,22,灘区高徳町3丁目4番,壽公園西入口北側柵,34.7201415,135.2426177,緯度経度は怪しい
兵庫県,神戸市,23,灘区高徳町2丁目2番,鷹匠中学校北側フェンス,34.7199131,135.2439824,緯度経度は怪しい
兵庫県,神戸市,24,灘区高徳町3丁目4番,壽公園東入口南側柵,34.7201415,135.2426177,緯度経度は怪しい
兵庫県,神戸市,25,灘区永手町4丁目2番,フォレスタ六甲ビル北側駐輪場前歩道植栽,34.7154603,135.2382699,緯度経度は怪しい
兵庫県,神戸市,26,灘区森後町1丁目4番,八幡本通り東側歩道柵,34.7168405,135.2388558,緯度経度は怪しい
兵庫県,神戸市,27,灘区八幡町1丁目8番,高羽幼稚園東金網,34.7198983,135.237684,緯度経度は怪しい
兵庫県,神戸市,28,灘区八幡町2丁目1番1号,やはた桜保育所前金網,34.7179324,135.2376907,緯度経度は怪しい
兵庫県,神戸市,29,灘区八幡町2丁目6番,バス停[阪急六甲]南側歩道ガードパイプ,34.719047,135.2359997,緯度経度は怪しい
兵庫県,神戸市,30,灘区森後町1丁目1番,常磐木街園西側柵,34.7179663,135.2408331,緯度経度は怪しい
兵庫県,神戸市,31,灘区永手町4丁目2番,フォレスタ六甲ビル東南入口北側落防止柵,34.7154603,135.2382699,緯度経度は怪しい
兵庫県,神戸市,32,灘区神前町2丁目1番,神前町バス停横（東）ガードパイプ,34.7161531,135.2342423,緯度経度は怪しい
兵庫県,神戸市,33,灘区篠原南町1丁目6番,ふじ温泉北側・阪急電鉄神戸線金網,34.7182864,135.2318259,緯度経度は怪しい
兵庫県,神戸市,34,灘区八幡町4丁目4番,六甲小学校北東門南側金網,34.7174402,135.2335832,緯度経度は怪しい
兵庫県,神戸市,35,灘区八幡町4丁目4番,六甲小学校北西植込み,34.7174402,135.2335832,緯度経度は怪しい
兵庫県,神戸市,36,灘区八幡町4丁目4番,六甲小学校南西金網,34.7174402,135.2335832,緯度経度は怪しい
兵庫県,神戸市,37,灘区篠原南町2丁目3番,masked,34.7172,135.230675,緯度経度は怪しい
兵庫県,神戸市,38,灘区神前町3丁目10番,植田マンション東隣市営神前住宅北入口柵,34.7162413,135.2320455,緯度経度は怪しい
兵庫県,神戸市,39,灘区稗原町3丁目1番,masked,34.7127201,135.2347549,緯度経度は怪しい
兵庫県,神戸市,40,灘区上河原通4丁目3番,都賀川公園東側金網（貨ガレージ西側）,34.7109245,135.2301418,
兵庫県,神戸市,41,灘区上河原通2丁目3番,六甲上河原ビル西側歩道転落防止柵,34.7121561,135.2318991,緯度経度は怪しい
兵庫県,神戸市,42,灘区千旦通1丁目5番,灘小学校東門南側金網,34.7131534,135.2327045,緯度経度は怪しい
兵庫県,神戸市,43,灘区神ノ木通2丁目4番,将軍通交差点南歩道ガードパイプ(北側),34.7145891,135.230874,緯度経度は怪しい
兵庫県,神戸市,44,灘区神ノ木通2丁目4番,将軍通交差点南歩道ガードパイプ(南側),34.7145891,135.230874,緯度経度は怪しい
兵庫県,神戸市,45,灘区千旦通4丁目3番,都賀川新橋南東欄干,34.7121738,135.2298489,緯度経度は怪しい
兵庫県,神戸市,46,灘区中郷町5丁目1番,大和公園西入口南側柵,34.7156839,135.2439183,緯度経度は怪しい
兵庫県,神戸市,47,灘区中郷町5丁目1番,大和公園東入口南側側溝,34.7156839,135.2439183,緯度経度は怪しい
兵庫県,神戸市,48,灘区桜口町4丁目2番1号,灘区役所西側植栽,34.71237929999999,135.2398164,緯度経度は怪しい
兵庫県,神戸市,49,灘区備後町1丁3番,成徳小学校西門南側金網,34.7152181,135.2422246,緯度経度は怪しい
兵庫県,神戸市,50,灘区深田町4丁目1番,メイン六甲Aビル東側歩道転落防止柵,34.713867,135.239353,緯度経度は怪しい
兵庫県,神戸市,51,灘区深田町4丁目1番,JR六甲道駅南ロータリー西側転落防止柵,34.713867,135.239353,緯度経度は怪しい
兵庫県,神戸市,52,灘区大和町5丁目1番,大和球場東入口南側柵(米谷商店西側),34.7165984,135.2428106,緯度経度は怪しい
兵庫県,神戸市,53,灘区大和町5丁目1番,大和球場西入口南側柵,34.7165984,135.2428106,緯度経度は怪しい
兵庫県,神戸市,54,灘区琵琶町3丁目7番,ピー・ゾーン六甲琵琶町第2駐車場北側ガードパイプ,34.7120627,135.2346816,緯度経度は怪しい
兵庫県,神戸市,55,灘区下河原通4丁目3番,灘中央ビル前ガードパイプ,34.71049370000001,135.2318991,緯度経度は怪しい
兵庫県,神戸市,56,灘区烏帽子町1丁目2番,烏帽子中学校西門北側金網,34.7108911,135.237977,緯度経度は怪しい
兵庫県,神戸市,57,灘区烏帽子町1丁目2番,烏帽子中学校東門南側金網,34.7108911,135.237977,緯度経度は怪しい
兵庫県,神戸市,58,灘区大石東町1丁目1番,大石公園西北柵,34.709153,135.2387093,緯度経度は怪しい
兵庫県,神戸市,59,灘区下河原通2丁目3番,下河原公園南入口東側柵,34.7110679,135.2335832,緯度経度は怪しい
兵庫県,神戸市,60,灘区下河原通5丁目1番,西灘橋北東欄干,34.7100505,135.2310936,
兵庫県,神戸市,61,灘区友田町5丁目1番,市営友田住宅北東角柵,34.7108809,135.2391487,緯度経度は怪しい
兵庫県,神戸市,62,灘区友田町5丁目1番,市営友田住宅北側公園北柵,34.7108809,135.2391487,緯度経度は怪しい
兵庫県,神戸市,63,灘区友田町1丁目1番,友田町公園北入口西側柵,34.7122253,135.2438359,緯度経度は怪しい
兵庫県,神戸市,64,灘区友田町1丁目1番,友田町公園西入口南側柵,34.7122253,135.2438359,緯度経度は怪しい
兵庫県,神戸市,65,灘区友田町2丁目1番,クレアーレ六甲道南側側溝,34.7119206,135.2430303,緯度経度は怪しい
兵庫県,神戸市,66,灘区浜田町3丁目5番,ディアス浜田東側転落防止柵,34.7112143,135.24164,緯度経度は怪しい
兵庫県,神戸市,67,灘区浜田町3丁目6番,浜田自治会館南側柵,34.7100693,135.2423437,緯度経度は怪しい
兵庫県,神戸市,68,灘区大石東町4丁目3番,大石東小公園西側柵,34.7078637,135.2356336,緯度経度は怪しい
兵庫県,神戸市,69,灘区大石東町3丁目2番,灘郵便局南側柵,34.7088309,135.2359265,緯度経度は怪しい
兵庫県,神戸市,70,灘区大石東町6丁目4番,都賀川・日の出橋南東欄干,34.7078128,135.2320364,緯度経度は怪しい
兵庫県,神戸市,71,灘区大石東町6丁目2番,灘すずかけ幼稚園東北金網,34.7067053,135.2334368,緯度経度は怪しい
兵庫県,神戸市,72,灘区大石東町6丁目2番,西郷小学校北東正門西側金網,34.7067053,135.2334368,緯度経度は怪しい
兵庫県,神戸市,73,灘区大石北町8番,西灘公園南柵東端,34.7067635,135.2307275,緯度経度は怪しい
兵庫県,神戸市,74,灘区大石北町8番,西灘公園西入口北側柵,34.7067635,135.2307275,緯度経度は怪しい
兵庫県,神戸市,75,灘区船寺通1丁目1番,おおき歯科医院前歩道ガードパイプ,34.7072093,135.2312401,緯度経度は怪しい
兵庫県,神戸市,76,灘区船寺通2丁目4番,原田中学校西門北側金網,34.7076426,135.2291899,緯度経度は怪しい
兵庫県,神戸市,77,灘区船寺通3丁目4番,西灘小学校北門東側金網,34.7075168,135.2277256,緯度経度は怪しい
兵庫県,神戸市,78,灘区都通1丁目2番,西灘公園西面北入口南側柵,34.7061264,135.2283113,緯度経度は怪しい
兵庫県,神戸市,79,灘区船寺通6丁目2番,きんでん灘寮前歩道ガードパイプ,34.7062727,135.223406,緯度経度は怪しい
兵庫県,神戸市,80,灘区灘南通1丁目3番,都賀川・戸賀野橋西詰歩道西側柵,34.7097181,135.2294828,
兵庫県,神戸市,81,灘区船寺通4丁目3番,阪神西灘駅東歩道転落防止柵,34.706391,135.2257488,緯度経度は怪しい
兵庫県,神戸市,82,灘区岩屋中町1丁目6番,岩屋公園南入口東側柵,34.7049277,135.2227472,緯度経度は怪しい
兵庫県,神戸市,83,灘区岩屋中町5丁目2番,ルセフィーレ岩屋中町北側歩道ガードパイプ,34.7031798,135.2165981,緯度経度は怪しい
兵庫県,神戸市,84,灘区岩屋中町4丁目1番,岩屋青年会館北側阪神電車沿金網,34.7031597,135.2189405,緯度経度は怪しい
兵庫県,神戸市,85,灘区岩屋北町6丁目1番,市営岩屋北第2住宅南向歩道転落防止柵,34.70601060000001,135.2176229,緯度経度は怪しい
兵庫県,神戸市,86,灘区岩屋北町2丁目5番,西灘保育所北東金網,34.7063281,135.2209902,緯度経度は怪しい
兵庫県,神戸市,87,灘区岩屋北町1丁目7番,友愛花壇前歩道ガードレール(北向),34.7066278,135.2223811,緯度経度は怪しい
兵庫県,神戸市,88,灘区岩屋中町1丁目6番,岩屋公園西入口北側柵,34.7049277,135.2227472,緯度経度は怪しい
兵庫県,神戸市,89,灘区岸地通4丁目2番,稗田小学校北西金網,34.7111637,135.2224543,緯度経度は怪しい
兵庫県,神戸市,90,灘区灘北通5丁目3番,灘北公園南入口東側柵,34.7093151,135.2239917,緯度経度は怪しい
兵庫県,神戸市,91,灘区大内通5丁目2番,稗田公園東柵,34.7104686,135.2227472,緯度経度は怪しい
兵庫県,神戸市,92,灘区岸地通4丁目2番,稗田小学校西門南側金網,34.7111637,135.2224543,緯度経度は怪しい
兵庫県,神戸市,93,灘区水道筋6丁目5番,西郷川・西灘橋東南欄干,34.7108812,135.2203999,緯度経度は怪しい
兵庫県,神戸市,94,灘区中原通4丁目1番,阪急神戸線沿ガードレール(フェヴリエ王子公園向),34.7133849,135.2218687,緯度経度は怪しい
兵庫県,神戸市,95,灘区倉石通6丁目1番,阪急電鉄神戸線金網(王子コーポ前),34.7121508,135.2204045,緯度経度は怪しい
兵庫県,神戸市,96,灘区岸地通2丁目2番,岸地通公園東入口北側柵,34.7126926,135.2258952,緯度経度は怪しい
兵庫県,神戸市,97,灘区王子町2丁目3番,王子公園内原田児童館南側歩道沿柵,34.7110576,135.2186477,緯度経度は怪しい
兵庫県,神戸市,98,灘区王子町2丁目1番,王子公園有料駐車場南街園東歩道柵,34.710725,135.2170373,緯度経度は怪しい
兵庫県,神戸市,99,灘区王子町2丁目1番,バス停「王子動物園前」後方柵,34.710725,135.2170373,緯度経度は怪しい
兵庫県,神戸市,100,灘区灘北通10丁目2番,灘駅前駐輪場北側歩道ガードパイプ(南向),34.7062371,135.2154269,緯度経度は怪しい
兵庫県,神戸市,101,灘区城内通4丁目2番,城内通公園北入口東側柵,34.7074255,135.2171309,緯度経度は怪しい
兵庫県,神戸市,102,灘区城内通1丁目6番,ロイヤルホスト西灘店東側溝,34.7096625,135.2198189,緯度経度は怪しい
兵庫県,神戸市,103,灘区城内通1丁目5番,城内橋北側歩道転落防止柵(南向),34.7097935,135.2206974,緯度経度は怪しい
兵庫県,神戸市,104,灘区灘北通7丁目4番,青谷川外園南ガードレール,34.7084034,135.221283,緯度経度は怪しい
兵庫県,神戸市,105,灘区篠原南町5丁目7番,masked,34.7160725,135.2275059,緯度経度は怪しい
兵庫県,神戸市,106,灘区篠原南町7丁目6番,ローレルコート六甲篠原北側阪急電鉄神戸線金網,34.7158482,135.2253827,緯度経度は怪しい
兵庫県,神戸市,107,灘区岸地通1丁目,新都賀川橋南西柵下(灘区民ホール東側),34.7133348,135.2277256,緯度経度は怪しい
兵庫県,神戸市,108,灘区篠原南町5丁目9番,都賀川公園西南入口北側柵(西向),34.7151028,135.2275059,緯度経度は怪しい
兵庫県,神戸市,109,灘区将軍通2丁目2番,関西電力南灘変電所西側金網,34.7153548,135.2304347,緯度経度は怪しい
兵庫県,神戸市,110,灘区神ノ木通3丁目6番,灘消防署前植込(旧灘区役所前),34.7141458,135.2300686,緯度経度は怪しい
兵庫県,神戸市,111,灘区大内通1丁目,千旦橋南西側欄干,34.7127757,135.2283113,緯度経度は怪しい
兵庫県,神戸市,112,灘区篠原南町5丁目9番,都賀川公園西北入口南賀側植栽(西向),34.7151028,135.2275059,緯度経度は怪しい
兵庫県,神戸市,113,灘区篠原中町6丁目3番,旧水道局東部配水管理事務所西側溝,34.7177873,135.2253827,緯度経度は怪しい
兵庫県,神戸市,114,灘区篠原本町5丁目6番,上岡橋北側欄干,34.7190364,135.2250899,緯度経度は怪しい
兵庫県,神戸市,115,灘区篠原本町5丁目5番,中島橋南側仙谷川沿転落防止柵,34.7193184,135.2245042,緯度経度は怪しい
兵庫県,神戸市,116,灘区国玉通1丁目1番,上野中学校西北金網,34.7196053,135.2233328,緯度経度は怪しい
兵庫県,神戸市,117,灘区国玉通1丁目1番,上野中学校北東金網,34.7196053,135.2233328,緯度経度は怪しい
兵庫県,神戸市,118,灘区篠原北町4丁目5番,護国神社前公園南歩道ガードパイプ(北向),34.72167050000001,135.224797,緯度経度は怪しい
兵庫県,神戸市,119,灘区篠原北町4丁目5番,護国神社前公園南歩道ガードパイプ(南向),34.72167050000001,135.224797,緯度経度は怪しい
兵庫県,神戸市,120,灘区国玉通2丁目2番,五毛天神東交差点東・北側ガードパイプ(南向),34.7184794,135.2213562,緯度経度は怪しい
兵庫県,神戸市,121,灘区国玉通2丁目2番,五毛天神東交差点東・南側ガードパイプ(北向),34.7184794,135.2213562,緯度経度は怪しい
兵庫県,神戸市,122,灘区高尾通3丁目2番,神戸大学国維寮南東側溝,34.72006770000001,135.2177693,緯度経度は怪しい
兵庫県,神戸市,123,灘区上野通4丁目3番,ルミエール北側ガードパイプ,34.7171772,135.2197457,緯度経度は怪しい
兵庫県,神戸市,124,灘区畑原通4丁目1番,摩耶小学校東門南側ガードレール,34.715611,135.2206974,緯度経度は怪しい
兵庫県,神戸市,125,灘区畑原通4丁目1番,摩耶小学校西門南側金網,34.715611,135.2206974,緯度経度は怪しい
兵庫県,神戸市,126,灘区五毛字丸山,灘丸山公園南西階段西側ガードパイプ,34.7240013,135.2193797,緯度経度は怪しい
兵庫県,神戸市,127,灘区中原通7丁目1番,創価学会駐車場北側溝,34.7117477,135.2189405,緯度経度は怪しい
兵庫県,神戸市,128,灘区福住通7丁目1番,福住小学校東門南側金網,34.7131377,135.2183549,緯度経度は怪しい
兵庫県,神戸市,129,灘区福住通7丁目1番,福住小学校西北金網,34.7131377,135.2183549,緯度経度は怪しい
兵庫県,神戸市,130,灘区福住通7丁目2番,福住公園西北柵,34.7128657,135.2177693,緯度経度は怪しい
兵庫県,神戸市,131,灘区中原通7丁目4番,中原橋東詰南側青谷川公園転落防止柵,34.7119165,135.2178307,緯度経度は怪しい
兵庫県,神戸市,132,灘区福住通8丁目3番,天城橋東詰南側青谷川公園転落防止柵,34.7121995,135.2167079,緯度経度は怪しい
兵庫県,神戸市,133,灘区青谷町1丁目1番,王子テニスコート北信号三叉路南西テニスコート金網,34.7118628,135.2135238,緯度経度は怪しい
兵庫県,神戸市,134,灘区篠原台2番,炭山橋西・歩道南側転落防止柵,34.7308983,135.2309472,緯度経度は怪しい
兵庫県,神戸市,135,灘区篠原台6番,水道局六甲浄水場北西金網,34.7317342,135.2303614,緯度経度は怪しい
兵庫県,神戸市,136,灘区篠原台5番,コミュニティ篠原台前道路ガードレール,34.7331192,135.2303614,緯度経度は怪しい
兵庫県,神戸市,137,灘区篠原台18番,大月台公園北側柵,34.7326078,135.2294096,緯度経度は怪しい
兵庫県,神戸市,138,灘区篠原台18番,大月台公園西北側柵,34.7326078,135.2294096,緯度経度は怪しい
兵庫県,神戸市,139,灘区篠原台6番,六甲ヒルズ篠原台前側溝,34.7317342,135.2303614,緯度経度は怪しい
兵庫県,神戸市,140,灘区篠原台2番,サンロイヤル六甲 東南ガードレール,34.7308983,135.2309472,緯度経度は怪しい
兵庫県,神戸市,141,灘区鶴甲3丁目4番,鶴甲公園北東入口西側金網,34.7355826,135.2338761,緯度経度は怪しい
兵庫県,神戸市,142,灘区鶴甲4丁目7番,鶴甲交番北側ガードパイプ,34.7354318,135.2353407,緯度経度は怪しい
兵庫県,神戸市,143,灘区鶴甲2丁目10番,鶴甲小学校西側側溝,34.7333419,135.2368053,緯度経度は怪しい
兵庫県,神戸市,144,灘区鶴甲2丁目10番,鶴甲小学校東北金網,34.7333419,135.2368053,緯度経度は怪しい
兵庫県,神戸市,145,灘区大月台1番,大月台入口防火水槽東フェンス,34.7347464,135.2294896,緯度経度は怪しい
兵庫県,神戸市,146,灘区鶴甲2丁目4番,鶴甲2丁目交差点西側歩道柵,34.7348531,135.2382699,緯度経度は怪しい
兵庫県,神戸市,147,灘区鶴甲1丁目1番,水道局鶴甲高層配水池金網,34.7294889,135.2379037,緯度経度は怪しい
兵庫県,神戸市,148,灘区記田町2丁目1番,記田公園南入口東側柵,34.7137107,135.2482306,緯度経度は怪しい
兵庫県,神戸市,149,灘区中郷町3丁目1番,徳井会館スロープ柵,34.7159128,135.24596,緯度経度は怪しい
兵庫県,神戸市,150,灘区記田町3丁目2番,エルセレーノ石屋川南側側溝,34.7135851,135.2467657,緯度経度は怪しい
兵庫県,神戸市,151,灘区大和町1丁目1番,石屋川公園西側溝 (ケアホームすばる駐車場東側),34.71825010000001,135.2480109,緯度経度は怪しい
兵庫県,神戸市,152,灘区大和町2丁目3番,イーストコート六甲西側溝,34.7178826,135.2464727,緯度経度は怪しい
兵庫県,神戸市,153,灘区記田町5丁目5番,記田郵政宿舎西金網,34.7132933,135.2444951,緯度経度は怪しい
兵庫県,神戸市,154,灘区中郷町1丁目1番,石屋川公園西側柵 (ファインみかげ 東側),34.7170686,135.2484504,緯度経度は怪しい
兵庫県,神戸市,155,灘区記田町1丁目1番,石屋川公園西側柵 (国道2号線南側),34.7147081,135.2490364,緯度経度は怪しい
兵庫県,神戸市,156,灘区宮山町3丁目1番,ジオグランデ六甲北側溝,34.7199138,135.2337521,緯度経度は怪しい
兵庫県,神戸市,157,灘区篠原中町3丁目6番,六甲川・篠原中町橋東・北側ガードパイプ,34.7199736,135.2288971,緯度経度は怪しい
兵庫県,神戸市,158,灘区篠原中町2丁目1番,メゾンフレール北東側ガードパイプ,34.718644,135.2305079,緯度経度は怪しい
兵庫県,神戸市,159,灘区篠原中町2丁目4番,篠原会館入口北側溝,34.7187439,135.2300889,緯度経度は怪しい
兵庫県,神戸市,160,灘区篠原中町5丁目2番,篠原公園南東入口南側柵,34.7181904,135.226847,緯度経度は怪しい
兵庫県,神戸市,161,灘区篠原中町5丁目5番,篠原公園西側柵 (仙谷川・下岡橋),34.7187495,135.2262613,緯度経度は怪しい
兵庫県,神戸市,162,灘区篠原本町4丁目6番,バス停「篠原本町3丁目」東・歩道南側ガードパイプ,34.7213786,135.2265541,緯度経度は怪しい
兵庫県,神戸市,163,灘区箕岡通4丁目3番,箕岡公園南側バス停側柵,34.7200497,135.2157929,緯度経度は怪しい
兵庫県,神戸市,164,灘区高尾通4丁目3番,高尾小公園北入口東側柵,34.7191155,135.2157197,緯度経度は怪しい
兵庫県,神戸市,165,灘区城の下通1丁目5番,神戸高校同窓会館前金網,34.7173929,135.2146949,緯度経度は怪しい
兵庫県,神戸市,166,灘区城の下通1丁目5番,神戸高校運動場西側金網,34.7173929,135.2146949,緯度経度は怪しい
兵庫県,神戸市,167,灘区上野通7丁目2番,サニーレジデンス南側側溝,34.7155473,135.2159393,緯度経度は怪しい
兵庫県,神戸市,168,灘区上野通8丁目6番,青谷橋南側歩道欄干,34.714741,135.2130115,緯度経度は怪しい
兵庫県,神戸市,169,灘区青谷町4丁目5番,駐車場グリーンヴァレイ南歩道ガードパイプ,34.7144508,135.2104498,緯度経度は怪しい
兵庫県,神戸市,170,灘区大石南町2丁目7番,南町公園北消火栓東側柵,34.7042647,135.2313133,緯度経度は怪しい
兵庫県,神戸市,171,灘区大石南町1丁目1番,昌平橋西側北柵,34.7036625,135.232851,緯度経度は怪しい
兵庫県,神戸市,172,灘区大石南町1丁目2番,にしこう会館南向金網,34.7027607,135.2329974,緯度経度は怪しい
兵庫県,神戸市,173,灘区新在家南町3丁目2番,若宮神社西南玉垣,34.7061858,135.2373911,緯度経度は怪しい
兵庫県,神戸市,174,灘区新在家南町3丁目5番,新在家公園北入口東側柵,34.7067753,135.2373179,緯度経度は怪しい
兵庫県,神戸市,175,灘区新在家南町3丁目5番,新在家公園南入口西側柵,34.7067753,135.2373179,緯度経度は怪しい
兵庫県,神戸市,176,灘区新在家南町5丁目13番,灘保育所前金網,34.7050101,135.2332171,緯度経度は怪しい
兵庫県,神戸市,177,灘区六甲台町9番,神戸六甲線沿六甲団地西転落防止柵,34.7281599,135.2328448,緯度経度は怪しい
兵庫県,神戸市,178,灘区六甲台町5番,バス停「六甲団地」南三叉路ガードパイプ（北向）,34.7268953,135.2327158,緯度経度は怪しい
兵庫県,神戸市,179,灘区六甲台町9番,グリーンヒルズ六甲団地集会所前転落防止柵,34.7281599,135.2328448,緯度経度は怪しい
兵庫県,神戸市,180,灘区六甲台町2番,神戸大学六甲台駐輪場金網,34.7285316,135.2344253,緯度経度は怪しい
兵庫県,神戸市,181,灘区六甲台町13番,神戸大学実習観察園西側転落防止柵,34.7314678,135.2332171,緯度経度は怪しい
兵庫県,神戸市,182,灘区六甲台町8番,グリーンヒルズ六甲団地12号棟西北三叉路歩道ガードレール,34.7307524,135.2318259,緯度経度は怪しい
兵庫県,神戸市,183,灘区六甲台町10番,グリーンヒルズ六甲団地7号棟西北三叉路北側歩道ガードレール,34.7288789,135.2322652,緯度経度は怪しい
兵庫県,神戸市,184,灘区篠原北町2丁目2番,篠原地域福祉センター北側植栽,34.7223358,135.2280184,緯度経度は怪しい
兵庫県,神戸市,185,灘区篠原北町3丁目9番,六甲甲マンション北側ガードパイプ,34.7229047,135.2262613,緯度経度は怪しい
兵庫県,神戸市,186,灘区篠原北町1丁目1番,向橋南東側ガードパイプ,34.72230589999999,135.231533,緯度経度は怪しい
兵庫県,神戸市,187,灘区篠原北町3丁目16番,祥龍寺東隣原墓地東南ガードレール,34.7247735,135.2290034,緯度経度は怪しい
兵庫県,神戸市,188,灘区篠原伯母野山町1丁目1番,勝岡橋西側転落防止柵,34.7264006,135.2305079,緯度経度は怪しい
兵庫県,神戸市,189,灘区篠原伯母野山町2丁目2番,コスモハイツ六甲台東側橋転落防止柵,34.7256222,135.2283845,緯度経度は怪しい
兵庫県,神戸市,190,灘区篠原伯母野山町2丁目4番,六甲学院体育館北東金網,34.7275383,135.2269934,緯度経度は怪しい
兵庫県,神戸市,191,灘区浜田町1丁目2番,プレステージ灘新在家Ⅲ南西側溝,34.7094543,135.2438359,緯度経度は怪しい
兵庫県,神戸市,192,灘区浜田町4丁目1番,神戸製鋼所コミュニティセンター北側金網,34.7082151,135.242957,緯度経度は怪しい
兵庫県,神戸市,193,灘区浜田町4丁目2番,浜田南公園南側金網,34.7089105,135.2426641,緯度経度は怪しい
兵庫県,神戸市,194,灘区新在家南町1丁目,ルネシティ新在家南町1号棟北東植栽,34.7078829,135.2413458,緯度経度は怪しい
兵庫県,神戸市,195,灘区新在家南町1丁目,灘浜ガーデンパーテン専用駐車場前ガードレール,34.7078829,135.2413458,緯度経度は怪しい
兵庫県,神戸市,196,灘区新在家南町2丁目,市営新在家南住宅3号棟自転車置場北側植栽,34.7063718,135.239881,緯度経度は怪しい
兵庫県,神戸市,197,灘区新在家南町1丁目,市営新在家南住宅3号棟南駐車場金網,34.7078829,135.2413458,緯度経度は怪しい
兵庫県,神戸市,198,灘区摩耶海岸通2丁目3番,グルメシティー（ダイエー）A駐車場入口西側金網,34.7023451,135.2208126,緯度経度は怪しい
兵庫県,神戸市,199,灘区摩耶海岸通1丁目2番,歩道橋南端西側柵,34.6997771,135.221649,緯度経度は怪しい
兵庫県,神戸市,200,灘区摩耶海岸通2丁目3番,はっとこども園南東金網,34.7023451,135.2208126,緯度経度は怪しい
兵庫県,神戸市,201,灘区摩耶海岸通2丁目3番,8番館西歩道橋東側柵,34.7023451,135.2208126,緯度経度は怪しい
兵庫県,神戸市,202,灘区摩耶海岸通2丁目3番,9番館南西歩道植栽(北向),34.7023451,135.2208126,緯度経度は怪しい
兵庫県,神戸市,203,灘区摩耶海岸通2丁目3番,12番館南側植栽,34.7023451,135.2208126,緯度経度は怪しい
兵庫県,神戸市,204,灘区摩耶海岸通1丁目3番,摩耶シーサイドプレイス(ウエスト)前歩道北側植栽(南向),34.6992003,135.2202581,緯度経度は怪しい
兵庫県,神戸市,205,灘区摩耶海岸通1丁目1番,摩耶シーサイドプレイス(イースト)前歩道北側植栽(南向),34.7004299,135.2233185,緯度経度は怪しい
兵庫県,神戸市,3,兵庫区楠谷町21番,再度筋交差点北側ガードレール,34.6926908,135.1751131,緯度経度は怪しい
兵庫県,神戸市,4,兵庫区楠谷町24番8号,楠谷バス停ガードレール,34.6926004,135.1747308,緯度経度は怪しい
兵庫県,神戸市,5,兵庫区楠谷町18番,新楠谷橋東側鉄柵,34.6908979,135.1742355,緯度経度は怪しい
兵庫県,神戸市,6,兵庫区楠谷町16番,第二楠谷橋,34.69117,135.1748205,緯度経度は怪しい
兵庫県,神戸市,7,兵庫区楠谷町1番,楠谷モータープール前鉄柵,34.6925117,135.1752908,緯度経度は怪しい
兵庫県,神戸市,8,兵庫区梅元町1番,楠谷橋北側防護柵,34.6920857,135.1729191,緯度経度は怪しい
兵庫県,神戸市,9,兵庫区梅元町7番1号,五宮町バス停ガードレール,34.6917045,135.1719136,緯度経度は怪しい
兵庫県,神戸市,10,兵庫区矢部町38番15号,矢部町ちびっこ広場前ガードレール,34.6913513,135.1717125,緯度経度は怪しい
兵庫県,神戸市,11,兵庫区矢部町25番5号,旧山本酒店前鉄柵,34.6897077,135.1726815,緯度経度は怪しい
兵庫県,神戸市,12,兵庫区五宮町13番,五宮町公園南西フェンス,34.6921144,135.1694091,緯度経度は怪しい
兵庫県,神戸市,13,兵庫区神田町11番10号,平野会館北側,34.691179,135.1705608,緯度経度は怪しい
兵庫県,神戸市,14,兵庫区馬場町5番16号,masked,34.6889169,135.1720233,緯度経度は怪しい
兵庫県,神戸市,15,兵庫区馬場町7番14号,愛信学園西側側溝,34.6884167,135.1710172,緯度経度は怪しい
兵庫県,神戸市,16,兵庫区馬場町12番,県営大倉山住宅2号棟北側側溝,34.6878732,135.1716028,緯度経度は怪しい
兵庫県,神戸市,17,兵庫区下祇園町40番,神戸家庭裁判所東側交差点角,34.6880661,135.1691897,緯度経度は怪しい
兵庫県,神戸市,18,兵庫区下祇園町9番,大光駐車場金網,34.6884391,135.1701403,緯度経度は怪しい
兵庫県,神戸市,19,兵庫区上三条町9番9号,温泉橋北フェンス,34.6918713,135.1663197,緯度経度は怪しい
兵庫県,神戸市,20,兵庫区下三条町11番,神戸祇園小学校東門前ガードレール,34.6880853,135.1668498,緯度経度は怪しい
兵庫県,神戸市,21,兵庫区下三条町10番,神戸祇園小学校北側鉄柵,34.6895403,135.1667035,緯度経度は怪しい
兵庫県,神戸市,22,兵庫区下三条町8番,平野バス停前（鈴蘭台方面行き）,34.6899157,135.1673616,緯度経度は怪しい
兵庫県,神戸市,23,兵庫区下三条町11番,神戸祇園小学校南側鉄柵,34.6880853,135.1668498,緯度経度は怪しい
兵庫県,神戸市,24,兵庫区山王町2丁目3番,山王町2丁目3番東側鉄柵,34.6911271,135.1631208,緯度経度は怪しい
兵庫県,神戸市,25,兵庫区湊山町2番1号,コジマビル前ガードレール,34.6901085,135.1652889,緯度経度は怪しい
兵庫県,神戸市,26,兵庫区雪御所町10番,雪御所地蔵尊北側天王川鉄柵,34.6886487,135.1656799,緯度経度は怪しい
兵庫県,神戸市,27,兵庫区雪御所町2番,旧湊山小学校北東側ガードレール,34.6897611,135.1650949,緯度経度は怪しい
兵庫県,神戸市,28,兵庫区雪御所町8番,雪御所小公園北側鉄柵,34.6890336,135.1651681,緯度経度は怪しい
兵庫県,神戸市,29,兵庫区雪御所町10番,中島橋欄干,34.6886487,135.1656799,緯度経度は怪しい
兵庫県,神戸市,30,兵庫区雪御所町17番1号,雪御所公園入口金網,34.6871327,135.1648025,緯度経度は怪しい
兵庫県,神戸市,31,兵庫区都由乃町1丁目1番11号,石井幼稚園西側溝,34.6908561,135.1622357,緯度経度は怪しい
兵庫県,神戸市,32,兵庫区石井町5丁目2番,日吉橋欄干,34.6900851,135.1635595,緯度経度は怪しい
兵庫県,神戸市,33,兵庫区石井町1丁目4番,石井橋南側歩道欄干,34.6895313,135.1635595,緯度経度は怪しい
兵庫県,神戸市,34,兵庫区石井町5丁目1番,石井橋北側歩道欄干,34.6898082,135.1635595,緯度経度は怪しい
兵庫県,神戸市,35,兵庫区石井町2丁目3番,石井町2丁目3番ガードレール,34.6891887,135.1631208,緯度経度は怪しい
兵庫県,神戸市,36,兵庫区石井町7丁目1番12号,masked,34.689449,135.1619137,緯度経度は怪しい
兵庫県,神戸市,37,兵庫区石井町4丁目3番,石井町バス停ガードレール,34.6881729,135.1603426,緯度経度は怪しい
兵庫県,神戸市,38,兵庫区氷室町2丁目2番,エリー美容室前　鉄柵,34.6870818,135.1582955,緯度経度は怪しい
兵庫県,神戸市,39,兵庫区熊野町2丁目2番,旧熊野地域福祉センター南西　ガードレール,34.6862135,135.1586611,緯度経度は怪しい
兵庫県,神戸市,40,兵庫区熊野町3丁目3番,夢野町3バス停東側　ガードレール,34.6850825,135.1572721,緯度経度は怪しい
兵庫県,神戸市,41,兵庫区夢野町2丁目,BAR Rugger前ガードレール,34.6854484,135.1590997,緯度経度は怪しい
兵庫県,神戸市,42,兵庫区夢野町1丁目,友生支援学校北側　フェンス,34.6864762,135.1604157,緯度経度は怪しい
兵庫県,神戸市,43,兵庫区熊野町2丁目,友生支援学校前 ガードレール,34.6865561,135.1590997,緯度経度は怪しい
兵庫県,神戸市,44,兵庫区夢野町2丁目,夢野交差点 ガードレール,34.6854484,135.1590997,緯度経度は怪しい
兵庫県,神戸市,45,兵庫区清水町1番,ときわ氷室ハイツ前 鉄柵,34.6862583,135.1552617,緯度経度は怪しい
兵庫県,神戸市,46,兵庫区熊野町5丁目16番,masked,34.6855191,135.1546404,緯度経度は怪しい
兵庫県,神戸市,47,兵庫区熊野町5丁目15番,旧夢野中学校 石垣東側,34.6847307,135.1536901,緯度経度は怪しい
兵庫県,神戸市,48,兵庫区鵯越町5番,鵯越近畿産業ガレージ 金網,34.6833039,135.1546404,緯度経度は怪しい
兵庫県,神戸市,49,兵庫区鵯越町1番,熊野西公園南側 石垣,34.6834728,135.1551521,緯度経度は怪しい
兵庫県,神戸市,50,兵庫区滝山町,パレス西神戸北側 鉄柵,34.684407,135.1509124,緯度経度は怪しい
兵庫県,神戸市,51,兵庫区鵯越町17番,カナート前 鉄柵,34.6818161,135.1545673,緯度経度は怪しい
兵庫県,神戸市,52,兵庫区里山町,里山町公園 ガードレール,34.6943167,135.1406803,緯度経度は怪しい
兵庫県,神戸市,53,兵庫区里山町,神鉄鵯越駅前 石垣,34.6943167,135.1406803,緯度経度は怪しい
兵庫県,神戸市,54,兵庫区里山町652,東里山文化センター前 手すり,34.6915916,135.1430393,緯度経度は怪しい
兵庫県,神戸市,55,兵庫区里山町,鵯越バス停前 鉄柵,34.6943167,135.1406803,緯度経度は怪しい
兵庫県,神戸市,56,兵庫区里山町,シーガルパレス神戸山手 金網,34.6943167,135.1406803,緯度経度は怪しい
兵庫県,神戸市,57,兵庫区夢野町4丁目3番,夢野老人ホーム北側バス停前 鉄柵,34.6836042,135.1560293,緯度経度は怪しい
兵庫県,神戸市,58,兵庫区湊川町7丁目6番,夢野地区地域福祉センター正門前 鉄柵,34.68316739999999,135.1586611,緯度経度は怪しい
兵庫県,神戸市,59,兵庫区湊川町7丁目6番,夢野公園東側 鉄柵,34.68316739999999,135.1586611,緯度経度は怪しい
兵庫県,神戸市,60,兵庫区湊川町7丁目1番,市営夢野住宅の南 ガードレール,34.6819446,135.1600501,緯度経度は怪しい
兵庫県,神戸市,61,兵庫区湊川町5丁目2番,熊野橋バス停北側 ガードレール,34.6831788,135.1615123,緯度経度は怪しい
兵庫県,神戸市,62,兵庫区湊川町9丁目4番,湊川町東公園 鉄柵,34.6811105,135.1583321,緯度経度は怪しい
兵庫県,神戸市,63,兵庫区湊川町9丁目12番,UR都市機構所有地「みんなのうえん」フェンス,34.6815507,135.1574183,緯度経度は怪しい
兵庫県,神戸市,64,兵庫区菊水町10丁目37番地,菊水西住宅前 鉄柵,34.6805049,135.1541429,緯度経度は怪しい
兵庫県,神戸市,65,兵庫区菊水町10丁目37番地,菊水西住宅北東 金網,34.6805049,135.1541429,緯度経度は怪しい
兵庫県,神戸市,66,兵庫区菊水町10丁目9番,菊水町緑地 植込み,34.6803964,135.1546404,緯度経度は怪しい
兵庫県,神戸市,67,兵庫区菊水町10丁目9番,菊水町緑地 石垣,34.6803964,135.1546404,緯度経度は怪しい
兵庫県,神戸市,68,兵庫区湊川町10丁目,神鉄ノ会下山トンネル フェンス,34.6792439,135.1558831,緯度経度は怪しい
兵庫県,神戸市,69,兵庫区湊川町10丁目23番,法恩寺前 鉄柵,34.6793048,135.1569065,緯度経度は怪しい
兵庫県,神戸市,70,兵庫区湊川町10丁目31番,会下山サンシャイン前,34.6777889,135.1560293,緯度経度は怪しい
兵庫県,神戸市,71,兵庫区荒田町3丁目20番4号,みなと幼稚園東側ガードレール,34.6845496,135.167357,緯度経度は怪しい
兵庫県,神戸市,72,兵庫区荒田町4丁目17番1号,永昌禅寺前ガードレール,34.6847248,135.1650584,緯度経度は怪しい
兵庫県,神戸市,73,兵庫区荒田町4丁目17番6号,荒田地域福祉センター前フェンス,34.6846226,135.1650841,緯度経度は怪しい
兵庫県,神戸市,74,兵庫区荒田町3丁目82番1号,まんてん堂東側フェンス,34.6871126,135.16621,緯度経度は怪しい
兵庫県,神戸市,75,兵庫区荒田町3丁目15番,荒田八幡公園東側鉄柵,34.6853391,135.1682391,緯度経度は怪しい
兵庫県,神戸市,76,兵庫区荒田町3丁目15番,荒田八幡公園西側鉄柵,34.6853391,135.1682391,緯度経度は怪しい
兵庫県,神戸市,77,兵庫区荒田町3丁目10番21号,荒田住宅集会所前鉄柵,34.6847216,135.169665,緯度経度は怪しい
兵庫県,神戸市,78,兵庫区荒田町2丁目15番,姫路信用金庫前 ガードレール,34.6829923,135.1673616,緯度経度は怪しい
兵庫県,神戸市,79,兵庫区荒田町2丁目19番,荒田公園北東 鉄柵,34.68234,135.1667035,緯度経度は怪しい
兵庫県,神戸市,80,兵庫区荒田町2丁目19番,荒田公園南側 鉄柵,34.68234,135.1667035,緯度経度は怪しい
兵庫県,神戸市,81,兵庫区荒田町2丁目19番,荒田公園西南側 鉄柵,34.68234,135.1667035,緯度経度は怪しい
兵庫県,神戸市,82,兵庫区荒田町1丁目21番1号,兵庫消防署北側 フェンス,34.6803041,135.1656819,緯度経度は怪しい
兵庫県,神戸市,83,兵庫区荒田町1丁目20番,湊川公園内西側 金網,34.6795705,135.1667035,緯度経度は怪しい
兵庫県,神戸市,84,兵庫区荒田町1丁目20番,湊川公園西口バス停前 石垣,34.6795705,135.1667035,緯度経度は怪しい
兵庫県,神戸市,85,兵庫区大同町2丁目2番16号,大同保育園北側鉄柵,34.6878447,135.1629351,緯度経度は怪しい
兵庫県,神戸市,86,兵庫区大同町2丁目2番8号,湊山地域福祉センター鉄柵,34.6876827,135.1627464,緯度経度は怪しい
兵庫県,神戸市,87,兵庫区菊水町2丁目1番,菊水地域福祉センター入口,34.6864524,135.1633402,緯度経度は怪しい
兵庫県,神戸市,88,兵庫区湊川町1丁目1番,建設局湊川ポンプ場鉄柵,34.6852318,135.1644369,緯度経度は怪しい
兵庫県,神戸市,89,兵庫区湊川町2丁目1番,湊菊公園鉄柵,34.6840961,135.1636326,緯度経度は怪しい
兵庫県,神戸市,90,兵庫区湊川町4丁目1番,熊野橋東側鉄柵,34.6839744,135.1615855,緯度経度は怪しい
兵庫県,神戸市,91,兵庫区菊水町3丁目1番,菊水公園南西側鉄柵,34.6865276,135.162609,緯度経度は怪しい
兵庫県,神戸市,92,兵庫区東山町1丁目9番,新湊川ふれあい広場前 フェンス,34.6835022,135.1642907,緯度経度は怪しい
兵庫県,神戸市,93,兵庫区東山町4丁目,熊野橋バス停南側 ガードレール,34.6821063,135.1614392,緯度経度は怪しい
兵庫県,神戸市,94,兵庫区東山町4丁目,夢野橋 鉄柵,34.6821063,135.1614392,緯度経度は怪しい
兵庫県,神戸市,95,兵庫区東山町4丁目,東山駐車場東側 フェンス,34.6821063,135.1614392,緯度経度は怪しい
兵庫県,神戸市,96,兵庫区東山町4丁目,東山駐車場西側 フェンス,34.6821063,135.1614392,緯度経度は怪しい
兵庫県,神戸市,97,兵庫区東山町4丁目,夢野の丘小学校西門前 ガードレール,34.6821063,135.1614392,緯度経度は怪しい
兵庫県,神戸市,98,兵庫区東山町3丁目6番,三井住友銀行駐車場前 ガードレール,34.6812399,135.1636692,緯度経度は怪しい
兵庫県,神戸市,99,兵庫区大井通1丁目1番,阪神調剤薬局南東 ガードレール,34.679393,135.1630477,緯度経度は怪しい
兵庫県,神戸市,100,兵庫区松本通1丁目1番,湊川中学校北東 鉄柵,34.6797963,135.16451,緯度経度は怪しい
兵庫県,神戸市,101,兵庫区上沢通1丁目3番26号,会下山小学校北側 鉄柵,34.6790967,135.1653874,緯度経度は怪しい
兵庫県,神戸市,102,兵庫区松本通1丁目1番1号,湊川中学校南東 鉄柵,34.6799145,135.1640294,緯度経度は怪しい
兵庫県,神戸市,103,兵庫区上沢通1丁目2番,上沢通1丁目公園西側 鉄柵,34.6782142,135.1653509,緯度経度は怪しい
兵庫県,神戸市,104,兵庫区松本通3丁目2番,川池公園 フェンス,34.6783276,135.1620972,緯度経度は怪しい
兵庫県,神戸市,105,兵庫区大井通1丁目1番,大井住宅西側 フェンス,34.679393,135.1630477,緯度経度は怪しい
兵庫県,神戸市,106,兵庫区上沢通8丁目9番,上沢通8丁目公園南側 植栽,34.6739278,135.1582955,緯度経度は怪しい
兵庫県,神戸市,107,兵庫区会下山町3丁目16番,市立神港橘高等学校西側 歩道植栽,34.6752261,135.1561755,緯度経度は怪しい
兵庫県,神戸市,108,兵庫区会下山町3丁目16番,市立神港橘高等学校東側 正門前 手摺内側,34.6752261,135.1561755,緯度経度は怪しい
兵庫県,神戸市,109,兵庫区松本通6丁目4番,松本うめ公園南側 フェンス,34.6763755,135.1595384,緯度経度は怪しい
兵庫県,神戸市,110,兵庫区松本通6丁目4番20号,松本まちづくり会館前 フェンス,34.6761222,135.1592886,緯度経度は怪しい
兵庫県,神戸市,111,兵庫区会下山町3丁目,房王寺橋 欄干,34.6764651,135.1570528,緯度経度は怪しい
兵庫県,神戸市,112,兵庫区上沢通7丁目6番,上沢通7丁目公園南側 鉄柵,34.6745992,135.1592692,緯度経度は怪しい
兵庫県,神戸市,113,兵庫区下沢通8丁目4番33号,市営下沢住宅東側 植栽,34.6732094,135.1593556,緯度経度は怪しい
兵庫県,神戸市,114,兵庫区水木通7丁目1番,関西スーパー西側 ガードレール,34.67185449999999,135.1620241,緯度経度は怪しい
兵庫県,神戸市,115,兵庫区中道通6丁目1番,中道公園南側 フェンス,34.6737179,135.1627553,緯度経度は怪しい
兵庫県,神戸市,116,兵庫区中道通6丁目1番,中道高齢者介護支援センター東側 歩道植栽,34.6737179,135.1627553,緯度経度は怪しい
兵庫県,神戸市,117,兵庫区中道通4丁目1番,東中道公園北側 鉄柵,34.6748112,135.16451,緯度経度は怪しい
兵庫県,神戸市,118,兵庫区中道通4丁目1番,東中道公園東側 鉄柵,34.6748112,135.16451,緯度経度は怪しい
兵庫県,神戸市,119,兵庫区中道通4丁目1番,東中道公園南側 鉄柵,34.6748112,135.16451,緯度経度は怪しい
兵庫県,神戸市,120,兵庫区中道通3丁目2番,ジュネス神戸 駐車場,34.6752193,135.1653874,緯度経度は怪しい
兵庫県,神戸市,121,兵庫区中道通2丁目2番,日本光電関西㈱兵庫支社前,34.6759372,135.1664842,緯度経度は怪しい
兵庫県,神戸市,122,兵庫区下沢通2丁目1番,兵庫警察署東側 ガードレール,34.6768762,135.1659724,緯度経度は怪しい
兵庫県,神戸市,123,兵庫区下沢通1丁目5番,湊川公園西口交差点南西角 ガードレール,34.6783922,135.1668498,緯度経度は怪しい
兵庫県,神戸市,124,兵庫区下沢通1丁目1番,湊川公園南西側 ガードレール,34.6779744,135.1671423,緯度経度は怪しい
兵庫県,神戸市,125,兵庫区下沢通2丁目3番,山崎歯科医院前 ガードレール,34.6778832,135.1656068,緯度経度は怪しい
兵庫県,神戸市,126,兵庫区水木通3丁目4番,DORFマンション前 カードレール,34.6751,135.166306,緯度経度は怪しい
兵庫県,神戸市,127,兵庫区新開地1丁目4番,湊川トンネル南側 鉄柵,34.6788004,135.1677272,緯度経度は怪しい
兵庫県,神戸市,128,兵庫区新開地1丁目4番,湊川公園南入口遊具前 鉄柵,34.6788004,135.1677272,緯度経度は怪しい
兵庫県,神戸市,129,兵庫区新開地1丁目4番,湊川公園東側 ガードレール,34.6788004,135.1677272,緯度経度は怪しい
兵庫県,神戸市,130,兵庫区福原町30番5号,福原金刀比羅神社西側 玉垣,34.6798704,135.1686321,緯度経度は怪しい
兵庫県,神戸市,131,兵庫区福原町31番,湊川リビングストリート ガードレール,34.6804172,135.1689703,緯度経度は怪しい
兵庫県,神戸市,132,兵庫区西上橘通1丁目4番,神戸極楽堂店前 ガードレール,34.6814048,135.1709447,緯度経度は怪しい
兵庫県,神戸市,133,兵庫区西多聞通1丁目3番,西橋公園南側 鉄柵,34.6796916,135.1732403,緯度経度は怪しい
兵庫県,神戸市,134,兵庫区新開地6丁目3番,新開地南公園南側 鉄柵,34.67565,135.1759907,緯度経度は怪しい
兵庫県,神戸市,135,兵庫区湊町2丁目5番,湊町公園南側 ガードレール,34.6742897,135.1730654,緯度経度は怪しい
兵庫県,神戸市,136,兵庫区湊町3丁目5番,湊町公園北側 金網,34.6749239,135.1717491,緯度経度は怪しい
兵庫県,神戸市,137,兵庫区新開地5丁目3番,新開地アートひろば東側 金網,34.6762236,135.1736504,緯度経度は怪しい
兵庫県,神戸市,138,兵庫区湊町2丁目4番,湊町2丁目バス停前 ガードレール,34.6747908,135.1731751,緯度経度は怪しい
兵庫県,神戸市,139,兵庫区湊町3丁目5番,湊町公園内西面 金網,34.6749239,135.1717491,緯度経度は怪しい
兵庫県,神戸市,140,兵庫区湊町4丁目2番,三井住友銀行兵庫支店前 ガードレール,34.6761473,135.1703597,緯度経度は怪しい
兵庫県,神戸市,141,兵庫区新開地3丁目4番,新開地バス停（市営バス）西側 ガードレール,34.6766587,135.1713103,緯度経度は怪しい
兵庫県,神戸市,142,兵庫区湊町1丁目,湊町自転車保管所北側 ガードレール,34.6746576,135.1746011,緯度経度は怪しい
兵庫県,神戸市,143,兵庫区佐比江町,佐比江公園東側 鉄柵,34.6733988,135.1760638,
兵庫県,神戸市,144,兵庫区東出町2丁目12番,大慈ひょうごこども園 鉄柵,34.6739484,135.1806715,緯度経度は怪しい
兵庫県,神戸市,145,兵庫区西出町2丁目2番,西出町公園西側 鉄柵,34.6731397,135.1780385,緯度経度は怪しい
兵庫県,神戸市,146,兵庫区七宮町2丁目3番21号,七宮神社 玉垣,34.6718429,135.1758148,
兵庫県,神戸市,147,兵庫区鍛冶屋町2丁目1番,鍛冶屋町バス停 ガードレール,34.669629,135.1755519,緯度経度は怪しい
兵庫県,神戸市,148,兵庫区本町1丁目2番,本町公園東側 鉄柵,34.6691881,135.1744549,緯度経度は怪しい
兵庫県,神戸市,149,兵庫区本町1丁目2番,本町公園西側 鉄柵,34.6691881,135.1744549,緯度経度は怪しい
兵庫県,神戸市,150,兵庫区永沢町4丁目3番,兵庫中学校西 ガードレール,34.6733824,135.1697747,緯度経度は怪しい
兵庫県,神戸市,151,兵庫区永沢町4丁目3番,兵庫中学校南門横,34.6733824,135.1697747,緯度経度は怪しい
兵庫県,神戸市,152,兵庫区西柳原町5番,蛭子神社北西 ガードレール,34.6692424,135.1680197,緯度経度は怪しい
兵庫県,神戸市,153,兵庫区門口町2番,門口公園南側 鉄柵,34.6706027,135.1709447,緯度経度は怪しい
兵庫県,神戸市,154,兵庫区門口町2番,門口公園東側 鉄柵,34.6706027,135.1709447,緯度経度は怪しい
兵庫県,神戸市,155,兵庫区西柳原町5番,蛭子神社南西 ガードレール,34.6692424,135.1680197,緯度経度は怪しい
兵庫県,神戸市,156,兵庫区門口町2番,門口公園西側 鉄柵,34.6706027,135.1709447,緯度経度は怪しい
兵庫県,神戸市,157,兵庫区大開通3丁目1番27号,NTT兵庫ネットワークセンター東 ガードレール,34.6743255,135.16734,緯度経度は怪しい
兵庫県,神戸市,158,兵庫区大開通4丁目1番39号,兵庫大開小学校北側,34.673518,135.1664673,緯度経度は怪しい
兵庫県,神戸市,159,兵庫区大開通4丁目1番39号,兵庫大開小学校東側,34.673518,135.1664673,緯度経度は怪しい
兵庫県,神戸市,160,兵庫区大開通4丁目1番,大開公園 鉄柵,34.6737592,135.1661186,緯度経度は怪しい
兵庫県,神戸市,161,兵庫区永沢町4丁目3番,兵庫中学校北門横,34.6733824,135.1697747,緯度経度は怪しい
兵庫県,神戸市,162,兵庫区塚本通3丁目1番,塚本東公園 鉄柵,34.67226369999999,135.1677953,緯度経度は怪しい
兵庫県,神戸市,163,兵庫区三川口3丁目3番,柳原町バス停 ガードレール,34.6709043,135.1680197,緯度経度は怪しい
兵庫県,神戸市,164,兵庫区大開通6丁目4番,御旅公園東北 鉄柵,34.6724594,135.1642175,緯度経度は怪しい
兵庫県,神戸市,165,兵庫区大開通6丁目4番,御旅公園南 鉄柵,34.6724594,135.1642175,緯度経度は怪しい
兵庫県,神戸市,166,兵庫区大開通6丁目4番,御旅公園東 鉄柵,34.6724594,135.1642175,緯度経度は怪しい
兵庫県,神戸市,167,兵庫区大開通7丁目4番,大開通8丁目交差点南側 緑道,34.6708474,135.1623897,緯度経度は怪しい
兵庫県,神戸市,168,兵庫区羽坂通4丁目1番,兵庫駅前住宅駐輪場 フェンス,34.6691842,135.1651367,緯度経度は怪しい
兵庫県,神戸市,169,兵庫区羽坂通4丁目1番,兵庫区文化センター正面2階テラス 鉄柵,34.6691842,135.1651367,緯度経度は怪しい
兵庫県,神戸市,170,兵庫区羽坂通4丁目2番,西川ビレッジ駐車場 フェンス,34.6695488,135.16451,緯度経度は怪しい
兵庫県,神戸市,171,兵庫区塚本通7丁目4番,塚本西公園東側 鉄柵,34.6689492,135.1623052,緯度経度は怪しい
兵庫県,神戸市,172,兵庫区大開通8丁目2番,県営大開高層住宅A棟西側 フェンス,34.670414,135.161822,緯度経度は怪しい
兵庫県,神戸市,173,兵庫区塚本通7丁目1番,ローソン塚本通店前 緑道,34.6693641,135.1629338,緯度経度は怪しい
兵庫県,神戸市,174,兵庫区水木通9丁目1番8号,水木小学校 正門西側 植栽,34.6704078,135.15998,緯度経度は怪しい
兵庫県,神戸市,175,兵庫区水木通9丁目1番8号,水木小学校 北門横,34.6704078,135.15998,緯度経度は怪しい
兵庫県,神戸市,176,兵庫区水木通10丁目2番,水木公園北側 鉄柵,34.670073,135.1586067,緯度経度は怪しい
兵庫県,神戸市,177,兵庫区塚本通7丁目2番,ひだかクリニック前 緑道(角材＋杭B),34.6697371,135.1626821,緯度経度は怪しい
兵庫県,神戸市,178,兵庫区駅前通1丁目1番,兵庫駅前バス停前 ガードレール 東,34.6685953,135.1641536,緯度経度は怪しい
兵庫県,神戸市,179,兵庫区駅前通1丁目1番,兵庫駅前バス停西側 ガードレール,34.6685953,135.1641536,緯度経度は怪しい
兵庫県,神戸市,180,兵庫区駅前通1丁目3番,兵庫年金事務所南側 駐輪場,34.6685916,135.1630477,緯度経度は怪しい
兵庫県,神戸市,181,兵庫区駅前通2丁目1番,入江公園 鉄柵,34.6676951,135.162609,緯度経度は怪しい
兵庫県,神戸市,182,兵庫区駅前通3丁目2番,市営駅前住宅駐車場 フェンス,34.6680571,135.1607081,緯度経度は怪しい
兵庫県,神戸市,183,兵庫区駅前通4丁目1番,市営駅西住宅第1集会所入口,34.6666772,135.1601232,緯度経度は怪しい
兵庫県,神戸市,184,兵庫区駅前通4丁目3番,市営駅西住宅第2集会所北側 フェンス,34.6675094,135.1597074,緯度経度は怪しい
兵庫県,神戸市,185,兵庫区松原通1丁目1番,須佐野公園北側金網,34.6644722,135.1707757,緯度経度は怪しい
兵庫県,神戸市,186,兵庫区松原通1丁目1番,須佐野中学校西側金網,34.6644722,135.1707757,緯度経度は怪しい
兵庫県,神戸市,187,兵庫区須佐野通3丁目3番,明親公園北側鉄柵,34.6650821,135.1666364,緯度経度は怪しい
兵庫県,神戸市,188,兵庫区小河通5丁目2番,小河通地下道入口,34.6664873,135.1662648,緯度経度は怪しい
兵庫県,神戸市,189,兵庫区須佐野通4丁目1番,明親小学校通用門横金網,34.6651072,135.1656799,緯度経度は怪しい
兵庫県,神戸市,190,兵庫区須佐野通4丁目1番,明親小学校北西側金網,34.6651072,135.1656799,緯度経度は怪しい
兵庫県,神戸市,191,兵庫区芦原通5丁目1番,交通局松原営業所東側金網,34.6629716,135.1643638,緯度経度は怪しい
兵庫県,神戸市,192,兵庫区磯之町2番1号,マツワ商事向い鉄柵,34.6675994,135.17447,緯度経度は怪しい
兵庫県,神戸市,193,兵庫区中之島2丁目1番,切戸町アパート向かい鉄柵,34.6652494,135.173431,緯度経度は怪しい
兵庫県,神戸市,194,兵庫区中之島2丁目1番,キャナルコートコウベ向かい植栽,34.6652494,135.173431,緯度経度は怪しい
兵庫県,神戸市,195,兵庫区船大工町3番,入江橋北側欄干,34.6673473,135.1751131,緯度経度は怪しい
兵庫県,神戸市,196,兵庫区中之島1丁目1番,中央卸売市場バス停ガードレール,34.6652748,135.1760364,緯度経度は怪しい
兵庫県,神戸市,197,兵庫区中之島1丁目1番,中央卸売市場第5通用門植込,34.6652748,135.1760364,緯度経度は怪しい
兵庫県,神戸市,198,兵庫区中之島2丁目1番,駐車場前鉄柵,34.6652494,135.173431,緯度経度は怪しい
兵庫県,神戸市,199,兵庫区御崎本町1丁目1番,御崎本町公園西入口金網,34.6615321,135.1707984,緯度経度は怪しい
兵庫県,神戸市,200,兵庫区御崎本町3丁目3番15号,市営本御崎住宅北側白のフェンス,34.6598548,135.1699412,緯度経度は怪しい
兵庫県,神戸市,201,兵庫区御崎本町2丁目9番,エルセレーノ御崎本町前植栽,34.6600715,135.1715297,緯度経度は怪しい
兵庫県,神戸市,202,兵庫区今出在家町3丁目3番,今出在家小公園東側柵,34.6613284,135.1743818,緯度経度は怪しい
兵庫県,神戸市,203,兵庫区上庄通1丁目1番27号,神戸市こども家庭センター西側 フェンス,34.6594764,135.1750199,緯度経度は怪しい
兵庫県,神戸市,204,兵庫区上庄通1丁目1番43号,神戸市総合児童センター(こべっこランド)北側 フェンス,34.6598431,135.1750355,緯度経度は怪しい
兵庫県,神戸市,205,兵庫区今出在家町1丁目2番,南浜公園内柵,34.6612655,135.1776728,緯度経度は怪しい
兵庫県,神戸市,206,兵庫区和田宮通5丁目5番,和田宮公園東側ガードレール,34.6564752,135.1749668,緯度経度は怪しい
兵庫県,神戸市,207,兵庫区和田宮通5丁目5番,和田宮公園西側ガードレール,34.6564752,135.1749668,緯度経度は怪しい
兵庫県,神戸市,208,兵庫区和田宮通6丁目1番,和田岬小学校正門横鉄柵,34.6548431,135.1754787,緯度経度は怪しい
兵庫県,神戸市,209,兵庫区和田宮通6丁目1番,和田岬小学校南側フェンス,34.6548431,135.1754787,緯度経度は怪しい
兵庫県,神戸市,210,兵庫区笠松通5丁目4番,笠松市民公園花壇フェンス,34.6572534,135.1730654,緯度経度は怪しい
兵庫県,神戸市,211,兵庫区御崎町1丁目2番,御崎公園東側フェンス,34.6569687,135.1699209,緯度経度は怪しい
兵庫県,神戸市,212,兵庫区御崎町1丁目2番,御崎ビル東フェンス,34.6569687,135.1699209,緯度経度は怪しい
兵庫県,神戸市,213,兵庫区吉田町1丁目2番,吉田町東公園東側柵,34.6530194,135.1708286,緯度経度は怪しい
兵庫県,神戸市,214,兵庫区吉田町1丁目2番,吉田町1丁目バス停(西行)ガードレール,34.6530194,135.1708286,緯度経度は怪しい
兵庫県,神戸市,215,兵庫区吉田町2丁目18番,吉田町中公園北東フェンス,34.6536745,135.1684219,緯度経度は怪しい
兵庫県,神戸市,216,兵庫区吉田町1丁目3番,新和田岬ポンプ場西側鉄柵,34.6527276,135.1718222,緯度経度は怪しい
兵庫県,神戸市,217,兵庫区吉田町1丁目2番,吉田町東公園南側柵,34.6530194,135.1708286,緯度経度は怪しい
兵庫県,神戸市,218,兵庫区吉田町2丁目18番,吉田町中公園南西フェンス,34.6536745,135.1684219,緯度経度は怪しい
兵庫県,神戸市,219,兵庫区吉田町2丁目38番,吉田町2丁目バス停(西行)ガードレール,34.6548078,135.1675079,緯度経度は怪しい
兵庫県,神戸市,220,兵庫区金平町1丁目13番,きんぺいひろば(金平町公園)北側フェンス,34.6542221,135.1651315,緯度経度は怪しい
兵庫県,神戸市,221,兵庫区御崎町2丁目3番,パークサイド御崎西側金網,34.6554298,135.1676541,緯度経度は怪しい
兵庫県,神戸市,222,兵庫区御崎町1丁目2番,ノエビアスタジアム北西金網,34.6569687,135.1699209,緯度経度は怪しい
兵庫県,神戸市,223,兵庫区御崎町1丁目3番,環境局兵庫事業所金網,34.657642,135.167431,緯度経度は怪しい
兵庫県,神戸市,224,兵庫区材木町4番,浜山小学校正門横フェンス,34.6586131,135.1665293,緯度経度は怪しい
兵庫県,神戸市,225,兵庫区材木町4番,浜山小学校南東角金網,34.6586131,135.1665293,緯度経度は怪しい
兵庫県,神戸市,226,兵庫区浜中町1丁目16番,フレール浜山植え,34.6559661,135.1656799,緯度経度は怪しい
兵庫県,神戸市,227,兵庫区菊水町10丁目39番地,市営夢野台住宅1号棟前 フェンス,34.6815724,135.1524878,緯度経度は怪しい
兵庫県,神戸市,228,兵庫区菊水町10丁目39番地,夢野西歩道橋西側 鉄柵,34.6815724,135.1524878,緯度経度は怪しい
兵庫県,神戸市,229,兵庫区菊水町10丁目39番地,夢野中学校グラウンド 鉄柵,34.6815724,135.1524878,緯度経度は怪しい
兵庫県,神戸市,230,兵庫区鵯越町10番,夢野中学校正門横 金網,34.68237939999999,135.1533977,緯度経度は怪しい
兵庫県,神戸市,231,兵庫区菊水町10丁目12番地,ひよどり地域福祉センター 金網,34.6812736,135.1534367,緯度経度は怪しい
兵庫県,神戸市,232,兵庫区菊水町10丁目39番地,夢野ハイタウン2号棟 陸橋下,34.6815724,135.1524878,緯度経度は怪しい
兵庫県,神戸市,233,兵庫区菊水町10丁目39番地,夢野団地1号館入口 金網,34.6815724,135.1524878,緯度経度は怪しい
兵庫県,神戸市,234,兵庫区駅南通4丁目1番,正慶町公園南側鉄柵,34.6632125,135.1604157,緯度経度は怪しい
兵庫県,神戸市,235,兵庫区駅南通5丁目2番,キャナルタウンウエスト運河沿い鉄柵,34.665489,135.1614392,緯度経度は怪しい
兵庫県,神戸市,236,兵庫区駅南通5丁目1番,キャナルタウン広場西南鉄柵,34.6678935,135.1654119,緯度経度は怪しい
兵庫県,神戸市,237,兵庫区駅南通5丁目2番,兵庫駅南公園東側鉄柵,34.665489,135.1614392,緯度経度は怪しい
兵庫県,神戸市,238,兵庫区駅南通5丁目1番,キャナルタウンイースト緑地,34.6678935,135.1654119,緯度経度は怪しい
兵庫県,神戸市,239,兵庫区浜崎通5番,masked,34.6687638,135.1672885,緯度経度は怪しい
兵庫県,神戸市,240,兵庫区浜崎通5番,エスケー化研前フェンス,34.6687638,135.1672885,緯度経度は怪しい
兵庫県,神戸市,241,兵庫区駅南通5丁目2番,キャナルタウン西広場横鉄柵,34.665489,135.1614392,緯度経度は怪しい
兵庫県,神戸市,4,長田区萩乃町2丁目6番,「大西」方北側歩道柵,34.6893602,135.1328615,緯度経度は怪しい
兵庫県,神戸市,5,長田区萩乃町3丁目7番,「ひよどりこえ森林公園」入口の向かい側歩道柵,34.6896507,135.131108,緯度経度は怪しい
兵庫県,神戸市,6,長田区萩乃町3丁目6番,「市有地」東側交差点付近の金網,34.6900217,135.1323501,緯度経度は怪しい
兵庫県,神戸市,7,長田区大日丘町1丁目7番,「市営大日丘住宅1号棟」北西角柵,34.6886056,135.1364419,緯度経度は怪しい
兵庫県,神戸市,8,長田区雲雀ヶ丘1丁目1番,「市営雲雀ヶ丘住宅」敷地の出入口付近の柵,34.6914534,135.1351266,緯度経度は怪しい
兵庫県,神戸市,9,長田区大日丘町2丁目6番,「大日丘西公園」入口柵,34.6904027,135.1367342,緯度経度は怪しい
兵庫県,神戸市,10,長田区萩乃町2丁目5番,「本田モータープール」南側道路柵,34.6890811,135.1331538,緯度経度は怪しい
兵庫県,神戸市,11,長田区萩乃町2丁目1番,「駐車場（西部電機建設）」金網,34.687411,135.1343229,緯度経度は怪しい
兵庫県,神戸市,12,長田区萩乃町1丁目1番,交差点の石垣,34.6867824,135.1350536,緯度経度は怪しい
兵庫県,神戸市,13,長田区西丸山町3丁目1番,交差点北側（バス道側）の柵,34.6858655,135.1372457,緯度経度は怪しい
兵庫県,神戸市,14,長田区花山町1丁目2番,「花山公園」北側柵,34.6844483,135.1370265,緯度経度は怪しい
兵庫県,神戸市,15,長田区丸山町4丁目6番,「花山町」バス停北側のフェンス,34.6833101,135.1370904,緯度経度は怪しい
兵庫県,神戸市,16,長田区花山町1丁目2番,クリーンステーション向側（崖）のフェンス,34.6844483,135.1370265,緯度経度は怪しい
兵庫県,神戸市,17,長田区鹿松町2丁目4番,横断歩道付近の道路柵,34.6843864,135.1316925,緯度経度は怪しい
兵庫県,神戸市,18,長田区鷹町3丁目1番,道沿いのガードレール,34.6595835,135.1435791,緯度経度は怪しい
兵庫県,神戸市,19,長田区大日丘町1丁目1番,「大日丘」バス停フェンス,34.6876558,135.1384149,緯度経度は怪しい
兵庫県,神戸市,20,長田区大日丘町2丁目2番,「市営大日丘第2住宅集会所」前ガードレール,34.6909189,135.1370996,緯度経度は怪しい
兵庫県,神戸市,21,長田区西丸山町2丁目5番,「西丸山町3丁目」バス停金網,34.6863373,135.1388533,緯度経度は怪しい
兵庫県,神戸市,22,長田区西丸山町1丁目7番,「丸山コミュニティセンター駐車場（敷地内）」金網,34.6857674,135.1408995,緯度経度は怪しい
兵庫県,神戸市,23,長田区檜川町2丁目4番,「桧川町公園」南側の柵,34.6878576,135.1391456,緯度経度は怪しい
兵庫県,神戸市,24,長田区鷹町1丁目1番,「鷹大橋」東詰側の柵,34.6595835,135.1435791,緯度経度は怪しい
兵庫県,神戸市,25,長田区丸山町4丁目1番,「鷹取橋」北側（長田箕谷線側）柵,34.68270040000001,135.137063,緯度経度は怪しい
兵庫県,神戸市,26,長田区花山町2丁目1番,「花山町」バス停（川側）柵,34.6834534,135.1359304,緯度経度は怪しい
兵庫県,神戸市,27,長田区堀切町4番,「堀切」バス停の坂下側の金網,34.6815371,135.1419226,緯度経度は怪しい
兵庫県,神戸市,28,長田区長者町8番,「堀切西」バス停の北側「緑橋」の柵,34.6811474,135.1387072,緯度経度は怪しい
兵庫県,神戸市,29,長田区堀切町10番,「堀切橋」北側（ガソリンスタンドの横）鉄柵,34.6812765,135.1398764,緯度経度は怪しい
兵庫県,神戸市,30,長田区丸山町2丁目3番,「神戸市総合療育センター」東側金網,34.6834539,135.1402418,緯度経度は怪しい
兵庫県,神戸市,31,長田区明泉寺町3丁目9番,「丸山」バス停（南行）後方の柵,34.6825742,135.1420688,緯度経度は怪しい
兵庫県,神戸市,32,長田区明泉寺町3丁目2番,滝見橋西側ガードレール,34.6823138,135.1443343,緯度経度は怪しい
兵庫県,神戸市,33,長田区長田天神町5丁目8番,「サンハイムKOBE」の向側ガードレール,34.6819971,135.1449921,緯度経度は怪しい
兵庫県,神戸市,34,長田区長田天神町4丁目1番,交差点（丁字路）突き当りの金網,34.6825626,135.1478425,緯度経度は怪しい
兵庫県,神戸市,35,長田区長田天神町6丁目5番,「県営長田天神住宅集会所」前方（階段）の塀,34.6839001,135.1450652,緯度経度は怪しい
兵庫県,神戸市,36,長田区長田天神町6丁目5番,電話ボックス横の花壇の柵,34.6839001,135.1450652,緯度経度は怪しい
兵庫県,神戸市,37,長田区長田天神町5丁目1番,「水道局天神中層配水池ポンプ場」東側金網,34.6829897,135.1463807,緯度経度は怪しい
兵庫県,神戸市,38,長田区長田天神町4丁目6番,「関西電力」鉄塔防護柵,34.68350119999999,135.1473309,緯度経度は怪しい
兵庫県,神戸市,39,長田区滝谷町3丁目8番,「滝谷西公園」東側の鉄柵,34.6861526,135.1446998,緯度経度は怪しい
兵庫県,神戸市,40,長田区滝谷町2丁目8番,「市営丸山東住宅2号棟」南側柵,34.6870021,135.1466731,緯度経度は怪しい
兵庫県,神戸市,41,長田区滝谷町3丁目10番,道沿いのガードレール,34.6851789,135.1452844,緯度経度は怪しい
兵庫県,神戸市,42,長田区滝谷町2丁目4番,「関西電力鉄塔防護柵」向側ガードレール,34.6855755,135.1476233,緯度経度は怪しい
兵庫県,神戸市,43,長田区滝谷町1丁目6番,「滝谷南公園」向側ガードレール,34.6852605,135.1491399,緯度経度は怪しい
兵庫県,神戸市,44,長田区長田天神町2丁目1番,「神戸電鉄長田駅」改札口南側の柵,34.6814762,135.1495236,緯度経度は怪しい
兵庫県,神戸市,45,長田区長田天神町2丁目1番,「神戸電鉄長田駅」北側の柵,34.6814762,135.1495236,緯度経度は怪しい
兵庫県,神戸市,46,長田区房王寺町6丁目2番,「ティク長田」前方のガードレール,34.6824077,135.1498891,緯度経度は怪しい
兵庫県,神戸市,47,長田区房王寺町6丁目1番,「房王寺公園」（集会所）南側の柵,34.6814362,135.1501815,緯度経度は怪しい
兵庫県,神戸市,48,長田区長田天神町2丁目10番,南側ガードレール,34.6817097,135.1484638,緯度経度は怪しい
兵庫県,神戸市,49,長田区明泉寺町2丁目1番,「大日寺前」バス停の鉄柵,34.6810655,135.1446267,緯度経度は怪しい
兵庫県,神戸市,50,長田区名倉町1丁目1番,「高田小児科内科医院」の向側柵,34.6767667,135.1455037,緯度経度は怪しい
兵庫県,神戸市,51,長田区名倉町3丁目2番,「名倉町」バス停（東行）後方の柵,34.6788012,135.1464538,緯度経度は怪しい
兵庫県,神戸市,52,長田区名倉町2丁目4番,苅藻川鉄柵（丸山行バス道側）,34.6778438,135.1449921,緯度経度は怪しい
兵庫県,神戸市,53,長田区房王寺町4丁目7番,「名倉小学校」西門横の鉄柵,34.6802771,135.1479887,緯度経度は怪しい
兵庫県,神戸市,54,長田区房王寺町5丁目1番,「市営房王寺保育所」入口横のフェンス,34.6802677,135.1491582,緯度経度は怪しい
兵庫県,神戸市,55,長田区房王寺町5丁目7番,「房王寺町5丁目」バス停（西行）後方のフェンス,34.679634,135.1504738,緯度経度は怪しい
兵庫県,神戸市,56,長田区宮丘町2丁目3番,「ナビパーク長田宮丘町」南側歩道柵,34.6718344,135.1390726,緯度経度は怪しい
兵庫県,神戸市,57,長田区西山町4丁目16番,「長田小学校前」バス停（「長田食堂」前）東側のガードレール,34.6729184,135.1419957,緯度経度は怪しい
兵庫県,神戸市,58,長田区西山町3丁目4番,横断歩道付近の道路柵,34.673735,135.1437497,緯度経度は怪しい
兵庫県,神戸市,59,長田区西山町2丁目4番,「長田小学校」西側金網,34.6723552,135.143165,緯度経度は怪しい
兵庫県,神戸市,60,長田区西山町2丁目4番,「長田小学校」正門横金網,34.6723552,135.143165,緯度経度は怪しい
兵庫県,神戸市,61,長田区西山町3丁目7番,「第3宮川橋」西詰南側柵,34.6742324,135.1442978,緯度経度は怪しい
兵庫県,神戸市,62,長田区宮川町4丁目10番地,「たいこ橋」西詰柵,34.672385,135.1453379,緯度経度は怪しい
兵庫県,神戸市,63,長田区大塚町8丁目2番,「長田8丁目」バス停南側交差点のガードレール,34.6752015,135.1464538,緯度経度は怪しい
兵庫県,神戸市,64,長田区大塚町9丁目2番,南東角のガードレール,34.6760322,135.1464538,緯度経度は怪しい
兵庫県,神戸市,65,長田区長田町2丁目4番,「八雲橋」東側柵,34.6704868,135.1473309,
兵庫県,神戸市,66,長田区片山町3丁目2番,「片山町公園（片山児童館）」東側柵,34.6747647,135.1490851,緯度経度は怪しい
兵庫県,神戸市,67,長田区長田町4丁目1番,「宮川小学校」西門横堺,34.6720451,135.1472578,緯度経度は怪しい
兵庫県,神戸市,68,長田区宮川町9丁目3番,「宮川町9丁目」バス停後方の金網,34.6754245,135.1445536,緯度経度は怪しい
兵庫県,神戸市,69,長田区宮川町5丁目1番,「第1宮川橋」東詰北側の柵,34.67299089999999,135.1458691,緯度経度は怪しい
兵庫県,神戸市,70,長田区房王寺町4丁目1番,「市営房王寺第1住宅2号棟」南側柵,34.6792258,135.1495967,緯度経度は怪しい
兵庫県,神戸市,71,長田区大丸町2丁目3番,「大丸山公園」北東側柵,34.6777989,135.1505469,緯度経度は怪しい
兵庫県,神戸市,72,長田区房王寺町2丁目1番,「夢野台高校グラウンド」南（西角）面の柵,34.6763625,135.1526667,緯度経度は怪しい
兵庫県,神戸市,73,長田区重池町1丁目9番,「重池公園」南端柵,34.6765899,135.1544942,緯度経度は怪しい
兵庫県,神戸市,74,長田区重池町2丁目3番,「重池地域福祉センター」西側柵,34.6776671,135.1539825,緯度経度は怪しい
兵庫県,神戸市,75,長田区房王寺町3丁目3番,「市営房王寺第5住宅11号棟」南側柵,34.6785169,135.1516433,緯度経度は怪しい
兵庫県,神戸市,76,長田区房王寺町3丁目1番,「水道局房王寺倉庫（旧メーター資料事務所）」前金網,34.6793476,135.1516433,緯度経度は怪しい
兵庫県,神戸市,77,長田区七番町7番地,「神港橋高校」正門向側の歩道柵,34.6743051,135.1559335,緯度経度は怪しい
兵庫県,神戸市,78,長田区前原町2丁目2番,「前原公園」南側柵,34.6747762,135.1519357,緯度経度は怪しい
兵庫県,神戸市,79,長田区寺池町2丁目10番,「市営寺池住宅2号棟」東側柵,34.67492650000001,135.1504738,緯度経度は怪しい
兵庫県,神戸市,80,長田区寺池町2丁目4番,「ルーテル神戸教会」西側（南角）金網,34.6736452,135.1505469,緯度経度は怪しい
兵庫県,神戸市,81,長田区大塚町1丁目1番,「長田保育所」北側金網,34.6700475,135.1502545,
兵庫県,神戸市,82,長田区五番町1丁目6番地,「地下鉄上沢駅」西1出口北側（駐輪場）の歩道柵,34.6729297,135.1568231,緯度経度は怪しい
兵庫県,神戸市,83,長田区六番町3丁目1番地,「フレール長田室内」北側の歩道柵,34.6725686,135.1545829,緯度経度は怪しい
兵庫県,神戸市,84,長田区六番町6丁目1番地,「レガーロ長田」向かいのガードレール,34.6701045,135.1515495,緯度経度は怪しい
兵庫県,神戸市,85,長田区四番町8丁目6番地,「高速長田駅」階段前のガードレール,34.667325,135.1508286,緯度経度は怪しい
兵庫県,神戸市,86,長田区六番町4丁目1番地,「市住番町住宅22号棟」西側のフェンス,34.6714118,135.1531501,緯度経度は怪しい
兵庫県,神戸市,87,長田区四番町7丁目27番地,「ワコーレビル」北側(駐輪場)のガードレール,34.668185,135.1515337,緯度経度は怪しい
兵庫県,神戸市,88,長田区五番町4丁目3番地2,「長田ふれあいサロン」北側金網,34.6708313,135.1531628,緯度経度は怪しい
兵庫県,神戸市,89,長田区六番町8丁目2番地,「長田橋」南西側柵,34.6690777,135.1498188,
兵庫県,神戸市,90,長田区五番町4丁目30番地,「市営番町住宅29号棟」東側ガードレール,34.6707311,135.1541711,緯度経度は怪しい
兵庫県,神戸市,91,長田区四番町2丁目1番地1,「関西電力 会陽変電所」北面の鉄柵,34.6719091,135.157156,緯度経度は怪しい
兵庫県,神戸市,92,長田区四番町1丁目5番地,地下鉄上沢駅」西2出口の塀,34.6725963,135.1576982,緯度経度は怪しい
兵庫県,神戸市,93,長田区三番町4丁目1番地,「市営番町住宅23号棟」南側フェンス,34.6689315,135.1545981,緯度経度は怪しい
兵庫県,神戸市,94,長田区三番町1丁目17番地,「二番町公園」南側フェンス,34.670438,135.1574914,緯度経度は怪しい
兵庫県,神戸市,95,長田区三番町2丁目,「希望公園」南側のフェンス,34.6699594,135.1567603,緯度経度は怪しい
兵庫県,神戸市,96,長田区四番町5丁目,「市営番町住宅37号棟」南側空地付近の歩道柵,34.6691527,135.1538363,緯度経度は怪しい
兵庫県,神戸市,97,長田区四番町4丁目51番地,「長田公民館」東側金網,34.6697383,135.1545763,緯度経度は怪しい
兵庫県,神戸市,98,長田区一番町2丁目4番地,「西市民病院前」バス停付近のガードレール,34.6676389,135.1568826,緯度経度は怪しい
兵庫県,神戸市,99,長田区北町1丁目4番地,「ライフ長田店」店舗南側出入口前のガードレール,34.6661469,135.1531777,緯度経度は怪しい
兵庫県,神戸市,100,長田区梅ケ香町1丁目1番,「増田製粉所」南西角のガードレール,34.6638467,135.1590997,緯度経度は怪しい
兵庫県,神戸市,101,長田区梅ケ香町1丁目12番,「梅ケ香町」バス停横のガードレール,34.6623757,135.1569797,緯度経度は怪しい
兵庫県,神戸市,102,長田区二番町3丁目1番地,「市営二番町住宅」南側のガードレール,34.6675677,135.1554141,緯度経度は怪しい
兵庫県,神戸市,103,長田区一番町4丁目1番,「御蔵小学校」南角金網,34.6658066,135.1548242,緯度経度は怪しい
兵庫県,神戸市,104,長田区一番町3丁目1番,「市営一番町住宅1号棟」南側金網,34.6667517,135.1558488,緯度経度は怪しい
兵庫県,神戸市,105,長田区苅藻通6丁目7番,「苅藻小公園」北側柵,34.6543002,135.1559197,緯度経度は怪しい
兵庫県,神戸市,106,長田区東尻池町6丁目3番,「南尻池公園」東側柵,34.6567304,135.157199,緯度経度は怪しい
兵庫県,神戸市,107,長田区苅藻通5丁目5番,「苅藻公園」西側柵,34.6549193,135.154348,緯度経度は怪しい
兵庫県,神戸市,108,長田区苅藻通6丁目3番,「フィッシングヒカリ」南西角の柵,34.65345900000001,135.155079,緯度経度は怪しい
兵庫県,神戸市,109,長田区浜添通5丁目2番,「地下鉄苅藻駅」出入口前のガードレール,34.6541014,135.1569065,緯度経度は怪しい
兵庫県,神戸市,110,長田区苅藻通3丁目4番,「真野小学校」北側金網,34.657168,135.1545673,緯度経度は怪しい
兵庫県,神戸市,111,長田区苅藻通3丁目4番,「真野小学校」正門横金網,34.657168,135.1545673,緯度経度は怪しい
兵庫県,神戸市,112,長田区真野町9番,「志里池公園」西側柵,34.6605112,135.1522281,緯度経度は怪しい
兵庫県,神戸市,113,長田区真野町9番,「環境局長田事業所」北側柵,34.6605112,135.1522281,緯度経度は怪しい
兵庫県,神戸市,114,長田区東尻池町1丁目13番,「長田中学校グラウンド」北西角の金網,34.6617405,135.1542749,緯度経度は怪しい
兵庫県,神戸市,115,長田区東尻池町1丁目13番,「長田中学校グラウンド」南東角の金網,34.6617405,135.1542749,緯度経度は怪しい
兵庫県,神戸市,116,長田区西尻池町2丁目2番,「新湊川公園」南側の市道の柵,34.658406,135.1514241,緯度経度は怪しい
兵庫県,神戸市,117,長田区西尻池町1丁目2番,「新湊川公園」北側の市道の柵,34.6598309,135.1507662,緯度経度は怪しい
兵庫県,神戸市,118,長田区東尻池町2丁目11番1号,「宝満寺」東側歩道柵,34.6601083,135.1546754,緯度経度は怪しい
兵庫県,神戸市,119,長田区北町3丁目4番地,「市営長田北住宅」南東角の金網,34.6660215,135.150685,緯度経度は怪しい
兵庫県,神戸市,120,長田区御蔵通6丁目45番地,「御蔵南公園」南西側金網,34.6641068,135.1528129,緯度経度は怪しい
兵庫県,神戸市,121,長田区大道通4丁目2番地,「兵庫スバル長田」北側の歩道柵,34.6637674,135.1472505,緯度経度は怪しい
兵庫県,神戸市,122,長田区細田町7丁目1番,「新長田図書館」北側横断歩道付近のガードレール,34.6594663,135.1446267,緯度経度は怪しい
兵庫県,神戸市,123,長田区神楽町2丁目2番,「神楽こども園」南側金網,34.66067150000001,135.1495967,緯度経度は怪しい
兵庫県,神戸市,124,長田区神楽町1丁目3番,「長田南小学校」北側フェンス,34.6617745,135.1501815,緯度経度は怪しい
兵庫県,神戸市,125,長田区川西通5丁目,「川西通公園」南側柵,34.6620099,135.1468193,緯度経度は怪しい
兵庫県,神戸市,126,長田区大道通1丁目1番地,「フレール長田」南側（バス停付近）の歩道柵,34.6649452,135.14976,緯度経度は怪しい
兵庫県,神戸市,127,長田区大道通1丁目1番地,「新湊川公園」南端の歩道柵,34.6649452,135.14976,緯度経度は怪しい
兵庫県,神戸市,128,長田区大道通3丁目14番地,「大道通3丁目」バス停（東行）歩道柵,34.6647041,135.1475502,緯度経度は怪しい
兵庫県,神戸市,129,長田区蓮池町,「西代蓮池公園」北東端（横断歩道付近）柵,34.66396290000001,135.1450652,緯度経度は怪しい
兵庫県,神戸市,130,長田区池田上町38番地,「観音山公園」南角側ガードレール,34.666501,135.1434904,緯度経度は怪しい
兵庫県,神戸市,131,長田区蓮宮通1丁目26番地,「新湊川公園」北側の柵,34.6678817,135.1484272,
兵庫県,神戸市,132,長田区蓮池町,「西代蓮池公園」北西の歩道柵,34.66396290000001,135.1450652,緯度経度は怪しい
兵庫県,神戸市,133,長田区池田上町19番地,「池田小学校」東側水路沿いの柵,34.667033,135.1421419,緯度経度は怪しい
兵庫県,神戸市,134,長田区池田経町,「観音山公園」入口柵（常盤女子高との境付近）,34.6684033,135.1438958,緯度経度は怪しい
兵庫県,神戸市,135,長田区池田谷町2丁目5番,「長田高校」北西側ガードレール,34.6704214,135.1427002,緯度経度は怪しい
兵庫県,神戸市,136,長田区池田広町41番地,「池田広町公園」西側入口横の柵,34.6701189,135.1452205,緯度経度は怪しい
兵庫県,神戸市,137,長田区池田広町2番地,「みすまる保育園」駐車場金網（出入口南側）,34.6681784,135.1472921,緯度経度は怪しい
兵庫県,神戸市,138,長田区池田谷町2丁目5番,「長田高校（青雲高校）」北東角金網,34.6704214,135.1427002,緯度経度は怪しい
兵庫県,神戸市,139,長田区池田上町45番地,「観音山公園」西角向かいの金網（電話ボックス横）,34.6664276,135.1443969,緯度経度は怪しい
兵庫県,神戸市,140,長田区上池田3丁目9番,「上池田小公園」東側の柵,34.6696192,135.1390726,緯度経度は怪しい
兵庫県,神戸市,141,長田区上池田3丁目17番,「スーパーマルハチ」前ガードレール,34.6703185,135.1381957,緯度経度は怪しい
兵庫県,神戸市,142,長田区上池田2丁目4番,「西代中学校」正門横金網,34.6681596,135.1398033,緯度経度は怪しい
兵庫県,神戸市,143,長田区上池田2丁目6番,クリーンステーション北側のガードレール,34.6681034,135.1381957,緯度経度は怪しい
兵庫県,神戸市,144,長田区池田谷町2丁目5番,「長田高校」南西角側のフェンス（南面）,34.6704214,135.1427002,緯度経度は怪しい
兵庫県,神戸市,145,長田区上池田3丁目17番,「惣町小公園」柵,34.6703185,135.1381957,緯度経度は怪しい
兵庫県,神戸市,146,長田区上池田3丁目7番,「市営上池田住宅」西側（クリーンステーション横）のフェンス,34.6688027,135.1373188,緯度経度は怪しい
兵庫県,神戸市,147,長田区高取山町1丁目3番,「鷹取団地バス停（東行）」歩道柵,34.6692298,135.1358573,緯度経度は怪しい
兵庫県,神戸市,148,長田区高取山町1丁目2番,「市営高取山住宅」駐輪場出入口前のガードレール,34.6700558,135.1364419,緯度経度は怪しい
兵庫県,神戸市,149,長田区平和台町2丁目1番,「平和台町2丁目交差点（セブンイレブン前）」歩道ガードレール,34.6663342,135.1343959,緯度経度は怪しい
兵庫県,神戸市,150,長田区高取山町2丁目17番,「育英高校青雲寮」西側金網,34.6714237,135.1341767,緯度経度は怪しい
兵庫県,神戸市,151,長田区長尾町2丁目1番,「育英高校グラウンド」西出入口そばのフェンス,34.6684085,135.1346882,緯度経度は怪しい
兵庫県,神戸市,152,長田区長尾町2丁目1番,「育英高校」正門横の金網,34.6684085,135.1346882,緯度経度は怪しい
兵庫県,神戸市,153,長田区長尾町1丁目8番,「長尾町中公園」入口付近の柵,34.6681879,135.1362958,緯度経度は怪しい
兵庫県,神戸市,154,長田区五位ノ池町2丁目3番,「五位の池小学校」北東角金網,34.6659023,135.1364419,緯度経度は怪しい
兵庫県,神戸市,155,長田区五位ノ池町2丁目1番,「市営五位ノ池住宅2号棟」南東角,34.6648557,135.1374649,緯度経度は怪しい
兵庫県,神戸市,156,長田区平和台町1丁目4番,「三菱電機人材開発センター」西側歩道ガードレール,34.6654941,135.1355651,緯度経度は怪しい
兵庫県,神戸市,157,長田区庄山町2丁目1番,「市営庄山住宅」前　鉄柵,34.6624434,135.1361496,緯度経度は怪しい
兵庫県,神戸市,158,長田区五位ノ池町2丁目1番,「五位の池こども園」南側金網,34.6648557,135.1374649,緯度経度は怪しい
兵庫県,神戸市,159,長田区五位ノ池町3丁目14番,「五位の池」バス停後方の鉄柵,34.663923,135.1350901,緯度経度は怪しい
兵庫県,神戸市,160,長田区五位ノ池町2丁目3番,「五位の池小学校」北西角のフェンス,34.6659023,135.1364419,緯度経度は怪しい
兵庫県,神戸市,161,長田区御屋敷通3丁目1番,「サンタウン西代」北側（広くなっているところ）のガードレール,34.6606589,135.1427265,緯度経度は怪しい
兵庫県,神戸市,162,長田区水笠通2丁目6番,「水笠通公園」北西側ガードレール,34.6602715,135.1435304,緯度経度は怪しい
兵庫県,神戸市,163,長田区蓮池町1番,「西代」バス停の歩道柵（池田南部公会堂前）,34.664479,135.1459972,緯度経度は怪しい
兵庫県,神戸市,164,長田区大谷町1丁目6番,「西岸寺」前のガードレール,34.6630857,135.142288,緯度経度は怪しい
兵庫県,神戸市,165,長田区大谷町1丁目1番,「蓮池小学校」西門付近(南西角寄り)の金網,34.6625927,135.1433112,緯度経度は怪しい
兵庫県,神戸市,166,長田区御屋敷通2丁目6番,「山陽電鉄西代駅」南東出口付近の鉄柵,34.6620692,135.1438228,緯度経度は怪しい
兵庫県,神戸市,167,長田区山下町4丁目4番,「山下町4丁目」バス停の歩道柵,34.6618425,135.1376841,緯度経度は怪しい
兵庫県,神戸市,168,長田区水笠通6丁目3番,「市営水笠西住宅」南西角金網,34.6576014,135.1398764,緯度経度は怪しい
兵庫県,神戸市,169,長田区水笠通5丁目7番,「水笠通西公園」北西角柵,34.6585659,135.140461,緯度経度は怪しい
兵庫県,神戸市,170,長田区戸崎通3丁目1番,「戸崎通公園」東側柵,34.6600729,135.1381957,緯度経度は怪しい
兵庫県,神戸市,171,長田区西代通1丁目2番,空地(駐車場)前のガードレール,34.6607742,135.141338,緯度経度は怪しい
兵庫県,神戸市,172,長田区神楽町6丁目1番,「JR新長田駅」北側歩道(駐輪場管理事務所前)ガードレール,34.658208,135.1460884,緯度経度は怪しい
兵庫県,神戸市,173,長田区松野通1丁目1番,「JR新長田駅」北側歩道西詰ガードレール,34.657494,135.14499,緯度経度は怪しい
兵庫県,神戸市,174,長田区松野通4丁目2番,「市営松野住宅」西側柵,34.656444,135.1417034,緯度経度は怪しい
兵庫県,神戸市,175,長田区若松町7丁目1番,「駒ヶ林中学校」北側金網,34.6550448,135.1434573,緯度経度は怪しい
兵庫県,神戸市,176,長田区若松町5丁目5番,「新長田駅前」バス停(地下鉄西出口)付近の道路柵,34.6564199,135.1446267,緯度経度は怪しい
兵庫県,神戸市,177,長田区大橋町3丁目1番,「新長田公園」西側フェンス,34.6566726,135.1475502,緯度経度は怪しい
兵庫県,神戸市,178,長田区日吉町4丁目7番,「NA日吉パーキング」前のガードレール,34.6544142,135.1401687,緯度経度は怪しい
兵庫県,神戸市,179,長田区若松町8丁目2番,「市営若松住宅」南面の柵,34.6542612,135.1419226,緯度経度は怪しい
兵庫県,神戸市,180,長田区日吉町3丁目1番,日吉2・3丁目境ガードレール(JR線のアンダーパス付近),34.6551297,135.1415572,緯度経度は怪しい
兵庫県,神戸市,181,長田区若松町6丁目2番,「若松公園グラウンド」南西側金網,34.6551408,135.1444074,緯度経度は怪しい
兵庫県,神戸市,182,長田区二葉町1丁目5番,「真陽小学校」正門横の金網,34.6553945,135.151351,緯度経度は怪しい
兵庫県,神戸市,183,長田区西尻池町4丁目2番,「市営真陽第三住宅」西側の柵,34.6565352,135.1515703,緯度経度は怪しい
兵庫県,神戸市,184,長田区腕塚町2丁目1番,「長田在宅福祉センター(腕塚住宅)」東側室外機の金網,34.656381,135.1493043,緯度経度は怪しい
兵庫県,神戸市,185,長田区駒栄町3丁目1番,セレパーク駒栄町駐車場前,34.6526247,135.151351,緯度経度は怪しい
兵庫県,神戸市,186,長田区駒栄町3丁目1番,「駒栄保育所」西側のガードレール,34.6526247,135.151351,緯度経度は怪しい
兵庫県,神戸市,187,長田区西尻池町3丁目1番,「新湊川公園」北側市道の柵,34.6574694,135.1516433,緯度経度は怪しい
兵庫県,神戸市,188,長田区西尻池町5丁目3番,「市営真陽第二住宅」南側柵,34.6559387,135.1525205,緯度経度は怪しい
兵庫県,神戸市,189,長田区二葉町7丁目1番,「ふたば学舎(地域人材支援センター)」北門横の金網,34.6517674,135.1462346,緯度経度は怪しい
兵庫県,神戸市,190,長田区二葉町6丁目5番,「久二塚公園(アスタ6番館)」西側金網,34.6521051,135.1472578,緯度経度は怪しい
兵庫県,神戸市,191,長田区二葉町6丁目7番,二葉地域福祉センター前スロープの手すり,34.6526967,135.1468924,緯度経度は怪しい
兵庫県,神戸市,192,長田区腕塚町8丁目1番,大橋西歩道橋下,34.6529275,135.1441151,緯度経度は怪しい
兵庫県,神戸市,193,長田区腕塚町5丁目5番,アスタ新長田歩道橋下,34.654444,135.1459789,緯度経度は怪しい
兵庫県,神戸市,194,長田区腕塚町5丁目5番,「大正筋」入口付近金属柵,34.654444,135.1459789,緯度経度は怪しい
兵庫県,神戸市,195,長田区二葉町7丁目1番,「二葉公園」西側柵,34.6517674,135.1462346,緯度経度は怪しい
兵庫県,神戸市,196,長田区南駒栄町1番,「駒ヶ林公園」北側柵,34.649247,135.1534651,緯度経度は怪しい
兵庫県,神戸市,197,長田区南駒栄町1番,「地下鉄駒ヶ林駅」北西駐輪場柵(歩道側),34.649247,135.1534651,緯度経度は怪しい
兵庫県,神戸市,198,長田区駒ヶ林町3丁目9番,駒ヶ林歩道橋付近,34.649922,135.1474771,緯度経度は怪しい
兵庫県,神戸市,199,長田区南駒栄町1番,「アグロガーデン」西側歩道ガードレール,34.649247,135.1534651,緯度経度は怪しい
兵庫県,神戸市,200,長田区駒ヶ林町5丁目1番,交差点東側のガードレール,34.6479553,135.1466731,緯度経度は怪しい
兵庫県,神戸市,201,長田区駒ヶ林町1丁目9番,「アネックス駒ヶ林」東側歩道ガードレール,34.6508366,135.1498891,緯度経度は怪しい
兵庫県,神戸市,202,長田区駒ヶ林町5丁目13番,駒ヶ林町西バス停東側ガードレール,34.648937,135.1452114,緯度経度は怪しい
兵庫県,神戸市,203,長田区本庄町2丁目1番,「大国公園」東側柵,34.6517345,135.1376841,緯度経度は怪しい
兵庫県,神戸市,204,長田区本庄町2丁目1番,「大国公園」西側柵,34.6517345,135.1376841,緯度経度は怪しい
兵庫県,神戸市,205,長田区若松町11丁目1番,「若松鷹取公園」歩道柵,34.6523043,135.1399495,緯度経度は怪しい
兵庫県,神戸市,206,長田区浪松町2丁目1番,「JR鷹取駅前駐輪場」東側ガードレール,34.6507845,135.1353458,緯度経度は怪しい
兵庫県,神戸市,207,長田区若松町10丁目6番,「中華飯店若松」東側ガードレール,34.653304,135.140461,緯度経度は怪しい
兵庫県,神戸市,208,長田区日吉町5丁目1番,「シャトーレスポワール」北向側（線路下）の柵,34.6538628,135.1397681,緯度経度は怪しい
兵庫県,神戸市,209,長田区長楽町2丁目4番,「JR鷹取駅前自転車置場」東側ガードレール,34.6516809,135.1357843,緯度経度は怪しい
兵庫県,神戸市,210,長田区野田町6丁目1番,「駒ヶ林小学校」フェンスの北西角,34.6501445,135.1415572,緯度経度は怪しい
兵庫県,神戸市,211,長田区野田町6丁目1番,「駒ヶ林小学校グラウンド」フェンスの北角,34.6501445,135.1415572,緯度経度は怪しい
兵庫県,神戸市,212,長田区海運町8丁目2番,市道「高松線」沿いガードレール,34.6474356,135.1425804,緯度経度は怪しい
兵庫県,神戸市,213,長田区海運町7丁目4番,「県立総合衛生学院」西側柵,34.6487294,135.1410457,緯度経度は怪しい
兵庫県,神戸市,214,長田区長楽町5丁目4番,「グレイスハイツ西神戸」東側歩道柵,34.6485635,135.1380861,緯度経度は怪しい
兵庫県,神戸市,215,長田区二葉町10丁目4番,横断歩道付近のガードレール,34.6500972,135.1430919,緯度経度は怪しい
兵庫県,神戸市,216,長田区野田町7丁目3番,「ペルソネ野田」西側ガードレール,34.6488557,135.1425073,緯度経度は怪しい
兵庫県,神戸市,3,須磨区行幸町3丁目4番18号,西須磨小学校西鉄柵,34.6461108,135.1209556,緯度経度は怪しい
兵庫県,神戸市,4,須磨区稲葉町1丁目9番,月見山本町2丁目交差点ガードレール,34.6501801,135.1288431,緯度経度は怪しい
兵庫県,神戸市,5,須磨区行幸町1丁目4番14号,天神橋東詰交差点北側ガードレール,34.64440039999999,135.1223617,緯度経度は怪しい
兵庫県,神戸市,6,須磨区天神町3丁目4番,都市局管理地,34.6472149,135.118908,緯度経度は怪しい
兵庫県,神戸市,7,須磨区天神町5丁目2番,旧須磨警察署跡南金網,34.6472571,135.1179585,緯度経度は怪しい
兵庫県,神戸市,8,須磨区天神町4丁目4番,都市局管理地,34.6463936,135.1177393,緯度経度は怪しい
兵庫県,神戸市,9,須磨区行幸町1丁目1番39号,料亭鳥光東ガードレール,34.6449047,135.1256637,緯度経度は怪しい
兵庫県,神戸市,10,須磨区千守町1丁目2番1号,マリスト国際学校西鉄柵,34.644953,135.1136622,緯度経度は怪しい
兵庫県,神戸市,11,須磨区須磨本町2丁目3番,千守交差点北東鉄柵,34.6438148,135.1156212,緯度経度は怪しい
兵庫県,神戸市,12,須磨区一ノ谷町5丁目2番,須磨浦公園東植込,34.6405416,135.1051778,緯度経度は怪しい
兵庫県,神戸市,13,須磨区一ノ谷町5丁目3番,須磨浦公園南西植込,34.6398337,135.1038471,緯度経度は怪しい
兵庫県,神戸市,14,須磨区一ノ谷町1丁目1番,須磨一ノ谷グリーンハイツA棟東金網,34.64434749999999,135.1053238,緯度経度は怪しい
兵庫県,神戸市,15,須磨区一ノ谷町1丁目1番,G棟北金網(旗振公園東側),34.64434749999999,135.1053238,緯度経度は怪しい
兵庫県,神戸市,16,須磨区一ノ谷町1丁目1番,北一の谷公園鉄柵,34.64434749999999,135.1053238,緯度経度は怪しい
兵庫県,神戸市,17,須磨区千守町2丁目1番6号,須磨浦幼稚園前金網,34.6452123,135.1129371,緯度経度は怪しい
兵庫県,神戸市,18,須磨区高倉町1丁目1番,高倉川橋鉄柵,34.6474566,135.1103627,緯度経度は怪しい
兵庫県,神戸市,19,須磨区高倉町2丁目1番,高倉町西小公園鉄柵,34.6465531,135.1064922,緯度経度は怪しい
兵庫県,神戸市,20,須磨区潮見台町2丁目2番,潮見台南公園金網,34.6437657,135.108829,緯度経度は怪しい
兵庫県,神戸市,21,須磨区須磨寺町2丁目3番14号,須磨寺自治会館鉄柵,34.64752,135.1153763,緯度経度は怪しい
兵庫県,神戸市,22,須磨区須磨寺町1丁目1番,千森筋現光寺前ガードレール,34.6461611,135.1161989,緯度経度は怪しい
兵庫県,神戸市,23,須磨区須磨町4丁目3番,須磨寺待機宿舎南鉄柵,34.6677152,135.1085369,緯度経度は怪しい
兵庫県,神戸市,24,須磨区桜木町2丁目2番1号,西須磨幼稚園前鉄柵,34.6479617,135.1167322,緯度経度は怪しい
兵庫県,神戸市,25,須磨区桜木町2丁目1番,西須磨幼稚園東金網横鉄柵,34.6484023,135.1175932,緯度経度は怪しい
兵庫県,神戸市,26,須磨区桜木町3丁目2番1号,桜木町駐車場金網(都市局管理地),34.6499209,135.116208,緯度経度は怪しい
兵庫県,神戸市,27,須磨区離宮西町2丁目5番,市バス離宮公園前バス停北東ガードレール,34.6515419,135.1145256,緯度経度は怪しい
兵庫県,神戸市,28,須磨区高倉台1丁目8番1号,市バス高倉中学校前バス停鉄柵,34.6534606,135.1082448,緯度経度は怪しい
兵庫県,神戸市,29,須磨区高倉台1丁目9番18号,市バス高倉台1丁目バス停鉄柵,34.6527791,135.1056387,緯度経度は怪しい
兵庫県,神戸市,30,須磨区高倉台4丁目1番1号,高倉台小学校北西鉄柵,34.6556924,135.1036124,緯度経度は怪しい
兵庫県,神戸市,31,須磨区高倉台4丁目1番1号,高倉台小学校北西鉄柵,34.6556924,135.1036124,緯度経度は怪しい
兵庫県,神戸市,32,須磨区高倉台4丁目1番1号,高倉台小学校北西鉄柵,34.6556924,135.1036124,緯度経度は怪しい
兵庫県,神戸市,33,須磨区高倉台4丁目1番1号,高倉台小学校北西鉄柵,34.6556924,135.1036124,緯度経度は怪しい
兵庫県,神戸市,34,須磨区高倉台4丁目1番1号,高倉台小学校北西鉄柵,34.6556924,135.1036124,緯度経度は怪しい
兵庫県,神戸市,35,須磨区高倉台4丁目1番1号,高倉台小学校北西鉄柵,34.6556924,135.1036124,緯度経度は怪しい
兵庫県,神戸市,36,須磨区高倉台7丁目3番30号,市バス高倉台8丁目バス停横鉄柵,34.6543411,135.1002399,緯度経度は怪しい
兵庫県,神戸市,37,須磨区高倉台7丁目21番,高倉台ファミリーファーム南鉄柵,34.6574185,135.0977301,緯度経度は怪しい
兵庫県,神戸市,38,須磨区高倉台6丁目11番,高倉台北公園北鉄柵,34.6592542,135.1019649,緯度経度は怪しい
兵庫県,神戸市,39,須磨区高倉台4丁目2番,高倉台センター第2駐車場前金網,34.6570142,135.103589,緯度経度は怪しい
兵庫県,神戸市,40,須磨区高倉台1丁目1番8号,市バス高倉台南口北東側バス停鉄柵,34.6556717,135.1098346,緯度経度は怪しい
兵庫県,神戸市,41,須磨区高倉台5丁目,市バス高倉台5丁目バス停鉄柵,34.658612,135.1044476,緯度経度は怪しい
兵庫県,神戸市,42,須磨区多井畑字東所30番,多井畑自治会館南金網,34.6605702,135.0932235,緯度経度は怪しい
兵庫県,神戸市,43,須磨区多井畑字筋替道,多井畑厄八幡宮前交差点南西鉄柵,34.6605607,135.0940797,緯度経度は怪しい
兵庫県,神戸市,44,須磨区多井畑字柳ヶ谷1番地,奥須磨公園駐車場前鉄柵,34.6607312,135.0988983,緯度経度は怪しい
兵庫県,神戸市,45,須磨区多井畑字若林1番地,奥須磨公園南東入口鉄柵,34.66134160000001,135.1005046,緯度経度は怪しい
兵庫県,神戸市,46,須磨区多井畑南町20番地,多井畑南町バス停向かいガードレール,34.6567514,135.0945178,緯度経度は怪しい
兵庫県,神戸市,47,須磨区多井畑南町20番地,多井畑南公園東道路ガードレール,34.6567514,135.0945178,緯度経度は怪しい
兵庫県,神戸市,48,須磨区多井畑南町12番地,笹の尾公園南側ガードレール,34.6567514,135.0945178,緯度経度は怪しい
兵庫県,神戸市,49,須磨区多井畑東町9番地,多井畑東町集会所南鉄柵,34.6652916,135.0997745,緯度経度は怪しい
兵庫県,神戸市,50,須磨区多井畑東町5番地,野土池公園植込,34.6652916,135.0997745,緯度経度は怪しい
兵庫県,神戸市,51,須磨区多井畑東町10番地,多井畑東公園東側鉄柵,34.6652916,135.0997745,緯度経度は怪しい
兵庫県,神戸市,52,須磨区中島町1丁目1番1号,須磨消防署玄関北鉄柵,34.6503767,135.1301852,緯度経度は怪しい
兵庫県,神戸市,53,須磨区中島町1丁目2番1号,須磨区文化センター前鉄柵,34.6513487,135.1298659,緯度経度は怪しい
兵庫県,神戸市,54,須磨区中島町1丁目2番,中島橋北鉄柵,34.6513487,135.1298659,緯度経度は怪しい
兵庫県,神戸市,55,須磨区中島町1丁目1番2号,下中島公園北鉄柵,34.6503066,135.1303043,緯度経度は怪しい
兵庫県,神戸市,56,須磨区中島町1丁目1番2号,下中島公園西側ガードレール,34.6503066,135.1303043,緯度経度は怪しい
兵庫県,神戸市,57,須磨区稲葉町1丁目1番,天井川公園南鉄柵,34.6501801,135.1288431,緯度経度は怪しい
兵庫県,神戸市,58,須磨区松風町3丁目2番,市営松風住宅北鉄柵,34.649022,135.127669,緯度経度は怪しい
兵庫県,神戸市,59,須磨区松風町4丁目2番26号,老人ホームあいハート須磨東鉄柵,34.6481877,135.1267728,緯度経度は怪しい
兵庫県,神戸市,60,須磨区松風町5丁目43番,JR須磨海浜公園駅北側ロータリー鉄柵,34.6471578,135.1259208,緯度経度は怪しい
兵庫県,神戸市,61,須磨区松風町5丁目2番,南須磨地域福祉センター西鉄柵,34.647017,135.126213,緯度経度は怪しい
兵庫県,神戸市,62,須磨区稲葉町6丁目1番,市バス稲葉町バス停北鉄柵,34.647273,135.1245327,緯度経度は怪しい
兵庫県,神戸市,63,須磨区若宮町2丁目1番1号,若宮小学校北鉄柵,34.6460726,135.1316194,緯度経度は怪しい
兵庫県,神戸市,64,須磨区若宮町2丁目1番1号,若宮小学校東鉄柵,34.6460726,135.1316194,緯度経度は怪しい
兵庫県,神戸市,65,須磨区若宮町2丁目1番1号,若宮幼稚園西鉄柵,34.6460726,135.1316194,緯度経度は怪しい
兵庫県,神戸市,66,須磨区若宮町2丁目1番1号,若宮小学校南鉄柵,34.6460726,135.1316194,緯度経度は怪しい
兵庫県,神戸市,67,須磨区磯鷲町4丁目2番6号,須磨年金事務所南西鉄柵,34.649695,135.1373188,緯度経度は怪しい
兵庫県,神戸市,68,須磨区村雨町3丁目1番,松風第2住宅3号棟前道路南植込,34.6474484,135.1284778,緯度経度は怪しい
兵庫県,神戸市,69,須磨区磯鷲町1丁目1番,衣掛公園北鉄柵,34.6595835,135.1435791,緯度経度は怪しい
兵庫県,神戸市,70,須磨区行平町3丁目1番1号,県工業技術センター南鉄柵,34.64890760000001,135.1320578,緯度経度は怪しい
兵庫県,神戸市,71,須磨区行平町3丁目1番1号,県工業技術センター東北鉄柵,34.64890760000001,135.1320578,緯度経度は怪しい
兵庫県,神戸市,72,須磨区行平町2丁目2番,鷹取公園南鉄柵,34.6492101,135.1331538,緯度経度は怪しい
兵庫県,神戸市,73,須磨区青葉町2丁目2番,市営南須磨住宅鉄柵,34.6486162,135.1338114,緯度経度は怪しい
兵庫県,神戸市,74,須磨区小寺町2丁目5番,市環境局須磨事業所北鉄柵,34.6462452,135.1358573,緯度経度は怪しい
兵庫県,神戸市,75,須磨区小寺町2丁目5番,市環境局須磨事業所西鉄柵,34.6462452,135.1358573,緯度経度は怪しい
兵庫県,神戸市,76,須磨区小寺町3丁目1番,市営須磨小寺南東金網,34.6458674,135.135492,緯度経度は怪しい
兵庫県,神戸市,77,須磨区外浜町3丁目2番,市営須磨外浜住宅北金網,34.64362140000001,135.1349805,緯度経度は怪しい
兵庫県,神戸市,78,須磨区大池町5丁目15番,だいち小学校東金網,34.6540797,135.1345421,緯度経度は怪しい
兵庫県,神戸市,79,須磨区大池町5丁目15番,だいち小学校西金網,34.6540797,135.1345421,緯度経度は怪しい
兵庫県,神戸市,80,須磨区大池町5丁目3番,市営須磨大池住宅2号棟北（バス停）鉄柵,34.6553987,135.1341037,緯度経度は怪しい
兵庫県,神戸市,81,須磨区大池町5丁目5番,フレール須磨たかとり東鉄柵,34.6545727,135.1335191,緯度経度は怪しい
兵庫県,神戸市,82,須磨区大池町5丁目7番,鷹取駅北公園南鉄柵,34.6545911,135.135492,緯度経度は怪しい
兵庫県,神戸市,83,須磨区大池町4丁目1番,市営新大池東住宅北東（バス停）鉄柵,34.6558563,135.1362441,緯度経度は怪しい
兵庫県,神戸市,84,須磨区千歳町2丁目1番,千歳公園（千歳小学校跡）東鉄柵,34.6562015,135.1396206,緯度経度は怪しい
兵庫県,神戸市,85,須磨区千歳町2丁目2番,千歳公園（千歳小学校跡）南鉄柵,34.6560503,135.1390726,緯度経度は怪しい
兵庫県,神戸市,86,須磨区常盤町2丁目4番,常盤モータープール西鉄柵,34.6551114,135.1395841,緯度経度は怪しい
兵庫県,神戸市,87,須磨区常盤町3丁目4番,JR神戸線高架北西鉄柵,34.6549097,135.1388533,緯度経度は怪しい
兵庫県,神戸市,88,須磨区大池町5丁目1番,妙法寺川左岸公園西側ガードレール,34.6506348,135.1324962,緯度経度は怪しい
兵庫県,神戸市,89,須磨区戎町3丁目5番,地下鉄板宿駅南4号出口前鉄柵,34.6588178,135.1350536,緯度経度は怪しい
兵庫県,神戸市,90,須磨区平田町3丁目2番,平田幼稚園南金網,34.6603575,135.1343366,緯度経度は怪しい
兵庫県,神戸市,91,須磨区平田町4丁目1番,平田公園南西鉄柵,34.659285,135.1329346,緯度経度は怪しい
兵庫県,神戸市,92,須磨区大黒町5丁目4番1号,大黒橋南西鉄柵,34.6582954,135.1320355,緯度経度は怪しい
兵庫県,神戸市,93,須磨区大黒町4丁目1番,須磨区役所東側植込み,34.6587264,135.1335191,緯度経度は怪しい
兵庫県,神戸市,94,須磨区大黒町5丁目1番,区役所公用車駐車場東金網,34.657694,135.1327885,緯度経度は怪しい
兵庫県,神戸市,95,須磨区大黒町5丁目1番,太田中学校北西向妙法寺川鉄柵,34.657694,135.1327885,緯度経度は怪しい
兵庫県,神戸市,96,須磨区戎町6丁目2番,二の井橋南妙法寺川公園鉄柵,34.6559763,135.131181,緯度経度は怪しい
兵庫県,神戸市,97,須磨区大田町8丁目3番,竹の花橋南妙法寺川公園鉄柵,34.6544604,135.1303043,緯度経度は怪しい
兵庫県,神戸市,98,須磨区大田町5丁目2番,市営大田第2住宅1号棟南鉄柵,34.6559901,135.1337383,緯度経度は怪しい
兵庫県,神戸市,99,須磨区大黒町4丁目1番,須磨保育園南金網,34.6587264,135.1335191,緯度経度は怪しい
兵庫県,神戸市,100,須磨区戸政町1丁目4番,三の井橋北西妙法寺川公園鉄柵,34.6537353,135.1300851,緯度経度は怪しい
兵庫県,神戸市,101,須磨区戸政町1丁目4番,須磨消防団第二分団東向妙法寺川公園鉄柵,34.6537353,135.1300851,緯度経度は怪しい
兵庫県,神戸市,102,須磨区東町1丁目7番,竹の花橋北西妙法寺川公園鉄柵,34.655432,135.130012,緯度経度は怪しい
兵庫県,神戸市,103,須磨区権現町2丁目1番,二の井橋北西妙法寺川公園鉄柵,34.6559811,135.1305965,緯度経度は怪しい
兵庫県,神戸市,104,須磨区堀池町1丁目2番1号,東須磨小学校西ガードレール,34.6551664,135.1275463,緯度経度は怪しい
兵庫県,神戸市,105,須磨区堀池町1丁目2番1号,東須磨児童公園鉄柵,34.6551664,135.1275463,緯度経度は怪しい
兵庫県,神戸市,106,須磨区若木町1丁目1番,山陽電鉄東須磨駅北側地下道鉄柵,34.6553477,135.1276011,緯度経度は怪しい
兵庫県,神戸市,107,須磨区若木町2丁目1番,山陽電鉄東須磨検車区北東金網,34.6531186,135.1250441,緯度経度は怪しい
兵庫県,神戸市,108,須磨区若木町2丁目3番30号,若木町公園鉄柵,34.6530482,135.1241127,緯度経度は怪しい
兵庫県,神戸市,109,須磨区若木町2丁目4番,masked,34.6534097,135.1232909,緯度経度は怪しい
兵庫県,神戸市,110,須磨区若木町2丁目10番5号,若木交番東鉄柵,34.6544603,135.1238659,緯度経度は怪しい
兵庫県,神戸市,111,須磨区堀池町1丁目2番1号,東須磨公園南側鉄柵,34.6551664,135.1275463,緯度経度は怪しい
兵庫県,神戸市,112,須磨区月見山町3丁目5番,六甲砂防事務所西公園金網,34.65201589999999,135.1201498,緯度経度は怪しい
兵庫県,神戸市,113,須磨区月見山町3丁目5番3号,阪神高速道路月見山ランプ入口前交差点南西鉄柵,34.6520387,135.1205591,緯度経度は怪しい
兵庫県,神戸市,114,須磨区月見山町3丁目1番,市バス離宮植物園前バス停鉄柵,34.65200650000001,135.1213185,緯度経度は怪しい
兵庫県,神戸市,115,須磨区水野町水野橋,市バス水野橋バス停北鉄柵,34.6542554,135.1184206,緯度経度は怪しい
兵庫県,神戸市,116,須磨区高尾台2丁目1番,市バス高尾台バス停鉄柵,34.65679799999999,135.1194193,緯度経度は怪しい
兵庫県,神戸市,117,須磨区大手町4丁目3番,大手公園東金網,34.6572298,135.1259938,緯度経度は怪しい
兵庫県,神戸市,118,須磨区若木町1丁目12番,東須磨駐車場北鉄柵,34.655606,135.1256286,緯度経度は怪しい
兵庫県,神戸市,119,須磨区大手町4丁目3番,大手公園南金網,34.6572298,135.1259938,緯度経度は怪しい
兵庫県,神戸市,120,須磨区大手町4丁目2番,山麓線北側鉄柵,34.6575348,135.1267974,緯度経度は怪しい
兵庫県,神戸市,121,須磨区大手町2丁目2番,東須磨駅東側ガードレール,34.657131,135.1296467,緯度経度は怪しい
兵庫県,神戸市,122,須磨区菊池町1丁目2番,板宿小学校南金網,34.6627135,135.1327154,緯度経度は怪しい
兵庫県,神戸市,123,須磨区菊池町1丁目2番,板宿小学校西金網,34.6627135,135.1327154,緯度経度は怪しい
兵庫県,神戸市,124,須磨区飛松町5丁目2番,前池橋東交差点ガードレール,34.659294,135.131138,緯度経度は怪しい
兵庫県,神戸市,125,須磨区飛松町3丁目,妙法寺川東側鉄柵,34.6604631,135.1327885,緯度経度は怪しい
兵庫県,神戸市,126,須磨区平田町4丁目2番,板宿駐輪場鉄柵（平田南橋東側）,34.659738,135.1325693,緯度経度は怪しい
兵庫県,神戸市,127,須磨区前池町4丁目2番,市バス前池橋バス停鉄柵,34.6611319,135.1314002,緯度経度は怪しい
兵庫県,神戸市,128,須磨区前池町3丁目4番,市バス前池町バス停鉄柵,34.662356,135.132617,緯度経度は怪しい
兵庫県,神戸市,129,須磨区平田町5丁目2番,妙法寺川西側ガードレール,34.6595753,135.1321649,緯度経度は怪しい
兵庫県,神戸市,130,須磨区菊池町1丁目2番,板宿小学校西金網,34.6627135,135.1327154,緯度経度は怪しい
兵庫県,神戸市,131,須磨区川上町2丁目2番,川上町公園南階段鉄柵,34.6646729,135.1300851,緯度経度は怪しい
兵庫県,神戸市,132,須磨区川上町3丁目1番,市バス川上町バス停鉄柵,34.6641567,135.1297198,緯度経度は怪しい
兵庫県,神戸市,133,須磨区養老町1丁目8番26号,和光園入口南ガードレール,34.665503,135.1317438,緯度経度は怪しい
兵庫県,神戸市,134,須磨区禅昌寺町2丁目1番,(旧)禅昌寺保育所東鉄柵,34.6680423,135.1285508,緯度経度は怪しい
兵庫県,神戸市,135,須磨区禅昌寺町2丁目2番,市営禅昌寺住宅東鉄柵,34.6674932,135.1279664,緯度経度は怪しい
兵庫県,神戸市,136,須磨区神撫町5丁目1番,黒田商店東鉄柵,34.6659916,135.1296467,緯度経度は怪しい
兵庫県,神戸市,137,須磨区禅昌寺町1丁目2番5号,天理教満州関東分教会西鉄柵,34.6672167,135.1305646,緯度経度は怪しい
兵庫県,神戸市,138,須磨区明神町5丁目13番,明神町5丁目鉄柵,34.6692619,135.125767,緯度経度は怪しい
兵庫県,神戸市,139,須磨区禅昌寺町1丁目9番,禅昌寺町1丁目9番クリーンステーション横ガードレール,34.6682677,135.1306696,緯度経度は怪しい
兵庫県,神戸市,140,須磨区妙法寺字筆前195番地,筆前公園向かいガードレール,34.6766369,135.1124028,緯度経度は怪しい
兵庫県,神戸市,141,須磨区妙法寺字桜の杜1丁目9番,桜の杜調整池ネットフェンス,34.677677,135.11343,緯度経度は怪しい
兵庫県,神戸市,142,須磨区妙法寺字界地81番地,奥妙法寺バス停鉄柵,34.6747695,135.1173739,緯度経度は怪しい
兵庫県,神戸市,143,須磨区妙法寺字池町953番地の1,妙法寺池町交差点鉄柵,34.6780004,135.1203935,緯度経度は怪しい
兵庫県,神戸市,144,須磨区妙法寺字藪中ノ下1244番地,市バス藪中バス停前ガードレール,34.6817259,135.131181,緯度経度は怪しい
兵庫県,神戸市,145,須磨区妙法寺高取山1番地,市営鹿松住宅1号棟北側鉄柵,34.679586,135.1294152,緯度経度は怪しい
兵庫県,神戸市,146,須磨区妙法寺字宮ノ下,口妙法寺コミュニティプラザ金網,34.672532,135.1209533,緯度経度は怪しい
兵庫県,神戸市,147,須磨区横尾2丁目1番地の1,市バス横尾2丁目バス停北鉄柵,34.6717663,135.1131028,緯度経度は怪しい
兵庫県,神戸市,148,須磨区横尾2丁目40番地の1,横尾中学校南東鉄柵,34.6695755,135.1184698,緯度経度は怪しい
兵庫県,神戸市,149,須磨区横尾3丁目19番地,横尾南公園北西鉄柵,34.6684174,135.1143913,緯度経度は怪しい
兵庫県,神戸市,150,須磨区横尾5丁目3番地,横尾小学校南東門鉄柵,34.6706059,135.1105817,緯度経度は怪しい
兵庫県,神戸市,151,須磨区横尾5丁目3番地,横尾小学校西門鉄柵,34.6706059,135.1105817,緯度経度は怪しい
兵庫県,神戸市,152,須磨区横尾5丁目1番地の16,市バス横尾小学校前ガードレール,34.6708779,135.1101614,緯度経度は怪しい
兵庫県,神戸市,153,須磨区横尾7丁目2番地,横尾第2団地88号棟南西鉄柵,34.670211,135.1079527,緯度経度は怪しい
兵庫県,神戸市,154,須磨区横尾7丁目3番地,横尾中央公園南鉄柵,34.670211,135.1079527,緯度経度は怪しい
兵庫県,神戸市,155,須磨区妙法寺字ぬめり石,マンションメービウス妙法寺北西鉄柵,34.6724433,135.1056159,緯度経度は怪しい
兵庫県,神戸市,156,須磨区横尾6丁目3番地,市営横尾住宅18号棟西鉄柵,34.672548,135.1099975,緯度経度は怪しい
兵庫県,神戸市,157,須磨区横尾6丁目2番地,椿谷公園西植込み,34.672548,135.1099975,緯度経度は怪しい
兵庫県,神戸市,158,須磨区横尾1丁目12番地の1,市営横尾住宅15号棟西鉄柵,34.6727697,135.1121891,緯度経度は怪しい
兵庫県,神戸市,159,須磨区横尾1丁目31番地,地下鉄妙法寺駅東鉄柵,34.6750316,135.110133,緯度経度は怪しい
兵庫県,神戸市,160,須磨区横尾1丁目13番地,地下鉄妙法寺駅前駐輪場西鉄柵,34.6746218,135.1102896,緯度経度は怪しい
兵庫県,神戸市,161,須磨区妙法寺字辻,地下鉄妙法寺駅北東交差点北鉄柵,34.6756721,135.108683,緯度経度は怪しい
兵庫県,神戸市,162,須磨区妙法寺字小崎,妙法寺駅前駐車場北東交差点北西鉄柵,34.678217,135.1084274,緯度経度は怪しい
兵庫県,神戸市,163,須磨区妙法寺字菅ノ池672番地の8,市バス車竹ノ下バス停鉄柵,34.6809543,135.1112938,緯度経度は怪しい
兵庫県,神戸市,164,須磨区妙法寺字竹向イ,妙法寺シャロム前ガードレール,34.6791821,135.111166,緯度経度は怪しい
兵庫県,神戸市,165,須磨区緑が丘1丁目22番,妙法寺東畑公園西鉄柵,34.6792061,135.1125536,緯度経度は怪しい
兵庫県,神戸市,166,須磨区緑が丘2丁目4番,須磨緑が丘公園西植込み柵・ガードレール,34.6811271,135.1192002,緯度経度は怪しい
兵庫県,神戸市,167,須磨区妙法寺字清水谷,阪神高速道路妙法寺ランプ入口前交差点南西鉄柵,34.6809909,135.1086091,緯度経度は怪しい
兵庫県,神戸市,168,須磨区清水台,清水谷公園北鉄柵,34.6834966,135.1079527,緯度経度は怪しい
兵庫県,神戸市,169,須磨区清水台,向山公園西鉄柵,34.6834966,135.1079527,緯度経度は怪しい
兵庫県,神戸市,170,須磨区車字古川1329番地,古川東公園西歩道鉄柵,34.681978,135.1111321,緯度経度は怪しい
兵庫県,神戸市,171,須磨区車字松ヶ原,慶雲寺会館入口前ガードレール,34.6839399,135.113357,緯度経度は怪しい
兵庫県,神戸市,172,須磨区車字大道1272番地,市バス車大道バス停ガードレール,34.6835447,135.1107278,緯度経度は怪しい
兵庫県,神戸市,173,須磨区車字獅堀,獅子堀大橋北西金網,34.685491,135.1095593,緯度経度は怪しい
兵庫県,神戸市,174,須磨区若草町1丁目7番地,若草町南公園北鉄柵,34.6863606,135.1135031,緯度経度は怪しい
兵庫県,神戸市,175,須磨区若草町1丁目13番地,若草小学校正門北金網,34.6863606,135.1135031,緯度経度は怪しい
兵庫県,神戸市,176,須磨区若草町3丁目19番地の2,若草町北公園西鉄柵,34.6903012,135.1135939,緯度経度は怪しい
兵庫県,神戸市,177,須磨区若草町2丁目17番地,若草町西公園南鉄柵,34.6878895,135.1126267,緯度経度は怪しい
兵庫県,神戸市,178,須磨区若草町2丁目1157番地,市バス若草町バス停北東向鉄柵,34.6867378,135.1117249,緯度経度は怪しい
兵庫県,神戸市,179,須磨区車字口中ノ尾,市バス大曲りバス停北鉄柵,34.6842691,135.1155481,緯度経度は怪しい
兵庫県,神戸市,180,須磨区車字道谷山,道谷公園西鉄柵,34.6897258,135.1076606,緯度経度は怪しい
兵庫県,神戸市,181,須磨区車字漆ノ下1088番地,マンション南白川台ハイツ前交差点西鉄柵,34.6842691,135.1155481,緯度経度は怪しい
兵庫県,神戸市,182,須磨区東白川台2丁目10番地の1,東白川台バスターミナル鉄柵,34.6925576,135.1047414,緯度経度は怪しい
兵庫県,神戸市,183,須磨区東白川台3丁目17番地の1,西梨川公園南鉄柵,34.6928779,135.1065581,緯度経度は怪しい
兵庫県,神戸市,184,須磨区東白川台5丁目1番地の1,須磨北中学校北西金網,34.6922078,135.1094041,緯度経度は怪しい
兵庫県,神戸市,185,須磨区東白川台4丁目24番地の9,市ノ樋公園南東鉄柵,34.6949651,135.1079832,緯度経度は怪しい
兵庫県,神戸市,186,須磨区東白川台4丁目11番地の1,白川高尾公園南鉄柵,34.6946006,135.1057149,緯度経度は怪しい
兵庫県,神戸市,187,須磨区東白川台4丁目26番地の1,白川高尾北公園南鉄柵,34.6961649,135.1046755,緯度経度は怪しい
兵庫県,神戸市,188,須磨区白川字寺378番地の3,宮前橋南消防倉庫南鉄柵,34.702613,135.1050317,緯度経度は怪しい
兵庫県,神戸市,189,須磨区白川台7丁目2番地,白川小学校西側階段鉄柵,34.6957254,135.1009427,緯度経度は怪しい
兵庫県,神戸市,190,須磨区白川台7丁目3番地の3,白川小学校正門東鉄柵,34.6957254,135.1009427,緯度経度は怪しい
兵庫県,神戸市,191,須磨区白川台6丁目11番地の2,千原公園西鉄柵,34.6943808,135.10162,緯度経度は怪しい
兵庫県,神戸市,192,須磨区白川台4丁目27番1号,鈴松公園東金網,34.6914541,135.1032062,緯度経度は怪しい
兵庫県,神戸市,193,須磨区白川台4丁目10番2号,桂ヶ谷公園北鉄柵,34.6881663,135.1034253,緯度経度は怪しい
兵庫県,神戸市,194,須磨区白川台3丁目38番地の1,白川台ハイツ1号棟東ガードレール,34.6878741,135.0996662,緯度経度は怪しい
兵庫県,神戸市,195,須磨区白川台2丁目37番地の83,落合橋西部坂南側ガードレール,34.6902083,135.0986062,緯度経度は怪しい
兵庫県,神戸市,196,須磨区白川台3丁目62番地,城山橋東側ガードレール,34.6890841,135.1009427,緯度経度は怪しい
兵庫県,神戸市,197,須磨区白川台3丁目62番地,白川台3丁目バス停前ガードレール,34.6890841,135.1009427,緯度経度は怪しい
兵庫県,神戸市,198,須磨区白川台2丁目37番地の3,県公営白川台鉄筋団地6号棟北植込み柵,34.6890366,135.0983388,緯度経度は怪しい
兵庫県,神戸市,199,須磨区白川台1丁目36番地の8,南山公園南鉄柵,34.6898786,135.0964159,緯度経度は怪しい
兵庫県,神戸市,200,須磨区白川台1丁目25番地の2,白川台中学校東門金網,34.6921624,135.0968814,緯度経度は怪しい
兵庫県,神戸市,201,須磨区白川台1丁目25番地の2,白川台中学校北門金網,34.6921624,135.0968814,緯度経度は怪しい
兵庫県,神戸市,202,須磨区白川台5丁目1番地,城が谷公園北鉄柵,34.693782,135.0954872,緯度経度は怪しい
兵庫県,神戸市,203,須磨区北落合5丁目9番1号,畑ヶ谷公園南入口金網,34.6916745,135.0932584,緯度経度は怪しい
兵庫県,神戸市,204,須磨区白川台5丁目1005番地の2,市バス白川台バス転回地鉄柵,34.6935289,135.0986062,緯度経度は怪しい
兵庫県,神戸市,205,須磨区北落合1丁目1番,市営北落合2丁目バス停前ガードレール,34.6863429,135.0974381,緯度経度は怪しい
兵庫県,神戸市,206,須磨区北落合3丁目2番,松尾公園北東植込み,34.6870885,135.0901376,緯度経度は怪しい
兵庫県,神戸市,207,須磨区北落合2丁目13番1号,松尾小学校東門金網,34.6857657,135.0918805,緯度経度は怪しい
兵庫県,神戸市,208,須磨区北落合2丁目7番,松尾上公園北植込み柵,34.6856133,135.0932037,緯度経度は怪しい
兵庫県,神戸市,209,須磨区北落合1丁目4番2号,市営北落合住宅197号棟南西鉄柵,34.6857365,135.0952478,緯度経度は怪しい
兵庫県,神戸市,210,須磨区北落合3丁目7番,中落合公園西植込み鉄柵,34.6852878,135.0904296,緯度経度は怪しい
兵庫県,神戸市,211,須磨区北落合3丁目5番,ぽぷら歩道橋北東階段下金網,34.6852878,135.0904296,緯度経度は怪しい
兵庫県,神戸市,212,須磨区北落合4丁目36番,亀ヶ谷公園南東植込み柵,34.6910719,135.0893347,緯度経度は怪しい
兵庫県,神戸市,213,須磨区神の谷5丁目2番3号,神の谷小学校東門ネットフェンス,34.6892082,135.084448,緯度経度は怪しい
兵庫県,神戸市,214,須磨区神の谷3丁目12番,滝が谷公園植込,34.6874121,135.0837142,緯度経度は怪しい
兵庫県,神戸市,215,須磨区神の谷6丁目6番,神の谷北公園南東鉄柵,34.6855583,135.0818166,緯度経度は怪しい
兵庫県,神戸市,216,須磨区神の谷6丁目11番,神の谷5丁目南行きバス停前,34.6886762,135.0810867,緯度経度は怪しい
兵庫県,神戸市,217,須磨区弥栄台2丁目,市の子公園前駐輪場植込,34.6831765,135.076416,緯度経度は怪しい
兵庫県,神戸市,218,須磨区緑台,地下鉄総合運動公園駅南東鉄柵,34.6801203,135.0781675,緯度経度は怪しい
兵庫県,神戸市,219,須磨区神の谷2丁目20番,神の谷南公園北西植込み柵,34.6854977,135.085393,緯度経度は怪しい
兵庫県,神戸市,220,須磨区西落合4丁目1番,市営西落合住宅243号棟南の公園東ネットフェンス,34.6835385,135.0837142,緯度経度は怪しい
兵庫県,神戸市,221,須磨区西落合3丁目1番,神戸医療センター前交差点南東部交通局ネットフェンス,34.6803501,135.0845901,緯度経度は怪しい
兵庫県,神戸市,222,須磨区西落合7丁目4番,落合プラザ駐車場北側 歩道鉄柵,34.6832233,135.0889697,緯度経度は怪しい
兵庫県,神戸市,223,須磨区西落合7丁目1番4号,西落合小学校東門金網,34.6821164,135.0889697,緯度経度は怪しい
兵庫県,神戸市,224,須磨区西落合7丁目1番1号,のぞみ保育園北東部柵,34.6814765,135.091243,緯度経度は怪しい
兵庫県,神戸市,225,須磨区中落合3丁目1番2号,中落合4丁目歩道橋西側柵,34.6839468,135.0952864,緯度経度は怪しい
兵庫県,神戸市,226,須磨区西落合1丁目1番,中落合橋南西欄下,34.6786639,135.0880937,緯度経度は怪しい
兵庫県,神戸市,227,須磨区中落合3丁目1番,落合中央公園南東入口ガードレール,34.6805261,135.0924025,緯度経度は怪しい
兵庫県,神戸市,228,須磨区中落合4丁目1番1号,公団中落合第1住宅450号棟出入りロゲート横鉄柵,34.6817746,135.0977301,緯度経度は怪しい
兵庫県,神戸市,229,須磨区東落合2丁目16番,殿津谷公園南西入口柵,34.6841116,135.0997745,緯度経度は怪しい
兵庫県,神戸市,230,須磨区東落合3丁目33番2号,細ヶ谷公園西ガードレール,34.6865146,135.102257,緯度経度は怪しい
兵庫県,神戸市,231,須磨区東落合2丁目18番2号,東落合小学校東門ネットフェンス,34.68506929999999,135.1012347,緯度経度は怪しい
兵庫県,神戸市,232,須磨区東落合3丁目20番1号,甲南谷公園南植込み柵,34.6844324,135.1031332,緯度経度は怪しい
兵庫県,神戸市,233,須磨区東落合2丁目17番,東落合小学校前バス停ガードレール,34.68389210000001,135.1013808,緯度経度は怪しい
兵庫県,神戸市,234,須磨区東落合2丁目6番3号,花谷公園東植込み柵,34.68250829999999,135.1013808,緯度経度は怪しい
兵庫県,神戸市,235,須磨区東落合3丁目1番,細ヶ辻公園南西ガードレール,34.6821963,135.1060541,緯度経度は怪しい
兵庫県,神戸市,236,須磨区東落合2丁目19番,南白川橋北東鉄柵,34.686185,135.1000665,緯度経度は怪しい
兵庫県,神戸市,237,須磨区東落合1丁目3番2号,市営東落合住宅171号棟北東植込み柵,34.6803514,135.1029872,緯度経度は怪しい
兵庫県,神戸市,238,須磨区東落合1丁目4番,花谷小学校北入口鉄柵,34.6809791,135.1006734,緯度経度は怪しい
兵庫県,神戸市,239,須磨区東落合1丁目5番1号,市営東落合住宅168号棟北西鉄柵,34.6800966,135.1000665,緯度経度は怪しい
兵庫県,神戸市,240,須磨区中落合2丁目8番,地下鉄名谷駅のバス運転手休憩室裏手金網,34.6786118,135.0951018,緯度経度は怪しい
兵庫県,神戸市,241,須磨区中落合2丁目14番,地下鉄名谷駅前バスターミナルの地下鉄線路側鉄柵,34.6786118,135.0951018,緯度経度は怪しい
兵庫県,神戸市,242,須磨区中落合2丁目20番,名谷センタービル駐車場南側鉄柵,34.6786118,135.0951018,緯度経度は怪しい
兵庫県,神戸市,243,須磨区中落合2丁目3番,地下鉄名谷駅北側ロータリー鉄柵,34.6801215,135.0954456,緯度経度は怪しい
兵庫県,神戸市,244,須磨区中落合1丁目2番2号,中落合1丁目西歩道橋欄干,34.6798331,135.0983142,緯度経度は怪しい
兵庫県,神戸市,245,須磨区中落合1丁目1番25号,落合児童館西側柵,34.6778621,135.0977915,緯度経度は怪しい
兵庫県,神戸市,246,須磨区東落合1丁目5番,市営東落合住宅東側柵,34.6800966,135.1000665,緯度経度は怪しい
兵庫県,神戸市,247,須磨区南落合4丁目1番,市バス南落合4丁目バス停東向ガードレール,34.67797900000001,135.1056159,緯度経度は怪しい
兵庫県,神戸市,248,須磨区道正台1丁目1番,道正台東公園南西植込み柵,34.6746576,135.1056159,緯度経度は怪しい
兵庫県,神戸市,249,須磨区道正台1丁目2番,道正台斜行エレベータ北側歩道南下鉄柵,34.6748903,135.1068573,緯度経度は怪しい
兵庫県,神戸市,250,須磨区南落合3丁目9番,南落合3丁目バス停ガードレール,34.6764438,135.1027681,緯度経度は怪しい
兵庫県,神戸市,251,須磨区南落合3丁目11番1号,南落合小学校東門鉄柵,34.6767332,135.1016637,緯度経度は怪しい
兵庫県,神戸市,252,須磨区南落合3丁目11番,南落合小学校南西部ガードレール,34.6769073,135.1009427,緯度経度は怪しい
兵庫県,神戸市,253,須磨区南落合1丁目18番,友ケ橋東200mの交差点南西鉄柵,34.67421,135.1007967,緯度経度は怪しい
兵庫県,神戸市,254,須磨区南落合1丁目11番1号,高良谷公園南東鉄柵,34.672681,135.1016728,緯度経度は怪しい
兵庫県,神戸市,255,須磨区南落合2丁目1番,南落合小学校前バス停ガードレール,34.6745703,135.0988983,緯度経度は怪しい
兵庫県,神戸市,256,須磨区南落合2丁目1番,南落合2丁目西歩道橋東側植込み,34.6745703,135.0988983,緯度経度は怪しい
兵庫県,神戸市,257,須磨区竜が台7丁目2番地,第6竜が谷橋北側ガードレール,34.6741838,135.0951018,緯度経度は怪しい
兵庫県,神戸市,258,須磨区竜が台1丁目9番地,第3竜が谷橋東側側溝,34.6752732,135.0974381,緯度経度は怪しい
兵庫県,神戸市,259,須磨区竜が台1丁目11番地,竜が台保育所南側入口東側柵,34.6763458,135.0938356,緯度経度は怪しい
兵庫県,神戸市,260,須磨区竜が台6丁目16番地,くるみ歩道橋下西側柵,34.6736567,135.0915976,緯度経度は怪しい
兵庫県,神戸市,261,須磨区竜が台2丁目5番地,竜が谷橋南西欄干,34.6758706,135.0915976,緯度経度は怪しい
兵庫県,神戸市,262,須磨区竜が台3丁目6番地,市営竜が台住宅4号棟南の公園東側鉄柵,34.6768544,135.0895537,緯度経度は怪しい
兵庫県,神戸市,263,須磨区竜が台5丁目20番地,竜が台地域福祉センター西鉄柵,34.6750496,135.0892069,緯度経度は怪しい
兵庫県,神戸市,264,須磨区竜が台6丁目15番地,竜が台小学校南西鉄柵,34.6736567,135.0915976,緯度経度は怪しい
兵庫県,神戸市,265,須磨区竜が台5丁目17番地,もくせい歩道橋東側柵,34.6731294,135.0880937,緯度経度は怪しい
兵庫県,神戸市,266,須磨区竜が台4丁目2番地,市営竜が台住宅5号棟南側鉄柵,34.6741553,135.0871473,緯度経度は怪しい
兵庫県,神戸市,267,須磨区竜が台4丁目1番地,竜が台中学校南西門鉄柵,34.67548379999999,135.0878018,緯度経度は怪しい
兵庫県,神戸市,268,須磨区菅の台4丁目6番地,市バス菅の台1丁目バス停南向鉄柵,34.6734942,135.0838146,緯度経度は怪しい
兵庫県,神戸市,269,須磨区菅の台4丁目3番地,菅の台小学校西門鉄柵,34.6720573,135.0834223,緯度経度は怪しい
兵庫県,神戸市,270,須磨区菅の台4丁目3番地の2,菅の台小学校東金網,34.6716692,135.0831604,緯度経度は怪しい
兵庫県,神戸市,271,須磨区菅の台4丁目3番地の1,市営菅の台第2住宅9号棟南鉄柵,34.6710774,135.083836,緯度経度は怪しい
兵庫県,神戸市,272,須磨区菅の台6丁目15番地,菅の台東公園北植込み柵,34.6676296,135.0834223,緯度経度は怪しい
兵庫県,神戸市,273,須磨区菅の台6丁目25番地の1,市バス土池公園前バス停西鉄柵,34.6682016,135.0820903,緯度経度は怪しい
兵庫県,神戸市,274,須磨区菅の台7丁目34番地の22,菅の台南公園北西150mの鉄柵,34.6662305,135.0776677,緯度経度は怪しい
兵庫県,神戸市,275,須磨区菅の台7丁目17番地の1,菅の台西公園南鉄柵,34.6659722,135.0795358,緯度経度は怪しい
兵庫県,神戸市,276,須磨区友が丘9丁目30番地,名谷テニスガーデン西公園北西部,34.6699541,135.0862643,緯度経度は怪しい
兵庫県,神戸市,277,須磨区友が丘6丁目4番地,友が丘公園東道路ガードレール,34.6687015,135.0880937,緯度経度は怪しい
兵庫県,神戸市,278,須磨区友が丘5丁目5番地,市バス北須磨団地バス停ガードレール,34.6677263,135.0889697,緯度経度は怪しい
兵庫県,神戸市,279,須磨区友が丘3丁目106番地,多井畑小学校北東植込み柵,34.6687676,135.0928067,緯度経度は怪しい
兵庫県,神戸市,280,須磨区友が丘2丁目,友が丘中公園西鉄柵,34.6664166,135.0974381,緯度経度は怪しい
兵庫県,神戸市,281,須磨区友が丘7丁目,市バス北須磨団地東口バス停ガードレール,34.6713897,135.0986062,緯度経度は怪しい
兵庫県,神戸市,282,須磨区友が丘7丁目,北須磨公園東鉄柵,34.6713897,135.0986062,緯度経度は怪しい
兵庫県,神戸市,283,須磨区友が丘7丁目4番地,北須磨団地入口交差点西ガードレール,34.6713897,135.0986062,緯度経度は怪しい
兵庫県,神戸市,3,垂水区塩屋町5丁目3番,兵庫県自治研修所テニスコート西道路鉄柵,34.6330113,135.0771458,緯度経度は怪しい
兵庫県,神戸市,4,垂水区塩屋町1丁目3番,塩屋モータープール前道路北側鉄柵（JR南）,34.6323124,135.0780215,緯度経度は怪しい
兵庫県,神戸市,5,垂水区塩屋町5丁目3番,天神ケ平公園東側鉄柵,34.6330113,135.0771458,緯度経度は怪しい
兵庫県,神戸市,6,垂水区塩屋町1丁目1番1号,塩屋谷川垣内橋欄干,34.6328075,135.082446,緯度経度は怪しい
兵庫県,神戸市,7,垂水区塩屋町1丁目2番,菅公橋北側JR線路北側金網,34.6337916,135.0835683,緯度経度は怪しい
兵庫県,神戸市,8,垂水区塩屋町3丁目9番,コープミニ塩屋北西側ガードレール,34.6348048,135.0823275,緯度経度は怪しい
兵庫県,神戸市,9,垂水区塩屋町4丁目3番9号,塩屋地域福祉センター（塩屋児童館）柵,34.6345161,135.0818472,緯度経度は怪しい
兵庫県,神戸市,10,垂水区下畑町字西下代,下代公園西側道路鉄柵,34.646228,135.081438,緯度経度は怪しい
兵庫県,神戸市,11,垂水区塩屋町3丁目18番,塩屋小学校通用口北側ガードレール,34.6381686,135.0813787,緯度経度は怪しい
兵庫県,神戸市,12,垂水区塩屋町9丁目4番,市営塩屋住宅跡地北側フェンス,34.6397172,135.0824735,緯度経度は怪しい
兵庫県,神戸市,13,垂水区塩屋町9丁目23番6号,中野センター市場西側道路鉄柵,34.6401537,135.0810381,緯度経度は怪しい
兵庫県,神戸市,14,垂水区塩屋町字大谷,塩屋大谷公園南側鉄柵,34.6341525,135.0816706,緯度経度は怪しい
兵庫県,神戸市,15,垂水区塩屋町3丁目15番19号,神戸信用金庫塩屋支店前ガードレール,34.6359027,135.0828596,緯度経度は怪しい
兵庫県,神戸市,16,垂水区塩屋町9丁目4番,市営塩屋住宅跡地南側フェンス,34.6397172,135.0824735,緯度経度は怪しい
兵庫県,神戸市,17,垂水区下畑町字小坂,市バス神の脇バス停（北行き）前鉄柵,34.6546088,135.085174,緯度経度は怪しい
兵庫県,神戸市,18,垂水区下畑町字前田,市バス神の脇バス停（南行き）道路柵,34.6546088,135.085174,緯度経度は怪しい
兵庫県,神戸市,19,垂水区下畑町字谷川2128番地,下畑公会堂横ガードレール,34.6546088,135.085174,緯度経度は怪しい
兵庫県,神戸市,20,垂水区下畑町字谷川,第1下畑橋南道路ガードレール,34.6546088,135.085174,緯度経度は怪しい
兵庫県,神戸市,21,垂水区下畑町字上口870番の1,市バス下畑上口バス停前（南行き）東側道路鉄柵,34.6559472,135.089812,緯度経度は怪しい
兵庫県,神戸市,22,垂水区清玄町,清玄町中公園（清玄町バス停）道路側鉄柵,34.6531665,135.0927657,緯度経度は怪しい
兵庫県,神戸市,23,垂水区王居殿3丁目3番,市営王居殿第4住宅西側鉄柵,34.634454,135.0695567,緯度経度は怪しい
兵庫県,神戸市,24,垂水区王居殿2丁目5番,東垂水小学校正門横金網,34.634647,135.0714538,緯度経度は怪しい
兵庫県,神戸市,25,垂水区王居殿2丁目6番,市営王居殿第3住宅北側鉄柵,34.6353038,135.0715268,緯度経度は怪しい
兵庫県,神戸市,26,垂水区王居殿2丁目10番,市営王居殿第2住宅西側鉄柵,34.6360923,135.0724754,緯度経度は怪しい
兵庫県,神戸市,27,垂水区王居殿2丁目5番,東垂水小学校南側道路鉄柵,34.634647,135.0714538,緯度経度は怪しい
兵庫県,神戸市,28,垂水区王居殿3丁目26番,市営王居殿第1住宅集会所前鉄柵,34.6370723,135.071016,緯度経度は怪しい
兵庫県,神戸市,29,垂水区城が山1丁目1番,山陽電鉄滝の茶屋駅下鉄柵,34.6307015,135.0715998,緯度経度は怪しい
兵庫県,神戸市,30,垂水区泉が丘4丁目1番,masked,34.631915,135.0667841,緯度経度は怪しい
兵庫県,神戸市,31,垂水区泉が丘4丁目1番,川重泉が丘住宅3号棟東側金網,34.631915,135.0667841,緯度経度は怪しい
兵庫県,神戸市,32,垂水区泉が丘4丁目1番,川重泉が丘住宅7号棟北金網,34.631915,135.0667841,緯度経度は怪しい
兵庫県,神戸市,33,垂水区城が山3丁目5番,川重城が山住宅1号棟北側金網,34.6319046,135.0677163,緯度経度は怪しい
兵庫県,神戸市,34,垂水区城が山1丁目1番,山陽電鉄滝の茶屋駅駐輪場管理事務所南金網,34.6307015,135.0715998,緯度経度は怪しい
兵庫県,神戸市,35,垂水区城が山1丁目14番,城が山公園西鉄柵,34.6312686,135.0698486,緯度経度は怪しい
兵庫県,神戸市,36,垂水区城が山1丁目1番,山陽電鉄滝の茶屋駅東端鉄柵,34.6307015,135.0715998,緯度経度は怪しい
兵庫県,神戸市,37,垂水区城が山4丁目2番,県立視覚特別支援学校南フェンス,34.63300419999999,135.0691189,緯度経度は怪しい
兵庫県,神戸市,38,垂水区乙木1丁目11番,市営乙木谷第2住宅横道路鉄柵,34.6396251,135.0674407,緯度経度は怪しい
兵庫県,神戸市,39,垂水区東垂水3丁目14番,東垂水第二住宅裏 ゴミステーション前ガードレール,34.6383556,135.0660545,緯度経度は怪しい
兵庫県,神戸市,40,垂水区東垂水1丁目1番1号,市立東垂水公民館入口横鉄柵,34.6368741,135.0684951,緯度経度は怪しい
兵庫県,神戸市,41,垂水区東垂水1丁目4番5号,市営東高丸住宅5号棟東鉄柵,34.6362652,135.067972,緯度経度は怪しい
兵庫県,神戸市,42,垂水区東垂水3丁目14番1号,東垂水第二住宅北側フェンス,34.6384557,135.0662349,緯度経度は怪しい
兵庫県,神戸市,43,垂水区名谷町(東名),山陽バス東名谷(南行)バス停フェンス,34.65040490000001,135.0728592,緯度経度は怪しい
兵庫県,神戸市,44,垂水区名谷町(中山),名谷病院前道路柵,34.6628331,135.0724825,緯度経度は怪しい
兵庫県,神戸市,45,垂水区名谷町1852番の1(西名),山陽バスあみだ堂(南行)バス停前鉄柵,34.6603338,135.0714174,緯度経度は怪しい
兵庫県,神戸市,46,垂水区名谷町(西名),山陽バス西名谷(南行)バス停前鉄柵,34.6628331,135.0724825,緯度経度は怪しい
兵庫県,神戸市,47,垂水区名谷町1896番地(中山),名谷小学校正門横金網,34.6632219,135.0708427,緯度経度は怪しい
兵庫県,神戸市,48,垂水区神和台2丁目1番,神和台東公園西側鉄柵,34.6722666,135.0737889,緯度経度は怪しい
兵庫県,神戸市,49,垂水区名谷町(奥畑),山陽バス奥畑(北行)バス停前鉄柵,34.6746255,135.0806802,緯度経度は怪しい
兵庫県,神戸市,50,垂水区名谷町78番の1(東名),湊川産業（株）垂水営業所南側歩道柵,34.6493261,135.067142,緯度経度は怪しい
兵庫県,神戸市,51,垂水区名谷町,柏耶の里前湯屋ヶ谷川鉄柵(歩道側),34.6628331,135.0724825,緯度経度は怪しい
兵庫県,神戸市,52,垂水区名谷町,山陽バス奥畑口(北行)バス停前鉄柵,34.6628331,135.0724825,緯度経度は怪しい
兵庫県,神戸市,53,垂水区名谷町,山陽バス名谷小学校(新道側北行)バス停前鉄柵,34.6628331,135.0724825,緯度経度は怪しい
兵庫県,神戸市,54,垂水区名谷町(丸尾),垂水健康公園西側鉄柵,34.6628331,135.0724825,緯度経度は怪しい
兵庫県,神戸市,55,垂水区高丸4丁目3号,高丸南公園北東鉄柵,34.6395463,135.0595615,緯度経度は怪しい
兵庫県,神戸市,56,垂水区大町2丁目6番,高丸小学校正門北側金網,34.6377672,135.0615312,緯度経度は怪しい
兵庫県,神戸市,57,垂水区高丸3丁目7番,リッツハイツ大町前鉄柵,34.6387161,135.0595615,緯度経度は怪しい
兵庫県,神戸市,58,垂水区瑞穂通3番,瑞穂公園西側鉄柵,34.6343451,135.0611664,緯度経度は怪しい
兵庫県,神戸市,59,垂水区大町1丁目4番,大町公園鉄柵,34.6372663,135.0637198,緯度経度は怪しい
兵庫県,神戸市,60,垂水区大町2丁目6番,高丸小学校東門北側金網,34.6377672,135.0615312,緯度経度は怪しい
兵庫県,神戸市,61,垂水区高丸5丁目12番,高丸第二公園東側鉄柵,34.63794720000001,135.0536894,緯度経度は怪しい
兵庫県,神戸市,62,垂水区高丸5丁目6番,県営神戸高丸住宅2号棟東フェンス,34.6369853,135.0551117,緯度経度は怪しい
兵庫県,神戸市,63,垂水区高丸5丁目6番,県営神戸高丸住宅4号棟前鉄柵,34.6369853,135.0551117,緯度経度は怪しい
兵庫県,神戸市,64,垂水区高丸7丁目6番,山陽バス団地下バス停留所鉄柵,34.6400614,135.0545759,緯度経度は怪しい
兵庫県,神戸市,65,垂水区高丸6丁目5番,市営西高丸住宅2号棟鉄柵,34.6398098,135.0567165,緯度経度は怪しい
兵庫県,神戸市,66,垂水区高丸7丁目6番,高丸小公園鉄柵,34.6400614,135.0545759,緯度経度は怪しい
兵庫県,神戸市,67,垂水区瑞ヶ丘6番,愛垂ちびっこ広場東金網,34.633862,135.0564247,緯度経度は怪しい
兵庫県,神戸市,68,垂水区御霊町1番,川原橋(福田川)欄干,34.6330448,135.0592697,緯度経度は怪しい
兵庫県,神戸市,69,垂水区日向1丁目5番,垂水区役所西側ガードレール,34.6304004,135.0567165,
兵庫県,神戸市,70,垂水区日向1丁目5番,垂水区役所東側福田川沿鉄柵,34.6304004,135.0567165,
兵庫県,神戸市,71,垂水区向2丁目4番,垂水小学校東南角フェンス,34.6456213,135.032348,緯度経度は怪しい
兵庫県,神戸市,72,垂水区向1丁目2番,上福田川橋(福田川)欄干,34.6330442,135.082096,緯度経度は怪しい
兵庫県,神戸市,73,垂水区仲田2丁目1番,山陽バス仲田バス停(南行)鉄柵,34.6357155,135.0491308,緯度経度は怪しい
兵庫県,神戸市,74,垂水区旭が丘2丁目11番,市営旭が丘住宅10号棟跡地南鉄柵,34.6354213,135.0514647,緯度経度は怪しい
兵庫県,神戸市,75,垂水区旭が丘2丁目1番,川重第一旭ヶ丘寮南側ガードレール,34.6325837,135.0516106,緯度経度は怪しい
兵庫県,神戸市,76,垂水区天ノ下町1番,垂水駅西側高架下ガードレール,34.6300183,135.05234,緯度経度は怪しい
兵庫県,神戸市,77,垂水区海岸通12番,三井アウトレットパークマリンピア神戸北側フェンス 西側,34.6251621,135.0502109,緯度経度は怪しい
兵庫県,神戸市,78,垂水区海岸通2番,駅前駐輪場(海岸通)西側鉄柵,34.6286434,135.051173,緯度経度は怪しい
兵庫県,神戸市,79,垂水区宮本町2番9号,西垂水会館前鉄柵,34.6268993,135.0530694,緯度経度は怪しい
兵庫県,神戸市,80,垂水区宮本町1番7号,垂水漁港入口前ガードレール,34.6275292,135.05327,緯度経度は怪しい
兵庫県,神戸市,81,垂水区霞ヶ丘4丁目6番,霞ヶ丘小学校東側道路石垣,34.6331321,135.0430048,緯度経度は怪しい
兵庫県,神戸市,82,垂水区霞ヶ丘5丁目1番,霞ヶ丘小公園ガードレール,34.6338001,135.0462136,緯度経度は怪しい
兵庫県,神戸市,83,垂水区霞ケ丘4丁目6番,霞ケ丘小学校北側道路鉄柵,34.6331321,135.0430048,緯度経度は怪しい
兵庫県,神戸市,84,垂水区仲田2丁目1番,山陽バス仲田バス停（北行）鉄柵,34.6357155,135.0491308,緯度経度は怪しい
兵庫県,神戸市,85,垂水区霞ケ丘4丁目6番,霞ケ丘小学校運動場入口横金網,34.6331321,135.0430048,緯度経度は怪しい
兵庫県,神戸市,86,垂水区歌敷山1丁目3番,ライオンズマンション五色山北側金網,34.6332899,135.0403796,緯度経度は怪しい
兵庫県,神戸市,87,垂水区歌敷山1丁目6番,歌敷山公園西側鉄柵,34.6342519,135.0412547,緯度経度は怪しい
兵庫県,神戸市,88,垂水区霞ケ丘4丁目6番,山陽バス霞ケ丘幼稚園前バス停石垣,34.6331321,135.0430048,緯度経度は怪しい
兵庫県,神戸市,89,垂水区星が丘2丁目6,山陽バス星陵台3丁目バス停ガードレール,34.6405688,135.0476722,緯度経度は怪しい
兵庫県,神戸市,90,垂水区千代ヶ丘1丁目1,山陽バス千代ヶ丘バス停鉄柵（南行）,34.6422075,135.0505895,緯度経度は怪しい
兵庫県,神戸市,91,垂水区上高丸1丁目2番,山陽バス細道下バス停鉄柵（南行）,34.6398246,135.050079,緯度経度は怪しい
兵庫県,神戸市,92,垂水区上高丸1丁目1番1号,市営上高丸住宅1号棟西側鉄柵,34.6389401,135.0506305,緯度経度は怪しい
兵庫県,神戸市,93,垂水区上高丸1丁目9番20号,垂水中学校東門入口コープ横鉄柵,34.6401448,135.0525159,緯度経度は怪しい
兵庫県,神戸市,94,垂水区旭が丘3丁目12番,市営旭が丘第2住宅2号棟北側道路鉄柵,34.6375076,135.050006,緯度経度は怪しい
兵庫県,神戸市,95,垂水区旭が丘3丁目12番,山陽バス垂水中学校前バス停鉄柵,34.6375076,135.050006,緯度経度は怪しい
兵庫県,神戸市,96,垂水区山手3丁目8番17号,masked,34.63283759999999,135.0624525,緯度経度は怪しい
兵庫県,神戸市,97,垂水区川原5丁目2番,鈴木橋北鉄柵,34.6323244,135.0584672,緯度経度は怪しい
兵庫県,神戸市,98,垂水区山手2丁目2番10号,masked,34.6302477,135.0620202,緯度経度は怪しい
兵庫県,神戸市,99,垂水区坂上5丁目1番,坂上公園東側鉄柵,34.6332776,135.0605098,緯度経度は怪しい
兵庫県,神戸市,100,垂水区山手6丁目3番,福田川瑞穂橋欄干,34.6362998,135.063428,緯度経度は怪しい
兵庫県,神戸市,101,垂水区平磯1丁目2番,垂水年金会館北側金網,34.6281026,135.0586131,緯度経度は怪しい
兵庫県,神戸市,102,垂水区川原2丁目1番,川原保育所西側鉄柵,34.630621,135.058529,
兵庫県,神戸市,103,垂水区五色山5丁目5番,五色山北小公園フェンス,34.6316123,135.0427131,緯度経度は怪しい
兵庫県,神戸市,104,垂水区五色山1丁目4番,masked,34.631025,135.050527,緯度経度は怪しい
兵庫県,神戸市,105,垂水区五色山3丁目1番,五色塚古墳北側柵,34.6292979,135.0469429,緯度経度は怪しい
兵庫県,神戸市,106,垂水区五色山1丁目1番,天神川JR高架下西側ガードレール,34.6295439,135.0510271,緯度経度は怪しい
兵庫県,神戸市,107,垂水区五色山3丁目1番,五色塚古墳西側柵,34.6292979,135.0469429,緯度経度は怪しい
兵庫県,神戸市,108,垂水区五色山5丁目5番3号,ファミール五色山C棟西側フェンス,34.6318681,135.0429432,緯度経度は怪しい
兵庫県,神戸市,109,垂水区五色山6丁目5番,山陽電鉄霞ケ丘駅南側道路柵,34.6299564,135.0421297,緯度経度は怪しい
兵庫県,神戸市,110,垂水区五色山5丁目2番,市営五色山住宅2号棟東側鉄柵,34.6311908,135.0435882,緯度経度は怪しい
兵庫県,神戸市,111,垂水区星陵台3丁目3番21号,垂水細道ミオ東館北側道路,34.6424999,135.0475793,緯度経度は怪しい
兵庫県,神戸市,112,垂水区星陵台2丁目1番,垂水郵便局北側ガードレール,34.6408498,135.0470887,緯度経度は怪しい
兵庫県,神戸市,113,垂水区星陵台1丁目4番3号,V・ドラッグ舞子店隣東側道路,34.6395325,135.046902,緯度経度は怪しい
兵庫県,神戸市,114,垂水区星陵台1丁目1番,ときわそば駐車場前道路ガードレール,34.6386756,135.0464324,緯度経度は怪しい
兵庫県,神戸市,115,垂水区星陵台7丁目5番,星陵台地域福祉センター北側金網,34.6431092,135.0455572,緯度経度は怪しい
兵庫県,神戸市,116,垂水区北舞子2丁目3番,北舞子東公園鉄柵,34.6417226,135.0412547,緯度経度は怪しい
兵庫県,神戸市,117,垂水区北舞子2丁目4番,市営北舞子第5住宅東側歩道鉄柵,34.6428665,135.0408901,緯度経度は怪しい
兵庫県,神戸市,118,垂水区舞子台4丁目2番,苅谷公園体育館東側階段横鉄柵,34.6370881,135.0365151,緯度経度は怪しい
兵庫県,神戸市,119,垂水区舞子台4丁目2番,苅谷公園北側グラウンド東側鉄柵,34.6370881,135.0365151,緯度経度は怪しい
兵庫県,神戸市,120,垂水区舞子台4丁目9番,特別養護老人ホームオレンジ神戸南側空地金網,34.6387088,135.0371713,緯度経度は怪しい
兵庫県,神戸市,121,垂水区舞子台4丁目10番,舞子台4丁目バス停鉄柵,34.6391302,135.0362963,緯度経度は怪しい
兵庫県,神戸市,122,垂水区舞子台5丁目11番,東舞子小学校前バス停鉄柵,34.6394153,135.0351297,緯度経度は怪しい
兵庫県,神戸市,123,垂水区舞子台6丁目20番,舞子台8丁目バス停鉄柵,34.6393704,135.0317759,緯度経度は怪しい
兵庫県,神戸市,124,垂水区舞子台3丁目13番,北舞子派出所東側歩道鉄柵,34.6392207,135.0381192,緯度経度は怪しい
兵庫県,神戸市,125,垂水区舞子台7丁目2番,舞子台病院駐車場金網,34.64007100000001,135.040088,緯度経度は怪しい
兵庫県,神戸市,126,垂水区神陵台9丁目15番,神陵台北公園南側鉄柵,34.6660798,135.0395046,緯度経度は怪しい
兵庫県,神戸市,127,垂水区神陵台8丁目15番,寒風公園西側鉄柵,34.6653736,135.0366609,緯度経度は怪しい
兵庫県,神戸市,128,垂水区神陵台9丁目24番,繁塚公園北側鉄柵,34.6684249,135.0403796,緯度経度は怪しい
兵庫県,神戸市,129,垂水区神陵台7丁目10番,多聞台西公園前金網,34.6619429,135.0377546,緯度経度は怪しい
兵庫県,神戸市,130,垂水区神陵台7丁目13番,寒風池西ガードレール,34.6630576,135.036588,緯度経度は怪しい
兵庫県,神戸市,131,垂水区神陵台9丁目15番,神陵台北公園東側鉄柵,34.6660798,135.0395046,緯度経度は怪しい
兵庫県,神戸市,132,垂水区東舞子町5番,舞子多聞歩道橋南側歩道鉄柵,34.6341835,135.0319722,緯度経度は怪しい
兵庫県,神戸市,133,垂水区西舞子1丁目1番,舞子延命地蔵南仮設投票所金網,34.6357463,135.0305116,緯度経度は怪しい
兵庫県,神戸市,134,垂水区西舞子1丁目7番,山陽電鉄西舞子駅地下道入口柵,34.6383942,135.0280579,緯度経度は怪しい
兵庫県,神戸市,135,垂水区狩口台7丁目15番,舞子狩口線道路南側金網,34.64136939999999,135.0230281,緯度経度は怪しい
兵庫県,神戸市,136,垂水区西舞子4丁目28番,白洋舎南側駐車場歩道鉄柵,34.6449736,135.0316301,緯度経度は怪しい
兵庫県,神戸市,137,垂水区西舞子2丁目11番,舞子台6丁目バス停北側洋服の青山前歩道鉄柵,34.6407786,135.0307188,緯度経度は怪しい
兵庫県,神戸市,138,垂水区西舞子4丁目7番,舞子小学校東南角金網,34.6435327,135.0300262,緯度経度は怪しい
兵庫県,神戸市,139,垂水区西舞子4丁目7番,舞子小学校北側金網,34.6435327,135.0300262,緯度経度は怪しい
兵庫県,神戸市,140,垂水区西舞子5丁目10番,亀ケ坪橋(山田川)欄干,34.6431034,135.0271831,緯度経度は怪しい
兵庫県,神戸市,141,垂水区西舞子2丁目11番,舞子台6丁目バス停道路鉄柵,34.6407786,135.0307188,緯度経度は怪しい
兵庫県,神戸市,142,垂水区西舞子4丁目22番,舞子細道公園南側鉄柵,34.6452628,135.0298804,緯度経度は怪しい
兵庫県,神戸市,143,垂水区西舞子4丁目7番,舞子小学校正門横金網,34.6435327,135.0300262,緯度経度は怪しい
兵庫県,神戸市,144,垂水区西舞子5丁目1番,西舞子橋(山田川)欄干,34.640589,135.025798,緯度経度は怪しい
兵庫県,神戸市,145,垂水区本多聞1丁目5番1号,西脇学童保育コーナー入口横フェンス,34.6526853,135.0386502,緯度経度は怪しい
兵庫県,神戸市,146,垂水区西脇1丁目9番,西脇小学校前フェンス,34.656266,135.0386296,緯度経度は怪しい
兵庫県,神戸市,147,垂水区本多聞1丁目7番30号,多聞会館入口横鉄柵,34.6532642,135.0394787,緯度経度は怪しい
兵庫県,神戸市,148,垂水区本多聞1丁目20番53号,ネツトトヨタ兵庫垂水多聞店西側道路鉄柵,34.6550472,135.0400907,緯度経度は怪しい
兵庫県,神戸市,149,垂水区西脇2丁目7番,多聞橋欄干,34.6569472,135.040088,緯度経度は怪しい
兵庫県,神戸市,150,垂水区南多聞台3丁目6番,南多聞第8小公園南側鉄柵,34.6535203,135.035713,緯度経度は怪しい
兵庫県,神戸市,151,垂水区本多聞1丁目16番,寺の町公園東側鉄柵,34.6542757,135.0413276,緯度経度は怪しい
兵庫県,神戸市,152,垂水区多聞台2丁目11番,UR多聞台団地C-1棟横駐車場鉄柵,34.6597672,135.0422756,緯度経度は怪しい
兵庫県,神戸市,153,垂水区多聞台4丁目12番,多聞交番北側ガードレール,34.6622444,135.0440258,緯度経度は怪しい
兵庫県,神戸市,154,垂水区多聞台2丁目11番,多聞台ショッピングセンター南C-6号棟前鉄柵,34.6597672,135.0422756,緯度経度は怪しい
兵庫県,神戸市,155,垂水区多聞台3丁目9番,多聞台小学校西北角柵,34.6620628,135.0403796,緯度経度は怪しい
兵庫県,神戸市,156,垂水区多聞台2丁目2番,多聞台南公園西側鉄柵,34.6575624,135.0411088,緯度経度は怪しい
兵庫県,神戸市,157,垂水区多聞台3丁目9番,多聞台小学校正門横鉄柵,34.6620628,135.0403796,緯度経度は怪しい
兵庫県,神戸市,158,垂水区多聞台5丁目1番,松ケ池公園南側鉄柵,34.6648803,135.0433206,緯度経度は怪しい
兵庫県,神戸市,159,垂水区南多聞台1丁目6番,神戸市水道局西舞子配水場北金網,34.6567323,135.0313385,緯度経度は怪しい
兵庫県,神戸市,160,垂水区南多聞台1丁目8番8号,神陵台地域福祉センター入口ガードレール,34.6571785,135.0326763,緯度経度は怪しい
兵庫県,神戸市,161,垂水区南多聞台7丁目32番3号,明舞派出所東鉄柵,34.6530577,135.0277663,緯度経度は怪しい
兵庫県,神戸市,162,垂水区南多聞台8丁目23番,神戸光生園西側道路鉄柵,34.6507871,135.0310469,緯度経度は怪しい
兵庫県,神戸市,163,垂水区南多聞台7丁目45番,南多聞台7丁目バス停前植え込み,34.6542881,135.0298075,緯度経度は怪しい
兵庫県,神戸市,164,垂水区南多聞台5丁目9番,打田山公園北西側金網,34.6541107,135.0304637,緯度経度は怪しい
兵庫県,神戸市,165,垂水区西舞子9丁目10番,関西電力高圧塔北鉄柵,34.6484502,135.0290056,緯度経度は怪しい
兵庫県,神戸市,166,垂水区舞子坂3丁目1番2号,炭火焼鳥だるま北側歩道鉄柵,34.6464158,135.031673,緯度経度は怪しい
兵庫県,神戸市,167,垂水区舞子坂3丁目17番,舞子坂歩道橋南側道路鉄柵,34.6485699,135.0316301,緯度経度は怪しい
兵庫県,神戸市,168,垂水区舞子坂3丁目17番,奥の池橋西側道路鉄柵,34.6485699,135.0316301,緯度経度は怪しい
兵庫県,神戸市,169,垂水区舞子坂4丁目1番,舞子坂4丁目バス停横歩道鉄柵,34.6498003,135.0336715,緯度経度は怪しい
兵庫県,神戸市,170,垂水区狩口台3丁目1番5号,奥の池保育所正門西側鉄柵,34.6488945,135.0292324,緯度経度は怪しい
兵庫県,神戸市,171,垂水区神陵台6丁目1番,南多聞公園入口横鉄柵,34.6586937,135.0376088,緯度経度は怪しい
兵庫県,神戸市,172,垂水区神陵台2丁目2番,明舞北センタービル4号棟前ガードレール,34.6628634,135.0346923,緯度経度は怪しい
兵庫県,神戸市,173,垂水区神陵台5丁目16番16号,県営明石舞子北第1住宅11号棟南西ガードレール,34.6589671,135.0362904,緯度経度は怪しい
兵庫県,神戸市,174,垂水区神陵台6丁目2番,神陵台公園東側道路向かい金網,34.6598084,135.0364421,緯度経度は怪しい
兵庫県,神戸市,175,垂水区神陵台3丁目1番,神陵台小学校正門横金網,34.6606587,135.0335257,緯度経度は怪しい
兵庫県,神戸市,176,垂水区神陵台2丁目1番60号,神陵台西住宅60号棟東側鉄柵,34.66162310000001,135.0328149,緯度経度は怪しい
兵庫県,神戸市,177,垂水区神陵台1丁目1番11号,県営明舞北鉄筋住宅11号棟東側金網,34.6594242,135.0332888,緯度経度は怪しい
兵庫県,神戸市,178,垂水区神陵台3丁目2番,コープ神陵台店駐車場北側鉄柵,34.66164500000001,135.034589,緯度経度は怪しい
兵庫県,神戸市,179,垂水区小束山本町2丁目16番,小束山小学校南西道路柵,34.6657899,135.0608016,緯度経度は怪しい
兵庫県,神戸市,180,垂水区小東山7丁目868番362号,小束山小学校バス停東側金網,34.6456213,135.032348,緯度経度は怪しい
兵庫県,神戸市,181,垂水区小東山5丁目3番,小束山小学校南東道路柵,34.6456213,135.032348,緯度経度は怪しい
兵庫県,神戸市,182,垂水区小東山本町1丁目1番,山陽バス学が丘4丁目バス停向かい歩道鉄柵,34.6456213,135.032348,緯度経度は怪しい
兵庫県,神戸市,183,垂水区学が丘7丁目1番,厚生年金住宅20号棟跡地東側鉄柵,34.6629529,135.0609475,緯度経度は怪しい
兵庫県,神戸市,184,垂水区小束山2丁目,小束山2丁目公園西側鉄柵,34.6719318,135.0684731,
兵庫県,神戸市,185,垂水区多聞町868番9号,小束山6丁目バス停前道路柵,34.6696445,135.0588302,緯度経度は怪しい
兵庫県,神戸市,186,垂水区小東山手2丁目2番,小束山手2丁目バス停前道路柵,34.6733357,135.0617114,
兵庫県,神戸市,187,垂水区小東台868番1032号,小東台バス停前道路柵,34.6493665,135.0663828,緯度経度は怪しい
兵庫県,神戸市,188,垂水区上高丸2丁目1番,上高丸団地下水処理場前鉄柵,34.6434927,135.0551044,緯度経度は怪しい
兵庫県,神戸市,189,垂水区高丸8丁目14番,上高丸公園鉄柵,34.6426158,135.0570311,緯度経度は怪しい
兵庫県,神戸市,190,垂水区千鳥が丘3丁目20番,山陽バス団地北バス停北側公園鉄柵,34.6458145,135.0586131,緯度経度は怪しい
兵庫県,神戸市,191,垂水区千鳥が丘3丁目23番,千鳥が丘公園南側鉄柵,34.6453226,135.0596344,緯度経度は怪しい
兵庫県,神戸市,192,垂水区高丸8丁目11番,西部療育センター第2駐車場南側空地金網,34.6421928,135.0572271,緯度経度は怪しい
兵庫県,神戸市,193,垂水区千鳥が丘3丁目20-14番,上高丸地域福祉センター前道路柵,34.645543,135.0578862,緯度経度は怪しい
兵庫県,神戸市,194,垂水区上高丸3丁目12番,上高丸北公園石垣,34.6456254,135.0561329,緯度経度は怪しい
兵庫県,神戸市,195,垂水区潮見が丘1丁目5番,潮見が丘東公園西側鉄柵,34.6485114,135.058759,緯度経度は怪しい
兵庫県,神戸市,196,垂水区高丸8丁目8番,高丸くが公園フェンス,34.6410881,135.0569353,緯度経度は怪しい
兵庫県,神戸市,197,垂水区青山台4丁目1番,青山台東公園北西フェンス,34.6426754,135.0757592,緯度経度は怪しい
兵庫県,神戸市,198,垂水区美山台2丁目1番,乙木小学校南出入口横金網,34.6396205,135.0703228,緯度経度は怪しい
兵庫県,神戸市,199,垂水区美山台2丁目1番,乙木小学校北東角金網,34.6396205,135.0703228,緯度経度は怪しい
兵庫県,神戸市,200,垂水区青山台3丁目4番,垂水東中学校東側プール前道路鉄柵,34.6405209,135.0724754,緯度経度は怪しい
兵庫県,神戸市,201,垂水区青山台4丁目8番,美山台バス停道路鉄柵,34.6426034,135.0715998,緯度経度は怪しい
兵庫県,神戸市,202,垂水区青山台1丁目28番,プラザ塩屋北道路鉄柵,34.6375817,135.0722565,緯度経度は怪しい
兵庫県,神戸市,203,垂水区青山台3丁目4番,垂水東中学校西南角金網,34.6405209,135.0724754,緯度経度は怪しい
兵庫県,神戸市,204,垂水区学が丘5丁目3番,学が丘北公園西側鉄柵,34.660159,135.0593153,緯度経度は怪しい
兵庫県,神戸市,205,垂水区学が丘4丁目1番,多聞東小学校東側フェンス,34.6586386,135.0549658,緯度経度は怪しい
兵庫県,神戸市,206,垂水区学が丘2丁目1番,UR新多聞団地421号棟東側鉄柵,34.6567848,135.0530694,緯度経度は怪しい
兵庫県,神戸市,207,垂水区学が丘2丁目1番,UR新多聞団地402号棟東側金網,34.6567848,135.0530694,緯度経度は怪しい
兵庫県,神戸市,208,垂水区学が丘2丁目1番,UR新多聞団地400号棟南西角金網,34.6567848,135.0530694,緯度経度は怪しい
兵庫県,神戸市,209,垂水区学が丘4丁目5番,陣屋公園南側鉄柵,34.6591878,135.0555494,緯度経度は怪しい
兵庫県,神戸市,210,垂水区学が丘3丁目4番,学が丘東公園北側鉄柵,34.6566104,135.0580295,緯度経度は怪しい
兵庫県,神戸市,211,垂水区学が丘4丁目1番,多聞東小学校南西側金網,34.6586386,135.0549658,緯度経度は怪しい
兵庫県,神戸市,212,垂水区学が丘1丁目16番,火の蔵東公園東側鉄柵,34.6531263,135.0520482,緯度経度は怪しい
兵庫県,神戸市,213,垂水区本多聞5丁目1番,コープ新多聞南側陸橋下電話ボックス横金網,34.6534722,135.0484949,緯度経度は怪しい
兵庫県,神戸市,214,垂水区本多聞7丁目24番,本多聞南公園東側鉄柵,34.6525576,135.0446092,緯度経度は怪しい
兵庫県,神戸市,215,垂水区学が丘1丁目2番,学が丘南公園北東道路向かい鉄柵,34.6494761,135.0498601,緯度経度は怪しい
兵庫県,神戸市,216,垂水区本多聞6丁目16番,火の蔵西公園北側鉄柵,34.6521609,135.0468699,緯度経度は怪しい
兵庫県,神戸市,217,垂水区本多聞6丁目8番12号,多聞南地域福祉センター北側フェンス,34.6511506,135.0453342,緯度経度は怪しい
兵庫県,神戸市,218,垂水区本多聞5丁目1番,UR新多聞団地161号棟南フェンス,34.6534722,135.0484949,緯度経度は怪しい
兵庫県,神戸市,219,垂水区本多聞7丁目6番,湯屋公園北側鉄柵,34.6556836,135.0427131,緯度経度は怪しい
兵庫県,神戸市,220,垂水区本多聞5丁目1番,「本多聞中学校前」バス停横ガードレール,34.6534722,135.0484949,緯度経度は怪しい
兵庫県,神戸市,221,垂水区霞ヶ丘6丁目1番25号,霞ヶ丘合同宿舎1号棟北側鉄柵,34.6356967,135.0458372,緯度経度は怪しい
兵庫県,神戸市,222,垂水区東舞子町11番,東舞子町公園前ガードレール,34.6333241,135.035713,緯度経度は怪しい
兵庫県,神戸市,223,垂水区歌敷山2丁目4番,歌敷山中学校北東角金網,34.63598229999999,135.0411088,緯度経度は怪しい
兵庫県,神戸市,224,垂水区歌敷山2丁目4番,歌敷山中学校正門横,34.63598229999999,135.0411088,緯度経度は怪しい
兵庫県,神戸市,225,垂水区霞ヶ丘6丁目7番,西霞ヶ丘公園北側鉄柵,34.6364727,135.0449738,緯度経度は怪しい
兵庫県,神戸市,226,垂水区歌敷山3丁目6番,「学園正門前」バス停横ガードレール,34.6384597,135.042859,緯度経度は怪しい
兵庫県,神戸市,227,垂水区東舞子町14番16号,舞子マンション前鉄柵,34.6322463,135.0376635,緯度経度は怪しい
兵庫県,神戸市,228,垂水区東舞子町9番,舞子駅駐輪場鉄柵,34.6340701,135.0330154,緯度経度は怪しい
兵庫県,神戸市,229,垂水区乙木3丁目3番,福田小学校北西角運動場金網,34.6412594,135.0663463,緯度経度は怪しい
兵庫県,神戸市,230,垂水区乙木3丁目3番,福田小学校正門横金網,34.6412594,135.0663463,緯度経度は怪しい
兵庫県,神戸市,231,垂水区福田4丁目2番,福田南公園西側鉄柵,34.6449934,135.0666382,緯度経度は怪しい
兵庫県,神戸市,232,垂水区福田3丁目1番,流田橋欄干西側,34.643088,135.065567,緯度経度は怪しい
兵庫県,神戸市,233,垂水区向陽1丁目1番,山陽千鳥が丘下バス停道路柵,34.6423555,135.0632091,緯度経度は怪しい
兵庫県,神戸市,234,垂水区向陽3丁目5番,山陽堀割バス停西側道路鉄柵,34.6469394,135.0654708,緯度経度は怪しい
兵庫県,神戸市,235,垂水区東垂水町字菅の口633番の1,みなと銀行サービスコーナー東道路鉄柵,34.6417581,135.0677923,緯度経度は怪しい
兵庫県,神戸市,236,垂水区福田3丁目2番,サンシティ駐車場北側鉄柵,34.6437634,135.0645953,緯度経度は怪しい
兵庫県,神戸市,237,垂水区塩屋台1丁目21番,塩屋台公園(大池)北側鉄柵,34.6429565,135.0848112,緯度経度は怪しい
兵庫県,神戸市,238,垂水区塩屋北町4丁目10番,塩屋北小学校正門北側金網,34.64695409999999,135.0907216,緯度経度は怪しい
兵庫県,神戸市,239,垂水区朝谷町20番1号,神戸市バス鉄拐登山口バス停(西行)前金網,34.6494582,135.0934454,緯度経度は怪しい
兵庫県,神戸市,240,垂水区塩屋北町3丁目9番,柏台西公園北側鉄柵,34.645123,135.0859039,緯度経度は怪しい
兵庫県,神戸市,241,垂水区朝谷町13番,朝谷西公園北側鉄柵,34.6504074,135.0915976,緯度経度は怪しい
兵庫県,神戸市,242,垂水区塩屋北町2丁目5番,柏台北公園南側鉄柵,34.6468622,135.0891887,緯度経度は怪しい
兵庫県,神戸市,243,垂水区塩屋北町1丁目21番,青畑公園東側鉄柵,34.6455585,135.0832763,緯度経度は怪しい
兵庫県,神戸市,244,垂水区塩屋北町1丁目11番,塩屋北町西公園東側鉄柵,34.647731,135.0842252,緯度経度は怪しい
兵庫県,神戸市,245,垂水区桃山台4丁目8番,つつじが丘3丁目バス停道路鉄柵,34.658106,135.0802109,緯度経度は怪しい
兵庫県,神戸市,246,垂水区桃山台7丁目4番,岩原公園南側鉄柵,34.6605924,135.0807948,緯度経度は怪しい
兵庫県,神戸市,247,垂水区桃山台3丁目24番,笹山公園北側鉄柵,34.6549078,135.0822545,緯度経度は怪しい
兵庫県,神戸市,248,垂水区桃山台3丁目21番,桃山台公園東側（下畑台小学校西向）鉄柵,34.6549078,135.0822545,緯度経度は怪しい
兵庫県,神戸市,249,垂水区桃山台2丁目12番,桃山台南口バス転回場東鉄柵,34.6517626,135.0772917,緯度経度は怪しい
兵庫県,神戸市,250,垂水区桃山台1丁目19番,県営桃山台第一団地2号棟北側道路沿鉄柵,34.65029500000001,135.078563,緯度経度は怪しい
兵庫県,神戸市,251,垂水区桃山台5丁目7番,茶の木山公園鉄柵,34.6582112,135.0845901,緯度経度は怪しい
兵庫県,神戸市,252,垂水区桃山台5丁目,神ノ上山公園北側鉄柵,34.6582112,135.0845901,緯度経度は怪しい
兵庫県,神戸市,253,垂水区狩口台1丁目5番,狩口台1丁目バス停留所南ガードレール,34.6508653,135.0248504,緯度経度は怪しい
兵庫県,神戸市,254,垂水区狩口台1丁目1番,UR明石舞子団地C-1棟南側空き地鉄柵,34.6520586,135.027256,緯度経度は怪しい
兵庫県,神戸市,255,垂水区狩口台1丁目3番,UR明石舞子団地C-3号棟前鉄柵,34.65141029999999,135.0260167,緯度経度は怪しい
兵庫県,神戸市,256,垂水区狩口台2丁目23番,UR明石舞子団地C-16棟西側鉄柵,34.650432,135.0274747,緯度経度は怪しい
兵庫県,神戸市,257,垂水区狩口台5丁目15番,県公社矢元台住宅西側柵,34.6484837,135.0239212,緯度経度は怪しい
兵庫県,神戸市,258,垂水区狩口台2丁目7番,明舞幼稚園正門前鉄柵,34.6493708,135.0259438,緯度経度は怪しい
兵庫県,神戸市,259,垂水区狩口台5丁目9番,狩口台5丁目9番1号前鉄柵,34.647548,135.0245588,緯度経度は怪しい
兵庫県,神戸市,260,垂水区狩口台2丁目26番,UR明石舞子団地C-26号棟北側鉄柵,34.6503907,135.0284224,緯度経度は怪しい
兵庫県,神戸市,261,垂水区本多聞3丁目1番,市営本多聞第4住宅22号棟横駐車場フェンス,34.6606666,135.0519024,緯度経度は怪しい
兵庫県,神戸市,262,垂水区本多聞4丁目2番,本多聞公園北側鉄柵,34.6585937,135.0516106,緯度経度は怪しい
兵庫県,神戸市,263,垂水区本多聞4丁目1番,コープ新多聞駐車場金網,34.6560936,135.050626,緯度経度は怪しい
兵庫県,神戸市,264,垂水区本多聞4丁目1番,みなと銀行新多聞支店西側歩道鉄柵,34.6560936,135.050626,緯度経度は怪しい
兵庫県,神戸市,265,垂水区本多聞2丁目16番,本多聞中学校正門横鉄柵,34.6569758,135.045776,緯度経度は怪しい
兵庫県,神戸市,266,垂水区本多聞2丁目33番,荒が谷橋南側欄干,34.6602128,135.0476722,緯度経度は怪しい
兵庫県,神戸市,267,垂水区本多聞3丁目4番,本多聞3丁目バス停前道路鉄柵,34.6610386,135.0482556,緯度経度は怪しい
兵庫県,神戸市,268,垂水区青山台5丁目2番,青山台バス停北側鉄柵,34.6434025,135.0756862,緯度経度は怪しい
兵庫県,神戸市,269,垂水区塩屋町大谷,塩屋中学校正門横金網,34.6341525,135.0816706,緯度経度は怪しい
兵庫県,神戸市,270,垂水区塩屋町大谷,塩屋中学校西南校門横南側金網,34.6341525,135.0816706,緯度経度は怪しい
兵庫県,神戸市,271,垂水区松風台1丁目11番,唐ケ谷東公園西側鉄柵,34.6478985,135.0804299,緯度経度は怪しい
兵庫県,神戸市,272,垂水区松風台1丁目16番,松風台バス停（南行）鉄柵,34.6472222,135.0783864,緯度経度は怪しい
兵庫県,神戸市,273,垂水区松風台2丁目5番,松風台公園南側鉄柵,34.6445576,135.0784594,緯度経度は怪しい
兵庫県,神戸市,274,垂水区松風台2丁目1番,松風台バス停向かいガードレール,34.6464423,135.0779228,緯度経度は怪しい
兵庫県,神戸市,275,垂水区つつじが丘2丁目12番,八代公園北側鉄柵,34.6566124,135.076416,緯度経度は怪しい
兵庫県,神戸市,276,垂水区つつじが丘3丁目1番,つつじが丘小学校南西金網,34.6583959,135.0784594,緯度経度は怪しい
兵庫県,神戸市,277,垂水区つつじが丘4丁目,コーポつつじが丘東 つつじが丘公園南鉄柵,34.6589669,135.0761241,緯度経度は怪しい
兵庫県,神戸市,278,垂水区つつじが丘5丁目19番,桜ケ谷公園南側鉄柵,34.66160240000001,135.0752484,緯度経度は怪しい
兵庫県,神戸市,279,垂水区つつじが丘6丁目7番,丸田公園南側鉄柵,34.661585,135.0775836,緯度経度は怪しい
兵庫県,神戸市,280,垂水区つつじが丘7丁目4番,西ノ子公園西側鉄柵,34.6639307,135.0784594,緯度経度は怪しい
兵庫県,神戸市,281,垂水区つつじが丘1丁目11番,つつじが丘南公園東側鉄柵,34.655523,135.0740808,緯度経度は怪しい
兵庫県,神戸市,282,垂水区清水が丘3丁目6番6号,エニタイムフィットネス垂水店前側溝鉄柵,34.6502435,135.0357677,緯度経度は怪しい
兵庫県,神戸市,283,垂水区清水が丘3丁目5番,大門歩道橋東側鉄柵,34.6515673,135.0380463,緯度経度は怪しい
兵庫県,神戸市,284,垂水区清水が丘2丁目5番,山陽バス清水が丘バス停鉄柵,34.6503035,135.0406713,緯度経度は怪しい
兵庫県,神戸市,285,垂水区清水が丘2丁目4番,清水が丘２丁目公園北側鉄柵,34.6491969,135.0406713,緯度経度は怪しい
兵庫県,神戸市,286,垂水区清水が丘2丁目3番,清水が丘中公園北側鉄柵,34.648982,135.0416922,緯度経度は怪しい
兵庫県,神戸市,287,垂水区清水が丘2丁目7番,清水が丘１丁目バス停西側鉄柵,34.649878,135.0421297,緯度経度は怪しい
兵庫県,神戸市,288,垂水区清水が丘1丁目6番,狐坂公園北側道路鉄柵,34.6485045,135.0455572,緯度経度は怪しい
兵庫県,神戸市,289,垂水区狩口台6丁目5番,狩口台公園東側鉄柵,34.6453474,135.0228094,緯度経度は怪しい
兵庫県,神戸市,290,垂水区狩口台6丁目7番,市営狩口第2住宅北側鉄柵,34.645793,135.0220521,緯度経度は怪しい
兵庫県,神戸市,291,垂水区狩口台6丁目4番,市営狩口住宅6号棟東鉄柵,34.6458117,135.0206956,緯度経度は怪しい
兵庫県,神戸市,292,垂水区狩口台6丁目12番,舞子狩口線道路南側金網,34.6430538,135.0195294,緯度経度は怪しい
兵庫県,神戸市,293,垂水区狩口台7丁目6番,狩口地域センター東側側溝,34.6440655,135.0231739,緯度経度は怪しい
兵庫県,神戸市,294,垂水区名谷町,市営ベルデ名谷住宅7番館西フェンス,34.6628331,135.0724825,緯度経度は怪しい
兵庫県,神戸市,295,垂水区名谷町,市営ベルデ名谷住宅1番館北西鉄柵,34.6628331,135.0724825,緯度経度は怪しい
兵庫県,神戸市,296,垂水区名谷町,市営ベルデ名谷住宅2番館南側(西寄り)鉄柵,34.6628331,135.0724825,緯度経度は怪しい
兵庫県,神戸市,297,垂水区星陵台4丁目4番,山陽バス舞子墓園前バス停金網,34.6475436,135.0492767,緯度経度は怪しい
兵庫県,神戸市,298,垂水区星が丘4丁目3番,星陵台中学校正門東道路鉄柵,34.6402175,135.0484015,緯度経度は怪しい
兵庫県,神戸市,299,垂水区星陵台4丁目3番,星陵台中学校東門歩道鉄柵,34.6457515,135.0484015,緯度経度は怪しい
兵庫県,神戸市,300,垂水区星が丘3丁目3番,星陵高校前バス停(南行)前道路柵,34.6414956,135.0486203,緯度経度は怪しい
兵庫県,神戸市,301,垂水区星陵台4丁目3番,山陽バス方向転換所前道路鉄柵,34.6457515,135.0484015,緯度経度は怪しい
兵庫県,神戸市,302,垂水区星陵台4丁目3番,山陽バス県商前バス停南鉄柵,34.6457515,135.0484015,緯度経度は怪しい
兵庫県,神戸市,303,垂水区星が丘3丁目4番,星が丘公園前ガードレール,34.6422247,135.0482556,緯度経度は怪しい
兵庫県,神戸市,304,垂水区星が丘3丁目6番,山陽バス星が丘バス停鉄柵(南行),34.6440082,135.0502978,緯度経度は怪しい
兵庫県,神戸市,305,垂水区舞多聞西5丁目12番,舞多聞中央橋欄干,34.6651799,135.0494225,緯度経度は怪しい
兵庫県,神戸市,306,垂水区舞多聞東2丁目2番,舞多聞みついけ南公園東側鉄柵,34.66291289999999,135.0521212,緯度経度は怪しい
兵庫県,神戸市,307,垂水区舞多聞西1丁目13番,舞多聞南公園北側フェンス,34.6632291,135.0465782,緯度経度は怪しい
兵庫県,神戸市,308,垂水区舞多聞西5丁目12番,学園南公園北西鉄柵,34.6651799,135.0494225,緯度経度は怪しい
兵庫県,神戸市,309,垂水区舞多聞西4丁目1番,舞多聞中公園東側鉄柵,34.6672444,135.0459948,緯度経度は怪しい
兵庫県,神戸市,310,垂水区舞多聞西8丁目9番,舞多聞西公園南側鉄柵,34.6702687,135.0486203,緯度経度は怪しい
兵庫県,神戸市,311,垂水区舞多聞西5丁目11番,舞多聞小学校北側フェンス,34.6666292,135.0498601,緯度経度は怪しい
兵庫県,神戸市,2,北区日の峰1丁目19番地,箕谷地域福祉センター分館東側ガードレール,34.7595885,135.1477105,緯度経度は怪しい
兵庫県,神戸市,3,北区日の峰2丁目1番地,日の峰南公園北側鉄柵,34.7551843,135.1430188,緯度経度は怪しい
兵庫県,神戸市,4,北区日の峰2丁目1番地,日の峰南公園南東角鉄柵,34.7551843,135.1430188,緯度経度は怪しい
兵庫県,神戸市,5,北区日の峰2丁目5番地,日の峰2丁目交差点北側コアオタマ子駐車場より鉄柵,34.7551843,135.1430188,緯度経度は怪しい
兵庫県,神戸市,6,北区日の峰3丁目19番地,日の峰中公園南側鉄柵,34.7579425,135.1441882,緯度経度は怪しい
兵庫県,神戸市,7,北区日の峰3丁目25番地の４,日の峰交番斜め前鉄柵,34.7572602,135.1423365,緯度経度は怪しい
兵庫県,神戸市,8,北区日の峰4丁目19番地の3,サウスコート1番館入口東側鉄柵,34.7604113,135.1428875,緯度経度は怪しい
兵庫県,神戸市,9,北区桂木1丁目2番地,桂木小学校車両入口児童館側鉄柵,34.7481006,135.1458437,緯度経度は怪しい
兵庫県,神戸市,10,北区桂木2丁目2番地,桂木小学校正門前月極駐車場側鉄柵,34.7496508,135.1430188,緯度経度は怪しい
兵庫県,神戸市,11,北区桂木2丁目17番地の6,ウィルコートA棟前東側鉄柵,34.7513692,135.1426096,緯度経度は怪しい
兵庫県,神戸市,12,北区桂木3丁目16番地,桂木北公園北側鉄柵,34.7535158,135.1441882,緯度経度は怪しい
兵庫県,神戸市,13,北区桂木3丁目15番地の1,日の峰1丁目交差点南側阪神高速越える西角鉄柵,34.7549826,135.1464917,緯度経度は怪しい
兵庫県,神戸市,14,北区桂木4丁目2番地,別当谷公園西側鉄柵（南北の道路に沿って設置されている鉄柵）,34.7540438,135.1476963,緯度経度は怪しい
兵庫県,神戸市,15,北区大原1丁目19番地,大原中学校正門階段下鉄柵（道路側に設置）,34.7466738,135.1438905,緯度経度は怪しい
兵庫県,神戸市,16,北区大原3丁目18番地,交通局神戸北町操車場前バス停横鉄柵,34.7476946,135.1390915,緯度経度は怪しい
兵庫県,神戸市,17,北区緑町4丁目8番32号,市営山の街住宅32･35号棟東側遊歩道横石垣,34.7534782,135.1508557,緯度経度は怪しい
兵庫県,神戸市,18,北区緑町4丁目4番14号,山の街住宅第1集会所南側鉄柵,34.7531577,135.1491743,緯度経度は怪しい
兵庫県,神戸市,19,北区緑町4丁目5番14号,笹小橋欄干,34.7517429,135.1492948,緯度経度は怪しい
兵庫県,神戸市,20,北区緑町4丁目6番2号,山の街南公園北側鉄柵,34.7522808,135.1506451,緯度経度は怪しい
兵庫県,神戸市,21,北区緑町4丁目8番27号,市営山の街住宅27号棟北側緑地金網,34.7545087,135.1496422,緯度経度は怪しい
兵庫県,神戸市,22,北区緑町1丁目1番1号,神鉄山の街駅南側ウエト電気店前神鉄金網,34.7493187,135.15062,緯度経度は怪しい
兵庫県,神戸市,23,北区緑町1丁目1番12号,神鉄山の街駅前バスターミナル改札前ガードレール(月極駐車場、バス出入口に配慮する事),34.7493187,135.15062,緯度経度は怪しい
兵庫県,神戸市,24,北区緑町1丁目4番5号,神鉄山の街駅改札前駐車場向いガードレール,34.7493187,135.15062,緯度経度は怪しい
兵庫県,神戸市,25,北区緑町2丁目7番28号,甲緑地域福祉センター入口横金網,34.7493187,135.15062,緯度経度は怪しい
兵庫県,神戸市,26,北区緑町6丁目1番1号,兵庫信用金庫山の街支店向い神鉄金網,34.7470478,135.1511527,緯度経度は怪しい
兵庫県,神戸市,27,北区緑町6丁目13番1号,百合ヶ丘公園グラウンド東側金網,34.7477602,135.1485369,緯度経度は怪しい
兵庫県,神戸市,28,北区緑町7丁目12番10号,甲緑小学校正門西側金網,34.7452079,135.1502762,緯度経度は怪しい
兵庫県,神戸市,29,北区緑町8丁目12番1号,ライフシティ神戸緑園都市入口階段向い金網,34.7514546,135.1553719,緯度経度は怪しい
兵庫県,神戸市,30,北区広陵町2丁目28番地,広陵町集会所正面入口金網,34.7492497,135.159977,緯度経度は怪しい
兵庫県,神戸市,31,北区広陵町3丁目144番地,広陵小公園北側鉄柵,34.7514929,135.160612,緯度経度は怪しい
兵庫県,神戸市,32,北区広陵町4丁目84番地,広陵交番前小屋の谷公園東側鉄柵,34.75130559999999,135.162609,緯度経度は怪しい
兵庫県,神戸市,33,北区広陵町6丁目1番地,masked,34.7478433,135.159217,緯度経度は怪しい
兵庫県,神戸市,34,北区山田町下谷上字門口10番地の3,デイサービスセンターこんぺいとう南側鉄柵,34.7496851,135.1556832,緯度経度は怪しい
兵庫県,神戸市,35,北区山田町下谷上字門口17番地,やきもち地蔵前歩道橋北側鉄柵,34.7502507,135.1555907,緯度経度は怪しい
兵庫県,神戸市,36,北区山田町下谷上字下ノ勝6番地,やきもち地蔵前バス停(上り)鉄柵,34.7476769,135.1574914,緯度経度は怪しい
兵庫県,神戸市,37,北区小倉台1丁目2番地,鷺谷公園前バス停前公園鉄柵,34.7528218,135.1640379,
兵庫県,神戸市,38,北区小倉台2丁目11番地の7,小倉台自治会館入口西側石垣,34.7523599,135.1665382,緯度経度は怪しい
兵庫県,神戸市,39,北区小倉台2丁目19番地,広陵交番南側50m先三差路ガードレール,34.7511476,135.1652412,緯度経度は怪しい
兵庫県,神戸市,40,北区小倉台5丁目1番地,広陵中学校前バス停南側中学校金網,34.7493202,135.1690434,緯度経度は怪しい
兵庫県,神戸市,41,北区小倉台5丁目6番地,masked,34.7493202,135.1690434,緯度経度は怪しい
兵庫県,神戸市,42,北区小倉台6丁目8番地,菖蒲谷公園北側鉄柵,34.74888079999999,135.172261,緯度経度は怪しい
兵庫県,神戸市,43,北区小倉台7丁目13番地,入道が谷公園南側鉄柵,34.75235139999999,135.1707984,緯度経度は怪しい
兵庫県,神戸市,44,北区筑紫が丘2丁目9番地,広陵小学校東門南側金網,34.7483714,135.1664111,緯度経度は怪しい
兵庫県,神戸市,45,北区筑紫が丘3丁目2番地,筑紫が丘公園バス停南側イオン駐車場金網,34.74452309999999,135.1629015,緯度経度は怪しい
兵庫県,神戸市,46,北区筑紫が丘3丁目4番地,筑紫が丘小学校北側入口通路鉄柵,34.74452309999999,135.1629015,緯度経度は怪しい
兵庫県,神戸市,47,北区筑紫が丘3丁目4番地,筑紫が丘小学校南門東側金網,34.74452309999999,135.1629015,緯度経度は怪しい
兵庫県,神戸市,48,北区筑紫が丘4丁目8番地の12,読売新聞筑紫が丘販売所前筑紫第二橋金網,34.74653970000001,135.1661576,緯度経度は怪しい
兵庫県,神戸市,49,北区筑紫が丘5丁目8番地,南つくしが丘西公園南側鉄柵,34.7417644,135.1617317,緯度経度は怪しい
兵庫県,神戸市,50,北区筑紫が丘3丁目2番地の13,つくしホール(筑紫が丘自治会館)入口金網,34.7461411,135.1632405,緯度経度は怪しい
兵庫県,神戸市,51,北区山田町下谷上字大正坊6番地,大正坊交差点南側鉄柵,34.7433722,135.1595384,緯度経度は怪しい
兵庫県,神戸市,52,北区惣山町1丁目6番地,酒販売店(セラーハウス)駐車場横欄干,34.7346478,135.1512048,緯度経度は怪しい
兵庫県,神戸市,53,北区惣山町1丁目19番地,北鈴蘭台西公園東側鉄柵,34.7346478,135.1512048,緯度経度は怪しい
兵庫県,神戸市,54,北区惣山町2丁目1番地,独立行政法人地域医療機能推進機構 神戸中央病院東南角金網,34.7368443,135.1535439,緯度経度は怪しい
兵庫県,神戸市,55,北区若葉台1丁目3番15号,桜の宮小学校正門小学校金網,34.8083635,135.2149131,緯度経度は怪しい
兵庫県,神戸市,56,北区若葉台3丁目1番14号,桜の宮小交差点,34.73934850000001,135.1556068,緯度経度は怪しい
兵庫県,神戸市,57,北区若葉台2丁目12番,若葉台公園南側側溝,34.7415974,135.1563217,緯度経度は怪しい
兵庫県,神戸市,58,北区大脇台7番,国道428号線北鈴入口交差点東側金網,34.739256,135.1594653,緯度経度は怪しい
兵庫県,神戸市,59,北区甲栄台1丁目8番1号,市営桜の宮住宅1号棟東側三又路碑鉄金網,34.7416715,135.1517488,緯度経度は怪しい
兵庫県,神戸市,60,北区甲栄台1丁目9番,メゾン北鈴B棟北側ガードレール,34.7433629,135.1514972,緯度経度は怪しい
兵庫県,神戸市,61,北区甲栄台1丁目12番,ライオンズマンション北鈴蘭台B棟東側神鉄金網,34.7434739,135.1528494,緯度経度は怪しい
兵庫県,神戸市,62,北区甲栄台2丁目2番23号,桜の宮地域福祉センター北西角側溝,34.7404637,135.15062,緯度経度は怪しい
兵庫県,神戸市,63,北区甲栄台2丁目4番1号,KITASUZUHAUS 南側ガードレール(歩道向),34.7404637,135.15062,緯度経度は怪しい
兵庫県,神戸市,64,北区甲栄台4丁目6番46号,新桜の宮市営住宅1号棟前駐車場側鉄柵,34.7396277,135.1503665,緯度経度は怪しい
兵庫県,神戸市,65,北区甲栄台4丁目1番,「北鈴蘭台駅」バス停横ガードレール歩道側に向ける,34.7391416,135.1516433,緯度経度は怪しい
兵庫県,神戸市,66,北区泉台2丁目1番地,泉橋北側欄干,34.7387147,135.1438958,緯度経度は怪しい
兵庫県,神戸市,67,北区泉台2丁目1番地,泉橋南側欄干,34.7387147,135.1438958,緯度経度は怪しい
兵庫県,神戸市,68,北区泉台2丁目3番地,東山公園北西角鉄柵,34.7387147,135.1438958,緯度経度は怪しい
兵庫県,神戸市,69,北区泉台4丁目2番地,泉台小学校正門横北側金網,34.7397239,135.1383418,緯度経度は怪しい
兵庫県,神戸市,70,北区泉台4丁目2番地,泉台小学校西門金網,34.7397239,135.1383418,緯度経度は怪しい
兵庫県,神戸市,71,北区泉台5丁目12番地,西泉台公園前バス停北側 公園鉄柵,34.7380893,135.1348344,緯度経度は怪しい
兵庫県,神戸市,72,北区泉台7丁目2番地,鈴蘭泉台第1住宅集会所南側金網,34.7375614,135.1313272,緯度経度は怪しい
兵庫県,神戸市,73,北区杉尾台1丁目,リンガーハット神戸鈴蘭台店北側鉄柵,34.7351389,135.1409726,緯度経度は怪しい
兵庫県,神戸市,74,北区鈴蘭台北町2丁目5番6号,神鉄鈴蘭台変電所西側金網(2枚の時は暴力追放看板の左右),34.728233,135.1462711,緯度経度は怪しい
兵庫県,神戸市,75,北区鈴蘭台北町3丁目8番1号,小部小学校正門南側金網,34.7294925,135.1475547,緯度経度は怪しい
兵庫県,神戸市,76,北区鈴蘭台北町3丁目26番1号,すずかぜ幼稚園北側金網,34.730046,135.1483572,緯度経度は怪しい
兵庫県,神戸市,77,北区鈴蘭台北町3丁目25番15号,大東交差点西信号南西鉄柵(2種類あるときは向かって左側も使用する),34.7311493,135.1501889,緯度経度は怪しい
兵庫県,神戸市,78,北区鈴蘭台北町6丁目12番1号,ブエナビスタ神戸ノース公園南西側鉄柵,34.7295051,135.1528542,緯度経度は怪しい
兵庫県,神戸市,79,北区鈴蘭台西町5丁目4番,西小部大橋東側鉄柵,34.7307971,135.1448006,緯度経度は怪しい
兵庫県,神戸市,80,北区山田町小部字西ノ岡谷16番地,小部小西交差点北側ガードレール,34.7353674,135.1658261,緯度経度は怪しい
兵庫県,神戸市,81,北区山田町小部字法殿ノ下21番地,国道428号線北行き二軒茶屋バス停南側鉄柵,34.7353674,135.1658261,緯度経度は怪しい
兵庫県,神戸市,82,北区鈴蘭台北町6丁目1番,鈴蘭台北町公園北側鉄柵,34.7284711,135.1536901,緯度経度は怪しい
兵庫県,神戸市,83,北区鈴蘭台東町5丁目3番1号,神戸鈴蘭台東郵便局前交差点ガードレール,34.7262536,135.1529774,緯度経度は怪しい
兵庫県,神戸市,84,北区鈴蘭台東町8丁目7番,東町三角公園西側鉄柵,34.7229025,135.1534708,緯度経度は怪しい
兵庫県,神戸市,85,北区鈴蘭台東町9丁目14番1号,鈴蘭台一ツ錨山共同住宅南東町公園バス停後壁面,34.72481,135.1568297,緯度経度は怪しい
兵庫県,神戸市,86,北区鈴蘭台北町7丁目11番22号,小部東小学校北門角鉄柵(木に被らないように),34.7280495,135.1570746,緯度経度は怪しい
兵庫県,神戸市,87,北区鈴蘭台北町7丁目11番22号,小部東小学校北門横鉄柵,34.7280495,135.1570746,緯度経度は怪しい
兵庫県,神戸市,88,北区山田町小部字オモ谷1番地の1向,鈴蘭台東口交差点東側鉄柵,34.7353674,135.1658261,緯度経度は怪しい
兵庫県,神戸市,89,北区山田町下谷上字中一里山6番地,水呑交差点北西角ガードレール,34.7215166,135.161029,緯度経度は怪しい
兵庫県,神戸市,90,北区中里町1丁目1番8番地75号付近,中里北公園西角鉄柵,34.7168981,135.1558831,緯度経度は怪しい
兵庫県,神戸市,91,北区中里町1丁目8番地の280,中里中央公園西側集会所寄り鉄柵,34.7163729,135.1559154,緯度経度は怪しい
兵庫県,神戸市,92,北区中里町2丁目6番地の15,神戸ヒルズⅠ南側中里自治会掲示板鉄柵横,34.7135861,135.1556172,緯度経度は怪しい
兵庫県,神戸市,93,北区山田町下谷上字中一里山9番地の107,神戸鈴蘭台高校通用門入口横鉄柵,34.7191474,135.1535996,緯度経度は怪しい
兵庫県,神戸市,94,北区山田町小部字南山2番地,市営鈴蘭台東第3住宅1号棟南側調整池北側鉄柵,34.7209228,135.1519606,緯度経度は怪しい
兵庫県,神戸市,95,北区鈴蘭台東町5丁目8番17号,鈴蘭しらゆり保育園正門横駐車場鉄柵,34.7246909,135.1490544,緯度経度は怪しい
兵庫県,神戸市,96,北区鈴蘭台北町1丁目9番11号,旧みなと銀行鈴蘭台支店西側神鉄鉄柵,34.7247616,135.1459419,緯度経度は怪しい
兵庫県,神戸市,97,北区鈴蘭台北町1丁目9番1号,ベルスト鈴蘭台1階バスロータリー,34.7245642,135.1465417,緯度経度は怪しい
兵庫県,神戸市,98,北区鈴蘭台北町1丁目10番14号,踏切南側神鉄鉄柵,34.7254065,135.1458521,緯度経度は怪しい
兵庫県,神戸市,99,北区鈴蘭台北町4丁目5番,山田小部公園入口横鉄柵,34.7266701,135.1493774,緯度経度は怪しい
兵庫県,神戸市,100,北区鈴蘭台東町6丁目10番32号,市営鈴蘭台東第2住宅6号棟北東角鉄柵,34.7254653,135.1529914,緯度経度は怪しい
兵庫県,神戸市,101,北区鈴蘭台東町6丁目12番1号,市営鈴蘭台東第2住宅1号棟西側柵,34.7247051,135.1515365,緯度経度は怪しい
兵庫県,神戸市,102,北区鈴蘭台東町1丁目10番3号,第一生命ビル西側神鉄金網,34.7229102,135.1462666,緯度経度は怪しい
兵庫県,神戸市,103,北区鈴蘭台南町6丁目8番,鈴蘭台旭ヶ丘公園鉄柵,34.7207924,135.1443343,緯度経度は怪しい
兵庫県,神戸市,104,北区鈴蘭台東町2丁目6番18号,岩見台市民公園北側鉄柵,34.721052,135.1494414,緯度経度は怪しい
兵庫県,神戸市,105,北区鈴蘭台南町1丁目1番15号,ダイエー鈴蘭台店正面前ガードレール,34.72396579999999,135.1447468,緯度経度は怪しい
兵庫県,神戸市,106,北区鈴蘭台南町6丁目1番32号,旭ヶ丘団地入口神鉄壁面,34.7228571,135.145796,緯度経度は怪しい
兵庫県,神戸市,107,北区鈴蘭台南町7丁目2番12号,一本松交差点北側駐輪場金網,34.7197467,135.1453575,緯度経度は怪しい
兵庫県,神戸市,108,北区鈴蘭台南町8丁目12番10号,鈴蘭橋北側鉄柵,34.7194891,135.1429211,緯度経度は怪しい
兵庫県,神戸市,109,北区鈴蘭台西町1丁目22番1号,北区民センター北側鉄柵,34.7275048,135.1441327,緯度経度は怪しい
兵庫県,神戸市,110,北区鈴蘭台西町1丁目26番1号,神戸市立北区文化センターすずらんホール西側ガードレール,34.7266329,135.1451383,緯度経度は怪しい
兵庫県,神戸市,111,北区鈴蘭台西町1丁目26番4号,中畑山南公園前神鉄金網,34.7264365,135.1454183,緯度経度は怪しい
兵庫県,神戸市,112,北区鈴蘭台西町2丁目1番1号,サングレイ西鈴西側神鉄金網,34.7268019,135.1410457,緯度経度は怪しい
兵庫県,神戸市,113,北区鈴蘭台西町2丁目6番16号,masked,34.7264205,135.1400752,緯度経度は怪しい
兵庫県,神戸市,114,北区鈴蘭台西町3丁目6番20号,鈴蘭台西町保育所跡地鉄柵,34.72873,135.1404454,緯度経度は怪しい
兵庫県,神戸市,115,北区鈴蘭台南町2丁目14番24号,鈴蘭台小学校正門横石垣,34.7250543,135.1408778,緯度経度は怪しい
兵庫県,神戸市,116,北区鈴蘭台南町2丁目14番24号,鈴蘭台小学校南門横金網,34.7250543,135.1408778,緯度経度は怪しい
兵庫県,神戸市,117,北区北五葉1丁目1番,西鈴蘭台交差点北側池の谷橋西側欄干鉄柵,34.7258439,135.1349805,
兵庫県,神戸市,118,北区北五葉1丁目1番1号,神鉄西鈴蘭台駅改札横階段上神鉄金網,34.7257901,135.1357042,
兵庫県,神戸市,119,北区北五葉1丁目10番1号,五葉松公園西側金網,34.7282949,135.1356381,
兵庫県,神戸市,120,北区北五葉2丁目1番,神戸北郵便局南側矢の口橋西側鉄柵,34.7268978,135.1327885,緯度経度は怪しい
兵庫県,神戸市,121,北区北五葉2丁目6番1号,中尾公園西側金網,34.7301086,135.1335922,緯度経度は怪しい
兵庫県,神戸市,122,北区北五葉2丁目10番32号,鈴蘭台中学校正門南側金網,34.72943,135.1329413,緯度経度は怪しい
兵庫県,神戸市,123,北区北五葉4丁目6番1号,夏堀公園東側鉄柵,34.7334248,135.1341767,緯度経度は怪しい
兵庫県,神戸市,124,北区鈴蘭台西町5丁目22番,荒神谷公園北側鉄柵,34.7304567,135.1426534,緯度経度は怪しい
兵庫県,神戸市,125,北区北五葉3丁目7番1号,北五葉小学校正門横金網,34.7298193,135.1370722,緯度経度は怪しい
兵庫県,神戸市,126,北区北五葉3丁目7番1号,北五葉小学校裏門横金網,34.7298193,135.1370722,緯度経度は怪しい
兵庫県,神戸市,127,北区北五葉3丁目8番41号,北五葉ショッピングセンター入口ガードレール,34.7319248,135.1378703,緯度経度は怪しい
兵庫県,神戸市,128,北区北五葉6丁目2番52号,鈴蘭台第1団地52号棟東側鉄柵,34.7326614,135.1392187,緯度経度は怪しい
兵庫県,神戸市,129,北区北五葉7丁目1番1号,鈴蘭台第1団地1号棟東側金網,34.7297641,135.1388752,緯度経度は怪しい
兵庫県,神戸市,130,北区北五葉7丁目1番15号,「北五葉7丁目」バス停後ろ、鈴蘭台第1住宅14号棟金網,34.7313769,135.1397972,緯度経度は怪しい
兵庫県,神戸市,131,北区南五葉1丁目1番1号,コープこうべ西鈴蘭台店北側公園南東側鉄柵,34.722782,135.1342215,緯度経度は怪しい
兵庫県,神戸市,132,北区南五葉1丁目1番30号,神鉄西鈴蘭台駅前公園内西側鉄柵,34.722782,135.1342215,緯度経度は怪しい
兵庫県,神戸市,133,北区南五葉3丁目1番1号,南五葉小学校東門横金網,34.7220786,135.133405,緯度経度は怪しい
兵庫県,神戸市,134,北区南五葉3丁目1番1号,南五葉小学校北東角歩道橋下ガードレール,34.7220786,135.133405,緯度経度は怪しい
兵庫県,神戸市,135,北区南五葉3丁目1番1号,南五葉小学校西入口門横石垣（金網）,34.7220786,135.133405,緯度経度は怪しい
兵庫県,神戸市,136,北区南五葉5丁目1番1号,鈴蘭公園北入口鉄柵,34.722999,135.1366692,緯度経度は怪しい
兵庫県,神戸市,137,北区南五葉5丁目9番3号,masked,34.7219277,135.1390987,緯度経度は怪しい
兵庫県,神戸市,138,北区星和台1丁目6番地,星和台中学校正門北側側溝,34.7193073,135.1301582,緯度経度は怪しい
兵庫県,神戸市,139,北区星和台1丁目6番地,星和台中学校東側入口鉄柵,34.7193073,135.1301582,緯度経度は怪しい
兵庫県,神戸市,140,北区星和台1丁目15番地,瓜山公園西側角鉄柵,34.7193073,135.1301582,緯度経度は怪しい
兵庫県,神戸市,141,北区星和台1丁目16番地,星和台緑地階段横鉄柵,34.7193073,135.1301582,緯度経度は怪しい
兵庫県,神戸市,142,北区星和台2丁目18番地,星和台公園西側鉄柵,34.7154243,135.1313272,緯度経度は怪しい
兵庫県,神戸市,143,北区星和台2丁目50番地,下切公園北東角柵,34.7154243,135.1313272,緯度経度は怪しい
兵庫県,神戸市,144,北区星和台3丁目18番地,星和台4丁目交差点南側石垣,34.7182351,135.1254824,緯度経度は怪しい
兵庫県,神戸市,145,北区星和台4丁目11番地,星和台4丁目交差点南側石垣丁目交差点北側石垣,34.7193591,135.1231448,緯度経度は怪しい
兵庫県,神戸市,146,北区星和台4丁目12番地,「星和台3」交差点南西側擁壁,34.7193591,135.1231448,緯度経度は怪しい
兵庫県,神戸市,147,北区星和台6丁目21番地,星和台小学校正門横金網,34.7226796,135.1231448,緯度経度は怪しい
兵庫県,神戸市,148,北区星和台6丁目21番地,星和台小学校北門金網,34.7226796,135.1231448,緯度経度は怪しい
兵庫県,神戸市,149,北区星和台6丁目28番地,星和台ファミリーホール駐車場金網,34.7226796,135.1231448,緯度経度は怪しい
兵庫県,神戸市,150,北区鳴子2丁目1番地,星和台鳴子地域福祉センター東側階段の鉄柵,34.7232073,135.1266513,緯度経度は怪しい
兵庫県,神戸市,151,北区鳴子3丁目4番地,鳴子公園南東角石垣,34.7255529,135.127528,緯度経度は怪しい
兵庫県,神戸市,152,北区君影町1丁目1番5号,鈴蘭台第5団地5号棟東角金網,34.7176607,135.1346374,緯度経度は怪しい
兵庫県,神戸市,153,北区君影町1丁目2番7号,神鉄バス君影小前バス停南側鉄柵,34.7153233,135.1355651,緯度経度は怪しい
兵庫県,神戸市,154,北区君影町1丁目2番10号,君影地域福祉センター入口金網,34.7154089,135.1358492,緯度経度は怪しい
兵庫県,神戸市,155,北区君影町3丁目1番25号,鈴蘭台第5団地25号棟東側金網,34.7161918,135.1369193,緯度経度は怪しい
兵庫県,神戸市,156,北区君影町3丁目1番29号,鈴蘭台第5団地29号棟東側中間歩道橋鉄柵,34.7167496,135.1378682,緯度経度は怪しい
兵庫県,神戸市,157,北区君影町3丁目1番40号,鈴蘭台第5団地40号棟南東角金網,34.7163787,135.138911,緯度経度は怪しい
兵庫県,神戸市,158,北区君影町5丁目1番17号,君影保育所西側金網,34.7184587,135.1395476,緯度経度は怪しい
兵庫県,神戸市,159,北区ひよどり台3丁目3番地,ひよどり台小学校正門金網,34.6977645,135.1243136,緯度経度は怪しい
兵庫県,神戸市,160,北区ひよどり台3丁目3番地,ひよどり台小学校北側金網,34.6977645,135.1243136,緯度経度は怪しい
兵庫県,神戸市,161,北区ひよどり台3丁目8番地,市バスひよどり台センター前バス停後 公園鉄柵,34.6977645,135.1243136,緯度経度は怪しい
兵庫県,神戸市,162,北区ひよどり台3丁目15番地,市バスターミナル東側角ガードレール,34.6977645,135.1243136,緯度経度は怪しい
兵庫県,神戸市,163,北区ひよどり台4丁目9番地,ひよどり台中央交差点北側鉄柵,34.6993985,135.1278202,緯度経度は怪しい
兵庫県,神戸市,164,北区ひよどり台5丁目7番地,市公社ひよどり台団地63号棟南側スロープ鉄柵,34.7005587,135.1208072,緯度経度は怪しい
兵庫県,神戸市,165,北区ひよどり台南町1丁目15番地の120,北消防署ひよどり出張所西側金網,34.687507,135.1240801,緯度経度は怪しい
兵庫県,神戸市,166,北区山田町藍那字手垣,しあわせの村交差点南東側(星和台南バス停横※南行き)鉄柵,34.7328334,135.1162333,緯度経度は怪しい
兵庫県,神戸市,167,北区ひよどり台1丁目1番地,ひよどり台中央団地113号棟西側ガードレール,34.6950234,135.1208072,緯度経度は怪しい
兵庫県,神戸市,168,北区ひよどり台1丁目1番地,ひよどり台中央団地107号棟北側金網,34.6950234,135.1208072,緯度経度は怪しい
兵庫県,神戸市,169,北区ひよどり台1丁目4番地の132,ひよどり台中央団地132号棟北側柵,34.6963316,135.1212508,緯度経度は怪しい
兵庫県,神戸市,170,北区ひよどり台1丁目22番地,鶴台中学校東門東側鉄柵(足りない時は金網も使用),34.6950234,135.1208072,緯度経度は怪しい
兵庫県,神戸市,171,北区ひよどり台2丁目1番地,ひよどり台交番南側鉄柵,34.6972552,135.1184698,緯度経度は怪しい
兵庫県,神戸市,172,北区ひよどり台2丁目1番地,ひよどり台会館正面前歩道橋鉄柵,34.6972552,135.1184698,緯度経度は怪しい
兵庫県,神戸市,173,北区ひよどり台5丁目10番地,ひよどり台中央団地138号棟北側駐車場南東角金網,34.7005587,135.1208072,緯度経度は怪しい
兵庫県,神戸市,174,北区山田町藍那6番地の2,藍那クリーンステーション前ガードレール,34.7328246,135.1164277,緯度経度は怪しい
兵庫県,神戸市,175,北区山田町藍那字清水26番地の2,神鉄藍那駅東側北側鉄柵,34.7328334,135.1162333,緯度経度は怪しい
兵庫県,神戸市,176,北区山田町藍那字清水26番地の2,神鉄藍那駅西側北側石垣,34.7328334,135.1162333,緯度経度は怪しい
兵庫県,神戸市,177,北区山田町藍那字下ノ町59番地,藍那警鐘台南側中橋欄干,34.7328334,135.1162333,緯度経度は怪しい
兵庫県,神戸市,178,北区山田町藍那字蛇谷1番地の10,藍那小学校正門金網,34.7328334,135.1162333,緯度経度は怪しい
兵庫県,神戸市,179,北区山田町小河字平五郎33番地付近,防火水槽北側ガードレール,34.7491196,135.1003586,緯度経度は怪しい
兵庫県,神戸市,180,北区山田町小河字中ノ留10番地,masked,34.7491196,135.1003586,緯度経度は怪しい
兵庫県,神戸市,181,北区山田町衝原字道南13番地の1,衝原市バス回転地金網,34.771302,135.0910136,緯度経度は怪しい
兵庫県,神戸市,182,北区山田町坂本字原123番地,坂本バス停前鉄柵,34.7639962,135.1100318,緯度経度は怪しい
兵庫県,神戸市,183,北区山田町西下字大道下32番地の3,西下公会堂南側溝,34.7579062,135.1097054,緯度経度は怪しい
兵庫県,神戸市,184,北区山田町東下字後ケ市5番地,丹生神社バス停前空地,34.7489911,135.1190541,緯度経度は怪しい
兵庫県,神戸市,185,北区山田町東下字山ノ越30番地,東下バス停鉄柵,34.7489911,135.1190541,緯度経度は怪しい
兵庫県,神戸市,186,北区山田町中字長尾ノ43番地,市住東下住宅南側金網,34.7577775,135.1284047,緯度経度は怪しい
兵庫県,神戸市,187,北区山田町中字長尾ノ1番地,山田小学校北側金網,34.7577775,135.1284047,緯度経度は怪しい
兵庫県,神戸市,188,北区山田町福地字下津ノ73番地の2,福地バス停前鉄柵,34.781524,135.1342498,緯度経度は怪しい
兵庫県,神戸市,189,北区山田町原野字谷寺口7番地,谷寺口交差点東側鉄柵,34.7666722,135.1387812,緯度経度は怪しい
兵庫県,神戸市,190,北区山田町原野字丸岡1番地,幸座橋交差点横鉄柵,34.7666722,135.1387812,緯度経度は怪しい
兵庫県,神戸市,191,北区松が枝町1丁目64番地の1,市立箕谷駅前自転車駐車場北側鉄柵,34.7578366,135.1547571,緯度経度は怪しい
兵庫県,神戸市,192,北区松が枝町1丁目11番地,箕谷小学校正門南側金網,34.7574791,135.1509124,緯度経度は怪しい
兵庫県,神戸市,193,北区松が枝町1丁目9番地,梅の木谷公園北側鉄柵(なるべく向かって右側から設置する),34.7574791,135.1509124,緯度経度は怪しい
兵庫県,神戸市,194,北区松が枝町2丁目15番地,泉ケ平公園北側東より鉄柵,34.7591392,135.1509124,緯度経度は怪しい
兵庫県,神戸市,195,北区松が枝町2丁目1番地の4,山田出張所前鉄柵,34.7592098,135.1532109,緯度経度は怪しい
兵庫県,神戸市,196,北区松が枝町3丁目1番地の88,松が枝町自治会館西側ガードレール,34.7595324,135.1533801,緯度経度は怪しい
兵庫県,神戸市,197,北区松が枝町3丁目8番地,堂の奥公園西側鉄柵,34.7610801,135.1503276,緯度経度は怪しい
兵庫県,神戸市,198,北区青葉台25番1号,マキデンキ前鉄柵,34.7646446,135.1513381,緯度経度は怪しい
兵庫県,神戸市,199,北区山田町下谷上字梅木谷1番地,青葉台入口大滝橋欄干フェンス,34.75455470000001,135.1535439,緯度経度は怪しい
兵庫県,神戸市,200,北区山田町下谷上字小橋7番地,市バス小橋バス停後小橋欄干,34.7616657,135.1554445,緯度経度は怪しい
兵庫県,神戸市,201,北区山田町下谷上字皆森6番地の1,市道路公社箕谷第1駐車場南側鉄柵,34.7604845,135.1561755,緯度経度は怪しい
兵庫県,神戸市,202,北区山田町下谷上字沢51番地の5,下谷上自治会館入口前空地,34.7601865,135.1590997,緯度経度は怪しい
兵庫県,神戸市,203,北区山田町下谷上字久保15番地,山田橋北側欄干,34.7616445,135.1583687,緯度経度は怪しい
兵庫県,神戸市,204,北区山田町下谷上字箕谷35番地,神鉄箕谷駅前側溝,34.7574451,135.1555907,緯度経度は怪しい
兵庫県,神戸市,205,北区谷上西町27番,北神急行谷上駅前交差点西側鉄柵,34.7623888,135.1700672,緯度経度は怪しい
兵庫県,神戸市,206,北区谷上西町7番3号,谷上地域福祉センター南側ガードレール,34.7612812,135.1690036,緯度経度は怪しい
兵庫県,神戸市,207,北区谷上東町4番,北神急行谷上駅ザ・谷上駅前レジデンス北側鉄柵,34.7626217,135.1713103,緯度経度は怪しい
兵庫県,神戸市,208,北区谷上東町13番,JA兵庫六甲谷上支店東側鉄柵,34.7636015,135.1744549,緯度経度は怪しい
兵庫県,神戸市,209,北区谷上南町4番,上谷上バス停南側久保交差点上谷橋欄干,34.7636529,135.1784339,緯度経度は怪しい
兵庫県,神戸市,210,北区谷上南町1番,グランディオーズ東側ガードレール,34.761894,135.173952,緯度経度は怪しい
兵庫県,神戸市,211,北区山田町上谷上字森田32番地,防火水槽鉄柵,34.7655951,135.1775216,緯度経度は怪しい
兵庫県,神戸市,212,北区山田町下谷上字中上16番地,谷上小学校正門横石垣,34.7631573,135.1690434,緯度経度は怪しい
兵庫県,神戸市,213,北区山田町下谷上字中上16番地,谷上小学校東入口石垣,34.7631573,135.1690434,緯度経度は怪しい
兵庫県,神戸市,214,北区花山東町3番1号,花山小学校正門横鉄柵,34.7654999,135.1857391,緯度経度は怪しい
兵庫県,神戸市,215,北区花山東町3番2号,やまびこ幼稚園南側鉄柵,34.7653327,135.1872021,緯度経度は怪しい
兵庫県,神戸市,216,北区花山台1番,神鉄花山駅改札西側ガードレール,34.7696992,135.1871084,緯度経度は怪しい
兵庫県,神戸市,217,北区幸陽町1丁目2番地,幸陽町交差点西側鉄柵,34.7664525,135.1909857,緯度経度は怪しい
兵庫県,神戸市,218,北区山田町上谷上字古々谷2番地の5,神鉄花山駅南側花山神鉄駐車場金網,34.7655951,135.1775216,緯度経度は怪しい
兵庫県,神戸市,219,北区花山中尾台3丁目1番地の1,花山手自治会館前鉄柵,34.7688191,135.1939749,緯度経度は怪しい
兵庫県,神戸市,220,北区大池見山台14番地の227,masked,34.7731718,135.19167,緯度経度は怪しい
兵庫県,神戸市,221,北区大池見山台14番地の349,見山台公園南側鉄柵,34.7750135,135.1912749,緯度経度は怪しい
兵庫県,神戸市,222,北区西大池2丁目5番,西大池公園南西角向側鉄柵（下野大橋鉄柵）,34.7725808,135.1949364,緯度経度は怪しい
兵庫県,神戸市,223,北区西大池2丁目6番211号,市営西大池第4住宅211号棟北側鉄柵,34.7729204,135.197054,緯度経度は怪しい
兵庫県,神戸市,224,北区西大池2丁目7番13号,市営大池住宅集会室入口横鉄柵,34.77384869999999,135.1954394,緯度経度は怪しい
兵庫県,神戸市,225,北区西大池2丁目11番12号,旧市営大池住宅2号棟南側鉄柵,34.774597,135.1987525,緯度経度は怪しい
兵庫県,神戸市,226,北区西大池2丁目24番1号,大池小学校北側正門東側鉄柵,34.7722995,135.1984739,緯度経度は怪しい
兵庫県,神戸市,227,北区西大池2丁目24番3号,大池中学校正門横金網,34.7719961,135.1960664,緯度経度は怪しい
兵庫県,神戸市,228,北区有野町唐櫃3389番地付近,マムクリニック南西側ガードレール,34.7817162,135.1989574,緯度経度は怪しい
兵庫県,神戸市,229,北区山田町上谷上字古々山31番地の1,コスモガソリンスタンド向かいマックスバリュ植栽,34.7753678,135.1976805,緯度経度は怪しい
兵庫県,神戸市,230,北区西大池1丁目6番30号,masked,34.77855,135.1968944,緯度経度は怪しい
兵庫県,神戸市,231,北区山田町上谷上字古々山29番地,西クリニック西側神鉄フェンス,34.7753678,135.1976805,緯度経度は怪しい
兵庫県,神戸市,232,北区東大池2丁目3番13号,大池地域福祉センターフェンス,34.7803914,135.2000307,緯度経度は怪しい
兵庫県,神戸市,233,北区東大池1丁目10番5号,masked,34.7780938,135.200468,緯度経度は怪しい
兵庫県,神戸市,234,北区東大池2丁目31番3号,masked,34.7791919,135.2017601,緯度経度は怪しい
兵庫県,神戸市,235,北区有野町唐櫃3064番地,建設局北建設事務所南側向フェンス,34.7868978,135.207821,緯度経度は怪しい
兵庫県,神戸市,236,北区有野町唐櫃3161番地,セブンイレブン南西側ガードレール,34.7841217,135.2038171,緯度経度は怪しい
兵庫県,神戸市,237,北区有野町唐櫃2684番地,精米所北側三叉路ガードレール,34.7777985,135.2053378,緯度経度は怪しい
兵庫県,神戸市,238,北区唐櫃六甲台25番地の7,上唐櫃ふれあいセンター北側側溝,34.7808241,135.208439,緯度経度は怪しい
兵庫県,神戸市,239,北区有野町唐櫃1925番地,masked,34.7853499,135.2071194,緯度経度は怪しい
兵庫県,神戸市,240,北区有野町唐櫃2295番地,北消防団有野支団第6分団器具庫北側フェンス,34.7811351,135.2052043,緯度経度は怪しい
兵庫県,神戸市,241,北区有野町唐櫃1064番地,プロムナード六甲南側向鉄柵,34.7838215,135.2089979,緯度経度は怪しい
兵庫県,神戸市,242,北区唐櫃台4丁目33番9号,唐櫃台西公園西側向鉄柵,34.7844432,135.2131369,緯度経度は怪しい
兵庫県,神戸市,243,北区唐櫃台2丁目1番地付近,唐櫃駅前交差点北側 唐櫃団地ロバス停鉄柵,34.7904801,135.2115476,緯度経度は怪しい
兵庫県,神戸市,244,北区唐櫃台2丁目39番,唐櫃小学校正門横南側金網,34.789665,135.2141094,緯度経度は怪しい
兵庫県,神戸市,245,北区唐櫃台3丁目10番1号,唐櫃集会所北側鉄柵,34.7878905,135.2130446,緯度経度は怪しい
兵庫県,神戸市,246,北区唐櫃台2丁目1番,神鉄唐櫃台駅東側フェンス,34.7904801,135.2115476,緯度経度は怪しい
兵庫県,神戸市,247,北区唐櫃台2丁目,唐櫃市住33号棟東側鉄柵,34.7895243,135.2144022,緯度経度は怪しい
兵庫県,神戸市,248,北区唐櫃台1丁目20番,大田モータープール北側ガードレール,34.7921097,135.2156465,緯度経度は怪しい
兵庫県,神戸市,249,北区有野町唐櫃527番地,下ノ川橋欄干,34.791455,135.219279,緯度経度は怪しい
兵庫県,神戸市,250,北区有野町唐櫃291番地の1,デイサービスセンターまほしの里入口フェンス,34.7952059,135.2198575,緯度経度は怪しい
兵庫県,神戸市,251,北区有野町唐櫃221番地付近,神鉄有馬口駅南西踏切東軌道沿い 神鉄フェンス,34.7956838,135.2197297,緯度経度は怪しい
兵庫県,神戸市,252,北区有野町唐櫃171番地,有馬橋東詰水防倉庫南西側ガードレール,34.7965845,135.2201155,緯度経度は怪しい
兵庫県,神戸市,253,北区有野町唐櫃80番地,踏切南側駐車場ガードレール,34.79705879999999,135.2223481,緯度経度は怪しい
兵庫県,神戸市,254,北区有野町唐櫃3694番地,masked,34.7961689,135.2244127,緯度経度は怪しい
兵庫県,神戸市,255,北区有野町唐櫃90番地の5付近,レーベンスクエア南側ガードレール,34.7964998,135.2218504,緯度経度は怪しい
兵庫県,神戸市,256,北区有野町有野718番地の1,エッソセルフガソリンスタンド50m北側鉄柵,34.8087776,135.2147956,緯度経度は怪しい
兵庫県,神戸市,257,北区有野町有野798番地,神鉄五社駅南西清滝橋北側欄干,34.805962,135.215168,緯度経度は怪しい
兵庫県,神戸市,258,北区有野町有野806番地,五社ラブ入口北側鉄柵,34.8054526,135.2148814,緯度経度は怪しい
兵庫県,神戸市,259,北区有野町有野832番地の1,旧 神戸県民局神戸土木事務所有野水防ステーション北側歩道鉄柵,34.7994484,135.2200575,緯度経度は怪しい
兵庫県,神戸市,260,北区有野町有野363番地,グリーンパークハイツ北側向鉄柵,34.8077861,135.2083315,緯度経度は怪しい
兵庫県,神戸市,261,北区有野町有野423番地,墓地北西側向鉄柵,34.8080104,135.2118244,緯度経度は怪しい
兵庫県,神戸市,262,北区有野町有野1034番地付近,有野川橋欄干,34.8111872,135.2176125,緯度経度は怪しい
兵庫県,神戸市,263,北区有野町有野1119番地,クリーンステーション南水路東側鉄柵,34.8116133,135.2212154,緯度経度は怪しい
兵庫県,神戸市,264,北区有野台1丁目8番地,都市機構住宅A1棟前交差点北側歩道フェンス,34.8104881,135.2237721,緯度経度は怪しい
兵庫県,神戸市,265,北区有野町有野3990番地先,市バス五社駅前回転地北側鉄柵,34.8073526,135.218646,緯度経度は怪しい
兵庫県,神戸市,266,北区東有野台1丁目12番地の6,東有野台1丁目自治会掲示板横鉄柵,34.8095625,135.2339454,緯度経度は怪しい
兵庫県,神戸市,267,北区有野台1丁目18番地,有野台会館前バス停横フェンス,34.8104881,135.2237721,緯度経度は怪しい
兵庫県,神戸市,268,北区有野台2丁目2番地,有野台会館西側ガードレール,34.8126846,135.2261149,緯度経度は怪しい
兵庫県,神戸市,269,北区有野台6丁目20番地,都市機構住宅B5号棟北西側石垣 (有野東小学校正門前),34.8115423,135.2308008,緯度経度は怪しい
兵庫県,神戸市,270,北区有野台4丁目21番地,クリーンステーション横フェンス,34.8165153,135.2319723,緯度経度は怪しい
兵庫県,神戸市,271,北区有野台5丁目1番地,都市機構住宅B集会所北側鉄柵,34.8138108,135.2312283,緯度経度は怪しい
兵庫県,神戸市,272,北区藤原台南町1丁目23番,市内全域40制限交通標識設置歩道側鉄柵,34.811772,135.2138898,緯度経度は怪しい
兵庫県,神戸市,273,北区藤原台南町1丁目19番,五社新橋西詰フェンス,34.8102501,135.2138898,緯度経度は怪しい
兵庫県,神戸市,274,北区藤原台南町2丁目13番,西の内調整池西フェンス(2丁目西の内公園東),34.8096521,135.211592,緯度経度は怪しい
兵庫県,神戸市,275,北区藤原台南町1丁目13番,藤原台小学校正門横植込み,34.8126822,135.2076687,緯度経度は怪しい
兵庫県,神戸市,276,北区藤原台南町5丁目15番,5丁目15番付近防火水槽裏フェンス,34.8159267,135.2037901,緯度経度は怪しい
兵庫県,神戸市,277,北区藤原台南町4丁目20番,走り折公園北東角鉄柵,34.8143263,135.2051073,緯度経度は怪しい
兵庫県,神戸市,278,北区藤原台南町4丁目35番,柳谷公園北口向フェンス,34.8148958,135.2076687,緯度経度は怪しい
兵庫県,神戸市,279,北区藤原台中町7丁目36番,あさひ橋北側鉄柵 (位置情報が見つかりませんでした),34.8140752,135.2111085,緯度経度は怪しい
兵庫県,神戸市,280,北区藤原台中町1丁目1番,神鉄岡場駅南ガード下神鉄フェンス,34.821113,135.221643,緯度経度は怪しい
兵庫県,神戸市,281,北区藤原台北町1丁目1番,神鉄岡場駅北ガード下神鉄フェンス,34.822839,135.222401,緯度経度は怪しい
兵庫県,神戸市,282,北区藤原台中町3丁目6番,藤原台中町自治会館愛あいホール南側フェンス,34.8174403,135.2144754,緯度経度は怪しい
兵庫県,神戸市,283,北区藤原台中町3丁目17番,有野小学校南西石垣,34.820634,135.2176229,緯度経度は怪しい
兵庫県,神戸市,284,北区藤原台中町2丁目5番,藤原台中町3丁目信号北東歩道鉄柵,34.8184491,135.2184281,緯度経度は怪しい
兵庫県,神戸市,285,北区藤原台中町7丁目15番,楓の上公園南側石垣,34.8150022,135.21206,緯度経度は怪しい
兵庫県,神戸市,286,北区藤原台中町1丁目3番1号,北神区民センター駐車場北西側フェンス,34.8224307,135.2195015,緯度経度は怪しい
兵庫県,神戸市,287,北区藤原台北町4丁目14番,大池谷公園東側鉄柵,34.8277951,135.2174033,緯度経度は怪しい
兵庫県,神戸市,288,北区藤原台北町1丁目3番,西岡場霊園南歩道鉄柵,34.8243332,135.2226007,緯度経度は怪しい
兵庫県,神戸市,289,北区藤原台北町3丁目1番,梅の谷公園南西鉄柵,34.8264851,135.2215758,緯度経度は怪しい
兵庫県,神戸市,290,北区藤原台北町5丁目1番,栗の木谷公園南西側鉄柵,34.8293883,135.2218687,緯度経度は怪しい
兵庫県,神戸市,291,北区藤原台北町6丁目4番,有野北中学校正門前歩道橋欄干,34.8297183,135.2240649,緯度経度は怪しい
兵庫県,神戸市,292,北区藤原台北町7丁目4番,神鉄田尾寺駅前橋(歩行者用)西面鉄柵,34.8350062,135.2245774,緯度経度は怪しい
兵庫県,神戸市,293,北区藤原台北町5丁目3番,セレノ藤原台北東入口北側鉄柵,34.8326426,135.2214294,緯度経度は怪しい
兵庫県,神戸市,294,北区藤原台北町5丁目2番,藤原台北町4丁目バス停北側神戸ルミズデイズマンション入口横歩道側鉄柵,34.8302971,135.220551,緯度経度は怪しい
兵庫県,神戸市,295,北区有野中町1丁目12番,三井住友銀行藤原台支店西側鉄柵,34.8218055,135.2229668,緯度経度は怪しい
兵庫県,神戸市,296,北区有野中町3丁目14番,結場下公園南東角鉄柵,34.832398,135.2265541,緯度経度は怪しい
兵庫県,神戸市,297,北区有野中町2丁目20番,馬場公園南東角鉄柵,34.8261871,135.2245042,緯度経度は怪しい
兵庫県,神戸市,298,北区有野中町3丁目1番,けちばかすが公園北側自治会掲示板横鉄柵,34.8281112,135.2262613,緯度経度は怪しい
兵庫県,神戸市,299,北区有野町有野2060番地,自動車店向かい道路側鉄柵(信号機側),34.8205384,135.2241033,緯度経度は怪しい
兵庫県,神戸市,300,北区有野中町1丁目4番,岡場中山公園東側鉄柵,34.8189064,135.2220883,緯度経度は怪しい
兵庫県,神戸市,301,北区有野町有野1611番地付近,西尾公会堂南側鉄柵,34.8141115,135.2198945,緯度経度は怪しい
兵庫県,神戸市,302,北区有野町有野3420番地の1付近,西二郎集会所前鉄柵,34.8375735,135.2270001,緯度経度は怪しい
兵庫県,神戸市,303,北区有野町二郎669番地付近,駐車場南側防火水槽鉄柵,34.84782149999999,135.2267006,緯度経度は怪しい
兵庫県,神戸市,304,北区有野町二郎122番地の7付近,神鉄二郎駅北側神鉄フェンス,34.8492631,135.2270117,緯度経度は怪しい
兵庫県,神戸市,305,北区有野町二郎425番地付近,西側神姫バス病院前停留所鉄柵,34.8419904,135.2301702,緯度経度は怪しい
兵庫県,神戸市,306,北区有野中町4丁目3番,田尾寺交差点東側鉄柵,34.8346562,135.2299221,緯度経度は怪しい
兵庫県,神戸市,307,北区有野中町4丁目9番,田尾寺公園東側鉄柵,34.8348446,135.2277988,緯度経度は怪しい
兵庫県,神戸市,308,北区有野中町4丁目11番,神鉄田尾寺駅南東神鉄フェンス,34.8355427,135.2269202,緯度経度は怪しい
兵庫県,神戸市,309,北区京地1丁目4番地,足谷公園グラウンド前鉄柵,34.8343445,135.2155733,緯度経度は怪しい
兵庫県,神戸市,310,北区京地2丁目26番地,堀井歯科前歩道鉄柵,34.8371194,135.2144022,緯度経度は怪しい
兵庫県,神戸市,311,北区京地2丁目21番地,京地公園南側石垣,34.8371194,135.2144022,緯度経度は怪しい
兵庫県,神戸市,312,北区菖蒲が丘1丁目18番地東,菖蒲が丘公園南側鉄柵,34.839861,135.2179157,緯度経度は怪しい
兵庫県,神戸市,313,北区西山1丁目25番地東,西山小学校北東フェンス,34.83708610000001,135.2190869,緯度経度は怪しい
兵庫県,神戸市,314,北区菖蒲が丘1丁目10番地東,敷合谷公園南側鉄柵,34.839861,135.2179157,緯度経度は怪しい
兵庫県,神戸市,315,北区菖蒲が丘3丁目1番地東,北神星和台バス停(回転地)フェンス,34.8420242,135.2249435,緯度経度は怪しい
兵庫県,神戸市,316,北区西山1丁目14番地,足谷東公園北東鉄柵,34.83708610000001,135.2190869,緯度経度は怪しい
兵庫県,神戸市,317,北区有馬町178番地の2,masked,34.8027727,135.2485393,緯度経度は怪しい
兵庫県,神戸市,318,北区有馬町241番地の1,有馬出張所前フェンス,34.8000542,135.2473881,緯度経度は怪しい
兵庫県,神戸市,319,北区有馬町266番地の2,神鉄有馬温泉駅北側フェンス東端,34.7992407,135.2463124,緯度経度は怪しい
兵庫県,神戸市,320,北区有馬町340番地の1,住友ゴム楓荘駐車場東側ガードレール,34.7953868,135.2506067,緯度経度は怪しい
兵庫県,神戸市,321,北区有馬町435番地の1付近,東之町杖捨橋北西側ガードレール,34.7969014,135.2524054,緯度経度は怪しい
兵庫県,神戸市,322,北区有馬町290番地の1付近,ねね橋南側欄干,34.7978881,135.247427,緯度経度は怪しい
兵庫県,神戸市,323,北区有馬町318番地,月光園鴻朧館駐車場前ガードレール,34.7949596,135.246004,緯度経度は怪しい
兵庫県,神戸市,324,北区有馬町292番地の2,有馬ビューホテル南側道路ガードレール,34.7977336,135.2514011,緯度経度は怪しい
兵庫県,神戸市,325,北区有馬町1257番地付近,太閤橋南側欄干,34.7984429,135.2476835,緯度経度は怪しい
兵庫県,神戸市,326,北区道場町塩田1954番地付近,神戸三田線日下部交差点稲荷神社前ガードレール,34.8606635,135.2316272,緯度経度は怪しい
兵庫県,神戸市,327,北区道場町日下部1218番地付近,神鉄道場南口駅東側歩道鉄柵,34.8565101,135.2234757,緯度経度は怪しい
兵庫県,神戸市,328,北区道場町日下部1202番地の2付近,神鉄道場南口駅西側改札前金網,34.8583256,135.227872,緯度経度は怪しい
兵庫県,神戸市,329,北区道場町塩田1418番地,道場出張所前植え込み,34.8671021,135.2310673,緯度経度は怪しい
兵庫県,神戸市,330,北区道場町塩田1454番地の2,農村環境改善センター進入路鉄柵,34.8694875,135.2312767,緯度経度は怪しい
兵庫県,神戸市,331,北区道場町道場47番地付近,大橋東詰ガードレール,34.8656044,135.2286728,緯度経度は怪しい
兵庫県,神戸市,332,北区道場町生野70番地,JR道場駅南西側ガードレール,34.8667214,135.2553347,緯度経度は怪しい
兵庫県,神戸市,333,北区道場町塩田3600番地北,川北公園西側鉄柵,34.8746482,135.2398479,緯度経度は怪しい
兵庫県,神戸市,334,北区道場町平田967番地の3付近,ゴミステーション付近,34.8543749,135.2351528,緯度経度は怪しい
兵庫県,神戸市,335,北区道場町生野1172番地の952,（生野高原住宅）三宅氏宅前西側ガードレール,34.847893,135.2739896,緯度経度は怪しい
兵庫県,神戸市,336,北区道場町生野1172番地の751東向,（生野高原住宅）㈲兼子総組資材置き場北側ガードレール,34.8500002,135.2730319,緯度経度は怪しい
兵庫県,神戸市,337,北区道場町生野1172番地の383,生野北小公園フェンス,34.8519405,135.2742408,緯度経度は怪しい
兵庫県,神戸市,338,北区道場町生野1172番地の960,（生野高原住宅）赤門氏宅北側ガードレール,34.8480963,135.2716498,緯度経度は怪しい
兵庫県,神戸市,339,北区道場町生野1172番地の1021,（生野高原住宅）生野高原自治会館前植え込み（木の間）,34.8501763,135.2722807,緯度経度は怪しい
兵庫県,神戸市,340,北区八多町吉尾140番地の2南,吉尾交差点南側鉄柵,34.833318,135.2059002,緯度経度は怪しい
兵庫県,神戸市,341,北区八多町附物400番地西,八多ふれあいセンター進入路鉄柵,34.8209482,135.1968178,緯度経度は怪しい
兵庫県,神戸市,342,北区八多町附物782番地の7,神姫バス八多出張所停留所鉄柵,34.8263104,135.1990394,緯度経度は怪しい
兵庫県,神戸市,343,北区八多町附物876番地,八多小学校正門北側金網,34.8222775,135.1953278,緯度経度は怪しい
兵庫県,神戸市,344,北区八多町柳谷82番地の1付近,阪神高速五社入口案内板たもと鉄柵,34.8126094,135.1985947,緯度経度は怪しい
兵庫県,神戸市,345,北区八多町深谷290番地付近,神姫バス（三田行）深谷停留所フェンス　左右どちらでも可,34.8157945,135.183008,緯度経度は怪しい
兵庫県,神戸市,346,北区八多町屏風1179番地の5付近,神姫バス（三田行）屏風辻停留所東側100m先鉄柵,34.8174487,135.1772254,緯度経度は怪しい
兵庫県,神戸市,347,北区八多町屏風1190番地付近,神姫バス（三木行）西畑口停留所前金網,34.8198228,135.1724448,緯度経度は怪しい
兵庫県,神戸市,348,北区八多町西畑658番地付近,西畑公会堂進入路南側ガードレール,34.8228503,135.1714534,緯度経度は怪しい
兵庫県,神戸市,349,北区八多町中50番地の1付近,神姫バス不老元停留所北西鉄柵,34.8542985,135.2190985,緯度経度は怪しい
兵庫県,神戸市,350,北区八多町中227番地北東,神姫バス西側中村橋停留所横鉄柵,34.8481872,135.2149836,緯度経度は怪しい
兵庫県,神戸市,351,北区八多町上小名田157番地付近,神姫バス東側小名田停留所横鉄柵,34.8377901,135.2084666,緯度経度は怪しい
兵庫県,神戸市,352,北区八多町上小名田293番地の1南,上小名田公民館横高架下フェンス,34.8388526,135.2068357,緯度経度は怪しい
兵庫県,神戸市,353,北区八多町上小名田1889番地南東,宮前橋欄干,34.8382517,135.1989517,緯度経度は怪しい
兵庫県,神戸市,354,北区八多町中1177番地,八多町中公民館入口横フェンス,34.848449,135.2161589,緯度経度は怪しい
兵庫県,神戸市,355,北区八多町下小名田304番地南西,神姫バス東側宮の前停留所前鉄柵,34.8454893,135.2135322,緯度経度は怪しい
兵庫県,神戸市,356,北区八多町中1126番地東,東川原公園北側歩道ガードレール　道路側へ向ける,34.8513498,135.2173795,緯度経度は怪しい
兵庫県,神戸市,357,北区大沢町中大沢1番地の2,神姫バス農協前停留所南側鉄柵（ガードレール含む）,34.8587382,135.1647472,緯度経度は怪しい
兵庫県,神戸市,358,北区大沢町中大沢901番地の8,大沢郵便局斜向いガードレール,34.8558201,135.1652859,緯度経度は怪しい
兵庫県,神戸市,359,北区大沢町日西原1187番地付近,大沢水防資材倉庫南・日西原橋欄干,34.8598621,135.1631474,緯度経度は怪しい
兵庫県,神戸市,360,北区大沢町中大沢1000番地の1,大沢出張所前ガードレール,34.854361,135.1660546,緯度経度は怪しい
兵庫県,神戸市,361,北区大沢町庵253番地,西垣鉄工横鉄柵,34.8649568,135.1639474,緯度経度は怪しい
兵庫県,神戸市,362,北区大沢町市原1273番地,市原交差点北東側鉄柵,34.8718933,135.1802787,緯度経度は怪しい
兵庫県,神戸市,363,北区大沢町上大沢1630番地,マルダイファーム前ガードレール,34.8538039,135.1867325,緯度経度は怪しい
兵庫県,神戸市,364,北区大沢町神付47番地先,神姫バス神付停留所前道路肩鉄柵,34.8407916,135.1818009,緯度経度は怪しい
兵庫県,神戸市,365,北区大沢町上大沢400番地先,大沢交差点西・沢義橋欄干,34.8452577,135.179333,緯度経度は怪しい
兵庫県,神戸市,366,北区長尾町上津3645番地付近,人形渡橋南交差点北東側鉄柵,34.8822002,135.183461,緯度経度は怪しい
兵庫県,神戸市,367,北区長尾町上津2373番地,上津市民公園フェンス,34.8770603,135.1891933,緯度経度は怪しい
兵庫県,神戸市,368,北区長尾町上津2293番地,落合橋側道高欄,34.8755036,135.1911073,緯度経度は怪しい
兵庫県,神戸市,369,北区長尾町上津2052番地の4,㈱共栄社前フェンス,34.8732464,135.1970919,緯度経度は怪しい
兵庫県,神戸市,370,masked,長尾幼稚園フェンス,34.8727606,135.2040594,緯度経度は怪しい
兵庫県,神戸市,371,北区長尾町319-2,長尾出張所 花壇,34.873828,135.2123065,緯度経度は怪しい
兵庫県,神戸市,372,masked,一ノ宮神社北側水防資材倉庫,34.8709783,135.207818,緯度経度は怪しい
兵庫県,神戸市,373,masked,三田学園前バス停ガードレール,34.8737842,135.21569,緯度経度は怪しい
兵庫県,神戸市,374,masked,鉄屋橋南側川沿いフェンス,34.8717091,135.2237527,緯度経度は怪しい
兵庫県,神戸市,375,北区上津台3丁目4番,長尾小学校正門前,34.8658785,135.19479,緯度経度は怪しい
兵庫県,神戸市,376,北区上津台3丁目13番,菅生公園フェンス,34.86698459999999,135.19479,緯度経度は怪しい
兵庫県,神戸市,377,北区上津台3丁目12番,菅生池フェンス,34.8673388,135.197829,緯度経度は怪しい
兵庫県,神戸市,378,北区上津台1丁目18番,長野橋欄干,34.8626035,135.1987411,緯度経度は怪しい
兵庫県,神戸市,379,北区上津台9丁目5番,上津台9丁目西谷橋欄干,34.85881380000001,135.1968387,緯度経度は怪しい
兵庫県,神戸市,380,北区上津台8丁目1番,上津大橋南側西詰鉄柵(2枚の時は欄干も使用),34.861026,135.1968387,緯度経度は怪しい
兵庫県,神戸市,381,北区上津台6丁目29番,深山北公園西側フェンス,34.8682204,135.1907662,緯度経度は怪しい
兵庫県,神戸市,382,北区上津台2丁目11番16号,清女ヶ谷公園南東側鉄柵,34.8642492,135.1957224,緯度経度は怪しい
兵庫県,神戸市,383,北区鹿の子台北町2丁目3番,神鉄道場駅西側ロータリー鉄柵,34.86456769999999,135.2252363,緯度経度は怪しい
兵庫県,神戸市,384,北区鹿の子台北町2丁目8番,北神戸中学校南陸橋,34.8629243,135.2228936,緯度経度は怪しい
兵庫県,神戸市,385,北区鹿の子台北町5丁目2番,神姫バス鹿の子台北町5丁目バス停北側鉄柵,34.8657393,135.2207706,緯度経度は怪しい
兵庫県,神戸市,386,北区鹿の子台北町6丁目34番,鹿の子台小学校西側フェンス,34.8612969,135.2182085,緯度経度は怪しい
兵庫県,神戸市,387,北区鹿の子台北町8丁目5番,masked,34.8560105,135.2176961,緯度経度は怪しい
兵庫県,神戸市,388,北区鹿の子台南町1丁目1番,鹿の子台南住宅前バス停,34.85513,135.2161,緯度経度は怪しい
兵庫県,神戸市,389,北区鹿の子台南町5丁目3番8号,鹿の子台南町4丁目交差点坡谷線道フェンス,34.8570477,135.2144791,緯度経度は怪しい
兵庫県,神戸市,390,北区鹿の子台南町6丁目19番,鹿の子台南町6丁目防火水槽北側横鉄柵,34.858116,135.2081078,緯度経度は怪しい
兵庫県,神戸市,391,北区淡河町神田397番地の1付近,神田公民館前ガードレール,34.8274716,135.1579971,緯度経度は怪しい
兵庫県,神戸市,392,北区淡河町野瀬193番地付近,神姫バス栗島前バス停鉄柵,34.8220003,135.1594051,緯度経度は怪しい
兵庫県,神戸市,393,北区淡河町野瀬459番地の2付近,上淡河地域福祉センター進入路西側ガードレール,34.8220706,135.1511134,緯度経度は怪しい
兵庫県,神戸市,394,北区淡河町野瀬1561番地西,二瀬橋欄干,34.8178779,135.1492683,緯度経度は怪しい
兵庫県,神戸市,395,北区淡河町中山467番地付近,神姫バス中山停留所前公園フェンス,34.8162094,135.1392441,緯度経度は怪しい
兵庫県,神戸市,396,北区淡河町神影710番地付近,神影公会堂前東側ガードレール,34.8283053,135.1422564,緯度経度は怪しい
兵庫県,神戸市,397,北区淡河町東畑3番地の1付近,開通橋北側欄干(可能な限り三田側),34.8188728,135.1284701,緯度経度は怪しい
兵庫県,神戸市,398,北区淡河町行原179番地の2,淡河中学校前フェンス,34.8195241,135.1237657,緯度経度は怪しい
兵庫県,神戸市,399,北区淡河町北畑231番地の2南,山陽自動車道跨道橋前ガードレール(北西側＋北東側),34.8223147,135.121397,緯度経度は怪しい
兵庫県,神戸市,400,北区淡河町木津54番地,淡河出張所向かい信号機側鉄柵,34.8162535,135.1121337,緯度経度は怪しい
兵庫県,神戸市,401,北区淡河町南僧尾1349番地北東,僧尾橋東側ガードレール,34.82775040000001,135.104966,緯度経度は怪しい
兵庫県,神戸市,402,北区淡河町北僧尾1142番地付近,北僧尾多目的グラウンドフェンス,34.8333606,135.1090361,緯度経度は怪しい
兵庫県,神戸市,403,北区淡河町北僧尾1102番地北,北僧尾消防車庫北三叉路ガードレール,34.8373979,135.111788,緯度経度は怪しい
兵庫県,神戸市,404,北区淡河町萩原788番地の1付近,スーパーおうご店前ガードレール,34.8165355,135.107688,緯度経度は怪しい
兵庫県,神戸市,405,北区淡河町萩原524番地,淡河小学校校門北側ガードレール,34.8161423,135.1025435,緯度経度は怪しい
兵庫県,神戸市,406,北区淡河町淡河735番地西,本町安心コミュニティプラザ駐車場,34.813803,135.0975658,緯度経度は怪しい
兵庫県,神戸市,407,北区淡河町淡河2番地の8東,西口橋北側欄干,34.8133426,135.0936965,緯度経度は怪しい
兵庫県,神戸市,408,北区淡河町勝雄510番地の5付近,神姫バス勝雄停留所西ガードレール,34.8068493,135.0857906,緯度経度は怪しい
兵庫県,神戸市,2,中央区中島通1丁目1番,コープ野村青谷東側ガードレール,34.7129299,135.210157,緯度経度は怪しい
兵庫県,神戸市,3,中央区中島通2丁目2番12号,青谷ルーテル教会青葉園北側金網,34.71314,135.2091314,緯度経度は怪しい
兵庫県,神戸市,4,中央区中島通3丁目5番,上春日野公園北入口鉄柵,34.7122595,135.2075223,緯度経度は怪しい
兵庫県,神戸市,5,中央区篭池通1丁目1番10号,メゾン篭池前ガードレール,34.7114814,135.2105047,緯度経度は怪しい
兵庫県,神戸市,6,中央区中島通1丁目1番,神戸中島郵便局北側ガードレール,34.7129299,135.210157,緯度経度は怪しい
兵庫県,神戸市,7,中央区中島通5丁目1番1号,春日野墓地東側ガードレール,34.7105356,135.2050982,緯度経度は怪しい
兵庫県,神戸市,8,中央区神仙寺通1丁目8番,ロングライフ青谷裏側ガードレール,34.7140623,135.2072296,緯度経度は怪しい
兵庫県,神戸市,9,中央区野崎通3丁目3番3号,masked,34.71008200000001,135.2075864,緯度経度は怪しい
兵庫県,神戸市,10,中央区野崎通1丁目1番1号,蒼合高等学校北東ガードレール,34.7106111,135.2103305,緯度経度は怪しい
兵庫県,神戸市,11,中央区野崎通3丁目3番,masked,34.7099075,135.2072296,緯度経度は怪しい
兵庫県,神戸市,12,中央区上筒井通1丁目4番10号,masked,34.7093289,135.2114732,緯度経度は怪しい
兵庫県,神戸市,13,中央区上筒井通4丁目3番30号,塩原学園北東柵,34.7090102,135.2089494,緯度経度は怪しい
兵庫県,神戸市,14,中央区野崎通1丁目1番2号,上筒井小学校正門北側鉄柵,34.7106783,135.2113435,緯度経度は怪しい
兵庫県,神戸市,15,中央区上筒井通5丁目5番16号,masked,34.7080341,135.2076687,緯度経度は怪しい
兵庫県,神戸市,16,中央区坂口通2丁目1番1号,兵庫県福祉センター西側ガードレール,34.707983,135.211526,緯度経度は怪しい
兵庫県,神戸市,17,中央区宮本通2丁目1番36号,宮本小学校東門前フェンス,34.7068209,135.2116085,緯度経度は怪しい
兵庫県,神戸市,18,中央区宮本通3丁目1番5号,宮本公園南東鉄柵,34.7071258,135.2104659,緯度経度は怪しい
兵庫県,神戸市,19,中央区宮本通3丁目1番5号,宮本公園北西鉄柵,34.7071258,135.2104659,緯度経度は怪しい
兵庫県,神戸市,20,中央区宮本通1丁目5番12号,宮本住宅東側ガードレール,34.7077037,135.2125263,緯度経度は怪しい
兵庫県,神戸市,21,中央区割塚通1丁目4番,階段下ガードレール,34.7059398,135.2137434,緯度経度は怪しい
兵庫県,神戸市,22,中央区大日通1丁目1番1号,王子南公園北側鉄柵,34.7062792,135.2137826,緯度経度は怪しい
兵庫県,神戸市,23,中央区中島通5丁目1番,春日野墓地東ガードレール,34.7117048,135.204531,緯度経度は怪しい
兵庫県,神戸市,24,中央区上筒井通7丁目3番6号,ときわレクラン前ガードレール,34.7070301,135.2045768,緯度経度は怪しい
兵庫県,神戸市,25,中央区野崎通6丁目2番21号,野崎住宅北側フェンス,34.7090741,135.2051097,緯度経度は怪しい
兵庫県,神戸市,26,中央区熊内町1丁目2番,野崎公園東側金網,34.7074441,135.2037169,緯度経度は怪しい
兵庫県,神戸市,27,中央区中島通5丁目2番,masked,34.71104,135.2043023,緯度経度は怪しい
兵庫県,神戸市,28,中央区熊内町1丁目7番,上筒井公園西側,34.7071605,135.2024363,緯度経度は怪しい
兵庫県,神戸市,29,中央区熊内町1丁目7番,熊内小公園鉄柵,34.7071605,135.2024363,緯度経度は怪しい
兵庫県,神戸市,30,中央区宮本通5丁目2番,西谷公園東側鉄柵,34.7058837,135.2081078,緯度経度は怪しい
兵庫県,神戸市,31,中央区大日通6丁目2番,パラッツオ春日野前ガードレール,34.7050576,135.2075223,緯度経度は怪しい
兵庫県,神戸市,32,中央区宮本通7丁目1番6号,春日野小学校南門フェンス,34.7056378,135.2061267,緯度経度は怪しい
兵庫県,神戸市,33,中央区宮本通6丁目4番,春日野小学校東側ガードレール,34.7058608,135.2067173,緯度経度は怪しい
兵庫県,神戸市,34,中央区宮本通7丁目2番,春日野公園北側フェンス,34.7060395,135.2060587,緯度経度は怪しい
兵庫県,神戸市,35,中央区宮本通7丁目2番,春日野公園東側鉄柵,34.7060395,135.2060587,緯度経度は怪しい
兵庫県,神戸市,36,中央区宮本通7丁目2番,春日野公園西側鉄柵,34.7060395,135.2060587,緯度経度は怪しい
兵庫県,神戸市,37,中央区脇浜町1丁目4番70号,科学技術高校北東フェンス,34.7043518,135.2133391,緯度経度は怪しい
兵庫県,神戸市,38,中央区脇浜町2丁目14番,脇浜会館北側柵,34.7030135,135.2157929,緯度経度は怪しい
兵庫県,神戸市,39,中央区脇浜町1丁目4番70号,科学技術高校南門フェンス,34.7043518,135.2133391,緯度経度は怪しい
兵庫県,神戸市,40,中央区脇浜町1丁目3番,UR都市機構ルネシティ脇浜町3号棟北側歩道,34.7029983,135.2135238,緯度経度は怪しい
兵庫県,神戸市,41,中央区脇浜町1丁目3番,ルネシティ6号棟前ガードレール,34.7029983,135.2135238,緯度経度は怪しい
兵庫県,神戸市,42,中央区脇浜町1丁目4番47号,神鋼記念病院駐車場フェンス,34.7045183,135.2114104,緯度経度は怪しい
兵庫県,神戸市,43,中央区脇浜町3丁目5番,脇浜西公園柵,34.7002349,135.209302,緯度経度は怪しい
兵庫県,神戸市,44,中央区筒井町2丁目2番,筒井公園北西鉄柵,34.7030382,135.2088397,緯度経度は怪しい
兵庫県,神戸市,45,中央区日暮通1丁目3番,(有)春日製作所前フェンス,34.7005902,135.2075955,緯度経度は怪しい
兵庫県,神戸市,46,中央区八雲通2丁目3番23号,めぐみ愛児園フェンス,34.7007707,135.2057111,緯度経度は怪しい
兵庫県,神戸市,47,中央区筒井町2丁目1番,住友ゴム工業西側フェンス,34.7018546,135.2095715,緯度経度は怪しい
兵庫県,神戸市,48,中央区筒井町2丁目2番,筒井公園南東鉄柵,34.7030382,135.2088397,緯度経度は怪しい
兵庫県,神戸市,49,中央区若菜通1丁目1番,阪急春日野道駅高架下ガードレール,34.7031334,135.2057659,緯度経度は怪しい
兵庫県,神戸市,50,中央区吾妻通2丁目1番,masked,34.6995224,135.2069369,緯度経度は怪しい
兵庫県,神戸市,51,中央区熊内町2丁目4番1号,熊内配水場北東側フェンス,34.7073415,135.2019788,緯度経度は怪しい
兵庫県,神戸市,52,中央区熊内町2丁目4番1号,熊内配水場北西側フェンス,34.7073415,135.2019788,緯度経度は怪しい
兵庫県,神戸市,53,中央区熊内町3丁目1番,雲中小学校南東側ガードレール,34.7058116,135.2002045,緯度経度は怪しい
兵庫県,神戸市,54,中央区熊内町3丁目1番,雲中小学校西門横ガードレール,34.7058116,135.2002045,緯度経度は怪しい
兵庫県,神戸市,55,中央区熊内町4丁目9番,生田川公園南西鉄柵,34.7047281,135.1972777,緯度経度は怪しい
兵庫県,神戸市,56,中央区熊内町5丁目7番,熊山公園西(布引中学校前)鉄柵,34.7093066,135.200424,緯度経度は怪しい
兵庫県,神戸市,57,中央区熊内町6丁目7番1号,布引中学校正門北フェンス,34.7095996,135.1995276,緯度経度は怪しい
兵庫県,神戸市,58,中央区熊内橋通4丁目2番,熊内橋公園北側鉄柵,34.7051118,135.2010826,緯度経度は怪しい
兵庫県,神戸市,59,中央区熊内橋通7丁目2番,生田川公園北西鉄柵,34.703998,135.1976435,緯度経度は怪しい
兵庫県,神戸市,60,中央区旗塚通7丁目2番,生田川公園南西手すり,34.7029532,135.1983752,緯度経度は怪しい
兵庫県,神戸市,61,中央区旗塚通1丁目4番,旗塚公園北側鉄柵,34.7049815,135.2042292,緯度経度は怪しい
兵庫県,神戸市,62,中央区旗塚通4丁目4番20号,旗塚児童館南東金網,34.7046281,135.201728,緯度経度は怪しい
兵庫県,神戸市,63,中央区神若通2丁目3番6号,神若保育所東側フェンス,34.7038214,135.2037679,緯度経度は怪しい
兵庫県,神戸市,64,中央区神若通1丁目2番,国香公園東側鉄柵,34.7039366,135.204961,緯度経度は怪しい
兵庫県,神戸市,65,中央区神若通4丁目1番,神若公園西側鉄柵,34.7030221,135.2025461,緯度経度は怪しい
兵庫県,神戸市,66,中央区神若通4丁目1番,神若公園東側鉄柵,34.7030221,135.2025461,緯度経度は怪しい
兵庫県,神戸市,67,中央区神若通7丁目7番12号,中央小学校北東フェンス,34.7020797,135.1993264,緯度経度は怪しい
兵庫県,神戸市,68,中央区神若通7丁目7番12号,中央小学校南東フェンス,34.7020797,135.1993264,緯度経度は怪しい
兵庫県,神戸市,69,中央区東雲通4丁目3番,タナカビル北側ガードレール,34.7006274,135.2032047,緯度経度は怪しい
兵庫県,神戸市,70,中央区若菜通6丁目5番,生田川公園北東鉄柵,34.7003071,135.2001313,緯度経度は怪しい
兵庫県,神戸市,71,中央区若菜通6丁目5番,生田川公園南東鉄柵,34.7003071,135.2001313,緯度経度は怪しい
兵庫県,神戸市,72,中央区吾妻通6丁目1番,新神戸トンネル出口横ガードレール,34.6970288,135.202912,緯度経度は怪しい
兵庫県,神戸市,73,中央区八雲通6丁目3番,生田川公園鉄柵,34.6991589,135.2007899,緯度経度は怪しい
兵庫県,神戸市,74,中央区吾妻通4丁目1番6号,あづま幼稚園西側ガードレール,34.6982781,135.2046316,緯度経度は怪しい
兵庫県,神戸市,75,中央区吾妻通4丁目1番6号,生涯学習支援センター北門東側,34.6982781,135.2046316,緯度経度は怪しい
兵庫県,神戸市,76,中央区吾妻通4丁目1番,吾妻公園北東側鉄柵,34.6982932,135.2048878,緯度経度は怪しい
兵庫県,神戸市,77,中央区吾妻通4丁目1番,吾妻公園南東側鉄柵,34.6982932,135.2048878,緯度経度は怪しい
兵庫県,神戸市,78,中央区日暮通3丁目1番,日暮公園鉄柵・ガードレール,34.6995676,135.2056928,緯度経度は怪しい
兵庫県,神戸市,79,中央区北本町通3丁目2番17号,市営北本町住宅1号棟西側鉄柵,34.6977608,135.2061277,緯度経度は怪しい
兵庫県,神戸市,80,中央区北本町通3丁目2番17号,市営北本町住宅2号棟北側鉄柵,34.6977608,135.2061277,緯度経度は怪しい
兵庫県,神戸市,81,中央区北本町通6丁目3番1号,新生田川住宅15号棟東側鉄柵,34.696311,135.2039695,緯度経度は怪しい
兵庫県,神戸市,82,中央区南本町通5丁目1番,新生田川住宅21号棟東側フェンス,34.696077,135.2048878,緯度経度は怪しい
兵庫県,神戸市,83,中央区南本町通6丁目3番17号,新生田川住宅17号棟西側ガードレール,34.6952037,135.2037691,緯度経度は怪しい
兵庫県,神戸市,84,中央区南本町通6丁目3番,新生田川住宅17号棟東側鉄柵(松村酒店北側鉄柵),34.6953969,135.2034242,緯度経度は怪しい
兵庫県,神戸市,85,中央区真砂通2丁目1番,菅合公民館北側生田川公園前ガードレール,34.6948329,135.2045951,緯度経度は怪しい
兵庫県,神戸市,86,中央区脇浜海岸通2丁目1番,渚中学校北東交差点フェンス,34.69789069999999,135.2114745,緯度経度は怪しい
兵庫県,神戸市,87,中央区脇浜海岸通2丁目1番,渚中学校北西フェンス,34.69789069999999,135.2114745,緯度経度は怪しい
兵庫県,神戸市,88,中央区脇浜海岸通2丁目4番,なぎさ小学校南東フェンス,34.6975837,135.2104553,緯度経度は怪しい
兵庫県,神戸市,89,中央区脇浜海岸通4丁目5番,ローレルコート神戸海岸通北西鉄柵,34.6925412,135.2053269,緯度経度は怪しい
兵庫県,神戸市,90,中央区脇浜海岸通3丁目3番,HATゆめ公園内フェンス,34.6934478,135.2045951,緯度経度は怪しい
兵庫県,神戸市,91,中央区脇浜海岸通4丁目2番,脇浜海岸公園北側ガードレール,34.6956427,135.2085887,緯度経度は怪しい
兵庫県,神戸市,92,中央区脇浜海岸通3丁目2番,16番館北側フェンス,34.6953015,135.2064978,緯度経度は怪しい
兵庫県,神戸市,93,中央区生田町1丁目1番,ニッシンビル東側鉄柵,34.7037583,135.1969369,緯度経度は怪しい
兵庫県,神戸市,94,中央区生田町2丁目4番,生田町公園西側鉄柵,34.7024868,135.1961802,緯度経度は怪しい
兵庫県,神戸市,95,中央区生田町2丁目5番8号,東極楽寺西側塀,34.7021704,135.1958079,緯度経度は怪しい
兵庫県,神戸市,96,中央区二宮町2丁目11番,二宮公園南側鉄柵,34.7004021,135.1970582,緯度経度は怪しい
兵庫県,神戸市,97,中央区二宮町1丁目10番,二宮東歩道橋北側フェンス,34.7009766,135.1987411,緯度経度は怪しい
兵庫県,神戸市,98,中央区二宮町2丁目11番,二宮公園北側鉄柵,34.7004021,135.1970582,緯度経度は怪しい
兵庫県,神戸市,99,中央区二宮町3丁目12番1号,二宮交番前ガードレール,34.700125,135.1958287,緯度経度は怪しい
兵庫県,神戸市,100,中央区二宮町1丁目4番,二宮東歩道橋南側ガードレール,34.7002489,135.1988142,緯度経度は怪しい
兵庫県,神戸市,101,中央区二宮町1丁目3番1号,新神戸合同宿舎東側鉄柵,34.6995876,135.1993135,緯度経度は怪しい
兵庫県,神戸市,102,中央区琴ノ緒町2丁目8番,琴緒公園南東鉄柵,34.6983222,135.1973508,緯度経度は怪しい
兵庫県,神戸市,103,中央区琴ノ緒町2丁目8番,琴緒公園北側鉄柵,34.6983222,135.1973508,緯度経度は怪しい
兵庫県,神戸市,104,中央区琴ノ緒町5丁目1番,市立三宮駅前自転車駐車場フェンス,34.6951419,135.1949501,緯度経度は怪しい
兵庫県,神戸市,105,中央区琴ノ緒町5丁目1番,市立三宮駅前自転車駐車場フェンス,34.6951419,135.1949501,緯度経度は怪しい
兵庫県,神戸市,106,中央区二宮町1丁目2番,マスダビル前歩道鉄柵,34.6994105,135.1996923,緯度経度は怪しい
兵庫県,神戸市,107,中央区雲井通7丁目1番,ミント神戸南側ガードレール,34.6945246,135.1960338,緯度経度は怪しい
兵庫県,神戸市,108,中央区旭通1丁目2番,ネクスト・ワン株式会社 北東側鉄柵,34.6984689,135.2004972,緯度経度は怪しい
兵庫県,神戸市,109,中央区小野柄通2丁目1番5号,市営小野柄住宅前ガードレール,34.6952772,135.2013043,緯度経度は怪しい
兵庫県,神戸市,110,中央区旭通3丁目3番16号,旭中央住宅東側鉄柵,34.6973924,135.1989375,緯度経度は怪しい
兵庫県,神戸市,111,中央区雲井通8丁目1番,JR三ノ宮駅高架南側ガードレール,34.6940108,135.1953753,緯度経度は怪しい
兵庫県,神戸市,112,中央区小野柄通2丁目1番5号,市営小野柄住宅駐車場入口前ガードレール,34.6952772,135.2013043,緯度経度は怪しい
兵庫県,神戸市,113,中央区御幸通1丁目1番,生田川公園西側フェンス,34.6948479,135.2028388,緯度経度は怪しい
兵庫県,神戸市,114,中央区小野柄通5丁目1番,Kobe BMW 北側歩道ガードレール,34.6942361,135.1983831,緯度経度は怪しい
兵庫県,神戸市,115,中央区三宮町1丁目8番,パチンコACCESS 北側ガードレール,34.6923533,135.193243,緯度経度は怪しい
兵庫県,神戸市,116,中央区三宮町2丁目4番4号,三宮神社 西側玉垣,34.6895221,135.1913,緯度経度は怪しい
兵庫県,神戸市,117,中央区三宮町1丁目9番,パチンコTaiyo 北側ガードレール,34.69156150000001,135.1925099,緯度経度は怪しい
兵庫県,神戸市,118,中央区加納町6丁目5番,冷却塔北側鉄柵,34.6897142,135.1949792,緯度経度は怪しい
兵庫県,神戸市,119,中央区加納町6丁目5番,市役所2号館跡地東側植栽帯,34.6897142,135.1949792,緯度経度は怪しい
兵庫県,神戸市,120,中央区八幡通2丁目1番,磯上公園北西角フェンス,34.690933,135.198706,緯度経度は怪しい
兵庫県,神戸市,121,中央区八幡通2丁目1番,磯上公園北側フェンス,34.690933,135.198706,緯度経度は怪しい
兵庫県,神戸市,122,中央区加納町6丁目1番,こうべ花時計東側駐輪場鉄柵,34.6867231,135.1972777,緯度経度は怪しい
兵庫県,神戸市,123,中央区山本通2丁目9番,山本通小公園南側鉄柵,34.6985374,135.1887445,緯度経度は怪しい
兵庫県,神戸市,124,中央区北野町1丁目2番,水道局北野寮南西フェンス,34.701232,135.1930341,緯度経度は怪しい
兵庫県,神戸市,125,中央区北野町1丁目2番,北野浄水場南西側フェンス,34.701232,135.1930341,緯度経度は怪しい
兵庫県,神戸市,126,中央区北野町1丁目3番,北野町駐車場入り口フェンス,34.7046067,135.195229,緯度経度は怪しい
兵庫県,神戸市,127,中央区山本通2丁目1番,株式会社メディセオ駐車場東側鉄柵,34.6980967,135.1912051,緯度経度は怪しい
兵庫県,神戸市,128,中央区山本通1丁目7番,山本通東公園東側フェンス,34.6989604,135.1914246,緯度経度は怪しい
兵庫県,神戸市,129,中央区北野町2丁目6番7号,masked,34.699853,135.1912966,緯度経度は怪しい
兵庫県,神戸市,130,中央区加納町4丁目2番,阪急高架下鉄柵,34.6943899,135.1935442,緯度経度は怪しい
兵庫県,神戸市,131,中央区加納町4丁目3番,サンタックビル西側ガードレール,34.6946501,135.1934731,緯度経度は怪しい
兵庫県,神戸市,132,中央区加納町3丁目1番,加納町歩道橋南側柵,34.69745270000001,135.1936926,緯度経度は怪しい
兵庫県,神戸市,133,中央区下山手通1丁目2番1号,生田神社南側玉垣,34.6944422,135.1903613,緯度経度は怪しい
兵庫県,神戸市,134,中央区下山手通1丁目2番1号,生田神社西側植え込み,34.6944422,135.1903613,緯度経度は怪しい
兵庫県,神戸市,135,中央区加納町3丁目5番11号,マンション前ガードレール,34.6970634,135.1926317,
兵庫県,神戸市,136,中央区北長狭通3丁目2番1号,シンコーカーポートフェンス,34.6912951,135.1893052,緯度経度は怪しい
兵庫県,神戸市,137,中央区港島中町3丁目2番地1,ポートアイランド団地63棟東鉄柵,34.670582,135.2126305,緯度経度は怪しい
兵庫県,神戸市,138,中央区港島中町3丁目2番地3,港島学園南入口柵,34.6691148,135.2124429,緯度経度は怪しい
兵庫県,神戸市,139,中央区港島中町3丁目2番地3,港島学園西門南側,34.6691148,135.2124429,緯度経度は怪しい
兵庫県,神戸市,140,中央区港島中町3丁目2番地3,港島児童公園北側鉄柵,34.6691148,135.2124429,緯度経度は怪しい
兵庫県,神戸市,141,中央区港島中町3丁目6番地,ポートアイランド団地52棟南東鉄柵,34.6710093,135.21206,緯度経度は怪しい
兵庫県,神戸市,142,中央区港島中町1丁目1番地,港島2丁目交差点南東鉄柵,34.6769306,135.2122609,緯度経度は怪しい
兵庫県,神戸市,143,中央区港島中町3丁目1番地,ポートアイランド団地59棟南側遊歩道鉄柵,34.671685,135.2109435,緯度経度は怪しい
兵庫県,神戸市,144,中央区港島中町4丁目6番地,みなとじま駅東側ガードレール,34.6686904,135.2090473,緯度経度は怪しい
兵庫県,神戸市,145,中央区港島中町3丁目,ポートビレッジ1号棟北側歩道橋柵,34.6710093,135.21206,緯度経度は怪しい
兵庫県,神戸市,146,中央区港島中町3丁目,エバーグリーン6号棟西側柵,34.6710093,135.21206,緯度経度は怪しい
兵庫県,神戸市,147,中央区山本通3丁目18番5号,オオタハイツ西側鉄柵,34.6976304,135.1854982,緯度経度は怪しい
兵庫県,神戸市,148,中央区中山手通2丁目23番1号,神戸女子大学教育センター北西鉄柵,34.6958746,135.1887583,緯度経度は怪しい
兵庫県,神戸市,149,中央区山本通3丁目19番,海外移住と文化の交流センター南側ガードレール,34.697493,135.1846945,緯度経度は怪しい
兵庫県,神戸市,150,中央区中山手通2丁目24番7号,NHK神戸放送局西側ガードレール,34.6952457,135.188261,緯度経度は怪しい
兵庫県,神戸市,151,中央区中山手通2丁目2番20号,神戸税務署西側フェンス,34.6951301,135.1892982,緯度経度は怪しい
兵庫県,神戸市,152,中央区山本通3丁目17番,トーア市民公園フェンス,34.697934,135.1857917,緯度経度は怪しい
兵庫県,神戸市,153,中央区山本通3丁目17番,北野工房のまち前ガードレール,34.697934,135.1857917,緯度経度は怪しい
兵庫県,神戸市,154,中央区中山手通6丁目5番2号,関西国際大学3号館西側フェンス,34.6922702,135.1807363,緯度経度は怪しい
兵庫県,神戸市,155,中央区中山手通4丁目23番2号,こうべ小学校北西柵,34.6934568,135.1830182,緯度経度は怪しい
兵庫県,神戸市,156,中央区中山手通4丁目23番2号,こうべ小学校北門横柵,34.6934568,135.1830182,緯度経度は怪しい
兵庫県,神戸市,157,中央区中山手通4丁目16番,清山荘西側ガードレール,34.6945497,135.1847676,緯度経度は怪しい
兵庫県,神戸市,158,中央区中山手通4丁目23番2号,こうべ小学校南西柵,34.6934568,135.1830182,緯度経度は怪しい
兵庫県,神戸市,159,中央区山本通5丁目7番,パークマンション青木北側ガードレール,34.6937952,135.1797207,緯度経度は怪しい
兵庫県,神戸市,160,中央区山本通5丁目10番9号,racisa前ガードレール,34.6922659,135.1792753,緯度経度は怪しい
兵庫県,神戸市,161,中央区元町高架通1番,JR元町駅東側高架下ガードレール,34.6897486,135.1875474,緯度経度は怪しい
兵庫県,神戸市,162,中央区花隈町1番,花隈公園南ガードレール,34.6883934,135.183227,緯度経度は怪しい
兵庫県,神戸市,163,中央区北長狭通4丁目10番,神戸生田中学校西側鉄柵,34.6896576,135.1860112,緯度経度は怪しい
兵庫県,神戸市,164,中央区元町高架通3番,JR元町駅西口北西鉄柵,34.6859248,135.1811104,緯度経度は怪しい
兵庫県,神戸市,165,中央区北長狭通6丁目2番,ハナクマモータープール前ガードレール,34.6866148,135.1814029,緯度経度は怪しい
兵庫県,神戸市,166,中央区下山手通4丁目3番,元町北公園東側鉄柵,34.6912187,135.1856454,緯度経度は怪しい
兵庫県,神戸市,167,中央区元町高架通2番,JR元町駅西口南側ガードレール,34.6862649,135.1818418,緯度経度は怪しい
兵庫県,神戸市,168,中央区北長狭通4丁目10番,神戸生田中学校北側鉄柵,34.6896576,135.1860112,緯度経度は怪しい
兵庫県,神戸市,169,中央区波止場町5番,駐車場フェンス,34.681853,135.187036,緯度経度は怪しい
兵庫県,神戸市,170,中央区元町通3丁目12番,JR元町駅西側高架南ガードレール,34.6886202,135.1858649,緯度経度は怪しい
兵庫県,神戸市,171,中央区栄町通4丁目4番,共栄モータープール 東側金網,34.68587,135.1835241,緯度経度は怪しい
兵庫県,神戸市,172,中央区波止場町1番,神戸第2地方合同庁舎駐車場東側鉄柵,34.6861133,135.1917915,緯度経度は怪しい
兵庫県,神戸市,173,中央区弁天町1番,ホームセンター東側フェンス,34.682231,135.183695,緯度経度は怪しい
兵庫県,神戸市,174,中央区相生町1丁目2番,西元町きらら広場前ガードレール,34.6821273,135.1797938,緯度経度は怪しい
兵庫県,神戸市,175,中央区相生町1丁目3番3号,NTT駐車場南西鉄柵,34.6809894,135.1793711,緯度経度は怪しい
兵庫県,神戸市,176,中央区波止場町7番,弁天橋北側フェンス,34.6832918,135.185426,緯度経度は怪しい
兵庫県,神戸市,177,中央区中山手通7丁目18番,宇治川公園北西鉄柵,34.6919184,135.1764295,緯度経度は怪しい
兵庫県,神戸市,178,中央区中山手通7丁目33番,宇治川公園北東鉄柵,34.6916134,135.175625,緯度経度は怪しい
兵庫県,神戸市,179,中央区下山手通7丁目18番,大倉山高層住宅1号棟北側フェンス,34.6874591,135.175625,緯度経度は怪しい
兵庫県,神戸市,180,中央区中山手通7丁目31番1号,山の手小学校正門横鉄柵,34.6901976,135.175956,緯度経度は怪しい
兵庫県,神戸市,181,中央区中山手通7丁目31番,熊野神社前ガードレール,34.6905056,135.175625,緯度経度は怪しい
兵庫県,神戸市,182,中央区中山手通8丁目1番,市営新中山手住宅2号棟北側鉄柵,34.6873077,135.1747761,緯度経度は怪しい
兵庫県,神戸市,183,中央区中山手通8丁目1番,清風橋北側フェンス,34.6873077,135.1747761,緯度経度は怪しい
兵庫県,神戸市,184,中央区北長狭通7丁目1番,西元町歩道橋西側ガードレール,34.68538059999999,135.1799401,緯度経度は怪しい
兵庫県,神戸市,185,中央区下山手通9丁目10番,市営下山手住宅5号棟西側鉄柵,34.6864874,135.1759175,緯度経度は怪しい
兵庫県,神戸市,186,中央区下山手通7丁目13番9号,エステムコート神戸県庁前Ⅲ前ガードレール,34.6885362,135.177586,緯度経度は怪しい
兵庫県,神戸市,187,中央区下山手通9丁目6番,橘橋櫓下,34.6860343,135.1762832,緯度経度は怪しい
兵庫県,神戸市,188,中央区下山手通8丁目17番,下山手公園東側鉄柵,34.6867497,135.1776728,緯度経度は怪しい
兵庫県,神戸市,189,中央区下山手通9丁目10番,市営新下山手住宅1号棟北西側鉄柵,34.6864874,135.1759175,緯度経度は怪しい
兵庫県,神戸市,190,中央区下山手通9丁目10番,市営新下山手住宅1号棟北東側鉄柵,34.6864874,135.1759175,緯度経度は怪しい
兵庫県,神戸市,191,中央区楠町4丁目1番,中央体育館北歩道橋柵,34.6831079,135.1743086,緯度経度は怪しい
兵庫県,神戸市,192,中央区楠町4丁目2番5号,湊翔楠中学校南東ガードレール,34.6841321,135.1718315,緯度経度は怪しい
兵庫県,神戸市,193,中央区楠町4丁目2番5号,湊翔楠中学校西側フェンス,34.6841321,135.1718315,緯度経度は怪しい
兵庫県,神戸市,194,中央区楠町4丁目2番5号,湊翔楠中学校北西フェンス,34.6841321,135.1718315,緯度経度は怪しい
兵庫県,神戸市,195,中央区楠町4丁目1番,中央体育館東側駐車場フェンス,34.6831079,135.1743086,緯度経度は怪しい
兵庫県,神戸市,196,中央区楠町8丁目10番,たちばな橋西側ガードレール,34.6862529,135.1749668,緯度経度は怪しい
兵庫県,神戸市,197,中央区楠町8丁目1番,市営楠住宅3号棟南鉄柵,34.6856917,135.1758444,緯度経度は怪しい
兵庫県,神戸市,198,中央区橘通3丁目4番1号,総合福祉センター東側ガードレール,34.6811331,135.1743894,緯度経度は怪しい
兵庫県,神戸市,199,中央区多聞通2丁目4番,ファミリーマート神戸多聞二丁目店前鉄柵,34.6812152,135.1770877,緯度経度は怪しい
兵庫県,神戸市,200,中央区中町通2丁目3番9号,三井住友銀行神戸駅前支店西側ガードレール,34.6799495,135.1757621,緯度経度は怪しい
兵庫県,神戸市,201,中央区多聞通1丁目3番19号,神戸ラーメン第一旭神戸店前ガードレール,34.6826309,135.1781521,緯度経度は怪しい
兵庫県,神戸市,202,中央区橘通4丁目1番20号,神戸市医師会館駐車場フェンス,34.6812584,135.1732849,緯度経度は怪しい
兵庫県,神戸市,203,中央区中町通2丁目3番,チサンホテル北側ガードレール,34.6799495,135.1757621,緯度経度は怪しい
兵庫県,神戸市,204,中央区中町通3丁目2番,ライフ北東ガードレール,34.67885,135.174867,緯度経度は怪しい
兵庫県,神戸市,205,中央区相生町5丁目17番,相生町公園北側鉄柵,34.6766572,135.175625,緯度経度は怪しい
兵庫県,神戸市,206,中央区東川崎町5丁目1番1号,市営東川崎住宅東側鉄柵,34.6744064,135.1808633,緯度経度は怪しい
兵庫県,神戸市,207,中央区東川崎町1丁目4番,市立盲学校南西フェンス,34.6772373,135.1807447,緯度経度は怪しい
兵庫県,神戸市,208,中央区東川崎町1丁目3番,JR西日本神戸電力技術センター南側フェンス,34.6795466,135.1791542,緯度経度は怪しい
兵庫県,神戸市,209,中央区東川崎町1丁目4番,メゾンビューハーバーランド北側正門フェンス,34.6772373,135.1807447,緯度経度は怪しい
兵庫県,神戸市,210,中央区東川崎町4丁目2番,東川崎公園東側鉄柵,34.6752228,135.1814761,緯度経度は怪しい
兵庫県,神戸市,211,中央区東川崎町1丁目5番,湊小学校体育館フェンス,34.6775246,135.1820887,緯度経度は怪しい
兵庫県,神戸市,212,中央区諏訪山町2番,諏訪山公園西側鉄柵,34.6941581,135.1797196,緯度経度は怪しい
兵庫県,神戸市,213,中央区諏訪山町2番,諏訪山公園南ガードレール,34.6941581,135.1797196,緯度経度は怪しい
兵庫県,神戸市,214,中央区諏訪山町3番,関西国際大学南東側フェンス,34.6943448,135.1781482,緯度経度は怪しい
兵庫県,神戸市,215,中央区再度筋町2番,再度橋北西ガードレール,34.6930894,135.1771608,緯度経度は怪しい
兵庫県,神戸市,216,中央区再度筋町5番,宇治川ガードレール,34.6923034,135.1759175,緯度経度は怪しい
兵庫県,神戸市,217,中央区再度筋町13番,再度橋欄干,34.6935,135.1777459,緯度経度は怪しい
兵庫県,神戸市,2,西区玉津町田中594番地先,唐土橋付近,34.6907579,134.982166,緯度経度は怪しい
兵庫県,神戸市,3,西区小山1丁目4番1号,玉津第一小学校正門付近,34.6849056,134.9879998,緯度経度は怪しい
兵庫県,神戸市,4,西区玉津町居住131番地,ハリマカネヨシ(株)南側付近,34.6852301,134.9807622,緯度経度は怪しい
兵庫県,神戸市,5,西区玉津町小山561番地の1,日輪寺保育園南側付近,34.6875353,134.9880858,緯度経度は怪しい
兵庫県,神戸市,6,西区天が岡1番地の1地先,若宮橋付近,34.6885795,134.99241,緯度経度は怪しい
兵庫県,神戸市,7,西区二ツ屋1丁目9番,二ツ屋中公園付近,34.6844282,134.9903092,緯度経度は怪しい
兵庫県,神戸市,8,西区二ツ屋2丁目11番,別府田公園北口付近,34.6817961,134.9894348,緯度経度は怪しい
兵庫県,神戸市,9,西区玉津町小山180番地の3,西区役所付近,34.683312,134.9816348,緯度経度は怪しい
兵庫県,神戸市,10,西区水谷2丁目23番,坂口モータース付近,34.6793088,134.9948998,緯度経度は怪しい
兵庫県,神戸市,11,西区玉津町今津364番地の29,県営玉津今津団地21号棟北側付近,34.6789691,134.9917468,緯度経度は怪しい
兵庫県,神戸市,12,西区水谷2丁目5番,西山神公園付近,34.67765370000001,134.9954827,緯度経度は怪しい
兵庫県,神戸市,13,西区玉津町高津橋305番地,バス停高津橋 北約100ｍ付近,34.671658,134.9934987,緯度経度は怪しい
兵庫県,神戸市,14,西区玉津町高津橋758番地,上大谷橋付近,34.6744007,134.9987797,緯度経度は怪しい
兵庫県,神戸市,15,西区玉津町高津橋640番地1,高津橋小学校東門付近,34.6702939,134.9951396,緯度経度は怪しい
兵庫県,神戸市,16,西区玉津町西河原121番地の1,高津橋交差点南側付近,34.6664739,134.9877587,緯度経度は怪しい
兵庫県,神戸市,17,西区玉津町西河原164番地,兵庫日産自動車(株)明石中央店南側付近,34.6671033,134.9887351,緯度経度は怪しい
兵庫県,神戸市,18,西区玉津町新方433番地の1地先,バス停新方(北行)付近,34.662241,134.9911416,緯度経度は怪しい
兵庫県,神戸市,19,西区玉津町新方158番地,市営玉津東住宅6号棟駐輪場付近,34.6629063,134.9918395,緯度経度は怪しい
兵庫県,神戸市,20,西区玉津町上池148番地,市営玉津東住宅10号棟西側公園付近,34.6587104,134.9879527,緯度経度は怪しい
兵庫県,神戸市,21,西区玉津町上池317番地の7,玉津南公民館入口付近,34.6602732,134.9908171,緯度経度は怪しい
兵庫県,神戸市,22,西区玉津町上池308番地の1地先,二越橋付近,34.6585796,134.9899806,緯度経度は怪しい
兵庫県,神戸市,23,西区玉津町上池78番地,市営玉津西住宅7号棟南側付近,34.6584208,134.9885488,緯度経度は怪しい
兵庫県,神戸市,24,西区玉津町上池190番地,市営玉津西住宅第一集会所付近,34.6597174,134.9880956,緯度経度は怪しい
兵庫県,神戸市,25,西区森友5丁目132番地,宗賢神社森友公園東付近(新幹線高架下),34.6656549,134.9854813,緯度経度は怪しい
兵庫県,神戸市,26,西区森友5丁目43番地,ソレイユ西神戸 南側付近,34.667541,134.9848354,緯度経度は怪しい
兵庫県,神戸市,27,西区森友4丁目3番地,森友交差点東南角付近,34.66807,134.9804342,緯度経度は怪しい
兵庫県,神戸市,28,西区枝吉4丁目48番地の4,枝吉地域福祉センター付近,34.6680767,134.9755687,緯度経度は怪しい
兵庫県,神戸市,29,西区枝吉4丁目26番地,枝吉保育所西側付近,34.6674102,134.9744466,緯度経度は怪しい
兵庫県,神戸市,30,西区枝吉2丁目96番地,みどり病院北側緑地帯付近,34.6643961,134.9768691,緯度経度は怪しい
兵庫県,神戸市,31,西区枝吉1丁目101番地,蓮池公園付近,34.6636109,134.9775,緯度経度は怪しい
兵庫県,神戸市,32,西区王塚台7丁目40番地,日新信用金庫玉津支店前付近,34.6727921,134.9803837,緯度経度は怪しい
兵庫県,神戸市,33,西区王塚台6丁目14番地,浄泉寺公園付近,34.6740247,134.9777363,緯度経度は怪しい
兵庫県,神戸市,34,西区王塚台3丁目26番地,王塚公園北側入口付近,34.6729266,134.971372,緯度経度は怪しい
兵庫県,神戸市,35,西区王塚台7丁目69番地の1,中野フラワー南側付近,34.6720775,134.9790347,緯度経度は怪しい
兵庫県,神戸市,36,西区曙町1070番地,県営玉津団地11号棟南側付近,34.6720368,134.976541,緯度経度は怪しい
兵庫県,神戸市,37,西区王塚台1丁目142番地,神戸視力障害センター西門付近,34.6693166,134.9780522,緯度経度は怪しい
兵庫県,神戸市,38,西区王塚台1丁目41番地の5,バス停王塚台1丁目付近,34.6706348,134.9733219,緯度経度は怪しい
兵庫県,神戸市,39,西区中野2丁目18番地,出合中野公園西側付近,34.6789366,134.9699738,緯度経度は怪しい
兵庫県,神戸市,40,西区中野1丁目24番地,出合丸山公園南側付近,34.6774412,134.9737646,緯度経度は怪しい
兵庫県,神戸市,41,西区王塚台4丁目57番地,県営玉津王塚団地3号棟西側付近,34.67548670000001,134.9737303,緯度経度は怪しい
兵庫県,神戸市,42,西区王塚台4丁目55番地,厚生年金住宅A棟東側付近,34.6759398,134.974682,緯度経度は怪しい
兵庫県,神戸市,43,西区王塚台5丁目28番地,厚生年金住宅C棟東側付近,34.6743526,134.9753283,緯度経度は怪しい
兵庫県,神戸市,44,西区王塚台5丁目25番地,県営玉津王塚団地9号棟北側付近,34.6745617,134.9747539,緯度経度は怪しい
兵庫県,神戸市,45,西区王塚台4丁目41番地,幣塚公園入口付近,34.6745121,134.9721558,緯度経度は怪しい
兵庫県,神戸市,46,西区玉津町出合103番地,バス停出合橋(明石行)付近,34.6775113,134.9816732,緯度経度は怪しい
兵庫県,神戸市,47,西区玉津町出合204番地の4,旧玉津地域福祉センター付近,34.674837,134.9819864,緯度経度は怪しい
兵庫県,神戸市,48,西区持子3丁目19番地の1,サイクルベースアサヒ玉津店東側付近,34.6718538,134.9816295,緯度経度は怪しい
兵庫県,神戸市,49,西区持子1丁目66番地の5,masked,34.6709901,134.9844764,緯度経度は怪しい
兵庫県,神戸市,50,西区持子2丁目59番地,持子公園西側交差点付近,34.670452,134.9829534,緯度経度は怪しい
兵庫県,神戸市,51,西区持子2丁目137番地,神戸トヨペット(株)東側付近,34.6686399,134.9822213,緯度経度は怪しい
兵庫県,神戸市,52,西区玉津町出合179番地先,たまつ幼稚園付近,34.673981,134.9832796,緯度経度は怪しい
兵庫県,神戸市,53,西区伊川谷町布施畑813番地,バス停中畑付近,34.6980781,135.0926068,緯度経度は怪しい
兵庫県,神戸市,54,西区伊川谷町布施畑,谷山大池前(高架下)付近(神戸・三木線),34.702748,135.0863419,緯度経度は怪しい
兵庫県,神戸市,55,西区伊川谷町布施畑709番地,バス停布施畑口(明石行)付近,34.6977676,135.0838577,緯度経度は怪しい
兵庫県,神戸市,56,西区伊川谷町布施畑612番地,masked,34.6971921,135.0813574,緯度経度は怪しい
兵庫県,神戸市,57,西区伊川谷町布施畑596番地,布施畑公民館前付近,34.6971942,135.0807766,緯度経度は怪しい
兵庫県,神戸市,58,西区伊川谷町布施畑544番地,masked,34.6965204,135.0785962,緯度経度は怪しい
兵庫県,神戸市,59,西区伊川谷町布施畑441番地の1,神戸淡路鳴門自動車道高架下付近,34.6954332,135.0759574,緯度経度は怪しい
兵庫県,神戸市,60,西区伊川谷町前開303番地,バス停太山寺(名谷行)付近,34.6970976,135.0646712,緯度経度は怪しい
兵庫県,神戸市,61,西区伊川谷町前開410番地,バス停前開上(名谷行)付近,34.6973957,135.0606557,緯度経度は怪しい
兵庫県,神戸市,62,西区伊川谷町前開860番地,太山寺小学校東正門付近,34.6959271,135.055707,緯度経度は怪しい
兵庫県,神戸市,63,西区伊川谷町前開779番地の1,前開交差点消防器具庫兼詰所付近,34.6973957,135.0606557,緯度経度は怪しい
兵庫県,神戸市,64,西区伊川谷町前開933番地,バス停新川橋(明石行)付近,34.6925116,135.0526537,緯度経度は怪しい
兵庫県,神戸市,65,西区伊川谷町前開1249番地,室谷橋付近,34.6973957,135.0606557,緯度経度は怪しい
兵庫県,神戸市,66,西区前開南町2丁目15番,前開中央橋付近,34.6874849,135.0438799,緯度経度は怪しい
兵庫県,神戸市,67,西区前開南町1丁目2番,地下鉄伊川谷駅バスロータリー付近,34.687039,135.040204,緯度経度は怪しい
兵庫県,神戸市,68,西区学園東町4丁目17番地の9,貝谷ダム東南角付近,34.6861006,135.067468,緯度経度は怪しい
兵庫県,神戸市,69,西区学園東町3丁目12番地,貝谷公園付近,34.686596,135.0624066,緯度経度は怪しい
兵庫県,神戸市,70,西区学園東町5丁目5番地,学園東町公園北側付近,34.683805,135.0659085,緯度経度は怪しい
兵庫県,神戸市,71,西区学園東町2丁目2番地,太山寺中学校北側付近,34.6843831,135.0624066,緯度経度は怪しい
兵庫県,神戸市,72,西区学園東町2丁目2番地,太山寺中学校南側付近,34.6843831,135.0624066,緯度経度は怪しい
兵庫県,神戸市,73,西区学園東町5丁目4番地,学園東地域福祉センター(学園東町公園)付近,34.683805,135.0659085,緯度経度は怪しい
兵庫県,神戸市,74,西区学園東町8丁目3番地,神戸市立工業専門学校校門付近,34.6788679,135.0677292,緯度経度は怪しい
兵庫県,神戸市,75,西区学園東町6丁目21番地,総合運動公園多目的広場前付近,34.6804519,135.0705782,緯度経度は怪しい
兵庫県,神戸市,76,西区学園西町2丁目7番地,学園西町北公園付近,34.68456440000001,135.0562788,緯度経度は怪しい
兵庫県,神戸市,77,西区学園西町4丁目1番地,神戸留学生会館北側付近,34.6837628,135.0496981,緯度経度は怪しい
兵庫県,神戸市,78,西区学園西町5丁目1番地,小寺小学校正門前付近,34.6822075,135.0558594,緯度経度は怪しい
兵庫県,神戸市,79,西区学園西町1丁目4番地,キャンパススクエア付近,34.6834733,135.0581498,緯度経度は怪しい
兵庫県,神戸市,80,西区学園西町1丁目14番地,学園駅前橋付近,34.6817914,135.0582806,緯度経度は怪しい
兵庫県,神戸市,81,西区学園西町5丁目1番地,学園西橋付近,34.6822075,135.0558594,緯度経度は怪しい
兵庫県,神戸市,82,西区学園西町7丁目3番地,アミティ学園西町団地701号棟東付近,34.68062,135.0544161,緯度経度は怪しい
兵庫県,神戸市,83,西区学園西町7丁目3番地,兵庫県立大学前付近,34.68062,135.0544161,緯度経度は怪しい
兵庫県,神戸市,84,西区伊川谷町井吹1292番地,吹上公会堂南側付近,34.694255,135.0388939,緯度経度は怪しい
兵庫県,神戸市,85,西区伊川谷町小寺265番地先,小寺市民公園付近,34.6848555,135.0429092,緯度経度は怪しい
兵庫県,神戸市,86,西区伊川谷町上脇226番地の2,焼肉一歩堂付近,34.680991,135.0347757,緯度経度は怪しい
兵庫県,神戸市,87,西区伊川谷町上脇,バス停長坂橋(明石行)付近,34.6810087,135.0303178,緯度経度は怪しい
兵庫県,神戸市,88,西区池上5丁目1番地,丸尾工務店前歩道付近,34.6767636,135.0241944,緯度経度は怪しい
兵庫県,神戸市,89,西区池上5丁目3番地,谷田北公園南付近,34.6767636,135.0241944,緯度経度は怪しい
兵庫県,神戸市,90,西区伊川谷町別府1342番地,いかわ幼稚園前付近,34.6757206,135.0199097,緯度経度は怪しい
兵庫県,神戸市,91,西区池上4丁目15番地の2,西区役所伊川谷出張所付近,34.674799,135.024591,緯度経度は怪しい
兵庫県,神戸市,92,西区池上1丁目11番地,バス停池上2丁目付近,34.6718785,135.0309011,緯度経度は怪しい
兵庫県,神戸市,93,西区池上1丁目12番地,池上会館向い側付近,34.6718785,135.0309011,緯度経度は怪しい
兵庫県,神戸市,94,西区池上2丁目21番地,バス停池上中央公園付近,34.67245550000001,135.0274018,緯度経度は怪しい
兵庫県,神戸市,95,西区池上2丁目21番地,池上医療ビル付近,34.67245550000001,135.0274018,緯度経度は怪しい
兵庫県,神戸市,96,西区池上3丁目3番地,JAアクト駐車場北角付近,34.6720664,135.0236112,緯度経度は怪しい
兵庫県,神戸市,97,西区池上2丁目33番地,宮の前橋付近,34.67245550000001,135.0274018,緯度経度は怪しい
兵庫県,神戸市,98,西区大津和2丁目10番地,ローソン大津和2丁目店付近,34.6703594,135.0306095,緯度経度は怪しい
兵庫県,神戸市,99,西区大津和2丁目4番地,ハイランドヴュー付近,34.6703594,135.0306095,緯度経度は怪しい
兵庫県,神戸市,100,西区伊川谷町長坂594番地の1,長坂会館付近,34.6743412,135.0356313,緯度経度は怪しい
兵庫県,神戸市,101,西区伊川谷町長坂841番地,長坂中学校正門前付近,34.671094,135.0367577,緯度経度は怪しい
兵庫県,神戸市,102,西区伊川谷町長坂969番地の3,masked,34.670521,135.0397598,緯度経度は怪しい
兵庫県,神戸市,103,西区伊川谷町有瀬36番地の11,長尾辻公園付近,34.6678465,135.0365515,緯度経度は怪しい
兵庫県,神戸市,104,西区伊川谷町有瀬330番地,西細谷小公園前付近,34.6667105,135.0330169,緯度経度は怪しい
兵庫県,神戸市,105,西区伊川谷町有瀬64番地,ネオコーポ明舞駐車場前付近,34.6654606,135.0349858,緯度経度は怪しい
兵庫県,神戸市,106,西区伊川谷町有瀬143番地の2,県営伊川谷第2高層住宅入口付近,34.6629008,135.0328299,緯度経度は怪しい
兵庫県,神戸市,107,西区伊川谷町有瀬563番地の2,バス停神戸学院大学口 南三叉路付近,34.6642752,135.0266228,緯度経度は怪しい
兵庫県,神戸市,108,西区伊川谷町別府1157番地,バス停伊川谷住宅前付近,34.6805718,135.0128243,緯度経度は怪しい
兵庫県,神戸市,109,西区伊川谷町有瀬1137番地の1,有瀬小学校正門前付近,34.6646935,135.0195705,緯度経度は怪しい
兵庫県,神戸市,110,西区伊川谷町有瀬1281番地,有瀬団地公園入口付近,34.6641462,135.0167471,緯度経度は怪しい
兵庫県,神戸市,111,西区今寺4番地の3,カレッジハイツⅡ付近,34.6649594,135.0224585,緯度経度は怪しい
兵庫県,神戸市,112,西区伊川谷町有瀬656番地,バス停日向前付近,34.6615562,135.0214458,緯度経度は怪しい
兵庫県,神戸市,113,西区伊川谷町有瀬1281番地,バス停生田付近,34.6641462,135.0167471,緯度経度は怪しい
兵庫県,神戸市,114,西区伊川谷町有瀬1688番地の3,古苗代橋付近,34.6625658,135.0138264,緯度経度は怪しい
兵庫県,神戸市,115,西区伊川谷町有瀬1567番地,バス停赤羽中央付近,34.6629396,135.0072326,緯度経度は怪しい
兵庫県,神戸市,116,西区伊川谷町井吹330番地,苗代橋付近,34.6872187,135.0230235,緯度経度は怪しい
兵庫県,神戸市,117,西区北別府4丁目21番地3,バス停伊川谷インター前付近,34.6750994,135.0119849,緯度経度は怪しい
兵庫県,神戸市,118,西区北別府2丁目2番地の3,岩本接骨院付近,34.6745825,135.018019,緯度経度は怪しい
兵庫県,神戸市,119,西区北別府3丁目2番地の1,伊川谷小学校前 堂ノ前公園付近,34.6719154,135.0131923,緯度経度は怪しい
兵庫県,神戸市,120,西区南別府1丁目21番地の5,バス停南別府1丁目付近,34.6703126,135.0196733,緯度経度は怪しい
兵庫県,神戸市,121,西区南別府4丁目263番地の51,高見西公園付近,34.6698582,135.0107383,緯度経度は怪しい
兵庫県,神戸市,122,西区北別府4丁目2091番地の3,バス停伊川谷小学校前付近,34.6710879,135.0096022,緯度経度は怪しい
兵庫県,神戸市,123,西区白水3丁目2番地,バス停白水3丁目付近,34.6693516,135.0056831,緯度経度は怪しい
兵庫県,神戸市,124,西区伊川谷町潤和907番地,バス停東河原付近,34.6658518,134.9966929,緯度経度は怪しい
兵庫県,神戸市,125,西区南別府4丁目59番地の1,プリシェール南別府北側付近,34.6687015,135.0099094,緯度経度は怪しい
兵庫県,神戸市,126,西区伊川谷町有瀬1181番地,ローズビレッジ伊川谷ヒルズ付近,34.6664408,135.0181364,緯度経度は怪しい
兵庫県,神戸市,127,西区伊川谷町潤和1308番地,バス停赤羽平池付近,34.6599663,135.0060826,緯度経度は怪しい
兵庫県,神戸市,128,西区伊川谷町潤和1466番地の1,めぐみの郷伊川谷店前付近,34.661506,135.0031069,緯度経度は怪しい
兵庫県,神戸市,129,西区伊川谷町潤和1466番地の1,めぐみの郷伊川谷店南西付近,34.661506,135.0031069,緯度経度は怪しい
兵庫県,神戸市,130,西区伊川谷町潤和1800番地,井出北公園付近,34.6613241,134.9989449,緯度経度は怪しい
兵庫県,神戸市,131,西区伊川谷町潤和1629番地,井上マンション北側付近,34.6601646,135.0006205,緯度経度は怪しい
兵庫県,神戸市,132,西区伊川谷町潤和1692番地の3,パブテスト神学校付近,34.6591969,134.9986363,緯度経度は怪しい
兵庫県,神戸市,133,西区樫谷町寺谷269番地の1,バス停寺谷(降車場)付近,34.6913413,134.9811812,緯度経度は怪しい
兵庫県,神戸市,134,西区樫谷町寺谷127番地の3,バス停寺谷南口(寺谷行)付近,34.72842869999999,135.0513189,緯度経度は怪しい
兵庫県,神戸市,135,西区樫谷町福谷695番地の1,バス停福谷(寺谷行)付近,34.7179274,135.0397916,緯度経度は怪しい
兵庫県,神戸市,136,西区樫谷町友清239番地,バス停友清付近,34.7139385,135.0467166,緯度経度は怪しい
兵庫県,神戸市,137,西区樫谷町福谷335番地,山鳥橋付近,34.7179274,135.0397916,緯度経度は怪しい
兵庫県,神戸市,138,西区樫谷町福谷313番地,masked,34.7179274,135.0397916,緯度経度は怪しい
兵庫県,神戸市,139,西区樫谷町池谷444番地の1,池谷会館付近,34.6667802,134.9920835,緯度経度は怪しい
兵庫県,神戸市,140,西区樫谷町池谷276番地,バス停樫谷小学校前(明石行)付近,34.6913413,134.9811812,緯度経度は怪しい
兵庫県,神戸市,141,西区樫谷町長谷71番地の1,西区役所樫谷出張所付近,34.7747302,135.0133978,緯度経度は怪しい
兵庫県,神戸市,142,西区樫谷町長谷211番地の1,バス停長谷南口(明石行)付近,34.6913413,134.9811812,緯度経度は怪しい
兵庫県,神戸市,143,西区樫谷町栃木431番地,栃木橋付近(樫谷川西岸),34.6667802,134.9920835,緯度経度は怪しい
兵庫県,神戸市,144,西区樫谷町栃木120番地の1,(株)京神運輸倉庫付近,34.6667802,134.9920835,緯度経度は怪しい
兵庫県,神戸市,145,西区樫谷町栃木377番地の1,栃木集会所付近,34.6667802,134.9920835,緯度経度は怪しい
兵庫県,神戸市,146,西区樫谷町谷口25番地の4,バス停谷口(西神中央行)付近,34.6913413,134.9811812,緯度経度は怪しい
兵庫県,神戸市,147,西区樫谷町菅野40番地,masked,34.6981545,135.0066458,緯度経度は怪しい
兵庫県,神戸市,148,西区樫谷町菅野296番地先,バス停菅野(西神中央行)付近,34.6913413,134.9811812,緯度経度は怪しい
兵庫県,神戸市,149,西区樫谷町菅野355番地の3,菅野公会堂付近,34.6981545,135.0066458,緯度経度は怪しい
兵庫県,神戸市,150,西区樫谷町松本494番地の2,地蔵院付近,34.6667802,134.9920835,緯度経度は怪しい
兵庫県,神戸市,151,西区樫谷町松本352番地の1,バス停松本東(西神中央行)付近,34.6667802,134.9920835,緯度経度は怪しい
兵庫県,神戸市,152,西区樫谷町松本178番地の3,喫茶田園付近,34.6667802,134.9920835,緯度経度は怪しい
兵庫県,神戸市,153,西区平野町宮前148番地,西区役所平野出張所付近,34.7090195,134.9833637,緯度経度は怪しい
兵庫県,神戸市,154,西区平野町下村136番地の1,下村公会堂付近,34.703509,134.9813986,緯度経度は怪しい
兵庫県,神戸市,155,西区平野町福中226番地,masked,34.699992,134.9827187,緯度経度は怪しい
兵庫県,神戸市,156,西区平野町芝崎210番地の1,芝崎公会堂付近,34.6965777,134.9819739,緯度経度は怪しい
兵庫県,神戸市,157,西区平野町慶明183番地の1,バス停平野八幡神社前付近,34.6926521,134.9834771,緯度経度は怪しい
兵庫県,神戸市,158,西区平野町慶明180番地の10,平野八幡神社東側入口付近,34.6916306,134.9871757,緯度経度は怪しい
兵庫県,神戸市,159,西区平野町印路6番地の3,バス停印路東口付近,34.6689835,134.9753777,緯度経度は怪しい
兵庫県,神戸市,160,西区平野町印路231番地,バス停印路付近,34.6913413,134.9811812,緯度経度は怪しい
兵庫県,神戸市,161,西区平野町中津417番地,明石川西岸 新中津橋付近,34.7000042,134.972257,緯度経度は怪しい
兵庫県,神戸市,162,西区平野町中津262番地,中村公会堂駐車場付近,34.6991745,134.9736668,緯度経度は怪しい
兵庫県,神戸市,163,西区平野町中津714番地,masked,34.6862997,134.9727788,緯度経度は怪しい
兵庫県,神戸市,164,西区平野町中津820番地,上津橋集会所付近,34.6835926,134.9746039,緯度経度は怪しい
兵庫県,神戸市,165,西区平野町中津936番地,大塩整形医療㈱付近,34.6808339,134.978597,緯度経度は怪しい
兵庫県,神戸市,166,西区平野町黒田165番地の1,バス停黒田付近,34.7270384,134.9918395,緯度経度は怪しい
兵庫県,神戸市,167,西区平野町黒田241番地の1,黒田公会堂付近,34.7236555,134.9932673,緯度経度は怪しい
兵庫県,神戸市,168,西区平野町常本469番地,常本市民公園付近,34.7205156,134.988557,緯度経度は怪しい
兵庫県,神戸市,169,西区平野町西戸田238番地,masked,34.7164578,134.9790129,緯度経度は怪しい
兵庫県,神戸市,170,西区平野町西戸田230番地,masked,34.7122554,134.9802782,緯度経度は怪しい
兵庫県,神戸市,171,西区平野町西戸田403番地の2,西戸田簡易郵便局付近,34.7127633,134.9854028,緯度経度は怪しい
兵庫県,神戸市,172,西区平野町西戸田282番地の3,川崎タクシー付近（バス停平野橋付近）,34.7110146,134.9834866,緯度経度は怪しい
兵庫県,神戸市,173,西区平野町堅田345番地,バス停堅田（明石行）付近,34.7270661,135.0034972,緯度経度は怪しい
兵庫県,神戸市,174,西区平野町堅田156番地,バス停堅田南付近,34.7270661,135.0034972,緯度経度は怪しい
兵庫県,神戸市,175,西区平野町繁田557番地,繁田集会所付近,34.7215534,134.9988343,緯度経度は怪しい
兵庫県,神戸市,176,西区平野町繁田518番地,バス停繁田南口（西神中央行）付近,34.7215534,134.9988343,緯度経度は怪しい
兵庫県,神戸市,177,西区平野町大畑146番地の1,バス停大畑（明石行）付近,34.7140981,134.9919256,緯度経度は怪しい
兵庫県,神戸市,178,西区井吹台東町6丁目16番地,東井吹福谷公園付近,34.7066512,135.0414005,緯度経度は怪しい
兵庫県,神戸市,179,西区井吹台北町5丁目,西神南三ツ松公園付近,34.711075,135.0414005,緯度経度は怪しい
兵庫県,神戸市,180,西区井吹台東町5丁目32番地,井吹東小学校正門付近,34.7058408,135.0384838,緯度経度は怪しい
兵庫県,神戸市,181,西区井吹台東町4丁目19番地,東井吹澤谷公園付近,34.7033963,135.0396869,緯度経度は怪しい
兵庫県,神戸市,182,西区井吹台東町1丁目5番地,バス停井吹台東町1丁目付近,34.7028796,135.0360208,緯度経度は怪しい
兵庫県,神戸市,183,西区井吹台東町2丁目2番地の1,つぐみ保育園付近,34.6997721,135.0341431,緯度経度は怪しい
兵庫県,神戸市,184,西区井吹台東町1丁目1番地,西神南センタービル来客用駐車場付近,34.6994436,135.0308886,緯度経度は怪しい
兵庫県,神戸市,185,西区井吹台東町1丁目1番地の67,バス停西神南駅付近,34.6994436,135.0308886,緯度経度は怪しい
兵庫県,神戸市,186,西区井吹台東町6丁目,バス停井吹台東町6丁目付近,34.7066512,135.0414005,緯度経度は怪しい
兵庫県,神戸市,187,西区井吹台西町1丁目1番地先,西井吹竹谷公園東側付近,34.6983527,135.0293665,緯度経度は怪しい
兵庫県,神戸市,188,西区井吹台西町1丁目7番地,バス停井吹台谷口公園付近,34.6973497,135.0262354,緯度経度は怪しい
兵庫県,神戸市,189,西区井吹台西町2丁目2番地,永井谷ダム西北角付近,34.6971561,135.0282529,緯度経度は怪しい
兵庫県,神戸市,190,西区井吹台西町3丁目6番地先,西井吹深谷公園西側付近,34.6937516,135.0268186,緯度経度は怪しい
兵庫県,神戸市,191,西区井吹台西町6丁目4番地1,西井吹小池谷公園付近,34.690833,135.0229611,緯度経度は怪しい
兵庫県,神戸市,192,西区井吹台西町5丁目7番地6,井吹台西公園付近,34.6927597,135.0186001,緯度経度は怪しい
兵庫県,神戸市,193,西区井吹台西町3丁目3番地先,井吹西小学校北門付近,34.6937516,135.0268186,緯度経度は怪しい
兵庫県,神戸市,194,西区井吹台西町4丁目22番地先,西井吹岡の谷公園付近,34.6946077,135.0227365,緯度経度は怪しい
兵庫県,神戸市,195,西区井吹台西町5丁目33番地,西井吹南谷公園付近,34.6929715,135.0192378,緯度経度は怪しい
兵庫県,神戸市,196,西区井吹台北町2丁目,井吹思い出広場（西側ゲート）付近,34.7050607,135.0309011,緯度経度は怪しい
兵庫県,神戸市,197,西区井吹台北町2丁目,井吹思い出広場（東側ゲート）付近,34.7050607,135.0309011,緯度経度は怪しい
兵庫県,神戸市,198,西区井吹台北町1丁目11番地,西神南池谷公園付近,34.7028641,135.0285682,緯度経度は怪しい
兵庫県,神戸市,199,西区井吹台北町2丁目18番地,西神南山ノ谷公園付近,34.7058564,135.0308189,緯度経度は怪しい
兵庫県,神戸市,200,西区井吹台北町2丁目20番地1,井吹の丘小学校正門付近,34.7051083,135.0303187,緯度経度は怪しい
兵庫県,神戸市,201,西区井吹台北町3丁目18番地先,井吹の丘小学校北側付近,34.7072725,135.0309011,緯度経度は怪しい
兵庫県,神戸市,202,西区井吹台北町2丁目1番地1,パナホームシティ西神南販売センター付近(いぶきグリーンロード),34.7058637,135.0344633,緯度経度は怪しい
兵庫県,神戸市,203,西区狩場台5丁目6番地,バス停高塚山緑地付近,34.7249792,135.0285682,緯度経度は怪しい
兵庫県,神戸市,204,西区狩場台5丁目4番地,狩場寺谷公園西側付近,34.7249792,135.0285682,緯度経度は怪しい
兵庫県,神戸市,205,西区狩場台1丁目50番地,バス停狩場台小学校前付近(南西行方面),34.7232841,135.0344006,緯度経度は怪しい
兵庫県,神戸市,206,西区狩場台3丁目6番地の1,狩場台小学校裏門付近,34.7231774,135.032824,緯度経度は怪しい
兵庫県,神戸市,207,西区狩場台3丁目6番地,狩場台小学校正門付近,34.7210874,135.0320676,緯度経度は怪しい
兵庫県,神戸市,208,西区狩場台3丁目9番地,狩場神尻公園付近,34.7210874,135.0320676,緯度経度は怪しい
兵庫県,神戸市,209,西区狩場台3丁目9番地,バス停かりばプラザ付近,34.7210874,135.0320676,緯度経度は怪しい
兵庫県,神戸市,210,西区糀台4丁目11番地,テニスコート駐車場付近,34.7216914,135.0239028,緯度経度は怪しい
兵庫県,神戸市,211,西区糀台4丁目2番地の1,糀北公園付近,34.7218497,135.0264263,緯度経度は怪しい
兵庫県,神戸市,212,西区糀台5丁目9番地,西神中央駅バスターミナル付近,34.7189635,135.0180717,緯度経度は怪しい
兵庫県,神戸市,213,西区糀台5丁目6番地,西区民センタービル北側歩道付近,34.7190157,135.0185213,緯度経度は怪しい
兵庫県,神戸市,214,西区糀台3丁目32番地,糀台小学校裏門付近,34.7194655,135.0262354,緯度経度は怪しい
兵庫県,神戸市,215,西区糀台3丁目33番地,バス停糀台公園(西神中央行)付近,34.7204688,135.0267303,緯度経度は怪しい
兵庫県,神戸市,216,西区糀台1丁目2番地,檜谷中学校北側西角付近,34.7169594,135.0291514,緯度経度は怪しい
兵庫県,神戸市,217,西区糀台2丁目29番地,池谷池ダム西側付近,34.7161632,135.0239028,緯度経度は怪しい
兵庫県,神戸市,218,西区竹の台5丁目19番地,バス停美賀多台2丁目(明石行)付近,34.7148644,135.0104924,緯度経度は怪しい
兵庫県,神戸市,219,西区竹の台4丁目22番地,バス停美賀多台3丁目(明石行)付近,34.7129476,135.0075776,緯度経度は怪しい
兵庫県,神戸市,220,西区竹の台5丁目21番地,バス停西神中学校(西神中央行)付近,34.7148644,135.0104924,緯度経度は怪しい
兵庫県,神戸市,221,西区竹の台5丁目19番地,竹の地蔵公園付近,34.7148644,135.0104924,緯度経度は怪しい
兵庫県,神戸市,222,西区竹の台5丁目11番地,バス停竹の台5丁目(西神中央行)付近,34.7148644,135.0104924,緯度経度は怪しい
兵庫県,神戸市,223,西区竹の台2丁目10番地の2,竹の台小学校裏門付近,34.7125975,135.0118314,緯度経度は怪しい
兵庫県,神戸市,224,西区竹の台1丁目24番地,竹の台南公園西側付近,34.7117843,135.0169056,緯度経度は怪しい
兵庫県,神戸市,225,西区竹の台1丁目19番地,クラブハウス付近,34.7117843,135.0169056,緯度経度は怪しい
兵庫県,神戸市,226,西区樫野台6丁目7番地,バス停美賀多台4丁目(明石行)付近,34.7107508,135.0052459,緯度経度は怪しい
兵庫県,神戸市,227,西区樫野台5丁目3番地,バス停春日台2丁目(明石行)付近,34.7090354,135.0011597,緯度経度は怪しい
兵庫県,神戸市,228,西区樫野台4丁目7番地,バス停かすがプラザ(明石行)付近,34.7045519,134.99796,緯度経度は怪しい
兵庫県,神戸市,229,西区樫野台3丁目20番地,バス停樫野台2丁目(西体育館行)付近,34.7057975,135.0017486,緯度経度は怪しい
兵庫県,神戸市,230,西区樫野台3丁目3番地の2,バス停樫野台小学校付近,34.7058497,135.0030782,緯度経度は怪しい
兵庫県,神戸市,231,西区樫野台3丁目3番地の1,樫野台小学校北側通用門付近,34.7068508,135.0025045,緯度経度は怪しい
兵庫県,神戸市,232,西区樫野台6丁目1番地,バス停竹の台公園(西神中央行)付近,34.7107508,135.0052459,緯度経度は怪しい
兵庫県,神戸市,233,西区樫野台1丁目7番地の1,勝負谷池ダム東側北角付近,34.7094607,135.0096608,緯度経度は怪しい
兵庫県,神戸市,234,西区春日台9丁目21番地,春日台公園北角交差点付近,34.7149211,134.9988343,緯度経度は怪しい
兵庫県,神戸市,235,西区春日台9丁目21番地,バス停春日台公園(西神中央行)付近,34.7149211,134.9988343,緯度経度は怪しい
兵庫県,神戸市,236,西区春日台9丁目21番地,春日台公園(又池ダム北側)付近,34.7149211,134.9988343,緯度経度は怪しい
兵庫県,神戸市,237,西区春日台4丁目1番地,春日台小学校付近,34.7094612,134.9964208,緯度経度は怪しい
兵庫県,神戸市,238,西区春日台3丁目3番地の2,春日台郵便局南側付近,34.7070022,134.9967276,緯度経度は怪しい
兵庫県,神戸市,239,西区春日台6丁目20番地の5,バス停春日台6丁目(西神中央行)付近,34.703631,134.9933621,緯度経度は怪しい
兵庫県,神戸市,240,西区春日台3丁目3番地の3,バス停かすがプラザ(西神中央行)付近,34.7064685,134.9972125,緯度経度は怪しい
兵庫県,神戸市,241,西区春日台1丁目26番地,バス停春日台2丁目(西神中央行)付近,34.712976,135.0029143,緯度経度は怪しい
兵庫県,神戸市,242,西区美賀多台9丁目4番地,バス停美賀多台公園(西神中央行)付近,34.7234283,135.0110754,緯度経度は怪しい
兵庫県,神戸市,243,西区美賀多台7丁目17番地の2,バス停美賀多台7丁目(西神中央行)付近,34.7198839,135.0086485,緯度経度は怪しい
兵庫県,神戸市,244,西区美賀多台6丁目1番地,美賀多台小学校北東側付近,34.7184891,135.0052459,緯度経度は怪しい
兵庫県,神戸市,245,西区美賀多台3丁目13番地の3,美賀多台児童館付近,34.7175138,135.0058459,緯度経度は怪しい
兵庫県,神戸市,246,西区美賀多台4丁目13番地の3,バス停美賀多台4丁目(西神中央行)付近,34.7140527,135.0054915,緯度経度は怪しい
兵庫県,神戸市,247,西区美賀多台2丁目13番地の1,バス停美賀多台2丁目(西神中央行)付近,34.7176345,135.0106642,緯度経度は怪しい
兵庫県,神戸市,248,西区美賀多台1丁目2番地,シンフォニック西神中央イースト館付近,34.7206433,135.0145734,緯度経度は怪しい
兵庫県,神戸市,249,西区美賀多台8丁目15番地,美賀多台小学校北側付近,34.7228967,135.0075776,緯度経度は怪しい
兵庫県,神戸市,250,西区上新地2丁目15番地の6,上新地自治会館付近,34.714121,134.9416945,緯度経度は怪しい
兵庫県,神戸市,251,西区竜が岡3丁目16番地,竜が岡中央公園東側付近,34.7131321,134.9352588,緯度経度は怪しい
兵庫県,神戸市,252,西区竜が岡2丁目15番地の10,丸山池記念会館付近,34.7110982,134.9339432,緯度経度は怪しい
兵庫県,神戸市,253,西区竜が岡1丁目1番の1,カナート西神戸歩道橋下付近,34.7086051,134.9396404,緯度経度は怪しい
兵庫県,神戸市,254,西区大沢1丁目5番地,市営岩岡住宅3号棟東側付近,34.7076168,134.9375934,緯度経度は怪しい
兵庫県,神戸市,255,西区大沢2丁目14番地,大澤西公園付近,34.7074606,134.934967,緯度経度は怪しい
兵庫県,神戸市,256,西区岩岡町古郷1033番地の5,masked,34.7110399,134.9196194,緯度経度は怪しい
兵庫県,神戸市,257,西区岩岡町古郷1307番地の2,広古市民公園付近,34.7132121,134.9173245,緯度経度は怪しい
兵庫県,神戸市,258,西区押部谷木幡395番地の1,第2分団消防器具庫付近,34.7505627,135.0681612,緯度経度は怪しい
兵庫県,神戸市,259,西区押部谷木幡2番地の71,県営神戸木幡住宅4号棟北側公園付近,34.7456024,135.0693951,緯度経度は怪しい
兵庫県,神戸市,260,西区押部谷木津54番地の2,神戸電鉄木幡駅前付近,34.7483014,135.0711802,緯度経度は怪しい
兵庫県,神戸市,261,西区押部谷木津,木幡駅南交差点見津橋付近,34.753668,135.0816706,緯度経度は怪しい
兵庫県,神戸市,262,西区押部谷木見344番地,木見会館前付近,34.7390674,135.0729728,緯度経度は怪しい
兵庫県,神戸市,263,西区押部谷木津757番地,神戸電鉄木津駅西側付近,34.74606310000001,135.0875053,緯度経度は怪しい
兵庫県,神戸市,264,西区秋葉台2丁目1番地の235,秋葉台北公園東側付近,34.7482978,135.0667066,緯度経度は怪しい
兵庫県,神戸市,265,西区桜が丘東町5丁目149番地の31,木津小学校東側正門付近,34.7435958,135.0653614,緯度経度は怪しい
兵庫県,神戸市,266,西区桜が丘中町5丁目9番地の2,バス停桜が丘中町5丁目付近,34.7411311,135.0625453,緯度経度は怪しい
兵庫県,神戸市,267,西区桜が丘中町1丁目848番地,西消防署押部谷出張所付近,34.751514,135.0575456,緯度経度は怪しい
兵庫県,神戸市,268,西区桜が丘西町1丁目1番地の2,masked,34.7488116,135.0548817,緯度経度は怪しい
兵庫県,神戸市,269,西区桜が丘中町3丁目3番地,桜が丘公園東側入口付近,34.7459369,135.0586131,緯度経度は怪しい
兵庫県,神戸市,270,西区桜が丘東町3丁目1番地,バス停市住前付近,34.74688769999999,135.0612393,緯度経度は怪しい
兵庫県,神戸市,271,西区桜が丘東町3丁目1番地,市営栄住宅16号棟付近,34.74688769999999,135.0612393,緯度経度は怪しい
兵庫県,神戸市,272,西区桜が丘中町3丁目3番地の2,桜が丘小学校南入口付近,34.7452532,135.0584487,緯度経度は怪しい
兵庫県,神戸市,273,西区桜が丘西町5丁目10番地,桜が丘西町南公園東側付近,34.7402678,135.0589049,緯度経度は怪しい
兵庫県,神戸市,274,西区美穂が丘5丁目101番地の2,バス停美穂が丘5丁目付近,34.7615281,135.0452836,緯度経度は怪しい
兵庫県,神戸市,275,西区月が丘7丁目2番地,バス停月が丘小学校付近,34.7583211,135.0506624,緯度経度は怪しい
兵庫県,神戸市,276,西区月が丘5丁目36番地の4,月が丘北公園付近,34.76308890000001,135.0546634,緯度経度は怪しい
兵庫県,神戸市,277,西区月が丘5丁目1番地の4,バス停月が丘1丁目南側付近,34.7594,135.0504798,緯度経度は怪しい
兵庫県,神戸市,278,西区押部谷栄184番地,バス停栄駅西 協和病院東側付近,34.7582104,135.0629902,緯度経度は怪しい
兵庫県,神戸市,279,西区西区押部谷栄287番地の2,栄団地入口 橋上ガードレール付近(北側),34.7560043,135.0579719,緯度経度は怪しい
兵庫県,神戸市,280,西区押部谷栄440番地の6,バス停栄駅前(北行)付近,34.7536455,135.0585766,緯度経度は怪しい
兵庫県,神戸市,281,西区押部谷西盛323番地の2,JA兵庫六甲押部支店南側付近,34.7536421,135.0331976,緯度経度は怪しい
兵庫県,神戸市,282,西区押部谷西盛624番地,大池南側、西盛集会所東付近,34.7572106,135.0331086,緯度経度は怪しい
兵庫県,神戸市,283,西区押部谷福住579番地の10,県営押部谷住宅8号棟南側付近,34.7573929,135.0370437,緯度経度は怪しい
兵庫県,神戸市,284,西区押部谷福住628番地,みなと銀行押部谷支店前付近,34.7569416,135.0418329,緯度経度は怪しい
兵庫県,神戸市,285,西区美穂が丘3丁目1番地,市営押部谷団地8号棟16号棟入口付近,34.7598503,135.0434424,緯度経度は怪しい
兵庫県,神戸市,286,西区美穂が丘1丁目2番地,押部谷中学校体育館前(児童館裏)付近,34.7580168,135.0422413,緯度経度は怪しい
兵庫県,神戸市,287,西区押部谷押部722番地,押部谷中学校入口前駐車場南側付近,34.7574469,135.0449419,緯度経度は怪しい
兵庫県,神戸市,288,西区押部谷押部908番地の1,田園池南側西谷川付近,34.7542882,135.0465625,緯度経度は怪しい
兵庫県,神戸市,289,西区高雄台30番地の5,千寿が丘団地入口歩道橋付近,34.7602332,135.029577,緯度経度は怪しい
兵庫県,神戸市,290,西区北山台2丁目7番地,北山西公園付近,34.7630759,135.0295159,緯度経度は怪しい
兵庫県,神戸市,291,西区北山台3丁目26番地,北山小学校正門前付近,34.7621302,135.0317759,緯度経度は怪しい
兵庫県,神戸市,292,西区北山台3丁目19番地,北山小学校東側(北山台南公園)付近,34.76231569999999,135.0325415,緯度経度は怪しい
兵庫県,神戸市,293,西区北山台3丁目3番地,北山台東公園東側入口付近,34.7645019,135.0337444,緯度経度は怪しい
兵庫県,神戸市,294,西区富士見が丘5丁目13番地,富士見が丘北公園付近,34.7636139,135.0379004,緯度経度は怪しい
兵庫県,神戸市,295,西区富士見が丘2丁目3番地,西盛公園東側付近,34.7614309,135.0332341,緯度経度は怪しい
兵庫県,神戸市,296,西区押部谷細田1107番地,バス停細田公会堂前付近,34.7518317,135.0209871,緯度経度は怪しい
兵庫県,神戸市,297,西区押部谷細田1329番地,住吉橋東詰付近(住吉神社南東),34.7464278,135.0169502,緯度経度は怪しい
兵庫県,神戸市,298,西区押部谷高和,バス停高和橋、高和交差点東側付近,34.7406941,135.0349839,緯度経度は怪しい
兵庫県,神戸市,299,西区押部谷高和1066番地,バス停住海寺前付近,34.7415333,135.0195136,緯度経度は怪しい
兵庫県,神戸市,300,西区押部谷高和565番地,バス停高和小学校、正門前付近,34.7406941,135.0349839,緯度経度は怪しい
兵庫県,神戸市,301,西区押部谷和田356番地の1,バス停和田東付近,34.7364661,135.0084035,緯度経度は怪しい
兵庫県,神戸市,302,西区押部谷和田183番地,バス停和田付近,34.7331895,135.0045655,緯度経度は怪しい
兵庫県,神戸市,303,西区押部谷養田218地の1,バス停養田下付近,34.7325512,135.0104924,緯度経度は怪しい
兵庫県,神戸市,304,西区神出町五百蔵28番地の90,自転車道五百蔵休憩所入口付近,34.7611835,135.0260953,緯度経度は怪しい
兵庫県,神戸市,305,西区神出町五百蔵99番地の2,五百蔵集会所付近,34.7638254,135.0205387,緯度経度は怪しい
兵庫県,神戸市,306,西区神出町五百蔵142番地の271,ゴルフ団地内広野南公園入口付近,34.7629851,135.0166357,緯度経度は怪しい
兵庫県,神戸市,307,西区神出町古神668番地,古神公会堂東側付近,34.6913413,134.9811812,緯度経度は怪しい
兵庫県,神戸市,308,西区神出町古神838番地,masked,34.6913413,134.9811812,緯度経度は怪しい
兵庫県,神戸市,309,西区神出町小束野41番地の53,小束野消防器具庫付近,34.7674244,134.9902968,緯度経度は怪しい
兵庫県,神戸市,310,西区神出町小束野,バス停広谷(三木方面)付近,34.7651463,134.9883417,緯度経度は怪しい
兵庫県,神戸市,311,西区神出町小束野30番地,呑谷池付近,34.7593755,134.9934203,緯度経度は怪しい
兵庫県,神戸市,312,西区神出町東954番地,バス停老の口(五百蔵方面)付近,34.6913413,134.9811812,緯度経度は怪しい
兵庫県,神戸市,313,西区神出町字三つ葉松627番地の1,神出町公園入口付近,34.7455954,134.9888875,緯度経度は怪しい
兵庫県,神戸市,314,西区神出町東,中之池東側付近,34.6913413,134.9811812,緯度経度は怪しい
兵庫県,神戸市,315,西区神出町南197番地の1,南下公民館付近,34.6913413,134.9811812,緯度経度は怪しい
兵庫県,神戸市,316,西区神出町田井34番地の2,神出地域福祉センター前付近,34.7422622,134.9886799,緯度経度は怪しい
兵庫県,神戸市,317,西区神出町田井459番地の1,JA兵庫六甲神出支店前付近,34.7422622,134.9886799,緯度経度は怪しい
兵庫県,神戸市,318,西区神出町田井444番地,神出小学校正門付近,34.7422622,134.9886799,緯度経度は怪しい
兵庫県,神戸市,319,西区神出町宝勢,大鳥喰池北側付近,34.6913413,134.9811812,緯度経度は怪しい
兵庫県,神戸市,320,西区神出町広谷,広谷市民公園付近,34.7612056,134.9755141,緯度経度は怪しい
兵庫県,神戸市,321,西区神出町紫合602番地の1,吉生市民公園付近,34.7531399,134.9663553,緯度経度は怪しい
兵庫県,神戸市,322,西区神出町紫合540番地の1,手中池西北角付近,34.7508143,134.9661644,緯度経度は怪しい
兵庫県,神戸市,323,西区神出町北405番地の4,masked,34.7490701,134.9831724,緯度経度は怪しい
兵庫県,神戸市,324,西区神出町北121番地の5,masked,34.7531234,135.0390306,緯度経度は怪しい
兵庫県,神戸市,325,西区神出町紫合38番地の1,池下新池市民公園付近,34.745468,134.9684782,緯度経度は怪しい
兵庫県,神戸市,326,西区神出町室勢1630番地の3,バス停新々田付近,34.7455954,134.9888875,緯度経度は怪しい
兵庫県,神戸市,327,西区神出町池田204番地,池田児童遊園付近,34.7398751,134.9610386,緯度経度は怪しい
兵庫県,神戸市,328,西区神出町室勢1598番地,新々田公会堂横付近,34.7455954,134.9888875,緯度経度は怪しい
兵庫県,神戸市,329,西区神出町室勢2789番地,下北古市民公園付近,34.7455954,134.9888875,緯度経度は怪しい
兵庫県,神戸市,330,西区神出町室勢1294番地の6,木屋池南側付近(県道野村・明石線)付近,34.7455954,134.9888875,緯度経度は怪しい
兵庫県,神戸市,331,西区神出町室勢1280番地の14,バス停北古口(田井方面)付近,34.7455954,134.9888875,緯度経度は怪しい
兵庫県,神戸市,332,西区岩岡町岩岡2019番地,バス停和田ヶ市(田井方面)付近,34.7321729,134.9578917,緯度経度は怪しい
兵庫県,神戸市,333,西区岩岡町岩岡2344番地の1,上村橋付近,34.7251262,134.9510151,緯度経度は怪しい
兵庫県,神戸市,334,西区岩岡町岩岡2474番地の2,安福生花前付近,34.7265168,134.9514893,緯度経度は怪しい
兵庫県,神戸市,335,西区岩岡町岩岡1449番地,南古自治会館付近,34.7263209,134.9552577,緯度経度は怪しい
兵庫県,神戸市,336,西区岩岡町岩岡134番地の1,天ケ岡市民公園付近,34.7251262,134.9510151,緯度経度は怪しい
兵庫県,神戸市,337,西区岩岡町印路33番地の1,二号池南角付近,34.6913413,134.9811812,緯度経度は怪しい
兵庫県,神戸市,338,西区岩岡町岩岡944番地の1,西区役所岩岡出張所付近,34.7198289,134.9456282,緯度経度は怪しい
兵庫県,神戸市,339,西区岩岡町野中42番地の3,内山集会所付近,34.7212757,134.9431724,緯度経度は怪しい
兵庫県,神戸市,340,西区岩岡町岩岡255番地,バス停岩岡中学校前付近,34.7251262,134.9510151,緯度経度は怪しい
兵庫県,神戸市,341,西区岩岡町岩岡616番地,九号池公園付近,34.7137677,134.9464057,緯度経度は怪しい
兵庫県,神戸市,342,西区岩岡町岩岡820番地,masked,34.7156539,134.9532397,緯度経度は怪しい
兵庫県,神戸市,343,西区岩岡町岩岡394番地,新場公会堂前付近,34.7177724,134.9548169,緯度経度は怪しい
兵庫県,神戸市,344,西区岩岡町岩岡485番地,大道星市民公園前付近,34.7251262,134.9510151,緯度経度は怪しい
兵庫県,神戸市,345,西区岩岡町野中1018番地,下講市民公園付近,34.7228225,134.9370098,緯度経度は怪しい
兵庫県,神戸市,346,西区岩岡町野中1435番地,寺講市民公園付近,34.7228225,134.9370098,緯度経度は怪しい
兵庫県,神戸市,347,西区岩岡町野中875番地の1,上講市民公園付近,34.7260287,134.9376967,緯度経度は怪しい
兵庫県,神戸市,348,西区岩岡町野中831番地,新開市民公園付近,34.7249953,134.9399992,緯度経度は怪しい
兵庫県,神戸市,349,西区岩岡町野中171番地,（株）ハロークリーン北側付近,34.7228954,134.9434867,緯度経度は怪しい
兵庫県,神戸市,350,西区岩岡町古郷2014番地の1,秋田市民公園付近,34.722182,134.9214314,緯度経度は怪しい
兵庫県,神戸市,351,西区岩岡町古郷2793番地の1,バス停秋田(田井方面)付近,34.7116654,134.9230002,緯度経度は怪しい
兵庫県,神戸市,352,西区福吉台1丁目22番地,福吉東公園付近,34.7191632,134.9262041,緯度経度は怪しい
兵庫県,神戸市,353,西区福吉台1丁目7番地の1,市営福吉台住宅2号棟西角付近,34.71911370000001,134.9235681,緯度経度は怪しい
兵庫県,神戸市,354,西区福吉台2丁目1番地の2,福吉台会館付近,34.7186388,134.9226415,緯度経度は怪しい
兵庫県,神戸市,355,西区福吉台1丁目1617番地の1,白郷公園付近,34.7177607,134.9253641,緯度経度は怪しい
兵庫県,神戸市,356,西区福吉台2丁目9番地の9,市民公園グランドゴルフ場付近,34.7168412,134.9195824,緯度経度は怪しい
