prefecture,city,number,address,name,lat,long
兵庫県,神河町,1,新田,masked,35.1648115,134.8770787
兵庫県,神河町,2,新田,masked,35.1623838,134.8735375
兵庫県,神河町,3,作畑,地域交流センター前バス停横　ガードレール,35.1551861,134.8626208
兵庫県,神河町,4,作畑,masked,35.1524667,134.857471
兵庫県,神河町,5,大畑,宮前バス停南（自立式）,35.1401079,134.8503725
兵庫県,神河町,6,大畑,大畑コミュニティーセンター前　グラウンドフェンス,35.1298384,134.8510274
兵庫県,神河町,7,大畑,矢床バス停付近（自立式）,35.1248192,134.8485384
兵庫県,神河町,8,越知,上越知大玉橋　ガードレール,35.1250436,134.8376604
兵庫県,神河町,9,越知,上越知上り口橋北側　ガードレール,35.1177073,134.8378964
兵庫県,神河町,10,越知,masked,35.1128481,134.8343729
兵庫県,神河町,11,越知,masked,35.1073363,134.8362397
兵庫県,神河町,12,岩屋,岩屋公民館北側　ガードフェンス,35.0949997,134.8357146
兵庫県,神河町,13,岩屋,汎建製作所北側　ガードフェンス,35.0929206,134.8346817
兵庫県,神河町,14,岩屋,宮ノ下バス停　ガードフェンス,35.0876533,134.8314201
兵庫県,神河町,15,根宇野,境目バス停北東　ガードフェンス,35.0840011,134.8260128
兵庫県,神河町,16,根宇野,根宇野公民館前　フェンス,35.0832352,134.8200475
兵庫県,神河町,17,根宇野,masked,35.0803203,134.8153483
兵庫県,神河町,18,山田,山田第２水源地　フェンス（藤田織物工場横）,35.0785643,134.8062717
兵庫県,神河町,19,山田,山田大橋北詰　ガードフェンス,35.0773816,134.8006538
兵庫県,神河町,20,山田,masked,35.0753298,134.7933457
兵庫県,神河町,21,山田,masked,35.0722866,134.7894365
兵庫県,神河町,22,中村,旧神崎クロージング㈱前　町道路肩（自立式）,35.0741481,134.7853166
兵庫県,神河町,23,中村,中村ドリームホール前　ガードレール,35.0700211,134.7829134
兵庫県,神河町,24,中村,神姫グリーンバス粟賀営業所　フェンス,35.0709337,134.7763044
兵庫県,神河町,25,粟賀町,masked,35.0677725,134.7766907
兵庫県,神河町,26,粟賀町,公立神崎総合病院前　花壇（自立式）,35.0665431,134.7745878
兵庫県,神河町,27,粟賀町,神崎支庁舎前　フェンス,35.0673159,134.7703821
兵庫県,神河町,28,福本,masked,35.0618072,134.772721
兵庫県,神河町,29,福本,ハリマモータース前（自立式）,35.0571289,134.771219
兵庫県,神河町,30,福本,masked,35.0495161,134.7685051
兵庫県,神河町,31,福本,福山集会所前　ガードレール,35.0475098,134.7808411
兵庫県,神河町,32,加納,加納バス停横　ガードフェンス,35.0568128,134.766391
兵庫県,神河町,33,東柏尾,東柏尾交差点付近　ガードフェンス,35.0576261,134.7608059
兵庫県,神河町,34,東柏尾,消防東柏尾分団詰所横　ガードフェンス,35.0618332,134.7619244
兵庫県,神河町,35,東柏尾,masked,35.0672351,134.7673118
兵庫県,神河町,36,吉冨,向台団地集会所建設予定地前　フェンス,35.0717001,134.770946
兵庫県,神河町,37,吉冨,戸田組隣保館南　ガードレール,35.0741085,134.7752568
兵庫県,神河町,38,吉冨,吉冨集落センター前（自立式）,35.0787076,134.7759601
兵庫県,神河町,39,吉冨,大歳上組隣保館西（自立式）,35.0823776,134.7768613
兵庫県,神河町,40,吉冨,久子組集会所南（自立式）,35.0848168,134.7748443
兵庫県,神河町,41,杉,大黒茶屋国道三叉路付近（町道側）,35.0916915,134.7786088
兵庫県,神河町,42,杉,杉営農センター横　フェンス,35.0983104,134.7797032
兵庫県,神河町,43,杉,旧大山小学校東（自立式）,35.1020366,134.7792311
兵庫県,神河町,44,大山,大山なかよし会館南　ガードレール,35.1074894,134.7826392
兵庫県,神河町,45,大山,大山中所橋横　ガードレール,35.1110353,134.7844416
兵庫県,神河町,46,大山,masked,35.1177052,134.7856004
兵庫県,神河町,47,猪篠,猪篠バス停北側　国道沿いフェンス,35.125434,134.7902705
兵庫県,神河町,48,猪篠,奥猪篠１号橋　ガードレール,35.125571,134.8059728
兵庫県,神河町,49,猪篠,消防猪篠分団詰所前　ガードレール,35.1278208,134.7873523
兵庫県,神河町,50,貝野,貝野営農センター前　フェンス,35.0439787,134.7644904
兵庫県,神河町,51,貝野,masked,35.0484398,134.7625961
兵庫県,神河町,52,寺野,寺野老人憩の家前（自立式）,35.0514413,134.7584169
兵庫県,神河町,53,寺野,南部ふれあい公園前　フェンス,35.0548689,134.7608365
兵庫県,神河町,54,柏尾,柏尾バス停横　ガードフェンス,35.0590194,134.7530348
兵庫県,神河町,55,柏尾,旧喫茶みちる北側　ガードフェンス,35.0632453,134.7462959
兵庫県,神河町,56,新野,新野プール　フェンス,35.0446434,134.7548284
兵庫県,神河町,57,新野,masked,35.0491689,134.7512664
兵庫県,神河町,58,新野,個人所有土地（自立式）,35.0567531,134.7457732
兵庫県,神河町,59,野村,野村集会所前　ガードフェンス,35.0498428,134.7543184
兵庫県,神河町,60,比延,消防比延分団詰所前　ガードレール,35.0610323,134.7426052
兵庫県,神河町,61,寺前,JR寺前駅南側踏切付近（街の灯り駐車場前）,35.0643717,134.7425057
兵庫県,神河町,62,寺前,ルネス大河内前（井上氏所有地）（自立式）,35.0654343,134.7419049
兵庫県,神河町,63,寺前,寺前区屋台蔵付近（自立式）,35.0672872,134.7412611
兵庫県,神河町,64,寺前,コスモスタウン入口（児童公園フェンス）,35.0666094,134.7343801
兵庫県,神河町,65,鍛治,鍛治中央集会所南側　ガードフェンス,35.069139,134.7450779
兵庫県,神河町,66,鍛治,masked,35.072107,134.7440694
兵庫県,神河町,67,大河,大河グラウンド　フェンス,35.0828702,134.7458771
兵庫県,神河町,68,大河,福井橋入口（自立式）,35.0873477,134.7418431
兵庫県,神河町,69,上岩,上岩バス停前土地（自立式）,35.0662318,134.7318305
兵庫県,神河町,70,高朝田,masked,35.0681521,134.7284691
兵庫県,神河町,71,高朝田,消防高朝田分団詰所前（水門前）　フェンス,35.0705424,134.7194537
兵庫県,神河町,72,宮野,口宮野バス停付近　ガードフェンス,35.0759672,134.7141557
兵庫県,神河町,73,宮野,宮野橋上　ガードパイプ,35.0812089,134.7132545
兵庫県,神河町,74,南小田,masked,35.0848218,134.7198633
兵庫県,神河町,75,南小田,南小田農村環境改善センター南東　ガードフェンス,35.0961882,134.7156438
兵庫県,神河町,76,南小田,横瀬バス停付近　ガードレール,35.1010336,134.7037133
兵庫県,神河町,77,上小田,もずバス停付近　ガードレール,35.1078352,134.6783911
兵庫県,神河町,78,上小田,上小田バス停付近　ガードレール,35.1138736,134.6761595
兵庫県,神河町,79,川上,旧川上小学校前　フェンス,35.1563064,134.7089891
兵庫県,神河町,80,川上,平成橋付近　ガードレール,35.1552888,134.7084741
兵庫県,神河町,81,長谷,大川原集会所前　橋欄干,35.1244017,134.7261237
兵庫県,神河町,82,長谷,masked,35.1229976,134.7338055
兵庫県,神河町,83,長谷,本村公民館前　フェンス,35.1213058,134.7390779
兵庫県,神河町,84,長谷,赤田集会所前　ガードレール,35.123072,134.7484548
兵庫県,神河町,85,長谷,ふれいあいマーケット長谷　西駐車場,35.1170671,134.7447749
兵庫県,神河町,86,長谷,為信バス停（自立式）,35.1083359,134.7407143
兵庫県,神河町,87,長谷,峠バス停前　ガードレール,35.100224,134.7363206
兵庫県,神河町,88,栗,長谷橋東　生野ダム警報局前　ガードレール,35.1179183,134.7467168
兵庫県,神河町,89,栗,栗集会所前　ガードレール,35.1199393,134.751416
兵庫県,神河町,90,渕,渕集会所前　ガードレール,35.1330695,134.7600609
