prefecture,city,number,address,name,lat,long,note
兵庫県,福崎町,1,南田原216,masked,34.9402947,134.752536,
兵庫県,福崎町,2,南田原131-10,薬師寺北（町道）ガードレール,34.9380388,134.7520898,
兵庫県,福崎町,3,南田原2736-1,田（個人所有）（★）,34.9494143,134.7566951,
兵庫県,福崎町,4,南田原2217-1,ウシオ精工㈱西側フェンス（★）,34.9445095,134.7597345,
兵庫県,福崎町,5,南田原758-2,町道東大貫溝口線　歩道北側植込,34.9422434,134.7577288,
兵庫県,福崎町,6,南田原676,中島区精米所南側（★）,34.9406717,134.7569222,緯度経度は怪しい
兵庫県,福崎町,7,南田原2359,八坂神社南側玉垣,34.9444873,134.7533991,緯度経度は怪しい
兵庫県,福崎町,8,南田原1145-3,上中島公民館　北側フェンス,34.9360456,134.7655722,
兵庫県,福崎町,9,南田原1133-2,町道中島野垣内線　南側ガードレール,34.9369795,134.763546,緯度経度は怪しい
兵庫県,福崎町,10,南田原1185,福崎東中学校北西　町道東大貫溝口線ガードパイプ,34.9421857,134.7689163,緯度経度は怪しい
兵庫県,福崎町,11,南田原2092,町道八反田八千種線東路肩（㈱アムテック向い路肩）,34.9441303,134.7640886,緯度経度は怪しい
兵庫県,福崎町,12,南田原1377,西光寺公民館　駐車場東側（★）,34.9442221,134.7676905,
兵庫県,福崎町,13,南田原2029-3,masked,34.9438833,134.7593768,緯度経度は怪しい
兵庫県,福崎町,14,南田原1836,西野野垣内公民館　北西フェンス,34.9453901,134.7716612,
兵庫県,福崎町,15,南田原3199,西野公民館敷地内　フェンス東側,34.9539114,134.7574242,緯度経度は怪しい
兵庫県,福崎町,16,西田原223-1,セブンイレブン福崎井ノ口店　ガードパイプ西側,34.959046,134.7611625,
兵庫県,福崎町,17,西田原1263-4,田原幼児園　西側歩道植込,34.9539777,134.7614006,
兵庫県,福崎町,18,西田原1213-1,旧農協田原経済センター　南側フェンス西面,34.9552302,134.7614189,緯度経度は怪しい
兵庫県,福崎町,19,西田原1485-3,ひらの内科クリニック　歩道ガードパイプ西側,34.9551892,134.763213,緯度経度は怪しい
兵庫県,福崎町,20,西田原1639-3,町有地（セハタクリーニング福崎店西側）,34.94993669999999,134.7629933,
兵庫県,福崎町,21,西田原1539,熊野神社　北面（★）,34.9539901,134.7653362,
兵庫県,福崎町,22,西田原819-3,北野公民館（旧北野消防団詰所）花壇,34.9575375,134.7688514,
兵庫県,福崎町,23,西田原962,旧道北野三叉路　北野区有地,34.954945,134.7685586,
兵庫県,福崎町,24,東田原449-2,町有地（岡本電工西側）,34.9531367,134.7760624,緯度経度は怪しい
兵庫県,福崎町,25,東田原1265-3,県道三木六栗線　福崎電業向いガードパイプ,34.95395320000001,134.7709859,
兵庫県,福崎町,26,東田原1186-1,歩道ガードパイプ,34.954586,134.772311,
兵庫県,福崎町,27,東田原1039-3,イーストタウン公園　西面フェンス,34.9516482,134.7711482,
兵庫県,福崎町,28,東田原1934,ガードパイプ（鬼追橋向かい側）,34.9502382,134.7601816,緯度経度は怪しい
兵庫県,福崎町,29,東田原1650-2,町道線路肩花壇,34.9502382,134.7601816,緯度経度は怪しい
兵庫県,福崎町,30,大貫2426,masked,34.9474482,134.7873545,緯度経度は怪しい
兵庫県,福崎町,31,大貫2240-1,県道三木宍粟線 ガードパイプ（南側）,34.9506816,134.7821209,
兵庫県,福崎町,32,大貫1502-2,東大貫公民館南側,34.95012,134.790994,緯度経度は怪しい
兵庫県,福崎町,33,大貫1822-4,町道東大貫中島線西側路肩（中国縦貫道北側）,34.9474482,134.7873545,緯度経度は怪しい
兵庫県,福崎町,34,大貫1754-1,県道三木宍粟線 歩道ガードパイプ（藤澤歯科向かい）,34.9474482,134.7873545,緯度経度は怪しい
兵庫県,福崎町,35,大貫257-2,東大貫中島線 南大貫バス停東歩道路肩,34.9474482,134.7873545,緯度経度は怪しい
兵庫県,福崎町,36,大貫593-3,町道ガードパイプ北側（駒田鉄工所向かい）,34.9474482,134.7873545,緯度経度は怪しい
兵庫県,福崎町,37,八千種522-1,個人所有休耕田（★）,34.9308247,134.7803275,
兵庫県,福崎町,38,八千種179-2,兵庫西農協福崎東支所八千種店 西側フェンス,34.9308247,134.7803275,
兵庫県,福崎町,39,八千種67-7,余田新田児童公園 北側ガードパイプ,34.9400507,134.7757957,緯度経度は怪しい
兵庫県,福崎町,40,八千種1343-1,大歳神社 南側ガードレール,34.9308247,134.7803275,
兵庫県,福崎町,41,八千種1676-1,小倉公民館 西面ブロック塀,34.9289698,134.7880053,緯度経度は怪しい
兵庫県,福崎町,42,八千種1978-1,masked,34.9308247,134.7803275,
兵庫県,福崎町,43,八千種2528-2,個人所有納屋東面（★）,34.9309186,134.7795678,
兵庫県,福崎町,44,八千種2097-1,町道西側ガードパイプ（シロタニ無線北）,34.9308247,134.7803275,
兵庫県,福崎町,45,八千種3276,個人所有田 東側（★）,34.9284474,134.7723918,
兵庫県,福崎町,46,八千種3624-5,個人所有資材置場（★）,34.9308247,134.7803275,
兵庫県,福崎町,47,八千種3755-1,個人所有田 南側法面（★）,34.9308247,134.7803275,
兵庫県,福崎町,48,八千種4091-1,町有地 生垣,34.9308247,134.7803275,
兵庫県,福崎町,49,福崎新344,大井機工駐車場（★）,34.9486419,134.7489809,
兵庫県,福崎町,50,馬田169-4,福崎小学校グラウンド 南東面フェンス,34.9560192,134.7520074,
兵庫県,福崎町,51,福崎新399-4,県道三木宍粟線 ガードパイプ（喫茶まさと北側）,34.9522797,134.7516245,
兵庫県,福崎町,52,福崎新15-1,町道ガードパイプ西側（理容しみず北）,34.9522039,134.7510369,
兵庫県,福崎町,53,"馬田130-1, 131-1, 132-2",駐車場（馬田公民館南西・個人所有）（★）,34.9580264,134.7539668,
兵庫県,福崎町,54,馬田89-3,ピレッジハウス福崎（旧：雇用促進住宅）東南面フェンス,34.9598068,134.7540872,
兵庫県,福崎町,55,福崎新473-4,歩道ガードパイプ（森崎建材 北）,34.9553035,134.7485288,
兵庫県,福崎町,56,山崎450,町道 ガードレール（二ヂボウ㈱倉庫付近）,34.9655172,134.758538,
兵庫県,福崎町,57,山崎688-8,県道甘地福崎線 ガードレール,34.966037,134.7567171,
兵庫県,福崎町,58,山崎601-3,立石 北側フェンス,34.9715722,134.7545527,緯度経度は怪しい
兵庫県,福崎町,59,山崎634-1,町道 南側ガードレール（サルビアこども園北）,34.9715722,134.7545527,緯度経度は怪しい
兵庫県,福崎町,60,山崎769-7,masked,34.9663122,134.7530371,
兵庫県,福崎町,61,山崎401-5,masked,34.9643099,134.7604845,
兵庫県,福崎町,62,福田502-2,県道田口福田線 ガードレール,34.9610493,134.7482899,
兵庫県,福崎町,63,福田297-7,倉庫（個人所有）壁面 駅前道分福南東（★）,34.9590913,134.7509018,
兵庫県,福崎町,64,福田318-1,町有地（旧農協スタンド跡地）西側フェンス,34.9643512,134.7486928,
兵庫県,福崎町,65,福田280-1,町道ガードパイプ（大塚製作所）,34.959516,134.749145,緯度経度は怪しい
兵庫県,福崎町,66,福田1093,町道ガードレール（大歳神社）,34.9649057,134.7490626,
兵庫県,福崎町,67,福田861,旧福田公民館 ゴミステーション南側,34.9639701,134.7470995,
兵庫県,福崎町,68,福田996-18,町児童遊園地フェンス（フクサキ工芸前）,34.9665768,134.7424852,
兵庫県,福崎町,69,田口323-1,個人所有敷地 北側（★）,34.97938,134.728386,緯度経度は怪しい
兵庫県,福崎町,70,田口225-1,県道田口福田線 東側ガードレール,34.9857833,134.7261008,緯度経度は怪しい
兵庫県,福崎町,71,田口2-1,県道田口福田線 西側ガードレール（田口公民館前）,34.9838629,134.7266216,緯度経度は怪しい
兵庫県,福崎町,72,高岡1824-12,高岡小学校北 町有地植込み,34.9744222,134.7303576,
兵庫県,福崎町,73,高岡1921-31,板坂橋 町道北路肩,34.9776114,134.7264734,
兵庫県,福崎町,74,高岡1836-1,県道田口福田線 西側ガードレール,34.9757932,134.7299728,
兵庫県,福崎町,75,高岡293-9,板坂消防団詰所 ポンプ庫南面,34.9786869,134.7230104,
兵庫県,福崎町,76,高岡230-2,masked,34.9747026,134.7240732,緯度経度は怪しい
兵庫県,福崎町,77,高岡1347-1,県道田口福田線 南側ガードレール,34.9747026,134.7240732,緯度経度は怪しい
兵庫県,福崎町,78,高岡1519-3,倉庫南面（個人所有）（★）,34.9715296,134.7375387,
兵庫県,福崎町,79,高岡1564-26,町児童遊園地（旧清掃職員詰所）フェンス西側,34.968779,134.7389681,
兵庫県,福崎町,80,高岡1277-2,長野公民館南西フェンス,34.9672182,134.7385589,緯度経度は怪しい
兵庫県,福崎町,81,高岡916-2,masked,34.9636387,134.7409823,緯度経度は怪しい
兵庫県,福崎町,82,高岡956-1,神谷公民館東側 ガードレール,34.9624028,134.7402308,緯度経度は怪しい
兵庫県,福崎町,83,西治1698-6,県道三木穴栗線 大歳神社 県道北橋欄干,34.9537345,134.7425394,緯度経度は怪しい
兵庫県,福崎町,84,1819,masked,34.9502382,134.7601816,
兵庫県,福崎町,85,西治532-1,町道南路肩（関西電力電柱置き場）,34.9547101,134.7437991,
兵庫県,福崎町,86,西治1274-1,火の見櫓横（★）,34.9537345,134.7425394,緯度経度は怪しい
兵庫県,福崎町,87,西治360-1,福崎町立図書館（西側植込み）,34.9516605,134.747008,
兵庫県,福崎町,88,西治620-7,セブンイレブン福崎高橋店（国道西ガードパイプ）,34.9537345,134.7425394,緯度経度は怪しい
兵庫県,福崎町,89,高橋566-5,町道南側ガードパイプ,34.9399656,134.7393155,
兵庫県,福崎町,90,高橋600-4,町道北側ガードパイプ（ＪＲ高架下東）,34.9399656,134.7393155,
