prefecture,city,number,address,name,lat,long,note
兵庫県,稲美町,1,国岡6丁目184,総合福祉会館フェンス,34.7497586,134.9125382,
兵庫県,稲美町,2,国岡170,国岡城の池フェンス,34.7519861,134.914826,緯度経度は怪しい
兵庫県,稲美町,3,国岡1丁目172,稲美町役場南側駐車場,34.7483942,134.911241,緯度経度は怪しい
兵庫県,稲美町,4,国岡2丁目48,前條公園フェンス,34.7483567,134.9095704,
兵庫県,稲美町,5,国岡1丁目105,山城池公園フェンス,34.7485467,134.915969,緯度経度は怪しい
兵庫県,稲美町,6,国安1286-24,中央公園ポケットパーク入口,34.7507007,134.9210754,
兵庫県,稲美町,7,国岡885-3,国岡北交差点,34.7519861,134.914826,緯度経度は怪しい
兵庫県,稲美町,8,岡2238-5,十七丁研修センター,34.7399592,134.9340846,緯度経度は怪しい
兵庫県,稲美町,9,岡2756-2,岡本茂一様宅前,34.7359712,134.9183294,緯度経度は怪しい
兵庫県,稲美町,10,岡1232-11,岡交差点フェンス,34.7359712,134.9183294,緯度経度は怪しい
兵庫県,稲美町,11,岡1022-5,出新田公民館フェンス,34.7336559,134.9181338,
兵庫県,稲美町,12,岡922-2,岡東公園前フェンス,34.7359712,134.9183294,緯度経度は怪しい
兵庫県,稲美町,13,国安297-2,王子池空き地,34.7431377,134.914826,緯度経度は怪しい
兵庫県,稲美町,14,岡1498-1,天満東幼稚園フェンス,34.7378714,134.9194789,
兵庫県,稲美町,15,国安164,琴池防火水槽横,34.7431377,134.914826,緯度経度は怪しい
兵庫県,稲美町,16,岡491,あさざホール(岡西公民館)前,34.7368993,134.9119348,
兵庫県,稲美町,17,国安1150-1,国安小池水利組合様管理地,34.7435786,134.9118517,緯度経度は怪しい
兵庫県,稲美町,18,国安,主要県道宗佐・土山線 天満神社前交差点南先 歩道ガードレール,34.7431377,134.914826,緯度経度は怪しい
兵庫県,稲美町,19,国安5-8,稲美町西部配水場,34.7479295,134.9207743,緯度経度は怪しい
兵庫県,稲美町,20,岡153,旧岡西公会堂横（稲荷神社前）,34.7380485,134.9091306,緯度経度は怪しい
兵庫県,稲美町,21,国安590,国安公民館フェンス,34.7406472,134.9058081,
兵庫県,稲美町,22,六分一1406-35,天満大池南側主要県道宗佐・土山線沿反対車線フェンス,34.7314772,134.90422,
兵庫県,稲美町,23,六分一315,六分一ふれあい広場フェンス,34.7292381,134.9043141,
兵庫県,稲美町,24,六分一541-2,農村環境改善センター,34.7340596,134.8990938,
兵庫県,稲美町,25,六分一596-1,六分一水利会館フェンス,34.7325482,134.9000539,緯度経度は怪しい
兵庫県,稲美町,26,六分一632-1,天満南幼稚園フェンス,34.7318352,134.9019322,緯度経度は怪しい
兵庫県,稲美町,27,六分一442-2,大西孝彦様宅フェンス,34.7366775,134.8989295,
兵庫県,稲美町,28,六分一36,農事組合法人あぐり六分一（旧六分一営農組合）様フェンス,34.7381934,134.9020094,緯度経度は怪しい
兵庫県,稲美町,29,和田471,和田五社大神社,34.73586040000001,134.8917957,
兵庫県,稲美町,30,和田424-1,小山英樹様所有駐車場フェンス,34.7377112,134.8897104,
兵庫県,稲美町,31,和田139-1,上田博一様宅前空き地,34.7377112,134.8897104,
兵庫県,稲美町,32,幸竹204,中澤光昭様宅西側（町道六分一西和田線フェンス）,34.74424370000001,134.8917873,
兵庫県,稲美町,33,森安442,防火水槽横,34.7401144,134.8988687,
兵庫県,稲美町,34,森安81,天満南小学校フェンス,34.741466,134.8945393,
兵庫県,稲美町,35,中村86,ふれあい広場フェンス,34.746331,134.8960697,緯度経度は怪しい
兵庫県,稲美町,36,中村1043-1,西部隣保館フェンス,34.7522637,134.8930149,
兵庫県,稲美町,37,中村1395-1,向山池大神社裏,34.7512086,134.8886684,
兵庫県,稲美町,38,中村1259,旧コスモス児童館フェンス,34.7499548,134.890516,
兵庫県,稲美町,39,中村1830,西山団地内,34.7522005,134.8881333,
兵庫県,稲美町,40,中一色97-1,西和田農業倉庫跡,34.7570414,134.8854773,
兵庫県,稲美町,41,中一色836,中一色児童公園フェンス,34.7624321,134.8845518,
兵庫県,稲美町,42,中一色525-3,中一色田中墓地,34.7570414,134.8854773,
兵庫県,稲美町,43,北山284,金守公会堂前,34.7566828,134.8944063,緯度経度は怪しい
兵庫県,稲美町,44,北山602-1,後池町道側,34.7563487,134.9054822,緯度経度は怪しい
兵庫県,稲美町,45,中村1809,教育集会所フェンス,34.749649,134.8961366,
兵庫県,稲美町,46,中村1003-1,下沢児童公園フェンス,34.7535484,134.897022,緯度経度は怪しい
兵庫県,稲美町,47,中村441-1,菊徳わくわく公園（菊徳第一公園）フェンス,34.7512439,134.8997701,緯度経度は怪しい
兵庫県,稲美町,48,北山729,北山公会堂前フェンス,34.7554015,134.9000819,
兵庫県,稲美町,49,北山2-67,岡本設計工房様横資材置場,34.7624014,134.8902262,
兵庫県,稲美町,50,加古3956-6,玉川様宅畑,34.7627803,134.8980438,
兵庫県,稲美町,51,加古3934,見谷公園フェンス,34.7647114,134.8974986,緯度経度は怪しい
兵庫県,稲美町,52,加古3486-4,矢崎貴孝様宅前,34.7614538,134.915943,緯度経度は怪しい
兵庫県,稲美町,53,加古8495,奥の池北交差点先,34.7614538,134.915943,緯度経度は怪しい
兵庫県,稲美町,54,加古8468,林工務店様倉庫向,34.7614538,134.915943,緯度経度は怪しい
兵庫県,稲美町,55,加古2430,山口医院様駐車場前,34.76718839999999,134.9048989,
兵庫県,稲美町,56,加古9807,七軒屋ふれあい広場フェンス,34.7614538,134.915943,緯度経度は怪しい
兵庫県,稲美町,57,加古2321,加古スポーツクラブ21フェンス,34.7614538,134.915943,緯度経度は怪しい
兵庫県,稲美町,58,加古7853,千和池ふれあい広場フェンス,34.7661561,134.9115139,緯度経度は怪しい
兵庫県,稲美町,59,加古2661,中新田公会堂前グラウンドフェンス,34.7614538,134.915943,緯度経度は怪しい
兵庫県,稲美町,60,加古1310-1,大沢公園北側フェンス,34.7614538,134.915943,緯度経度は怪しい
兵庫県,稲美町,61,加古4603-4付近,(旧)池嶋商店様前ごみステーション,34.7614538,134.915943,緯度経度は怪しい
兵庫県,稲美町,62,加古1077-3,学生衣料トヤマ様向空き地,34.7732717,134.9178421,
兵庫県,稲美町,63,加古1004,北新田鉄工団地入り口フェンス,34.7749325,134.9191421,
兵庫県,稲美町,64,加古 762-1,北新田ふれあい広場フェンス（県道側）,34.772401,134.9197957,緯度経度は怪しい
兵庫県,稲美町,65,加古 1718-2,上新田地蔵堂前,34.7614538,134.915943,緯度経度は怪しい
兵庫県,稲美町,66,加古 1817-5,稲美郵便局様前畑,34.7615325,134.9169018,
兵庫県,稲美町,67,加古 188-1,五軒屋公会堂前,34.760147,134.924,緯度経度は怪しい
兵庫県,稲美町,68,加古 511-2,池ノ内公会堂前広場フェンス,34.7646914,134.9303566,緯度経度は怪しい
兵庫県,稲美町,69,下草谷 20-6,下草谷公民館前,34.7716252,134.9366409,
兵庫県,稲美町,70,下草谷 401-154,井澤清一様宅前畑,34.77428039999999,134.939415,
兵庫県,稲美町,71,草谷 224-2,草谷神社前,34.7710633,134.946338,緯度経度は怪しい
兵庫県,稲美町,72,草谷 290-1,草谷公民館入口,34.7688133,134.951309,
兵庫県,稲美町,73,草谷 97-2,相野分団詰所前,34.7738575,134.9564475,
兵庫県,稲美町,74,草谷 1046-13,大竹佐智世様宅横,34.7646066,134.9563223,
兵庫県,稲美町,75,草谷 721,荒内集会所前,34.7693511,134.9510151,
兵庫県,稲美町,76,草谷 928,古垣内集会所前,34.7606362,134.9546149,
兵庫県,稲美町,77,野谷 418-15,上野谷ふれあい館横,34.7545732,134.9618516,
兵庫県,稲美町,78,野寺 55-14,マザービレッジファーマーズ前,34.7604506,134.9416787,
兵庫県,稲美町,79,野寺 11-2,母里バス停横フェンス,34.7604506,134.9416787,
兵庫県,稲美町,80,野寺 39-1,野谷団地集会所横,34.7582755,134.9482454,
兵庫県,稲美町,81,野谷 265,下野谷公会堂前,34.756674,134.9568493,緯度経度は怪しい
兵庫県,稲美町,82,印南 875,北池土手（北側）,34.7405777,134.9463471,
兵庫県,稲美町,83,印南 273,丸尾秀和様宅裏,34.7483211,134.9555367,
兵庫県,稲美町,84,印南 140,植田利文様宅横,34.7405777,134.9463471,
兵庫県,稲美町,85,印南 549-1,金剛院様空き地,34.7429003,134.9516424,緯度経度は怪しい
兵庫県,稲美町,86,印南 827-1,井澤満佐則様宅前,34.7405777,134.9463471,
兵庫県,稲美町,87,岡 2615-2,十七丁若宮神社裏,34.7431021,134.9407239,
兵庫県,稲美町,88,蛸草 206-3,蛸草上条グラウンドフェンス,34.7513427,134.9383485,
兵庫県,稲美町,89,野寺 89-2,母里小学校フェンス,34.7536575,134.9433422,緯度経度は怪しい
兵庫県,稲美町,90,野寺 95-5,母里福社会館フェンス,34.755378,134.9425207,
兵庫県,稲美町,91,野寺 846-25,高蘭寺球場前,34.763759,134.9442322,緯度経度は怪しい
兵庫県,稲美町,92,野寺 1004-2,野寺構造改善センターフェンス,34.7608283,134.9400882,
兵庫県,稲美町,93,蛸草 297-1 前,蛸草高蘭集会所横,34.752848,134.9337415,緯度経度は怪しい
兵庫県,稲美町,94,蛸草 636-1,蛸草農事集会所フェンス,34.7515465,134.9323404,緯度経度は怪しい
兵庫県,稲美町,95,蛸草 982,天理教加古大教会様駐車場,34.7459442,134.931979,緯度経度は怪しい
兵庫県,稲美町,96,岡 2551-1,株式会社加西産業様駐車場横畑,34.7359712,134.9183294,緯度経度は怪しい
兵庫県,稲美町,97,蛸草 701-1,蛸草中条集会所フェンス,34.7483434,134.9353752,緯度経度は怪しい
兵庫県,稲美町,98,印南 1376-9,南部配水場フェンス,34.7405777,134.9463471,
兵庫県,稲美町,99,印南 1421-2,花卉集荷場横,34.7349612,134.94726,緯度経度は怪しい
兵庫県,稲美町,100,印南 1774-1,青山裕洋様宅横(寺横),34.7405777,134.9463471,
兵庫県,稲美町,101,印南 1667-1,印西公会堂前,34.7360289,134.9355414,
兵庫県,稲美町,102,印南 2413-1,桂内科医院様フェンス,34.7326,134.9330385,
兵庫県,稲美町,103,印南 1145-34,印西南集会所前,34.7346399,134.9483465,
兵庫県,稲美町,104,印南 2549-1,東部隣保館前,34.7335613,134.9290046,緯度経度は怪しい
兵庫県,稲美町,105,国岡 3丁目 24,JA兵庫南天満支店様横フェンス,34.7477373,134.9043354,
兵庫県,稲美町,106,国安995-1,国安団地4号棟前空き地内,34.7442356,134.9066228,
兵庫県,稲美町,107,国岡538,天満小学校フェンス,34.7491089,134.9023001,
兵庫県,稲美町,108,国岡3丁目91,笹ブ山公園フェンス,34.7477802,134.9060663,
兵庫県,稲美町,109,国岡319-3,小池前公園,34.7455324,134.9096611,
兵庫県,稲美町,110,国岡541-9,昭和苑公園,34.7519861,134.914826,緯度経度は怪しい
兵庫県,稲美町,111,国北942-6,国北公園,34.7453535,134.9050442,
兵庫県,稲美町,112,六分一1183,株式会社ADEKA様フェンス,34.7252367,134.9120105,緯度経度は怪しい
兵庫県,稲美町,113,国岡2682-1,神戸屋様フェンス,34.7519861,134.914826,緯度経度は怪しい
兵庫県,稲美町,114,六分一1179-177,大池団地公園,34.7270632,134.9099368,緯度経度は怪しい
兵庫県,稲美町,115,六分一1183-46,六分一公園フェンス,34.7260022,134.9076216,
兵庫県,稲美町,116,六分一1181-63,第五昭和苑公園フェンス,34.7281645,134.903623,緯度経度は怪しい
兵庫県,稲美町,117,六分一1178-222,六分一山公民館,34.7266716,134.9018709,緯度経度は怪しい
兵庫県,稲美町,118,六分一1178-94,防火水槽横空地,34.7277345,134.9031278,緯度経度は怪しい
兵庫県,稲美町,119,六分一1178-326,六分一山ゴミステーション横,34.7277345,134.9031278,緯度経度は怪しい
兵庫県,稲美町,120,六分一1181-31,六分一第二公園フェンス,34.7281645,134.903623,緯度経度は怪しい
兵庫県,稲美町,121,六分一1178-829,カドタ様横空き地,34.7277345,134.9031278,緯度経度は怪しい
兵庫県,稲美町,122,六分一1209-138,小沢英語塾様前,34.7219065,134.9115734,
兵庫県,稲美町,123,六分一1209-17,相の山集会所,34.72314370000001,134.9136355,
兵庫県,稲美町,124,六分一1190-4,町道1005号線 東洋ゴム駐車場前 ガードレール,34.7264884,134.9112521,
兵庫県,稲美町,125,六分一1211,六分一第3公園フェンス,34.7239499,134.9155329,
兵庫県,稲美町,126,六分一1209-715,相の山東公園フェンス,34.7254607,134.9136855,緯度経度は怪しい
兵庫県,稲美町,127,六分一 1209-437,相の山西公園フェンス,34.725047,134.9146728,緯度経度は怪しい
兵庫県,稲美町,128,六分一 1186-29,相の山北公園フェンス,34.7259883,134.9121223,
兵庫県,稲美町,129,中村 495-83,友遊倶楽部前フェンス,34.7498687,134.9036289,
兵庫県,稲美町,130,中村 495-16,稲美野荘園第1公園,34.7507259,134.905769,
兵庫県,稲美町,131,中村 540-66,稲美野荘園第2公園,34.7521202,134.9046995,
兵庫県,稲美町,132,中村 540-47,稲美野荘園第3公園,34.751017,134.9035039,
兵庫県,稲美町,133,国岡 829-13,稲美野荘園第4公園,34.7521034,134.90597,
兵庫県,稲美町,134,中村 450-3,いなそうホール,34.749649,134.8961366,
兵庫県,稲美町,135,国岡 1482,町道1003 中村国岡線フェンス,34.7519861,134.914826,緯度経度は怪しい
