prefecture,city,number,address,name,lat,long,note
兵庫県,西宮市,1,六湛寺町 10番,西宮市議会北東,34.7377816,135.3410971,
兵庫県,西宮市,2,六湛寺町 11番,六湛寺南公園南側南向き,34.7366984,135.340909,
兵庫県,西宮市,3,六湛寺町 3番1号,市役所東館　東側植え込み,34.7365019,135.3433311,
兵庫県,西宮市,4,和上町 1番,和上公園西側,34.7378953,135.3390008,
兵庫県,西宮市,5,江上町 1番,兵庫県西宮総合庁舎駐車場東側,34.7397432,135.3414962,
兵庫県,西宮市,6,樋塚町 2番28号,兵庫県西宮総合庁舎東側,34.762836,135.371063,緯度経度は怪しい
兵庫県,西宮市,7,六湛寺町 10番,市役所本庁舎向い（駐輪場柵）,34.7377816,135.3410971,
兵庫県,西宮市,8,与古道町 4番,与古道公園内南部分土手,34.7346257,135.3437715,
兵庫県,西宮市,9,松原町 2番37号,勤労会館（ホール）南側,34.7362568,135.3455116,
兵庫県,西宮市,10,津門大塚町 6番,大塚橋北側ガードレール,34.7383793,135.3535346,
兵庫県,西宮市,11,染殿町 8番3号,健康開発センター北側,34.7342815,135.3451914,
兵庫県,西宮市,12,松原町 11番,松原公園東側金網,34.7353123,135.3462365,
兵庫県,西宮市,13,染殿町 8番17号,総合福祉センター東側,34.7340017,135.3454964,
兵庫県,西宮市,14,津門大塚町 1番7号,大塚あすなろ公園,34.7382113,135.3510333,
兵庫県,西宮市,15,久保町 9番,交通公園西側北端,34.729222,135.3397347,
兵庫県,西宮市,16,用海町 3番54号,用海小学校南側（南門西）,34.7322387,135.3444327,
兵庫県,西宮市,17,用海町 4番,日本盛本社西前緑地帯,34.7304059,135.3430382,
兵庫県,西宮市,18,用海町 3番54号,用海小学校北側,34.7322387,135.3444327,
兵庫県,西宮市,19,石在町 13番,白鹿宮水井戸西前緑地帯,34.7322714,135.3412118,
兵庫県,西宮市,20,石在町 18番,東二公園東側南端,34.7290691,135.3412026,
兵庫県,西宮市,21,東町１丁目 6番,東一公園北側中央,34.7294921,135.3440651,
兵庫県,西宮市,22,東町２丁目 4番,市営東町２丁目住宅２号棟　北側,34.7271334,135.3406154,
兵庫県,西宮市,23,東町２丁目 6番,浜戎公園東側中央,34.7261599,135.340909,
兵庫県,西宮市,24,浜松原町 8番,県営西宮浜松原住宅２号棟南側,34.7259459,135.3450927,
兵庫県,西宮市,25,浜松原町 5番,浜松原東児童遊園東側,34.7270821,135.3459001,
兵庫県,西宮市,26,久保町 14番15号,ワークメイト西宮聖徳園南側,34.7261504,135.3384421,
兵庫県,西宮市,27,浜脇町 5番48号,浜脇小学校東門北側,34.7317683,135.3367532,
兵庫県,西宮市,28,浜脇町 5番48号,浜脇小学校西門北側,34.7317683,135.3367532,
兵庫県,西宮市,29,宮前町 3番,宮前公園西側南端,34.7321111,135.3348911,
兵庫県,西宮市,30,宮前町 3番5号,浜脇中学校正門西側,34.7325804,135.3338453,
兵庫県,西宮市,31,浜町 1番,白鷹出荷場南側,34.7310444,135.3376798,
兵庫県,西宮市,32,建石町 2番,前浜ポンプ場南側,34.7291965,135.3351846,
兵庫県,西宮市,33,川東町 5番,香櫨園第２コーポラス西向い夙川公園内,34.7312942,135.329681,
兵庫県,西宮市,34,前浜町 3番,前浜南公園東側,34.7270599,135.3338637,
兵庫県,西宮市,35,泉町 2番,市営泉町住宅２号棟　公園南側,34.7252658,135.3329831,
兵庫県,西宮市,36,川添町 6番,川添公園東側ネットフェンス,34.7289084,135.330424,
兵庫県,西宮市,37,前浜町 2番,前浜東公園南側,34.7271845,135.3353314,
兵庫県,西宮市,38,泉町 1番,泉公園西側北端,34.7258846,135.3336068,
兵庫県,西宮市,39,泉町 6番,夙川オアシスロード鉄柵,34.726273,135.3291674,
兵庫県,西宮市,40,西宮浜４丁目 2番31号,西宮浜義務教育学校東校舎側東門南横,34.7157998,135.3296076,
兵庫県,西宮市,41,西宮浜４丁目 5番1号,市営西宮浜４丁目住宅１号棟　北側,34.7148921,135.3283321,
兵庫県,西宮市,42,西宮浜４丁目 5番3号,市営西宮浜4丁目住宅　阪神バスマリナパーク西停留所向い,34.7142269,135.3273487,
兵庫県,西宮市,43,西宮浜４丁目 13番,西宮浜公民館東　さくら公園北側,34.7122821,135.3276999,
兵庫県,西宮市,44,西宮浜４丁目 13番,西宮市貝類館東さくら公園南,34.7122821,135.3276999,
兵庫県,西宮市,45,宮西町 4番,阪神香櫨園駅北側　夙川東 夙川公園内,34.7348637,135.3297544,
兵庫県,西宮市,46,宮西町 14番,阪神香櫨園駅北側 夙川東 夙川公園内,34.736603,135.32971,
兵庫県,西宮市,47,産所町 5番,産所公園北側,34.737002,135.3345241,
兵庫県,西宮市,48,産所町 10番2号,ＮＴＴ西日本兵庫支店阪神ビル北側,34.7379107,135.3356134,
兵庫県,西宮市,49,産所町 5番1号,産所（児童）公園,34.7368904,135.3345385,
兵庫県,西宮市,50,中浜町 3番32号,香櫨園小学校西側西向かい水路フェンス,34.7323812,135.3256271,
兵庫県,西宮市,51,堀切町 8番,堀切さくら公園東側フェンス,34.7304827,135.3238846,
兵庫県,西宮市,52,中陵原町 2番,甲陽学院中学校北側道路鉄柵,34.750916,135.343735,緯度経度は怪しい
兵庫県,西宮市,53,中陵原町 3番,甲陽学院中学校運動場北側西端,34.750916,135.343735,緯度経度は怪しい
兵庫県,西宮市,54,中陵原町 3番,甲陽学院中学校運動場東側,34.750916,135.343735,緯度経度は怪しい
兵庫県,西宮市,55,下陵原町 1番32号,ファミール西宮夙川公園マンション南,34.760273,135.359863,緯度経度は怪しい
兵庫県,西宮市,56,弓場町 3番1号,弓場町住宅1 東ガードレール,34.7336158,135.3221247,
兵庫県,西宮市,57,御茶家所町 1番,夙川公園花の広場南端,34.7382375,135.328507,
兵庫県,西宮市,58,屋敷町 12番,森具公園北側,34.7353276,135.3258243,
兵庫県,西宮市,59,屋敷町 12番,森具公園南側,34.7353276,135.3258243,
兵庫県,西宮市,60,松下町 2番,辰馬考古資料館北向い 夙川公園内,34.7344964,135.329151,
兵庫県,西宮市,61,弓場町 1番,ゆばブンブン児童遊園北側入口東横,34.7338752,135.3243248,
兵庫県,西宮市,62,屋敷町 12番,森具公園内東側,34.7353276,135.3258243,
兵庫県,西宮市,63,安井町 2番,安井小学校体育館南側,34.7396149,135.3331299,
兵庫県,西宮市,64,安井町 2番,安井小学校西側北部分,34.7396149,135.3331299,
兵庫県,西宮市,65,千歳町 7番,阪急夙川南第2自転車駐車場向い植込み（夙川公園）,34.7407643,135.3302405,
兵庫県,西宮市,66,羽衣町 8番,羽衣橋北歩道橋東側,34.7410836,135.3280668,
兵庫県,西宮市,67,寿町 1番,寿児童遊園南側,34.741822,135.334304,
兵庫県,西宮市,68,羽衣町 1番,羽衣町3番ヴェール夙川向 夙川公園,34.7394842,135.3280221,
兵庫県,西宮市,69,羽衣町 1番,羽衣町1番12号向 夙川公園,34.7394842,135.3280221,
兵庫県,西宮市,70,高塚町 7番,高塚公園西南サミット夙川東側,34.7443697,135.3177898,
兵庫県,西宮市,71,大谷町 3番,夙川西市民館北歩道鉄柵,34.7383445,135.3208033,
兵庫県,西宮市,72,大谷町 7番79,親和会集会所前（JR大谷町アパート前）,34.739096,135.3195575,
兵庫県,西宮市,73,大谷町 8番,JR大谷町アパート4号棟東公園東側,34.74022,135.3203631,
兵庫県,西宮市,74,松園町 10番,山手幹線北側歩道植え込み,34.7405515,135.3219771,
兵庫県,西宮市,75,大谷町 11番,大谷わかくさ公園南側,34.7413453,135.3186024,
兵庫県,西宮市,76,久出ケ谷町 8番4号,夙川小学校北側正門入口東,34.746272,135.3238502,
兵庫県,西宮市,77,久出ケ谷町 8番4号,夙川小学校南門西側,34.746272,135.3238502,
兵庫県,西宮市,78,松生町 5番,水路沿いガードレール,34.7452806,135.3276999,
兵庫県,西宮市,79,菊谷町 11番,菊谷公園南側,34.7497092,135.324784,
兵庫県,西宮市,80,松生町 13番,松生公園北側,34.7481618,135.3271863,
兵庫県,西宮市,81,木津山町 7番,木津山公園北側,34.7470041,135.3212434,
兵庫県,西宮市,82,松ケ丘町 7番,松ケ丘公園北側,34.7483902,135.3212434,
兵庫県,西宮市,83,深谷町 8番,深谷公園東側,34.7475802,135.3188959,
兵庫県,西宮市,84,石刎町 11番21号,北夙川小学校北側,34.7515849,135.3271411,
兵庫県,西宮市,85,美作町 6番,越木岩幼稚園東側,34.7565706,135.32095,
兵庫県,西宮市,86,南越木岩町 15番19号,中新田川沿いガードレール,34.7513008,135.3250367,
兵庫県,西宮市,87,松風町 7番,松風公園東側,34.7547012,135.3282869,
兵庫県,西宮市,88,豊楽町 8番,豊楽公園南側,34.7537995,135.3236719,
兵庫県,西宮市,89,石刎町 4番6号向い,阪急甲陽園線フェンス リーブ・ド苦楽園向かい,34.7516066,135.3288437,
兵庫県,西宮市,90,毘沙門町 2番,毘沙門公園東側,34.7578206,135.3206565,
兵庫県,西宮市,91,甑岩町 6番,旧夙川学院テニスコート跡西側,34.7596037,135.3227107,
兵庫県,西宮市,92,老松町 7番,松谷公園南側,34.7492597,135.3171353,
兵庫県,西宮市,93,樋之池町 13番,ヴィラ北夙川北向,34.7529723,135.3203631,
兵庫県,西宮市,94,樋之池町 11番,樋之池公園北西端,34.7520599,135.3211426,
兵庫県,西宮市,95,樋之池町 19番,苦楽園公園東側入口北,34.7527627,135.3167685,
兵庫県,西宮市,96,苦楽園五番町 3番,苦楽園市民館入口南,34.7562269,135.3130274,
兵庫県,西宮市,97,樋之池町 11番,北夙川体育館西側,34.7520599,135.3211426,
兵庫県,西宮市,98,樋之池町 16番,桜谷橋西 水路横ガードレール,34.7531298,135.318309,
兵庫県,西宮市,99,老松町 17番,市営老松町住宅2号棟 東側,34.7500095,135.3147145,
兵庫県,西宮市,100,苦楽園三番町 15番,西宮北高校北向,34.7627235,135.311047,
兵庫県,西宮市,101,苦楽園三番町 14番,苦楽園中学校テニスコート東ガードレール,34.762695,135.307449,緯度経度は怪しい
兵庫県,西宮市,102,柏堂町 3番,柏堂町3番西向ガードレール,34.7630096,135.3139077,
兵庫県,西宮市,103,剣谷町 7番,剣谷第6公園北側道路ガードレール,34.7664218,135.3120005,
兵庫県,西宮市,104,柏堂町 5番,夙川台公園南側フェンス,34.7634553,135.3144211,
兵庫県,西宮市,105,柏堂町 12番,柏堂南児童遊園北ガードレール,34.765289,135.314087,緯度経度は怪しい
兵庫県,西宮市,106,鷲林寺1丁目 2番,鷲林寺会館南ガードレール,34.7754861,135.3133208,
兵庫県,西宮市,107,鷲林寺南町13番,鷲林寺南町１３番北東部ガードレール,34.7717527,135.3124406,
兵庫県,西宮市,108,鷲林寺南町2番,協立リハビリテーション病院入口向ガードレール,34.7686179,135.3143478,
兵庫県,西宮市,109,鷲林寺南町3番,鷲林寺南町3番南向ガードレール,34.7698481,135.3123673,
兵庫県,西宮市,110,鷲林寺南町15番,剣谷第三公園南ガードレール,34.7709109,135.3136143,
兵庫県,西宮市,111,甲山町,北山貯水池北側ガードレール,34.774601,135.331894,緯度経度は怪しい
兵庫県,西宮市,112,甲山町,北山貯水池バス停西ガードレール,34.774601,135.331894,緯度経度は怪しい
兵庫県,西宮市,113,甲陽園目神山町25番,甲陽園目神山町25番35号北　ガードレール,34.768219,135.3278466,
兵庫県,西宮市,114,甲山町25番1号,阪神バス甲山大師バス停横,34.7731076,135.3296743,
兵庫県,西宮市,115,甲陽園目神山町28番,甲陽園目神山町28番24号向ガードレール,34.7690225,135.3232977,
兵庫県,西宮市,116,甲山町,甲山森林公園前バス停横フェンス,34.774601,135.331894,緯度経度は怪しい
兵庫県,西宮市,117,甲陽園目神山町32番,目神山配水場前ガードレール,34.768127,135.3303414,
兵庫県,西宮市,118,甲陽園若江町1番,阪神バス停甲陽園若江町　阪急フェンス,34.7582726,135.331809,
兵庫県,西宮市,119,甲陽園本庄町2番,大池公園東南角,34.7597674,135.3350378,
兵庫県,西宮市,120,甲陽園本庄町1番,大池公園入口付近,34.7595011,135.3338637,
兵庫県,西宮市,121,甲陽園西山町5番63号,甲陽園西山公園北側鉄柵,34.7625925,135.3286624,
兵庫県,西宮市,122,甲陽園西山町4番,西山第1公園 北側フェンス,34.7640665,135.3272596,
兵庫県,西宮市,123,甲陽園西山町4番,やまびこ南通水路ガードレール,34.7640665,135.3272596,
兵庫県,西宮市,124,甲陽園若江町7番,甲陽ハイツ南向い 阪急甲陽園駅フェンス,34.7603952,135.3308551,
兵庫県,西宮市,125,新甲陽町2番,新甲陽町２番１１号西向ガードレール,34.7616863,135.3373862,
兵庫県,西宮市,126,甲陽園東山町9番73号,甲陽園東山町9番73号向かいガードレール,34.768127,135.3366315,
兵庫県,西宮市,127,上ヶ原山田町3番,東山公園北側ガードレール,34.7661056,135.3391476,
兵庫県,西宮市,128,六軒町13番,市営六軒町団地西　水路沿いガードレール,34.7600283,135.3367991,
兵庫県,西宮市,129,六軒町13番,市営六軒町団地東側ガードレール,34.7600283,135.3367991,
兵庫県,西宮市,130,上ヶ原山田町3番,山田西公園フェンス,34.7661056,135.3391476,
兵庫県,西宮市,131,北名次町15番,月極北名次町フカエ駐車場南東側フェンス,34.7548317,135.3291674,
兵庫県,西宮市,132,神原9番,市営神原住宅5号棟　東側,34.7535542,135.332396,
兵庫県,西宮市,133,名次町9番,市営名次町住宅　西側フェンス,34.7498196,135.3315155,
兵庫県,西宮市,134,神原12番,大社中学校東側フェンス（市消防団大社分団北西向い）,34.7555827,135.3330724,
兵庫県,西宮市,135,神原12番,大社中学校北西側端部分,34.7555827,135.3330724,
兵庫県,西宮市,136,神原12番,神原小学校南側,34.7555827,135.3330724,
兵庫県,西宮市,137,神原12番,大社中学校北側フェンス,34.7555827,135.3330724,
兵庫県,西宮市,138,満池谷町12番,満池谷バス停南　ニテコ池フェンス,34.7519806,135.3343869,
兵庫県,西宮市,139,神原13番,満池谷斎場入口手前,34.7565222,135.3337169,
兵庫県,西宮市,140,獅子ケ口町17番,獅子ケ口町市営住宅集会所,34.7590523,135.3261591,
兵庫県,西宮市,141,獅子ケ口町10番,夙川リンデンハイム向側,34.7580441,135.3265259,
兵庫県,西宮市,142,大社町12番26号,六軒市民館向かい川沿いフェンス,34.7553179,135.3374413,
兵庫県,西宮市,143,六軒町4番,県住西宮六軒町鉄筋住宅西向い鉄柵,34.7565656,135.3365056,
兵庫県,西宮市,144,大社町7番,ロイヤルホームセンター西向い緑地（広田山公園）,34.7529836,135.3401292,
兵庫県,西宮市,145,大社町8番,市営大社町住宅　東側,34.7520854,135.3412026,
兵庫県,西宮市,146,一ヶ谷町8番,市営一ヶ谷町住宅1号棟南西水路金網,34.7602837,135.3391476,
兵庫県,西宮市,147,六軒町1番,六軒南公園東側フェンス,34.7555729,135.337988,
兵庫県,西宮市,148,大社町15番,大社町バス停付近 川沿い鉄柵,34.7524444,135.3398815,
兵庫県,西宮市,149,大社町5番,市営大社町住宅駐車場 西側フェンス,34.7529448,135.3382669,
兵庫県,西宮市,150,若松町5番,夙川老人いこいの家南側,34.7427467,135.331809,
兵庫県,西宮市,151,結善町6番,夙川公園内お手洗い西側,34.7483084,135.3300479,
兵庫県,西宮市,152,大井手町9番,夙川公園内 ガーデンフラッツ夙川西側,34.7440844,135.3296076,
兵庫県,西宮市,153,桜谷町9番,大社小学校南側東,34.7458938,135.336212,
兵庫県,西宮市,154,桜谷町9番,大社小学校西側北端,34.7458938,135.336212,
兵庫県,西宮市,155,西田町6番,西田公園南側西端,34.7434746,135.3354781,
兵庫県,西宮市,156,満池谷町5番,ニテコ池貯水池南側向東端,34.7478568,135.3338637,
兵庫県,西宮市,157,柳本町1番,大社幼稚園南側東端,34.7475727,135.3419366,
兵庫県,西宮市,158,柳本町1番,大社幼稚園北側中央,34.7475727,135.3419366,
兵庫県,西宮市,159,神垣町7番,オーガスタコート夙川マンション西側金網,34.7486929,135.3407622,
兵庫県,西宮市,160,神垣町 5番,神垣南公園東,34.7489217,135.3385605,
兵庫県,西宮市,161,室川町 2番,阪神水道企業団西宮ポンプ場東側電話BOX南フェンス,34.7447291,135.3420834,
兵庫県,西宮市,162,城ヶ堀町 8番,城ヶ堀公園北側西端,34.7432588,135.3399549,
兵庫県,西宮市,163,室川町 2番,阪神水道企業団西宮ポンプ場北側,34.7447291,135.3420834,
兵庫県,西宮市,164,室川町 11番,阪急高架下2号児童遊園南側金網,34.7442935,135.3441385,
兵庫県,西宮市,165,室川町 1番4号,和光幼稚園西側南端,34.7441664,135.3415161,
兵庫県,西宮市,166,神祇官町 2番,市立中央体育館分館運動場東側,34.7401962,135.3520663,
兵庫県,西宮市,167,神明町 9番32号,芦乃湯会館南向い駐車場 北側,34.7424448,135.3508587,
兵庫県,西宮市,168,津田町 2番28号,東川親水南公園,34.7401945,135.3459552,
兵庫県,西宮市,169,森下町 1番,市営森下町住宅２８号棟 西向い,34.7433785,135.3492033,
兵庫県,西宮市,170,津田町 3番,津田公園東側,34.7409408,135.3453701,
兵庫県,西宮市,171,神明町 7番3号,市営神明町住宅１号棟 南側,34.7411964,135.350636,
兵庫県,西宮市,172,津門大箇町 10番,津門大箇公園,34.7355541,135.3588207,
兵庫県,西宮市,173,津門大箇町 3番,阪急今津線東側日本クーラー西向かいフェンス,34.7364264,135.3547092,
兵庫県,西宮市,174,津門大箇町 13番28号,ネオレジデンス前ガードパイプ,34.7339121,135.3580457,
兵庫県,西宮市,175,今津山中町 11番9号,グルメシティ今津店南ガードパイプ,34.7318314,135.3577866,
兵庫県,西宮市,176,津門呉羽町 4番31号,阪急今津線高架下駐輪場東側,34.7329632,135.3523991,
兵庫県,西宮市,177,津門呉羽町 5番13号,津門小学校北入口東横,34.7327058,135.3553792,
兵庫県,西宮市,178,津門宝津町 1番,津門宝津町1番街区 津門川西側鉄柵,34.7326246,135.3499374,
兵庫県,西宮市,179,津門西口町 7番,西浜公園南側,34.7339538,135.347827,
兵庫県,西宮市,180,津門西口町 5番,西口公園西側,34.7353797,135.3482491,
兵庫県,西宮市,181,津門仁辺町 6番,仁辺町児童遊園西側西向き,34.7346111,135.3524334,
兵庫県,西宮市,182,津門稲荷町 12番,ファンシークリーニング西前津門川鉄柵,34.7365736,135.3538283,
兵庫県,西宮市,183,津門住江町 14番,津門中央公園中央入口東横,34.7284517,135.3476618,
兵庫県,西宮市,184,津門住江町 9番,住江公園西側,34.7313457,135.3459735,
兵庫県,西宮市,185,今津出在家町 10番19号,県営今津住宅北側,34.7250234,135.3491645,
兵庫県,西宮市,186,今津翼町 3番,市営今津翼町住宅 北公園北側,34.727985,135.351288,緯度経度は怪しい
兵庫県,西宮市,187,今津翼町 7番,近畿電気工事訓練校西前ガードレール,34.727985,135.351288,緯度経度は怪しい
兵庫県,西宮市,188,今津二葉町 5番15号,今津中学校テニスコート西側,34.7274721,135.350738,
兵庫県,西宮市,189,今津大東町 5番,大東公園南側東端,34.7248121,135.3546358,
兵庫県,西宮市,190,今津曙町 1番,阪神今津駅北側ロータリー北側,34.730972,135.352369,
兵庫県,西宮市,191,今津曙町 4番,西陽なかよし児童遊園北側（阪神電車高架下公園）,34.7297811,135.3535346,
兵庫県,西宮市,192,今津水波町 9番28号,今津公民館東側,34.728454,135.35343,
兵庫県,西宮市,193,今津水波町 12番,久寿川公園内南東角,34.726701,135.3564713,
兵庫県,西宮市,194,今津真砂町 1番4号,今津体育館東側,34.720554,135.347137,緯度経度は怪しい
兵庫県,西宮市,195,今津真砂町 1番10号,真砂中学校東側南端,34.7194934,135.3485519,
兵庫県,西宮市,196,今津真砂町 1番10号,真砂中学校北側,34.7194934,135.3485519,
兵庫県,西宮市,197,南甲子園３丁目 9番16号,南甲子園小学校西側,34.7189481,135.3530546,
兵庫県,西宮市,198,今津真砂町 1番,県営西宮真砂高層住宅集会所向い,34.7196408,135.3481022,
兵庫県,西宮市,199,南甲子園３丁目 4番,南甲子園公園北東側,34.7199484,135.3520663,
兵庫県,西宮市,200,南甲子園３丁目 9番16号,南甲子園小学校東側,34.7189481,135.3530546,
兵庫県,西宮市,201,南甲子園２丁目 10番,中津公園南側,34.7184173,135.3561042,
兵庫県,西宮市,202,浜甲子園２丁目 １４番２５号,浜甲子園２丁目１４番西角植え込み,34.7145066,135.3542366,
兵庫県,西宮市,203,枝川町 1番149号,浜甲団地149号棟西側,34.7134068,135.3590211,
兵庫県,西宮市,204,枝川町 2番128号,浜甲団地128号棟北側,34.7137387,135.3611762,
兵庫県,西宮市,205,古川町 1番12号,西宮東高校正門西横,34.7145464,135.3670554,
兵庫県,西宮市,206,古川町 2番60号,浜甲子園中学校南門西横,34.7137032,135.3689848,
兵庫県,西宮市,207,古川町 1番65号,甲子園浜小学校南校門西横,34.7130556,135.3654666,
兵庫県,西宮市,208,枝川町 19番,甲子園浜自然環境センター横グラウンド前緑地帯,34.708847,135.358429,緯度経度は怪しい
兵庫県,西宮市,209,枝川町 4番,武庫川学院淳正寮西側鉄柵,34.7115671,135.3648418,
兵庫県,西宮市,210,枝川町 8番,UR浜甲子園なぎさ街北側（キッチンガーデン北側）,34.709064,135.3654292,
兵庫県,西宮市,211,高須町２丁目 1番25号,武庫川団地少年野球場東側（25号棟北向）,34.7059072,135.3665055,
兵庫県,西宮市,212,高須町２丁目 1番,高須派出所北側緑地帯,34.704998,135.36499,緯度経度は怪しい
兵庫県,西宮市,213,高須町２丁目 １番21号,武庫川団地21号棟東向（小曽根線沿）,34.704998,135.36499,緯度経度は怪しい
兵庫県,西宮市,214,高須町２丁目 １番44号,高須西小学校南側給食入口東横,34.7050529,135.364649,
兵庫県,西宮市,215,高須町２丁目 １番44号,高須西小学校北側東端,34.7050529,135.364649,
兵庫県,西宮市,216,高須町１丁目 １番12号,武庫川団地12号棟西前,34.7046188,135.3698562,
兵庫県,西宮市,217,高須町１丁目 １番15号,武庫川団地南バス停南側,34.705566,135.370087,緯度経度は怪しい
兵庫県,西宮市,218,高須町１丁目 １番11,武庫川団地11号棟（A）西側,34.705566,135.370087,緯度経度は怪しい
兵庫県,西宮市,219,高須町１丁目 １番41号,高須小学校東門南横,34.705566,135.370087,緯度経度は怪しい
兵庫県,西宮市,220,高須町１丁目 １番41号,高須小学校南門東横,34.705566,135.370087,緯度経度は怪しい
兵庫県,西宮市,221,高須町１丁目 １番1号,武庫川団地1号棟西側北端（道路沿い）,34.7069222,135.3710729,
兵庫県,西宮市,222,高須町１丁目 １番1号,武庫川団地1号棟西前（団地中央バス停前）,34.7069222,135.3710729,
兵庫県,西宮市,223,高須町１丁目 １番,UR武庫川団地駐車場南側ガードパイプ,34.7044345,135.370423,
兵庫県,西宮市,224,高須町１丁目 １番36号,鳴尾南中学校北入口東横,34.7069267,135.3710591,
兵庫県,西宮市,225,高須町１丁目 １番3号,武庫川団地3号棟東運動場北側,34.705566,135.370087,緯度経度は怪しい
兵庫県,西宮市,226,高須町１丁目 ４番7号,県営西宮高須団地７号棟北,34.7005197,135.3730848,
兵庫県,西宮市,227,高須町１丁目 ４番5号,県営西宮高須団地５号棟西側,34.7003414,135.3718083,
兵庫県,西宮市,228,高須町１丁目 ２番23・24号,市営高須町１丁目住宅 ３号棟・４号棟の間（空地）,34.6989518,135.3714568,
兵庫県,西宮市,229,上田東町 ４番119号,上田東町駐車場（南側）（上田東町住宅北）,34.7043908,135.3747134,
兵庫県,西宮市,230,上田西町 ４番,上田西公園東側南端,34.7092876,135.3707167,
兵庫県,西宮市,231,上田西町 ４番,上田西公園北入口東横,34.7092876,135.3707167,
兵庫県,西宮市,232,上田中町 14番11号,関西電力株式会社第４駐車場北側,34.7080519,135.3746372,
兵庫県,西宮市,233,上田中町 18番,上田南公園南側東端,34.7067577,135.3728787,
兵庫県,西宮市,234,上田中町 ３番24号,関西電力株式会社社宅6号棟南側フェンス,34.7093075,135.3747011,
兵庫県,西宮市,235,東鳴尾町１丁目 ８番,市営東鳴尾町１丁目住宅3号棟 東側,34.7131771,135.3770331,
兵庫県,西宮市,236,東鳴尾町１丁目 １番,東鳴尾１丁目公園西側,34.7155267,135.3779145,
兵庫県,西宮市,237,武庫川町 ９番,武庫川ランプ公園北側,34.7160817,135.3779145,
兵庫県,西宮市,238,笠屋町 18番,笠屋南公園,34.7126666,135.3760783,
兵庫県,西宮市,239,笠屋町 30番50号,鳴尾東小学校東側,34.7120447,135.3734074,
兵庫県,西宮市,240,東鳴尾町２丁目 ８番,東鳴尾公園西側,34.7107121,135.3772535,
兵庫県,西宮市,241,南甲子園１丁目 22番,南甲子園１丁目２２番広場南ガードパイプ,34.715351,135.3575726,
兵庫県,西宮市,242,南甲子園１丁目 20番,甲子園東公園内南側,34.7157642,135.3578662,
兵庫県,西宮市,243,南甲子園１丁目 ９番4号,グリーンラグーナ甲子園東前,34.7167031,135.3591962,
兵庫県,西宮市,244,南甲子園１丁目 ８番,甲子園公園西側,34.7173726,135.3565447,
兵庫県,西宮市,245,甲子園七番町 3番,西畑公園北側,34.7226323,135.3646215,
兵庫県,西宮市,246,甲子園七番町 8番3号,新甲子園マンション西側,34.721323,135.3660492,
兵庫県,西宮市,247,鳴尾町５丁目 ４番6号,鳴尾小学校西門北フェンス,34.7188135,135.3671825,
兵庫県,西宮市,248,甲子園七番町 22番,西開公園南側,34.7192589,135.3655761,
兵庫県,西宮市,249,鳴尾町３丁目 10番,鳴尾支所南側タイムズ駐車場,34.7178951,135.3699379,
兵庫県,西宮市,250,鳴尾町２丁目 ４番,武庫開公園東側,34.7156251,135.3716715,
兵庫県,西宮市,251,鳴尾町２丁目 22番,角間公園東前,34.7135026,135.3723325,
兵庫県,西宮市,252,鳴尾町２丁目 25番,照寂公園,34.7138416,135.3705515,
兵庫県,西宮市,253,鳴尾町１丁目 ８番,本郷中央公園東側,34.7177061,135.3716715,
兵庫県,西宮市,254,鳴尾町３丁目 ４番6号,松風幼稚園北側,34.71807,135.3708749,
兵庫県,西宮市,255,小松西町２丁目 1番,鳴尾小松住宅北側ガードパイプ,34.7217909,135.3758579,
兵庫県,西宮市,256,小松南町１丁目 9番,三和公園北側,34.7202434,135.3813669,
兵庫県,西宮市,257,小松西町２丁目 6番,小松ケヤキ公園南側,34.7200552,135.3760048,
兵庫県,西宮市,258,池開町 3番,池開公園北側,34.7188565,135.3779145,
兵庫県,西宮市,259,小松町２丁目 7番,カサ・フィオーレ樋口東向 水路鉄柵,34.7221922,135.3773269,
兵庫県,西宮市,260,小松東町３丁目 3番,小松公園北側,34.7222032,135.3830565,
兵庫県,西宮市,261,小松東町３丁目 3番,武庫川橋交差点西側歩道鉄柵,34.7222032,135.3830565,
兵庫県,西宮市,262,小松東町１丁目 3番59号,小松小学校南側,34.7247056,135.3813966,
兵庫県,西宮市,263,小松東町１丁目 3番59号,小松小学校北側,34.7247056,135.3813966,
兵庫県,西宮市,264,小松北町１丁目 3番,市営小松北町１丁目住宅 南側,34.7263716,135.3790163,
兵庫県,西宮市,265,小松北町２丁目 1番,老松公園東側,34.7249787,135.3761517,
兵庫県,西宮市,266,小曽根町1丁目 2番,水路西側 鉄柵,34.7316137,135.3785022,
兵庫県,西宮市,267,小曽根町4丁目 1番,畑西側歩道ガードパイプ,34.7274757,135.3761517,
兵庫県,西宮市,268,小曽根町2丁目 5番,セブンイレブン南 空地西側歩道ガードパイプ,34.7292702,135.3770331,
兵庫県,西宮市,269,小曽根町3丁目 3番,小曽根公園西側,34.728426,135.3782084,
兵庫県,西宮市,270,里中町2丁目 5番,寿公園北側,34.7206436,135.3735627,
兵庫県,西宮市,271,里中町2丁目 5番,寿公園南側,34.7206436,135.3735627,
兵庫県,西宮市,272,甲子園一番町 6番,東甲子園公園北側,34.7316108,135.3753438,
兵庫県,西宮市,273,学文殿町2丁目 2番7号,鳴尾北小学校西側,34.7256673,135.3733659,
兵庫県,西宮市,274,学文殿町2丁目 2番7号,鳴尾北小学校東側,34.7256673,135.3733659,
兵庫県,西宮市,275,学文殿町2丁目 1番60号,県立鳴尾高校テニスコート南側,34.7256908,135.371063,
兵庫県,西宮市,276,学文殿町1丁目 5番7号,学文中学校北側北正門西横,34.7242187,135.3752106,
兵庫県,西宮市,277,学文殿町1丁目 5番7号,学文中学校東側東門南,34.7242187,135.3752106,
兵庫県,西宮市,278,学文殿町1丁目 5番7号,学文中学校西側西門南,34.7242187,135.3752106,
兵庫県,西宮市,279,若草町1丁目 11番,若草町1丁目公園西側道路沿い水路フェンス,34.7284468,135.3726997,
兵庫県,西宮市,280,甲子園三番町 11番,北郷公園南側,34.7295356,135.3678526,
兵庫県,西宮市,281,甲子園四番町 9番,甲四公園東側,34.7285321,135.3676323,
兵庫県,西宮市,282,上鳴尾町 12番,上鳴尾公園東側向かい水路鉄柵,34.7227268,135.3690276,
兵庫県,西宮市,283,上鳴尾町 19番,上鳴尾墓地西側堺北部分,34.7231312,135.3667511,
兵庫県,西宮市,284,上鳴尾町 12番,上鳴尾公園北側,34.7227268,135.3690276,
兵庫県,西宮市,285,花園町 2番,鳴尾高校西側鉄柵北部分,34.7265283,135.3703495,
兵庫県,西宮市,286,甲子園六番町 11番,八ッ松公園南側,34.724111,135.3658698,
兵庫県,西宮市,287,上鳴尾町 2番26号,日鉄鋼板(株)甲子園社宅西側,34.7239399,135.369101,
兵庫県,西宮市,288,甲子園町 22番,月見里公園西側,34.7193177,135.3597018,
兵庫県,西宮市,289,甲子園町 22番,月見里公園東側,34.7193177,135.3597018,
兵庫県,西宮市,290,甲子園網引町 7番,網引公園東側,34.7214717,135.3558105,
兵庫県,西宮市,291,甲子園町 17番,網引公園南側,34.7210231,135.3555902,
兵庫県,西宮市,292,甲子園洲鳥町 10番,洲鳥橋南東緑地帯,34.7235081,135.3567649,
兵庫県,西宮市,293,今津久寿川町 10番,市営今津久寿川町住宅3号棟 北側,34.7224218,135.3544156,
兵庫県,西宮市,294,甲子園浦風町 8番,浦風公園西植込,34.725794,135.3626805,
兵庫県,西宮市,295,甲子園浦風町 13番13号,阪神高架下1号児童遊園(甲子園集会所西側)北側,34.7258429,135.3588269,
兵庫県,西宮市,296,甲子園浦風町 13番19号,新川 桜橋北東側 緑地帯,34.7260932,135.359038,
兵庫県,西宮市,297,甲子園浦風町 3番6号先,株式会社ケンショウ東向い新川沿緑地帯,34.7274673,135.3602075,
兵庫県,西宮市,298,甲子園浦風町 1番15号,久寿川沿い東側ガードレール,34.7274171,135.3582193,
兵庫県,西宮市,299,今津久寿川町 2番,新川橋北東 新川沿い緑地帯,34.7255002,135.3578112,
兵庫県,西宮市,300,上甲子園3丁目 8番39号,春風小学校西門南側,34.731279,135.3647041,
兵庫県,西宮市,301,上甲子園3丁目 8番39号,春風小学校東側南部分,34.731279,135.3647041,
兵庫県,西宮市,302,甲子園浜田町 16番東,浜田公園西側,34.7273097,135.3615375,
兵庫県,西宮市,303,甲子園春風町 1番,市営甲子園春風町住宅西側水路ガードフェンス,34.7317835,135.361464,
兵庫県,西宮市,304,甲子園春風町 2番,春風公園西側転落防止策,34.7307505,135.3607298,
兵庫県,西宮市,305,甲子園浜田町 11番,RANOAS甲子園東側鉄柵,34.7284135,135.3621249,
兵庫県,西宮市,306,上甲子園4丁目 9番11号,上甲子園中学校北側,34.7338331,135.3643771,
兵庫県,西宮市,307,上甲子園1丁目 2番,新鷺公園南側,34.7336321,135.3708636,
兵庫県,西宮市,308,上甲子園4丁目 9番11号,上甲子園中学校テニスコート西側,34.7338331,135.3643771,
兵庫県,西宮市,309,上甲子園3丁目 7番,瓦林公園西側（入口北側）,34.7318136,135.3654292,
兵庫県,西宮市,310,上甲子園3丁目 7番,瓦林公園北側,34.7318136,135.3654292,
兵庫県,西宮市,311,上甲子園3丁目 7番,瓦林公園南グラウンド南側,34.7318136,135.3654292,
兵庫県,西宮市,312,上甲子園2丁目 6番,県営上甲子園住宅西側水路フェンス,34.7324159,135.3676323,
兵庫県,西宮市,313,甲子園口6丁目 2番,NTT西日本兵庫支店瓦木南別館西側南端,34.7379163,135.3654292,
兵庫県,西宮市,314,甲子園口5丁目 9番4号,上甲子園小学校西側（石倉塾向い）,34.7365007,135.3684697,
兵庫県,西宮市,315,甲子園口5丁目 9番4号,上甲子園小学校東側,34.7365007,135.3684697,
兵庫県,西宮市,316,甲子園口6丁目 4番,甲子園口SL公園南側,34.7386603,135.3673385,
兵庫県,西宮市,317,甲子園口6丁目 7番,中津浜線高架下南児童遊園東側,34.7380138,135.3660901,
兵庫県,西宮市,318,甲子園口3丁目 8番,御代開公園南側東端,34.7377758,135.3726262,
兵庫県,西宮市,319,甲子園口２丁目18番,弁天公園南入口西横生垣,34.7351553,135.3746093,
兵庫県,西宮市,320,甲子園口１丁目6番,甲子園口公園南側,34.7377556,135.3781349,
兵庫県,西宮市,321,戸崎町1番,上下水道局甲子園配水所西側,34.7337624,135.3786491,
兵庫県,西宮市,322,甲子園口２丁目27番24号,ザ・パークハウス甲子園口南向水路鉄柵,34.7339644,135.3740584,
兵庫県,西宮市,323,松並町5番,松並公園南側,34.7441443,135.3738014,
兵庫県,西宮市,324,松並町5番,武庫川取水場東側北端,34.7441443,135.3738014,
兵庫県,西宮市,325,松並町12番,ユニハイム甲子園口東向　水路フェンス,34.7455667,135.3737279,
兵庫県,西宮市,326,熊野町14番,名神高架下８号児童遊園北側,34.7454128,135.3717449,
兵庫県,西宮市,327,二見町7番,二見公園西側,34.7401482,135.3711574,
兵庫県,西宮市,328,甲子園口北町11番,東浦公園西側,34.7401845,135.377988,
兵庫県,西宮市,329,二見町14番,メゾン甲子園西前水路フェンス,34.7419484,135.3714511,
兵庫県,西宮市,330,瓦林町26番19号,瓦林小学校東側,34.7465677,135.3684493,
兵庫県,西宮市,331,瓦林町26番19号,瓦林小学校西門南側フェンス,34.7465677,135.3684493,
兵庫県,西宮市,332,瓦林町21番,名神高架下７号児童遊園北側,34.7454532,135.3676323,
兵庫県,西宮市,333,中島町5番8号,マザーシップ西宮北口こども園分園通路南側,34.7401211,135.3666928,
兵庫県,西宮市,334,瓦林町4番25号,甲子園学院西側水路南部分,34.7431728,135.3703495,
兵庫県,西宮市,335,大屋町10番20号,瓦木小学校東側,34.7438521,135.366494,
兵庫県,西宮市,336,大屋町10番20号,瓦木小学校西側南寄　水路フェンス,34.7438521,135.366494,
兵庫県,西宮市,337,深津町5番22号,深津小学校北側正門東横,34.740422,135.3573533,
兵庫県,西宮市,338,高畑町2番,ルネシティ西宮高畑町西向ガードパイプ,34.7415624,135.3613172,
兵庫県,西宮市,339,高畑町2番,高畑公園南側,34.7415624,135.3613172,
兵庫県,西宮市,340,高畑町2番,高畑町市営住宅集会所　北側,34.7415624,135.3613172,
兵庫県,西宮市,341,高畑町3番48号,ＪＦＥアドバンテック(株)北側中央部,34.7417897,135.3637531,
兵庫県,西宮市,342,深津町6番75号,深津中学校南側東端,34.7397772,135.3574343,
兵庫県,西宮市,343,高松町20番20号,市民交流センター北側,34.7457311,135.360894,
兵庫県,西宮市,344,田代町13番,エクセラート西宮北口東向い水路沿い,34.7456703,135.3631529,
兵庫県,西宮市,345,田代町6番,名神高架下２号児童遊園北側東寄,34.7440855,135.3621249,
兵庫県,西宮市,346,田代町3番,名神高架下２号児童遊園南側西寄,34.743547,135.362649,
兵庫県,西宮市,347,高松町8番,甲南大学ＣＵＢＥ西宮南側山手幹線沿いガードパイプ,34.7433961,135.3579259,
兵庫県,西宮市,348,高松町10番8号,金森ビル北向フェンス,34.7460146,135.3584812,
兵庫県,西宮市,349,高松町１４番,南西側高松ひなた緑地内 北側植え込み,34.7439343,135.3598487,
兵庫県,西宮市,350,高松町2番,津門川東側川沿い鉄柵,34.7427514,135.3560489,
兵庫県,西宮市,351,両度町3番1号,ラピタス31西宮　北前緑地帯,34.7447427,135.3539296,
兵庫県,西宮市,352,両度町2番,両度公園東側,34.7435893,135.3525068,
兵庫県,西宮市,353,両度町3番4号,西宮北口南自治会集会所東前川沿い鉄柵（両度緑地）,34.7445977,135.3546576,
兵庫県,西宮市,354,両度町3番3号,市営両度町住宅　西側植え込み,34.7445335,135.3523134,
兵庫県,西宮市,355,平木町6番19号,平木中学校北前道路転落防止鉄柵（平木市民館南向い）,34.7473233,135.3494694,
兵庫県,西宮市,356,平木町6番19号,平木中学校西側フェンス,34.7473233,135.3494694,
兵庫県,西宮市,357,平木町6番19号,平木中学校南側南門西側フェンス,34.7473233,135.3494694,
兵庫県,西宮市,358,青木町2番22号,市営青木町住宅　南側,34.7449915,135.3457027,
兵庫県,西宮市,359,平木町4番1号,平木小学校南側西端フェンス,34.7457947,135.3494493,
兵庫県,西宮市,360,高座町3番,高座南公園西側,34.7532916,135.3456065,
兵庫県,西宮市,361,岡田山（１～３）2番,市営岡田山住宅　東側南端鉄柵,34.758453,135.350937,緯度経度は怪しい
兵庫県,西宮市,362,岡田山（１～３）2番,市営岡田山住宅　西側入口南,34.758453,135.350937,緯度経度は怪しい
兵庫県,西宮市,363,愛宕山7番,広田小学校南門西側,34.7536062,135.3489831,
兵庫県,西宮市,364,愛宕山14番,県営愛宕山鉄筋５号棟南公園東側フェンス,34.7550634,135.3488363,
兵庫県,西宮市,365,愛宕山5番,県営愛宕山住宅団地北側ガードパイプ,34.7559008,135.3482491,
兵庫県,西宮市,366,中屋町4番,コスモ西宮ロイヤルフォルム北側鉄柵,34.7510956,135.3432577,
兵庫県,西宮市,367,中屋町10番,駐車場北側道路鉄柵,34.7505485,135.3461203,
兵庫県,西宮市,368,丸橋町4番,丸橋西公園西向川沿いガードレール,34.7505221,135.3532263,
兵庫県,西宮市,369,丸橋町4番67号,丸橋東公園東側フェンス,34.7508279,135.35461,
兵庫県,西宮市,370,能登町12番,能登公園東側フェンス,34.7519201,135.3513322,
兵庫県,西宮市,371,能登町14番,能登町グラウンド東側北端ガードフェンス,34.753301,135.3519195,
兵庫県,西宮市,372,門戸岡田町 7番,門戸岡田はなみずき公園東側植え込み,34.7568891,135.3536814,
兵庫県,西宮市,373,長田町 2番,阪急電鉄西宮車庫北東角,34.7476528,135.362492,
兵庫県,西宮市,374,北口町 1番,アクタ西宮２階円形デッキ北側フェンス,34.7467442,135.357462,
兵庫県,西宮市,375,高木西町 17番57号,高木小学校東側,34.7500061,135.3593347,
兵庫県,西宮市,376,高木西町 25番,高木小学校南西高木育成センター南側,34.7512753,135.3607298,
兵庫県,西宮市,377,長田町 2番,長田町緑地,34.7476528,135.362492,
兵庫県,西宮市,378,長田町 1番,阪急電鉄駐車場西側ブロック塀,34.74715,135.360001,緯度経度は怪しい
兵庫県,西宮市,379,高木東町 34番,高木公園東側,34.7510574,135.3617577,
兵庫県,西宮市,380,北口町 20番,北口町１号公園東側,34.7509612,135.3573523,
兵庫県,西宮市,381,伏原町 6番,市営伏原町住宅　西側フェンス,34.7549626,135.3594081,
兵庫県,西宮市,382,薬師町 1番28号,市営薬師町住宅　北側駐車場ガードパイプ,34.754168,135.3616244,
兵庫県,西宮市,383,甲風園３丁目 10番,阪急今津線線路沿い西側水路沿いガードレール,34.7538433,135.3568384,
兵庫県,西宮市,384,甲風園２丁目 12番9号,甲風園児童遊園南側,34.7518424,135.3557192,
兵庫県,西宮市,385,薬師町 7番5号,高木北小学校北側フェンス東寄り,34.7547302,135.3610418,
兵庫県,西宮市,386,野間町 2番1号,門戸高架下東児童遊園南側,34.7560188,135.3587777,
兵庫県,西宮市,387,林田町 5番26号,ジュネスT・Y（ピザ―ラ）北隣,34.7569658,135.3628775,
兵庫県,西宮市,388,日野町 5番,日野町集会所フェンス,34.7487002,135.3724059,
兵庫県,西宮市,389,日野町 2番,日野神社北側ガードレール,34.7490197,135.3705636,
兵庫県,西宮市,390,薬師町 4番15号,瓦木中学校西門南横,34.7540368,135.3655474,
兵庫県,西宮市,391,薬師町 4番15号,瓦木中学校東正門北側フェンス,34.7540368,135.3655474,
兵庫県,西宮市,392,薬師町 4番15号,瓦木中学校南側西端テニスコート沿いフェンス,34.7540368,135.3655474,
兵庫県,西宮市,393,上之町 15番,上之町東児童遊園北側 西寄り,34.7524733,135.3694682,
兵庫県,西宮市,394,日野町 8番,日野公園北側,34.7498145,135.3744249,
兵庫県,西宮市,395,大森町 3番,大森公園南側,34.7499561,135.3680729,
兵庫県,西宮市,396,下大市西町 6番,下大市西児童遊園フェンス,34.7603729,135.3591144,
兵庫県,西宮市,397,下大市西町 6番,阪急今津線東側フェンス,34.7603729,135.3591144,
兵庫県,西宮市,398,野間町 2番,門戸高架下東児童遊園北側　北側フェンス,34.7562088,135.3594337,
兵庫県,西宮市,399,上大市２丁目 15番,上大市２丁目１５番南西角水路フェンス,34.7629411,135.3624186,
兵庫県,西宮市,400,下大市東町 1番,門戸公園,34.7566731,135.3581599,
兵庫県,西宮市,401,大島町 9番,そよかぜ大島公園南西側,34.7617756,135.3682932,
兵庫県,西宮市,402,樋ノ口町２丁目 3番32号,樋ノ口小学校南側西端,34.7578313,135.3667886,
兵庫県,西宮市,403,樋ノ口町２丁目 3番32号,樋ノ口小学校東側北端,34.7578313,135.3667886,
兵庫県,西宮市,404,若山町 5番,若山はちまん公園南側,34.7588891,135.3656495,
兵庫県,西宮市,405,門前町 9番,門前公園東側,34.7579736,135.36352,
兵庫県,西宮市,406,若山町 8番,若山公園南向かい水路フェンス,34.7601696,135.3658698,
兵庫県,西宮市,407,荒木町 22番,あらきの森公園南側,34.756671,135.3678434,
兵庫県,西宮市,408,荒木町 22番,あらきの森公園北側,34.756671,135.3678434,
兵庫県,西宮市,409,樋ノ口町１丁目 12番,市営樋ノ口町１丁目住宅２号棟　東側,34.7644612,135.3702026,
兵庫県,西宮市,410,樋ノ口町２丁目 25番5号,市営樋ノ口町２丁目住宅５号棟　南側,34.7600216,135.3712866,
兵庫県,西宮市,411,門戸東町 4番16号,ダイドービル西側 水路横鉄柵,34.7598525,135.3582517,
兵庫県,西宮市,412,門戸荘 12番,阪急門戸厄神駅南西駐輪場南（イカリスーパー向）,34.7564721,135.3574257,
兵庫県,西宮市,413,門戸荘 4番,門戸高架下西児童遊園　北西側フェンス,34.7554364,135.3569852,
兵庫県,西宮市,414,門戸岡田町 12番,門戸岡田公園東側水路フェンス,34.7598686,135.3538283,
兵庫県,西宮市,415,門戸荘 1番,門戸荘１番歩道橋北側ガードレール,34.7542026,135.3555168,
兵庫県,西宮市,416,門戸荘 11番,シェルプール壱番館南水路沿い鉄柵,34.7566899,135.3563978,
兵庫県,西宮市,417,神呪町 3番33号,甲東小学校北側西端,34.7622809,135.3584995,
兵庫県,西宮市,418,神呪町 3番33号,甲東小学校南側,34.7622809,135.3584995,
兵庫県,西宮市,419,上大市１丁目 2番,高架下５号児童遊園北側フェンス,34.765119,135.360479,
兵庫県,西宮市,420,上大市１丁目 5番,新幹線高架下４号児童遊園南フェンス,34.7649037,135.3623084,
兵庫県,西宮市,421,松籟荘 3番,松籟荘児童遊園北方,34.7653809,135.3573523,
兵庫県,西宮市,422,上大市２丁目 16番,メゾン甲東園南向かい水路鉄柵,34.7638084,135.3623452,
兵庫県,西宮市,423,松籟荘 2番,新幹線高架下７号児童遊園南側フェンス,34.764761,135.357378,
兵庫県,西宮市,424,上甲東園４丁目 7番,中谷緑地東側,34.7654624,135.353764,
兵庫県,西宮市,425,段上町4丁目 10番,段上4丁目東公園,34.7732417,135.3617577,
兵庫県,西宮市,426,段上町4丁目 8番,上下水道局貯水場南側フェンス,34.7733942,135.3602892,
兵庫県,西宮市,427,段上町4丁目 2番11号,カトリック仁川教会入口フェンス,34.7720526,135.3607193,
兵庫県,西宮市,428,甲東園2丁目 2番,甲東園交番東向 阪急電鉄フェンス,34.7696184,135.3600689,
兵庫県,西宮市,429,段上町2丁目 8番24号,段上西小学校南側体育倉庫裏水路鉄柵,34.7694021,135.3664444,
兵庫県,西宮市,430,段上町2丁目 10番,段上公民館入口 北側水路フェンス,34.7701416,135.3670448,
兵庫県,西宮市,431,段上町3丁目 11番,県営西宮段上団地広場東側,34.7720723,135.3644746,
兵庫県,西宮市,432,段上町2丁目 3番,段上西公園北側フェンス,34.768957,135.364034,
兵庫県,西宮市,433,段上町6丁目 2番,段上北公園 東側フェンス,34.7725395,135.3663839,
兵庫県,西宮市,434,段上町5丁目 2番,段上5丁目公園東フェンス,34.7730782,135.3644012,
兵庫県,西宮市,435,上大市4丁目 19番,阪神水道企業団甲東事業所ポンプ室西側,34.7643294,135.3658698,
兵庫県,西宮市,436,上大市4丁目 18番,阪神水道企業団甲東ポンプ場南側,34.7645954,135.3670448,
兵庫県,西宮市,437,上大市3丁目 2番,新幹線高架下8号遊園前フェンス,34.7645528,135.3642543,
兵庫県,西宮市,438,上大市5丁目 15番25号,甲武体育館西駐車場南側,34.766065,135.3710472,
兵庫県,西宮市,439,上大市5丁目 10番,上大市公園東側入口左側フェンス,34.7654635,135.3682482,
兵庫県,西宮市,440,段上町8丁目 5番,百間樋川東側転落防止鉄柵,34.7666669,135.367926,
兵庫県,西宮市,441,段上町7丁目 2番,段上公園東側フェンス,34.7687855,135.3688532,
兵庫県,西宮市,442,段上町7丁目 5番21号,段上小学校北側西端,34.7702674,135.369303,
兵庫県,西宮市,443,段上町6丁目 22番,段上東公園西側,34.7720547,135.3699823,
兵庫県,西宮市,444,田近野町 9番17,阪神競馬場田近野杜社宅西側,34.7813409,135.3712125,
兵庫県,西宮市,445,田近野町 7番,市営田近野町住宅3号棟西側 バス停横フェンス,34.7771903,135.3724445,
兵庫県,西宮市,446,上大市5丁目 28番19号,報徳学園正門西側塀,34.7697768,135.372141,
兵庫県,西宮市,447,一里山町 10番,一里山東公園北側,34.7725925,135.3717449,
兵庫県,西宮市,448,仁川町3丁目 14番,仁川駅南踏み切り南 線路沿いガードレール,34.7735686,135.3564713,
兵庫県,西宮市,449,仁川町3丁目 4番,プラネペーリア西宮仁川東向かい 阪急電鉄今津線フェンス,34.7719946,135.3580131,
兵庫県,西宮市,450,上甲東園1丁目 25-21向い,上甲東園1丁目25番向かい くすの木通り植え込み,34.7707575,135.3575746,
兵庫県,西宮市,451,上甲東園2丁目 11番20号,甲陵中学校西側フェンス,34.7691543,135.353507,
兵庫県,西宮市,452,上甲東園1丁目 15番,上甲東園パークマンション向ガードレール,34.7678326,135.3587425,
兵庫県,西宮市,453,上甲東園2丁目 11番20号,甲陵中学校北側,34.7691543,135.353507,
兵庫県,西宮市,454,上甲東園2丁目 11番20号,甲陵中学校南側,34.7691543,135.353507,
兵庫県,西宮市,455,上甲東園2丁目 4番,県立西宮高校西側 部室棟裏フェンス,34.7668822,135.3525068,
兵庫県,西宮市,456,上甲東園2丁目 4番,中谷公園向 県立西宮高校フェンス,34.7668822,135.3525068,
兵庫県,西宮市,457,仁川町4丁目 3番,仁川公園北側,34.7707772,135.3547827,
兵庫県,西宮市,458,上ケ原一番町 1番155号,関西学院大学メディア研究棟東側,34.7672551,135.346191,
兵庫県,西宮市,459,上ケ原一番町 1番,関西学院サッカーグラウンド南側,34.767162,135.34436,緯度経度は怪しい
兵庫県,西宮市,460,上ケ原二番町 3番,上ケ原小学校西側フェンス（バス停前）,34.7646862,135.3501577,
兵庫県,西宮市,461,上ケ原二番町 3番,上ケ原小学校南側東,34.7646862,135.3501577,
兵庫県,西宮市,462,上ケ原四番町 2番,月極上ケ原駐車場5東向かい歩道鉄柵,34.7603372,135.3482491,
兵庫県,西宮市,463,上ケ原五番町 5番,県営上ケ原住宅４号棟西側（ポンプ室西側）,34.7639228,135.3465607,
兵庫県,西宮市,464,上ケ原五番町 2番,上ケ原五番町6番48号南向かい ため池沿いフェンス,34.7625011,135.3466342,
兵庫県,西宮市,465,上ケ原十番町 5番,甲陽園荘苑東 道路沿い鉄柵,34.7636649,135.3407622,
兵庫県,西宮市,466,上ケ原十番町 4番,市営上ケ原十番町住宅4号棟 東側緑地帯,34.7623494,135.3406154,
兵庫県,西宮市,467,上ケ原九番町 2番,上ケ原南小学校東側ガードレール奥鉄柵,34.7608551,135.3411698,
兵庫県,西宮市,468,上ケ原七番町 1番,上ケ原七番町住宅西側鉄柵,34.759185,135.3454597,
兵庫県,西宮市,469,上ケ原八番町 6番,市営上ケ原八番町住宅16号棟 ふれあい公園西側フェンス,34.7595495,135.3435513,
兵庫県,西宮市,470,上ケ原八番町 13番,関西学院グラウンド西側南,34.7639964,135.3423769,
兵庫県,西宮市,471,一ケ谷町 7番,一ケ谷公園西側,34.7580548,135.3403219,
兵庫県,西宮市,472,一ケ谷町 3番,一ケ谷東公園東側,34.7572827,135.3413494,
兵庫県,西宮市,473,上ケ原八番町 2番,市営上ケ原八番町住宅6号棟 南側フェンス,34.7577501,135.3432577,
兵庫県,西宮市,474,上ケ原八番町 1番,上ケ原八番町住宅処理施設北側,34.757201,135.3426705,
兵庫県,西宮市,475,高座町 14番,高座西公園,34.7553254,135.3431109,
兵庫県,西宮市,476,高座町 14番,市立西宮高校正門横フェンス,34.7553254,135.3431109,
兵庫県,西宮市,477,高座町 14番,新池東側鉄柵,34.7553254,135.3431109,
兵庫県,西宮市,478,高座町14番,新池南児童遊園東側,34.7553254,135.3431109,
兵庫県,西宮市,479,生瀬東町7番,生瀬東町公園内,34.814684,135.3343774,
兵庫県,西宮市,480,生瀬東町28番,JR宝塚線福知山線北東側　線路侵入防止鉄柵,34.8173111,135.3349644,
兵庫県,西宮市,481,生瀬東町36番,ブドウ池ガードレール南端付近,34.8162581,135.336579,
兵庫県,西宮市,482,宝生ヶ丘２丁目17番6号,駐車場北東向かいガードレール,34.8141232,135.3269353,
兵庫県,西宮市,483,宝生ヶ丘１丁目23番,生瀬南児童遊園内東側フェンス,34.8152232,135.3321025,
兵庫県,西宮市,484,宝生ヶ丘２丁目7番,宝生ヶ丘公園南側鉄柵,34.8134828,135.329094,
兵庫県,西宮市,485,宝生ヶ丘２丁目6番,宝生ヶ丘２丁目６番東端東側ガードレール,34.8143115,135.3293875,
兵庫県,西宮市,486,生瀬町２丁目26番,生瀬小学校東門北市民館向かいフェンス,34.8177318,135.3303414,
兵庫県,西宮市,487,生瀬武庫川町1番,生瀬武庫川公園外側鉄柵,34.8186889,135.331809,
兵庫県,西宮市,488,生瀬町２丁目6番,生瀬西公園北側,34.8187391,135.3259389,
兵庫県,西宮市,489,生瀬町２丁目1番,生瀬高台上り口歩道西側,34.818064,135.3238846,
兵庫県,西宮市,490,花の峯7番,花の峯第２公園,34.824227,135.3280668,
兵庫県,西宮市,491,花の峯1番,花の峯第１公園内,34.8229906,135.3309284,
兵庫県,西宮市,492,生瀬高台4番16号,生瀬高台４番１６号東向いガードレール,34.8169819,135.3243699,
兵庫県,西宮市,493,生瀬高台6番,高雄台北公園内,34.8160996,135.3227841,
兵庫県,西宮市,494,生瀬高台37番,高雄台公園西側ガードパイプ,34.8137902,135.3255721,
兵庫県,西宮市,495,青葉台１丁目15番,青葉台集会所階段下り口東側ガードレール,34.8208239,135.3210233,
兵庫県,西宮市,496,青葉台１丁目4番,青葉台第１公園北側,34.8188947,135.3198496,
兵庫県,西宮市,497,青葉台１丁目15番,青葉台第２公園北側ガードレール,34.8208239,135.3210233,
兵庫県,西宮市,498,青葉台１丁目22番,青葉台第４公園東側道向いガードレール,34.8215214,135.3204364,
兵庫県,西宮市,499,青葉台２丁目2番10号先,青葉台第３公園南西　道路フェンス,34.8221082,135.3216718,
兵庫県,西宮市,500,名塩新町1番,塩瀬センター前交差点北西側鉄柵,34.8263815,135.3071621,
兵庫県,西宮市,501,東山台５丁目,塩瀬中央公園多目的グラウンド東側,34.830807,135.307526,緯度経度は怪しい
兵庫県,西宮市,502,東山台２丁目25番向い,湯切橋西南詰,34.8297015,135.315228,
兵庫県,西宮市,503,東山台２丁目8番,東山台小学校北西門西側,34.831207,135.311386,緯度経度は怪しい
兵庫県,西宮市,504,清瀬台7番,清瀬台南公園南側ガードレール,34.8256256,135.3182356,
兵庫県,西宮市,505,東山台２丁目15番,東山台東公園西側,34.8297015,135.315228,
兵庫県,西宮市,506,東山台３丁目1番,南北道路西側歩道の植込,34.831631,135.316025,緯度経度は怪しい
兵庫県,西宮市,507,東山台３丁目27番,東山台北公園東入口横,34.8330444,135.3128807,
兵庫県,西宮市,508,清瀬台15番,清瀬台北公園西側入口南側フェンス,34.8273761,135.3200696,
兵庫県,西宮市,509,名塩南台２丁目14番１号,名塩南台西公園南側ガードレール,34.8260538,135.2972689,
兵庫県,西宮市,510,名塩南台３丁目13番の1,名塩南台中央公園南西,34.8237422,135.3000279,
兵庫県,西宮市,511,名塩南台１丁目1番,名塩南台１丁目バス停道路南向い,34.823959,135.304932,緯度経度は怪しい
兵庫県,西宮市,512,名塩南台４丁目14番,名塩南台南公園西入口南横,34.8220434,135.3034928,
兵庫県,西宮市,513,名塩南台１丁目9番1号南向,名塩南台中央公園北入口東横,34.8247047,135.3002692,
兵庫県,西宮市,514,名塩１丁目1番,名塩南児童遊園入口左フェンス,34.8282676,135.3043729,
兵庫県,西宮市,515,名塩平成台43番,名塩平成台東公園,34.8303252,135.2850295,
兵庫県,西宮市,516,名塩山荘24番,名塩山荘口公園植え込み,34.8287242,135.2907342,
兵庫県,西宮市,517,名塩ガーデン1番,名塩ガーデン西入口南東鉄柵,34.8294469,135.2869219,
兵庫県,西宮市,518,名塩３丁目8番,名塩台公園北側,34.8316715,135.2900744,
兵庫県,西宮市,519,名塩平成台21番北東,名塩平成台中央公園北東側入口フェンス,34.8307846,135.2823191,
兵庫県,西宮市,520,名塩山荘21番,名塩山荘北公園,34.8271802,135.289048,
兵庫県,西宮市,521,名塩２丁目11番40号,名塩小学校南側,34.8297251,135.2976626,
兵庫県,西宮市,522,名塩赤坂18番,名塩赤坂１８番ガードレール,34.8365537,135.2721158,
兵庫県,西宮市,523,名塩赤坂13番,赤坂峠公園北側フェンス,34.839114,135.2676455,
兵庫県,西宮市,524,名塩さくら台４丁目6番西向,さくら台西公園,34.8372299,135.2741678,
兵庫県,西宮市,525,名塩さくら台２丁目12番,さくら台中央公園南西,34.8371935,135.2788586,
兵庫県,西宮市,526,名塩さくら台３丁目12番,名塩さくら台コミュニティセンター東側道路鉄柵,34.8390043,135.2773927,
兵庫県,西宮市,527,名塩茶園町11番,茶園場公園東側,34.8351225,135.2825969,
兵庫県,西宮市,528,名塩美山9番,名塩北山公園入口西ガードレール,34.8475317,135.2708699,
兵庫県,西宮市,529,名塩美山4番,国見公園北側フェンス,34.8462861,135.2708699,
兵庫県,西宮市,530,山口町名来１丁目21番,廿日田公園東入口南横,34.8455081,135.2358533,
兵庫県,西宮市,531,山口町名来１丁目 10番,名来北バス停南東（バス停向い側歩道東）,34.8439511,135.2359265,
兵庫県,西宮市,532,山口町名来２丁目 14番,香守寺橋南ガードレール,34.8407713,135.2356336,
兵庫県,西宮市,533,山口町名来１丁目 4番,名来公園西側,34.8428752,135.2364391,
兵庫県,西宮市,534,山口町名来２丁目 4番,名来南公園北入口西横,34.838898,135.2369792,
兵庫県,西宮市,535,北六甲台５丁目 4番,北六甲台小学校南側フェンス,34.8337182,135.2445683,
兵庫県,西宮市,536,北六甲台１丁目 16番,天上公園東側,34.8356312,135.2431768,
兵庫県,西宮市,537,北六甲台２丁目 29番,平尾公園西側,34.8367319,135.2486701,
兵庫県,西宮市,538,北六甲台３丁目 2番,鍋倉公園北側,34.835023,135.2505014,
兵庫県,西宮市,539,北六甲台４丁目 14番,六殿公園北側ガードレール,34.8312537,135.2502816,
兵庫県,西宮市,540,北六甲台５丁目 29番,東側歩道植込み,34.8325498,135.2481574,
兵庫県,西宮市,541,北六甲台５丁目 44番,北六甲台南公園北側,34.829892,135.2473517,
兵庫県,西宮市,542,北六甲台１丁目 1番,北六甲台１号調整池北側,34.8341902,135.2415655,
兵庫県,西宮市,543,北六甲台５丁目 2番,向山公園西側フェンス,34.8325497,135.243543,
兵庫県,西宮市,544,山口町下山口２丁目 7番,下山口公園南西フェンス,34.8359533,135.237025,
兵庫県,西宮市,545,山口町金仙寺３丁目 2番,通ノ谷歩道橋 東側階段北側ガードレール,34.8233587,135.2511607,
兵庫県,西宮市,546,山口町中野,阪神高速北神戸線高架下ガードレール,34.808884,135.259232,緯度経度は怪しい
兵庫県,西宮市,547,山口町下山口４丁目 12番,下山口中屋敷公園北側フェンス,34.8311921,135.2400275,
兵庫県,西宮市,548,山口町上山口４丁目 1番5号,山口幼稚園北側フェンス,34.8260216,135.2467657,
兵庫県,西宮市,549,山口町上山口３丁目 6番,万代西宮山口店 西側歩道フェンス,34.8272648,135.2470587,
兵庫県,西宮市,550,山口町下山口５丁目 11番,山口中央公園南西記念碑横,34.8295801,135.2428106,
兵庫県,西宮市,551,山口町上山口２丁目 24番16号,クルセル西宮ビル前水路鉄柵,34.8261706,135.2440046,
兵庫県,西宮市,552,山口町香花園 5番,山口町香花園7番街区東端ガードレール,34.8049468,135.2471319,
兵庫県,西宮市,553,すみれ台１丁目 13番東向い,すみれ台東公園西入口南側鉄柵,34.818641,135.2436894,
兵庫県,西宮市,554,すみれ台２丁目 2番6号向い,すみれ台中央公園北側,34.8195328,135.2399946,
兵庫県,西宮市,555,すみれ台２丁目 6番8号向い,すみれ台武番館南向い空地（すみれ台５号緑地）,34.8189805,135.2380838,
兵庫県,西宮市,556,すみれ台３丁目 9番,すみれ台西公園北側,34.8181495,135.2354871,
兵庫県,西宮市,557,すみれ台３丁目 1番,すみれ台３号調整池北西向かい歩道鉄柵,34.8194715,135.2351927,
兵庫県,西宮市,558,山口町船坂 806番地奥,船坂公園,34.8031424,135.2828443,
兵庫県,西宮市,559,山口町船坂 山王神社向い,普照学園入口東側ガードレール,34.800529,135.285858,緯度経度は怪しい
兵庫県,西宮市,560,山口町船坂 2178番地,（有）タカネ鉄工所東向ガードレール,34.800529,135.285858,緯度経度は怪しい
兵庫県,西宮市,561,山口町船坂 1562番地,船坂配水所フェンス,34.8008105,135.2844237,
兵庫県,西宮市,562,山口町船坂 2098番地,船坂里山学校正門東横,34.800529,135.285858,緯度経度は怪しい
