prefecture,city,number,address,name,lat,long,note
兵庫県,豊岡市,1,中央町2-4役所東駐車場フェンス,役所東駐車場フェンス,35.5442675,134.8201761,
兵庫県,豊岡市,2,中央町15-22西楽寺前川沿いフェンス,西楽寺前川沿いフェンス,35.5425992,134.8209903,
兵庫県,豊岡市,3,中央町16-5豊岡小学校西側ハヤカワ向いフェンス,豊岡小学校西側ハヤカワ向いフェンス,35.5417262,134.822069,
兵庫県,豊岡市,4,千代田町10-9アイティ東側の向い歩道フェンス,アイティ東側の向い歩道フェンス,35.5443265,134.8157993,
兵庫県,豊岡市,5,寿町8-2職業安定所駐車場入り口北側フェンス(東向),職業安定所駐車場入り口北側フェンス（東向）,35.5464021,134.8172571,
兵庫県,豊岡市,6,山王町1-33付近御陵橋西側川沿いフェンス,御陵橋西側川沿いフェンス,35.5421183,134.8188381,
兵庫県,豊岡市,7,大手町3-11市営駅前駐車場歩道沿い(UCCの正面),市営駅前駐車場歩道沿い（UCCの正面）,35.5427429,134.8146703,緯度経度は怪しい
兵庫県,豊岡市,8,三坂町2-9県立豊岡聾覚特別支援学校西側目隠しフェンス,県立豊岡聾覚特別支援学校西側目隠しフェンス,35.5373449,134.8203095,
兵庫県,豊岡市,9,三坂町5-33付近コインランドリ-向い歩道柵,コインランドリー向い歩道柵,35.536562,134.8177018,
兵庫県,豊岡市,10,京町5-43中治クリニック東側石垣道路沿い,中治クリニック東側石垣道路沿い,35.5411466,134.8213674,
兵庫県,豊岡市,11,山王町7-5豊岡幼稚園向い公園フェンス,豊岡幼稚園向い公園フェンス,35.5403362,134.8179215,
兵庫県,豊岡市,12,京町8-1宵田橋東側東西市道フェンス,宵田橋東側東西市道フェンス,35.5416422,134.8239778,
兵庫県,豊岡市,13,中央町17-21豊岡小学校プ-ル道路沿い南側,豊岡小学校プール道路沿い南側,35.5422595,134.8232717,
兵庫県,豊岡市,14,中央町5-29豊陵保育園入口壁面,豊陵保育園入口壁面,35.5445255,134.8230867,
兵庫県,豊岡市,15,桜町8-10豊岡刃型工業(株)向い道路フェンス,豊岡刃型工業㈱向い道路フェンス,35.534651,134.82214,
兵庫県,豊岡市,16,三坂町4-15NSI豊岡スイミングスク-ル前駐車場フェンス,NSI豊岡スイミングスクール前駐車場フェンス,35.5355859,134.8193555,
兵庫県,豊岡市,17,大磯町1-65大磯会館前橋北側ガ-ドレ-ル(東向き),大磯会館前橋北側ガードレール（東向き）,35.5382652,134.8281566,
兵庫県,豊岡市,18,大磯町9-53大磯橋南側市道ガ-ドレ-ル(由利内科前),大磯橋南側市道ガードレール（由利内科前）,35.5363611,134.8274063,
兵庫県,豊岡市,19,大磯町10-25大磯神社北擁壁,大磯神社北擁壁,35.5350054,134.828666,
兵庫県,豊岡市,20,城南町4-21まるやま食堂前市道ガ-ドレ-ル(南向き),まるやま食堂前市道ガードレール（南向き）,35.5390989,134.8246382,
兵庫県,豊岡市,21,城南町3-18付近小尾﨑ロ-タリ-(大気汚染観測所横),小尾﨑ロータリー（大気汚染観測所横）,35.5390111,134.824107,
兵庫県,豊岡市,22,立野町20-2農協会館南大開理容店南側市道ガ-ドレ-ル,農協会館南大開理容店南側市道ガードレール,35.5432829,134.8255124,
兵庫県,豊岡市,23,立野町1-3市民体育館下駐車場進入路脇,市民体育館下駐車場進入路脇,35.544051,134.825822,
兵庫県,豊岡市,24,元町5-6養源寺モ-タ-プ-ル入口フェンス(滋茂会館側),養源寺モータープール入口フェンス（滋茂会館側）,35.5474443,134.8243867,
兵庫県,豊岡市,25,泉町19-26元町荘横ブロック塀(養源寺所有),元町荘横ブロック塀（養源寺所有）,35.547303,134.8230828,
兵庫県,豊岡市,26,幸町10-6長寿園前バス停横植込み沿い,長寿園前バス停横植込み沿い,35.548637,134.820634,
兵庫県,豊岡市,27,小田井町16-1小田井不動尊西側空地(北向き),小田井不動尊西側空地（北向き）,35.5493224,134.8246884,
兵庫県,豊岡市,28,泉町3-3豊岡郵便局南隣駐車場南側(ロ-タリ-側),豊岡郵便局南隣駐車場南側（ロータリー側）,35.5477581,134.8194908,
兵庫県,豊岡市,29,大手町9-15付近但馬労働基準監督署北側歩道フェンス,但馬労働基準監督署北側歩道フェンス,35.5466087,134.8133893,
兵庫県,豊岡市,30,若松町7-40付近コ-プディズ豊岡第2駐車場西側植込み,コープディズ豊岡第2駐車場西側植込み,35.5494315,134.8153588,
兵庫県,豊岡市,31,加広町6-68豊岡総合高等学校南側フェンス,豊岡総合高等学校南側フェンス,35.5497047,134.818662,
兵庫県,豊岡市,32,上佐野1385付近納屋公民館横,納屋公民館横,35.507028,134.8109759,緯度経度は怪しい
兵庫県,豊岡市,33,上佐野270今井篤氏宅前畑,今井篤氏宅前畑,35.5087371,134.8083674,
兵庫県,豊岡市,34,佐野550吉谷文男氏宅前畑(南向き),吉谷文男氏宅前畑（南向き）,35.5124884,134.8128938,緯度経度は怪しい
兵庫県,豊岡市,35,佐野25西垣重雄氏宅物置上の市道法面,西垣重雄氏宅物置上の市道法面,35.5117085,134.8210305,
兵庫県,豊岡市,36,九日市上町467-1付近九日市上町宮ノ下橋北側道路フェンス,九日市上町宮ノ下橋北側道路フェンス,35.5191598,134.8194472,
兵庫県,豊岡市,37,九日市上町1130上町会館南側広場,上町会館南側広場,35.522419,134.821348,
兵庫県,豊岡市,38,九日市下町311-26堀通公園,堀通公園,35.5278882,134.823691,
兵庫県,豊岡市,39,妙楽寺28豊岡カトリック教会前川沿いフェンス,豊岡カトリック教会前川沿いフェンス,35.533571,134.816482,
兵庫県,豊岡市,40,昭和町2-32消防署臨時駐車場南側フェンス,消防署臨時駐車場南側フェンス,35.5315225,134.8201836,
兵庫県,豊岡市,41,弥栄町1-64足立繁利氏宅向い側掲示板北側道路沿い,足立繁利氏宅向い側掲示板北側道路沿い,35.5342502,134.8247047,
兵庫県,豊岡市,42,塩津町10信号たもと「こうのとり荘案内塔」南側,信号たもと「こうのとり荘案内塔」南側,35.534376,134.8283187,緯度経度は怪しい
兵庫県,豊岡市,43,塩津町2-21塩津区会館東側壁面,塩津区会館東側壁面,35.533415,134.827159,
兵庫県,豊岡市,44,庄境648三江小学校正門西側歩道沿い,三江小学校正門西側歩道沿い,35.5529839,134.8441086,緯度経度は怪しい
兵庫県,豊岡市,45,下ノ宮461-1下宮口バス停西側道路フェンス,下宮口バス停西側道路フェンス,35.4605479,134.8718531,緯度経度は怪しい
兵庫県,豊岡市,46,庄境233-1中庄境会館前(電話ボックス東側),中庄境会館前(電話ボックス東側),35.549913,134.8387669,
兵庫県,豊岡市,47,庄境1066総合隣保館前運動場南側フェンス,総合隣保館前運動場南側フェンス,35.5447,134.8430027,
兵庫県,豊岡市,48,庄境998県営一本松団地横駐車場フェンス,県営一本松団地横駐車場フェンス,35.5468975,134.8401714,
兵庫県,豊岡市,49,庄境977-1県営一本松団地2号棟前,県営一本松団地２号棟前,35.5474889,134.8410859,
兵庫県,豊岡市,50,梶原626梶原会館前いガ-ドレ-ル,梶原会館前いガードレール,35.548086,134.832383,
兵庫県,豊岡市,51,日撫177-14大伴隆信氏宅前ガ-ドレ-ル,大伴隆信氏宅前ガードレール,35.5511532,134.8294848,
兵庫県,豊岡市,52,法花寺725-1法花寺バス停留所東側(酒垂神社下),法花寺バス停留所東側(酒垂神社下),35.5559727,134.8733203,緯度経度は怪しい
兵庫県,豊岡市,53,法花寺23-2法花寺口バス停東側道路法面,法花寺口バス停東側道路法面,35.5544566,134.8635134,緯度経度は怪しい
兵庫県,豊岡市,54,栄町1235-2栄町会館前市道法面,栄町会館前市道法面,35.5565735,134.8554237,緯度経度は怪しい
兵庫県,豊岡市,55,栄町1047-3栄町団地バス停横標語柱東側道路沿い,栄町団地バス停横標語柱東側道路沿い,35.5535917,134.8506233,緯度経度は怪しい
兵庫県,豊岡市,56,宮島350付近市道大開一日市線(一日市寄り)法面,市道大開一日市線（一日市寄り）法面,35.5647074,134.8098435,緯度経度は怪しい
兵庫県,豊岡市,57,船町236付近市道常磐線船町寄り鉄塔付近水路柵,市道常磐線船町寄り鉄塔付近水路柵,35.5535646,134.8207029,
兵庫県,豊岡市,58,一日市820付近石匠アオタ東側水路鉄柵,石匠アオタ東側水路鉄柵,35.5647074,134.8098435,
兵庫県,豊岡市,59,一日市370河崎博昌氏宅北側,河崎博昌氏宅北側,35.5610618,134.8128934,
兵庫県,豊岡市,60,一日市218-5一日市会館前空地(南側に道路沿い),一日市会館前空地（南側に道路沿い）,35.5603992,134.8127377,
兵庫県,豊岡市,61,船町2愛宕山登山道東側山すそ,愛宕山登山道東側山すそ,35.554382,134.8261532,
兵庫県,豊岡市,62,山本109付近山本区公園斜面,山本区公園斜面,35.5570024,134.8253527,
兵庫県,豊岡市,63,森14-1付近県道戸島玄武洞豊岡線豊岡大橋東詰橋梁下付近,県道戸島玄武洞豊岡線豊岡大橋東詰橋梁下付近,35.5572559,134.8231126,緯度経度は怪しい
兵庫県,豊岡市,64,金剛地366付近金剛寺共同集荷所西側山沿いゴミステ-ション隣,金剛寺共同集荷所西側山沿いゴミステーション隣,35.5679689,134.8349762,緯度経度は怪しい
兵庫県,豊岡市,65,野上162付近学校横橋北詰横ガ-ドレ-ル,学校横橋北詰横ガードレール,35.5625179,134.8189573,
兵庫県,豊岡市,66,下鶴井1965付近大岸五朗氏宅向い道路フェンス,大岸五朗氏宅向い道路フェンス,35.5801845,134.815856,緯度経度は怪しい
兵庫県,豊岡市,67,下鶴井1361下鶴井入り口水防倉庫前,下鶴井入り口水防倉庫前,35.5315376,134.8272808,緯度経度は怪しい
兵庫県,豊岡市,68,赤石334-2大谷保氏宅南側畑石垣道路沿い,大谷保氏宅南側畑石垣道路沿い,35.58411,134.8103,緯度経度は怪しい
兵庫県,豊岡市,69,下鶴井1609-4稲葉純子氏所有空き地県道沿い,稲葉純子氏所有空き地県道沿い,35.5802862,134.8215174,緯度経度は怪しい
兵庫県,豊岡市,70,正法寺567土谷春吉商店前駐車場のフェンス(北村清氏所有),土谷春吉商店前駐車場のフェンス（北村清氏所有）,35.5391775,134.8123019,
兵庫県,豊岡市,71,戸牧201近大グラウンド下歩道ガ-ドレ-ル,近大グラウンド下歩道ガードレール,35.5357819,134.8075422,
兵庫県,豊岡市,72,戸牧123-4戸牧第1団地バス停横(東側花だん中),戸牧第1団地バス停横（東側花だん中）,35.5338485,134.8033746,
兵庫県,豊岡市,73,戸牧1526-1戸牧第2団地入口案内板北側道路沿い,戸牧第2団地入口案内板北側道路沿い,35.5285083,134.801023,緯度経度は怪しい
兵庫県,豊岡市,74,高屋1045-1付近高屋公園西側垣根,高屋公園西側垣根,35.5439439,134.8093392,
兵庫県,豊岡市,75,高屋120マンション(シャ・ド・フ-ル)北側道路フェンス,マンション(シャ・ド・フール)北側道路フェンス,35.5416991,134.8076349,
兵庫県,豊岡市,76,高屋570-23市営高屋団地上り口(電話ボックス横),市営高屋団地上り口(電話ボックス横),35.54093,134.8039,緯度経度は怪しい
兵庫県,豊岡市,77,高屋948石井鞄工業KKブロック塀,石井鞄工業ＫＫブロック塀,35.545247,134.811555,
兵庫県,豊岡市,78,戸牧319-17付近市民グランド東側テニスコ-ト北側法面,市民グランド東側テニスコート北側法面,35.5360397,134.8125354,緯度経度は怪しい
兵庫県,豊岡市,79,上陰180ジェイエイサポ-ト前市道ガ-ドレ-ル,ジェイエイサポート前市道ガードレール,35.548345,134.809237,
兵庫県,豊岡市,80,上陰894-1豊岡コウノトリ森林組合駐車場フェンス,豊岡コウノトリ森林組合駐車場フェンス,35.54675,134.809152,緯度経度は怪しい
兵庫県,豊岡市,81,中陰290喫茶「ファイブ」北側空地道路沿い,喫茶「ファイブ」北側空地道路沿い,35.551099,134.8069321,
兵庫県,豊岡市,82,中陰521-1大豊機工北側小田井中陰線法面(今井康人氏宅前),大豊機工北側小田井中陰線法面(今井康人氏宅前),35.5520281,134.8117842,
兵庫県,豊岡市,83,下陰20-2喫茶「ウィング」南側国道フェンス(信号柱西側),喫茶「ウィング」南側国道フェンス(信号柱西側),35.5544273,134.8073334,
兵庫県,豊岡市,84,下陰458-22付近上前川橋北詰東側鉄柵,上前川橋北詰東側鉄柵,35.5569284,134.8075305,緯度経度は怪しい
兵庫県,豊岡市,85,一日市1673下前川橋西側三叉路ガ-ドレ-ル,下前川橋西側三叉路ガードレール,35.5637178,134.804788,緯度経度は怪しい
兵庫県,豊岡市,86,下陰401下陰さくら公園北側入口東側植込み沿い,下陰さくら公園北側入口東側植込み沿い,35.5619598,134.8043262,
兵庫県,豊岡市,87,福田1073-1池垣幸春氏自宅前,池垣幸春氏自宅前,35.555199,134.7981487,
兵庫県,豊岡市,88,福田1103-1メグラランド-ル南側畑道路沿い(岡崎俊宏氏所有地),メグラランドール南側畑道路沿い（岡崎俊宏氏所有地）,35.5569074,134.7981419,
兵庫県,豊岡市,89,福田1402-10付近福田区ごみステ-ション南ガ-ドレ-ル,福田区ごみステーション南ガードレール,35.5529903,134.7992795,
兵庫県,豊岡市,90,栃江880付近原田文夫氏所有田法面,原田文夫氏所有田法面,35.553543,134.7840756,緯度経度は怪しい
兵庫県,豊岡市,91,森津640久保田茂一氏宅東側空き地(山下氏所有),久保田茂一氏宅東側空き地（山下氏所有）,35.5702354,134.7980797,
兵庫県,豊岡市,92,森津210-1森津公民館南側,森津公民館南側,35.5664269,134.8033503,
兵庫県,豊岡市,93,滝182-3滝公民館前ごみステ-ション・電柱南側水路沿い,滝公民館前ごみステーション・電柱南側水路沿い,35.5679503,134.7921021,
兵庫県,豊岡市,94,新堂290新堂会館駐車場西側東向きに,新堂会館駐車場西側東向きに,35.566386,134.785149,
兵庫県,豊岡市,95,岩熊181斉賀英洋氏宅倉庫西側畑(川東隣),斉賀英洋氏宅倉庫西側畑（川東隣）,35.5715121,134.7802622,
兵庫県,豊岡市,96,江野1338安井壮一郎氏宅向かい側ログハウス植込み内,安井壮一郎氏宅向かい側ログハウス植込み内,35.5690176,134.7558244,緯度経度は怪しい
兵庫県,豊岡市,97,伊賀谷116-2伊賀谷区精米所跡地,伊賀谷区精米所跡地,35.5868591,134.7792118,緯度経度は怪しい
兵庫県,豊岡市,98,今森275-23付近市営住宅1号棟駐車場花壇(西向き),市営住宅１号棟駐車場花壇（西向き）,35.5240778,134.8288584,
兵庫県,豊岡市,99,今森358-1岡田商店北側市道ガ-ドレ-ル,岡田商店北側市道ガードレール,35.5249345,134.828252,
兵庫県,豊岡市,100,江本459-1付近江本グリ-ンハイツ西側水路柵,江本グリーンハイツ西側水路柵,35.52791,134.8298695,緯度経度は怪しい
兵庫県,豊岡市,101,江本371付近東薫氏宅前未舗装道路,東薫氏宅前未舗装道路,35.5266024,134.8305898,
兵庫県,豊岡市,102,駄坂576駄坂公民館前,駄坂公民館前,35.5194566,134.847046,
兵庫県,豊岡市,103,木内598-3木内上橋東詰道路法面,木内上橋東詰道路法面,35.5237011,134.8405136,緯度経度は怪しい
兵庫県,豊岡市,104,大篠岡721-6大篠岡バス停北側,大篠岡バス停北側,35.5259359,134.8498874,
兵庫県,豊岡市,105,中谷375中谷土地改良公園東側,中谷土地改良公園東側,35.5312791,134.8526361,緯度経度は怪しい
兵庫県,豊岡市,106,河谷731河谷営農センタ-横広場北側ガ-ドレ-ル,河谷営農センター横広場北側ガードレール,35.5381476,134.8545373,緯度経度は怪しい
兵庫県,豊岡市,107,河谷8-1河谷共同作業場前市道法面,河谷共同作業場前市道法面,35.5381476,134.8545373,緯度経度は怪しい
兵庫県,豊岡市,108,百合地932-1集荷場前広場東側掲揚台前,集荷場前広場東側掲揚台前,35.5403552,134.8474911,
兵庫県,豊岡市,109,中郷131市谷営農センタ-前,市谷営農センター前,35.4759085,134.8165822,緯度経度は怪しい
兵庫県,豊岡市,110,中郷643-7太陽光パネル設置場所向い市道法面,太陽光パネル設置場所向い市道法面,35.4828089,134.814536,
兵庫県,豊岡市,111,中郷1326前野景子氏宅下畑,前野景子氏宅下畑,35.4869415,134.818215,緯度経度は怪しい
兵庫県,豊岡市,112,中郷1629井戸豊氏宅裏広場,井戸豊氏宅裏広場,35.490381,134.8156625,
兵庫県,豊岡市,113,引野629-1大師山自然公園入口標柱横(北向き),大師山自然公園入口標柱横（北向き）,35.4934081,134.8233192,緯度経度は怪しい
兵庫県,豊岡市,114,引野577引野辻堂前(北向き),引野辻堂前（北向き）,35.4937252,134.8171864,緯度経度は怪しい
兵庫県,豊岡市,115,土渕281-1中筋地区コミュニティセンタ-記念碑前,中筋地区コミュニティセンター記念碑前,35.501504,134.820477,緯度経度は怪しい
兵庫県,豊岡市,116,加陽347-3沖加陽集落センタ-入り口橋梁上,沖加陽集落センター入り口橋梁上,35.5070426,134.826508,緯度経度は怪しい
兵庫県,豊岡市,117,加陽1025-1下加陽会館前,下加陽会館前,35.509348,134.826573,
兵庫県,豊岡市,118,清冷寺1665-9東楽寺前三叉路三角地内東向き,東楽寺前三叉路三角地内東向き,35.5129612,134.8278272,
兵庫県,豊岡市,119,清冷寺1150清冷寺営農センタ-前,清冷寺営農センター前,35.5114904,134.8335244,
兵庫県,豊岡市,120,伏222-1伏会館前水路柵,伏会館前水路柵,35.5164662,134.8264703,
兵庫県,豊岡市,121,八社宮109-1八社宮作業場西側,八社宮作業場西側,35.518293,134.830347,
兵庫県,豊岡市,122,岩井368-5田中博武氏宅道路向い空地,田中博武氏宅道路向い空地,35.5406717,134.7904796,
兵庫県,豊岡市,123,岩井860-1奥岩井会館前フェンス,奥岩井会館前フェンス,35.535417,134.789732,緯度経度は怪しい
兵庫県,豊岡市,124,宮井1111宮井集荷場東側空地,宮井集荷場東側空地,35.5476434,134.7771418,緯度経度は怪しい
兵庫県,豊岡市,125,庄100-2庄会館県道側フェンス,庄会館県道側フェンス,35.5435288,134.7747397,緯度経度は怪しい
兵庫県,豊岡市,126,吉井620旧奈佐小学校体育館前バス停左横歩道沿い,旧奈佐小学校体育館前バス停左横歩道沿い,35.5408282,134.774578,
兵庫県,豊岡市,127,野垣61-4野垣運動広場道路沿い,野垣運動広場道路沿い,35.5445887,134.7559621,
兵庫県,豊岡市,128,福成寺158-1市道福成寺中線1号橋北詰ごみステ-ション隣,市道福成寺中線一号橋北詰ごみステーション隣,35.5379168,134.7513074,緯度経度は怪しい
兵庫県,豊岡市,129,大谷903-2お堂の前広場の市道法面,お堂の前広場の市道法面,35.5290918,134.7701234,緯度経度は怪しい
兵庫県,豊岡市,130,内町518-1内町会館広場西詰,内町会館広場西詰,35.5246299,134.7607654,緯度経度は怪しい
兵庫県,豊岡市,131,内町607二位千裕氏宅前畑,二位千裕氏宅前畑,35.5262939,134.7588339,緯度経度は怪しい
兵庫県,豊岡市,132,船谷320-1船谷公民館前道路向い側,船谷公民館前道路向い側,35.5143298,134.7479648,
兵庫県,豊岡市,133,辻670辻バス停前空地川沿い(柿木のある端側に設置),辻バス停前空地川沿い（柿木のある端側に設置）,35.5184838,134.7490421,
兵庫県,豊岡市,134,目坂279-1池口直樹氏宅前目坂バス停西側,池口直樹氏宅前目坂バス停西側,35.5253974,134.7384444,緯度経度は怪しい
兵庫県,豊岡市,135,小島881小島バス停横脇漁具製作所前,小島バス停横脇漁具製作所前,35.641781,134.824277,緯度経度は怪しい
兵庫県,豊岡市,136,小島58佐藤常吉氏宅前(但馬木材あと),佐藤常吉氏宅前（但馬木材あと）,35.6403508,134.8165663,緯度経度は怪しい
兵庫県,豊岡市,137,瀬戸905付近日和山登り口ガ-ドレ-ル(宮代表具店横),日和山登り口ガードレール（宮代表具店横）,35.6534258,134.8271336,緯度経度は怪しい
兵庫県,豊岡市,138,瀬戸57元港西小学校体育館フェンス,元港西小学校体育館フェンス,35.6484148,134.8282929,緯度経度は怪しい
兵庫県,豊岡市,139,瀬戸196-5瀬戸公民館前,瀬戸公民館前,35.6523087,134.8268652,緯度経度は怪しい
兵庫県,豊岡市,140,津居山128付近浜広場北側フェンス,浜広場北側フェンス,35.6491092,134.8335257,緯度経度は怪しい
兵庫県,豊岡市,141,津居山293-2みなと橋東詰フェンス(北向き),みなと橋東詰フェンス（北向き）,35.648781,134.8313128,
兵庫県,豊岡市,142,津居山21津居山公民館前広場フェンス,津居山公民館前広場フェンス,35.650103,134.835212,緯度経度は怪しい
兵庫県,豊岡市,143,気比3200-1気比橋西詰三叉路西側ガ-ドレ-ル,気比橋西詰三叉路西側ガードレール,35.6270358,134.8401325,緯度経度は怪しい
兵庫県,豊岡市,144,気比3291気比信号東側山下宅倉庫隣,気比信号東側山下宅倉庫隣,35.6423187,134.8366971,緯度経度は怪しい
兵庫県,豊岡市,145,気比2435港地区コミュニティセンタ-前,港地区コミュニティセンター前,35.6349087,134.8400683,
兵庫県,豊岡市,146,気比2717気比公民館前,気比公民館前,35.6358715,134.8394386,
兵庫県,豊岡市,147,田結1751田結研修集会所前ガ-ドレ-ル,田結研修集会所前ガードレール,35.6440776,134.8452144,緯度経度は怪しい
兵庫県,豊岡市,148,畑上665付近畑上ゲ-トボ-ル場前東側,畑上ゲートボール場前東側,35.611907,134.8456998,緯度経度は怪しい
兵庫県,豊岡市,149,三原548三原集会所前道路側溝,三原集会所前道路側溝,35.479035,134.954366,緯度経度は怪しい
兵庫県,豊岡市,150,駄坂682-5付近こうのす団地入口道路脇,こうのす団地入口道路脇,35.5170459,134.8493247,
兵庫県,豊岡市,151,奥野671-2土師谷バス停右斜め前の畑(田と畑の境),土師谷バス停右斜め前の畑（田と畑の境）,35.5382072,134.8967683,緯度経度は怪しい
兵庫県,豊岡市,152,市場206沢辺進氏宅前向い側道路法面,沢辺進氏宅前向い側道路法面,35.5379462,134.8698614,緯度経度は怪しい
兵庫県,豊岡市,153,三宅194-2中島神社西向い側空地,中島神社西向い側空地,35.525533,134.8619588,緯度経度は怪しい
兵庫県,豊岡市,154,森尾88付近森尾地区入口北側歩道フェンス,森尾地区入口北側歩道フェンス,35.5198975,134.8666543,
兵庫県,豊岡市,155,立石27-1清水峯氏管理水田(集落入口道路南西角),清水峯氏管理水田（集落入口道路南西角）,35.515974,134.8616467,
兵庫県,豊岡市,156,香住627田中定氏宅ブロック塀,田中定氏宅ブロック塀,35.5174814,134.8542576,緯度経度は怪しい
兵庫県,豊岡市,157,下鉢山14-5岡本邦夫氏所有地(畑),岡本邦夫氏所有地（畑）,35.5126204,134.845244,
兵庫県,豊岡市,158,上鉢山243-3地蔵堂前市道南側沿い,地蔵堂前市道南側沿い,35.5070775,134.8452638,
兵庫県,豊岡市,159,長谷56-1長谷公民館西側フェンス,長谷公民館西側フェンス,35.5071085,134.8640196,
兵庫県,豊岡市,160,倉見233付近斎藤晋氏宅向い側畑地,斎藤晋氏宅向い側畑地,35.5028148,134.8559552,
兵庫県,豊岡市,161,城崎町湯島617城崎中学校グランド前,城崎中学校グランド前,35.6272603,134.8030685,
兵庫県,豊岡市,162,城崎町湯島559城崎荘前(木屋町通り河川側擁木),城崎荘前（木屋町通り河川側擁木）,35.62635,134.8103169,緯度経度は怪しい
兵庫県,豊岡市,163,城崎町湯島447四所神社前,四所神社前,35.6260222,134.8076597,緯度経度は怪しい
兵庫県,豊岡市,164,城崎町湯島701やなぎ荘別館「鶴喜」ブロック塀,やなぎ荘別館「鶴喜」ブロック塀,35.627035,134.8110565,
兵庫県,豊岡市,165,城崎町桃島950秦真一氏宅ブロック塀,秦真一氏宅ブロック塀,35.6291344,134.80971,
兵庫県,豊岡市,166,城崎町桃島1057-1城崎振興局前,城崎振興局前,35.6286506,134.8135444,緯度経度は怪しい
兵庫県,豊岡市,167,城崎町桃島1291-1旭町市有地(関電前),旭町市有地(関電前),35.6317375,134.816812,
兵庫県,豊岡市,168,城崎町湯島373ゆとうや旅館前(河川側擁木),ゆとうや旅館前（河川側擁木）,35.6253,134.809809,
兵庫県,豊岡市,169,城崎町湯島938旧NTT前(河川ベラペット),旧ＮＴＴ前(河川ベラペット),35.6265502,134.814226,
兵庫県,豊岡市,170,城崎町今津290-36営城崎温泉駅前駐車場,営城崎温泉駅前駐車場,35.6245826,134.8134998,
兵庫県,豊岡市,171,城崎町湯島206和田屋(ファミリ-マ-ト),和田屋（ファミリーマート）,35.626192,134.8127422,
兵庫県,豊岡市,172,城崎町湯島357-1城崎文芸館,城崎文芸館,35.6252146,134.810688,
兵庫県,豊岡市,173,城崎町湯島72-4城崎小学校運動場前,城崎小学校運動場前,35.6233287,134.8119678,緯度経度は怪しい
兵庫県,豊岡市,174,城崎町今津505斎藤弥生氏宅ブロック塀,斎藤弥生氏宅ブロック塀,35.619068,134.8100929,緯度経度は怪しい
兵庫県,豊岡市,175,城崎町来日235円山団地内,円山団地内,35.6058347,134.8019239,緯度経度は怪しい
兵庫県,豊岡市,176,城崎町来日805-4来日公民館,来日公民館,35.602299,134.793464,緯度経度は怪しい
兵庫県,豊岡市,177,城崎町上山219市営上山住宅前市道ガ-ドレ-ル,市営上山住宅前市道ガードレール,35.601554,134.8010308,緯度経度は怪しい
兵庫県,豊岡市,178,城崎町上山375箕磯防火水槽隣接ガ-ドレ-ル,箕磯防火水槽隣接ガードレール,35.5964599,134.8010172,緯度経度は怪しい
兵庫県,豊岡市,179,城崎町上山589-2市道上山五差路ガ-ドレ-ル,市道上山五差路ガードレール,35.5891165,134.7932938,
兵庫県,豊岡市,180,城崎町上山1801岩本不敏氏宅前私有地,岩本不敏氏宅前私有地,35.5867506,134.7993824,緯度経度は怪しい
兵庫県,豊岡市,181,城崎町結152-5市道永長線ガ-ドパイプ(市営結1号住宅前),市道永長線ガードパイプ（市営結1号住宅前）,35.6048692,134.8085228,緯度経度は怪しい
兵庫県,豊岡市,182,城崎町戸島443戸島公民館防火水槽前,戸島公民館防火水槽前,35.612513,134.8119837,緯度経度は怪しい
兵庫県,豊岡市,183,城崎町楽々浦526和田常市宅正面歩道擁木(楽々浦湾沿い),和田常市宅正面歩道擁木（楽々浦湾沿い）,35.6172459,134.8234017,緯度経度は怪しい
兵庫県,豊岡市,184,城崎町飯谷950-4日下英明氏(田)前市道路肩,日下英明氏(田)前市道路肩,35.6047642,134.8308156,緯度経度は怪しい
兵庫県,豊岡市,185,竹野町楠2046-1乳原五雄氏管理建物壁際(駐車場横),乳原五雄氏管理建物壁際（駐車場横）,35.6557453,134.7613974,緯度経度は怪しい
兵庫県,豊岡市,186,竹野町楠1249-2冨森直文氏所有地(空地),冨森直文氏所有地（空地）,35.6557453,134.7613974,緯度経度は怪しい
兵庫県,豊岡市,187,竹野町楠753-2道路改良記念碑横,道路改良記念碑横,35.6557453,134.7613974,緯度経度は怪しい
兵庫県,豊岡市,188,竹野町楠576床瀬営字地,床瀬営字地,35.6557453,134.7613974,緯度経度は怪しい
兵庫県,豊岡市,189,竹野町二連原17-4二連原交流館,二連原交流館,35.558659,134.7219503,
兵庫県,豊岡市,190,竹野町楠2570銅山共同作業場,銅山共同作業場,35.6557453,134.7613974,緯度経度は怪しい
兵庫県,豊岡市,191,竹野町三原774-1長峰久行氏所有地(畑),長峰久行氏所有地（畑）,35.533182,134.6621909,緯度経度は怪しい
兵庫県,豊岡市,192,竹野町三原847地先旧農協事業所前道路敷,旧農協事業所前道路敷,35.533182,134.6621909,緯度経度は怪しい
兵庫県,豊岡市,193,竹野町三原875橋本孝子氏所有地(宅地),橋本孝子氏所有地（宅地）,35.5420222,134.6737711,緯度経度は怪しい
兵庫県,豊岡市,194,竹野町三原157山本康則氏所有地(畑),山本康則氏所有地（畑）,35.5477933,134.6789436,緯度経度は怪しい
兵庫県,豊岡市,195,竹野町須野谷80-3随音寺前,随音寺前,35.5724706,134.6955431,緯度経度は怪しい
兵庫県,豊岡市,196,竹野町須野谷174-1倉橋孝氏所有地(空地),倉橋孝氏所有地（空地）,35.5666298,134.7018407,緯度経度は怪しい
兵庫県,豊岡市,197,竹野町大森291小林優子氏所有地(畑),小林優子氏所有地（畑）,35.5659533,134.6887297,緯度経度は怪しい
兵庫県,豊岡市,198,竹野町桑野本782桑野本会館前,桑野本会館前,35.5624389,134.6816561,緯度経度は怪しい
兵庫県,豊岡市,199,竹野町川南谷171-1坂田聖長氏所有地(防火水槽横),坂田聖長氏所有地（防火水槽横）,35.5554157,134.6714057,緯度経度は怪しい
兵庫県,豊岡市,200,竹野町河内573冨田嘉寿夫氏宅(ブロック塀),冨田嘉寿夫氏宅（ブロック塀）,35.5857326,134.7111288,
兵庫県,豊岡市,201,竹野町門谷282-1達冨しげ野氏所有地(稲木場),達冨しげ野氏所有地（稲木場）,35.5799543,134.6994005,
兵庫県,豊岡市,202,竹野町門谷114-1門谷集会施設,門谷集会施設,35.5799543,134.6994005,
兵庫県,豊岡市,203,竹野町坊岡265-1花登栄一氏所有地(畑),花登栄一氏所有地（畑）,35.5912035,134.741605,緯度経度は怪しい
兵庫県,豊岡市,204,竹野町坊岡324西村透氏宅(石垣),西村透氏宅（石垣）,35.5912035,134.741605,緯度経度は怪しい
兵庫県,豊岡市,205,竹野町森本161-1花登栄一氏所有地(空地),花登栄一氏所有地（空地）,35.5800744,134.7369745,
兵庫県,豊岡市,206,竹野町森本425太田垣健作氏所有地(畑),太田垣健作氏所有地（畑）,35.5800744,134.7369745,
兵庫県,豊岡市,207,竹野町森本514-11高架下バス停フェンス,高架下バス停フェンス,35.5822012,134.7329553,
兵庫県,豊岡市,208,竹野町森本1001-1銅像敷地(ガ-ドレ-ル),銅像敷地（ガードレール）,35.5800744,134.7369745,
兵庫県,豊岡市,209,竹野町小峡126-2草分修氏所有地(空地),草分修氏所有地（空地）,35.6557453,134.7613974,緯度経度は怪しい
兵庫県,豊岡市,210,竹野町御叉438福丸嘉明氏(ブロック塀),福丸嘉明氏（ブロック塀）,35.6557453,134.7613974,緯度経度は怪しい
兵庫県,豊岡市,211,竹野町御叉73-7坂本博行氏宅,坂本博行氏宅,35.6557453,134.7613974,緯度経度は怪しい
兵庫県,豊岡市,212,竹野町御叉12-8御叉団地(公園),御叉団地（公園）,35.6557453,134.7613974,緯度経度は怪しい
兵庫県,豊岡市,213,竹野町須谷982-1須谷車堂脇,須谷車堂脇,35.6332604,134.7559703,
兵庫県,豊岡市,214,竹野町芦谷78-1安谷テルコ氏所有地(空地),安谷テルコ氏所有地（空地）,35.6280638,134.7615432,緯度経度は怪しい
兵庫県,豊岡市,215,竹野町小丸257井垣豊氏所有地(墓地法面),井垣豊氏所有地（墓地法面）,35.626935,134.7578486,緯度経度は怪しい
兵庫県,豊岡市,216,竹野町鬼神谷140元橋直氏(工場),元橋直氏（工場）,35.6257884,134.7526111,
兵庫県,豊岡市,217,竹野町轟1050-1旧農協轟事業所(駐車場),旧農協轟事業所（駐車場）,35.6223773,134.7528306,緯度経度は怪しい
兵庫県,豊岡市,218,竹野町下塚144子供広場,子供広場,35.6140705,134.7519146,緯度経度は怪しい
兵庫県,豊岡市,219,竹野町東大谷129-2橋本忠明氏(作業場),橋本忠明氏（作業場）,35.6159203,134.7480274,緯度経度は怪しい
兵庫県,豊岡市,220,竹野町林1332-1田畑喜久子氏所有地(畑),田畑喜久子氏所有地（畑）,35.6045877,134.7556237,緯度経度は怪しい
兵庫県,豊岡市,221,竹野町林1133-1柿中宗浩氏所有地(畑),柿中宗浩氏所有地（畑）,35.6006885,134.7465507,
兵庫県,豊岡市,222,竹野町宇日86小林留美子氏宅(ブロック塀),小林留美子氏宅（ブロック塀）,35.6597732,134.7850326,緯度経度は怪しい
兵庫県,豊岡市,223,竹野町田久日77-4三柱神社,三柱神社,35.6657631,134.7952448,緯度経度は怪しい
兵庫県,豊岡市,224,竹野町草飼47福田恵子氏宅(ブロック塀),福田恵子氏宅（ブロック塀）,35.6520307,134.7530771,
兵庫県,豊岡市,225,竹野町竹野1487-1小林光久仁氏所有地(更地),小林光久仁氏所有地（更地）,35.6509163,134.7570553,緯度経度は怪しい
兵庫県,豊岡市,226,竹野町竹野1503-4佛生英紀氏所有地(生け垣),佛生英紀氏所有地（生け垣）,35.652624,134.7589154,緯度経度は怪しい
兵庫県,豊岡市,227,竹野町草飼519市住草飼テラス(フェンス),市住草飼テラス（フェンス）,35.6492493,134.7563544,
兵庫県,豊岡市,228,竹野町草飼459右近製材所,右近製材所,35.648508,134.757863,
兵庫県,豊岡市,229,竹野町松本443-1小守神社,小守神社,35.647966,134.7640308,緯度経度は怪しい
兵庫県,豊岡市,230,竹野町羽入170-1山根明治氏所有地(空き地),山根明治氏所有地（空き地）,35.6424737,134.7718726,
兵庫県,豊岡市,231,竹野町阿金谷185細川和明氏所有地(畑),細川和明氏所有地（畑）,35.6380006,134.7648415,緯度経度は怪しい
兵庫県,豊岡市,232,竹野町和田16-2杉垣陽平氏所有地(宅地法面),杉垣陽平氏所有地（宅地法面）,35.6454394,134.7583644,
兵庫県,豊岡市,233,竹野町須谷1494松崎 藤子氏所有地,松崎 藤子氏所有地,35.6357348,134.750745,
兵庫県,豊岡市,234,竹野町竹野441畑中武史氏宅(ブロック塀),畑中武史氏宅（ブロック塀）,35.6577449,134.7614066,緯度経度は怪しい
兵庫県,豊岡市,235,竹野町竹野343-1内山進氏宅(ブロック塀),内山進氏宅（ブロック塀）,35.6590376,134.7631361,緯度経度は怪しい
兵庫県,豊岡市,236,竹野町竹野196-4字日神社境内,字日神社境内,35.6588817,134.7649028,緯度経度は怪しい
兵庫県,豊岡市,237,竹野町竹野84-1鷹野神社,鷹野神社,35.660121,134.7630261,緯度経度は怪しい
兵庫県,豊岡市,238,竹野町竹野2457-2宮嶋千代乃氏所有地(駐車場),宮嶋千代乃氏所有地（駐車場）,35.6557542,134.7621878,緯度経度は怪しい
兵庫県,豊岡市,239,竹野町竹野169竹野村(今井武夫裏の海岸便所),竹野村（今井武夫裏の海岸便所）,35.6557453,134.7613974,緯度経度は怪しい
兵庫県,豊岡市,240,竹野町竹野704織田恭平氏所有地(空地),織田恭平氏所有地（空地）,35.6557453,134.7613974,緯度経度は怪しい
兵庫県,豊岡市,241,竹野町竹野729-5大谷亮三氏所有地(駐車場),大谷亮三氏所有地（駐車場）,35.6605995,134.7584964,緯度経度は怪しい
兵庫県,豊岡市,242,竹野町竹野1332-1谷口千代次氏所有地(畑),谷口千代次氏所有地（畑）,35.6557453,134.7613974,緯度経度は怪しい
兵庫県,豊岡市,243,竹野町切濱616山本直氏所有地(植込み),山本直氏所有地（植込み）,35.6596913,134.7461197,
兵庫県,豊岡市,244,竹野町切濱1070小林隆久氏(倉庫),小林隆久氏（倉庫）,35.660601,134.7453655,緯度経度は怪しい
兵庫県,豊岡市,245,竹野町濱須井900-1濱須井海岸駐車場,濱須井海岸駐車場,35.6584053,134.7359735,緯度経度は怪しい
兵庫県,豊岡市,246,竹野町濱須井747福井美治氏宅(ブロック塀),福井美治氏宅（ブロック塀）,35.6574092,134.7351277,
兵庫県,豊岡市,247,竹野町濱須井757片山義嗣氏宅(ブロック塀),片山義嗣氏宅（ブロック塀）,35.6572019,134.7357419,緯度経度は怪しい
兵庫県,豊岡市,248,竹野町奥須井119土生田喜典氏所有地(宅地),土生田喜典氏所有地（宅地）,35.6488215,134.7350574,
兵庫県,豊岡市,249,日高町財部518 (436-1北側市道対側地)堀 日吉神社,堀 日吉神社,35.544556,134.8202406,緯度経度は怪しい
兵庫県,豊岡市,250,日高町野々庄934-2国府地区コミュニティセンタ-フェンス,国府地区コミュニティセンターフェンス,35.491744,134.800463,
兵庫県,豊岡市,251,日高町池上323 (295-1東側市道対側地)池上 熊野神社,池上 熊野神社,35.4936201,134.8045159,緯度経度は怪しい
兵庫県,豊岡市,252,日高町東芝1 (西芝489北側市道対側地)西芝須賀神社堂,西芝須賀神社堂,35.497115,134.8074117,緯度経度は怪しい
兵庫県,豊岡市,253,日高町上石133第3分団消防庫庫,第3分団消防庫庫,35.4981218,134.8007598,緯度経度は怪しい
兵庫県,豊岡市,254,日高町上石384-16 (374-1東側市道対側地)旧国府テラス横市道フェンス,旧国府テラス横市道フェンス,35.4981218,134.8007598,緯度経度は怪しい
兵庫県,豊岡市,255,日高町上石347-5地先 (348-2南側市道対側地)虹の街市道路肩,虹の街市道路肩,35.4981218,134.8007598,緯度経度は怪しい
兵庫県,豊岡市,256,日高町竹貫178-2県道藤井上石線沿い車庫,県道藤井上石線沿い車庫,35.4981001,134.7913839,緯度経度は怪しい
兵庫県,豊岡市,257,日高町松岡275松岡堂(広場),松岡堂（広場）,35.4792543,134.7856173,
兵庫県,豊岡市,258,日高町上居629 (510南側市道対側地)上居神社前防火水槽フェンス,上居神社前防火水槽フェンス,35.544556,134.8202406,緯度経度は怪しい
兵庫県,豊岡市,259,日高町上郷669-1 (473東側市道対側地)上郷区倉庫,上郷区倉庫,35.4759733,134.8032045,緯度経度は怪しい
兵庫県,豊岡市,260,日高町府市場676-1府市場薬師堂,府市場薬師堂,35.4848167,134.7961345,緯度経度は怪しい
兵庫県,豊岡市,261,日高町府中新15府中新鹿島大明神,府中新鹿島大明神,35.4858816,134.7995239,
兵庫県,豊岡市,262,日高町藤井216-3地先藤井作業所向い市道ガ-ドレ-ル,藤井作業所向い市道ガードレール,35.4964056,134.7818351,緯度経度は怪しい
兵庫県,豊岡市,263,日高町奈佐路8-2奈佐路堂横広場,奈佐路堂横広場,35.5091431,134.7749185,
兵庫県,豊岡市,264,日高町谷107谷区公民館,谷区公民館,35.4975935,134.7706068,緯度経度は怪しい
兵庫県,豊岡市,265,日高町中405中区公民館,中区公民館,35.4959118,134.7646345,
兵庫県,豊岡市,266,日高町中320-1八代小学校グラウンドフェンス,八代小学校グラウンドフェンス,35.4957061,134.7611543,
兵庫県,豊岡市,267,日高町猪ノ爪37-1猪爪区公民館横空き地,猪爪区公民館横空き地,35.4959229,134.7573576,
兵庫県,豊岡市,268,日高町八代227八代区公民館向い市道ガ-ドレ-ル,八代区公民館向い市道ガードレール,35.4964105,134.7461036,
兵庫県,豊岡市,269,日高町小河江80-1小河江区コミュニティセンタ-駐車場,小河江区コミュニティセンター駐車場,35.5101111,134.7418419,緯度経度は怪しい
兵庫県,豊岡市,270,日高町河江56-1地先河江大岡口市道路肩,河江大岡口市道路肩,35.4912798,134.728139,緯度経度は怪しい
兵庫県,豊岡市,271,宰田180フジテック(株)ビッグステップフェンス,フジテック(株)ビッグステップフェンス,35.4641409,134.7739814,緯度経度は怪しい
兵庫県,豊岡市,272,日高町岩中102-1日高農林産物加工研修所,日高農林産物加工研修所,35.4687054,134.7739148,緯度経度は怪しい
兵庫県,豊岡市,273,日高町岩中280-1岩中地蔵大菩薩フェンス,岩中地蔵大菩薩フェンス,35.4666005,134.7683489,緯度経度は怪しい
兵庫県,豊岡市,274,日高町浅倉263浅倉農村公園フェンス,浅倉農村公園フェンス,35.4493075,134.7611814,緯度経度は怪しい
兵庫県,豊岡市,275,日高町浅倉126-1地先朝倉商事横市道路肩,朝倉商事横市道路肩,35.4493075,134.7611814,緯度経度は怪しい
兵庫県,豊岡市,276,日高町赤崎208-2赤崎共同作業所,赤崎共同作業所,35.4490911,134.777572,緯度経度は怪しい
兵庫県,豊岡市,277,日高町岩中46-1日高放課後児童クラブ,日高放課後児童クラブ,35.468341,134.7724,緯度経度は怪しい
兵庫県,豊岡市,278,日高町岩中662-2神鋼アクテックス入口フェンス(東構三叉路),神鋼アクテックス入口フェンス（東構三叉路）,35.4604027,134.7728299,緯度経度は怪しい
兵庫県,豊岡市,279,日高町祢布13地先ごみステ-ション横市道ガ-ドレ-ル(祢布川沿い),ごみステーション横市道ガードレール(祢布川沿い),35.4758691,134.7610348,緯度経度は怪しい
兵庫県,豊岡市,280,日高町国分寺654-1但馬国分寺跡付近倉庫,但馬国分寺跡付近倉庫,35.4716728,134.7738282,緯度経度は怪しい
兵庫県,豊岡市,281,日高町寺853日高コミュニティセンタ-前駐車場植込み,日高コミュニティセンター前駐車場植込み,35.4706253,134.7717132,緯度経度は怪しい
兵庫県,豊岡市,282,日高町水上73地先(73-3地内)市道歩道転落防止柵(水上アパ-ト:ウエスト付近),市道歩道転落防止柵（水上アパート：ウエスト付近）,35.4781207,134.7750798,
兵庫県,豊岡市,283,日高町山本220-40山本区公園東側フェンス(山本区公民館横),山本区公園東側フェンス(山本区公民館横),35.482559,134.780532,
兵庫県,豊岡市,284,日高町久斗660久斗区民広場(立花宅横),久斗区民広場（立花宅横）,35.4634732,134.7569862,
兵庫県,豊岡市,285,日高町久斗492久斗神社植込み,久斗神社植込み,35.4625852,134.7611081,緯度経度は怪しい
兵庫県,豊岡市,286,日高町道場157-1旧静修小学校グラウンドフェンス,旧静修小学校グラウンドフェンス,35.4644508,134.7484423,
兵庫県,豊岡市,287,日高町久田谷124-2久田谷交差点市道転落防止柵,久田谷交差点市道転落防止柵,35.4637348,134.7424908,緯度経度は怪しい
兵庫県,豊岡市,288,日高町久田谷635東側市道対側地消防ポンプ庫横市道ガ-ドレ-ル,消防ポンプ庫横市道ガードレール,35.4665027,134.740133,
兵庫県,豊岡市,289,日高町夏栗553地先夏栗区集会所前市道路肩,夏栗区集会所前市道路肩,35.4736155,134.7469912,
兵庫県,豊岡市,290,日高町鶴岡45-1地先川見モ-タ-ス向い市道路肩,川見モータース向い市道路肩,35.477604,134.784635,緯度経度は怪しい
兵庫県,豊岡市,291,日高町鶴岡723-1旧鶴岡公民館前遊び場,旧鶴岡公民館前遊び場,35.473208,134.786718,緯度経度は怪しい
兵庫県,豊岡市,292,日高町鶴岡492-1日高区公民館(花壇),日高区公民館（花壇）,35.4716495,134.7816287,緯度経度は怪しい
兵庫県,豊岡市,293,日高町日置224地先日置橋西詰市道ガ-ドレ-ル,日置橋西詰市道ガードレール,35.4694257,134.7814777,
兵庫県,豊岡市,294,日高町日置65-10江原河畔劇場前,江原河畔劇場前,35.4694336,134.7779564,
兵庫県,豊岡市,295,日高町鶴岡371-3市営鶴岡住宅来客駐車場,市営鶴岡住宅来客駐車場,35.4738054,134.7811641,緯度経度は怪しい
兵庫県,豊岡市,296,日高町日置93-2日吉区公民館(立雲館),日吉区公民館（立雲館）,35.471674,134.778294,
兵庫県,豊岡市,297,日高町日置975江原駅前広場ロ-タリ-入口植込み,江原駅前広場ロータリー入口植込み,35.4690472,134.7772533,緯度経度は怪しい
兵庫県,豊岡市,298,日高町江原61-1北村陶器店横市有地,北村陶器店横市有地,35.4648446,134.7786621,
兵庫県,豊岡市,299,日高町宵田206-3地先JR江原踏切横転落防止柵,ＪＲ江原踏切横転落防止柵,35.4642823,134.7751517,
兵庫県,豊岡市,300,日高町篠垣106篠垣堂,篠垣堂,35.45359,134.7267039,
兵庫県,豊岡市,301,日高町伊府723-1伊府区ゴミステ-ション横倉庫前,伊府区ゴミステーション横倉庫前,35.4562846,134.730951,緯度経度は怪しい
兵庫県,豊岡市,302,日高町佐田89-2佐田区公民館,佐田区公民館,35.4492548,134.7424509,緯度経度は怪しい
兵庫県,豊岡市,303,日高町知見1347-1知見公民館前広場,知見公民館前広場,35.4378918,134.7335639,緯度経度は怪しい
兵庫県,豊岡市,304,日高町森山54-1森山イナカ-バス停横,森山イナカーバス停横,35.4315043,134.7238335,緯度経度は怪しい
兵庫県,豊岡市,305,日高町観音寺679観音寺区コミュニティセンタ-,観音寺区コミュニティセンター,35.4443191,134.7123314,緯度経度は怪しい
兵庫県,豊岡市,306,日高町栗山656-12みかたの森こども園フェンス,みかたの森こども園フェンス,35.455375,134.7211253,緯度経度は怪しい
兵庫県,豊岡市,307,日高町広井12-2広井堂(下空き地),広井堂（下空き地）,35.4571819,134.711983,緯度経度は怪しい
兵庫県,豊岡市,308,日高町殿402北側市道対側地ごみステ-ション横市道路肩,ごみステーション横市道路肩,35.4515001,134.7028237,
兵庫県,豊岡市,309,日高町田ノ口738田ノ口堂,田ノ口堂,35.4667942,134.6908161,緯度経度は怪しい
兵庫県,豊岡市,310,日高町猪子垣253-1『めぐり獣医科』前空き地,『めぐり獣医科』前空き地,35.4632589,134.7160046,緯度経度は怪しい
兵庫県,豊岡市,311,日高町荒川309神門神社境内,神門神社境内,35.4602511,134.7215454,
兵庫県,豊岡市,312,日高町芝35-7木下建具店,木下建具店,35.4626701,134.7233008,
兵庫県,豊岡市,313,日高町野120-1野作業場,野作業場,35.4647039,134.7283059,
兵庫県,豊岡市,314,日高町庄境160-2庄境広場,庄境広場,35.4724381,134.7235721,緯度経度は怪しい
兵庫県,豊岡市,315,日高町羽尻273羽尻公会堂,羽尻公会堂,35.4489865,134.6628474,緯度経度は怪しい
兵庫県,豊岡市,316,日高町羽尻588(587東隣)羽尻活性化センタ-駐車場,羽尻活性化センター駐車場,35.4489865,134.6628474,緯度経度は怪しい
兵庫県,豊岡市,317,日高町羽尻780金谷公民館,金谷公民館,35.4489865,134.6628474,緯度経度は怪しい
兵庫県,豊岡市,318,日高町十戸115第15分団消防車庫,第１５分団消防車庫,35.4735229,134.7165372,緯度経度は怪しい
兵庫県,豊岡市,319,日高町頃垣592頃垣活性化センタ-,頃垣活性化センター,35.4803961,134.7125383,緯度経度は怪しい
兵庫県,豊岡市,320,日高町石井663-2南側市道対側地石井区宮向橋西側市道路肩,石井区宮向橋西側市道路肩,35.4768454,134.7089118,
兵庫県,豊岡市,321,日高町山宮865-3山宮区堂横広場,山宮区堂横広場,35.4934203,134.7046882,緯度経度は怪しい
兵庫県,豊岡市,322,日高町山宮1337-1清滝地区コミュニティセンタ-自転車庫東側植栽,清滝地区コミュニティセンター自転車庫東側植栽,35.4875598,134.6953552,
兵庫県,豊岡市,323,日高町栃本635-1地先栃本区内市道転落防止柵(太田川橋南),栃本区内市道転落防止柵（太田川橋南）,35.4846579,134.6951592,緯度経度は怪しい
兵庫県,豊岡市,324,日高町太田592-1ごみステ-ション(太田区入口付近),ごみステーション（太田区入口付近）,35.5033416,134.6859206,緯度経度は怪しい
兵庫県,豊岡市,325,日高町太田53-1太田区会館,太田区会館,35.5033416,134.6859206,緯度経度は怪しい
兵庫県,豊岡市,326,日高町名色30-6まつや中央店前駐車場,まつや中央店前駐車場,35.4911229,134.6812678,緯度経度は怪しい
兵庫県,豊岡市,327,日高町名色1145-5名色口バス停横観光案内看板支柱,名色口バス停横観光案内看板支柱,35.4911229,134.6812678,緯度経度は怪しい
兵庫県,豊岡市,328,日高町万場236北側河川対側万場第3駐車場向いガ-ドレ-ル,万場第3駐車場向いガードレール,35.496065,134.6691909,
兵庫県,豊岡市,329,日高町栗栖野739-1栗栖野会館自転車置き場,栗栖野会館自転車置き場,35.5027161,134.6679794,
兵庫県,豊岡市,330,日高町栗栖野59-13道の駅「神鍋高原」,道の駅「神鍋高原」,35.4990606,134.6750059,
兵庫県,豊岡市,331,日高町栗栖野183-1西栗栖野ごみステ-ション横市道沿居,西栗栖野ごみステーション横市道沿居,35.4999526,134.6718264,緯度経度は怪しい
兵庫県,豊岡市,332,日高町山田436-1地先山田バス停奥案内看板横,山田バス停奥案内看板横,35.5020215,134.6343036,緯度経度は怪しい
兵庫県,豊岡市,333,日高町万劫181-1万劫区公民館(バス停横芝生広場),万劫区公民館（バス停横芝生広場）,35.5098562,134.6529944,
兵庫県,豊岡市,334,日高町稲葉29-2中島寿美宅前駐車場,中島寿美宅前駐車場,35.5197592,134.6341538,緯度経度は怪しい
兵庫県,豊岡市,335,日高町水口142-2水口共同集荷場,水口共同集荷場,35.5137891,134.6550652,緯度経度は怪しい
兵庫県,豊岡市,336,日高町東河内500-1東河内駐車場(公民館横),東河内駐車場（公民館横）,35.517689,134.6716919,緯度経度は怪しい
兵庫県,豊岡市,337,出石町谷山上水道ポンプ施設外壁フェンス,上水道ポンプ施設外壁フェンス,35.4672758,134.8969373,
兵庫県,豊岡市,338,出石町東條9市有地(住宅用地分譲地),市有地（住宅用地分譲地）,35.4631013,134.8782104,
兵庫県,豊岡市,339,出石町東條市道敷(東條小公園北面),市道敷（東條小公園北面）,35.4631013,134.8782104,
兵庫県,豊岡市,340,出石町寺町685寺町児童公園(正福寺北隣)敷地西面擁壁,寺町児童公園(正福寺北隣)敷地西面擁壁,35.4705729,134.8781894,緯度経度は怪しい
兵庫県,豊岡市,341,出石町町分565-1西岡顕氏宅(北部公園西隣)敷地南西面擁壁,西岡顕氏宅(北部公園西隣)敷地南西面擁壁,35.4686301,134.8758423,
兵庫県,豊岡市,342,出石町内町1出石振興局(正面広場南西隅),出石振興局（正面広場南西隅）,35.461766,134.874698,
兵庫県,豊岡市,343,出石町宵田78-1宵田小公園(史料館東隣)敷地東面フェンス,宵田小公園(史料館東隣)敷地東面フェンス,35.4642092,134.8753415,
兵庫県,豊岡市,344,出石町宵田市営鉄砲駐車場敷地内,市営鉄砲駐車場敷地内,35.464472,134.874475,
兵庫県,豊岡市,345,出石町町分168(株)出石モ-タ-ズ旧社屋跡地,㈱出石モーターズ旧社屋跡地,35.4652639,134.8727513,緯度経度は怪しい
兵庫県,豊岡市,346,出石町日野辺776-19中村正実氏自宅前,中村正実氏自宅前,35.4494515,134.8725161,
兵庫県,豊岡市,347,出石町松枝37-1旧出石町水道事業所フェンス,旧出石町水道事業所フェンス,35.4598304,134.8703156,
兵庫県,豊岡市,348,出石町柳旧出石消防団第3分団車庫西壁,旧出石消防団第3分団車庫西壁,35.6265482,134.8137075,緯度経度は怪しい
兵庫県,豊岡市,349,出石町町分158番地の2町分公園 東側フェンス,町分公園 東側フェンス,35.4676236,134.8737184,
兵庫県,豊岡市,350,出石町町分212兵庫県社会福祉事業団出石精和園地域支援センタ-,兵庫県社会福祉事業団出石精和園地域支援センター,35.4687885,134.8703178,
兵庫県,豊岡市,351,出石町松枝見性寺駐車場一角,見性寺駐車場一角,35.4649475,134.8697546,緯度経度は怪しい
兵庫県,豊岡市,352,出石町細見695-1柳原正伸氏所有畑(居宅北隣)北側法面,柳原正伸氏所有畑（居宅北隣）北側法面,35.4627732,134.8454221,緯度経度は怪しい
兵庫県,豊岡市,353,出石町細見846室見公園西面フェンス,室見公園西面フェンス,35.4627732,134.8454221,緯度経度は怪しい
兵庫県,豊岡市,354,出石町細見14-1市道細見中央線法面,市道細見中央線法面,35.4627732,134.8454221,緯度経度は怪しい
兵庫県,豊岡市,355,出石町荒木996-1道路公園(荒木バス停東隣)敷地(植栽)西端,道路公園（荒木バス停東隣）敷地（植栽）西端,35.4671836,134.836037,
兵庫県,豊岡市,356,出石町荒木805菅谷地区コミュニティセンタ-進入路東側,菅谷地区コミュニティセンター進入路東側,35.464404,134.834026,緯度経度は怪しい
兵庫県,豊岡市,357,出石町荒木田守博和氏所有地,田守博和氏所有地,35.4619982,134.8741883,緯度経度は怪しい
兵庫県,豊岡市,358,出石町福見576-2石田愡氏所有地(畑),石田愡氏所有地（畑）,35.4563014,134.8263136,
兵庫県,豊岡市,359,出石町暮坂140-4暮坂区農業用倉庫北側壁面,暮坂区農業用倉庫北側壁面,35.441856,134.8238506,緯度経度は怪しい
兵庫県,豊岡市,360,出石町鍛冶屋1-1田村久子氏所有地(県道境界面),田村久子氏所有地（県道境界面）,35.4607983,134.8674432,緯度経度は怪しい
兵庫県,豊岡市,361,出石町福住170-2福住区集会所敷地西面フェンス,福住区集会所敷地西面フェンス,35.4586897,134.8648668,
兵庫県,豊岡市,362,出石町福住460-5福住地区コミュニティセンタ-敷地南西隅,福住地区コミュニティセンター敷地南西隅,35.461649,134.865746,
兵庫県,豊岡市,363,出石町中村228-1中村区集会所敷地北隅,中村区集会所敷地北隅,35.4519915,134.8610276,緯度経度は怪しい
兵庫県,豊岡市,364,出石町上村40-1上村生活改善センタ-進入路南側,上村生活改善センター進入路南側,35.4452596,134.8621005,緯度経度は怪しい
兵庫県,豊岡市,365,出石町上村786-1梶見区集会所敷地北西隅,梶見区集会所敷地北西隅,35.4393558,134.8581665,緯度経度は怪しい
兵庫県,豊岡市,366,出石町上村1252-1県道橋「和屋橋」南側ガ-ドレ-ル,県道橋「和屋橋」南側ガードレール,35.4280791,134.8611471,緯度経度は怪しい
兵庫県,豊岡市,367,出石町上野250-1川尾均所有倉庫北東側壁面,川尾均所有倉庫北東側壁面,35.4406982,134.8782734,緯度経度は怪しい
兵庫県,豊岡市,368,出石町上野560-1山本憲一氏宅敷地北面ブロック塀,山本憲一氏宅敷地北面ブロック塀,35.4464806,134.8807824,緯度経度は怪しい
兵庫県,豊岡市,369,出石町奥山399-1六十六地蔵尊地蔵堂北側壁面,六十六地蔵尊地蔵堂北側壁面,35.4186015,134.8876944,緯度経度は怪しい
兵庫県,豊岡市,370,出石町日野辺636-41(株)マツバラ向い国道426号線沿いフェンス,㈱マツバラ向い国道426号線沿いフェンス,35.450609,134.884075,緯度経度は怪しい
兵庫県,豊岡市,371,出石町日野辺440-5日野辺公民館前,日野辺公民館前,35.4519871,134.8864104,
兵庫県,豊岡市,372,出石町寺坂164旧寺坂小学校駐車場(プ-ル南隣)南面,旧寺坂小学校駐車場(プール南隣)南面,35.4528147,134.8954971,緯度経度は怪しい
兵庫県,豊岡市,373,出石町寺坂762-1中島隆博氏宅向倉庫敷地北端,中島隆博氏宅向倉庫敷地北端,35.4606455,134.906321,緯度経度は怪しい
兵庫県,豊岡市,374,出石町寺坂1019地先県道法面県道橋「栗谷小橋」北詰,県道法面県道橋「栗谷小橋」北詰,35.4606455,134.906321,緯度経度は怪しい
兵庫県,豊岡市,375,出石町桐野804福富亭氏宅横ブロック塀,福富亭氏宅横ブロック塀,35.4471195,134.8998753,緯度経度は怪しい
兵庫県,豊岡市,376,出石町桐野1247井谷利之氏所有地(宅地)ブロック塀にぶらさげること,井谷利之氏所有地（宅地）ブロック塀にぶらさげること,35.4471762,134.896888,緯度経度は怪しい
兵庫県,豊岡市,377,出石町桐野1437-1中野区集会所敷地西側フェンス,中野区集会所敷地西側フェンス,35.4363042,134.9016924,緯度経度は怪しい
兵庫県,豊岡市,378,出石町東上86-1付近市道歩道柵(松本接骨院付近),市道歩道柵（松本接骨院付近）,35.475664,134.863162,緯度経度は怪しい
兵庫県,豊岡市,379,出石町鳥居鳥居公民館敷地内,鳥居公民館敷地内,35.4816101,134.8547272,
兵庫県,豊岡市,380,出石町丸中94-1丸中区集会所前土地敷地北側フェンス,丸中区集会所前土地敷地北側フェンス,35.4815082,134.8446236,
兵庫県,豊岡市,381,出石町大谷409大谷集会所前(市道ガ-ドレ-ル),大谷集会所前（市道ガードレール）,35.482689,134.8383214,緯度経度は怪しい
兵庫県,豊岡市,382,出石町三木385-3三木朝市みきハウス敷地内,三木朝市みきハウス敷地内,35.4841355,134.8344717,緯度経度は怪しい
兵庫県,豊岡市,383,出石町片間636-2片間区集会所玄関南横,片間区集会所玄関南横,35.489775,134.82979,緯度経度は怪しい
兵庫県,豊岡市,384,出石町東耳600-2田口独生氏所有宅地南東面ブロック塀,田口独生氏所有宅地南東面ブロック塀,35.460507,134.8746153,緯度経度は怪しい
兵庫県,豊岡市,385,出石町福居947-1小坂地区コミュニティセンタ-駐車場フェンス,小坂地区コミュニティセンター駐車場フェンス,35.4912387,134.8490181,
兵庫県,豊岡市,386,出石町嶋嶋区農業用倉庫,嶋区農業用倉庫,35.4893596,134.8523577,緯度経度は怪しい
兵庫県,豊岡市,387,出石町田多地393-4田多地区集会所前広場,田多地区集会所前広場,35.4960148,134.8570227,緯度経度は怪しい
兵庫県,豊岡市,388,出石町安良148-7地先県道歩道ガ-ドフェンス(作業場北隣),県道歩道ガードフェンス（作業場北隣）,35.4993274,134.8499796,
兵庫県,豊岡市,389,出石町宮内708地先市道一宮線法面(山科モ-タ-ス東),市道一宮線法面（山科モータース東）,35.4805315,134.8734752,
兵庫県,豊岡市,390,出石町宮内1114-1出石神社境内地南東隅(市道交差点付近),出石神社境内地南東隅（市道交差点付近）,35.4817564,134.8702812,緯度経度は怪しい
兵庫県,豊岡市,391,出石町宮内317-2寺田幸弘氏宅北方農機具庫敷地西面,寺田幸弘氏宅北方農機具庫敷地西面,35.4805315,134.8734752,
兵庫県,豊岡市,392,出石町袴狭379-2地先県道法面いずし古代学習館前駐車場西面,県道法面いずし古代学習館前駐車場西面,35.4894114,134.8875104,緯度経度は怪しい
兵庫県,豊岡市,393,出石町袴狭1383-1松本きよの氏宅敷地西面法面,松本きよの氏宅敷地西面法面,35.4894114,134.8875104,緯度経度は怪しい
兵庫県,豊岡市,394,出石町口小野604口小野区集会所敷地南面フェンス,口小野区集会所敷地南面フェンス,35.5023243,134.8792818,緯度経度は怪しい
兵庫県,豊岡市,395,出石町奥小野1531地先県道敷市道橋「歌野尾橋」南詰ガ-ドレ-ル,県道敷市道橋「歌野尾橋」南詰ガードレール,35.5160326,134.906201,緯度経度は怪しい
兵庫県,豊岡市,396,出石町奥小野618-2地先県道敷市道橋「石黒橋」南詰ガ-ドレ-ル,県道敷市道橋「石黒橋」南詰ガードレール,35.5160326,134.906201,緯度経度は怪しい
兵庫県,豊岡市,397,但東町中山814-1資母地区コミュニティセンタ-駐車場看板,資母地区コミュニティセンター駐車場看板,35.4961221,134.9947782,緯度経度は怪しい
兵庫県,豊岡市,398,但東町中山583堀文代氏旧中山郵便局板塀,堀文代氏旧中山郵便局板塀,35.4974609,134.9953618,
兵庫県,豊岡市,399,但東町中山839福田隆氏住宅,福田隆氏住宅,35.4975185,134.9937327,
兵庫県,豊岡市,400,但東町中山159-1赤野広場フェンス(あかの),赤野広場フェンス（あかの）,35.5011918,134.9968904,
兵庫県,豊岡市,401,但東町中山32-1橋本文俊氏作業場フェンス,橋本文俊氏作業場フェンス,35.5050649,134.9997692,
兵庫県,豊岡市,402,但東町中山258-3岩吹和弘氏所有田(金蔵寺前),岩吹和弘氏所有田（金蔵寺前）,35.4983468,135,
兵庫県,豊岡市,403,但東町坂野407-3ふるさと交流センタ-さかの敷地,ふるさと交流センターさかの敷地,35.5227357,134.9906186,緯度経度は怪しい
兵庫県,豊岡市,404,但東町虫生619虫生公民館横広場フェンス,虫生公民館横広場フェンス,35.5094298,135.0093785,緯度経度は怪しい
兵庫県,豊岡市,405,但東町虫生365-5谷虫生防火水槽フェンス,谷虫生防火水槽フェンス,35.5094298,135.0093785,緯度経度は怪しい
兵庫県,豊岡市,406,但東町畑山1102-1日和坂共同作業所敷地,日和坂共同作業所敷地,35.4850518,134.9906268,緯度経度は怪しい
兵庫県,豊岡市,407,但東町畑山204-1加藤昭一氏所有田(のぞみ前),加藤昭一氏所有田（のぞみ前）,35.4850518,134.9906268,緯度経度は怪しい
兵庫県,豊岡市,408,但東町畑山835-6下畑山公民館フェンス,下畑山公民館フェンス,35.4895309,134.983397,
兵庫県,豊岡市,409,但東町口藤334-2高齢者生活支援センタ-「くらふじ」フェンス,高齢者生活支援センター「くらふじ」フェンス,35.5227357,135.0093814,緯度経度は怪しい
兵庫県,豊岡市,410,但東町口藤55口藤農村公園フェンス,口藤農村公園フェンス,35.5148782,135.0118261,緯度経度は怪しい
兵庫県,豊岡市,411,但東町中藤183中藤コミュニティセンタ-フェンス,中藤コミュニティセンターフェンス,35.5293884,135.023457,
兵庫県,豊岡市,412,但東町中藤530-14全但バス中藤停留所付近,全但バス中藤停留所付近,35.5293884,135.023457,
兵庫県,豊岡市,413,但東町奥藤144-5奥藤水道操作室フェンス,奥藤水道操作室フェンス,35.5160764,135.0328297,緯度経度は怪しい
兵庫県,豊岡市,414,但東町奥藤241松本健治郎氏所有畑(奥藤公民館付近),松本健治郎氏所有畑（奥藤公民館付近）,35.5160764,135.0328297,緯度経度は怪しい
兵庫県,豊岡市,415,但東町奥赤222-1奥赤公民館敷地,奥赤公民館敷地,35.4584759,135.032786,緯度経度は怪しい
兵庫県,豊岡市,416,但東町奥赤561栄垣弘氏所有土地(母屋向),栄垣弘氏所有土地（母屋向）,35.4584759,135.032786,緯度経度は怪しい
兵庫県,豊岡市,417,但東町赤花257橋本好雄氏敷地(民俗資料館跡地)フェンス,橋本好雄氏敷地（民俗資料館跡地）フェンス,35.4850479,135.0281196,緯度経度は怪しい
兵庫県,豊岡市,418,但東町赤花192-3本田重美氏倉庫,本田重美氏倉庫,35.4811934,135.004648,緯度経度は怪しい
兵庫県,豊岡市,419,但東町赤花1357-4大田和美代子氏所有畑(大田和美代子氏作業場隣),大田和美代子氏所有畑（大田和美代子氏作業場隣）,35.4850479,135.0281196,緯度経度は怪しい
兵庫県,豊岡市,420,但東町赤花758赤花農村公園フェンス,赤花農村公園フェンス,35.4850479,135.0281196,緯度経度は怪しい
兵庫県,豊岡市,421,但東町坂津303-4新野夕美子宅前宮本橋側,新野夕美子宅前宮本橋側,35.4673355,135.0093694,緯度経度は怪しい
兵庫県,豊岡市,422,但東町坂津86-2坂津加圧ポンプ場フェンス,坂津加圧ポンプ場フェンス,35.4673355,135.0093694,緯度経度は怪しい
兵庫県,豊岡市,423,但東町太田294-5市道太田虫生線国道482号線交差点付近,市道太田虫生線国道482号線交差点付近,35.499453,134.9812474,緯度経度は怪しい
兵庫県,豊岡市,424,但東町太田74-3渡邉保人氏倉庫(太田旧消防車庫)敷地,渡邉保人氏倉庫（太田旧消防車庫）敷地,35.499453,134.9812474,緯度経度は怪しい
兵庫県,豊岡市,425,但東町木村470木村公民館,木村公民館,35.4980159,134.9650011,緯度経度は怪しい
兵庫県,豊岡市,426,但東町日向93上垣實氏所有土蔵,上垣實氏所有土蔵,35.495346,134.9796816,
兵庫県,豊岡市,427,但東町東里86-1東里公民館敷地,東里公民館敷地,35.4850471,134.9695371,
兵庫県,豊岡市,428,但東町西野々232-1西野々公民館敷地,西野々公民館敷地,35.5015166,134.9718948,緯度経度は怪しい
兵庫県,豊岡市,429,但東町高龍寺360高龍寺集会所敷地,高龍寺集会所敷地,35.5116431,134.9718632,緯度経度は怪しい
兵庫県,豊岡市,430,但東町畑1151付近大野防火水槽フェンス,大野防火水槽フェンス,35.4385387,134.9250951,緯度経度は怪しい
兵庫県,豊岡市,431,但東町畑426-5市道矢根畑甲線市道敷,市道矢根畑甲線市道敷,35.4385387,134.9250951,緯度経度は怪しい
兵庫県,豊岡市,432,但東町畑294-1畑公民館敷地,畑公民館敷地,35.4426944,134.9246921,緯度経度は怪しい
兵庫県,豊岡市,433,但東町水石水石防火水槽フェンス,水石防火水槽フェンス,35.4512735,134.919975,緯度経度は怪しい
兵庫県,豊岡市,434,但東町矢根542-1衣川忠良氏宅前市道敷,衣川忠良氏宅前市道敷,35.4548642,134.9306852,
兵庫県,豊岡市,435,但東町矢根69大岸弘氏宅石垣,大岸弘氏宅石垣,35.463197,134.9300816,緯度経度は怪しい
兵庫県,豊岡市,436,但東町矢根1072大石将氏敷地(旧矢根郵便局横),大石将氏敷地（旧矢根郵便局横）,35.4645527,134.9294111,
兵庫県,豊岡市,437,但東町矢根1248-2市営住宅矢根団地法面,市営住宅矢根団地法面,35.4642936,134.9302332,緯度経度は怪しい
兵庫県,豊岡市,438,但東町奥矢根377-3高齢者生活支援センタ-「きずな」前広場(左側),高齢者生活支援センター「きずな」前広場（左側）,35.4790484,134.9265347,緯度経度は怪しい
兵庫県,豊岡市,439,但東町出合市場14-6出合市場公会堂前,出合市場公会堂前,35.4625106,134.9344261,緯度経度は怪しい
兵庫県,豊岡市,440,但東町出合市場420-1合格認定こども園フェンス,合格認定こども園フェンス,35.4628876,134.9391055,
兵庫県,豊岡市,441,但東町口殿46森井正彦氏所有土地(牛舎向),森井正彦氏所有土地（牛舎向）,35.4850518,134.9906268,緯度経度は怪しい
兵庫県,豊岡市,442,但東町河本538-1岡本三智夫氏所有地(田),岡本三智夫氏所有地（田）,35.4417696,134.9453302,緯度経度は怪しい
兵庫県,豊岡市,443,但東町河本799-1松岡照夫氏作業場,松岡照夫氏作業場,35.4407671,134.9485002,
兵庫県,豊岡市,444,但東町西谷289-1西谷広場フェンス,西谷広場フェンス,35.4186551,134.9438471,緯度経度は怪しい
兵庫県,豊岡市,445,但東町西谷7千原一晃氏所有地(田),千原一晃氏所有地（田）,35.434457,134.9496719,緯度経度は怪しい
兵庫県,豊岡市,446,但東町天谷222田中正夫氏所有地(田),田中正夫氏所有地（田）,35.4275066,134.9625571,緯度経度は怪しい
兵庫県,豊岡市,447,但東町天谷124森田康夫氏所有地(田),森田康夫氏所有地（田）,35.4275066,134.9625571,緯度経度は怪しい
兵庫県,豊岡市,448,但東町小谷332市営住宅小谷団地敷地,市営住宅小谷団地敷地,35.4631409,134.9583909,緯度経度は怪しい
兵庫県,豊岡市,449,但東町相田202相田交流館なつつばき敷地,相田交流館なつつばき敷地,35.4574079,134.9608603,緯度経度は怪しい
兵庫県,豊岡市,450,但東町相田999付近衣川糸江氏所有地(山林),衣川糸江氏所有地（山林）,35.4465049,134.9673328,緯度経度は怪しい
兵庫県,豊岡市,451,但東町佐々木西敏成氏所有農機具倉庫前,西敏成氏所有農機具倉庫前,35.4297234,134.9812776,緯度経度は怪しい
兵庫県,豊岡市,452,但東町佐々木565-1樫本好道氏所有地県道向い,樫本好道氏所有地県道向い,35.4297234,134.9812776,緯度経度は怪しい
兵庫県,豊岡市,453,但東町南尾176-1川建工業(株)フェンス,川建工業㈱フェンス,35.4674676,134.945695,
兵庫県,豊岡市,454,但東町出合106JAたじま但東支店倉庫,JAたじま但東支店倉庫,35.469603,134.947722,
兵庫県,豊岡市,455,但東町出合66-2但東中央体育館駐車場,但東中央体育館駐車場,35.4713214,134.9489855,
兵庫県,豊岡市,456,但東町三原1-13市道三原唐川線(482交差点付近)山側法面,市道三原唐川線（482交差点付近）山側法面,35.4806121,134.957825,緯度経度は怪しい
兵庫県,豊岡市,457,但東町三原523-3高齢者生活支援センタ-「みはら」前市有地,高齢者生活支援センター「みはら」前市有地,35.4790946,134.9530007,
兵庫県,豊岡市,458,但東町唐川186-1唐川バス停(横),唐川バス停（横）,35.5005452,134.9437407,緯度経度は怪しい
兵庫県,豊岡市,459,但東町唐川849-1太田恒則氏自宅敷地,太田恒則氏自宅敷地,35.5005452,134.9437407,緯度経度は怪しい
兵庫県,豊岡市,460,但東町正法寺1但東スポ-ツ公園駐車場法面(数森石材側),但東スポーツ公園駐車場法面（数森石材側）,35.4606901,134.9663597,緯度経度は怪しい
兵庫県,豊岡市,461,但東町正法寺271-6正法寺公民館敷地,正法寺公民館敷地,35.4609003,134.9723187,緯度経度は怪しい
兵庫県,豊岡市,462,但東町平田202-1水谷保昭氏所有畑(淀英明氏宅前右垣下),水谷保昭氏所有畑（淀英明氏宅前右垣下）,35.4501888,134.9843692,
兵庫県,豊岡市,463,但東町平田800-1平田創作館横広場フェンス,平田創作館横広場フェンス,35.4540549,134.9859503,緯度経度は怪しい
兵庫県,豊岡市,464,但東町栗尾932-1栗尾バス停上側歩道横市道敷,栗尾バス停上側歩道横市道敷,35.4407817,135.0093636,緯度経度は怪しい
兵庫県,豊岡市,465,但東町栗尾382-2田中ゆきゑ氏所有田(物置隣),田中ゆきゑ氏所有田（物置隣）,35.4426963,135.0054452,
兵庫県,豊岡市,466,但東町栗尾1179藤田正一氏所有畑(松本真之氏宅上市場迄南),藤田正一氏所有畑（松本真之氏宅上市場迄南）,35.4407817,135.0093636,緯度経度は怪しい
兵庫県,豊岡市,467,但東町佐田951-1石坪稔氏所有畑(国道沿自動販売機東側),石坪稔氏所有畑（国道沿自動販売機東側）,35.4275146,135,緯度経度は怪しい
兵庫県,豊岡市,468,但東町佐田706-1金子倫子氏所有雑種地(字下坪706-1),金子倫子氏所有雑種地（字下坪706-1）,35.4275146,135,緯度経度は怪しい
兵庫県,豊岡市,469,但東町久畑867-1高橋地区コミュニティセンタ-駐車場フェンス,高橋地区コミュニティセンター駐車場フェンス,35.418476,135.009318,緯度経度は怪しい
兵庫県,豊岡市,470,但東町久畑960-1堀井雄吾氏所有地(畑),堀井雄吾氏所有地（畑）,35.4164624,135.0093583,緯度経度は怪しい
兵庫県,豊岡市,471,但東町久畑799久畑関所跡駐車場,久畑関所跡駐車場,35.4172323,135.0110516,緯度経度は怪しい
兵庫県,豊岡市,472,但東町後81後公会堂フェンス,後公会堂フェンス,35.413465,135.006332,緯度経度は怪しい
兵庫県,豊岡市,473,但東町東中125-6東中公民館敷地,東中公民館敷地,35.4098339,134.9953215,緯度経度は怪しい
兵庫県,豊岡市,474,但東町小坂297-1小坂集会所敷地,小坂集会所敷地,35.3965808,134.995323,
兵庫県,豊岡市,475,但東町大河内895-1旬の里のぼりお敷地,旬の里のぼりお敷地,35.4219289,135.027651,緯度経度は怪しい
兵庫県,豊岡市,476,但東町大河内231-2杉山利則氏所有地,杉山利則氏所有地,35.418665,135.0374353,緯度経度は怪しい
兵庫県,豊岡市,477,但東町大河内568大河内区倉庫フェンス(公民館横),大河内区倉庫フェンス（公民館横）,35.418665,135.0374353,緯度経度は怪しい
兵庫県,豊岡市,478,但東町薬王寺16岡村公靖氏所有地(畑),岡村公靖氏所有地（畑）,35.436351,135.0374506,緯度経度は怪しい
兵庫県,豊岡市,479,但東町薬王寺315-1出尾集会所敷地,出尾集会所敷地,35.436351,135.0374506,緯度経度は怪しい
兵庫県,豊岡市,480,但東町薬王寺919-2大月昌彦氏所有地(畑),大月昌彦氏所有地（畑）,35.436351,135.0374506,緯度経度は怪しい
兵庫県,豊岡市,481,但東町薬王寺694-4宮内木炭倉庫,宮内木炭倉庫,35.436351,135.0374506,緯度経度は怪しい
