prefecture,city,number,address,name,lat,long,note
兵庫県,香美町,1,香住区境15-3,一本松南交差点ガードレール 消防署筋の信号横,35.6509643,134.644805,緯度経度は怪しい
兵庫県,香美町,2,香住区境455-3,旧香住高校若潮寮フェンス 消防器具箱横,35.6509643,134.644805,緯度経度は怪しい
兵庫県,香美町,3,香住区境1104,境住宅2号棟フェンス 境浜側,35.6471044,134.638864,
兵庫県,香美町,4,香住区一日市165,長福寺前の駐車場フェンス 伊賀通隆様所有,35.6482677,134.6324417,
兵庫県,香美町,5,香住区一日市446,畑中肇様宅隣空地のフェンス,35.6466457,134.6358365,
兵庫県,香美町,6,香住区一日市316,消防詰所（壁面）,35.6470682,134.632801,緯度経度は怪しい
兵庫県,香美町,7,香住区若松676-34,北長酒店の横の角の住宅 植田栄助様所有,35.6459817,134.6320503,
兵庫県,香美町,8,香住区若松723-4,若松コミニティーセンター横 植木,35.643781,134.6323414,
兵庫県,香美町,9,香住区若松711-9,但馬漁協冷蔵庫空地 喫茶ピエロ斜前,35.64378430000001,134.6311084,
兵庫県,香美町,10,香住区若松489,山手第1公園 歩道柵,35.6442276,134.6319248,
兵庫県,香美町,11,香住区若松540,香住病院入口 川沿い,35.6442276,134.6319248,緯度経度は怪しい
兵庫県,香美町,12,香住区香住1831,田淵義親様宅の塀,35.64259260000001,134.6315397,
兵庫県,香美町,13,香住区香住80-1,香住谷川 橋の欄干 松岡塗装店下る,35.6399825,134.6319171,
兵庫県,香美町,14,香住区香住102-2,町英語助手職員住宅の塀 文化会館東隣,35.639219,134.6303928,
兵庫県,香美町,15,香住区香住1702,旧成田医院横川沿いのごみ置場フェンス,35.637969,134.6289563,
兵庫県,香美町,16,香住区香住1595-3,旧役場跡地フェンス バス停付近,35.6381478,134.6271541,
兵庫県,香美町,17,香住区香住1595-9,香住小学校南門側のフェンス,35.6378757,134.6267112,
兵庫県,香美町,18,香住区香住1595-9,香住小学校体育館裏側のフェンス 香住小学校裏・中道,35.6378757,134.6267112,
兵庫県,香美町,19,香住区香住1559,香住警部派出所横の新道路の歩道花壇,35.6391204,134.627881,
兵庫県,香美町,20,香住区香住1731-3,荒木その様宅の塀 中道,35.6403012,134.6293309,
兵庫県,香美町,21,香住区香住1541,しおかぜ香苑駐車場の植え込み 産業道路歩道沿い,35.6396793,134.6289382,
兵庫県,香美町,22,香住区七日市234,クボタ営業所前歩道柵 国道178号沿い,35.6373621,134.6202025,
兵庫県,香美町,23,香住区七日市180-5,宇田茂夫様宅の塀 旧JA給油所前下りる三叉路,35.638398,134.6179226,
兵庫県,香美町,24,香住区七日市46,ムコネ自動車工業（有）様裏側のフェンス 民宿河谷様横,35.637154,134.6216602,
兵庫県,香美町,25,香住区七日市22,駅前駐車場フェンス,35.6360375,134.622634,緯度経度は怪しい
兵庫県,香美町,26,香住区香住1281-1,香美町保健センター,35.6365761,134.6249234,
兵庫県,香美町,27,香住区香住1311,上田様宅の塀 区内四差路,35.6370012,134.6248834,
兵庫県,香美町,28,香住区香住1622-1,日本キリスト教団香住協会横空地,35.6360628,134.6268357,
兵庫県,香美町,29,香住区香住870-1,香美町役場駐車場内,35.6320576,134.6292207,緯度経度は怪しい
兵庫県,香美町,30,香住区香住826-1,小川サヨ子様所有の畑 久保鉄工所東側,35.6348913,134.6289436,
兵庫県,香美町,31,香住区香住853,旧正垣医院専用駐車場フェンス 一中登校路,35.6340191,134.6272204,
兵庫県,香美町,32,香住区香住1170-2,岩崎樹由様宅横のフェンス 香住板金塗装工業所,35.63179179999999,134.6242868,緯度経度は怪しい
兵庫県,香美町,33,香住区油良309-4,油良区入口道路の低い方のフェンス,35.6314865,134.6205282,
兵庫県,香美町,34,香住区間室101-1,町道狭間加鹿野線沿 間室 鎌田はじめ様宅東,35.6283658,134.6200618,
兵庫県,香美町,35,香住区森499,町営住宅内公園前のフェンス 西山工務店様所有,35.6285661,134.6228819,緯度経度は怪しい
兵庫県,香美町,36,香住区森404-1,小野木和也様宅の塀,35.6263936,134.6241718,
兵庫県,香美町,37,香住区森863-1,大乗寺入口横の水路の柵 応挙前食堂の向かい側,35.6263977,134.6285498,
兵庫県,香美町,38,香住区守柄64-1,守柄の区内道路のツルカノ橋の欄干 守柄口,35.6211783,134.6221017,緯度経度は怪しい
兵庫県,香美町,39,香住区守柄1422,守柄区子供広場,35.6195427,134.6165347,緯度経度は怪しい
兵庫県,香美町,40,香住区加鹿野1,県道筋歩道の欄干,35.6207816,134.6267708,緯度経度は怪しい
兵庫県,香美町,41,香住区加鹿野1,香住自動車教習所 フェンス,35.6207816,134.6267708,緯度経度は怪しい
兵庫県,香美町,42,香住区矢田109,谷脇勝之様所有の倉庫前空地 矢田橋西、坂下,35.638358,134.6144013,
兵庫県,香美町,43,香住区矢田916-1,香住高校バス停横橋の欄干 谷脇徹様宅斜め前,35.6410252,134.6112406,緯度経度は怪しい
兵庫県,香美町,44,香住区下浜657,民宿「笹屋」横の空地 宿院勝已様所有,35.6422019,134.6121326,
兵庫県,香美町,45,香住区下浜653-16,川本屋斜め前(下浜の方)の歩道ガードレール,35.642398,134.6111416,
兵庫県,香美町,46,香住区下浜797-1,民宿「ひさや」の斜め前の橋のガードレール,35.6455218,134.6132633,
兵庫県,香美町,47,香住区下浜868,濱上安英様宅の塀 浜上酒店様,35.6447008,134.6124071,
兵庫県,香美町,48,香住区下浜770-4,香住高校艇庫フェンス,35.6485659,134.6048384,緯度経度は怪しい
兵庫県,香美町,49,香住区丹生地259,消防格納庫付近 町道沿い,35.6332454,134.6708146,緯度経度は怪しい
兵庫県,香美町,50,香住区西下岡173,下岡橋歩道橋西詰,35.62747299999999,134.677493,緯度経度は怪しい
兵庫県,香美町,51,香住区下岡507,奥佐津コミュニティ・テニスコートのフェンス,35.6260653,134.6787485,
兵庫県,香美町,52,香住区下岡766,下岡区広場の斜め前方の畑 安田裕至様所有,35.6239968,134.6798988,緯度経度は怪しい
兵庫県,香美町,53,香住区上岡89,旧森川そよ様宅の塀 奥佐津郵便局前,35.6224212,134.67579,緯度経度は怪しい
兵庫県,香美町,54,香住区上岡114-1,上岡区公民館前,35.6217092,134.6756073,緯度経度は怪しい
兵庫県,香美町,55,香住区隼人215-1,隼人区消防格納庫 隼人区多目的集会所横,35.6210434,134.6741353,緯度経度は怪しい
兵庫県,香美町,56,香住区隼人288,小松一夫様使用の住宅の塀 区公民館東行約100m,35.6200145,134.6740366,緯度経度は怪しい
兵庫県,香美町,57,香住区畑307,畑区内道路入口 フェンス,35.6027091,134.6723315,緯度経度は怪しい
兵庫県,香美町,58,香住区畑353,吉田育雄様の車庫脇空地 区内道路中程,35.6015746,134.6726048,緯度経度は怪しい
兵庫県,香美町,59,香住区畑500,小松義昭様所有の倉庫 県道筋,35.6006454,134.6740889,緯度経度は怪しい
兵庫県,香美町,60,香住区畑496,畑区会館のフェンス,35.600195,134.6736722,緯度経度は怪しい
兵庫県,香美町,61,香住区三川63,大梶コミュニティのフェンス,35.5915384,134.6614852,緯度経度は怪しい
兵庫県,香美町,62,香住区三川314,旧奥佐津小学校三川分校,35.5741709,134.648019,緯度経度は怪しい
兵庫県,香美町,63,香住区三川173,県道と集落道との交差点前ガードレール,35.5724814,134.6463509,緯度経度は怪しい
兵庫県,香美町,64,香住区土生189,全但バス停付近町道ガードレール 区内入口,35.5911007,134.6962591,
兵庫県,香美町,65,香住区土生259,区の町道ガードレール 土生区会館奥50m,35.5887935,134.6950581,
兵庫県,香美町,66,香住区九斗103,九斗区子供の広場フェンス,35.6431279,134.6849057,緯度経度は怪しい
兵庫県,香美町,67,香住区米地189-1,八木稔様宅横の消火栓の向かい側道路沿い,35.6389204,134.6894413,緯度経度は怪しい
兵庫県,香美町,68,香住区訓谷339,佐津小学校グラウンドフェンス 佐津地区公民館向かい側,35.6511415,134.6918492,
兵庫県,香美町,69,香住区訓谷345-1,佐津小学校駐車場フェンス 滝本電気向かい側,35.6536709,134.6914036,緯度経度は怪しい
兵庫県,香美町,70,香住区無南垣165,佐津診療所前,35.6527697,134.6846335,
兵庫県,香美町,71,香住区無南垣760,亀田巻子様宅の塀 長谷寺の先約50m東入る,35.6553693,134.6871096,緯度経度は怪しい
兵庫県,香美町,72,香住区無南垣186-1,JR佐津駅前広場 広場入り口右角,35.6534455,134.6851634,
兵庫県,香美町,73,香住区奥安木525,ゴミ収納庫横,35.6308896,134.637916,緯度経度は怪しい
兵庫県,香美町,74,香住区奥安木490,奥安木区公民館前広場 奥安木構造改善センター前広場,35.6308896,134.637916,緯度経度は怪しい
兵庫県,香美町,75,香住区浜安木1600,奥安木行町道沿いゴミ収納庫横,35.6308896,134.637916,緯度経度は怪しい
兵庫県,香美町,76,香住区浜安木1564-1,香住久美浜線より区内入口付近の歩道柵 空き地前の歩道柵,35.6308896,134.637916,緯度経度は怪しい
兵庫県,香美町,77,香住区相谷143-1,民宿ぬまた駐車場,35.6579134,134.7176802,緯度経度は怪しい
兵庫県,香美町,78,香住区相谷175,相谷区会館,35.6579134,134.7176802,緯度経度は怪しい
兵庫県,香美町,79,香住区浦上1278,藤原惣一郎様宅前のガードレール 藤原久嗣様宅の横で川沿い,35.6475526,134.6630482,
兵庫県,香美町,80,香住区浦上1135-3,浦上区入口付近の駐車場横の農地 国道沿い,35.6478719,134.6611958,
兵庫県,香美町,81,香住区上計2-4,柴山保育所のフェンス,35.6502216,134.6595125,
兵庫県,香美町,82,香住区上計1157-3,柴山地区公民館前,35.65089529999999,134.6582438,
兵庫県,香美町,83,香住区上計1262,森本神社前の川向う町道フェンス,35.64924310000001,134.6581533,緯度経度は怪しい
兵庫県,香美町,84,香住区沖浦911-3,但馬漁協柴山支所の敷地 国道広告塔,35.6537077,134.659631,緯度経度は怪しい
兵庫県,香美町,85,香住区沖浦992-19,沖浦信号機から町道を北に20m,35.6577139,134.6572964,
兵庫県,香美町,86,香住区沖浦1043,小西信彦様宅の庭塀 区内食料品店斜め前,35.6588607,134.6578147,緯度経度は怪しい
兵庫県,香美町,87,香住区三谷542,清水幸信様所有車庫,35.6134123,134.6274493,緯度経度は怪しい
兵庫県,香美町,88,香住区三谷808-2,大谷口バス停横の歩道柵 大谷口信号北側の停留所,35.6119311,134.6286739,緯度経度は怪しい
兵庫県,香美町,89,香住区大谷125,松井正様所有の畑 大谷橋から約200m・神社道との三叉路,35.6042027,134.6428385,緯度経度は怪しい
兵庫県,香美町,90,香住区大谷89-1,榎秀俊様所有車庫の横,35.6033525,134.6332369,緯度経度は怪しい
兵庫県,香美町,91,香住区大野86-1,長井小学校入口 フェンス,35.6055367,134.6204456,緯度経度は怪しい
兵庫県,香美町,92,香住区大野391-1,大野区内四つ角歩道脇ガードレール,35.6008988,134.617484,緯度経度は怪しい
兵庫県,香美町,93,香住区小原342,小原自治会会館 駐車場横を入る,35.6010643,134.610877,緯度経度は怪しい
兵庫県,香美町,94,香住区小原736,林田登様宅横空き地,35.6084489,134.5958043,緯度経度は怪しい
兵庫県,香美町,95,香住区中野288,中野区会館前の敷地,35.5884345,134.6119258,
兵庫県,香美町,96,香住区藤191,藤橋東詰,35.5840126,134.6095003,緯度経度は怪しい
兵庫県,香美町,97,香住区八原535,北脇勇治様所有の土蔵 県道筋、区の北寄り,35.5818766,134.6057071,緯度経度は怪しい
兵庫県,香美町,98,香住区八原480,八原区公園フェンス,35.5807957,134.6066782,緯度経度は怪しい
兵庫県,香美町,99,香住区余部1069-4(市千),電話局機械室付近の歩道沿いフェンス 国道沿い・谷口食堂横,35.6414413,134.5648269,緯度経度は怪しい
兵庫県,香美町,100,香住区余部1137(市千),中村さくゑ様所有の精米所 市千一梶原線,35.6432074,134.5644798,緯度経度は怪しい
兵庫県,香美町,101,香住区余部1304(梶原),梶原区公民館斜め前方の道路ガードレール,35.6455705,134.563171,
兵庫県,香美町,102,香住区余部1568-3(浜),小学校入口横の歩道柵 公民館横,35.6477322,134.5606878,
兵庫県,香美町,103,香住区余部1710-2(浜),空の駅公園前ガードパイプ 浜一西線、町民バス バス停横,35.6392214,134.6291066,緯度経度は怪しい
兵庫県,香美町,104,香住区余部1810-1(西),千崎密夫様宅の塀,35.65028450000001,134.5574167,
兵庫県,香美町,105,香住区余部1857-2(西),藤原千代子様の車庫の壁板,35.6496647,134.5569853,
兵庫県,香美町,106,香住区余部2052(西),山崎洋様宅前のガードレール,35.64655570000001,134.5520774,緯度経度は怪しい
兵庫県,香美町,107,香住区余部2988(御崎),御崎分校手前 ガードレール,35.6629406,134.5450922,
兵庫県,香美町,108,香住区余部2955(御崎),消防格納庫前の広場で北側フェンス,35.6630335,134.5439317,
兵庫県,香美町,109,香住区鎧202,鎧区内 古紙類集積所 空き地,35.648756,134.57873,緯度経度は怪しい
兵庫県,香美町,110,香住区鎧347,鎧下水道処理場のフェンス,35.6519842,134.576267,
兵庫県,香美町,111,香住区鎧410-12,JR鎧駅 町道のガードレール 鎧駅左前方,35.6516917,134.5749563,緯度経度は怪しい
兵庫県,香美町,112,村岡区境,境大橋西詰 欄干,35.5640511,134.6103038,緯度経度は怪しい
兵庫県,香美町,113,村岡区山田,山田口橋山田側 県道山田日高線,35.5463065,134.6151566,緯度経度は怪しい
兵庫県,香美町,114,村岡区山田87-1,山田浄化センター進入路上側畑,35.5463065,134.6151566,緯度経度は怪しい
兵庫県,香美町,115,村岡区山田140,本田良江様宅前（山田体育館） 石垣,35.5463065,134.6151566,緯度経度は怪しい
兵庫県,香美町,116,村岡区山田123,町民バス山田バス停付近,35.5463065,134.6151566,緯度経度は怪しい
兵庫県,香美町,117,村岡区山田1663-1,吉田常喜様宅の塀,35.551326,134.5994552,緯度経度は怪しい
兵庫県,香美町,118,村岡区長瀬359-10,谷渕一夫様宅横,35.5588123,134.5807615,緯度経度は怪しい
兵庫県,香美町,119,村岡区長瀬233-1,ごみステーション横空地,35.5568009,134.5773111,緯度経度は怪しい
兵庫県,香美町,120,村岡区原122-1,旧原消防車庫前,35.548526,134.5646828,緯度経度は怪しい
兵庫県,香美町,121,村岡区原410-7,山居隆一様宅前 防火水槽フェンス,35.5509877,134.5661431,緯度経度は怪しい
兵庫県,香美町,122,村岡区味取828-1,原郵便局前 県道川側法面,35.5454733,134.5646255,緯度経度は怪しい
兵庫県,香美町,123,村岡区味取833,岡本弘様宅横 ガードレール,35.5372562,134.5776996,緯度経度は怪しい
兵庫県,香美町,124,村岡区味取774,今後源治様宅裏 ガードレール,35.5452595,134.5630832,緯度経度は怪しい
兵庫県,香美町,125,村岡区長須,長須大橋東詰 欄干,35.5260702,134.5590448,
兵庫県,香美町,126,村岡区長須,長須大ノ谷橋 欄干,35.5260702,134.5590448,
兵庫県,香美町,127,村岡区高津772-2,高津バス停横 ガードレール,35.5122994,134.5692383,緯度経度は怪しい
兵庫県,香美町,128,村岡区川会13-1,いそうの花付近 転落防止策,35.4999786,134.5732388,緯度経度は怪しい
兵庫県,香美町,129,村岡区川会,川会仲橋 欄干,35.4995085,134.5686915,緯度経度は怪しい
兵庫県,香美町,130,村岡区入江468-2,和佐父公会堂付近 ガードレール,35.4884519,134.5734886,緯度経度は怪しい
兵庫県,香美町,131,村岡区丸味667-1,長瀬光吉様宅横 石垣,35.5060883,134.5545595,緯度経度は怪しい
兵庫県,香美町,132,村岡区和田265,小城区駐車場,35.4950416,134.5617046,緯度経度は怪しい
兵庫県,香美町,133,村岡区和田239-1,和田運動場,35.4950416,134.5617046,緯度経度は怪しい
兵庫県,香美町,134,村岡区和田140,野村六合司様宅横 ガードレール,35.4950416,134.5617046,緯度経度は怪しい
兵庫県,香美町,135,村岡区入江1708-3,入江公会堂前 石垣,35.4937726,134.569085,緯度経度は怪しい
兵庫県,香美町,136,村岡区長板,長板裏橋東詰 集落の下流側の橋,35.490551,134.5500323,緯度経度は怪しい
兵庫県,香美町,137,村岡区村岡2914-3,湯舟大橋欄干西詰 歩道側欄干,35.4673464,134.6000782,緯度経度は怪しい
兵庫県,香美町,138,村岡区長板300-1,長板橋欄干 集落の上流側の橋,35.490551,134.5500323,緯度経度は怪しい
兵庫県,香美町,139,村岡区熊波768-1,旧南部孝春様宅前 石垣,35.4910031,134.5340419,緯度経度は怪しい
兵庫県,香美町,140,村岡区熊波1532-1,熊波区公民館周辺 県道法面,35.4898268,134.5331748,緯度経度は怪しい
兵庫県,香美町,141,村岡区熊波610-2(祖岡),祖岡子育て・子育ち支援センター入口 フェンス,35.4838321,134.536043,緯度経度は怪しい
兵庫県,香美町,142,村岡区祖岡1534-1,岸本宏様宅前 ガードレール,35.4842152,134.6157083,緯度経度は怪しい
兵庫県,香美町,143,村岡区祖岡642-1,祖岡駐車場前 石垣,35.4842152,134.6157083,緯度経度は怪しい
兵庫県,香美町,144,村岡区祖岡873-1,祖岡下バス停前 ガードレール,35.4842152,134.6157083,緯度経度は怪しい
兵庫県,香美町,145,村岡区用野490,屋外スピーカー設置柱前コンクリートブロック,35.4863034,134.5875697,
兵庫県,香美町,146,村岡区鹿田8-6,町道大河原線終点 ガードレール,35.4751848,134.5783047,
兵庫県,香美町,147,村岡区村岡340-1（新町）,古家利通様宅前 ブロック塀,35.472699,134.5919791,緯度経度は怪しい
兵庫県,香美町,148,村岡区村岡306-1（中西）,老人福祉センター前 花壇,35.4716878,134.5940205,緯度経度は怪しい
兵庫県,香美町,149,村岡区村岡226（西本町）,藤沢君江様所有車庫横の畑,35.47089820000001,134.593829,緯度経度は怪しい
兵庫県,香美町,150,村岡区村岡323（西本町）,西本町団地（第1種）横 フェンス,35.4713366,134.5913725,緯度経度は怪しい
兵庫県,香美町,151,村岡区村岡400-1（川上）,村岡地域局裏駐車場法面 国道482号沿い,35.4842152,134.6157083,
兵庫県,香美町,152,村岡区村岡2324-1（殿町）,まほろば前 花壇,35.4719963,134.5961883,緯度経度は怪しい
兵庫県,香美町,153,村岡区村岡2514（東中）,吉岡弘様宅 塀左側,35.4705537,134.596737,緯度経度は怪しい
兵庫県,香美町,154,村岡区村岡2584（野々上）,全但バス村岡営業所北隣 空地,35.4842152,134.6157083,
兵庫県,香美町,155,村岡区村岡3036-1（東上）,公立村岡病院入口付近 町道歩道フェンス,35.4681844,134.5978206,緯度経度は怪しい
兵庫県,香美町,156,村岡区村岡276-2（福西）,西垣久美子様宅横 ガードレール,35.4710536,134.5935863,緯度経度は怪しい
兵庫県,香美町,157,村岡区大棟318,岡昭三様宅入り口 空地,35.4842152,134.6157083,緯度経度は怪しい
兵庫県,香美町,158,村岡区大棟132-31（光陽）,光陽団地前 フェンス,35.4842152,134.6157083,緯度経度は怪しい
兵庫県,香美町,159,村岡区相田332-1,徳山悟様宅前 ガードレール,35.4619675,134.5924856,
兵庫県,香美町,160,村岡区神坂244-1,田中勝也様宅前の畑,35.4612317,134.5825706,緯度経度は怪しい
兵庫県,香美町,161,村岡区神坂,町道神坂入江線起点 欄干,35.4586026,134.5807868,緯度経度は怪しい
兵庫県,香美町,162,村岡区萩山264-1,萩山農事作業所,35.4560272,134.5728068,緯度経度は怪しい
兵庫県,香美町,163,村岡区萩山291,西村孝子様の農業倉庫,35.4553802,134.5730257,緯度経度は怪しい
兵庫県,香美町,164,村岡区板仕野130-1,板仕野バス停上,35.4409469,134.5713756,緯度経度は怪しい
兵庫県,香美町,165,村岡区板仕野188-4,田路寿昭様宅横の畑,35.4503543,134.5725055,緯度経度は怪しい
兵庫県,香美町,166,村岡区寺河内112-4,今岡豊春様宅横 ガードレール,35.45319,134.6013115,緯度経度は怪しい
兵庫県,香美町,167,村岡区寺河内75-1,防火水槽前 転落防止柵,35.4533982,134.6034623,緯度経度は怪しい
兵庫県,香美町,168,村岡区高井550,田中修二様宅 斜め前 町道防護柵,35.451115,134.6014204,緯度経度は怪しい
兵庫県,香美町,169,村岡区高井,高井大橋西詰 欄干,35.4520293,134.5949,
兵庫県,香美町,170,村岡区耀山604-4,県道耀山日高線起点 フェンス,35.4465829,134.6160423,
兵庫県,香美町,171,村岡区耀山,耀山 上水道中継ポンプ場柵,35.4465829,134.6160423,
兵庫県,香美町,172,村岡区市原86,中村弘明様宅 村岡側畑の横 歩道柵,35.4443503,134.6022431,緯度経度は怪しい
兵庫県,香美町,173,村岡区市原310-6,中村貴将様車庫横空き地,35.4420811,134.6020877,緯度経度は怪しい
兵庫県,香美町,174,村岡区作山,由利橋 欄干,35.420195,134.6395639,緯度経度は怪しい
兵庫県,香美町,175,村岡区日影709-1,西村寿様宅前 ブロック塀,35.4371917,134.6011395,緯度経度は怪しい
兵庫県,香美町,176,村岡区日影690,西村かね子様宅前の畑,35.4367124,134.6010649,緯度経度は怪しい
兵庫県,香美町,177,村岡区日影667,岩根賢也様の車庫横 歩道柵（川側）,35.4359178,134.60105,緯度経度は怪しい
兵庫県,香美町,178,村岡区日影647-5（宿）,西村敏明様の物置横 ガードレール,35.4334235,134.6015178,緯度経度は怪しい
兵庫県,香美町,179,村岡区宿44,上田喜彦様宅裏 ガードレール,35.434402,134.5949,緯度経度は怪しい
兵庫県,香美町,180,村岡区宿241,宿区集会所 斜め前 ガードレール,35.4343645,134.5993377,緯度経度は怪しい
兵庫県,香美町,181,村岡区日影647-5(宿),町道坂の上2号線起点,35.4334235,134.6015178,緯度経度は怪しい
兵庫県,香美町,182,村岡区黒田1036-2,黒田バス停横,35.4256132,134.6043065,緯度経度は怪しい
兵庫県,香美町,183,村岡区黒田171,山根操様車庫前,35.4237652,134.5990707,緯度経度は怪しい
兵庫県,香美町,184,村岡区福岡273-1,井上鈴江様宅横,35.4168622,134.6010136,緯度経度は怪しい
兵庫県,香美町,185,村岡区福岡346,井上節子様所有車庫前,35.4165438,134.5991992,緯度経度は怪しい
兵庫県,香美町,186,村岡区福岡394-1,白岩　寧様宅前,35.4150675,134.5993938,緯度経度は怪しい
兵庫県,香美町,187,村岡区福岡587-2,福岡町営住宅入口付近,35.4134114,134.5981428,緯度経度は怪しい
兵庫県,香美町,188,村岡区八井谷10-1,小谷広実様宅横,35.4057922,134.609009,緯度経度は怪しい
兵庫県,香美町,189,村岡区大野301,大野区公民館前,35.39802760000001,134.5925481,緯度経度は怪しい
兵庫県,香美町,190,村岡区森脇295-1,水垣精三郎様宅前の畑,35.4236469,134.5907841,緯度経度は怪しい
兵庫県,香美町,191,村岡区森脇302-1,森脇消防器具庫横,35.4175026,134.5947681,緯度経度は怪しい
兵庫県,香美町,192,村岡区和池,和池橋,35.4255319,134.5760814,緯度経度は怪しい
兵庫県,香美町,193,村岡区和池206-1,西上文雄様車庫前,35.4194053,134.5896746,緯度経度は怪しい
兵庫県,香美町,194,村岡区池ヶ平177-2,池ヶ平ポンプ庫横,35.4172837,134.5819631,緯度経度は怪しい
兵庫県,香美町,195,村岡区池ヶ平374-2(高坂),スノーシェルター横,35.4172837,134.5819631,緯度経度は怪しい
兵庫県,香美町,196,村岡区口大谷1282-2(高坂),藤原貞子様車庫,35.4100854,134.5713756,緯度経度は怪しい
兵庫県,香美町,197,村岡区口大谷507-2,口大谷下バス停横,35.4100854,134.5713756,緯度経度は怪しい
兵庫県,香美町,198,村岡区口大谷615-1,口大谷バス停横,35.4053876,134.5776671,緯度経度は怪しい
兵庫県,香美町,199,村岡区口大谷724,町道口大谷高坂線,35.4100854,134.5713756,緯度経度は怪しい
兵庫県,香美町,200,村岡区中大谷14-1,大谷子育て・子育ち支援センター横,35.4026888,134.5748202,緯度経度は怪しい
兵庫県,香美町,201,村岡区中大谷78,中大谷公民館前,35.4023431,134.571541,
兵庫県,香美町,202,村岡区大笹59,田丸さよ子様倉庫横,35.4067223,134.5549014,緯度経度は怪しい
兵庫県,香美町,203,村岡区大笹1029,田渕衛様宅蔵(道路側壁面),35.4139144,134.5535686,緯度経度は怪しい
兵庫県,香美町,204,村岡区大笹686-1,大笹ポンプ庫横,35.4067223,134.5549014,緯度経度は怪しい
兵庫県,香美町,205,小代区大谷58番地先,田野電気商会前,35.4538532,134.5349259,緯度経度は怪しい
兵庫県,香美町,206,小代区大谷571番1地先,香美町小代地域局前,35.4551479,134.5336322,緯度経度は怪しい
兵庫県,香美町,207,小代区大谷525番地先,石町住宅前,35.45327839999999,134.5322611,緯度経度は怪しい
兵庫県,香美町,208,小代区久須部123番地先,集会所横,35.4550727,134.5078005,緯度経度は怪しい
兵庫県,香美町,209,小代区城山272番1地先,旧民宿イヌワシ前,35.4574497,134.5356218,緯度経度は怪しい
兵庫県,香美町,210,小代区大谷148番1地先,小代郵便局前,35.4556915,134.5278242,緯度経度は怪しい
兵庫県,香美町,211,小代区野間谷399番地先,集落内三叉路,35.44800439999999,134.5419294,緯度経度は怪しい
兵庫県,香美町,212,小代区野間谷62番地先,朝倉様牛舎前の交差点,35.4474883,134.5478393,緯度経度は怪しい
兵庫県,香美町,213,小代区忠宮40番地の1地先,山本恵子様宅前,35.4446832,134.5325344,緯度経度は怪しい
兵庫県,香美町,214,小代区貫田62番地先,宮脇義明様宅の下,35.4386076,134.5290018,
兵庫県,香美町,215,小代区貫田228番1地先,集会所前,35.4380762,134.5312809,緯度経度は怪しい
兵庫県,香美町,216,小代区茅野660番1地先,バス停横,35.4209989,134.5384215,緯度経度は怪しい
兵庫県,香美町,217,小代区茅野453番地先,茅野町民バス停 ガードレール,35.4303666,134.5330943,緯度経度は怪しい
兵庫県,香美町,218,小代区平野245番地先,光明寺下 ガードレール,35.4380082,134.5376672,緯度経度は怪しい
兵庫県,香美町,219,小代区実山301番地先,実山町民バス停 ガードレール,35.4430312,134.5355877,緯度経度は怪しい
兵庫県,香美町,220,小代区実山79番地先,小代認定こども園下 ガードレール,35.4430312,134.5355877,緯度経度は怪しい
兵庫県,香美町,221,小代区秋岡1363番地先,秋岡バス停,35.4226064,134.5230583,緯度経度は怪しい
兵庫県,香美町,222,小代区秋岡654番地先,旧秋岡消防車庫前 ガードレール,35.4198224,134.5193133,緯度経度は怪しい
兵庫県,香美町,223,小代区秋岡528番地先,秋岡橋 欄干,35.4153333,134.4983747,緯度経度は怪しい
兵庫県,香美町,224,小代区新屋597番地先,田野元女様乾燥場,35.4157296,134.5251528,緯度経度は怪しい
兵庫県,香美町,225,小代区新屋765番2地先,古岡真己様宅横 ガードレール,35.3933066,134.5078005,緯度経度は怪しい
兵庫県,香美町,226,小代区東垣108番地先,大日堂下 ガードレール ガードレール,35.4260382,134.5208675,
兵庫県,香美町,227,小代区佐坊170番地先,地区旧集会所,35.4319065,134.5054442,緯度経度は怪しい
兵庫県,香美町,228,小代区鍛冶屋336番2地先,水間忠一様宅入口前 ガードレール,35.4287097,134.5233929,緯度経度は怪しい
兵庫県,香美町,229,小代区神水66番2地先,水間口バス停,35.4695021,134.5384215,
兵庫県,香美町,230,小代区水間101番1地先,旧小北へき地保育所,35.461754,134.5419108,緯度経度は怪しい
兵庫県,香美町,231,小代区猪之谷619番地先,岡田恭明様宅下 ガードレール,35.4550814,134.5494456,緯度経度は怪しい
兵庫県,香美町,232,小代区神場149番2地先,集会所前 ガードレール,35.456827,134.5563888,緯度経度は怪しい
兵庫県,香美町,233,小代区広井90番4地先,広井橋の欄干,35.4559626,134.5365005,緯度経度は怪しい
兵庫県,香美町,234,小代区石寺43番2地先,井口様牛舎横 防止柵,35.4772605,134.5501705,緯度経度は怪しい
兵庫県,香美町,235,小代区神水701-2,小代物産館バス停横 ガードレール,35.4695021,134.5384215,
兵庫県,香美町,236,小代区神水482番地先,神水バス停 ガードレール,35.4695021,134.5384215,
