prefecture,city,number,address,name,lat,long,note
東京都,調布市,01-1,小島町1-8-1,第一小学校東側フェンス,35.6551305,139.5436145,
東京都,調布市,01-2,小島町1-8-1,第一小学校南側フェンス,35.6551305,139.5436145,
東京都,調布市,01-3,調布ヶ丘1-18-84,天神北公園,35.6586488,139.5470939,
東京都,調布市,01-4,調布ヶ丘4-1-1,北多摩病院北側フェンス,35.6598823,139.5433441,
東京都,調布市,01-5,調布ヶ丘1-7,布多天神社西側駐車場前フェンス,35.6586488,139.5470939,
東京都,調布市,01-6,調布ヶ丘1-20-1,上布田保育園フェンス,35.6586488,139.5470939,
東京都,調布市,01-7,調布ヶ丘1-24-1,上布田公園東側道路沿,35.6586488,139.5470939,
東京都,調布市,01-8,調布ヶ丘1-18-88,調布ヶ丘一丁目緑地 (トヨタ調布社宅横),35.6586488,139.5470939,
東京都,調布市,02-1,国領町5-47,土方清一氏所有農地(国領町5-47) 道路沿い,35.64939560000001,139.5510925,
東京都,調布市,02-2,国領町4-55,国領町4丁目遊歩道,35.6475486,139.5579167,
東京都,調布市,02-3,国領町5-68-23,布田東路上自転車等駐車場フェンス,35.649736,139.5534065,
東京都,調布市,02-4,国領町4-19-1,第二小学校東側フェンス,35.6464118,139.5564686,
東京都,調布市,02-5,国領町4-19-1,第二小学校西側フェンス,35.6464118,139.5564686,
東京都,調布市,02-6,国領町4-19-1,第二小学校北側フェンス,35.6464118,139.5564686,
東京都,調布市,02-7,国領町4-40-14,国領南児童遊園,35.6475486,139.5579167,
東京都,調布市,02-8,国領町5-60,国領5丁目の畑東側,35.64939560000001,139.5510925,
東京都,調布市,03-1,上石原1-20-3,高速第2児童遊園旧道沿植込,35.6591532,139.5299087,
東京都,調布市,03-2,上石原1-20-3,高速第2児童遊園側道沿植込,35.6591532,139.5299087,
東京都,調布市,03-3,上石原1-40-1,恩田準一宅旧道沿フェンス,35.6578559,139.5314562,
東京都,調布市,03-4,上石原2-4-1,西調布体育館フェンス,35.6575369,139.5274761,
東京都,調布市,03-5,上石原2-15-6,西部地域福祉センターフェンス,35.6556159,139.5252752,
東京都,調布市,03-6,上石原2-19-13,第三小学校北側フェンス,35.6550332,139.5272439,
東京都,調布市,03-7,上石原2-47,若宮自然広場東側塀,35.6558333,139.5273632,
東京都,調布市,03-8,下石原3-30-5,調布市下石原市営住宅西側植込,35.652199,139.5310982,
東京都,調布市,04-1,小島町3-20-1,富士見台小学校東側フェンス,35.6480757,139.5371998,
東京都,調布市,04-2,小島町3-28-1,双葉保育園北側フェンス,35.6468029,139.5368626,
東京都,調布市,04-3,小島町3-44-1,調布たま川台住宅東側フェンス,35.6495147,139.5397928,
東京都,調布市,04-4,小島町3-56,調布台タブノキ公園,35.6478587,139.5388189,
東京都,調布市,04-5,多摩川5-1-2,多摩川児童館運動場西側フェンス,35.6458759,139.5379459,
東京都,調布市,04-6,多摩川5-3-6,多摩川五丁目児童遊園北側道路,35.6439069,139.5375459,
東京都,調布市,04-7,小島町3-2-3,富士見台公園,35.6499833,139.5370696,
東京都,調布市,04-8,小島町3-20-1,富士見台小学校北側フェンス,35.6480757,139.5371998,
東京都,調布市,05-1,八雲台1-1-1,八雲台小学校北東側角フェンス,35.6532884,139.5518535,
東京都,調布市,05-2,八雲台1-31-1,わかくさ仲よし広場,35.6554985,139.5531367,
東京都,調布市,05-3,八雲台1-42-1,八雲台公園,35.65402840000001,139.5540967,
東京都,調布市,05-4,八雲台2-16-1,第七中学校東側フェンス,35.6541878,139.5601914,
東京都,調布市,05-5,八雲台2-16-1,第七中学校体育館西側道路沿フェンス,35.6541878,139.5601914,
東京都,調布市,05-6,八雲台2-27-10,細田橋児童遊園,35.6541267,139.55674,
東京都,調布市,05-7,調布ヶ丘2-36,調布ヶ丘児童館北側公園,35.6547779,139.5502769,
東京都,調布市,05-8,調布ヶ丘2-36-1,調布ヶ丘児童館南側フェンス,35.6550207,139.5513063,
東京都,調布市,06-1,下石原1-12-1,遠州屋材木店西側畑,35.6568544,139.538441,
東京都,調布市,06-2,下石原1-15,都営下石原第二アパート自転車置場北側,35.6564774,139.538961,
東京都,調布市,06-3,下石原1-16-3,あおぞら公園南側,35.6568544,139.538441,
東京都,調布市,06-4,下石原1-26-6,熊澤兼夫宅南側道路沿塀,35.6559243,139.5366694,
東京都,調布市,06-5,下石原1-36-1,源正寺北側塀,35.6561723,139.5327427,
東京都,調布市,06-6,下石原2-54-2,ターザン児童遊園南側フェンス,35.6533792,139.536641,
東京都,調布市,06-7,小島町2-58,小島町2丁目遊歩道,35.6511788,139.5413649,
東京都,調布市,07-1,深大寺元町2-40-10,南深大寺児童遊園,35.6642602,139.5496403,
東京都,調布市,07-2,深大寺元町5-17,青渭神社東植物公園駐車場前植込,35.670106,139.5470939,
東京都,調布市,07-3,深大寺元町5-31,神代植物公園通自由広場前,35.670106,139.5470939,
東京都,調布市,07-4,深大寺元町5-37,神代植物公園管理事務所前植込,35.6722671,139.5460197,
東京都,調布市,07-5,深大寺元町5-32-2,神明児童遊園,35.6697653,139.5449653,
東京都,調布市,07-6,深大寺南町5-9-2,絵堂第一仲よし広場,35.6663687,139.5575885,
東京都,調布市,07-7,深大寺南町5-56-1,深大寺給水所フェンス,35.6693077,139.5555141,
東京都,調布市,08-1,深大寺東町3-3,篠宮郁男宅東側共同住宅駐車場フェンス,35.6679401,139.5630106,
東京都,調布市,08-2,柴崎2-6-6,上ノ原公園東側,35.6627247,139.5642841,
東京都,調布市,08-3,柴崎2-13,業務スーパー前植樹帯,35.6611641,139.5651198,
東京都,調布市,08-4,柴崎2-26-1,上ノ原小学校西側フェンス,35.6634166,139.5630647,
東京都,調布市,08-5,柴崎2-26-1,上ノ原小学校東側通用門横フェンス,35.6634166,139.5630647,
東京都,調布市,08-6,柴崎2-8-6,宮の上児童遊園,35.6627247,139.5642841,
東京都,調布市,08-7,佐須町5-26-1,神代中学校正門前横フェンス,35.6612779,139.5617106,
東京都,調布市,08-8,深大寺東町2-23-1,深大寺東仲よし広場東側フェンス,35.6682255,139.5618216,
東京都,調布市,09-1,西つつじケ1-3,小林駐車場フェンス,35.6581118,139.5753087,
東京都,調布市,09-2,西つつじケ3-18-3,石井氏所有生産緑地,35.6581118,139.5753087,
東京都,調布市,09-3,西つつじケ1-40-5,神代保育園フェンス,35.6581118,139.5753087,
東京都,調布市,09-4,西つつじケ1-50,ダンディ理容室前駐車場フェンス,35.6581118,139.5753087,
東京都,調布市,09-5,西つつじケ1-57-105,けやき児童遊園道路沿,35.6581118,139.5753087,
東京都,調布市,09-6,西つつじケ3-3-8,西つつじヶ丘児童遊園,35.6581118,139.5753087,
東京都,調布市,09-7,西つつじケ1-16,小林園芸温室道路沿,35.6581118,139.5753087,
東京都,調布市,09-8,西つつじケ1-40-22,西つつじヶ丘第一仲よし広場,35.6581118,139.5753087,
東京都,調布市,10-1,仙川町1-4-1,仙川第二仲よし広場,35.6611473,139.5859382,
東京都,調布市,10-2,仙川町1-29,仙川駅前公園,35.6611473,139.5859382,
東京都,調布市,10-3,仙川町1-54,伊藤新市氏所有農地道路沿い,35.6611473,139.5859382,
東京都,調布市,10-4,若葉町2-2,アサヒグループ食品(株)仙川事務所入口横フェンス,35.65759,139.5884862,
東京都,調布市,10-5,若葉町1-29-21,東部児童館フェンス,35.6579655,139.5831115,
東京都,調布市,10-6,若葉町1-41-1,桐朋学園東側歩道フェンス(管財棟前),35.6598908,139.5836302,
東京都,調布市,10-7,若葉町2-4,都営調布若葉町二丁目アパートフェンス,35.65759,139.5884862,
東京都,調布市,10-8,若葉町2-12-8,若葉町二丁目緑地,35.65759,139.5884862,
東京都,調布市,11-1,深大寺東町6-10,田村有料月額駐車場西側フェンス,35.6747525,139.5576285,
東京都,調布市,11-2,深大寺東町1-31,株式会社調布清掃 第6車庫東側フェンス,35.6704668,139.5579167,
東京都,調布市,11-3,深大寺東町4-12-7,きつね山児童遊園,35.6716934,139.5623738,
東京都,調布市,11-4,深大寺東町4-24,原山交差点側角道路沿,35.6716934,139.5623738,
東京都,調布市,11-5,深大寺東町4-35,消防大学校北の台バス停前フェンス,35.6716934,139.5623738,
東京都,調布市,11-6,深大寺東町5-14-1,深大寺児童館塀,35.6725013,139.5557409,
東京都,調布市,11-7,深大寺東町6-21-8,野ヶ谷公園西道路沿フェンス,35.6737763,139.5602497,
東京都,調布市,11-8,深大寺東町7-23-1,しいの木公園,35.6798308,139.5598269,
東京都,調布市,12-1,富士見町1-8-1,富士見児童館運動場東側フェンス,35.6583122,139.5366274,
東京都,調布市,12-2,富士見町1-33-16,青葉仲よし広場西側道路沿,35.6609181,139.5368349,
東京都,調布市,12-3,富士見町1-37-1,石原小学校東側フェンス,35.6606737,139.5378974,
東京都,調布市,12-4,富士見町2-2-52,下石原公園北側道路沿,35.658685,139.5400919,
東京都,調布市,12-5,富士見町2-16-34,富士見町二丁目児童遊園西側道路沿,35.658685,139.5400919,
東京都,調布市,12-6,富士見町3-4,富士見町倉庫南側道路沿,35.6632677,139.5400919,
東京都,調布市,12-7,富士見町3-21-34,サレジオ児童遊園東側道路,35.6620259,139.5424484,
東京都,調布市,13-1,深大寺北町3-31-8,深大寺保育園フェンス,35.6768674,139.5508839,
東京都,調布市,13-2,深大寺北町2-40-1,深大寺地域福祉センターフェンス,35.6747502,139.5516301,
東京都,調布市,13-3,深大寺北町7-25,加藤敏子氏所有農地北側道路沿い,35.675121,139.5439111,
東京都,調布市,13-4,深大寺北町4-4-3,深大寺テニスコート入口横フェンス,35.6798666,139.5528234,
東京都,調布市,13-5,深大寺北町6-43-5,ふるさと遊園,35.6790719,139.5451842,
東京都,調布市,13-6,深大寺東町8-5-27,すわくぼ東児童遊園,35.6797495,139.55537,
東京都,調布市,13-7,深大寺東町8-21-5,深大寺北児童遊園,35.6797495,139.55537,
東京都,調布市,13-8,深大寺東町8-24-20,とりで公園,35.6803804,139.5567329,
東京都,調布市,14-1,下石原3-72-1,下石原地域福祉センターフェンス,35.6475393,139.5346128,
東京都,調布市,14-2,下石原3-70-5,いなり橋児童遊園,35.6510165,139.5324543,
東京都,調布市,14-3,多摩川1-36-5,鹿島建設東京土木センター脇多摩川緑道,35.6499879,139.5299087,
東京都,調布市,14-4,多摩川1-36-1,多摩川第一仲よし広場植込,35.6488842,139.5285027,
東京都,調布市,14-5,多摩川3-13-1,恐竜児童遊園東側道路沿,35.6459191,139.5311815,
東京都,調布市,14-6,多摩川3-16-1,新川通り公園北側,35.6459191,139.5311815,
東京都,調布市,14-7,多摩川3-21-1,多摩川小学校北側フェンス,35.6469533,139.5328319,
東京都,調布市,14-8,多摩川3-21-1,多摩川小学校南門東側フェンス,35.6469533,139.5328319,
東京都,調布市,15-1,入間町1-13-2,入間町地域福祉センター東側フェンス,35.6537764,139.5873025,
東京都,調布市,15-2,入間町1-20-43,入間・原公園北側,35.654304,139.5893943,
東京都,調布市,15-3,入間町1-24,南入間町バス停北側農地,35.6532024,139.5903973,
東京都,調布市,15-4,入間町2-1-9,新井氏所有農地東側道路沿,35.6485384,139.5859382,
東京都,調布市,15-5,入間町2-2,都営調布入間町二丁目アパートバス停前フェンス,35.6485384,139.5859382,
東京都,調布市,15-6,入間町2-2,陵山公園東側,35.6485384,139.5859382,
東京都,調布市,15-7,入間町2-18-73,かすみね公園,35.6485384,139.5859382,
東京都,調布市,15-8,入間町3-3,都営入間町三丁目アパート西側入口,35.6477869,139.5897603,
東京都,調布市,16-1,飛田給1-23,京王飛田給駅前北側道路沿ガードパイプ,35.6627731,139.523056,
東京都,調布市,16-2,飛田給2-3,生長の家練成道場品川道沿塀,35.6600728,139.5235349,
東京都,調布市,16-3,飛田給2-19-1,飛田給駅南ロータリ南側仮囲,35.6585814,139.5220973,
東京都,調布市,16-4,飛田給2-25,飛田給2-25農地(品川道路沿い),35.6600728,139.5235349,
東京都,調布市,16-5,飛田給1-51-9,大塚一郎宅植込,35.6603357,139.527096,
東京都,調布市,16-6,飛田給2-39-21,飛田給児童遊園フェンス,35.6587539,139.5254119,
東京都,調布市,16-7,飛田給3-52-1,高速第4児童遊園北側道路沿,35.6555525,139.5209999,
東京都,調布市,16-8,飛田給1-54,日本郵船飛田給体育場倉庫前フェンス,35.661491,139.525272,
東京都,調布市,17-1,小島町2-20-3,皐月保育園東側フェンス,35.6511745,139.5393301,
東京都,調布市,17-2,布田4-3,調布南第2自転車駐車場フェンス,35.6494819,139.5470939,
東京都,調布市,17-3,小島町2-35-1,市役所南側道路沿い,35.6506237,139.5407548,
東京都,調布市,17-4,小島町2-62,調布西第1路上自転車駐車場東側フェンス,35.6511788,139.5413649,
東京都,調布市,17-5,布田4-30,布田四丁目第2児童遊園,35.6494819,139.5470939,
東京都,調布市,17-6,小島町2-51,調布市グリーンホール南側道路沿いガードパイプ,35.6511788,139.5413649,
東京都,調布市,17-7,小島町3-86-4,日本自転車振興会用地南側フェンス,35.6478587,139.5388189,
東京都,調布市,17-8,小島町2-35-1,市役所西側道路沿い,35.6506237,139.5407548,
東京都,調布市,18-1,染地2-8-34,染地二丁目第2緑道(D棟北側),35.6405632,139.5504161,
東京都,調布市,18-2,染地2-8-1,市被災者一時宿泊施設兼防災倉庫北側道路沿いフェンス,35.6409539,139.5498094,
東京都,調布市,18-3,染地2-8-74,ぬの多公園,35.6400546,139.5529378,
東京都,調布市,18-4,染地2-25-4,杉森小学校西側フェンス,35.6420466,139.5547947,
東京都,調布市,18-5,染地2-49,バス停「ライオンズマンション」 南側 府中用水フェンス,35.6400782,139.5521867,
東京都,調布市,18-6,国領町6-32-1,岸一郎宅塀,35.64512630000001,139.5555093,
東京都,調布市,18-7,染地2-41-12,染地児童館フェンス,35.6424221,139.5556185,
東京都,調布市,18-8,染地2-8-1,市被災者一時宿泊施設兼防災倉庫西側フェンス,35.6409539,139.5498094,
東京都,調布市,19-1,菊野台1-7-1,都営菊野台一丁目アパートフェンス,35.6541727,139.5644695,
東京都,調布市,19-2,柴崎1-57-6,柴崎一丁目児童遊園,35.6576269,139.5630106,
東京都,調布市,19-3,柴崎1-67-1,富士フィルムイメージングプロテック(株)東側フェンス,35.6584531,139.5656987,
東京都,調布市,19-4,柴崎1-7-1,都営調布柴崎一丁目アパート集会所フェンス,35.6553226,139.5634682,
東京都,調布市,19-5,柴崎1-7-1,都営調布柴崎一丁目アパート公園前フェンス,35.6553226,139.5634682,
東京都,調布市,19-6,柴崎1-38-8,光照寺仲よし広場,35.6576269,139.5630106,
東京都,調布市,19-7,柴崎1-17-2,小川滿宅佐須街道側塀,35.6580707,139.5629517,
東京都,調布市,19-8,菊野台1-5-22,菊野台一丁目第2児童遊園,35.6557308,139.5668312,
東京都,調布市,20-1,菊野台2-10-3,車橋児童遊園,35.6516406,139.5641776,
東京都,調布市,20-2,菊野台2-18-2,小川一洋宅西側駐車場フェンス(道路沿い),35.6525039,139.5660105,
東京都,調布市,20-3,菊野台2-27-14,柴崎南自転車等駐車場,35.653493,139.56745,
東京都,調布市,20-4,菊野台3-2-1,田中正行宅道路沿,35.6537783,139.5686248,
東京都,調布市,20-5,菊野台3-27-40,調布市民大町スポーツ施設西側フェンス,35.6523921,139.5718263,
東京都,調布市,20-6,菊野台3-27-40,調布市民大町スポーツ施設南側フェンス,35.6523921,139.5718263,
東京都,調布市,20-7,菊野台2-36-3,鈴木宅駐車場フェンス,35.65147280000001,139.5684829,
東京都,調布市,20-8,西つつじケ4-22-6,調和小学校正門横植込み,35.6581118,139.5753087,
東京都,調布市,21-1,国領町3-8-19,くすのき第三児童遊園,35.6477147,139.5609013,
東京都,調布市,21-2,国領町3-8-17,くすのき第一児童遊園,35.6492734,139.5609997,
東京都,調布市,21-3,国領町2-16-22,国領北自転車駐車場,35.6515008,139.5591902,
東京都,調布市,21-4,国領町3-8-23,第六中学校北西第五保育園側フェンス,35.6501822,139.5609809,
東京都,調布市,21-5,国領町3-8-23,第六中学校東側フェンス,35.6501822,139.5609809,
東京都,調布市,21-6,国領町3-17-25,都営国領町三丁目第2アパート1号棟東側,35.6502916,139.5631567,
東京都,調布市,21-7,国領町3-8-15,国領児童館東側(くすのきアパート4号棟),35.648652,139.5600825,
東京都,調布市,22-1,緑ヶ丘1-47,緑ヶ丘1丁目47番地横,35.6682606,139.5808424,
東京都,調布市,22-2,緑ヶ丘2-16-1,緑ヶ丘小学校北門横,35.6699978,139.5850834,
東京都,調布市,22-3,緑ヶ丘2-30-1,都営調布緑ヶ丘二丁目アパート1号棟北側緑地帯,35.6680241,139.5859382,
東京都,調布市,22-4,緑ヶ丘2-25,都営仙川アパート27号棟西側緑地帯,35.6680241,139.5859382,
東京都,調布市,22-5,緑ヶ丘2-25,都営仙川アパート12号棟北側緑地帯,35.6680241,139.5859382,
東京都,調布市,22-6,緑ヶ丘2-25,都営仙川アパート7号棟東側緑地帯,35.6680241,139.5859382,
東京都,調布市,22-7,緑ヶ丘2-58-14,都営調布緑ヶ丘二丁目アパート14号棟西側緑地帯,35.6680241,139.5859382,
東京都,調布市,23-1,西つつじケ4-23,神代団地1号棟東側,35.6581118,139.5753087,
東京都,調布市,23-2,西つつじケ4-23,神代団地15号棟北側,35.6581118,139.5753087,
東京都,調布市,23-3,西つつじケ4-23,神代団地37号棟北側,35.6581118,139.5753087,
東京都,調布市,23-4,西つつじケ4-23,神代団地42号棟東側,35.6581118,139.5753087,
東京都,調布市,23-5,西つつじケ4-23,神代団地21号棟南西側,35.6581118,139.5753087,
東京都,調布市,23-6,西つつじケ4-23,神代団地51号棟北側,35.6581118,139.5753087,
東京都,調布市,23-7,西つつじケ4-23,神代団地2号棟東側,35.6581118,139.5753087,
東京都,調布市,24-1,東つつじケ3-8-2,東つつじヶ丘第一仲よし広場西側フェンス,35.6506111,139.5407215,
東京都,調布市,24-2,東つつじケ2-28-28,調布市駐輪場南側植木畑,35.6506111,139.5407215,
東京都,調布市,24-3,東つつじケ3-20-6,元木氏敷地,35.6506111,139.5407215,
東京都,調布市,24-4,東つつじケ3-49,原島芳一宅前,35.6506111,139.5407215,
東京都,調布市,24-5,若葉町3-17-5,若葉小学校正門横,35.6550608,139.5829247,
東京都,調布市,24-6,若葉町3-17-5,若葉小学校北西側フェンス,35.6550608,139.5829247,
東京都,調布市,24-7,若葉町3-7-13,若葉町三丁目第二児童遊園,35.6543886,139.5833902,
東京都,調布市,24-8,若葉町3-15,第四中学校南側フェンス,35.6543886,139.5833902,
東京都,調布市,25-1,染地3-1-81,染地小学校北側フェンス,35.6421218,139.5606306,
東京都,調布市,25-2,国領町7-57,矢ヶ崎側駐車場塀,35.6439923,139.5604636,
東京都,調布市,25-3,染地3-1,多摩川住宅テニスコート西側,35.6406694,139.5606207,
東京都,調布市,25-4,染地3-1,多摩川住宅口8号棟北側公園,35.6406694,139.5606207,
東京都,調布市,25-5,染地3-1,多摩川住宅ト1号棟北側植込,35.6406694,139.5606207,
東京都,調布市,25-6,染地3-1,多摩川住宅ホ号棟北側植込,35.6406694,139.5606207,
東京都,調布市,25-7,染地3-1,多摩川住宅ホ号棟西側公園フェンス,35.6406694,139.5606207,
東京都,調布市,26-1,飛田給3-29-1,飛田給小学校北側フェンス,35.6547316,139.5230358,
東京都,調布市,26-2,上石原3-27-1,第五中学校北側フェンス,35.6521767,139.5255522,
東京都,調布市,26-3,上石原3-27-1,第五中学校南側フェンス,35.6521767,139.5255522,
東京都,調布市,26-4,上石原3-21-6,西部児童館北側フェンス,35.6529363,139.5222327,
東京都,調布市,26-5,飛田給3-39-1,飛田給小学校南側フェンス,35.6555525,139.5209999,
東京都,調布市,26-6,上石原3-60-6,二本松南公園,35.65168329999999,139.5241814,
東京都,調布市,26-7,多摩川2-29-1,東宝調布ゴルフ練習所北側フェンス,35.6492369,139.5255315,
東京都,調布市,26-8,上石原3-30,いそじろう公園フェンス,35.65168329999999,139.5241814,
東京都,調布市,27-1,布田2-3,東京電力調布営業所南側塀,35.651972,139.5490037,
東京都,調布市,27-2,布田2-26-4,下布田公園植込北側フェンス,35.6494819,139.5470939,
東京都,調布市,27-3,布田2-26-4,下布田公園植込東側フェンス,35.6494819,139.5470939,
東京都,調布市,27-4,布田2-39,山口酒店裏駐車場西側フェンス沿,35.651803,139.54843,
東京都,調布市,27-5,布田2-6,荒井守仁氏所有農地西側,35.651972,139.5490037,
東京都,調布市,27-6,布田3-58,布田3丁目遊歩道,35.6485342,139.5490037,
東京都,調布市,27-7,布田3-56,調布東第2路上自転車等駐車場,35.6485342,139.5490037,
東京都,調布市,28-1,布田6-1,回転すし店南側道路沿,35.6457282,139.5477305,
東京都,調布市,28-2,布田5-32-3,布田南部自治会館南側(白山宮南側),35.6460195,139.5447265,
東京都,調布市,28-3,布田5-46-1,こころの健康支援センター正門南側,35.6456298,139.541723,
東京都,調布市,28-4,布田5-53-22,古天神公園,35.6444987,139.5433889,
東京都,調布市,28-5,染地1-1-85,布田小学校北西フェンス,35.6430898,139.5455422,
東京都,調布市,28-6,染地1-3-48,ぬの多児童遊園道路沿,35.6415772,139.5459202,
東京都,調布市,28-7,多摩川7-40,多摩川7丁目倉庫北側フェンス,35.6421293,139.5388189,
東京都,調布市,28-8,多摩川7-19,京王テニスクラブ西側道路沿フェンス,35.6421293,139.5388189,
東京都,調布市,29-1,深大寺元町1-30-1,調布市子ども交通教室南側フェンス,35.66302090000001,139.5450648,
東京都,調布市,29-2,調布ヶ丘3-30-1,布多公園東側,35.6576142,139.5504062,
東京都,調布市,29-3,調布ヶ丘3-39-12,調布ヶ丘三丁目公園,35.6588471,139.5490037,
東京都,調布市,29-4,調布ヶ丘3-58-2,調布ヶ丘地域福祉センター,35.6598461,139.550313,
東京都,調布市,29-5,佐須町1-3-35,佐須児童遊園,35.6610213,139.5515501,
東京都,調布市,29-6,佐須町1-9-3,斉藤行信宅道路沿門塀,35.661042,139.5517719,
東京都,調布市,29-7,深大寺元町1-28-1,御塔坂児童遊園武蔵境通り側植込,35.6634483,139.5455024,
東京都,調布市,29-8,調布ヶ丘3-67-7,又住橋緑地東側,35.6588471,139.5490037,
東京都,調布市,30-1,上石原1-34-7,上石原配水所東側道路沿フェンス,35.6613441,139.5317715,
東京都,調布市,30-2,富士見町1-29,高橋宅対面畑側端,35.6605792,139.536273,
東京都,調布市,30-3,富士見町4-14-1,都営富士見町四丁目アパート内公園,35.6640677,139.5354812,
東京都,調布市,30-4,富士見町4-17-1,調布中学校正門横フェンス,35.665025,139.5353034,
東京都,調布市,30-5,富士見町4-17-1,調布中学校南側フェンス,35.665025,139.5353034,
東京都,調布市,30-6,富士見町4-19-1,電源開発武蔵野寮北側フェンス,35.6645169,139.5383034,
東京都,調布市,30-7,富士見町4-19-1,電源開発武蔵野寮南側フェンス,35.6645169,139.5383034,
東京都,調布市,31-1,緑ヶ丘1-1,緑ヶ丘第一駐車場南側植込,35.6682606,139.5808424,
東京都,調布市,31-2,緑ヶ丘1-5,くぬぎ児童遊園,35.6682606,139.5808424,
東京都,調布市,31-3,仙川町2-15-2,第八中学校体育館西側フェンス,35.6644471,139.5815987,
東京都,調布市,31-4,仙川町2-15-2,第八中学校南側フェンス,35.6644471,139.5815987,
東京都,調布市,31-5,仙川町3-6,仙川配水所東側フェンス,35.6645857,139.5859382,
東京都,調布市,31-6,仙川町3-5-1,仙川崖線緑地入口左柵沿,35.6645857,139.5859382,
東京都,調布市,31-7,仙川町3-3-45,仙川北自転車駐車場,35.6645857,139.5859382,
東京都,調布市,32-1,東つつじケ1-14-8,滝坂下仲よし広場,35.6506111,139.5407215,
東京都,調布市,32-2,東つつじケ2-3-4,つつじケ丘南第1自転車等駐車場北側空き地,35.6506111,139.5407215,
東京都,調布市,32-3,東つつじケ2-1,つつじケ丘駅南側ロータリーフェンス,35.6506111,139.5407215,
東京都,調布市,32-4,西つつじケ2-4-1,エストライフつつじケ丘東側植栽,35.6581118,139.5753087,
東京都,調布市,32-5,西つつじケ2-13-1,金子児童遊園東側道路沿い,35.6581118,139.5753087,
東京都,調布市,32-6,西つつじケ2-8-14,西つつじヶ丘緑道(るんびに幼稚園北東),35.6581118,139.5753087,
東京都,調布市,32-7,西つつじケ2-24-19,つつじヶ丘公園西側道路沿,35.6581118,139.5753087,
東京都,調布市,33-1,国領町7-30,国領町七丁目緑地,35.6439923,139.5604636,
東京都,調布市,33-2,染地3-1,多摩川住宅ハ3号棟北側植込,35.6406694,139.5606207,
東京都,調布市,33-3,染地3-2-7,第三中学校東側フェンス,35.6418414,139.5560642,
東京都,調布市,33-4,染地3-1,多摩川住宅ハ16号棟西側植込,35.6406694,139.5606207,
東京都,調布市,33-5,染地3-3,都営染地三丁目アパート1号棟西側,35.6385776,139.5598269,
東京都,調布市,33-6,染地3-8-26,調布市多摩川自然情報館南側フェンス,35.637188,139.5574453,
東京都,調布市,33-7,染地3-1,多摩川住宅ハ19号棟南側,35.6406694,139.5606207,
東京都,調布市,34-1,深大寺南町1-1-1,柏野小学校南側フェンス,35.66048,139.5557895,
東京都,調布市,34-2,深大寺南町1-1-1,柏野小学校東側フェンス,35.66048,139.5557895,
東京都,調布市,34-3,佐須町4-63-1,佐須公園南側,35.6594107,139.5588022,
東京都,調布市,34-4,佐須町4-42-2,佐須児童館,35.6585917,139.5561662,
東京都,調布市,34-5,佐須町4-1,都営調布佐須町アパート内公園,35.6567048,139.5567905,
東京都,調布市,34-6,佐須町4-1,都営調布佐須町アパート4号棟北児童公園道路沿,35.6567048,139.5567905,
東京都,調布市,34-7,佐須町3-37-1,記念の森児童遊園東側入口横,35.6585489,139.5518784,
東京都,調布市,35-1,国領町5-90,布田南ふれあい公園東側,35.64939560000001,139.5510925,
東京都,調布市,35-2,国領町5-90,布田南ふれあい公園西側,35.64939560000001,139.5510925,
東京都,調布市,35-3,布田3-28-62,布田3丁目児童遊園内フェンス,35.6494819,139.5470939,
東京都,調布市,35-4,布田3-19,イルキャンティー北側畑,35.6485342,139.5490037,
東京都,調布市,35-5,布田3-12,石森一雄氏所有畑東側フェンス,35.6485342,139.5490037,
東京都,調布市,35-6,布田3-53-3,小野一弘宅西側道路沿塀,35.6476506,139.550263,
東京都,調布市,35-7,布田3-25-4,永易運輸倉庫,35.6469861,139.5487001,
東京都,調布市,36-1,国領町8-4-15,都営国領町8丁目アパート1号棟北側,35.6478264,139.5642841,
東京都,調布市,36-2,国領町8-1-41,国領小学校正門横,35.6480081,139.5631197,
東京都,調布市,36-3,国領町8-1-41,国領小学校東側フェンス,35.6480081,139.5631197,
東京都,調布市,36-4,国領町8-8,国領調布岡公園,35.6478264,139.5642841,
東京都,調布市,36-5,国領町8-12-2,旧調布登記所南側,35.648213,139.5683949,
東京都,調布市,36-6,国領町8-3-1,東京慈恵医科大学西側フェンス,35.6455957,139.5647684,
東京都,調布市,36-7,国領町8-1-59,調布市国領ふれあいの家東側フェンス,35.6470202,139.561746,
